Origin Time       17/9/2010 19:21:09	 UTC
Lat.              36.5 N	
Long.             70.8 E	
Depth (Km)        167.0
Magnitude         6.5
 Region           Hindukush                                                        
 Above details taken from IMD 
    
Station Code      DNL
Station Lat.       30.427  N
Station Long.      78.244  E
Station Height(m) 2280.0
Site Class        B   Vs30 between 375 m/sec to 700 m/sec *  
Record Time       17.09.2010 19:24:00.594 UTC
Sampling Rate     200. Hz
 Record Duration   80.065 Sec.
 Direction         N-S (N positive)
Max. Acceleration      4.424 cm/sec**2
     
  * For reference see Site Classification link of website 
     
 Base Line Corrected and Low Pass Filtered (Cut Off at 35 Hz) Time History
 Acceleration data in cm/sec**2
    
[...]
       0.137
       0.157
       0.176
       0.196
       0.215
       0.230
       0.242
       0.255
       0.270
       0.286
       0.299
       0.306
       0.308
       0.311
       0.319
       0.330
       0.340
       0.346
       0.344
       0.337
       0.331
       0.329
       0.331
       0.333
       0.332
       0.327
       0.323
       0.322
       0.327
       0.334
       0.339
       0.337
       0.329
       0.317
       0.307
       0.301
       0.299
       0.298
       0.296
       0.294
       0.292
       0.294
       0.298
       0.304
       0.311
       0.321
       0.332
       0.343
       0.350
       0.353
       0.353
       0.352
       0.356
       0.365
       0.376
       0.384
       0.383
       0.376
       0.366
       0.357
       0.347
       0.336
       0.320
       0.301
       0.279
       0.254
       0.226
       0.199
       0.174
       0.153
       0.133
       0.114
       0.094
       0.077
       0.066
       0.062
       0.064
       0.068
       0.069
       0.069
       0.072
       0.087
       0.112
       0.136
       0.148
       0.147
       0.137
       0.127
       0.121
       0.115
       0.101
       0.076
       0.043
       0.008
      -0.027
      -0.064
      -0.105
      -0.149
      -0.193
      -0.236
      -0.276
      -0.314
      -0.351
      -0.384
      -0.414
      -0.439
      -0.461
      -0.480
      -0.497
      -0.512
      -0.526
      -0.542
      -0.557
      -0.571
      -0.582
      -0.591
      -0.601
      -0.610
      -0.615
      -0.615
      -0.608
      -0.597
      -0.583
      -0.567
      -0.545
      -0.513
      -0.471
      -0.423
      -0.373
      -0.323
      -0.273
      -0.219
      -0.162
      -0.102
      -0.045
       0.010
       0.061
       0.113
       0.163
       0.212
       0.257
       0.298
       0.339
       0.380
       0.420
       0.455
       0.481
       0.499
       0.512
       0.522
       0.531
       0.538
       0.541
       0.538
       0.528
       0.511
       0.492
       0.469
       0.442
       0.408
       0.368
       0.322
       0.276
       0.229
       0.181
       0.132
       0.081
       0.032
      -0.012
      -0.052
      -0.088
      -0.124
      -0.160
      -0.194
      -0.222
      -0.244
      -0.259
      -0.268
      -0.271
      -0.267
      -0.256
      -0.239
      -0.214
      -0.184
      -0.146
      -0.102
      -0.055
      -0.009
       0.033
       0.071
       0.109
       0.148
       0.185
       0.217
       0.243
       0.262
       0.275
       0.282
       0.284
       0.284
       0.284
       0.283
       0.279
       0.269
       0.254
       0.236
       0.221
       0.211
       0.203
       0.194
       0.182
       0.166
       0.150
       0.136
       0.130
       0.130
       0.131
       0.128
       0.118
       0.105
       0.094
       0.086
       0.081
       0.077
       0.071
       0.063
       0.050
       0.034
       0.016
       0.000
      -0.015
      -0.031
      -0.053
      -0.082
      -0.116
      -0.147
      -0.172
      -0.193
      -0.212
      -0.228
      -0.241
      -0.249
      -0.251
      -0.253
      -0.256
      -0.257
      -0.253
      -0.244
      -0.232
      -0.225
      -0.222
      -0.220
      -0.216
      -0.210
      -0.205
      -0.203
      -0.205
      -0.209
      -0.214
      -0.218
      -0.222
      -0.225
      -0.225
      -0.222
      -0.217
      -0.211
      -0.205
      -0.201
      -0.195
      -0.188
      -0.177
      -0.163
      -0.147
      -0.130
      -0.116
      -0.102
      -0.085
      -0.064
      -0.040
      -0.016
       0.004
       0.022
       0.043
       0.068
       0.096
       0.120
       0.135
       0.143
       0.148
       0.156
       0.165
       0.173
       0.177
       0.175
       0.167
       0.153
       0.136
       0.118
       0.102
       0.089
       0.082
       0.078
       0.078
       0.080
       0.085
       0.090
       0.095
       0.097
       0.095
       0.085
       0.068
       0.045
       0.018
      -0.007
      -0.030
      -0.052
      -0.075
      -0.100
      -0.125
      -0.146
      -0.164
      -0.185
      -0.212
      -0.245
      -0.277
      -0.304
      -0.323
      -0.332
      -0.336
      -0.337
      -0.335
      -0.331
      -0.324
      -0.316
      -0.306
      -0.296
      -0.286
      -0.276
      -0.265
      -0.250
      -0.231
      -0.212
      -0.197
      -0.187
      -0.180
      -0.170
      -0.156
      -0.141
      -0.131
      -0.127
      -0.126
      -0.122
      -0.114
      -0.100
      -0.085
      -0.068
      -0.049
      -0.029
      -0.007
       0.018
       0.047
       0.084
       0.128
       0.177
       0.226
       0.273
       0.318
       0.364
       0.412
       0.461
       0.510
       0.557
       0.601
       0.641
       0.679
       0.714
       0.745
       0.772
       0.795
       0.815
       0.833
       0.846
       0.855
       0.862
       0.864
       0.862
       0.850
       0.824
       0.788
       0.747
       0.707
       0.667
       0.622
       0.568
       0.502
       0.428
       0.349
       0.268
       0.187
       0.106
       0.025
      -0.057
      -0.140
      -0.223
      -0.301
      -0.371
      -0.431
      -0.481
      -0.521
      -0.553
      -0.577
      -0.592
      -0.599
      -0.602
      -0.603
      -0.604
      -0.601
      -0.594
      -0.582
      -0.568
      -0.556
      -0.547
      -0.543
      -0.542
      -0.542
      -0.542
      -0.538
      -0.530
      -0.519
      -0.502
      -0.481
      -0.457
      -0.432
      -0.408
      -0.381
      -0.347
      -0.303
      -0.249
      -0.190
      -0.130
      -0.068
       0.000
       0.071
       0.143
       0.212
       0.275
       0.334
       0.392
       0.447
       0.495
       0.535
       0.566
       0.592
       0.613
       0.627
       0.634
       0.635
       0.629
       0.612
       0.584
       0.547
       0.506
       0.464
       0.423
       0.380
       0.332
       0.279
       0.222
       0.165
       0.109
       0.054
       0.000
      -0.057
      -0.121
      -0.193
      -0.272
      -0.351
      -0.428
      -0.505
      -0.589
      -0.684
      -0.788
      -0.893
      -0.992
      -1.084
      -1.174
      -1.264
      -1.351
      -1.432
      -1.502
      -1.561
      -1.608
      -1.643
      -1.663
      -1.668
      -1.661
      -1.642
      -1.612
      -1.570
      -1.517
      -1.456
      -1.386
      -1.306
      -1.214
      -1.112
      -1.001
      -0.887
      -0.772
      -0.657
      -0.543
      -0.430
      -0.317
      -0.206
      -0.099
       0.003
       0.100
       0.189
       0.269
       0.342
       0.409
       0.475
       0.539
       0.600
       0.651
       0.694
       0.735
       0.779
       0.829
       0.882
       0.934
       0.987
       1.045
       1.113
       1.190
       1.269
       1.342
       1.408
       1.472
       1.543
       1.625
       1.712
       1.791
       1.854
       1.901
       1.936
       1.963
       1.978
       1.977
       1.955
       1.919
       1.874
       1.823
       1.763
       1.688
       1.592
       1.478
       1.353
       1.222
       1.086
       0.943
       0.790
       0.627
       0.461
       0.298
       0.136
      -0.028
      -0.193
      -0.355
      -0.505
      -0.641
      -0.765
      -0.880
      -0.987
      -1.086
      -1.175
      -1.253
      -1.316
      -1.362
      -1.388
      -1.394
      -1.384
      -1.362
      -1.331
      -1.289
      -1.235
      -1.168
      -1.092
      -1.013
      -0.933
      -0.850
      -0.762
      -0.671
      -0.579
      -0.490
      -0.404
      -0.321
      -0.241
      -0.167
      -0.102
      -0.049
      -0.009
       0.020
       0.039
       0.054
       0.064
       0.070
       0.070
       0.066
       0.065
       0.070
       0.083
       0.101
       0.121
       0.145
       0.174
       0.208
       0.248
       0.291
       0.340
       0.392
       0.446
       0.498
       0.543
       0.577
       0.598
       0.607
       0.603
       0.588
       0.564
       0.532
       0.492
       0.444
       0.388
       0.323
       0.245
       0.157
       0.062
      -0.034
      -0.129
      -0.222
      -0.315
      -0.410
      -0.505
      -0.598
      -0.684
      -0.764
      -0.838
      -0.910
      -0.980
      -1.048
      -1.112
      -1.171
      -1.226
      -1.277
      -1.326
      -1.375
      -1.425
      -1.471
      -1.508
      -1.529
      -1.535
      -1.529
      -1.513
      -1.487
      -1.446
      -1.390
      -1.317
      -1.227
      -1.123
      -1.006
      -0.880
      -0.744
      -0.597
      -0.437
      -0.265
      -0.090
       0.081
       0.247
       0.410
       0.573
       0.735
       0.889
       1.029
       1.154
       1.267
       1.373
       1.472
       1.558
       1.626
       1.675
       1.711
       1.739
       1.763
       1.781
       1.787
       1.779
       1.760
       1.733
       1.703
       1.669
       1.630
       1.583
       1.527
       1.459
       1.378
       1.287
       1.194
       1.108
       1.029
       0.952
       0.869
       0.778
       0.687
       0.604
       0.536
       0.480
       0.432
       0.389
       0.352
       0.321
       0.299
       0.284
       0.274
       0.266
       0.255
       0.238
       0.216
       0.189
       0.160
       0.126
       0.089
       0.050
       0.012
      -0.024
      -0.060
      -0.099
      -0.140
      -0.180
      -0.215
      -0.243
      -0.263
      -0.272
      -0.270
      -0.258
      -0.240
      -0.216
      -0.188
      -0.151
      -0.104
      -0.045
       0.023
       0.099
       0.179
       0.258
       0.333
       0.404
       0.475
       0.547
       0.619
       0.686
       0.744
       0.793
       0.835
       0.872
       0.906
       0.932
       0.947
       0.950
       0.941
       0.921
       0.892
       0.851
       0.796
       0.727
       0.646
       0.556
       0.460
       0.356
       0.242
       0.115
      -0.025
      -0.174
      -0.329
      -0.488
      -0.649
      -0.811
      -0.974
      -1.133
      -1.288
      -1.438
      -1.584
      -1.725
      -1.857
      -1.974
      -2.073
      -2.154
      -2.219
      -2.270
      -2.308
      -2.335
      -2.351
      -2.355
      -2.347
      -2.331
      -2.310
      -2.286
      -2.260
      -2.231
      -2.200
      -2.166
      -2.130
      -2.092
      -2.051
      -2.007
      -1.957
      -1.899
      -1.831
      -1.751
      -1.659
      -1.553
      -1.435
      -1.306
      -1.167
      -1.020
      -0.863
      -0.695
      -0.519
      -0.336
      -0.148
       0.044
       0.243
       0.446
       0.650
       0.850
       1.043
       1.227
       1.401
       1.563
       1.711
       1.843
       1.960
       2.060
       2.142
       2.201
       2.237
       2.252
       2.252
       2.239
       2.215
       2.178
       2.127
       2.063
       1.993
       1.921
       1.851
       1.782
       1.713
       1.645
       1.580
       1.522
       1.472
       1.430
       1.390
       1.352
       1.314
       1.279
       1.246
       1.213
       1.180
       1.146
       1.113
       1.076
       1.033
       0.983
       0.932
       0.885
       0.840
       0.792
       0.736
       0.667
       0.590
       0.509
       0.430
       0.354
       0.279
       0.200
       0.113
       0.022
      -0.072
      -0.165
      -0.260
      -0.357
      -0.459
      -0.560
      -0.660
      -0.754
      -0.845
      -0.934
      -1.019
      -1.101
      -1.177
      -1.246
      -1.304
      -1.351
      -1.387
      -1.412
      -1.429
      -1.439
      -1.440
      -1.433
      -1.418
      -1.394
      -1.361
      -1.316
      -1.257
      -1.185
      -1.104
      -1.018
      -0.928
      -0.831
      -0.723
      -0.606
      -0.485
      -0.366
      -0.251
      -0.138
      -0.029
       0.070
       0.156
       0.228
       0.293
       0.354
       0.406
       0.444
       0.464
       0.468
       0.464
       0.454
       0.437
       0.411
       0.372
       0.325
       0.271
       0.215
       0.159
       0.102
       0.045
      -0.013
      -0.067
      -0.116
      -0.157
      -0.187
      -0.207
      -0.221
      -0.231
      -0.238
      -0.239
      -0.234
      -0.226
      -0.220
      -0.218
      -0.221
      -0.229
      -0.246
      -0.275
      -0.316
      -0.367
      -0.425
      -0.491
      -0.567
      -0.653
      -0.748
      -0.850
      -0.959
      -1.076
      -1.199
      -1.327
      -1.456
      -1.584
      -1.706
      -1.821
      -1.930
      -2.033
      -2.130
      -2.217
      -2.292
      -2.354
      -2.398
      -2.423
      -2.424
      -2.399
      -2.348
      -2.272
      -2.176
      -2.062
      -1.930
      -1.777
      -1.599
      -1.400
      -1.187
      -0.964
      -0.734
      -0.497
      -0.255
      -0.008
       0.240
       0.487
       0.728
       0.960
       1.180
       1.389
       1.590
       1.788
       1.983
       2.173
       2.356
       2.531
       2.700
       2.864
       3.022
       3.174
       3.320
       3.461
       3.598
       3.732
       3.859
       3.978
       4.085
       4.181
       4.264
       4.333
       4.385
       4.415
       4.424
       4.412
       4.381
       4.331
       4.260
       4.167
       4.051
       3.910
       3.746
       3.561
       3.358
       3.143
       2.916
       2.675
       2.419
       2.149
       1.870
       1.585
       1.298
       1.010
       0.725
       0.449
       0.184
      -0.070
      -0.313
      -0.546
      -0.767
      -0.977
      -1.174
      -1.357
      -1.526
      -1.681
      -1.827
      -1.970
      -2.115
      -2.262
      -2.409
      -2.555
      -2.701
      -2.851
      -3.005
      -3.160
      -3.312
      -3.459
      -3.601
      -3.739
      -3.869
      -3.986
      -4.090
      -4.178
      -4.250
      -4.304
      -4.338
      -4.350
      -4.339
      -4.306
      -4.247
      -4.160
      -4.044
      -3.900
      -3.731
      -3.540
      -3.328
      -3.097
      -2.848
      -2.584
      -2.307
      -2.023
      -1.738
      -1.457
      -1.185
      -0.926
      -0.684
      -0.460
      -0.255
      -0.068
       0.100
       0.248
       0.378
       0.492
       0.591
       0.674
       0.742
       0.797
       0.840
       0.873
       0.898
       0.916
       0.933
       0.953
       0.977
       1.005
       1.034
       1.067
       1.103
       1.141
       1.182
       1.223
       1.263
       1.301
       1.337
       1.371
       1.401
       1.426
       1.442
       1.452
       1.458
       1.465
       1.475
       1.488
       1.501
       1.513
       1.522
       1.531
       1.543
       1.561
       1.583
       1.607
       1.633
       1.657
       1.681
       1.703
       1.725
       1.747
       1.767
       1.782
       1.785
       1.776
       1.759
       1.738
       1.715
       1.687
       1.646
       1.590
       1.518
       1.436
       1.348
       1.259
       1.170
       1.079
       0.981
       0.872
       0.756
       0.644
       0.545
       0.459
       0.377
       0.295
       0.212
       0.136
       0.068
       0.004
      -0.059
      -0.124
      -0.190
      -0.255
      -0.321
      -0.388
      -0.455
      -0.522
      -0.592
      -0.667
      -0.749
      -0.835
      -0.923
      -1.006
      -1.081
      -1.148
      -1.208
      -1.264
      -1.315
      -1.357
      -1.386
      -1.399
      -1.396
      -1.379
      -1.350
      -1.308
      -1.252
      -1.181
      -1.099
      -1.008
      -0.913
      -0.815
      -0.715
      -0.609
      -0.498
      -0.383
      -0.271
      -0.166
      -0.071
       0.017
       0.101
       0.178
       0.248
       0.312
       0.371
       0.429
       0.484
       0.533
       0.576
       0.615
       0.652
       0.690
       0.726
       0.760
       0.789
       0.813
       0.831
       0.841
       0.845
       0.841
       0.826
       0.797
       0.755
       0.703
       0.646
       0.584
       0.513
       0.431
       0.338
       0.242
       0.148
       0.059
      -0.026
      -0.112
      -0.202
      -0.297
      -0.392
      -0.484
      -0.572
      -0.659
      -0.747
      -0.835
      -0.917
      -0.990
      -1.052
      -1.105
      -1.150
      -1.189
      -1.221
      -1.247
      -1.266
      -1.280
      -1.288
      -1.287
      -1.281
      -1.276
      -1.273
      -1.272
      -1.271
      -1.269
      -1.270
      -1.275
      -1.283
      -1.287
      -1.284
      -1.272
      -1.253
      -1.230
      -1.200
      -1.159
      -1.105
      -1.036
      -0.954
      -0.861
      -0.763
      -0.665
      -0.572
      -0.482
      -0.393
      -0.302
      -0.209
      -0.117
      -0.029
       0.055
       0.136
       0.215
       0.290
       0.360
       0.426
       0.493
       0.562
       0.634
       0.707
       0.781
       0.857
       0.939
       1.028
       1.123
       1.221
       1.323
       1.428
       1.534
       1.636
       1.730
       1.814
       1.891
       1.962
       2.025
       2.076
       2.113
       2.135
       2.144
       2.139
       2.120
       2.085
       2.034
       1.968
       1.890
       1.804
       1.715
       1.624
       1.531
       1.435
       1.334
       1.232
       1.131
       1.030
       0.925
       0.817
       0.710
       0.609
       0.514
       0.421
       0.327
       0.230
       0.135
       0.044
      -0.042
      -0.127
      -0.214
      -0.305
      -0.398
      -0.490
      -0.582
      -0.674
      -0.771
      -0.873
      -0.978
      -1.082
      -1.183
      -1.281
      -1.376
      -1.466
      -1.549
      -1.625
      -1.695
      -1.760
      -1.817
      -1.862
      -1.891
      -1.906
      -1.909
      -1.901
      -1.886
      -1.863
      -1.829
      -1.782
      -1.720
      -1.647
      -1.570
      -1.495
      -1.425
      -1.352
      -1.272
      -1.179
      -1.080
      -0.979
      -0.882
      -0.786
      -0.686
      -0.579
      -0.467
      -0.357
      -0.249
      -0.138
      -0.021
       0.102
       0.222
       0.335
       0.442
       0.546
       0.652
       0.756
       0.854
       0.941
       1.015
       1.081
       1.140
       1.190
       1.228
       1.252
       1.264
       1.271
       1.272
       1.267
       1.250
       1.220
       1.181
       1.138
       1.094
       1.051
       1.003
       0.950
       0.891
       0.830
       0.771
       0.714
       0.654
       0.589
       0.515
       0.431
       0.338
       0.240
       0.136
       0.026
      -0.088
      -0.199
      -0.302
      -0.395
      -0.480
      -0.560
      -0.639
      -0.711
      -0.772
      -0.818
      -0.849
      -0.868
      -0.881
      -0.891
      -0.898
      -0.900
      -0.898
      -0.893
      -0.890
      -0.892
      -0.895
      -0.897
      -0.890
      -0.875
      -0.857
      -0.840
      -0.828
