Origin Time       03/5/2010 17:15:08	
Lat.              30.4 N	
Long.             78.4 E	
Depth (Km)          8.0
Magnitude         3.5
 Region           Uttarakhand                                                      
 Above details taken from IMD 
   
Station Code      DHA
Station Lat.       30.427
Station Long.      78.244
Station Height(m) 2280.0
Site Class        B   Vs30 between 375 m/sec to 700 m/sec *  
Record Time       03.05.2010 17:14:57.969
Sampling Rate     200. Hz
 Record Duration   67.010 Sec.
 Direction         Vert. (Up positive)
Max. Acceleration     10.078 cm/sec**2
     
  * For reference see Site Classification link of website 
     
 Base Line Corrected and Low Pass Filtered (Cut Off at 35 Hz) Time History
 Acceleration data in cm/sec**2
    
[...]
      -0.001
       0.001
       0.001
      -0.001
      -0.004
      -0.004
      -0.001
       0.000
      -0.001
      -0.002
      -0.002
       0.002
       0.006
       0.005
      -0.001
      -0.009
      -0.012
      -0.010
      -0.004
       0.000
       0.000
      -0.001
       0.000
       0.004
       0.006
       0.005
       0.001
      -0.004
      -0.005
      -0.005
      -0.005
      -0.007
      -0.008
      -0.006
      -0.004
      -0.003
      -0.005
      -0.004
       0.002
       0.012
       0.018
       0.016
       0.005
      -0.006
      -0.010
      -0.007
      -0.001
       0.004
       0.006
       0.007
       0.008
       0.009
       0.008
       0.007
       0.006
       0.005
       0.003
      -0.001
      -0.005
      -0.007
      -0.005
       0.001
       0.008
       0.010
       0.007
      -0.001
      -0.007
      -0.008
      -0.004
       0.001
       0.002
       0.000
      -0.002
      -0.003
      -0.003
      -0.002
      -0.002
      -0.002
       0.001
       0.006
       0.010
       0.013
       0.015
       0.017
       0.018
       0.016
       0.013
       0.009
       0.006
       0.006
       0.009
       0.012
       0.014
       0.014
       0.011
       0.007
       0.003
       0.000
      -0.003
      -0.005
      -0.007
      -0.007
      -0.003
       0.003
       0.010
       0.012
       0.010
       0.005
       0.000
      -0.004
      -0.006
      -0.006
      -0.006
      -0.005
      -0.003
      -0.002
      -0.001
       0.000
      -0.001
      -0.003
      -0.006
      -0.007
      -0.008
      -0.006
      -0.003
       0.002
       0.006
       0.005
       0.002
       0.000
       0.000
       0.003
       0.006
       0.006
       0.003
      -0.002
      -0.007
      -0.010
      -0.012
      -0.012
      -0.009
      -0.004
       0.002
       0.006
       0.004
      -0.002
      -0.009
      -0.013
      -0.013
      -0.008
      -0.003
       0.001
       0.001
      -0.001
      -0.003
      -0.004
      -0.003
       0.001
       0.004
       0.004
       0.000
      -0.008
      -0.015
      -0.015
      -0.008
       0.002
       0.010
       0.011
       0.006
       0.000
      -0.004
      -0.004
       0.000
       0.006
       0.011
       0.011
       0.006
       0.001
       0.000
       0.002
       0.006
       0.010
       0.013
       0.012
       0.007
       0.001
      -0.004
      -0.004
      -0.001
       0.001
       0.001
      -0.002
      -0.004
      -0.002
       0.002
       0.007
       0.007
       0.004
       0.000
      -0.001
       0.001
       0.003
       0.005
       0.006
       0.007
       0.007
       0.005
       0.000
      -0.003
      -0.003
      -0.001
       0.001
       0.001
       0.000
       0.001
       0.005
       0.006
       0.004
       0.000
       0.001
       0.007
       0.014
       0.017
       0.014
       0.009
       0.007
       0.011
       0.017
       0.023
       0.023
       0.019
       0.013
       0.007
       0.002
       0.000
       0.000
       0.003
       0.005
       0.007
       0.007
       0.007
       0.007
       0.006
       0.006
       0.009
       0.011
       0.013
       0.010
       0.004
      -0.002
      -0.004
      -0.001
       0.007
       0.013
       0.014
       0.010
       0.006
       0.004
       0.006
       0.012
       0.019
       0.022
       0.019
       0.011
       0.003
       0.000
       0.004
       0.011
       0.014
       0.010
       0.003
      -0.002
       0.002
       0.009
       0.014
       0.010
       0.001
      -0.005
      -0.004
       0.003
       0.009
       0.010
       0.008
       0.006
       0.007
       0.011
       0.013
       0.014
       0.014
       0.016
       0.019
       0.020
       0.017
       0.010
       0.004
       0.003
       0.004
       0.006
       0.005
       0.002
       0.000
       0.001
       0.006
       0.011
       0.015
       0.013
       0.007
      -0.001
      -0.004
      -0.001
       0.006
       0.012
       0.013
       0.007
      -0.002
      -0.007
      -0.004
       0.005
       0.015
       0.016
       0.010
       0.000
      -0.006
      -0.004
       0.003
       0.010
       0.011
       0.008
       0.003
       0.001
       0.001
       0.004
       0.006
       0.010
       0.017
       0.024
       0.026
       0.022
       0.014
       0.006
       0.003
       0.001
       0.000
      -0.003
      -0.004
      -0.002
       0.001
       0.002
       0.000
      -0.004
      -0.005
      -0.003
       0.001
       0.005
       0.006
       0.003
       0.000
       0.001
       0.003
       0.005
       0.002
      -0.003
      -0.006
      -0.004
       0.002
       0.006
       0.003
      -0.005
      -0.011
      -0.011
      -0.006
       0.000
       0.004
       0.005
       0.004
       0.000
      -0.004
      -0.005
      -0.002
       0.005
       0.011
       0.011
       0.004
      -0.005
      -0.009
      -0.006
       0.002
       0.008
       0.007
       0.003
       0.000
       0.004
       0.010
       0.015
       0.017
       0.017
       0.016
       0.016
       0.014
       0.009
       0.004
       0.002
       0.005
       0.006
       0.003
      -0.004
      -0.010
      -0.010
      -0.003
       0.007
       0.017
       0.022
       0.022
       0.017
       0.011
       0.006
       0.005
       0.008
       0.009
       0.007
       0.002
      -0.001
       0.000
       0.004
       0.007
       0.007
       0.005
       0.001
      -0.002
      -0.006
      -0.009
      -0.010
      -0.007
      -0.001
       0.004
       0.006
       0.004
       0.002
       0.004
       0.011
       0.017
       0.018
       0.010
      -0.001
      -0.009
      -0.011
      -0.008
      -0.003
       0.001
       0.003
       0.005
       0.004
      -0.001
      -0.006
      -0.007
      -0.005
       0.000
       0.003
       0.004
       0.003
       0.004
       0.005
       0.005
       0.004
       0.005
       0.007
       0.009
       0.008
       0.004
       0.000
       0.000
       0.007
       0.018
       0.024
       0.020
       0.007
      -0.006
      -0.008
       0.002
       0.014
       0.019
       0.015
       0.007
       0.002
       0.000
       0.001
       0.002
       0.004
       0.007
       0.009
       0.009
       0.007
       0.005
       0.006
       0.008
       0.009
       0.008
       0.006
       0.003
       0.000
      -0.003
      -0.009
      -0.015
      -0.019
      -0.016
      -0.007
       0.003
       0.010
       0.010
       0.005
      -0.002
      -0.007
      -0.007
      -0.003
       0.006
       0.014
       0.016
       0.011
       0.004
       0.001
       0.005
       0.011
       0.013
       0.008
       0.001
      -0.002
       0.001
       0.004
       0.004
       0.001
      -0.001
       0.000
       0.002
       0.004
       0.004
       0.003
       0.002
       0.001
       0.001
       0.003
       0.006
       0.011
       0.014
       0.012
       0.006
       0.002
       0.002
       0.006
       0.007
       0.004
      -0.001
      -0.005
      -0.005
      -0.005
      -0.005
      -0.005
      -0.002
       0.003
       0.007
       0.005
      -0.002
      -0.012
      -0.019
      -0.020
      -0.016
      -0.010
      -0.007
      -0.008
      -0.012
      -0.015
      -0.015
      -0.010
      -0.004
       0.001
       0.004
       0.005
       0.004
       0.005
       0.007
       0.010
       0.013
       0.014
       0.013
       0.009
       0.005
       0.003
       0.002
       0.002
       0.003
       0.005
       0.007
       0.009
       0.015
       0.031
       0.071
       0.156
       0.308
       0.544
       0.870
       1.272
       1.708
       2.103
       2.337
       2.269
       1.789
       0.883
      -0.331
      -1.638
      -2.801
      -3.641
      -4.068
      -4.057
      -3.651
      -2.980
      -2.242
      -1.582
      -0.968
      -0.249
       0.606
       1.385
       1.821
       1.898
       1.878
       1.948
       1.918
       1.396
       0.346
      -0.614
      -0.644
       0.480
       2.001
       2.783
       2.348
       1.283
       0.553
       0.475
       0.459
      -0.223
      -1.526
      -2.602
      -2.673
      -1.827
      -0.920
      -0.723
      -1.245
      -1.878
      -2.062
      -1.704
      -1.019
      -0.184
       0.748
       1.686
       2.429
       2.794
       2.738
       2.333
       1.670
       0.873
       0.197
      -0.018
       0.366
       1.012
       1.267
       0.715
      -0.417
      -1.465
      -1.964
      -2.038
      -2.110
      -2.286
      -2.142
      -1.214
       0.327
       1.624
       1.861
       1.037
      -0.029
      -0.487
      -0.231
       0.102
      -0.132
      -0.894
      -1.522
      -1.399
      -0.518
       0.592
       1.376
       1.644
       1.537
       1.224
       0.761
       0.225
      -0.152
      -0.128
       0.261
       0.677
       0.788
       0.577
       0.294
       0.134
       0.020
      -0.242
      -0.650
      -0.920
      -0.790
      -0.360
      -0.067
      -0.259
      -0.815
      -1.225
      -1.065
      -0.390
       0.349
       0.723
       0.665
       0.396
       0.120
      -0.142
      -0.423
      -0.605
      -0.434
       0.234
       1.192
       1.945
       2.046
       1.424
       0.409
      -0.520
      -1.043
      -1.146
      -1.046
      -0.994
      -1.112
      -1.351
      -1.553
      -1.545
      -1.253
      -0.796
      -0.460
      -0.479
      -0.792
      -1.014
      -0.744
       0.059
       0.985
       1.511
       1.466
       1.183
       1.177
       1.659
       2.355
       2.796
       2.767
       2.453
       2.147
       1.866
       1.307
       0.201
      -1.315
      -2.703
      -3.415
      -3.300
      -2.620
      -1.722
      -0.759
       0.259
       1.192
       1.681
       1.397
       0.400
      -0.814
      -1.659
      -1.879
      -1.646
      -1.258
      -0.802
      -0.134
       0.836
       1.881
       2.550
       2.556
       2.057
       1.533
       1.364
       1.506
       1.536
       0.981
      -0.331
      -2.108
      -3.696
      -4.411
      -3.934
      -2.513
      -0.820
       0.455
       1.012
       1.065
       1.092
       1.434
       2.059
       2.632
       2.750
       2.132
       0.735
      -1.156
      -2.937
      -3.906
      -3.675
      -2.486
      -1.080
      -0.142
       0.245
       0.609
       1.504
       2.878
       4.008
       4.066
       2.774
       0.565
      -1.774
      -3.562
      -4.405
      -4.108
      -2.654
      -0.373
       1.916
       3.182
       2.832
       1.193
      -0.680
      -1.784
      -1.825
      -1.202
      -0.441
       0.269
       0.973
       1.503
       1.328
       0.005
      -2.217
      -4.307
      -5.072
      -3.947
      -1.300
       1.918
       4.782
       6.728
       7.485
       6.907
       5.010
       2.142
      -1.011
      -3.677
      -5.283
      -5.562
      -4.509
      -2.372
       0.282
       2.571
       3.598
       2.948
       1.005
      -1.236
      -2.771
      -3.133
      -2.485
      -1.321
      -0.092
       0.955
       1.728
       2.187
       2.303
       2.070
       1.540
       0.829
       0.106
      -0.451
      -0.737
      -0.798
      -0.824
      -1.006
      -1.349
      -1.646
      -1.643
      -1.236
      -0.546
       0.181
       0.711
       0.928
       0.832
       0.510
       0.100
      -0.246
      -0.418
      -0.386
      -0.208
       0.004
       0.103
      -0.043
      -0.432
      -0.820
      -0.787
      -0.052
       1.161
       2.118
       2.090
       1.003
      -0.419
      -1.284
      -1.385
      -1.372
      -2.015
      -3.259
      -4.085
      -3.373
      -0.965
       2.113
       4.474
       5.403
       5.139
       4.316
       3.308
       2.178
       1.047
       0.264
       0.076
       0.256
       0.221
      -0.405
      -1.425
      -2.308
      -2.775
      -3.047
      -3.476
      -3.993
      -4.056
      -3.200
      -1.569
       0.168
       1.404
       2.005
       2.135
       1.830
       0.931
      -0.491
      -1.780
      -2.004
      -0.774
       1.250
       2.777
       2.892
       1.692
       0.035
      -1.252
      -1.866
      -1.904
      -1.472
      -0.593
       0.574
       1.625
       2.192
       2.310
       2.379
       2.676
       2.949
       2.633
       1.510
       0.077
      -0.827
      -0.805
      -0.262
       0.002
      -0.463
      -1.437
      -2.365
      -2.921
      -3.186
      -3.334
      -3.272
      -2.687
      -1.426
       0.231
       1.685
       2.405
       2.263
       1.629
       1.192
       1.628
       3.205
       5.502
       7.483
       8.015
       6.582
       3.626
       0.233
      -2.586
      -4.440
      -5.524
      -6.133
      -6.193
      -5.277
      -3.163
      -0.417
       1.637
       1.733
      -0.310
      -3.269
      -5.322
      -5.386
      -3.862
      -2.143
      -1.322
      -1.280
      -0.946
       0.535
       2.817
       4.490
       4.240
       1.971
      -1.139
      -3.632
      -4.809
      -4.913
      -4.512
      -3.886
      -2.993
      -1.837
      -0.656
       0.335
       1.282
       2.622
       4.606
       6.949
       8.975
      10.078
      10.016
       8.845
       6.732
       3.958
       1.032
      -1.371
      -2.742
      -3.053
      -2.713
      -2.195
      -1.733
      -1.384
      -1.294
      -1.722
      -2.686
      -3.662
      -3.796
      -2.599
      -0.504
       1.338
       1.911
       1.111
      -0.266
      -1.267
      -1.532
      -1.425
      -1.528
      -2.047
      -2.661
      -2.844
      -2.274
      -1.013
       0.590
       2.126
       3.331
       4.175
       4.785
       5.262
       5.543
       5.428
       4.758
       3.582
       2.174
       0.861
      -0.164
      -0.894
      -1.405
      -1.735
      -1.881
      -1.869
      -1.769
      -1.637
      -1.483
      -1.326
      -1.272
      -1.512
      -2.164
      -3.083
      -3.836
      -3.953
      -3.303
      -2.268
      -1.508
      -1.504
      -2.244
      -3.291
      -4.108
      -4.355
      -3.968
      -3.089
      -1.965
      -0.875
      -0.047
       0.453
       0.764
       1.116
       1.603
       2.057
       2.181
       1.862
       1.359
       1.140
       1.467
       2.116
       2.555
       2.435
       1.963
       1.779
       2.445
       3.999
       5.946
       7.632
       8.582
       8.550
       7.400
       5.124
       2.024
      -1.244
      -3.946
      -5.686
      -6.533
      -6.772
      -6.559
      -5.888
      -4.833
      -3.724
      -2.982
      -2.758
      -2.766
      -2.494
      -1.593
      -0.086
       1.730
       3.474
       4.752
       5.144
       4.331
       2.363
      -0.191
      -2.474
      -3.820
      -4.075
      -3.479
      -2.281
      -0.530
       1.750
       4.255
       6.352
       7.395
       7.109
       5.725
       3.790
       1.857
       0.270
      -0.877
      -1.679
      -2.313
      -2.877
      -3.268
      -3.250
      -2.710
      -1.905
      -1.413
      -1.719
      -2.800
      -4.087
      -4.911
      -5.029
      -4.748
      -4.546
      -4.595
      -4.628
      -4.233
      -3.244
      -1.856
      -0.423
       0.806
       1.760
       2.456
       2.930
       3.273
       3.636
       4.091
       4.476
       4.449
       3.777
       2.572
       1.231
       0.131
      -0.588
      -0.951
      -0.937
      -0.437
       0.541
       1.695
       2.559
       2.894
       2.945
       3.231
       4.010
       4.966
       5.468
       5.139
       4.151
       2.976
       1.872
       0.694
      -0.793
      -2.467
      -3.820
      -4.398
      -4.206
      -3.637
      -3.030
      -2.366
      -1.446
      -0.308
       0.638
       0.959
       0.639
       0.073
      -0.387
      -0.825
      -1.597
      -2.797
      -3.962
      -4.422
      -3.912
      -2.767
      -1.493
      -0.240
       1.187
       2.797
       4.039
       4.134
       2.875
       1.000
      -0.360
      -0.658
      -0.348
      -0.325
      -0.993
      -1.908
      -2.305
      -1.907
      -1.168
      -0.754
      -0.911
      -1.374
      -1.810
      -2.223
      -2.841
      -3.657
      -4.226
      -4.011
      -2.925
      -1.450
      -0.212
       0.552
       1.114
       1.868
       2.868
       3.778
       4.227
       4.143
       3.745
       3.249
       2.646
       1.778
       0.635
      -0.469
      -1.064
      -0.886
      -0.075
       0.943
       1.735
       2.069
       1.954
       1.554
       1.066
       0.619
       0.201
      -0.319
      -1.031
      -1.797
      -2.253
      -2.075
      -1.264
      -0.166
       0.850
       1.718
       2.657
       3.811
       4.948
       5.571
       5.346
       4.402
       3.166
       1.911
       0.515
      -1.273
      -3.338
      -5.041
      -5.641
      -4.904
      -3.331
      -1.787
      -0.902
      -0.766
      -1.101
      -1.605
      -2.120
      -2.588
      -2.965
      -3.244
      -3.500
      -3.819
      -4.154
      -4.265
      -3.894
      -3.001
      -1.849
      -0.800
      -0.039
       0.516
       1.063
       1.694
       2.346
       2.915
       3.374
       3.720
       3.852
       3.566
       2.741
       1.548
       0.460
      -0.018
       0.329
       1.315
       2.519
       3.556
       4.228
       4.530
       4.552
       4.393
       4.082
       3.538
       2.624
       1.300
      -0.245
      -1.646
      -2.604
      -3.103
      -3.410
      -3.796
      -4.249
      -4.483
      -4.265
      -3.695
      -3.147
      -2.900
      -2.841
      -2.556
      -1.732
      -0.459
       0.847
       1.791
       2.266
       2.407
       2.355
       2.138
       1.736
       1.222
       0.754
       0.437
       0.225
      -0.019
      -0.366
      -0.761
      -1.099
      -1.337
      -1.477
      -1.477
      -1.228
      -0.691
      -0.046
       0.366
       0.321
      -0.073
      -0.461
      -0.563
      -0.401
      -0.201
      -0.107
      -0.048
       0.094
       0.244
       0.139
      -0.369
      -1.079
      -1.548
      -1.474
      -0.941
      -0.285
       0.254
       0.713
       1.251
       1.865
       2.321
       2.386
       2.053
       1.527
       1.008
       0.563
       0.204
       0.023
       0.144
       0.505
       0.777
       0.606
      -0.026
      -0.730
      -1.023
      -0.725
      -0.070
       0.538
       0.851
       0.889
       0.789
       0.625
       0.412
       0.211
       0.137
       0.224
       0.317
       0.181
      -0.255
      -0.778
      -1.080
      -1.041
      -0.810
      -0.610
      -0.532
      -0.531
      -0.578
      -0.716
      -0.928
      -1.014
      -0.728
      -0.122
       0.342
       0.113
      -0.898
      -2.129
      -2.774
      -2.455
      -1.492
      -0.534
       0.054
       0.419
       0.879
       1.447
       1.777
