Origin Time       03/5/2010 17:15:08	
Lat.              30.4 N	
Long.             78.4 E	
Depth (Km)          8.0
Magnitude         3.5
 Region           Uttarakhand                                                      
 Above details taken from IMD 
     
Station Code      DHA
Station Lat.       30.427  N
Station Long.      78.244  E
Station Height(m) 2280.0
Site Class        B   Vs30 between 375 m/sec to 700 m/sec *  
Record Time       03.05.2010 17:14:57.969
Sampling Rate     200. Hz
 Record Duration   67.010 Sec.
 Direction         E-W (E positive)
Max. Acceleration    -15.800 cm/sec**2
     
  * For reference see Site Classification link of website 
     
 Base Line Corrected and Low Pass Filtered (Cut Off at 35 Hz) Time History
 Acceleration data in cm/sec**2
    
[...]
       0.005
       0.002
      -0.006
      -0.013
      -0.016
      -0.014
      -0.011
      -0.011
      -0.013
      -0.014
      -0.011
      -0.006
      -0.003
      -0.004
      -0.007
      -0.008
      -0.005
      -0.001
       0.000
      -0.004
      -0.009
      -0.012
      -0.009
      -0.004
      -0.001
       0.001
       0.001
       0.000
      -0.003
      -0.008
      -0.011
      -0.008
       0.001
       0.010
       0.012
       0.006
      -0.001
      -0.004
       0.000
       0.008
       0.013
       0.012
       0.007
       0.001
      -0.003
      -0.005
      -0.008
      -0.014
      -0.020
      -0.022
      -0.018
      -0.011
      -0.006
      -0.004
      -0.004
      -0.003
       0.001
       0.005
       0.007
       0.004
      -0.003
      -0.008
      -0.008
      -0.005
      -0.001
      -0.001
      -0.004
      -0.009
      -0.012
      -0.012
      -0.009
      -0.004
       0.000
       0.003
       0.005
       0.007
       0.008
       0.009
       0.008
       0.006
       0.004
       0.003
       0.002
       0.002
       0.000
      -0.001
      -0.002
      -0.002
      -0.001
       0.000
       0.000
       0.000
      -0.001
      -0.004
      -0.007
      -0.008
      -0.006
      -0.001
       0.003
       0.005
       0.003
       0.000
      -0.002
      -0.002
      -0.002
      -0.003
      -0.006
      -0.010
      -0.012
      -0.010
      -0.006
      -0.003
      -0.005
      -0.009
      -0.012
      -0.011
      -0.008
      -0.006
      -0.005
      -0.004
      -0.001
       0.002
       0.000
      -0.007
      -0.016
      -0.021
      -0.020
      -0.014
      -0.007
      -0.002
      -0.001
       0.000
       0.001
       0.002
       0.001
      -0.003
      -0.007
      -0.007
      -0.002
       0.005
       0.007
       0.004
      -0.004
      -0.012
      -0.018
      -0.018
      -0.013
      -0.007
      -0.002
      -0.002
      -0.004
      -0.004
       0.000
       0.005
       0.009
       0.010
       0.008
       0.004
       0.000
      -0.003
      -0.005
      -0.005
      -0.004
      -0.003
      -0.002
      -0.003
      -0.005
      -0.008
      -0.013
      -0.017
      -0.019
      -0.016
      -0.009
      -0.001
       0.003
       0.003
       0.003
       0.004
       0.005
       0.004
      -0.001
      -0.006
      -0.007
      -0.003
       0.005
       0.009
       0.008
       0.002
      -0.004
      -0.006
      -0.005
      -0.005
      -0.008
      -0.014
      -0.019
      -0.020
      -0.016
      -0.010
      -0.006
      -0.004
      -0.004
      -0.002
       0.002
       0.006
       0.005
       0.000
      -0.006
      -0.008
      -0.006
      -0.002
       0.000
      -0.001
      -0.004
      -0.008
      -0.011
      -0.013
      -0.012
      -0.008
      -0.004
       0.000
       0.001
       0.000
      -0.005
      -0.009
      -0.009
      -0.003
       0.006
       0.012
       0.014
       0.010
       0.003
      -0.004
      -0.010
      -0.014
      -0.015
      -0.015
      -0.012
      -0.008
      -0.003
       0.001
       0.005
       0.007
       0.006
       0.003
      -0.002
      -0.008
      -0.009
      -0.005
       0.003
       0.011
       0.012
       0.008
       0.002
      -0.003
      -0.006
      -0.009
      -0.011
      -0.013
      -0.011
      -0.005
       0.000
       0.002
      -0.004
      -0.013
      -0.020
      -0.019
      -0.010
       0.000
       0.006
       0.006
       0.005
       0.006
       0.007
       0.005
      -0.001
      -0.007
      -0.007
      -0.002
       0.003
       0.004
       0.000
      -0.004
      -0.005
      -0.004
      -0.003
      -0.003
      -0.004
      -0.005
      -0.003
      -0.001
       0.000
      -0.002
      -0.008
      -0.011
      -0.011
      -0.006
      -0.001
       0.001
       0.000
      -0.004
      -0.008
      -0.011
      -0.012
      -0.013
      -0.013
      -0.014
      -0.016
      -0.015
      -0.012
      -0.009
      -0.008
      -0.010
      -0.012
      -0.013
      -0.011
      -0.008
      -0.007
      -0.008
      -0.009
      -0.008
      -0.005
      -0.001
       0.004
       0.005
       0.001
      -0.007
      -0.014
      -0.016
      -0.012
      -0.002
       0.007
       0.011
       0.009
       0.002
      -0.006
      -0.010
      -0.010
      -0.004
       0.002
       0.005
       0.003
      -0.001
      -0.003
       0.000
       0.003
       0.005
       0.003
       0.000
      -0.001
       0.000
       0.000
       0.000
      -0.002
      -0.003
      -0.003
      -0.003
      -0.003
      -0.004
      -0.005
      -0.005
      -0.003
      -0.001
       0.001
       0.001
       0.000
      -0.001
      -0.002
      -0.003
      -0.006
      -0.008
      -0.010
      -0.010
      -0.011
      -0.011
      -0.011
      -0.011
      -0.010
      -0.008
      -0.006
      -0.005
      -0.006
      -0.007
      -0.006
      -0.003
       0.001
       0.002
       0.001
      -0.001
      -0.001
       0.000
       0.003
       0.004
       0.001
      -0.005
      -0.012
      -0.015
      -0.012
      -0.005
       0.002
       0.002
      -0.003
      -0.009
      -0.013
      -0.012
      -0.008
      -0.007
      -0.011
      -0.019
      -0.025
      -0.026
      -0.021
      -0.017
      -0.017
      -0.018
      -0.017
      -0.012
      -0.006
      -0.003
      -0.007
      -0.014
      -0.019
      -0.020
      -0.015
      -0.010
      -0.006
      -0.004
      -0.005
      -0.007
      -0.007
      -0.007
      -0.006
      -0.007
      -0.008
      -0.010
      -0.010
      -0.009
      -0.007
      -0.004
      -0.003
      -0.004
      -0.006
      -0.008
      -0.010
      -0.010
      -0.010
      -0.008
      -0.006
      -0.004
      -0.002
      -0.004
      -0.008
      -0.012
      -0.014
      -0.014
      -0.013
      -0.016
      -0.025
      -0.039
      -0.058
      -0.082
      -0.112
      -0.148
      -0.184
      -0.212
      -0.227
      -0.224
      -0.210
      -0.200
      -0.208
      -0.240
      -0.286
      -0.322
      -0.328
      -0.301
      -0.256
      -0.204
      -0.135
      -0.027
       0.116
       0.259
       0.375
       0.483
       0.622
       0.774
       0.848
       0.769
       0.575
       0.392
       0.290
       0.214
       0.062
      -0.166
      -0.328
      -0.289
      -0.069
       0.160
       0.252
       0.217
       0.182
       0.235
       0.332
       0.351
       0.209
      -0.078
      -0.419
      -0.706
      -0.859
      -0.881
      -0.852
      -0.864
      -0.908
      -0.861
      -0.585
      -0.069
       0.531
       0.995
       1.203
       1.206
       1.138
       1.083
       1.010
       0.847
       0.571
       0.243
      -0.050
      -0.261
      -0.404
      -0.521
      -0.625
      -0.691
      -0.676
      -0.569
      -0.410
      -0.267
      -0.189
      -0.171
      -0.184
      -0.219
      -0.301
      -0.442
      -0.585
      -0.624
      -0.492
      -0.247
      -0.034
       0.038
       0.003
       0.007
       0.178
       0.517
       0.898
       1.164
       1.232
       1.138
       0.986
       0.871
       0.804
       0.714
       0.494
       0.093
      -0.424
      -0.897
      -1.179
      -1.243
      -1.193
      -1.162
      -1.198
      -1.238
      -1.185
      -0.992
      -0.695
      -0.367
      -0.066
       0.207
       0.492
       0.818
       1.144
       1.367
       1.387
       1.197
       0.898
       0.626
       0.446
       0.315
       0.141
      -0.119
      -0.423
      -0.688
      -0.875
      -1.011
      -1.153
      -1.333
      -1.527
      -1.669
      -1.679
      -1.513
      -1.180
      -0.746
      -0.287
       0.156
       0.590
       1.027
       1.429
       1.715
       1.831
       1.817
       1.787
       1.832
       1.918
       1.912
       1.690
       1.248
       0.702
       0.193
      -0.199
      -0.484
      -0.715
      -0.923
      -1.090
      -1.176
      -1.167
      -1.095
      -1.014
      -0.945
      -0.853
      -0.685
      -0.435
      -0.173
       0.014
       0.096
       0.123
       0.172
       0.276
       0.420
       0.573
       0.715
       0.822
       0.853
       0.766
       0.556
       0.263
      -0.046
      -0.307
      -0.475
      -0.538
      -0.520
      -0.473
      -0.444
      -0.446
      -0.464
      -0.492
      -0.560
      -0.710
      -0.926
      -1.112
      -1.158
      -1.031
      -0.798
      -0.560
      -0.355
      -0.138
       0.169
       0.593
       1.075
       1.495
       1.727
       1.704
       1.441
       1.026
       0.576
       0.197
      -0.072
      -0.269
      -0.475
      -0.725
      -0.942
      -0.959
      -0.641
      -0.029
       0.627
       0.992
       0.860
       0.294
      -0.428
      -0.993
      -1.236
      -1.189
      -0.998
      -0.791
      -0.610
      -0.418
      -0.155
       0.217
       0.697
       1.245
       1.777
       2.169
       2.300
       2.111
       1.652
       1.073
       0.532
       0.109
      -0.223
      -0.532
      -0.841
      -1.097
      -1.222
      -1.171
      -0.974
      -0.700
      -0.419
      -0.171
       0.020
       0.123
       0.087
      -0.140
      -0.559
      -1.063
      -1.454
      -1.538
      -1.246
      -0.668
       0.013
       0.650
       1.190
       1.639
       1.991
       2.182
       2.108
       1.692
       0.957
       0.053
      -0.779
      -1.308
      -1.430
      -1.238
      -0.977
      -0.896
      -1.094
      -1.480
      -1.857
      -2.055
      -2.018
      -1.790
      -1.448
      -1.031
      -0.536
       0.039
       0.634
       1.128
       1.402
       1.424
       1.278
       1.132
       1.141
       1.365
       1.731
       2.088
       2.294
       2.294
       2.117
       1.805
       1.366
       0.796
       0.154
      -0.417
      -0.769
      -0.875
      -0.847
      -0.826
      -0.844
      -0.805
      -0.612
      -0.309
      -0.071
      -0.057
      -0.262
      -0.515
      -0.606
      -0.425
      -0.024
       0.432
       0.771
       0.905
       0.864
       0.738
       0.592
       0.406
       0.086
      -0.449
      -1.163
      -1.868
      -2.312
      -2.316
      -1.876
      -1.151
      -0.350
       0.377
       0.988
       1.502
       1.921
       2.176
       2.153
       1.775
       1.067
       0.151
      -0.814
      -1.691
      -2.383
      -2.821
      -2.975
      -2.880
      -2.633
      -2.343
      -2.072
      -1.820
      -1.563
      -1.302
      -1.082
      -0.979
      -1.069
      -1.388
      -1.899
      -2.488
      -2.999
      -3.299
      -3.339
      -3.146
      -2.779
      -2.260
      -1.566
      -0.659
       0.464
       1.764
       3.193
       4.719
       6.309
       7.910
       9.445
      10.829
      11.963
      12.711
      12.916
      12.448
      11.252
       9.357
       6.846
       3.851
       0.583
      -2.659
      -5.542
      -7.820
      -9.406
     -10.360
     -10.778
     -10.706
     -10.113
      -8.940
      -7.165
      -4.845
      -2.151
       0.652
       3.268
       5.478
       7.195
       8.414
       9.091
       9.078
       8.167
       6.231
       3.385
       0.038
      -3.215
      -5.839
      -7.566
      -8.420
      -8.581
      -8.207
      -7.366
      -6.117
      -4.633
      -3.216
      -2.168
      -1.629
      -1.523
      -1.663
      -1.901
      -2.184
      -2.500
      -2.777
      -2.871
      -2.682
      -2.277
      -1.901
      -1.812
      -2.073
      -2.466
      -2.609
      -2.201
      -1.217
       0.113
       1.496
       2.764
       3.905
       4.931
       5.741
       6.109
       5.819
       4.826
       3.302
       1.561
      -0.090
      -1.448
      -2.450
      -3.141
      -3.594
      -3.837
      -3.813
      -3.413
      -2.551
      -1.243
       0.374
       2.079
       3.615
       4.741
       5.292
       5.254
       4.803
       4.244
       3.843
       3.680
       3.617
       3.406
       2.870
       2.025
       1.071
       0.270
      -0.206
      -0.359
      -0.337
      -0.317
      -0.392
      -0.519
      -0.561
      -0.381
       0.054
       0.637
       1.166
       1.453
       1.432
       1.189
       0.905
       0.732
       0.728
       0.864
       1.105
       1.440
       1.864
       2.323
       2.697
       2.846
       2.691
       2.273
       1.736
       1.250
       0.908
       0.664
       0.362
      -0.155
      -0.917
      -1.793
      -2.581
      -3.145
      -3.476
      -3.648
      -3.734
      -3.759
      -3.705
      -3.538
      -3.237
      -2.812
      -2.328
      -1.906
      -1.687
      -1.758
      -2.103
      -2.612
      -3.132
      -3.527
      -3.724
      -3.721
      -3.575
      -3.371
      -3.175
      -2.993
      -2.759
      -2.371
      -1.736
      -0.806
       0.407
       1.842
       3.372
       4.811
       5.966
       6.725
       7.126
       7.332
       7.532
       7.818
       8.132
       8.295
       8.098
       7.416
       6.276
       4.863
       3.437
       2.207
       1.244
       0.470
      -0.257
      -1.061
      -2.013
      -3.148
      -4.480
      -6.000
      -7.656
      -9.353
     -10.984
     -12.467
     -13.748
     -14.787
     -15.513
     -15.800
     -15.495
     -14.492
     -12.807
     -10.587
      -8.026
      -5.270
      -2.377
       0.648
       3.762
       6.831
       9.644
      11.977
      13.672
      14.677
      15.038
      14.852
      14.211
      13.181
      11.819
      10.228
       8.570
       7.044
       5.818
       4.976
       4.492
       4.239
       4.012
       3.591
       2.802
       1.601
       0.092
      -1.496
      -2.905
      -3.948
      -4.590
      -4.945
      -5.209
      -5.543
      -5.990
      -6.479
      -6.901
      -7.191
      -7.343
      -7.368
      -7.226
      -6.827
      -6.075
      -4.938
      -3.481
      -1.840
      -0.175
       1.356
       2.613
       3.505
       4.019
       4.243
       4.324
       4.394
       4.502
       4.605
       4.611
       4.435
       4.027
       3.386
       2.558
       1.623
       0.660
      -0.277
      -1.153
      -1.908
      -2.423
      -2.551
      -2.211
      -1.467
      -0.534
       0.308
       0.825
       0.892
       0.507
      -0.223
      -1.114
      -1.952
      -2.556
      -2.848
      -2.873
      -2.763
      -2.651
      -2.610
      -2.624
      -2.627
      -2.553
      -2.385
      -2.172
      -1.986
      -1.858
      -1.729
      -1.467
      -0.947
      -0.138
       0.871
       1.919
       2.852
       3.581
       4.103
       4.465
       4.715
       4.859
       4.853
       4.627
       4.134
       3.394
       2.518
       1.669
       0.993
       0.555
       0.319
       0.195
       0.099
       0.005
      -0.050
      -0.008
       0.156
       0.401
       0.657
       0.876
       1.062
       1.238
       1.389
       1.428
       1.257
       0.850
       0.301
      -0.230
      -0.621
      -0.865
      -1.064
      -1.355
      -1.835
      -2.526
      -3.380
      -4.308
      -5.210
      -6.005
      -6.653
      -7.144
      -7.469
      -7.592
      -7.457
      -7.030
      -6.325
      -5.406
      -4.358
      -3.248
      -2.098
      -0.881
       0.450
       1.906
       3.415
       4.812
       5.909
       6.591
       6.874
       6.878
       6.749
       6.587
       6.443
       6.347
       6.334
       6.426
       6.600
       6.763
       6.774
       6.504
       5.904
       5.040
       4.065
       3.130
       2.299
       1.524
       0.701
      -0.242
      -1.289
      -2.352
      -3.321
      -4.138
      -4.825
      -5.468
      -6.150
      -6.875
      -7.526
      -7.897
      -7.804
      -7.201
      -6.209
      -5.039
      -3.864
      -2.733
      -1.600
      -0.403
       0.842
       2.037
       3.051
       3.794
       4.245
       4.442
       4.441
       4.286
       4.010
       3.632
       3.155
       2.559
       1.812
       0.909
      -0.076
      -0.995
      -1.692
      -2.088
      -2.231
      -2.261
      -2.317
      -2.468
      -2.689
      -2.910
      -3.069
      -3.142
      -3.138
      -3.068
      -2.921
      -2.669
      -2.293
      -1.818
      -1.311
      -0.841
      -0.436
      -0.070
       0.294
       0.661
       1.008
       1.316
       1.595
       1.870
       2.137
       2.345
       2.434
       2.375
       2.181
       1.884
       1.502
       1.046
       0.534
       0.004
      -0.506
      -0.975
      -1.394
      -1.724
      -1.879
      -1.750
      -1.279
      -0.514
       0.385
       1.215
       1.815
       2.124
       2.179
       2.066
       1.869
       1.639
       1.389
       1.110
       0.787
       0.414
       0.010
      -0.384
      -0.711
      -0.916
      -0.970
      -0.884
      -0.712
      -0.532
      -0.400
      -0.323
      -0.254
      -0.123
       0.109
       0.417
       0.722
       0.948
       1.083
       1.192
       1.360
       1.616
       1.905
       2.132
       2.221
       2.147
       1.913
       1.532
       1.032
       0.490
       0.037
      -0.207
      -0.202
      -0.017
       0.204
       0.336
       0.331
       0.230
       0.114
       0.037
      -0.012
      -0.093
      -0.272
      -0.571
      -0.953
      -1.349
      -1.690
      -1.936
      -2.082
      -2.151
      -2.182
      -2.218
      -2.282
      -2.371
      -2.450
      -2.480
      -2.436
      -2.310
      -2.105
      -1.822
      -1.460
      -1.039
      -0.609
      -0.237
       0.023
       0.172
       0.258
       0.351
       0.496
       0.696
       0.932
       1.188
       1.467
       1.775
       2.089
       2.344
       2.467
       2.427
       2.256
       2.029
       1.811
       1.614
       1.398
       1.119
       0.776
       0.426
       0.147
      -0.020
      -0.100
      -0.169
      -0.296
      -0.493
      -0.708
      -0.851
      -0.842
      -0.659
      -0.353
      -0.023
       0.238
       0.389
       0.460
       0.515
       0.598
       0.692
       0.721
       0.594
       0.254
      -0.280
      -0.918
      -1.531
      -2.009
      -2.313
      -2.484
      -2.608
      -2.751
      -2.909
      -3.018
      -3.001
      -2.828
      -2.533
      -2.183
      -1.838
      -1.517
      -1.200
      -0.847
      -0.426
       0.058
       0.561
       1.019
       1.384
       1.648
       1.824
       1.930
       1.976
       1.970
       1.940
       1.932
       1.992
       2.134
       2.332
       2.526
       2.662
       2.710
       2.675
       2.576
       2.422
       2.208
       1.914
       1.527
       1.053
       0.520
      -0.037
      -0.583
      -1.078
      -1.471
      -1.704
      -1.730
      -1.537
      -1.160
      -0.664
      -0.127
       0.375
       0.774
       1.011
       1.048
       0.874
       0.518
       0.037
      -0.490
      -0.983
      -1.371
      -1.606
      -1.678
      -1.611
