Origin Time       20/06/2011 06:27:18 UTC
Lat.              30.5 N	
Long.             79.4 E	
Depth (Km)         12.0
Magnitude         4.6
 Region           Chamoli-Uttarakhand                                              
 Above details taken from IMD 
    
Station Code      DNL
Station Lat.       30.427  N
Station Long.      78.244  E
Station Height(m) 2280.0
Site Class        B   Vs30 between 375 m/sec to 700 m/sec *  
Record Time       20.06.2011 06:27:19.574 UTC
Sampling Rate     200. Hz
 Record Duration   84.960 Sec.
 Direction         N-S (N positive)
Max. Acceleration     10.455 cm/sec**2
     
  * For reference see Site Classification link of website 
     
 Base Line Corrected and Low Pass Filtered (Cut Off at 35 Hz) Time History
 Acceleration data in cm/sec**2
    
[...]
      -0.124
      -0.075
      -0.024
       0.015
       0.027
       0.009
      -0.032
      -0.083
      -0.136
      -0.186
      -0.229
      -0.263
      -0.288
      -0.305
      -0.312
      -0.309
      -0.294
      -0.267
      -0.230
      -0.185
      -0.136
      -0.089
      -0.048
      -0.014
       0.015
       0.042
       0.066
       0.080
       0.079
       0.061
       0.029
      -0.010
      -0.045
      -0.066
      -0.072
      -0.068
      -0.064
      -0.069
      -0.084
      -0.102
      -0.113
      -0.110
      -0.090
      -0.049
       0.019
       0.120
       0.260
       0.432
       0.617
       0.793
       0.940
       1.043
       1.097
       1.106
       1.080
       1.037
       0.993
       0.964
       0.952
       0.948
       0.930
       0.875
       0.780
       0.657
       0.524
       0.391
       0.254
       0.112
      -0.024
      -0.137
      -0.214
      -0.253
      -0.264
      -0.261
      -0.261
      -0.282
      -0.340
      -0.436
      -0.553
      -0.665
      -0.751
      -0.801
      -0.822
      -0.832
      -0.849
      -0.885
      -0.944
      -1.016
      -1.086
      -1.134
      -1.144
      -1.110
      -1.032
      -0.922
      -0.791
      -0.649
      -0.501
      -0.351
      -0.207
      -0.081
       0.011
       0.056
       0.053
       0.020
      -0.013
      -0.015
       0.027
       0.107
       0.202
       0.287
       0.343
       0.364
       0.360
       0.352
       0.367
       0.422
       0.514
       0.629
       0.748
       0.857
       0.945
       1.006
       1.042
       1.056
       1.049
       1.020
       0.964
       0.880
       0.774
       0.657
       0.543
       0.441
       0.354
       0.275
       0.190
       0.087
      -0.038
      -0.172
      -0.296
      -0.392
      -0.451
      -0.481
      -0.499
      -0.518
      -0.535
      -0.539
      -0.522
      -0.491
      -0.461
      -0.439
      -0.428
      -0.422
      -0.420
      -0.429
      -0.461
      -0.522
      -0.608
      -0.706
      -0.799
      -0.873
      -0.917
      -0.920
      -0.874
      -0.781
      -0.656
      -0.523
      -0.405
      -0.310
      -0.236
      -0.176
      -0.117
      -0.044
       0.056
       0.187
       0.342
       0.502
       0.649
       0.772
       0.872
       0.956
       1.023
       1.065
       1.063
       1.003
       0.882
       0.714
       0.519
       0.320
       0.134
      -0.026
      -0.157
      -0.257
      -0.327
      -0.371
      -0.389
      -0.388
      -0.369
      -0.328
      -0.260
      -0.156
      -0.016
       0.150
       0.324
       0.487
       0.625
       0.727
       0.791
       0.818
       0.807
       0.760
       0.681
       0.578
       0.456
       0.319
       0.172
       0.025
      -0.114
      -0.236
      -0.337
      -0.412
      -0.452
      -0.453
      -0.413
      -0.339
      -0.240
      -0.135
      -0.043
       0.016
       0.036
       0.018
      -0.028
      -0.091
      -0.162
      -0.230
      -0.290
      -0.350
      -0.424
      -0.530
      -0.667
      -0.820
      -0.968
      -1.095
      -1.196
      -1.271
      -1.320
      -1.336
      -1.309
      -1.230
      -1.096
      -0.910
      -0.684
      -0.433
      -0.173
       0.079
       0.312
       0.516
       0.682
       0.797
       0.850
       0.838
       0.773
       0.680
       0.584
       0.507
       0.463
       0.462
       0.512
       0.616
       0.763
       0.932
       1.101
       1.249
       1.370
       1.461
       1.517
       1.530
       1.487
       1.388
       1.237
       1.048
       0.834
       0.605
       0.365
       0.114
      -0.147
      -0.410
      -0.664
      -0.896
      -1.094
      -1.248
      -1.350
      -1.388
      -1.353
      -1.250
      -1.097
      -0.921
      -0.748
      -0.588
      -0.445
      -0.316
      -0.203
      -0.114
      -0.058
      -0.038
      -0.047
      -0.077
      -0.116
      -0.158
      -0.199
      -0.238
      -0.272
      -0.302
      -0.330
      -0.357
      -0.384
      -0.413
      -0.445
      -0.475
      -0.491
      -0.485
      -0.456
      -0.410
      -0.350
      -0.276
      -0.180
      -0.062
       0.072
       0.207
       0.332
       0.436
       0.519
       0.580
       0.618
       0.629
       0.613
       0.575
       0.531
       0.494
       0.471
       0.455
       0.438
       0.418
       0.400
       0.387
       0.376
       0.357
       0.328
       0.293
       0.266
       0.253
       0.256
       0.269
       0.282
       0.282
       0.264
       0.226
       0.175
       0.117
       0.058
       0.005
      -0.035
      -0.053
      -0.051
      -0.042
      -0.045
      -0.069
      -0.109
      -0.152
      -0.191
      -0.233
      -0.292
      -0.382
      -0.504
      -0.650
      -0.805
      -0.951
      -1.068
      -1.132
      -1.126
      -1.048
      -0.920
      -0.779
      -0.659
      -0.572
      -0.506
      -0.431
      -0.326
      -0.183
      -0.016
       0.154
       0.303
       0.414
       0.479
       0.499
       0.484
       0.447
       0.400
       0.347
       0.293
       0.239
       0.187
       0.143
       0.119
       0.128
       0.177
       0.262
       0.357
       0.436
       0.482
       0.494
       0.485
       0.468
       0.451
       0.433
       0.406
       0.365
       0.307
       0.232
       0.139
       0.028
      -0.095
      -0.214
      -0.305
      -0.352
      -0.348
      -0.303
      -0.237
      -0.167
      -0.107
      -0.062
      -0.032
      -0.008
       0.019
       0.059
       0.116
       0.184
       0.257
       0.325
       0.380
       0.416
       0.432
       0.430
       0.414
       0.389
       0.353
       0.302
       0.231
       0.137
       0.026
      -0.092
      -0.206
      -0.306
      -0.383
      -0.434
      -0.461
      -0.467
      -0.456
      -0.428
      -0.386
      -0.330
      -0.262
      -0.189
      -0.116
      -0.053
      -0.009
       0.012
       0.011
      -0.009
      -0.041
      -0.078
      -0.111
      -0.135
      -0.151
      -0.164
      -0.181
      -0.198
      -0.208
      -0.200
      -0.172
      -0.128
      -0.071
      -0.004
       0.074
       0.153
       0.217
       0.244
       0.223
       0.160
       0.072
      -0.027
      -0.134
      -0.255
      -0.390
      -0.524
      -0.637
      -0.708
      -0.732
      -0.711
      -0.649
      -0.551
      -0.417
      -0.256
      -0.081
       0.089
       0.240
       0.361
       0.453
       0.521
       0.574
       0.618
       0.660
       0.704
       0.752
       0.799
       0.832
       0.835
       0.792
       0.690
       0.525
       0.308
       0.065
      -0.173
      -0.372
      -0.508
      -0.571
      -0.565
      -0.504
      -0.409
      -0.298
      -0.187
      -0.093
      -0.027
       0.005
       0.007
      -0.007
      -0.022
      -0.025
      -0.008
       0.033
       0.100
       0.190
       0.293
       0.397
       0.489
       0.553
       0.583
       0.578
       0.548
       0.505
       0.453
       0.391
       0.313
       0.218
       0.101
      -0.039
      -0.202
      -0.382
      -0.565
      -0.742
      -0.913
      -1.078
      -1.236
      -1.376
      -1.484
      -1.553
      -1.582
      -1.572
      -1.523
      -1.442
      -1.343
      -1.240
      -1.138
      -1.030
      -0.901
      -0.739
      -0.544
      -0.328
      -0.108
       0.106
       0.308
       0.503
       0.697
       0.893
       1.080
       1.240
       1.354
       1.415
       1.430
       1.411
       1.376
       1.336
       1.297
       1.256
       1.206
       1.133
       1.031
       0.900
       0.751
       0.601
       0.467
       0.363
       0.298
       0.272
       0.276
       0.293
       0.307
       0.308
       0.295
       0.273
       0.248
       0.224
       0.207
       0.200
       0.202
       0.209
       0.216
       0.215
       0.207
       0.188
       0.158
       0.114
       0.051
      -0.034
      -0.146
      -0.275
      -0.399
      -0.491
      -0.529
      -0.509
      -0.442
      -0.347
      -0.241
      -0.130
      -0.016
       0.105
       0.239
       0.387
       0.545
       0.691
       0.793
       0.825
       0.775
       0.655
       0.488
       0.298
       0.094
      -0.126
      -0.370
      -0.637
      -0.921
      -1.204
      -1.471
      -1.713
      -1.927
      -2.117
      -2.285
      -2.427
      -2.531
      -2.582
      -2.569
      -2.492
      -2.360
      -2.187
      -1.982
      -1.744
      -1.467
      -1.144
      -0.775
      -0.368
       0.063
       0.503
       0.935
       1.338
       1.689
       1.972
       2.187
       2.351
       2.490
       2.628
       2.766
       2.893
       2.989
       3.048
       3.078
       3.092
       3.102
       3.110
       3.111
       3.094
       3.051
       2.969
       2.842
       2.668
       2.453
       2.207
       1.938
       1.652
       1.355
       1.056
       0.768
       0.494
       0.230
      -0.034
      -0.302
      -0.570
      -0.824
      -1.055
      -1.258
      -1.437
      -1.597
      -1.735
      -1.845
      -1.921
      -1.967
      -1.996
      -2.023
      -2.054
      -2.088
      -2.124
      -2.163
      -2.207
      -2.255
      -2.300
      -2.340
      -2.377
      -2.427
      -2.503
      -2.608
      -2.734
      -2.868
      -3.001
      -3.124
      -3.224
      -3.287
      -3.298
      -3.246
      -3.129
      -2.951
      -2.729
      -2.490
      -2.266
      -2.084
      -1.957
      -1.881
      -1.840
      -1.800
      -1.724
      -1.583
      -1.366
      -1.089
      -0.780
      -0.472
      -0.194
       0.032
       0.201
       0.316
       0.391
       0.435
       0.457
       0.464
       0.462
       0.455
       0.450
       0.462
       0.510
       0.605
       0.746
       0.921
       1.114
       1.316
       1.518
       1.722
       1.937
       2.181
       2.459
       2.773
       3.124
       3.514
       3.942
       4.384
       4.802
       5.158
       5.429
       5.611
       5.705
       5.722
       5.677
       5.595
       5.494
       5.385
       5.269
       5.144
       5.010
       4.868
       4.717
       4.557
       4.384
       4.184
       3.938
       3.629
       3.245
       2.792
       2.284
       1.747
       1.203
       0.670
       0.159
      -0.328
      -0.789
      -1.232
      -1.672
      -2.134
      -2.638
      -3.192
      -3.787
      -4.400
      -5.003
      -5.562
      -6.042
      -6.420
      -6.684
      -6.834
      -6.881
      -6.834
      -6.703
      -6.498
      -6.228
      -5.898
      -5.508
      -5.058
      -4.565
      -4.060
      -3.576
      -3.141
      -2.767
      -2.461
      -2.222
      -2.046
      -1.921
      -1.838
      -1.787
      -1.764
      -1.758
      -1.752
      -1.722
      -1.652
      -1.537
      -1.384
      -1.205
      -1.011
      -0.806
      -0.586
      -0.336
      -0.043
       0.293
       0.658
       1.029
       1.380
       1.698
       1.977
       2.219
       2.432
       2.620
       2.786
       2.935
       3.081
       3.240
       3.424
       3.629
       3.843
       4.051
       4.243
       4.402
       4.508
       4.529
       4.439
       4.225
       3.891
       3.459
       2.958
       2.425
       1.899
       1.414
       0.992
       0.642
       0.363
       0.152
       0.006
      -0.075
      -0.098
      -0.078
      -0.030
       0.035
       0.121
       0.244
       0.418
       0.647
       0.923
       1.222
       1.513
       1.767
       1.951
       2.039
       2.008
       1.842
       1.537
       1.100
       0.543
      -0.116
      -0.863
      -1.681
      -2.551
      -3.448
      -4.343
      -5.202
      -5.987
      -6.661
      -7.190
      -7.548
      -7.720
      -7.698
      -7.485
      -7.095
      -6.550
      -5.875
      -5.099
      -4.243
      -3.328
      -2.370
      -1.393
      -0.430
       0.489
       1.335
       2.091
       2.740
       3.270
       3.671
       3.938
       4.077
       4.102
       4.035
       3.906
       3.752
       3.615
       3.529
       3.516
       3.583
       3.726
       3.926
       4.151
       4.367
       4.550
       4.698
       4.823
       4.943
       5.065
       5.176
       5.256
       5.282
       5.242
       5.135
       4.965
       4.732
       4.442
       4.097
       3.700
       3.246
       2.721
       2.112
       1.414
       0.641
      -0.182
      -1.023
      -1.854
      -2.654
      -3.408
      -4.104
      -4.733
      -5.286
      -5.753
      -6.128
      -6.414
      -6.623
      -6.771
      -6.873
      -6.936
      -6.956
      -6.924
      -6.832
      -6.683
      -6.490
      -6.273
      -6.038
      -5.782
      -5.489
      -5.148
      -4.751
      -4.299
      -3.801
      -3.273
      -2.742
      -2.236
      -1.783
      -1.406
      -1.125
      -0.954
      -0.900
      -0.960
      -1.128
      -1.384
      -1.703
      -2.051
      -2.391
      -2.684
      -2.899
      -3.011
      -3.001
      -2.861
      -2.590
      -2.182
      -1.624
      -0.893
       0.027
       1.133
       2.386
       3.718
       5.043
       6.288
       7.409
       8.385
       9.203
       9.837
      10.259
      10.455
      10.437
      10.241
       9.913
       9.496
       9.020
       8.509
       7.989
       7.492
       7.046
       6.662
       6.332
       6.032
       5.745
       5.458
       5.163
       4.847
       4.498
       4.104
       3.660
       3.159
       2.592
       1.954
       1.257
       0.523
      -0.226
      -0.976
      -1.726
      -2.470
      -3.200
      -3.902
      -4.563
      -5.174
      -5.732
      -6.238
      -6.689
      -7.069
      -7.354
      -7.523
      -7.572
      -7.516
      -7.388
      -7.224
      -7.049
      -6.874
      -6.690
      -6.473
      -6.198
      -5.849
      -5.425
      -4.934
      -4.387
      -3.797
      -3.175
      -2.542
      -1.927
      -1.359
      -0.863
      -0.448
      -0.109
       0.171
       0.408
       0.608
       0.772
       0.900
       1.000
       1.082
       1.159
       1.240
       1.328
       1.416
       1.493
       1.541
       1.544
       1.485
       1.352
       1.146
       0.881
       0.582
       0.274
      -0.026
      -0.314
      -0.596
      -0.881
      -1.170
      -1.442
      -1.651
      -1.729
      -1.619
      -1.300
      -0.798
      -0.163
       0.557
       1.327
       2.121
       2.909
       3.655
       4.315
       4.852
       5.243
       5.478
       5.554
       5.472
       5.239
       4.870
       4.389
       3.820
       3.190
       2.525
       1.846
       1.170
       0.507
      -0.139
      -0.761
      -1.346
      -1.872
      -2.322
      -2.684
      -2.957
      -3.140
      -3.230
      -3.229
      -3.137
      -2.956
      -2.689
      -2.344
      -1.938
      -1.497
      -1.043
      -0.591
      -0.144
       0.307
       0.775
       1.264
       1.764
       2.250
       2.693
       3.068
       3.359
       3.556
       3.646
       3.616
       3.457
       3.168
       2.761
       2.261
       1.704
       1.135
       0.588
       0.079
      -0.398
      -0.860
      -1.319
      -1.777
      -2.221
      -2.620
      -2.936
      -3.141
      -3.230
      -3.228
      -3.179
      -3.128
      -3.091
      -3.053
      -2.968
      -2.787
      -2.479
      -2.046
      -1.520
      -0.945
      -0.367
       0.178
       0.670
       1.100
       1.472
       1.785
       2.028
       2.179
       2.220
       2.142
       1.952
       1.672
       1.328
       0.941
       0.515
       0.046
      -0.470
      -1.019
      -1.572
      -2.089
      -2.532
      -2.868
      -3.073
      -3.130
      -3.035
      -2.800
      -2.454
      -2.030
      -1.561
      -1.069
      -0.570
      -0.078
       0.383
       0.792
       1.128
       1.385
       1.569
       1.689
       1.748
       1.742
       1.668
       1.541
       1.395
       1.276
       1.221
       1.253
       1.366
       1.540
       1.746
       1.958
       2.158
       2.332
       2.469
       2.563
       2.619
       2.645
       2.641
       2.588
       2.450
       2.197
       1.831
       1.391
       0.939
       0.529
       0.181
      -0.122
      -0.412
      -0.720
      -1.058
      -1.435
      -1.848
      -2.291
      -2.739
      -3.156
      -3.510
      -3.782
      -3.974
      -4.096
      -4.152
      -4.128
      -4.003
      -3.759
      -3.399
      -2.942
      -2.420
      -1.869
      -1.323
      -0.810
      -0.353
       0.030
       0.330
       0.541
       0.669
       0.720
       0.696
       0.595
       0.420
       0.184
      -0.085
      -0.350
      -0.573
      -0.721
      -0.765
      -0.678
      -0.441
      -0.049
       0.477
       1.091
       1.730
       2.331
       2.844
       3.244
       3.530
       3.716
       3.825
       3.874
       3.873
       3.819
       3.708
       3.541
       3.322
       3.061
       2.765
       2.433
       2.058
       1.639
       1.180
       0.693
       0.192
      -0.321
      -0.845
      -1.380
      -1.910
      -2.407
      -2.841
      -3.194
      -3.463
      -3.653
      -3.772
      -3.823
      -3.805
      -3.719
      -3.566
      -3.348
      -3.056
      -2.680
      -2.208
      -1.651
      -1.034
      -0.394
       0.236
       0.837
       1.387
       1.866
       2.258
       2.562
       2.794
       2.980
       3.142
       3.290
       3.426
       3.545
       3.634
       3.681
       3.669
       3.577
       3.384
       3.074
       2.648
       2.115
       1.486
       0.774
      -0.007
      -0.827
      -1.647
      -2.422
      -3.109
      -3.675
      -4.091
      -4.339
      -4.406
      -4.285
      -3.977
      -3.496
      -2.871
      -2.139
      -1.339
      -0.518
       0.262
       0.940
       1.464
       1.820
       2.027
       2.113
       2.099
       1.987
       1.771
       1.450
       1.037
       0.560
       0.052
      -0.449
      -0.912
      -1.302
      -1.590
      -1.758
      -1.800
      -1.729
      -1.568
      -1.350
      -1.104
      -0.854
      -0.615
      -0.395
      -0.192
      -0.002
       0.180
       0.354
       0.514
       0.653
       0.759
       0.819
       0.816
       0.733
       0.563
       0.312
      -0.003
      -0.359
      -0.739
      -1.131
      -1.526
      -1.912
      -2.272
      -2.585
      -2.833
      -3.002
      -3.077
      -3.041
      -2.877
      -2.579
      -2.158
      -1.646
      -1.082
      -0.504
       0.065
       0.612
       1.135
       1.637
       2.106
       2.513
       2.818
       2.987
       3.017
       2.929
       2.755
       2.525
       2.266
       1.998
       1.744
       1.525
       1.364
       1.275
       1.260
       1.298
       1.355
       1.392
       1.378
       1.295
       1.138
       0.920
       0.671
       0.421
       0.193
      -0.003
