Origin Time       20/06/2011 06:27:18
Lat.              30.5 N	
Long.             79.4 E	
Depth (Km)         12.0
Magnitude         4.6
 Region           Chamoli-Uttarakhand                                              
 Above details taken from IMD 
   
Station Code      DNL
Station Lat.       30.427
Station Long.      78.244
Station Height(m) 2280.0
Site Class        B   Vs30 between 375 m/sec to 700 m/sec *  
Record Time       20.06.2011 06:27:19.574
Sampling Rate     200. Hz
 Record Duration   84.960 Sec.
 Direction         Vert. (Up positive)
Max. Acceleration      4.421 cm/sec**2
     
  * For reference see Site Classification link of website 
     
 Base Line Corrected and Low Pass Filtered (Cut Off at 35 Hz) Time History
 Acceleration data in cm/sec**2
    
[...]
       0.612
       0.346
       0.101
      -0.105
      -0.258
      -0.338
      -0.319
      -0.192
       0.019
       0.269
       0.497
       0.633
       0.613
       0.401
       0.027
      -0.411
      -0.783
      -0.986
      -0.989
      -0.828
      -0.580
      -0.317
      -0.086
       0.091
       0.199
       0.228
       0.175
       0.066
      -0.044
      -0.097
      -0.065
       0.037
       0.169
       0.293
       0.390
       0.440
       0.412
       0.266
      -0.011
      -0.366
      -0.683
      -0.843
      -0.797
      -0.598
      -0.350
      -0.124
       0.074
       0.275
       0.484
       0.653
       0.721
       0.663
       0.517
       0.351
       0.215
       0.118
       0.045
      -0.013
      -0.040
      -0.018
       0.027
       0.022
      -0.097
      -0.318
      -0.538
      -0.629
      -0.532
      -0.302
      -0.060
       0.085
       0.095
       0.014
      -0.059
      -0.033
       0.120
       0.340
       0.521
       0.577
       0.491
       0.301
       0.070
      -0.148
      -0.306
      -0.362
      -0.304
      -0.163
       0.000
       0.125
       0.183
       0.183
       0.146
       0.085
      -0.017
      -0.193
      -0.463
      -0.799
      -1.118
      -1.317
      -1.316
      -1.097
      -0.705
      -0.231
       0.223
       0.572
       0.773
       0.822
       0.746
       0.599
       0.448
       0.355
       0.337
       0.354
       0.336
       0.249
       0.117
      -0.006
      -0.087
      -0.128
      -0.135
      -0.094
       0.012
       0.173
       0.336
       0.441
       0.454
       0.383
       0.263
       0.130
       0.009
      -0.094
      -0.183
      -0.262
      -0.324
      -0.354
      -0.340
      -0.294
      -0.247
      -0.221
      -0.199
      -0.121
       0.073
       0.377
       0.696
       0.895
       0.875
       0.633
       0.261
      -0.106
      -0.351
      -0.424
      -0.351
      -0.211
      -0.088
      -0.032
      -0.055
      -0.147
      -0.299
      -0.496
      -0.715
      -0.922
      -1.077
      -1.142
      -1.084
      -0.888
      -0.582
      -0.233
       0.081
       0.314
       0.462
       0.541
       0.565
       0.546
       0.503
       0.457
       0.423
       0.404
       0.403
       0.435
       0.519
       0.654
       0.816
       0.965
       1.062
       1.084
       1.021
       0.871
       0.637
       0.325
      -0.045
      -0.446
      -0.840
      -1.184
      -1.430
      -1.529
      -1.455
      -1.233
      -0.948
      -0.703
      -0.557
      -0.491
      -0.428
      -0.303
      -0.116
       0.073
       0.201
       0.257
       0.290
       0.349
       0.442
       0.543
       0.633
       0.722
       0.813
       0.885
       0.894
       0.822
       0.685
       0.519
       0.341
       0.148
      -0.069
      -0.325
      -0.636
      -0.994
      -1.342
      -1.589
      -1.664
      -1.560
      -1.319
      -0.984
      -0.571
      -0.105
       0.348
       0.699
       0.885
       0.907
       0.813
       0.658
       0.477
       0.291
       0.118
      -0.015
      -0.079
      -0.064
       0.000
       0.050
       0.022
      -0.095
      -0.239
      -0.313
      -0.248
      -0.050
       0.209
       0.431
       0.544
       0.542
       0.481
       0.444
       0.477
       0.556
       0.611
       0.575
       0.429
       0.186
      -0.133
      -0.518
      -0.947
      -1.349
      -1.618
      -1.659
      -1.457
      -1.090
      -0.683
      -0.327
      -0.048
       0.174
       0.352
       0.470
       0.507
       0.470
       0.405
       0.377
       0.424
       0.544
       0.701
       0.848
       0.954
       1.014
       1.038
       1.028
       0.958
       0.785
       0.472
       0.020
      -0.510
      -1.015
      -1.389
      -1.571
      -1.569
      -1.436
      -1.227
      -0.959
      -0.619
      -0.196
       0.291
       0.776
       1.172
       1.406
       1.445
       1.302
       1.007
       0.606
       0.170
      -0.200
      -0.409
      -0.429
      -0.322
      -0.192
      -0.108
      -0.061
      -0.007
       0.069
       0.124
       0.102
      -0.018
      -0.191
      -0.342
      -0.415
      -0.420
      -0.435
      -0.543
      -0.757
      -0.979
      -1.052
      -0.869
      -0.440
       0.121
       0.670
       1.092
       1.303
       1.249
       0.924
       0.400
      -0.183
      -0.676
      -0.985
      -1.100
      -1.062
      -0.924
      -0.721
      -0.456
      -0.111
       0.323
       0.811
       1.266
       1.581
       1.680
       1.540
       1.182
       0.648
       0.009
      -0.616
      -1.061
      -1.187
      -0.963
      -0.507
      -0.032
       0.268
       0.314
       0.144
      -0.142
      -0.446
      -0.703
      -0.872
      -0.916
      -0.814
      -0.575
      -0.237
       0.149
       0.539
       0.903
       1.203
       1.395
       1.436
       1.303
       1.008
       0.606
       0.181
      -0.191
      -0.466
      -0.651
      -0.783
      -0.888
      -0.964
      -0.980
      -0.911
      -0.758
      -0.551
      -0.330
      -0.136
      -0.010
       0.014
      -0.079
      -0.267
      -0.484
      -0.644
      -0.672
      -0.534
      -0.256
       0.090
       0.427
       0.719
       0.974
       1.207
       1.392
       1.463
       1.365
       1.107
       0.770
       0.450
       0.195
      -0.011
      -0.217
      -0.457
      -0.719
      -0.952
      -1.095
      -1.102
      -0.959
      -0.684
      -0.319
       0.069
       0.397
       0.573
       0.537
       0.292
      -0.082
      -0.462
      -0.740
      -0.865
      -0.839
      -0.689
      -0.445
      -0.139
       0.172
       0.423
       0.577
       0.659
       0.728
       0.827
       0.934
       0.982
       0.901
       0.661
       0.283
      -0.168
      -0.594
      -0.889
      -0.982
      -0.867
      -0.599
      -0.261
       0.076
       0.363
       0.574
       0.705
       0.763
       0.742
       0.614
       0.355
      -0.011
      -0.395
      -0.687
      -0.823
      -0.815
      -0.716
      -0.571
      -0.400
      -0.230
      -0.123
      -0.155
      -0.357
      -0.671
      -0.959
      -1.080
      -0.967
      -0.652
      -0.224
       0.243
       0.714
       1.167
       1.550
       1.772
       1.751
       1.475
       1.027
       0.545
       0.150
      -0.097
      -0.211
      -0.240
      -0.238
      -0.238
      -0.256
      -0.291
      -0.325
      -0.325
      -0.269
      -0.171
      -0.078
      -0.050
      -0.123
      -0.289
      -0.496
      -0.664
      -0.710
      -0.594
      -0.351
      -0.084
       0.101
       0.162
       0.137
       0.097
       0.090
       0.111
       0.124
       0.113
       0.103
       0.151
       0.285
       0.461
       0.569
       0.504
       0.252
      -0.083
      -0.351
      -0.463
      -0.439
      -0.373
      -0.345
      -0.370
      -0.401
      -0.376
      -0.268
      -0.094
       0.107
       0.300
       0.464
       0.573
       0.587
       0.477
       0.270
       0.048
      -0.105
      -0.175
      -0.224
      -0.313
      -0.421
      -0.456
      -0.342
      -0.087
       0.236
       0.565
       0.882
       1.178
       1.400
       1.464
       1.316
       0.980
       0.533
       0.036
      -0.488
      -1.022
      -1.510
      -1.850
      -1.944
      -1.754
      -1.339
      -0.835
      -0.404
      -0.150
      -0.054
       0.002
       0.138
       0.368
       0.579
       0.634
       0.483
       0.199
      -0.093
      -0.309
      -0.434
      -0.480
      -0.439
      -0.273
       0.045
       0.488
       0.957
       1.318
       1.456
       1.324
       0.964
       0.479
      -0.019
      -0.450
      -0.777
      -0.986
      -1.080
      -1.086
      -1.050
      -1.009
      -0.947
      -0.793
      -0.465
       0.059
       0.713
       1.365
       1.878
       2.153
       2.166
       1.964
       1.645
       1.297
       0.955
       0.601
       0.221
      -0.139
      -0.383
      -0.429
      -0.281
      -0.029
       0.206
       0.340
       0.343
       0.225
       0.010
      -0.273
      -0.582
      -0.861
      -1.051
      -1.106
      -1.017
      -0.813
      -0.547
      -0.264
       0.007
       0.249
       0.444
       0.575
       0.626
       0.594
       0.497
       0.369
       0.251
       0.158
       0.064
      -0.076
      -0.272
      -0.473
      -0.587
      -0.546
      -0.362
      -0.135
       0.000
      -0.051
      -0.284
      -0.611
      -0.924
      -1.175
      -1.382
      -1.561
      -1.662
      -1.575
      -1.230
      -0.687
      -0.128
       0.245
       0.337
       0.200
      -0.024
      -0.207
      -0.300
      -0.343
      -0.407
      -0.537
      -0.721
      -0.908
      -1.040
      -1.085
      -1.041
      -0.921
      -0.738
      -0.491
      -0.168
       0.235
       0.682
       1.096
       1.389
       1.511
       1.467
       1.293
       1.031
       0.724
       0.421
       0.185
       0.063
       0.057
       0.124
       0.199
       0.228
       0.206
       0.174
       0.184
       0.240
       0.263
       0.137
      -0.204
      -0.712
      -1.258
      -1.717
      -2.027
      -2.170
      -2.118
      -1.810
      -1.204
      -0.347
       0.599
       1.435
       2.027
       2.346
       2.440
       2.372
       2.208
       2.023
       1.890
       1.846
       1.874
       1.924
       1.951
       1.940
       1.903
       1.862
       1.824
       1.739
       1.505
       1.031
       0.324
      -0.487
      -1.226
      -1.778
      -2.133
      -2.337
      -2.427
      -2.398
      -2.231
      -1.935
      -1.579
      -1.272
      -1.116
      -1.126
      -1.218
      -1.275
      -1.236
      -1.123
      -0.979
      -0.813
      -0.612
      -0.375
      -0.128
       0.108
       0.320
       0.505
       0.668
       0.825
       0.986
       1.131
       1.224
       1.251
       1.258
       1.314
       1.443
       1.600
       1.711
       1.728
       1.632
       1.407
       1.046
       0.578
       0.074
      -0.390
      -0.764
      -1.019
      -1.120
      -1.035
      -0.774
      -0.403
      -0.010
       0.337
       0.604
       0.765
       0.783
       0.612
       0.235
      -0.295
      -0.867
      -1.365
      -1.729
      -1.969
      -2.106
      -2.121
      -1.966
      -1.637
      -1.212
      -0.826
      -0.590
      -0.542
      -0.656
      -0.875
      -1.132
      -1.348
      -1.446
      -1.371
      -1.110
      -0.692
      -0.170
       0.402
       0.976
       1.529
       2.057
       2.557
       3.009
       3.380
       3.635
       3.754
       3.729
       3.554
       3.239
       2.824
       2.383
       1.978
       1.613
       1.234
       0.787
       0.273
      -0.262
      -0.780
      -1.285
      -1.799
      -2.316
      -2.793
      -3.190
      -3.497
      -3.719
      -3.856
      -3.893
      -3.822
      -3.646
      -3.373
      -3.018
      -2.613
      -2.194
      -1.781
      -1.358
      -0.911
      -0.460
      -0.057
       0.267
       0.538
       0.815
       1.145
       1.535
       1.964
       2.391
       2.762
       3.011
       3.094
       3.018
       2.845
       2.641
       2.434
       2.213
       1.975
       1.741
       1.534
       1.345
       1.125
       0.828
       0.456
       0.064
      -0.269
      -0.485
      -0.569
      -0.539
      -0.436
      -0.316
      -0.237
      -0.238
      -0.330
      -0.496
      -0.715
      -0.984
      -1.298
      -1.623
      -1.899
      -2.080
      -2.176
      -2.253
      -2.387
      -2.615
      -2.905
      -3.153
      -3.217
      -2.980
      -2.433
      -1.688
      -0.921
      -0.273
       0.204
       0.529
       0.742
       0.870
       0.941
       0.988
       1.055
       1.169
       1.325
       1.486
       1.607
       1.663
       1.661
       1.620
       1.551
       1.458
       1.354
       1.267
       1.215
       1.186
       1.140
       1.050
       0.920
       0.761
       0.558
       0.279
      -0.073
      -0.443
      -0.761
      -0.990
      -1.132
      -1.190
      -1.142
      -0.971
      -0.687
      -0.331
       0.069
       0.510
       0.995
       1.486
       1.894
       2.131
       2.173
       2.086
       1.965
       1.852
       1.720
       1.527
       1.288
       1.083
       0.982
       0.962
       0.910
       0.699
       0.287
      -0.258
      -0.822
      -1.334
      -1.793
      -2.231
      -2.649
      -2.993
      -3.181
      -3.162
      -2.958
      -2.657
      -2.357
      -2.124
      -1.969
      -1.855
      -1.715
      -1.483
      -1.111
      -0.603
      -0.028
       0.503
       0.900
       1.142
       1.283
       1.407
       1.574
       1.804
       2.070
       2.313
       2.455
       2.416
       2.147
       1.658
       1.025
       0.359
      -0.247
      -0.751
      -1.154
      -1.466
      -1.691
      -1.840
      -1.952
      -2.083
      -2.262
      -2.455
      -2.593
      -2.623
      -2.548
      -2.405
      -2.222
      -1.992
      -1.687
      -1.276
      -0.751
      -0.136
       0.516
       1.161
       1.805
       2.487
       3.214
       3.891
       4.345
       4.421
       4.082
       3.436
       2.676
       1.977
       1.410
       0.943
       0.520
       0.143
      -0.106
      -0.141
       0.055
       0.414
       0.826
       1.172
       1.335
       1.212
       0.757
       0.028
      -0.834
      -1.676
      -2.380
      -2.869
      -3.092
      -3.029
      -2.719
      -2.235
      -1.644
      -0.974
      -0.245
       0.497
       1.171
       1.690
       1.977
       1.982
       1.706
       1.233
       0.716
       0.296
       0.006
      -0.233
      -0.529
      -0.928
      -1.391
      -1.844
      -2.215
      -2.448
      -2.510
      -2.410
      -2.208
      -1.967
      -1.702
      -1.376
      -0.954
      -0.451
       0.052
       0.454
       0.673
       0.686
       0.541
       0.335
       0.174
       0.122
       0.185
       0.317
       0.450
       0.525
       0.517
       0.446
       0.364
       0.330
       0.387
       0.551
       0.796
       1.064
       1.293
       1.461
       1.594
       1.729
       1.864
       1.963
       2.006
       2.020
       2.034
       2.015
       1.868
       1.527
       1.031
       0.501
       0.043
      -0.322
      -0.632
      -0.916
      -1.164
      -1.342
      -1.438
      -1.483
      -1.540
      -1.672
      -1.886
      -2.122
      -2.290
      -2.326
      -2.227
      -2.012
      -1.684
      -1.221
      -0.626
       0.043
       0.678
       1.157
       1.383
       1.310
       0.980
       0.519
       0.093
      -0.183
      -0.296
      -0.299
      -0.239
      -0.125
       0.058
       0.309
       0.612
       0.946
       1.277
       1.553
       1.704
       1.673
       1.450
       1.085
       0.685
       0.364
       0.192
       0.153
       0.162
       0.130
       0.023
      -0.114
      -0.210
      -0.227
      -0.188
      -0.150
      -0.179
      -0.329
      -0.631
      -1.055
      -1.508
      -1.864
      -2.044
      -2.059
      -1.999
      -1.962
      -1.995
      -2.076
      -2.131
      -2.061
      -1.772
      -1.203
      -0.371
       0.601
       1.517
       2.210
       2.633
       2.869
       3.048
       3.247
       3.448
       3.592
       3.629
       3.548
       3.354
       3.047
       2.620
       2.075
       1.448
       0.812
       0.257
      -0.147
      -0.384
      -0.503
      -0.581
      -0.680
      -0.827
      -1.027
      -1.278
      -1.562
      -1.847
      -2.097
      -2.287
      -2.405
      -2.453
      -2.449
      -2.426
      -2.415
      -2.413
      -2.380
      -2.275
      -2.088
      -1.841
      -1.559
      -1.257
      -0.968
      -0.776
      -0.807
      -1.142
      -1.727
      -2.350
      -2.727
      -2.649
      -2.088
      -1.204
      -0.247
       0.563
       1.125
       1.461
       1.653
       1.780
       1.883
       1.990
       2.125
       2.297
       2.480
       2.617
       2.658
       2.589
       2.440
       2.259
       2.088
       1.950
       1.845
       1.775
       1.745
       1.752
       1.754
       1.663
       1.388
       0.903
       0.282
      -0.343
      -0.859
      -1.229
      -1.493
      -1.719
      -1.938
      -2.130
      -2.233
      -2.182
      -1.946
      -1.546
      -1.056
      -0.583
      -0.229
      -0.043
      -0.007
      -0.053
      -0.108
      -0.120
      -0.073
       0.027
       0.164
       0.329
       0.533
       0.790
       1.089
       1.368
       1.534
       1.520
       1.327
       1.018
       0.676
       0.367
       0.123
      -0.049
      -0.158
      -0.219
      -0.238
      -0.207
      -0.115
       0.017
       0.108
       0.038
      -0.292
      -0.884
      -1.607
      -2.247
      -2.599
      -2.562
      -2.172
      -1.558
      -0.862
      -0.191
       0.389
       0.827
       1.067
       1.071
       0.854
       0.504
       0.142
      -0.130
      -0.263
      -0.255
      -0.130
       0.074
       0.312
       0.558
       0.813
       1.079
       1.325
       1.487
       1.513
       1.408
       1.213
       0.948
       0.589
       0.094
      -0.541
      -1.258
      -1.940
      -2.428
      -2.575
      -2.310
      -1.700
      -0.944
      -0.283
       0.112
       0.202
       0.069
      -0.160
      -0.382
      -0.553
      -0.676
      -0.759
      -0.789
      -0.754
      -0.672
      -0.596
      -0.556
      -0.515
      -0.393
      -0.136
       0.237
       0.657
       1.065
       1.431
       1.727
       1.920
       1.978
       1.902
       1.723
       1.498
       1.293
       1.160
       1.115
       1.119
       1.097
       0.980
       0.733
       0.354
      -0.133
      -0.667
      -1.146
      -1.456
      -1.533
      -1.403
      -1.169
      -0.945
      -0.798
      -0.728
      -0.696
      -0.668
      -0.640
      -0.628
      -0.644
      -0.675
      -0.682
      -0.620
      -0.472
      -0.273
      -0.087
       0.032
       0.091
       0.146
       0.260
       0.452
       0.671
       0.835
       0.877
       0.796
       0.652
       0.536
       0.500
       0.525
       0.533
       0.448
       0.256
       0.015
      -0.186
      -0.287
      -0.277
      -0.182
      -0.033
       0.148
       0.326
       0.443
       0.433
       0.273
       0.013
      -0.244
      -0.402
      -0.411
      -0.271
      -0.021
       0.265
       0.491
       0.574
       0.499
       0.327
       0.142
      -0.015
      -0.151
      -0.279
      -0.382
      -0.426
      -0.395
      -0.302
      -0.184
      -0.095
      -0.087
      -0.179
      -0.327
      -0.439
      -0.439
      -0.311
      -0.094
       0.162
       0.410
       0.594
       0.667
       0.615
       0.467
       0.264
       0.038
      -0.185
