Origin Time       27/11/2012 12:15:15 UTC
Lat.              30.9 N	
Long.             78.4 E	
Depth (Km)         12.0
Magnitude         4.8
 Region           Uttarkashi-Uttarakhand                                           
 Above details taken from IMD 
    
Station Code      DNL
Station Lat.       30.427  N
Station Long.      78.244  E
Station Height(m) 2280.0
Site Class        B   Vs30 between 375 m/sec to 700 m/sec *  
Record Time       27.11.2012 12:15:04.529 UTC
Sampling Rate     200. Hz
 Record Duration   80.035 Sec.
 Direction         N-S (N positive)
Max. Acceleration     -4.005 cm/sec**2
     
  * For reference see Site Classification link of website 
     
 Base Line Corrected and Low Pass Filtered (Cut Off at 35 Hz) Time History
 Acceleration data in cm/sec**2
    
[...]
       0.368
       0.413
       0.483
       0.579
       0.696
       0.822
       0.938
       1.024
       1.058
       1.023
       0.919
       0.762
       0.588
       0.438
       0.348
       0.331
       0.368
       0.414
       0.419
       0.351
       0.213
       0.033
      -0.154
      -0.331
      -0.500
      -0.667
      -0.830
      -0.970
      -1.062
      -1.084
      -1.031
      -0.914
      -0.761
      -0.608
      -0.488
      -0.414
      -0.382
      -0.367
      -0.348
      -0.317
      -0.276
      -0.235
      -0.199
      -0.168
      -0.142
      -0.118
      -0.099
      -0.090
      -0.093
      -0.098
      -0.084
      -0.033
       0.051
       0.140
       0.201
       0.217
       0.202
       0.194
       0.232
       0.325
       0.444
       0.533
       0.549
       0.484
       0.368
       0.247
       0.155
       0.093
       0.038
      -0.041
      -0.152
      -0.282
      -0.405
      -0.499
      -0.553
      -0.568
      -0.550
      -0.507
      -0.443
      -0.360
      -0.258
      -0.152
      -0.065
      -0.018
      -0.014
      -0.031
      -0.032
       0.016
       0.125
       0.284
       0.460
       0.614
       0.718
       0.762
       0.750
       0.700
       0.636
       0.579
       0.551
       0.559
       0.598
       0.653
       0.711
       0.765
       0.808
       0.820
       0.771
       0.643
       0.443
       0.214
       0.003
      -0.162
      -0.284
      -0.387
      -0.496
      -0.628
      -0.783
      -0.951
      -1.116
      -1.263
      -1.383
      -1.469
      -1.514
      -1.500
      -1.404
      -1.208
      -0.915
      -0.567
      -0.231
       0.031
       0.187
       0.255
       0.289
       0.350
       0.479
       0.679
       0.910
       1.118
       1.257
       1.305
       1.256
       1.113
       0.885
       0.594
       0.269
      -0.054
      -0.328
      -0.509
      -0.571
      -0.520
      -0.392
      -0.228
      -0.055
       0.115
       0.276
       0.411
       0.491
       0.489
       0.393
       0.220
       0.014
      -0.162
      -0.264
      -0.287
      -0.268
      -0.260
      -0.300
      -0.388
      -0.497
      -0.597
      -0.678
      -0.750
      -0.820
      -0.876
      -0.888
      -0.825
      -0.679
      -0.467
      -0.223
       0.010
       0.197
       0.318
       0.378
       0.398
       0.404
       0.415
       0.440
       0.475
       0.505
       0.507
       0.461
       0.366
       0.237
       0.100
      -0.026
      -0.130
      -0.204
      -0.240
      -0.228
      -0.165
      -0.057
       0.082
       0.237
       0.393
       0.532
       0.631
       0.673
       0.656
       0.593
       0.506
       0.403
       0.282
       0.134
      -0.035
      -0.200
      -0.330
      -0.402
      -0.423
      -0.422
      -0.429
      -0.440
      -0.427
      -0.358
      -0.239
      -0.104
       0.002
       0.064
       0.097
       0.130
       0.180
       0.244
       0.302
       0.338
       0.349
       0.346
       0.347
       0.358
       0.369
       0.358
       0.308
       0.222
       0.121
       0.037
      -0.012
      -0.026
      -0.024
      -0.032
      -0.058
      -0.088
      -0.081
      -0.003
       0.154
       0.358
       0.548
       0.674
       0.712
       0.670
       0.572
       0.444
       0.300
       0.147
      -0.010
      -0.158
      -0.281
      -0.376
      -0.457
      -0.547
      -0.651
      -0.750
      -0.811
      -0.804
      -0.728
      -0.611
      -0.500
      -0.437
      -0.432
      -0.460
      -0.483
      -0.480
      -0.458
      -0.438
      -0.435
      -0.441
      -0.439
      -0.424
      -0.412
      -0.428
      -0.474
      -0.524
      -0.544
      -0.519
      -0.460
      -0.387
      -0.309
      -0.217
      -0.087
       0.096
       0.323
       0.560
       0.768
       0.922
       1.015
       1.051
       1.033
       0.960
       0.834
       0.667
       0.478
       0.287
       0.113
      -0.026
      -0.120
      -0.167
      -0.163
      -0.103
       0.023
       0.214
       0.459
       0.734
       1.008
       1.258
       1.468
       1.640
       1.778
       1.883
       1.936
       1.906
       1.768
       1.523
       1.205
       0.859
       0.523
       0.210
      -0.092
      -0.405
      -0.744
      -1.098
      -1.426
      -1.683
      -1.838
      -1.895
      -1.887
      -1.850
      -1.805
      -1.752
      -1.680
      -1.581
      -1.453
      -1.305
      -1.144
      -0.986
      -0.843
      -0.724
      -0.638
      -0.598
      -0.612
      -0.679
      -0.773
      -0.854
      -0.883
      -0.848
      -0.775
      -0.708
      -0.683
      -0.703
      -0.731
      -0.701
      -0.557
      -0.283
       0.082
       0.464
       0.792
       1.032
       1.183
       1.267
       1.301
       1.296
       1.262
       1.214
       1.163
       1.114
       1.065
       1.018
       0.975
       0.934
       0.893
       0.845
       0.788
       0.724
       0.655
       0.597
       0.571
       0.595
       0.670
       0.781
       0.908
       1.040
       1.169
       1.290
       1.388
       1.443
       1.447
       1.404
       1.325
       1.222
       1.097
       0.950
       0.786
       0.610
       0.432
       0.265
       0.127
       0.027
      -0.043
      -0.105
      -0.183
      -0.294
      -0.439
      -0.611
      -0.804
      -1.017
      -1.263
      -1.556
      -1.893
      -2.245
      -2.561
      -2.785
      -2.883
      -2.849
      -2.705
      -2.492
      -2.248
      -1.993
      -1.726
      -1.438
      -1.134
      -0.841
      -0.596
      -0.425
      -0.328
      -0.273
      -0.207
      -0.093
       0.076
       0.262
       0.413
       0.490
       0.493
       0.455
       0.429
       0.459
       0.568
       0.737
       0.913
       1.035
       1.067
       1.018
       0.926
       0.827
       0.731
       0.627
       0.500
       0.349
       0.194
       0.058
      -0.054
      -0.154
      -0.260
      -0.375
      -0.479
      -0.545
      -0.557
      -0.527
      -0.491
      -0.487
      -0.519
      -0.548
      -0.517
      -0.395
      -0.197
       0.020
       0.204
       0.328
       0.399
       0.439
       0.466
       0.486
       0.496
       0.493
       0.477
       0.465
       0.484
       0.569
       0.747
       1.020
       1.364
       1.739
       2.104
       2.422
       2.667
       2.814
       2.841
       2.734
       2.495
       2.156
       1.769
       1.388
       1.029
       0.668
       0.253
      -0.249
      -0.827
      -1.425
      -1.972
      -2.418
      -2.754
      -3.011
      -3.239
      -3.471
      -3.700
      -3.887
      -3.979
      -3.945
      -3.776
      -3.485
      -3.098
      -2.648
      -2.170
      -1.695
      -1.243
      -0.819
      -0.421
      -0.045
       0.305
       0.620
       0.895
       1.126
       1.316
       1.467
       1.584
       1.671
       1.731
       1.760
       1.755
       1.726
       1.695
       1.686
       1.709
       1.759
       1.818
       1.870
       1.899
       1.895
       1.855
       1.778
       1.658
       1.471
       1.179
       0.760
       0.226
      -0.366
      -0.935
      -1.416
      -1.781
      -2.044
      -2.242
      -2.399
      -2.505
      -2.528
      -2.434
      -2.213
      -1.888
      -1.501
      -1.100
      -0.726
      -0.415
      -0.197
      -0.088
      -0.075
      -0.107
      -0.111
      -0.030
       0.154
       0.413
       0.703
       0.994
       1.267
       1.512
       1.707
       1.822
       1.839
       1.768
       1.644
       1.515
       1.420
       1.368
       1.342
       1.320
       1.290
       1.248
       1.172
       1.019
       0.742
       0.331
      -0.175
      -0.700
      -1.164
      -1.505
      -1.690
      -1.712
      -1.588
      -1.344
      -1.015
      -0.638
      -0.250
       0.109
       0.410
       0.634
       0.782
       0.873
       0.933
       0.979
       1.011
       1.015
       0.977
       0.892
       0.773
       0.645
       0.540
       0.477
       0.453
       0.440
       0.408
       0.348
       0.285
       0.259
       0.298
       0.399
       0.525
       0.623
       0.650
       0.583
       0.427
       0.195
      -0.105
      -0.480
      -0.934
      -1.453
      -1.998
      -2.517
      -2.963
      -3.305
      -3.530
      -3.642
      -3.650
      -3.558
      -3.351
      -2.997
      -2.471
      -1.785
      -1.003
      -0.223
       0.464
       1.002
       1.388
       1.646
       1.814
       1.923
       2.002
       2.079
       2.170
       2.267
       2.318
       2.245
       1.986
       1.542
       0.995
       0.483
       0.137
       0.016
       0.090
       0.265
       0.446
       0.579
       0.671
       0.772
       0.935
       1.179
       1.469
       1.722
       1.853
       1.809
       1.583
       1.202
       0.706
       0.139
      -0.457
      -1.042
      -1.587
      -2.077
      -2.507
      -2.880
      -3.189
      -3.418
      -3.535
      -3.504
      -3.315
      -2.992
      -2.603
      -2.232
      -1.937
      -1.721
      -1.536
      -1.310
      -0.990
      -0.571
      -0.106
       0.322
       0.643
       0.837
       0.928
       0.957
       0.945
       0.896
       0.820
       0.748
       0.725
       0.794
       0.969
       1.239
       1.565
       1.900
       2.203
       2.438
       2.574
       2.581
       2.433
       2.123
       1.669
       1.106
       0.479
      -0.159
      -0.759
      -1.274
      -1.663
      -1.896
      -1.950
      -1.822
      -1.529
      -1.113
      -0.629
      -0.137
       0.311
       0.689
       0.989
       1.223
       1.405
       1.544
       1.646
       1.714
       1.754
       1.768
       1.759
       1.731
       1.686
       1.613
       1.480
       1.245
       0.876
       0.365
      -0.262
      -0.943
      -1.593
      -2.118
      -2.449
      -2.569
      -2.523
      -2.394
      -2.262
      -2.155
      -2.039
      -1.860
      -1.599
      -1.289
      -0.990
      -0.751
      -0.587
      -0.482
      -0.404
      -0.333
      -0.267
      -0.206
      -0.140
      -0.041
       0.107
       0.289
       0.461
       0.588
       0.675
       0.771
       0.921
       1.118
       1.296
       1.382
       1.344
       1.211
       1.038
       0.866
       0.696
       0.498
       0.244
      -0.066
      -0.399
      -0.706
      -0.949
      -1.119
      -1.225
      -1.283
      -1.303
      -1.283
      -1.210
      -1.070
      -0.859
      -0.591
      -0.294
       0.003
       0.278
       0.520
       0.718
       0.856
       0.904
       0.840
       0.670
       0.445
       0.243
       0.131
       0.126
       0.201
       0.311
       0.431
       0.571
       0.758
       1.013
       1.327
       1.670
       2.011
       2.334
       2.629
       2.880
       3.063
       3.160
       3.166
       3.090
       2.939
       2.706
       2.387
       1.988
       1.542
       1.095
       0.684
       0.317
      -0.029
      -0.395
      -0.809
      -1.265
      -1.723
      -2.124
      -2.427
      -2.624
      -2.731
      -2.767
      -2.744
      -2.671
      -2.569
      -2.464
      -2.381
      -2.338
      -2.346
      -2.402
      -2.480
      -2.536
      -2.530
      -2.438
      -2.270
      -2.062
      -1.859
      -1.694
      -1.564
      -1.449
      -1.328
      -1.210
      -1.116
      -1.056
      -1.011
      -0.943
      -0.825
      -0.664
      -0.496
      -0.368
      -0.310
      -0.331
      -0.413
      -0.523
      -0.628
      -0.706
      -0.757
      -0.786
      -0.785
      -0.715
      -0.527
      -0.193
       0.269
       0.794
       1.304
       1.736
       2.065
       2.310
       2.515
       2.711
       2.890
       3.015
       3.056
       3.029
       2.985
       2.969
       2.987
       3.001
       2.958
       2.823
       2.590
       2.278
       1.911
       1.506
       1.083
       0.670
       0.303
       0.010
      -0.205
      -0.371
      -0.522
      -0.675
      -0.816
      -0.914
      -0.947
      -0.922
      -0.877
      -0.857
      -0.897
      -1.001
      -1.142
      -1.282
      -1.394
      -1.474
      -1.541
      -1.614
      -1.700
      -1.785
      -1.850
      -1.877
      -1.865
      -1.826
      -1.781
      -1.743
      -1.717
      -1.692
      -1.657
      -1.595
      -1.489
      -1.312
      -1.042
      -0.673
      -0.235
       0.214
       0.616
       0.939
       1.194
       1.412
       1.633
       1.882
       2.169
       2.472
       2.749
       2.950
       3.039
       3.016
       2.915
       2.785
       2.676
       2.614
       2.591
       2.567
       2.491
       2.329
       2.079
       1.770
       1.445
       1.147
       0.913
       0.768
       0.717
       0.733
       0.759
       0.724
       0.579
       0.320
      -0.003
      -0.312
      -0.539
      -0.647
      -0.633
      -0.514
      -0.310
      -0.040
       0.278
       0.614
       0.915
       1.115
       1.170
       1.076
       0.874
       0.610
       0.303
      -0.060
      -0.496
      -0.993
      -1.509
      -1.992
      -2.419
      -2.796
      -3.146
      -3.474
      -3.759
      -3.953
      -4.005
      -3.889
      -3.621
      -3.265
      -2.905
      -2.599
      -2.356
      -2.142
      -1.912
      -1.648
      -1.363
      -1.082
      -0.822
      -0.596
      -0.417
      -0.304
      -0.279
      -0.355
      -0.533
      -0.791
      -1.083
      -1.354
      -1.561
      -1.683
      -1.719
      -1.682
      -1.592
      -1.469
      -1.323
      -1.151
      -0.940
      -0.676
      -0.358
      -0.002
       0.354
       0.672
       0.927
       1.116
       1.245
       1.330
       1.383
       1.420
       1.460
       1.524
       1.629
       1.782
       1.970
       2.160
       2.303
       2.364
       2.331
       2.221
       2.069
       1.906
       1.762
       1.660
       1.621
       1.650
       1.720
       1.784
       1.801
       1.753
       1.648
       1.498
       1.310
       1.088
       0.839
       0.578
       0.327
       0.097
      -0.115
      -0.320
      -0.525
      -0.718
      -0.883
      -1.008
      -1.091
      -1.130
      -1.117
      -1.033
      -0.864
      -0.623
      -0.351
      -0.101
       0.088
       0.208
       0.278
       0.333
       0.409
       0.522
       0.670
       0.842
       1.015
       1.162
       1.249
       1.246
       1.138
       0.931
       0.653
       0.343
       0.044
      -0.210
      -0.415
      -0.590
      -0.769
      -0.978
      -1.212
      -1.442
      -1.628
      -1.738
      -1.768
      -1.730
      -1.647
      -1.535
      -1.394
      -1.221
      -1.017
      -0.794
      -0.574
      -0.374
      -0.211
      -0.096
      -0.046
      -0.072
      -0.168
      -0.297
      -0.407
      -0.457
      -0.441
      -0.384
      -0.318
      -0.251
      -0.168
      -0.041
       0.145
       0.380
       0.638
       0.891
       1.120
       1.314
       1.461
       1.547
       1.562
       1.515
       1.430
       1.330
       1.222
       1.090
       0.913
       0.678
       0.379
       0.016
      -0.413
      -0.893
      -1.380
      -1.808
      -2.117
      -2.282
      -2.325
      -2.294
      -2.232
      -2.149
      -2.017
      -1.792
      -1.449
      -1.007
      -0.524
      -0.062
       0.341
       0.683
       0.985
       1.268
       1.538
       1.788
       1.994
       2.126
       2.154
       2.063
       1.860
       1.582
       1.273
       0.973
       0.702
       0.458
       0.234
       0.034
      -0.130
      -0.241
      -0.295
      -0.308
      -0.308
      -0.318
      -0.339
      -0.351
      -0.329
      -0.267
      -0.185
      -0.110
      -0.064
      -0.048
      -0.054
      -0.068
      -0.080
      -0.084
      -0.087
      -0.093
      -0.094
      -0.075
      -0.023
       0.053
       0.123
       0.153
       0.126
       0.049
      -0.050
      -0.141
      -0.207
      -0.262
      -0.338
      -0.463
      -0.639
      -0.830
      -0.982
      -1.054
      -1.034
      -0.949
      -0.835
      -0.722
      -0.617
      -0.520
      -0.434
      -0.367
      -0.328
      -0.305
      -0.272
      -0.197
      -0.067
       0.107
       0.293
       0.451
       0.552
       0.591
       0.576
       0.519
       0.421
       0.279
       0.110
      -0.052
      -0.166
      -0.209
      -0.185
      -0.114
      -0.017
       0.089
       0.182
       0.243
       0.261
       0.250
       0.245
       0.280
       0.365
       0.488
       0.625
       0.755
       0.866
       0.952
       1.004
       1.007
       0.952
       0.848
       0.718
       0.582
       0.439
       0.275
       0.082
      -0.127
      -0.322
      -0.478
      -0.595
      -0.699
      -0.825
      -0.991
      -1.184
      -1.367
      -1.494
      -1.535
      -1.485
      -1.360
      -1.184
      -0.965
      -0.707
      -0.418
      -0.122
       0.153
       0.383
       0.555
       0.664
       0.717
       0.735
       0.745
       0.768
       0.814
       0.880
       0.947
       0.987
       0.976
       0.911
       0.802
       0.662
       0.492
       0.287
       0.047
      -0.212
      -0.467
      -0.689
      -0.859
      -0.962
      -0.999
      -0.977
      -0.911
      -0.819
      -0.717
      -0.616
      -0.508
      -0.369
      -0.177
       0.081
       0.391
       0.721
       1.034
       1.298
       1.487
       1.587
       1.590
       1.507
       1.361
       1.191
       1.038
       0.931
       0.880
       0.866
       0.858
       0.835
       0.797
       0.756
       0.710
       0.642
       0.528
       0.369
       0.191
       0.026
      -0.107
      -0.203
      -0.264
      -0.292
      -0.292
      -0.279
      -0.268
      -0.267
      -0.271
      -0.259
      -0.211
      -0.123
      -0.021
       0.043
       0.015
      -0.140
      -0.412
      -0.759
      -1.119
      -1.436
      -1.669
      -1.799
      -1.821
      -1.753
      -1.626
      -1.478
      -1.339
      -1.209
      -1.067
      -0.883
      -0.641
      -0.352
      -0.047
       0.229
       0.433
       0.535
       0.526
       0.423
       0.259
       0.078
      -0.082
      -0.207
      -0.314
      -0.441
      -0.626
      -0.885
      -1.196
      -1.499
      -1.724
      -1.818
      -1.770
      -1.608
      -1.374
      -1.108
      -0.835
      -0.564
      -0.294
      -0.024
       0.246
       0.501
       0.720
       0.876
       0.950
       0.943
       0.874
       0.770
       0.653
       0.540
       0.442
       0.370
       0.332
       0.328
       0.334
       0.311
       0.230
       0.088
      -0.081
      -0.227
      -0.305
      -0.281
      -0.140
       0.102
       0.397
       0.680
       0.899
       1.035
       1.097
       1.109
       1.092
       1.058
       0.999
       0.904
       0.767
