Origin Time       21/9/2009 9:43:47	  UTC
Lat.              30.9 N	
Long.             79.1 E	
Depth (Km)         13.0
Magnitude         4.7
 Region           UTTARKASHI-UTTARAKHAND                                           
 Above details taken from IMD 
    
Station Code      DHA
Station Lat.       30.427  N
Station Long.      78.244  E
Station Height(m) 2280.0
Site Class        B   Vs30 between 375 m/sec to 700 m/sec *  
Record Time       21.09.2009 09:44:06.789 UTC
Sampling Rate     200. Hz
 Record Duration   67.020 Sec.
 Direction         N-S (N positive)
Max. Acceleration      6.530 cm/sec**2
     
  * For reference see Site Classification link of website 
     
 Base Line Corrected and Low Pass Filtered (Cut Off at 35 Hz) Time History
 Acceleration data in cm/sec**2
    
[...]
       0.248
       0.321
       0.361
       0.381
       0.398
       0.419
       0.436
       0.430
       0.397
       0.357
       0.338
       0.347
       0.363
       0.355
       0.306
       0.220
       0.109
      -0.018
      -0.156
      -0.287
      -0.385
      -0.434
      -0.448
      -0.458
      -0.495
      -0.564
      -0.638
      -0.686
      -0.687
      -0.647
      -0.587
      -0.525
      -0.460
      -0.376
      -0.263
      -0.133
      -0.020
       0.039
       0.034
      -0.011
      -0.061
      -0.101
      -0.145
      -0.206
      -0.270
      -0.296
      -0.258
      -0.161
      -0.035
       0.101
       0.243
       0.387
       0.515
       0.602
       0.636
       0.628
       0.600
       0.573
       0.551
       0.526
       0.481
       0.403
       0.292
       0.166
       0.057
      -0.012
      -0.041
      -0.053
      -0.078
      -0.134
      -0.218
      -0.313
      -0.397
      -0.455
      -0.480
      -0.479
      -0.468
      -0.466
      -0.489
      -0.533
      -0.570
      -0.561
      -0.481
      -0.343
      -0.190
      -0.074
      -0.019
      -0.021
      -0.056
      -0.097
      -0.117
      -0.090
      -0.003
       0.138
       0.293
       0.416
       0.472
       0.465
       0.428
       0.403
       0.412
       0.444
       0.468
       0.458
       0.408
       0.335
       0.261
       0.202
       0.167
       0.153
       0.145
       0.125
       0.079
       0.010
      -0.061
      -0.111
      -0.127
      -0.113
      -0.083
      -0.054
      -0.035
      -0.021
       0.002
       0.036
       0.067
       0.079
       0.074
       0.083
       0.132
       0.217
       0.299
       0.335
       0.311
       0.238
       0.139
       0.032
      -0.069
      -0.154
      -0.216
      -0.261
      -0.303
      -0.357
      -0.417
      -0.461
      -0.463
      -0.424
      -0.374
      -0.356
      -0.393
      -0.470
      -0.542
      -0.566
      -0.520
      -0.401
      -0.226
      -0.026
       0.169
       0.331
       0.458
       0.559
       0.646
       0.718
       0.763
       0.767
       0.727
       0.641
       0.513
       0.355
       0.183
       0.021
      -0.119
      -0.233
      -0.324
      -0.396
      -0.452
      -0.499
      -0.545
      -0.590
      -0.618
      -0.608
      -0.543
      -0.429
      -0.295
      -0.179
      -0.108
      -0.082
      -0.081
      -0.085
      -0.090
      -0.099
      -0.111
      -0.115
      -0.102
      -0.067
      -0.020
       0.027
       0.069
       0.112
       0.173
       0.260
       0.363
       0.459
       0.534
       0.588
       0.628
       0.651
       0.651
       0.630
       0.605
       0.591
       0.580
       0.543
       0.463
       0.355
       0.251
       0.169
       0.093
      -0.011
      -0.160
      -0.348
      -0.549
      -0.731
      -0.868
      -0.949
      -0.979
      -0.984
      -0.983
      -0.977
      -0.942
      -0.856
      -0.725
      -0.583
      -0.471
      -0.403
      -0.364
      -0.325
      -0.275
      -0.222
      -0.181
      -0.145
      -0.083
       0.037
       0.220
       0.439
       0.651
       0.817
       0.915
       0.941
       0.905
       0.838
       0.781
       0.769
       0.809
       0.870
       0.904
       0.875
       0.776
       0.629
       0.461
       0.284
       0.098
      -0.094
      -0.269
      -0.389
      -0.422
      -0.366
      -0.254
      -0.135
      -0.046
      -0.008
      -0.018
      -0.062
      -0.128
      -0.212
      -0.317
      -0.436
      -0.543
      -0.599
      -0.581
      -0.500
      -0.394
      -0.305
      -0.251
      -0.226
      -0.210
      -0.193
      -0.172
      -0.147
      -0.112
      -0.054
       0.037
       0.163
       0.306
       0.439
       0.532
       0.572
       0.561
       0.512
       0.431
       0.318
       0.177
       0.036
      -0.065
      -0.096
      -0.063
      -0.006
       0.037
       0.046
       0.024
      -0.021
      -0.087
      -0.182
      -0.301
      -0.422
      -0.517
      -0.569
      -0.579
      -0.560
      -0.520
      -0.463
      -0.404
      -0.373
      -0.400
      -0.486
      -0.599
      -0.686
      -0.708
      -0.650
      -0.522
      -0.341
      -0.127
       0.097
       0.304
       0.466
       0.564
       0.603
       0.612
       0.625
       0.660
       0.705
       0.735
       0.736
       0.720
       0.715
       0.739
       0.787
       0.840
       0.870
       0.854
       0.769
       0.612
       0.406
       0.199
       0.041
      -0.050
      -0.093
      -0.127
      -0.177
      -0.246
      -0.317
      -0.371
      -0.396
      -0.386
      -0.334
      -0.236
      -0.104
       0.027
       0.116
       0.144
       0.128
       0.111
       0.120
       0.148
       0.160
       0.134
       0.092
       0.076
       0.116
       0.198
       0.284
       0.354
       0.418
       0.498
       0.589
       0.663
       0.681
       0.632
       0.529
       0.395
       0.248
       0.097
      -0.044
      -0.155
      -0.221
      -0.252
      -0.279
      -0.343
      -0.469
      -0.654
      -0.866
      -1.060
      -1.198
      -1.252
      -1.212
      -1.077
      -0.861
      -0.590
      -0.307
      -0.067
       0.078
       0.107
       0.037
      -0.077
      -0.180
      -0.236
      -0.237
      -0.191
      -0.114
      -0.025
       0.053
       0.108
       0.149
       0.197
       0.260
       0.318
       0.329
       0.266
       0.136
      -0.030
      -0.201
      -0.370
      -0.535
      -0.681
      -0.779
      -0.803
      -0.754
      -0.663
      -0.563
      -0.476
      -0.398
      -0.311
      -0.203
      -0.067
       0.086
       0.235
       0.349
       0.405
       0.401
       0.356
       0.296
       0.237
       0.187
       0.158
       0.160
       0.202
       0.270
       0.331
       0.348
       0.299
       0.197
       0.080
      -0.010
      -0.056
      -0.062
      -0.039
       0.009
       0.084
       0.173
       0.250
       0.302
       0.342
       0.392
       0.450
       0.482
       0.445
       0.328
       0.155
      -0.041
      -0.243
      -0.451
      -0.657
      -0.845
      -0.994
      -1.097
      -1.163
      -1.203
      -1.217
      -1.192
      -1.097
      -0.903
      -0.591
      -0.174
       0.302
       0.769
       1.157
       1.414
       1.519
       1.476
       1.311
       1.059
       0.758
       0.452
       0.182
      -0.024
      -0.164
      -0.252
      -0.310
      -0.360
      -0.420
      -0.502
      -0.595
      -0.678
      -0.731
      -0.763
      -0.804
      -0.879
      -0.982
      -1.086
      -1.162
      -1.209
      -1.240
      -1.260
      -1.254
      -1.192
      -1.049
      -0.816
      -0.506
      -0.142
       0.249
       0.640
       0.994
       1.275
       1.467
       1.586
       1.673
       1.772
       1.910
       2.107
       2.375
       2.709
       3.070
       3.379
       3.540
       3.480
       3.179
       2.664
       1.985
       1.195
       0.345
      -0.509
      -1.309
      -2.011
      -2.595
      -3.068
      -3.447
      -3.735
      -3.922
      -3.982
      -3.900
      -3.679
      -3.341
      -2.908
      -2.397
      -1.825
      -1.232
      -0.663
      -0.156
       0.274
       0.615
       0.850
       0.967
       0.986
       0.970
       1.002
       1.131
       1.356
       1.637
       1.925
       2.188
       2.404
       2.546
       2.589
       2.519
       2.351
       2.123
       1.872
       1.609
       1.330
       1.030
       0.719
       0.417
       0.127
      -0.169
      -0.486
      -0.809
      -1.094
      -1.297
      -1.408
      -1.450
      -1.451
      -1.424
      -1.371
      -1.304
      -1.243
      -1.194
      -1.146
      -1.068
      -0.933
      -0.719
      -0.401
       0.032
       0.566
       1.148
       1.713
       2.216
       2.643
       2.988
       3.228
       3.313
       3.201
       2.891
       2.428
       1.875
       1.278
       0.661
       0.035
      -0.589
      -1.206
      -1.815
      -2.416
      -2.989
      -3.492
      -3.881
      -4.141
      -4.295
      -4.379
      -4.405
      -4.349
      -4.167
      -3.838
      -3.374
      -2.813
      -2.198
      -1.572
      -0.974
      -0.441
       0.012
       0.399
       0.756
       1.116
       1.496
       1.898
       2.332
       2.813
       3.335
       3.845
       4.255
       4.478
       4.470
       4.245
       3.852
       3.351
       2.797
       2.228
       1.674
       1.155
       0.683
       0.266
      -0.096
      -0.405
      -0.658
      -0.842
      -0.937
      -0.934
      -0.844
      -0.703
      -0.558
      -0.448
      -0.393
      -0.386
      -0.392
      -0.371
      -0.300
      -0.201
      -0.132
      -0.149
      -0.254
      -0.393
      -0.498
      -0.540
      -0.553
      -0.604
      -0.749
      -1.011
      -1.386
      -1.860
      -2.399
      -2.943
      -3.406
      -3.700
      -3.763
      -3.570
      -3.137
      -2.506
      -1.746
      -0.928
      -0.118
       0.641
       1.332
       1.936
       2.406
       2.667
       2.665
       2.408
       1.973
       1.462
       0.953
       0.484
       0.066
      -0.287
      -0.558
      -0.725
      -0.772
      -0.683
      -0.450
      -0.089
       0.349
       0.787
       1.154
       1.420
       1.590
       1.690
       1.739
       1.747
       1.724
       1.674
       1.587
       1.440
       1.220
       0.952
       0.690
       0.481
       0.335
       0.229
       0.135
       0.048
      -0.023
      -0.077
      -0.136
      -0.220
      -0.325
      -0.419
      -0.478
      -0.506
      -0.534
      -0.597
      -0.720
      -0.917
      -1.181
      -1.468
      -1.699
      -1.790
      -1.702
      -1.452
      -1.096
      -0.680
      -0.240
       0.193
       0.568
       0.832
       0.941
       0.885
       0.690
       0.418
       0.148
      -0.058
      -0.176
      -0.206
      -0.139
       0.052
       0.383
       0.833
       1.334
       1.811
       2.207
       2.488
       2.634
       2.633
       2.480
       2.184
       1.760
       1.230
       0.625
      -0.018
      -0.659
      -1.261
      -1.799
      -2.257
      -2.619
      -2.869
      -2.995
      -2.989
      -2.851
      -2.593
      -2.243
      -1.852
      -1.494
      -1.244
      -1.156
      -1.240
      -1.455
      -1.727
      -1.977
      -2.152
      -2.234
      -2.226
      -2.126
      -1.921
      -1.596
      -1.155
      -0.618
      -0.013
       0.626
       1.259
       1.838
       2.321
       2.686
       2.930
       3.060
       3.095
       3.065
       3.009
       2.959
       2.912
       2.832
       2.683
       2.462
       2.210
       1.991
       1.842
       1.746
       1.634
       1.438
       1.125
       0.712
       0.228
      -0.325
      -0.970
      -1.720
      -2.544
      -3.372
      -4.128
      -4.762
      -5.249
      -5.579
      -5.737
      -5.700
      -5.443
      -4.950
      -4.226
      -3.314
      -2.300
      -1.288
      -0.363
       0.438
       1.110
       1.652
       2.049
       2.287
       2.384
       2.386
       2.340
       2.266
       2.167
       2.061
       1.985
       1.977
       2.051
       2.196
       2.395
       2.638
       2.915
       3.201
       3.453
       3.621
       3.664
       3.560
       3.314
       2.951
       2.515
       2.051
       1.586
       1.132
       0.706
       0.334
       0.039
      -0.187
      -0.383
      -0.599
      -0.861
      -1.166
      -1.482
      -1.776
      -2.029
      -2.236
      -2.396
      -2.504
      -2.544
      -2.494
      -2.328
      -2.026
      -1.595
      -1.081
      -0.559
      -0.097
       0.271
       0.554
       0.766
       0.903
       0.948
       0.911
       0.849
       0.839
       0.918
       1.045
       1.124
       1.068
       0.849
       0.509
       0.124
      -0.242
      -0.554
      -0.791
      -0.942
      -1.001
      -0.990
      -0.949
      -0.906
      -0.857
      -0.768
      -0.610
      -0.391
      -0.152
       0.053
       0.176
       0.196
       0.120
      -0.010
      -0.139
      -0.240
      -0.325
      -0.443
      -0.635
      -0.905
      -1.211
      -1.492
      -1.714
      -1.878
      -2.004
      -2.102
      -2.167
      -2.185
      -2.155
      -2.084
      -1.978
      -1.839
      -1.675
      -1.494
      -1.286
      -1.010
      -0.613
      -0.083
       0.526
       1.118
       1.612
       1.978
       2.228
       2.378
       2.427
       2.366
       2.202
       1.980
       1.766
       1.629
       1.601
       1.671
       1.796
       1.922
       2.010
       2.047
       2.042
       2.012
       1.957
       1.854
       1.672
       1.398
       1.060
       0.711
       0.389
       0.099
      -0.181
      -0.468
      -0.752
      -1.017
      -1.268
      -1.529
      -1.825
      -2.160
      -2.527
      -2.925
      -3.349
      -3.774
      -4.151
      -4.431
      -4.589
      -4.625
      -4.537
      -4.288
      -3.825
      -3.126
      -2.232
      -1.233
      -0.216
       0.769
       1.713
       2.614
       3.460
       4.232
       4.908
       5.476
       5.927
       6.256
       6.459
       6.530
       6.448
       6.175
       5.669
       4.922
       3.979
       2.931
       1.869
       0.851
      -0.104
      -0.995
      -1.807
      -2.495
      -3.004
      -3.300
      -3.393
      -3.326
      -3.159
      -2.945
      -2.725
      -2.523
      -2.351
      -2.196
      -2.025
      -1.803
      -1.512
      -1.179
      -0.852
      -0.571
      -0.351
      -0.192
      -0.101
      -0.089
      -0.146
      -0.232
      -0.309
      -0.372
      -0.453
      -0.570
      -0.691
      -0.744
      -0.667
      -0.453
      -0.157
       0.137
       0.351
       0.449
       0.437
       0.353
       0.237
       0.113
      -0.021
      -0.180
      -0.377
      -0.612
      -0.869
      -1.118
      -1.319
      -1.436
      -1.438
      -1.314
      -1.072
      -0.746
      -0.385
      -0.037
       0.268
       0.517
       0.704
       0.826
       0.894
       0.942
       1.010
       1.108
       1.207
       1.271
       1.300
       1.328
       1.388
       1.477
       1.563
       1.625
       1.668
       1.712
       1.768
       1.835
       1.919
       2.033
       2.173
       2.304
       2.370
       2.327
       2.164
       1.893
       1.542
       1.141
       0.723
       0.313
      -0.083
      -0.474
      -0.872
      -1.276
      -1.662
      -1.999
      -2.259
      -2.431
      -2.534
      -2.605
      -2.679
      -2.779
      -2.903
      -3.035
      -3.149
      -3.221
      -3.237
      -3.202
      -3.134
      -3.045
      -2.928
      -2.764
      -2.539
      -2.257
      -1.924
      -1.540
      -1.093
      -0.588
      -0.045
       0.498
       1.013
       1.482
       1.897
       2.250
       2.527
       2.714
       2.804
       2.805
       2.747
       2.673
       2.611
       2.556
       2.471
       2.318
       2.092
       1.828
       1.577
       1.378
       1.245
       1.176
       1.159
       1.166
       1.158
       1.075
       0.869
       0.522
       0.060
      -0.467
      -1.017
      -1.569
      -2.105
      -2.596
      -2.998
      -3.279
      -3.443
      -3.515
      -3.520
      -3.460
      -3.329
      -3.128
      -2.865
      -2.551
      -2.186
      -1.776
      -1.336
      -0.878
      -0.388
       0.171
       0.826
       1.546
       2.245
       2.833
       3.271
       3.590
       3.838
       4.031
       4.130
       4.072
       3.825
       3.415
       2.914
       2.390
       1.880
       1.386
       0.898
       0.413
      -0.064
      -0.532
      -0.989
      -1.418
      -1.779
      -2.024
      -2.124
      -2.080
      -1.903
      -1.617
      -1.258
      -0.890
      -0.583
      -0.378
      -0.272
      -0.236
      -0.241
      -0.277
      -0.338
      -0.416
      -0.494
      -0.554
      -0.575
      -0.535
      -0.405
      -0.163
       0.189
       0.620
       1.070
       1.484
       1.833
       2.116
       2.338
       2.482
       2.502
       2.353
       2.024
       1.552
       1.001
       0.435
      -0.098
      -0.565
      -0.935
      -1.177
      -1.272
      -1.223
      -1.051
      -0.786
      -0.469
      -0.157
       0.086
       0.216
       0.241
       0.222
       0.226
       0.287
       0.385
       0.479
       0.528
       0.513
       0.430
       0.294
       0.140
       0.011
      -0.064
      -0.087
      -0.092
      -0.131
      -0.254
      -0.490
      -0.832
      -1.244
      -1.679
      -2.098
      -2.487
      -2.838
      -3.137
      -3.358
      -3.464
      -3.424
      -3.212
      -2.817
      -2.244
      -1.532
      -0.751
       0.014
       0.693
       1.251
       1.681
       1.987
       2.169
       2.226
       2.175
       2.062
       1.937
       1.824
       1.712
       1.578
       1.401
       1.172
       0.892
       0.583
       0.284
       0.028
      -0.178
      -0.358
      -0.544
      -0.740
      -0.926
      -1.077
      -1.192
      -1.278
      -1.327
      -1.309
      -1.190
      -0.971
      -0.686
      -0.373
      -0.042
       0.319
       0.718
       1.132
       1.514
       1.810
       1.982
       2.012
       1.903
       1.663
       1.304
       0.839
       0.289
      -0.317
      -0.938
      -1.525
      -2.025
      -2.391
      -2.599
      -2.650
      -2.565
      -2.366
      -2.065
      -1.682
      -1.252
      -0.819
      -0.411
      -0.029
       0.338
       0.686
       0.992
       1.224
       1.356
       1.370
       1.252
       1.006
       0.665
       0.293
      -0.026
      -0.221
      -0.257
      -0.153
       0.029
       0.211
       0.343
       0.408
       0.426
       0.423
       0.416
       0.417
       0.431
       0.455
       0.461
       0.415
       0.304
       0.151
       0.019
      -0.030
       0.043
       0.237
       0.506
       0.777
       0.967
       1.028
       0.975
       0.886
       0.859
       0.953
       1.172
       1.464
       1.756
       1.982
       2.099
       2.097
       1.999
       1.838
       1.638
       1.396
       1.097
       0.731
       0.323
      -0.084
      -0.453
      -0.779
      -1.076
      -1.351
      -1.583
      -1.751
      -1.859
      -1.949
      -2.060
      -2.190
      -2.287
      -2.283
      -2.133
      -1.840
      -1.442
      -1.005
      -0.597
      -0.283
      -0.095
      -0.023
      -0.026
      -0.057
      -0.093
      -0.135
      -0.192
      -0.265
      -0.342
      -0.406
      -0.458
      -0.508
      -0.566
      -0.620
      -0.639
      -0.598
      -0.492
      -0.338
      -0.162
       0.006
       0.140
       0.224
       0.275
       0.343
       0.474
       0.678
       0.912
       1.113
       1.237
       1.283
       1.277
       1.243
       1.181
