Origin Time       21/9/2009 9:43:47	 
Lat.              30.9 N	
Long.             79.1 E	
Depth (Km)         13.0
Magnitude         4.7
 Region           UTTARKASHI-UTTARAKHAND                                           
 Above details taken from IMD 
   
Station Code      DHA
Station Lat.       30.427
Station Long.      78.244
Station Height(m) 2280.0
Site Class        B   Vs30 between 375 m/sec to 700 m/sec *  
Record Time       21.09.2009 09:44:06.789
Sampling Rate     200. Hz
 Record Duration   67.020 Sec.
 Direction         Vert. (Up positive)
Max. Acceleration      4.292 cm/sec**2
     
  * For reference see Site Classification link of website 
     
 Base Line Corrected and Low Pass Filtered (Cut Off at 35 Hz) Time History
 Acceleration data in cm/sec**2
    
[...]
      -0.588
      -0.403
      -0.207
       0.032
       0.304
       0.501
       0.474
       0.167
      -0.313
      -0.756
      -0.990
      -0.968
      -0.744
      -0.396
       0.002
       0.367
       0.604
       0.662
       0.600
       0.566
       0.685
       0.942
       1.175
       1.188
       0.874
       0.290
      -0.384
      -0.921
      -1.140
      -0.986
      -0.573
      -0.146
       0.048
      -0.077
      -0.389
      -0.654
      -0.726
      -0.650
      -0.579
      -0.591
      -0.609
      -0.483
      -0.159
       0.253
       0.563
       0.640
       0.487
       0.200
      -0.103
      -0.319
      -0.364
      -0.191
       0.168
       0.593
       0.940
       1.119
       1.120
       0.973
       0.702
       0.329
      -0.087
      -0.442
      -0.645
      -0.675
      -0.587
      -0.446
      -0.285
      -0.112
       0.050
       0.150
       0.165
       0.131
       0.109
       0.114
       0.086
      -0.055
      -0.320
      -0.621
      -0.835
      -0.886
      -0.775
      -0.531
      -0.187
       0.214
       0.585
       0.815
       0.848
       0.721
       0.524
       0.308
       0.060
      -0.231
      -0.482
      -0.544
      -0.326
       0.072
       0.403
       0.449
       0.196
      -0.173
      -0.432
      -0.480
      -0.375
      -0.247
      -0.180
      -0.178
      -0.188
      -0.162
      -0.083
       0.030
       0.128
       0.165
       0.137
       0.103
       0.154
       0.338
       0.617
       0.888
       1.057
       1.081
       0.952
       0.666
       0.239
      -0.243
      -0.619
      -0.753
      -0.647
      -0.458
      -0.372
      -0.442
      -0.559
      -0.579
      -0.475
      -0.353
      -0.313
      -0.334
      -0.298
      -0.142
       0.048
       0.107
      -0.037
      -0.274
      -0.395
      -0.269
       0.046
       0.365
       0.541
       0.561
       0.518
       0.475
       0.392
       0.171
      -0.200
      -0.568
      -0.698
      -0.468
       0.006
       0.448
       0.642
       0.612
       0.570
       0.710
       1.012
       1.265
       1.256
       0.952
       0.497
       0.051
      -0.340
      -0.740
      -1.194
      -1.644
      -1.960
      -2.047
      -1.908
      -1.626
      -1.279
      -0.893
      -0.442
       0.093
       0.662
       1.129
       1.336
       1.198
       0.784
       0.302
      -0.011
      -0.024
       0.234
       0.613
       0.945
       1.111
       1.058
       0.789
       0.381
      -0.023
      -0.259
      -0.246
      -0.057
       0.118
       0.118
      -0.076
      -0.340
      -0.540
      -0.643
      -0.712
      -0.788
      -0.816
      -0.685
      -0.352
       0.074
       0.395
       0.472
       0.321
       0.088
      -0.077
      -0.107
      -0.025
       0.116
       0.266
       0.378
       0.393
       0.274
       0.052
      -0.156
      -0.214
      -0.072
       0.183
       0.380
       0.399
       0.253
       0.070
      -0.028
      -0.010
       0.055
       0.084
       0.041
      -0.057
      -0.191
      -0.368
      -0.582
      -0.760
      -0.790
      -0.619
      -0.348
      -0.175
      -0.239
      -0.478
      -0.660
      -0.560
      -0.125
       0.503
       1.109
       1.529
       1.676
       1.517
       1.067
       0.425
      -0.220
      -0.668
      -0.827
      -0.752
      -0.566
      -0.345
      -0.079
       0.249
       0.575
       0.755
       0.674
       0.349
      -0.083
      -0.472
      -0.739
      -0.875
      -0.881
      -0.745
      -0.481
      -0.164
       0.092
       0.215
       0.227
       0.215
       0.248
       0.328
       0.402
       0.420
       0.379
       0.314
       0.263
       0.228
       0.173
       0.048
      -0.171
      -0.435
      -0.631
      -0.633
      -0.389
       0.023
       0.423
       0.635
       0.587
       0.347
       0.046
      -0.210
      -0.384
      -0.472
      -0.449
      -0.273
       0.056
       0.451
       0.764
       0.886
       0.825
       0.684
       0.564
       0.483
       0.386
       0.222
       0.003
      -0.218
      -0.416
      -0.616
      -0.845
      -1.066
      -1.190
      -1.155
      -0.988
      -0.787
      -0.634
      -0.537
      -0.449
      -0.335
      -0.203
      -0.090
      -0.010
       0.062
       0.179
       0.391
       0.701
       1.031
       1.228
       1.148
       0.782
       0.310
       0.004
       0.035
       0.337
       0.676
       0.842
       0.804
       0.669
       0.521
       0.317
      -0.048
      -0.582
      -1.126
      -1.454
      -1.438
      -1.121
      -0.648
      -0.159
       0.256
       0.519
       0.544
       0.298
      -0.123
      -0.510
      -0.677
      -0.596
      -0.413
      -0.306
      -0.326
      -0.362
      -0.252
       0.059
       0.460
       0.757
       0.815
       0.631
       0.313
      -0.018
      -0.304
      -0.546
      -0.757
      -0.917
      -0.967
      -0.854
      -0.572
      -0.179
       0.225
       0.542
       0.710
       0.719
       0.592
       0.369
       0.114
      -0.069
      -0.058
       0.217
       0.694
       1.165
       1.377
       1.178
       0.632
      -0.017
      -0.496
      -0.677
      -0.633
      -0.541
      -0.516
      -0.510
      -0.365
       0.018
       0.543
       0.961
       1.043
       0.759
       0.286
      -0.158
      -0.493
      -0.807
      -1.200
      -1.617
      -1.848
      -1.699
      -1.180
      -0.504
       0.083
       0.480
       0.745
       0.966
       1.145
       1.213
       1.133
       0.937
       0.669
       0.315
      -0.178
      -0.769
      -1.252
      -1.346
      -0.901
      -0.033
       0.931
       1.658
       1.978
       1.905
       1.537
       0.972
       0.313
      -0.299
      -0.700
      -0.802
      -0.669
      -0.490
      -0.435
      -0.522
      -0.619
      -0.583
      -0.392
      -0.162
      -0.024
      -0.005
      -0.031
      -0.025
      -0.012
      -0.101
      -0.373
      -0.793
      -1.218
      -1.480
      -1.455
      -1.091
      -0.415
       0.445
       1.251
       1.736
       1.752
       1.392
       0.937
       0.643
       0.542
       0.440
       0.129
      -0.383
      -0.851
      -0.990
      -0.726
      -0.240
       0.212
       0.507
       0.700
       0.874
       0.987
       0.899
       0.541
       0.030
      -0.397
      -0.577
      -0.537
      -0.433
      -0.379
      -0.359
      -0.284
      -0.121
       0.054
       0.135
       0.089
      -0.002
      -0.016
       0.112
       0.338
       0.537
       0.593
       0.465
       0.202
      -0.095
      -0.341
      -0.503
      -0.589
      -0.599
      -0.505
      -0.288
       0.008
       0.273
       0.411
       0.416
       0.382
       0.413
       0.535
       0.683
       0.773
       0.766
       0.648
       0.394
      -0.012
      -0.497
      -0.867
      -0.904
      -0.547
       0.027
       0.527
       0.756
       0.728
       0.583
       0.408
       0.179
      -0.155
      -0.547
      -0.851
      -0.951
      -0.867
      -0.731
      -0.655
      -0.647
      -0.632
      -0.551
      -0.412
      -0.264
      -0.138
      -0.023
       0.096
       0.207
       0.259
       0.178
      -0.090
      -0.536
      -1.039
      -1.372
      -1.298
      -0.729
       0.175
       1.074
       1.663
       1.859
       1.811
       1.717
       1.630
       1.428
       0.960
       0.210
      -0.686
      -1.539
      -2.195
      -2.543
      -2.482
      -1.975
      -1.153
      -0.341
       0.103
       0.042
      -0.329
      -0.644
      -0.666
      -0.461
      -0.286
      -0.321
      -0.506
      -0.621
      -0.499
      -0.177
       0.163
       0.361
       0.406
       0.430
       0.585
       0.947
       1.473
       2.037
       2.477
       2.633
       2.382
       1.683
       0.617
      -0.605
      -1.708
      -2.462
      -2.781
      -2.735
      -2.478
      -2.133
      -1.750
      -1.320
      -0.835
      -0.311
       0.226
       0.746
       1.189
       1.436
       1.359
       0.942
       0.371
      -0.037
      -0.045
       0.327
       0.818
       1.141
       1.197
       1.104
       1.028
       1.014
       0.969
       0.806
       0.566
       0.391
       0.380
       0.485
       0.546
       0.415
       0.046
      -0.508
      -1.155
      -1.782
      -2.252
      -2.419
      -2.210
      -1.707
      -1.122
      -0.666
      -0.407
      -0.243
      -0.021
       0.335
       0.773
       1.189
       1.515
       1.744
       1.863
       1.802
       1.465
       0.840
       0.075
      -0.554
      -0.794
      -0.541
       0.111
       0.945
       1.719
       2.236
       2.387
       2.165
       1.669
       1.056
       0.451
      -0.108
      -0.640
      -1.125
      -1.460
      -1.551
      -1.442
      -1.336
      -1.428
      -1.693
      -1.867
      -1.673
      -1.088
      -0.392
       0.067
       0.166
       0.060
      -0.029
      -0.072
      -0.240
      -0.669
      -1.246
      -1.653
      -1.630
      -1.191
      -0.578
      -0.025
       0.416
       0.823
       1.233
       1.555
       1.649
       1.477
       1.136
       0.776
       0.495
       0.327
       0.285
       0.368
       0.519
       0.624
       0.581
       0.401
       0.194
       0.060
      -0.009
      -0.093
      -0.242
      -0.414
      -0.544
      -0.629
      -0.728
      -0.862
      -0.947
      -0.864
      -0.586
      -0.218
       0.101
       0.345
       0.608
       0.977
       1.398
       1.697
       1.728
       1.492
       1.102
       0.661
       0.194
      -0.296
      -0.745
      -1.035
      -1.102
      -1.007
      -0.874
      -0.775
      -0.686
      -0.571
      -0.478
      -0.519
      -0.741
      -1.060
      -1.313
      -1.395
      -1.304
      -1.084
      -0.752
      -0.322
       0.098
       0.299
       0.125
      -0.332
      -0.712
      -0.615
       0.086
       1.126
       2.021
       2.393
       2.174
       1.568
       0.844
       0.185
      -0.326
      -0.625
      -0.621
      -0.258
       0.403
       1.156
       1.728
       1.895
       1.568
       0.804
      -0.223
      -1.271
      -2.104
      -2.592
      -2.773
      -2.809
      -2.832
      -2.799
      -2.492
      -1.715
      -0.496
       0.868
       2.004
       2.715
       3.060
       3.230
       3.336
       3.338
       3.126
       2.660
       2.010
       1.298
       0.634
       0.101
      -0.239
      -0.370
      -0.361
      -0.341
      -0.406
      -0.535
      -0.638
      -0.670
      -0.701
      -0.860
      -1.205
      -1.669
      -2.143
      -2.577
      -2.980
      -3.314
      -3.410
      -3.048
      -2.157
      -0.927
       0.274
       1.138
       1.595
       1.802
       1.968
       2.180
       2.357
       2.340
       2.025
       1.427
       0.673
      -0.081
      -0.734
      -1.290
      -1.827
      -2.385
      -2.862
      -3.029
      -2.676
      -1.770
      -0.496
       0.848
       2.002
       2.815
       3.223
       3.227
       2.897
       2.396
       1.927
       1.619
       1.459
       1.347
       1.222
       1.133
       1.169
       1.348
       1.583
       1.762
       1.830
       1.776
       1.542
       1.001
       0.057
      -1.193
      -2.431
      -3.290
      -3.599
      -3.491
      -3.251
      -3.060
      -2.868
      -2.517
      -1.993
      -1.535
      -1.483
      -1.971
      -2.749
      -3.317
      -3.257
      -2.492
      -1.271
       0.064
       1.301
       2.396
       3.339
       4.023
       4.265
       3.950
       3.166
       2.203
       1.401
       0.977
       0.924
       1.056
       1.144
       1.053
       0.788
       0.455
       0.159
      -0.064
      -0.249
      -0.444
      -0.667
      -0.896
      -1.101
      -1.264
      -1.376
      -1.421
      -1.374
      -1.217
      -0.958
      -0.631
      -0.266
       0.109
       0.450
       0.685
       0.736
       0.577
       0.264
      -0.079
      -0.307
      -0.307
      -0.028
       0.488
       1.076
       1.471
       1.414
       0.816
      -0.138
      -1.070
      -1.635
      -1.747
      -1.601
      -1.474
      -1.469
      -1.437
      -1.126
      -0.419
       0.556
       1.528
       2.269
       2.680
       2.745
       2.428
       1.688
       0.575
      -0.683
      -1.746
      -2.346
      -2.438
      -2.188
      -1.825
      -1.491
      -1.209
      -0.931
      -0.609
      -0.240
       0.133
       0.437
       0.629
       0.739
       0.860
       1.063
       1.279
       1.294
       0.907
       0.135
      -0.718
      -1.224
      -1.120
      -0.475
       0.371
       1.035
       1.293
       1.117
       0.612
      -0.070
      -0.745
      -1.214
      -1.306
      -0.962
      -0.274
       0.539
       1.237
       1.654
       1.761
       1.643
       1.412
       1.119
       0.734
       0.216
      -0.378
      -0.877
      -1.105
      -1.036
      -0.851
      -0.821
      -1.099
      -1.609
      -2.104
      -2.342
      -2.238
      -1.895
      -1.520
      -1.299
      -1.283
      -1.344
      -1.239
      -0.758
       0.123
       1.204
       2.199
       2.945
       3.478
       3.914
       4.247
       4.292
       3.844
       2.909
       1.749
       0.685
      -0.159
      -0.913
      -1.747
      -2.617
      -3.244
      -3.353
      -2.933
      -2.252
      -1.624
      -1.163
      -0.755
      -0.260
       0.273
       0.600
       0.477
      -0.115
      -0.915
      -1.530
      -1.664
      -1.278
      -0.587
       0.090
       0.534
       0.747
       0.925
       1.275
       1.823
       2.375
       2.664
       2.562
       2.155
       1.631
       1.098
       0.532
      -0.135
      -0.874
      -1.541
      -1.961
      -2.029
      -1.721
      -1.058
      -0.116
       0.914
       1.729
       2.055
       1.842
       1.327
       0.845
       0.555
       0.338
      -0.029
      -0.601
      -1.171
      -1.456
      -1.354
      -1.025
      -0.715
      -0.538
      -0.420
      -0.255
      -0.091
      -0.129
      -0.547
      -1.296
      -2.052
      -2.389
      -2.042
      -1.090
       0.067
       0.924
       1.179
       0.914
       0.522
       0.416
       0.735
       1.270
       1.676
       1.753
       1.566
       1.307
       1.088
       0.882
       0.638
       0.413
       0.341
       0.485
       0.749
       0.973
       1.098
       1.206
       1.359
       1.436
       1.171
       0.391
      -0.776
      -1.938
      -2.703
      -2.928
      -2.751
      -2.418
      -2.100
      -1.842
      -1.632
      -1.470
      -1.359
      -1.273
      -1.159
      -0.975
      -0.717
      -0.408
      -0.079
       0.248
       0.562
       0.884
       1.270
       1.783
       2.403
       2.964
       3.201
       2.926
       2.200
       1.327
       0.647
       0.289
       0.104
      -0.165
      -0.644
      -1.221
      -1.678
      -1.890
      -1.905
      -1.829
      -1.666
      -1.313
      -0.719
      -0.034
       0.443
       0.485
       0.124
      -0.370
      -0.689
      -0.681
      -0.389
       0.059
       0.543
       0.973
       1.249
       1.286
       1.083
       0.775
       0.559
       0.546
       0.670
       0.722
       0.512
       0.007
      -0.635
      -1.151
      -1.331
      -1.135
      -0.713
      -0.294
      -0.043
       0.026
       0.017
       0.035
       0.097
       0.147
       0.129
       0.045
      -0.059
      -0.131
      -0.128
       0.007
       0.326
       0.817
       1.349
       1.720
       1.793
       1.607
       1.342
       1.148
       1.009
       0.782
       0.367
      -0.169
      -0.656
      -0.974
      -1.137
      -1.232
      -1.305
      -1.334
      -1.314
      -1.311
      -1.415
      -1.631
      -1.855
      -1.967
      -1.936
      -1.832
      -1.728
      -1.601
      -1.337
      -0.831
      -0.077
       0.812
       1.647
       2.241
       2.461
       2.289
       1.844
       1.355
       1.055
       1.050
       1.256
       1.461
       1.467
       1.221
       0.828
       0.466
       0.259
       0.202
       0.179
       0.045
      -0.274
      -0.725
      -1.151
      -1.397
      -1.422
      -1.328
      -1.269
      -1.307
      -1.328
      -1.112
      -0.505
       0.429
       1.428
       2.188
       2.543
       2.518
       2.241
       1.812
       1.255
       0.581
      -0.124
      -0.704
      -1.039
      -1.143
      -1.142
      -1.142
      -1.109
      -0.919
      -0.528
      -0.102
       0.062
      -0.231
      -0.901
      -1.642
      -2.159
      -2.349
      -2.287
      -2.058
      -1.642
      -0.972
      -0.082
       0.832
       1.528
       1.890
       1.993
       1.981
       1.918
       1.751
       1.422
       0.988
       0.605
       0.405
       0.387
       0.444
       0.460
       0.382
       0.212
      -0.009
      -0.207
      -0.270
      -0.125
       0.166
       0.380
       0.273
      -0.203
      -0.815
      -1.198
      -1.142
      -0.761
      -0.391
      -0.309
      -0.531
      -0.847
      -1.032
      -1.011
      -0.849
      -0.619
      -0.329
       0.040
       0.437
       0.730
       0.806
       0.673
       0.471
       0.372
       0.468
       0.738
       1.082
       1.378
       1.514
       1.406
       1.031
       0.445
      -0.233
      -0.885
      -1.434
      -1.827
      -2.000
      -1.882
      -1.479
      -0.945
      -0.535
      -0.437
      -0.623
      -0.863
      -0.906
      -0.673
      -0.303
      -0.013
       0.093
       0.083
       0.094
       0.181
       0.286
       0.339
       0.369
       0.480
       0.730
       1.035
       1.219
       1.174
       0.966
       0.794
       0.824
       1.054
       1.324
       1.432
       1.256
       0.803
       0.175
      -0.491
      -1.066
      -1.466
      -1.683
      -1.775
      -1.819
      -1.843
      -1.788
      -1.550
      -1.068
      -0.373
       0.422
       1.183
       1.806
       2.225
       2.391
       2.260
       1.819
       1.110
       0.249
      -0.603
      -1.291
      -1.704
      -1.788
      -1.543
      -1.037
      -0.422
       0.098
       0.353
       0.308
       0.096
      -0.083
      -0.106
      -0.006
       0.079
       0.030
      -0.177
      -0.487
      -0.814
      -1.070
      -1.169
      -1.046
      -0.688
      -0.154
       0.455
       1.044
       1.546
       1.913
       2.097
       2.068
       1.853
       1.512
       1.087
       0.575
      -0.009
      -0.541
      -0.816
      -0.721
      -0.396
      -0.189
      -0.385
      -0.947
      -1.517
      -1.711
      -1.420
      -0.868
      -0.380
      -0.106
       0.028
       0.159
       0.298
       0.326
       0.144
      -0.191
      -0.497
      -0.609
      -0.488
      -0.208
       0.122
       0.439
       0.725
       0.986
       1.217
       1.403
       1.508
