Origin Time       03/5/2010 17:15:08	 UTC
Lat.              30.4 N	
Long.             78.4 E	
Depth (Km)          8.0
Magnitude         3.5
 Region           Uttarakhand                                                      
 Above details taken from IMD 
    
Station Code      DHA
Station Lat.       30.427  N
Station Long.      78.244  E
Station Height(m) 2280.0
Site Class        B   Vs30 between 375 m/sec to 700 m/sec *  
Record Time       03.05.2010 17:14:57.969 UTC
Sampling Rate     200. Hz
 Record Duration   67.010 Sec.
 Direction         N-S (N positive)
Max. Acceleration    -10.651 cm/sec**2
     
  * For reference see Site Classification link of website 
     
 Base Line Corrected and Low Pass Filtered (Cut Off at 35 Hz) Time History
 Acceleration data in cm/sec**2
    
[...]
       0.017
       0.016
       0.015
       0.013
       0.010
       0.007
       0.005
       0.005
       0.007
       0.008
       0.009
       0.011
       0.013
       0.015
       0.014
       0.008
       0.002
      -0.001
       0.002
       0.008
       0.013
       0.014
       0.012
       0.009
       0.007
       0.008
       0.011
       0.015
       0.017
       0.016
       0.010
       0.003
      -0.003
      -0.005
      -0.002
       0.002
       0.003
       0.001
      -0.002
      -0.001
       0.005
       0.013
       0.017
       0.014
       0.007
       0.000
      -0.002
       0.001
       0.005
       0.007
       0.007
       0.005
       0.004
       0.004
       0.003
       0.001
      -0.001
      -0.002
       0.000
       0.003
       0.004
       0.004
       0.003
       0.002
       0.004
       0.008
       0.012
       0.013
       0.012
       0.007
       0.001
      -0.004
      -0.008
      -0.009
      -0.008
      -0.005
      -0.003
      -0.001
       0.002
       0.006
       0.010
       0.012
       0.011
       0.007
       0.004
       0.004
       0.007
       0.011
       0.012
       0.012
       0.012
       0.013
       0.015
       0.015
       0.013
       0.009
       0.006
       0.005
       0.005
       0.004
       0.002
      -0.001
      -0.004
      -0.006
      -0.006
      -0.004
      -0.002
       0.001
       0.003
       0.003
       0.001
      -0.001
      -0.001
      -0.001
      -0.002
      -0.005
      -0.006
      -0.005
      -0.001
       0.004
       0.006
       0.005
       0.003
       0.000
       0.000
       0.001
       0.005
       0.008
       0.008
       0.006
       0.002
      -0.001
      -0.003
      -0.004
      -0.004
      -0.003
      -0.001
       0.001
       0.002
       0.001
      -0.002
      -0.004
      -0.004
      -0.002
       0.001
       0.003
       0.002
      -0.001
      -0.004
      -0.004
       0.001
       0.007
       0.009
       0.007
       0.001
      -0.004
      -0.003
       0.001
       0.004
       0.003
      -0.002
      -0.006
      -0.006
      -0.004
      -0.003
      -0.004
      -0.006
      -0.004
      -0.001
       0.004
       0.005
       0.004
       0.004
       0.005
       0.007
       0.008
       0.007
       0.005
       0.004
       0.003
       0.002
       0.001
      -0.002
      -0.005
      -0.008
      -0.008
      -0.005
       0.001
       0.005
       0.004
       0.001
      -0.003
      -0.006
      -0.010
      -0.014
      -0.016
      -0.012
      -0.005
       0.003
       0.006
       0.004
       0.002
       0.003
       0.008
       0.013
       0.014
       0.012
       0.010
       0.009
       0.010
       0.010
       0.007
       0.003
      -0.001
      -0.004
      -0.005
      -0.007
      -0.009
      -0.008
      -0.003
       0.005
       0.010
       0.009
       0.004
       0.000
       0.001
       0.005
       0.009
       0.007
       0.002
      -0.003
      -0.006
      -0.004
       0.002
       0.008
       0.009
       0.003
      -0.004
      -0.009
      -0.009
      -0.005
      -0.001
       0.002
       0.002
       0.000
      -0.002
      -0.005
      -0.005
      -0.003
      -0.001
      -0.001
      -0.005
      -0.009
      -0.009
      -0.006
      -0.003
      -0.001
       0.001
       0.003
       0.006
       0.009
       0.009
       0.007
       0.006
       0.005
       0.006
       0.004
       0.001
      -0.003
      -0.007
      -0.009
      -0.013
      -0.016
      -0.016
      -0.012
      -0.003
       0.007
       0.013
       0.014
       0.010
       0.004
      -0.001
      -0.002
       0.000
       0.003
       0.004
       0.001
      -0.004
      -0.007
      -0.006
      -0.003
       0.000
       0.000
      -0.002
      -0.003
       0.000
       0.005
       0.009
       0.007
      -0.001
      -0.011
      -0.016
      -0.015
      -0.011
      -0.008
      -0.009
      -0.010
      -0.009
      -0.003
       0.004
       0.008
       0.006
       0.001
      -0.004
      -0.006
      -0.007
      -0.008
      -0.010
      -0.011
      -0.009
      -0.007
      -0.005
      -0.004
      -0.004
      -0.006
      -0.008
      -0.012
      -0.017
      -0.020
      -0.018
      -0.013
      -0.009
      -0.009
      -0.009
      -0.008
      -0.004
       0.002
       0.005
       0.005
       0.002
       0.000
       0.000
      -0.001
      -0.004
      -0.009
      -0.014
      -0.014
      -0.009
      -0.001
       0.005
       0.006
       0.003
       0.000
      -0.001
      -0.001
      -0.005
      -0.011
      -0.014
      -0.011
      -0.005
       0.000
       0.003
       0.003
       0.003
       0.003
       0.005
       0.010
       0.015
       0.018
       0.015
       0.009
       0.003
      -0.001
      -0.002
      -0.002
      -0.002
      -0.003
      -0.003
      -0.001
       0.002
       0.004
       0.003
       0.001
       0.001
       0.004
       0.007
       0.006
       0.003
       0.000
       0.000
       0.002
       0.003
       0.002
       0.000
      -0.002
      -0.002
       0.000
       0.001
       0.000
      -0.002
      -0.003
      -0.001
       0.003
       0.007
       0.008
       0.005
       0.001
      -0.003
      -0.003
      -0.001
       0.002
       0.004
       0.003
       0.001
      -0.002
      -0.002
       0.001
       0.004
       0.007
       0.008
       0.008
       0.006
       0.002
      -0.003
      -0.006
      -0.006
      -0.002
       0.003
       0.006
       0.005
       0.002
      -0.001
      -0.002
      -0.002
      -0.001
       0.002
       0.007
       0.013
       0.016
       0.016
       0.013
       0.009
       0.007
       0.003
      -0.002
      -0.007
      -0.007
      -0.002
       0.003
       0.005
       0.002
      -0.003
      -0.004
       0.001
       0.008
       0.013
       0.013
       0.009
       0.005
       0.002
       0.002
       0.005
       0.009
       0.010
       0.010
       0.008
       0.005
       0.001
      -0.003
      -0.005
      -0.005
      -0.003
      -0.002
      -0.004
      -0.004
       0.004
       0.024
       0.052
       0.081
       0.106
       0.125
       0.137
       0.134
       0.111
       0.065
       0.005
      -0.051
      -0.087
      -0.089
      -0.057
       0.000
       0.069
       0.139
       0.203
       0.261
       0.321
       0.384
       0.430
       0.435
       0.389
       0.308
       0.200
       0.061
      -0.095
      -0.219
      -0.282
      -0.309
      -0.343
      -0.369
      -0.352
      -0.331
      -0.430
      -0.708
      -1.048
      -1.249
      -1.229
      -1.096
      -1.001
      -0.957
      -0.839
      -0.550
      -0.147
       0.211
       0.427
       0.560
       0.723
       0.947
       1.140
       1.202
       1.119
       0.960
       0.806
       0.686
       0.576
       0.433
       0.240
       0.008
      -0.245
      -0.505
      -0.746
      -0.926
      -1.030
      -1.088
      -1.130
      -1.122
      -0.969
      -0.624
      -0.161
       0.270
       0.570
       0.762
       0.924
       1.079
       1.164
       1.123
       0.990
       0.871
       0.842
       0.878
       0.884
       0.796
       0.643
       0.510
       0.448
       0.427
       0.369
       0.240
       0.085
      -0.022
      -0.058
      -0.068
      -0.102
      -0.139
      -0.124
      -0.052
       0.011
      -0.008
      -0.113
      -0.244
      -0.334
      -0.372
      -0.401
      -0.468
      -0.571
      -0.677
      -0.781
      -0.933
      -1.162
      -1.397
      -1.504
      -1.397
      -1.130
      -0.853
      -0.696
      -0.686
      -0.752
      -0.786
      -0.701
      -0.475
      -0.143
       0.238
       0.626
       1.003
       1.346
       1.625
       1.818
       1.926
       1.961
       1.928
       1.822
       1.624
       1.317
       0.899
       0.406
      -0.078
      -0.450
      -0.646
      -0.712
      -0.783
      -0.991
      -1.358
      -1.777
      -2.078
      -2.140
      -1.943
      -1.563
      -1.102
      -0.626
      -0.160
       0.272
       0.613
       0.811
       0.869
       0.851
       0.826
       0.816
       0.792
       0.726
       0.631
       0.568
       0.594
       0.701
       0.813
       0.833
       0.708
       0.451
       0.108
      -0.271
      -0.633
      -0.914
      -1.038
      -0.965
      -0.737
      -0.468
      -0.262
      -0.137
      -0.022
       0.153
       0.380
       0.600
       0.790
       0.985
       1.201
       1.360
       1.333
       1.059
       0.610
       0.141
      -0.206
      -0.370
      -0.379
      -0.318
      -0.277
      -0.320
      -0.467
      -0.699
      -0.949
      -1.134
      -1.207
      -1.182
      -1.110
      -1.022
      -0.921
      -0.787
      -0.595
      -0.316
       0.058
       0.491
       0.891
       1.148
       1.193
       1.047
       0.816
       0.631
       0.565
       0.594
       0.635
       0.609
       0.486
       0.275
       0.006
      -0.281
      -0.517
      -0.614
      -0.538
      -0.374
      -0.281
      -0.365
      -0.576
      -0.741
      -0.708
      -0.451
      -0.080
       0.251
       0.443
       0.489
       0.443
       0.375
       0.355
       0.447
       0.675
       0.975
       1.196
       1.169
       0.818
       0.232
      -0.379
      -0.816
      -1.008
      -1.003
      -0.889
      -0.725
      -0.562
      -0.473
      -0.537
      -0.765
      -1.060
      -1.254
      -1.233
      -1.004
      -0.670
      -0.323
      -0.001
       0.271
       0.449
       0.489
       0.399
       0.237
       0.086
       0.034
       0.156
       0.498
       1.039
       1.668
       2.209
       2.468
       2.311
       1.718
       0.791
      -0.272
      -1.230
      -1.852
      -1.997
      -1.672
      -1.042
      -0.365
       0.100
       0.194
      -0.082
      -0.579
      -1.072
      -1.362
      -1.327
      -0.936
      -0.232
       0.671
       1.588
       2.308
       2.669
       2.614
       2.198
       1.545
       0.805
       0.115
      -0.435
      -0.813
      -1.006
      -0.978
      -0.699
      -0.220
       0.274
       0.557
       0.514
       0.218
      -0.154
      -0.486
      -0.776
      -1.040
      -1.217
      -1.201
      -0.975
      -0.660
      -0.426
      -0.354
      -0.413
      -0.543
      -0.739
      -1.021
      -1.348
      -1.577
      -1.539
      -1.171
      -0.595
      -0.039
       0.324
       0.474
       0.494
       0.466
       0.409
       0.338
       0.315
       0.446
       0.785
       1.267
       1.735
       2.041
       2.133
       2.024
       1.709
       1.158
       0.405
      -0.370
      -0.898
      -0.994
      -0.676
      -0.142
       0.379
       0.735
       0.880
       0.849
       0.757
       0.796
       1.155
       1.894
       2.888
       3.927
       4.870
       5.695
       6.390
       6.838
       6.834
       6.231
       5.058
       3.519
       1.862
       0.245
      -1.303
      -2.798
      -4.205
      -5.424
      -6.364
      -6.991
      -7.299
      -7.244
      -6.742
      -5.737
      -4.291
      -2.603
      -0.977
       0.253
       0.794
       0.478
      -0.640
      -2.261
      -3.919
      -5.152
      -5.682
      -5.496
      -4.803
      -3.886
      -2.969
      -2.180
      -1.586
      -1.216
      -1.013
      -0.789
      -0.263
       0.765
       2.211
       3.667
       4.623
       4.791
       4.278
       3.445
       2.580
       1.697
       0.629
      -0.692
      -2.074
      -3.185
      -3.822
      -4.035
      -3.978
      -3.681
      -2.968
      -1.624
       0.343
       2.587
       4.568
       5.842
       6.251
       5.891
       4.963
       3.672
       2.245
       0.948
       0.035
      -0.356
      -0.244
       0.242
       0.942
       1.675
       2.225
       2.340
       1.831
       0.699
      -0.805
      -2.228
      -3.091
      -3.091
      -2.258
      -0.990
       0.089
       0.426
      -0.143
      -1.271
      -2.293
      -2.636
      -2.144
      -1.093
       0.079
       1.069
       1.849
       2.573
       3.398
       4.365
       5.381
       6.250
       6.710
       6.469
       5.299
       3.146
       0.222
      -3.012
      -5.985
      -8.219
      -9.501
      -9.922
      -9.770
      -9.346
      -8.820
      -8.170
      -7.256
      -5.955
      -4.298
      -2.483
      -0.764
       0.721
       2.045
       3.394
       4.854
       6.258
       7.260
       7.566
       7.130
       6.163
       4.985
       3.866
       2.931
       2.155
       1.443
       0.742
       0.140
      -0.153
       0.071
       0.870
       2.106
       3.529
       4.878
       5.940
       6.543
       6.566
       5.997
       4.975
       3.761
       2.644
       1.840
       1.416
       1.290
       1.286
       1.238
       1.068
       0.777
       0.372
      -0.185
      -0.930
      -1.790
      -2.555
      -2.982
      -2.959
      -2.563
      -1.983
      -1.400
      -0.929
      -0.639
      -0.582
      -0.784
      -1.234
      -1.877
      -2.629
      -3.398
      -4.088
      -4.602
      -4.864
      -4.887
      -4.824
      -4.922
      -5.388
      -6.267
      -7.426
      -8.647
      -9.716
     -10.441
     -10.651
     -10.231
      -9.199
      -7.737
      -6.120
      -4.580
      -3.214
      -2.009
      -0.932
      -0.007
       0.728
       1.294
       1.821
       2.500
       3.476
       4.753
       6.183
       7.544
       8.646
       9.417
       9.898
      10.180
      10.310
      10.262
       9.984
       9.494
       8.926
       8.478
       8.270
       8.232
       8.126
       7.720
       6.960
       5.986
       4.989
       4.028
       3.000
       1.784
       0.405
      -0.938
      -2.023
      -2.768
      -3.286
      -3.797
      -4.490
      -5.439
      -6.584
      -7.770
      -8.821
      -9.607
     -10.058
     -10.150
      -9.876
      -9.248
      -8.316
      -7.181
      -5.968
      -4.779
      -3.650
      -2.554
      -1.453
      -0.365
       0.627
       1.447
       2.107
       2.706
       3.361
       4.103
       4.858
       5.502
       5.948
       6.169
       6.158
       5.895
       5.367
       4.637
       3.851
       3.167
       2.640
       2.181
       1.640
       0.936
       0.108
      -0.755
      -1.620
      -2.523
      -3.485
      -4.426
      -5.181
      -5.599
      -5.625
      -5.300
      -4.698
      -3.901
      -3.020
      -2.203
      -1.587
      -1.197
      -0.928
      -0.643
      -0.301
       0.021
       0.246
       0.415
       0.686
       1.180
       1.840
       2.442
       2.753
       2.684
       2.307
       1.761
       1.160
       0.600
       0.194
       0.059
       0.259
       0.765
       1.476
       2.279
       3.091
       3.864
       4.544
       5.042
       5.226
       4.974
       4.235
       3.066
       1.611
       0.044
      -1.464
      -2.742
      -3.633
      -4.060
      -4.088
      -3.894
      -3.659
      -3.474
      -3.315
      -3.096
      -2.729
      -2.181
      -1.483
      -0.717
       0.021
       0.656
       1.152
       1.503
       1.706
       1.749
       1.630
       1.379
       1.077
       0.806
       0.593
       0.384
       0.090
      -0.326
      -0.805
      -1.245
      -1.593
      -1.882
      -2.155
      -2.353
      -2.302
      -1.847
      -0.998
       0.048
       1.032
       1.781
       2.258
       2.503
       2.560
       2.460
       2.231
       1.903
       1.498
       1.035
       0.564
       0.170
      -0.048
      -0.040
       0.164
       0.468
       0.767
       0.997
       1.137
       1.171
       1.063
       0.776
       0.317
      -0.226
      -0.726
      -1.096
      -1.351
      -1.575
      -1.840
      -2.128
      -2.358
      -2.457
      -2.411
      -2.242
      -1.971
      -1.607
      -1.170
      -0.705
      -0.257
       0.165
       0.578
       0.988
       1.363
       1.653
       1.837
       1.934
       1.971
       1.952
       1.867
       1.729
       1.560
       1.350
       1.042
       0.571
      -0.065
      -0.775
      -1.428
      -1.929
      -2.258
      -2.457
      -2.581
      -2.655
      -2.660
      -2.569
      -2.370
      -2.083
      -1.740
      -1.358
      -0.940
      -0.484
      -0.005
       0.484
       0.973
       1.448
       1.871
       2.179
       2.316
       2.261
       2.031
       1.665
       1.216
       0.760
       0.389
       0.178
       0.132
       0.161
       0.126
      -0.085
      -0.487
      -1.009
      -1.546
      -2.012
      -2.348
      -2.506
      -2.456
      -2.219
      -1.889
      -1.580
      -1.358
      -1.213
      -1.107
      -1.039
      -1.049
      -1.156
      -1.308
      -1.392
      -1.306
      -1.005
      -0.506
       0.155
       0.933
       1.772
       2.604
       3.377
       4.074
       4.691
       5.197
       5.519
       5.569
       5.307
       4.789
       4.159
       3.561
       3.059
       2.619
       2.174
       1.688
       1.160
       0.593
      -0.009
      -0.604
      -1.091
      -1.352
      -1.332
      -1.083
      -0.737
      -0.424
      -0.209
      -0.077
       0.029
       0.155
       0.314
       0.474
       0.572
       0.528
       0.287
      -0.135
      -0.650
      -1.150
      -1.583
      -1.977
      -2.373
      -2.758
      -3.061
      -3.226
      -3.278
      -3.291
      -3.293
      -3.221
      -2.979
      -2.543
      -2.005
      -1.509
      -1.143
      -0.905
      -0.742
      -0.622
      -0.553
      -0.547
      -0.583
      -0.616
      -0.623
      -0.636
      -0.726
      -0.940
      -1.258
      -1.599
      -1.880
      -2.065
      -2.159
      -2.174
      -2.111
      -1.969
      -1.751
      -1.449
      -1.026
      -0.442
       0.292
       1.086
       1.807
       2.349
       2.677
       2.813
       2.811
       2.724
       2.609
       2.516
       2.471
       2.459
       2.417
       2.264
       1.951
       1.499
       0.998
       0.565
       0.292
       0.210
       0.293
       0.486
       0.731
       0.979
       1.200
       1.394
       1.592
       1.838
       2.145
       2.472
       2.738
       2.871
       2.858
       2.740
       2.567
       2.367
       2.132
       1.840
       1.479
       1.063
       0.630
       0.235
      -0.086
      -0.339
      -0.569
      -0.826
      -1.134
      -1.480
      -1.840
      -2.203
      -2.558
      -2.877
      -3.122
      -3.271
      -3.356
      -3.438
      -3.561
      -3.707
      -3.809
      -3.796
      -3.640
      -3.356
      -2.984
      -2.582
      -2.210
      -1.916
      -1.711
      -1.556
      -1.385
      -1.145
      -0.826
      -0.459
      -0.097
       0.218
       0.476
       0.694
       0.892
       1.079
       1.248
       1.390
       1.506
       1.606
       1.713
       1.852
       2.038
       2.255
       2.464
       2.620
       2.701
