Origin Time       20/06/2011 06:27:18
Lat.              30.5 N	
Long.             79.4 E	
Depth (Km)         12.0
Magnitude         4.6
 Region           Chamoli-Uttarakhand                                              
 Above details taken from IMD 
     
Station Code      DNL
Station Lat.       30.427  N
Station Long.      78.244  E
Station Height(m) 2280.0
Site Class        B   Vs30 between 375 m/sec to 700 m/sec *  
Record Time       20.06.2011 06:27:19.574
Sampling Rate     200. Hz
 Record Duration   84.960 Sec.
 Direction         E-W (E positive)
Max. Acceleration     -9.019 cm/sec**2
     
  * For reference see Site Classification link of website 
     
 Base Line Corrected and Low Pass Filtered (Cut Off at 35 Hz) Time History
 Acceleration data in cm/sec**2
    
[...]
      -0.668
      -0.658
      -0.636
      -0.605
      -0.565
      -0.518
      -0.471
      -0.438
      -0.431
      -0.447
      -0.471
      -0.488
      -0.491
      -0.490
      -0.493
      -0.500
      -0.498
      -0.466
      -0.393
      -0.283
      -0.149
      -0.007
       0.130
       0.252
       0.352
       0.425
       0.475
       0.507
       0.535
       0.566
       0.598
       0.622
       0.623
       0.597
       0.546
       0.482
       0.409
       0.325
       0.222
       0.097
      -0.043
      -0.176
      -0.283
      -0.350
      -0.374
      -0.364
      -0.334
      -0.300
      -0.279
      -0.277
      -0.290
      -0.299
      -0.287
      -0.247
      -0.186
      -0.115
      -0.041
       0.043
       0.143
       0.254
       0.357
       0.423
       0.426
       0.359
       0.234
       0.074
      -0.097
      -0.264
      -0.418
      -0.547
      -0.637
      -0.677
      -0.663
      -0.602
      -0.503
      -0.375
      -0.225
      -0.064
       0.098
       0.245
       0.360
       0.428
       0.450
       0.437
       0.404
       0.361
       0.309
       0.243
       0.161
       0.075
       0.002
      -0.040
      -0.048
      -0.038
      -0.034
      -0.051
      -0.086
      -0.119
      -0.132
      -0.118
      -0.086
      -0.047
      -0.005
       0.048
       0.121
       0.212
       0.309
       0.392
       0.445
       0.467
       0.463
       0.437
       0.389
       0.319
       0.229
       0.137
       0.064
       0.028
       0.037
       0.088
       0.165
       0.244
       0.301
       0.319
       0.298
       0.247
       0.176
       0.085
      -0.033
      -0.179
      -0.338
      -0.478
      -0.566
      -0.581
      -0.530
      -0.437
      -0.332
      -0.233
      -0.147
      -0.078
      -0.036
      -0.032
      -0.076
      -0.165
      -0.285
      -0.418
      -0.544
      -0.647
      -0.714
      -0.736
      -0.709
      -0.634
      -0.516
      -0.360
      -0.179
       0.012
       0.185
       0.313
       0.374
       0.361
       0.281
       0.150
      -0.009
      -0.170
      -0.312
      -0.420
      -0.486
      -0.508
      -0.486
      -0.418
      -0.310
      -0.171
      -0.022
       0.115
       0.220
       0.279
       0.294
       0.277
       0.248
       0.221
       0.200
       0.179
       0.152
       0.125
       0.112
       0.131
       0.187
       0.269
       0.351
       0.407
       0.419
       0.385
       0.310
       0.208
       0.094
      -0.020
      -0.125
      -0.212
      -0.277
      -0.321
      -0.346
      -0.353
      -0.345
      -0.325
      -0.299
      -0.270
      -0.242
      -0.218
      -0.201
      -0.197
      -0.206
      -0.220
      -0.226
      -0.215
      -0.180
      -0.125
      -0.049
       0.046
       0.159
       0.280
       0.392
       0.483
       0.543
       0.577
       0.593
       0.598
       0.597
       0.591
       0.582
       0.574
       0.569
       0.565
       0.554
       0.529
       0.496
       0.469
       0.465
       0.486
       0.522
       0.551
       0.556
       0.524
       0.453
       0.346
       0.207
       0.037
      -0.159
      -0.375
      -0.594
      -0.798
      -0.971
      -1.100
      -1.178
      -1.203
      -1.176
      -1.110
      -1.022
      -0.926
      -0.827
      -0.722
      -0.601
      -0.459
      -0.303
      -0.152
      -0.025
       0.066
       0.128
       0.172
       0.206
       0.225
       0.214
       0.164
       0.081
      -0.012
      -0.088
      -0.127
      -0.119
      -0.072
       0.001
       0.079
       0.149
       0.201
       0.240
       0.275
       0.319
       0.373
       0.427
       0.461
       0.455
       0.405
       0.322
       0.235
       0.170
       0.137
       0.129
       0.121
       0.092
       0.032
      -0.056
      -0.158
      -0.259
      -0.342
      -0.397
      -0.421
      -0.420
      -0.403
      -0.377
      -0.341
      -0.289
      -0.213
      -0.112
       0.002
       0.111
       0.195
       0.244
       0.265
       0.271
       0.272
       0.270
       0.255
       0.214
       0.140
       0.040
      -0.070
      -0.162
      -0.211
      -0.204
      -0.142
      -0.043
       0.068
       0.167
       0.246
       0.309
       0.369
       0.433
       0.496
       0.539
       0.533
       0.454
       0.291
       0.062
      -0.196
      -0.440
      -0.631
      -0.752
      -0.799
      -0.786
      -0.726
      -0.632
      -0.510
      -0.361
      -0.194
      -0.025
       0.123
       0.226
       0.276
       0.279
       0.251
       0.207
       0.153
       0.089
       0.015
      -0.066
      -0.150
      -0.231
      -0.307
      -0.380
      -0.447
      -0.500
      -0.521
      -0.494
      -0.411
      -0.280
      -0.123
       0.031
       0.157
       0.243
       0.288
       0.301
       0.290
       0.260
       0.218
       0.173
       0.133
       0.104
       0.091
       0.099
       0.135
       0.205
       0.304
       0.421
       0.541
       0.655
       0.757
       0.845
       0.913
       0.944
       0.912
       0.796
       0.591
       0.320
       0.025
      -0.250
      -0.481
      -0.663
      -0.806
      -0.917
      -0.994
      -1.026
      -1.004
      -0.931
      -0.825
      -0.712
      -0.613
      -0.542
      -0.502
      -0.491
      -0.499
      -0.511
      -0.506
      -0.463
      -0.371
      -0.233
      -0.063
       0.122
       0.307
       0.475
       0.614
       0.712
       0.759
       0.747
       0.678
       0.560
       0.410
       0.247
       0.090
      -0.041
      -0.126
      -0.152
      -0.121
      -0.051
       0.036
       0.124
       0.213
       0.316
       0.438
       0.565
       0.667
       0.709
       0.676
       0.571
       0.418
       0.240
       0.056
      -0.132
      -0.323
      -0.515
      -0.695
      -0.838
      -0.924
      -0.943
      -0.897
      -0.798
      -0.662
      -0.496
      -0.305
      -0.096
       0.112
       0.296
       0.436
       0.524
       0.562
       0.553
       0.501
       0.412
       0.296
       0.168
       0.042
      -0.072
      -0.168
      -0.243
      -0.293
      -0.315
      -0.304
      -0.260
      -0.188
      -0.098
       0.000
       0.096
       0.187
       0.267
       0.333
       0.376
       0.388
       0.364
       0.311
       0.247
       0.191
       0.153
       0.129
       0.102
       0.057
      -0.017
      -0.116
      -0.236
      -0.366
      -0.500
      -0.629
      -0.739
      -0.814
      -0.833
      -0.785
      -0.667
      -0.486
      -0.258
       0.001
       0.271
       0.524
       0.730
       0.859
       0.893
       0.830
       0.686
       0.480
       0.231
      -0.043
      -0.322
      -0.579
      -0.783
      -0.903
      -0.923
      -0.843
      -0.679
      -0.456
      -0.207
       0.044
       0.272
       0.464
       0.609
       0.708
       0.763
       0.781
       0.768
       0.726
       0.664
       0.595
       0.540
       0.513
       0.507
       0.491
       0.433
       0.310
       0.127
      -0.097
      -0.336
      -0.570
      -0.776
      -0.932
      -1.014
      -1.010
      -0.922
      -0.770
      -0.583
      -0.390
      -0.208
      -0.045
       0.090
       0.186
       0.224
       0.200
       0.126
       0.027
      -0.068
      -0.148
      -0.217
      -0.286
      -0.360
      -0.438
      -0.513
      -0.575
      -0.615
      -0.625
      -0.600
      -0.548
      -0.486
      -0.426
      -0.372
      -0.307
      -0.206
      -0.050
       0.159
       0.398
       0.633
       0.830
       0.973
       1.061
       1.102
       1.104
       1.068
       0.991
       0.872
       0.719
       0.548
       0.379
       0.234
       0.135
       0.095
       0.121
       0.201
       0.306
       0.393
       0.421
       0.366
       0.234
       0.052
      -0.140
      -0.313
      -0.450
      -0.554
      -0.632
      -0.693
      -0.734
      -0.740
      -0.694
      -0.587
      -0.428
      -0.242
      -0.062
       0.083
       0.175
       0.211
       0.198
       0.154
       0.094
       0.036
      -0.006
      -0.023
      -0.016
       0.004
       0.020
       0.017
      -0.008
      -0.048
      -0.088
      -0.122
      -0.153
      -0.189
      -0.238
      -0.297
      -0.355
      -0.393
      -0.400
      -0.369
      -0.305
      -0.214
      -0.103
       0.020
       0.140
       0.242
       0.309
       0.329
       0.296
       0.210
       0.078
      -0.078
      -0.228
      -0.342
      -0.405
      -0.418
      -0.394
      -0.339
      -0.249
      -0.114
       0.067
       0.270
       0.458
       0.594
       0.662
       0.668
       0.629
       0.556
       0.453
       0.321
       0.172
       0.026
      -0.092
      -0.169
      -0.213
      -0.242
      -0.271
      -0.303
      -0.323
      -0.313
      -0.262
      -0.171
      -0.054
       0.070
       0.186
       0.290
       0.395
       0.514
       0.651
       0.791
       0.906
       0.971
       0.970
       0.909
       0.806
       0.683
       0.552
       0.418
       0.274
       0.116
      -0.048
      -0.206
      -0.345
      -0.462
      -0.563
      -0.657
      -0.750
      -0.849
      -0.958
      -1.078
      -1.205
      -1.332
      -1.454
      -1.563
      -1.649
      -1.689
      -1.658
      -1.539
      -1.336
      -1.075
      -0.792
      -0.517
      -0.264
      -0.027
       0.198
       0.409
       0.593
       0.737
       0.842
       0.917
       0.977
       1.030
       1.078
       1.116
       1.134
       1.126
       1.091
       1.039
       0.987
       0.950
       0.931
       0.916
       0.881
       0.812
       0.714
       0.608
       0.513
       0.431
       0.346
       0.231
       0.067
      -0.146
      -0.392
      -0.643
      -0.875
      -1.072
      -1.223
      -1.319
      -1.349
      -1.307
      -1.204
      -1.068
      -0.924
      -0.789
      -0.660
      -0.535
      -0.420
      -0.335
      -0.300
      -0.318
      -0.370
      -0.428
      -0.465
      -0.467
      -0.433
      -0.370
      -0.276
      -0.146
       0.028
       0.240
       0.469
       0.684
       0.859
       0.982
       1.052
       1.076
       1.061
       1.018
       0.957
       0.891
       0.829
       0.774
       0.734
       0.716
       0.727
       0.765
       0.809
       0.827
       0.789
       0.674
       0.482
       0.222
      -0.087
      -0.428
      -0.789
      -1.155
      -1.502
      -1.791
      -1.981
      -2.041
      -1.970
      -1.793
      -1.545
      -1.264
      -0.979
      -0.709
      -0.464
      -0.248
      -0.063
       0.084
       0.185
       0.240
       0.260
       0.270
       0.301
       0.375
       0.504
       0.681
       0.894
       1.126
       1.362
       1.592
       1.804
       1.989
       2.134
       2.230
       2.268
       2.244
       2.158
       2.015
       1.830
       1.617
       1.387
       1.144
       0.882
       0.599
       0.295
      -0.013
      -0.298
      -0.538
      -0.723
      -0.866
      -0.986
      -1.094
      -1.186
      -1.242
      -1.242
      -1.181
      -1.077
      -0.954
      -0.835
      -0.731
      -0.647
      -0.594
      -0.592
      -0.660
      -0.801
      -1.000
      -1.227
      -1.458
      -1.678
      -1.881
      -2.058
      -2.185
      -2.234
      -2.179
      -2.014
      -1.750
      -1.414
      -1.031
      -0.625
      -0.211
       0.201
       0.608
       1.009
       1.404
       1.792
       2.165
       2.519
       2.849
       3.155
       3.434
       3.674
       3.854
       3.951
       3.943
       3.813
       3.558
       3.182
       2.706
       2.161
       1.585
       1.017
       0.487
       0.012
      -0.407
      -0.781
      -1.127
      -1.470
      -1.833
      -2.234
      -2.683
      -3.178
      -3.706
      -4.240
      -4.745
      -5.178
      -5.499
      -5.678
      -5.706
      -5.601
      -5.394
      -5.121
      -4.812
      -4.488
      -4.163
      -3.845
      -3.532
      -3.211
      -2.868
      -2.491
      -2.086
      -1.675
      -1.283
      -0.925
      -0.599
      -0.288
       0.022
       0.335
       0.644
       0.941
       1.230
       1.522
       1.832
       2.167
       2.514
       2.843
       3.118
       3.314
       3.423
       3.452
       3.410
       3.302
       3.133
       2.907
       2.632
       2.322
       1.994
       1.671
       1.374
       1.116
       0.906
       0.748
       0.651
       0.624
       0.671
       0.797
       1.003
       1.286
       1.632
       2.021
       2.432
       2.853
       3.281
       3.719
       4.165
       4.613
       5.041
       5.421
       5.718
       5.895
       5.912
       5.743
       5.379
       4.846
       4.200
       3.514
       2.856
       2.266
       1.759
       1.334
       0.984
       0.703
       0.486
       0.318
       0.174
       0.024
      -0.157
      -0.382
      -0.648
      -0.947
      -1.268
      -1.600
      -1.929
      -2.244
      -2.544
      -2.842
      -3.159
      -3.518
      -3.936
      -4.418
      -4.964
      -5.562
      -6.192
      -6.825
      -7.429
      -7.973
      -8.425
      -8.762
      -8.964
      -9.019
      -8.929
      -8.706
      -8.372
      -7.947
      -7.444
      -6.870
      -6.224
      -5.504
      -4.703
      -3.812
      -2.827
      -1.753
      -0.611
       0.567
       1.732
       2.833
       3.821
       4.662
       5.334
       5.828
       6.142
       6.285
       6.272
       6.130
       5.883
       5.555
       5.169
       4.752
       4.333
       3.943
       3.606
       3.334
       3.124
       2.960
       2.821
       2.690
       2.555
       2.409
       2.247
       2.066
       1.871
       1.670
       1.468
       1.259
       1.028
       0.757
       0.436
       0.065
      -0.347
      -0.786
      -1.235
      -1.672
      -2.068
      -2.393
      -2.631
      -2.781
      -2.850
      -2.840
      -2.750
      -2.581
      -2.346
      -2.069
      -1.771
      -1.465
      -1.157
      -0.850
      -0.554
      -0.283
      -0.052
       0.134
       0.287
       0.430
       0.585
       0.759
       0.935
       1.079
       1.160
       1.161
       1.089
       0.968
       0.821
       0.669
       0.533
       0.428
       0.368
       0.361
       0.419
       0.553
       0.776
       1.089
       1.478
       1.912
       2.358
       2.783
       3.160
       3.468
       3.688
       3.811
       3.835
       3.765
       3.606
       3.353
       2.996
       2.526
       1.951
       1.301
       0.623
      -0.038
      -0.660
      -1.239
      -1.790
      -2.321
      -2.826
      -3.280
      -3.645
      -3.885
      -3.979
      -3.930
      -3.765
      -3.518
      -3.220
      -2.886
      -2.519
      -2.116
      -1.685
      -1.248
      -0.833
      -0.470
      -0.181
       0.025
       0.148
       0.201
       0.203
       0.182
       0.163
       0.164
       0.184
       0.208
       0.214
       0.187
       0.127
       0.045
      -0.043
      -0.127
      -0.208
      -0.290
      -0.367
      -0.421
      -0.430
      -0.386
      -0.310
      -0.246
      -0.241
      -0.322
      -0.489
      -0.726
      -1.012
      -1.331
      -1.675
      -2.039
      -2.420
      -2.810
      -3.198
      -3.565
      -3.892
      -4.157
      -4.337
      -4.415
      -4.380
      -4.221
      -3.929
      -3.498
      -2.932
      -2.250
      -1.480
      -0.656
       0.184
       1.000
       1.751
       2.405
       2.942
       3.366
       3.694
       3.955
       4.175
       4.371
       4.546
       4.695
       4.812
       4.894
       4.937
       4.945
       4.923
       4.872
       4.784
       4.645
       4.439
       4.163
       3.823
       3.431
       2.993
       2.512
       1.995
       1.456
       0.919
       0.406
      -0.068
      -0.496
      -0.874
      -1.188
      -1.414
      -1.526
      -1.512
      -1.378
      -1.150
      -0.865
      -0.557
      -0.254
       0.018
       0.237
       0.388
       0.464
       0.458
       0.366
       0.184
      -0.081
      -0.411
      -0.782
      -1.170
      -1.550
      -1.891
      -2.151
      -2.276
      -2.220
      -1.967
      -1.537
      -0.991
      -0.403
       0.171
       0.706
       1.206
       1.671
       2.083
       2.404
       2.589
       2.605
       2.442
       2.113
       1.642
       1.055
       0.379
      -0.359
      -1.133
      -1.913
      -2.662
      -3.341
      -3.916
      -4.362
      -4.679
      -4.881
      -4.997
      -5.046
      -5.038
      -4.970
      -4.841
      -4.668
      -4.480
      -4.310
      -4.176
      -4.073
      -3.969
      -3.823
      -3.601
      -3.293
      -2.905
      -2.459
      -1.975
      -1.467
      -0.944
      -0.413
       0.125
       0.676
       1.250
       1.857
       2.496
       3.148
       3.783
       4.365
       4.867
       5.274
       5.580
       5.781
       5.874
       5.848
       5.704
       5.451
       5.111
       4.710
       4.267
       3.794
       3.301
       2.805
       2.326
       1.874
       1.446
       1.025
       0.596
       0.156
      -0.277
      -0.675
      -1.010
      -1.266
      -1.441
      -1.545
      -1.593
      -1.589
      -1.538
      -1.445
      -1.328
      -1.219
      -1.152
      -1.148
      -1.203
      -1.286
      -1.350
      -1.354
      -1.280
      -1.129
      -0.923
      -0.688
      -0.452
      -0.241
      -0.072
       0.048
       0.124
       0.172
       0.211
       0.254
       0.305
       0.363
       0.426
       0.499
       0.583
       0.673
       0.741
       0.752
       0.676
       0.510
       0.279
       0.021
      -0.233
      -0.477
      -0.725
      -0.998
      -1.303
      -1.624
      -1.919
      -2.133
      -2.214
      -2.130
      -1.886
      -1.519
      -1.086
      -0.639
      -0.205
       0.214
       0.632
       1.056
       1.479
       1.879
       2.236
       2.537
       2.782
       2.975
       3.112
       3.179
       3.163
       3.056
       2.861
       2.588
       2.247
       1.849
       1.406
       0.931
       0.437
      -0.068
      -0.578
      -1.088
      -1.592
      -2.080
      -2.547
      -2.985
      -3.385
      -3.737
      -4.026
      -4.229
      -4.329
      -4.312
      -4.180
      -3.947
      -3.628
      -3.226
      -2.724
      -2.099
      -1.341
      -0.475
       0.440
       1.331
       2.133
       2.808
       3.341
       3.735
       3.993
       4.121
       4.119
       3.988
       3.728
       3.344
       2.848
       2.261
       1.616
       0.954
       0.319
      -0.244
      -0.694
      -1.005
      -1.174
      -1.223
      -1.194
      -1.132
      -1.079
      -1.068
      -1.120
      -1.245
      -1.430
      -1.649
      -1.865
      -2.045
      -2.162
      -2.198
      -2.142
      -1.994
      -1.769
