Origin Time       27/11/2012 12:15:15
Lat.              30.9 N	
Long.             78.4 E	
Depth (Km)         12.0
Magnitude         4.8
 Region           Uttarkashi-Uttarakhand                                           
 Above details taken from IMD 
     
Station Code      DNL
Station Lat.       30.427  N
Station Long.      78.244  E
Station Height(m) 2280.0
Site Class        B   Vs30 between 375 m/sec to 700 m/sec *  
Record Time       27.11.2012 12:15:04.529
Sampling Rate     200. Hz
 Record Duration   80.035 Sec.
 Direction         E-W (E positive)
Max. Acceleration     -4.109 cm/sec**2
     
  * For reference see Site Classification link of website 
     
 Base Line Corrected and Low Pass Filtered (Cut Off at 35 Hz) Time History
 Acceleration data in cm/sec**2
    
[...]
      -0.426
      -0.687
      -0.911
      -1.070
      -1.138
      -1.098
      -0.942
      -0.683
      -0.361
      -0.033
       0.246
       0.448
       0.584
       0.689
       0.793
       0.899
       0.981
       1.003
       0.936
       0.773
       0.526
       0.228
      -0.085
      -0.367
      -0.580
      -0.695
      -0.699
      -0.602
      -0.430
      -0.222
      -0.019
       0.146
       0.259
       0.330
       0.381
       0.426
       0.458
       0.450
       0.368
       0.201
      -0.021
      -0.240
      -0.386
      -0.420
      -0.346
      -0.212
      -0.076
       0.024
       0.085
       0.131
       0.181
       0.225
       0.226
       0.142
      -0.035
      -0.264
      -0.474
      -0.596
      -0.604
      -0.519
      -0.391
      -0.272
      -0.184
      -0.118
      -0.049
       0.045
       0.171
       0.321
       0.482
       0.633
       0.742
       0.773
       0.698
       0.517
       0.266
      -0.003
      -0.251
      -0.466
      -0.654
      -0.816
      -0.931
      -0.966
      -0.899
      -0.733
      -0.493
      -0.206
       0.106
       0.425
       0.720
       0.949
       1.066
       1.045
       0.892
       0.634
       0.304
      -0.064
      -0.434
      -0.767
      -1.030
      -1.203
      -1.288
      -1.288
      -1.204
      -1.025
      -0.746
      -0.380
       0.037
       0.456
       0.827
       1.118
       1.321
       1.443
       1.490
       1.457
       1.326
       1.083
       0.741
       0.337
      -0.075
      -0.446
      -0.750
      -0.969
      -1.090
      -1.099
      -0.996
      -0.801
      -0.561
      -0.330
      -0.142
      -0.002
       0.105
       0.197
       0.273
       0.327
       0.357
       0.371
       0.376
       0.369
       0.343
       0.301
       0.264
       0.262
       0.307
       0.373
       0.406
       0.343
       0.164
      -0.100
      -0.380
      -0.608
      -0.752
      -0.823
      -0.851
      -0.857
      -0.843
      -0.797
      -0.705
      -0.571
      -0.407
      -0.228
      -0.046
       0.134
       0.298
       0.419
       0.466
       0.415
       0.265
       0.042
      -0.214
      -0.461
      -0.673
      -0.833
      -0.928
      -0.938
      -0.838
      -0.615
      -0.286
       0.098
       0.471
       0.786
       1.025
       1.202
       1.337
       1.438
       1.500
       1.508
       1.450
       1.322
       1.120
       0.839
       0.481
       0.064
      -0.371
      -0.765
      -1.064
      -1.233
      -1.272
      -1.201
      -1.047
      -0.831
      -0.557
      -0.225
       0.155
       0.556
       0.930
       1.218
       1.374
       1.381
       1.257
       1.036
       0.758
       0.454
       0.143
      -0.169
      -0.474
      -0.766
      -1.032
      -1.252
      -1.401
      -1.455
      -1.404
      -1.254
      -1.033
      -0.775
      -0.512
      -0.260
      -0.020
       0.213
       0.434
       0.621
       0.739
       0.767
       0.711
       0.608
       0.501
       0.419
       0.359
       0.293
       0.189
       0.038
      -0.134
      -0.276
      -0.336
      -0.296
      -0.183
      -0.063
       0.002
      -0.013
      -0.080
      -0.139
      -0.144
      -0.083
       0.016
       0.114
       0.179
       0.196
       0.150
       0.028
      -0.165
      -0.397
      -0.612
      -0.754
      -0.800
      -0.766
      -0.688
      -0.600
      -0.514
      -0.433
      -0.353
      -0.267
      -0.152
       0.029
       0.305
       0.662
       1.032
       1.321
       1.448
       1.386
       1.161
       0.834
       0.474
       0.135
      -0.155
      -0.396
      -0.611
      -0.827
      -1.051
      -1.256
      -1.382
      -1.369
      -1.185
      -0.847
      -0.412
       0.048
       0.476
       0.841
       1.135
       1.362
       1.517
       1.583
       1.532
       1.340
       1.009
       0.570
       0.080
      -0.398
      -0.816
      -1.151
      -1.398
      -1.562
      -1.641
      -1.623
      -1.496
      -1.265
      -0.960
      -0.621
      -0.277
       0.062
       0.397
       0.717
       0.993
       1.190
       1.281
       1.257
       1.128
       0.919
       0.661
       0.383
       0.111
      -0.136
      -0.337
      -0.475
      -0.543
      -0.545
      -0.496
      -0.411
      -0.295
      -0.146
       0.040
       0.255
       0.469
       0.635
       0.713
       0.690
       0.593
       0.471
       0.373
       0.322
       0.305
       0.289
       0.244
       0.158
       0.044
      -0.078
      -0.184
      -0.257
      -0.289
      -0.275
      -0.220
      -0.141
      -0.062
      -0.003
       0.029
       0.039
       0.041
       0.044
       0.055
       0.067
       0.068
       0.039
      -0.033
      -0.155
      -0.317
      -0.495
      -0.657
      -0.772
      -0.825
      -0.826
      -0.804
      -0.787
      -0.791
      -0.808
      -0.818
      -0.795
      -0.730
      -0.635
      -0.532
      -0.432
      -0.323
      -0.168
       0.067
       0.385
       0.749
       1.089
       1.336
       1.453
       1.445
       1.342
       1.176
       0.964
       0.713
       0.434
       0.152
      -0.104
      -0.318
      -0.497
      -0.652
      -0.778
      -0.837
      -0.782
      -0.593
      -0.309
      -0.008
       0.221
       0.323
       0.293
       0.161
      -0.031
      -0.241
      -0.434
      -0.582
      -0.659
      -0.655
      -0.579
      -0.456
      -0.317
      -0.189
      -0.088
      -0.011
       0.059
       0.147
       0.267
       0.417
       0.579
       0.733
       0.863
       0.958
       1.016
       1.029
       0.990
       0.895
       0.756
       0.602
       0.470
       0.384
       0.346
       0.333
       0.315
       0.270
       0.183
       0.048
      -0.140
      -0.380
      -0.661
      -0.950
      -1.205
      -1.385
      -1.471
      -1.472
      -1.411
      -1.306
      -1.151
      -0.933
      -0.650
      -0.327
      -0.006
       0.278
       0.514
       0.700
       0.828
       0.882
       0.851
       0.747
       0.603
       0.450
       0.310
       0.185
       0.073
      -0.021
      -0.096
      -0.157
      -0.221
      -0.304
      -0.406
      -0.498
      -0.541
      -0.505
      -0.389
      -0.227
      -0.064
       0.058
       0.125
       0.146
       0.148
       0.150
       0.159
       0.173
       0.187
       0.197
       0.197
       0.174
       0.119
       0.038
      -0.041
      -0.076
      -0.040
       0.063
       0.196
       0.316
       0.392
       0.425
       0.431
       0.421
       0.389
       0.314
       0.178
      -0.012
      -0.227
      -0.422
      -0.555
      -0.607
      -0.586
      -0.522
      -0.445
      -0.379
      -0.332
      -0.308
      -0.302
      -0.302
      -0.282
      -0.212
      -0.078
       0.100
       0.260
       0.335
       0.290
       0.152
      -0.008
      -0.117
      -0.137
      -0.076
       0.025
       0.119
       0.165
       0.140
       0.043
      -0.115
      -0.310
      -0.518
      -0.722
      -0.907
      -1.063
      -1.172
      -1.207
      -1.144
      -0.985
      -0.760
      -0.520
      -0.304
      -0.110
       0.098
       0.354
       0.653
       0.943
       1.151
       1.231
       1.184
       1.057
       0.898
       0.737
       0.578
       0.420
       0.269
       0.138
       0.032
      -0.056
      -0.139
      -0.227
      -0.311
      -0.365
      -0.356
      -0.266
      -0.103
       0.099
       0.293
       0.439
       0.515
       0.517
       0.451
       0.330
       0.168
      -0.011
      -0.176
      -0.293
      -0.343
      -0.323
      -0.244
      -0.125
       0.013
       0.152
       0.274
       0.370
       0.431
       0.453
       0.431
       0.371
       0.284
       0.195
       0.133
       0.115
       0.138
       0.185
       0.244
       0.316
       0.409
       0.508
       0.575
       0.562
       0.449
       0.263
       0.072
      -0.057
      -0.098
      -0.064
       0.009
       0.104
       0.222
       0.369
       0.524
       0.647
       0.698
       0.670
       0.593
       0.515
       0.468
       0.443
       0.401
       0.301
       0.133
      -0.078
      -0.292
      -0.478
      -0.629
      -0.765
      -0.910
      -1.077
      -1.261
      -1.438
      -1.585
      -1.685
      -1.729
      -1.713
      -1.631
      -1.478
      -1.257
      -0.983
      -0.685
      -0.394
      -0.141
       0.048
       0.151
       0.156
       0.069
      -0.081
      -0.256
      -0.416
      -0.538
      -0.618
      -0.665
      -0.692
      -0.702
      -0.689
      -0.640
      -0.544
      -0.407
      -0.245
      -0.084
       0.050
       0.133
       0.152
       0.108
       0.024
      -0.063
      -0.117
      -0.109
      -0.035
       0.100
       0.281
       0.494
       0.729
       0.980
       1.233
       1.472
       1.672
       1.812
       1.879
       1.870
       1.795
       1.664
       1.495
       1.313
       1.152
       1.036
       0.971
       0.933
       0.879
       0.769
       0.590
       0.362
       0.125
      -0.089
      -0.275
      -0.457
      -0.662
      -0.892
      -1.110
      -1.260
      -1.298
      -1.215
      -1.040
      -0.817
      -0.586
      -0.371
      -0.180
      -0.020
       0.102
       0.172
       0.180
       0.120
       0.002
      -0.148
      -0.298
      -0.419
      -0.504
      -0.555
      -0.571
      -0.537
      -0.442
      -0.305
      -0.177
      -0.112
      -0.127
      -0.193
      -0.253
      -0.269
      -0.242
      -0.210
      -0.213
      -0.267
      -0.362
      -0.469
      -0.562
      -0.622
      -0.642
      -0.635
      -0.630
      -0.660
      -0.730
      -0.804
      -0.818
      -0.727
      -0.530
      -0.278
      -0.035
       0.161
       0.318
       0.466
       0.628
       0.796
       0.941
       1.039
       1.081
       1.076
       1.031
       0.952
       0.838
       0.690
       0.517
       0.341
       0.195
       0.119
       0.144
       0.278
       0.504
       0.790
       1.112
       1.447
       1.772
       2.054
       2.248
       2.323
       2.276
       2.133
       1.928
       1.683
       1.399
       1.066
       0.681
       0.265
      -0.153
      -0.543
      -0.887
      -1.178
      -1.410
      -1.580
      -1.694
      -1.772
      -1.841
      -1.909
      -1.952
      -1.935
      -1.837
      -1.677
      -1.504
      -1.363
      -1.268
      -1.207
      -1.155
      -1.100
      -1.047
      -1.004
      -0.979
      -0.966
      -0.961
      -0.955
      -0.940
      -0.904
      -0.834
      -0.729
      -0.594
      -0.444
      -0.291
      -0.149
      -0.036
       0.033
       0.053
       0.047
       0.061
       0.144
       0.320
       0.566
       0.821
       1.013
       1.102
       1.099
       1.055
       1.029
       1.051
       1.117
       1.191
       1.233
       1.205
       1.076
       0.833
       0.488
       0.097
      -0.249
      -0.459
      -0.487
      -0.355
      -0.138
       0.073
       0.208
       0.233
       0.149
      -0.026
      -0.258
      -0.510
      -0.737
      -0.896
      -0.959
      -0.917
      -0.783
      -0.577
      -0.315
      -0.003
       0.351
       0.735
       1.123
       1.481
       1.768
       1.949
       2.003
       1.928
       1.744
       1.478
       1.161
       0.823
       0.493
       0.195
      -0.059
      -0.274
      -0.463
      -0.631
      -0.771
      -0.867
      -0.900
      -0.863
      -0.756
      -0.595
      -0.408
      -0.234
      -0.104
      -0.029
       0.003
       0.019
       0.033
       0.031
      -0.022
      -0.168
      -0.422
      -0.757
      -1.112
      -1.425
      -1.659
      -1.810
      -1.892
      -1.910
      -1.852
      -1.710
      -1.495
      -1.251
      -1.032
      -0.878
      -0.799
      -0.774
      -0.769
      -0.752
      -0.695
      -0.573
      -0.356
      -0.023
       0.427
       0.951
       1.462
       1.853
       2.042
       2.006
       1.793
       1.498
       1.228
       1.055
       1.012
       1.095
       1.277
       1.524
       1.794
       2.042
       2.230
       2.340
       2.373
       2.348
       2.277
       2.151
       1.939
       1.606
       1.151
       0.616
       0.073
      -0.408
      -0.783
      -1.036
      -1.170
      -1.201
      -1.152
      -1.058
      -0.959
      -0.886
      -0.856
      -0.880
      -0.961
      -1.087
      -1.225
      -1.328
      -1.353
      -1.294
      -1.185
      -1.081
      -1.029
      -1.049
      -1.138
      -1.290
      -1.490
      -1.712
      -1.903
      -2.002
      -1.965
      -1.794
      -1.538
      -1.266
      -1.038
      -0.875
      -0.754
      -0.626
      -0.440
      -0.167
       0.178
       0.539
       0.842
       1.035
       1.107
       1.098
       1.071
       1.077
       1.141
       1.257
       1.404
       1.568
       1.744
       1.932
       2.132
       2.339
       2.542
       2.736
       2.922
       3.106
       3.277
       3.400
       3.417
       3.278
       2.968
       2.525
       2.016
       1.492
       0.963
       0.397
      -0.243
      -0.969
      -1.750
      -2.517
      -3.190
      -3.696
      -4.000
      -4.109
      -4.073
      -3.955
      -3.813
      -3.669
      -3.517
      -3.331
      -3.095
      -2.813
      -2.515
      -2.239
      -2.006
      -1.801
      -1.583
      -1.312
      -0.974
      -0.589
      -0.202
       0.148
       0.441
       0.684
       0.901
       1.111
       1.323
       1.529
       1.713
       1.866
       1.984
       2.065
       2.086
       2.012
       1.811
       1.486
       1.093
       0.717
       0.430
       0.253
       0.150
       0.056
      -0.079
      -0.260
      -0.444
      -0.570
      -0.589
      -0.488
      -0.286
      -0.023
       0.261
       0.544
       0.825
       1.111
       1.400
       1.664
       1.860
       1.954
       1.937
       1.826
       1.642
       1.397
       1.085
       0.698
       0.243
      -0.254
      -0.753
      -1.208
      -1.578
      -1.832
      -1.960
      -1.975
      -1.913
      -1.817
      -1.715
      -1.614
      -1.504
      -1.370
      -1.206
      -1.007
      -0.775
      -0.520
      -0.263
      -0.034
       0.128
       0.193
       0.153
       0.018
      -0.183
      -0.415
      -0.643
      -0.841
      -0.995
      -1.104
      -1.172
      -1.195
      -1.154
      -1.021
      -0.776
      -0.427
      -0.008
       0.436
       0.875
       1.295
       1.689
       2.027
       2.267
       2.367
       2.318
       2.146
       1.896
       1.608
       1.307
       1.018
       0.773
       0.606
       0.541
       0.566
       0.641
       0.713
       0.742
       0.712
       0.630
       0.514
       0.391
       0.300
       0.283
       0.364
       0.530
       0.717
       0.847
       0.871
       0.806
       0.714
       0.656
       0.648
       0.663
       0.663
       0.638
       0.609
       0.601
       0.609
       0.602
       0.546
       0.447
       0.349
       0.306
       0.343
       0.434
       0.514
       0.522
       0.425
       0.235
      -0.005
      -0.244
      -0.441
      -0.573
      -0.633
      -0.630
      -0.586
      -0.530
      -0.494
      -0.506
      -0.584
      -0.732
      -0.937
      -1.167
      -1.383
      -1.560
      -1.701
      -1.839
      -2.022
      -2.283
      -2.613
      -2.960
      -3.248
      -3.411
      -3.419
      -3.284
      -3.048
      -2.751
      -2.423
      -2.074
      -1.711
      -1.344
      -0.990
      -0.663
      -0.368
      -0.099
       0.150
       0.375
       0.551
       0.646
       0.643
       0.549
       0.395
       0.213
       0.029
      -0.140
      -0.269
      -0.334
      -0.316
      -0.217
      -0.047
       0.189
       0.484
       0.828
       1.181
       1.487
       1.694
       1.791
       1.809
       1.795
       1.771
       1.722
       1.616
       1.446
       1.239
       1.039
       0.875
       0.742
       0.619
       0.486
       0.338
       0.179
       0.011
      -0.172
      -0.367
      -0.555
      -0.697
      -0.750
      -0.683
      -0.492
      -0.201
       0.148
       0.503
       0.824
       1.088
       1.282
       1.404
       1.458
       1.466
       1.463
       1.486
       1.546
       1.624
       1.672
       1.643
       1.515
       1.305
       1.056
       0.816
       0.615
       0.450
       0.302
       0.149
      -0.023
      -0.220
      -0.453
      -0.736
      -1.080
      -1.474
      -1.882
      -2.254
      -2.545
      -2.741
      -2.852
      -2.904
      -2.917
      -2.898
      -2.840
      -2.724
      -2.528
      -2.235
      -1.845
      -1.378
      -0.871
      -0.359
       0.132
       0.583
       0.977
       1.302
       1.555
       1.752
       1.921
       2.096
       2.298
       2.526
       2.752
       2.935
       3.041
       3.055
       2.985
       2.842
       2.625
       2.321
       1.927
       1.471
       1.011
       0.615
       0.335
       0.189
       0.171
       0.260
       0.426
       0.627
       0.811
       0.933
       0.965
       0.908
       0.785
       0.634
       0.489
       0.367
       0.259
       0.127
      -0.073
      -0.363
      -0.731
      -1.130
      -1.511
      -1.844
      -2.119
      -2.338
      -2.498
      -2.593
      -2.625
      -2.607
      -2.555
      -2.472
      -2.342
      -2.132
      -1.819
      -1.411
      -0.945
      -0.481
      -0.081
       0.213
       0.383
       0.437
       0.399
       0.287
       0.108
      -0.141
      -0.452
      -0.795
      -1.117
      -1.366
      -1.521
      -1.594
      -1.619
      -1.616
      -1.584
      -1.509
      -1.388
      -1.240
      -1.090
      -0.954
      -0.837
      -0.733
      -0.637
      -0.540
      -0.429
      -0.292
      -0.130
       0.034
       0.171
       0.267
       0.324
       0.355
       0.366
       0.356
       0.332
       0.323
       0.367
       0.489
       0.680
       0.901
       1.109
       1.280
       1.421
       1.558
       1.716
       1.902
       2.104
       2.295
       2.446
       2.540
       2.569
       2.535
       2.439
       2.284
       2.073
       1.812
       1.504
       1.148
       0.750
       0.327
      -0.089
      -0.449
      -0.713
      -0.864
      -0.911
      -0.886
      -0.825
      -0.752
      -0.680
      -0.603
      -0.507
      -0.379
      -0.219
      -0.038
       0.148
       0.320
       0.460
       0.550
       0.564
       0.482
       0.291
       0.001
      -0.356
      -0.724
      -1.045
      -1.275
      -1.402
      -1.445
      -1.437
      -1.389
      -1.280
      -1.078
      -0.778
      -0.423
      -0.091
       0.151
       0.286
       0.354
       0.412
       0.493
       0.589
       0.664
       0.691
       0.670
       0.623
       0.569
       0.507
       0.419
       0.290
