Origin Time       17/9/2010 19:21:09	
Lat.              36.5 N	
Long.             70.8 E	
Depth (Km)        167.0
Magnitude         6.5
 Region           Hindukush                                                        
 Above details taken from IMD 
   
Station Code      DNL
Station Lat.       30.427
Station Long.      78.244
Station Height(m) 2280.0
Site Class        B   Vs30 between 375 m/sec to 700 m/sec *  
Record Time       17.09.2010 19:24:00.594
Sampling Rate     200. Hz
 Record Duration   80.065 Sec.
 Direction         Vert. (Up positive)
Max. Acceleration     -0.722 cm/sec**2
     
  * For reference see Site Classification link of website 
     
 Base Line Corrected and Low Pass Filtered (Cut Off at 35 Hz) Time History
 Acceleration data in cm/sec**2
    
[...]
      -0.065
      -0.084
      -0.104
      -0.125
      -0.143
      -0.158
      -0.167
      -0.172
      -0.174
      -0.171
      -0.160
      -0.142
      -0.124
      -0.113
      -0.106
      -0.098
      -0.084
      -0.067
      -0.054
      -0.046
      -0.042
      -0.036
      -0.027
      -0.018
      -0.012
      -0.007
      -0.002
       0.007
       0.021
       0.039
       0.057
       0.073
       0.084
       0.086
       0.082
       0.073
       0.062
       0.051
       0.043
       0.039
       0.037
       0.035
       0.031
       0.025
       0.016
       0.006
      -0.003
      -0.009
      -0.012
      -0.015
      -0.017
      -0.019
      -0.019
      -0.015
      -0.007
       0.004
       0.019
       0.035
       0.051
       0.063
       0.070
       0.072
       0.071
       0.068
       0.059
       0.042
       0.017
      -0.013
      -0.039
      -0.057
      -0.065
      -0.070
      -0.075
      -0.080
      -0.080
      -0.076
      -0.072
      -0.070
      -0.069
      -0.070
      -0.069
      -0.066
      -0.061
      -0.053
      -0.044
      -0.034
      -0.021
      -0.008
       0.004
       0.015
       0.023
       0.026
       0.022
       0.014
       0.006
       0.002
       0.003
       0.008
       0.010
       0.006
      -0.001
      -0.007
      -0.010
      -0.010
      -0.012
      -0.015
      -0.019
      -0.017
      -0.011
      -0.002
       0.006
       0.012
       0.018
       0.028
       0.042
       0.054
       0.063
       0.070
       0.081
       0.097
       0.114
       0.125
       0.123
       0.107
       0.082
       0.054
       0.029
       0.004
      -0.023
      -0.053
      -0.086
      -0.119
      -0.151
      -0.178
      -0.198
      -0.207
      -0.203
      -0.187
      -0.166
      -0.141
      -0.116
      -0.090
      -0.063
      -0.037
      -0.015
      -0.001
       0.008
       0.012
       0.017
       0.023
       0.028
       0.028
       0.023
       0.013
       0.003
      -0.007
      -0.017
      -0.028
      -0.039
      -0.051
      -0.062
      -0.071
      -0.080
      -0.088
      -0.094
      -0.097
      -0.098
      -0.099
      -0.100
      -0.100
      -0.095
      -0.086
      -0.076
      -0.072
      -0.074
      -0.081
      -0.090
      -0.093
      -0.087
      -0.071
      -0.048
      -0.024
      -0.004
       0.013
       0.027
       0.039
       0.048
       0.052
       0.052
       0.049
       0.047
       0.044
       0.041
       0.038
       0.040
       0.049
       0.067
       0.088
       0.103
       0.104
       0.095
       0.084
       0.082
       0.090
       0.100
       0.103
       0.099
       0.093
       0.092
       0.098
       0.106
       0.109
       0.105
       0.095
       0.083
       0.066
       0.047
       0.027
       0.010
      -0.002
      -0.007
      -0.009
      -0.009
      -0.007
      -0.001
       0.012
       0.029
       0.046
       0.056
       0.056
       0.049
       0.038
       0.025
       0.011
      -0.003
      -0.015
      -0.026
      -0.037
      -0.050
      -0.066
      -0.082
      -0.093
      -0.099
      -0.102
      -0.104
      -0.105
      -0.107
      -0.110
      -0.112
      -0.109
      -0.098
      -0.079
      -0.059
      -0.040
      -0.027
      -0.019
      -0.019
      -0.028
      -0.046
      -0.071
      -0.097
      -0.117
      -0.132
      -0.143
      -0.153
      -0.161
      -0.168
      -0.172
      -0.177
      -0.181
      -0.179
      -0.169
      -0.149
      -0.125
      -0.100
      -0.076
      -0.050
      -0.021
       0.008
       0.031
       0.049
       0.063
       0.080
       0.100
       0.120
       0.137
       0.147
       0.152
       0.155
       0.160
       0.164
       0.167
       0.169
       0.168
       0.162
       0.153
       0.144
       0.141
       0.146
       0.155
       0.165
       0.175
       0.189
       0.206
       0.224
       0.236
       0.239
       0.233
       0.225
       0.221
       0.223
       0.222
       0.215
       0.201
       0.186
       0.169
       0.151
       0.129
       0.103
       0.077
       0.053
       0.036
       0.024
       0.014
       0.006
      -0.002
      -0.007
      -0.010
      -0.010
      -0.010
      -0.015
      -0.029
      -0.050
      -0.077
      -0.102
      -0.121
      -0.134
      -0.141
      -0.147
      -0.154
      -0.161
      -0.166
      -0.171
      -0.177
      -0.186
      -0.195
      -0.201
      -0.203
      -0.200
      -0.193
      -0.186
      -0.179
      -0.171
      -0.159
      -0.142
      -0.124
      -0.106
      -0.090
      -0.077
      -0.063
      -0.047
      -0.034
      -0.031
      -0.041
      -0.060
      -0.077
      -0.085
      -0.087
      -0.090
      -0.098
      -0.111
      -0.125
      -0.136
      -0.140
      -0.137
      -0.130
      -0.126
      -0.128
      -0.136
      -0.147
      -0.153
      -0.151
      -0.140
      -0.123
      -0.104
      -0.085
      -0.066
      -0.045
      -0.021
       0.004
       0.029
       0.049
       0.062
       0.067
       0.071
       0.080
       0.095
       0.111
       0.118
       0.114
       0.105
       0.102
       0.107
       0.114
       0.117
       0.114
       0.110
       0.110
       0.116
       0.124
       0.131
       0.136
       0.142
       0.152
       0.163
       0.168
       0.163
       0.146
       0.123
       0.098
       0.076
       0.060
       0.050
       0.047
       0.050
       0.059
       0.073
       0.091
       0.111
       0.130
       0.143
       0.150
       0.150
       0.148
       0.147
       0.147
       0.145
       0.142
       0.136
       0.130
       0.124
       0.116
       0.106
       0.095
       0.087
       0.083
       0.079
       0.072
       0.061
       0.048
       0.038
       0.030
       0.026
       0.021
       0.014
       0.003
      -0.008
      -0.017
      -0.024
      -0.030
      -0.041
      -0.058
      -0.081
      -0.106
      -0.125
      -0.134
      -0.132
      -0.124
      -0.116
      -0.112
      -0.111
      -0.112
      -0.113
      -0.115
      -0.119
      -0.122
      -0.120
      -0.115
      -0.108
      -0.100
      -0.090
      -0.073
      -0.051
      -0.027
      -0.005
       0.013
       0.026
       0.036
       0.042
       0.043
       0.033
       0.016
      -0.006
      -0.029
      -0.053
      -0.077
      -0.099
      -0.114
      -0.121
      -0.121
      -0.120
      -0.123
      -0.134
      -0.150
      -0.168
      -0.180
      -0.182
      -0.176
      -0.166
      -0.154
      -0.141
      -0.123
      -0.100
      -0.074
      -0.051
      -0.034
      -0.025
      -0.024
      -0.032
      -0.051
      -0.080
      -0.113
      -0.144
      -0.167
      -0.181
      -0.186
      -0.189
      -0.191
      -0.190
      -0.187
      -0.180
      -0.168
      -0.153
      -0.136
      -0.119
      -0.102
      -0.081
      -0.051
      -0.015
       0.027
       0.069
       0.108
       0.143
       0.170
       0.194
       0.217
       0.242
       0.265
       0.281
       0.287
       0.281
       0.268
       0.251
       0.234
       0.217
       0.201
       0.186
       0.175
       0.168
       0.159
       0.145
       0.124
       0.101
       0.080
       0.066
       0.057
       0.054
       0.051
       0.050
       0.049
       0.049
       0.053
       0.063
       0.078
       0.096
       0.115
       0.131
       0.144
       0.152
       0.156
       0.154
       0.147
       0.136
       0.121
       0.104
       0.087
       0.069
       0.048
       0.025
       0.002
      -0.015
      -0.024
      -0.028
      -0.031
      -0.039
      -0.049
      -0.057
      -0.060
      -0.057
      -0.050
      -0.040
      -0.023
       0.000
       0.026
       0.050
       0.067
       0.079
       0.088
       0.099
       0.115
       0.133
       0.151
       0.164
       0.170
       0.169
       0.163
       0.155
       0.145
       0.129
       0.109
       0.085
       0.061
       0.039
       0.016
      -0.010
      -0.044
      -0.083
      -0.124
      -0.163
      -0.198
      -0.225
      -0.240
      -0.241
      -0.230
      -0.213
      -0.196
      -0.181
      -0.167
      -0.150
      -0.128
      -0.102
      -0.073
      -0.044
      -0.015
       0.015
       0.045
       0.072
       0.092
       0.102
       0.105
       0.104
       0.102
       0.098
       0.087
       0.067
       0.039
       0.010
      -0.014
      -0.035
      -0.058
      -0.086
      -0.114
      -0.135
      -0.141
      -0.135
      -0.121
      -0.103
      -0.082
      -0.055
      -0.021
       0.019
       0.062
       0.105
       0.146
       0.183
       0.213
       0.234
       0.249
       0.259
       0.264
       0.267
       0.265
       0.256
       0.239
       0.214
       0.180
       0.141
       0.104
       0.069
       0.037
       0.002
      -0.035
      -0.071
      -0.101
      -0.122
      -0.135
      -0.144
      -0.151
      -0.160
      -0.167
      -0.171
      -0.170
      -0.169
      -0.174
      -0.189
      -0.215
      -0.249
      -0.286
      -0.320
      -0.347
      -0.368
      -0.380
      -0.384
      -0.378
      -0.365
      -0.352
      -0.342
      -0.335
      -0.324
      -0.305
      -0.281
      -0.257
      -0.239
      -0.228
      -0.220
      -0.208
      -0.189
      -0.164
      -0.141
      -0.125
      -0.122
      -0.127
      -0.134
      -0.137
      -0.134
      -0.127
      -0.117
      -0.105
      -0.091
      -0.071
      -0.044
      -0.013
       0.020
       0.055
       0.096
       0.144
       0.200
       0.261
       0.324
       0.385
       0.437
       0.476
       0.501
       0.514
       0.517
       0.513
       0.501
       0.484
       0.463
       0.440
       0.415
       0.386
       0.352
       0.314
       0.278
       0.243
       0.209
       0.171
       0.132
       0.095
       0.064
       0.045
       0.034
       0.026
       0.017
       0.006
      -0.003
      -0.004
       0.003
       0.016
       0.028
       0.035
       0.039
       0.041
       0.044
       0.049
       0.053
       0.051
       0.040
       0.021
       0.000
      -0.019
      -0.031
      -0.037
      -0.037
      -0.034
      -0.028
      -0.021
      -0.017
      -0.016
      -0.016
      -0.014
      -0.007
       0.007
       0.028
       0.053
       0.073
       0.084
       0.086
       0.085
       0.087
       0.097
       0.112
       0.127
       0.136
       0.141
       0.140
       0.135
       0.128
       0.127
       0.134
       0.147
       0.158
       0.160
       0.155
       0.150
       0.153
       0.163
       0.177
       0.186
       0.184
       0.174
       0.159
       0.145
       0.134
       0.124
       0.113
       0.100
       0.087
       0.078
       0.076
       0.082
       0.093
       0.103
       0.106
       0.097
       0.080
       0.058
       0.033
       0.002
      -0.036
      -0.079
      -0.122
      -0.160
      -0.193
      -0.220
      -0.241
      -0.259
      -0.276
      -0.296
      -0.320
      -0.346
      -0.371
      -0.395
      -0.417
      -0.435
      -0.446
      -0.448
      -0.445
      -0.440
      -0.435
      -0.426
      -0.407
      -0.380
      -0.348
      -0.320
      -0.300
      -0.284
      -0.268
      -0.245
      -0.216
      -0.187
      -0.160
      -0.135
      -0.108
      -0.076
      -0.040
      -0.006
       0.021
       0.045
       0.069
       0.095
       0.117
       0.131
       0.135
       0.133
       0.132
       0.134
       0.137
       0.137
       0.131
       0.119
       0.104
       0.089
       0.080
       0.076
       0.078
       0.082
       0.087
       0.089
       0.092
       0.100
       0.115
       0.132
       0.149
       0.164
       0.182
       0.205
       0.235
       0.270
       0.308
       0.346
       0.382
       0.412
       0.432
       0.441
       0.440
       0.430
       0.415
       0.396
       0.373
       0.346
       0.315
       0.280
       0.242
       0.203
       0.158
       0.107
       0.052
      -0.004
      -0.055
      -0.101
      -0.146
      -0.193
      -0.244
      -0.298
      -0.351
      -0.402
      -0.446
      -0.478
      -0.493
      -0.489
      -0.475
      -0.460
      -0.450
      -0.445
      -0.440
      -0.432
      -0.420
      -0.402
      -0.379
      -0.352
      -0.323
      -0.293
      -0.260
      -0.223
      -0.185
      -0.150
      -0.120
      -0.094
      -0.068
      -0.039
      -0.009
       0.019
       0.041
       0.059
       0.072
       0.082
       0.089
       0.095
       0.102
       0.110
       0.121
       0.132
       0.143
       0.150
       0.153
       0.150
       0.144
       0.137
       0.130
       0.125
       0.117
       0.107
       0.095
       0.081
       0.065
       0.045
       0.024
       0.007
      -0.005
      -0.012
      -0.015
      -0.017
      -0.019
      -0.020
      -0.019
      -0.014
      -0.007
       0.000
       0.007
       0.014
       0.022
       0.027
       0.026
       0.020
       0.011
      -0.003
      -0.024
      -0.057
      -0.103
      -0.159
      -0.219
      -0.276
      -0.331
      -0.387
      -0.447
      -0.508
      -0.567
      -0.618
      -0.659
      -0.688
      -0.708
      -0.719
      -0.722
      -0.718
      -0.706
      -0.684
      -0.653
      -0.612
      -0.563
      -0.511
      -0.457
      -0.401
      -0.340
      -0.278
      -0.218
      -0.163
      -0.111
      -0.055
       0.008
       0.076
       0.143
       0.206
       0.260
       0.306
       0.343
       0.369
       0.383
       0.386
       0.380
       0.369
       0.362
       0.363
       0.378
       0.402
       0.430
       0.454
       0.469
       0.473
       0.469
       0.461
       0.454
       0.451
       0.448
       0.443
       0.430
       0.410
       0.389
       0.373
       0.365
       0.364
       0.365
       0.361
       0.352
       0.339
       0.325
       0.313
       0.303
       0.296
       0.295
       0.299
       0.306
       0.310
       0.311
       0.308
       0.301
       0.287
       0.266
       0.238
       0.209
       0.182
       0.158
       0.133
       0.106
       0.076
       0.040
      -0.001
      -0.051
      -0.109
      -0.173
      -0.238
      -0.303
      -0.364
      -0.422
      -0.474
      -0.518
      -0.553
      -0.580
      -0.601
      -0.618
      -0.629
      -0.633
      -0.633
      -0.630
      -0.625
      -0.613
      -0.595
      -0.572
      -0.546
      -0.518
      -0.485
      -0.447
      -0.406
      -0.362
      -0.319
      -0.275
      -0.233
      -0.194
      -0.160
      -0.128
      -0.095
      -0.059
      -0.021
       0.019
       0.054
       0.084
       0.107
       0.122
       0.130
       0.135
       0.138
       0.138
       0.137
       0.136
       0.138
       0.141
       0.143
       0.145
       0.150
       0.160
       0.172
       0.183
       0.193
       0.201
       0.207
       0.210
       0.207
       0.197
       0.183
       0.170
       0.164
       0.167
       0.174
       0.177
       0.167
       0.142
       0.110
       0.078
       0.050
       0.022
      -0.006
      -0.031
      -0.046
      -0.052
      -0.054
      -0.063
      -0.082
      -0.109
      -0.139
      -0.164
      -0.184
      -0.198
      -0.211
      -0.225
      -0.245
      -0.269
      -0.294
      -0.313
      -0.326
      -0.334
      -0.343
      -0.359
      -0.379
      -0.400
      -0.415
      -0.419
      -0.410
      -0.391
      -0.365
      -0.337
      -0.310
      -0.283
      -0.255
      -0.222
      -0.184
      -0.141
      -0.094
      -0.043
       0.012
       0.066
       0.113
       0.149
       0.177
       0.200
       0.216
       0.224
       0.219
       0.203
       0.180
       0.154
       0.128
       0.103
       0.080
       0.059
       0.040
       0.030
       0.036
       0.060
       0.099
       0.148
       0.203
       0.262
       0.326
       0.389
       0.446
       0.492
       0.523
       0.542
       0.556
       0.573
       0.593
       0.611
       0.624
       0.627
       0.621
       0.609
       0.595
       0.580
       0.564
       0.547
       0.527
       0.501
       0.472
       0.440
       0.410
       0.386
       0.370
       0.358
       0.345
       0.325
       0.297
       0.263
       0.228
       0.195
       0.160
       0.120
       0.073
       0.022
      -0.030
      -0.078
      -0.121
      -0.156
      -0.187
      -0.213
      -0.231
      -0.237
      -0.231
      -0.213
      -0.188
      -0.159
      -0.131
      -0.108
      -0.091
      -0.075
      -0.059
      -0.042
      -0.027
      -0.016
      -0.010
      -0.007
      -0.009
      -0.014
      -0.022
      -0.031
      -0.036
      -0.035
      -0.031
      -0.025
      -0.019
      -0.014
      -0.006
       0.003
       0.014
       0.027
       0.045
       0.067
       0.093
       0.121
       0.149
       0.177
       0.203
       0.226
       0.240
       0.241
       0.228
       0.202
       0.162
       0.110
       0.048
      -0.019
      -0.084
      -0.147
      -0.209
      -0.267
      -0.318
      -0.357
      -0.381
      -0.394
      -0.401
      -0.405
      -0.406
      -0.401
      -0.391
      -0.378
      -0.363
      -0.347
      -0.325
      -0.298
      -0.267
      -0.236
      -0.204
      -0.173
      -0.141
      -0.111
      -0.087
      -0.066
      -0.044
      -0.016
       0.017
       0.047
       0.069
       0.083
       0.086
       0.082
       0.074
       0.066
       0.058
       0.051
       0.046
       0.046
       0.051
       0.059
       0.067
       0.074
       0.081
       0.093
       0.109
       0.129
       0.150
       0.169
       0.188
       0.213
       0.244
       0.282
       0.325
       0.373
       0.421
       0.464
       0.499
       0.520
       0.526
       0.516
       0.492
       0.458
       0.414
       0.366
       0.319
       0.277
       0.244
       0.216
       0.186
       0.149
       0.103
       0.049
      -0.007
      -0.061
      -0.107
      -0.147
      -0.187
      -0.231
      -0.278
      -0.326
      -0.367
      -0.398
      -0.421
      -0.439
      -0.453
      -0.462
      -0.463
      -0.453
      -0.426
      -0.387
      -0.346
      -0.311
      -0.283
      -0.257
      -0.227
      -0.191
      -0.152
      -0.117
      -0.089
      -0.069
      -0.054
      -0.038
      -0.019
       0.004
       0.032
       0.059
       0.084
       0.104
       0.120
       0.134
       0.152
       0.176
       0.202
       0.228
       0.247
       0.259
       0.264
       0.265
       0.263
       0.258
       0.248
       0.234
       0.219
       0.207
       0.203
       0.209
       0.221
       0.233
       0.240
       0.239
       0.232
       0.223
       0.214
       0.206
       0.198
       0.191
       0.183
       0.174
       0.160
       0.139
       0.110
       0.073
       0.028
      -0.024
      -0.079
