Origin Time       21/9/2009 9:43:47	 
Lat.              30.9 N	
Long.             79.1 E	
Depth (Km)         13.0
Magnitude         4.7
 Region           UTTARKASHI-UTTARAKHAND                                           
 Above details taken from IMD 
     
Station Code      DHA
Station Lat.       30.427  N
Station Long.      78.244  E
Station Height(m) 2280.0
Site Class        B   Vs30 between 375 m/sec to 700 m/sec *  
Record Time       21.09.2009 09:44:06.789
Sampling Rate     200. Hz
 Record Duration   67.020 Sec.
 Direction         E-W (E positive)
Max. Acceleration      6.290 cm/sec**2
     
  * For reference see Site Classification link of website 
     
 Base Line Corrected and Low Pass Filtered (Cut Off at 35 Hz) Time History
 Acceleration data in cm/sec**2
    
[...]
       1.026
       0.882
       0.652
       0.390
       0.148
      -0.049
      -0.201
      -0.326
      -0.438
      -0.532
      -0.585
      -0.574
      -0.498
      -0.380
      -0.256
      -0.150
      -0.063
       0.016
       0.094
       0.168
       0.218
       0.222
       0.162
       0.027
      -0.172
      -0.401
      -0.612
      -0.759
      -0.817
      -0.787
      -0.689
      -0.545
      -0.374
      -0.191
      -0.008
       0.161
       0.299
       0.387
       0.408
       0.355
       0.239
       0.091
      -0.053
      -0.160
      -0.217
      -0.230
      -0.214
      -0.183
      -0.142
      -0.093
      -0.033
       0.039
       0.125
       0.225
       0.331
       0.428
       0.497
       0.530
       0.537
       0.539
       0.554
       0.584
       0.609
       0.594
       0.515
       0.370
       0.184
       0.001
      -0.144
      -0.230
      -0.264
      -0.263
      -0.248
      -0.237
      -0.240
      -0.264
      -0.310
      -0.373
      -0.444
      -0.512
      -0.571
      -0.607
      -0.606
      -0.554
      -0.446
      -0.297
      -0.134
       0.016
       0.141
       0.248
       0.345
       0.434
       0.498
       0.517
       0.482
       0.406
       0.307
       0.205
       0.105
       0.006
      -0.090
      -0.173
      -0.225
      -0.233
      -0.195
      -0.122
      -0.031
       0.067
       0.161
       0.239
       0.292
       0.314
       0.307
       0.283
       0.253
       0.226
       0.197
       0.152
       0.077
      -0.028
      -0.142
      -0.236
      -0.289
      -0.308
      -0.316
      -0.331
      -0.354
      -0.364
      -0.348
      -0.309
      -0.272
      -0.257
      -0.270
      -0.295
      -0.312
      -0.305
      -0.274
      -0.228
      -0.173
      -0.111
      -0.039
       0.041
       0.121
       0.190
       0.239
       0.260
       0.245
       0.187
       0.088
      -0.033
      -0.148
      -0.230
      -0.267
      -0.265
      -0.238
      -0.198
      -0.140
      -0.055
       0.062
       0.205
       0.349
       0.470
       0.546
       0.572
       0.550
       0.486
       0.387
       0.268
       0.151
       0.060
       0.008
      -0.012
      -0.018
      -0.027
      -0.042
      -0.054
      -0.048
      -0.019
       0.016
       0.032
       0.001
      -0.083
      -0.197
      -0.302
      -0.358
      -0.344
      -0.265
      -0.148
      -0.024
       0.082
       0.162
       0.213
       0.238
       0.239
       0.221
       0.186
       0.143
       0.099
       0.061
       0.034
       0.023
       0.027
       0.044
       0.070
       0.091
       0.093
       0.069
       0.025
      -0.019
      -0.051
      -0.075
      -0.110
      -0.173
      -0.260
      -0.349
      -0.418
      -0.458
      -0.472
      -0.459
      -0.415
      -0.336
      -0.232
      -0.122
      -0.018
       0.089
       0.218
       0.376
       0.540
       0.666
       0.711
       0.669
       0.569
       0.451
       0.339
       0.230
       0.111
      -0.016
      -0.133
      -0.219
      -0.267
      -0.289
      -0.302
      -0.310
      -0.307
      -0.289
      -0.260
      -0.234
      -0.227
      -0.235
      -0.241
      -0.222
      -0.168
      -0.087
       0.001
       0.080
       0.147
       0.211
       0.285
       0.374
       0.461
       0.520
       0.518
       0.439
       0.291
       0.104
      -0.083
      -0.241
      -0.361
      -0.455
      -0.542
      -0.634
      -0.723
      -0.780
      -0.777
      -0.694
      -0.539
      -0.346
      -0.158
      -0.002
       0.116
       0.211
       0.297
       0.373
       0.429
       0.446
       0.410
       0.320
       0.195
       0.074
       0.005
       0.017
       0.104
       0.227
       0.334
       0.395
       0.416
       0.429
       0.460
       0.506
       0.539
       0.528
       0.453
       0.321
       0.152
      -0.021
      -0.174
      -0.297
      -0.402
      -0.504
      -0.602
      -0.672
      -0.683
      -0.624
      -0.525
      -0.433
      -0.377
      -0.350
      -0.321
      -0.261
      -0.176
      -0.092
      -0.039
      -0.024
      -0.028
      -0.027
      -0.008
       0.023
       0.049
       0.055
       0.039
       0.017
       0.013
       0.041
       0.100
       0.174
       0.242
       0.284
       0.294
       0.275
       0.238
       0.193
       0.145
       0.095
       0.032
      -0.057
      -0.180
      -0.327
      -0.465
      -0.550
      -0.551
      -0.459
      -0.289
      -0.070
       0.168
       0.397
       0.588
       0.722
       0.786
       0.783
       0.727
       0.644
       0.560
       0.497
       0.458
       0.427
       0.374
       0.272
       0.120
      -0.059
      -0.225
      -0.342
      -0.399
      -0.412
      -0.409
      -0.406
      -0.401
      -0.380
      -0.338
      -0.276
      -0.202
      -0.125
      -0.059
      -0.015
       0.004
       0.007
       0.018
       0.048
       0.094
       0.132
       0.137
       0.101
       0.039
      -0.022
      -0.062
      -0.086
      -0.114
      -0.168
      -0.254
      -0.358
      -0.454
      -0.516
      -0.528
      -0.485
      -0.395
      -0.272
      -0.137
      -0.014
       0.074
       0.122
       0.143
       0.161
       0.189
       0.220
       0.235
       0.223
       0.193
       0.166
       0.159
       0.168
       0.169
       0.134
       0.051
      -0.067
      -0.182
      -0.253
      -0.254
      -0.191
      -0.090
       0.020
       0.122
       0.217
       0.309
       0.398
       0.477
       0.536
       0.562
       0.537
       0.446
       0.279
       0.049
      -0.216
      -0.472
      -0.682
      -0.823
      -0.890
      -0.891
      -0.832
      -0.716
      -0.546
      -0.331
      -0.094
       0.129
       0.301
       0.394
       0.403
       0.351
       0.276
       0.221
       0.212
       0.251
       0.317
       0.378
       0.409
       0.406
       0.392
       0.393
       0.422
       0.462
       0.473
       0.420
       0.292
       0.114
      -0.068
      -0.211
      -0.305
      -0.372
      -0.448
      -0.557
      -0.689
      -0.802
      -0.847
      -0.792
      -0.642
      -0.437
      -0.221
      -0.021
       0.168
       0.356
       0.539
       0.685
       0.752
       0.716
       0.584
       0.390
       0.176
      -0.021
      -0.179
      -0.296
      -0.381
      -0.450
      -0.513
      -0.568
      -0.591
      -0.560
      -0.464
      -0.317
      -0.145
       0.023
       0.177
       0.317
       0.441
       0.539
       0.592
       0.592
       0.545
       0.469
       0.380
       0.290
       0.206
       0.135
       0.083
       0.050
       0.025
      -0.008
      -0.065
      -0.150
      -0.254
      -0.360
      -0.445
      -0.498
      -0.528
      -0.556
      -0.599
      -0.656
      -0.702
      -0.707
      -0.648
      -0.518
      -0.331
      -0.107
       0.122
       0.327
       0.484
       0.584
       0.628
       0.629
       0.594
       0.529
       0.445
       0.358
       0.291
       0.253
       0.238
       0.226
       0.204
       0.173
       0.151
       0.156
       0.191
       0.235
       0.251
       0.204
       0.091
      -0.057
      -0.190
      -0.271
      -0.299
      -0.303
      -0.313
      -0.336
      -0.353
      -0.332
      -0.252
      -0.116
       0.049
       0.204
       0.316
       0.370
       0.376
       0.356
       0.325
       0.285
       0.230
       0.152
       0.052
      -0.063
      -0.184
      -0.301
      -0.405
      -0.491
      -0.557
      -0.597
      -0.599
      -0.545
      -0.428
      -0.265
      -0.095
       0.038
       0.110
       0.127
       0.109
       0.065
      -0.007
      -0.113
      -0.243
      -0.370
      -0.464
      -0.510
      -0.513
      -0.493
      -0.468
      -0.442
      -0.394
      -0.289
      -0.102
       0.164
       0.463
       0.732
       0.912
       0.981
       0.950
       0.845
       0.691
       0.497
       0.274
       0.041
      -0.166
      -0.309
      -0.362
      -0.321
      -0.208
      -0.058
       0.098
       0.238
       0.356
       0.451
       0.520
       0.549
       0.520
       0.422
       0.263
       0.070
      -0.115
      -0.257
      -0.345
      -0.387
      -0.400
      -0.392
      -0.355
      -0.281
      -0.173
      -0.055
       0.042
       0.104
       0.140
       0.171
       0.211
       0.251
       0.267
       0.238
       0.161
       0.056
      -0.052
      -0.142
      -0.210
      -0.257
      -0.283
      -0.276
      -0.226
      -0.140
      -0.047
       0.015
       0.021
      -0.021
      -0.084
      -0.138
      -0.167
      -0.173
      -0.158
      -0.118
      -0.053
       0.025
       0.089
       0.118
       0.103
       0.065
       0.034
       0.037
       0.081
       0.146
       0.196
       0.199
       0.142
       0.035
      -0.099
      -0.235
      -0.359
      -0.464
      -0.541
      -0.581
      -0.568
      -0.484
      -0.322
      -0.098
       0.149
       0.362
       0.492
       0.513
       0.428
       0.266
       0.069
      -0.121
      -0.272
      -0.373
      -0.434
      -0.477
      -0.514
      -0.537
      -0.526
      -0.468
      -0.372
      -0.275
      -0.220
      -0.234
      -0.317
      -0.441
      -0.557
      -0.615
      -0.582
      -0.447
      -0.239
      -0.010
       0.178
       0.287
       0.311
       0.271
       0.188
       0.068
      -0.095
      -0.303
      -0.536
      -0.749
      -0.900
      -0.966
      -0.957
      -0.900
      -0.815
      -0.701
      -0.546
      -0.343
      -0.116
       0.093
       0.242
       0.322
       0.359
       0.398
       0.474
       0.601
       0.775
       0.988
       1.228
       1.476
       1.699
       1.851
       1.902
       1.846
       1.702
       1.500
       1.261
       0.991
       0.700
       0.414
       0.174
       0.017
      -0.042
      -0.008
       0.101
       0.267
       0.467
       0.668
       0.833
       0.939
       0.976
       0.945
       0.843
       0.669
       0.431
       0.152
      -0.135
      -0.401
      -0.631
      -0.819
      -0.959
      -1.049
      -1.082
      -1.063
      -1.001
      -0.906
      -0.785
      -0.645
      -0.496
      -0.358
      -0.251
      -0.185
      -0.156
      -0.148
      -0.133
      -0.091
      -0.013
       0.088
       0.187
       0.258
       0.288
       0.286
       0.280
       0.299
       0.368
       0.490
       0.651
       0.819
       0.952
       1.016
       1.000
       0.913
       0.786
       0.653
       0.543
       0.469
       0.430
       0.423
       0.452
       0.524
       0.641
       0.784
       0.916
       1.000
       1.025
       1.005
       0.968
       0.934
       0.899
       0.841
       0.728
       0.535
       0.266
      -0.046
      -0.349
      -0.601
      -0.792
      -0.951
      -1.134
      -1.386
      -1.718
      -2.094
      -2.461
      -2.776
      -3.032
      -3.246
      -3.436
      -3.598
      -3.699
      -3.694
      -3.556
      -3.295
      -2.955
      -2.583
      -2.200
      -1.794
      -1.340
      -0.833
      -0.296
       0.228
       0.697
       1.093
       1.419
       1.696
       1.939
       2.146
       2.294
       2.360
       2.331
       2.211
       2.003
       1.704
       1.307
       0.818
       0.266
      -0.293
      -0.795
      -1.190
      -1.456
      -1.596
      -1.620
      -1.532
      -1.325
      -0.996
      -0.563
      -0.072
       0.416
       0.845
       1.186
       1.441
       1.630
       1.764
       1.828
       1.788
       1.618
       1.330
       0.967
       0.590
       0.242
      -0.063
      -0.327
      -0.555
      -0.730
      -0.826
      -0.820
      -0.717
      -0.553
      -0.386
      -0.260
      -0.184
      -0.129
      -0.056
       0.055
       0.195
       0.332
       0.437
       0.494
       0.500
       0.456
       0.358
       0.195
      -0.052
      -0.390
      -0.803
      -1.246
      -1.661
      -2.003
      -2.249
      -2.398
      -2.448
      -2.385
      -2.182
      -1.826
      -1.332
      -0.747
      -0.120
       0.516
       1.154
       1.785
       2.381
       2.889
       3.264
       3.490
       3.587
       3.586
       3.497
       3.298
       2.955
       2.456
       1.837
       1.173
       0.551
       0.042
      -0.325
      -0.562
      -0.703
      -0.788
      -0.842
      -0.883
      -0.930
      -1.005
      -1.117
      -1.244
      -1.336
      -1.342
      -1.245
      -1.063
      -0.825
      -0.532
      -0.156
       0.344
       0.977
       1.702
       2.442
       3.121
       3.686
       4.102
       4.338
       4.353
       4.108
       3.588
       2.813
       1.836
       0.736
      -0.399
      -1.478
      -2.426
      -3.205
      -3.824
      -4.326
      -4.761
      -5.155
      -5.499
      -5.754
      -5.862
      -5.769
      -5.455
      -4.950
      -4.326
      -3.670
      -3.037
      -2.437
      -1.854
      -1.284
      -0.750
      -0.284
       0.106
       0.451
       0.800
       1.194
       1.644
       2.139
       2.657
       3.185
       3.715
       4.245
       4.764
       5.257
       5.698
       6.049
       6.264
       6.290
       6.087
       5.653
       5.031
       4.299
       3.541
       2.817
       2.152
       1.549
       1.015
       0.572
       0.248
       0.045
      -0.084
      -0.229
      -0.488
      -0.921
      -1.525
      -2.240
      -2.983
      -3.676
      -4.263
      -4.705
      -4.974
      -5.054
      -4.948
      -4.678
      -4.294
      -3.856
      -3.418
      -3.016
      -2.657
      -2.340
      -2.070
      -1.870
      -1.767
      -1.767
      -1.839
      -1.919
      -1.941
      -1.863
      -1.685
      -1.443
      -1.182
      -0.938
      -0.725
      -0.538
      -0.363
      -0.188
      -0.011
       0.162
       0.332
       0.512
       0.721
       0.968
       1.231
       1.463
       1.615
       1.667
       1.631
       1.539
       1.422
       1.296
       1.166
       1.031
       0.894
       0.763
       0.644
       0.531
       0.415
       0.303
       0.227
       0.246
       0.427
       0.811
       1.389
       2.107
       2.886
       3.656
       4.364
       4.964
       5.404
       5.636
       5.625
       5.365
       4.877
       4.198
       3.369
       2.437
       1.446
       0.444
      -0.518
      -1.389
      -2.125
      -2.702
      -3.125
      -3.434
      -3.702
      -4.005
      -4.385
      -4.828
      -5.260
      -5.585
      -5.719
      -5.617
      -5.282
      -4.754
      -4.106
      -3.420
      -2.763
      -2.168
      -1.626
      -1.105
      -0.575
      -0.025
       0.533
       1.078
       1.594
       2.075
       2.512
       2.879
       3.135
       3.239
       3.177
       2.969
       2.649
       2.243
       1.755
       1.193
       0.591
       0.032
      -0.377
      -0.541
      -0.415
      -0.022
       0.567
       1.262
       1.978
       2.648
       3.217
       3.637
       3.859
       3.841
       3.567
       3.064
       2.398
       1.650
       0.877
       0.088
      -0.740
      -1.622
      -2.530
      -3.383
      -4.090
      -4.594
      -4.907
      -5.096
      -5.237
      -5.367
      -5.461
      -5.444
      -5.231
      -4.774
      -4.085
      -3.230
      -2.296
      -1.355
      -0.456
       0.375
       1.112
       1.729
       2.199
       2.503
       2.640
       2.633
       2.526
       2.382
       2.249
       2.143
       2.040
       1.896
       1.689
       1.432
       1.174
       0.973
       0.884
       0.937
       1.132
       1.439
       1.800
       2.139
       2.381
       2.476
       2.414
       2.228
       1.972
       1.694
       1.416
       1.131
       0.817
       0.453
       0.038
      -0.412
      -0.877
      -1.344
      -1.803
      -2.229
      -2.566
      -2.731
      -2.647
      -2.275
      -1.635
      -0.806
       0.100
       0.975
       1.753
       2.423
       3.002
       3.493
       3.863
       4.048
       3.992
       3.682
       3.152
       2.470
       1.705
       0.905
       0.080
      -0.786
      -1.709
      -2.680
      -3.644
      -4.507
      -5.166
      -5.551
      -5.646
      -5.486
      -5.127
      -4.615
      -3.976
      -3.224
      -2.380
      -1.492
      -0.635
       0.097
       0.633
       0.957
       1.115
       1.190
       1.262
       1.369
       1.512
       1.677
       1.869
       2.110
       2.410
       2.723
       2.942
       2.934
       2.607
       1.966
       1.116
       0.210
      -0.615
      -1.280
      -1.767
      -2.096
      -2.300
      -2.411
      -2.460
      -2.462
      -2.416
      -2.294
      -2.056
      -1.665
      -1.123
      -0.478
       0.191
       0.817
       1.372
       1.861
       2.286
       2.618
       2.803
       2.794
       2.587
       2.233
       1.810
       1.385
       0.984
       0.594
       0.188
      -0.244
      -0.681
      -1.079
      -1.381
      -1.540
      -1.530
      -1.369
      -1.112
      -0.833
      -0.588
      -0.407
      -0.303
      -0.289
      -0.374
      -0.551
      -0.787
      -1.037
      -1.269
      -1.472
      -1.646
      -1.782
      -1.853
      -1.829
      -1.694
      -1.464
      -1.185
      -0.913
      -0.685
      -0.508
      -0.360
      -0.217
      -0.066
       0.084
       0.223
       0.356
       0.515
       0.745
       1.070
       1.471
       1.892
       2.273
       2.583
       2.832
       3.052
       3.266
       3.476
       3.660
       3.786
       3.826
       3.760
       3.571
       3.244
       2.760
       2.113
       1.313
       0.390
      -0.608
      -1.619
      -2.578
      -3.420
      -4.097
      -4.586
      -4.885
      -5.003
      -4.948
      -4.720
      -4.315
      -3.731
      -2.985
      -2.123
      -1.215
      -0.344
       0.420
       1.032
       1.464
       1.709
       1.773
       1.691
       1.529
       1.370
       1.276
       1.257
       1.264
       1.219
       1.068
       0.800
       0.456
       0.100
      -0.200
      -0.392
      -0.435
      -0.298
       0.030
       0.522
       1.109
       1.688
       2.163
       2.472
       2.613
       2.622
       2.546
       2.411
       2.211
       1.925
       1.529
       1.010
       0.374
      -0.345
      -1.081
      -1.757
      -2.308
      -2.710
      -2.975
      -3.124
      -3.160
      -3.063
      -2.816
      -2.445
      -2.022
      -1.634
      -1.334
      -1.108
      -0.886
      -0.594
      -0.202
       0.261
       0.715
       1.071
       1.262
       1.260
       1.084
       0.792
       0.466
       0.186
       0.006
      -0.069
      -0.080
      -0.090
      -0.143
      -0.233
      -0.321
      -0.364
      -0.346
      -0.274
      -0.166
      -0.048
       0.047
       0.087
       0.059
      -0.016
      -0.105
      -0.185
