Origin Time       27/11/2012 12:15:15
Lat.              30.9 N	
Long.             78.4 E	
Depth (Km)         12.0
Magnitude         4.8
 Region           Uttarkashi-Uttarakhand                                           
 Above details taken from IMD 
   
Station Code      DNL
Station Lat.       30.427
Station Long.      78.244
Station Height(m) 2280.0
Site Class        B   Vs30 between 375 m/sec to 700 m/sec *  
Record Time       27.11.2012 12:15:04.529
Sampling Rate     200. Hz
 Record Duration   80.035 Sec.
 Direction         Vert. (Up positive)
Max. Acceleration     -2.724 cm/sec**2
     
  * For reference see Site Classification link of website 
     
 Base Line Corrected and Low Pass Filtered (Cut Off at 35 Hz) Time History
 Acceleration data in cm/sec**2
    
[...]
       0.657
       0.684
       0.774
       0.947
       1.102
       1.117
       0.960
       0.691
       0.387
       0.070
      -0.284
      -0.657
      -0.950
      -1.038
      -0.873
      -0.530
      -0.157
       0.110
       0.198
       0.091
      -0.175
      -0.519
      -0.815
      -0.931
      -0.791
      -0.410
       0.111
       0.636
       1.040
       1.257
       1.290
       1.189
       0.996
       0.703
       0.281
      -0.248
      -0.764
      -1.096
      -1.128
      -0.890
      -0.540
      -0.256
      -0.133
      -0.141
      -0.185
      -0.208
      -0.224
      -0.275
      -0.339
      -0.309
      -0.068
       0.385
       0.897
       1.244
       1.290
       1.059
       0.699
       0.353
       0.084
      -0.114
      -0.262
      -0.361
      -0.405
      -0.413
      -0.441
      -0.534
      -0.669
      -0.733
      -0.598
      -0.236
       0.212
       0.508
       0.477
       0.140
      -0.289
      -0.544
      -0.485
      -0.164
       0.240
       0.567
       0.767
       0.880
       0.962
       1.010
       0.956
       0.717
       0.257
      -0.369
      -1.021
      -1.521
      -1.724
      -1.587
      -1.186
      -0.666
      -0.160
       0.254
       0.551
       0.726
       0.790
       0.780
       0.763
       0.799
       0.899
       0.999
       0.980
       0.732
       0.228
      -0.442
      -1.101
      -1.575
      -1.767
      -1.691
      -1.421
      -1.029
      -0.551
      -0.008
       0.558
       1.070
       1.441
       1.607
       1.555
       1.324
       0.988
       0.616
       0.245
      -0.111
      -0.432
      -0.663
      -0.746
      -0.680
      -0.548
      -0.474
      -0.527
      -0.664
      -0.761
      -0.698
      -0.439
      -0.038
       0.390
       0.735
       0.927
       0.958
       0.872
       0.737
       0.590
       0.419
       0.173
      -0.179
      -0.603
      -1.009
      -1.298
      -1.410
      -1.348
      -1.159
      -0.894
      -0.587
      -0.250
       0.097
       0.411
       0.648
       0.796
       0.897
       1.016
       1.167
       1.275
       1.206
       0.881
       0.379
      -0.072
      -0.233
      -0.028
       0.392
       0.759
       0.873
       0.713
       0.381
      -0.039
      -0.552
      -1.178
      -1.826
      -2.269
      -2.287
      -1.841
      -1.123
      -0.421
       0.078
       0.376
       0.581
       0.776
       0.952
       1.064
       1.098
       1.070
       0.968
       0.746
       0.393
       0.005
      -0.241
      -0.217
       0.049
       0.376
       0.543
       0.420
       0.013
      -0.563
      -1.141
      -1.552
      -1.656
      -1.390
      -0.810
      -0.085
       0.573
       1.018
       1.231
       1.278
       1.218
       1.046
       0.724
       0.264
      -0.241
      -0.652
      -0.877
      -0.915
      -0.839
      -0.728
      -0.619
      -0.495
      -0.332
      -0.133
       0.071
       0.269
       0.473
       0.675
       0.787
       0.677
       0.293
      -0.238
      -0.651
      -0.722
      -0.421
       0.076
       0.525
       0.766
       0.769
       0.588
       0.292
      -0.056
      -0.379
      -0.584
      -0.602
      -0.439
      -0.193
       0.007
       0.085
       0.060
       0.011
       0.011
       0.077
       0.170
       0.221
       0.163
      -0.046
      -0.396
      -0.790
      -1.062
      -1.046
      -0.691
      -0.106
       0.481
       0.854
       0.921
       0.747
       0.482
       0.247
       0.071
      -0.075
      -0.222
      -0.359
      -0.447
      -0.459
      -0.395
      -0.280
      -0.148
      -0.021
       0.100
       0.241
       0.434
       0.695
       0.999
       1.270
       1.411
       1.350
       1.073
       0.630
       0.110
      -0.402
      -0.846
      -1.184
      -1.376
      -1.375
      -1.156
      -0.765
      -0.318
       0.057
       0.285
       0.356
       0.305
       0.173
       0.006
      -0.133
      -0.181
      -0.121
      -0.018
       0.017
      -0.083
      -0.261
      -0.353
      -0.213
       0.168
       0.631
       0.950
       0.991
       0.797
       0.527
       0.309
       0.127
      -0.139
      -0.563
      -1.050
      -1.382
      -1.383
      -1.058
      -0.597
      -0.226
      -0.051
      -0.013
       0.024
       0.147
       0.342
       0.530
       0.628
       0.574
       0.337
      -0.063
      -0.539
      -0.943
      -1.138
      -1.060
      -0.749
      -0.313
       0.137
       0.518
       0.777
       0.875
       0.784
       0.516
       0.148
      -0.186
      -0.356
      -0.302
      -0.060
       0.285
       0.654
       1.003
       1.279
       1.399
       1.278
       0.918
       0.429
      -0.023
      -0.322
      -0.445
      -0.426
      -0.306
      -0.109
       0.130
       0.336
       0.405
       0.242
      -0.177
      -0.761
      -1.321
      -1.642
      -1.590
      -1.170
      -0.496
       0.285
       1.053
       1.699
       2.093
       2.111
       1.714
       1.004
       0.188
      -0.534
      -1.051
      -1.338
      -1.412
      -1.296
      -1.044
      -0.752
      -0.523
      -0.388
      -0.280
      -0.098
       0.187
       0.495
       0.687
       0.666
       0.430
       0.066
      -0.300
      -0.559
      -0.650
      -0.578
      -0.403
      -0.202
      -0.024
       0.126
       0.259
       0.368
       0.409
       0.322
       0.076
      -0.292
      -0.666
      -0.885
      -0.828
      -0.505
      -0.076
       0.243
       0.321
       0.196
       0.030
      -0.026
       0.070
       0.256
       0.442
       0.597
       0.733
       0.844
       0.856
       0.675
       0.287
      -0.184
      -0.544
      -0.657
      -0.558
      -0.413
      -0.378
      -0.462
      -0.535
      -0.470
      -0.273
      -0.078
      -0.007
      -0.047
      -0.065
       0.056
       0.306
       0.567
       0.735
       0.807
       0.853
       0.915
       0.959
       0.912
       0.745
       0.507
       0.281
       0.109
      -0.042
      -0.235
      -0.488
      -0.750
      -0.951
      -1.061
      -1.108
      -1.127
      -1.091
      -0.910
      -0.515
       0.039
       0.559
       0.845
       0.839
       0.669
       0.532
       0.541
       0.662
       0.779
       0.812
       0.771
       0.719
       0.690
       0.647
       0.521
       0.275
      -0.052
      -0.355
      -0.531
      -0.538
      -0.430
      -0.329
      -0.346
      -0.513
      -0.759
      -0.958
      -1.012
      -0.906
      -0.691
      -0.430
      -0.162
       0.098
       0.328
       0.491
       0.553
       0.507
       0.382
       0.221
       0.061
      -0.060
      -0.098
      -0.034
       0.083
       0.132
       0.000
      -0.316
      -0.686
      -0.939
      -0.996
      -0.906
      -0.763
      -0.590
      -0.310
       0.151
       0.745
       1.288
       1.572
       1.533
       1.304
       1.102
       1.036
       1.006
       0.784
       0.218
      -0.618
      -1.436
      -1.908
      -1.869
      -1.399
      -0.746
      -0.150
       0.275
       0.536
       0.673
       0.680
       0.505
       0.130
      -0.359
      -0.773
      -0.933
      -0.793
      -0.464
      -0.114
       0.165
       0.393
       0.634
       0.890
       1.078
       1.097
       0.926
       0.668
       0.470
       0.394
       0.354
       0.192
      -0.173
      -0.639
      -0.969
      -0.966
      -0.619
      -0.120
       0.271
       0.387
       0.225
      -0.104
      -0.474
      -0.816
      -1.105
      -1.320
      -1.405
      -1.303
      -1.003
      -0.575
      -0.143
       0.179
       0.319
       0.252
      -0.012
      -0.405
      -0.782
      -0.954
      -0.797
      -0.347
       0.201
       0.624
       0.815
       0.841
       0.867
       1.031
       1.345
       1.695
       1.925
       1.938
       1.752
       1.483
       1.258
       1.126
       1.034
       0.881
       0.598
       0.195
      -0.267
      -0.711
      -1.081
      -1.332
      -1.427
      -1.334
      -1.050
      -0.618
      -0.148
       0.227
       0.411
       0.397
       0.262
       0.112
       0.015
      -0.019
      -0.013
       0.024
       0.089
       0.156
       0.162
       0.064
      -0.095
      -0.193
      -0.134
       0.059
       0.257
       0.346
       0.331
       0.292
       0.254
       0.140
      -0.149
      -0.601
      -1.084
      -1.444
      -1.613
      -1.607
      -1.448
      -1.120
      -0.598
       0.066
       0.715
       1.152
       1.244
       0.995
       0.525
       0.007
      -0.418
      -0.685
      -0.815
      -0.882
      -0.951
      -1.021
      -1.017
      -0.833
      -0.422
       0.131
       0.634
       0.900
       0.896
       0.753
       0.646
       0.633
       0.622
       0.495
       0.247
      -0.003
      -0.115
      -0.047
       0.134
       0.348
       0.564
       0.772
       0.904
       0.853
       0.571
       0.164
      -0.158
      -0.238
      -0.110
       0.020
      -0.049
      -0.355
      -0.761
      -1.101
      -1.315
      -1.439
      -1.494
      -1.428
      -1.175
      -0.784
      -0.438
      -0.335
      -0.510
      -0.786
      -0.905
      -0.724
      -0.319
       0.099
       0.349
       0.390
       0.289
       0.125
      -0.052
      -0.181
      -0.166
       0.059
       0.428
       0.750
       0.859
       0.775
       0.700
       0.828
       1.153
       1.468
       1.560
       1.414
       1.216
       1.159
       1.255
       1.346
       1.286
       1.075
       0.837
       0.670
       0.540
       0.330
      -0.045
      -0.552
      -1.072
      -1.506
      -1.831
      -2.068
      -2.201
      -2.164
      -1.915
      -1.533
      -1.207
      -1.092
      -1.152
      -1.153
      -0.838
      -0.151
       0.701
       1.400
       1.749
       1.783
       1.674
       1.558
       1.448
       1.285
       1.043
       0.757
       0.478
       0.227
       0.012
      -0.140
      -0.182
      -0.085
       0.131
       0.422
       0.752
       1.090
       1.385
       1.557
       1.529
       1.269
       0.798
       0.177
      -0.524
      -1.236
      -1.879
      -2.343
      -2.505
      -2.287
      -1.726
      -1.006
      -0.381
      -0.033
       0.030
      -0.040
      -0.077
      -0.044
      -0.031
      -0.129
      -0.316
      -0.482
      -0.550
      -0.547
      -0.544
      -0.562
      -0.527
      -0.332
       0.074
       0.641
       1.244
       1.737
       2.004
       1.985
       1.687
       1.171
       0.541
      -0.083
      -0.586
      -0.886
      -0.954
      -0.818
      -0.536
      -0.150
       0.323
       0.839
       1.275
       1.462
       1.284
       0.777
       0.120
      -0.462
      -0.820
      -0.942
      -0.934
      -0.926
      -0.975
      -1.026
      -0.954
      -0.661
      -0.163
       0.408
       0.905
       1.247
       1.427
       1.428
       1.183
       0.640
      -0.115
      -0.833
      -1.227
      -1.172
      -0.788
      -0.346
      -0.062
       0.034
       0.040
       0.032
      -0.029
      -0.241
      -0.628
      -1.052
      -1.273
      -1.105
      -0.572
       0.082
       0.545
       0.646
       0.444
       0.141
      -0.090
      -0.200
      -0.230
      -0.218
      -0.164
      -0.067
       0.049
       0.154
       0.273
       0.485
       0.830
       1.217
       1.458
       1.401
       1.042
       0.501
      -0.105
      -0.742
      -1.419
      -2.072
      -2.530
      -2.608
      -2.249
      -1.579
      -0.809
      -0.102
       0.489
       0.968
       1.319
       1.482
       1.404
       1.103
       0.689
       0.322
       0.130
       0.153
       0.327
       0.541
       0.695
       0.750
       0.754
       0.819
       1.050
       1.444
       1.847
       2.016
       1.757
       1.058
       0.101
      -0.833
      -1.503
      -1.800
      -1.770
      -1.568
      -1.367
      -1.264
      -1.239
      -1.197
      -1.066
      -0.848
      -0.590
      -0.316
      -0.002
       0.371
       0.744
       0.973
       0.917
       0.565
       0.078
      -0.285
      -0.318
       0.003
       0.508
       0.916
       0.990
       0.682
       0.164
      -0.273
      -0.414
      -0.261
      -0.030
       0.009
      -0.282
      -0.818
      -1.346
      -1.598
      -1.446
      -0.966
      -0.376
       0.102
       0.363
       0.445
       0.458
       0.499
       0.622
       0.853
       1.194
       1.604
       1.971
       2.156
       2.081
       1.788
       1.395
       0.990
       0.562
       0.050
      -0.571
      -1.213
      -1.719
      -1.953
      -1.899
      -1.664
      -1.401
      -1.211
      -1.104
      -1.055
      -1.049
      -1.066
      -1.047
      -0.912
      -0.643
      -0.337
      -0.148
      -0.165
      -0.338
      -0.524
      -0.605
      -0.547
      -0.369
      -0.080
       0.342
       0.892
       1.485
       1.978
       2.261
       2.342
       2.335
       2.372
       2.493
       2.614
       2.579
       2.243
       1.556
       0.604
      -0.404
      -1.219
      -1.667
      -1.731
      -1.552
      -1.344
      -1.281
      -1.428
      -1.754
      -2.164
      -2.533
      -2.724
      -2.621
      -2.178
      -1.459
      -0.633
       0.100
       0.615
       0.909
       1.068
       1.180
       1.272
       1.336
       1.375
       1.423
       1.511
       1.609
       1.603
       1.357
       0.836
       0.171
      -0.426
      -0.816
      -1.001
      -1.046
      -0.986
      -0.820
      -0.597
      -0.450
      -0.517
      -0.799
      -1.109
      -1.203
      -0.982
      -0.572
      -0.187
       0.072
       0.288
       0.597
       1.013
       1.361
       1.390
       0.990
       0.330
      -0.237
      -0.445
      -0.329
      -0.182
      -0.312
      -0.782
      -1.368
      -1.724
      -1.626
      -1.089
      -0.312
       0.474
       1.098
       1.450
       1.461
       1.140
       0.626
       0.163
      -0.024
       0.120
       0.443
       0.709
       0.764
       0.625
       0.417
       0.266
       0.232
       0.322
       0.522
       0.789
       1.023
       1.094
       0.915
       0.513
       0.016
      -0.443
      -0.819
      -1.145
      -1.446
      -1.669
      -1.697
      -1.448
      -0.963
      -0.414
      -0.011
       0.124
       0.021
      -0.168
      -0.290
      -0.290
      -0.227
      -0.197
      -0.243
      -0.314
      -0.318
      -0.204
      -0.003
       0.204
       0.340
       0.380
       0.365
       0.379
       0.485
       0.656
       0.769
       0.706
       0.475
       0.242
       0.200
       0.400
       0.692
       0.829
       0.640
       0.139
      -0.500
      -1.053
      -1.363
      -1.388
      -1.178
      -0.834
      -0.463
      -0.154
       0.058
       0.211
       0.382
       0.621
       0.894
       1.104
       1.177
       1.127
       1.041
       0.998
       1.009
       1.025
       1.000
       0.924
       0.802
       0.622
       0.372
       0.081
      -0.191
      -0.413
      -0.617
      -0.850
      -1.088
      -1.228
      -1.198
      -1.058
      -0.962
      -1.008
      -1.118
      -1.106
      -0.846
      -0.399
       0.044
       0.324
       0.455
       0.596
       0.871
       1.210
       1.356
       1.060
       0.301
      -0.658
      -1.422
      -1.714
      -1.514
      -1.006
      -0.391
       0.230
       0.831
       1.356
       1.676
       1.667
       1.327
       0.805
       0.318
       0.013
      -0.109
      -0.152
      -0.210
      -0.312
      -0.438
      -0.579
      -0.753
      -0.959
      -1.155
      -1.288
      -1.337
      -1.309
      -1.182
      -0.891
      -0.390
       0.261
       0.893
       1.323
       1.484
       1.454
       1.366
       1.286
       1.172
       0.934
       0.536
       0.048
      -0.396
      -0.688
      -0.812
      -0.847
      -0.903
      -1.034
      -1.194
      -1.277
      -1.210
      -1.009
      -0.748
      -0.488
      -0.263
      -0.112
      -0.089
      -0.190
      -0.297
      -0.215
       0.173
       0.778
       1.335
       1.599
       1.525
       1.261
       0.995
       0.805
       0.667
       0.559
       0.525
       0.616
       0.783
       0.859
       0.673
       0.197
      -0.409
      -0.897
      -1.090
      -0.979
      -0.701
      -0.417
      -0.187
       0.067
       0.457
       0.986
       1.476
       1.664
       1.406
       0.816
       0.217
      -0.075
       0.043
       0.411
       0.743
       0.817
       0.598
       0.209
      -0.181
      -0.477
      -0.702
      -0.942
      -1.251
      -1.593
      -1.858
      -1.951
      -1.849
      -1.599
      -1.265
      -0.901
      -0.554
      -0.272
      -0.078
       0.071
       0.264
       0.549
       0.849
       0.989
       0.833
       0.411
      -0.105
      -0.527
      -0.769
      -0.851
      -0.825
      -0.718
      -0.531
      -0.266
       0.044
       0.356
       0.634
       0.856
       1.006
       1.065
       1.009
       0.821
       0.498
       0.065
      -0.412
      -0.828
      -1.082
      -1.130
      -1.011
      -0.806
      -0.562
      -0.280
       0.043
       0.342
       0.500
       0.438
       0.197
      -0.079
      -0.235
      -0.207
      -0.031
       0.212
       0.463
       0.692
       0.863
       0.914
       0.794
       0.520
       0.194
      -0.034
      -0.055
       0.133
       0.423
       0.662
       0.736
       0.608
       0.306
      -0.109
      -0.556
      -0.935
      -1.143
      -1.113
      -0.872
      -0.544
      -0.278
      -0.148
      -0.129
      -0.154
      -0.188
      -0.239
      -0.303
      -0.327
      -0.222
       0.052
       0.415
       0.694
       0.748
       0.573
       0.298
       0.070
      -0.033
      -0.017
       0.080
       0.233
       0.425
       0.624
       0.763
       0.778
       0.656
       0.445
       0.208
      -0.017
      -0.221
      -0.391
      -0.500
      -0.539
      -0.551
      -0.609
      -0.745
      -0.876
      -0.846
      -0.556
      -0.073
       0.402
       0.701
       0.827
       0.928
       1.124
       1.365
       1.452
       1.223
       0.715
       0.151
      -0.241
      -0.403
      -0.465
      -0.595
      -0.828
      -1.036
      -1.051
      -0.851
      -0.594
      -0.484
      -0.569
      -0.690
      -0.624
      -0.293
       0.160
       0.492
       0.571
       0.472
       0.386
       0.444
       0.620
       0.796
       0.879
       0.861
       0.780
       0.640
       0.403
       0.054
      -0.326
      -0.577
      -0.589
      -0.401
      -0.170
      -0.018
       0.083
       0.251
       0.525
       0.774
       0.784
       0.455
      -0.099
      -0.645
      -1.011
      -1.179
      -1.231
      -1.231
      -1.182
      -1.068
      -0.907
      -0.757
      -0.664
      -0.623
