Origin Time       23/06/2011 22:13:46
Lat.              30.0 N 
Long.             80.5 E	
Depth (Km)          5.0
Magnitude         3.2
 Region           Uttarakhand-Nepar-Border                                         
 Above details taken from IMD 
     
Station Code      DRC
Station Lat.       29.847  N
Station Long.      80.546  E
Station Height(m)  909.0
Site Class        A   Vs30 between 700 m/sec to 1400 m/sec * 
Record Time       23.06.2011 22:13:33.929
Sampling Rate     200. Hz
 Record Duration   68.060 Sec.
 Direction         E-W (E positive)
Max. Acceleration     10.802 cm/sec**2
     
  * For reference see Site Classification link of website 
     
 Base Line Corrected and Low Pass Filtered (Cut Off at 35 Hz) Time History
 Acceleration data in cm/sec**2
    
[...]
       0.005
       0.011
       0.010
       0.000
      -0.008
      -0.005
       0.001
       0.002
       0.004
       0.010
       0.011
       0.003
      -0.004
      -0.003
      -0.002
      -0.010
      -0.018
      -0.016
      -0.012
      -0.013
      -0.015
      -0.009
      -0.002
      -0.001
      -0.001
       0.005
       0.008
       0.003
      -0.001
       0.003
       0.007
       0.002
      -0.005
       0.001
       0.013
       0.013
       0.000
      -0.016
      -0.029
      -0.038
      -0.031
      -0.009
       0.014
       0.018
       0.010
       0.004
       0.002
      -0.002
      -0.006
      -0.001
       0.004
       0.001
      -0.006
      -0.008
      -0.007
      -0.011
      -0.015
      -0.012
      -0.004
      -0.002
      -0.002
       0.002
       0.007
       0.003
      -0.006
      -0.007
      -0.001
      -0.001
      -0.005
      -0.007
      -0.006
      -0.009
      -0.011
      -0.003
       0.005
       0.001
      -0.013
      -0.020
      -0.018
      -0.018
      -0.022
      -0.021
      -0.017
      -0.016
      -0.015
      -0.004
       0.013
       0.020
       0.014
       0.008
       0.003
      -0.006
      -0.017
      -0.019
      -0.013
      -0.015
      -0.025
      -0.031
      -0.030
      -0.029
      -0.029
      -0.022
      -0.008
       0.002
       0.006
       0.015
       0.030
       0.036
       0.031
       0.023
       0.017
       0.009
      -0.003
      -0.007
      -0.007
      -0.014
      -0.029
      -0.034
      -0.024
      -0.010
      -0.003
       0.000
       0.004
       0.004
       0.001
       0.007
       0.022
       0.031
       0.029
       0.026
       0.025
       0.019
       0.001
      -0.016
      -0.027
      -0.036
      -0.045
      -0.045
      -0.033
      -0.021
      -0.015
      -0.008
       0.004
       0.010
       0.007
       0.008
       0.017
       0.023
       0.015
       0.003
      -0.004
      -0.005
      -0.007
      -0.003
       0.004
       0.003
      -0.010
      -0.021
      -0.019
      -0.014
      -0.015
      -0.014
      -0.004
       0.008
       0.014
       0.017
       0.023
       0.024
       0.013
      -0.001
      -0.010
      -0.017
      -0.026
      -0.026
      -0.011
       0.003
       0.006
       0.002
       0.003
       0.007
       0.002
      -0.007
      -0.010
      -0.009
      -0.008
      -0.001
       0.016
       0.027
       0.022
       0.009
       0.004
       0.004
       0.002
       0.002
       0.010
       0.017
       0.015
       0.009
       0.010
       0.014
       0.010
       0.002
       0.002
       0.006
       0.007
       0.005
       0.004
      -0.002
      -0.018
      -0.031
      -0.026
      -0.009
       0.003
       0.007
       0.011
       0.016
       0.014
       0.012
       0.016
       0.022
       0.021
       0.014
       0.010
       0.008
       0.002
      -0.004
      -0.002
       0.002
      -0.006
      -0.021
      -0.025
      -0.016
      -0.009
      -0.009
      -0.009
      -0.008
      -0.010
      -0.013
      -0.008
       0.001
       0.002
      -0.004
      -0.005
       0.002
       0.007
       0.010
       0.019
       0.031
       0.033
       0.024
       0.018
       0.016
       0.010
      -0.001
      -0.007
      -0.007
      -0.014
      -0.027
      -0.035
      -0.032
      -0.028
      -0.027
      -0.023
      -0.017
      -0.016
      -0.018
      -0.010
       0.007
       0.016
       0.012
       0.009
       0.015
       0.022
       0.023
       0.025
       0.030
       0.031
       0.027
       0.024
       0.020
       0.006
      -0.016
      -0.028
      -0.027
      -0.023
      -0.023
      -0.018
      -0.003
       0.010
       0.012
       0.009
       0.005
      -0.005
      -0.020
      -0.025
      -0.013
       0.002
       0.012
       0.021
       0.032
       0.037
       0.031
       0.024
       0.018
       0.005
      -0.019
      -0.038
      -0.040
      -0.034
      -0.032
      -0.032
      -0.028
      -0.024
      -0.023
      -0.017
      -0.003
       0.008
       0.008
       0.005
       0.008
       0.006
      -0.005
      -0.014
      -0.012
      -0.005
      -0.003
      -0.002
       0.002
       0.005
       0.001
      -0.003
       0.002
       0.005
      -0.001
      -0.007
      -0.005
      -0.001
      -0.005
      -0.015
      -0.018
      -0.016
      -0.017
      -0.016
      -0.010
      -0.005
      -0.009
      -0.013
      -0.005
       0.006
       0.010
       0.012
       0.019
       0.027
       0.024
       0.014
       0.011
       0.014
       0.013
       0.011
       0.014
       0.018
       0.017
       0.015
       0.018
       0.017
      -0.001
      -0.029
      -0.051
      -0.061
      -0.064
      -0.056
      -0.030
       0.002
       0.022
       0.028
       0.034
       0.040
       0.036
       0.023
       0.013
       0.008
       0.003
       0.002
       0.010
       0.023
       0.026
       0.018
       0.008
      -0.001
      -0.016
      -0.030
      -0.033
      -0.027
      -0.023
      -0.021
      -0.010
       0.009
       0.023
       0.029
       0.034
       0.036
       0.026
       0.007
      -0.005
      -0.008
      -0.014
      -0.023
      -0.024
      -0.014
      -0.006
      -0.006
      -0.008
      -0.010
      -0.016
      -0.023
      -0.020
      -0.009
      -0.003
      -0.006
      -0.002
       0.010
       0.018
       0.016
       0.010
       0.004
      -0.006
      -0.015
      -0.013
      -0.001
       0.003
      -0.004
      -0.008
      -0.001
       0.009
       0.016
       0.023
       0.030
       0.028
       0.013
      -0.002
      -0.009
      -0.015
      -0.024
      -0.025
      -0.015
      -0.006
      -0.004
      -0.004
      -0.001
      -0.003
      -0.012
      -0.015
      -0.006
       0.003
       0.003
       0.001
       0.004
       0.007
       0.005
       0.004
       0.006
      -0.001
      -0.018
      -0.032
      -0.033
      -0.026
      -0.023
      -0.017
      -0.005
       0.006
       0.011
       0.018
       0.031
       0.039
       0.032
       0.021
       0.014
       0.008
      -0.005
      -0.018
      -0.023
      -0.026
      -0.034
      -0.038
      -0.032
      -0.024
      -0.023
      -0.024
      -0.020
      -0.015
      -0.016
      -0.016
      -0.007
       0.005
       0.011
       0.017
       0.030
       0.042
       0.039
       0.025
       0.012
       0.000
      -0.014
      -0.024
      -0.022
      -0.019
      -0.025
      -0.035
      -0.038
      -0.033
      -0.029
      -0.020
      -0.004
       0.011
       0.014
       0.010
       0.012
       0.017
       0.014
       0.006
       0.007
       0.012
       0.011
       0.004
       0.001
       0.002
       0.001
       0.000
       0.005
       0.008
       0.002
      -0.007
      -0.008
      -0.005
      -0.012
      -0.027
      -0.034
      -0.034
      -0.035
      -0.039
      -0.034
      -0.019
      -0.002
       0.014
       0.030
       0.042
       0.040
       0.029
       0.024
       0.025
       0.019
       0.006
      -0.003
      -0.005
      -0.006
      -0.006
       0.002
       0.011
       0.008
      -0.005
      -0.013
      -0.008
      -0.002
      -0.003
      -0.004
      -0.006
      -0.013
      -0.020
      -0.014
       0.001
       0.008
       0.002
      -0.007
      -0.012
      -0.017
      -0.021
      -0.017
      -0.004
       0.002
      -0.005
      -0.013
      -0.013
      -0.008
       0.000
       0.015
       0.031
       0.037
       0.031
       0.024
       0.019
       0.005
      -0.017
      -0.031
      -0.029
      -0.021
      -0.020
      -0.022
      -0.022
      -0.022
      -0.016
       0.010
       0.062
       0.126
       0.192
       0.258
       0.312
       0.331
       0.300
       0.235
       0.166
       0.107
       0.054
      -0.004
      -0.086
      -0.210
      -0.370
      -0.539
      -0.697
      -0.824
      -0.891
      -0.860
      -0.726
      -0.522
      -0.288
      -0.044
       0.207
       0.452
       0.667
       0.824
       0.894
       0.867
       0.766
       0.642
       0.550
       0.527
       0.588
       0.715
       0.852
       0.907
       0.763
       0.314
      -0.455
      -1.396
      -2.228
      -2.695
      -2.720
      -2.401
      -1.870
      -1.184
      -0.364
       0.498
       1.200
       1.544
       1.496
       1.237
       1.025
       0.963
       0.938
       0.803
       0.616
       0.606
       0.899
       1.305
       1.427
       1.012
       0.181
      -0.690
      -1.312
      -1.702
      -2.033
      -2.313
      -2.289
      -1.753
      -0.867
      -0.080
       0.313
       0.450
       0.713
       1.254
       1.782
       1.852
       1.363
       0.718
       0.423
       0.540
       0.620
       0.204
      -0.661
      -1.465
      -1.740
      -1.466
      -1.012
      -0.724
      -0.597
      -0.354
       0.182
       0.827
       1.193
       1.060
       0.562
       0.040
      -0.230
      -0.195
      -0.002
       0.166
       0.247
       0.297
       0.344
       0.311
       0.118
      -0.208
      -0.555
      -0.818
      -0.911
      -0.763
      -0.367
       0.169
       0.684
       1.056
       1.234
       1.210
       0.972
       0.517
      -0.111
      -0.785
      -1.339
      -1.638
      -1.631
      -1.339
      -0.815
      -0.145
       0.542
       1.070
       1.272
       1.081
       0.615
       0.136
      -0.149
      -0.250
      -0.328
      -0.446
      -0.444
      -0.127
       0.443
       0.925
       0.998
       0.661
       0.179
      -0.233
      -0.594
      -1.012
      -1.430
      -1.608
      -1.383
      -0.891
      -0.448
      -0.217
      -0.067
       0.214
       0.635
       0.991
       1.094
       0.948
       0.719
       0.589
       0.608
       0.656
       0.568
       0.331
       0.123
       0.134
       0.369
       0.656
       0.804
       0.719
       0.425
       0.007
      -0.460
      -0.927
      -1.310
      -1.455
      -1.260
      -0.820
      -0.392
      -0.186
      -0.222
      -0.362
      -0.439
      -0.360
      -0.153
       0.080
       0.265
       0.424
       0.600
       0.759
       0.805
       0.684
       0.449
       0.206
       0.028
      -0.081
      -0.158
      -0.248
      -0.372
      -0.511
      -0.633
      -0.722
      -0.755
      -0.690
      -0.511
      -0.282
      -0.063
       0.205
       0.648
       1.235
       1.694
       1.728
       1.290
       0.630
       0.079
      -0.225
      -0.434
      -0.783
      -1.298
      -1.705
      -1.710
      -1.293
      -0.725
      -0.312
      -0.151
      -0.083
       0.137
       0.589
       1.096
       1.393
       1.402
       1.284
       1.223
       1.195
       0.997
       0.478
      -0.273
      -0.944
      -1.228
      -1.077
      -0.767
      -0.676
      -0.965
      -1.447
      -1.737
      -1.520
      -0.754
       0.301
       1.250
       1.811
       1.966
       1.902
       1.809
       1.724
       1.521
       1.023
       0.149
      -0.994
      -2.106
      -2.832
      -2.969
      -2.576
      -1.897
      -1.192
      -0.606
      -0.138
       0.281
       0.695
       1.117
       1.545
       1.926
       2.118
       1.983
       1.563
       1.093
       0.761
       0.519
       0.166
      -0.407
      -1.074
      -1.554
      -1.630
      -1.363
      -1.050
      -0.890
      -0.761
      -0.423
       0.097
       0.497
       0.556
       0.381
       0.268
       0.392
       0.641
       0.748
       0.602
       0.391
       0.382
       0.539
       0.516
       0.054
      -0.679
      -1.214
      -1.219
      -0.792
      -0.351
      -0.210
      -0.259
      -0.108
       0.418
       1.028
       1.270
       1.018
       0.540
       0.107
      -0.274
      -0.683
      -1.026
      -1.101
      -0.885
      -0.625
      -0.580
      -0.719
      -0.777
      -0.635
      -0.527
      -0.723
      -1.070
      -1.064
      -0.519
       0.091
       0.247
       0.219
       0.846
       2.431
       4.151
       4.796
       3.945
       2.291
       0.904
       0.278
       0.086
      -0.221
      -0.708
      -1.009
      -1.033
      -1.269
      -2.155
      -3.312
      -3.732
      -2.789
      -0.983
       0.422
       0.556
      -0.275
      -1.002
      -0.915
      -0.258
       0.260
       0.337
       0.374
       0.912
       1.841
       2.325
       1.657
       0.069
      -1.458
      -2.198
      -2.258
      -2.100
      -1.703
      -0.513
       1.714
       4.213
       5.583
       4.980
       2.935
       0.952
       0.201
       0.542
       0.817
       0.099
      -1.362
      -2.495
      -2.630
      -2.209
      -2.213
      -2.975
      -3.687
      -3.219
      -1.410
       0.639
       1.665
       1.497
       1.047
       1.176
       1.826
       2.262
       1.897
       0.826
      -0.219
      -0.383
       0.538
       1.704
       1.962
       1.182
       0.513
       0.961
       1.991
       1.993
       0.114
      -2.719
      -4.601
      -4.271
      -2.046
       0.479
       1.546
       0.385
      -2.237
      -4.447
      -4.676
      -3.103
      -1.622
      -1.853
      -3.075
      -2.615
       1.269
       7.025
      10.802
       9.993
       5.630
       1.204
      -0.677
      -0.411
      -0.501
      -2.806
      -6.554
      -8.836
      -7.146
      -1.811
       3.893
       6.308
       4.522
       1.105
      -0.359
       1.452
       4.711
       6.529
       5.637
       3.092
       0.763
      -0.544
      -1.433
      -2.670
      -4.039
      -4.793
      -4.941
      -5.458
      -7.011
      -8.870
      -9.416
      -7.700
      -4.330
      -0.897
       1.375
       2.436
       3.016
       3.591
       4.005
       4.115
       4.400
       5.506
       7.272
       8.587
       8.375
       6.606
       4.254
       2.329
       0.958
      -0.604
      -3.047
      -6.057
      -8.322
      -8.549
      -6.530
      -3.319
      -0.434
       1.187
       1.662
       1.778
       2.107
       2.494
       2.431
       1.840
       1.292
       1.377
       2.024
       2.524
       2.167
       0.780
      -1.275
      -3.461
      -5.313
      -6.401
      -6.286
      -4.768
      -2.260
       0.227
       1.720
       2.049
       1.945
       2.285
       3.240
       4.173
       4.273
       3.267
       1.612
       0.077
      -0.934
      -1.718
      -2.909
      -4.751
      -6.654
      -7.433
      -6.095
      -2.719
       1.341
       4.319
       5.300
       4.670
       3.431
       2.269
       1.331
       0.584
       0.064
      -0.222
      -0.351
      -0.279
       0.253
       1.376
       2.690
       3.392
       2.942
       1.589
       0.266
      -0.125
       0.586
       1.727
       2.310
       1.730
       0.126
      -1.769
      -3.156
      -3.698
      -3.655
      -3.462
      -3.141
      -2.272
      -0.636
       1.260
       2.479
       2.475
       1.545
       0.505
      -0.004
       0.047
       0.148
      -0.289
      -1.447
      -2.971
      -4.251
      -4.736
      -4.102
      -2.393
      -0.164
       1.667
       2.376
       2.011
       1.381
       1.343
       1.982
       2.519
       2.130
       0.849
      -0.452
      -0.984
      -0.771
      -0.450
      -0.552
      -1.089
      -1.670
      -1.855
      -1.440
      -0.526
       0.651
       1.880
       2.917
       3.412
       3.140
       2.308
       1.470
       1.056
       0.983
       0.742
      -0.078
      -1.227
      -1.880
      -1.437
      -0.234
       0.753
       0.894
       0.453
       0.148
       0.334
       0.730
       0.790
       0.263
      -0.556
      -1.072
      -0.964
      -0.514
      -0.328
      -0.725
      -1.483
      -2.089
      -2.167
      -1.687
      -0.906
      -0.159
       0.293
       0.298
      -0.140
      -0.797
      -1.306
      -1.400
      -1.077
      -0.505
       0.223
       1.164
       2.357
       3.556
       4.183
       3.684
       2.062
       0.050
      -1.398
      -1.867
      -1.718
      -1.593
      -1.752
      -1.925
      -1.769
      -1.384
      -1.214
      -1.425
      -1.525
      -0.815
       0.799
       2.541
       3.367
       2.820
       1.400
       0.157
      -0.141
       0.371
       0.831
       0.529
      -0.364
      -1.002
      -0.812
      -0.142
       0.114
      -0.529
      -1.639
      -2.299
      -1.999
      -1.052
      -0.176
       0.293
       0.683
       1.509
       2.816
       4.038
       4.460
       3.820
       2.501
       1.198
       0.363
      -0.094
      -0.571
      -1.260
      -1.913
      -2.125
      -1.770
      -1.102
      -0.527
      -0.329
      -0.544
      -0.956
      -1.224
      -1.103
      -0.646
      -0.163
       0.036
      -0.100
      -0.341
      -0.427
      -0.360
      -0.407
      -0.770
      -1.294
      -1.578
      -1.399
      -0.953
      -0.635
      -0.649
      -0.862
      -0.980
      -0.817
      -0.418
       0.076
       0.638
       1.393
       2.359
       3.197
       3.326
       2.444
       0.936
      -0.327
      -0.681
      -0.199
       0.452
       0.643
       0.315
      -0.041
       0.085
       0.644
       0.954
       0.321
      -1.192
      -2.664
      -3.094
      -2.310
      -1.098
      -0.417
      -0.492
      -0.644
      -0.047
       1.353
       2.731
       3.238
       2.859
       2.301
       2.100
       2.026
       1.472
       0.284
      -0.936
      -1.417
      -1.019
      -0.419
      -0.461
      -1.332
      -2.389
      -2.826
      -2.489
      -1.985
      -1.978
      -2.429
      -2.580
      -1.707
       0.082
       1.817
       2.468
       1.845
       0.746
       0.212
       0.609
       1.430
       1.914
       1.793
       1.407
       1.225
       1.346
       1.446
       1.156
       0.488
      -0.098
      -0.105
       0.475
       1.090
       1.120
       0.414
      -0.658
      -1.588
      -2.078
      -2.105
      -1.792
      -1.313
      -0.835
      -0.483
      -0.309
      -0.276
      -0.279
      -0.229
      -0.127
      -0.029
       0.088
       0.370
       0.928
       1.641
       2.166
       2.173
       1.594
       0.649
      -0.340
      -1.166
      -1.799
      -2.267
      -2.515
      -2.421
      -1.956
      -1.271
      -0.557
       0.167
       1.046
       2.102
       3.010
       3.286
       2.730
       1.673
       0.728
       0.285
       0.202
      -0.014
      -0.676
      -1.591
      -2.278
      -2.461
      -2.264
      -1.958
      -1.650
      -1.277
      -0.796
      -0.280
       0.156
       0.481
       0.777
       1.108
       1.378
       1.349
       0.884
       0.136
      -0.540
      -0.892
      -0.973
      -1.058
      -1.378
      -1.899
      -2.324
      -2.297
      -1.655
      -0.535
       0.730
       1.858
       2.754
       3.431
       3.838
       3.832
       3.374
       2.684
       2.125
