Origin Time       23/06/2011 22:13:46 UTC
Lat.              30.0 N 
Long.             80.5 E	
Depth (Km)          5.0
Magnitude         3.2
 Region           Uttarakhand-Nepar-Border                                         
 Above details taken from IMD 
    
Station Code      DRC
Station Lat.       29.847  N
Station Long.      80.546  E
Station Height(m)  909.0
Site Class        A   Vs30 between 700 m/sec to 1400 m/sec * 
Record Time       23.06.2011 22:13:33.929 UTC
Sampling Rate     200. Hz
 Record Duration   68.060 Sec.
 Direction         N-S (N positive)
Max. Acceleration    -11.309 cm/sec**2
     
  * For reference see Site Classification link of website 
     
 Base Line Corrected and Low Pass Filtered (Cut Off at 35 Hz) Time History
 Acceleration data in cm/sec**2
    
[...]
      -0.007
      -0.020
      -0.032
      -0.036
      -0.036
      -0.033
      -0.028
      -0.022
      -0.019
      -0.016
      -0.007
       0.005
       0.012
       0.012
       0.013
       0.017
       0.017
       0.013
       0.008
       0.006
       0.000
      -0.009
      -0.018
      -0.026
      -0.035
      -0.040
      -0.035
      -0.024
      -0.016
      -0.013
      -0.011
      -0.007
      -0.007
      -0.011
      -0.012
      -0.008
      -0.008
      -0.014
      -0.017
      -0.014
      -0.010
      -0.008
      -0.006
      -0.005
      -0.009
      -0.017
      -0.021
      -0.018
      -0.012
      -0.005
       0.008
       0.021
       0.024
       0.017
       0.008
       0.005
      -0.001
      -0.013
      -0.026
      -0.032
      -0.027
      -0.015
       0.002
       0.016
       0.014
      -0.001
      -0.016
      -0.022
      -0.023
      -0.026
      -0.027
      -0.023
      -0.020
      -0.020
      -0.016
      -0.006
       0.006
       0.010
       0.008
       0.002
      -0.009
      -0.024
      -0.035
      -0.036
      -0.031
      -0.027
      -0.019
      -0.007
       0.004
       0.005
       0.000
      -0.005
      -0.009
      -0.015
      -0.019
      -0.022
      -0.025
      -0.030
      -0.029
      -0.021
      -0.013
      -0.012
      -0.009
       0.005
       0.023
       0.033
       0.030
       0.017
      -0.002
      -0.022
      -0.032
      -0.028
      -0.020
      -0.019
      -0.023
      -0.023
      -0.020
      -0.019
      -0.019
      -0.017
      -0.013
      -0.013
      -0.011
      -0.002
       0.009
       0.014
       0.012
       0.007
       0.001
      -0.011
      -0.022
      -0.028
      -0.031
      -0.037
      -0.043
      -0.039
      -0.026
      -0.012
      -0.001
       0.009
       0.013
       0.009
       0.000
      -0.004
      -0.005
      -0.008
      -0.010
      -0.005
       0.003
       0.004
      -0.004
      -0.012
      -0.016
      -0.019
      -0.022
      -0.023
      -0.025
      -0.030
      -0.033
      -0.024
      -0.009
      -0.001
      -0.006
      -0.017
      -0.027
      -0.034
      -0.032
      -0.019
      -0.003
       0.001
      -0.008
      -0.017
      -0.018
      -0.014
      -0.011
      -0.008
      -0.006
      -0.008
      -0.010
      -0.008
      -0.004
      -0.006
      -0.014
      -0.020
      -0.019
      -0.017
      -0.015
      -0.008
       0.001
       0.007
       0.007
       0.007
       0.008
       0.002
      -0.013
      -0.026
      -0.031
      -0.033
      -0.034
      -0.031
      -0.027
      -0.025
      -0.029
      -0.030
      -0.025
      -0.020
      -0.017
      -0.011
       0.003
       0.019
       0.030
       0.035
       0.036
       0.030
       0.020
       0.015
       0.019
       0.021
       0.014
       0.001
      -0.010
      -0.017
      -0.021
      -0.023
      -0.026
      -0.035
      -0.047
      -0.053
      -0.049
      -0.043
      -0.041
      -0.036
      -0.024
      -0.010
      -0.002
       0.001
       0.002
       0.002
       0.000
       0.003
       0.013
       0.021
       0.022
       0.017
       0.013
       0.005
      -0.007
      -0.016
      -0.019
      -0.020
      -0.028
      -0.039
      -0.046
      -0.049
      -0.049
      -0.043
      -0.032
      -0.021
      -0.014
      -0.009
       0.002
       0.013
       0.017
       0.015
       0.013
       0.012
       0.009
       0.007
       0.008
       0.008
       0.002
      -0.005
      -0.007
      -0.007
      -0.013
      -0.022
      -0.030
      -0.035
      -0.036
      -0.029
      -0.011
       0.005
       0.012
       0.012
       0.014
       0.015
       0.007
      -0.010
      -0.027
      -0.037
      -0.040
      -0.034
      -0.018
      -0.001
       0.007
       0.004
      -0.002
      -0.007
      -0.011
      -0.009
       0.001
       0.015
       0.021
       0.020
       0.019
       0.015
       0.004
      -0.014
      -0.031
      -0.043
      -0.048
      -0.045
      -0.036
      -0.028
      -0.030
      -0.035
      -0.032
      -0.018
      -0.001
       0.011
       0.020
       0.023
       0.016
       0.002
      -0.008
      -0.010
      -0.009
      -0.008
      -0.002
       0.007
       0.013
       0.014
       0.011
       0.006
      -0.005
      -0.014
      -0.014
      -0.006
      -0.003
      -0.007
      -0.010
      -0.004
       0.006
       0.014
       0.020
       0.021
       0.014
       0.000
      -0.011
      -0.016
      -0.018
      -0.017
      -0.011
      -0.002
       0.000
      -0.006
      -0.012
      -0.012
      -0.009
      -0.006
       0.000
       0.010
       0.014
       0.011
       0.004
      -0.002
      -0.006
      -0.009
      -0.007
      -0.001
       0.000
      -0.005
      -0.007
       0.001
       0.012
       0.018
       0.020
       0.019
       0.013
       0.000
      -0.010
      -0.011
      -0.008
      -0.006
      -0.006
      -0.006
      -0.004
      -0.002
       0.004
       0.013
       0.013
       0.004
      -0.005
      -0.005
       0.002
       0.005
       0.007
       0.007
       0.002
      -0.008
      -0.013
      -0.006
       0.006
       0.012
       0.011
       0.008
       0.003
      -0.004
      -0.009
      -0.008
      -0.005
      -0.005
      -0.005
      -0.004
      -0.004
      -0.006
      -0.003
       0.006
       0.014
       0.013
       0.006
       0.001
      -0.001
      -0.002
      -0.002
       0.001
       0.005
       0.003
      -0.001
      -0.002
      -0.004
      -0.011
      -0.019
      -0.020
      -0.016
      -0.011
      -0.003
       0.010
       0.022
       0.025
       0.015
       0.001
      -0.013
      -0.024
      -0.025
      -0.013
       0.005
       0.015
       0.020
       0.024
       0.028
       0.024
       0.013
       0.001
      -0.006
      -0.009
      -0.009
      -0.007
      -0.008
      -0.017
      -0.024
      -0.017
       0.001
       0.017
       0.022
       0.022
       0.024
       0.026
       0.027
       0.026
       0.019
       0.002
      -0.016
      -0.023
      -0.020
      -0.018
      -0.023
      -0.032
      -0.039
      -0.040
      -0.033
      -0.015
       0.006
       0.017
       0.016
       0.014
       0.018
       0.025
       0.032
       0.039
       0.042
       0.035
       0.017
       0.001
      -0.009
      -0.015
      -0.022
      -0.026
      -0.026
      -0.027
      -0.029
      -0.027
      -0.020
      -0.014
      -0.009
      -0.001
       0.009
       0.014
       0.012
       0.013
       0.022
       0.031
       0.035
       0.034
       0.030
       0.019
       0.005
      -0.004
      -0.008
      -0.015
      -0.026
      -0.032
      -0.025
      -0.009
       0.005
       0.013
       0.014
       0.005
      -0.006
      -0.007
       0.005
       0.018
       0.020
       0.013
       0.003
      -0.005
      -0.011
      -0.008
       0.004
       0.014
       0.015
       0.009
       0.003
      -0.003
      -0.005
      -0.002
       0.004
       0.002
      -0.011
      -0.021
      -0.016
      -0.001
       0.010
       0.016
       0.017
       0.016
       0.011
       0.008
       0.013
       0.021
       0.025
       0.027
       0.028
       0.025
       0.014
      -0.001
      -0.012
      -0.022
      -0.032
      -0.041
      -0.042
      -0.039
      -0.037
      -0.030
      -0.015
       0.002
       0.012
       0.016
       0.022
       0.031
       0.039
       0.045
       0.048
       0.042
       0.024
       0.002
      -0.013
      -0.021
      -0.024
      -0.022
      -0.015
      -0.010
      -0.013
      -0.019
      -0.017
      -0.009
      -0.007
      -0.010
      -0.013
      -0.011
      -0.004
       0.010
       0.031
       0.049
       0.052
       0.042
       0.028
       0.016
       0.007
       0.004
       0.009
       0.010
      -0.003
      -0.027
      -0.044
      -0.048
      -0.044
      -0.035
      -0.021
      -0.010
      -0.014
      -0.043
      -0.092
      -0.163
      -0.260
      -0.388
      -0.541
      -0.698
      -0.807
      -0.779
      -0.528
      -0.033
       0.627
       1.301
       1.826
       2.090
       2.060
       1.765
       1.261
       0.614
      -0.066
      -0.636
      -0.989
      -1.150
      -1.251
      -1.404
      -1.596
      -1.702
      -1.607
      -1.298
      -0.865
      -0.428
      -0.056
       0.244
       0.490
       0.687
       0.835
       0.955
       1.075
       1.195
       1.257
       1.170
       0.879
       0.430
      -0.022
      -0.276
      -0.198
       0.188
       0.682
       0.961
       0.739
      -0.035
      -1.079
      -1.937
      -2.309
      -2.260
      -2.076
      -1.903
      -1.552
      -0.699
       0.676
       2.092
       2.874
       2.726
       2.016
       1.425
       1.289
       1.322
       1.006
       0.209
      -0.660
      -1.099
      -1.060
      -0.980
      -1.275
      -1.850
      -2.152
      -1.735
      -0.760
       0.131
       0.428
       0.227
       0.065
       0.360
       1.032
       1.631
       1.781
       1.490
       1.059
       0.744
       0.514
       0.172
      -0.340
      -0.803
      -0.939
      -0.724
      -0.445
      -0.447
      -0.802
      -1.243
      -1.419
      -1.216
      -0.814
      -0.436
      -0.092
       0.371
       1.004
       1.575
       1.722
       1.289
       0.539
      -0.009
      -0.015
       0.384
       0.717
       0.623
       0.128
      -0.460
      -0.854
      -0.951
      -0.829
      -0.651
      -0.556
      -0.546
      -0.485
      -0.272
       0.007
       0.136
      -0.004
      -0.294
      -0.481
      -0.394
      -0.046
       0.435
       0.912
       1.269
       1.396
       1.222
       0.814
       0.402
       0.243
       0.398
       0.641
       0.646
       0.303
      -0.158
      -0.386
      -0.271
      -0.074
      -0.201
      -0.836
      -1.757
      -2.468
      -2.550
      -1.955
      -1.004
      -0.103
       0.551
       1.005
       1.325
       1.431
       1.189
       0.639
       0.061
      -0.223
      -0.090
       0.308
       0.685
       0.835
       0.741
       0.539
       0.347
       0.157
      -0.112
      -0.458
      -0.751
      -0.853
      -0.762
      -0.621
      -0.600
      -0.741
      -0.881
      -0.749
      -0.203
       0.581
       1.211
       1.392
       1.180
       0.919
       0.925
       1.205
       1.441
       1.293
       0.738
       0.110
      -0.249
      -0.366
      -0.624
      -1.345
      -2.391
      -3.201
      -3.253
      -2.517
      -1.440
      -0.508
       0.156
       0.741
       1.352
       1.781
       1.751
       1.319
       0.948
       1.083
       1.678
       2.165
       1.924
       0.875
      -0.366
      -0.975
      -0.633
       0.179
       0.632
       0.269
      -0.679
      -1.600
      -2.027
      -1.894
      -1.415
      -0.837
      -0.307
       0.093
       0.280
       0.209
      -0.043
      -0.278
      -0.320
      -0.108
       0.306
       0.786
       1.108
       1.035
       0.519
      -0.170
      -0.588
      -0.472
       0.029
       0.489
       0.580
       0.303
      -0.123
      -0.523
      -0.842
      -0.997
      -0.797
      -0.120
       0.853
       1.657
       1.862
       1.403
       0.613
      -0.048
      -0.296
      -0.160
       0.103
       0.218
       0.087
      -0.162
      -0.308
      -0.256
      -0.152
      -0.266
      -0.710
      -1.277
      -1.592
      -1.482
      -1.132
      -0.837
      -0.621
      -0.199
       0.641
       1.648
       2.183
       1.793
       0.735
      -0.130
      -0.119
       0.590
       1.126
       0.818
      -0.111
      -0.785
      -0.573
       0.279
       0.896
       0.622
      -0.397
      -1.465
      -2.056
      -2.201
      -2.167
      -1.952
      -1.270
      -0.027
       1.343
       2.149
       2.050
       1.365
       0.770
       0.680
       0.944
       1.107
       0.902
       0.455
       0.095
       0.042
       0.254
       0.448
       0.262
      -0.472
      -1.506
      -2.271
      -2.321
      -1.725
      -1.003
      -0.614
      -0.537
      -0.370
       0.152
       0.837
       1.269
       1.286
       1.079
       0.844
       0.521
      -0.005
      -0.566
      -0.778
      -0.436
       0.261
       0.928
       1.306
       1.368
       1.214
       0.935
       0.558
       0.102
      -0.333
      -0.603
      -0.674
      -0.674
      -0.728
      -0.810
      -0.810
      -0.719
      -0.624
      -0.521
      -0.273
       0.175
       0.600
       0.592
      -0.081
      -1.154
      -1.876
      -1.481
       0.146
       2.159
       3.240
       2.642
       0.846
      -0.908
      -1.781
      -1.943
      -2.070
      -2.452
      -2.702
      -2.203
      -0.752
       1.159
       2.609
       2.963
       2.452
       2.023
       2.449
       3.576
       4.488
       4.361
       3.119
       1.336
      -0.343
      -1.629
      -2.605
      -3.489
      -4.387
      -5.194
      -5.682
      -5.651
      -4.964
      -3.499
      -1.187
       1.856
       5.220
       8.248
      10.277
      10.955
      10.349
       8.730
       6.280
       3.110
      -0.498
      -4.075
      -7.211
      -9.644
     -11.102
     -11.309
     -10.290
      -8.481
      -6.399
      -4.314
      -2.357
      -0.781
       0.082
       0.143
      -0.283
      -0.606
      -0.199
       1.278
       3.486
       5.355
       5.752
       4.486
       2.632
       1.625
       1.928
       2.723
       2.996
       2.711
       2.636
       3.063
       3.182
       2.052
      -0.035
      -1.574
      -1.368
       0.104
       0.976
      -0.326
      -3.603
      -6.959
      -8.308
      -6.960
      -3.960
      -1.014
       0.915
       2.105
       3.381
       5.079
       6.681
       7.377
       6.881
       5.707
       4.617
       3.849
       2.991
       1.701
       0.399
      -0.098
       0.228
       0.107
      -1.857
      -5.468
      -8.729
      -9.640
      -8.178
      -6.288
      -5.838
      -6.690
      -6.896
      -4.812
      -0.958
       2.306
       3.034
       1.571
       0.178
       0.865
       3.578
       6.369
       7.193
       5.585
       2.815
       0.580
      -0.418
      -0.675
      -0.858
      -0.797
       0.307
       2.641
       4.982
       5.450
       3.266
      -0.302
      -2.967
      -3.468
      -2.571
      -2.038
      -2.764
      -4.070
      -4.707
      -4.261
      -3.391
      -2.826
      -2.411
      -1.305
       0.931
       3.618
       5.386
       5.305
       3.539
       1.037
      -1.234
      -2.717
      -3.249
      -2.940
      -2.100
      -1.068
       0.056
       1.500
       3.514
       5.886
       7.798
       8.279
       6.974
       4.530
       2.180
       0.839
       0.526
       0.563
       0.222
      -0.792
      -2.261
      -3.671
      -4.522
      -4.621
      -4.149
      -3.445
      -2.739
      -2.108
      -1.594
      -1.227
      -0.904
      -0.369
       0.578
       1.787
       2.688
       2.606
       1.285
      -0.837
      -2.896
      -4.200
      -4.610
      -4.423
      -3.989
      -3.471
      -2.881
      -2.234
      -1.629
      -1.190
      -0.875
      -0.367
       0.740
       2.529
       4.576
       6.245
       7.180
       7.467
       7.337
       6.782
       5.488
       3.201
       0.225
      -2.435
      -3.608
      -2.837
      -0.821
       1.051
       1.668
       0.836
      -0.813
      -2.358
      -3.107
      -2.857
      -1.943
      -1.042
      -0.725
      -0.998
      -1.317
      -1.157
      -0.611
      -0.274
      -0.487
      -0.818
      -0.458
       0.853
       2.358
       2.811
       1.527
      -0.987
      -3.402
      -4.620
      -4.521
      -3.769
      -2.997
      -2.279
      -1.321
      -0.028
       1.253
       2.044
       2.213
       2.070
       1.984
       2.013
       1.992
       1.895
       1.917
       2.145
       2.278
       1.839
       0.700
      -0.644
      -1.421
      -1.254
      -0.537
      -0.063
      -0.264
      -0.821
      -1.055
      -0.629
       0.171
       0.809
       1.059
       1.170
       1.539
       2.263
       3.005
       3.261
       2.780
       1.771
       0.740
       0.067
      -0.298
      -0.743
      -1.552
      -2.570
      -3.316
      -3.404
      -2.823
      -1.829
      -0.686
       0.451
       1.445
       2.100
       2.210
       1.662
       0.501
      -1.052
      -2.572
      -3.536
      -3.611
      -2.957
      -2.153
      -1.693
      -1.514
      -1.082
       0.009
       1.505
       2.542
       2.292
       0.702
      -1.314
      -2.505
      -2.246
      -0.949
       0.447
       1.336
       1.774
       2.075
       2.274
       2.077
       1.272
       0.084
      -0.909
      -1.196
      -0.704
       0.187
       0.929
       1.148
       0.807
       0.210
      -0.178
      -0.028
       0.575
       1.194
       1.452
       1.402
       1.434
       1.836
       2.471
       2.878
       2.657
       1.779
       0.578
      -0.548
      -1.394
      -1.952
      -2.234
      -2.198
      -1.883
      -1.542
      -1.511
      -1.925
      -2.539
      -2.876
      -2.610
      -1.858
      -1.078
      -0.635
      -0.470
      -0.257
       0.148
       0.531
       0.623
       0.485
       0.456
       0.723
       1.022
       0.817
      -0.169
      -1.566
      -2.473
      -2.089
      -0.386
       1.770
       3.211
       3.311
       2.357
       1.181
       0.460
       0.296
       0.336
       0.238
       0.015
      -0.021
       0.353
       0.971
       1.346
       1.054
       0.089
      -1.107
      -1.956
      -2.155
      -1.840
      -1.348
      -0.845
      -0.270
       0.360
       0.740
       0.530
      -0.161
      -0.690
      -0.425
       0.607
       1.686
       2.026
       1.466
       0.550
      -0.047
      -0.134
      -0.050
      -0.156
      -0.398
      -0.451
      -0.206
       0.006
      -0.238
      -0.915
      -1.447
      -1.172
       0.018
       1.463
       2.209
       1.809
       0.731
      -0.040
       0.144
       1.063
       1.890
       1.935
       1.158
       0.074
      -0.748
      -1.106
      -1.172
      -1.191
      -1.202
      -1.082
      -0.796
      -0.491
      -0.318
      -0.247
      -0.152
      -0.065
      -0.219
      -0.772
      -1.500
      -1.853
      -1.398
      -0.226
       1.050
       1.731
       1.532
       0.741
      -0.070
      -0.506
      -0.616
      -0.731
      -1.072
      -1.502
      -1.644
      -1.238
      -0.397
       0.470
       0.985
       1.092
       1.040
       1.092
       1.287
       1.479
       1.590
       1.722
       1.990
       2.274
       2.244
       1.702
       0.863
       0.215
       0.023
       0.029
      -0.301
      -1.211
      -2.375
      -3.176
      -3.226
      -2.633
      -1.827
      -1.161
      -0.688
      -0.263
       0.167
