Origin Time       09/2/2011 19:17:29	 UTC
Lat.              30.9 N	
Long.             78.2 E	
Depth (Km)         10.0
Magnitude         5.0
 Region           UTTARKASHI-UTTARAKHAND                                           
 Above details taken from IMD 
    
Station Code      DRC
Station Lat.       29.847  N
Station Long.      80.546  E
Station Height(m)  909.0
Site Class        A   Vs30 between 700 m/sec to 1400 m/sec * 
Record Time       09.12.2011 08:22:34.304 UTC
Sampling Rate     200. Hz
 Record Duration   67.565 Sec.
 Direction         N-S (N positive)
Max. Acceleration     -7.282 cm/sec**2
     
  * For reference see Site Classification link of website 
     
 Base Line Corrected and Low Pass Filtered (Cut Off at 35 Hz) Time History
 Acceleration data in cm/sec**2
    
[...]
       0.001
       0.009
       0.005
      -0.012
      -0.025
      -0.019
       0.003
       0.024
       0.030
       0.020
       0.006
       0.000
       0.004
       0.011
       0.012
       0.003
      -0.010
      -0.016
      -0.011
       0.001
       0.013
       0.018
       0.014
       0.006
       0.002
       0.005
       0.010
       0.012
       0.009
       0.004
       0.000
      -0.002
      -0.001
       0.001
       0.001
      -0.004
      -0.007
      -0.003
       0.007
       0.017
       0.021
       0.020
       0.017
       0.014
       0.010
       0.005
      -0.001
      -0.009
      -0.020
      -0.026
      -0.025
      -0.018
      -0.008
       0.004
       0.018
       0.030
       0.034
       0.029
       0.015
       0.001
      -0.008
      -0.008
      -0.003
       0.003
       0.006
       0.008
       0.009
       0.008
       0.007
       0.009
       0.011
       0.009
      -0.001
      -0.013
      -0.021
      -0.020
      -0.012
      -0.001
       0.007
       0.007
       0.003
      -0.001
       0.002
       0.009
       0.012
       0.007
      -0.002
      -0.010
      -0.015
      -0.014
      -0.010
      -0.004
      -0.001
       0.001
      -0.001
      -0.003
      -0.004
      -0.002
       0.001
       0.002
       0.001
       0.002
       0.006
       0.010
       0.009
       0.004
      -0.001
      -0.003
      -0.001
       0.001
      -0.001
      -0.008
      -0.013
      -0.011
      -0.001
       0.008
       0.010
       0.004
      -0.006
      -0.012
      -0.010
      -0.001
       0.008
       0.012
       0.008
       0.003
       0.003
       0.007
       0.014
       0.019
       0.019
       0.010
      -0.005
      -0.015
      -0.016
      -0.006
       0.006
       0.015
       0.017
       0.013
       0.004
      -0.003
      -0.007
      -0.009
      -0.010
      -0.011
      -0.009
      -0.003
       0.003
       0.006
       0.005
       0.004
       0.006
       0.010
       0.014
       0.013
       0.008
       0.005
       0.005
       0.005
       0.001
      -0.002
       0.000
       0.008
       0.015
       0.017
       0.011
       0.000
      -0.010
      -0.012
      -0.005
       0.003
       0.007
       0.005
       0.004
       0.006
       0.010
       0.012
       0.012
       0.012
       0.014
       0.013
       0.008
       0.000
      -0.006
      -0.007
      -0.003
       0.001
      -0.001
      -0.008
      -0.016
      -0.018
      -0.014
      -0.003
       0.009
       0.013
       0.008
       0.000
      -0.005
      -0.006
      -0.006
      -0.007
      -0.006
       0.000
       0.008
       0.017
       0.023
       0.021
       0.011
       0.000
      -0.009
      -0.012
      -0.010
      -0.003
       0.006
       0.014
       0.015
       0.010
       0.005
       0.004
       0.005
       0.006
       0.005
       0.004
       0.006
       0.010
       0.015
       0.018
       0.017
       0.015
       0.012
       0.007
       0.001
      -0.004
      -0.003
       0.001
       0.005
       0.005
       0.004
       0.002
       0.001
      -0.001
      -0.002
      -0.002
       0.001
       0.003
       0.002
      -0.004
      -0.013
      -0.017
      -0.011
       0.004
       0.018
       0.023
       0.018
       0.010
       0.004
       0.003
       0.005
       0.006
       0.007
       0.008
       0.008
       0.003
      -0.007
      -0.017
      -0.018
      -0.009
       0.005
       0.016
       0.020
       0.015
       0.004
      -0.007
      -0.010
      -0.005
       0.002
       0.005
       0.005
       0.003
       0.004
       0.009
       0.014
       0.014
       0.007
      -0.001
      -0.005
      -0.003
      -0.001
       0.000
       0.001
       0.007
       0.016
       0.022
       0.021
       0.012
      -0.003
      -0.015
      -0.018
      -0.011
      -0.001
       0.005
       0.006
       0.005
       0.006
       0.009
       0.012
       0.014
       0.015
       0.015
       0.017
       0.017
       0.013
       0.006
       0.002
       0.001
      -0.001
      -0.010
      -0.021
      -0.027
      -0.026
      -0.021
      -0.014
      -0.006
       0.005
       0.016
       0.022
       0.018
       0.010
       0.004
       0.007
       0.015
       0.017
       0.008
      -0.005
      -0.014
      -0.016
      -0.014
      -0.010
      -0.003
       0.002
       0.005
       0.006
       0.005
       0.006
       0.006
       0.006
       0.005
       0.004
       0.003
       0.004
       0.006
       0.004
       0.000
      -0.007
      -0.012
      -0.015
      -0.016
      -0.018
      -0.020
      -0.019
      -0.011
       0.005
       0.022
       0.030
       0.024
       0.009
      -0.005
      -0.011
      -0.008
       0.001
       0.013
       0.021
       0.021
       0.013
       0.003
      -0.003
      -0.003
       0.002
       0.008
       0.008
       0.004
      -0.001
      -0.004
      -0.006
      -0.011
      -0.014
      -0.011
       0.000
       0.008
       0.007
      -0.004
      -0.017
      -0.021
      -0.014
      -0.003
       0.004
       0.011
       0.022
       0.035
       0.037
       0.024
       0.007
       0.000
       0.005
       0.010
       0.008
       0.005
       0.005
       0.008
       0.007
      -0.003
      -0.019
      -0.030
      -0.025
      -0.006
       0.012
       0.019
       0.011
      -0.001
      -0.011
      -0.012
       0.000
       0.020
       0.032
       0.028
       0.014
       0.004
       0.004
       0.009
       0.011
       0.008
       0.003
      -0.006
      -0.018
      -0.027
      -0.025
      -0.016
      -0.007
      -0.003
      -0.005
      -0.008
      -0.008
      -0.002
       0.004
       0.006
       0.005
       0.001
      -0.002
      -0.001
       0.007
       0.018
       0.024
       0.021
       0.015
       0.012
       0.013
       0.012
       0.005
      -0.007
      -0.020
      -0.028
      -0.027
      -0.016
       0.000
       0.012
       0.017
       0.016
       0.014
       0.016
       0.021
       0.025
       0.022
       0.013
       0.001
      -0.008
      -0.013
      -0.014
      -0.010
      -0.003
       0.007
       0.014
       0.013
       0.004
      -0.004
      -0.006
       0.001
       0.011
       0.018
       0.018
       0.016
       0.018
       0.025
       0.027
       0.017
       0.000
      -0.013
      -0.016
      -0.014
      -0.012
      -0.011
      -0.008
      -0.001
       0.006
       0.004
      -0.008
      -0.019
      -0.019
      -0.009
       0.002
       0.005
       0.002
      -0.001
       0.000
       0.005
       0.012
       0.019
       0.021
       0.018
       0.013
       0.011
       0.011
       0.009
       0.000
      -0.014
      -0.028
      -0.032
      -0.020
       0.001
       0.015
       0.013
       0.001
      -0.006
       0.002
       0.023
       0.039
       0.040
       0.023
       0.003
      -0.006
      -0.002
       0.003
       0.002
      -0.004
      -0.005
       0.001
       0.004
      -0.002
      -0.013
      -0.016
      -0.004
       0.015
       0.025
       0.015
      -0.004
      -0.014
      -0.002
       0.022
       0.037
       0.032
       0.015
       0.003
       0.008
       0.020
       0.026
       0.014
      -0.005
      -0.018
      -0.014
       0.001
       0.013
       0.016
       0.014
       0.008
       0.003
       0.002
       0.007
       0.018
       0.026
       0.026
       0.017
       0.004
      -0.003
      -0.001
       0.008
       0.016
       0.018
       0.015
       0.011
       0.008
       0.004
      -0.001
      -0.005
      -0.006
      -0.003
       0.003
       0.009
       0.014
       0.015
       0.015
       0.012
       0.004
      -0.008
      -0.020
      -0.025
      -0.022
      -0.012
       0.001
       0.012
       0.019
       0.020
       0.017
       0.011
       0.005
      -0.001
      -0.004
      -0.002
       0.002
       0.005
       0.006
       0.008
       0.013
       0.018
       0.018
       0.012
       0.001
      -0.009
      -0.012
      -0.006
       0.004
       0.010
       0.009
       0.006
       0.004
       0.004
       0.004
       0.002
      -0.002
      -0.007
      -0.011
      -0.011
      -0.007
       0.001
       0.012
       0.023
       0.030
       0.027
       0.016
       0.002
      -0.010
      -0.013
      -0.007
       0.008
       0.024
       0.032
       0.027
       0.013
      -0.004
      -0.018
      -0.025
      -0.023
      -0.015
      -0.007
      -0.002
       0.002
       0.007
       0.014
       0.021
       0.023
       0.016
       0.005
      -0.002
       0.004
       0.019
       0.028
       0.023
       0.006
      -0.010
      -0.013
       0.000
       0.017
       0.027
       0.025
       0.015
       0.004
      -0.004
      -0.008
      -0.008
      -0.004
       0.000
      -0.001
      -0.007
      -0.012
      -0.007
       0.006
       0.016
       0.015
       0.002
      -0.015
      -0.024
      -0.018
      -0.004
       0.005
      -0.006
      -0.039
      -0.079
      -0.095
      -0.067
      -0.015
      -0.006
      -0.096
      -0.248
      -0.317
      -0.178
       0.094
       0.221
      -0.011
      -0.462
      -0.674
      -0.316
       0.407
       0.902
       0.818
       0.454
       0.417
       0.880
       1.279
       0.892
      -0.276
      -1.347
      -1.428
      -0.565
       0.298
       0.325
      -0.323
      -0.758
      -0.448
       0.173
       0.268
      -0.389
      -1.114
      -1.065
      -0.178
       0.731
       0.821
       0.088
      -0.664
      -0.637
       0.195
       1.086
       1.230
       0.498
      -0.468
      -0.830
      -0.258
       0.823
       1.594
       1.479
       0.544
      -0.631
      -1.415
      -1.521
      -1.108
      -0.568
      -0.204
      -0.077
      -0.080
      -0.083
      -0.025
       0.062
       0.097
       0.046
      -0.034
      -0.017
       0.195
       0.573
       0.956
       1.159
       1.103
       0.868
       0.594
       0.354
       0.124
      -0.134
      -0.410
      -0.656
      -0.798
      -0.745
      -0.456
      -0.037
       0.263
       0.233
      -0.133
      -0.634
      -1.020
      -1.116
      -0.879
      -0.410
       0.058
       0.286
       0.231
       0.136
       0.318
       0.817
       1.282
       1.284
       0.759
       0.083
      -0.329
      -0.428
      -0.482
      -0.666
      -0.817
      -0.666
      -0.227
       0.161
       0.198
      -0.051
      -0.240
      -0.124
       0.185
       0.383
       0.313
       0.089
      -0.081
      -0.107
      -0.040
       0.032
       0.070
       0.082
       0.095
       0.133
       0.189
       0.208
       0.136
      -0.011
      -0.159
      -0.244
      -0.263
      -0.251
      -0.221
      -0.145
      -0.011
       0.140
       0.267
       0.384
       0.511
       0.572
       0.413
       0.002
      -0.431
      -0.549
      -0.227
       0.301
       0.647
       0.594
       0.232
      -0.192
      -0.493
      -0.654
      -0.745
      -0.802
      -0.779
      -0.601
      -0.249
       0.182
       0.516
       0.603
       0.432
       0.148
      -0.075
      -0.200
      -0.337
      -0.546
      -0.676
      -0.475
       0.101
       0.725
       0.960
       0.677
       0.174
      -0.147
      -0.161
      -0.047
       0.006
       0.018
       0.137
       0.384
       0.573
       0.489
       0.137
      -0.222
      -0.308
      -0.101
       0.146
       0.185
       0.020
      -0.133
      -0.101
       0.086
       0.282
       0.406
       0.474
       0.482
       0.335
      -0.050
      -0.587
      -1.007
      -1.057
      -0.718
      -0.244
       0.013
      -0.132
      -0.569
      -0.979
      -1.086
      -0.822
      -0.315
       0.249
       0.729
       1.044
       1.158
       1.099
       0.973
       0.897
       0.872
       0.753
       0.400
      -0.105
      -0.474
      -0.493
      -0.284
      -0.220
      -0.546
      -1.108
      -1.476
      -1.342
      -0.809
      -0.267
      -0.023
      -0.053
      -0.087
       0.099
       0.482
       0.876
       1.137
       1.249
       1.250
       1.147
       0.917
       0.557
       0.123
      -0.281
      -0.553
      -0.660
      -0.663
      -0.636
      -0.563
      -0.372
      -0.102
       0.032
      -0.168
      -0.620
      -0.964
      -0.877
      -0.390
       0.163
       0.465
       0.444
       0.236
       0.027
      -0.039
       0.128
       0.506
       0.899
       0.992
       0.621
       0.000
      -0.380
      -0.159
       0.516
       1.041
       0.879
       0.115
      -0.582
      -0.581
       0.113
       0.886
       1.111
       0.697
       0.053
      -0.409
      -0.623
      -0.756
      -0.882
      -0.927
      -0.942
      -1.210
      -1.861
      -2.437
      -2.123
      -0.609
       1.365
       2.539
       2.325
       1.354
       0.785
       1.143
       1.928
       2.238
       1.660
       0.636
       0.026
       0.318
       1.225
       1.993
       2.106
       1.744
       1.537
       1.858
       2.412
       2.551
       1.895
       0.590
      -0.949
      -2.444
      -3.859
      -5.157
      -6.139
      -6.638
      -6.776
      -6.879
      -7.114
      -7.282
      -6.985
      -5.996
      -4.455
      -2.709
      -0.991
       0.713
       2.484
       4.200
       5.526
       6.198
       6.302
       6.233
       6.332
       6.526
       6.371
       5.482
       3.943
       2.273
       1.039
       0.465
       0.335
       0.206
      -0.250
      -1.058
      -2.003
      -2.894
      -3.741
      -4.606
      -5.302
      -5.361
      -4.383
      -2.458
      -0.259
       1.332
       1.798
       1.319
       0.614
       0.429
       1.090
       2.415
       3.910
       5.022
       5.323
       4.699
       3.497
       2.413
       2.005
       2.181
       2.209
       1.406
      -0.150
      -1.630
      -2.243
      -1.969
      -1.587
      -2.005
      -3.491
      -5.438
      -6.858
      -7.125
      -6.319
      -4.967
      -3.570
      -2.362
      -1.377
      -0.605
      -0.036
       0.405
       0.923
       1.781
       3.051
       4.438
       5.448
       5.808
       5.684
       5.404
       5.016
       4.280
       3.089
       1.712
       0.553
      -0.244
      -0.863
      -1.568
      -2.437
      -3.318
      -4.005
      -4.437
      -4.690
      -4.803
      -4.659
      -4.119
      -3.311
      -2.641
      -2.391
      -2.285
      -1.617
       0.035
       2.265
       4.104
       4.876
       4.708
       4.235
       3.913
       3.701
       3.277
       2.465
       1.468
       0.749
       0.672
       1.166
       1.723
       1.770
       1.094
      -0.075
      -1.319
      -2.329
      -2.990
      -3.302
      -3.312
      -3.102
      -2.753
      -2.249
      -1.419
      -0.096
       1.531
       2.760
       2.766
       1.346
      -0.759
      -2.387
      -2.868
      -2.459
      -1.894
      -1.589
      -1.319
      -0.658
       0.382
       1.256
       1.430
       0.898
       0.097
      -0.582
      -1.053
      -1.330
      -1.292
      -0.756
       0.239
       1.365
       2.228
       2.661
       2.795
       2.885
       3.027
       3.033
       2.585
       1.568
       0.273
      -0.748
      -1.087
      -0.790
      -0.270
       0.073
       0.181
       0.298
       0.623
       1.004
       1.025
       0.429
      -0.554
      -1.326
      -1.388
      -0.704
       0.295
       1.006
       0.997
       0.231
      -0.925
      -1.922
      -2.344
      -2.106
      -1.416
      -0.586
       0.114
       0.489
       0.453
       0.099
      -0.301
      -0.487
      -0.438
      -0.373
      -0.480
      -0.668
      -0.602
      -0.025
       0.905
       1.613
       1.528
       0.595
      -0.666
      -1.664
      -2.260
      -2.726
      -3.238
      -3.581
      -3.415
      -2.745
      -1.960
      -1.406
      -1.028
      -0.503
       0.279
       0.995
       1.210
       0.908
       0.646
       1.070
       2.275
       3.641
       4.361
       4.153
       3.483
       3.081
       3.227
       3.484
       3.147
       1.969
       0.444
      -0.633
      -0.897
      -0.666
      -0.498
      -0.591
      -0.681
      -0.456
       0.055
       0.504
       0.513
      -0.043
      -0.943
      -1.720
      -1.932
      -1.439
      -0.511
       0.325
       0.611
       0.244
      -0.493
      -1.185
      -1.589
      -1.748
      -1.829
      -1.920
      -1.975
      -1.895
      -1.631
      -1.238
      -0.878
      -0.727
      -0.829
      -1.005
      -0.969
      -0.585
       0.007
       0.562
       0.997
       1.440
       2.000
       2.567
       2.905
       2.925
       2.769
       2.580
       2.271
       1.624
       0.636
      -0.331
      -0.857
      -0.875
      -0.712
      -0.739
      -1.040
      -1.441
      -1.766
      -1.993
      -2.167
      -2.248
      -2.105
      -1.659
      -1.005
      -0.372
       0.049
       0.237
       0.286
       0.283
       0.279
       0.355
       0.645
       1.209
       1.867
       2.222
       1.945
       1.114
       0.236
      -0.155
       0.046
       0.476
       0.734
       0.802
       0.984
       1.434
       1.852
       1.709
       0.775
      -0.605
      -1.758
      -2.200
      -1.952
      -1.407
      -0.943
      -0.673
      -0.504
      -0.366
      -0.302
      -0.357
      -0.450
      -0.403
      -0.117
       0.296
       0.570
       0.510
       0.191
      -0.065
       0.065
       0.613
       1.236
       1.446
       0.986
       0.072
      -0.744
      -1.010
      -0.754
      -0.451
      -0.563
      -1.086
      -1.534
      -1.399
      -0.629
       0.309
       0.819
       0.651
       0.057
      -0.423
      -0.365
       0.266
       1.107
       1.636
       1.500
       0.735
      -0.262
      -1.002
      -1.221
      -1.015
      -0.693
      -0.506
      -0.480
      -0.466
      -0.324
      -0.084
       0.051
      -0.107
      -0.512
      -0.844
      -0.753
      -0.189
       0.522
       0.958
       0.962
       0.736
       0.607
       0.713
       0.939
       1.099
       1.138
       1.108
       1.015
       0.771
       0.338
      -0.127
      -0.378
      -0.335
      -0.184
      -0.172
      -0.334
      -0.465
      -0.367
      -0.075
       0.173
       0.166
      -0.087
      -0.378
      -0.472
      -0.266
       0.180
       0.708
       1.127
       1.264
       1.034
       0.519
      -0.017
      -0.259
      -0.085
       0.289
       0.420
      -0.019
      -0.945
      -1.888
      -2.358
      -2.216
      -1.748
      -1.374
      -1.300
      -1.383
      -1.325
      -0.963
      -0.411
       0.050
       0.217
       0.128
       0.022
       0.135
       0.504
       0.966
       1.321
       1.487
       1.496
       1.381
       1.136
       0.770
       0.353
      -0.017
      -0.272
      -0.411
