Origin Time       09/2/2011 19:17:29	
Lat.              30.9 N	
Long.             78.2 E	
Depth (Km)         10.0
Magnitude         5.0
 Region           UTTARKASHI-UTTARAKHAND                                           
 Above details taken from IMD 
     
Station Code      DRC
Station Lat.       29.847  N
Station Long.      80.546  E
Station Height(m)  909.0
Site Class        A   Vs30 between 700 m/sec to 1400 m/sec * 
Record Time       09.12.2011 08:22:34.304
Sampling Rate     200. Hz
 Record Duration   67.565 Sec.
 Direction         E-W (E positive)
Max. Acceleration     -6.078 cm/sec**2
     
  * For reference see Site Classification link of website 
     
 Base Line Corrected and Low Pass Filtered (Cut Off at 35 Hz) Time History
 Acceleration data in cm/sec**2
    
[...]
       0.006
      -0.004
      -0.011
      -0.014
      -0.012
      -0.009
      -0.004
       0.006
       0.021
       0.030
       0.026
       0.011
      -0.005
      -0.013
      -0.014
      -0.007
       0.001
       0.005
       0.000
      -0.006
      -0.003
       0.011
       0.026
       0.032
       0.028
       0.021
       0.015
       0.012
       0.007
      -0.002
      -0.014
      -0.019
      -0.014
      -0.003
       0.005
       0.007
       0.001
      -0.008
      -0.014
      -0.011
       0.000
       0.012
       0.014
       0.007
       0.000
      -0.001
       0.002
       0.002
       0.000
      -0.001
       0.002
       0.011
       0.019
       0.018
       0.009
       0.005
       0.012
       0.021
       0.021
       0.010
      -0.004
      -0.011
      -0.012
      -0.010
      -0.006
       0.000
       0.006
       0.011
       0.012
       0.006
      -0.004
      -0.012
      -0.010
      -0.004
      -0.002
      -0.007
      -0.011
      -0.008
       0.000
       0.010
       0.018
       0.023
       0.022
       0.014
       0.001
      -0.013
      -0.024
      -0.025
      -0.014
      -0.001
       0.005
       0.004
       0.001
       0.002
       0.003
       0.002
      -0.004
      -0.014
      -0.024
      -0.026
      -0.014
       0.007
       0.024
       0.029
       0.025
       0.018
       0.011
       0.005
       0.000
      -0.001
      -0.001
       0.001
       0.004
       0.007
       0.008
       0.008
       0.011
       0.018
       0.023
       0.020
       0.008
      -0.005
      -0.009
      -0.003
       0.007
       0.014
       0.016
       0.017
       0.021
       0.022
       0.017
       0.007
       0.000
      -0.001
       0.001
       0.003
       0.004
       0.003
       0.000
      -0.006
      -0.007
      -0.002
       0.004
       0.007
       0.005
       0.005
       0.007
       0.008
       0.005
       0.001
      -0.005
      -0.009
      -0.008
       0.001
       0.010
       0.015
       0.013
       0.008
       0.004
       0.002
       0.003
       0.002
      -0.004
      -0.011
      -0.013
      -0.008
      -0.004
      -0.003
      -0.004
       0.001
       0.011
       0.019
       0.023
       0.020
       0.012
       0.001
      -0.009
      -0.014
      -0.015
      -0.012
      -0.005
       0.005
       0.015
       0.016
       0.011
       0.004
      -0.001
      -0.003
      -0.003
      -0.002
      -0.001
      -0.001
       0.002
       0.011
       0.021
       0.026
       0.023
       0.013
       0.000
      -0.008
      -0.009
      -0.005
      -0.005
      -0.009
      -0.009
       0.003
       0.018
       0.024
       0.017
       0.006
       0.002
       0.009
       0.021
       0.028
       0.019
      -0.003
      -0.025
      -0.030
      -0.016
       0.004
       0.018
       0.022
       0.021
       0.019
       0.018
       0.018
       0.015
       0.007
      -0.002
      -0.008
      -0.011
      -0.010
      -0.004
       0.005
       0.013
       0.015
       0.011
       0.008
       0.004
      -0.002
      -0.009
      -0.013
      -0.014
      -0.012
      -0.005
       0.008
       0.022
       0.025
       0.019
       0.009
      -0.002
      -0.014
      -0.023
      -0.022
      -0.011
      -0.001
      -0.001
      -0.007
      -0.010
      -0.006
       0.004
       0.015
       0.019
       0.014
       0.003
      -0.002
       0.001
       0.009
       0.014
       0.014
       0.011
       0.008
       0.005
      -0.002
      -0.016
      -0.034
      -0.043
      -0.033
      -0.011
       0.006
       0.009
       0.006
       0.004
       0.007
       0.012
       0.015
       0.015
       0.009
      -0.001
      -0.008
      -0.010
      -0.005
       0.002
       0.012
       0.018
       0.017
       0.007
      -0.004
      -0.010
      -0.010
      -0.007
      -0.004
      -0.006
      -0.010
      -0.011
      -0.002
       0.013
       0.021
       0.019
       0.013
       0.007
       0.001
      -0.007
      -0.014
      -0.017
      -0.015
      -0.009
       0.000
       0.009
       0.011
       0.005
      -0.001
       0.000
       0.012
       0.025
       0.030
       0.020
       0.001
      -0.013
      -0.012
      -0.003
      -0.002
      -0.016
      -0.033
      -0.032
      -0.011
       0.014
       0.022
       0.007
      -0.017
      -0.027
      -0.017
       0.001
       0.008
       0.006
       0.004
       0.008
       0.008
      -0.003
      -0.020
      -0.029
      -0.028
      -0.018
      -0.003
       0.016
       0.028
       0.026
       0.010
      -0.004
      -0.005
       0.007
       0.019
       0.024
       0.017
       0.004
      -0.010
      -0.017
      -0.017
      -0.013
      -0.005
       0.005
       0.010
       0.002
      -0.012
      -0.019
      -0.015
      -0.005
       0.007
       0.015
       0.015
       0.004
      -0.010
      -0.016
      -0.010
       0.004
       0.019
       0.025
       0.018
       0.001
      -0.014
      -0.018
      -0.012
      -0.003
       0.004
       0.004
      -0.004
      -0.014
      -0.015
      -0.004
       0.010
       0.016
       0.010
       0.001
      -0.008
      -0.012
      -0.009
       0.001
       0.011
       0.015
       0.011
       0.004
       0.001
       0.003
       0.008
       0.008
       0.002
      -0.007
      -0.015
      -0.016
      -0.013
      -0.010
      -0.005
      -0.001
       0.001
       0.000
       0.000
       0.004
       0.006
       0.000
      -0.010
      -0.014
      -0.009
      -0.002
      -0.001
      -0.007
      -0.014
      -0.017
      -0.013
      -0.004
       0.006
       0.009
       0.006
      -0.001
      -0.007
      -0.008
       0.000
       0.014
       0.024
       0.022
       0.010
      -0.006
      -0.018
      -0.021
      -0.015
      -0.002
       0.013
       0.020
       0.019
       0.014
       0.006
      -0.005
      -0.013
      -0.015
      -0.012
      -0.008
      -0.002
       0.006
       0.012
       0.005
      -0.010
      -0.019
      -0.015
      -0.002
       0.007
       0.006
      -0.003
      -0.014
      -0.015
       0.001
       0.023
       0.034
       0.027
       0.010
      -0.005
      -0.015
      -0.021
      -0.025
      -0.022
      -0.009
       0.013
       0.033
       0.039
       0.027
       0.007
      -0.007
      -0.011
      -0.010
      -0.008
      -0.003
       0.005
       0.014
       0.020
       0.020
       0.015
       0.007
       0.000
      -0.002
      -0.002
      -0.004
      -0.009
      -0.011
      -0.009
      -0.001
       0.010
       0.023
       0.032
       0.030
       0.018
       0.002
      -0.010
      -0.018
      -0.025
      -0.029
      -0.026
      -0.014
       0.003
       0.020
       0.029
       0.029
       0.021
       0.014
       0.008
       0.002
      -0.007
      -0.012
      -0.011
      -0.005
       0.004
       0.011
       0.016
       0.013
       0.005
      -0.003
      -0.006
      -0.003
       0.001
       0.005
       0.007
       0.006
       0.001
      -0.001
       0.006
       0.021
       0.033
       0.031
       0.014
      -0.010
      -0.025
      -0.020
       0.005
       0.031
       0.038
       0.022
      -0.006
      -0.029
      -0.037
      -0.027
      -0.008
       0.010
       0.018
       0.013
       0.002
      -0.005
      -0.003
       0.006
       0.017
       0.021
       0.014
       0.003
      -0.004
      -0.008
      -0.011
      -0.012
      -0.009
      -0.003
       0.003
       0.007
       0.007
       0.002
      -0.007
      -0.014
      -0.013
      -0.004
       0.006
       0.010
       0.008
       0.003
       0.000
       0.002
       0.007
       0.008
       0.001
      -0.010
      -0.016
      -0.017
      -0.014
      -0.010
      -0.005
       0.001
       0.006
       0.011
       0.016
       0.018
       0.015
       0.005
      -0.006
      -0.014
      -0.016
      -0.010
       0.001
       0.007
       0.004
      -0.004
      -0.006
       0.003
       0.017
       0.028
       0.030
       0.022
       0.008
      -0.002
       0.000
       0.009
       0.015
       0.011
       0.002
      -0.005
      -0.007
      -0.005
      -0.003
       0.000
       0.002
       0.005
       0.010
       0.010
       0.003
      -0.007
      -0.010
      -0.003
       0.007
       0.012
       0.001
      -0.030
      -0.070
      -0.086
      -0.049
       0.026
       0.065
       0.003
      -0.140
      -0.245
      -0.205
      -0.052
       0.067
       0.044
      -0.065
      -0.098
       0.031
       0.233
       0.344
       0.286
       0.108
      -0.064
      -0.119
      -0.051
       0.034
       0.024
      -0.107
      -0.287
      -0.400
      -0.355
      -0.165
       0.031
       0.079
      -0.007
      -0.054
       0.058
       0.279
       0.508
       0.718
       0.919
       1.040
       0.946
       0.590
       0.166
      -0.002
       0.197
       0.463
       0.375
      -0.129
      -0.683
      -0.919
      -0.865
      -0.884
      -1.216
      -1.648
      -1.694
      -1.129
      -0.271
       0.308
       0.363
       0.185
       0.203
       0.461
       0.632
       0.464
       0.099
      -0.112
       0.002
       0.301
       0.546
       0.644
       0.673
       0.720
       0.756
       0.661
       0.355
      -0.135
      -0.671
      -1.053
      -1.088
      -0.726
      -0.157
       0.290
       0.403
       0.242
       0.054
       0.047
       0.217
       0.337
       0.164
      -0.268
      -0.582
      -0.379
       0.309
       0.953
       1.003
       0.435
      -0.242
      -0.523
      -0.378
      -0.183
      -0.245
      -0.467
      -0.507
      -0.203
       0.254
       0.547
       0.542
       0.314
      -0.017
      -0.370
      -0.639
      -0.675
      -0.430
      -0.074
       0.125
       0.062
      -0.105
      -0.130
       0.054
       0.253
       0.227
      -0.037
      -0.304
      -0.328
      -0.083
       0.247
       0.454
       0.473
       0.384
       0.309
       0.302
       0.326
       0.337
       0.374
       0.504
       0.662
       0.640
       0.282
      -0.322
      -0.881
      -1.141
      -1.069
      -0.835
      -0.636
      -0.525
      -0.426
      -0.277
      -0.090
       0.121
       0.374
       0.645
       0.824
       0.822
       0.696
       0.606
       0.642
       0.714
       0.626
       0.275
      -0.225
      -0.650
      -0.881
      -1.000
      -1.138
      -1.276
      -1.252
      -0.969
      -0.549
      -0.232
      -0.135
      -0.149
      -0.060
       0.247
       0.710
       1.169
       1.471
       1.534
       1.377
       1.092
       0.783
       0.509
       0.295
       0.166
       0.122
       0.104
       0.011
      -0.207
      -0.498
      -0.753
      -0.907
      -0.977
      -1.003
      -0.969
      -0.827
      -0.576
      -0.302
      -0.114
      -0.044
      -0.017
       0.055
       0.163
       0.208
       0.130
      -0.011
      -0.080
       0.009
       0.205
       0.354
       0.354
       0.273
       0.263
       0.380
       0.513
       0.510
       0.318
       0.018
      -0.236
      -0.326
      -0.270
      -0.184
      -0.145
      -0.122
      -0.055
       0.078
       0.255
       0.432
       0.546
       0.539
       0.386
       0.118
      -0.182
      -0.419
      -0.541
      -0.566
      -0.536
      -0.498
      -0.480
      -0.472
      -0.444
      -0.364
      -0.229
      -0.066
       0.103
       0.302
       0.567
       0.860
       1.048
       1.014
       0.794
       0.546
       0.369
       0.215
       0.005
      -0.210
      -0.300
      -0.251
      -0.248
      -0.493
      -0.959
      -1.349
      -1.323
      -0.786
       0.023
       0.656
       0.751
       0.312
      -0.236
      -0.362
       0.135
       0.942
       1.476
       1.373
       0.775
       0.120
      -0.292
      -0.521
      -0.804
      -1.222
      -1.548
      -1.451
      -0.882
      -0.219
       0.035
      -0.259
      -0.723
      -0.834
      -0.442
       0.098
       0.343
       0.228
       0.084
       0.222
       0.620
       1.078
       1.478
       1.745
       1.740
       1.438
       1.165
       1.370
       2.073
       2.683
       2.563
       1.769
       1.006
       0.739
       0.630
       0.118
      -0.701
      -1.188
      -1.095
      -0.976
      -1.494
      -2.538
      -3.254
      -2.953
      -1.883
      -1.008
      -1.048
      -1.808
      -2.440
      -2.258
      -1.267
      -0.031
       0.882
       1.314
       1.467
       1.510
       1.385
       1.075
       0.810
       0.779
       0.762
       0.347
      -0.483
      -1.216
      -1.393
      -1.201
      -1.260
      -1.810
      -2.262
      -1.718
       0.019
       2.077
       3.282
       3.191
       2.295
       1.373
       0.900
       0.964
       1.368
       1.688
       1.488
       0.686
      -0.377
      -1.301
      -1.971
      -2.525
      -3.072
      -3.520
      -3.633
      -3.224
      -2.278
      -0.974
       0.421
       1.677
       2.638
       3.210
       3.395
       3.375
       3.448
       3.782
       4.191
       4.195
       3.361
       1.659
      -0.471
      -2.425
      -3.869
      -4.880
      -5.650
      -6.078
      -5.817
      -4.784
      -3.426
      -2.284
      -1.421
      -0.523
       0.508
       1.359
       1.823
       2.234
       3.143
       4.544
       5.698
       5.842
       4.916
       3.501
       2.158
       1.021
      -0.034
      -1.008
      -1.692
      -1.924
      -1.843
      -1.763
      -1.784
      -1.637
      -1.058
      -0.210
       0.436
       0.661
       0.727
       0.965
       1.272
       1.201
       0.519
      -0.461
      -1.141
      -1.147
      -0.590
       0.058
       0.261
      -0.283
      -1.482
      -2.890
      -3.911
      -4.085
      -3.309
      -1.898
      -0.429
       0.594
       1.108
       1.520
       2.185
       2.823
       2.655
       1.302
      -0.552
      -1.620
      -1.222
       0.023
       0.794
       0.318
      -0.989
      -2.031
      -2.033
      -1.056
       0.223
       1.023
       0.884
      -0.088
      -1.249
      -1.792
      -1.295
       0.007
       1.477
       2.632
       3.459
       4.192
       4.878
       5.244
       4.960
       3.957
       2.468
       0.845
      -0.646
      -1.895
      -2.867
      -3.505
      -3.767
      -3.718
      -3.455
      -2.939
      -2.057
      -0.920
       0.027
       0.374
       0.190
      -0.021
       0.179
       0.772
       1.376
       1.629
       1.446
       0.971
       0.350
      -0.411
      -1.337
      -2.305
      -3.049
      -3.353
      -3.156
      -2.495
      -1.458
      -0.209
       1.041
       2.117
       2.851
       3.026
       2.517
       1.559
       0.699
       0.337
       0.348
       0.290
      -0.021
      -0.296
      -0.150
       0.413
       0.989
       1.201
       1.046
       0.815
       0.766
       0.897
       0.988
       0.819
       0.358
      -0.195
      -0.585
      -0.746
      -0.853
      -1.077
      -1.326
      -1.311
      -0.885
      -0.254
       0.185
       0.199
      -0.113
      -0.446
      -0.571
      -0.512
      -0.475
      -0.634
      -0.989
      -1.383
      -1.631
      -1.628
      -1.390
      -0.993
      -0.501
       0.063
       0.702
       1.367
       1.876
       1.925
       1.311
       0.193
      -0.899
      -1.406
      -1.182
      -0.586
      -0.105
       0.137
       0.447
       1.096
       1.873
       2.222
       1.843
       1.039
       0.420
       0.310
       0.537
       0.737
       0.743
       0.666
       0.680
       0.795
       0.825
       0.528
      -0.185
      -1.122
      -1.861
      -1.982
      -1.374
      -0.361
       0.519
       0.932
       0.972
       0.901
       0.740
       0.247
      -0.655
      -1.545
      -1.794
      -1.221
      -0.383
      -0.077
      -0.582
      -1.445
      -1.980
      -1.880
      -1.364
      -0.854
      -0.551
      -0.300
       0.191
       0.995
       1.826
       2.276
       2.163
       1.660
       1.093
       0.688
       0.466
       0.315
       0.140
      -0.080
      -0.326
      -0.589
      -0.828
      -0.948
      -0.882
      -0.677
      -0.453
      -0.264
      -0.020
       0.438
       1.159
       1.933
       2.320
       1.954
       0.932
      -0.162
      -0.729
      -0.689
      -0.484
      -0.565
      -0.937
      -1.221
      -1.113
      -0.708
      -0.371
      -0.343
      -0.523
      -0.638
      -0.559
      -0.385
      -0.258
      -0.185
      -0.087
       0.045
       0.132
       0.144
       0.169
       0.288
       0.422
       0.399
       0.170
      -0.100
      -0.209
      -0.148
      -0.094
      -0.181
      -0.323
      -0.306
      -0.070
       0.184
       0.203
      -0.019
      -0.233
      -0.191
       0.111
       0.475
       0.722
       0.871
       1.089
       1.473
       1.891
       2.074
       1.869
       1.393
       0.922
       0.618
       0.402
       0.092
      -0.359
      -0.806
      -1.082
      -1.167
      -1.188
      -1.275
      -1.439
      -1.573
      -1.556
      -1.353
      -1.025
      -0.669
      -0.351
      -0.081
       0.157
       0.365
       0.512
       0.579
       0.594
       0.615
       0.625
       0.508
       0.166
      -0.347
      -0.825
      -1.057
      -0.958
      -0.578
      -0.048
       0.455
       0.724
       0.613
       0.172
      -0.311
      -0.477
      -0.169
       0.418
       0.891
       1.005
       0.882
       0.845
       1.061
       1.352
       1.365
       0.914
       0.176
      -0.457
      -0.731
      -0.739
      -0.765
      -0.968
      -1.247
      -1.394
      -1.326
      -1.142
      -0.966
      -0.789
      -0.516
      -0.154
       0.129
       0.183
       0.065
       0.020
       0.247
       0.715
       1.187
       1.417
       1.336
       1.072
       0.798
       0.569
       0.319
      -0.011
      -0.353
      -0.585
      -0.676
      -0.731
      -0.859
      -1.052
      -1.197
      -1.174
      -0.936
      -0.543
      -0.133
       0.163
       0.324
       0.431
       0.564
       0.731
       0.872
       0.930
       0.897
       0.816
       0.714
       0.548
       0.277
      -0.055
      -0.331
      -0.482
      -0.544
      -0.593
      -0.646
      -0.653
      -0.548
      -0.295
       0.095
       0.535
       0.872
       0.969
       0.814
       0.562
       0.438
       0.554
       0.796
       0.906
       0.720
       0.312
      -0.107
      -0.412
      -0.646
      -0.873
      -1.038
      -1.034
      -0.887
      -0.792
      -0.890
      -1.066
      -1.027
      -0.612
       0.028
       0.575
       0.858
       0.970
       1.086
       1.239
       1.301
       1.155
       0.812
       0.383
       0.005
      -0.212
      -0.244
      -0.183
      -0.190
      -0.355
      -0.603
      -0.746
