Origin Time       09/2/2011 19:17:29	
Lat.              30.9 N	
Long.             78.2 E	
Depth (Km)         10.0
Magnitude         5.0
 Region           UTTARKASHI-UTTARAKHAND                                           
 Above details taken from IMD 
   
Station Code      DRC
Station Lat.       29.847
Station Long.      80.546
Station Height(m)  909.0
Site Class        A   Vs30 between 700 m/sec to 1400 m/sec * 
Record Time       09.12.2011 08:22:34.304
Sampling Rate     200. Hz
 Record Duration   67.565 Sec.
 Direction         Vert. (Up positive)
Max. Acceleration     -5.383 cm/sec**2
     
  * For reference see Site Classification link of website 
     
 Base Line Corrected and Low Pass Filtered (Cut Off at 35 Hz) Time History
 Acceleration data in cm/sec**2
    
[...]
      -0.010
      -0.024
      -0.015
       0.007
       0.021
       0.018
       0.006
      -0.003
      -0.007
      -0.005
      -0.002
       0.000
      -0.001
      -0.003
      -0.003
      -0.006
      -0.012
      -0.013
       0.002
       0.023
       0.030
       0.012
      -0.017
      -0.037
      -0.037
      -0.019
       0.004
       0.018
       0.020
       0.018
       0.018
       0.013
      -0.001
      -0.017
      -0.019
      -0.007
       0.006
       0.006
      -0.003
      -0.010
      -0.008
       0.002
       0.011
       0.010
       0.001
       0.001
       0.013
       0.025
       0.015
      -0.013
      -0.033
      -0.026
       0.002
       0.028
       0.038
       0.030
       0.013
       0.002
      -0.001
      -0.001
      -0.006
      -0.009
      -0.002
       0.007
       0.004
      -0.015
      -0.032
      -0.030
      -0.006
       0.024
       0.041
       0.035
       0.011
      -0.009
      -0.011
       0.002
       0.015
       0.020
       0.016
       0.006
      -0.009
      -0.022
      -0.023
      -0.009
       0.009
       0.021
       0.021
       0.009
      -0.010
      -0.024
      -0.023
      -0.008
       0.006
       0.011
       0.007
      -0.001
      -0.006
      -0.004
       0.011
       0.027
       0.027
       0.003
      -0.029
      -0.047
      -0.042
      -0.021
       0.004
       0.019
       0.017
       0.003
      -0.008
      -0.008
      -0.002
       0.006
       0.010
       0.007
      -0.004
      -0.019
      -0.030
      -0.029
      -0.020
      -0.004
       0.011
       0.017
       0.008
      -0.009
      -0.016
      -0.007
       0.006
       0.007
      -0.004
      -0.017
      -0.022
      -0.017
      -0.003
       0.014
       0.022
       0.015
       0.001
      -0.010
      -0.016
      -0.019
      -0.016
      -0.009
      -0.004
      -0.007
      -0.012
      -0.010
      -0.002
       0.007
       0.010
       0.004
      -0.006
      -0.015
      -0.012
      -0.002
       0.005
       0.002
      -0.007
      -0.014
      -0.019
      -0.022
      -0.020
      -0.008
       0.005
       0.009
       0.001
      -0.013
      -0.027
      -0.031
      -0.019
       0.006
       0.029
       0.033
       0.022
       0.009
       0.002
      -0.003
      -0.007
      -0.010
      -0.016
      -0.022
      -0.022
      -0.012
       0.005
       0.017
       0.021
       0.016
       0.002
      -0.016
      -0.026
      -0.017
       0.005
       0.025
       0.032
       0.027
       0.014
      -0.001
      -0.012
      -0.018
      -0.020
      -0.022
      -0.021
      -0.016
      -0.010
      -0.007
      -0.001
       0.014
       0.032
       0.045
       0.044
       0.029
       0.004
      -0.021
      -0.032
      -0.021
       0.002
       0.015
       0.011
       0.001
      -0.006
      -0.011
      -0.014
      -0.013
      -0.007
      -0.002
       0.000
      -0.001
      -0.005
      -0.006
       0.005
       0.028
       0.049
       0.050
       0.032
       0.008
      -0.009
      -0.014
      -0.007
       0.005
       0.013
       0.007
      -0.007
      -0.015
      -0.009
       0.005
       0.018
       0.023
       0.015
      -0.005
      -0.021
      -0.021
      -0.005
       0.010
       0.016
       0.017
       0.021
       0.027
       0.029
       0.025
       0.016
       0.002
      -0.009
      -0.012
      -0.011
      -0.014
      -0.020
      -0.019
      -0.012
      -0.006
      -0.005
      -0.001
       0.011
       0.026
       0.032
       0.024
       0.005
      -0.012
      -0.017
      -0.007
       0.003
       0.003
      -0.003
      -0.002
       0.007
       0.011
      -0.001
      -0.018
      -0.023
      -0.013
       0.003
       0.010
       0.001
      -0.016
      -0.024
      -0.008
       0.021
       0.039
       0.033
       0.015
       0.002
      -0.002
      -0.002
       0.002
       0.008
       0.013
       0.010
       0.000
      -0.008
      -0.007
       0.004
       0.015
       0.014
      -0.003
      -0.022
      -0.024
      -0.007
       0.010
       0.012
       0.004
       0.000
       0.003
       0.009
       0.014
       0.020
       0.028
       0.032
       0.028
       0.008
      -0.021
      -0.041
      -0.028
       0.013
       0.043
       0.030
      -0.015
      -0.050
      -0.039
       0.006
       0.045
       0.041
       0.002
      -0.032
      -0.027
       0.006
       0.029
       0.019
      -0.003
      -0.006
       0.011
       0.023
       0.013
      -0.011
      -0.028
      -0.021
       0.003
       0.020
       0.011
      -0.016
      -0.028
      -0.006
       0.031
       0.049
       0.035
       0.007
      -0.013
      -0.017
      -0.010
       0.001
       0.012
       0.019
       0.018
       0.004
      -0.018
      -0.031
      -0.015
       0.025
       0.057
       0.052
       0.017
      -0.016
      -0.025
      -0.014
      -0.002
      -0.005
      -0.019
      -0.028
      -0.017
       0.009
       0.027
       0.022
       0.009
       0.009
       0.020
       0.025
       0.011
      -0.011
      -0.021
      -0.013
       0.005
       0.015
       0.007
      -0.011
      -0.019
      -0.009
       0.006
       0.009
       0.002
      -0.005
      -0.004
       0.000
       0.005
       0.013
       0.018
       0.014
       0.001
      -0.011
      -0.013
      -0.001
       0.019
       0.036
       0.037
       0.018
      -0.004
      -0.014
      -0.008
      -0.003
      -0.006
      -0.014
      -0.018
      -0.018
      -0.013
      -0.006
       0.001
       0.005
       0.007
       0.007
       0.000
      -0.013
      -0.017
       0.001
       0.028
       0.038
       0.019
      -0.012
      -0.027
      -0.018
       0.003
       0.019
       0.019
       0.009
       0.003
       0.008
       0.012
       0.004
      -0.010
      -0.013
       0.004
       0.023
       0.024
       0.006
      -0.016
      -0.024
      -0.011
       0.012
       0.022
       0.013
      -0.005
      -0.013
      -0.007
      -0.003
      -0.006
      -0.007
       0.000
       0.010
       0.012
       0.005
      -0.004
      -0.006
       0.003
       0.021
       0.031
       0.018
      -0.011
      -0.032
      -0.026
      -0.002
       0.020
       0.028
       0.025
       0.016
       0.005
      -0.007
      -0.019
      -0.027
      -0.021
       0.001
       0.028
       0.037
       0.023
      -0.003
      -0.023
      -0.028
      -0.020
      -0.007
       0.003
       0.003
      -0.003
      -0.005
       0.001
       0.007
       0.007
       0.000
      -0.009
      -0.020
      -0.025
      -0.015
       0.012
       0.036
       0.040
       0.023
       0.000
      -0.019
      -0.027
      -0.023
      -0.011
      -0.001
       0.004
       0.004
       0.004
       0.000
      -0.010
      -0.017
      -0.016
      -0.010
      -0.006
      -0.009
      -0.019
      -0.031
      -0.034
      -0.022
       0.001
       0.019
       0.023
       0.019
       0.017
       0.016
       0.010
       0.000
      -0.006
      -0.003
       0.003
       0.008
       0.006
      -0.007
      -0.024
      -0.029
      -0.016
       0.003
       0.011
       0.005
      -0.004
      -0.007
      -0.003
       0.002
       0.002
      -0.004
      -0.013
      -0.013
       0.001
       0.019
       0.026
       0.019
       0.007
      -0.004
      -0.014
      -0.018
      -0.014
      -0.005
       0.004
       0.011
       0.016
       0.014
       0.002
      -0.011
      -0.012
       0.000
       0.012
       0.015
       0.008
      -0.002
      -0.007
       0.000
       0.015
       0.027
       0.025
       0.016
       0.014
       0.018
       0.017
       0.006
      -0.008
      -0.018
      -0.020
      -0.016
      -0.007
       0.001
       0.006
       0.012
       0.020
       0.023
       0.012
      -0.005
      -0.012
      -0.003
       0.014
       0.031
       0.040
       0.034
       0.012
      -0.015
      -0.029
      -0.027
      -0.016
      -0.005
       0.004
       0.010
       0.009
       0.007
       0.013
       0.024
       0.028
       0.018
       0.004
      -0.002
      -0.002
       0.000
      -0.002
      -0.006
      -0.006
       0.005
       0.025
       0.038
       0.030
       0.008
      -0.008
      -0.010
      -0.005
      -0.003
      -0.005
      -0.009
      -0.013
      -0.013
      -0.005
       0.008
       0.017
       0.023
       0.027
       0.026
       0.015
      -0.002
      -0.012
      -0.009
       0.002
       0.013
       0.022
       0.029
       0.028
       0.018
       0.002
      -0.014
      -0.023
      -0.018
      -0.002
       0.013
       0.012
      -0.005
      -0.020
      -0.020
      -0.006
       0.008
       0.015
       0.014
       0.007
       0.002
       0.007
       0.017
       0.022
       0.018
       0.014
       0.018
       0.021
       0.012
      -0.010
      -0.035
      -0.048
      -0.039
      -0.007
       0.025
       0.031
       0.006
      -0.024
      -0.028
      -0.004
       0.025
       0.034
       0.021
       0.004
       0.003
       0.019
       0.029
       0.007
      -0.035
      -0.059
      -0.040
       0.000
       0.027
       0.031
       0.029
       0.034
       0.040
       0.031
       0.001
      -0.035
      -0.050
      -0.027
       0.019
       0.052
       0.046
       0.008
      -0.028
      -0.036
      -0.015
       0.014
       0.029
       0.022
       0.006
      -0.002
       0.009
       0.027
       0.038
       0.036
       0.021
      -0.008
      -0.041
      -0.061
      -0.048
      -0.007
       0.038
       0.062
       0.054
       0.022
      -0.010
      -0.018
       0.000
       0.022
       0.025
       0.010
      -0.005
      -0.008
      -0.001
       0.006
       0.009
       0.005
      -0.003
      -0.008
      -0.008
      -0.004
      -0.002
       0.003
       0.013
       0.020
       0.016
       0.007
       0.003
       0.005
       0.008
       0.006
       0.004
       0.006
       0.010
       0.014
       0.018
       0.017
       0.008
      -0.005
      -0.012
      -0.013
      -0.011
      -0.004
       0.013
       0.030
       0.032
       0.014
      -0.011
      -0.022
      -0.009
       0.020
       0.045
       0.043
       0.014
      -0.015
      -0.017
       0.009
       0.041
       0.054
       0.044
       0.018
      -0.015
      -0.042
      -0.046
      -0.021
       0.020
       0.054
       0.058
       0.024
      -0.029
      -0.062
      -0.046
       0.004
       0.046
       0.051
       0.025
      -0.003
      -0.013
       0.000
       0.022
       0.032
       0.019
      -0.007
      -0.026
      -0.030
      -0.023
      -0.012
       0.003
       0.016
       0.021
       0.020
       0.027
       0.044
       0.054
       0.040
       0.004
      -0.030
      -0.038
      -0.011
       0.030
       0.050
       0.028
      -0.014
      -0.037
      -0.026
      -0.008
      -0.010
      -0.027
      -0.034
      -0.013
       0.025
       0.049
       0.039
       0.002
      -0.028
      -0.027
      -0.004
       0.012
       0.009
       0.002
       0.009
       0.027
       0.035
       0.021
      -0.007
      -0.031
      -0.038
      -0.029
      -0.018
      -0.015
      -0.017
      -0.011
       0.001
       0.007
       0.001
      -0.005
       0.001
       0.014
       0.019
       0.010
      -0.005
      -0.014
      -0.013
      -0.006
      -0.003
      -0.008
      -0.014
      -0.004
       0.021
       0.037
       0.028
       0.002
      -0.019
      -0.022
      -0.011
       0.001
       0.004
      -0.002
      -0.010
      -0.009
       0.001
       0.009
       0.009
       0.007
       0.008
       0.008
      -0.002
      -0.016
      -0.021
      -0.012
       0.009
       0.028
       0.032
       0.015
      -0.011
      -0.025
      -0.017
       0.003
       0.015
       0.011
      -0.001
      -0.015
      -0.025
      -0.025
      -0.012
       0.007
       0.024
       0.034
       0.035
       0.023
       0.000
      -0.019
      -0.019
      -0.003
       0.014
       0.019
       0.008
      -0.010
      -0.024
      -0.026
      -0.017
      -0.008
      -0.004
      -0.001
       0.007
       0.014
       0.012
       0.005
       0.000
       0.000
       0.000
      -0.004
      -0.012
      -0.021
      -0.024
      -0.017
      -0.001
       0.009
       0.003
      -0.011
      -0.016
      -0.013
      -0.012
      -0.015
      -0.018
      -0.012
      -0.002
       0.008
       0.012
       0.007
      -0.004
      -0.014
      -0.019
      -0.023
      -0.026
      -0.024
      -0.013
       0.001
       0.005
      -0.003
      -0.014
      -0.018
      -0.014
      -0.006
       0.001
       0.000
      -0.009
      -0.016
      -0.009
       0.005
       0.012
       0.009
       0.004
       0.001
      -0.005
      -0.014
      -0.021
      -0.017
      -0.004
       0.010
       0.013
      -0.001
      -0.021
      -0.021
       0.015
       0.056
       0.046
      -0.035
      -0.108
      -0.029
       0.286
       0.720
       0.954
       0.697
       0.029
      -0.502
      -0.285
       0.705
       1.721
       1.865
       0.966
      -0.226
      -0.835
      -0.851
      -1.175
      -2.538
      -4.447
      -5.383
      -4.155
      -1.150
       1.834
       3.162
       2.798
       2.029
       1.911
       2.242
       2.066
       0.940
      -0.502
      -1.242
      -1.023
      -0.596
      -0.767
      -1.319
      -1.162
       0.289
       2.070
       2.386
       0.500
      -2.231
      -3.362
      -1.612
       1.749
       3.887
       3.043
       0.223
      -1.879
      -1.518
       0.571
       2.072
       1.395
      -0.853
      -2.623
      -2.499
      -0.927
       0.504
       0.753
       0.175
      -0.190
       0.146
       0.731
       0.892
       0.549
       0.211
       0.275
       0.507
       0.368
      -0.228
      -0.707
      -0.476
       0.345
       0.958
       0.631
      -0.559
      -1.751
      -2.085
      -1.467
      -0.581
      -0.194
      -0.458
      -0.823
      -0.591
       0.439
       1.820
       2.821
       2.914
       2.032
       0.552
      -0.913
      -1.767
      -1.708
      -0.914
       0.038
       0.534
       0.322
      -0.344
      -0.875
      -0.791
      -0.126
       0.597
       0.807
       0.338
      -0.444
      -0.949
      -0.865
      -0.381
       0.069
       0.223
       0.175
       0.212
       0.494
       0.874
       1.017
       0.706
       0.036
      -0.654
      -1.039
      -0.996
      -0.608
      -0.059
       0.462
       0.836
       1.055
       1.147
       1.083
       0.782
       0.214
      -0.514
      -1.173
      -1.527
      -1.491
      -1.174
      -0.781
      -0.472
      -0.275
      -0.122
       0.057
       0.286
       0.572
       0.903
       1.185
       1.236
       0.926
       0.339
      -0.233
      -0.487
      -0.348
      -0.031
       0.139
       0.020
      -0.222
      -0.279
      -0.019
       0.354
       0.472
       0.142
      -0.460
      -0.926
      -0.988
      -0.774
      -0.662
      -0.810
      -0.915
      -0.510
       0.468
       1.488
       1.878
       1.456
       0.667
       0.094
      -0.097
      -0.196
      -0.495
      -0.868
      -0.883
      -0.323
       0.458
       0.805
       0.432
      -0.249
      -0.545
      -0.213
       0.295
       0.353
      -0.134
      -0.591
      -0.392
       0.427
       1.132
       1.010
       0.075
      -0.976
      -1.449
      -1.224
      -0.691
      -0.239
       0.094
       0.470
       0.859
       0.962
       0.576
      -0.056
      -0.417
      -0.230
       0.233
       0.427
       0.128
      -0.280
      -0.199
       0.512
       1.335
       1.575
       0.979
      -0.102
      -1.077
      -1.558
      -1.509
      -1.092
      -0.513
      -0.032
       0.066
      -0.292
      -0.742
      -0.680
       0.190
       1.456
       2.218
       1.872
       0.747
      -0.139
      -0.069
       0.640
       0.951
       0.156
      -1.384
      -2.536
      -2.459
      -1.357
      -0.208
       0.187
      -0.109
      -0.377
      -0.049
       0.769
       1.530
       1.818
       1.588
       0.958
      -0.009
      -1.166
      -2.013
      -1.855
      -0.482
       1.334
       2.275
       1.636
       0.069
      -0.929
      -0.410
       1.084
       1.974
       1.060
      -1.386
      -3.789
      -4.488
      -2.932
       0.042
       2.834
       4.054
       3.283
       1.246
      -0.745
      -1.692
      -1.491
      -0.885
      -0.826
      -1.663
      -2.785
      -3.096
      -1.960
       0.187
       2.092
       2.695
       1.966
       0.793
       0.123
       0.330
       1.236
       2.471
       3.632
       4.209
       3.704
       2.022
      -0.257
      -2.119
      -2.797
      -2.415
      -1.922
      -2.159
      -2.993
      -3.496
      -2.940
      -1.531
      -0.211
       0.299
       0.279
       0.679
       1.966
       3.471
       3.975
       2.961
       1.211
       0.031
      -0.080
       0.184
      -0.139
      -1.192
      -2.179
      -2.161
      -0.949
       0.678
       1.635
       1.397
       0.253
      -1.161
      -2.413
      -3.288
      -3.443
      -2.514
      -0.746
       0.824
       1.135
       0.098
      -1.218
      -1.491
      -0.308
       1.543
       2.893
       3.174
       2.635
       1.852
       1.195
       0.665
       0.117
      -0.455
      -0.836
      -0.772
      -0.242
       0.395
       0.558
      -0.101
      -1.284
      -2.163
      -2.014
      -0.822
       0.694
       1.605
       1.380
       0.205
      -1.150
      -1.824
      -1.436
      -0.318
       0.767
       1.180
       0.857
       0.343
       0.365
       1.213
       2.422
       3.040
       2.368
       0.627
      -1.084
      -1.615
      -0.774
       0.455
       0.793
      -0.162
      -1.595
      -2.275
      -1.741
      -0.705
      -0.286
      -0.893
      -1.960
      -2.664
      -2.697
      -2.279
      -1.619
      -0.666
       0.567
       1.693
       2.202
       2.007
       1.624
       1.739
       2.544
       3.519
       3.893
       3.311
       2.050
       0.639
      -0.632
      -1.822
      -2.956
      -3.660
      -3.363
      -1.935
      -0.019
       1.373
       1.626
       0.982
       0.315
       0.409
       1.337
       2.418
       2.755
       1.880
       0.015
      -2.102
      -3.605
      -3.862
      -2.750
      -0.754
       1.159
       1.949
       1.107
      -0.906
      -2.870
      -3.645
      -2.961
      -1.556
      -0.558
      -0.562
      -1.147
      -1.273
      -0.268
       1.501
       2.890
       2.967
       1.808
       0.379
      -0.314
       0.039
       1.031
       2.001
       2.429
       2.098
       1.122
      -0.088
      -0.965
      -1.093
      -0.527
       0.152
       0.289
      -0.182
      -0.539
       0.083
       1.736
       3.345
