Origin Time       23/06/2011 22:13:46
Lat.              30.0 N 
Long.             80.5 E	
Depth (Km)          5.0
Magnitude         3.2
 Region           Uttarakhand-Nepar-Border                                         
 Above details taken from IMD 
   
Station Code      DRC
Station Lat.       29.847
Station Long.      80.546
Station Height(m)  909.0
Site Class        A   Vs30 between 700 m/sec to 1400 m/sec * 
Record Time       23.06.2011 22:13:33.929
Sampling Rate     200. Hz
 Record Duration   68.060 Sec.
 Direction         Vert. (Up positive)
Max. Acceleration     10.940 cm/sec**2
     
  * For reference see Site Classification link of website 
     
 Base Line Corrected and Low Pass Filtered (Cut Off at 35 Hz) Time History
 Acceleration data in cm/sec**2
    
[...]
      -0.004
      -0.002
      -0.008
      -0.021
      -0.022
      -0.004
       0.013
       0.016
       0.017
       0.027
       0.033
       0.026
       0.014
       0.006
      -0.006
      -0.019
      -0.019
      -0.005
       0.000
      -0.013
      -0.024
      -0.014
       0.002
       0.009
       0.011
       0.016
       0.015
       0.004
       0.000
       0.013
       0.025
       0.018
       0.002
      -0.009
      -0.017
      -0.025
      -0.020
       0.004
       0.025
       0.027
       0.023
       0.027
       0.030
       0.019
       0.004
       0.001
       0.002
      -0.005
      -0.011
      -0.005
      -0.002
      -0.014
      -0.028
      -0.027
      -0.019
      -0.017
      -0.013
       0.005
       0.025
       0.028
       0.022
       0.020
       0.018
       0.006
      -0.005
       0.000
       0.010
       0.008
       0.002
       0.006
       0.014
       0.008
      -0.008
      -0.021
      -0.033
      -0.047
      -0.048
      -0.021
       0.017
       0.038
       0.040
       0.042
       0.043
       0.033
       0.018
       0.011
       0.008
      -0.005
      -0.020
      -0.021
      -0.014
      -0.018
      -0.031
      -0.034
      -0.026
      -0.021
      -0.018
      -0.007
       0.009
       0.014
       0.013
       0.019
       0.024
       0.010
      -0.012
      -0.014
       0.007
       0.027
       0.032
       0.028
       0.015
      -0.006
      -0.024
      -0.021
      -0.006
      -0.006
      -0.024
      -0.036
      -0.034
      -0.026
      -0.016
       0.007
       0.031
       0.032
       0.008
      -0.014
      -0.018
      -0.010
       0.005
       0.032
       0.056
       0.053
       0.019
      -0.020
      -0.047
      -0.065
      -0.072
      -0.059
      -0.034
      -0.023
      -0.029
      -0.027
       0.000
       0.035
       0.057
       0.066
       0.060
       0.037
       0.009
       0.004
       0.025
       0.044
       0.040
       0.026
       0.011
      -0.008
      -0.026
      -0.027
      -0.005
       0.017
       0.021
       0.016
       0.010
       0.001
      -0.011
      -0.010
       0.005
       0.013
       0.002
      -0.009
      -0.003
       0.009
       0.015
       0.022
       0.034
       0.035
       0.016
      -0.002
      -0.005
      -0.002
      -0.006
      -0.006
       0.006
       0.015
       0.008
      -0.002
       0.000
       0.007
       0.009
       0.012
       0.021
       0.021
       0.003
      -0.016
      -0.018
      -0.014
      -0.016
      -0.018
      -0.010
      -0.001
       0.000
       0.007
       0.027
       0.043
       0.033
       0.013
       0.006
       0.012
       0.016
       0.017
       0.016
       0.008
      -0.010
      -0.016
       0.003
       0.024
       0.023
       0.005
      -0.002
       0.003
       0.005
       0.005
       0.010
       0.013
       0.005
      -0.005
      -0.003
       0.001
      -0.008
      -0.016
      -0.003
       0.020
       0.031
       0.027
       0.020
       0.013
       0.002
      -0.005
       0.004
       0.016
       0.013
       0.004
       0.009
       0.024
       0.025
       0.007
      -0.013
      -0.028
      -0.042
      -0.045
      -0.026
       0.003
       0.018
       0.021
       0.028
       0.037
       0.033
       0.015
       0.002
      -0.006
      -0.019
      -0.035
      -0.037
      -0.023
      -0.010
      -0.001
       0.013
       0.028
       0.024
       0.007
      -0.001
       0.005
       0.008
       0.003
       0.001
       0.005
       0.004
      -0.002
       0.001
       0.012
       0.013
       0.001
      -0.008
      -0.008
      -0.012
      -0.018
      -0.011
       0.008
       0.017
       0.006
      -0.009
      -0.014
      -0.017
      -0.018
      -0.003
       0.022
       0.034
       0.023
       0.008
       0.004
       0.003
       0.004
       0.013
       0.026
       0.022
       0.000
      -0.016
      -0.015
      -0.016
      -0.028
      -0.038
      -0.030
      -0.016
      -0.004
       0.012
       0.034
       0.045
       0.038
       0.028
       0.024
       0.017
       0.003
      -0.008
      -0.008
      -0.013
      -0.029
      -0.034
      -0.019
       0.002
       0.009
       0.007
       0.005
      -0.004
      -0.020
      -0.023
       0.000
       0.026
       0.033
       0.026
       0.016
       0.001
      -0.020
      -0.031
      -0.023
      -0.010
      -0.009
      -0.012
      -0.007
      -0.003
      -0.006
      -0.005
       0.009
       0.018
       0.008
      -0.011
      -0.016
      -0.008
       0.000
       0.011
       0.027
       0.031
       0.015
      -0.003
      -0.004
       0.005
       0.006
       0.001
       0.001
      -0.003
      -0.021
      -0.036
      -0.033
      -0.020
      -0.018
      -0.025
      -0.023
      -0.010
       0.004
       0.021
       0.041
       0.047
       0.022
      -0.012
      -0.025
      -0.017
      -0.006
       0.002
       0.012
       0.015
       0.002
      -0.014
      -0.010
       0.009
       0.022
       0.024
       0.027
       0.028
       0.017
       0.001
      -0.003
       0.000
      -0.006
      -0.017
      -0.016
      -0.006
      -0.004
      -0.006
       0.002
       0.015
       0.013
       0.000
      -0.005
       0.003
       0.007
       0.004
       0.005
       0.008
       0.001
      -0.014
      -0.020
      -0.014
      -0.013
      -0.015
      -0.006
       0.010
       0.016
       0.011
       0.016
       0.033
       0.040
       0.029
       0.016
       0.010
       0.003
      -0.006
      -0.006
      -0.002
      -0.009
      -0.027
      -0.034
      -0.024
      -0.011
      -0.004
       0.009
       0.023
       0.021
       0.002
      -0.012
      -0.010
      -0.005
      -0.001
       0.008
       0.019
       0.014
      -0.008
      -0.020
      -0.009
       0.008
       0.013
       0.009
       0.003
      -0.007
      -0.014
       0.000
       0.028
       0.041
       0.024
       0.001
      -0.008
      -0.007
      -0.004
       0.007
       0.024
       0.025
       0.005
      -0.016
      -0.021
      -0.017
      -0.016
      -0.012
      -0.003
      -0.005
      -0.022
      -0.031
      -0.018
       0.006
       0.022
       0.031
       0.038
       0.031
       0.009
      -0.007
      -0.001
       0.012
       0.009
      -0.001
      -0.005
      -0.005
      -0.008
      -0.003
       0.013
       0.022
       0.009
      -0.010
      -0.016
      -0.013
      -0.008
       0.003
       0.022
       0.031
       0.014
      -0.010
      -0.014
       0.000
       0.018
       0.031
       0.041
       0.034
       0.007
      -0.014
      -0.008
       0.017
       0.030
       0.027
       0.014
      -0.009
      -0.040
      -0.058
      -0.044
      -0.015
       0.001
      -0.001
      -0.006
      -0.013
      -0.025
      -0.028
      -0.006
       0.028
       0.047
       0.046
       0.040
       0.029
       0.010
      -0.005
      -0.003
       0.006
       0.002
      -0.010
      -0.011
      -0.004
      -0.002
      -0.001
       0.009
       0.026
       0.060
       0.183
       0.509
       1.097
       1.882
       2.654
       3.089
       2.854
       1.776
      -0.022
      -2.157
      -4.172
      -5.689
      -6.447
      -6.297
      -5.220
      -3.367
      -1.058
       1.277
       3.209
       4.457
       4.973
       4.890
       4.379
       3.527
       2.366
       0.964
      -0.485
      -1.673
      -2.291
      -2.208
      -1.581
      -0.796
      -0.249
      -0.114
      -0.286
      -0.514
      -0.605
      -0.535
      -0.379
      -0.177
       0.101
       0.449
       0.717
       0.695
       0.325
      -0.182
      -0.492
      -0.441
      -0.198
      -0.094
      -0.255
      -0.396
      -0.077
       0.754
       1.531
       1.503
       0.501
      -0.753
      -1.199
      -0.389
       1.059
       1.964
       1.612
       0.364
      -0.773
      -1.142
      -0.999
      -1.063
      -1.596
      -2.051
      -1.679
      -0.411
       0.962
       1.544
       1.218
       0.706
       0.725
       1.167
       1.228
       0.364
      -0.983
      -1.750
      -1.335
      -0.224
       0.518
       0.336
      -0.312
      -0.497
       0.196
       1.267
       1.802
       1.303
       0.064
      -1.177
      -1.859
      -1.884
      -1.410
      -0.567
       0.524
       1.515
       1.865
       1.275
       0.107
      -0.788
      -0.786
      -0.090
       0.424
       0.036
      -1.066
      -1.841
      -1.300
       0.546
       2.557
       3.348
       2.409
       0.492
      -1.077
      -1.489
      -0.966
      -0.352
      -0.310
      -0.864
      -1.553
      -1.855
      -1.533
      -0.722
       0.195
       0.834
       1.005
       0.741
       0.242
      -0.195
      -0.287
       0.057
       0.619
       0.990
       0.901
       0.455
       0.068
       0.151
       0.755
       1.429
       1.502
       0.647
      -0.754
      -1.878
      -2.176
      -1.801
      -1.302
      -0.977
      -0.623
       0.073
       1.021
       1.664
       1.459
       0.458
      -0.609
      -0.907
      -0.241
       0.788
       1.382
       1.264
       0.795
       0.456
       0.338
       0.143
      -0.403
      -1.160
      -1.629
      -1.426
      -0.709
      -0.084
      -0.007
      -0.300
      -0.317
       0.374
       1.499
       2.232
       1.893
       0.537
      -1.045
      -1.930
      -1.744
      -0.882
      -0.114
       0.053
      -0.262
      -0.497
      -0.194
       0.526
       0.998
       0.597
      -0.612
      -1.777
      -1.900
      -0.661
       1.288
       2.797
       3.025
       1.952
       0.292
      -1.053
      -1.561
      -1.287
      -0.658
      -0.173
      -0.188
      -0.774
      -1.604
      -2.036
      -1.474
       0.162
       2.226
       3.610
       3.394
       1.524
      -0.983
      -2.621
      -2.420
      -0.610
       1.623
       3.020
       3.000
       1.806
       0.168
      -1.157
      -1.721
      -1.508
      -0.892
      -0.449
      -0.642
      -1.483
      -2.448
      -2.792
      -2.097
      -0.607
       0.966
       2.002
       2.334
       2.159
       1.715
       1.114
       0.420
      -0.255
      -0.738
      -0.856
      -0.502
       0.272
       1.148
       1.614
       1.266
       0.174
      -1.054
      -1.703
      -1.549
      -1.042
      -0.857
      -1.220
      -1.654
      -1.409
      -0.199
       1.434
       2.469
       2.165
       0.622
      -1.254
      -2.297
      -1.792
       0.082
       2.332
       3.740
       3.599
       2.075
      -0.018
      -1.794
      -2.721
      -2.668
      -1.779
      -0.481
       0.485
       0.395
      -0.757
      -1.916
      -1.649
       0.497
       3.273
       4.514
       2.924
      -0.708
      -4.030
      -4.947
      -3.157
      -0.129
       2.263
       3.101
       2.694
       1.851
       1.121
       0.652
       0.454
       0.508
       0.576
       0.147
      -1.127
      -2.826
      -3.775
      -2.950
      -0.515
       2.087
       3.209
       2.318
       0.358
      -1.111
      -1.197
      -0.283
       0.495
       0.376
      -0.436
      -1.163
      -1.260
      -0.743
       0.053
       0.760
       1.032
       0.614
      -0.383
      -1.377
      -1.658
      -0.935
       0.453
       1.786
       2.425
       2.150
       1.224
       0.192
      -0.485
      -0.697
      -0.694
      -0.890
      -1.559
      -2.539
      -3.186
      -2.844
      -1.558
      -0.205
       0.370
       0.363
       0.838
       2.423
       4.409
       5.341
       4.377
       1.973
      -0.567
      -2.012
      -1.816
      -0.281
       1.634
       2.763
       2.293
       0.172
      -2.792
      -5.187
      -5.705
      -4.088
      -1.486
       0.450
       1.051
       1.048
       1.450
       2.266
       2.572
       1.735
       0.302
      -0.403
       0.420
       2.120
       2.988
       1.786
      -0.966
      -3.327
      -3.750
      -2.544
      -1.410
      -1.595
      -2.707
      -3.293
      -2.349
      -0.206
       1.871
       2.826
       2.652
       2.210
       2.225
       2.490
       2.170
       0.925
      -0.473
      -0.852
       0.043
       1.134
       1.086
      -0.258
      -1.673
      -1.850
      -0.825
       0.025
      -0.543
      -2.239
      -3.467
      -2.961
      -1.064
       0.725
       1.369
       1.264
       1.579
       2.809
       4.161
       4.387
       3.128
       1.335
       0.289
       0.237
       0.072
      -1.519
      -4.546
      -7.359
      -7.828
      -5.004
       0.038
       4.694
       6.424
       4.576
       1.079
      -1.017
      -0.339
       1.318
       0.712
      -3.222
      -7.617
      -8.071
      -3.175
       3.493
       6.361
       3.142
      -2.803
      -5.471
      -1.809
       5.357
       9.823
       7.611
       0.533
      -5.530
      -5.905
      -0.998
       4.692
       7.030
       5.629
       3.162
       1.914
       1.461
      -0.229
      -3.760
      -6.899
      -6.653
      -2.770
       1.295
       1.480
      -2.726
      -7.504
      -8.322
      -4.303
       1.094
       3.606
       2.255
      -0.013
       0.466
       4.419
       9.083
      10.940
       8.747
       4.040
      -0.789
      -4.439
      -6.844
      -8.044
      -7.528
      -4.888
      -0.853
       2.707
       4.041
       2.868
       0.489
      -1.425
      -2.214
      -2.484
      -3.129
      -4.174
      -4.607
      -3.353
      -0.399
       3.067
       5.655
       6.846
       6.996
       6.424
       4.853
       2.014
      -1.346
      -3.450
      -2.882
      -0.065
       2.796
       3.472
       1.558
      -1.357
      -3.267
      -3.411
      -2.490
      -1.621
      -1.403
      -1.900
      -2.961
      -4.164
      -4.594
      -3.225
       0.069
       3.903
       6.062
       5.178
       1.970
      -1.198
      -2.173
      -0.682
       1.618
       2.634
       1.530
      -0.738
      -2.324
      -2.020
      -0.154
       1.826
       2.612
       2.001
       0.750
      -0.320
      -0.961
      -1.334
      -1.507
      -1.330
      -0.761
      -0.118
       0.160
      -0.002
      -0.186
       0.055
       0.588
       0.674
      -0.298
      -2.043
      -3.418
      -3.308
      -1.529
       1.053
       3.255
       4.423
       4.643
       4.251
       3.284
       1.518
      -0.947
      -3.300
      -4.407
      -3.721
      -1.813
       0.021
       0.743
       0.298
      -0.440
      -0.401
       0.844
       2.722
       4.042
       3.833
       2.008
      -0.615
      -2.854
      -3.833
      -3.435
      -2.338
      -1.584
      -1.787
      -2.537
      -2.664
      -1.324
       1.092
       3.195
       3.834
       3.101
       2.091
       1.670
       1.533
       0.628
      -1.487
      -3.838
      -4.804
      -3.702
      -1.504
       0.081
       0.189
      -0.554
      -0.827
       0.086
       1.821
       3.579
       4.956
       5.945
       6.278
       5.205
       2.244
      -1.918
      -5.551
      -7.078
      -6.201
      -3.902
      -1.458
       0.476
       1.928
       3.013
       3.505
       3.112
       2.058
       1.131
       0.942
       1.158
       0.700
      -1.139
      -3.763
      -5.576
      -5.316
      -3.168
      -0.581
       0.988
       1.170
       0.708
       0.578
       1.166
       2.136
       2.854
       2.844
       2.017
       0.689
      -0.581
      -1.327
      -1.473
      -1.298
      -1.103
      -0.921
      -0.582
      -0.009
       0.554
       0.651
       0.032
      -0.977
      -1.590
      -1.258
      -0.326
       0.151
      -0.567
      -2.014
      -2.739
      -1.545
       1.306
       4.062
       4.815
       3.156
       0.609
      -0.743
      -0.236
       0.779
       0.426
      -1.639
      -3.764
      -3.939
      -1.815
       0.930
       2.238
       1.617
       0.439
       0.338
       1.451
       2.322
       1.493
      -0.934
      -3.329
      -3.988
      -2.553
      -0.170
       1.586
       1.971
       1.477
       1.178
       1.699
       2.716
       3.346
       2.973
       1.731
       0.284
      -0.822
      -1.575
      -2.297
      -3.074
      -3.472
      -2.911
      -1.386
       0.267
       0.944
       0.243
      -1.109
      -1.854
      -1.313
       0.012
       0.904
       0.571
      -0.607
      -1.451
      -1.129
       0.088
       1.195
       1.522
       1.326
       1.355
       1.953
       2.669
       2.773
       2.084
       1.211
       0.894
       1.106
       0.945
      -0.434
      -2.732
      -4.480
      -4.240
      -1.968
       0.760
       1.940
       0.804
      -1.462
      -2.666
      -1.496
       1.327
       3.674
       3.866
       2.011
      -0.334
      -1.677
      -1.790
      -1.545
      -1.735
      -2.170
      -2.016
      -0.972
       0.121
       0.078
      -1.227
      -2.505
      -2.282
      -0.471
       1.459
       1.947
       0.935
      -0.080
       0.380
       2.190
       3.686
       3.372
       1.484
      -0.256
      -0.452
       0.551
       1.174
       0.433
      -0.931
      -1.257
       0.172
       2.197
       2.816
       1.194
      -1.406
      -2.782
      -1.914
       0.079
       1.086
       0.084
      -1.904
      -2.789
      -1.363
       1.583
       3.919
       3.968
       1.841
      -0.842
      -2.441
      -2.545
      -1.906
      -1.410
      -1.288
      -1.230
      -1.002
      -0.694
      -0.432
      -0.037
       0.779
       1.871
       2.472
       1.793
      -0.093
      -2.078
      -2.855
      -2.025
      -0.412
       0.648
       0.387
      -0.831
      -1.838
      -1.566
       0.187
       2.622
       4.445
       4.596
       2.811
      -0.176
      -2.921
      -4.010
      -2.905
      -0.333
       2.129
       3.036
       1.992
      -0.092
      -1.636
      -1.553
      -0.087
       1.420
       1.677
       0.515
      -1.049
      -1.733
      -1.043
       0.386
       1.347
       1.015
      -0.416
      -1.871
      -2.185
      -0.938
       1.265
       3.159
       3.590
       2.216
      -0.239
      -2.395
      -3.089
      -2.124
      -0.328
       1.084
       1.347
       0.563
      -0.521
      -1.112
      -0.916
      -0.255
       0.244
       0.124
      -0.622
      -1.573
      -2.100
      -1.652
      -0.091
       2.048
       3.648
       3.627
       1.783
      -0.840
      -2.536
      -2.180
      -0.172
       1.783
       2.009
       0.245
      -2.110
      -3.155
      -2.052
       0.326
       2.178
       2.273
       0.883
      -0.578
      -0.815
       0.305
       1.755
       2.275
       1.356
      -0.499
      -2.233
      -2.926
      -2.235
      -0.494
       1.455
       2.606
       2.279
       0.555
      -1.623
      -2.908
      -2.392
      -0.307
       2.028
       3.078
       2.203
       0.148
      -1.523
      -1.626
