Origin Time       1/5/2013 06:57:12	  UTC
Lat.              33.1 N	
Long.             75.8 E	
Depth (Km)         15.0
Magnitude         5.8
 Region           JK-HP-Border                                                     
 Above details taken from IMD 
    
Station Code      DSA
Station Lat.       31.805  N
Station Long.      75.660  E
Station Height(m)    1.0
Site Class        C   Vs30 between 200 m/sec to 375 m/sec *  
Record Time       01.05.2013 06:57:47.064 UTC
Sampling Rate     200. Hz
 Record Duration   70.195 Sec.
 Direction         N-S (N positive)
Max. Acceleration     11.158 cm/sec**2
     
  * For reference see Site Classification link of website 
     
 Base Line Corrected and Low Pass Filtered (Cut Off at 35 Hz) Time History
 Acceleration data in cm/sec**2
    
[...]
       3.091
       3.386
       3.589
       3.701
       3.747
       3.767
       3.784
       3.789
       3.747
       3.619
       3.391
       3.070
       2.678
       2.224
       1.700
       1.094
       0.414
      -0.309
      -1.029
      -1.710
      -2.336
      -2.907
      -3.422
      -3.874
      -4.247
      -4.515
      -4.652
      -4.631
      -4.437
      -4.068
      -3.541
      -2.883
      -2.130
      -1.316
      -0.467
       0.393
       1.235
       2.016
       2.689
       3.213
       3.574
       3.777
       3.825
       3.704
       3.392
       2.887
       2.231
       1.508
       0.809
       0.194
      -0.327
      -0.783
      -1.213
      -1.636
      -2.046
      -2.423
      -2.747
      -3.001
      -3.164
      -3.209
      -3.105
      -2.830
      -2.393
      -1.831
      -1.208
      -0.600
      -0.069
       0.347
       0.654
       0.892
       1.117
       1.378
       1.686
       2.012
       2.297
       2.482
       2.534
       2.452
       2.252
       1.952
       1.568
       1.123
       0.655
       0.212
      -0.172
      -0.482
      -0.726
      -0.903
      -0.994
      -0.957
      -0.748
      -0.348
       0.223
       0.903
       1.609
       2.254
       2.765
       3.091
       3.215
       3.157
       2.978
       2.751
       2.536
       2.347
       2.161
       1.938
       1.650
       1.286
       0.841
       0.303
      -0.333
      -1.045
      -1.772
      -2.421
      -2.915
      -3.220
      -3.351
      -3.340
      -3.200
      -2.916
      -2.464
      -1.847
      -1.100
      -0.285
       0.541
       1.339
       2.085
       2.766
       3.370
       3.887
       4.298
       4.583
       4.724
       4.713
       4.553
       4.255
       3.832
       3.298
       2.676
       1.998
       1.305
       0.641
       0.037
      -0.488
      -0.930
      -1.277
      -1.509
      -1.604
      -1.554
      -1.365
      -1.049
      -0.611
      -0.049
       0.623
       1.362
       2.102
       2.780
       3.365
       3.858
       4.278
       4.632
       4.905
       5.071
       5.100
       4.968
       4.656
       4.147
       3.441
       2.555
       1.528
       0.411
      -0.743
      -1.885
      -2.974
      -3.978
      -4.878
      -5.667
      -6.349
      -6.934
      -7.425
      -7.816
      -8.094
      -8.235
      -8.220
      -8.039
      -7.708
      -7.263
      -6.762
      -6.257
      -5.782
      -5.354
      -4.976
      -4.656
      -4.407
      -4.243
      -4.162
      -4.148
      -4.163
      -4.168
      -4.130
      -4.029
      -3.857
      -3.611
      -3.287
      -2.884
      -2.416
      -1.911
      -1.413
      -0.966
      -0.607
      -0.362
      -0.248
      -0.274
      -0.444
      -0.751
      -1.176
      -1.681
      -2.215
      -2.727
      -3.175
      -3.542
      -3.826
      -4.034
      -4.164
      -4.207
      -4.148
      -3.972
      -3.660
      -3.193
      -2.555
      -1.750
      -0.811
       0.195
       1.188
       2.093
       2.861
       3.472
       3.924
       4.216
       4.342
       4.286
       4.030
       3.553
       2.840
       1.898
       0.768
      -0.472
      -1.726
      -2.902
      -3.934
      -4.778
      -5.401
      -5.767
      -5.842
      -5.611
      -5.092
      -4.330
      -3.369
      -2.233
      -0.927
       0.529
       2.075
       3.608
       5.011
       6.202
       7.146
       7.853
       8.345
       8.638
       8.734
       8.625
       8.308
       7.799
       7.137
       6.385
       5.608
       4.855
       4.138
       3.450
       2.781
       2.152
       1.612
       1.225
       1.039
       1.064
       1.279
       1.647
       2.136
       2.714
       3.346
       3.978
       4.544
       4.985
       5.264
       5.374
       5.334
       5.171
       4.910
       4.569
       4.163
       3.705
       3.202
       2.662
       2.100
       1.542
       1.018
       0.539
       0.094
      -0.334
      -0.750
      -1.139
      -1.471
      -1.733
      -1.927
      -2.069
      -2.167
      -2.220
      -2.225
      -2.202
      -2.203
      -2.284
      -2.482
      -2.784
      -3.131
      -3.440
      -3.644
      -3.712
      -3.661
      -3.539
      -3.403
      -3.285
      -3.187
      -3.079
      -2.926
      -2.700
      -2.389
      -1.999
      -1.538
      -1.012
      -0.434
       0.169
       0.745
       1.222
       1.527
       1.612
       1.470
       1.143
       0.701
       0.219
      -0.249
      -0.682
      -1.081
      -1.456
      -1.815
      -2.161
      -2.498
      -2.821
      -3.113
      -3.350
      -3.507
      -3.573
      -3.557
      -3.483
      -3.376
      -3.251
      -3.104
      -2.913
      -2.644
      -2.263
      -1.739
      -1.054
      -0.206
       0.786
       1.877
       2.994
       4.052
       4.972
       5.707
       6.242
       6.581
       6.722
       6.644
       6.313
       5.704
       4.822
       3.709
       2.430
       1.056
      -0.356
      -1.757
      -3.109
      -4.368
      -5.486
      -6.408
      -7.089
      -7.504
      -7.652
      -7.548
      -7.205
      -6.632
      -5.841
      -4.861
      -3.741
      -2.531
      -1.270
       0.017
       1.309
       2.575
       3.777
       4.880
       5.866
       6.725
       7.448
       8.014
       8.400
       8.600
       8.635
       8.553
       8.400
       8.191
       7.902
       7.475
       6.850
       5.995
       4.912
       3.640
       2.235
       0.761
      -0.715
      -2.118
      -3.380
      -4.454
      -5.331
      -6.025
      -6.552
      -6.898
      -7.031
      -6.921
      -6.566
      -5.997
      -5.258
      -4.386
      -3.406
      -2.338
      -1.205
      -0.030
       1.170
       2.378
       3.576
       4.736
       5.819
       6.785
       7.603
       8.249
       8.712
       8.985
       9.060
       8.932
       8.589
       8.017
       7.200
       6.133
       4.844
       3.391
       1.855
       0.313
      -1.181
      -2.588
      -3.876
      -5.006
      -5.936
      -6.633
      -7.074
      -7.236
      -7.090
      -6.607
      -5.794
      -4.713
      -3.476
      -2.218
      -1.062
      -0.097
       0.626
       1.087
       1.297
       1.290
       1.100
       0.748
       0.226
      -0.482
      -1.378
      -2.436
      -3.608
      -4.841
      -6.079
      -7.252
      -8.263
      -9.005
      -9.397
      -9.420
      -9.110
      -8.531
      -7.742
      -6.786
      -5.698
      -4.520
      -3.304
      -2.097
      -0.927
       0.208
       1.322
       2.420
       3.475
       4.436
       5.238
       5.830
       6.193
       6.346
       6.335
       6.207
       5.994
       5.708
       5.344
       4.897
       4.362
       3.739
       3.037
       2.265
       1.436
       0.556
      -0.376
      -1.362
      -2.391
      -3.436
      -4.460
      -5.429
      -6.320
      -7.120
      -7.826
      -8.428
      -8.908
      -9.236
      -9.379
      -9.313
      -9.029
      -8.541
      -7.877
      -7.071
      -6.148
      -5.121
      -3.995
      -2.783
      -1.512
      -0.223
       1.048
       2.280
       3.463
       4.587
       5.626
       6.538
       7.279
       7.826
       8.184
       8.380
       8.447
       8.407
       8.263
       8.002
       7.596
       7.017
       6.249
       5.299
       4.206
       3.029
       1.835
       0.689
      -0.355
      -1.258
      -2.001
      -2.587
      -3.047
      -3.418
      -3.718
      -3.923
      -3.965
      -3.765
      -3.283
      -2.541
      -1.621
      -0.617
       0.401
       1.409
       2.410
       3.397
       4.321
       5.100
       5.644
       5.904
       5.888
       5.648
       5.245
       4.715
       4.067
       3.313
       2.483
       1.639
       0.854
       0.197
      -0.289
      -0.585
      -0.705
      -0.687
      -0.574
      -0.390
      -0.139
       0.193
       0.601
       1.052
       1.489
       1.861
       2.145
       2.334
       2.416
       2.346
       2.063
       1.529
       0.767
      -0.126
      -1.014
      -1.768
      -2.306
      -2.606
      -2.698
      -2.651
      -2.551
      -2.486
      -2.518
      -2.669
      -2.915
      -3.205
      -3.485
      -3.711
      -3.849
      -3.875
      -3.767
      -3.506
      -3.076
      -2.473
      -1.706
      -0.803
       0.195
       1.240
       2.282
       3.265
       4.136
       4.843
       5.354
       5.651
       5.732
       5.608
       5.304
       4.849
       4.266
       3.564
       2.737
       1.779
       0.688
      -0.517
      -1.786
      -3.036
      -4.166
      -5.087
      -5.742
      -6.104
      -6.162
      -5.903
      -5.327
      -4.468
      -3.416
      -2.317
      -1.330
      -0.578
      -0.107
       0.109
       0.133
       0.020
      -0.211
      -0.564
      -1.027
      -1.544
      -2.020
      -2.369
      -2.549
      -2.574
      -2.492
      -2.344
      -2.145
      -1.882
      -1.532
      -1.075
      -0.498
       0.205
       1.040
       2.000
       3.053
       4.132
       5.148
       6.012
       6.654
       7.028
       7.122
       6.961
       6.620
       6.208
       5.834
       5.560
       5.377
       5.211
       4.967
       4.563
       3.961
       3.157
       2.175
       1.056
      -0.143
      -1.346
      -2.480
      -3.502
      -4.419
      -5.268
      -6.082
      -6.854
      -7.532
      -8.050
      -8.357
      -8.422
      -8.220
      -7.724
      -6.921
      -5.828
      -4.502
      -3.023
      -1.472
       0.082
       1.577
       2.951
       4.143
       5.101
       5.800
       6.238
       6.420
       6.356
       6.053
       5.533
       4.838
       4.016
       3.117
       2.182
       1.243
       0.325
      -0.556
      -1.393
      -2.184
      -2.918
      -3.557
      -4.044
      -4.331
      -4.401
      -4.273
      -3.983
      -3.556
      -3.001
      -2.325
      -1.560
      -0.771
      -0.049
       0.524
       0.907
       1.115
       1.201
       1.223
       1.208
       1.140
       0.974
       0.680
       0.272
      -0.181
      -0.584
      -0.855
      -0.952
      -0.876
      -0.644
      -0.269
       0.240
       0.864
       1.558
       2.249
       2.862
       3.348
       3.705
       3.972
       4.201
       4.422
       4.625
       4.770
       4.820
       4.759
       4.595
       4.346
       4.020
       3.611
       3.107
       2.502
       1.804
       1.038
       0.235
      -0.565
      -1.321
      -1.983
      -2.493
      -2.795
      -2.842
      -2.606
      -2.091
      -1.336
      -0.419
       0.553
       1.468
       2.229
       2.776
       3.076
       3.117
       2.902
       2.444
       1.770
       0.912
      -0.088
      -1.188
      -2.341
      -3.503
      -4.634
      -5.690
      -6.618
      -7.364
      -7.872
      -8.092
      -7.976
      -7.498
      -6.665
      -5.531
      -4.184
      -2.733
      -1.293
       0.023
       1.110
       1.891
       2.343
       2.495
       2.414
       2.179
       1.859
       1.496
       1.109
       0.686
       0.200
      -0.382
      -1.072
      -1.855
      -2.680
      -3.476
      -4.167
      -4.688
      -4.992
      -5.062
      -4.908
      -4.562
      -4.066
      -3.448
      -2.726
      -1.913
      -1.039
      -0.151
       0.699
       1.466
       2.125
       2.664
       3.078
       3.360
       3.509
       3.533
       3.449
       3.287
       3.088
       2.901
       2.772
       2.723
       2.735
       2.746
       2.675
       2.460
       2.090
       1.595
       1.041
       0.506
       0.083
      -0.126
      -0.024
       0.439
       1.237
       2.253
       3.316
       4.249
       4.920
       5.268
       5.284
       4.995
       4.437
       3.648
       2.675
       1.578
       0.432
      -0.688
      -1.723
      -2.627
      -3.365
      -3.901
      -4.199
      -4.234
      -4.002
      -3.524
      -2.850
      -2.065
      -1.274
      -0.579
      -0.049
       0.291
       0.448
       0.437
       0.249
      -0.148
      -0.779
      -1.630
      -2.627
      -3.652
      -4.583
      -5.330
      -5.854
      -6.164
      -6.281
      -6.210
      -5.925
      -5.383
      -4.552
      -3.443
      -2.124
      -0.696
       0.735
       2.089
       3.313
       4.364
       5.201
       5.783
       6.075
       6.068
       5.783
       5.270
       4.597
       3.831
       3.026
       2.209
       1.389
       0.570
      -0.230
      -0.975
      -1.617
      -2.127
      -2.509
      -2.802
      -3.049
      -3.274
      -3.476
      -3.638
      -3.751
      -3.818
      -3.843
      -3.811
      -3.689
      -3.437
      -3.033
      -2.479
      -1.803
      -1.042
      -0.230
       0.604
       1.427
       2.195
       2.860
       3.381
       3.742
       3.953
       4.034
       3.994
       3.801
       3.383
       2.659
       1.590
       0.212
      -1.368
      -3.019
      -4.636
      -6.155
      -7.541
      -8.758
      -9.758
     -10.489
     -10.906
     -10.969
     -10.639
      -9.886
      -8.708
      -7.150
      -5.304
      -3.286
      -1.207
       0.845
       2.804
       4.618
       6.245
       7.661
       8.862
       9.847
      10.594
      11.050
      11.158
      10.898
      10.305
       9.456
       8.427
       7.262
       5.988
       4.639
       3.270
       1.945
       0.704
      -0.441
      -1.488
      -2.412
      -3.154
      -3.642
      -3.828
      -3.709
      -3.319
      -2.704
      -1.907
      -0.968
       0.068
       1.147
       2.214
       3.221
       4.128
       4.899
       5.501
       5.918
       6.151
       6.213
       6.117
       5.873
       5.488
       4.975
       4.360
       3.678
       2.957
       2.207
       1.419
       0.590
      -0.261
      -1.081
      -1.803
      -2.369
      -2.747
      -2.924
      -2.893
      -2.647
      -2.189
      -1.549
      -0.799
      -0.048
       0.583
       1.002
       1.177
       1.138
       0.943
       0.635
       0.223
      -0.298
      -0.923
      -1.625
      -2.367
      -3.124
      -3.889
      -4.658
      -5.412
      -6.105
      -6.666
      -7.002
      -7.021
      -6.654
      -5.896
      -4.814
      -3.537
      -2.202
      -0.913
       0.287
       1.396
       2.408
       3.292
       3.990
       4.440
       4.599
       4.450
       4.015
       3.343
       2.512
       1.614
       0.740
      -0.035
      -0.666
      -1.149
      -1.510
      -1.788
      -2.008
      -2.170
      -2.263
      -2.283
      -2.227
      -2.085
      -1.823
      -1.395
      -0.791
      -0.074
       0.621
       1.135
       1.345
       1.212
       0.777
       0.125
      -0.652
      -1.474
      -2.274
      -2.999
      -3.614
      -4.107
      -4.475
      -4.709
      -4.787
      -4.670
      -4.331
      -3.762
      -2.990
      -2.061
      -1.027
       0.060
       1.138
       2.134
       2.976
       3.625
       4.097
       4.449
       4.742
       5.002
       5.213
       5.336
       5.343
       5.238
       5.049
       4.798
       4.486
       4.096
       3.619
       3.066
       2.460
       1.822
       1.153
       0.444
      -0.292
      -1.005
      -1.607
      -2.017
      -2.189
      -2.133
      -1.897
      -1.545
      -1.138
      -0.722
      -0.331
       0.008
       0.275
       0.448
       0.504
       0.418
       0.179
      -0.205
      -0.711
      -1.309
      -1.961
      -2.620
      -3.219
      -3.682
      -3.938
      -3.948
      -3.712
      -3.261
      -2.636
      -1.877
      -1.030
      -0.145
       0.721
       1.522
       2.241
       2.878
       3.438
       3.902
       4.239
       4.413
       4.401
       4.187
       3.756
       3.099
       2.229
       1.197
       0.088
      -1.006
      -2.020
      -2.935
      -3.770
      -4.536
      -5.200
      -5.671
      -5.835
      -5.614
      -5.014
      -4.119
      -3.057
      -1.943
      -0.859
       0.131
       0.964
       1.574
       1.920
       1.999
       1.844
       1.501
       1.016
       0.426
      -0.237
      -0.948
      -1.680
      -2.398
      -3.050
      -3.567
      -3.882
      -3.949
      -3.759
      -3.327
      -2.687
      -1.876
      -0.936
       0.092
       1.170
       2.279
       3.412
       4.555
       5.675
       6.710
       7.582
       8.220
       8.581
       8.654
       8.450
       7.996
       7.322
       6.457
       5.429
       4.262
       2.982
       1.615
       0.192
      -1.256
      -2.699
      -4.107
      -5.448
      -6.675
      -7.731
      -8.560
      -9.137
      -9.489
      -9.675
      -9.754
      -9.742
      -9.603
      -9.274
      -8.706
      -7.890
      -6.848
      -5.607
      -4.180
      -2.582
      -0.856
       0.904
       2.567
       4.000
       5.110
       5.872
       6.320
       6.526
       6.567
       6.497
       6.338
       6.079
       5.697
       5.173
       4.510
       3.734
       2.895
       2.054
       1.265
       0.567
      -0.025
      -0.501
      -0.840
      -1.010
      -0.990
      -0.789
      -0.445
       0.010
       0.573
       1.259
       2.064
       2.921
       3.710
       4.301
       4.608
       4.616
       4.359
       3.888
       3.248
       2.490
       1.681
       0.895
       0.188
      -0.429
      -0.988
      -1.532
      -2.071
      -2.568
      -2.951
      -3.153
      -3.147
      -2.947
      -2.583
      -2.075
      -1.442
      -0.719
       0.029
       0.728
       1.325
       1.808
       2.190
       2.487
       2.696
       2.803
       2.799
       2.697
       2.527
       2.311
       2.047
       1.698
       1.217
       0.575
      -0.203
      -1.048
      -1.862
      -2.555
      -3.076
      -3.420
      -3.622
      -3.726
      -3.752
      -3.680
      -3.455
      -3.034
      -2.419
      -1.668
      -0.867
      -0.093
       0.609
       1.221
       1.731
       2.117
       2.359
       2.450
       2.406
       2.258
       2.022
       1.702
       1.286
       0.777
       0.202
      -0.376
      -0.881
      -1.239
      -1.404
      -1.368
      -1.154
      -0.807
      -0.394
       0.011
       0.334
       0.534
       0.615
       0.623
       0.616
       0.623
       0.624
       0.563
       0.379
       0.037
      -0.465
      -1.108
      -1.871
      -2.729
      -3.632
      -4.497
      -5.215
      -5.690
      -5.873
      -5.773
      -5.445
      -4.958
      -4.370
      -3.704
      -2.952
      -2.099
      -1.143
      -0.127
       0.870
       1.754
       2.455
       2.951
       3.249
       3.360
       3.271
       2.952
       2.391
       1.630
       0.764
      -0.092
      -0.849
      -1.469
      -1.956
      -2.319
      -2.546
      -2.604
      -2.467
      -2.138
      -1.648
      -1.048
      -0.393
       0.267
       0.876
       1.385
       1.753
       1.968
       2.051
       2.047
       2.012
       1.986
