Origin Time       1/5/2013 06:57:12	 
Lat.              33.1 N	
Long.             75.8 E	
Depth (Km)         15.0
Magnitude         5.8
 Region           JK-HP-Border                                                     
 Above details taken from IMD 
     
Station Code      DSA
Station Lat.       31.805  N
Station Long.      75.660  E
Station Height(m)    1.0
Site Class        C   Vs30 between 200 m/sec to 375 m/sec *  
Record Time       01.05.2013 06:57:47.064
Sampling Rate     200. Hz
 Record Duration   70.195 Sec.
 Direction         E-W (E positive)
Max. Acceleration    -11.081 cm/sec**2
     
  * For reference see Site Classification link of website 
     
 Base Line Corrected and Low Pass Filtered (Cut Off at 35 Hz) Time History
 Acceleration data in cm/sec**2
    
[...]
      -0.568
      -0.573
      -0.537
      -0.450
      -0.313
      -0.135
       0.062
       0.256
       0.422
       0.534
       0.571
       0.526
       0.418
       0.288
       0.181
       0.125
       0.121
       0.146
       0.174
       0.191
       0.199
       0.213
       0.246
       0.304
       0.383
       0.472
       0.555
       0.603
       0.589
       0.497
       0.341
       0.161
       0.011
      -0.071
      -0.081
      -0.040
       0.019
       0.079
       0.138
       0.207
       0.283
       0.342
       0.341
       0.247
       0.064
      -0.165
      -0.380
      -0.546
      -0.666
      -0.771
      -0.893
      -1.026
      -1.128
      -1.144
      -1.040
      -0.823
      -0.533
      -0.223
       0.066
       0.313
       0.504
       0.628
       0.668
       0.615
       0.478
       0.287
       0.084
      -0.093
      -0.221
      -0.290
      -0.291
      -0.221
      -0.088
       0.083
       0.257
       0.397
       0.481
       0.499
       0.448
       0.329
       0.158
      -0.031
      -0.194
      -0.302
      -0.357
      -0.385
      -0.419
      -0.468
      -0.518
      -0.540
      -0.519
      -0.461
      -0.391
      -0.333
      -0.299
      -0.282
      -0.263
      -0.221
      -0.143
      -0.027
       0.120
       0.280
       0.430
       0.546
       0.614
       0.629
       0.586
       0.481
       0.312
       0.100
      -0.118
      -0.291
      -0.379
      -0.367
      -0.271
      -0.128
       0.026
       0.167
       0.283
       0.372
       0.432
       0.464
       0.473
       0.471
       0.472
       0.489
       0.518
       0.536
       0.514
       0.433
       0.292
       0.109
      -0.092
      -0.286
      -0.451
      -0.561
      -0.599
      -0.570
      -0.507
      -0.456
      -0.455
      -0.509
      -0.595
      -0.686
      -0.763
      -0.827
      -0.887
      -0.944
      -0.987
      -0.989
      -0.927
      -0.788
      -0.582
      -0.343
      -0.113
       0.077
       0.216
       0.320
       0.420
       0.539
       0.679
       0.820
       0.942
       1.035
       1.099
       1.136
       1.144
       1.112
       1.028
       0.889
       0.705
       0.497
       0.292
       0.111
      -0.043
      -0.183
      -0.323
      -0.471
      -0.625
      -0.785
      -0.953
      -1.134
      -1.329
      -1.514
      -1.646
      -1.680
      -1.593
      -1.396
      -1.129
      -0.835
      -0.542
      -0.261
       0.007
       0.262
       0.505
       0.734
       0.952
       1.149
       1.307
       1.402
       1.428
       1.397
       1.340
       1.280
       1.223
       1.150
       1.039
       0.879
       0.679
       0.464
       0.257
       0.072
      -0.098
      -0.267
      -0.450
      -0.647
      -0.839
      -0.997
      -1.108
      -1.173
      -1.203
      -1.203
      -1.171
      -1.100
      -0.991
      -0.854
      -0.699
      -0.531
      -0.348
      -0.156
       0.029
       0.183
       0.290
       0.354
       0.390
       0.404
       0.394
       0.368
       0.348
       0.375
       0.484
       0.678
       0.911
       1.104
       1.181
       1.112
       0.921
       0.661
       0.377
       0.084
      -0.223
      -0.526
      -0.777
      -0.914
      -0.900
      -0.757
      -0.556
      -0.376
      -0.267
      -0.230
      -0.243
      -0.288
      -0.363
      -0.478
      -0.624
      -0.760
      -0.831
      -0.793
      -0.642
      -0.417
      -0.182
       0.011
       0.133
       0.179
       0.154
       0.066
      -0.073
      -0.238
      -0.394
      -0.505
      -0.547
      -0.518
      -0.432
      -0.315
      -0.189
      -0.070
       0.032
       0.122
       0.212
       0.315
       0.441
       0.583
       0.731
       0.877
       1.027
       1.189
       1.368
       1.546
       1.687
       1.746
       1.686
       1.496
       1.190
       0.812
       0.421
       0.074
      -0.185
      -0.339
      -0.392
      -0.368
      -0.301
      -0.223
      -0.155
      -0.106
      -0.076
      -0.062
      -0.061
      -0.064
      -0.058
      -0.023
       0.054
       0.169
       0.305
       0.436
       0.549
       0.640
       0.714
       0.773
       0.813
       0.818
       0.773
       0.670
       0.507
       0.295
       0.045
      -0.230
      -0.519
      -0.806
      -1.072
      -1.298
      -1.476
      -1.612
      -1.721
      -1.816
      -1.893
      -1.925
      -1.881
      -1.743
      -1.521
      -1.241
      -0.930
      -0.602
      -0.258
       0.101
       0.469
       0.838
       1.203
       1.568
       1.923
       2.239
       2.474
       2.587
       2.559
       2.400
       2.143
       1.830
       1.504
       1.201
       0.949
       0.759
       0.616
       0.488
       0.330
       0.112
      -0.178
      -0.526
      -0.905
      -1.285
      -1.632
      -1.916
      -2.115
      -2.227
      -2.274
      -2.290
      -2.312
      -2.356
      -2.417
      -2.473
      -2.487
      -2.423
      -2.255
      -1.977
      -1.602
      -1.152
      -0.648
      -0.109
       0.447
       0.994
       1.495
       1.914
       2.226
       2.425
       2.511
       2.488
       2.347
       2.085
       1.717
       1.284
       0.846
       0.455
       0.133
      -0.146
      -0.435
      -0.780
      -1.191
      -1.637
      -2.072
      -2.453
      -2.756
      -2.969
      -3.072
      -3.035
      -2.823
      -2.417
      -1.830
      -1.102
      -0.288
       0.554
       1.369
       2.110
       2.749
       3.283
       3.732
       4.111
       4.422
       4.650
       4.779
       4.809
       4.745
       4.587
       4.324
       3.940
       3.428
       2.799
       2.075
       1.284
       0.454
      -0.383
      -1.202
      -1.988
      -2.728
      -3.406
      -3.991
      -4.444
      -4.733
      -4.846
      -4.797
      -4.613
      -4.316
      -3.912
      -3.396
      -2.769
      -2.055
      -1.300
      -0.558
       0.132
       0.757
       1.316
       1.808
       2.223
       2.551
       2.793
       2.961
       3.067
       3.114
       3.086
       2.965
       2.738
       2.409
       1.997
       1.530
       1.037
       0.544
       0.077
      -0.339
      -0.680
      -0.936
      -1.108
      -1.217
      -1.292
      -1.363
      -1.456
      -1.573
      -1.701
      -1.807
      -1.854
      -1.804
      -1.638
      -1.359
      -1.000
      -0.612
      -0.248
       0.055
       0.278
       0.415
       0.460
       0.404
       0.257
       0.056
      -0.138
      -0.272
      -0.332
      -0.340
      -0.334
      -0.342
      -0.371
      -0.417
      -0.474
      -0.543
      -0.623
      -0.707
      -0.775
      -0.801
      -0.760
      -0.638
      -0.422
      -0.105
       0.315
       0.819
       1.366
       1.902
       2.377
       2.758
       3.027
       3.170
       3.170
       3.021
       2.733
       2.339
       1.879
       1.385
       0.870
       0.334
      -0.219
      -0.768
      -1.279
      -1.714
      -2.050
      -2.278
      -2.413
      -2.476
      -2.489
      -2.462
      -2.393
      -2.275
      -2.108
      -1.903
      -1.678
      -1.453
      -1.241
      -1.039
      -0.824
      -0.563
      -0.226
       0.186
       0.635
       1.055
       1.391
       1.622
       1.764
       1.843
       1.865
       1.810
       1.660
       1.432
       1.177
       0.954
       0.793
       0.672
       0.547
       0.386
       0.192
       0.002
      -0.146
      -0.240
      -0.303
      -0.369
      -0.461
      -0.577
      -0.691
      -0.774
      -0.804
      -0.777
      -0.720
      -0.679
      -0.698
      -0.789
      -0.917
      -1.018
      -1.043
      -0.978
      -0.846
      -0.675
      -0.464
      -0.182
       0.209
       0.712
       1.274
       1.806
       2.225
       2.491
       2.613
       2.622
       2.540
       2.376
       2.148
       1.898
       1.689
       1.565
       1.521
       1.503
       1.437
       1.276
       1.007
       0.644
       0.202
      -0.308
      -0.860
      -1.410
      -1.904
      -2.311
      -2.631
      -2.889
      -3.107
      -3.281
      -3.392
      -3.422
      -3.368
      -3.244
      -3.055
      -2.795
      -2.448
      -2.015
      -1.519
      -1.006
      -0.518
      -0.087
       0.279
       0.580
       0.815
       0.980
       1.074
       1.103
       1.087
       1.046
       0.991
       0.922
       0.835
       0.729
       0.628
       0.568
       0.590
       0.709
       0.907
       1.139
       1.355
       1.520
       1.615
       1.638
       1.592
       1.492
       1.362
       1.231
       1.120
       1.035
       0.962
       0.875
       0.743
       0.544
       0.264
      -0.088
      -0.478
      -0.839
      -1.099
      -1.204
      -1.136
      -0.911
      -0.559
      -0.113
       0.391
       0.908
       1.386
       1.777
       2.048
       2.194
       2.230
       2.178
       2.047
       1.827
       1.497
       1.045
       0.474
      -0.191
      -0.906
      -1.616
      -2.268
      -2.827
      -3.280
      -3.628
      -3.876
      -4.017
      -4.032
      -3.899
      -3.611
      -3.188
      -2.671
      -2.106
      -1.521
      -0.926
      -0.326
       0.268
       0.837
       1.357
       1.817
       2.221
       2.582
       2.905
       3.178
       3.372
       3.457
       3.411
       3.231
       2.931
       2.538
       2.086
       1.603
       1.116
       0.652
       0.244
      -0.076
      -0.294
      -0.431
      -0.536
      -0.677
      -0.899
      -1.214
      -1.592
      -1.985
      -2.340
      -2.620
      -2.802
      -2.874
      -2.839
      -2.708
      -2.502
      -2.252
      -1.987
      -1.733
      -1.505
      -1.297
      -1.087
      -0.848
      -0.566
      -0.243
       0.106
       0.467
       0.825
       1.160
       1.441
       1.633
       1.704
       1.643
       1.455
       1.163
       0.792
       0.371
      -0.077
      -0.535
      -0.993
      -1.451
      -1.917
      -2.389
      -2.847
      -3.240
      -3.509
      -3.607
      -3.519
      -3.253
      -2.823
      -2.232
      -1.484
      -0.608
       0.323
       1.203
       1.940
       2.499
       2.909
       3.236
       3.534
       3.816
       4.064
       4.255
       4.382
       4.447
       4.444
       4.344
       4.104
       3.682
       3.056
       2.238
       1.276
       0.244
      -0.773
      -1.697
      -2.481
      -3.120
      -3.635
      -4.056
      -4.398
      -4.654
      -4.801
      -4.819
      -4.698
      -4.428
      -3.989
      -3.351
      -2.501
      -1.472
      -0.350
       0.756
       1.746
       2.564
       3.195
       3.655
       3.972
       4.183
       4.321
       4.407
       4.438
       4.385
       4.205
       3.861
       3.332
       2.614
       1.717
       0.664
      -0.503
      -1.716
      -2.894
      -3.965
      -4.890
      -5.660
      -6.281
      -6.749
      -7.038
      -7.114
      -6.962
      -6.597
      -6.061
      -5.392
      -4.610
      -3.714
      -2.707
      -1.613
      -0.477
       0.645
       1.706
       2.670
       3.524
       4.269
       4.909
       5.442
       5.851
       6.105
       6.183
       6.094
       5.865
       5.516
       5.041
       4.414
       3.619
       2.673
       1.626
       0.532
      -0.567
      -1.635
      -2.635
      -3.520
      -4.245
      -4.790
      -5.161
      -5.368
      -5.402
      -5.230
      -4.815
      -4.145
      -3.237
      -2.138
      -0.905
       0.392
       1.662
       2.811
       3.757
       4.456
       4.902
       5.106
       5.093
       4.901
       4.586
       4.208
       3.797
       3.341
       2.811
       2.198
       1.528
       0.844
       0.181
      -0.437
      -0.987
      -1.430
      -1.722
      -1.834
      -1.767
      -1.549
      -1.208
      -0.764
      -0.229
       0.372
       0.988
       1.558
       2.029
       2.382
       2.633
       2.812
       2.939
       3.012
       3.021
       2.962
       2.840
       2.673
       2.478
       2.278
       2.091
       1.932
       1.804
       1.695
       1.598
       1.511
       1.443
       1.398
       1.376
       1.372
       1.389
       1.437
       1.520
       1.619
       1.689
       1.674
       1.542
       1.295
       0.973
       0.618
       0.255
      -0.114
      -0.504
      -0.930
      -1.401
      -1.909
      -2.433
      -2.934
      -3.369
      -3.696
      -3.884
      -3.919
      -3.797
      -3.520
      -3.096
      -2.542
      -1.878
      -1.128
      -0.316
       0.531
       1.369
       2.139
       2.766
       3.184
       3.345
       3.236
       2.872
       2.288
       1.529
       0.642
      -0.324
      -1.324
      -2.314
      -3.255
      -4.107
      -4.832
      -5.402
      -5.801
      -6.027
      -6.068
      -5.900
      -5.498
      -4.853
      -3.990
      -2.951
      -1.773
      -0.482
       0.893
       2.283
       3.571
       4.635
       5.389
       5.813
       5.938
       5.793
       5.385
       4.699
       3.727
       2.488
       1.029
      -0.580
      -2.252
      -3.888
      -5.397
      -6.718
      -7.844
      -8.799
      -9.605
     -10.260
     -10.737
     -11.012
     -11.081
     -10.940
     -10.565
      -9.916
      -8.951
      -7.663
      -6.089
      -4.305
      -2.415
      -0.522
       1.283
       2.944
       4.435
       5.747
       6.870
       7.792
       8.513
       9.045
       9.406
       9.598
       9.587
       9.305
       8.679
       7.674
       6.324
       4.734
       3.051
       1.419
      -0.056
      -1.316
      -2.335
      -3.095
      -3.566
      -3.721
      -3.556
      -3.105
      -2.445
      -1.668
      -0.852
      -0.038
       0.766
       1.561
       2.336
       3.061
       3.716
       4.296
       4.815
       5.277
       5.653
       5.888
       5.922
       5.721
       5.289
       4.667
       3.918
       3.117
       2.342
       1.647
       1.045
       0.501
      -0.047
      -0.644
      -1.291
      -1.952
      -2.573
      -3.106
      -3.514
      -3.765
      -3.826
      -3.667
      -3.290
      -2.746
      -2.141
      -1.599
      -1.211
      -1.004
      -0.940
      -0.942
      -0.942
      -0.895
      -0.777
      -0.578
      -0.300
       0.041
       0.407
       0.755
       1.047
       1.261
       1.385
       1.421
       1.382
       1.285
       1.142
       0.964
       0.755
       0.527
       0.296
       0.075
      -0.126
      -0.301
      -0.453
      -0.588
      -0.731
      -0.921
      -1.204
      -1.606
      -2.116
      -2.682
      -3.230
      -3.691
      -4.027
      -4.232
      -4.311
      -4.262
      -4.069
      -3.722
      -3.236
      -2.646
      -2.004
      -1.351
      -0.713
      -0.103
       0.468
       0.986
       1.442
       1.832
       2.159
       2.412
       2.556
       2.536
       2.307
       1.864
       1.256
       0.567
      -0.121
      -0.747
      -1.279
      -1.698
      -1.988
      -2.135
      -2.136
      -2.009
      -1.799
      -1.571
      -1.386
      -1.283
      -1.263
      -1.301
      -1.357
      -1.387
      -1.339
      -1.153
      -0.781
      -0.210
       0.517
       1.310
       2.063
       2.678
       3.086
       3.239
       3.111
       2.702
       2.056
       1.270
       0.476
      -0.208
      -0.726
      -1.091
      -1.357
      -1.575
      -1.762
      -1.910
      -2.020
      -2.115
      -2.238
      -2.430
      -2.702
      -3.024
      -3.332
      -3.553
      -3.625
      -3.514
      -3.213
      -2.728
      -2.072
      -1.260
      -0.317
       0.709
       1.745
       2.703
       3.503
       4.101
       4.496
       4.729
       4.857
       4.930
       4.982
       5.035
       5.118
       5.254
       5.447
       5.656
       5.802
       5.808
       5.637
       5.307
       4.878
       4.420
       3.991
       3.626
       3.336
       3.115
       2.941
       2.780
       2.592
       2.346
       2.028
       1.657
       1.275
       0.922
       0.610
       0.306
      -0.059
      -0.558
      -1.224
      -2.046
      -2.979
      -3.971
      -4.987
      -5.999
      -6.981
      -7.894
      -8.695
      -9.355
      -9.859
     -10.198
     -10.355
     -10.296
      -9.969
      -9.323
      -8.329
      -7.009
      -5.438
      -3.721
      -1.961
      -0.222
       1.469
       3.100
       4.655
       6.102
       7.401
       8.503
       9.355
       9.907
      10.125
      10.008
       9.589
       8.930
       8.106
       7.192
       6.247
       5.305
       4.378
       3.473
       2.605
       1.791
       1.047
       0.377
      -0.219
      -0.726
      -1.116
      -1.360
      -1.466
      -1.493
      -1.536
      -1.686
      -1.980
      -2.380
      -2.793
      -3.131
      -3.363
      -3.528
      -3.694
      -3.905
      -4.138
      -4.314
      -4.334
      -4.121
      -3.642
      -2.904
      -1.946
      -0.828
       0.363
       1.531
       2.581
       3.450
       4.109
       4.559
       4.810
       4.884
       4.810
       4.622
       4.335
       3.941
       3.419
       2.770
       2.042
       1.328
       0.729
       0.311
       0.083
       0.002
      -0.002
      -0.001
      -0.052
      -0.193
      -0.461
      -0.890
      -1.499
      -2.264
      -3.112
      -3.938
      -4.654
      -5.215
      -5.621
      -5.890
      -6.036
      -6.052
      -5.931
      -5.675
      -5.306
      -4.855
      -4.352
      -3.817
      -3.255
      -2.651
      -1.971
      -1.172
      -0.229
       0.831
       1.915
       2.894
       3.659
       4.158
       4.399
       4.428
       4.306
       4.110
       3.936
       3.886
       4.032
       4.385
       4.874
       5.378
       5.759
       5.920
       5.834
       5.543
       5.130
       4.663
       4.175
       3.647
       3.022
       2.229
       1.212
      -0.036
      -1.462
      -2.956
      -4.379
      -5.600
      -6.523
      -7.106
      -7.362
      -7.346
      -7.141
      -6.829
      -6.470
      -6.086
      -5.654
      -5.108
      -4.367
      -3.371
      -2.105
      -0.619
       0.981
       2.552
       3.952
       5.065
       5.819
       6.196
       6.218
       5.945
       5.463
       4.852
       4.162
       3.402
       2.555
       1.618
       0.614
      -0.410
      -1.407
      -2.350
      -3.225
      -4.022
      -4.716
      -5.268
      -5.638
      -5.803
      -5.760
      -5.524
      -5.105
      -4.510
      -3.740
      -2.805
      -1.738
      -0.589
       0.581
       1.704
       2.705
       3.510
       4.072
       4.384
       4.493
       4.472
       4.392
       4.285
       4.142
       3.923
       3.592
       3.148
       2.629
       2.100
       1.616
       1.202
       0.855
       0.560
       0.308
       0.095
      -0.088
      -0.267
      -0.483
      -0.767
      -1.120
      -1.510
