Origin Time       1/5/2013 06:57:12	 
Lat.              33.1 N	
Long.             75.8 E	
Depth (Km)         15.0
Magnitude         5.8
 Region           JK-HP-Border                                                     
 Above details taken from IMD 
   
Station Code      DSA
Station Lat.       31.805
Station Long.      75.660
Station Height(m)    1.0
Site Class        C   Vs30 between 200 m/sec to 375 m/sec *  
Record Time       01.05.2013 06:57:47.064
Sampling Rate     200. Hz
 Record Duration   70.195 Sec.
 Direction         Vert. (Up positive)
Max. Acceleration     -5.631 cm/sec**2
     
  * For reference see Site Classification link of website 
     
 Base Line Corrected and Low Pass Filtered (Cut Off at 35 Hz) Time History
 Acceleration data in cm/sec**2
    
[...]
       3.015
       2.780
       2.293
       1.643
       0.943
       0.299
      -0.219
      -0.594
      -0.833
      -0.932
      -0.872
      -0.642
      -0.282
       0.118
       0.452
       0.638
       0.638
       0.469
       0.189
      -0.115
      -0.356
      -0.487
      -0.512
      -0.467
      -0.374
      -0.228
      -0.014
       0.256
       0.531
       0.745
       0.865
       0.891
       0.844
       0.731
       0.548
       0.306
       0.035
      -0.228
      -0.469
      -0.694
      -0.902
      -1.046
      -1.040
      -0.813
      -0.369
       0.196
       0.735
       1.111
       1.249
       1.149
       0.868
       0.498
       0.140
      -0.127
      -0.270
      -0.309
      -0.309
      -0.342
      -0.457
      -0.658
      -0.912
      -1.164
      -1.363
      -1.469
      -1.462
      -1.342
      -1.122
      -0.830
      -0.508
      -0.208
       0.015
       0.125
       0.127
       0.077
       0.043
       0.072
       0.161
       0.270
       0.348
       0.355
       0.273
       0.102
      -0.137
      -0.393
      -0.601
      -0.708
      -0.711
      -0.653
      -0.588
      -0.534
      -0.464
      -0.327
      -0.085
       0.258
       0.656
       1.042
       1.356
       1.550
       1.602
       1.515
       1.314
       1.032
       0.698
       0.323
      -0.092
      -0.536
      -0.968
      -1.319
      -1.517
      -1.514
      -1.307
      -0.943
      -0.503
      -0.086
       0.230
       0.422
       0.524
       0.584
       0.617
       0.571
       0.369
      -0.030
      -0.566
      -1.091
      -1.426
      -1.439
      -1.101
      -0.493
       0.215
       0.822
       1.184
       1.273
       1.177
       1.032
       0.926
       0.865
       0.804
       0.712
       0.592
       0.457
       0.280
       0.003
      -0.421
      -0.959
      -1.489
      -1.849
      -1.895
      -1.550
      -0.827
       0.153
       1.178
       1.995
       2.400
       2.323
       1.850
       1.177
       0.510
      -0.021
      -0.376
      -0.574
      -0.654
      -0.644
      -0.556
      -0.393
      -0.150
       0.168
       0.530
       0.869
       1.089
       1.096
       0.830
       0.289
      -0.469
      -1.339
      -2.187
      -2.866
      -3.246
      -3.255
      -2.897
      -2.248
      -1.421
      -0.528
       0.335
       1.079
       1.626
       1.931
       2.015
       1.964
       1.875
       1.792
       1.691
       1.510
       1.215
       0.831
       0.422
       0.055
      -0.222
      -0.393
      -0.476
      -0.521
      -0.595
      -0.750
      -0.990
      -1.276
      -1.541
      -1.719
      -1.756
      -1.610
      -1.253
      -0.692
       0.017
       0.768
       1.440
       1.931
       2.186
       2.194
       1.972
       1.552
       0.972
       0.297
      -0.377
      -0.935
      -1.288
      -1.420
      -1.389
      -1.281
      -1.144
      -0.954
      -0.633
      -0.124
       0.555
       1.285
       1.895
       2.233
       2.221
       1.864
       1.234
       0.436
      -0.415
      -1.206
      -1.826
      -2.177
      -2.199
      -1.886
      -1.293
      -0.515
       0.331
       1.120
       1.722
       2.015
       1.918
       1.431
       0.654
      -0.236
      -1.042
      -1.613
      -1.883
      -1.866
      -1.615
      -1.185
      -0.610
       0.080
       0.831
       1.547
       2.104
       2.389
       2.355
       2.036
       1.527
       0.942
       0.378
      -0.096
      -0.425
      -0.574
      -0.539
      -0.362
      -0.147
      -0.029
      -0.126
      -0.477
      -1.017
      -1.589
      -2.007
      -2.140
      -1.964
      -1.572
      -1.121
      -0.748
      -0.507
      -0.364
      -0.247
      -0.109
       0.055
       0.222
       0.377
       0.525
       0.680
       0.847
       1.015
       1.161
       1.259
       1.279
       1.204
       1.036
       0.813
       0.596
       0.440
       0.357
       0.307
       0.231
       0.101
      -0.064
      -0.217
      -0.324
      -0.387
      -0.444
      -0.532
      -0.659
      -0.789
      -0.849
      -0.769
      -0.521
      -0.140
       0.290
       0.674
       0.941
       1.060
       1.025
       0.834
       0.483
      -0.011
      -0.591
      -1.153
      -1.584
      -1.799
      -1.761
      -1.477
      -0.988
      -0.355
       0.341
       1.010
       1.565
       1.932
       2.057
       1.914
       1.524
       0.974
       0.405
      -0.034
      -0.244
      -0.227
      -0.067
       0.117
       0.227
       0.219
       0.103
      -0.077
      -0.258
      -0.388
      -0.451
      -0.467
      -0.490
      -0.570
      -0.720
      -0.899
      -1.026
      -1.014
      -0.815
      -0.445
       0.028
       0.508
       0.907
       1.168
       1.272
       1.228
       1.051
       0.741
       0.293
      -0.272
      -0.879
      -1.410
      -1.757
      -1.873
      -1.784
      -1.548
      -1.214
      -0.809
      -0.361
       0.078
       0.437
       0.668
       0.777
       0.821
       0.866
       0.935
       0.987
       0.943
       0.733
       0.348
      -0.141
      -0.601
      -0.889
      -0.914
      -0.675
      -0.253
       0.215
       0.591
       0.773
       0.724
       0.477
       0.120
      -0.242
      -0.514
      -0.637
      -0.586
      -0.362
       0.001
       0.433
       0.825
       1.046
       0.993
       0.631
       0.024
      -0.682
      -1.316
      -1.744
      -1.914
      -1.850
      -1.622
      -1.307
      -0.965
      -0.635
      -0.346
      -0.112
       0.078
       0.260
       0.480
       0.758
       1.069
       1.356
       1.572
       1.708
       1.786
       1.820
       1.793
       1.669
       1.424
       1.077
       0.673
       0.248
      -0.191
      -0.653
      -1.132
      -1.584
      -1.935
      -2.107
      -2.053
      -1.784
      -1.377
      -0.953
      -0.630
      -0.472
      -0.476
      -0.580
      -0.700
      -0.753
      -0.662
      -0.368
       0.153
       0.860
       1.625
       2.255
       2.567
       2.461
       1.980
       1.277
       0.545
      -0.077
      -0.542
      -0.879
      -1.134
      -1.319
      -1.412
      -1.387
      -1.258
      -1.081
      -0.922
      -0.815
      -0.736
      -0.630
      -0.459
      -0.236
      -0.020
       0.127
       0.186
       0.199
       0.250
       0.415
       0.713
       1.085
       1.429
       1.656
       1.725
       1.644
       1.434
       1.104
       0.663
       0.136
      -0.419
      -0.924
      -1.312
      -1.548
      -1.624
      -1.547
      -1.335
      -1.025
      -0.677
      -0.361
      -0.120
       0.037
       0.131
       0.181
       0.200
       0.195
       0.168
       0.131
       0.108
       0.134
       0.241
       0.446
       0.736
       1.062
       1.349
       1.525
       1.550
       1.430
       1.211
       0.964
       0.760
       0.649
       0.637
       0.672
       0.662
       0.512
       0.167
      -0.367
      -1.019
      -1.682
      -2.234
      -2.564
      -2.600
      -2.336
      -1.841
      -1.243
      -0.683
      -0.269
      -0.056
      -0.049
      -0.205
      -0.446
      -0.678
      -0.822
      -0.837
      -0.728
      -0.524
      -0.256
       0.062
       0.435
       0.873
       1.376
       1.915
       2.415
       2.756
       2.797
       2.445
       1.707
       0.698
      -0.409
      -1.440
      -2.258
      -2.781
      -2.982
      -2.889
      -2.564
      -2.086
      -1.524
      -0.935
      -0.368
       0.138
       0.547
       0.836
       0.997
       1.045
       1.020
       0.976
       0.976
       1.080
       1.319
       1.677
       2.077
       2.400
       2.523
       2.371
       1.944
       1.315
       0.592
      -0.120
      -0.739
      -1.194
      -1.428
      -1.413
      -1.175
      -0.803
      -0.415
      -0.103
       0.100
       0.222
       0.316
       0.401
       0.429
       0.296
      -0.089
      -0.730
      -1.505
      -2.209
      -2.637
      -2.664
      -2.274
      -1.547
      -0.619
       0.364
       1.272
       2.006
       2.494
       2.695
       2.600
       2.238
       1.680
       1.013
       0.312
      -0.376
      -1.016
      -1.551
      -1.892
      -1.938
      -1.633
      -1.015
      -0.215
       0.580
       1.198
       1.526
       1.536
       1.265
       0.790
       0.214
      -0.350
      -0.803
      -1.080
      -1.173
      -1.118
      -0.960
      -0.728
      -0.441
      -0.139
       0.101
       0.198
       0.120
      -0.084
      -0.300
      -0.413
      -0.348
      -0.089
       0.338
       0.878
       1.457
       1.981
       2.352
       2.479
       2.301
       1.803
       1.018
       0.039
      -0.978
      -1.838
      -2.368
      -2.484
      -2.220
      -1.711
      -1.124
      -0.602
      -0.230
      -0.026
       0.037
       0.002
      -0.095
      -0.251
      -0.486
      -0.819
      -1.224
      -1.620
      -1.891
      -1.925
      -1.652
      -1.064
      -0.222
       0.752
       1.695
       2.445
       2.886
       2.983
       2.788
       2.407
       1.949
       1.484
       1.030
       0.581
       0.146
      -0.235
      -0.495
      -0.579
      -0.471
      -0.202
       0.167
       0.561
       0.912
       1.175
       1.330
       1.382
       1.338
       1.197
       0.955
       0.619
       0.222
      -0.193
      -0.589
      -0.949
      -1.257
      -1.470
      -1.519
      -1.332
      -0.900
      -0.298
       0.343
       0.907
       1.354
       1.705
       1.995
       2.224
       2.353
       2.327
       2.116
       1.724
       1.181
       0.523
      -0.205
      -0.943
      -1.605
      -2.099
      -2.348
      -2.331
      -2.079
      -1.663
      -1.157
      -0.625
      -0.115
       0.326
       0.667
       0.897
       1.029
       1.076
       1.029
       0.867
       0.579
       0.179
      -0.280
      -0.708
      -0.994
      -1.044
      -0.820
      -0.369
       0.190
       0.707
       1.040
       1.083
       0.788
       0.183
      -0.616
      -1.426
      -2.066
      -2.427
      -2.495
      -2.317
      -1.958
      -1.489
      -1.008
      -0.631
      -0.448
      -0.468
      -0.611
      -0.758
      -0.821
      -0.792
      -0.718
      -0.659
      -0.627
      -0.579
      -0.438
      -0.149
       0.266
       0.707
       1.040
       1.176
       1.114
       0.917
       0.659
       0.374
       0.070
      -0.233
      -0.481
      -0.611
      -0.585
      -0.414
      -0.152
       0.128
       0.354
       0.467
       0.440
       0.279
       0.020
      -0.305
      -0.683
      -1.109
      -1.552
      -1.924
      -2.094
      -1.953
      -1.472
      -0.739
       0.086
       0.828
       1.360
       1.614
       1.576
       1.255
       0.685
      -0.069
      -0.885
      -1.602
      -2.070
      -2.208
      -2.031
      -1.628
      -1.107
      -0.558
      -0.030
       0.467
       0.951
       1.447
       1.956
       2.435
       2.787
       2.893
       2.670
       2.116
       1.318
       0.427
      -0.392
      -1.008
      -1.342
      -1.370
      -1.124
      -0.690
      -0.194
       0.227
       0.476
       0.527
       0.427
       0.259
       0.102
       0.006
      -0.002
       0.100
       0.329
       0.689
       1.150
       1.649
       2.091
       2.371
       2.397
       2.118
       1.534
       0.701
      -0.273
      -1.233
      -1.998
      -2.399
      -2.333
      -1.816
      -0.978
      -0.026
       0.840
       1.483
       1.851
       1.952
       1.818
       1.485
       1.000
       0.430
      -0.136
      -0.611
      -0.924
      -1.032
      -0.916
      -0.591
      -0.115
       0.404
       0.845
       1.104
       1.135
       0.950
       0.610
       0.193
      -0.241
      -0.665
      -1.086
      -1.507
      -1.899
      -2.187
      -2.285
      -2.142
      -1.760
      -1.198
      -0.546
       0.097
       0.653
       1.086
       1.393
       1.579
       1.648
       1.608
       1.491
       1.346
       1.216
       1.109
       1.002
       0.870
       0.718
       0.579
       0.476
       0.384
       0.229
      -0.077
      -0.578
      -1.237
      -1.932
      -2.503
      -2.809
      -2.790
      -2.476
      -1.963
      -1.360
      -0.750
      -0.182
       0.326
       0.780
       1.200
       1.609
       2.013
       2.382
       2.648
       2.740
       2.622
       2.308
       1.855
       1.330
       0.802
       0.327
      -0.065
      -0.379
      -0.648
      -0.896
      -1.119
      -1.279
      -1.324
      -1.213
      -0.933
      -0.507
      -0.002
       0.488
       0.862
       1.058
       1.070
       0.939
       0.722
       0.464
       0.191
      -0.087
      -0.368
      -0.656
      -0.958
      -1.287
      -1.654
      -2.059
      -2.466
      -2.792
      -2.914
      -2.727
      -2.209
      -1.457
      -0.664
      -0.043
       0.257
       0.204
      -0.118
      -0.553
      -0.925
      -1.087
      -0.946
      -0.480
       0.257
       1.148
       2.043
       2.797
       3.295
       3.469
       3.293
       2.785
       1.993
       0.982
      -0.193
      -1.485
      -2.826
      -4.086
      -5.084
      -5.631
      -5.601
      -4.973
      -3.828
      -2.316
      -0.626
       1.034
       2.459
       3.490
       4.051
       4.162
       3.906
       3.392
       2.735
       2.051
       1.446
       0.991
       0.697
       0.517
       0.380
       0.242
       0.109
       0.014
      -0.033
      -0.069
      -0.149
      -0.298
      -0.488
      -0.662
      -0.754
      -0.706
      -0.463
       0.016
       0.712
       1.525
       2.307
       2.927
       3.318
       3.461
       3.338
       2.911
       2.169
       1.181
       0.097
      -0.920
      -1.774
      -2.460
      -3.011
      -3.443
      -3.725
      -3.799
      -3.612
      -3.143
      -2.422
      -1.543
      -0.659
       0.046
       0.415
       0.378
      -0.014
      -0.610
      -1.224
      -1.691
      -1.904
      -1.820
      -1.464
      -0.937
      -0.388
       0.037
       0.274
       0.374
       0.458
       0.637
       0.947
       1.347
       1.766
       2.131
       2.384
       2.473
       2.369
       2.090
       1.712
       1.340
       1.051
       0.857
       0.714
       0.555
       0.341
       0.073
      -0.218
      -0.500
      -0.755
      -0.970
      -1.123
      -1.188
      -1.142
      -0.992
      -0.771
      -0.523
      -0.283
      -0.057
       0.175
       0.443
       0.760
       1.100
       1.393
       1.536
       1.442
       1.086
       0.531
      -0.112
      -0.745
      -1.311
      -1.787
      -2.156
      -2.399
      -2.516
      -2.529
      -2.469
      -2.340
      -2.121
      -1.801
      -1.420
      -1.080
      -0.893
      -0.909
      -1.074
      -1.256
      -1.317
      -1.171
      -0.801
      -0.240
       0.462
       1.249
       2.057
       2.819
       3.466
       3.943
       4.213
       4.248
       4.026
       3.534
       2.776
       1.793
       0.667
      -0.493
      -1.562
      -2.414
      -2.933
      -3.031
      -2.678
      -1.926
      -0.918
       0.150
       1.087
       1.766
       2.143
       2.241
       2.113
       1.810
       1.377
       0.855
       0.304
      -0.197
      -0.564
      -0.739
      -0.716
      -0.544
      -0.292
      -0.014
       0.259
       0.495
       0.655
       0.702
       0.639
       0.519
       0.414
       0.359
       0.326
       0.235
       0.018
      -0.325
      -0.710
      -1.009
      -1.112
      -0.985
      -0.668
      -0.252
       0.158
       0.472
       0.623
       0.582
       0.363
       0.015
      -0.380
      -0.715
      -0.869
      -0.747
      -0.329
       0.295
       0.964
       1.512
       1.835
       1.894
       1.695
       1.271
       0.681
       0.013
      -0.635
      -1.190
      -1.627
      -1.938
      -2.094
      -2.035
      -1.720
      -1.176
      -0.493
       0.211
       0.829
       1.267
       1.446
       1.321
       0.892
       0.220
      -0.575
      -1.317
      -1.809
      -1.900
      -1.539
      -0.801
       0.163
       1.187
       2.140
       2.915
       3.391
       3.445
       3.018
       2.181
       1.130
       0.096
      -0.766
      -1.412
      -1.862
      -2.144
      -2.272
      -2.272
      -2.187
      -2.061
      -1.904
      -1.692
      -1.391
      -0.995
      -0.538
      -0.080
       0.318
       0.607
       0.767
       0.808
       0.771
       0.709
       0.655
       0.602
       0.524
       0.395
       0.206
      -0.049
      -0.383
      -0.799
      -1.262
      -1.680
      -1.931
      -1.927
      -1.661
      -1.207
      -0.674
      -0.160
       0.262
       0.542
       0.640
       0.537
       0.250
      -0.172
      -0.653
      -1.094
      -1.393
      -1.469
      -1.305
      -0.972
      -0.602
      -0.315
      -0.172
      -0.151
      -0.185
      -0.194
      -0.112
       0.090
       0.395
       0.730
       0.996
       1.120
       1.092
       0.968
       0.816
       0.673
       0.517
       0.302
       0.018
      -0.271
      -0.462
      -0.483
      -0.351
      -0.174
      -0.089
      -0.196
      -0.508
      -0.954
      -1.424
      -1.819
      -2.085
      -2.209
      -2.192
      -2.043
      -1.800
      -1.544
      -1.358
      -1.257
      -1.153
      -0.902
      -0.398
       0.358
       1.268
       2.181
       2.943
       3.424
       3.530
       3.245
       2.658
       1.959
       1.363
       1.018
       0.944
       1.032
       1.105
       0.995
       0.620
       0.012
      -0.695
      -1.327
      -1.727
      -1.804
      -1.546
      -1.009
      -0.293
       0.492
       1.259
       1.953
       2.536
       2.979
       3.247
       3.297
       3.084
       2.577
       1.774
       0.712
      -0.528
      -1.809
      -2.958
      -3.803
      -4.236
      -4.241
      -3.876
      -3.232
      -2.399
      -1.465
      -0.534
       0.280
       0.890
       1.277
       1.488
       1.603
       1.677
       1.715
       1.684
       1.550
       1.311
       1.007
       0.709
       0.498
       0.416
       0.431
       0.435
       0.291
      -0.090
      -0.698
      -1.432
      -2.149
      -2.720
      -3.039
      -3.007
      -2.545
      -1.643
      -0.421
       0.869
       1.927
       2.521
       2.577
       2.178
       1.515
       0.814
       0.279
       0.038
       0.105
       0.373
       0.654
       0.770
       0.634
       0.276
      -0.192
      -0.643
      -0.983
      -1.171
      -1.224
      -1.198
      -1.155
      -1.113
      -1.039
      -0.864
      -0.536
      -0.057
       0.506
       1.035
       1.400
       1.505
       1.329
       0.939
       0.461
       0.020
      -0.306
      -0.489
      -0.520
      -0.404
      -0.185
       0.041
       0.151
