Origin Time       11/11/2013 20:11:30 UTC
Lat.              28.4 N	
Long.             77.2 E	
Depth (Km)         10.0
Magnitude         3.3
 Region           DELHI                                                            
 Above details taken from IMD 
    
Station Code      GGI
Station Lat.       28.665  N
Station Long.      77.232  E
Station Height(m)  207.0
Site Class        C   Vs30 between 200 m/sec to 375 m/sec *  
Record Time       11.11.2013 21:22:29.249 UTC
Sampling Rate     200. Hz
 Record Duration   81.090 Sec.
 Direction         N-S (N positive)
Max. Acceleration    -37.430 cm/sec**2
     
  * For reference see Site Classification link of website 
     
 Base Line Corrected and Low Pass Filtered (Cut Off at 35 Hz) Time History
 Acceleration data in cm/sec**2
    
[...]
      -0.048
       0.088
       0.183
       0.193
       0.120
       0.013
      -0.069
      -0.086
      -0.035
       0.053
       0.130
       0.162
       0.138
       0.076
       0.013
      -0.021
      -0.017
       0.005
       0.015
      -0.011
      -0.069
      -0.132
      -0.166
      -0.142
      -0.062
       0.042
       0.120
       0.132
       0.066
      -0.048
      -0.156
      -0.204
      -0.168
      -0.068
       0.041
       0.102
       0.090
       0.024
      -0.044
      -0.070
      -0.042
       0.014
       0.060
       0.071
       0.049
       0.014
      -0.017
      -0.032
      -0.024
       0.014
       0.076
       0.137
       0.153
       0.095
      -0.021
      -0.134
      -0.176
      -0.128
      -0.031
       0.044
       0.056
       0.016
      -0.029
      -0.044
      -0.032
      -0.020
      -0.028
      -0.048
      -0.051
      -0.019
       0.034
       0.071
       0.065
       0.024
      -0.012
      -0.009
       0.029
       0.060
       0.042
      -0.026
      -0.095
      -0.107
      -0.040
       0.069
       0.156
       0.171
       0.115
       0.026
      -0.051
      -0.091
      -0.091
      -0.061
      -0.013
       0.037
       0.072
       0.081
       0.064
       0.033
       0.002
      -0.015
      -0.018
      -0.017
      -0.021
      -0.031
      -0.037
      -0.031
      -0.017
      -0.009
      -0.019
      -0.045
      -0.081
      -0.117
      -0.145
      -0.156
      -0.136
      -0.077
       0.015
       0.115
       0.187
       0.198
       0.142
       0.040
      -0.064
      -0.125
      -0.120
      -0.053
       0.043
       0.120
       0.137
       0.081
      -0.021
      -0.115
      -0.151
      -0.114
      -0.040
       0.015
       0.009
      -0.050
      -0.115
      -0.131
      -0.082
       0.007
       0.087
       0.124
       0.115
       0.081
       0.044
       0.014
      -0.016
      -0.049
      -0.075
      -0.077
      -0.048
      -0.001
       0.036
       0.047
       0.039
       0.029
       0.029
       0.030
       0.014
      -0.024
      -0.065
      -0.079
      -0.052
       0.002
       0.046
       0.051
       0.018
      -0.027
      -0.052
      -0.040
       0.000
       0.046
       0.077
       0.085
       0.075
       0.052
       0.025
       0.007
       0.007
       0.026
       0.051
       0.063
       0.053
       0.021
      -0.019
      -0.051
      -0.061
      -0.046
      -0.015
       0.008
       0.003
      -0.038
      -0.097
      -0.149
      -0.171
      -0.160
      -0.123
      -0.079
      -0.040
      -0.012
       0.008
       0.028
       0.053
       0.079
       0.096
       0.092
       0.068
       0.040
       0.025
       0.036
       0.064
       0.087
       0.084
       0.048
      -0.004
      -0.047
      -0.061
      -0.043
      -0.007
       0.026
       0.040
       0.032
       0.008
      -0.024
      -0.058
      -0.087
      -0.099
      -0.083
      -0.039
       0.013
       0.039
       0.010
      -0.071
      -0.164
      -0.213
      -0.183
      -0.087
       0.019
       0.083
       0.088
       0.059
       0.031
       0.021
       0.021
       0.019
       0.013
       0.013
       0.031
       0.065
       0.102
       0.123
       0.111
       0.067
       0.009
      -0.033
      -0.037
       0.000
       0.061
       0.116
       0.137
       0.108
       0.040
      -0.036
      -0.084
      -0.086
      -0.049
       0.010
       0.068
       0.113
       0.129
       0.103
       0.033
      -0.061
      -0.142
      -0.171
      -0.137
      -0.067
      -0.018
      -0.036
      -0.117
      -0.209
      -0.245
      -0.195
      -0.093
      -0.004
       0.020
      -0.016
      -0.071
      -0.097
      -0.079
      -0.031
       0.026
       0.081
       0.132
       0.170
       0.179
       0.147
       0.079
      -0.004
      -0.069
      -0.088
      -0.052
       0.025
       0.110
       0.160
       0.146
       0.069
      -0.036
      -0.119
      -0.141
      -0.097
      -0.016
       0.058
       0.089
       0.070
       0.018
      -0.035
      -0.061
      -0.050
      -0.018
       0.007
       0.005
      -0.023
      -0.053
      -0.061
      -0.040
      -0.006
       0.016
       0.013
      -0.005
      -0.019
      -0.016
       0.000
       0.011
       0.004
      -0.020
      -0.046
      -0.056
      -0.044
      -0.019
      -0.002
      -0.008
      -0.031
      -0.042
      -0.009
       0.072
       0.158
       0.186
       0.120
      -0.005
      -0.107
      -0.117
      -0.040
       0.059
       0.105
       0.071
      -0.013
      -0.095
      -0.141
      -0.148
      -0.130
      -0.098
      -0.062
      -0.025
       0.001
       0.005
      -0.018
      -0.054
      -0.074
      -0.055
       0.002
       0.063
       0.084
       0.043
      -0.038
      -0.108
      -0.122
      -0.069
       0.022
       0.101
       0.128
       0.097
       0.037
      -0.006
      -0.002
       0.043
       0.094
       0.110
       0.076
       0.012
      -0.044
      -0.060
      -0.031
       0.018
       0.054
       0.055
       0.024
      -0.021
      -0.058
      -0.068
      -0.048
      -0.005
       0.034
       0.043
       0.014
      -0.034
      -0.067
      -0.061
      -0.021
       0.025
       0.049
       0.039
       0.005
      -0.034
      -0.060
      -0.064
      -0.047
      -0.012
       0.033
       0.070
       0.070
       0.016
      -0.079
      -0.165
      -0.180
      -0.089
       0.077
       0.233
       0.284
       0.192
       0.005
      -0.169
      -0.231
      -0.161
      -0.029
       0.064
       0.059
      -0.025
      -0.117
      -0.154
      -0.126
      -0.069
      -0.023
      -0.001
       0.011
       0.030
       0.056
       0.072
       0.059
       0.021
      -0.015
      -0.027
      -0.009
       0.015
       0.018
      -0.007
      -0.036
      -0.036
       0.003
       0.051
       0.065
       0.021
      -0.057
      -0.119
      -0.126
      -0.084
      -0.028
       0.009
       0.018
       0.010
      -0.005
      -0.023
      -0.044
      -0.062
      -0.068
      -0.062
      -0.053
      -0.052
      -0.058
      -0.056
      -0.029
       0.023
       0.075
       0.092
       0.060
       0.010
      -0.007
       0.036
       0.113
       0.159
       0.126
       0.028
      -0.066
      -0.083
      -0.007
       0.104
       0.158
       0.104
      -0.028
      -0.148
      -0.178
      -0.103
       0.026
       0.134
       0.169
       0.119
       0.009
      -0.105
      -0.160
      -0.124
      -0.024
       0.061
       0.053
      -0.052
      -0.181
      -0.237
      -0.176
      -0.033
       0.106
       0.173
       0.156
       0.091
       0.027
      -0.003
      -0.002
       0.009
       0.007
      -0.016
      -0.052
      -0.082
      -0.095
      -0.089
      -0.063
      -0.014
       0.060
       0.138
       0.177
       0.142
       0.042
      -0.065
      -0.108
      -0.061
       0.038
       0.113
       0.110
       0.033
      -0.064
      -0.125
      -0.126
      -0.077
      -0.006
       0.060
       0.098
       0.091
       0.034
      -0.056
      -0.138
      -0.171
      -0.132
      -0.036
       0.072
       0.138
       0.128
       0.042
      -0.074
      -0.156
      -0.160
      -0.086
       0.018
       0.101
       0.135
       0.122
       0.084
       0.039
      -0.002
      -0.033
      -0.048
      -0.043
      -0.023
      -0.005
      -0.010
      -0.051
      -0.112
      -0.151
      -0.131
      -0.047
       0.064
       0.146
       0.166
       0.132
       0.082
       0.048
       0.039
       0.039
       0.028
      -0.002
      -0.036
      -0.049
      -0.020
       0.045
       0.119
       0.163
       0.160
       0.113
       0.039
      -0.044
      -0.128
      -0.214
      -0.300
      -0.361
      -0.345
      -0.208
       0.022
       0.224
       0.259
       0.099
      -0.101
      -0.105
       0.176
       0.551
       0.672
       0.344
      -0.269
      -0.743
      -0.749
      -0.343
       0.088
       0.181
      -0.070
      -0.322
      -0.215
       0.271
       0.774
       0.837
       0.312
      -0.463
      -0.891
      -0.594
       0.247
       1.024
       1.177
       0.620
      -0.243
      -0.890
      -1.078
      -0.919
      -0.633
      -0.304
       0.114
       0.577
       0.836
       0.606
      -0.114
      -0.909
      -1.179
      -0.594
       0.592
       1.622
       1.736
       0.753
      -0.704
      -1.615
      -1.325
      -0.040
       1.353
       1.947
       1.392
       0.033
      -1.379
      -2.119
      -1.857
      -0.782
       0.537
       1.477
       1.690
       1.253
       0.560
       0.015
      -0.243
      -0.370
      -0.564
      -0.802
      -0.861
      -0.593
      -0.139
       0.167
       0.107
      -0.212
      -0.458
      -0.371
      -0.006
       0.321
       0.313
      -0.062
      -0.571
      -0.877
      -0.719
      -0.014
       1.055
       2.028
       2.328
       1.589
      -0.020
      -1.765
      -2.671
      -2.093
      -0.190
       2.018
       3.182
       2.490
       0.279
      -2.105
      -3.189
      -2.382
      -0.358
       1.487
       2.045
       1.196
      -0.278
      -1.369
      -1.487
      -0.682
       0.549
       1.596
       2.003
       1.600
       0.522
      -0.833
      -1.916
      -2.240
      -1.662
      -0.528
       0.525
       1.031
       1.004
       0.826
       0.826
       0.962
       0.877
       0.260
      -0.804
      -1.768
      -1.957
      -1.106
       0.334
       1.466
       1.632
       0.895
      -0.122
      -0.797
      -0.915
      -0.607
      -0.103
       0.387
       0.616
       0.335
      -0.468
      -1.355
      -1.589
      -0.712
       0.917
       2.242
       2.304
       1.030
      -0.733
      -1.879
      -1.784
      -0.596
       0.933
       1.841
       1.456
      -0.125
      -1.942
      -2.724
      -1.805
       0.317
       2.272
       2.750
       1.408
      -0.869
      -2.533
      -2.423
      -0.595
       1.707
       2.928
       2.345
       0.569
      -1.007
      -1.372
      -0.697
      -0.059
      -0.337
      -1.298
      -1.778
      -0.824
       1.258
       2.981
       2.863
       0.698
      -2.199
      -3.949
      -3.448
      -1.053
       1.784
       3.473
       3.134
       0.960
      -1.864
      -3.640
      -3.013
       0.031
       3.781
       5.655
       4.008
      -0.437
      -4.843
      -6.214
      -3.577
       1.331
       5.351
       6.106
       3.472
      -0.661
      -3.884
      -4.785
      -3.467
      -1.054
       1.135
       2.172
       1.735
       0.175
      -1.554
      -2.297
      -1.388
       0.786
       2.896
       3.518
       2.163
      -0.319
      -2.309
      -2.568
      -1.127
       0.767
       1.647
       0.980
      -0.467
      -1.398
      -1.195
      -0.418
      -0.127
      -0.721
      -1.492
      -1.328
       0.160
       2.172
       3.349
       2.932
       1.365
      -0.174
      -0.857
      -0.829
      -0.826
      -1.272
      -1.828
      -1.797
      -0.867
       0.579
       1.808
       2.282
       1.915
       0.951
      -0.238
      -1.232
      -1.638
      -1.293
      -0.455
       0.275
       0.368
      -0.206
      -0.935
      -1.185
      -0.711
       0.188
       0.979
       1.304
       1.126
       0.561
      -0.297
      -1.329
      -2.184
      -2.268
      -1.141
       0.939
       2.928
       3.672
       2.833
       1.183
      -0.092
      -0.403
      -0.132
      -0.066
      -0.575
      -1.365
      -1.917
      -1.987
      -1.683
      -1.157
      -0.374
       0.753
       2.015
       2.786
       2.373
       0.647
      -1.646
      -3.240
      -3.188
      -1.537
       0.726
       2.406
       2.903
       2.455
       1.673
       0.878
      -0.080
      -1.361
      -2.587
      -2.918
      -1.827
       0.206
       1.864
       2.016
       0.658
      -1.115
      -2.079
      -1.857
      -0.985
      -0.125
       0.627
       1.590
       2.743
       3.337
       2.441
      -0.033
      -2.876
      -4.277
      -3.184
      -0.188
       2.858
       4.115
       2.909
      -0.014
      -3.044
      -4.544
      -3.618
      -0.638
       2.746
       4.466
       3.459
       0.568
      -2.048
      -2.642
      -1.267
       0.453
       0.908
      -0.104
      -1.453
      -1.924
      -1.259
      -0.091
       0.876
       1.403
       1.571
       1.445
       1.101
       0.829
       0.938
       1.161
       0.485
      -2.043
      -6.140
     -10.001
     -11.409
      -9.386
      -4.907
      -0.055
       3.553
       5.727
       7.394
       9.516
      12.238
      14.822
      16.089
      14.821
      10.156
       2.281
      -6.870
     -13.886
     -15.626
     -11.445
      -4.081
       1.767
       2.323
      -2.883
     -10.640
     -15.845
     -14.374
      -5.434
       7.844
      19.779
      24.735
      19.813
       6.534
      -9.397
     -20.565
     -21.655
     -12.520
       1.519
      12.538
      14.421
       6.241
      -7.311
     -18.559
     -20.882
     -11.961
       5.175
      23.405
      34.401
      32.213
      16.338
      -7.278
     -28.413
     -37.430
     -30.371
     -11.148
      10.698
      25.207
      26.868
      16.523
       0.018
     -14.961
     -22.191
     -19.211
      -7.987
       6.259
      17.517
      21.624
      17.877
       8.984
      -0.602
      -7.154
      -9.463
      -8.725
      -6.772
      -4.409
      -1.417
       2.093
       4.718
       4.422
       0.329
      -6.050
     -11.361
     -12.404
      -8.117
      -0.226
       7.636
      11.722
      10.019
       3.432
      -4.337
      -8.644
      -6.875
      -0.550
       5.437
       6.349
       1.316
      -5.659
      -8.301
      -2.621
       9.660
      21.468
      24.798
      16.276
      -0.292
     -16.345
     -23.979
     -20.343
      -8.392
       5.602
      15.476
      17.572
      11.561
       0.087
     -12.344
     -20.987
     -22.586
     -16.622
      -5.556
       6.222
      14.378
      16.490
      12.696
       5.098
      -3.143
      -8.542
      -8.295
      -1.912
       7.636
      14.888
      15.111
       7.564
      -3.819
     -12.924
     -15.228
     -10.256
      -1.419
       6.282
       9.062
       6.052
      -0.778
      -7.933
     -11.938
     -10.630
      -4.150
       4.760
      11.869
      13.793
      10.007
       2.900
      -4.084
      -8.470
      -9.379
      -6.992
      -2.143
       3.439
       7.212
       7.076
       3.089
      -2.176
      -5.396
      -5.045
      -2.400
      -0.061
       0.592
       0.467
       1.351
       3.631
       5.636
       5.274
       2.141
      -1.990
      -4.551
      -4.050
      -1.040
       2.269
       3.386
       1.158
      -3.351
      -7.360
      -8.041
      -4.281
       2.570
       9.327
      12.537
      10.159
       2.622
      -7.200
     -15.065
     -17.196
     -12.191
      -2.108
       8.221
      13.678
      11.843
       4.479
      -3.638
      -7.794
      -6.220
      -0.807
       4.620
       6.999
       5.679
       2.214
      -1.057
      -2.428
      -1.555
       0.611
       2.510
       2.941
       1.706
      -0.554
      -3.093
      -5.425
      -6.966
      -6.630
      -3.327
       2.753
       9.315
      12.796
      10.687
       3.666
      -4.358
      -8.715
      -7.235
      -1.788
       3.204
       4.101
       0.593
      -4.401
      -7.119
      -5.615
      -0.854
       4.217
       6.658
       5.197
       0.704
      -4.490
      -7.777
      -7.395
      -3.260
       2.716
       7.289
       7.639
       3.334
      -3.086
      -7.642
      -7.583
      -3.131
       2.956
       7.431
       8.485
       6.280
       2.208
      -2.113
      -5.369
      -6.669
      -5.670
      -2.792
       0.792
       3.624
       4.688
       3.902
       2.024
       0.066
      -1.287
      -1.783
      -1.327
       0.097
       2.028
       3.215
       2.211
      -1.276
      -5.564
      -7.823
      -6.115
      -0.967
       4.863
       8.205
       7.464
       3.402
      -1.616
      -5.097
      -5.554
      -2.900
       1.638
       5.882
       7.494
       5.198
      -0.214
      -6.017
      -9.021
      -7.504
      -2.324
       3.520
       6.662
       5.418
       0.799
      -4.209
      -6.583
      -5.052
      -0.605
       4.432
       7.825
       8.376
       6.040
       1.608
      -3.531
      -7.555
      -8.651
      -5.926
      -0.262
       5.704
       8.834
       7.315
       1.843
      -4.685
      -8.823
      -8.551
      -4.369
       1.194
       5.250
       6.177
       4.160
       0.612
      -2.792
      -4.771
      -4.717
      -2.819
      -0.059
       2.142
       2.688
       1.561
      -0.058
      -0.590
       0.677
       2.869
       4.086
       2.901
      -0.402
      -3.895
      -5.357
      -3.851
      -0.294
       3.306
       5.227
       4.925
       2.987
       0.471
      -1.727
      -3.139
      -3.720
      -3.709
      -3.411
      -2.933
      -2.075
      -0.552
       1.592
       3.757
       5.007
       4.636
       2.699
       0.092
      -1.914
      -2.416
      -1.435
       0.090
       0.881
       0.167
      -1.760
      -3.649
      -4.094
      -2.515
       0.358
       2.908
       3.696
       2.416
       0.053
      -1.800
      -1.937
      -0.201
       2.507
       4.736
       5.218
       3.487
       0.143
      -3.390
      -5.527
      -5.296
      -2.855
       0.553
       3.237
       3.970
       2.657
       0.351
      -1.417
      -1.598
      -0.294
       1.298
       1.696
       0.233
      -2.321
      -4.169
      -3.757
      -0.990
       2.581
       4.796
       4.372
       1.686
      -1.622
      -3.771
      -3.825
      -2.039
       0.442
       2.251
       2.513
       1.237
      -0.815
      -2.638
      -3.494
      -3.122
      -1.642
       0.644
       3.252
       5.327
       5.661
       3.361
      -1.147
      -5.763
      -7.724
      -5.493
      -0.075
       5.398
       7.675
       5.594
       0.866
      -3.202
      -4.109
      -1.860
       1.263
       2.581
       1.020
      -2.221
      -4.738
      -4.774
      -2.404
       0.762
       2.902
       3.170
       1.989
       0.487
      -0.323
      -0.099
       0.746
       1.427
       1.377
       0.664
      -0.124
      -0.444
      -0.311
      -0.241
      -0.670
      -1.441
      -1.908
      -1.561
      -0.517
       0.616
       1.320
       1.514
       1.357
       0.880
       0.009
      -1.025
      -1.482
      -0.569
       1.756
       4.413
       5.760
       4.685
       1.386
      -2.690
      -5.611
      -5.969
      -3.688
      -0.219
       2.189
       1.945
      -0.666
      -3.574
      -4.489
      -2.717
       0.323
       2.350
       2.160
       0.533
      -0.625
      -0.037
