Origin Time       21/8/2014 08:11:17 
Lat.              32.3 N 
Long.             76.5 E 
Depth (Km)         10.0
Magnitude         5.0
 Region           CHAMBA-Kangra-Border-(H.P.)                                      
 Above details taken from IMD 
   
Station Code      DSL
Station Lat.       32.207
Station Long.      76.324
Station Height(m) 1256.0
Site Class        B   Vs30 between 375 m/sec to 700 m/sec *  
Record Time       21.08.2014 08:10:51.619
Sampling Rate     200. Hz
 Record Duration   96.215 Sec.
 Direction         Vert. (Up positive)
Max. Acceleration    -25.856 cm/sec**2
     
  * For reference see Site Classification link of website 
     
 Base Line Corrected and Low Pass Filtered (Cut Off at 35 Hz) Time History
 Acceleration data in cm/sec**2
    
[...]
       0.007
       0.000
      -0.007
      -0.011
      -0.014
      -0.018
      -0.018
      -0.003
       0.018
       0.028
       0.021
       0.008
      -0.005
      -0.021
      -0.030
      -0.018
       0.012
       0.030
       0.019
       0.000
      -0.005
       0.003
       0.006
       0.006
       0.009
       0.013
       0.013
       0.014
       0.017
       0.012
      -0.004
      -0.013
      -0.002
       0.016
       0.020
       0.009
      -0.003
      -0.010
      -0.011
       0.000
       0.019
       0.028
       0.017
       0.000
      -0.011
      -0.022
      -0.038
      -0.043
      -0.024
       0.002
       0.011
       0.005
      -0.001
      -0.009
      -0.024
      -0.034
      -0.029
      -0.020
      -0.018
      -0.014
       0.007
       0.025
       0.018
      -0.003
      -0.008
       0.002
       0.004
       0.000
       0.002
       0.002
      -0.017
      -0.034
      -0.013
       0.033
       0.049
       0.018
      -0.015
      -0.011
       0.012
       0.016
      -0.002
      -0.017
      -0.013
       0.002
       0.015
       0.014
       0.000
      -0.010
       0.000
       0.019
       0.021
       0.005
      -0.007
      -0.009
      -0.011
      -0.019
      -0.018
      -0.004
       0.010
       0.014
       0.014
       0.012
      -0.002
      -0.022
      -0.024
      -0.006
       0.007
       0.000
      -0.013
      -0.011
       0.002
       0.009
       0.008
       0.012
       0.023
       0.026
       0.012
      -0.008
      -0.019
      -0.011
       0.003
       0.009
       0.009
       0.018
       0.037
       0.040
       0.014
      -0.019
      -0.024
      -0.004
       0.010
       0.005
      -0.004
      -0.006
      -0.006
      -0.006
       0.005
       0.022
       0.026
       0.018
       0.015
       0.020
       0.015
      -0.007
      -0.024
      -0.021
      -0.003
       0.013
       0.025
       0.026
       0.008
      -0.020
      -0.035
      -0.025
      -0.003
       0.015
       0.028
       0.031
       0.016
      -0.010
      -0.024
      -0.020
      -0.010
       0.000
       0.016
       0.036
       0.039
       0.018
      -0.004
      -0.012
      -0.013
      -0.014
      -0.003
       0.016
       0.019
      -0.001
      -0.017
      -0.011
      -0.001
      -0.006
      -0.010
       0.002
       0.015
       0.012
       0.006
       0.009
       0.007
      -0.005
      -0.004
       0.024
       0.049
       0.037
      -0.001
      -0.022
      -0.016
      -0.004
       0.000
       0.006
       0.014
       0.013
       0.008
       0.004
      -0.001
      -0.013
      -0.020
      -0.007
       0.011
       0.011
      -0.003
      -0.008
       0.000
       0.004
      -0.005
      -0.016
      -0.017
      -0.011
       0.000
       0.016
       0.028
       0.025
       0.010
      -0.001
      -0.004
      -0.006
      -0.009
      -0.008
      -0.005
      -0.003
       0.001
       0.009
       0.014
       0.012
       0.008
       0.004
      -0.005
      -0.018
      -0.021
      -0.005
       0.013
       0.017
       0.009
       0.004
       0.001
      -0.001
       0.006
       0.024
       0.034
       0.019
      -0.011
      -0.027
      -0.026
      -0.019
      -0.010
       0.006
       0.019
       0.018
       0.003
      -0.012
      -0.018
      -0.015
      -0.001
       0.019
       0.023
       0.006
      -0.014
      -0.014
      -0.002
       0.002
      -0.005
      -0.010
      -0.011
      -0.012
      -0.006
       0.010
       0.017
       0.002
      -0.017
      -0.012
       0.005
       0.008
      -0.003
      -0.005
       0.002
      -0.001
      -0.012
      -0.011
       0.000
       0.006
       0.002
       0.001
      -0.001
      -0.014
      -0.023
      -0.007
       0.021
       0.023
      -0.001
      -0.015
      -0.007
      -0.002
      -0.019
      -0.030
      -0.013
       0.013
       0.014
      -0.011
      -0.037
      -0.040
      -0.020
       0.009
       0.019
      -0.001
      -0.028
      -0.026
       0.004
       0.023
       0.009
      -0.012
      -0.011
       0.006
       0.019
       0.025
       0.024
       0.007
      -0.019
      -0.030
      -0.015
       0.004
       0.004
      -0.005
      -0.005
       0.004
       0.006
      -0.002
      -0.013
      -0.020
      -0.015
       0.001
       0.016
       0.013
      -0.006
      -0.017
      -0.008
       0.008
       0.016
       0.017
       0.015
       0.006
      -0.005
      -0.008
      -0.002
       0.003
       0.000
      -0.001
       0.002
      -0.002
      -0.012
      -0.011
       0.005
       0.020
       0.020
       0.013
       0.008
       0.000
      -0.009
      -0.012
      -0.005
      -0.001
      -0.005
      -0.003
       0.012
       0.023
       0.014
      -0.002
      -0.009
      -0.004
       0.005
       0.015
       0.019
       0.006
      -0.016
      -0.024
      -0.010
       0.004
       0.002
      -0.002
       0.002
       0.007
       0.003
      -0.004
      -0.009
      -0.017
      -0.025
      -0.015
       0.013
       0.023
      -0.001
      -0.030
      -0.030
      -0.007
       0.009
       0.014
       0.016
       0.009
      -0.012
      -0.029
      -0.023
       0.000
       0.015
       0.021
       0.024
       0.019
      -0.004
      -0.024
      -0.018
       0.004
       0.016
       0.014
       0.010
       0.006
      -0.005
      -0.012
      -0.005
       0.005
       0.001
      -0.005
       0.006
       0.022
       0.015
      -0.010
      -0.021
      -0.011
       0.001
       0.003
       0.011
       0.026
       0.025
       0.003
      -0.016
      -0.015
      -0.002
       0.007
       0.010
       0.007
      -0.002
      -0.013
      -0.019
      -0.017
      -0.014
      -0.008
       0.005
       0.019
       0.020
       0.012
       0.005
       0.000
      -0.009
      -0.016
      -0.010
       0.002
       0.003
      -0.008
      -0.013
      -0.010
      -0.007
      -0.005
       0.004
       0.018
       0.021
       0.007
      -0.010
      -0.020
      -0.026
      -0.027
      -0.014
       0.007
       0.021
       0.021
       0.014
       0.007
      -0.001
      -0.006
       0.000
       0.009
       0.011
       0.007
       0.008
       0.011
       0.006
       0.000
       0.006
       0.023
       0.031
       0.028
       0.021
       0.013
       0.002
       0.000
       0.014
       0.028
       0.016
      -0.010
      -0.020
      -0.005
       0.010
       0.013
       0.012
       0.010
      -0.004
      -0.020
      -0.015
       0.006
       0.011
      -0.008
      -0.026
      -0.021
      -0.007
       0.002
       0.007
       0.011
       0.004
      -0.010
      -0.012
       0.005
       0.017
       0.008
      -0.010
      -0.014
      -0.003
       0.011
       0.019
       0.012
      -0.010
      -0.030
      -0.024
       0.001
       0.009
      -0.008
      -0.018
      -0.006
       0.007
       0.004
       0.001
       0.011
       0.012
      -0.017
      -0.045
      -0.035
      -0.002
       0.016
       0.009
       0.002
       0.002
      -0.005
      -0.019
      -0.019
       0.003
       0.026
       0.024
      -0.003
      -0.031
      -0.036
      -0.008
       0.032
       0.049
       0.035
       0.014
       0.008
       0.009
       0.001
      -0.010
      -0.004
       0.013
       0.023
       0.019
       0.006
      -0.011
      -0.028
      -0.030
      -0.014
       0.001
       0.002
      -0.003
       0.002
       0.012
       0.010
      -0.004
      -0.013
      -0.010
      -0.001
       0.004
       0.005
       0.003
       0.000
      -0.003
      -0.004
      -0.001
       0.008
       0.025
       0.034
       0.018
      -0.016
      -0.035
      -0.025
      -0.006
       0.004
       0.012
       0.023
       0.024
       0.004
      -0.017
      -0.017
      -0.001
       0.009
       0.007
       0.000
      -0.009
      -0.012
      -0.004
       0.008
       0.003
      -0.017
      -0.018
       0.016
       0.045
       0.029
      -0.017
      -0.043
      -0.032
      -0.005
       0.019
       0.031
       0.022
      -0.007
      -0.025
      -0.008
       0.018
       0.015
      -0.011
      -0.021
      -0.003
       0.012
       0.008
       0.001
       0.001
      -0.003
      -0.013
      -0.014
      -0.004
       0.002
      -0.003
      -0.004
       0.003
       0.005
       0.001
       0.004
       0.015
       0.017
       0.004
      -0.008
      -0.010
      -0.010
      -0.010
      -0.003
       0.009
       0.007
      -0.012
      -0.025
      -0.018
      -0.005
       0.001
       0.008
       0.020
       0.026
       0.016
      -0.001
      -0.015
      -0.023
      -0.024
      -0.013
       0.005
       0.013
       0.005
       0.000
       0.006
       0.015
       0.016
       0.014
       0.011
       0.003
      -0.010
      -0.014
      -0.007
      -0.006
      -0.017
      -0.024
      -0.009
       0.018
       0.034
       0.027
       0.006
      -0.015
      -0.023
      -0.015
       0.001
       0.013
       0.011
      -0.002
      -0.018
      -0.021
      -0.005
       0.019
       0.023
       0.002
      -0.015
      -0.006
       0.011
       0.008
      -0.011
      -0.019
      -0.011
       0.000
       0.009
       0.022
       0.022
      -0.011
      -0.046
      -0.027
       0.039
       0.075
       0.034
      -0.037
      -0.061
      -0.030
       0.007
       0.016
       0.007
       0.003
       0.003
      -0.001
      -0.013
      -0.028
      -0.030
      -0.014
       0.006
       0.006
      -0.006
      -0.006
       0.007
       0.009
      -0.010
      -0.024
      -0.017
      -0.002
       0.006
       0.013
       0.022
       0.013
      -0.018
      -0.039
      -0.023
       0.010
       0.029
       0.029
       0.019
      -0.006
      -0.047
      -0.072
      -0.049
       0.001
       0.030
       0.027
       0.020
       0.020
       0.012
      -0.011
      -0.026
      -0.017
       0.005
       0.017
       0.010
      -0.013
      -0.040
      -0.052
      -0.039
      -0.013
       0.004
       0.005
      -0.005
      -0.018
      -0.030
      -0.033
      -0.024
      -0.013
      -0.014
      -0.017
      -0.008
       0.008
       0.014
       0.001
      -0.019
      -0.038
      -0.044
      -0.028
       0.007
       0.034
       0.025
      -0.010
      -0.036
      -0.034
      -0.017
      -0.005
      -0.005
      -0.015
      -0.026
      -0.033
      -0.034
      -0.032
      -0.028
      -0.016
       0.001
       0.008
      -0.003
      -0.021
      -0.025
      -0.017
      -0.005
       0.005
       0.007
      -0.005
      -0.019
      -0.001
       0.044
       0.054
      -0.013
      -0.105
      -0.116
      -0.022
       0.085
       0.101
       0.012
      -0.094
      -0.124
      -0.057
       0.038
       0.074
       0.037
      -0.011
      -0.011
       0.015
       0.007
      -0.035
      -0.057
      -0.029
       0.020
       0.044
       0.029
      -0.012
      -0.050
      -0.052
      -0.009
       0.041
       0.042
      -0.003
      -0.039
      -0.034
      -0.008
       0.007
       0.010
       0.007
      -0.004
      -0.020
      -0.024
      -0.014
      -0.011
      -0.020
      -0.021
      -0.003
       0.016
       0.013
      -0.007
      -0.024
      -0.034
      -0.034
      -0.019
       0.006
       0.023
       0.027
       0.025
       0.020
       0.000
      -0.029
      -0.036
      -0.009
       0.021
       0.025
       0.013
       0.001
      -0.014
      -0.038
      -0.053
      -0.035
       0.006
       0.036
       0.034
       0.008
      -0.027
      -0.049
      -0.040
       0.000
       0.040
       0.047
       0.019
      -0.017
      -0.033
      -0.024
      -0.003
       0.011
       0.008
      -0.004
      -0.009
      -0.008
      -0.014
      -0.025
      -0.030
      -0.030
      -0.040
      -0.046
      -0.010
       0.068
       0.116
       0.066
      -0.055
      -0.138
      -0.103
       0.019
       0.115
       0.098
      -0.010
      -0.106
      -0.104
      -0.016
       0.073
       0.096
       0.057
       0.005
      -0.029
      -0.044
      -0.051
      -0.053
      -0.039
       0.006
       0.065
       0.086
       0.029
      -0.062
      -0.099
      -0.045
       0.037
       0.073
       0.047
      -0.004
      -0.045
      -0.057
      -0.031
       0.013
       0.029
       0.001
      -0.022
       0.014
       0.096
       0.165
       0.196
       0.215
       0.269
       0.391
       0.576
       0.746
       0.765
       0.568
       0.298
       0.258
       0.662
       1.419
       2.171
       2.550
       2.414
       1.881
       1.155
       0.356
      -0.434
      -0.978
      -0.835
       0.327
       2.308
       4.309
       5.371
       4.949
       3.130
       0.443
      -2.397
      -4.599
      -5.385
      -4.268
      -1.409
       2.331
       5.748
       7.792
       7.808
       5.573
       1.386
      -3.758
      -8.230
     -10.296
      -8.877
      -4.125
       2.526
       8.844
      12.592
      12.274
       7.617
      -0.215
      -8.710
     -14.670
     -15.547
     -10.823
      -2.424
       6.259
      11.977
      12.698
       7.853
      -1.631
     -13.121
     -22.528
     -25.856
     -21.552
     -11.794
      -1.231
       6.041
       8.784
       8.375
       6.744
       4.792
       2.654
       0.870
       0.639
       2.669
       5.996
       8.266
       7.449
       3.419
      -1.954
      -6.163
      -7.608
      -6.267
      -3.366
      -0.652
       0.335
      -1.023
      -3.843
      -5.972
      -5.439
      -2.300
       0.942
       1.285
      -1.882
      -5.835
      -6.917
      -4.213
      -0.694
      -0.376
      -4.271
      -9.227
     -10.667
      -6.353
       2.157
      10.954
      16.313
      16.475
      12.070
       5.431
      -0.735
      -4.591
      -5.646
      -4.392
      -1.764
       1.082
       2.804
       2.107
      -1.758
      -8.332
     -15.457
     -19.660
     -17.975
     -10.336
      -0.289
       7.338
      10.199
      10.159
      11.260
      15.794
      22.070
      25.681
      22.981
      13.908
       2.220
      -6.801
      -9.529
      -6.090
      -0.117
       3.649
       2.382
      -3.210
      -9.646
     -13.093
     -11.658
      -6.181
       0.606
       5.773
       7.721
       6.786
       4.668
       3.119
       2.795
       2.941
       2.055
      -0.814
      -4.859
      -7.558
      -6.470
      -1.573
       4.277
       7.652
       7.482
       5.548
       4.128
       3.615
       2.688
       0.433
      -2.330
      -3.935
      -3.719
      -2.753
      -2.819
      -4.763
      -7.748
      -9.992
     -10.206
      -8.445
      -5.759
      -3.184
      -1.096
       0.708
       2.573
       4.643
       6.660
       7.788
       6.808
       3.037
      -2.430
      -6.497
      -5.771
       0.722
      10.081
      16.923
      16.786
       9.052
      -2.740
     -13.207
     -18.289
     -17.171
     -12.054
      -6.300
      -2.337
      -0.582
       0.125
       1.051
       2.252
       2.599
       1.254
      -0.840
      -1.308
       1.457
       6.430
      10.537
      11.123
       7.826
       2.338
      -3.150
      -7.205
      -9.488
     -10.373
     -10.271
      -9.087
      -6.360
      -2.087
       2.595
       5.716
       5.667
       2.395
      -2.246
      -5.318
      -4.560
      -0.011
       5.925
      10.304
      11.714
      10.614
       7.995
       4.316
      -0.067
      -4.009
      -5.867
      -4.892
      -2.058
       0.669
       1.815
       1.118
      -0.853
      -3.245
      -4.975
      -4.717
      -1.593
       3.731
       8.781
      10.567
       7.672
       1.548
      -4.127
      -5.794
      -2.498
       3.407
       8.013
       8.732
       5.910
       2.040
      -0.380
      -0.394
       1.333
       3.357
       4.312
       3.415
       0.725
      -2.805
      -5.611
      -6.265
      -4.440
      -1.365
       0.833
       0.575
      -2.090
      -5.624
      -8.125
      -8.473
      -6.746
      -3.836
      -0.685
       2.276
       5.106
       7.852
      10.134
      11.234
      10.553
       8.009
       4.176
       0.179
      -2.690
      -3.655
      -3.023
      -1.999
      -1.723
      -2.421
      -3.458
      -4.101
      -4.055
      -3.337
      -1.962
      -0.016
       2.049
       3.457
       3.615
       2.605
       1.171
       0.204
       0.045
       0.125
      -0.654
      -2.866
      -5.750
      -7.561
      -6.933
      -3.935
       0.159
       3.920
       6.391
       6.958
       5.242
       1.598
      -2.446
      -4.801
      -4.267
      -1.425
       1.949
       4.260
       4.915
       4.161
       2.573
       0.820
      -0.429
      -0.730
      -0.121
       0.825
       1.166
      -0.031
      -3.011
      -6.692
      -8.968
      -8.252
      -5.051
      -1.883
      -1.344
      -4.060
      -8.327
     -11.454
     -11.380
      -7.499
      -0.731
       6.817
      12.641
      15.030
      13.937
      10.742
       7.163
       4.344
       2.718
       2.309
       2.918
       4.139
       5.403
       6.050
       5.401
       2.998
      -0.920
      -5.158
      -8.044
      -8.455
      -6.498
      -3.272
      -0.144
       1.685
       1.183
      -2.309
      -8.390
     -15.048
     -19.234
     -18.540
     -12.800
      -4.314
       3.465
       7.757
       7.647
       4.160
      -0.440
      -3.634
      -3.638
      -0.213
       5.095
       9.695
      11.475
      10.094
       6.978
       4.031
       2.255
       1.460
       0.988
       0.435
      -0.247
      -0.970
      -1.564
      -1.742
      -1.266
      -0.225
       0.949
       1.773
       2.035
       1.959
       2.121
       3.036
       4.523
       5.428
       4.252
       0.415
      -4.894
      -9.165
     -10.117
      -7.261
      -2.275
       2.062
       3.558
       1.674
      -2.514
      -7.017
      -9.681
      -8.893
      -4.254
       3.121
      11.052
      17.255
      20.137
      19.171
      15.041
       9.515
       4.691
       1.787
       0.493
      -0.420
      -1.848
      -3.658
      -4.994
      -5.000
      -3.329
      -0.271
       3.409
       6.877
       9.638
      11.568
      12.587
      12.450
      10.969
       8.328
       5.065
       1.758
      -1.225
      -3.767
      -5.934
      -7.808
      -9.213
      -9.608
      -8.448
      -5.747
      -2.159
       1.583
       5.197
       8.697
      11.818
      13.755
      13.543
      10.714
       5.789
       0.352
      -3.534
      -4.547
      -3.164
      -1.382
      -1.040
      -2.267
      -3.565
      -3.279
      -0.863
       3.013
       7.072
       9.966
      10.690
       9.048
       5.914
       2.757
       0.614
      -0.562
      -1.562
      -3.050
      -5.066
      -7.185
      -8.888
      -9.749
      -9.554
      -8.515
      -7.314
      -6.655
