Origin Time       21/8/2014 08:11:17 
Lat.              32.3 N 
Long.             76.5 E 
Depth (Km)         10.0
Magnitude         5.0
 Region           CHAMBA-Kangra-Border-(H.P.)                                      
 Above details taken from IMD 
     
Station Code      DSL
Station Lat.       32.207  N
Station Long.      76.324  E
Station Height(m) 1256.0
Site Class        B   Vs30 between 375 m/sec to 700 m/sec *  
Record Time       21.08.2014 08:10:51.619
Sampling Rate     200. Hz
 Record Duration   96.215 Sec.
 Direction         E-W (E positive)
Max. Acceleration    -36.580 cm/sec**2
     
  * For reference see Site Classification link of website 
     
 Base Line Corrected and Low Pass Filtered (Cut Off at 35 Hz) Time History
 Acceleration data in cm/sec**2
    
[...]
       0.026
       0.010
      -0.007
      -0.012
       0.002
       0.025
       0.043
       0.041
       0.020
      -0.005
      -0.017
      -0.009
       0.011
       0.032
       0.045
       0.045
       0.031
       0.013
      -0.001
      -0.006
      -0.003
       0.010
       0.028
       0.038
       0.033
       0.017
       0.003
      -0.006
      -0.007
      -0.001
       0.011
       0.021
       0.020
       0.014
       0.011
       0.014
       0.014
       0.011
       0.011
       0.013
       0.011
       0.010
       0.014
       0.021
       0.022
       0.018
       0.019
       0.027
       0.032
       0.026
       0.013
      -0.001
      -0.010
      -0.009
       0.005
       0.025
       0.031
       0.016
      -0.005
      -0.018
      -0.016
      -0.005
       0.011
       0.026
       0.030
       0.024
       0.017
       0.012
       0.003
      -0.011
      -0.015
      -0.001
       0.022
       0.035
       0.032
       0.017
      -0.001
      -0.011
      -0.004
       0.016
       0.028
       0.017
      -0.004
      -0.013
      -0.007
       0.000
       0.003
       0.010
       0.024
       0.037
       0.039
       0.030
       0.016
       0.004
      -0.004
      -0.005
      -0.001
       0.003
       0.005
       0.003
      -0.003
      -0.007
      -0.002
       0.016
       0.033
       0.031
       0.006
      -0.026
      -0.047
      -0.044
      -0.021
       0.013
       0.038
       0.046
       0.036
       0.021
       0.007
      -0.004
      -0.009
      -0.004
       0.007
       0.017
       0.016
       0.004
      -0.012
      -0.020
      -0.016
      -0.006
       0.003
       0.008
       0.009
       0.008
       0.002
      -0.008
      -0.016
      -0.016
      -0.006
       0.012
       0.032
       0.040
       0.029
       0.006
      -0.008
      -0.006
       0.006
       0.015
       0.017
       0.013
       0.005
      -0.007
      -0.016
      -0.019
      -0.017
      -0.010
       0.008
       0.029
       0.037
       0.022
      -0.002
      -0.011
      -0.001
       0.018
       0.033
       0.037
       0.022
      -0.005
      -0.019
      -0.005
       0.026
       0.044
       0.033
       0.005
      -0.023
      -0.037
      -0.030
      -0.007
       0.014
       0.017
       0.009
       0.008
       0.015
       0.021
       0.017
       0.013
       0.011
       0.006
       0.000
       0.001
       0.012
       0.020
       0.019
       0.013
       0.011
       0.015
       0.016
       0.012
       0.000
      -0.017
      -0.028
      -0.021
       0.003
       0.027
       0.036
       0.029
       0.015
      -0.002
      -0.021
      -0.031
      -0.028
      -0.015
      -0.001
       0.009
       0.014
       0.011
       0.004
       0.001
       0.007
       0.018
       0.022
       0.020
       0.014
       0.009
       0.005
       0.003
       0.003
       0.003
       0.002
       0.001
       0.002
       0.001
      -0.002
      -0.009
      -0.012
      -0.009
       0.001
       0.013
       0.022
       0.025
       0.020
       0.011
       0.002
       0.002
       0.014
       0.029
       0.032
       0.017
      -0.004
      -0.020
      -0.026
      -0.022
      -0.010
       0.006
       0.014
       0.008
      -0.003
      -0.006
      -0.003
       0.000
       0.003
       0.014
       0.026
       0.025
       0.008
      -0.011
      -0.018
      -0.012
      -0.003
       0.010
       0.024
       0.032
       0.028
       0.016
       0.003
      -0.005
      -0.006
      -0.001
       0.005
       0.002
      -0.006
      -0.007
      -0.001
       0.002
      -0.001
      -0.002
       0.003
       0.009
       0.012
       0.013
       0.014
       0.011
       0.007
       0.012
       0.024
       0.028
       0.016
       0.001
       0.000
       0.007
       0.005
      -0.008
      -0.018
      -0.017
      -0.008
       0.006
       0.019
       0.022
       0.009
      -0.007
      -0.008
       0.008
       0.026
       0.033
       0.025
       0.009
      -0.008
      -0.016
      -0.009
       0.009
       0.023
       0.022
       0.010
      -0.004
      -0.012
      -0.012
      -0.004
       0.007
       0.014
       0.015
       0.014
       0.011
       0.005
      -0.001
       0.001
       0.015
       0.031
       0.037
       0.027
       0.008
      -0.007
      -0.012
      -0.006
       0.008
       0.018
       0.018
       0.005
      -0.010
      -0.015
      -0.007
       0.009
       0.020
       0.021
       0.010
      -0.008
      -0.025
      -0.033
      -0.028
      -0.014
       0.002
       0.017
       0.028
       0.030
       0.016
      -0.006
      -0.019
      -0.011
       0.009
       0.023
       0.020
       0.006
      -0.010
      -0.018
      -0.012
       0.009
       0.029
       0.030
       0.006
      -0.030
      -0.052
      -0.038
       0.005
       0.047
       0.054
       0.020
      -0.022
      -0.036
      -0.016
       0.013
       0.028
       0.024
       0.008
      -0.009
      -0.016
      -0.012
      -0.002
       0.002
       0.004
       0.011
       0.016
       0.008
      -0.009
      -0.017
      -0.008
       0.004
       0.007
       0.004
       0.003
       0.005
       0.007
       0.009
       0.010
       0.004
      -0.009
      -0.018
      -0.008
       0.014
       0.035
       0.041
       0.028
       0.002
      -0.024
      -0.030
      -0.015
       0.006
       0.019
       0.025
       0.029
       0.027
       0.014
      -0.002
      -0.010
      -0.007
       0.000
       0.010
       0.023
       0.031
       0.024
       0.004
      -0.015
      -0.020
      -0.009
       0.010
       0.027
       0.027
       0.007
      -0.021
      -0.032
      -0.015
       0.017
       0.041
       0.043
       0.024
       0.000
      -0.014
      -0.012
       0.000
       0.016
       0.029
       0.032
       0.022
       0.006
      -0.007
      -0.006
       0.005
       0.018
       0.027
       0.026
       0.016
       0.003
      -0.006
      -0.006
       0.001
       0.014
       0.022
       0.015
      -0.010
      -0.037
      -0.041
      -0.016
       0.020
       0.038
       0.025
      -0.006
      -0.031
      -0.029
      -0.006
       0.014
       0.014
       0.003
       0.001
       0.008
       0.009
      -0.002
      -0.009
       0.000
       0.014
       0.017
       0.003
      -0.019
      -0.038
      -0.045
      -0.034
      -0.010
       0.009
       0.014
       0.010
       0.005
      -0.002
      -0.010
      -0.013
      -0.009
      -0.012
      -0.028
      -0.041
      -0.027
       0.012
       0.035
       0.003
      -0.080
      -0.166
      -0.196
      -0.156
      -0.100
      -0.106
      -0.192
      -0.288
      -0.301
      -0.230
      -0.184
      -0.269
      -0.472
      -0.660
      -0.706
      -0.591
      -0.402
      -0.241
      -0.140
      -0.076
      -0.044
      -0.088
      -0.268
      -0.579
      -0.907
      -1.084
      -0.981
      -0.586
      -0.003
       0.594
       0.997
       0.995
       0.477
      -0.437
      -1.401
      -2.018
      -2.056
      -1.507
      -0.529
       0.610
       1.547
       1.904
       1.486
       0.412
      -0.950
      -2.196
      -3.014
      -3.159
      -2.423
      -0.778
       1.378
       3.216
       3.863
       2.977
       1.017
      -1.050
      -2.381
      -2.683
      -2.122
      -0.897
       0.971
       3.369
       5.673
       6.792
       5.856
       3.007
      -0.510
      -3.118
      -3.924
      -3.142
      -1.690
      -0.444
       0.176
       0.106
      -0.604
      -1.825
      -3.243
      -4.362
      -4.711
      -4.050
      -2.408
      -0.038
       2.552
       4.588
       5.322
       4.638
       3.354
       2.714
       3.370
       4.757
       5.483
       4.417
       1.633
      -1.539
      -3.402
      -3.064
      -1.006
       1.360
       2.724
       2.654
       1.586
       0.273
      -0.734
      -1.219
      -1.181
      -0.717
       0.057
       1.031
       2.012
       2.572
       2.140
       0.491
      -1.764
      -3.349
      -3.238
      -1.547
       0.465
       1.435
       1.085
       0.507
       1.219
       3.772
       7.093
       9.167
       8.516
       5.274
       1.001
      -2.502
      -4.358
      -4.883
      -4.970
      -5.275
      -5.824
      -6.179
      -5.885
      -4.884
      -3.638
      -2.814
      -2.692
      -2.822
      -2.301
      -0.484
       2.518
       5.915
       8.663
       9.860
       9.026
       6.326
       2.577
      -1.165
      -4.189
      -6.355
      -7.765
      -8.320
      -7.691
      -5.725
      -2.869
      -0.184
       1.211
       0.955
      -0.131
      -0.584
       0.496
       2.639
       4.444
       4.840
       3.940
       2.677
       1.766
       1.101
       0.114
      -1.473
      -3.334
      -4.840
      -5.499
      -5.170
      -4.067
      -2.645
      -1.364
      -0.388
       0.529
       1.739
       3.222
       4.422
       4.619
       3.495
       1.356
      -1.149
      -3.447
      -5.261
      -6.576
      -7.546
      -8.380
      -9.151
      -9.547
      -8.883
      -6.577
      -2.785
       1.448
       4.770
       6.372
       6.411
       5.759
       5.391
       5.811
       6.809
       7.700
       7.920
       7.411
       6.382
       4.754
       2.093
      -1.737
      -5.928
      -8.932
      -9.459
      -7.402
      -3.924
      -0.720
       0.998
       1.162
       0.717
       0.793
       1.796
       3.181
       4.039
       3.866
       2.796
       1.251
      -0.466
      -2.240
      -3.944
      -5.322
      -6.123
      -6.326
      -6.155
      -5.837
      -5.368
      -4.510
      -3.037
      -0.971
       1.386
       3.614
       5.351
       6.334
       6.363
       5.406
       3.841
       2.480
       2.098
       2.761
       3.619
       3.487
       1.734
      -1.201
      -4.029
      -5.328
      -4.342
      -1.391
       2.338
       5.478
       7.199
       7.496
       6.983
       6.400
       6.174
       6.258
       6.283
       5.819
       4.533
       2.293
      -0.679
      -3.738
      -6.042
      -7.030
      -6.782
      -5.898
      -5.005
      -4.313
      -3.568
      -2.396
      -0.703
       1.173
       2.668
       3.415
       3.513
       3.388
       3.358
       3.351
       3.068
       2.395
       1.582
       1.008
       0.778
       0.554
      -0.210
      -1.792
      -3.856
      -5.528
      -5.923
      -4.784
      -2.694
      -0.673
       0.502
       0.651
       0.047
      -0.931
      -1.951
      -2.697
      -2.892
      -2.467
      -1.668
      -0.902
      -0.427
      -0.152
       0.257
       1.081
       2.315
       3.649
       4.625
       4.885
       4.362
       3.286
       1.997
       0.760
      -0.222
      -0.743
      -0.722
      -0.457
      -0.609
      -1.720
      -3.716
      -5.910
      -7.498
      -8.018
      -7.458
      -6.121
      -4.501
      -3.203
      -2.733
      -3.164
      -3.921
      -3.974
      -2.436
       0.836
       5.057
       8.866
      10.998
      10.886
       8.903
       6.133
       3.803
       2.699
       2.826
       3.429
       3.372
       1.776
      -1.423
      -5.398
      -8.904
     -10.939
     -11.118
      -9.652
      -7.209
      -4.819
      -3.642
      -4.407
      -6.769
      -9.222
      -9.846
      -7.485
      -2.473
       3.570
       8.639
      11.276
      11.051
       8.571
       5.191
       2.519
       1.731
       2.964
       5.191
       6.808
       6.587
       4.349
       0.942
      -2.346
      -4.457
      -4.952
      -4.049
      -2.404
      -0.794
       0.148
       0.076
      -1.075
      -3.126
      -5.630
      -7.877
      -9.112
      -8.935
      -7.586
      -5.855
      -4.725
      -4.976
      -6.833
      -9.716
     -12.278
     -12.949
     -10.825
      -6.323
      -1.069
       2.997
       4.717
       4.258
       2.802
       1.708
       1.792
       3.120
       5.235
       7.472
       9.209
      10.049
       9.915
       9.020
       7.756
       6.581
       5.882
       5.765
       5.943
       5.957
       5.591
       5.029
       4.575
       4.264
       3.798
       2.786
       0.985
      -1.593
      -4.596
      -7.326
      -9.012
      -9.288
      -8.457
      -7.271
      -6.398
      -6.029
      -5.864
      -5.388
      -4.227
      -2.346
       0.014
       2.570
       5.192
       7.883
      10.678
      13.598
      16.692
      19.964
      23.224
      26.014
      27.775
      28.145
      27.193
      25.426
      23.576
      22.181
      21.209
      20.007
      17.756
      14.077
       9.289
       4.093
      -0.892
      -5.289
      -8.801
     -11.072
     -11.807
     -11.007
      -9.045
      -6.523
      -4.034
      -1.975
      -0.465
       0.611
       1.441
       2.080
       2.352
       1.970
       0.769
      -1.153
      -3.476
      -5.778
      -7.585
      -8.352
      -7.556
      -4.940
      -0.740
       4.300
       9.169
      12.955
      15.219
      16.185
      16.564
      16.991
      17.432
      17.049
      14.705
       9.732
       2.396
      -6.233
     -14.831
     -22.358
     -28.276
     -32.478
     -35.115
     -36.433
     -36.580
     -35.469
     -32.926
     -29.136
     -24.958
     -21.587
     -19.708
     -18.934
     -18.226
     -16.947
     -15.470
     -14.724
     -15.278
     -16.926
     -18.965
     -20.601
     -21.112
     -19.961
     -17.063
     -12.966
      -8.541
      -4.342
      -0.311
       3.797
       7.709
      10.417
      10.753
       8.326
       4.052
      -0.180
      -2.463
      -1.763
       1.760
       6.998
      12.438
      16.729
      19.082
      19.366
      17.877
      14.970
      10.911
       6.162
       1.742
      -0.975
      -1.099
       1.069
       4.169
       6.661
       7.678
       7.260
       5.913
       4.082
       2.029
       0.084
      -1.312
      -2.040
      -2.683
      -4.142
      -6.634
      -9.183
     -10.333
      -9.476
      -7.414
      -5.554
      -4.630
      -4.304
      -3.819
      -2.733
      -0.906
       1.918
       6.100
      11.573
      17.525
      22.791
      26.620
      29.007
      30.307
      30.605
      29.497
      26.484
      21.573
      15.520
       9.444
       4.102
      -0.598
      -5.325
     -10.466
     -15.518
     -19.430
     -21.560
     -22.193
     -22.080
     -21.569
     -20.335
     -17.934
     -14.442
     -10.482
      -6.763
      -3.707
      -1.390
       0.416
       2.171
       4.259
       6.572
       8.480
       9.377
       9.230
       8.537
       7.841
       7.413
       7.355
       7.810
       8.930
      10.650
      12.626
      14.454
      15.918
      16.933
      17.229
      16.185
      13.112
       7.814
       0.952
      -6.119
     -12.018
     -16.023
     -18.254
     -19.279
     -19.533
     -19.042
     -17.600
     -15.184
     -12.233
      -9.428
      -7.109
      -4.893
      -1.983
       2.031
       6.612
      10.509
      12.519
      12.153
       9.781
       6.347
       2.945
       0.436
      -0.854
      -1.250
      -1.490
      -2.237
      -3.663
      -5.445
      -7.044
      -7.929
      -7.611
      -5.663
      -1.930
       3.166
       8.574
      13.021
      15.617
      16.184
      15.120
      13.029
      10.443
       7.757
       5.265
       3.189
       1.648
       0.597
      -0.202
      -1.062
      -2.156
      -3.393
      -4.522
      -5.362
      -5.921
      -6.290
      -6.497
      -6.495
      -6.326
      -6.237
      -6.611
      -7.714
      -9.425
     -11.175
     -12.247
     -12.290
     -11.598
     -10.834
     -10.476
     -10.535
     -10.687
     -10.498
      -9.518
      -7.425
      -4.302
      -0.773
       2.330
       4.525
       5.930
       6.965
       7.923
       8.827
       9.590
      10.143
      10.416
      10.331
       9.930
       9.492
       9.425
      10.023
      11.322
      13.117
      15.034
      16.692
      17.895
      18.674
      19.107
      19.098
      18.357
      16.586
      13.675
       9.777
       5.185
       0.139
      -5.228
     -10.652
     -15.545
     -19.203
     -21.312
     -22.201
     -22.529
     -22.657
     -22.334
     -21.020
     -18.557
     -15.464
     -12.549
     -10.291
      -8.643
      -7.352
      -6.282
      -5.388
      -4.470
      -3.177
      -1.330
       0.810
       2.668
       3.764
       4.050
       3.925
       3.927
       4.356
       5.132
       5.987
       6.776
       7.569
       8.500
       9.604
      10.815
      11.995
      12.889
      13.132
      12.472
      11.054
       9.430
       8.160
       7.354
       6.646
       5.629
       4.268
       2.863
       1.668
       0.652
      -0.386
      -1.537
      -2.625
      -3.271
      -3.155
      -2.347
      -1.413
      -1.110
      -1.870
      -3.499
      -5.322
      -6.596
      -6.912
      -6.428
      -5.816
      -5.868
      -6.907
      -8.491
      -9.761
     -10.132
      -9.658
      -8.717
      -7.492
      -5.824
      -3.540
      -0.791
       1.924
       4.056
       5.302
       5.714
       5.591
       5.240
       4.733
       3.872
       2.426
       0.487
      -1.465
      -2.921
      -3.764
      -4.306
      -4.939
      -5.831
      -6.911
      -7.993
      -8.837
      -9.187
      -8.885
      -7.958
      -6.581
      -4.950
      -3.237
      -1.639
      -0.369
       0.452
       0.892
       1.161
       1.451
       1.818
       2.201
       2.530
       2.776
       2.918
       2.917
       2.725
       2.325
       1.733
       0.964
       0.028
      -1.027
      -2.055
      -2.862
      -3.329
      -3.491
      -3.481
      -3.437
      -3.436
      -3.471
      -3.433
      -3.161
      -2.558
      -1.685
      -0.765
      -0.052
       0.335
       0.453
       0.393
       0.138
      -0.397
      -1.170
      -1.955
      -2.520
      -2.797
      -2.871
      -2.830
      -2.646
      -2.150
      -1.140
       0.405
       2.182
       3.642
       4.327
       4.177
       3.537
       2.861
       2.423
       2.263
       2.288
       2.338
       2.238
       1.934
       1.616
       1.643
       2.243
       3.286
       4.355
       5.059
       5.296
       5.280
       5.343
       5.701
       6.342
       7.072
       7.664
       8.008
       8.132
       8.058
       7.665
       6.761
       5.318
       3.608
       2.034
       0.866
       0.162
      -0.097
       0.069
       0.535
       1.011
       1.199
       1.001
       0.516
      -0.131
      -0.880
      -1.657
      -2.309
      -2.724
      -3.005
      -3.420
      -4.141
      -5.057
      -5.889
      -6.460
      -6.857
      -7.336
      -8.095
      -9.075
      -9.961
     -10.355
     -10.009
      -8.942
      -7.365
      -5.508
      -3.519
      -1.514
       0.357
       1.987
       3.452
       5.001
       6.809
       8.748
