Origin Time       21/8/2014 08:11:17  UTC
Lat.              32.3 N 
Long.             76.5 E 
Depth (Km)         10.0
Magnitude         5.0
 Region           CHAMBA-Kangra-Border-(H.P.)                                      
 Above details taken from IMD 
    
Station Code      DSL
Station Lat.       32.207  N
Station Long.      76.324  E
Station Height(m) 1256.0
Site Class        B   Vs30 between 375 m/sec to 700 m/sec *  
Record Time       21.08.2014 08:10:51.619 UTC
Sampling Rate     200. Hz
 Record Duration   96.215 Sec.
 Direction         N-S (N positive)
Max. Acceleration     67.601 cm/sec**2
     
  * For reference see Site Classification link of website 
     
 Base Line Corrected and Low Pass Filtered (Cut Off at 35 Hz) Time History
 Acceleration data in cm/sec**2
    
[...]
       0.015
       0.011
       0.001
      -0.008
      -0.010
      -0.008
      -0.009
      -0.010
      -0.009
      -0.006
      -0.004
      -0.004
      -0.003
       0.002
       0.011
       0.020
       0.024
       0.018
       0.004
      -0.010
      -0.014
      -0.012
      -0.010
      -0.008
      -0.002
       0.011
       0.025
       0.028
       0.017
      -0.005
      -0.027
      -0.038
      -0.036
      -0.024
      -0.010
       0.004
       0.021
       0.035
       0.039
       0.031
       0.017
       0.006
       0.001
      -0.001
      -0.005
      -0.009
      -0.009
       0.000
       0.015
       0.025
       0.022
       0.009
      -0.002
      -0.004
       0.002
       0.006
       0.004
      -0.003
      -0.006
      -0.001
       0.009
       0.020
       0.029
       0.035
       0.037
       0.032
       0.019
       0.004
      -0.006
      -0.007
       0.002
       0.016
       0.027
       0.026
       0.015
       0.001
      -0.006
      -0.005
       0.002
       0.010
       0.013
       0.008
      -0.001
      -0.004
       0.001
       0.011
       0.017
       0.015
       0.008
       0.000
      -0.004
       0.000
       0.007
       0.010
       0.006
      -0.001
      -0.006
      -0.012
      -0.020
      -0.023
      -0.018
      -0.006
       0.005
       0.014
       0.021
       0.026
       0.026
       0.018
       0.003
      -0.015
      -0.030
      -0.032
      -0.019
       0.000
       0.014
       0.019
       0.020
       0.018
       0.011
      -0.001
      -0.013
      -0.020
      -0.023
      -0.022
      -0.016
      -0.005
       0.005
       0.013
       0.019
       0.023
       0.020
       0.009
      -0.006
      -0.017
      -0.022
      -0.017
      -0.003
       0.016
       0.027
       0.023
       0.008
      -0.004
      -0.003
       0.009
       0.023
       0.026
       0.013
      -0.008
      -0.022
      -0.019
       0.000
       0.022
       0.034
       0.029
       0.011
      -0.007
      -0.013
      -0.002
       0.013
       0.020
       0.014
       0.003
       0.000
       0.005
       0.012
       0.012
       0.004
      -0.001
       0.006
       0.022
       0.035
       0.034
       0.019
       0.000
      -0.010
      -0.006
       0.003
       0.008
       0.005
      -0.001
      -0.003
      -0.002
      -0.001
      -0.002
       0.000
       0.002
       0.002
      -0.005
      -0.016
      -0.025
      -0.024
      -0.010
       0.009
       0.023
       0.026
       0.021
       0.016
       0.012
       0.005
      -0.007
      -0.017
      -0.020
      -0.013
       0.002
       0.018
       0.025
       0.019
       0.006
      -0.002
      -0.004
      -0.004
      -0.007
      -0.009
      -0.008
      -0.004
       0.002
       0.011
       0.020
       0.020
       0.008
      -0.009
      -0.020
      -0.019
      -0.011
      -0.001
       0.007
       0.010
       0.009
       0.006
       0.005
       0.001
      -0.008
      -0.019
      -0.022
      -0.011
       0.008
       0.022
       0.019
       0.001
      -0.020
      -0.028
      -0.022
      -0.009
      -0.001
       0.001
       0.001
       0.001
      -0.002
      -0.006
      -0.005
       0.000
       0.006
       0.008
       0.006
       0.002
      -0.001
       0.000
       0.008
       0.019
       0.030
       0.037
       0.036
       0.027
       0.010
      -0.006
      -0.014
      -0.013
      -0.011
      -0.013
      -0.015
      -0.010
       0.001
       0.013
       0.019
       0.018
       0.011
       0.003
      -0.003
      -0.006
      -0.003
       0.005
       0.013
       0.018
       0.017
       0.015
       0.012
       0.009
       0.002
      -0.008
      -0.019
      -0.024
      -0.020
      -0.007
       0.006
       0.011
       0.007
       0.001
       0.001
       0.007
       0.012
       0.012
       0.004
      -0.007
      -0.013
      -0.013
      -0.008
      -0.002
       0.004
       0.011
       0.016
       0.016
       0.010
       0.002
      -0.001
       0.001
       0.005
       0.013
       0.019
       0.019
       0.009
      -0.006
      -0.014
      -0.013
      -0.005
       0.007
       0.018
       0.024
       0.021
       0.014
       0.009
       0.005
       0.002
       0.000
       0.005
       0.017
       0.024
       0.019
       0.006
       0.002
       0.016
       0.037
       0.042
       0.014
      -0.034
      -0.067
      -0.056
      -0.008
       0.041
       0.060
       0.043
       0.010
      -0.014
      -0.019
      -0.008
       0.008
       0.014
       0.004
      -0.016
      -0.031
      -0.032
      -0.020
       0.000
       0.018
       0.027
       0.025
       0.018
       0.012
       0.005
      -0.004
      -0.010
      -0.008
       0.000
       0.003
       0.000
      -0.005
      -0.004
       0.000
       0.000
      -0.006
      -0.013
      -0.014
      -0.005
       0.008
       0.016
       0.014
       0.004
      -0.004
      -0.004
       0.000
       0.003
       0.002
       0.002
       0.005
       0.011
       0.017
       0.019
       0.017
       0.011
       0.004
      -0.003
      -0.007
      -0.008
      -0.008
      -0.009
      -0.011
      -0.011
      -0.006
       0.001
       0.009
       0.012
       0.009
       0.000
      -0.009
      -0.014
      -0.011
       0.001
       0.017
       0.027
       0.025
       0.008
      -0.013
      -0.025
      -0.022
      -0.011
      -0.002
       0.005
       0.009
       0.010
       0.009
       0.007
       0.005
       0.004
      -0.001
      -0.010
      -0.023
      -0.033
      -0.029
      -0.005
       0.027
       0.042
       0.030
       0.005
      -0.013
      -0.014
      -0.006
       0.003
       0.010
       0.011
       0.005
      -0.004
      -0.005
       0.006
       0.024
       0.037
       0.032
       0.008
      -0.021
      -0.034
      -0.023
       0.001
       0.020
       0.024
       0.018
       0.008
      -0.003
      -0.010
      -0.008
       0.001
       0.008
       0.008
      -0.001
      -0.013
      -0.020
      -0.020
      -0.013
      -0.005
       0.000
       0.003
       0.004
       0.000
      -0.011
      -0.024
      -0.037
      -0.055
      -0.090
      -0.144
      -0.197
      -0.227
      -0.230
      -0.234
      -0.277
      -0.372
      -0.491
      -0.585
      -0.632
      -0.668
      -0.743
      -0.858
      -0.943
      -0.916
      -0.777
      -0.635
      -0.620
      -0.758
      -0.953
      -1.080
      -1.112
      -1.130
      -1.203
      -1.283
      -1.238
      -0.984
      -0.591
      -0.231
      -0.059
      -0.130
      -0.403
      -0.790
      -1.180
      -1.454
      -1.517
      -1.340
      -0.970
      -0.498
      -0.025
       0.334
       0.454
       0.243
      -0.281
      -0.966
      -1.584
      -1.936
      -1.911
      -1.496
      -0.765
       0.110
       0.853
       1.175
       0.954
       0.351
      -0.254
      -0.514
      -0.335
       0.168
       0.914
       2.001
       3.509
       5.131
       6.093
       5.625
       3.606
       0.767
      -1.807
      -3.424
      -4.095
      -4.191
      -3.898
      -3.066
      -1.601
       0.091
       1.140
       0.823
      -0.782
      -2.699
      -3.658
      -2.929
      -0.767
       1.815
       3.719
       4.372
       3.892
       2.803
       1.603
       0.505
      -0.506
      -1.406
      -1.890
      -1.427
       0.339
       3.094
       5.756
       7.024
       6.286
       4.133
       1.992
       1.103
       1.688
       2.949
       3.833
       3.842
       3.251
       2.654
       2.349
       2.096
       1.394
      -0.003
      -1.772
      -3.149
      -3.424
      -2.451
      -0.778
       0.730
       1.537
       1.834
       2.334
       3.562
       5.235
       6.311
       5.779
       3.524
       0.484
      -2.075
      -3.490
      -3.981
      -4.122
      -4.191
      -4.050
      -3.532
      -2.776
      -2.147
      -1.885
      -1.861
      -1.635
      -0.737
       0.988
       3.173
       5.010
       5.647
       4.675
       2.370
      -0.497
      -3.105
      -4.955
      -5.919
      -6.068
      -5.560
      -4.650
      -3.663
      -2.786
      -1.865
      -0.557
       1.205
       2.909
       3.790
       3.623
       3.169
       3.662
       5.599
       7.974
       8.849
       6.915
       2.655
      -1.997
      -5.162
      -6.301
      -6.201
      -5.945
      -5.956
      -5.917
      -5.396
      -4.400
      -3.370
      -2.723
      -2.438
      -2.034
      -0.991
       0.749
       2.622
       3.819
       3.876
       2.954
       1.572
       0.055
      -1.733
      -4.113
      -7.041
      -9.820
     -11.384
     -10.934
      -8.446
      -4.681
      -0.741
       2.494
       4.629
       5.649
       5.671
       4.831
       3.340
       1.530
      -0.265
      -1.871
      -3.282
      -4.469
      -5.242
      -5.373
      -4.864
      -4.038
      -3.262
      -2.563
      -1.521
       0.405
       3.374
       6.887
       9.953
      11.624
      11.523
      10.016
       7.875
       5.702
       3.622
       1.502
      -0.554
      -2.046
      -2.512
      -2.117
      -1.723
      -2.286
      -4.085
      -6.515
      -8.572
      -9.536
      -9.224
      -7.744
      -5.198
      -1.715
       2.320
       6.166
       8.991
      10.274
      10.045
       8.765
       6.993
       5.096
       3.185
       1.252
      -0.673
      -2.449
      -3.875
      -4.802
      -5.188
      -5.032
      -4.281
      -2.890
      -1.023
       0.844
       2.148
       2.630
       2.519
       2.301
       2.288
       2.393
       2.304
       1.848
       1.164
       0.525
       0.008
      -0.597
      -1.536
      -2.739
      -3.720
      -3.846
      -2.786
      -0.779
       1.506
       3.397
       4.618
       5.338
       5.911
       6.561
       7.236
       7.666
       7.523
       6.569
       4.759
       2.274
      -0.514
      -3.148
      -5.233
      -6.557
      -7.166
      -7.279
      -7.080
      -6.539
      -5.485
      -3.911
      -2.217
      -1.087
      -1.048
      -2.039
      -3.403
      -4.312
      -4.331
      -3.644
      -2.817
      -2.323
      -2.238
      -2.303
      -2.198
      -1.756
      -0.972
       0.105
       1.440
       2.991
       4.667
       6.331
       7.847
       9.086
       9.875
       9.935
       8.929
       6.647
       3.208
      -0.896
      -4.989
      -8.511
     -11.175
     -12.918
     -13.733
     -13.585
     -12.468
     -10.504
      -7.966
      -5.194
      -2.503
      -0.122
       1.845
       3.454
       4.873
       6.208
       7.339
       7.956
       7.815
       7.005
       5.944
       5.085
       4.571
       4.132
       3.337
       2.006
       0.452
      -0.697
      -0.957
      -0.380
       0.454
       0.813
       0.261
      -1.154
      -3.044
      -4.980
      -6.711
      -8.171
      -9.290
      -9.833
      -9.446
      -7.955
      -5.669
      -3.362
      -1.846
      -1.429
      -1.686
      -1.720
      -0.729
       1.523
       4.614
       7.709
       9.953
      10.798
      10.180
       8.510
       6.524
       5.038
       4.634
       5.372
       6.659
       7.488
       6.999
       5.018
       2.148
      -0.678
      -2.798
      -4.089
      -4.755
      -4.941
      -4.554
      -3.445
      -1.702
       0.225
       1.677
       2.080
       1.219
      -0.636
      -2.814
      -4.555
      -5.389
      -5.338
      -4.764
      -4.007
      -3.118
      -1.890
      -0.133
       2.073
       4.314
       6.018
       6.706
       6.200
       4.683
       2.612
       0.525
      -1.148
      -2.156
      -2.417
      -2.012
      -1.208
      -0.394
       0.142
       0.446
       0.933
       2.110
       4.191
       6.884
       9.490
      11.252
      11.717
      10.921
       9.313
       7.510
       6.026
       5.123
       4.810
       4.947
       5.383
       6.037
       6.876
       7.830
       8.729
       9.307
       9.285
       8.502
       7.004
       5.039
       2.922
       0.894
      -0.928
      -2.512
      -3.866
      -5.024
      -6.042
      -6.957
      -7.732
      -8.242
      -8.333
      -7.922
      -7.070
      -5.975
      -4.852
      -3.764
      -2.546
      -0.922
       1.266
       3.933
       6.871
       9.953
      13.190
      16.558
      19.817
      22.541
      24.351
      25.114
      24.906
      23.834
      21.926
      19.194
      15.766
      11.937
       8.104
       4.606
       1.584
      -1.043
      -3.460
      -5.771
      -7.891
      -9.627
     -10.898
     -11.887
     -12.972
     -14.465
     -16.391
     -18.489
     -20.422
     -22.008
     -23.291
     -24.413
     -25.442
     -26.274
     -26.674
     -26.406
     -25.340
     -23.458
     -20.823
     -17.594
     -14.063
     -10.593
      -7.409
      -4.423
      -1.330
       2.012
       5.231
       7.526
       8.214
       7.276
       5.329
       3.006
       0.292
      -3.519
      -9.209
     -16.912
     -25.906
     -34.996
     -43.128
     -49.735
     -54.634
     -57.623
     -58.078
     -54.921
     -47.133
     -34.597
     -18.559
      -1.190
      15.540
      30.679
      44.090
      55.499
      63.837
      67.601
      65.911
      59.303
      49.588
      38.944
      29.018
      20.671
      14.243
       9.819
       7.216
       5.946
       5.387
       5.053
       4.711
       4.269
       3.596
       2.495
       0.847
      -1.244
      -3.537
      -5.912
      -8.554
     -11.817
     -15.884
     -20.525
     -25.170
     -29.173
     -32.004
     -33.297
     -32.835
     -30.554
     -26.591
     -21.302
     -15.200
      -8.843
      -2.749
       2.670
       7.223
      10.989
      14.185
      16.941
      19.177
      20.693
      21.413
      21.560
      21.535
      21.514
      21.175
      19.929
      17.470
      14.135
      10.729
       7.990
       6.146
       4.929
       3.987
       3.265
       2.985
       3.290
       3.957
       4.418
       4.080
       2.651
       0.270
      -2.568
      -5.213
      -7.062
      -7.730
      -7.130
      -5.449
      -3.033
      -0.228
       2.726
       5.704
       8.606
      11.251
      13.347
      14.602
      14.910
      14.448
      13.551
      12.456
      11.176
       9.591
       7.631
       5.352
       2.879
       0.312
      -2.262
      -4.624
      -6.324
      -6.842
      -5.956
      -4.039
      -1.985
      -0.777
      -0.945
      -2.266
      -3.945
      -5.164
      -5.595
      -5.476
      -5.230
      -5.018
      -4.606
      -3.621
      -2.022
      -0.364
       0.432
      -0.295
      -2.411
      -5.013
      -7.008
      -7.781
      -7.377
      -6.201
      -4.670
      -3.128
      -1.911
      -1.286
      -1.291
      -1.677
      -2.066
      -2.180
      -1.932
      -1.354
      -0.506
       0.510
       1.513
       2.292
       2.706
       2.713
       2.312
       1.518
       0.402
      -0.873
      -2.081
      -3.007
      -3.505
      -3.523
      -3.079
      -2.225
      -1.026
       0.472
       2.228
       4.173
       6.184
       8.099
       9.725
      10.791
      10.912
       9.702
       7.008
       3.073
      -1.534
      -6.186
     -10.451
     -14.115
     -16.983
     -18.670
     -18.715
     -16.932
     -13.614
      -9.361
      -4.764
      -0.278
       3.711
       6.830
       8.765
       9.377
       8.764
       7.142
       4.655
       1.368
      -2.493
      -6.382
      -9.644
     -11.859
     -12.963
     -13.072
     -12.278
     -10.595
      -8.077
      -4.974
      -1.735
       1.209
       3.677
       5.728
       7.422
       8.649
       9.204
       8.997
       8.201
       7.198
       6.388
       5.961
       5.829
       5.711
       5.312
       4.528
       3.558
       2.774
       2.420
       2.417
       2.485
       2.395
       2.022
       1.243
      -0.096
      -2.047
      -4.434
      -6.868
      -8.895
     -10.179
     -10.644
     -10.511
     -10.195
      -9.994
      -9.778
      -9.017
      -7.220
      -4.428
      -1.264
       1.527
       3.652
       5.384
       7.149
       9.014
      10.613
      11.497
      11.486
      10.719
       9.480
       7.999
       6.378
       4.651
       2.889
       1.193
      -0.399
      -1.925
      -3.378
      -4.632
      -5.506
      -5.856
      -5.629
      -4.885
      -3.792
      -2.557
      -1.368
      -0.383
       0.266
       0.511
       0.390
       0.035
      -0.382
      -0.676
      -0.684
      -0.315
       0.390
       1.262
       2.101
       2.797
       3.373
       3.858
       4.141
       4.014
       3.393
       2.464
       1.578
       0.995
       0.705
       0.475
       0.082
      -0.528
      -1.277
      -2.116
      -3.082
      -4.196
      -5.339
      -6.227
      -6.502
      -5.911
      -4.493
      -2.622
      -0.827
       0.500
       1.256
       1.592
       1.779
       2.070
       2.558
       3.126
       3.564
       3.755
       3.748
       3.686
       3.680
       3.754
       3.871
       3.983
       4.066
       4.128
       4.194
       4.299
       4.478
       4.758
       5.139
       5.576
       5.961
       6.122
       5.904
       5.296
       4.474
       3.678
       3.023
       2.423
       1.684
       0.670
      -0.575
      -1.857
      -2.978
      -3.890
      -4.713
      -5.598
      -6.562
      -7.418
      -7.889
      -7.800
      -7.144
      -5.992
      -4.378
      -2.339
      -0.004
       2.411
       4.691
       6.642
       8.090
       8.948
       9.303
       9.370
       9.333
       9.208
       8.822
       7.956
       6.524
       4.634
       2.454
       0.051
      -2.590
      -5.416
      -8.198
     -10.585
     -12.264
     -13.111
     -13.201
     -12.675
     -11.601
      -9.985
      -7.900
      -5.551
      -3.179
      -0.920
       1.200
       3.148
       4.774
       5.847
       6.213
       5.912
       5.146
       4.144
       3.019
       1.753
       0.293
      -1.317
      -2.915
      -4.321
      -5.450
      -6.323
      -6.986
      -7.438
      -7.626
      -7.519
      -7.142
      -6.561
      -5.818
      -4.917
      -3.851
      -2.643
      -1.358
      -0.108
       0.959
       1.708
       2.086
       2.170
       2.123
       2.091
       2.146
       2.325
       2.687
       3.307
       4.196
       5.208
       6.050
       6.435
       6.243
       5.546
       4.459
       2.994
       1.079
      -1.266
      -3.801
      -6.133
      -7.940
      -9.124
      -9.791
     -10.093
     -10.100
      -9.781
      -9.089
      -8.041
      -6.736
      -5.281
      -3.731
      -2.083
      -0.371
       1.274
       2.652
       3.614
       4.137
       4.297
       4.214
       4.010
       3.816
       3.745
       3.854
       4.117
       4.448
       4.752
       4.989
       5.185
       5.373
       5.520
       5.522
       5.286
