Origin Time       17/6/2014 17:31:08 
Lat.              32.2 N 
Long.             76.1 E 
Depth (Km)         10.0
Magnitude         4.1
 Region           Kangra-(H.P.)                                                    
 Above details taken from IMD 
     
Station Code      DSL
Station Lat.       32.207  N
Station Long.      76.324  E
Station Height(m) 1256.0
Site Class        B   Vs30 between 375 m/sec to 700 m/sec *  
Record Time       17.06.2014 17:30:41.584
Sampling Rate     200. Hz
 Record Duration   83.600 Sec.
 Direction         E-W (E positive)
Max. Acceleration      5.107 cm/sec**2
     
  * For reference see Site Classification link of website 
     
 Base Line Corrected and Low Pass Filtered (Cut Off at 35 Hz) Time History
 Acceleration data in cm/sec**2
    
[...]
       0.010
      -0.003
      -0.012
      -0.011
       0.002
       0.017
       0.024
       0.017
       0.002
      -0.011
      -0.014
      -0.005
       0.006
       0.011
       0.008
      -0.001
      -0.008
      -0.011
      -0.009
      -0.005
      -0.002
       0.001
       0.003
       0.005
       0.008
       0.009
       0.007
       0.003
       0.000
       0.000
       0.002
       0.000
      -0.007
      -0.016
      -0.019
      -0.013
      -0.001
       0.008
       0.009
       0.002
      -0.006
      -0.007
      -0.001
       0.007
       0.011
       0.010
       0.006
       0.001
      -0.002
      -0.003
      -0.003
       0.001
       0.007
       0.014
       0.018
       0.014
       0.004
      -0.008
      -0.014
      -0.012
      -0.005
       0.001
       0.002
      -0.004
      -0.010
      -0.014
      -0.015
      -0.011
      -0.006
       0.001
       0.006
       0.006
       0.000
      -0.010
      -0.017
      -0.016
      -0.010
      -0.002
       0.003
       0.003
       0.000
      -0.003
      -0.004
      -0.001
       0.003
       0.004
       0.002
      -0.001
      -0.002
       0.000
       0.002
      -0.001
      -0.005
      -0.009
      -0.006
       0.002
       0.008
       0.006
      -0.001
      -0.008
      -0.008
      -0.002
       0.006
       0.011
       0.014
       0.013
       0.006
      -0.005
      -0.013
      -0.011
       0.000
       0.011
       0.014
       0.007
      -0.003
      -0.009
      -0.007
       0.000
       0.008
       0.015
       0.018
       0.014
       0.005
      -0.001
       0.001
       0.011
       0.019
       0.018
       0.009
      -0.001
      -0.005
      -0.004
       0.000
       0.006
       0.014
       0.020
       0.017
       0.006
      -0.007
      -0.013
      -0.007
       0.001
       0.005
       0.003
       0.003
       0.006
       0.005
      -0.003
      -0.015
      -0.017
      -0.004
       0.016
       0.026
       0.019
       0.004
      -0.010
      -0.016
      -0.014
      -0.007
       0.004
       0.013
       0.017
       0.011
      -0.002
      -0.011
      -0.010
       0.000
       0.010
       0.013
       0.010
       0.004
       0.000
       0.000
       0.003
       0.007
       0.011
       0.010
       0.004
      -0.004
      -0.008
      -0.007
      -0.001
       0.003
       0.006
       0.009
       0.013
       0.015
       0.011
       0.000
      -0.012
      -0.017
      -0.010
       0.004
       0.017
       0.024
       0.023
       0.017
       0.008
       0.004
       0.006
       0.013
       0.017
       0.012
       0.001
      -0.007
      -0.007
       0.001
       0.009
       0.013
       0.012
       0.007
      -0.001
      -0.007
      -0.010
      -0.005
       0.006
       0.018
       0.025
       0.021
       0.010
       0.001
       0.002
       0.011
       0.021
       0.025
       0.019
       0.010
       0.002
       0.000
       0.001
       0.005
       0.010
       0.017
       0.022
       0.020
       0.009
      -0.007
      -0.015
      -0.011
       0.002
       0.018
       0.026
       0.024
       0.013
       0.001
      -0.006
      -0.004
       0.001
       0.005
       0.006
       0.006
       0.006
       0.007
       0.006
       0.004
       0.003
       0.004
       0.007
       0.012
       0.014
       0.011
       0.002
      -0.009
      -0.018
      -0.017
      -0.006
       0.008
       0.016
       0.012
      -0.002
      -0.017
      -0.024
      -0.021
      -0.010
       0.003
       0.012
       0.012
       0.006
       0.000
       0.002
       0.012
       0.023
       0.028
       0.026
       0.021
       0.018
       0.015
       0.012
       0.010
       0.012
       0.017
       0.020
       0.016
       0.005
      -0.006
      -0.009
      -0.002
       0.012
       0.024
       0.029
       0.023
       0.011
       0.000
      -0.005
      -0.001
       0.007
       0.014
       0.016
       0.013
       0.008
       0.002
      -0.004
      -0.006
      -0.003
       0.009
       0.026
       0.039
       0.033
       0.008
      -0.022
      -0.034
      -0.016
       0.022
       0.054
       0.055
       0.023
      -0.021
      -0.051
      -0.052
      -0.026
       0.010
       0.037
       0.043
       0.028
       0.008
       0.009
       0.048
       0.109
       0.135
       0.058
      -0.133
      -0.350
      -0.450
      -0.351
      -0.125
       0.054
       0.074
       0.000
      -0.001
       0.124
       0.201
      -0.018
      -0.546
      -1.021
      -0.946
      -0.124
       1.095
       2.005
       2.033
       1.138
      -0.172
      -1.185
      -1.421
      -0.870
       0.084
       0.942
       1.362
       1.258
       0.728
      -0.054
      -0.915
      -1.685
      -2.188
      -2.258
      -1.820
      -0.952
       0.122
       1.129
       1.841
       2.134
       1.989
       1.477
       0.728
      -0.080
      -0.712
      -0.907
      -0.525
       0.262
       0.939
       0.918
      -0.021
      -1.471
      -2.572
      -2.540
      -1.208
       0.800
       2.402
       2.727
       1.671
      -0.031
      -1.309
      -1.469
      -0.619
       0.490
       1.043
       0.718
      -0.186
      -1.060
      -1.428
      -1.176
      -0.497
       0.305
       0.961
       1.270
       1.112
       0.507
      -0.298
      -0.851
      -0.730
       0.132
       1.297
       2.055
       1.902
       0.886
      -0.459
      -1.503
      -1.892
      -1.661
      -1.085
      -0.473
      -0.025
       0.211
       0.303
       0.336
       0.329
       0.245
       0.084
      -0.056
      -0.044
       0.165
       0.478
       0.747
       0.863
       0.793
       0.542
       0.140
      -0.332
      -0.727
      -0.892
      -0.773
      -0.461
      -0.127
       0.112
       0.254
       0.338
       0.335
       0.145
      -0.269
      -0.758
      -1.024
      -0.820
      -0.150
       0.709
       1.372
       1.567
       1.242
       0.551
      -0.237
      -0.830
      -1.023
      -0.788
      -0.305
       0.142
       0.342
       0.272
       0.063
      -0.129
      -0.211
      -0.141
       0.093
       0.439
       0.737
       0.766
       0.399
      -0.264
      -0.940
      -1.328
      -1.267
      -0.778
      -0.041
       0.641
       0.945
       0.705
       0.073
      -0.531
      -0.713
      -0.405
       0.097
       0.422
       0.437
       0.303
       0.258
       0.371
       0.512
       0.528
       0.391
       0.173
      -0.079
      -0.381
      -0.730
      -1.024
      -1.120
      -0.960
      -0.642
      -0.332
      -0.127
       0.000
       0.145
       0.376
       0.681
       0.978
       1.151
       1.092
       0.758
       0.224
      -0.319
      -0.649
      -0.645
      -0.379
      -0.075
       0.037
      -0.121
      -0.439
      -0.698
      -0.717
      -0.460
      -0.050
       0.317
       0.489
       0.449
       0.311
       0.237
       0.318
       0.498
       0.606
       0.484
       0.116
      -0.348
      -0.694
      -0.781
      -0.606
      -0.278
       0.059
       0.287
       0.344
       0.236
       0.035
      -0.146
      -0.206
      -0.127
       0.007
       0.064
      -0.036
      -0.237
      -0.371
      -0.274
       0.073
       0.503
       0.768
       0.706
       0.343
      -0.150
      -0.573
      -0.794
      -0.766
      -0.516
      -0.127
       0.273
       0.561
       0.680
       0.667
       0.599
       0.528
       0.446
       0.318
       0.139
      -0.043
      -0.145
      -0.125
      -0.021
       0.063
       0.031
      -0.130
      -0.331
      -0.445
      -0.387
      -0.171
       0.103
       0.306
       0.358
       0.272
       0.137
       0.068
       0.133
       0.304
       0.449
       0.400
       0.064
      -0.477
      -0.976
      -1.172
      -0.993
      -0.636
      -0.405
      -0.437
      -0.565
      -0.468
       0.010
       0.697
       1.235
       1.387
       1.218
       0.974
       0.820
       0.689
       0.392
      -0.137
      -0.724
      -1.083
      -1.044
      -0.674
      -0.191
       0.215
       0.472
       0.578
       0.512
       0.224
      -0.274
      -0.833
      -1.225
      -1.288
      -1.024
      -0.567
      -0.102
       0.200
       0.216
      -0.065
      -0.476
      -0.719
      -0.561
      -0.036
       0.577
       0.996
       1.160
       1.188
       1.153
       0.970
       0.565
       0.087
      -0.140
       0.061
       0.477
       0.641
       0.243
      -0.575
      -1.335
      -1.609
      -1.319
      -0.725
      -0.172
       0.153
       0.288
       0.369
       0.470
       0.541
       0.487
       0.312
       0.174
       0.271
       0.648
       1.108
       1.344
       1.181
       0.687
       0.066
      -0.525
      -1.027
      -1.380
      -1.464
      -1.206
      -0.723
      -0.315
      -0.242
      -0.522
      -0.909
      -1.081
      -0.853
      -0.279
       0.394
       0.867
       0.960
       0.698
       0.285
      -0.039
      -0.125
       0.029
       0.305
       0.527
       0.544
       0.326
       0.040
      -0.034
       0.261
       0.757
       1.041
       0.791
       0.095
      -0.584
      -0.786
      -0.428
       0.161
       0.539
       0.487
       0.096
      -0.408
      -0.872
      -1.240
      -1.463
      -1.440
      -1.092
      -0.479
       0.200
       0.709
       0.902
       0.777
       0.471
       0.219
       0.242
       0.589
       1.045
       1.257
       1.014
       0.431
      -0.160
      -0.512
      -0.646
      -0.743
      -0.893
      -0.983
      -0.830
      -0.397
       0.144
       0.541
       0.644
       0.480
       0.203
      -0.007
      -0.033
       0.133
       0.392
       0.597
       0.651
       0.560
       0.394
       0.205
      -0.010
      -0.256
      -0.472
      -0.555
      -0.456
      -0.257
      -0.109
      -0.106
      -0.209
      -0.321
      -0.388
      -0.425
      -0.442
      -0.398
      -0.255
      -0.061
       0.064
       0.038
      -0.098
      -0.247
      -0.372
      -0.531
      -0.750
      -0.900
      -0.733
      -0.104
       0.845
       1.708
       2.067
       1.751
       0.947
       0.081
      -0.426
      -0.384
       0.069
       0.559
       0.693
       0.305
      -0.441
      -1.160
      -1.499
      -1.359
      -0.900
      -0.372
       0.073
       0.417
       0.677
       0.820
       0.778
       0.541
       0.208
      -0.081
      -0.245
      -0.316
      -0.372
      -0.426
      -0.392
      -0.170
       0.217
       0.589
       0.722
       0.535
       0.186
      -0.026
       0.099
       0.484
       0.815
       0.776
       0.275
      -0.525
      -1.357
      -2.018
      -2.387
      -2.343
      -1.751
      -0.590
       0.891
       2.193
       2.819
       2.580
       1.699
       0.640
      -0.196
      -0.666
      -0.858
      -0.939
      -1.003
      -1.029
      -0.934
      -0.655
      -0.222
       0.245
       0.625
       0.888
       1.106
       1.344
       1.541
       1.507
       1.049
       0.134
      -1.035
      -2.090
      -2.667
      -2.590
      -1.943
      -0.986
      -0.022
       0.699
       1.006
       0.852
       0.385
      -0.061
      -0.126
       0.335
       1.111
       1.753
       1.885
       1.479
       0.842
       0.336
       0.087
      -0.046
      -0.251
      -0.570
      -0.880
      -1.038
      -1.010
      -0.877
      -0.731
      -0.591
      -0.420
      -0.200
       0.008
       0.110
       0.080
      -0.008
      -0.064
      -0.086
      -0.170
      -0.415
      -0.814
      -1.220
      -1.421
      -1.271
      -0.788
      -0.143
       0.446
       0.837
       1.013
       1.027
       0.899
       0.603
       0.136
      -0.392
      -0.793
      -0.933
      -0.816
      -0.549
      -0.231
       0.091
       0.386
       0.615
       0.761
       0.862
       0.947
       0.951
       0.734
       0.244
      -0.342
      -0.692
      -0.558
       0.038
       0.856
       1.628
       2.194
       2.493
       2.508
       2.269
       1.872
       1.463
       1.156
       0.977
       0.889
       0.880
       0.989
       1.246
       1.613
       2.004
       2.332
       2.524
       2.494
       2.142
       1.427
       0.451
      -0.543
      -1.296
      -1.691
      -1.806
      -1.836
      -1.936
      -2.139
      -2.387
      -2.610
      -2.770
      -2.837
      -2.754
      -2.457
      -1.931
      -1.255
      -0.599
      -0.151
      -0.040
      -0.284
      -0.795
      -1.396
      -1.869
      -2.017
      -1.748
      -1.148
      -0.455
       0.048
       0.181
      -0.050
      -0.489
      -0.928
      -1.191
      -1.156
      -0.760
      -0.052
       0.777
       1.446
       1.726
       1.572
       1.136
       0.662
       0.348
       0.272
       0.383
       0.557
       0.664
       0.628
       0.461
       0.237
       0.031
      -0.134
      -0.260
      -0.304
      -0.161
       0.225
       0.732
       1.088
       1.046
       0.574
      -0.149
      -0.893
      -1.539
      -2.073
      -2.459
      -2.576
      -2.323
      -1.756
      -1.072
      -0.422
       0.257
       1.168
       2.405
       3.756
       4.783
       5.107
       4.652
       3.660
       2.505
       1.466
       0.617
      -0.128
      -0.888
      -1.713
      -2.533
      -3.194
      -3.558
      -3.590
      -3.365
      -2.991
      -2.543
      -2.052
      -1.549
      -1.064
      -0.609
      -0.173
       0.239
       0.593
       0.876
       1.178
       1.657
       2.407
       3.322
       4.115
       4.487
       4.311
       3.681
       2.826
       1.978
       1.301
       0.875
       0.682
       0.571
       0.292
      -0.355
      -1.326
      -2.285
      -2.816
      -2.721
      -2.147
      -1.454
      -0.973
      -0.866
      -1.124
      -1.640
      -2.249
      -2.737
      -2.901
      -2.667
      -2.156
      -1.608
      -1.213
      -0.980
      -0.782
      -0.500
      -0.131
       0.219
       0.418
       0.375
       0.094
      -0.318
      -0.687
      -0.865
      -0.827
      -0.674
      -0.521
      -0.366
      -0.077
       0.472
       1.260
       2.107
       2.798
       3.220
       3.382
       3.354
       3.202
       2.977
       2.721
       2.463
       2.198
       1.886
       1.480
       0.957
       0.338
      -0.317
      -0.920
      -1.377
      -1.626
      -1.677
      -1.618
      -1.555
      -1.537
      -1.526
      -1.459
      -1.333
      -1.214
      -1.150
      -1.093
      -0.930
      -0.586
      -0.091
       0.424
       0.813
       1.002
       1.016
       0.944
       0.868
       0.828
       0.822
       0.835
       0.843
       0.819
       0.733
       0.557
       0.297
       0.000
      -0.259
      -0.422
      -0.493
      -0.515
      -0.523
      -0.504
      -0.425
      -0.282
      -0.133
      -0.066
      -0.128
      -0.267
      -0.350
      -0.251
       0.039
       0.389
       0.606
       0.581
       0.361
       0.097
      -0.095
      -0.221
      -0.346
      -0.478
      -0.516
      -0.362
      -0.055
       0.224
       0.307
       0.209
       0.102
       0.137
       0.285
       0.373
       0.262
      -0.021
      -0.328
      -0.526
      -0.585
      -0.537
      -0.396
      -0.132
       0.271
       0.741
       1.127
       1.285
       1.178
       0.898
       0.601
       0.407
       0.342
       0.336
       0.286
       0.141
      -0.056
      -0.214
      -0.285
      -0.313
      -0.395
      -0.580
      -0.826
      -1.038
      -1.167
      -1.243
      -1.335
      -1.479
      -1.658
      -1.835
      -1.977
      -2.046
      -1.980
      -1.715
      -1.241
      -0.635
      -0.033
       0.434
       0.699
       0.773
       0.726
       0.667
       0.693
       0.848
       1.087
       1.296
       1.367
       1.276
       1.103
       0.969
       0.938
       0.968
       0.954
       0.812
       0.533
       0.171
      -0.199
      -0.517
      -0.746
      -0.877
      -0.935
      -0.972
      -1.041
      -1.147
      -1.228
      -1.180
      -0.935
      -0.513
      -0.033
       0.356
       0.563
       0.614
       0.609
       0.625
       0.640
       0.558
       0.323
      -0.011
      -0.312
      -0.484
      -0.536
      -0.541
      -0.541
      -0.499
      -0.338
      -0.022
       0.406
       0.849
       1.208
       1.422
       1.482
       1.425
       1.315
       1.201
       1.093
       0.966
       0.802
       0.613
       0.421
       0.223
      -0.012
      -0.308
      -0.632
      -0.916
      -1.105
      -1.195
      -1.205
      -1.136
      -0.948
      -0.604
      -0.122
       0.408
       0.865
       1.176
       1.349
       1.455
       1.559
       1.671
       1.726
       1.619
       1.283
       0.750
       0.163
      -0.300
      -0.546
      -0.631
      -0.699
      -0.849
      -1.042
      -1.148
      -1.068
      -0.828
      -0.550
      -0.349
      -0.255
      -0.210
      -0.136
       0.001
       0.169
       0.297
       0.313
       0.181
      -0.081
      -0.407
      -0.704
      -0.879
      -0.872
      -0.675
      -0.341
       0.023
       0.293
       0.384
       0.295
       0.098
      -0.119
      -0.315
      -0.501
      -0.699
      -0.882
      -0.975
      -0.902
      -0.640
      -0.249
       0.163
       0.487
       0.667
       0.722
       0.732
       0.779
       0.886
       0.985
       0.961
       0.747
       0.388
       0.027
      -0.176
      -0.151
       0.050
       0.293
       0.436
       0.399
       0.178
      -0.174
      -0.578
      -0.953
      -1.229
      -1.365
      -1.358
      -1.243
      -1.075
      -0.893
      -0.698
      -0.463
      -0.162
       0.199
       0.570
       0.871
       1.033
       1.030
       0.896
       0.705
       0.536
       0.427
       0.360
       0.280
       0.135
      -0.076
      -0.284
      -0.394
      -0.348
      -0.191
      -0.045
      -0.014
      -0.096
      -0.180
      -0.141
       0.054
       0.320
       0.534
       0.622
       0.586
       0.466
       0.289
       0.080
      -0.118
      -0.243
      -0.260
      -0.201
      -0.148
      -0.161
      -0.233
      -0.302
      -0.305
      -0.223
      -0.083
       0.063
       0.162
       0.174
       0.095
      -0.035
      -0.145
      -0.179
      -0.142
      -0.101
      -0.121
      -0.211
      -0.311
      -0.361
      -0.354
      -0.355
      -0.441
      -0.651
      -0.969
      -1.334
      -1.657
      -1.834
      -1.788
      -1.506
      -1.063
      -0.580
      -0.149
       0.190
       0.437
       0.586
       0.630
       0.594
       0.539
       0.527
       0.581
       0.676
       0.779
       0.877
       0.980
       1.104
       1.252
       1.413
       1.550
       1.616
       1.579
       1.452
       1.286
       1.124
       0.957
       0.749
       0.485
