Origin Time       17/6/2014 17:31:08 
Lat.              32.2 N 
Long.             76.1 E 
Depth (Km)         10.0
Magnitude         4.1
 Region           Kangra-(H.P.)                                                    
 Above details taken from IMD 
   
Station Code      DSL
Station Lat.       32.207
Station Long.      76.324
Station Height(m) 1256.0
Site Class        B   Vs30 between 375 m/sec to 700 m/sec *  
Record Time       17.06.2014 17:30:41.584
Sampling Rate     200. Hz
 Record Duration   83.600 Sec.
 Direction         Vert. (Up positive)
Max. Acceleration     10.462 cm/sec**2
     
  * For reference see Site Classification link of website 
     
 Base Line Corrected and Low Pass Filtered (Cut Off at 35 Hz) Time History
 Acceleration data in cm/sec**2
    
[...]
       0.001
      -0.008
      -0.012
      -0.009
      -0.003
       0.001
       0.000
      -0.005
      -0.013
      -0.021
      -0.024
      -0.017
      -0.005
       0.004
       0.003
      -0.005
      -0.012
      -0.014
      -0.013
      -0.008
      -0.003
      -0.001
      -0.004
      -0.008
      -0.008
      -0.003
       0.006
       0.016
       0.021
       0.019
       0.009
      -0.002
      -0.006
      -0.004
      -0.001
       0.000
      -0.002
      -0.006
      -0.008
      -0.007
      -0.004
      -0.004
      -0.009
      -0.018
      -0.024
      -0.023
      -0.016
      -0.008
      -0.002
      -0.002
      -0.004
      -0.003
      -0.001
       0.001
       0.001
       0.002
       0.003
       0.003
      -0.001
      -0.004
      -0.002
       0.002
       0.005
       0.007
       0.006
       0.000
      -0.008
      -0.015
      -0.015
      -0.010
      -0.003
       0.002
       0.004
       0.001
      -0.004
      -0.008
      -0.010
      -0.011
      -0.010
      -0.007
      -0.003
      -0.002
      -0.007
      -0.014
      -0.018
      -0.017
      -0.014
      -0.011
      -0.010
      -0.009
      -0.007
      -0.002
       0.002
       0.003
      -0.003
      -0.008
      -0.010
      -0.008
      -0.003
       0.004
       0.011
       0.014
       0.012
       0.010
       0.009
       0.007
       0.003
      -0.001
      -0.004
      -0.005
      -0.006
      -0.002
       0.003
       0.004
      -0.004
      -0.015
      -0.017
      -0.010
      -0.001
       0.001
      -0.007
      -0.018
      -0.023
      -0.017
      -0.006
       0.001
      -0.005
      -0.015
      -0.017
      -0.010
      -0.001
       0.002
      -0.002
      -0.006
      -0.008
      -0.004
       0.001
       0.003
       0.000
      -0.005
      -0.008
      -0.007
      -0.004
      -0.002
      -0.001
      -0.001
      -0.003
      -0.007
      -0.013
      -0.018
      -0.016
      -0.004
       0.010
       0.016
       0.011
       0.000
      -0.007
      -0.008
      -0.004
       0.001
       0.006
       0.009
       0.006
      -0.001
      -0.008
      -0.011
      -0.010
      -0.006
      -0.002
       0.000
       0.000
       0.000
      -0.001
      -0.001
       0.000
       0.003
       0.004
      -0.003
      -0.016
      -0.021
      -0.010
       0.008
       0.018
       0.010
      -0.008
      -0.022
      -0.024
      -0.012
       0.004
       0.013
       0.007
      -0.006
      -0.017
      -0.020
      -0.013
      -0.002
       0.004
      -0.003
      -0.019
      -0.029
      -0.022
      -0.001
       0.017
       0.021
       0.012
      -0.001
      -0.010
      -0.009
       0.000
       0.010
       0.013
       0.006
      -0.005
      -0.014
      -0.016
      -0.009
       0.002
       0.007
       0.002
      -0.007
      -0.011
      -0.007
       0.001
       0.008
       0.012
       0.008
      -0.003
      -0.011
      -0.011
      -0.003
       0.004
       0.006
       0.002
      -0.002
      -0.003
       0.001
       0.008
       0.011
       0.008
       0.003
       0.002
       0.006
       0.009
       0.008
       0.002
      -0.005
      -0.008
      -0.006
      -0.002
      -0.001
      -0.004
      -0.008
      -0.008
      -0.005
      -0.002
      -0.005
      -0.011
      -0.016
      -0.014
      -0.007
       0.001
       0.000
      -0.009
      -0.018
      -0.022
      -0.020
      -0.018
      -0.017
      -0.016
      -0.014
      -0.010
      -0.002
       0.007
       0.012
       0.011
       0.008
       0.009
       0.008
       0.003
      -0.004
      -0.006
      -0.001
       0.003
       0.003
      -0.001
      -0.004
      -0.001
       0.007
       0.016
       0.016
       0.007
      -0.001
       0.000
       0.007
       0.011
       0.003
      -0.008
      -0.014
      -0.009
       0.002
       0.011
       0.012
       0.007
       0.003
       0.002
       0.003
       0.003
       0.006
       0.014
       0.019
       0.012
      -0.003
      -0.015
      -0.013
       0.000
       0.013
       0.015
       0.004
      -0.014
      -0.027
      -0.030
      -0.024
      -0.014
      -0.003
       0.007
       0.009
      -0.002
      -0.018
      -0.025
      -0.016
       0.001
       0.014
       0.017
       0.011
       0.001
      -0.007
      -0.008
      -0.006
      -0.003
      -0.002
      -0.003
      -0.004
      -0.005
      -0.002
       0.004
       0.011
       0.018
       0.021
       0.021
       0.018
       0.010
      -0.003
      -0.016
      -0.022
      -0.019
      -0.013
      -0.011
      -0.015
      -0.020
      -0.018
      -0.011
      -0.006
      -0.008
      -0.013
      -0.012
      -0.005
       0.000
       0.001
      -0.002
      -0.007
      -0.007
      -0.001
       0.010
       0.016
       0.011
      -0.002
      -0.010
      -0.007
       0.001
       0.008
       0.010
       0.006
      -0.002
      -0.011
      -0.015
      -0.013
      -0.008
       0.000
       0.007
       0.008
       0.003
      -0.004
      -0.004
       0.003
       0.012
       0.016
       0.016
       0.014
       0.010
       0.004
      -0.002
      -0.007
      -0.010
      -0.007
      -0.001
       0.003
       0.001
      -0.004
      -0.007
      -0.006
      -0.008
      -0.010
      -0.004
       0.012
       0.027
       0.027
       0.012
      -0.006
      -0.011
       0.000
       0.013
       0.015
       0.004
      -0.007
      -0.007
       0.002
       0.009
       0.009
       0.002
      -0.006
      -0.012
      -0.011
      -0.004
       0.006
       0.008
      -0.002
      -0.016
      -0.024
      -0.022
      -0.012
      -0.002
      -0.001
      -0.009
      -0.018
      -0.020
      -0.011
       0.003
       0.011
       0.010
      -0.001
      -0.017
      -0.028
      -0.023
      -0.002
       0.020
       0.025
       0.011
      -0.013
      -0.027
      -0.025
      -0.012
      -0.001
       0.000
      -0.006
      -0.013
      -0.018
      -0.021
      -0.021
      -0.013
      -0.002
       0.006
       0.008
       0.006
       0.003
      -0.003
      -0.011
      -0.017
      -0.016
      -0.008
       0.002
       0.009
       0.008
      -0.001
      -0.012
      -0.018
      -0.015
      -0.009
      -0.002
       0.002
      -0.001
      -0.009
      -0.017
      -0.017
      -0.007
       0.006
       0.013
       0.010
      -0.001
      -0.011
      -0.013
      -0.007
      -0.005
      -0.008
      -0.010
      -0.001
       0.011
       0.015
       0.008
      -0.003
      -0.007
      -0.008
      -0.008
      -0.008
      -0.007
      -0.006
      -0.005
      -0.003
       0.000
       0.001
      -0.001
      -0.004
      -0.005
      -0.001
       0.006
       0.012
       0.010
      -0.003
      -0.018
      -0.019
      -0.003
       0.013
       0.014
      -0.001
      -0.017
      -0.017
      -0.001
       0.019
       0.027
       0.021
       0.007
      -0.003
      -0.004
       0.003
       0.013
       0.019
       0.018
       0.009
      -0.001
      -0.006
      -0.002
       0.007
       0.014
       0.014
       0.007
      -0.007
      -0.017
      -0.013
       0.003
       0.021
       0.029
       0.024
       0.011
       0.001
       0.001
       0.009
       0.016
       0.014
       0.007
       0.004
       0.005
       0.006
       0.004
      -0.002
      -0.008
      -0.010
      -0.006
       0.004
       0.010
       0.007
      -0.002
      -0.008
      -0.009
      -0.009
      -0.010
      -0.009
      -0.006
      -0.005
      -0.006
      -0.006
      -0.002
       0.004
       0.008
       0.005
      -0.005
      -0.014
      -0.014
      -0.003
       0.010
       0.012
       0.005
       0.000
       0.000
      -0.001
      -0.006
      -0.012
      -0.014
      -0.012
      -0.008
      -0.003
       0.001
      -0.001
      -0.008
      -0.013
      -0.012
      -0.006
      -0.001
      -0.002
      -0.007
      -0.013
      -0.016
      -0.013
      -0.004
       0.002
       0.002
      -0.002
      -0.005
      -0.005
      -0.004
      -0.004
      -0.007
      -0.012
      -0.017
      -0.017
      -0.010
       0.001
       0.011
       0.013
       0.007
      -0.001
      -0.006
      -0.003
       0.002
       0.002
      -0.003
      -0.010
      -0.017
      -0.020
      -0.020
      -0.012
       0.000
       0.008
       0.007
      -0.001
      -0.010
      -0.014
      -0.009
       0.001
       0.010
       0.009
       0.002
      -0.004
      -0.004
       0.000
       0.003
       0.006
       0.007
       0.008
       0.005
       0.002
      -0.002
      -0.003
      -0.001
       0.001
      -0.001
      -0.007
      -0.012
      -0.012
      -0.004
       0.004
       0.008
       0.007
       0.001
      -0.005
      -0.007
      -0.004
       0.001
       0.003
       0.005
       0.010
       0.014
       0.013
       0.008
       0.004
       0.003
       0.001
      -0.001
       0.001
       0.006
       0.008
       0.002
      -0.009
      -0.016
      -0.015
      -0.007
       0.001
       0.004
       0.000
      -0.006
      -0.006
      -0.001
       0.000
      -0.004
      -0.008
      -0.003
       0.006
       0.009
       0.003
      -0.009
      -0.019
      -0.021
      -0.012
       0.000
       0.005
       0.003
      -0.002
      -0.005
      -0.006
      -0.006
      -0.003
       0.004
       0.010
       0.012
       0.009
       0.002
      -0.009
      -0.020
      -0.022
      -0.011
       0.005
       0.013
       0.008
      -0.003
      -0.012
      -0.017
      -0.017
      -0.014
      -0.009
      -0.004
       0.001
       0.002
      -0.003
      -0.012
      -0.017
      -0.014
      -0.005
       0.003
       0.004
       0.000
      -0.006
      -0.009
      -0.007
      -0.004
      -0.002
      -0.001
      -0.001
      -0.004
      -0.009
      -0.012
      -0.011
      -0.007
      -0.003
       0.001
       0.005
       0.006
       0.000
      -0.011
      -0.016
      -0.007
       0.010
       0.020
       0.014
      -0.001
      -0.012
      -0.010
       0.000
       0.006
      -0.002
      -0.015
      -0.019
      -0.009
       0.002
       0.003
      -0.006
      -0.012
      -0.010
      -0.005
      -0.003
      -0.005
      -0.007
      -0.008
      -0.009
      -0.012
      -0.013
      -0.010
      -0.001
       0.003
      -0.001
      -0.008
      -0.010
      -0.006
      -0.004
      -0.009
      -0.016
      -0.021
      -0.021
      -0.018
      -0.011
      -0.001
       0.008
       0.010
       0.002
      -0.012
      -0.026
      -0.033
      -0.033
      -0.029
      -0.026
      -0.019
      -0.006
       0.007
       0.009
      -0.003
      -0.017
      -0.020
      -0.012
      -0.006
      -0.007
      -0.010
      -0.008
      -0.004
      -0.004
      -0.011
      -0.020
      -0.022
      -0.014
      -0.002
       0.003
      -0.002
      -0.012
      -0.016
      -0.012
      -0.002
       0.012
       0.022
       0.021
       0.007
      -0.013
      -0.027
      -0.027
      -0.016
      -0.004
      -0.001
      -0.006
      -0.011
      -0.010
      -0.007
      -0.009
      -0.013
      -0.010
       0.002
       0.011
       0.007
      -0.006
      -0.017
      -0.016
      -0.007
       0.003
       0.006
       0.001
      -0.008
      -0.013
      -0.011
      -0.006
      -0.002
       0.000
       0.001
       0.001
      -0.001
      -0.005
      -0.008
      -0.010
      -0.010
      -0.006
       0.001
       0.006
       0.004
      -0.001
      -0.004
      -0.005
      -0.004
      -0.004
      -0.005
      -0.006
      -0.001
       0.010
       0.020
       0.020
       0.006
      -0.010
      -0.018
      -0.013
      -0.003
       0.002
      -0.003
      -0.016
      -0.024
      -0.018
      -0.001
       0.012
       0.009
      -0.003
      -0.015
      -0.020
      -0.019
      -0.013
      -0.006
      -0.001
      -0.001
      -0.002
      -0.002
      -0.001
       0.000
       0.000
       0.001
       0.004
       0.005
       0.002
      -0.005
      -0.014
      -0.017
      -0.012
       0.001
       0.013
       0.016
       0.010
      -0.001
      -0.010
      -0.012
      -0.008
      -0.001
       0.003
       0.005
       0.009
       0.016
       0.017
       0.009
      -0.004
      -0.016
      -0.017
      -0.007
       0.009
       0.019
       0.014
      -0.002
      -0.018
      -0.021
      -0.010
       0.006
       0.014
       0.010
      -0.004
      -0.016
      -0.016
      -0.001
       0.015
       0.019
       0.009
      -0.006
      -0.016
      -0.017
      -0.009
       0.004
       0.012
       0.011
       0.005
      -0.003
      -0.009
      -0.011
      -0.008
       0.002
       0.016
       0.029
       0.039
       0.039
       0.019
      -0.020
      -0.058
      -0.063
      -0.014
       0.073
       0.152
       0.163
       0.083
      -0.056
      -0.172
      -0.188
      -0.085
       0.085
       0.229
       0.268
       0.169
      -0.035
      -0.268
      -0.447
      -0.524
      -0.503
      -0.406
      -0.203
       0.227
       1.032
       2.207
       3.422
       4.074
       3.599
       1.867
      -0.713
      -3.456
      -5.781
      -7.315
      -7.657
      -6.243
      -2.687
       2.526
       7.690
      10.462
       9.181
       4.065
      -2.640
      -7.759
      -8.887
      -5.670
       0.053
       5.287
       7.482
       5.797
       1.382
      -3.397
      -6.226
      -5.928
      -2.873
       1.339
       4.694
       5.714
       4.119
       0.896
      -2.280
      -3.970
      -3.716
      -2.151
      -0.460
       0.392
       0.171
      -0.602
      -1.038
      -0.507
       0.828
       2.013
       2.049
       0.836
      -0.593
      -0.889
       0.452
       2.609
       4.010
       3.421
       0.800
      -2.582
      -4.840
      -4.662
      -2.229
       0.879
       2.786
       2.578
       0.738
      -1.408
      -2.621
      -2.388
      -1.011
       0.721
       2.018
       2.477
       2.123
       1.177
      -0.133
      -1.499
      -2.386
      -2.233
      -0.968
       0.710
       1.762
       1.629
       0.629
      -0.432
      -0.982
      -1.000
      -0.764
      -0.479
      -0.156
       0.250
       0.706
       1.058
       1.079
       0.598
      -0.300
      -1.202
      -1.583
      -1.177
      -0.180
       0.903
       1.599
       1.683
       1.194
       0.332
      -0.635
      -1.442
      -1.853
      -1.672
      -0.830
       0.449
       1.607
       2.036
       1.517
       0.400
      -0.658
      -1.144
      -0.920
      -0.196
       0.602
       0.981
       0.641
      -0.262
      -1.130
      -1.333
      -0.696
       0.351
       1.123
       1.188
       0.641
      -0.035
      -0.374
      -0.252
       0.094
       0.315
       0.228
      -0.085
      -0.382
      -0.436
      -0.163
       0.320
       0.714
       0.695
       0.145
      -0.692
      -1.325
      -1.357
      -0.769
       0.079
       0.701
       0.767
       0.240
      -0.616
      -1.321
      -1.386
      -0.620
       0.678
       1.853
       2.310
       1.892
       0.934
      -0.014
      -0.546
      -0.587
      -0.329
      -0.049
       0.047
      -0.119
      -0.490
      -0.872
      -1.006
      -0.730
      -0.156
       0.345
       0.423
       0.046
      -0.453
      -0.666
      -0.434
       0.072
       0.528
       0.673
       0.414
      -0.150
      -0.741
      -0.974
      -0.588
       0.308
       1.216
       1.572
       1.173
       0.328
      -0.404
      -0.649
      -0.431
      -0.042
       0.238
       0.307
       0.197
      -0.036
      -0.346
      -0.649
      -0.813
      -0.743
      -0.470
      -0.137
       0.119
       0.270
       0.377
       0.495
       0.623
       0.730
       0.781
       0.728
       0.518
       0.148
      -0.263
      -0.519
      -0.502
      -0.285
      -0.092
      -0.097
      -0.269
      -0.398
      -0.291
       0.031
       0.314
       0.261
      -0.201
      -0.820
      -1.201
      -1.126
      -0.695
      -0.184
       0.225
       0.538
       0.828
       1.081
       1.196
       1.105
       0.861
       0.609
       0.460
       0.396
       0.267
      -0.085
      -0.684
      -1.365
      -1.879
      -2.071
      -1.954
      -1.644
      -1.214
      -0.625
       0.220
       1.361
       2.671
       3.827
       4.401
       4.059
       2.783
       0.934
      -0.913
      -2.265
      -2.918
      -2.975
      -2.684
      -2.251
      -1.715
      -0.991
      -0.054
       0.875
       1.381
       1.184
       0.467
      -0.167
      -0.178
       0.439
       1.134
       1.286
       0.721
      -0.184
      -0.878
      -1.091
      -0.974
      -0.815
      -0.685
      -0.363
       0.356
       1.343
       2.153
       2.376
       1.960
       1.190
       0.428
      -0.120
      -0.425
      -0.542
      -0.547
      -0.542
      -0.642
      -0.894
      -1.217
      -1.439
      -1.427
      -1.163
      -0.707
      -0.124
       0.510
       1.028
       1.205
       0.951
       0.491
       0.234
       0.372
       0.617
       0.433
      -0.394
      -1.466
      -2.116
      -2.065
      -1.644
      -1.356
      -1.246
      -0.837
       0.303
       1.943
       3.197
       3.199
       1.819
      -0.204
      -1.803
      -2.300
      -1.732
      -0.635
       0.398
       1.007
       1.091
       0.733
       0.153
      -0.334
      -0.446
      -0.107
       0.481
       0.953
       1.030
       0.732
       0.383
       0.357
       0.733
       1.159
       1.092
       0.244
      -1.130
      -2.351
      -2.733
      -2.001
      -0.481
       1.045
       1.780
       1.400
       0.234
      -1.043
      -1.909
      -2.210
      -2.005
      -1.380
      -0.478
       0.394
       0.900
       0.948
       0.768
       0.677
       0.797
       1.009
       1.118
       1.009
       0.647
       0.035
      -0.798
      -1.720
      -2.431
      -2.522
      -1.721
      -0.163
       1.574
       2.805
       3.170
       2.770
       1.934
       0.935
      -0.056
      -0.862
      -1.306
      -1.356
      -1.149
      -0.825
      -0.417
       0.022
       0.278
       0.121
      -0.349
      -0.637
      -0.279
       0.646
       1.486
       1.541
       0.642
      -0.715
      -1.760
      -1.965
      -1.324
      -0.235
       0.814
       1.483
       1.634
       1.284
       0.607
      -0.083
      -0.473
      -0.485
      -0.339
      -0.356
      -0.665
      -1.096
      -1.310
      -1.030
      -0.210
       0.895
       1.791
       1.988
       1.337
       0.239
      -0.558
      -0.474
       0.458
       1.593
       2.142
       1.710
       0.491
      -0.945
      -2.027
      -2.428
      -2.109
      -1.253
      -0.192
       0.688
       1.082
       0.924
       0.420
      -0.125
      -0.562
      -0.991
      -1.543
      -2.094
      -2.229
      -1.570
      -0.164
       1.443
       2.511
