Origin Time       17/6/2014 17:31:08  UTC
Lat.              32.2 N 
Long.             76.1 E 
Depth (Km)         10.0
Magnitude         4.1
 Region           Kangra-(H.P.)                                                    
 Above details taken from IMD 
    
Station Code      DSL
Station Lat.       32.207  N
Station Long.      76.324  E
Station Height(m) 1256.0
Site Class        B   Vs30 between 375 m/sec to 700 m/sec *  
Record Time       17.06.2014 17:30:41.584 UTC
Sampling Rate     200. Hz
 Record Duration   83.600 Sec.
 Direction         N-S (N positive)
Max. Acceleration     -5.390 cm/sec**2
     
  * For reference see Site Classification link of website 
     
 Base Line Corrected and Low Pass Filtered (Cut Off at 35 Hz) Time History
 Acceleration data in cm/sec**2
    
[...]
      -0.005
      -0.011
      -0.010
      -0.005
       0.001
       0.005
       0.009
       0.010
       0.006
      -0.002
      -0.011
      -0.015
      -0.011
      -0.002
       0.006
       0.009
       0.007
       0.002
      -0.004
      -0.009
      -0.009
      -0.006
      -0.002
       0.000
      -0.003
      -0.009
      -0.013
      -0.012
      -0.005
       0.002
       0.005
       0.002
      -0.004
      -0.010
      -0.012
      -0.008
       0.000
       0.007
       0.009
       0.005
       0.001
      -0.002
      -0.003
      -0.004
      -0.006
      -0.005
      -0.002
       0.004
       0.007
       0.004
      -0.005
      -0.018
      -0.028
      -0.032
      -0.025
      -0.011
       0.004
       0.011
       0.007
      -0.002
      -0.008
      -0.007
      -0.001
       0.004
       0.005
       0.001
      -0.003
      -0.003
       0.001
       0.002
       0.000
      -0.004
      -0.007
      -0.007
      -0.006
      -0.005
      -0.005
      -0.005
      -0.006
      -0.006
      -0.005
      -0.005
      -0.006
      -0.008
      -0.009
      -0.006
      -0.001
       0.003
       0.005
       0.002
      -0.004
      -0.012
      -0.018
      -0.017
      -0.009
       0.003
       0.012
       0.015
       0.010
       0.001
      -0.009
      -0.018
      -0.023
      -0.022
      -0.016
      -0.008
      -0.004
      -0.005
      -0.008
      -0.009
      -0.009
      -0.007
      -0.005
      -0.003
      -0.005
      -0.010
      -0.016
      -0.019
      -0.019
      -0.014
      -0.006
       0.000
      -0.001
      -0.008
      -0.017
      -0.020
      -0.017
      -0.011
      -0.006
      -0.003
      -0.005
      -0.011
      -0.017
      -0.020
      -0.017
      -0.010
      -0.004
      -0.002
      -0.006
      -0.012
      -0.016
      -0.015
      -0.011
      -0.007
      -0.004
      -0.004
      -0.004
      -0.005
      -0.005
      -0.002
       0.000
       0.001
      -0.003
      -0.010
      -0.018
      -0.021
      -0.016
      -0.005
       0.005
       0.007
       0.001
      -0.008
      -0.015
      -0.014
      -0.008
      -0.003
      -0.004
      -0.008
      -0.010
      -0.008
      -0.006
      -0.007
      -0.013
      -0.018
      -0.019
      -0.017
      -0.015
      -0.013
      -0.009
      -0.003
      -0.001
      -0.006
      -0.017
      -0.023
      -0.020
      -0.009
       0.003
       0.011
       0.015
       0.013
       0.005
      -0.006
      -0.013
      -0.013
      -0.007
       0.001
       0.004
       0.003
       0.000
      -0.002
      -0.003
      -0.004
      -0.005
      -0.001
       0.005
       0.010
       0.007
       0.000
      -0.006
      -0.005
      -0.001
       0.001
      -0.001
      -0.007
      -0.010
      -0.009
      -0.003
       0.003
       0.006
       0.005
       0.000
      -0.006
      -0.011
      -0.011
      -0.009
      -0.005
      -0.003
      -0.003
      -0.005
      -0.007
      -0.008
      -0.010
      -0.011
      -0.008
      -0.001
       0.006
       0.010
       0.006
      -0.001
      -0.005
      -0.005
      -0.005
      -0.008
      -0.011
      -0.009
      -0.004
       0.001
       0.001
      -0.003
      -0.007
      -0.009
      -0.007
      -0.003
      -0.001
      -0.003
      -0.009
      -0.014
      -0.015
      -0.010
      -0.002
       0.006
       0.007
      -0.001
      -0.014
      -0.023
      -0.022
      -0.011
       0.003
       0.012
       0.014
       0.009
       0.002
      -0.003
      -0.003
       0.000
       0.002
       0.002
       0.001
      -0.001
      -0.002
       0.000
       0.001
       0.000
      -0.001
       0.001
       0.006
       0.010
       0.011
       0.011
       0.011
       0.012
       0.015
       0.017
       0.015
       0.008
      -0.002
      -0.006
      -0.001
       0.010
       0.021
       0.027
       0.023
       0.011
      -0.004
      -0.015
      -0.015
      -0.008
       0.002
       0.009
       0.009
       0.004
      -0.002
      -0.005
      -0.003
       0.003
       0.008
       0.008
       0.005
       0.002
       0.003
       0.008
       0.013
       0.013
       0.005
      -0.004
      -0.008
      -0.007
      -0.001
       0.005
       0.009
       0.009
       0.007
       0.006
       0.007
       0.011
       0.014
       0.014
       0.009
       0.004
       0.001
       0.002
       0.004
       0.004
       0.002
       0.000
       0.001
       0.005
       0.010
       0.014
       0.015
       0.011
       0.002
      -0.007
      -0.011
      -0.006
       0.004
       0.011
       0.010
       0.003
      -0.006
      -0.012
      -0.013
      -0.011
      -0.009
      -0.010
      -0.014
      -0.018
      -0.017
      -0.009
       0.003
       0.011
       0.011
       0.006
      -0.001
      -0.003
      -0.002
       0.001
       0.002
      -0.001
      -0.004
      -0.004
       0.000
       0.001
      -0.007
      -0.020
      -0.030
      -0.030
      -0.021
      -0.011
      -0.005
      -0.007
      -0.013
      -0.016
      -0.014
      -0.009
      -0.006
      -0.007
      -0.008
      -0.003
       0.014
       0.043
       0.079
       0.112
       0.120
       0.075
      -0.041
      -0.218
      -0.413
      -0.574
      -0.674
      -0.723
      -0.720
      -0.610
      -0.303
       0.225
       0.842
       1.293
       1.369
       1.077
       0.634
       0.296
       0.151
       0.079
      -0.103
      -0.445
      -0.800
      -0.939
      -0.734
      -0.275
       0.186
       0.395
       0.272
      -0.042
      -0.297
      -0.321
      -0.145
       0.041
       0.073
      -0.022
      -0.036
       0.221
       0.713
       1.143
       1.144
       0.532
      -0.538
      -1.598
      -2.078
      -1.639
      -0.425
       0.950
       1.766
       1.644
       0.750
      -0.381
      -1.195
      -1.408
      -1.068
      -0.445
       0.167
       0.626
       0.967
       1.277
       1.528
       1.551
       1.175
       0.375
      -0.688
      -1.737
      -2.461
      -2.597
      -2.038
      -0.935
       0.316
       1.249
       1.578
       1.333
       0.812
       0.378
       0.253
       0.409
       0.623
       0.671
       0.508
       0.278
       0.149
       0.139
       0.105
      -0.105
      -0.508
      -0.972
      -1.292
      -1.285
      -0.870
      -0.126
       0.709
       1.340
       1.566
       1.369
       0.889
       0.329
      -0.131
      -0.402
      -0.524
      -0.620
      -0.784
      -0.973
      -1.042
      -0.892
      -0.585
      -0.289
      -0.118
      -0.048
       0.032
       0.213
       0.499
       0.829
       1.119
       1.304
       1.352
       1.236
       0.899
       0.274
      -0.608
      -1.539
      -2.187
      -2.274
      -1.739
      -0.771
       0.293
       1.115
       1.490
       1.406
       1.028
       0.588
       0.266
       0.117
       0.080
       0.047
      -0.072
      -0.298
      -0.572
      -0.776
      -0.801
      -0.615
      -0.285
       0.063
       0.332
       0.499
       0.600
       0.662
       0.655
       0.521
       0.263
      -0.016
      -0.188
      -0.231
      -0.264
      -0.424
      -0.705
      -0.935
      -0.926
      -0.645
      -0.232
       0.122
       0.309
       0.331
       0.252
       0.147
       0.083
       0.098
       0.183
       0.292
       0.370
       0.392
       0.355
       0.258
       0.096
      -0.119
      -0.331
      -0.462
      -0.465
      -0.372
      -0.270
      -0.237
      -0.262
      -0.259
      -0.141
       0.088
       0.327
       0.465
       0.464
       0.374
       0.270
       0.189
       0.116
       0.025
      -0.094
      -0.237
      -0.388
      -0.522
      -0.598
      -0.576
      -0.442
      -0.214
       0.068
       0.364
       0.632
       0.820
       0.870
       0.739
       0.434
       0.023
      -0.380
      -0.659
      -0.734
      -0.590
      -0.274
       0.117
       0.466
       0.671
       0.679
       0.504
       0.219
      -0.065
      -0.247
      -0.291
      -0.249
      -0.222
      -0.281
      -0.402
      -0.487
      -0.455
      -0.311
      -0.128
       0.019
       0.106
       0.143
       0.146
       0.134
       0.134
       0.178
       0.271
       0.392
       0.507
       0.583
       0.572
       0.427
       0.139
      -0.222
      -0.527
      -0.662
      -0.596
      -0.389
      -0.154
       0.010
       0.065
       0.061
       0.091
       0.208
       0.369
       0.461
       0.396
       0.192
      -0.041
      -0.178
      -0.165
      -0.042
       0.080
       0.091
      -0.047
      -0.272
      -0.455
      -0.483
      -0.318
      -0.019
       0.289
       0.473
       0.452
       0.254
       0.006
      -0.148
      -0.160
      -0.111
      -0.126
      -0.262
      -0.453
      -0.564
      -0.494
      -0.243
       0.083
       0.330
       0.380
       0.226
      -0.023
      -0.199
      -0.185
       0.012
       0.262
       0.393
       0.307
       0.041
      -0.270
      -0.495
      -0.593
      -0.613
      -0.612
      -0.580
      -0.448
      -0.168
       0.200
       0.495
       0.567
       0.400
       0.132
      -0.049
      -0.053
       0.057
       0.138
       0.097
      -0.044
      -0.182
      -0.222
      -0.140
       0.005
       0.120
       0.143
       0.089
       0.038
       0.065
       0.165
       0.267
       0.307
       0.289
       0.274
       0.321
       0.452
       0.636
       0.777
       0.732
       0.386
      -0.226
      -0.881
      -1.289
      -1.294
      -0.983
      -0.610
      -0.395
      -0.363
      -0.363
      -0.215
       0.121
       0.513
       0.757
       0.727
       0.457
       0.113
      -0.098
      -0.054
       0.196
       0.447
       0.465
       0.167
      -0.310
      -0.714
      -0.862
      -0.747
      -0.507
      -0.311
      -0.244
      -0.245
      -0.156
       0.140
       0.593
       0.994
       1.149
       1.039
       0.807
       0.616
       0.517
       0.462
       0.381
       0.244
       0.073
      -0.073
      -0.138
      -0.134
      -0.165
      -0.342
      -0.658
      -0.968
      -1.103
      -1.010
      -0.762
      -0.468
      -0.181
       0.091
       0.328
       0.481
       0.497
       0.355
       0.095
      -0.188
      -0.375
      -0.395
      -0.264
      -0.050
       0.183
       0.402
       0.566
       0.609
       0.482
       0.218
      -0.075
      -0.283
      -0.347
      -0.272
      -0.113
       0.054
       0.152
       0.150
       0.078
      -0.006
      -0.068
      -0.134
      -0.241
      -0.377
      -0.459
      -0.391
      -0.155
       0.157
       0.407
       0.509
       0.472
       0.358
       0.219
       0.085
      -0.018
      -0.058
      -0.041
      -0.050
      -0.181
      -0.450
      -0.742
      -0.903
      -0.862
      -0.670
      -0.441
      -0.252
      -0.128
      -0.057
      -0.002
       0.096
       0.295
       0.576
       0.824
       0.888
       0.703
       0.339
      -0.045
      -0.315
      -0.428
      -0.425
      -0.371
      -0.311
      -0.251
      -0.178
      -0.075
       0.053
       0.180
       0.265
       0.266
       0.172
       0.018
      -0.125
      -0.189
      -0.162
      -0.103
      -0.102
      -0.223
      -0.460
      -0.725
      -0.877
      -0.788
      -0.446
       0.005
       0.355
       0.491
       0.492
       0.538
       0.721
       0.945
       1.000
       0.742
       0.226
      -0.319
      -0.616
      -0.507
      -0.031
       0.597
       1.116
       1.347
       1.251
       0.897
       0.392
      -0.181
      -0.775
      -1.351
      -1.860
      -2.241
      -2.425
      -2.345
      -1.944
      -1.211
      -0.222
       0.839
       1.728
       2.231
       2.254
       1.847
       1.144
       0.297
      -0.555
      -1.269
      -1.697
      -1.731
      -1.360
      -0.687
       0.121
       0.899
       1.537
       1.990
       2.260
       2.343
       2.198
       1.775
       1.091
       0.252
      -0.594
      -1.342
      -1.938
      -2.319
      -2.404
      -2.153
      -1.637
      -0.996
      -0.347
       0.251
       0.731
       0.973
       0.880
       0.505
       0.067
      -0.196
      -0.200
      -0.045
       0.115
       0.201
       0.226
       0.228
       0.228
       0.240
       0.279
       0.339
       0.357
       0.235
      -0.079
      -0.540
      -1.025
      -1.404
      -1.600
      -1.596
      -1.403
      -1.041
      -0.544
       0.039
       0.648
       1.212
       1.625
       1.750
       1.475
       0.810
      -0.053
      -0.804
      -1.181
      -1.112
      -0.708
      -0.129
       0.540
       1.266
       1.957
       2.428
       2.519
       2.235
       1.724
       1.139
       0.548
      -0.015
      -0.449
      -0.612
      -0.443
      -0.029
       0.480
       1.000
       1.534
       2.066
       2.493
       2.687
       2.625
       2.420
       2.236
       2.170
       2.207
       2.251
       2.189
       1.946
       1.525
       0.998
       0.459
      -0.032
      -0.467
      -0.865
      -1.233
      -1.556
      -1.813
      -2.002
      -2.165
      -2.387
      -2.757
      -3.311
      -3.990
      -4.655
      -5.155
      -5.390
      -5.326
      -4.987
      -4.444
      -3.815
      -3.214
      -2.687
      -2.179
      -1.592
      -0.879
      -0.078
       0.739
       1.537
       2.316
       3.041
       3.595
       3.813
       3.581
       2.917
       1.969
       0.964
       0.131
      -0.347
      -0.376
       0.016
       0.670
       1.347
       1.836
       2.031
       1.940
       1.618
       1.102
       0.423
      -0.341
      -1.045
      -1.540
      -1.767
      -1.773
      -1.666
      -1.538
      -1.438
      -1.366
      -1.279
      -1.121
      -0.872
      -0.593
      -0.405
      -0.412
      -0.625
      -0.954
      -1.285
      -1.546
      -1.712
      -1.753
      -1.596
      -1.157
      -0.414
       0.547
       1.561
       2.454
       3.107
       3.461
       3.509
       3.288
       2.868
       2.344
       1.793
       1.264
       0.792
       0.426
       0.233
       0.276
       0.576
       1.078
       1.631
       2.027
       2.074
       1.678
       0.878
      -0.185
      -1.319
      -2.341
      -3.095
      -3.482
      -3.483
      -3.171
      -2.703
      -2.251
      -1.924
      -1.721
      -1.574
      -1.429
      -1.278
      -1.124
      -0.915
      -0.575
      -0.090
       0.450
       0.919
       1.265
       1.534
       1.812
       2.142
       2.498
       2.818
       3.037
       3.115
       3.036
       2.803
       2.430
       1.936
       1.357
       0.732
       0.094
      -0.528
      -1.088
      -1.512
      -1.726
      -1.706
      -1.480
      -1.120
      -0.710
      -0.354
      -0.171
      -0.252
      -0.605
      -1.136
      -1.703
      -2.182
      -2.505
      -2.632
      -2.528
      -2.172
      -1.591
      -0.873
      -0.129
       0.541
       1.051
       1.323
       1.309
       1.031
       0.599
       0.166
      -0.143
      -0.273
      -0.220
       0.005
       0.366
       0.778
       1.110
       1.273
       1.291
       1.294
       1.405
       1.647
       1.943
       2.187
       2.309
       2.288
       2.129
       1.842
       1.452
       1.002
       0.555
       0.167
      -0.137
      -0.368
      -0.567
      -0.777
      -1.023
      -1.280
      -1.488
      -1.592
      -1.610
      -1.627
      -1.716
      -1.866
      -1.984
      -1.981
      -1.827
      -1.555
      -1.199
      -0.780
      -0.316
       0.150
       0.559
       0.866
       1.060
       1.160
       1.205
       1.218
       1.182
       1.046
       0.772
       0.383
      -0.035
      -0.386
      -0.634
      -0.810
      -0.966
      -1.119
      -1.251
      -1.328
      -1.325
      -1.240
      -1.082
      -0.868
      -0.614
      -0.337
      -0.053
       0.226
       0.495
       0.747
       0.970
       1.149
       1.275
       1.352
       1.389
       1.390
       1.360
       1.305
       1.227
       1.120
       0.974
       0.791
       0.590
       0.390
       0.189
      -0.018
      -0.202
      -0.300
      -0.248
      -0.040
       0.262
       0.564
       0.781
       0.865
       0.801
       0.604
       0.318
       0.003
      -0.291
      -0.543
      -0.767
      -0.994
      -1.238
      -1.485
      -1.705
      -1.888
      -2.051
      -2.212
      -2.361
      -2.460
      -2.475
      -2.399
      -2.236
      -1.989
      -1.663
      -1.280
      -0.873
      -0.468
      -0.067
       0.339
       0.755
       1.169
       1.554
       1.875
       2.107
       2.243
       2.294
       2.272
       2.169
       1.951
       1.586
       1.073
       0.463
      -0.148
      -0.654
      -0.984
      -1.132
      -1.146
      -1.089
      -1.004
      -0.906
      -0.807
      -0.732
      -0.707
      -0.736
      -0.803
      -0.884
      -0.946
      -0.947
      -0.835
      -0.592
      -0.253
       0.106
       0.414
       0.644
       0.811
       0.946
       1.077
       1.218
       1.367
       1.502
       1.592
       1.615
       1.570
       1.468
       1.308
       1.080
       0.774
       0.400
      -0.009
      -0.412
      -0.772
      -1.064
      -1.288
      -1.463
      -1.617
      -1.757
      -1.861
      -1.889
      -1.809
      -1.622
      -1.359
      -1.059
      -0.745
      -0.419
      -0.063
       0.333
       0.766
       1.213
       1.640
       1.995
       2.224
       2.286
       2.179
       1.934
       1.604
       1.243
       0.890
       0.577
       0.330
       0.182
       0.159
       0.259
       0.437
       0.614
       0.712
       0.684
       0.534
       0.313
       0.092
      -0.080
      -0.202
      -0.311
      -0.442
      -0.607
      -0.801
      -1.014
      -1.232
      -1.427
      -1.556
      -1.592
      -1.540
      -1.431
      -1.285
      -1.087
      -0.810
      -0.457
      -0.075
       0.266
       0.526
       0.716
       0.878
       1.035
       1.152
       1.154
       0.982
       0.650
       0.252
      -0.090
      -0.296
      -0.365
      -0.354
      -0.320
      -0.277
      -0.194
      -0.029
       0.229
       0.548
       0.871
       1.145
       1.323
       1.364
       1.247
       0.987
       0.636
       0.265
      -0.077
      -0.371
      -0.613
      -0.792
      -0.895
      -0.924
      -0.898
      -0.842
      -0.771
      -0.693
      -0.620
      -0.567
      -0.545
      -0.554
      -0.587
      -0.644
      -0.728
      -0.829
      -0.912
      -0.926
      -0.828
      -0.609
      -0.296
       0.052
       0.375
       0.619
       0.760
       0.809
       0.800
       0.775
       0.753
       0.736
       0.723
       0.726
       0.751
       0.778
       0.749
       0.597
       0.287
      -0.156
      -0.653
      -1.095
      -1.386
      -1.467
      -1.324
