Origin Time       29/08/2013 10:13:21
Lat.              31.4 N	
Long.             76.1 E	
Depth (Km)         10.0
Magnitude         4.7
 Region           HIMACHAL-PUNJAB-(HOSHIARPUR)-BORDER                              
 Above details taken from IMD 
     
Station Code      DSU
Station Lat.       31.805  N
Station Long.      75.660  E
Station Height(m)    1.0
Site Class        C   Vs30 between 200 m/sec to 375 m/sec *  
Record Time       29.08.2013 10:13:15.334
Sampling Rate     200. Hz
 Record Duration   80.260 Sec.
 Direction         E-W (E positive)
Max. Acceleration    -14.866 cm/sec**2
     
  * For reference see Site Classification link of website 
     
 Base Line Corrected and Low Pass Filtered (Cut Off at 35 Hz) Time History
 Acceleration data in cm/sec**2
    
[...]
       0.150
       0.125
       0.082
       0.023
      -0.047
      -0.127
      -0.211
      -0.290
      -0.353
      -0.392
      -0.403
      -0.386
      -0.340
      -0.267
      -0.182
      -0.107
      -0.057
      -0.028
      -0.008
       0.009
       0.010
      -0.019
      -0.081
      -0.151
      -0.196
      -0.192
      -0.138
      -0.045
       0.064
       0.166
       0.236
       0.264
       0.268
       0.283
       0.331
       0.400
       0.447
       0.432
       0.352
       0.244
       0.159
       0.128
       0.140
       0.158
       0.144
       0.081
      -0.015
      -0.111
      -0.175
      -0.206
      -0.231
      -0.284
      -0.377
      -0.486
      -0.576
      -0.615
      -0.591
      -0.510
      -0.389
      -0.264
      -0.174
      -0.144
      -0.160
      -0.175
      -0.136
      -0.016
       0.168
       0.367
       0.535
       0.648
       0.709
       0.723
       0.688
       0.603
       0.480
       0.345
       0.217
       0.098
      -0.022
      -0.139
      -0.239
      -0.306
      -0.341
      -0.350
      -0.329
      -0.259
      -0.145
      -0.023
       0.055
       0.061
       0.008
      -0.063
      -0.118
      -0.132
      -0.098
      -0.019
       0.080
       0.154
       0.164
       0.103
       0.012
      -0.042
      -0.017
       0.071
       0.164
       0.210
       0.200
       0.164
       0.132
       0.104
       0.049
      -0.058
      -0.206
      -0.352
      -0.445
      -0.458
      -0.403
      -0.315
      -0.230
      -0.168
      -0.124
      -0.071
       0.022
       0.167
       0.336
       0.464
       0.494
       0.412
       0.267
       0.138
       0.089
       0.136
       0.245
       0.356
       0.414
       0.405
       0.352
       0.295
       0.252
       0.207
       0.118
      -0.037
      -0.239
      -0.435
      -0.572
      -0.629
      -0.622
      -0.582
      -0.523
      -0.438
      -0.318
      -0.166
      -0.009
       0.129
       0.235
       0.311
       0.357
       0.363
       0.319
       0.225
       0.097
      -0.032
      -0.131
      -0.182
      -0.190
      -0.166
      -0.124
      -0.057
       0.041
       0.164
       0.276
       0.328
       0.284
       0.150
      -0.027
      -0.182
      -0.264
      -0.255
      -0.176
      -0.070
       0.021
       0.077
       0.108
       0.134
       0.161
       0.177
       0.159
       0.100
       0.017
      -0.060
      -0.108
      -0.125
      -0.118
      -0.102
      -0.085
      -0.075
      -0.066
      -0.046
      -0.009
       0.035
       0.056
       0.028
      -0.052
      -0.152
      -0.225
      -0.236
      -0.183
      -0.100
      -0.024
       0.031
       0.077
       0.129
       0.177
       0.185
       0.126
       0.008
      -0.128
      -0.230
      -0.254
      -0.186
      -0.038
       0.157
       0.352
       0.500
       0.565
       0.541
       0.445
       0.313
       0.185
       0.081
      -0.005
      -0.095
      -0.205
      -0.330
      -0.443
      -0.512
      -0.515
      -0.448
      -0.324
      -0.167
      -0.010
       0.112
       0.170
       0.151
       0.062
      -0.075
      -0.228
      -0.346
      -0.375
      -0.279
      -0.073
       0.174
       0.370
       0.452
       0.415
       0.306
       0.192
       0.118
       0.097
       0.119
       0.166
       0.223
       0.279
       0.329
       0.375
       0.418
       0.447
       0.434
       0.350
       0.201
       0.036
      -0.081
      -0.115
      -0.082
      -0.038
      -0.030
      -0.075
      -0.155
      -0.240
      -0.297
      -0.306
      -0.272
      -0.223
      -0.197
      -0.215
      -0.268
      -0.315
      -0.320
      -0.269
      -0.178
      -0.079
      -0.004
       0.023
      -0.001
      -0.051
      -0.079
      -0.041
       0.062
       0.182
       0.250
       0.228
       0.128
       0.005
      -0.074
      -0.065
       0.028
       0.167
       0.300
       0.397
       0.443
       0.431
       0.347
       0.189
      -0.014
      -0.192
      -0.269
      -0.204
      -0.023
       0.205
       0.397
       0.501
       0.501
       0.409
       0.254
       0.073
      -0.095
      -0.221
      -0.294
      -0.322
      -0.325
      -0.324
      -0.337
      -0.363
      -0.390
      -0.406
      -0.409
      -0.405
      -0.399
      -0.385
      -0.347
      -0.278
      -0.174
      -0.042
       0.097
       0.217
       0.286
       0.294
       0.258
       0.221
       0.220
       0.265
       0.328
       0.374
       0.389
       0.390
       0.398
       0.401
       0.357
       0.218
      -0.016
      -0.277
      -0.464
      -0.497
      -0.376
      -0.181
      -0.023
       0.029
      -0.013
      -0.080
      -0.103
      -0.059
       0.025
       0.096
       0.113
       0.072
      -0.001
      -0.064
      -0.084
      -0.046
       0.038
       0.138
       0.220
       0.264
       0.276
       0.281
       0.297
       0.315
       0.302
       0.237
       0.127
       0.011
      -0.077
      -0.127
      -0.153
      -0.176
      -0.205
      -0.230
      -0.228
      -0.172
      -0.052
       0.116
       0.291
       0.426
       0.487
       0.463
       0.375
       0.260
       0.151
       0.058
      -0.029
      -0.128
      -0.244
      -0.360
      -0.447
      -0.475
      -0.429
      -0.324
      -0.199
      -0.108
      -0.084
      -0.125
      -0.196
      -0.259
      -0.294
      -0.303
      -0.288
      -0.240
      -0.143
      -0.001
       0.140
       0.215
       0.179
       0.044
      -0.122
      -0.235
      -0.251
      -0.178
      -0.065
       0.044
       0.134
       0.211
       0.271
       0.289
       0.235
       0.116
      -0.019
      -0.113
      -0.140
      -0.118
      -0.079
      -0.032
       0.038
       0.146
       0.267
       0.347
       0.339
       0.246
       0.124
       0.042
       0.036
       0.088
       0.148
       0.175
       0.160
       0.126
       0.092
       0.058
       0.009
      -0.061
      -0.140
      -0.201
      -0.224
      -0.202
      -0.143
      -0.067
      -0.004
       0.012
      -0.031
      -0.113
      -0.182
      -0.186
      -0.114
      -0.002
       0.092
       0.130
       0.114
       0.081
       0.070
       0.108
       0.195
       0.304
       0.397
       0.442
       0.428
       0.365
       0.269
       0.153
       0.027
      -0.093
      -0.191
      -0.249
      -0.256
      -0.222
      -0.170
      -0.133
      -0.123
      -0.126
      -0.117
      -0.089
      -0.066
      -0.093
      -0.193
      -0.344
      -0.487
      -0.557
      -0.517
      -0.367
      -0.133
       0.139
       0.400
       0.603
       0.714
       0.715
       0.604
       0.403
       0.159
      -0.067
      -0.224
      -0.285
      -0.257
      -0.170
      -0.069
      -0.004
      -0.007
      -0.072
      -0.154
      -0.192
      -0.150
      -0.035
       0.108
       0.230
       0.301
       0.317
       0.291
       0.240
       0.178
       0.115
       0.061
       0.020
      -0.020
      -0.072
      -0.140
      -0.206
      -0.242
      -0.229
      -0.179
      -0.116
      -0.059
      -0.007
       0.051
       0.117
       0.169
       0.173
       0.108
      -0.019
      -0.175
      -0.315
      -0.399
      -0.402
      -0.319
      -0.177
      -0.023
       0.094
       0.149
       0.151
       0.129
       0.110
       0.104
       0.104
       0.089
       0.043
      -0.031
      -0.112
      -0.157
      -0.130
      -0.023
       0.125
       0.248
       0.289
       0.235
       0.124
       0.021
      -0.019
       0.020
       0.112
       0.207
       0.258
       0.232
       0.128
      -0.031
      -0.197
      -0.325
      -0.387
      -0.379
      -0.316
      -0.212
      -0.086
       0.048
       0.170
       0.261
       0.307
       0.297
       0.226
       0.105
      -0.038
      -0.162
      -0.236
      -0.254
      -0.228
      -0.176
      -0.107
      -0.021
       0.079
       0.174
       0.231
       0.223
       0.148
       0.033
      -0.083
      -0.171
      -0.230
      -0.272
      -0.306
      -0.320
      -0.295
      -0.224
      -0.117
       0.008
       0.140
       0.272
       0.387
       0.453
       0.449
       0.385
       0.305
       0.251
       0.230
       0.218
       0.184
       0.120
       0.047
      -0.015
      -0.060
      -0.094
      -0.126
      -0.156
      -0.182
      -0.204
      -0.216
      -0.211
      -0.184
      -0.144
      -0.120
      -0.147
      -0.231
      -0.332
      -0.380
      -0.321
      -0.163
       0.033
       0.197
       0.306
       0.385
       0.473
       0.571
       0.636
       0.612
       0.477
       0.253
      -0.001
      -0.228
      -0.387
      -0.469
      -0.487
      -0.467
      -0.433
      -0.394
      -0.347
      -0.285
      -0.214
      -0.155
      -0.125
      -0.122
      -0.125
      -0.110
      -0.075
      -0.029
       0.024
       0.096
       0.196
       0.313
       0.412
       0.459
       0.451
       0.420
       0.408
       0.431
       0.465
       0.477
       0.453
       0.409
       0.362
       0.301
       0.196
       0.030
      -0.171
      -0.342
      -0.425
      -0.400
      -0.308
      -0.218
      -0.183
      -0.208
      -0.252
      -0.267
      -0.231
      -0.155
      -0.064
       0.021
       0.086
       0.122
       0.122
       0.086
       0.026
      -0.040
      -0.094
      -0.134
      -0.167
      -0.197
      -0.214
      -0.196
      -0.134
      -0.039
       0.059
       0.135
       0.179
       0.197
       0.199
       0.185
       0.146
       0.075
      -0.016
      -0.097
      -0.137
      -0.118
      -0.047
       0.050
       0.145
       0.217
       0.250
       0.229
       0.144
       0.005
      -0.155
      -0.286
      -0.356
      -0.359
      -0.310
      -0.218
      -0.077
       0.109
       0.306
       0.453
       0.500
       0.448
       0.354
       0.285
       0.260
       0.238
       0.153
      -0.017
      -0.225
      -0.392
      -0.458
      -0.426
      -0.342
      -0.254
      -0.188
      -0.146
      -0.125
      -0.127
      -0.158
      -0.224
      -0.312
      -0.388
      -0.393
      -0.280
      -0.046
       0.244
       0.481
       0.586
       0.556
       0.463
       0.387
       0.351
       0.315
       0.227
       0.084
      -0.064
      -0.153
      -0.164
      -0.128
      -0.090
      -0.066
      -0.040
       0.005
       0.053
       0.064
       0.011
      -0.093
      -0.204
      -0.284
      -0.328
      -0.349
      -0.350
      -0.313
      -0.223
      -0.091
       0.043
       0.136
       0.173
       0.173
       0.174
       0.196
       0.236
       0.272
       0.286
       0.283
       0.284
       0.306
       0.337
       0.334
       0.259
       0.106
      -0.081
      -0.239
      -0.323
      -0.331
      -0.291
      -0.233
      -0.175
      -0.121
      -0.076
      -0.050
      -0.054
      -0.087
      -0.139
      -0.188
      -0.212
      -0.205
      -0.173
      -0.125
      -0.058
       0.042
       0.179
       0.333
       0.465
       0.531
       0.513
       0.423
       0.298
       0.178
       0.098
       0.073
       0.103
       0.167
       0.235
       0.280
       0.280
       0.228
       0.128
      -0.006
      -0.155
      -0.302
      -0.426
      -0.513
      -0.544
      -0.506
      -0.395
      -0.223
      -0.021
       0.174
       0.327
       0.421
       0.455
       0.446
       0.414
       0.379
       0.348
       0.325
       0.328
       0.385
       0.520
       0.720
       0.933
       1.082
       1.110
       1.003
       0.791
       0.538
       0.317
       0.182
       0.146
       0.184
       0.253
       0.334
       0.433
       0.560
       0.693
       0.768
       0.715
       0.512
       0.215
      -0.058
      -0.210
      -0.227
      -0.187
      -0.195
      -0.309
      -0.517
      -0.760
      -0.984
      -1.162
      -1.288
      -1.370
      -1.422
      -1.463
      -1.513
      -1.572
      -1.627
      -1.668
      -1.711
      -1.782
      -1.881
      -1.962
      -1.958
      -1.828
      -1.581
      -1.262
      -0.923
      -0.591
      -0.269
       0.044
       0.327
       0.531
       0.608
       0.551
       0.410
       0.270
       0.209
       0.265
       0.434
       0.683
       0.957
       1.197
       1.355
       1.423
       1.435
       1.450
       1.509
       1.606
       1.687
       1.682
       1.551
       1.300
       0.975
       0.627
       0.282
      -0.066
      -0.437
      -0.826
      -1.194
      -1.481
      -1.639
      -1.664
      -1.599
      -1.514
      -1.475
      -1.514
      -1.621
      -1.762
      -1.910
      -2.062
      -2.232
      -2.412
      -2.567
      -2.649
      -2.635
      -2.544
      -2.416
      -2.265
      -2.051
      -1.691
      -1.104
      -0.253
       0.840
       2.116
       3.509
       4.969
       6.441
       7.848
       9.081
      10.032
      10.644
      10.929
      10.943
      10.727
      10.273
       9.547
       8.541
       7.299
       5.875
       4.268
       2.399
       0.185
      -2.358
      -5.051
      -7.608
      -9.779
     -11.476
     -12.770
     -13.775
     -14.509
     -14.866
     -14.689
     -13.889
     -12.498
     -10.658
      -8.555
      -6.353
      -4.157
      -2.028
      -0.007
       1.856
       3.508
       4.901
       6.009
       6.824
       7.344
       7.563
       7.472
       7.065
       6.344
       5.312
       3.983
       2.388
       0.596
      -1.271
      -3.060
      -4.616
      -5.816
      -6.571
      -6.817
      -6.515
      -5.674
      -4.382
      -2.798
      -1.091
       0.626
       2.319
       3.992
       5.620
       7.117
       8.351
       9.203
       9.606
       9.544
       9.015
       8.021
       6.613
       4.936
       3.221
       1.686
       0.435
      -0.571
      -1.456
      -2.342
      -3.292
      -4.306
      -5.336
      -6.294
      -7.062
      -7.512
      -7.559
      -7.197
      -6.505
      -5.611
      -4.627
      -3.606
      -2.548
      -1.446
      -0.320
       0.776
       1.798
       2.731
       3.587
       4.368
       5.027
       5.473
       5.610
       5.381
       4.798
       3.943
       2.950
       1.973
       1.140
       0.513
       0.066
      -0.268
      -0.550
      -0.790
      -0.975
      -1.121
      -1.290
      -1.536
      -1.828
      -2.034
      -2.010
      -1.713
      -1.252
      -0.822
      -0.583
      -0.575
      -0.733
      -0.956
      -1.158
      -1.282
      -1.286
      -1.141
      -0.852
      -0.471
      -0.078
       0.255
       0.490
       0.613
       0.610
       0.463
       0.190
      -0.128
      -0.372
      -0.454
      -0.359
      -0.126
       0.197
       0.582
       1.003
       1.400
       1.687
       1.792
       1.703
       1.468
       1.151
       0.795
       0.416
       0.030
      -0.327
      -0.621
      -0.855
      -1.073
      -1.317
      -1.572
      -1.754
      -1.762
      -1.549
      -1.149
      -0.653
      -0.157
       0.272
       0.604
       0.848
       1.045
       1.250
       1.504
       1.805
       2.100
       2.297
       2.321
       2.143
       1.807
       1.396
       0.992
       0.639
       0.330
       0.042
      -0.246
      -0.537
      -0.826
      -1.108
      -1.384
      -1.664
      -1.953
      -2.243
      -2.487
      -2.604
      -2.520
      -2.216
      -1.747
      -1.214
      -0.710
      -0.290
       0.023
       0.224
       0.326
       0.373
       0.435
       0.588
       0.872
       1.265
       1.679
       2.000
       2.134
       2.048
       1.771
       1.382
       0.965
       0.579
       0.252
      -0.016
      -0.230
      -0.407
      -0.570
      -0.751
      -0.966
      -1.201
      -1.413
      -1.543
      -1.545
      -1.401
      -1.129
      -0.771
      -0.374
       0.027
       0.412
       0.771
       1.076
       1.268
       1.267
       1.027
       0.578
       0.037
      -0.449
      -0.772
      -0.906
      -0.908
      -0.871
      -0.876
      -0.960
      -1.098
      -1.217
      -1.228
      -1.065
      -0.723
      -0.266
       0.199
       0.574
       0.810
       0.912
       0.913
       0.840
       0.711
       0.551
       0.402
       0.315
       0.326
       0.424
       0.559
       0.672
       0.745
       0.822
       0.968
       1.212
       1.509
       1.756
       1.846
       1.723
       1.397
       0.916
       0.338
      -0.284
      -0.889
      -1.400
      -1.746
      -1.896
      -1.883
      -1.775
      -1.639
      -1.499
      -1.345
      -1.152
      -0.918
      -0.667
      -0.429
      -0.219
      -0.043
       0.099
       0.201
       0.267
       0.311
       0.350
       0.388
       0.422
       0.456
       0.508
       0.605
       0.749
       0.912
       1.049
       1.131
       1.150
       1.105
       0.985
       0.764
       0.437
       0.049
      -0.305
      -0.529
      -0.586
      -0.515
      -0.409
      -0.357
      -0.414
      -0.584
      -0.818
      -1.029
      -1.104
      -0.948
      -0.531
       0.076
       0.715
       1.216
       1.472
       1.475
       1.284
       0.969
       0.587
       0.191
      -0.155
      -0.390
      -0.493
      -0.498
      -0.465
      -0.440
      -0.437
      -0.473
      -0.587
      -0.830
      -1.225
      -1.730
      -2.245
      -2.647
      -2.835
      -2.757
      -2.417
      -1.860
      -1.151
      -0.362
       0.432
       1.159
       1.761
       2.210
       2.501
       2.641
       2.640
       2.528
       2.376
       2.273
       2.283
       2.395
       2.529
       2.589
       2.506
       2.258
       1.850
       1.297
       0.625
      -0.120
      -0.859
      -1.488
      -1.905
      -2.059
      -1.985
      -1.796
      -1.637
      -1.613
      -1.748
      -1.987
      -2.231
      -2.366
      -2.285
      -1.918
      -1.273
      -0.456
       0.363
       1.017
       1.403
       1.495
       1.345
       1.039
       0.671
       0.315
       0.025
      -0.159
      -0.212
      -0.143
      -0.012
       0.082
       0.046
      -0.155
      -0.468
      -0.780
      -0.964
      -0.933
      -0.660
      -0.177
       0.436
       1.063
       1.582
       1.907
       2.014
       1.942
       1.751
       1.491
       1.197
       0.895
       0.611
       0.356
       0.116
      -0.148
      -0.476
      -0.874
      -1.298
      -1.662
      -1.870
      -1.851
      -1.595
      -1.173
      -0.714
      -0.358
      -0.194
      -0.227
      -0.377
      -0.530
      -0.599
      -0.562
      -0.446
      -0.288
      -0.113
       0.059
       0.193
       0.247
       0.203
       0.087
      -0.042
      -0.124
      -0.130
      -0.064
       0.056
       0.214
       0.376
       0.486
       0.475
       0.299
      -0.026
      -0.419
      -0.759
      -0.930
      -0.862
