Origin Time       29/08/2013 10:13:21 UTC
Lat.              31.4 N	
Long.             76.1 E	
Depth (Km)         10.0
Magnitude         4.7
 Region           HIMACHAL-PUNJAB-(HOSHIARPUR)-BORDER                              
 Above details taken from IMD 
    
Station Code      DSU
Station Lat.       31.805  N
Station Long.      75.660  E
Station Height(m)    1.0
Site Class        C   Vs30 between 200 m/sec to 375 m/sec *  
Record Time       29.08.2013 10:13:15.334 UTC
Sampling Rate     200. Hz
 Record Duration   80.260 Sec.
 Direction         N-S (N positive)
Max. Acceleration      8.274 cm/sec**2
     
  * For reference see Site Classification link of website 
     
 Base Line Corrected and Low Pass Filtered (Cut Off at 35 Hz) Time History
 Acceleration data in cm/sec**2
    
[...]
       0.197
       0.233
       0.262
       0.250
       0.181
       0.071
      -0.040
      -0.111
      -0.122
      -0.086
      -0.032
       0.015
       0.050
       0.078
       0.104
       0.122
       0.115
       0.071
      -0.005
      -0.085
      -0.128
      -0.110
      -0.042
       0.026
       0.040
      -0.026
      -0.150
      -0.281
      -0.361
      -0.359
      -0.273
      -0.132
       0.020
       0.140
       0.208
       0.229
       0.223
       0.201
       0.156
       0.085
       0.008
      -0.032
       0.004
       0.105
       0.212
       0.264
       0.248
       0.207
       0.193
       0.216
       0.237
       0.208
       0.113
      -0.020
      -0.138
      -0.199
      -0.196
      -0.152
      -0.111
      -0.113
      -0.173
      -0.282
      -0.403
      -0.494
      -0.525
      -0.487
      -0.395
      -0.268
      -0.129
       0.001
       0.096
       0.133
       0.106
       0.041
      -0.006
       0.022
       0.147
       0.331
       0.496
       0.571
       0.524
       0.373
       0.169
      -0.029
      -0.184
      -0.281
      -0.327
      -0.328
      -0.284
      -0.204
      -0.110
      -0.041
      -0.030
      -0.081
      -0.164
      -0.231
      -0.245
      -0.195
      -0.092
       0.044
       0.187
       0.320
       0.428
       0.498
       0.514
       0.460
       0.334
       0.172
       0.032
      -0.036
      -0.024
       0.033
       0.080
       0.081
       0.024
      -0.082
      -0.215
      -0.347
      -0.441
      -0.470
      -0.434
      -0.364
      -0.301
      -0.256
      -0.214
      -0.158
      -0.095
      -0.052
      -0.045
      -0.057
      -0.049
       0.012
       0.133
       0.288
       0.435
       0.532
       0.556
       0.515
       0.448
       0.401
       0.403
       0.441
       0.464
       0.418
       0.285
       0.096
      -0.087
      -0.223
      -0.305
      -0.356
      -0.398
      -0.433
      -0.451
      -0.438
      -0.394
      -0.332
      -0.267
      -0.204
      -0.139
      -0.071
      -0.013
       0.018
       0.018
       0.004
       0.008
       0.057
       0.145
       0.237
       0.280
       0.243
       0.134
      -0.002
      -0.112
      -0.167
      -0.170
      -0.139
      -0.092
      -0.038
       0.015
       0.056
       0.069
       0.038
      -0.041
      -0.154
      -0.260
      -0.306
      -0.259
      -0.132
       0.019
       0.125
       0.149
       0.107
       0.051
       0.026
       0.048
       0.097
       0.144
       0.175
       0.204
       0.251
       0.318
       0.375
       0.374
       0.287
       0.131
      -0.032
      -0.135
      -0.150
      -0.098
      -0.029
       0.015
       0.022
       0.007
      -0.010
      -0.019
      -0.016
      -0.009
      -0.008
      -0.024
      -0.050
      -0.068
      -0.067
      -0.058
      -0.070
      -0.122
      -0.202
      -0.267
      -0.277
      -0.230
      -0.161
      -0.112
      -0.093
      -0.079
      -0.038
       0.038
       0.124
       0.189
       0.222
       0.240
       0.271
       0.332
       0.410
       0.461
       0.435
       0.313
       0.132
      -0.027
      -0.096
      -0.071
      -0.018
      -0.018
      -0.097
      -0.198
      -0.235
      -0.170
      -0.052
       0.027
       0.007
      -0.094
      -0.210
      -0.275
      -0.276
      -0.240
      -0.211
      -0.211
      -0.232
      -0.242
      -0.211
      -0.130
      -0.025
       0.059
       0.082
       0.047
       0.002
       0.005
       0.073
       0.165
       0.219
       0.210
       0.169
       0.149
       0.176
       0.227
       0.251
       0.220
       0.142
       0.049
      -0.037
      -0.112
      -0.181
      -0.236
      -0.259
      -0.241
      -0.195
      -0.151
      -0.132
      -0.132
      -0.124
      -0.073
       0.030
       0.158
       0.264
       0.308
       0.287
       0.225
       0.154
       0.086
       0.014
      -0.071
      -0.158
      -0.220
      -0.226
      -0.169
      -0.075
       0.016
       0.072
       0.086
       0.081
       0.096
       0.153
       0.241
       0.313
       0.321
       0.256
       0.159
       0.089
       0.079
       0.118
       0.168
       0.200
       0.211
       0.211
       0.199
       0.153
       0.053
      -0.091
      -0.228
      -0.301
      -0.286
      -0.207
      -0.125
      -0.088
      -0.104
      -0.140
      -0.156
      -0.139
      -0.114
      -0.116
      -0.159
      -0.223
      -0.263
      -0.237
      -0.143
      -0.017
       0.089
       0.149
       0.179
       0.212
       0.255
       0.284
       0.263
       0.180
       0.062
      -0.042
      -0.084
      -0.051
       0.036
       0.122
       0.143
       0.061
      -0.111
      -0.304
      -0.436
      -0.464
      -0.408
      -0.322
      -0.243
      -0.169
      -0.079
       0.035
       0.146
       0.212
       0.211
       0.153
       0.082
       0.051
       0.097
       0.214
       0.354
       0.449
       0.447
       0.346
       0.184
       0.014
      -0.133
      -0.252
      -0.354
      -0.441
      -0.495
      -0.497
      -0.444
      -0.366
      -0.308
      -0.293
      -0.306
      -0.294
      -0.211
      -0.048
       0.155
       0.336
       0.452
       0.493
       0.473
       0.401
       0.277
       0.116
      -0.043
      -0.144
      -0.154
      -0.082
       0.027
       0.115
       0.151
       0.136
       0.089
       0.031
      -0.022
      -0.046
      -0.007
       0.117
       0.315
       0.535
       0.707
       0.786
       0.771
       0.693
       0.580
       0.444
       0.287
       0.122
      -0.024
      -0.132
      -0.210
      -0.285
      -0.376
      -0.471
      -0.536
      -0.542
      -0.484
      -0.387
      -0.286
      -0.206
      -0.152
      -0.109
      -0.058
       0.005
       0.062
       0.085
       0.052
      -0.024
      -0.099
      -0.119
      -0.063
       0.038
       0.113
       0.094
      -0.039
      -0.245
      -0.443
      -0.561
      -0.570
      -0.492
      -0.379
      -0.279
      -0.217
      -0.191
      -0.184
      -0.178
      -0.155
      -0.096
       0.020
       0.200
       0.426
       0.656
       0.839
       0.937
       0.933
       0.838
       0.679
       0.491
       0.308
       0.156
       0.044
      -0.034
      -0.089
      -0.127
      -0.147
      -0.155
      -0.170
      -0.216
      -0.291
      -0.358
      -0.363
      -0.283
      -0.158
      -0.073
      -0.096
      -0.222
      -0.372
      -0.448
      -0.405
      -0.270
      -0.112
       0.015
       0.091
       0.128
       0.133
       0.111
       0.063
       0.008
      -0.026
      -0.020
       0.030
       0.107
       0.191
       0.256
       0.270
       0.208
       0.071
      -0.100
      -0.233
      -0.271
      -0.202
      -0.065
       0.083
       0.201
       0.278
       0.320
       0.331
       0.302
       0.231
       0.129
       0.027
      -0.042
      -0.067
      -0.068
      -0.082
      -0.130
      -0.195
      -0.237
      -0.218
      -0.134
      -0.021
       0.074
       0.129
       0.153
       0.164
       0.167
       0.148
       0.092
       0.000
      -0.109
      -0.211
      -0.280
      -0.293
      -0.238
      -0.119
       0.035
       0.182
       0.286
       0.336
       0.343
       0.314
       0.248
       0.147
       0.035
      -0.044
      -0.060
      -0.024
       0.014
       0.000
      -0.093
      -0.239
      -0.378
      -0.458
      -0.457
      -0.385
      -0.264
      -0.115
       0.042
       0.179
       0.262
       0.270
       0.214
       0.135
       0.077
       0.070
       0.110
       0.169
       0.211
       0.211
       0.165
       0.096
       0.043
       0.037
       0.078
       0.127
       0.130
       0.051
      -0.098
      -0.258
      -0.363
      -0.382
      -0.333
      -0.258
      -0.177
      -0.079
       0.063
       0.248
       0.429
       0.539
       0.532
       0.421
       0.264
       0.136
       0.081
       0.096
       0.143
       0.176
       0.169
       0.116
       0.029
      -0.073
      -0.178
      -0.281
      -0.388
      -0.490
      -0.563
      -0.580
      -0.538
      -0.468
      -0.418
      -0.414
      -0.433
      -0.419
      -0.322
      -0.138
       0.092
       0.315
       0.503
       0.656
       0.777
       0.850
       0.852
       0.778
       0.647
       0.495
       0.348
       0.210
       0.077
      -0.051
      -0.155
      -0.220
      -0.251
      -0.276
      -0.326
      -0.404
      -0.481
      -0.515
      -0.487
      -0.416
      -0.349
      -0.315
      -0.298
      -0.249
      -0.125
       0.077
       0.307
       0.502
       0.621
       0.667
       0.669
       0.642
       0.574
       0.441
       0.247
       0.043
      -0.100
      -0.133
      -0.062
       0.056
       0.145
       0.156
       0.086
      -0.033
      -0.164
      -0.288
      -0.400
      -0.490
      -0.535
      -0.512
      -0.415
      -0.274
      -0.148
      -0.090
      -0.117
      -0.197
      -0.270
      -0.294
      -0.262
      -0.197
      -0.128
      -0.060
       0.013
       0.093
       0.166
       0.207
       0.205
       0.175
       0.153
       0.167
       0.216
       0.271
       0.299
       0.280
       0.222
       0.151
       0.095
       0.071
       0.076
       0.090
       0.097
       0.097
       0.104
       0.118
       0.115
       0.064
      -0.038
      -0.152
      -0.221
      -0.216
      -0.161
      -0.117
      -0.135
      -0.216
      -0.308
      -0.347
      -0.302
      -0.201
      -0.101
      -0.043
      -0.014
       0.029
       0.121
       0.248
       0.354
       0.393
       0.367
       0.324
       0.309
       0.327
       0.345
       0.326
       0.257
       0.151
       0.030
      -0.089
      -0.198
      -0.296
      -0.385
      -0.465
      -0.525
      -0.550
      -0.525
      -0.447
      -0.334
      -0.213
      -0.096
       0.028
       0.180
       0.352
       0.498
       0.563
       0.537
       0.477
       0.458
       0.507
       0.570
       0.557
       0.420
       0.197
      -0.023
      -0.176
      -0.270
      -0.356
      -0.465
      -0.566
      -0.604
      -0.548
      -0.424
      -0.289
      -0.182
      -0.089
       0.032
       0.217
       0.449
       0.657
       0.767
       0.750
       0.646
       0.526
       0.432
       0.355
       0.261
       0.136
       0.001
      -0.114
      -0.208
      -0.307
      -0.430
      -0.560
      -0.648
      -0.656
      -0.585
      -0.477
      -0.383
      -0.332
      -0.322
      -0.327
      -0.316
      -0.268
      -0.178
      -0.059
       0.070
       0.190
       0.282
       0.333
       0.336
       0.290
       0.210
       0.119
       0.051
       0.039
       0.099
       0.219
       0.365
       0.491
       0.570
       0.588
       0.543
       0.422
       0.214
      -0.062
      -0.341
      -0.533
      -0.587
      -0.534
      -0.462
      -0.446
      -0.493
      -0.540
      -0.522
      -0.422
      -0.279
      -0.143
      -0.032
       0.070
       0.189
       0.324
       0.448
       0.525
       0.541
       0.511
       0.473
       0.457
       0.463
       0.453
       0.391
       0.274
       0.145
       0.059
       0.047
       0.100
       0.184
       0.268
       0.334
       0.374
       0.387
       0.387
       0.399
       0.435
       0.483
       0.512
       0.505
       0.481
       0.473
       0.491
       0.501
       0.458
       0.352
       0.216
       0.095
       0.010
      -0.041
      -0.050
       0.006
       0.142
       0.318
       0.439
       0.421
       0.260
       0.046
      -0.114
      -0.181
      -0.210
      -0.294
      -0.481
      -0.748
      -1.024
      -1.253
      -1.429
      -1.582
      -1.742
      -1.900
      -2.015
      -2.043
      -1.961
      -1.788
      -1.569
      -1.348
      -1.140
      -0.926
      -0.660
      -0.309
       0.119
       0.561
       0.927
       1.163
       1.283
       1.358
       1.458
       1.601
       1.746
       1.825
       1.802
       1.696
       1.571
       1.476
       1.397
       1.271
       1.040
       0.715
       0.380
       0.135
       0.029
       0.023
       0.032
      -0.009
      -0.101
      -0.199
      -0.261
      -0.282
      -0.298
      -0.362
      -0.521
      -0.784
      -1.108
      -1.406
      -1.604
      -1.692
      -1.729
      -1.799
      -1.937
      -2.099
      -2.207
      -2.225
      -2.200
      -2.226
      -2.348
      -2.521
      -2.645
      -2.661
      -2.597
      -2.543
      -2.571
      -2.686
      -2.836
      -2.962
      -3.051
      -3.115
      -3.147
      -3.085
      -2.844
      -2.376
      -1.706
      -0.915
      -0.076
       0.787
       1.699
       2.683
       3.712
       4.694
       5.520
       6.132
       6.535
       6.772
       6.865
       6.797
       6.540
       6.083
       5.441
       4.649
       3.741
       2.757
       1.739
       0.731
      -0.234
      -1.125
      -1.900
      -2.489
      -2.806
      -2.791
      -2.442
      -1.807
      -0.940
       0.136
       1.414
       2.854
       4.359
       5.783
       6.973
       7.816
       8.254
       8.274
       7.892
       7.140
       6.072
       4.761
       3.300
       1.781
       0.284
      -1.128
      -2.407
      -3.538
      -4.541
      -5.442
      -6.236
      -6.883
      -7.338
      -7.589
      -7.651
      -7.548
      -7.283
      -6.847
      -6.236
      -5.475
      -4.623
      -3.758
      -2.952
      -2.242
      -1.630
      -1.075
      -0.527
       0.048
       0.635
       1.170
       1.554
       1.701
       1.572
       1.204
       0.696
       0.160
      -0.339
      -0.803
      -1.257
      -1.698
      -2.065
      -2.273
      -2.278
      -2.110
      -1.852
      -1.574
      -1.282
      -0.912
      -0.387
       0.326
       1.196
       2.136
       3.039
       3.804
       4.366
       4.714
       4.874
       4.878
       4.728
       4.393
       3.854
       3.149
       2.374
       1.643
       1.016
       0.477
      -0.035
      -0.560
      -1.091
      -1.596
      -2.048
      -2.422
      -2.669
      -2.710
      -2.496
      -2.058
      -1.506
      -0.967
      -0.512
      -0.133
       0.205
       0.510
       0.750
       0.897
       0.963
       0.980
       0.957
       0.854
       0.604
       0.166
      -0.443
      -1.159
      -1.901
      -2.588
      -3.139
      -3.483
      -3.566
      -3.389
      -3.004
      -2.484
      -1.876
      -1.191
      -0.443
       0.314
       0.995
       1.541
       1.968
       2.348
       2.746
       3.154
       3.484
       3.635
       3.569
       3.332
       2.997
       2.591
       2.084
       1.443
       0.694
      -0.075
      -0.773
      -1.362
      -1.858
      -2.282
      -2.614
      -2.788
      -2.740
      -2.450
      -1.969
      -1.388
      -0.805
      -0.284
       0.164
       0.567
       0.963
       1.370
       1.778
       2.152
       2.453
       2.647
       2.720
       2.678
       2.528
       2.269
       1.894
       1.406
       0.834
       0.228
      -0.367
      -0.921
      -1.422
      -1.861
      -2.227
      -2.513
      -2.724
      -2.869
      -2.946
      -2.922
      -2.756
      -2.433
      -1.982
      -1.464
      -0.935
      -0.424
       0.051
       0.470
       0.812
       1.078
       1.298
       1.517
       1.765
       2.033
       2.271
       2.412
       2.399
       2.207
       1.850
       1.382
       0.878
       0.412
       0.031
      -0.252
      -0.450
      -0.579
      -0.651
      -0.683
      -0.694
      -0.701
      -0.712
      -0.718
      -0.701
      -0.645
      -0.557
      -0.467
      -0.416
      -0.419
      -0.450
      -0.449
      -0.358
      -0.152
       0.146
       0.484
       0.803
       1.058
       1.221
       1.289
       1.280
       1.226
       1.153
       1.061
       0.919
       0.682
       0.314
      -0.191
      -0.802
      -1.458
      -2.087
      -2.630
      -3.056
      -3.358
      -3.550
      -3.661
      -3.720
      -3.747
      -3.730
      -3.613
      -3.309
      -2.748
      -1.924
      -0.905
       0.203
       1.299
       2.293
       3.104
       3.651
       3.887
       3.838
       3.614
       3.353
       3.144
       2.978
       2.771
       2.451
       2.018
       1.533
       1.054
       0.586
       0.083
      -0.490
      -1.108
      -1.668
      -2.043
      -2.147
      -1.984
      -1.635
      -1.206
      -0.785
      -0.410
      -0.071
       0.268
       0.633
       1.008
       1.333
       1.542
       1.602
       1.537
       1.416
       1.303
       1.221
       1.150
       1.057
       0.943
       0.836
       0.760
       0.706
       0.624
       0.455
       0.166
      -0.239
      -0.714
      -1.196
      -1.621
      -1.940
      -2.143
      -2.266
      -2.371
      -2.495
      -2.594
      -2.552
      -2.253
      -1.671
      -0.911
      -0.142
       0.495
       0.952
       1.257
       1.460
       1.599
       1.703
       1.796
       1.891
       1.971
       1.975
       1.837
       1.516
       1.028
       0.436
      -0.184
      -0.768
      -1.272
      -1.668
      -1.942
      -2.100
      -2.159
      -2.139
      -2.040
      -1.847
      -1.544
      -1.135
      -0.657
      -0.169
       0.274
       0.640
       0.920
       1.124
       1.268
       1.369
       1.446
       1.522
       1.603
       1.663
       1.633
       1.439
       1.044
       0.489
      -0.118
      -0.648
      -1.001
      -1.141
      -1.105
      -0.973
      -0.825
      -0.706
      -0.625
      -0.568
      -0.505
      -0.398
      -0.207
       0.070
       0.388
       0.661
       0.812
       0.808
       0.668
       0.436
       0.150
      -0.165
      -0.466
      -0.685
      -0.760
      -0.685
      -0.527
      -0.388
      -0.340
      -0.384
      -0.454
      -0.466
      -0.375
      -0.193
       0.021
       0.204
       0.324
       0.389
       0.433
       0.485
       0.552
       0.615
       0.646
       0.621
       0.528
       0.372
       0.174
      -0.035
      -0.229
      -0.384
      -0.479
      -0.490
      -0.419
      -0.311
      -0.241
      -0.276
      -0.430
      -0.664
      -0.897
      -1.048
      -1.048
      -0.847
      -0.432
       0.144
       0.757
       1.257
       1.542
       1.603
       1.501
       1.305
       1.060
       0.802
       0.579
       0.446
       0.435
       0.515
       0.597
       0.580
       0.408
       0.088
      -0.331
      -0.788
      -1.220
      -1.558
      -1.748
      -1.774
      -1.663
      -1.459
      -1.184
      -0.835
      -0.417
       0.030
       0.436
       0.747
       0.964
       1.132
       1.291
       1.429
       1.501
       1.484
       1.405
       1.317
       1.247
       1.175
       1.053
       0.850
