Origin Time       29/08/2013 10:13:21
Lat.              31.4 N	
Long.             76.1 E	
Depth (Km)         10.0
Magnitude         4.7
 Region           HIMACHAL-PUNJAB-(HOSHIARPUR)-BORDER                              
 Above details taken from IMD 
   
Station Code      DSU
Station Lat.       31.805
Station Long.      75.660
Station Height(m)    1.0
Site Class        C   Vs30 between 200 m/sec to 375 m/sec *  
Record Time       29.08.2013 10:13:15.334
Sampling Rate     200. Hz
 Record Duration   80.260 Sec.
 Direction         Vert. (Up positive)
Max. Acceleration      4.361 cm/sec**2
     
  * For reference see Site Classification link of website 
     
 Base Line Corrected and Low Pass Filtered (Cut Off at 35 Hz) Time History
 Acceleration data in cm/sec**2
    
[...]
       0.087
       0.120
       0.095
       0.021
      -0.069
      -0.133
      -0.138
      -0.077
       0.019
       0.098
       0.115
       0.066
      -0.014
      -0.074
      -0.080
      -0.034
       0.032
       0.073
       0.061
       0.001
      -0.071
      -0.115
      -0.104
      -0.040
       0.048
       0.115
       0.125
       0.078
       0.004
      -0.051
      -0.062
      -0.033
       0.016
       0.054
       0.059
       0.026
      -0.027
      -0.068
      -0.075
      -0.045
       0.006
       0.054
       0.075
       0.055
       0.008
      -0.037
      -0.050
      -0.025
       0.020
       0.057
       0.061
       0.026
      -0.033
      -0.086
      -0.109
      -0.088
      -0.029
       0.047
       0.110
       0.125
       0.083
       0.006
      -0.054
      -0.061
      -0.015
       0.046
       0.074
       0.047
      -0.014
      -0.067
      -0.074
      -0.036
       0.021
       0.066
       0.084
       0.074
       0.039
      -0.012
      -0.057
      -0.074
      -0.053
      -0.007
       0.035
       0.046
       0.015
      -0.042
      -0.084
      -0.084
      -0.040
       0.021
       0.071
       0.091
       0.075
       0.033
      -0.014
      -0.038
      -0.030
      -0.003
       0.015
       0.002
      -0.039
      -0.084
      -0.102
      -0.081
      -0.030
       0.027
       0.070
       0.092
       0.090
       0.066
       0.025
      -0.018
      -0.044
      -0.044
      -0.024
       0.002
       0.017
       0.011
      -0.008
      -0.023
      -0.024
      -0.013
       0.001
       0.014
       0.024
       0.029
       0.026
       0.016
       0.004
      -0.012
      -0.035
      -0.061
      -0.075
      -0.061
      -0.022
       0.023
       0.053
       0.059
       0.049
       0.034
       0.023
       0.016
       0.008
       0.000
      -0.006
      -0.004
       0.004
       0.010
       0.006
      -0.011
      -0.036
      -0.060
      -0.068
      -0.051
      -0.006
       0.049
       0.092
       0.102
       0.078
       0.032
      -0.013
      -0.042
      -0.051
      -0.049
      -0.039
      -0.023
      -0.007
       0.000
      -0.008
      -0.021
      -0.023
      -0.006
       0.026
       0.059
       0.075
       0.059
       0.013
      -0.044
      -0.084
      -0.096
      -0.082
      -0.052
      -0.017
       0.013
       0.030
       0.033
       0.029
       0.020
       0.011
       0.009
       0.017
       0.029
       0.027
       0.002
      -0.040
      -0.075
      -0.085
      -0.063
      -0.019
       0.026
       0.055
       0.060
       0.047
       0.022
      -0.004
      -0.015
       0.005
       0.049
       0.084
       0.072
       0.006
      -0.081
      -0.139
      -0.137
      -0.077
       0.000
       0.051
       0.057
       0.032
      -0.004
      -0.033
      -0.047
      -0.032
       0.017
       0.076
       0.103
       0.071
      -0.005
      -0.078
      -0.104
      -0.072
      -0.008
       0.050
       0.071
       0.054
       0.015
      -0.025
      -0.048
      -0.045
      -0.015
       0.025
       0.046
       0.027
      -0.025
      -0.080
      -0.099
      -0.069
      -0.003
       0.064
       0.097
       0.086
       0.044
      -0.001
      -0.026
      -0.020
       0.018
       0.073
       0.108
       0.087
       0.005
      -0.097
      -0.158
      -0.141
      -0.062
       0.031
       0.086
       0.081
       0.029
      -0.039
      -0.091
      -0.113
      -0.097
      -0.045
       0.026
       0.078
       0.075
       0.014
      -0.060
      -0.091
      -0.058
       0.011
       0.069
       0.083
       0.056
       0.015
      -0.015
      -0.019
       0.001
       0.032
       0.054
       0.048
       0.003
      -0.064
      -0.114
      -0.111
      -0.051
       0.035
       0.096
       0.104
       0.062
       0.003
      -0.040
      -0.045
      -0.018
       0.020
       0.046
       0.045
       0.011
      -0.044
      -0.095
      -0.111
      -0.081
      -0.020
       0.044
       0.084
       0.084
       0.049
       0.003
      -0.030
      -0.038
      -0.027
      -0.010
       0.000
       0.001
      -0.010
      -0.030
      -0.046
      -0.049
      -0.031
       0.000
       0.035
       0.059
       0.059
       0.033
      -0.006
      -0.032
      -0.033
      -0.015
       0.003
       0.005
      -0.013
      -0.038
      -0.052
      -0.041
      -0.010
       0.024
       0.044
       0.046
       0.034
       0.015
      -0.008
      -0.025
      -0.030
      -0.024
      -0.019
      -0.021
      -0.030
      -0.039
      -0.038
      -0.024
       0.000
       0.022
       0.034
       0.032
       0.022
       0.007
      -0.007
      -0.015
      -0.015
      -0.010
      -0.009
      -0.013
      -0.017
      -0.011
       0.007
       0.030
       0.046
       0.051
       0.046
       0.035
       0.018
      -0.001
      -0.017
      -0.021
      -0.013
      -0.002
      -0.004
      -0.023
      -0.046
      -0.057
      -0.048
      -0.031
      -0.017
      -0.009
       0.001
       0.019
       0.041
       0.057
       0.059
       0.045
       0.021
      -0.008
      -0.032
      -0.043
      -0.033
      -0.005
       0.027
       0.045
       0.041
       0.022
       0.001
      -0.011
      -0.012
      -0.004
       0.008
       0.015
       0.009
      -0.017
      -0.057
      -0.093
      -0.101
      -0.072
      -0.020
       0.026
       0.043
       0.033
       0.015
       0.005
       0.007
       0.015
       0.025
       0.030
       0.022
      -0.005
      -0.045
      -0.080
      -0.085
      -0.050
       0.012
       0.063
       0.074
       0.045
       0.003
      -0.022
      -0.017
       0.011
       0.040
       0.052
       0.035
      -0.011
      -0.074
      -0.130
      -0.151
      -0.119
      -0.040
       0.054
       0.119
       0.128
       0.086
       0.026
      -0.018
      -0.026
       0.003
       0.047
       0.077
       0.071
       0.025
      -0.041
      -0.095
      -0.108
      -0.071
       0.000
       0.065
       0.091
       0.069
       0.025
      -0.008
      -0.014
       0.001
       0.020
       0.023
       0.004
      -0.034
      -0.080
      -0.113
      -0.112
      -0.070
       0.003
       0.072
       0.099
       0.071
       0.006
      -0.052
      -0.070
      -0.039
       0.018
       0.065
       0.069
       0.021
      -0.058
      -0.128
      -0.152
      -0.115
      -0.033
       0.060
       0.121
       0.120
       0.063
      -0.013
      -0.067
      -0.076
      -0.051
      -0.015
       0.008
       0.009
      -0.011
      -0.037
      -0.051
      -0.041
      -0.004
       0.051
       0.097
       0.104
       0.063
       0.000
      -0.041
      -0.034
       0.009
       0.051
       0.057
       0.022
      -0.031
      -0.069
      -0.073
      -0.043
       0.007
       0.057
       0.088
       0.083
       0.038
      -0.026
      -0.067
      -0.058
      -0.006
       0.051
       0.072
       0.042
      -0.020
      -0.075
      -0.093
      -0.069
      -0.023
       0.024
       0.062
       0.084
       0.077
       0.037
      -0.020
      -0.053
      -0.039
       0.008
       0.041
       0.024
      -0.036
      -0.097
      -0.117
      -0.084
      -0.021
       0.034
       0.055
       0.042
       0.013
      -0.008
      -0.012
       0.000
       0.017
       0.033
       0.039
       0.028
      -0.005
      -0.049
      -0.078
      -0.072
      -0.033
       0.015
       0.049
       0.058
       0.048
       0.030
       0.014
       0.005
       0.005
       0.009
       0.009
      -0.004
      -0.030
      -0.060
      -0.076
      -0.071
      -0.052
      -0.032
      -0.018
      -0.006
       0.008
       0.022
       0.030
       0.027
       0.018
       0.009
       0.005
       0.001
      -0.012
      -0.029
      -0.033
      -0.012
       0.025
       0.050
       0.046
       0.018
      -0.007
      -0.010
       0.010
       0.038
       0.054
       0.049
       0.025
      -0.007
      -0.040
      -0.070
      -0.090
      -0.088
      -0.059
      -0.009
       0.041
       0.070
       0.073
       0.062
       0.047
       0.028
      -0.003
      -0.046
      -0.085
      -0.097
      -0.075
      -0.028
       0.020
       0.049
       0.053
       0.038
       0.018
       0.004
       0.003
       0.016
       0.039
       0.057
       0.054
       0.025
      -0.019
      -0.057
      -0.070
      -0.057
      -0.030
      -0.009
      -0.007
      -0.017
      -0.026
      -0.020
       0.002
       0.031
       0.050
       0.039
      -0.004
      -0.061
      -0.098
      -0.096
      -0.057
      -0.002
       0.046
       0.069
       0.058
       0.019
      -0.026
      -0.049
      -0.035
       0.010
       0.065
       0.101
       0.097
       0.048
      -0.024
      -0.086
      -0.101
      -0.056
       0.029
       0.108
       0.133
       0.092
       0.019
      -0.038
      -0.056
      -0.043
      -0.017
       0.013
       0.042
       0.055
       0.030
      -0.032
      -0.098
      -0.125
      -0.089
      -0.012
       0.056
       0.077
       0.046
      -0.009
      -0.053
      -0.064
      -0.040
       0.004
       0.042
       0.048
       0.013
      -0.042
      -0.081
      -0.078
      -0.038
       0.013
       0.044
       0.040
       0.005
      -0.037
      -0.059
      -0.047
      -0.003
       0.055
       0.097
       0.095
       0.037
      -0.055
      -0.134
      -0.156
      -0.108
      -0.013
       0.079
       0.125
       0.108
       0.046
      -0.022
      -0.060
      -0.051
      -0.001
       0.069
       0.123
       0.129
       0.076
      -0.010
      -0.080
      -0.099
      -0.069
      -0.020
       0.019
       0.033
       0.027
       0.015
       0.008
       0.013
       0.027
       0.043
       0.042
       0.008
      -0.058
      -0.128
      -0.160
      -0.126
      -0.037
       0.063
       0.122
       0.113
       0.047
      -0.033
      -0.088
      -0.096
      -0.062
      -0.005
       0.053
       0.086
       0.074
       0.019
      -0.049
      -0.085
      -0.067
      -0.010
       0.049
       0.075
       0.063
       0.030
       0.001
      -0.009
       0.000
       0.017
       0.029
       0.026
       0.001
      -0.041
      -0.080
      -0.087
      -0.046
       0.029
       0.100
       0.123
       0.084
       0.003
      -0.071
      -0.098
      -0.071
      -0.014
       0.041
       0.071
       0.066
       0.024
      -0.041
      -0.095
      -0.102
      -0.051
       0.032
       0.099
       0.114
       0.073
       0.006
      -0.051
      -0.078
      -0.073
      -0.043
       0.004
       0.051
       0.070
       0.045
      -0.010
      -0.059
      -0.071
      -0.041
       0.012
       0.057
       0.071
       0.052
       0.017
      -0.012
      -0.023
      -0.021
      -0.019
      -0.020
      -0.024
      -0.026
      -0.026
      -0.021
      -0.012
      -0.002
       0.003
       0.004
       0.008
       0.025
       0.057
       0.090
       0.103
       0.081
       0.032
      -0.018
      -0.045
      -0.043
      -0.028
      -0.018
      -0.017
      -0.013
       0.002
       0.030
       0.059
       0.074
       0.062
       0.024
      -0.024
      -0.065
      -0.087
      -0.087
      -0.059
      -0.009
       0.046
       0.074
       0.062
       0.021
      -0.019
      -0.034
      -0.019
       0.008
       0.026
       0.022
       0.004
      -0.014
      -0.029
      -0.046
      -0.060
      -0.056
      -0.026
       0.018
       0.054
       0.066
       0.057
       0.038
       0.022
       0.011
       0.003
      -0.004
      -0.008
      -0.009
      -0.013
      -0.029
      -0.053
      -0.056
      -0.019
       0.048
       0.101
       0.104
       0.053
      -0.019
      -0.067
      -0.061
      -0.009
       0.053
       0.080
       0.051
      -0.018
      -0.086
      -0.110
      -0.072
       0.013
       0.096
       0.131
       0.104
       0.044
      -0.005
      -0.016
       0.008
       0.044
       0.070
       0.070
       0.043
      -0.003
      -0.053
      -0.083
      -0.071
      -0.010
       0.080
       0.163
       0.201
       0.183
       0.132
       0.088
       0.083
       0.117
       0.160
       0.169
       0.119
       0.023
      -0.067
      -0.096
      -0.035
       0.096
       0.240
       0.336
       0.352
       0.307
       0.254
       0.242
       0.278
       0.336
       0.377
       0.378
       0.346
       0.302
       0.269
       0.258
       0.269
       0.294
       0.319
       0.320
       0.271
       0.152
      -0.031
      -0.239
      -0.422
      -0.543
      -0.600
      -0.625
      -0.654
      -0.700
      -0.738
      -0.729
      -0.652
      -0.528
      -0.409
      -0.345
      -0.348
      -0.383
      -0.383
      -0.292
      -0.105
       0.130
       0.330
       0.429
       0.405
       0.274
       0.069
      -0.184
      -0.467
      -0.768
      -1.080
      -1.392
      -1.684
      -1.928
      -2.082
      -2.108
      -1.980
      -1.698
      -1.294
      -0.828
      -0.365
       0.050
       0.422
       0.805
       1.274
       1.879
       2.604
       3.354
       3.980
       4.341
       4.361
       4.046
       3.458
       2.676
       1.764
       0.778
      -0.215
      -1.127
      -1.871
      -2.385
      -2.662
      -2.742
      -2.687
      -2.542
      -2.320
      -2.025
      -1.679
      -1.341
      -1.080
      -0.934
      -0.883
      -0.845
      -0.718
      -0.430
       0.018
       0.568
       1.137
       1.663
       2.106
       2.427
       2.577
       2.506
       2.195
       1.690
       1.100
       0.553
       0.134
      -0.156
      -0.392
      -0.664
      -1.005
      -1.361
      -1.629
      -1.730
      -1.656
      -1.461
      -1.222
      -1.004
      -0.848
      -0.756
      -0.679
      -0.537
      -0.252
       0.199
       0.774
       1.378
       1.893
       2.219
       2.296
       2.106
       1.660
       0.992
       0.174
      -0.676
      -1.407
      -1.878
      -2.010
      -1.818
      -1.410
      -0.927
      -0.470
      -0.063
       0.324
       0.709
       1.044
       1.240
       1.230
       1.037
       0.760
       0.503
       0.299
       0.114
      -0.088
      -0.286
      -0.402
      -0.379
      -0.245
      -0.113
      -0.091
      -0.193
      -0.326
      -0.367
      -0.253
      -0.024
       0.226
       0.419
       0.535
       0.611
       0.687
       0.756
       0.741
       0.537
       0.096
      -0.500
      -1.054
      -1.354
      -1.319
      -1.049
      -0.762
      -0.632
      -0.668
      -0.709
      -0.556
      -0.122
       0.499
       1.087
       1.424
       1.401
       1.053
       0.519
      -0.032
      -0.473
      -0.762
      -0.947
      -1.120
      -1.348
      -1.607
      -1.782
      -1.721
      -1.321
      -0.578
       0.405
       1.462
       2.408
       3.077
       3.344
       3.144
       2.471
       1.389
       0.029
      -1.415
      -2.690
      -3.522
      -3.666
      -3.004
      -1.623
       0.165
       1.908
       3.172
       3.702
       3.485
       2.695
       1.567
       0.299
      -0.966
      -2.100
      -2.954
      -3.383
      -3.304
      -2.741
      -1.826
      -0.756
       0.263
       1.070
       1.575
       1.768
       1.708
       1.482
       1.155
       0.723
       0.135
      -0.629
      -1.468
      -2.154
      -2.412
      -2.057
      -1.075
       0.368
       1.966
       3.353
       4.195
       4.299
       3.690
       2.595
       1.341
       0.211
      -0.639
      -1.205
      -1.591
      -1.926
      -2.287
      -2.640
      -2.852
      -2.760
      -2.267
      -1.407
      -0.332
       0.763
       1.729
       2.477
       2.933
       3.002
       2.588
       1.685
       0.459
      -0.787
      -1.733
      -2.209
      -2.246
      -2.003
      -1.637
      -1.220
      -0.751
      -0.227
       0.331
       0.878
       1.358
       1.692
       1.767
       1.482
       0.813
      -0.138
      -1.162
      -2.004
      -2.427
      -2.265
      -1.488
      -0.271
       1.005
       1.892
       2.103
       1.679
       0.941
       0.274
      -0.102
      -0.204
      -0.188
      -0.195
      -0.265
      -0.362
      -0.444
      -0.505
      -0.550
      -0.553
      -0.448
      -0.178
       0.251
       0.751
       1.182
       1.407
       1.344
       0.978
       0.371
      -0.344
      -0.989
      -1.401
      -1.513
      -1.374
      -1.095
      -0.763
      -0.396
       0.019
       0.470
       0.895
       1.215
       1.364
       1.316
       1.075
       0.680
       0.201
      -0.267
      -0.644
      -0.903
      -1.074
      -1.179
      -1.181
      -0.988
      -0.548
       0.074
       0.700
       1.143
       1.321
       1.273
       1.095
       0.846
       0.527
       0.135
      -0.290
      -0.668
      -0.932
      -1.063
      -1.061
      -0.907
      -0.582
      -0.125
       0.339
       0.646
       0.695
       0.509
       0.202
      -0.108
      -0.361
      -0.550
      -0.665
      -0.641
      -0.386
       0.135
       0.817
       1.422
       1.676
       1.412
       0.657
      -0.368
      -1.319
      -1.872
      -1.870
      -1.401
      -0.733
      -0.155
       0.184
       0.304
       0.313
       0.305
       0.321
       0.391
       0.555
       0.816
       1.080
       1.173
       0.968
       0.494
      -0.081
      -0.553
      -0.793
      -0.770
      -0.523
      -0.131
       0.292
       0.618
       0.744
       0.642
       0.362
      -0.006
      -0.379
      -0.697
      -0.910
      -0.974
      -0.895
      -0.749
      -0.633
      -0.568
      -0.468
      -0.208
       0.250
       0.794
       1.220
       1.353
       1.144
       0.689
       0.167
      -0.239
      -0.403
      -0.291
       0.019
       0.347
       0.480
       0.291
      -0.177
      -0.726
      -1.116
      -1.180
      -0.895
      -0.367
       0.221
       0.683
       0.897
       0.827
       0.521
       0.077
      -0.383
      -0.731
      -0.865
      -0.742
      -0.397
       0.063
       0.497
       0.779
       0.834
       0.658
       0.324
      -0.022
      -0.207
      -0.122
       0.188
       0.525
       0.656
       0.461
       0.008
      -0.495
      -0.819
      -0.818
      -0.498
      -0.008
       0.422
       0.599
       0.466
       0.126
      -0.224
      -0.420
      -0.426
      -0.331
      -0.260
      -0.273
      -0.326
      -0.342
      -0.285
      -0.190
      -0.117
      -0.087
      -0.050
       0.065
       0.285
       0.551
       0.738
       0.734
       0.514
       0.149
      -0.230
      -0.496
      -0.577
      -0.467
      -0.217
       0.091
       0.369
       0.536
       0.529
       0.314
      -0.092
      -0.598
      -1.037
      -1.220
      -1.037
      -0.546
       0.031
