Origin Time       24/2/2010 19:20:52	
Lat.              28.6 N	
Long.             76.9 E	
Depth (Km)         17.0
Magnitude         2.5
 Region           Rohtak                                                           
 Above details taken from IMD 
   
Station Code      DU_
Station Lat.       28.691
Station Long.      77.212
Station Height(m)  220.0
Site Class        C   Vs30 between 200 m/sec to 375 m/sec *  
Record Time       24.02.2010 19:19:33.244
Sampling Rate     200. Hz
 Record Duration   81.140 Sec.
 Direction         Vert. (Up positive)
Max. Acceleration     -2.566 cm/sec**2
     
  * For reference see Site Classification link of website 
     
 Base Line Corrected and Low Pass Filtered (Cut Off at 35 Hz) Time History
 Acceleration data in cm/sec**2
    
[...]
       0.080
       0.078
       0.076
       0.072
       0.059
       0.024
      -0.032
      -0.095
      -0.135
      -0.132
      -0.091
      -0.034
       0.006
       0.013
      -0.002
      -0.012
      -0.003
       0.014
       0.021
       0.011
      -0.004
      -0.012
      -0.009
      -0.003
      -0.001
      -0.003
       0.001
       0.020
       0.051
       0.077
       0.080
       0.055
       0.017
      -0.015
      -0.030
      -0.034
      -0.042
      -0.060
      -0.078
      -0.079
      -0.052
      -0.012
       0.013
       0.013
       0.002
       0.004
       0.027
       0.054
       0.066
       0.057
       0.034
       0.014
       0.008
       0.019
       0.040
       0.063
       0.078
       0.078
       0.062
       0.030
      -0.011
      -0.047
      -0.058
      -0.038
      -0.001
       0.024
       0.016
      -0.027
      -0.078
      -0.100
      -0.080
      -0.036
       0.000
       0.011
       0.004
      -0.005
       0.000
       0.019
       0.044
       0.065
       0.075
       0.073
       0.064
       0.048
       0.023
      -0.009
      -0.039
      -0.054
      -0.051
      -0.037
      -0.031
      -0.041
      -0.055
      -0.050
      -0.010
       0.047
       0.079
       0.064
       0.020
      -0.017
      -0.025
      -0.012
       0.004
       0.009
       0.004
      -0.002
       0.000
       0.015
       0.045
       0.084
       0.121
       0.141
       0.128
       0.077
      -0.003
      -0.083
      -0.127
      -0.118
      -0.073
      -0.027
      -0.014
      -0.043
      -0.091
      -0.114
      -0.092
      -0.036
       0.019
       0.049
       0.054
       0.042
       0.028
       0.019
       0.017
       0.022
       0.036
       0.055
       0.070
       0.070
       0.049
       0.016
      -0.013
      -0.017
       0.003
       0.026
       0.027
      -0.008
      -0.061
      -0.097
      -0.086
      -0.038
       0.009
       0.022
       0.005
      -0.014
      -0.012
       0.010
       0.033
       0.043
       0.042
       0.037
       0.033
       0.032
       0.034
       0.042
       0.054
       0.064
       0.061
       0.038
      -0.006
      -0.058
      -0.094
      -0.095
      -0.060
      -0.007
       0.034
       0.040
       0.016
      -0.013
      -0.019
      -0.002
       0.019
       0.025
       0.014
      -0.003
      -0.013
      -0.014
      -0.011
      -0.004
       0.010
       0.034
       0.060
       0.069
       0.047
      -0.001
      -0.050
      -0.072
      -0.061
      -0.035
      -0.023
      -0.039
      -0.072
      -0.090
      -0.065
       0.000
       0.068
       0.105
       0.108
       0.095
       0.081
       0.067
       0.045
       0.017
      -0.006
      -0.013
      -0.005
       0.014
       0.032
       0.047
       0.055
       0.056
       0.048
       0.027
      -0.007
      -0.048
      -0.080
      -0.084
      -0.058
      -0.016
       0.013
       0.007
      -0.030
      -0.067
      -0.074
      -0.051
      -0.018
       0.004
       0.015
       0.024
       0.039
       0.054
       0.061
       0.053
       0.038
       0.029
       0.031
       0.039
       0.037
       0.015
      -0.020
      -0.051
      -0.063
      -0.055
      -0.039
      -0.027
      -0.025
      -0.019
       0.002
       0.036
       0.057
       0.046
       0.008
      -0.028
      -0.041
      -0.031
      -0.012
       0.003
       0.009
       0.011
       0.015
       0.026
       0.045
       0.071
       0.095
       0.105
       0.089
       0.046
      -0.014
      -0.073
      -0.112
      -0.120
      -0.096
      -0.057
      -0.023
      -0.011
      -0.018
      -0.020
       0.000
       0.036
       0.062
       0.060
       0.034
       0.003
      -0.014
      -0.011
       0.005
       0.024
       0.038
       0.046
       0.048
       0.042
       0.030
       0.013
      -0.001
      -0.006
      -0.003
      -0.004
      -0.020
      -0.052
      -0.088
      -0.103
      -0.078
      -0.017
       0.047
       0.078
       0.069
       0.041
       0.020
       0.018
       0.025
       0.031
       0.029
       0.020
       0.009
       0.004
       0.012
       0.031
       0.055
       0.070
       0.071
       0.055
       0.026
      -0.003
      -0.017
      -0.006
       0.026
       0.059
       0.070
       0.045
      -0.006
      -0.054
      -0.078
      -0.077
      -0.069
      -0.063
      -0.054
      -0.036
      -0.019
      -0.021
      -0.047
      -0.075
      -0.063
       0.010
       0.110
       0.155
       0.067
      -0.161
      -0.426
      -0.567
      -0.467
      -0.152
       0.206
       0.404
       0.350
       0.131
      -0.072
      -0.128
      -0.035
       0.134
       0.324
       0.515
       0.663
       0.679
       0.484
       0.092
      -0.378
      -0.750
      -0.879
      -0.715
      -0.320
       0.172
       0.614
       0.883
       0.880
       0.557
      -0.029
      -0.672
      -1.088
      -1.085
      -0.682
      -0.092
       0.419
       0.664
       0.610
       0.364
       0.081
      -0.143
      -0.301
      -0.412
      -0.458
      -0.388
      -0.175
       0.132
       0.405
       0.512
       0.414
       0.216
       0.083
       0.071
       0.072
      -0.037
      -0.207
      -0.224
       0.051
       0.477
       0.707
       0.493
      -0.076
      -0.644
      -0.890
      -0.780
      -0.522
      -0.293
      -0.069
       0.264
       0.653
       0.823
       0.534
      -0.113
      -0.672
      -0.697
      -0.138
       0.596
       0.948
       0.655
      -0.064
      -0.694
      -0.830
      -0.451
       0.134
       0.569
       0.691
       0.538
       0.229
      -0.125
      -0.427
      -0.585
      -0.560
      -0.395
      -0.189
      -0.029
       0.068
       0.134
       0.191
       0.219
       0.189
       0.108
       0.037
       0.045
       0.147
       0.284
       0.349
       0.258
      -0.003
      -0.351
      -0.626
      -0.651
      -0.344
       0.191
       0.672
       0.800
       0.463
      -0.170
      -0.755
      -0.999
      -0.835
      -0.406
       0.093
       0.535
       0.856
       0.988
       0.841
       0.395
      -0.219
      -0.746
      -0.944
      -0.733
      -0.248
       0.243
       0.503
       0.476
       0.314
       0.226
       0.268
       0.276
       0.039
      -0.431
      -0.823
      -0.785
      -0.270
       0.381
       0.736
       0.646
       0.314
       0.034
      -0.095
      -0.192
      -0.387
      -0.614
      -0.637
      -0.291
       0.274
       0.632
       0.437
      -0.218
      -0.805
      -0.806
      -0.173
       0.628
       1.033
       0.832
       0.275
      -0.220
      -0.415
      -0.362
      -0.238
      -0.116
       0.066
       0.335
       0.541
       0.473
       0.098
      -0.352
      -0.588
      -0.521
      -0.302
      -0.121
      -0.016
       0.108
       0.317
       0.521
       0.530
       0.231
      -0.282
      -0.727
      -0.807
      -0.420
       0.254
       0.843
       1.028
       0.734
       0.150
      -0.421
      -0.756
      -0.799
      -0.629
      -0.356
      -0.049
       0.264
       0.544
       0.694
       0.600
       0.251
      -0.177
      -0.413
      -0.313
      -0.001
       0.238
       0.217
       0.009
      -0.147
      -0.094
       0.096
       0.209
       0.108
      -0.127
      -0.282
      -0.230
      -0.048
       0.056
      -0.047
      -0.285
      -0.456
      -0.416
      -0.195
       0.062
       0.248
       0.370
       0.478
       0.567
       0.555
       0.381
       0.087
      -0.203
      -0.387
      -0.443
      -0.401
      -0.274
      -0.065
       0.170
       0.295
       0.198
      -0.073
      -0.316
      -0.346
      -0.163
       0.062
       0.162
       0.114
       0.023
      -0.001
       0.047
       0.076
       0.011
      -0.104
      -0.139
      -0.028
       0.149
       0.242
       0.189
       0.074
       0.027
       0.088
       0.188
       0.228
       0.164
       0.016
      -0.157
      -0.281
      -0.303
      -0.233
      -0.142
      -0.090
      -0.072
      -0.038
       0.036
       0.127
       0.198
       0.229
       0.214
       0.142
       0.017
      -0.139
      -0.292
      -0.398
      -0.394
      -0.248
      -0.026
       0.137
       0.157
       0.086
       0.032
       0.025
       0.026
       0.030
       0.090
       0.216
       0.324
       0.321
       0.212
       0.075
      -0.037
      -0.132
      -0.210
      -0.227
      -0.145
       0.017
       0.190
       0.313
       0.342
       0.240
       0.004
      -0.300
      -0.543
      -0.604
      -0.444
      -0.136
       0.180
       0.383
       0.446
       0.415
       0.334
       0.200
      -0.003
      -0.257
      -0.493
      -0.622
      -0.578
      -0.367
      -0.075
       0.170
       0.272
       0.220
       0.077
      -0.057
      -0.090
       0.023
       0.243
       0.455
       0.542
       0.469
       0.311
       0.191
       0.177
       0.196
       0.084
      -0.251
      -0.668
      -0.850
      -0.594
      -0.042
       0.412
       0.474
       0.212
      -0.040
      -0.027
       0.174
       0.247
      -0.027
      -0.519
      -0.838
      -0.683
      -0.131
       0.427
       0.623
       0.419
       0.079
      -0.114
      -0.098
      -0.013
      -0.004
      -0.088
      -0.176
      -0.184
      -0.107
       0.001
       0.089
       0.160
       0.250
       0.369
       0.458
       0.426
       0.234
      -0.059
      -0.336
      -0.501
      -0.509
      -0.358
      -0.086
       0.209
       0.393
       0.375
       0.167
      -0.122
      -0.342
      -0.405
      -0.342
      -0.267
      -0.236
      -0.160
       0.107
       0.553
       0.922
       0.888
       0.369
      -0.358
      -0.870
      -0.932
      -0.643
      -0.287
      -0.056
       0.080
       0.280
       0.604
       0.898
       0.912
       0.551
      -0.010
      -0.485
      -0.725
      -0.794
      -0.791
      -0.682
      -0.361
       0.137
       0.572
       0.705
       0.540
       0.321
       0.262
       0.333
       0.323
       0.097
      -0.231
      -0.402
      -0.287
      -0.047
       0.019
      -0.203
      -0.503
      -0.560
      -0.283
       0.087
       0.230
       0.087
      -0.092
      -0.020
       0.310
       0.615
       0.593
       0.216
      -0.238
      -0.434
      -0.277
       0.022
       0.156
       0.014
      -0.213
      -0.229
       0.049
       0.394
       0.480
       0.216
      -0.169
      -0.371
      -0.307
      -0.163
      -0.142
      -0.229
      -0.212
       0.050
       0.417
       0.558
       0.282
      -0.217
      -0.509
      -0.342
       0.084
       0.311
       0.109
      -0.283
      -0.397
      -0.032
       0.538
       0.831
       0.585
      -0.056
      -0.689
      -0.951
      -0.728
      -0.190
       0.336
       0.592
       0.532
       0.290
       0.047
      -0.091
      -0.129
      -0.143
      -0.179
      -0.167
       0.029
       0.440
       0.858
       0.943
       0.513
      -0.265
      -0.955
      -1.151
      -0.762
      -0.054
       0.534
       0.687
       0.395
      -0.096
      -0.506
      -0.704
      -0.708
      -0.561
      -0.255
       0.195
       0.662
       0.922
       0.815
       0.399
      -0.075
      -0.353
      -0.358
      -0.208
      -0.081
      -0.050
      -0.051
       0.017
       0.157
       0.249
       0.173
      -0.048
      -0.226
      -0.156
       0.176
       0.529
       0.584
       0.238
      -0.287
      -0.648
      -0.667
      -0.417
      -0.084
       0.210
       0.433
       0.580
       0.597
       0.400
      -0.042
      -0.617
      -1.072
      -1.159
      -0.816
      -0.195
       0.463
       0.961
       1.168
       1.003
       0.487
      -0.173
      -0.630
      -0.635
      -0.243
       0.202
       0.343
       0.103
      -0.265
      -0.451
      -0.396
      -0.298
      -0.319
      -0.350
      -0.132
       0.405
       0.972
       1.123
       0.645
      -0.218
      -0.948
      -1.168
      -0.912
      -0.487
      -0.125
       0.202
       0.614
       1.038
       1.187
       0.858
       0.202
      -0.348
      -0.439
      -0.093
       0.354
       0.574
       0.496
       0.266
       0.007
      -0.309
      -0.754
      -1.257
      -1.566
      -1.394
      -0.654
       0.396
       1.251
       1.478
       1.042
       0.338
      -0.146
      -0.228
      -0.120
      -0.132
      -0.346
      -0.566
      -0.546
      -0.228
       0.226
       0.588
       0.736
       0.686
       0.513
       0.277
       0.015
      -0.214
      -0.338
      -0.352
      -0.352
      -0.456
      -0.686
      -0.910
      -0.899
      -0.457
       0.396
       1.333
       1.879
       1.737
       0.986
      -0.016
      -0.868
      -1.262
      -1.061
      -0.398
       0.313
       0.615
       0.344
      -0.268
      -0.822
      -1.067
      -1.012
      -0.804
      -0.536
      -0.135
       0.550
       1.477
       2.244
       2.281
       1.322
      -0.281
      -1.755
      -2.418
      -2.076
      -1.022
       0.250
       1.329
       1.979
       2.050
       1.423
       0.139
      -1.405
      -2.508
      -2.566
      -1.518
       0.099
       1.522
       2.218
       2.083
       1.336
       0.312
      -0.685
      -1.407
      -1.661
      -1.349
      -0.579
       0.296
       0.847
       0.867
       0.511
       0.123
      -0.077
      -0.094
       0.003
       0.226
       0.600
       0.966
       0.973
       0.344
      -0.790
      -1.876
      -2.307
      -1.883
      -0.922
       0.066
       0.804
       1.351
       1.829
       2.134
       1.957
       1.086
      -0.319
      -1.717
      -2.496
      -2.343
      -1.422
      -0.210
       0.837
       1.486
       1.688
       1.469
       0.910
       0.180
      -0.489
      -0.911
      -1.010
      -0.825
      -0.469
      -0.078
       0.227
       0.373
       0.317
       0.048
      -0.338
      -0.592
      -0.445
       0.120
       0.779
       1.095
       0.881
       0.344
      -0.110
      -0.223
      -0.081
      -0.016
      -0.285
      -0.828
      -1.296
      -1.326
      -0.815
       0.020
       0.797
       1.225
       1.259
       1.058
       0.798
       0.506
       0.096
      -0.444
      -0.934
      -1.098
      -0.789
      -0.120
       0.598
       1.031
       0.983
       0.473
      -0.284
      -0.990
      -1.399
      -1.407
      -1.059
      -0.479
       0.195
       0.793
       1.124
       1.056
       0.651
       0.157
      -0.181
      -0.295
      -0.295
      -0.291
      -0.255
      -0.057
       0.349
       0.783
       0.907
       0.523
      -0.183
      -0.734
      -0.757
      -0.306
       0.204
       0.387
       0.180
      -0.187
      -0.446
      -0.494
      -0.395
      -0.243
      -0.038
       0.275
       0.648
       0.862
       0.704
       0.209
      -0.309
      -0.531
      -0.390
      -0.074
       0.177
       0.227
       0.060
      -0.257
      -0.598
      -0.804
      -0.768
      -0.497
      -0.075
       0.424
       0.942
       1.363
       1.507
       1.248
       0.665
       0.016
      -0.463
      -0.741
      -0.965
      -1.254
      -1.527
      -1.531
      -1.064
      -0.198
       0.683
       1.133
       0.979
       0.474
       0.070
       0.024
       0.215
       0.335
       0.217
      -0.047
      -0.232
      -0.168
       0.158
       0.596
       0.881
       0.766
       0.177
      -0.695
      -1.456
      -1.715
      -1.321
      -0.492
       0.311
       0.731
       0.787
       0.776
       0.886
       0.953
       0.661
      -0.047
      -0.802
      -1.095
      -0.717
       0.047
       0.625
       0.581
      -0.058
      -0.841
      -1.259
      -1.099
      -0.513
       0.204
       0.829
       1.238
       1.351
       1.140
       0.693
       0.202
      -0.174
      -0.418
      -0.625
      -0.842
      -0.946
      -0.756
      -0.270
       0.230
       0.398
       0.146
      -0.273
      -0.506
      -0.397
      -0.062
       0.250
       0.363
       0.280
       0.156
       0.134
       0.206
       0.251
       0.211
       0.199
       0.340
       0.544
       0.524
       0.085
      -0.619
      -1.157
      -1.170
      -0.641
       0.102
       0.657
       0.827
       0.710
       0.520
       0.350
       0.115
      -0.249
      -0.598
      -0.660
      -0.325
       0.195
       0.531
       0.466
       0.102
      -0.266
      -0.415
      -0.356
      -0.254
      -0.210
      -0.146
       0.044
       0.268
       0.244
      -0.196
      -0.833
      -1.184
      -0.914
      -0.138
       0.694
       1.165
       1.160
       0.843
       0.435
       0.024
      -0.435
      -0.932
      -1.233
      -0.991
      -0.109
       1.022
       1.722
       1.541
       0.622
      -0.414
      -0.951
      -0.805
      -0.273
       0.192
       0.358
       0.315
       0.259
       0.238
       0.142
      -0.095
      -0.361
      -0.471
      -0.372
      -0.205
      -0.161
      -0.289
      -0.429
      -0.323
       0.162
       0.847
       1.288
       1.118
       0.387
      -0.458
      -0.970
      -1.053
      -0.926
      -0.801
      -0.679
      -0.426
       0.005
       0.499
       0.874
       1.012
       0.921
       0.687
       0.406
       0.119
      -0.178
      -0.464
      -0.650
      -0.647
      -0.489
      -0.332
      -0.303
      -0.336
      -0.229
       0.152
       0.718
       1.200
       1.317
       0.956
       0.271
      -0.371
      -0.611
      -0.374
       0.070
       0.332
       0.221
      -0.155
      -0.537
      -0.739
      -0.745
      -0.639
      -0.490
      -0.290
      -0.027
       0.219
       0.286
       0.090
      -0.235
      -0.405
      -0.218
       0.255
       0.709
       0.855
       0.656
       0.348
       0.210
       0.304
       0.431
       0.333
      -0.052
      -0.544
      -0.872
      -0.883
      -0.616
      -0.246
       0.042
       0.144
       0.074
      -0.062
      -0.132
      -0.063
       0.103
       0.212
       0.119
      -0.150
      -0.387
      -0.383
      -0.144
       0.123
       0.229
       0.196
       0.214
       0.420
       0.726
       0.865
       0.618
       0.033
      -0.563
      -0.820
      -0.660
      -0.316
      -0.051
       0.096
       0.264
       0.513
       0.717
       0.712
       0.477
       0.129
      -0.213
      -0.510
      -0.751
      -0.889
      -0.840
      -0.568
      -0.172
       0.131
       0.167
      -0.034
      -0.251
      -0.278
      -0.102
       0.135
       0.312
       0.416
       0.473
       0.486
       0.448
       0.378
       0.284
       0.138
      -0.070
      -0.289
      -0.433
      -0.457
      -0.369
      -0.186
       0.063
       0.290
       0.351
       0.154
      -0.226
      -0.580
      -0.700
      -0.497
