Origin Time       24/2/2010 19:20:52	
Lat.              28.6 N	
Long.             76.9 E	
Depth (Km)         17.0
Magnitude         2.5
 Region           Rohtak                                                           
 Above details taken from IMD 
     
Station Code      DU_
Station Lat.       28.691  N
Station Long.      77.212  E
Station Height(m)  220.0
Site Class        C   Vs30 between 200 m/sec to 375 m/sec *  
Record Time       24.02.2010 19:19:33.244
Sampling Rate     200. Hz
 Record Duration   81.140 Sec.
 Direction         E-W (E positive)
Max. Acceleration      2.742 cm/sec**2
     
  * For reference see Site Classification link of website 
     
 Base Line Corrected and Low Pass Filtered (Cut Off at 35 Hz) Time History
 Acceleration data in cm/sec**2
    
[...]
      -0.013
       0.009
       0.031
       0.039
       0.033
       0.026
       0.029
       0.046
       0.070
       0.094
       0.109
       0.106
       0.082
       0.037
      -0.023
      -0.078
      -0.102
      -0.083
      -0.030
       0.026
       0.049
       0.028
      -0.017
      -0.047
      -0.041
      -0.011
       0.011
       0.007
      -0.016
      -0.036
      -0.033
      -0.006
       0.038
       0.083
       0.116
       0.129
       0.114
       0.072
       0.016
      -0.033
      -0.054
      -0.039
      -0.002
       0.026
       0.021
      -0.019
      -0.069
      -0.086
      -0.044
       0.036
       0.102
       0.114
       0.080
       0.037
       0.015
       0.020
       0.036
       0.045
       0.042
       0.031
       0.018
       0.012
       0.018
       0.036
       0.062
       0.083
       0.085
       0.057
      -0.001
      -0.070
      -0.121
      -0.130
      -0.095
      -0.041
       0.001
       0.005
      -0.022
      -0.049
      -0.048
      -0.020
       0.015
       0.041
       0.054
       0.060
       0.064
       0.067
       0.064
       0.053
       0.038
       0.031
       0.039
       0.058
       0.072
       0.064
       0.030
      -0.012
      -0.043
      -0.057
      -0.065
      -0.080
      -0.096
      -0.094
      -0.056
       0.004
       0.047
       0.047
       0.014
      -0.018
      -0.022
       0.000
       0.028
       0.047
       0.054
       0.055
       0.056
       0.061
       0.071
       0.087
       0.103
       0.108
       0.094
       0.055
       0.000
      -0.055
      -0.088
      -0.083
      -0.044
       0.007
       0.040
       0.032
      -0.011
      -0.054
      -0.063
      -0.031
       0.017
       0.047
       0.046
       0.020
      -0.005
      -0.015
      -0.005
       0.015
       0.037
       0.058
       0.070
       0.071
       0.055
       0.028
       0.004
       0.001
       0.020
       0.045
       0.048
       0.016
      -0.039
      -0.078
      -0.066
      -0.007
       0.055
       0.076
       0.051
       0.009
      -0.017
      -0.016
       0.004
       0.025
       0.041
       0.047
       0.043
       0.032
       0.023
       0.023
       0.033
       0.049
       0.060
       0.055
       0.027
      -0.020
      -0.068
      -0.094
      -0.087
      -0.051
      -0.010
       0.012
       0.006
      -0.010
      -0.012
       0.003
       0.020
       0.027
       0.024
       0.022
       0.030
       0.047
       0.065
       0.076
       0.079
       0.077
       0.073
       0.067
       0.053
       0.026
      -0.009
      -0.037
      -0.046
      -0.038
      -0.028
      -0.031
      -0.049
      -0.062
      -0.044
       0.005
       0.057
       0.079
       0.063
       0.032
       0.010
       0.003
       0.006
       0.010
       0.013
       0.017
       0.025
       0.039
       0.060
       0.088
       0.112
       0.119
       0.098
       0.048
      -0.023
      -0.092
      -0.135
      -0.130
      -0.083
      -0.020
       0.023
       0.022
      -0.018
      -0.059
      -0.067
      -0.036
       0.006
       0.032
       0.035
       0.028
       0.024
       0.026
       0.034
       0.042
       0.049
       0.052
       0.049
       0.038
       0.019
      -0.002
      -0.013
      -0.006
       0.016
       0.032
       0.026
      -0.007
      -0.052
      -0.076
      -0.053
       0.011
       0.075
       0.098
       0.074
       0.033
       0.008
       0.011
       0.030
       0.044
       0.041
       0.021
      -0.010
      -0.037
      -0.046
      -0.027
       0.018
       0.074
       0.115
       0.120
       0.079
       0.009
      -0.056
      -0.078
      -0.047
       0.019
       0.077
       0.092
       0.057
       0.000
      -0.044
      -0.057
      -0.048
      -0.030
      -0.013
      -0.002
      -0.001
      -0.008
      -0.015
      -0.011
       0.016
       0.065
       0.121
       0.155
       0.140
       0.066
      -0.042
      -0.131
      -0.146
      -0.070
       0.057
       0.157
       0.164
       0.073
      -0.052
      -0.128
      -0.111
      -0.014
       0.110
       0.196
       0.194
       0.101
      -0.037
      -0.152
      -0.201
      -0.186
      -0.128
      -0.037
       0.081
       0.198
       0.263
       0.231
       0.103
      -0.079
      -0.252
      -0.357
      -0.355
      -0.245
      -0.073
       0.086
       0.165
       0.141
       0.037
      -0.085
      -0.160
      -0.151
      -0.062
       0.084
       0.254
       0.404
       0.489
       0.471
       0.345
       0.146
      -0.067
      -0.230
      -0.307
      -0.291
      -0.200
      -0.050
       0.129
       0.277
       0.314
       0.200
      -0.021
      -0.243
      -0.391
      -0.462
      -0.463
      -0.360
      -0.109
       0.251
       0.562
       0.638
       0.411
      -0.002
      -0.383
      -0.563
      -0.511
      -0.299
      -0.008
       0.302
       0.560
       0.666
       0.555
       0.267
      -0.052
      -0.251
      -0.259
      -0.107
       0.109
       0.269
       0.272
       0.105
      -0.130
      -0.269
      -0.213
      -0.011
       0.164
       0.159
      -0.026
      -0.236
      -0.298
      -0.172
       0.018
       0.104
       0.010
      -0.177
      -0.285
      -0.214
      -0.027
       0.106
       0.073
      -0.072
      -0.164
      -0.095
       0.076
       0.191
       0.159
       0.051
       0.005
       0.070
       0.161
       0.165
       0.072
      -0.020
      -0.009
       0.098
       0.199
       0.194
       0.087
      -0.028
      -0.059
       0.002
       0.086
       0.119
       0.089
       0.038
       0.014
       0.018
       0.009
      -0.063
      -0.195
      -0.312
      -0.310
      -0.146
       0.103
       0.275
       0.262
       0.105
      -0.049
      -0.111
      -0.150
      -0.302
      -0.556
      -0.690
      -0.473
       0.070
       0.623
       0.845
       0.658
       0.278
      -0.022
      -0.132
      -0.120
      -0.085
      -0.042
       0.065
       0.258
       0.451
       0.476
       0.210
      -0.279
      -0.708
      -0.752
      -0.311
       0.362
       0.817
       0.744
       0.222
      -0.362
      -0.643
      -0.544
      -0.266
      -0.060
      -0.032
      -0.115
      -0.177
      -0.133
       0.007
       0.158
       0.225
       0.180
       0.090
       0.056
       0.102
       0.146
       0.090
      -0.053
      -0.156
      -0.121
       0.005
       0.074
       0.019
      -0.061
      -0.002
       0.220
       0.431
       0.424
       0.177
      -0.136
      -0.324
      -0.336
      -0.254
      -0.157
      -0.045
       0.132
       0.384
       0.621
       0.691
       0.490
       0.062
      -0.405
      -0.697
      -0.727
      -0.575
      -0.378
      -0.177
       0.093
       0.458
       0.779
       0.822
       0.473
      -0.115
      -0.612
      -0.755
      -0.518
      -0.096
       0.260
       0.398
       0.330
       0.190
       0.113
       0.123
       0.125
       0.021
      -0.167
      -0.299
      -0.259
      -0.090
       0.042
       0.018
      -0.103
      -0.136
       0.049
       0.391
       0.654
       0.606
       0.216
      -0.294
      -0.604
      -0.547
      -0.240
       0.033
       0.086
      -0.014
      -0.045
       0.119
       0.361
       0.429
       0.189
      -0.230
      -0.533
      -0.500
      -0.152
       0.279
       0.544
       0.544
       0.347
       0.086
      -0.136
      -0.267
      -0.291
      -0.225
      -0.108
       0.017
       0.115
       0.173
       0.186
       0.152
       0.081
       0.001
      -0.057
      -0.085
      -0.098
      -0.091
      -0.030
       0.102
       0.263
       0.372
       0.372
       0.261
       0.067
      -0.165
      -0.386
      -0.531
      -0.542
      -0.400
      -0.154
       0.085
       0.206
       0.184
       0.095
       0.047
       0.082
       0.153
       0.185
       0.155
       0.090
       0.022
      -0.039
      -0.084
      -0.094
      -0.058
      -0.004
       0.013
      -0.030
      -0.085
      -0.065
       0.066
       0.249
       0.380
       0.387
       0.261
       0.028
      -0.259
      -0.504
      -0.577
      -0.403
      -0.049
       0.298
       0.466
       0.419
       0.244
       0.058
      -0.066
      -0.107
      -0.078
      -0.025
      -0.012
      -0.068
      -0.144
      -0.135
       0.020
       0.254
       0.414
       0.390
       0.200
      -0.046
      -0.241
      -0.337
      -0.330
      -0.254
      -0.169
      -0.120
      -0.082
       0.025
       0.228
       0.428
       0.460
       0.267
      -0.010
      -0.140
      -0.036
       0.160
       0.210
       0.015
      -0.292
      -0.469
      -0.375
      -0.061
       0.286
       0.486
       0.451
       0.218
      -0.083
      -0.295
      -0.339
      -0.264
      -0.192
      -0.182
      -0.163
      -0.020
       0.234
       0.416
       0.336
       0.017
      -0.298
      -0.368
      -0.172
       0.096
       0.227
       0.175
       0.052
      -0.004
       0.044
       0.129
       0.162
       0.123
       0.074
       0.103
       0.231
       0.357
       0.328
       0.080
      -0.275
      -0.511
      -0.479
      -0.235
       0.002
       0.042
      -0.111
      -0.257
      -0.199
       0.069
       0.344
       0.397
       0.184
      -0.104
      -0.210
      -0.036
       0.276
       0.478
       0.435
       0.212
      -0.020
      -0.137
      -0.131
      -0.072
      -0.027
      -0.028
      -0.084
      -0.185
      -0.296
      -0.351
      -0.297
      -0.151
      -0.013
       0.005
      -0.108
      -0.209
      -0.110
       0.233
       0.625
       0.771
       0.535
       0.064
      -0.335
      -0.452
      -0.319
      -0.123
       0.001
       0.084
       0.237
       0.478
       0.666
       0.608
       0.235
      -0.303
      -0.719
      -0.777
      -0.454
       0.039
       0.391
       0.397
       0.103
      -0.231
      -0.349
      -0.207
       0.006
       0.060
      -0.086
      -0.256
      -0.238
       0.005
       0.298
       0.434
       0.359
       0.194
       0.083
       0.059
       0.063
       0.047
       0.022
       0.018
       0.025
       0.009
      -0.039
      -0.092
      -0.112
      -0.087
      -0.028
       0.030
       0.035
      -0.048
      -0.170
      -0.205
      -0.056
       0.234
       0.479
       0.486
       0.223
      -0.145
      -0.386
      -0.394
      -0.276
      -0.230
      -0.333
      -0.430
      -0.281
       0.172
       0.678
       0.862
       0.573
       0.027
      -0.373
      -0.357
       0.014
       0.427
       0.565
       0.349
      -0.038
      -0.335
      -0.419
      -0.367
      -0.324
      -0.307
      -0.185
       0.147
       0.568
       0.769
       0.539
       0.002
      -0.470
      -0.582
      -0.356
      -0.049
       0.105
       0.070
      -0.030
      -0.054
       0.050
       0.211
       0.295
       0.222
       0.062
      -0.022
       0.050
       0.168
       0.134
      -0.121
      -0.447
      -0.609
      -0.505
      -0.239
       0.000
       0.103
       0.096
       0.073
       0.105
       0.194
       0.292
       0.343
       0.332
       0.288
       0.249
       0.215
       0.154
       0.035
      -0.137
      -0.317
      -0.444
      -0.477
      -0.411
      -0.256
      -0.036
       0.200
       0.380
       0.438
       0.337
       0.080
      -0.289
      -0.664
      -0.873
      -0.765
      -0.334
       0.223
       0.617
       0.674
       0.448
       0.155
      -0.003
       0.018
       0.109
       0.136
       0.065
      -0.034
      -0.087
      -0.087
      -0.064
      -0.022
       0.061
       0.187
       0.305
       0.345
       0.290
       0.181
       0.066
      -0.048
      -0.181
      -0.310
      -0.355
      -0.242
       0.004
       0.266
       0.414
       0.387
       0.187
      -0.134
      -0.464
      -0.632
      -0.506
      -0.142
       0.209
       0.299
       0.114
      -0.118
      -0.158
       0.037
       0.293
       0.386
       0.205
      -0.194
      -0.621
      -0.830
      -0.629
      -0.026
       0.699
       1.140
       1.052
       0.522
      -0.124
      -0.566
      -0.634
      -0.315
       0.254
       0.774
       0.862
       0.289
      -0.806
      -1.930
      -2.516
      -2.248
      -1.221
       0.116
       1.197
       1.648
       1.484
       1.059
       0.747
       0.639
       0.499
       0.057
      -0.647
      -1.196
      -1.117
      -0.300
       0.872
       1.795
       2.041
       1.554
       0.588
      -0.462
      -1.223
      -1.487
      -1.266
      -0.740
      -0.139
       0.347
       0.613
       0.679
       0.677
       0.733
       0.815
       0.724
       0.287
      -0.423
      -1.089
      -1.352
      -1.065
      -0.389
       0.292
       0.589
       0.349
      -0.240
      -0.765
      -0.853
      -0.387
       0.453
       1.305
       1.778
       1.585
       0.688
      -0.602
      -1.713
      -2.105
      -1.611
      -0.547
       0.497
       1.022
       0.868
       0.214
      -0.598
      -1.201
      -1.294
      -0.735
       0.341
       1.546
       2.441
       2.742
       2.372
       1.419
       0.128
      -1.098
      -1.832
      -1.872
      -1.400
      -0.866
      -0.651
      -0.802
      -1.044
      -1.053
      -0.710
      -0.160
       0.366
       0.758
       1.050
       1.264
       1.309
       1.091
       0.685
       0.327
       0.225
       0.374
       0.564
       0.544
       0.195
      -0.420
      -1.097
      -1.569
      -1.621
      -1.221
      -0.563
       0.058
       0.456
       0.651
       0.772
       0.873
       0.864
       0.639
       0.240
      -0.143
      -0.332
      -0.291
      -0.127
      -0.004
      -0.052
      -0.267
      -0.466
      -0.414
      -0.061
       0.343
       0.449
       0.156
      -0.265
      -0.430
      -0.203
       0.214
       0.509
       0.533
       0.351
       0.123
      -0.020
      -0.023
       0.076
       0.161
       0.115
      -0.081
      -0.327
      -0.473
      -0.448
      -0.284
      -0.042
       0.262
       0.609
       0.895
       0.941
       0.654
       0.141
      -0.348
      -0.627
      -0.697
      -0.682
      -0.661
      -0.609
      -0.485
      -0.319
      -0.193
      -0.155
      -0.179
      -0.197
      -0.167
      -0.102
      -0.041
       0.039
       0.234
       0.609
       1.062
       1.357
       1.317
       0.995
       0.630
       0.396
       0.219
      -0.129
      -0.732
      -1.362
      -1.633
      -1.330
      -0.577
       0.288
       0.962
       1.292
       1.245
       0.852
       0.241
      -0.346
      -0.661
      -0.605
      -0.258
       0.210
       0.632
       0.856
       0.761
       0.320
      -0.369
      -1.116
      -1.702
      -1.922
      -1.642
      -0.908
      -0.011
       0.638
       0.775
       0.473
       0.077
      -0.064
       0.142
       0.500
       0.712
       0.609
       0.247
      -0.139
      -0.281
      -0.031
       0.507
       0.978
       0.992
       0.426
      -0.440
      -1.124
      -1.277
      -0.872
      -0.121
       0.692
       1.306
       1.511
       1.216
       0.538
      -0.226
      -0.757
      -0.891
      -0.686
      -0.356
      -0.152
      -0.242
      -0.617
      -1.074
      -1.301
      -1.076
      -0.437
       0.328
       0.892
       1.103
       1.017
       0.786
       0.555
       0.402
       0.313
       0.183
      -0.073
      -0.395
      -0.595
      -0.535
      -0.287
      -0.064
      -0.005
      -0.056
      -0.072
       0.023
       0.183
       0.310
       0.322
       0.200
       0.004
      -0.145
      -0.141
       0.017
       0.211
       0.285
       0.150
      -0.154
      -0.477
      -0.630
      -0.473
      -0.004
       0.623
       1.156
       1.364
       1.149
       0.618
       0.016
      -0.442
      -0.704
      -0.828
      -0.840
      -0.694
      -0.383
      -0.025
       0.205
       0.229
       0.124
       0.033
       0.067
       0.238
       0.474
       0.659
       0.695
       0.562
       0.327
       0.080
      -0.138
      -0.335
      -0.519
      -0.672
      -0.783
      -0.849
      -0.826
      -0.614
      -0.141
       0.495
       1.006
       1.078
       0.621
      -0.150
      -0.860
      -1.203
      -1.056
      -0.480
       0.309
       0.994
       1.300
       1.182
       0.846
       0.566
       0.438
       0.348
       0.160
      -0.105
      -0.307
      -0.349
      -0.267
      -0.185
      -0.261
      -0.619
      -1.221
      -1.779
      -1.887
      -1.373
      -0.493
       0.270
       0.639
       0.751
       0.915
       1.204
       1.366
       1.135
       0.554
      -0.038
      -0.319
      -0.231
       0.010
       0.105
      -0.123
      -0.611
      -1.060
      -1.101
      -0.561
       0.387
       1.317
       1.851
       1.885
       1.550
       1.027
       0.412
      -0.223
      -0.741
      -0.970
      -0.849
      -0.524
      -0.279
      -0.325
      -0.615
      -0.868
      -0.804
      -0.390
       0.117
       0.392
       0.319
       0.066
      -0.085
       0.031
       0.371
       0.747
       0.957
       0.882
       0.543
       0.091
      -0.271
      -0.404
      -0.317
      -0.143
      -0.035
      -0.071
      -0.220
      -0.384
      -0.466
      -0.444
      -0.391
      -0.412
      -0.539
      -0.679
      -0.683
      -0.454
      -0.013
       0.500
       0.878
       0.955
       0.717
       0.339
       0.058
      -0.011
       0.029
      -0.044
      -0.353
      -0.754
      -0.907
      -0.573
       0.133
       0.784
       0.979
       0.659
       0.143
      -0.155
      -0.053
       0.300
       0.594
       0.633
       0.465
       0.274
       0.166
       0.074
      -0.119
      -0.394
      -0.584
      -0.557
      -0.358
      -0.158
      -0.069
      -0.058
      -0.043
      -0.015
      -0.038
      -0.139
      -0.224
      -0.154
       0.102
       0.396
       0.500
       0.293
      -0.135
      -0.536
      -0.656
      -0.399
       0.113
       0.591
       0.751
       0.507
       0.051
      -0.267
      -0.210
       0.146
       0.462
       0.419
      -0.009
      -0.558
      -0.919
      -0.951
      -0.687
      -0.217
       0.336
       0.773
       0.867
       0.543
       0.006
      -0.374
      -0.340
       0.065
       0.561
       0.836
       0.720
       0.242
      -0.401
      -0.926
      -1.109
      -0.905
      -0.451
       0.066
       0.535
       0.925
       1.179
       1.176
       0.799
       0.083
      -0.733
      -1.309
      -1.389
      -0.942
      -0.176
       0.562
       0.961
       0.913
       0.556
       0.155
      -0.097
      -0.187
      -0.217
      -0.248
      -0.229
      -0.083
       0.152
       0.337
       0.357
