Origin Time       24/2/2010 19:20:52	 UTC
Lat.              28.6 N	
Long.             76.9 E	
Depth (Km)         17.0
Magnitude         2.5
 Region           Rohtak                                                           
 Above details taken from IMD 
    
Station Code      DU_
Station Lat.       28.691  N
Station Long.      77.212  E
Station Height(m)  220.0
Site Class        C   Vs30 between 200 m/sec to 375 m/sec *  
Record Time       24.02.2010 19:19:33.244 UTC
Sampling Rate     200. Hz
 Record Duration   81.140 Sec.
 Direction         N-S (N positive)
Max. Acceleration      3.162 cm/sec**2
     
  * For reference see Site Classification link of website 
     
 Base Line Corrected and Low Pass Filtered (Cut Off at 35 Hz) Time History
 Acceleration data in cm/sec**2
    
[...]
      -0.095
      -0.100
      -0.082
      -0.037
       0.018
       0.060
       0.076
       0.074
       0.076
       0.095
       0.118
       0.116
       0.069
      -0.002
      -0.052
      -0.057
      -0.035
      -0.016
      -0.014
      -0.018
      -0.015
      -0.004
       0.005
       0.006
      -0.005
      -0.024
      -0.046
      -0.063
      -0.070
      -0.060
      -0.035
       0.004
       0.054
       0.102
       0.129
       0.119
       0.076
       0.023
      -0.009
       0.001
       0.037
       0.065
       0.059
       0.026
      -0.005
      -0.016
      -0.008
       0.001
      -0.002
      -0.016
      -0.033
      -0.043
      -0.046
      -0.045
      -0.041
      -0.028
       0.000
       0.042
       0.082
       0.100
       0.086
       0.054
       0.027
       0.025
       0.039
       0.042
       0.012
      -0.034
      -0.058
      -0.041
      -0.002
       0.022
       0.014
      -0.012
      -0.030
      -0.026
      -0.008
       0.007
       0.007
      -0.014
      -0.049
      -0.084
      -0.099
      -0.082
      -0.036
       0.028
       0.095
       0.146
       0.164
       0.142
       0.091
       0.040
       0.014
       0.025
       0.053
       0.062
       0.035
      -0.011
      -0.043
      -0.045
      -0.025
      -0.006
      -0.001
      -0.011
      -0.024
      -0.030
      -0.026
      -0.019
      -0.013
      -0.010
      -0.007
      -0.001
       0.006
       0.009
       0.010
       0.018
       0.043
       0.090
       0.138
       0.154
       0.112
       0.031
      -0.037
      -0.049
      -0.011
       0.028
       0.029
      -0.013
      -0.069
      -0.104
      -0.100
      -0.062
      -0.011
       0.026
       0.030
      -0.006
      -0.064
      -0.112
      -0.118
      -0.065
       0.033
       0.131
       0.179
       0.149
       0.061
      -0.030
      -0.063
      -0.017
       0.077
       0.149
       0.149
       0.081
      -0.007
      -0.065
      -0.074
      -0.044
      -0.001
       0.029
       0.034
       0.010
      -0.035
      -0.083
      -0.114
      -0.106
      -0.056
       0.020
       0.085
       0.105
       0.076
       0.026
       0.002
       0.031
       0.097
       0.145
       0.124
       0.033
      -0.069
      -0.121
      -0.103
      -0.043
       0.017
       0.053
       0.060
       0.046
       0.020
      -0.005
      -0.020
      -0.021
      -0.016
      -0.019
      -0.040
      -0.077
      -0.109
      -0.110
      -0.061
       0.029
       0.124
       0.179
       0.171
       0.112
       0.042
      -0.001
       0.000
       0.025
       0.045
       0.047
       0.035
       0.016
      -0.008
      -0.035
      -0.055
      -0.056
      -0.037
      -0.011
       0.001
      -0.014
      -0.046
      -0.072
      -0.069
      -0.030
       0.030
       0.081
       0.099
       0.083
       0.057
       0.046
       0.057
       0.073
       0.065
       0.031
      -0.002
      -0.007
       0.014
       0.033
       0.029
       0.006
      -0.014
      -0.019
      -0.014
      -0.016
      -0.033
      -0.063
      -0.096
      -0.118
      -0.119
      -0.100
      -0.063
      -0.014
       0.044
       0.103
       0.145
       0.154
       0.124
       0.072
       0.023
       0.003
       0.012
       0.024
       0.015
      -0.007
      -0.016
       0.002
       0.033
       0.047
       0.027
      -0.014
      -0.051
      -0.066
      -0.063
      -0.056
      -0.056
      -0.059
      -0.054
      -0.036
      -0.009
       0.017
       0.034
       0.045
       0.057
       0.077
       0.103
       0.117
       0.098
       0.046
      -0.008
      -0.030
      -0.015
       0.007
       0.008
      -0.015
      -0.045
      -0.064
      -0.066
      -0.057
      -0.044
      -0.032
      -0.025
      -0.022
      -0.023
      -0.023
      -0.013
       0.012
       0.052
       0.099
       0.131
       0.129
       0.092
       0.041
       0.008
       0.014
       0.052
       0.085
       0.079
       0.033
      -0.021
      -0.047
      -0.037
      -0.015
      -0.005
      -0.019
      -0.042
      -0.057
      -0.057
      -0.054
      -0.057
      -0.066
      -0.062
      -0.030
       0.029
       0.085
       0.098
       0.055
      -0.013
      -0.050
      -0.025
       0.037
       0.070
       0.025
      -0.077
      -0.166
      -0.186
      -0.137
      -0.059
       0.001
       0.019
       0.002
      -0.019
      -0.012
       0.028
       0.069
       0.064
      -0.004
      -0.101
      -0.164
      -0.143
      -0.025
       0.160
       0.355
       0.496
       0.527
       0.437
       0.269
       0.107
       0.031
       0.058
       0.117
       0.105
      -0.031
      -0.249
      -0.448
      -0.525
      -0.439
      -0.236
      -0.029
       0.075
       0.058
      -0.008
      -0.041
      -0.030
      -0.025
      -0.061
      -0.110
      -0.117
      -0.061
       0.017
       0.056
       0.029
      -0.023
      -0.026
       0.053
       0.157
       0.198
       0.153
       0.081
       0.048
       0.056
       0.049
      -0.015
      -0.103
      -0.136
      -0.054
       0.108
       0.233
       0.216
       0.060
      -0.113
      -0.172
      -0.092
       0.020
       0.042
      -0.045
      -0.146
      -0.151
      -0.047
       0.074
       0.088
      -0.050
      -0.254
      -0.349
      -0.210
       0.115
       0.422
       0.504
       0.318
       0.026
      -0.142
      -0.089
       0.078
       0.162
       0.065
      -0.138
      -0.304
      -0.347
      -0.274
      -0.116
       0.115
       0.379
       0.550
       0.469
       0.096
      -0.398
      -0.705
      -0.606
      -0.146
       0.386
       0.662
       0.550
       0.183
      -0.169
      -0.300
      -0.186
       0.041
       0.207
       0.203
       0.027
      -0.237
      -0.470
      -0.580
      -0.541
      -0.388
      -0.177
       0.044
       0.229
       0.339
       0.366
       0.341
       0.308
       0.282
       0.244
       0.169
       0.068
      -0.006
       0.000
       0.079
       0.161
       0.161
       0.030
      -0.208
      -0.435
      -0.492
      -0.301
       0.028
       0.253
       0.198
      -0.069
      -0.285
      -0.216
       0.125
       0.491
       0.618
       0.439
       0.112
      -0.154
      -0.268
      -0.279
      -0.260
      -0.223
      -0.136
      -0.003
       0.108
       0.115
      -0.015
      -0.239
      -0.430
      -0.438
      -0.203
       0.170
       0.471
       0.544
       0.385
       0.111
      -0.150
      -0.329
      -0.402
      -0.356
      -0.195
       0.024
       0.179
       0.151
      -0.059
      -0.284
      -0.305
      -0.052
       0.311
       0.514
       0.424
       0.151
      -0.060
      -0.050
       0.145
       0.348
       0.389
       0.221
      -0.063
      -0.315
      -0.438
      -0.443
      -0.401
      -0.342
      -0.231
      -0.039
       0.183
       0.336
       0.376
       0.350
       0.317
       0.261
       0.110
      -0.159
      -0.449
      -0.597
      -0.488
      -0.134
       0.316
       0.650
       0.687
       0.398
      -0.049
      -0.384
      -0.426
      -0.216
       0.028
       0.097
      -0.055
      -0.294
      -0.422
      -0.341
      -0.117
       0.085
       0.148
       0.086
       0.013
       0.014
       0.075
       0.119
       0.109
       0.086
       0.099
       0.134
       0.143
       0.116
       0.087
       0.079
       0.075
       0.039
      -0.045
      -0.155
      -0.249
      -0.279
      -0.223
      -0.085
       0.101
       0.271
       0.352
       0.304
       0.160
       0.013
      -0.059
      -0.052
      -0.035
      -0.088
      -0.222
      -0.353
      -0.364
      -0.223
      -0.036
       0.027
      -0.113
      -0.349
      -0.460
      -0.296
       0.092
       0.483
       0.665
       0.584
       0.351
       0.125
      -0.007
      -0.058
      -0.083
      -0.113
      -0.131
      -0.101
      -0.033
       0.009
      -0.027
      -0.098
      -0.093
       0.038
       0.210
       0.285
       0.209
       0.056
      -0.056
      -0.071
      -0.016
       0.037
       0.033
      -0.044
      -0.165
      -0.258
      -0.257
      -0.149
       0.012
       0.146
       0.195
       0.140
       0.001
      -0.165
      -0.287
      -0.313
      -0.227
      -0.045
       0.174
       0.336
       0.369
       0.299
       0.233
       0.227
       0.207
       0.062
      -0.193
      -0.392
      -0.374
      -0.153
       0.102
       0.226
       0.176
       0.017
      -0.165
      -0.291
      -0.295
      -0.146
       0.087
       0.248
       0.220
       0.032
      -0.166
      -0.259
      -0.259
      -0.247
      -0.248
      -0.209
      -0.073
       0.132
       0.297
       0.313
       0.160
      -0.070
      -0.230
      -0.209
       0.014
       0.350
       0.626
       0.680
       0.467
       0.109
      -0.191
      -0.307
      -0.286
      -0.280
      -0.370
      -0.474
      -0.435
      -0.202
       0.106
       0.319
       0.369
       0.311
       0.236
       0.176
       0.109
       0.012
      -0.097
      -0.167
      -0.163
      -0.095
      -0.025
      -0.027
      -0.116
      -0.208
      -0.175
       0.024
       0.264
       0.339
       0.144
      -0.218
      -0.513
      -0.566
      -0.385
      -0.113
       0.110
       0.233
       0.279
       0.272
       0.234
       0.200
       0.194
       0.185
       0.101
      -0.077
      -0.244
      -0.227
       0.041
       0.402
       0.568
       0.343
      -0.205
      -0.784
      -1.075
      -0.931
      -0.443
       0.153
       0.626
       0.845
       0.799
       0.557
       0.238
      -0.041
      -0.219
      -0.316
      -0.388
      -0.450
      -0.451
      -0.325
      -0.055
       0.311
       0.662
       0.841
       0.702
       0.226
      -0.401
      -0.868
      -0.945
      -0.634
      -0.137
       0.314
       0.586
       0.654
       0.552
       0.338
       0.091
      -0.104
      -0.192
      -0.181
      -0.142
      -0.148
      -0.203
      -0.231
      -0.166
      -0.052
      -0.029
      -0.164
      -0.329
      -0.291
       0.045
       0.491
       0.717
       0.545
       0.127
      -0.199
      -0.227
      -0.048
       0.077
       0.002
      -0.181
      -0.263
      -0.156
       0.024
       0.083
      -0.036
      -0.191
      -0.195
      -0.033
       0.121
       0.101
      -0.033
      -0.035
       0.232
       0.576
       0.609
       0.136
      -0.595
      -1.067
      -0.926
      -0.276
       0.411
       0.667
       0.385
      -0.130
      -0.433
      -0.308
       0.085
       0.398
       0.415
       0.196
      -0.035
      -0.102
       0.001
       0.143
       0.173
       0.047
      -0.140
      -0.238
      -0.175
      -0.007
       0.128
       0.135
       0.037
      -0.051
      -0.028
       0.115
       0.286
       0.356
       0.247
      -0.009
      -0.265
      -0.348
      -0.216
      -0.017
       0.027
      -0.158
      -0.405
      -0.464
      -0.250
       0.076
       0.274
       0.254
       0.122
       0.016
      -0.059
      -0.181
      -0.335
      -0.372
      -0.165
       0.219
       0.546
       0.606
       0.386
       0.074
      -0.091
      -0.032
       0.105
       0.102
      -0.086
      -0.265
      -0.198
       0.124
       0.454
       0.513
       0.249
      -0.145
      -0.429
      -0.520
      -0.511
      -0.520
      -0.554
      -0.523
      -0.339
      -0.004
       0.393
       0.734
       0.920
       0.897
       0.667
       0.283
      -0.151
      -0.500
      -0.638
      -0.543
      -0.334
      -0.191
      -0.182
      -0.195
      -0.071
       0.195
       0.415
       0.373
       0.055
      -0.300
      -0.382
      -0.081
       0.403
       0.718
       0.645
       0.260
      -0.155
      -0.351
      -0.292
      -0.135
      -0.055
      -0.090
      -0.146
      -0.137
      -0.104
      -0.148
      -0.265
      -0.290
      -0.079
       0.282
       0.497
       0.330
      -0.163
      -0.671
      -0.907
      -0.817
      -0.566
      -0.334
      -0.158
       0.049
       0.339
       0.604
       0.642
       0.359
      -0.079
      -0.342
      -0.202
       0.267
       0.767
       1.024
       0.972
       0.714
       0.365
      -0.031
      -0.430
      -0.713
      -0.746
      -0.512
      -0.137
       0.247
       0.577
       0.794
       0.768
       0.408
      -0.159
      -0.597
      -0.622
      -0.248
       0.207
       0.349
      -0.020
      -0.738
      -1.340
      -1.353
      -0.625
       0.566
       1.666
       2.125
       1.667
       0.436
      -1.043
      -2.138
      -2.437
      -1.921
      -0.902
       0.170
       0.904
       1.114
       0.881
       0.492
       0.244
       0.244
       0.355
       0.335
       0.058
      -0.363
      -0.654
      -0.622
      -0.347
      -0.113
      -0.129
      -0.307
      -0.351
      -0.067
       0.442
       0.874
       0.985
       0.747
       0.337
       0.020
       0.003
       0.309
       0.722
       0.890
       0.536
      -0.361
      -1.519
      -2.448
      -2.641
      -1.814
      -0.122
       1.809
       3.119
       3.162
       1.899
      -0.050
      -1.747
      -2.452
      -1.962
      -0.628
       0.890
       1.925
       2.045
       1.216
      -0.174
      -1.483
      -2.145
      -1.949
      -1.078
       0.078
       1.127
       1.801
       1.964
       1.584
       0.721
      -0.433
      -1.525
      -2.117
      -1.926
      -1.077
      -0.122
       0.297
      -0.079
      -0.879
      -1.339
      -0.852
       0.557
       2.189
       3.105
       2.744
       1.269
      -0.544
      -1.765
      -1.827
      -0.831
       0.502
       1.252
       0.896
      -0.309
      -1.501
      -1.826
      -1.060
       0.257
       1.264
       1.435
       0.910
       0.244
      -0.126
      -0.181
      -0.154
      -0.197
      -0.243
      -0.142
       0.145
       0.487
       0.662
       0.504
       0.038
      -0.498
      -0.803
      -0.740
      -0.448
      -0.196
      -0.124
      -0.126
      -0.010
       0.245
       0.422
       0.299
      -0.088
      -0.480
      -0.671
      -0.701
      -0.739
      -0.830
      -0.785
      -0.356
       0.469
       1.341
       1.773
       1.507
       0.702
      -0.204
      -0.802
      -0.935
      -0.711
      -0.364
      -0.077
       0.118
       0.305
       0.541
       0.740
       0.723
       0.406
      -0.059
      -0.359
      -0.258
       0.195
       0.684
       0.829
       0.438
      -0.346
      -1.110
      -1.435
      -1.181
      -0.578
      -0.020
       0.241
       0.263
       0.281
       0.410
       0.485
       0.243
      -0.299
      -0.710
      -0.497
       0.370
       1.325
       1.644
       1.056
      -0.061
      -1.027
      -1.396
      -1.185
      -0.694
      -0.174
       0.308
       0.750
       1.046
       0.980
       0.402
      -0.579
      -1.550
      -1.967
      -1.508
      -0.357
       0.848
       1.411
       1.058
       0.124
      -0.707
      -0.892
      -0.362
       0.521
       1.263
       1.495
       1.074
       0.105
      -1.025
      -1.724
      -1.487
      -0.305
       1.201
       2.129
       1.934
       0.795
      -0.570
      -1.464
      -1.629
      -1.277
      -0.806
      -0.491
      -0.348
      -0.223
       0.011
       0.322
       0.565
       0.628
       0.509
       0.304
       0.157
       0.202
       0.457
       0.718
       0.628
      -0.031
      -1.063
      -1.893
      -1.928
      -1.000
       0.479
       1.773
       2.307
       2.007
       1.220
       0.338
      -0.469
      -1.192
      -1.759
      -1.949
      -1.558
      -0.652
       0.377
       1.013
       0.954
       0.311
      -0.458
      -0.848
      -0.618
       0.106
       0.972
       1.624
       1.829
       1.508
       0.744
      -0.207
      -0.987
      -1.290
      -1.022
      -0.368
       0.287
       0.571
       0.335
      -0.264
      -0.865
      -1.107
      -0.818
      -0.117
       0.622
       0.979
       0.779
       0.241
      -0.197
      -0.245
       0.005
       0.210
       0.111
      -0.264
      -0.661
      -0.819
      -0.648
      -0.283
       0.026
       0.110
       0.001
      -0.122
      -0.108
       0.044
       0.209
       0.256
       0.151
      -0.036
      -0.177
      -0.137
       0.162
       0.665
       1.151
       1.335
       1.039
       0.328
      -0.484
      -0.996
      -0.986
      -0.578
      -0.162
      -0.090
      -0.400
      -0.792
      -0.870
      -0.467
       0.219
       0.793
       0.977
       0.783
       0.413
       0.047
      -0.234
      -0.377
      -0.312
      -0.035
       0.284
       0.398
       0.201
      -0.180
      -0.542
      -0.794
      -0.958
      -1.019
      -0.853
      -0.332
       0.496
       1.339
       1.779
       1.528
       0.646
      -0.458
      -1.249
      -1.365
      -0.801
       0.122
       0.926
       1.199
       0.773
      -0.156
      -1.087
      -1.482
      -1.128
      -0.303
       0.438
       0.712
       0.598
       0.493
       0.699
       1.127
       1.397
       1.186
       0.489
      -0.408
      -1.142
      -1.489
      -1.422
      -1.045
      -0.502
       0.050
       0.444
       0.532
       0.270
      -0.194
      -0.534
      -0.414
       0.214
       0.976
       1.294
       0.850
      -0.122
      -1.001
      -1.252
      -0.791
       0.010
       0.617
       0.687
       0.260
      -0.306
      -0.616
      -0.516
      -0.138
       0.262
       0.501
       0.527
       0.375
       0.133
      -0.076
      -0.154
      -0.093
       0.033
       0.143
       0.201
       0.195
       0.107
      -0.078
      -0.304
      -0.435
      -0.331
       0.024
       0.460
       0.693
       0.509
      -0.071
      -0.774
      -1.244
      -1.268
      -0.905
      -0.415
      -0.039
       0.178
       0.351
       0.551
       0.690
       0.639
       0.424
       0.232
       0.197
       0.249
       0.203
      -0.034
      -0.351
      -0.532
      -0.455
      -0.201
       0.035
       0.148
       0.225
       0.431
       0.780
       1.048
       0.949
       0.382
      -0.468
      -1.243
      -1.623
      -1.485
      -0.955
      -0.312
       0.198
       0.512
       0.727
       0.939
       1.102
       1.073
       0.755
       0.210
      -0.375
      -0.799
      -0.953
      -0.849
      -0.598
      -0.340
      -0.166
      -0.071
       0.043
       0.283
       0.646
       0.961
       0.984
       0.602
      -0.050
      -0.673
      -1.026
      -1.046
      -0.800
      -0.381
       0.139
       0.666
       1.067
       1.199
       0.962
       0.357
      -0.462
      -1.188
      -1.479
      -1.157
      -0.357
       0.518
       1.047
       1.058
       0.702
       0.295
