Origin Time       11/11/2013 20:11:30
Lat.              28.4 N	
Long.             77.2 E	
Depth (Km)         10.0
Magnitude         3.3
 Region           DELHI                                                            
 Above details taken from IMD 
     
Station Code      VCD
Station Lat.       28.589  N
Station Long.      77.168  E
Station Height(m)  272.0
Site Class        C   Vs30 between 200 m/sec to 375 m/sec *  
Record Time       11.11.2013 20:11:07.144
Sampling Rate     200. Hz
 Record Duration   92.965 Sec.
 Direction         E-W (E positive)
Max. Acceleration     15.736 cm/sec**2
     
  * For reference see Site Classification link of website 
     
 Base Line Corrected and Low Pass Filtered (Cut Off at 35 Hz) Time History
 Acceleration data in cm/sec**2
    
[...]
       0.001
       0.011
       0.016
       0.012
       0.000
      -0.014
      -0.023
      -0.022
      -0.011
       0.003
       0.014
       0.016
       0.012
       0.007
       0.006
       0.013
       0.022
       0.027
       0.025
       0.016
       0.004
      -0.008
      -0.017
      -0.021
      -0.020
      -0.013
      -0.002
       0.010
       0.019
       0.021
       0.017
       0.010
       0.001
      -0.006
      -0.014
      -0.019
      -0.022
      -0.019
      -0.009
       0.005
       0.017
       0.023
       0.021
       0.012
      -0.001
      -0.012
      -0.019
      -0.019
      -0.015
      -0.010
      -0.006
      -0.005
      -0.002
       0.003
       0.012
       0.021
       0.026
       0.023
       0.015
       0.006
      -0.001
      -0.003
       0.000
       0.005
       0.011
       0.014
       0.010
       0.001
      -0.010
      -0.018
      -0.018
      -0.010
       0.002
       0.013
       0.017
       0.017
       0.014
       0.010
       0.005
      -0.004
      -0.014
      -0.021
      -0.020
      -0.013
      -0.003
       0.006
       0.012
       0.016
       0.018
       0.016
       0.011
       0.004
      -0.002
      -0.006
      -0.006
      -0.001
       0.005
       0.009
       0.009
       0.003
      -0.008
      -0.020
      -0.026
      -0.024
      -0.014
      -0.001
       0.011
       0.016
       0.013
       0.003
      -0.007
      -0.016
      -0.020
      -0.022
      -0.023
      -0.021
      -0.015
      -0.007
       0.005
       0.021
       0.037
       0.049
       0.048
       0.034
       0.012
      -0.008
      -0.018
      -0.019
      -0.014
      -0.010
      -0.007
      -0.006
      -0.006
      -0.007
      -0.007
      -0.002
       0.007
       0.017
       0.023
       0.020
       0.012
       0.002
      -0.001
       0.004
       0.012
       0.018
       0.018
       0.012
       0.002
      -0.010
      -0.024
      -0.036
      -0.040
      -0.030
      -0.007
       0.021
       0.042
       0.047
       0.038
       0.022
       0.008
      -0.001
      -0.006
      -0.008
      -0.008
      -0.004
       0.004
       0.011
       0.013
       0.007
      -0.007
      -0.023
      -0.038
      -0.045
      -0.043
      -0.030
      -0.013
       0.006
       0.022
       0.033
       0.038
       0.034
       0.023
       0.010
       0.000
      -0.006
      -0.008
      -0.010
      -0.014
      -0.017
      -0.017
      -0.010
       0.002
       0.013
       0.021
       0.025
       0.027
       0.027
       0.022
       0.013
       0.004
      -0.002
      -0.001
       0.003
       0.005
       0.004
       0.002
       0.001
       0.004
       0.008
       0.009
       0.007
       0.004
       0.002
       0.005
       0.015
       0.028
       0.040
       0.044
       0.038
       0.024
       0.005
      -0.013
      -0.023
      -0.021
      -0.009
       0.010
       0.025
       0.033
       0.031
       0.025
       0.019
       0.015
       0.011
       0.005
      -0.001
      -0.005
      -0.006
      -0.006
      -0.003
       0.001
       0.003
      -0.001
      -0.010
      -0.022
      -0.028
      -0.023
      -0.006
       0.017
       0.038
       0.051
       0.053
       0.041
       0.018
      -0.010
      -0.035
      -0.048
      -0.047
      -0.037
      -0.025
      -0.016
      -0.006
       0.007
       0.026
       0.044
       0.055
       0.055
       0.045
       0.030
       0.013
      -0.001
      -0.009
      -0.012
      -0.009
      -0.002
       0.007
       0.016
       0.021
       0.019
       0.011
       0.001
      -0.007
      -0.011
      -0.008
       0.001
       0.012
       0.023
       0.029
       0.030
       0.024
       0.014
       0.003
      -0.003
      -0.003
       0.003
       0.010
       0.013
       0.013
       0.013
       0.013
       0.010
       0.005
      -0.002
      -0.004
       0.004
       0.021
       0.043
       0.060
       0.063
       0.048
       0.020
      -0.009
      -0.028
      -0.033
      -0.028
      -0.019
      -0.010
      -0.002
       0.008
       0.019
       0.029
       0.032
       0.029
       0.021
       0.013
       0.004
      -0.005
      -0.016
      -0.024
      -0.025
      -0.015
       0.004
       0.026
       0.041
       0.044
       0.036
       0.021
       0.006
      -0.004
      -0.006
      -0.001
       0.007
       0.013
       0.018
       0.020
       0.022
       0.021
       0.015
       0.004
      -0.006
      -0.008
       0.002
       0.019
       0.033
       0.036
       0.028
       0.017
       0.008
       0.003
       0.001
       0.000
       0.001
       0.005
       0.010
       0.017
       0.022
       0.028
       0.032
       0.035
       0.033
       0.026
       0.016
       0.007
       0.001
      -0.002
      -0.004
      -0.005
      -0.004
       0.002
       0.013
       0.026
       0.033
       0.031
       0.023
       0.014
       0.009
       0.009
       0.013
       0.019
       0.023
       0.023
       0.015
      -0.001
      -0.017
      -0.024
      -0.018
      -0.004
       0.010
       0.016
       0.015
       0.013
       0.016
       0.027
       0.045
       0.060
       0.062
       0.047
       0.022
      -0.003
      -0.017
      -0.019
      -0.013
      -0.003
       0.005
       0.011
       0.014
       0.012
       0.006
      -0.002
      -0.007
      -0.007
      -0.005
      -0.004
      -0.005
      -0.006
      -0.001
       0.013
       0.032
       0.047
       0.050
       0.040
       0.021
      -0.001
      -0.024
      -0.046
      -0.061
      -0.066
      -0.052
      -0.021
       0.022
       0.063
       0.089
       0.095
       0.083
       0.059
       0.029
       0.002
      -0.020
      -0.035
      -0.041
      -0.038
      -0.025
      -0.004
       0.019
       0.038
       0.050
       0.051
       0.040
       0.019
      -0.005
      -0.027
      -0.041
      -0.045
      -0.039
      -0.025
      -0.003
       0.025
       0.055
       0.079
       0.089
       0.079
       0.050
       0.014
      -0.017
      -0.034
      -0.039
      -0.033
      -0.021
      -0.006
       0.007
       0.014
       0.014
       0.011
       0.010
       0.012
       0.016
       0.019
       0.022
       0.024
       0.028
       0.031
       0.033
       0.031
       0.029
       0.028
       0.028
       0.025
       0.020
       0.015
       0.012
       0.013
       0.016
       0.014
       0.007
      -0.005
      -0.019
      -0.030
      -0.030
      -0.018
       0.003
       0.026
       0.043
       0.050
       0.046
       0.032
       0.015
       0.001
      -0.005
      -0.002
       0.006
       0.014
       0.019
       0.021
       0.024
       0.028
       0.031
       0.029
       0.024
       0.017
       0.012
       0.006
       0.001
      -0.004
      -0.004
       0.000
       0.007
       0.010
       0.007
       0.000
       0.000
       0.010
       0.027
       0.040
       0.042
       0.035
       0.026
       0.021
       0.019
       0.017
       0.012
       0.008
       0.005
       0.005
       0.003
      -0.001
      -0.005
      -0.006
      -0.003
       0.004
       0.014
       0.025
       0.029
       0.018
      -0.004
      -0.022
      -0.011
       0.023
       0.033
      -0.043
      -0.210
      -0.360
      -0.325
      -0.036
       0.353
       0.538
       0.354
      -0.015
      -0.161
       0.112
       0.499
       0.438
      -0.283
      -1.180
      -1.410
      -0.530
       1.028
       2.219
       2.167
       0.793
      -1.156
      -2.574
      -2.621
      -1.216
       0.850
       2.373
       2.546
       1.476
      -0.048
      -1.199
      -1.593
      -1.317
      -0.676
       0.054
       0.700
       1.147
       1.284
       1.020
       0.322
      -0.720
      -1.754
      -2.207
      -1.676
      -0.330
       1.166
       2.110
       2.073
       1.003
      -0.674
      -2.040
      -2.112
      -0.608
       1.610
       2.965
       2.294
      -0.192
      -2.910
      -3.983
      -2.588
       0.467
       3.312
       4.266
       2.870
       0.091
      -2.398
      -3.286
      -2.261
       0.020
       2.316
       3.306
       2.277
      -0.231
      -2.544
      -3.033
      -1.405
       1.076
       2.656
       2.417
       0.755
      -1.215
      -2.602
      -3.126
      -2.836
      -1.792
      -0.137
       1.726
       3.261
       4.016
       3.663
       2.028
      -0.590
      -3.177
      -4.430
      -3.678
      -1.440
       0.912
       2.122
       1.909
       1.024
       0.494
       0.703
       1.137
       0.988
       0.022
      -1.141
      -1.634
      -1.257
      -0.657
      -0.508
      -0.652
      -0.264
       1.111
       2.844
       3.609
       2.496
      -0.168
      -2.932
      -4.189
      -3.299
      -1.019
       1.093
       1.844
       1.195
       0.041
      -0.696
      -0.699
      -0.129
       0.803
       1.897
       2.671
       2.367
       0.565
      -2.141
      -4.261
      -4.422
      -2.398
       0.744
       3.402
       4.373
       3.346
       0.920
      -1.695
      -3.235
      -3.074
      -1.594
       0.144
       1.225
       1.445
       1.205
       0.952
       0.792
       0.546
       0.101
      -0.389
      -0.643
      -0.579
      -0.417
      -0.399
      -0.484
      -0.429
      -0.191
      -0.067
      -0.304
      -0.629
      -0.392
       0.726
       2.180
       2.833
       1.892
      -0.276
      -2.302
      -2.958
      -2.139
      -0.698
       0.507
       1.174
       1.345
       1.057
       0.443
      -0.075
      -0.028
       0.528
       0.892
       0.370
      -0.913
      -2.002
      -2.002
      -0.938
       0.358
       1.156
       1.428
       1.518
       1.461
       0.844
      -0.594
      -2.362
      -3.392
      -2.894
      -1.030
       1.275
       3.059
       3.831
       3.560
       2.439
       0.723
      -1.282
      -3.129
      -4.183
      -3.806
      -1.814
       1.124
       3.637
       4.464
       3.313
       0.970
      -1.432
      -3.125
      -3.770
      -3.191
      -1.465
       0.738
       2.267
       2.249
       0.865
      -0.691
      -1.173
      -0.333
       0.927
       1.386
       0.549
      -0.967
      -1.950
      -1.558
       0.024
       1.724
       2.411
       1.768
       0.465
      -0.499
      -0.617
      -0.139
       0.300
       0.216
      -0.394
      -1.055
      -1.170
      -0.527
       0.462
       1.085
       0.937
       0.210
      -0.534
      -0.801
      -0.488
       0.077
       0.417
       0.322
       0.001
      -0.175
      -0.073
       0.078
      -0.054
      -0.475
      -0.751
      -0.445
       0.338
       0.981
       0.931
       0.173
      -0.805
      -1.388
      -1.192
      -0.222
       1.122
       2.138
       2.128
       0.947
      -0.698
      -1.706
      -1.511
      -0.547
       0.294
       0.566
       0.525
       0.614
       0.912
       1.106
       0.871
       0.187
      -0.697
      -1.516
      -2.089
      -2.223
      -1.678
      -0.373
       1.366
       2.800
       3.142
       2.057
      -0.024
      -2.041
      -2.935
      -2.377
      -0.962
       0.319
       0.849
       0.725
       0.474
       0.514
       0.833
       1.060
       0.771
      -0.149
      -1.277
      -1.815
      -1.208
       0.260
       1.561
       1.781
       0.942
      -0.036
      -0.202
       0.549
       1.388
       1.268
      -0.137
      -2.066
      -3.198
      -2.686
      -0.798
       1.406
       2.911
       3.258
       2.476
       0.848
      -1.163
      -2.955
      -3.927
      -3.657
      -2.043
       0.549
       3.192
       4.634
       3.940
       1.218
      -2.192
      -4.390
      -4.127
      -1.700
       1.235
       2.869
       2.502
       0.863
      -0.695
      -1.297
      -0.951
      -0.137
       0.773
       1.643
       2.285
       2.277
       1.201
      -0.830
      -2.915
      -3.836
      -3.004
      -0.965
       1.127
       2.445
       2.818
       2.378
       1.324
       0.017
      -1.097
      -1.825
      -2.268
      -2.425
      -1.943
      -0.506
       1.544
       3.150
       3.244
       1.604
      -0.916
      -2.945
      -3.408
      -2.055
       0.463
       2.938
       4.242
       3.939
       2.434
       0.571
      -0.919
      -1.649
      -1.455
      -0.282
       1.657
       3.674
       4.796
       4.335
       2.306
      -0.715
      -4.020
      -6.940
      -8.761
      -8.840
      -7.108
      -4.384
      -1.930
      -0.542
      -0.088
       0.070
       0.342
       0.662
       0.794
       0.749
       0.906
       1.801
       3.718
       6.245
       8.149
       7.983
       5.234
       1.035
      -2.422
      -3.420
      -1.793
       1.263
       4.127
       5.497
       4.798
       2.486
      -0.110
      -1.739
      -2.263
      -2.626
      -3.785
      -5.837
      -8.087
      -9.591
      -9.513
      -7.337
      -3.230
       1.660
       5.446
       6.417
       4.173
       0.226
      -2.681
      -2.493
       0.413
       3.530
       4.495
       2.984
       0.333
      -2.206
      -4.290
      -5.716
      -5.529
      -2.460
       3.598
      10.665
      15.509
      15.736
      11.311
       4.215
      -3.083
      -8.619
     -10.879
      -8.892
      -3.184
       3.608
       7.916
       7.597
       3.339
      -2.063
      -5.839
      -7.123
      -7.148
      -7.596
      -8.616
      -8.543
      -5.569
       0.334
       6.885
      10.705
       9.575
       4.269
      -1.709
      -4.575
      -2.823
       2.138
       7.286
       9.906
       9.032
       5.716
       1.875
      -1.500
      -4.991
      -9.315
     -13.415
     -14.679
     -11.539
      -5.634
      -0.842
       0.159
      -1.610
      -2.410
       0.701
       7.094
      12.986
      14.594
      11.275
       5.841
       1.850
       0.575
       0.507
      -0.517
      -3.004
      -5.479
      -6.047
      -4.130
      -0.967
       1.288
       1.169
      -0.933
      -3.074
      -3.426
      -1.796
       0.412
       1.654
       1.618
       1.322
       1.956
       3.530
       4.579
       3.479
       0.339
      -2.647
      -3.189
      -1.215
       1.151
       1.892
       0.973
      -0.173
      -0.521
      -0.392
      -0.636
      -1.401
      -2.010
      -2.002
      -1.939
      -2.846
      -4.831
      -6.633
      -6.697
      -4.487
      -0.715
       3.289
       6.220
       7.148
       5.766
       2.655
      -0.604
      -1.954
      -0.212
       3.671
       6.925
       7.033
       3.801
      -0.599
      -3.588
      -4.234
      -3.547
      -2.973
      -2.730
      -1.738
       0.767
       3.744
       4.875
       2.907
      -0.651
      -2.702
      -1.635
       1.083
       2.603
       1.664
      -0.457
      -1.783
      -1.869
      -1.947
      -3.138
      -4.967
      -5.745
      -4.212
      -0.761
       2.781
       4.499
       3.757
       1.577
      -0.269
      -0.768
      -0.393
      -0.278
      -0.719
      -0.782
       0.552
       3.079
       5.292
       5.521
       3.253
      -0.408
      -3.569
      -4.950
      -4.442
      -2.388
       1.145
       5.783
       9.770
      10.395
       6.200
      -1.344
      -8.721
     -12.924
     -13.118
     -10.244
      -5.710
      -0.851
       2.800
       3.743
       1.754
      -1.256
      -2.379
      -0.217
       3.773
       6.627
       6.560
       4.383
       2.533
       2.883
       5.194
       7.272
       6.622
       2.405
      -3.730
      -8.697
     -10.210
      -8.277
      -4.653
      -1.127
       1.389
       2.505
       1.959
       0.042
      -2.003
      -2.665
      -1.448
       0.741
       2.516
       3.141
       2.782
       1.963
       1.012
      -0.013
      -0.973
      -1.383
      -0.681
       1.170
       3.401
       4.801
       4.373
       1.856
      -1.981
      -5.453
      -6.763
      -5.231
      -1.904
       1.195
       2.563
       2.110
       0.757
      -0.615
      -1.682
      -2.367
      -2.422
      -1.509
       0.432
       2.899
       4.772
       4.690
       1.986
      -2.426
      -6.231
      -7.232
      -5.064
      -1.449
       1.347
       2.347
       2.188
       1.922
       1.873
       1.766
       1.594
       1.856
       2.768
       3.594
       3.185
       1.223
      -1.277
      -2.797
      -2.574
      -1.042
       0.796
       2.201
       2.922
       2.850
       1.801
      -0.244
      -2.832
      -5.078
      -6.063
      -5.308
      -3.094
      -0.412
       1.554
       2.167
       1.763
       1.275
       1.244
       1.191
       0.141
      -2.089
      -4.280
      -4.640
      -2.300
       1.922
       5.980
       7.771
       6.289
       2.294
      -1.965
      -4.064
      -3.012
       0.169
       3.324
       4.641
       3.590
       0.921
      -1.963
      -3.778
      -3.942
      -2.785
      -1.347
      -0.686
      -1.001
      -1.430
      -0.966
       0.364
       1.421
       1.099
      -0.513
      -2.109
      -2.240
      -0.483
       2.227
       4.258
       4.334
       2.310
      -0.757
      -3.274
      -4.121
      -3.310
      -1.810
      -0.638
       0.000
       0.720
       2.086
       3.719
       4.397
       3.145
       0.275
      -2.680
      -4.080
      -3.364
      -1.307
       0.790
       2.141
       2.742
       2.804
       2.269
       1.069
      -0.399
      -1.389
      -1.458
      -0.900
      -0.538
      -1.109
      -2.636
      -4.118
      -3.984
      -1.360
       2.820
       6.174
       6.686
       4.314
       0.871
      -1.606
      -2.329
      -1.864
      -1.132
      -0.547
      -0.096
       0.082
      -0.419
      -1.673
      -2.938
      -3.085
      -1.639
       0.647
       2.329
       2.500
       1.595
       0.864
       0.928
       1.070
       0.228
      -1.462
      -2.553
      -1.872
       0.057
       1.471
       1.193
      -0.260
      -1.414
      -1.347
      -0.304
       0.886
       1.624
       1.838
       1.747
       1.478
       0.936
       0.039
      -0.977
      -1.603
      -1.464
      -0.629
       0.436
       1.115
       0.972
       0.135
      -0.650
      -0.631
       0.151
       0.875
       0.796
      -0.093
      -1.232
      -2.036
      -2.132
      -1.402
      -0.097
       1.207
       1.998
       2.191
       2.009
       1.550
       0.677
      -0.609
      -1.854
      -2.424
      -2.133
      -1.433
      -0.928
      -0.801
      -0.761
      -0.366
       0.651
       2.166
       3.608
       4.221
       3.539
       1.668
      -0.784
      -2.919
      -3.883
      -3.353
      -1.850
      -0.357
       0.525
       0.947
       1.288
       1.463
       0.997
      -0.262
      -1.704
      -2.374
      -1.821
      -0.465
       0.841
       1.494
       1.379
       0.711
      -0.109
      -0.514
       0.046
       1.621
