Origin Time       11/11/2013 20:11:30 UTC
Lat.              28.4 N	
Long.             77.2 E	
Depth (Km)         10.0
Magnitude         3.3
 Region           DELHI                                                            
 Above details taken from IMD 
    
Station Code      VCD
Station Lat.       28.589  N
Station Long.      77.168  E
Station Height(m)  272.0
Site Class        C   Vs30 between 200 m/sec to 375 m/sec *  
Record Time       11.11.2013 20:11:07.144 UTC
Sampling Rate     200. Hz
 Record Duration   92.965 Sec.
 Direction         N-S (N positive)
Max. Acceleration     14.551 cm/sec**2
     
  * For reference see Site Classification link of website 
     
 Base Line Corrected and Low Pass Filtered (Cut Off at 35 Hz) Time History
 Acceleration data in cm/sec**2
    
[...]
      -0.029
      -0.023
      -0.009
       0.006
       0.014
       0.011
      -0.003
      -0.017
      -0.020
      -0.010
       0.008
       0.023
       0.029
       0.020
       0.002
      -0.020
      -0.035
      -0.040
      -0.036
      -0.027
      -0.017
      -0.012
      -0.014
      -0.018
      -0.019
      -0.013
      -0.003
       0.005
       0.005
      -0.004
      -0.017
      -0.028
      -0.028
      -0.019
      -0.008
       0.001
       0.006
       0.008
       0.007
       0.005
       0.005
       0.007
       0.009
       0.007
      -0.001
      -0.012
      -0.021
      -0.022
      -0.017
      -0.011
      -0.008
      -0.006
      -0.002
       0.006
       0.015
       0.020
       0.018
       0.009
       0.000
      -0.006
      -0.005
      -0.002
       0.001
       0.002
       0.003
       0.004
       0.002
      -0.004
      -0.014
      -0.025
      -0.035
      -0.041
      -0.038
      -0.027
      -0.010
       0.005
       0.013
       0.012
       0.005
      -0.002
      -0.004
      -0.002
       0.001
       0.001
      -0.001
      -0.006
      -0.016
      -0.027
      -0.032
      -0.027
      -0.013
       0.004
       0.016
       0.016
       0.003
      -0.017
      -0.034
      -0.041
      -0.039
      -0.029
      -0.015
      -0.002
       0.006
       0.011
       0.013
       0.017
       0.019
       0.017
       0.010
      -0.002
      -0.017
      -0.030
      -0.036
      -0.035
      -0.027
      -0.016
      -0.003
       0.005
       0.005
      -0.003
      -0.011
      -0.014
      -0.013
      -0.011
      -0.009
      -0.007
      -0.006
      -0.004
      -0.003
      -0.002
      -0.003
      -0.006
      -0.008
      -0.007
      -0.004
       0.000
       0.004
       0.008
       0.011
       0.012
       0.011
       0.009
       0.004
      -0.004
      -0.015
      -0.029
      -0.040
      -0.042
      -0.033
      -0.016
       0.002
       0.016
       0.023
       0.025
       0.020
       0.012
       0.001
      -0.010
      -0.019
      -0.022
      -0.020
      -0.012
      -0.003
       0.002
       0.002
      -0.003
      -0.011
      -0.017
      -0.014
      -0.003
       0.010
       0.019
       0.021
       0.020
       0.017
       0.014
       0.011
       0.008
       0.005
       0.002
       0.001
      -0.003
      -0.011
      -0.022
      -0.031
      -0.032
      -0.027
      -0.016
      -0.003
       0.010
       0.019
       0.021
       0.016
       0.009
       0.004
       0.001
       0.001
      -0.002
      -0.011
      -0.019
      -0.022
      -0.019
      -0.011
      -0.005
       0.001
       0.006
       0.010
       0.011
       0.009
       0.005
       0.003
       0.005
       0.009
       0.009
       0.000
      -0.016
      -0.032
      -0.044
      -0.049
      -0.045
      -0.031
      -0.011
       0.010
       0.028
       0.037
       0.033
       0.019
       0.001
      -0.011
      -0.013
      -0.008
      -0.002
       0.002
       0.005
       0.011
       0.017
       0.019
       0.014
       0.004
      -0.005
      -0.007
      -0.002
       0.004
       0.008
       0.009
       0.009
       0.006
       0.002
      -0.003
      -0.008
      -0.011
      -0.013
      -0.014
      -0.014
      -0.014
      -0.014
      -0.010
      -0.003
       0.005
       0.013
       0.018
       0.020
       0.016
       0.006
      -0.007
      -0.017
      -0.021
      -0.016
      -0.003
       0.010
       0.017
       0.014
       0.006
      -0.003
      -0.010
      -0.012
      -0.008
       0.000
       0.006
       0.006
       0.002
      -0.003
      -0.005
      -0.003
       0.002
       0.006
       0.007
       0.004
       0.000
      -0.006
      -0.012
      -0.014
      -0.010
      -0.003
       0.003
       0.006
       0.005
       0.000
      -0.006
      -0.009
      -0.009
      -0.006
      -0.001
       0.003
       0.006
       0.005
       0.001
      -0.005
      -0.008
      -0.005
      -0.001
       0.001
      -0.002
      -0.006
      -0.004
       0.005
       0.017
       0.025
       0.018
      -0.001
      -0.024
      -0.042
      -0.050
      -0.047
      -0.036
      -0.024
      -0.013
      -0.001
       0.012
       0.025
       0.030
       0.024
       0.010
      -0.006
      -0.018
      -0.023
      -0.021
      -0.017
      -0.014
      -0.013
      -0.012
      -0.008
      -0.003
      -0.001
      -0.002
      -0.008
      -0.016
      -0.024
      -0.032
      -0.035
      -0.032
      -0.019
      -0.002
       0.012
       0.017
       0.016
       0.015
       0.016
       0.014
       0.006
      -0.005
      -0.012
      -0.013
      -0.007
      -0.001
      -0.002
      -0.013
      -0.029
      -0.043
      -0.047
      -0.040
      -0.022
       0.000
       0.018
       0.024
       0.018
       0.007
      -0.003
      -0.006
      -0.005
      -0.001
       0.002
       0.005
       0.006
       0.006
       0.000
      -0.011
      -0.021
      -0.019
      -0.006
       0.008
       0.011
      -0.002
      -0.021
      -0.035
      -0.035
      -0.023
      -0.008
       0.003
       0.007
       0.007
       0.005
       0.001
      -0.008
      -0.018
      -0.028
      -0.034
      -0.034
      -0.027
      -0.017
      -0.010
      -0.005
       0.004
       0.016
       0.029
       0.034
       0.029
       0.016
       0.001
      -0.011
      -0.017
      -0.017
      -0.015
      -0.011
      -0.008
      -0.006
      -0.006
      -0.008
      -0.009
      -0.008
      -0.006
      -0.005
      -0.005
      -0.006
      -0.009
      -0.012
      -0.009
       0.001
       0.016
       0.026
       0.025
       0.012
      -0.006
      -0.018
      -0.020
      -0.012
      -0.002
       0.002
      -0.004
      -0.019
      -0.036
      -0.046
      -0.040
      -0.019
       0.005
       0.022
       0.023
       0.011
      -0.007
      -0.020
      -0.022
      -0.015
      -0.006
      -0.003
      -0.007
      -0.013
      -0.016
      -0.013
      -0.005
       0.005
       0.012
       0.017
       0.018
       0.014
       0.004
      -0.011
      -0.020
      -0.020
      -0.013
      -0.008
      -0.010
      -0.019
      -0.030
      -0.034
      -0.030
      -0.023
      -0.019
      -0.018
      -0.020
      -0.022
      -0.024
      -0.021
      -0.008
       0.013
       0.034
       0.047
       0.046
       0.034
       0.016
      -0.002
      -0.014
      -0.020
      -0.020
      -0.016
      -0.012
      -0.009
      -0.009
      -0.009
      -0.006
       0.000
       0.004
       0.005
       0.003
       0.001
      -0.001
      -0.001
       0.002
       0.006
       0.008
       0.005
      -0.001
      -0.004
      -0.002
       0.006
       0.015
       0.019
       0.013
       0.001
      -0.013
      -0.022
      -0.022
      -0.015
      -0.003
       0.006
       0.012
       0.014
       0.012
       0.007
      -0.002
      -0.011
      -0.016
      -0.015
      -0.007
       0.006
       0.020
       0.029
       0.026
       0.014
      -0.001
      -0.010
      -0.012
      -0.006
       0.004
       0.015
       0.023
       0.028
       0.030
       0.027
       0.018
       0.003
      -0.018
      -0.038
      -0.052
      -0.047
      -0.018
       0.015
       0.012
      -0.050
      -0.129
      -0.120
       0.063
       0.370
       0.603
       0.578
       0.316
       0.067
       0.049
       0.175
       0.103
      -0.370
      -0.984
      -1.161
      -0.556
       0.551
       1.445
       1.564
       0.873
      -0.279
      -1.476
      -2.329
      -2.435
      -1.539
       0.137
       1.806
       2.530
       1.898
       0.326
      -1.311
      -2.288
      -2.263
      -1.182
       0.698
       2.594
       3.361
       2.263
      -0.278
      -2.787
      -3.732
      -2.586
      -0.088
       2.432
       3.909
       3.844
       2.205
      -0.529
      -3.230
      -4.446
      -3.316
      -0.341
       2.771
       4.206
       3.244
       0.634
      -2.042
      -3.417
      -3.026
      -1.332
       0.662
       1.932
       1.967
       1.032
      -0.148
      -1.007
      -1.361
      -1.111
      -0.117
       1.390
       2.541
       2.379
       0.822
      -1.117
      -2.186
      -1.901
      -0.700
       0.668
       1.652
       1.880
       1.109
      -0.470
      -2.029
      -2.582
      -1.771
      -0.096
       1.536
       2.361
       2.011
       0.613
      -1.222
      -2.670
      -3.078
      -2.206
      -0.332
       1.688
       2.731
       2.199
       0.610
      -0.796
      -1.213
      -0.929
      -0.720
      -0.690
      -0.098
       1.469
       3.074
       3.063
       0.811
      -2.397
      -4.367
      -3.758
      -0.959
       2.391
       4.473
       4.244
       1.964
      -0.933
      -2.753
      -2.734
      -1.488
      -0.275
       0.098
      -0.311
      -0.941
      -1.200
      -0.712
       0.514
       1.974
       2.854
       2.535
       1.037
      -0.943
      -2.405
      -2.571
      -1.326
       0.649
       2.210
       2.480
       1.460
      -0.054
      -1.175
      -1.582
      -1.526
      -1.356
      -1.129
      -0.671
       0.092
       0.929
       1.379
       1.097
       0.198
      -0.742
      -1.126
      -0.803
      -0.091
       0.582
       0.981
       1.051
       0.758
       0.064
      -0.931
      -1.835
      -2.025
      -1.024
       1.023
       3.198
       4.287
       3.626
       1.597
      -0.759
      -2.565
      -3.494
      -3.538
      -2.730
      -1.211
       0.597
       2.012
       2.432
       1.754
       0.469
      -0.686
      -1.210
      -1.038
      -0.405
       0.364
       0.878
       0.677
      -0.468
      -2.046
      -2.818
      -1.728
       1.006
       3.785
       4.806
       3.483
       0.755
      -1.814
      -3.145
      -3.038
      -1.921
      -0.444
       0.850
       1.680
       1.932
       1.496
       0.343
      -1.172
      -2.235
      -2.093
      -0.800
       0.671
       1.217
       0.558
      -0.610
      -1.305
      -1.014
       0.087
       1.399
       2.281
       2.303
       1.327
      -0.441
      -2.353
      -3.407
      -2.780
      -0.495
       2.323
       3.983
       3.349
       0.781
      -2.003
      -3.217
      -2.373
      -0.472
       1.065
       1.574
       1.324
       0.823
       0.237
      -0.521
      -1.426
      -2.167
      -2.235
      -1.180
       0.953
       3.268
       4.323
       3.187
       0.391
      -2.284
      -3.177
      -2.063
      -0.169
       1.033
       1.024
       0.307
      -0.385
      -0.721
      -0.733
      -0.521
      -0.169
       0.152
       0.195
      -0.142
      -0.563
      -0.531
       0.130
       0.861
       0.859
      -0.025
      -1.024
      -1.176
      -0.284
       0.839
       1.135
       0.365
      -0.628
      -0.744
       0.284
       1.611
       2.070
       1.209
      -0.398
      -1.683
      -1.879
      -0.978
       0.357
       1.301
       1.390
       0.704
      -0.358
      -1.416
      -2.167
      -2.219
      -1.190
       0.761
       2.626
       3.165
       2.047
       0.227
      -0.998
      -1.172
      -0.804
      -0.498
      -0.287
       0.112
       0.664
       0.904
       0.439
      -0.614
      -1.700
      -2.170
      -1.589
      -0.008
       1.850
       2.814
       2.064
      -0.127
      -2.454
      -3.489
      -2.690
      -0.676
       1.339
       2.406
       2.324
       1.511
       0.537
      -0.270
      -0.839
      -1.069
      -0.700
       0.374
       1.716
       2.458
       1.902
       0.100
      -2.079
      -3.431
      -3.092
      -1.044
       1.756
       3.768
       3.745
       1.592
      -1.467
      -3.643
      -3.746
      -1.905
       0.615
       2.307
       2.354
       0.993
      -0.866
      -2.318
      -2.860
      -2.336
      -0.781
       1.460
       3.536
       4.305
       3.087
       0.342
      -2.473
      -3.907
      -3.522
      -1.983
      -0.259
       1.158
       2.309
       3.308
       3.920
       3.578
       1.858
      -0.928
      -3.595
      -4.747
      -3.774
      -1.294
       1.339
       2.940
       3.032
       1.784
      -0.275
      -2.397
      -3.708
      -3.547
      -1.961
       0.190
       1.829
       2.437
       2.210
       1.497
       0.334
      -1.271
      -2.765
      -3.186
      -2.069
      -0.039
       1.715
       2.501
       2.541
       2.441
       2.541
       2.804
       3.026
       2.907
       2.006
      -0.033
      -2.940
      -5.565
      -6.380
      -4.487
      -0.357
       4.139
       6.561
       5.280
       0.614
      -5.164
      -9.114
      -9.361
      -6.018
      -0.815
       4.004
       6.596
       6.025
       2.656
      -1.725
      -4.712
      -4.825
      -2.458
       0.762
       3.440
       5.084
       5.638
       4.974
       3.124
       0.754
      -0.925
      -0.929
       0.641
       2.400
       2.566
       0.493
      -2.515
      -4.188
      -3.338
      -0.980
       0.550
      -0.428
      -3.691
      -7.412
      -9.349
      -8.001
      -3.317
       3.114
       8.523
      10.167
       6.955
       0.500
      -5.481
      -7.404
      -4.117
       2.564
       9.407
      13.784
      14.551
      11.694
       5.847
      -1.672
      -8.725
     -12.868
     -12.548
      -8.209
      -2.305
       2.087
       3.142
       1.138
      -2.244
      -5.218
      -6.609
      -5.863
      -2.969
       1.439
       6.084
       9.410
      10.178
       7.909
       3.049
      -2.931
      -7.594
      -8.417
      -4.582
       1.877
       7.233
       8.891
       7.197
       4.500
       2.521
       0.853
      -1.898
      -5.863
      -9.290
     -10.267
      -8.784
      -6.793
      -6.200
      -7.029
      -7.605
      -6.265
      -2.733
       1.880
       5.962
       8.206
       8.047
       5.960
       3.508
       2.574
       3.955
       6.623
       8.522
       8.171
       5.566
       1.830
      -1.716
      -4.222
      -5.466
      -5.574
      -4.600
      -2.484
       0.421
       2.959
       3.730
       2.238
      -0.611
      -3.207
      -4.295
      -3.422
      -0.946
       1.929
       3.491
       2.726
       0.423
      -1.372
      -1.301
       0.027
       0.809
      -0.052
      -1.899
      -2.943
      -1.851
       0.983
       3.526
       3.617
       0.681
      -3.846
      -7.599
      -8.772
      -6.964
      -3.079
       1.302
       4.464
       4.997
       2.529
      -1.572
      -4.610
      -4.368
      -0.850
       3.760
       6.913
       7.532
       6.253
       4.154
       1.649
      -1.206
      -3.578
      -3.709
      -0.451
       5.004
       9.258
       9.099
       4.223
      -2.316
      -6.611
      -6.945
      -4.503
      -1.615
       0.218
       0.886
       0.994
       0.927
       0.366
      -1.358
      -4.166
      -6.387
      -5.589
      -0.984
       5.001
       8.236
       6.509
       1.560
      -2.706
      -3.946
      -3.042
      -2.261
      -2.488
      -2.648
      -1.434
       0.962
       2.900
       2.803
       0.541
      -2.558
      -4.839
      -5.344
      -4.003
      -1.383
       1.525
       3.645
       4.417
       4.144
       3.453
       2.323
       0.020
      -3.587
      -6.840
      -7.094
      -3.145
       3.176
       8.125
       8.984
       6.078
       2.042
      -0.650
      -1.386
      -1.090
      -0.838
      -1.021
      -1.455
      -1.744
      -1.419
      -0.107
       2.061
       4.158
       4.884
       3.595
       0.944
      -1.688
      -3.440
      -4.485
      -5.230
      -5.344
      -3.968
      -0.960
       2.313
       3.775
       2.470
      -0.274
      -1.685
       0.077
       4.047
       7.025
       6.154
       1.205
      -5.229
      -9.490
      -9.241
      -4.965
       0.553
       4.440
       5.657
       4.949
       3.374
       1.362
      -0.878
      -2.615
      -2.807
      -1.127
       1.383
       2.900
       2.204
      -0.385
      -3.277
      -4.811
      -4.392
      -2.692
      -0.738
       1.128
       3.170
       5.227
       6.293
       5.413
       2.757
      -0.509
      -3.310
      -5.287
      -6.348
      -6.082
      -4.104
      -0.948
       1.807
       2.656
       1.495
      -0.272
      -1.051
      -0.459
       0.612
       1.140
       0.961
       0.690
       0.966
       1.907
       3.052
       3.660
       3.111
       1.356
      -0.817
      -2.101
      -1.631
       0.192
       1.996
       2.681
       2.247
       1.337
       0.273
      -1.108
      -2.767
      -4.009
      -3.950
      -2.449
      -0.469
       0.633
       0.250
      -1.007
      -1.871
      -1.426
       0.259
       2.187
       3.045
       2.057
      -0.416
      -2.975
      -4.056
      -3.020
      -0.572
       1.812
       2.965
       2.709
       1.673
       0.592
      -0.085
      -0.087
       0.715
       1.995
       2.918
       2.740
       1.451
      -0.270
      -1.693
      -2.568
      -3.043
      -3.179
      -2.689
      -1.288
       0.729
       2.350
       2.441
       0.683
      -1.920
      -3.617
      -3.279
      -1.383
       0.371
       0.598
      -0.480
      -1.253
      -0.310
       2.197
       4.706
       5.550
       4.084
       0.935
      -2.395
      -4.320
      -4.095
      -2.266
      -0.113
       1.386
       2.041
       2.114
       1.803
       1.114
       0.131
      -0.712
      -0.753
       0.293
       1.778
       2.370
       1.239
      -0.921
      -2.295
      -1.645
       0.420
       1.995
       1.686
      -0.213
      -2.191
      -2.987
      -2.561
      -1.777
      -1.327
      -1.082
      -0.419
       0.952
       2.562
       3.486
       3.010
       1.137
      -1.352
      -3.331
      -4.013
      -3.319
      -1.673
       0.305
       1.871
       2.271
       1.180
      -0.859
      -2.568
      -2.744
      -1.130
       1.398
       3.443
       3.996
       3.017
       1.396
       0.282
       0.134
       0.411
       0.272
      -0.487
      -1.330
      -1.698
      -1.577
      -1.308
      -0.969
      -0.150
       1.505
       3.492
       4.411
       3.082
      -0.201
      -3.662
      -5.329
      -4.340
      -1.295
       2.207
       4.381
       4.181
       1.974
      -0.681
      -2.173
      -1.931
      -0.605
       0.677
       1.187
       0.939
       0.353
      -0.300
      -1.064
      -1.947
      -2.625
      -2.659
      -2.003
      -1.164
      -0.758
      -0.885
      -1.036
      -0.661
       0.289
       1.475
       2.614
       3.512
       3.801
       3.058
       1.336
      -0.682
      -2.178
      -2.758
      -2.471
      -1.498
      -0.004
       1.709
       3.059
       3.304
       1.942
      -0.782
      -3.660
      -5.040
      -3.934
      -0.863
       2.362
       3.844
       2.864
       0.298
      -2.058
      -2.716
      -1.448
       0.725
       2.459
