Origin Time       11/11/2013 22:10:42
Lat.              28.4 N	
Long.             77.2 E	
Depth (Km)         11.0
Magnitude         2.8
 Region           DELHI                                                            
 Above details taken from IMD 
   
Station Code      VCD
Station Lat.       28.589
Station Long.      77.168
Station Height(m)  272.0
Site Class        C   Vs30 between 200 m/sec to 375 m/sec *  
Record Time       11.11.2013 22:10:20.989
Sampling Rate     200. Hz
 Record Duration   83.675 Sec.
 Direction         Vert. (Up positive)
Max. Acceleration     -3.081 cm/sec**2
     
  * For reference see Site Classification link of website 
     
 Base Line Corrected and Low Pass Filtered (Cut Off at 35 Hz) Time History
 Acceleration data in cm/sec**2
    
[...]
      -0.003
      -0.009
      -0.012
      -0.011
      -0.007
       0.000
       0.005
       0.010
       0.015
       0.021
       0.024
       0.024
       0.019
       0.012
       0.007
       0.002
      -0.003
      -0.009
      -0.014
      -0.014
      -0.008
      -0.001
       0.000
      -0.004
      -0.010
      -0.014
      -0.014
      -0.010
      -0.006
      -0.005
      -0.007
      -0.010
      -0.011
      -0.009
      -0.006
      -0.003
       0.001
       0.008
       0.018
       0.024
       0.023
       0.013
      -0.003
      -0.017
      -0.024
      -0.020
      -0.010
       0.001
       0.010
       0.014
       0.013
       0.007
      -0.001
      -0.010
      -0.016
      -0.016
      -0.009
       0.000
       0.008
       0.011
       0.010
       0.005
       0.000
      -0.002
      -0.004
      -0.010
      -0.019
      -0.026
      -0.026
      -0.017
      -0.006
       0.002
       0.004
       0.005
       0.011
       0.018
       0.020
       0.016
       0.009
       0.003
       0.001
       0.000
       0.000
      -0.001
      -0.001
      -0.003
      -0.008
      -0.014
      -0.017
      -0.011
       0.002
       0.014
       0.015
       0.003
      -0.016
      -0.030
      -0.032
      -0.022
      -0.007
       0.005
       0.012
       0.015
       0.014
       0.009
      -0.002
      -0.014
      -0.023
      -0.027
      -0.025
      -0.019
      -0.011
      -0.003
       0.003
       0.004
       0.001
      -0.006
      -0.012
      -0.015
      -0.012
      -0.005
       0.003
       0.010
       0.014
       0.016
       0.015
       0.012
       0.006
      -0.001
      -0.006
      -0.008
      -0.009
      -0.013
      -0.018
      -0.021
      -0.020
      -0.016
      -0.010
      -0.005
       0.000
       0.005
       0.007
       0.005
       0.001
      -0.002
      -0.001
       0.001
      -0.002
      -0.012
      -0.025
      -0.032
      -0.028
      -0.013
       0.004
       0.014
       0.011
      -0.001
      -0.012
      -0.014
      -0.007
       0.005
       0.013
       0.011
       0.001
      -0.010
      -0.014
      -0.010
      -0.001
       0.005
       0.005
      -0.002
      -0.014
      -0.025
      -0.031
      -0.030
      -0.020
      -0.006
       0.010
       0.021
       0.025
       0.020
       0.008
      -0.008
      -0.021
      -0.028
      -0.026
      -0.018
      -0.008
       0.000
       0.005
       0.009
       0.011
       0.011
       0.008
      -0.001
      -0.012
      -0.022
      -0.025
      -0.022
      -0.014
      -0.006
       0.000
       0.003
       0.005
       0.004
       0.000
      -0.006
      -0.012
      -0.013
      -0.010
      -0.007
      -0.006
      -0.009
      -0.012
      -0.011
      -0.006
      -0.002
      -0.001
      -0.002
      -0.001
       0.002
       0.004
       0.003
      -0.002
      -0.005
      -0.003
       0.001
       0.001
      -0.005
      -0.014
      -0.016
      -0.011
       0.000
       0.008
       0.010
       0.009
       0.006
       0.005
       0.010
       0.016
       0.020
       0.015
       0.003
      -0.011
      -0.021
      -0.024
      -0.022
      -0.022
      -0.025
      -0.028
      -0.024
      -0.008
       0.015
       0.035
       0.045
       0.040
       0.025
       0.005
      -0.013
      -0.027
      -0.037
      -0.040
      -0.037
      -0.027
      -0.015
      -0.004
       0.004
       0.012
       0.020
       0.029
       0.033
       0.027
       0.011
      -0.009
      -0.026
      -0.033
      -0.032
      -0.025
      -0.017
      -0.008
      -0.001
       0.005
       0.007
       0.006
       0.005
       0.005
       0.006
       0.007
       0.007
       0.008
       0.010
       0.012
       0.013
       0.013
       0.011
       0.009
       0.009
       0.009
       0.007
       0.002
      -0.008
      -0.021
      -0.031
      -0.032
      -0.022
      -0.006
       0.008
       0.016
       0.016
       0.011
       0.005
       0.000
      -0.005
      -0.006
      -0.003
       0.006
       0.015
       0.018
       0.011
      -0.005
      -0.021
      -0.030
      -0.027
      -0.014
       0.006
       0.023
       0.032
       0.032
       0.024
       0.010
      -0.005
      -0.019
      -0.026
      -0.026
      -0.019
      -0.010
      -0.005
      -0.003
      -0.001
       0.002
       0.008
       0.012
       0.011
       0.003
      -0.009
      -0.020
      -0.025
      -0.021
      -0.011
      -0.001
       0.003
      -0.001
      -0.008
      -0.011
      -0.005
       0.007
       0.016
       0.018
       0.011
       0.004
       0.004
       0.013
       0.023
       0.024
       0.013
      -0.001
      -0.005
       0.004
       0.009
      -0.010
      -0.051
      -0.087
      -0.084
      -0.036
       0.028
       0.070
       0.077
       0.058
       0.024
      -0.032
      -0.106
      -0.160
      -0.144
      -0.041
       0.093
       0.174
       0.159
       0.078
      -0.007
      -0.060
      -0.090
      -0.114
      -0.124
      -0.102
      -0.046
       0.016
       0.056
       0.069
       0.070
       0.070
       0.066
       0.050
       0.017
      -0.029
      -0.087
      -0.145
      -0.174
      -0.140
      -0.043
       0.071
       0.138
       0.126
       0.056
      -0.013
      -0.036
      -0.004
       0.052
       0.083
       0.059
      -0.013
      -0.094
      -0.143
      -0.142
      -0.093
      -0.005
       0.100
       0.185
       0.199
       0.116
      -0.034
      -0.171
      -0.225
      -0.181
      -0.082
       0.021
       0.101
       0.141
       0.127
       0.050
      -0.056
      -0.125
      -0.101
       0.003
       0.102
       0.108
       0.010
      -0.115
      -0.163
      -0.091
       0.055
       0.179
       0.211
       0.147
       0.044
      -0.025
      -0.011
       0.079
       0.175
       0.178
       0.019
      -0.270
      -0.545
      -0.621
      -0.402
       0.025
       0.418
       0.544
       0.349
      -0.002
      -0.265
      -0.308
      -0.190
      -0.067
      -0.034
      -0.053
      -0.028
       0.079
       0.212
       0.272
       0.199
       0.003
      -0.231
      -0.372
      -0.322
      -0.098
       0.154
       0.260
       0.161
      -0.031
      -0.125
      -0.012
       0.244
       0.450
       0.420
       0.111
      -0.335
      -0.664
      -0.663
      -0.320
       0.153
       0.455
       0.407
       0.090
      -0.222
      -0.280
      -0.059
       0.232
       0.342
       0.179
      -0.134
      -0.382
      -0.430
      -0.285
      -0.038
       0.217
       0.413
       0.475
       0.333
       0.016
      -0.278
      -0.311
      -0.051
       0.255
       0.301
       0.027
      -0.323
      -0.420
      -0.148
       0.287
       0.526
       0.352
      -0.131
      -0.580
      -0.671
      -0.335
       0.195
       0.574
       0.590
       0.289
      -0.111
      -0.386
      -0.431
      -0.268
      -0.003
       0.214
       0.236
      -0.002
      -0.393
      -0.670
      -0.584
      -0.119
       0.465
       0.811
       0.711
       0.232
      -0.314
      -0.548
      -0.283
       0.303
       0.767
       0.742
       0.249
      -0.327
      -0.571
      -0.374
       0.000
       0.177
       0.006
      -0.328
      -0.501
      -0.360
      -0.036
       0.209
       0.229
       0.097
      -0.018
      -0.046
      -0.066
      -0.177
      -0.327
      -0.337
      -0.090
       0.307
       0.595
       0.608
       0.408
       0.192
       0.079
       0.023
      -0.068
      -0.191
      -0.257
      -0.219
      -0.147
      -0.131
      -0.162
      -0.137
       0.005
       0.183
       0.238
       0.092
      -0.163
      -0.320
      -0.225
       0.068
       0.313
       0.272
      -0.054
      -0.412
      -0.514
      -0.286
       0.102
       0.420
       0.547
       0.485
       0.276
      -0.032
      -0.333
      -0.461
      -0.307
       0.058
       0.401
       0.512
       0.366
       0.119
      -0.058
      -0.136
      -0.208
      -0.347
      -0.497
      -0.532
      -0.387
      -0.124
       0.130
       0.269
       0.244
       0.078
      -0.139
      -0.270
      -0.215
       0.008
       0.248
       0.331
       0.226
       0.083
       0.079
       0.205
       0.273
       0.133
      -0.132
      -0.276
      -0.169
       0.052
       0.133
      -0.011
      -0.202
      -0.194
       0.067
       0.363
       0.389
       0.026
      -0.526
      -0.893
      -0.815
      -0.333
       0.249
       0.604
       0.601
       0.369
       0.149
       0.083
       0.117
       0.097
      -0.039
      -0.182
      -0.178
      -0.033
       0.061
      -0.080
      -0.402
      -0.625
      -0.492
      -0.030
       0.466
       0.702
       0.616
       0.352
       0.068
      -0.159
      -0.286
      -0.256
      -0.072
       0.135
       0.193
       0.061
      -0.125
      -0.184
      -0.079
       0.044
       0.006
      -0.202
      -0.393
      -0.371
      -0.129
       0.153
       0.297
       0.286
       0.228
       0.210
       0.222
       0.194
       0.077
      -0.105
      -0.268
      -0.325
      -0.254
      -0.136
      -0.090
      -0.162
      -0.250
      -0.175
       0.131
       0.520
       0.726
       0.596
       0.211
      -0.210
      -0.503
      -0.639
      -0.635
      -0.479
      -0.179
       0.162
       0.393
       0.443
       0.371
       0.274
       0.190
       0.102
       0.007
      -0.067
      -0.109
      -0.126
      -0.104
       0.002
       0.179
       0.292
       0.189
      -0.107
      -0.376
      -0.411
      -0.233
      -0.077
      -0.131
      -0.312
      -0.331
      -0.005
       0.488
       0.741
       0.509
      -0.042
      -0.487
      -0.541
      -0.285
      -0.021
       0.043
      -0.042
      -0.073
       0.073
       0.325
       0.492
       0.434
       0.172
      -0.127
      -0.261
      -0.153
       0.059
       0.138
      -0.002
      -0.201
      -0.236
      -0.092
       0.012
      -0.106
      -0.347
      -0.396
      -0.069
       0.461
       0.818
       0.772
       0.396
      -0.091
      -0.522
      -0.797
      -0.824
      -0.556
      -0.103
       0.283
       0.389
       0.215
      -0.042
      -0.190
      -0.196
      -0.125
      -0.005
       0.203
       0.478
       0.663
       0.566
       0.154
      -0.384
      -0.754
      -0.762
      -0.419
       0.119
       0.649
       0.991
       1.003
       0.641
       0.019
      -0.598
      -0.943
      -0.908
      -0.594
      -0.212
       0.068
       0.213
       0.294
       0.366
       0.386
       0.257
      -0.068
      -0.500
      -0.825
      -0.803
      -0.336
       0.390
       0.960
       1.001
       0.509
      -0.125
      -0.440
      -0.317
      -0.051
      -0.032
      -0.354
      -0.723
      -0.715
      -0.156
       0.717
       1.426
       1.580
       1.120
       0.324
      -0.406
      -0.825
      -0.998
      -1.203
      -1.610
      -2.018
      -1.925
      -0.960
       0.686
       2.251
       2.879
       2.215
       0.664
      -0.851
      -1.470
      -0.959
       0.154
       0.978
       0.934
       0.161
      -0.643
      -0.791
      -0.125
       0.882
       1.497
       1.277
       0.373
      -0.624
      -1.143
      -1.023
      -0.573
      -0.281
      -0.398
      -0.745
      -0.903
      -0.625
      -0.111
       0.180
       0.004
      -0.362
      -0.377
       0.177
       0.882
       1.033
       0.326
      -0.819
      -1.595
      -1.416
      -0.270
       1.343
       2.669
       3.025
       2.160
       0.523
      -0.896
      -1.231
      -0.456
       0.530
       0.661
      -0.334
      -1.664
      -2.189
      -1.460
      -0.138
       0.609
       0.158
      -0.996
      -1.662
      -0.999
       0.699
       2.176
       2.234
       0.745
      -1.194
      -2.112
      -1.325
       0.545
       2.078
       2.169
       0.833
      -0.878
      -1.714
      -1.111
       0.499
       2.063
       2.619
       1.888
       0.380
      -1.019
      -1.662
      -1.484
      -0.889
      -0.363
      -0.154
      -0.190
      -0.261
      -0.282
      -0.401
      -0.818
      -1.468
      -1.936
      -1.757
      -0.812
       0.545
       1.745
       2.390
       2.447
       2.159
       1.806
       1.499
       1.114
       0.430
      -0.606
      -1.707
      -2.365
      -2.214
      -1.358
      -0.378
       0.043
      -0.379
      -1.280
      -1.871
      -1.499
      -0.135
       1.594
       2.829
       3.031
       2.256
       1.031
      -0.040
      -0.632
      -0.794
      -0.757
      -0.655
      -0.449
      -0.097
       0.264
       0.400
       0.252
       0.047
       0.077
       0.380
       0.662
       0.547
      -0.092
      -0.991
      -1.664
      -1.716
      -1.092
      -0.127
       0.631
       0.723
       0.048
      -1.020
      -1.775
      -1.574
      -0.314
       1.405
       2.631
       2.678
       1.502
      -0.356
      -2.048
      -2.753
      -2.079
      -0.390
       1.324
       2.115
       1.775
       0.885
       0.206
       0.051
       0.227
       0.446
       0.648
       0.902
       1.105
       0.910
       0.030
      -1.374
      -2.658
      -3.081
      -2.324
      -0.762
       0.740
       1.399
       1.064
       0.285
      -0.177
       0.017
       0.532
       0.727
       0.298
      -0.410
      -0.722
      -0.282
       0.571
       1.101
       0.878
       0.198
      -0.230
      -0.055
       0.343
       0.268
      -0.504
      -1.423
      -1.647
      -0.837
       0.510
       1.460
       1.408
       0.541
      -0.377
      -0.652
      -0.205
       0.397
       0.438
      -0.309
      -1.345
      -1.863
      -1.465
      -0.505
       0.274
       0.442
       0.241
       0.238
       0.712
       1.409
       1.858
       1.782
       1.202
       0.325
      -0.510
      -0.881
      -0.530
       0.279
       0.777
       0.290
      -1.064
      -2.365
      -2.663
      -1.791
      -0.437
       0.534
       0.788
       0.652
       0.682
       1.127
       1.698
       1.802
       1.038
      -0.391
      -1.708
      -2.088
      -1.292
       0.106
       1.136
       1.162
       0.306
      -0.729
      -1.238
      -0.994
      -0.322
       0.255
       0.462
       0.448
       0.539
       0.834
       1.065
       0.876
       0.231
      -0.478
      -0.757
      -0.463
       0.049
       0.250
      -0.073
      -0.626
      -0.908
      -0.675
      -0.134
       0.260
       0.214
      -0.160
      -0.431
      -0.236
       0.355
       0.834
       0.710
       0.052
      -0.486
      -0.307
       0.455
       1.008
       0.723
      -0.194
      -0.925
      -0.900
      -0.325
       0.162
       0.211
       0.039
       0.046
       0.334
       0.654
       0.728
       0.492
       0.066
      -0.405
      -0.815
      -1.047
      -0.981
      -0.611
      -0.116
       0.242
       0.352
       0.341
       0.414
       0.600
       0.666
       0.338
      -0.361
      -1.018
      -1.137
      -0.592
       0.266
       0.920
       1.061
       0.712
       0.096
      -0.525
      -0.917
      -0.922
      -0.532
       0.086
       0.691
       1.098
       1.204
       0.964
       0.419
      -0.237
      -0.722
      -0.857
      -0.712
      -0.525
      -0.448
      -0.410
      -0.250
       0.047
       0.320
       0.423
       0.375
       0.299
       0.254
       0.193
       0.057
      -0.135
      -0.307
      -0.396
      -0.368
      -0.197
       0.126
       0.529
       0.853
       0.913
       0.591
      -0.086
      -0.886
      -1.428
      -1.372
      -0.665
       0.337
       1.024
       0.952
       0.221
      -0.562
      -0.800
      -0.423
       0.111
       0.322
       0.170
       0.020
       0.205
       0.636
       0.878
       0.593
      -0.094
      -0.678
      -0.742
      -0.316
       0.166
       0.272
      -0.046
      -0.421
      -0.426
       0.013
       0.536
       0.667
       0.250
      -0.391
      -0.720
      -0.436
       0.266
       0.824
       0.746
       0.001
      -0.935
      -1.439
      -1.227
      -0.541
       0.110
       0.387
       0.329
       0.188
       0.164
       0.300
       0.560
       0.883
       1.143
       1.147
       0.770
       0.113
      -0.524
      -0.857
      -0.836
      -0.663
      -0.580
      -0.655
      -0.741
      -0.628
      -0.231
       0.323
       0.745
       0.772
       0.374
      -0.181
      -0.525
      -0.488
      -0.209
       0.054
       0.192
       0.301
       0.494
       0.718
       0.782
       0.559
       0.138
      -0.225
      -0.307
      -0.108
       0.134
       0.117
      -0.287
      -0.900
      -1.324
      -1.213
      -0.554
       0.275
       0.754
       0.630
       0.127
      -0.255
      -0.195
       0.186
       0.511
       0.541
       0.361
       0.218
       0.238
       0.327
       0.321
       0.175
      -0.026
      -0.208
      -0.391
      -0.598
      -0.726
      -0.603
      -0.202
       0.255
       0.466
       0.310
      -0.055
      -0.347
      -0.379
      -0.172
       0.105
       0.267
       0.236
       0.086
       0.005
       0.141
       0.444
       0.665
       0.542
       0.047
      -0.553
      -0.902
      -0.838
      -0.509
      -0.206
      -0.091
      -0.074
       0.050
       0.355
       0.677
       0.740
       0.403
      -0.184
      -0.661
      -0.717
      -0.324
       0.262
       0.704
       0.827
       0.675
       0.402
       0.124
      -0.114
      -0.300
      -0.412
      -0.442
      -0.432
      -0.458
      -0.561
      -0.664
      -0.605
      -0.268
       0.263
       0.718
       0.848
       0.640
       0.307
       0.086
       0.048
       0.119
       0.190
       0.177
       0.005
      -0.348
      -0.741
      -0.886
      -0.582
       0.042
       0.573
       0.646
       0.258
      -0.231
      -0.396
      -0.077
       0.516
       0.958
       0.894
       0.267
      -0.611
      -1.212
      -1.120
      -0.358
       0.584
       1.090
       0.876
       0.186
      -0.449
      -0.644
      -0.431
      -0.161
      -0.169
      -0.477
      -0.767
      -0.649
      -0.002
       0.871
       1.431
       1.293
       0.535
      -0.350
      -0.830
      -0.728
      -0.292
       0.070
       0.135
      -0.003
      -0.088
       0.044
       0.329
       0.542
       0.484
       0.137
      -0.299
      -0.546
      -0.457
      -0.129
       0.172
       0.204
      -0.066
      -0.448
      -0.667
      -0.576
      -0.242
       0.128
       0.362
       0.438
       0.453
       0.483
       0.505
       0.433
       0.220
      -0.092
      -0.398
      -0.570
      -0.512
      -0.227
       0.135
       0.340
       0.248
      -0.042
      -0.260
      -0.215
       0.026
       0.222
       0.195
      -0.019
      -0.251
      -0.376
      -0.384
