Origin Time       11/11/2013 22:10:42
Lat.              28.4 N	
Long.             77.2 E	
Depth (Km)         11.0
Magnitude         2.8
 Region           DELHI                                                            
 Above details taken from IMD 
     
Station Code      VCD
Station Lat.       28.589  N
Station Long.      77.168  E
Station Height(m)  272.0
Site Class        C   Vs30 between 200 m/sec to 375 m/sec *  
Record Time       11.11.2013 22:10:20.989
Sampling Rate     200. Hz
 Record Duration   83.675 Sec.
 Direction         E-W (E positive)
Max. Acceleration      4.984 cm/sec**2
     
  * For reference see Site Classification link of website 
     
 Base Line Corrected and Low Pass Filtered (Cut Off at 35 Hz) Time History
 Acceleration data in cm/sec**2
    
[...]
       0.026
       0.013
      -0.003
      -0.021
      -0.036
      -0.044
      -0.039
      -0.024
      -0.005
       0.009
       0.016
       0.016
       0.014
       0.012
       0.009
       0.001
      -0.010
      -0.021
      -0.026
      -0.020
      -0.004
       0.015
       0.029
       0.033
       0.024
       0.004
      -0.018
      -0.036
      -0.045
      -0.044
      -0.036
      -0.023
      -0.011
      -0.001
       0.007
       0.011
       0.011
       0.008
       0.003
      -0.001
      -0.003
      -0.003
      -0.003
      -0.004
      -0.003
      -0.001
       0.002
       0.003
       0.001
      -0.004
      -0.010
      -0.015
      -0.019
      -0.018
      -0.012
      -0.005
       0.000
       0.000
      -0.005
      -0.013
      -0.022
      -0.028
      -0.028
      -0.018
       0.001
       0.022
       0.035
       0.033
       0.016
      -0.007
      -0.024
      -0.030
      -0.024
      -0.010
       0.005
       0.013
       0.012
       0.004
      -0.005
      -0.011
      -0.013
      -0.014
      -0.014
      -0.017
      -0.022
      -0.023
      -0.019
      -0.008
       0.005
       0.015
       0.018
       0.016
       0.011
       0.006
       0.002
      -0.001
      -0.004
      -0.008
      -0.010
      -0.009
      -0.004
       0.002
       0.005
       0.002
      -0.005
      -0.011
      -0.010
      -0.003
       0.001
       0.000
      -0.008
      -0.018
      -0.028
      -0.035
      -0.037
      -0.033
      -0.026
      -0.015
       0.000
       0.019
       0.038
       0.052
       0.054
       0.043
       0.021
      -0.005
      -0.028
      -0.044
      -0.049
      -0.041
      -0.020
       0.004
       0.022
       0.028
       0.022
       0.010
      -0.004
      -0.014
      -0.016
      -0.010
       0.000
       0.009
       0.012
       0.011
       0.009
       0.011
       0.013
       0.010
      -0.003
      -0.022
      -0.039
      -0.041
      -0.024
       0.003
       0.027
       0.037
       0.032
       0.018
       0.003
      -0.008
      -0.013
      -0.011
      -0.004
       0.008
       0.016
       0.018
       0.011
      -0.001
      -0.013
      -0.020
      -0.018
      -0.010
      -0.001
       0.002
       0.001
      -0.003
      -0.004
      -0.001
       0.004
       0.010
       0.015
       0.021
       0.023
       0.019
       0.009
      -0.003
      -0.015
      -0.025
      -0.033
      -0.034
      -0.023
      -0.001
       0.029
       0.054
       0.067
       0.063
       0.041
       0.009
      -0.024
      -0.047
      -0.053
      -0.043
      -0.024
      -0.005
       0.010
       0.018
       0.022
       0.024
       0.026
       0.029
       0.028
       0.019
       0.004
      -0.013
      -0.027
      -0.036
      -0.040
      -0.039
      -0.035
      -0.025
      -0.007
       0.022
       0.053
       0.075
       0.079
       0.063
       0.037
       0.009
      -0.017
      -0.039
      -0.055
      -0.060
      -0.049
      -0.023
       0.011
       0.041
       0.059
       0.062
       0.050
       0.028
       0.002
      -0.021
      -0.036
      -0.043
      -0.045
      -0.044
      -0.039
      -0.025
      -0.001
       0.030
       0.055
       0.061
       0.043
       0.008
      -0.023
      -0.035
      -0.025
      -0.005
       0.012
       0.020
       0.018
       0.013
       0.011
       0.013
       0.015
       0.010
      -0.002
      -0.019
      -0.035
      -0.043
      -0.039
      -0.028
      -0.015
      -0.002
       0.010
       0.023
       0.032
       0.031
       0.018
      -0.003
      -0.022
      -0.031
      -0.025
      -0.007
       0.014
       0.029
       0.033
       0.026
       0.014
       0.000
      -0.014
      -0.030
      -0.046
      -0.055
      -0.053
      -0.037
      -0.009
       0.023
       0.046
       0.055
       0.046
       0.025
       0.000
      -0.021
      -0.035
      -0.038
      -0.030
      -0.016
       0.002
       0.019
       0.030
       0.033
       0.028
       0.019
       0.007
      -0.006
      -0.020
      -0.033
      -0.039
      -0.032
      -0.010
       0.026
       0.062
       0.082
       0.073
       0.034
      -0.018
      -0.064
      -0.090
      -0.091
      -0.072
      -0.043
      -0.011
       0.020
       0.047
       0.064
       0.067
       0.052
       0.023
      -0.011
      -0.042
      -0.059
      -0.060
      -0.046
      -0.025
      -0.003
       0.010
       0.014
       0.013
       0.013
       0.017
       0.019
       0.013
      -0.003
      -0.019
      -0.022
      -0.010
       0.011
       0.029
       0.031
       0.016
      -0.010
      -0.038
      -0.056
      -0.059
      -0.045
      -0.019
       0.006
       0.020
       0.020
       0.014
       0.010
       0.010
       0.012
       0.010
       0.003
      -0.007
      -0.015
      -0.019
      -0.018
      -0.015
      -0.013
      -0.014
      -0.016
      -0.018
      -0.019
      -0.017
      -0.013
      -0.007
      -0.001
       0.008
       0.019
       0.030
       0.037
       0.038
       0.031
       0.017
       0.001
      -0.015
      -0.028
      -0.037
      -0.043
      -0.043
      -0.038
      -0.028
      -0.014
       0.002
       0.020
       0.035
       0.046
       0.048
       0.040
       0.020
      -0.006
      -0.031
      -0.047
      -0.053
      -0.051
      -0.045
      -0.035
      -0.022
      -0.004
       0.013
       0.023
       0.022
       0.012
      -0.003
      -0.016
      -0.025
      -0.030
      -0.033
      -0.036
      -0.037
      -0.036
      -0.031
      -0.025
      -0.016
      -0.006
       0.004
       0.008
       0.002
      -0.013
      -0.024
      -0.021
      -0.009
       0.001
       0.001
       0.000
       0.013
       0.039
       0.059
       0.048
       0.005
      -0.044
      -0.067
      -0.060
      -0.041
      -0.028
      -0.014
       0.012
       0.039
       0.040
      -0.001
      -0.054
      -0.070
      -0.029
       0.035
       0.073
       0.068
       0.039
       0.010
      -0.016
      -0.051
      -0.095
      -0.125
      -0.112
      -0.042
       0.058
       0.132
       0.132
       0.060
      -0.030
      -0.076
      -0.061
      -0.015
       0.022
       0.025
      -0.006
      -0.051
      -0.076
      -0.055
       0.006
       0.065
       0.075
       0.024
      -0.051
      -0.096
      -0.088
      -0.043
       0.008
       0.053
       0.096
       0.130
       0.127
       0.066
      -0.035
      -0.115
      -0.124
      -0.063
       0.014
       0.038
      -0.014
      -0.096
      -0.134
      -0.090
       0.011
       0.118
       0.194
       0.222
       0.175
       0.027
      -0.189
      -0.364
      -0.373
      -0.195
       0.063
       0.248
       0.282
       0.201
       0.094
       0.022
      -0.018
      -0.062
      -0.131
      -0.212
      -0.260
      -0.231
      -0.113
       0.066
       0.244
       0.343
       0.312
       0.161
      -0.018
      -0.103
      -0.041
       0.082
       0.098
      -0.082
      -0.344
      -0.454
      -0.277
       0.071
       0.317
       0.276
       0.020
      -0.176
      -0.083
       0.265
       0.596
       0.623
       0.261
      -0.312
      -0.775
      -0.854
      -0.504
       0.051
       0.471
       0.527
       0.225
      -0.215
      -0.484
      -0.369
       0.082
       0.552
       0.672
       0.321
      -0.249
      -0.600
      -0.481
      -0.051
       0.293
       0.277
      -0.048
      -0.390
      -0.455
      -0.161
       0.293
       0.552
       0.397
      -0.037
      -0.370
      -0.333
       0.013
       0.374
       0.493
       0.334
       0.040
      -0.229
      -0.408
      -0.467
      -0.345
      -0.043
       0.258
       0.301
       0.037
      -0.271
      -0.285
       0.095
       0.622
       0.868
       0.523
      -0.341
      -1.237
      -1.561
      -1.035
       0.053
       1.032
       1.346
       0.943
       0.239
      -0.267
      -0.347
      -0.124
       0.102
       0.093
      -0.164
      -0.468
      -0.582
      -0.432
      -0.128
       0.167
       0.351
       0.404
       0.357
       0.248
       0.110
      -0.015
      -0.074
      -0.059
      -0.057
      -0.163
      -0.323
      -0.338
      -0.053
       0.442
       0.814
       0.696
      -0.009
      -0.946
      -1.472
      -1.121
      -0.015
       1.149
       1.583
       0.997
      -0.164
      -1.060
      -1.138
      -0.527
       0.176
       0.470
       0.295
      -0.065
      -0.294
      -0.255
       0.006
       0.344
       0.590
       0.595
       0.299
      -0.182
      -0.567
      -0.577
      -0.168
       0.363
       0.572
       0.249
      -0.347
      -0.679
      -0.433
       0.149
       0.505
       0.316
      -0.178
      -0.452
      -0.250
       0.184
       0.423
       0.305
       0.022
      -0.153
      -0.138
      -0.040
       0.018
       0.012
      -0.016
      -0.059
      -0.162
      -0.307
      -0.334
      -0.077
       0.397
       0.766
       0.729
       0.293
      -0.219
      -0.457
      -0.351
      -0.140
      -0.111
      -0.288
      -0.429
      -0.303
       0.052
       0.379
       0.446
       0.234
      -0.070
      -0.231
      -0.142
       0.109
       0.326
       0.354
       0.179
      -0.094
      -0.325
      -0.427
      -0.378
      -0.196
       0.076
       0.355
       0.547
       0.577
       0.418
       0.077
      -0.369
      -0.737
      -0.782
      -0.384
       0.274
       0.747
       0.661
       0.066
      -0.563
      -0.729
      -0.352
       0.201
       0.479
       0.341
       0.017
      -0.163
      -0.099
       0.020
      -0.048
      -0.309
      -0.514
      -0.417
      -0.023
       0.432
       0.691
       0.639
       0.340
      -0.036
      -0.309
      -0.379
      -0.256
      -0.019
       0.211
       0.299
       0.177
      -0.049
      -0.166
      -0.070
       0.110
       0.174
       0.078
      -0.054
      -0.112
      -0.126
      -0.205
      -0.385
      -0.537
      -0.442
      -0.016
       0.540
       0.871
       0.771
       0.363
      -0.049
      -0.259
      -0.279
      -0.249
      -0.279
      -0.391
      -0.529
      -0.586
      -0.451
      -0.106
       0.326
       0.664
       0.807
       0.742
       0.484
       0.099
      -0.243
      -0.354
      -0.217
      -0.019
       0.044
      -0.057
      -0.207
      -0.297
      -0.301
      -0.223
      -0.038
       0.258
       0.549
       0.625
       0.356
      -0.164
      -0.652
      -0.830
      -0.611
      -0.144
       0.314
       0.580
       0.618
       0.453
       0.126
      -0.225
      -0.357
      -0.138
       0.262
       0.453
       0.152
      -0.543
      -1.176
      -1.272
      -0.705
       0.195
       0.902
       1.053
       0.651
       0.019
      -0.429
      -0.457
      -0.148
       0.227
       0.489
       0.648
       0.736
       0.645
       0.239
      -0.388
      -0.873
      -0.880
      -0.434
       0.088
       0.358
       0.417
       0.520
       0.705
       0.685
       0.237
      -0.465
      -0.985
      -1.041
      -0.719
      -0.324
      -0.101
      -0.093
      -0.206
      -0.338
      -0.421
      -0.386
      -0.183
       0.170
       0.593
       1.005
       1.304
       1.329
       0.930
       0.131
      -0.788
      -1.403
      -1.390
      -0.738
       0.222
       1.002
       1.235
       0.837
       0.021
      -0.816
      -1.298
      -1.267
      -0.810
      -0.112
       0.634
       1.191
       1.303
       0.878
       0.147
      -0.465
      -0.647
      -0.398
       0.035
       0.371
       0.490
       0.455
       0.370
       0.236
      -0.052
      -0.581
      -1.259
      -1.767
      -1.713
      -0.961
       0.170
       1.090
       1.433
       1.361
       1.325
       1.523
       1.679
       1.395
       0.640
      -0.218
      -0.809
      -1.066
      -1.172
      -1.357
      -1.769
      -2.400
      -2.967
      -2.976
      -2.083
      -0.496
       1.103
       2.097
       2.379
       2.259
       2.040
       1.756
       1.262
       0.467
      -0.503
      -1.292
      -1.452
      -0.747
       0.556
       1.759
       2.220
       1.833
       1.024
       0.307
      -0.079
      -0.163
      -0.085
      -0.059
      -0.345
      -1.047
      -1.940
      -2.611
      -2.799
      -2.546
      -2.018
      -1.262
      -0.214
       1.037
       2.084
       2.451
       2.041
       1.274
       0.677
       0.385
       0.105
      -0.469
      -1.307
      -2.044
      -2.242
      -1.654
      -0.382
       1.108
       2.166
       2.286
       1.450
       0.234
      -0.516
      -0.281
       0.734
       1.781
       2.159
       1.660
       0.584
      -0.583
      -1.485
      -1.956
      -1.849
      -0.998
       0.482
       1.885
       2.245
       1.207
      -0.522
      -1.819
      -2.243
      -2.314
      -2.683
      -3.227
      -3.093
      -1.588
       1.042
       3.640
       4.929
       4.427
       2.730
       1.013
       0.228
       0.598
       1.517
       1.876
       0.816
      -1.475
      -3.777
      -4.872
      -4.620
      -3.868
      -3.314
      -2.672
      -1.137
       1.418
       3.933
       4.984
       4.028
       1.797
      -0.360
      -1.362
      -0.859
       0.719
       2.399
       3.214
       2.815
       1.584
       0.147
      -1.173
      -2.407
      -3.558
      -4.294
      -4.109
      -2.788
      -0.671
       1.531
       3.096
       3.497
       2.515
       0.452
      -1.748
      -2.812
      -1.902
       0.676
       3.477
       4.793
       3.844
       1.319
      -1.232
      -2.635
      -2.816
      -2.376
      -1.633
      -0.344
       1.530
       3.066
       2.876
       0.556
      -2.609
      -4.666
      -4.636
      -3.021
      -0.958
       0.713
       1.590
       1.559
       0.943
       0.534
       0.951
       1.862
       2.196
       1.305
      -0.215
      -1.034
      -0.387
       1.155
       2.143
       1.479
      -0.666
      -3.003
      -4.148
      -3.607
      -1.940
      -0.124
       1.248
       2.280
       3.341
       4.368
       4.705
       3.762
       1.726
      -0.574
      -2.436
      -3.692
      -4.360
      -4.245
      -3.161
      -1.456
      -0.025
       0.431
       0.132
       0.061
       0.946
       2.422
       3.309
       2.726
       0.855
      -1.294
      -2.673
      -2.779
      -1.769
      -0.300
       0.810
       1.066
       0.696
       0.462
       0.875
       1.574
       1.614
       0.485
      -1.192
      -2.081
      -1.325
       0.615
       2.324
       2.671
       1.740
       0.524
      -0.204
      -0.557
      -1.110
      -2.074
      -3.018
      -3.293
      -2.587
      -1.156
       0.336
       1.201
       1.109
       0.338
      -0.349
      -0.261
       0.591
       1.511
       1.878
       1.809
       1.873
       2.213
       2.226
       1.253
      -0.538
      -2.163
      -2.698
      -2.038
      -0.823
       0.195
       0.594
       0.295
      -0.565
      -1.620
      -2.312
      -2.177
      -1.193
       0.238
       1.661
       2.801
       3.388
       3.002
       1.441
      -0.742
      -2.361
      -2.512
      -1.350
       0.160
       1.174
       1.534
       1.543
       1.382
       0.850
      -0.309
      -1.876
      -3.083
      -3.183
      -2.103
      -0.455
       1.041
       2.038
       2.500
       2.420
       1.753
       0.600
      -0.687
      -1.598
      -1.732
      -1.084
      -0.145
       0.398
       0.217
      -0.370
      -0.809
      -0.971
      -1.203
      -1.638
      -1.720
      -0.731
       1.227
       3.066
       3.641
       2.772
       1.286
       0.138
      -0.391
      -0.661
      -1.018
      -1.343
      -1.259
      -0.632
       0.231
       0.864
       1.029
       0.814
       0.410
      -0.090
      -0.621
      -0.978
      -0.904
      -0.415
       0.077
       0.121
      -0.300
      -0.765
      -0.897
      -0.684
      -0.302
       0.211
       0.886
       1.523
       1.682
       1.078
      -0.059
      -1.070
      -1.345
      -0.801
       0.067
       0.651
       0.712
       0.441
       0.181
       0.158
       0.350
       0.498
       0.353
      -0.052
      -0.422
      -0.547
      -0.518
      -0.565
      -0.728
      -0.786
      -0.556
      -0.147
       0.185
       0.377
       0.594
       0.930
       1.211
       1.140
       0.577
      -0.315
      -1.135
      -1.458
      -1.125
      -0.398
       0.224
       0.437
       0.359
       0.283
       0.283
       0.174
      -0.156
      -0.527
      -0.636
      -0.348
       0.161
       0.516
       0.467
       0.182
       0.110
       0.461
       0.901
       0.881
       0.222
      -0.714
      -1.370
      -1.424
      -0.926
      -0.147
       0.619
       1.143
       1.242
       0.837
       0.113
      -0.500
      -0.644
      -0.354
      -0.022
      -0.035
      -0.408
      -0.758
      -0.641
       0.000
       0.737
       1.029
       0.734
       0.222
      -0.045
      -0.015
      -0.045
      -0.372
      -0.714
      -0.556
       0.163
       0.830
       0.760
      -0.028
      -0.806
      -0.885
      -0.258
       0.540
       1.022
       1.081
       0.838
       0.401
      -0.183
      -0.831
      -1.383
      -1.648
      -1.487
      -0.889
      -0.018
       0.789
       1.176
       1.032
       0.590
       0.209
       0.049
      -0.001
      -0.103
      -0.233
      -0.195
       0.141
       0.596
       0.755
       0.356
      -0.392
      -0.971
      -1.015
      -0.567
       0.066
       0.563
       0.722
       0.515
       0.101
      -0.260
      -0.387
      -0.283
      -0.051
       0.241
       0.560
       0.787
       0.688
       0.114
      -0.758
      -1.442
      -1.467
      -0.756
       0.293
       1.092
       1.271
       0.903
       0.338
      -0.151
      -0.512
      -0.739
      -0.724
      -0.396
       0.109
       0.548
       0.805
       0.901
       0.801
       0.388
      -0.302
      -0.960
      -1.248
      -1.096
      -0.702
      -0.290
       0.021
       0.187
       0.187
       0.090
       0.076
       0.276
       0.556
       0.591
       0.232
      -0.256
      -0.423
      -0.115
       0.375
       0.628
       0.488
       0.111
      -0.258
      -0.459
      -0.444
      -0.244
       0.045
       0.297
       0.413
       0.371
       0.220
       0.075
       0.067
       0.221
       0.378
       0.336
       0.072
      -0.234
      -0.408
      -0.452
      -0.483
      -0.572
      -0.629
      -0.460
       0.019
       0.582
       0.792
       0.413
      -0.303
      -0.849
      -0.950
      -0.713
      -0.370
      -0.038
       0.265
       0.537
       0.778
       0.999
       1.152
       1.112
       0.763
       0.125
      -0.605
      -1.145
      -1.291
      -1.044
      -0.575
      -0.110
