Origin Time       11/11/2013 22:10:42 UTC
Lat.              28.4 N	
Long.             77.2 E	
Depth (Km)         11.0
Magnitude         2.8
 Region           DELHI                                                            
 Above details taken from IMD 
    
Station Code      VCD
Station Lat.       28.589  N
Station Long.      77.168  E
Station Height(m)  272.0
Site Class        C   Vs30 between 200 m/sec to 375 m/sec *  
Record Time       11.11.2013 22:10:20.989 UTC
Sampling Rate     200. Hz
 Record Duration   83.675 Sec.
 Direction         N-S (N positive)
Max. Acceleration      7.153 cm/sec**2
     
  * For reference see Site Classification link of website 
     
 Base Line Corrected and Low Pass Filtered (Cut Off at 35 Hz) Time History
 Acceleration data in cm/sec**2
    
[...]
      -0.006
      -0.010
      -0.007
       0.001
       0.007
       0.011
       0.012
       0.016
       0.021
       0.026
       0.028
       0.026
       0.019
       0.010
       0.005
       0.008
       0.014
       0.018
       0.016
       0.009
      -0.002
      -0.015
      -0.023
      -0.023
      -0.015
      -0.001
       0.014
       0.022
       0.019
       0.008
      -0.007
      -0.017
      -0.019
      -0.014
      -0.004
       0.007
       0.020
       0.033
       0.043
       0.045
       0.039
       0.025
       0.011
      -0.001
      -0.011
      -0.016
      -0.014
      -0.003
       0.013
       0.028
       0.037
       0.037
       0.027
       0.009
      -0.012
      -0.027
      -0.029
      -0.017
       0.005
       0.026
       0.038
       0.034
       0.019
       0.003
      -0.010
      -0.018
      -0.022
      -0.021
      -0.016
      -0.007
       0.006
       0.022
       0.035
       0.040
       0.033
       0.017
      -0.004
      -0.024
      -0.032
      -0.023
       0.000
       0.026
       0.040
       0.035
       0.014
      -0.011
      -0.026
      -0.026
      -0.017
      -0.006
       0.004
       0.014
       0.026
       0.036
       0.042
       0.041
       0.032
       0.020
       0.007
      -0.004
      -0.012
      -0.014
      -0.007
       0.011
       0.033
       0.048
       0.049
       0.038
       0.019
       0.001
      -0.011
      -0.015
      -0.014
      -0.011
      -0.009
      -0.006
       0.002
       0.014
       0.027
       0.033
       0.026
       0.007
      -0.014
      -0.024
      -0.020
      -0.006
       0.007
       0.016
       0.022
       0.026
       0.028
       0.024
       0.013
       0.000
      -0.007
      -0.003
       0.006
       0.015
       0.019
       0.019
       0.016
       0.009
       0.000
      -0.006
      -0.006
       0.003
       0.015
       0.023
       0.021
       0.012
       0.004
       0.002
       0.006
       0.007
       0.003
      -0.001
      -0.002
      -0.001
      -0.002
      -0.006
      -0.008
      -0.004
       0.006
       0.017
       0.020
       0.014
       0.001
      -0.009
      -0.014
      -0.015
      -0.015
      -0.015
      -0.015
      -0.014
      -0.008
       0.003
       0.012
       0.011
      -0.003
      -0.022
      -0.036
      -0.037
      -0.024
      -0.005
       0.012
       0.021
       0.026
       0.031
       0.035
       0.034
       0.021
      -0.005
      -0.032
      -0.047
      -0.042
      -0.020
       0.008
       0.026
       0.028
       0.014
      -0.009
      -0.028
      -0.034
      -0.026
      -0.010
       0.001
       0.007
       0.011
       0.014
       0.015
       0.012
       0.005
      -0.005
      -0.014
      -0.021
      -0.020
      -0.009
       0.008
       0.026
       0.038
       0.036
       0.019
      -0.009
      -0.035
      -0.049
      -0.048
      -0.034
      -0.014
       0.004
       0.014
       0.014
       0.008
       0.002
       0.000
       0.005
       0.014
       0.023
       0.027
       0.024
       0.015
       0.003
      -0.009
      -0.016
      -0.014
      -0.005
       0.003
       0.003
      -0.006
      -0.019
      -0.028
      -0.026
      -0.009
       0.015
       0.035
       0.043
       0.037
       0.022
       0.004
      -0.012
      -0.025
      -0.036
      -0.046
      -0.051
      -0.045
      -0.029
      -0.012
       0.001
       0.008
       0.014
       0.020
       0.026
       0.028
       0.023
       0.011
      -0.003
      -0.013
      -0.020
      -0.026
      -0.033
      -0.037
      -0.034
      -0.022
      -0.005
       0.014
       0.030
       0.038
       0.038
       0.029
       0.015
      -0.002
      -0.016
      -0.026
      -0.033
      -0.041
      -0.049
      -0.051
      -0.040
      -0.017
       0.010
       0.032
       0.044
       0.044
       0.037
       0.028
       0.019
       0.011
       0.003
      -0.004
      -0.013
      -0.027
      -0.045
      -0.058
      -0.059
      -0.045
      -0.021
       0.005
       0.026
       0.038
       0.039
       0.032
       0.018
       0.000
      -0.017
      -0.024
      -0.020
      -0.012
      -0.007
      -0.004
       0.001
       0.007
       0.012
       0.016
       0.019
       0.022
       0.025
       0.022
       0.012
      -0.005
      -0.019
      -0.021
      -0.010
       0.006
       0.012
       0.003
      -0.018
      -0.038
      -0.047
      -0.041
      -0.024
      -0.005
       0.009
       0.017
       0.018
       0.014
       0.008
       0.005
       0.003
      -0.001
      -0.006
      -0.009
      -0.008
      -0.005
      -0.005
      -0.006
      -0.006
      -0.007
      -0.009
      -0.015
      -0.019
      -0.017
      -0.007
       0.006
       0.016
       0.019
       0.016
       0.012
       0.007
       0.001
      -0.007
      -0.013
      -0.012
      -0.007
      -0.002
      -0.001
      -0.005
      -0.010
      -0.012
      -0.009
      -0.006
      -0.005
      -0.007
      -0.007
      -0.006
      -0.005
      -0.007
      -0.009
      -0.009
      -0.007
       0.000
       0.013
       0.031
       0.045
       0.049
       0.038
       0.016
      -0.012
      -0.037
      -0.049
      -0.045
      -0.029
      -0.012
       0.002
       0.008
       0.010
       0.010
       0.011
       0.010
       0.004
      -0.005
      -0.013
      -0.013
      -0.005
       0.008
       0.019
       0.021
       0.013
       0.001
      -0.007
      -0.007
      -0.001
       0.005
       0.007
       0.003
      -0.004
      -0.008
      -0.003
       0.010
       0.024
       0.031
       0.026
       0.012
      -0.007
      -0.024
      -0.029
      -0.020
      -0.004
       0.009
       0.012
       0.002
      -0.011
      -0.021
      -0.020
      -0.011
      -0.001
       0.009
       0.018
       0.027
       0.030
       0.022
       0.004
      -0.015
      -0.028
      -0.033
      -0.029
      -0.019
      -0.008
       0.001
       0.007
       0.009
       0.005
      -0.002
      -0.006
      -0.002
       0.004
       0.008
       0.007
       0.003
       0.000
       0.000
       0.003
       0.007
       0.010
       0.012
       0.013
       0.012
       0.005
      -0.011
      -0.029
      -0.039
      -0.032
      -0.011
       0.015
       0.036
       0.055
       0.075
       0.092
       0.088
       0.043
      -0.032
      -0.099
      -0.120
      -0.097
      -0.060
      -0.030
       0.000
       0.045
       0.091
       0.098
       0.042
      -0.047
      -0.099
      -0.076
      -0.005
       0.053
       0.069
       0.058
       0.043
       0.017
      -0.041
      -0.113
      -0.144
      -0.092
       0.021
       0.121
       0.146
       0.095
       0.017
      -0.038
      -0.050
      -0.028
       0.014
       0.064
       0.097
       0.081
       0.012
      -0.074
      -0.119
      -0.098
      -0.037
       0.014
       0.032
       0.033
       0.036
       0.034
       0.016
      -0.009
      -0.010
       0.026
       0.070
       0.074
       0.012
      -0.088
      -0.157
      -0.133
      -0.017
       0.121
       0.188
       0.149
       0.046
      -0.050
      -0.102
      -0.108
      -0.060
       0.051
       0.182
       0.234
       0.127
      -0.104
      -0.315
      -0.370
      -0.243
      -0.028
       0.157
       0.245
       0.239
       0.172
       0.072
      -0.035
      -0.112
      -0.126
      -0.076
      -0.001
       0.049
       0.059
       0.056
       0.079
       0.125
       0.145
       0.087
      -0.046
      -0.176
      -0.202
      -0.101
       0.032
       0.068
      -0.016
      -0.110
      -0.113
      -0.055
      -0.055
      -0.162
      -0.259
      -0.184
       0.085
       0.379
       0.490
       0.330
      -0.024
      -0.399
      -0.611
      -0.552
      -0.259
       0.110
       0.381
       0.458
       0.352
       0.153
      -0.025
      -0.090
      -0.021
       0.130
       0.246
       0.229
       0.075
      -0.121
      -0.257
      -0.289
      -0.230
      -0.131
      -0.054
      -0.015
       0.051
       0.199
       0.343
       0.295
       0.003
      -0.293
      -0.281
       0.048
       0.328
       0.222
      -0.183
      -0.471
      -0.365
      -0.003
       0.272
       0.290
       0.150
       0.021
      -0.019
       0.032
       0.125
       0.183
       0.182
       0.202
       0.295
       0.325
       0.086
      -0.419
      -0.893
      -1.012
      -0.705
      -0.182
       0.290
       0.581
       0.697
       0.655
       0.442
       0.106
      -0.208
      -0.341
      -0.245
      -0.012
       0.170
       0.122
      -0.208
      -0.674
      -1.003
      -0.960
      -0.491
       0.245
       0.944
       1.286
       1.112
       0.545
      -0.076
      -0.453
      -0.518
      -0.396
      -0.210
       0.013
       0.253
       0.388
       0.275
      -0.052
      -0.347
      -0.366
      -0.092
       0.259
       0.399
       0.168
      -0.316
      -0.673
      -0.542
       0.045
       0.637
       0.762
       0.350
      -0.250
      -0.621
      -0.602
      -0.339
      -0.070
       0.084
       0.159
       0.228
       0.311
       0.370
       0.369
       0.299
       0.172
       0.015
      -0.155
      -0.342
      -0.516
      -0.559
      -0.365
      -0.009
       0.250
       0.228
       0.045
       0.001
       0.212
       0.467
       0.470
       0.168
      -0.201
      -0.373
      -0.308
      -0.175
      -0.129
      -0.157
      -0.128
       0.009
       0.141
       0.129
       0.014
       0.010
       0.245
       0.571
       0.675
       0.401
      -0.089
      -0.487
      -0.623
      -0.577
      -0.504
      -0.425
      -0.235
       0.101
       0.442
       0.583
       0.471
       0.248
       0.078
      -0.027
      -0.157
      -0.314
      -0.359
      -0.179
       0.158
       0.443
       0.486
       0.234
      -0.206
      -0.610
      -0.719
      -0.394
       0.247
       0.847
       1.021
       0.636
      -0.075
      -0.657
      -0.740
      -0.323
       0.198
       0.353
       0.016
      -0.505
      -0.786
      -0.645
      -0.215
       0.254
       0.575
       0.669
       0.551
       0.317
       0.091
      -0.073
      -0.224
      -0.402
      -0.494
      -0.315
       0.139
       0.569
       0.598
       0.135
      -0.513
      -0.901
      -0.799
      -0.305
       0.298
       0.751
       0.914
       0.775
       0.427
       0.022
      -0.277
      -0.354
      -0.206
       0.022
       0.103
      -0.071
      -0.374
      -0.570
      -0.560
      -0.422
      -0.228
       0.059
       0.441
       0.741
       0.726
       0.373
      -0.082
      -0.373
      -0.417
      -0.306
      -0.160
      -0.063
      -0.068
      -0.182
      -0.316
      -0.302
      -0.022
       0.474
       0.956
       1.134
       0.843
       0.187
      -0.492
      -0.856
      -0.812
      -0.520
      -0.205
      -0.012
       0.032
      -0.016
      -0.078
      -0.112
      -0.094
       0.018
       0.267
       0.588
       0.765
       0.575
       0.031
      -0.552
      -0.797
      -0.592
      -0.156
       0.209
       0.364
       0.335
       0.175
      -0.057
      -0.234
      -0.198
       0.078
       0.411
       0.523
       0.288
      -0.139
      -0.465
      -0.523
      -0.369
      -0.161
      -0.021
       0.013
      -0.021
      -0.034
       0.032
       0.111
       0.062
      -0.158
      -0.401
      -0.436
      -0.177
       0.234
       0.547
       0.622
       0.539
       0.481
       0.498
       0.417
       0.068
      -0.453
      -0.830
      -0.820
      -0.462
      -0.018
       0.243
       0.253
       0.166
       0.161
       0.232
       0.213
       0.001
      -0.290
      -0.421
      -0.272
       0.028
       0.216
       0.173
       0.029
      -0.023
       0.029
       0.039
      -0.084
      -0.282
      -0.443
      -0.498
      -0.386
      -0.049
       0.444
       0.829
       0.852
       0.533
       0.149
      -0.101
      -0.292
      -0.536
      -0.638
      -0.229
       0.689
       1.490
       1.419
       0.353
      -1.019
      -1.810
      -1.654
      -0.863
      -0.004
       0.570
       0.815
       0.786
       0.521
       0.126
      -0.221
      -0.415
      -0.511
      -0.564
      -0.500
      -0.229
       0.153
       0.397
       0.372
       0.225
       0.202
       0.352
       0.456
       0.285
      -0.125
      -0.457
      -0.363
       0.239
       1.019
       1.401
       1.006
       0.042
      -0.790
      -0.895
      -0.351
       0.144
      -0.094
      -1.139
      -2.404
      -3.022
      -2.367
      -0.447
       1.989
       3.792
       4.052
       2.649
       0.315
      -1.820
      -2.865
      -2.569
      -1.340
       0.052
       0.913
       1.007
       0.620
       0.253
       0.189
       0.351
       0.531
       0.647
       0.735
       0.749
       0.526
       0.026
      -0.485
      -0.640
      -0.394
      -0.126
      -0.228
      -0.630
      -0.866
      -0.606
       0.024
       0.680
       1.187
       1.486
       1.272
       0.031
      -2.289
      -4.749
      -5.809
      -4.423
      -0.865
       3.374
       6.449
       7.153
       5.497
       2.592
      -0.089
      -1.640
      -2.142
      -2.250
      -2.355
      -2.236
      -1.533
      -0.384
       0.563
       0.738
       0.135
      -0.759
      -1.333
      -1.157
      -0.168
       1.207
       2.144
       1.929
       0.544
      -1.226
      -2.312
      -2.022
      -0.389
       1.864
       3.628
       3.916
       2.460
       0.040
      -1.871
      -2.151
      -0.928
       0.612
       1.359
       1.133
       0.459
      -0.232
      -1.001
      -2.111
      -3.490
      -4.526
      -4.435
      -2.923
      -0.551
       1.547
       2.379
       1.665
      -0.044
      -1.629
      -1.944
      -0.502
       2.102
       4.508
       5.531
       4.906
       3.190
       1.095
      -0.949
      -2.622
      -3.409
      -2.822
      -1.003
       1.065
       2.151
       1.666
       0.014
      -1.852
      -3.161
      -3.667
      -3.387
      -2.217
      -0.002
       2.929
       5.463
       6.240
       4.689
       1.535
      -1.740
      -3.876
      -4.318
      -3.089
      -0.680
       1.895
       3.358
       2.976
       1.198
      -0.711
      -1.768
      -1.889
      -1.493
      -0.877
      -0.207
       0.107
      -0.467
      -1.947
      -3.510
      -4.002
      -2.778
      -0.205
       2.482
       3.910
       3.510
       1.955
       0.571
       0.209
       0.653
       1.058
       0.813
      -0.024
      -0.957
      -1.541
      -1.640
      -1.314
      -0.552
       0.766
       2.526
       4.049
       4.329
       2.825
       0.082
      -2.516
      -3.694
      -3.106
      -1.424
       0.230
       0.993
       0.695
      -0.193
      -1.054
      -1.645
      -2.051
      -2.114
      -1.220
       0.950
       3.514
       4.725
       3.535
       0.721
      -1.775
      -2.601
      -1.979
      -1.053
      -0.606
      -0.612
      -0.722
      -0.785
      -0.804
      -0.699
      -0.320
       0.303
       0.819
       0.775
       0.089
      -0.691
      -0.763
       0.130
       1.309
       1.734
       1.012
      -0.205
      -0.825
      -0.287
       0.977
       1.878
       1.526
      -0.004
      -1.643
      -2.185
      -1.386
      -0.200
       0.190
      -0.388
      -0.893
      -0.168
       1.733
       3.402
       3.349
       1.443
      -0.952
      -2.267
      -2.052
      -1.074
      -0.330
      -0.173
      -0.339
      -0.503
      -0.549
      -0.408
      -0.004
       0.496
       0.662
       0.324
      -0.009
       0.378
       1.450
       2.204
       1.596
      -0.394
      -2.687
      -3.989
      -3.638
      -1.814
       0.703
       2.887
       3.866
       3.328
       1.673
      -0.257
      -1.651
      -2.092
      -1.649
      -0.771
      -0.004
       0.330
       0.285
       0.141
       0.085
       0.021
      -0.246
      -0.682
      -0.917
      -0.581
       0.294
       1.272
       1.927
       2.118
       1.813
       0.849
      -0.841
      -2.745
      -3.797
      -3.197
      -1.242
       0.793
       1.716
       1.329
       0.362
      -0.344
      -0.506
      -0.378
      -0.281
      -0.207
       0.164
       1.041
       2.122
       2.691
       2.207
       0.817
      -0.718
      -1.579
      -1.430
      -0.561
       0.384
       0.826
       0.540
      -0.310
      -1.315
      -2.036
      -2.201
      -1.723
      -0.616
       0.960
       2.500
       3.206
       2.514
       0.690
      -1.201
      -2.080
      -1.684
      -0.657
       0.140
       0.363
       0.228
       0.022
      -0.209
      -0.451
      -0.506
      -0.210
       0.248
       0.426
       0.095
      -0.455
      -0.666
      -0.267
       0.436
       0.846
       0.623
      -0.009
      -0.441
      -0.198
       0.598
       1.293
       1.309
       0.681
      -0.070
      -0.519
      -0.652
      -0.654
      -0.615
      -0.549
      -0.541
      -0.674
      -0.831
      -0.700
      -0.098
       0.763
       1.366
       1.291
       0.558
      -0.327
      -0.731
      -0.435
       0.134
       0.311
      -0.137
      -0.793
      -1.009
      -0.511
       0.351
       0.896
       0.680
      -0.148
      -1.009
      -1.363
      -1.070
      -0.357
       0.447
       1.139
       1.660
       1.937
       1.813
       1.190
       0.238
      -0.623
      -1.028
      -0.911
      -0.481
      -0.031
       0.221
       0.175
      -0.120
      -0.449
      -0.539
      -0.326
      -0.106
      -0.247
      -0.671
      -0.770
      -0.037
       1.214
       1.956
       1.403
      -0.188
      -1.747
      -2.328
      -1.794
      -0.697
       0.301
       0.867
       1.020
       0.922
       0.677
       0.309
      -0.115
      -0.431
      -0.491
      -0.300
      -0.021
       0.184
       0.288
       0.353
       0.385
       0.292
       0.026
      -0.308
      -0.521
      -0.472
      -0.120
       0.439
       0.945
       1.101
       0.811
       0.231
      -0.417
      -0.998
      -1.398
      -1.451
      -1.029
      -0.212
       0.693
       1.324
       1.467
       1.133
       0.513
      -0.105
      -0.419
      -0.237
       0.357
       0.934
       0.939
       0.125
      -1.142
      -2.092
      -2.151
      -1.389
      -0.364
       0.421
       0.828
       0.916
       0.711
       0.274
      -0.142
      -0.232
       0.031
       0.331
       0.340
       0.072
      -0.125
       0.042
       0.474
       0.733
       0.452
      -0.279
      -0.937
      -1.019
      -0.521
       0.056
       0.190
      -0.175
      -0.631
      -0.763
      -0.530
      -0.164
       0.207
       0.667
       1.230
       1.629
       1.517
       0.845
      -0.042
      -0.693
      -0.872
