Origin Time       11/11/2013 19:11:18
Lat.              28.5 N	
Long.             77.2 E	
Depth (Km)         10.0
Magnitude         3.1
 Region           DELHI                                                            
 Above details taken from IMD 
     
Station Code      VCD
Station Lat.       28.589  N
Station Long.      77.168  E
Station Height(m)  272.0
Site Class        C   Vs30 between 200 m/sec to 375 m/sec *  
Record Time       11.11.2013 19:10:54.724
Sampling Rate     200. Hz
 Record Duration  155.465 Sec.
 Direction         E-W (E positive)
Max. Acceleration     -5.850 cm/sec**2
     
  * For reference see Site Classification link of website 
     
 Base Line Corrected and Low Pass Filtered (Cut Off at 35 Hz) Time History
 Acceleration data in cm/sec**2
    
[...]
       0.022
       0.020
       0.014
       0.002
      -0.011
      -0.022
      -0.027
      -0.021
      -0.006
       0.012
       0.022
       0.022
       0.012
       0.002
      -0.004
      -0.005
      -0.007
      -0.008
      -0.008
      -0.005
       0.001
       0.006
       0.010
       0.010
       0.004
      -0.009
      -0.024
      -0.033
      -0.029
      -0.010
       0.013
       0.028
       0.026
       0.012
      -0.008
      -0.023
      -0.029
      -0.026
      -0.016
      -0.005
       0.006
       0.016
       0.023
       0.026
       0.022
       0.011
      -0.001
      -0.009
      -0.010
      -0.003
       0.009
       0.022
       0.029
       0.027
       0.015
      -0.002
      -0.015
      -0.016
      -0.006
       0.009
       0.019
       0.019
       0.012
       0.002
      -0.006
      -0.009
      -0.007
       0.002
       0.014
       0.026
       0.034
       0.034
       0.026
       0.015
       0.004
      -0.005
      -0.013
      -0.020
      -0.025
      -0.028
      -0.028
      -0.029
      -0.027
      -0.020
      -0.002
       0.021
       0.042
       0.048
       0.036
       0.010
      -0.018
      -0.034
      -0.034
      -0.021
      -0.005
       0.005
       0.007
       0.000
      -0.011
      -0.017
      -0.013
       0.003
       0.025
       0.041
       0.038
       0.015
      -0.017
      -0.042
      -0.049
      -0.040
      -0.025
      -0.012
      -0.006
      -0.006
      -0.006
       0.000
       0.012
       0.022
       0.024
       0.016
       0.004
      -0.004
      -0.003
       0.004
       0.014
       0.023
       0.030
       0.030
       0.018
      -0.003
      -0.025
      -0.038
      -0.038
      -0.032
      -0.024
      -0.016
      -0.005
       0.007
       0.014
       0.011
      -0.002
      -0.017
      -0.025
      -0.022
      -0.013
      -0.001
       0.011
       0.021
       0.029
       0.033
       0.028
       0.016
       0.002
      -0.007
      -0.009
      -0.008
      -0.003
       0.008
       0.026
       0.049
       0.066
       0.065
       0.042
       0.005
      -0.031
      -0.051
      -0.052
      -0.042
      -0.031
      -0.023
      -0.016
      -0.007
       0.006
       0.018
       0.023
       0.020
       0.010
       0.000
      -0.006
      -0.006
      -0.003
       0.001
       0.004
       0.004
       0.000
      -0.006
      -0.011
      -0.014
      -0.012
      -0.008
      -0.004
      -0.001
       0.002
       0.004
       0.005
       0.004
       0.001
      -0.002
      -0.001
       0.003
       0.006
       0.005
       0.004
       0.007
       0.015
       0.021
       0.019
       0.010
      -0.001
      -0.006
      -0.006
      -0.002
      -0.002
      -0.005
      -0.006
      -0.001
       0.010
       0.019
       0.015
      -0.002
      -0.024
      -0.037
      -0.031
      -0.008
       0.020
       0.038
       0.038
       0.023
       0.004
      -0.010
      -0.015
      -0.009
       0.002
       0.012
       0.016
       0.015
       0.010
       0.002
      -0.006
      -0.013
      -0.020
      -0.026
      -0.030
      -0.031
      -0.027
      -0.019
      -0.007
       0.008
       0.025
       0.038
       0.043
       0.040
       0.029
       0.013
      -0.007
      -0.026
      -0.040
      -0.043
      -0.036
      -0.022
      -0.008
       0.000
       0.001
       0.000
       0.000
       0.002
       0.003
      -0.001
      -0.010
      -0.020
      -0.025
      -0.020
      -0.004
       0.017
       0.033
       0.036
       0.025
       0.005
      -0.016
      -0.032
      -0.041
      -0.042
      -0.035
      -0.021
      -0.002
       0.019
       0.040
       0.058
       0.066
       0.060
       0.041
       0.013
      -0.017
      -0.040
      -0.051
      -0.048
      -0.034
      -0.016
       0.000
       0.011
       0.015
       0.012
       0.010
       0.013
       0.018
       0.019
       0.009
      -0.010
      -0.027
      -0.032
      -0.020
       0.002
       0.028
       0.050
       0.064
       0.065
       0.050
       0.019
      -0.019
      -0.050
      -0.066
      -0.065
      -0.053
      -0.035
      -0.018
      -0.004
       0.009
       0.021
       0.030
       0.032
       0.026
       0.017
       0.009
       0.003
      -0.004
      -0.013
      -0.019
      -0.021
      -0.017
      -0.010
      -0.004
       0.002
       0.007
       0.011
       0.009
       0.001
      -0.013
      -0.026
      -0.035
      -0.037
      -0.030
      -0.013
       0.010
       0.029
       0.035
       0.026
       0.008
      -0.010
      -0.023
      -0.032
      -0.041
      -0.053
      -0.065
      -0.068
      -0.056
      -0.029
       0.003
       0.027
       0.041
       0.046
       0.046
       0.043
       0.036
       0.026
       0.017
       0.009
       0.004
      -0.002
      -0.008
      -0.015
      -0.023
      -0.030
      -0.031
      -0.021
      -0.002
       0.020
       0.033
       0.029
       0.011
      -0.011
      -0.023
      -0.019
      -0.007
       0.000
      -0.004
      -0.015
      -0.023
      -0.018
      -0.001
       0.021
       0.039
       0.049
       0.052
       0.050
       0.040
       0.020
      -0.005
      -0.025
      -0.029
      -0.022
      -0.014
      -0.014
      -0.021
      -0.024
      -0.015
       0.006
       0.028
       0.041
       0.039
       0.028
       0.015
       0.005
       0.000
       0.000
       0.005
       0.012
       0.016
       0.012
       0.000
      -0.017
      -0.033
      -0.044
      -0.046
      -0.037
      -0.020
      -0.002
       0.012
       0.018
       0.020
       0.022
       0.027
       0.032
       0.034
       0.027
       0.011
      -0.009
      -0.023
      -0.026
      -0.019
      -0.008
       0.002
       0.009
       0.015
       0.019
       0.016
       0.010
       0.003
       0.003
       0.010
       0.021
       0.026
       0.023
       0.013
       0.003
      -0.002
      -0.002
       0.000
       0.003
       0.007
       0.012
       0.017
       0.020
       0.020
       0.013
       0.004
      -0.005
      -0.010
      -0.015
      -0.024
      -0.035
      -0.042
      -0.037
      -0.021
      -0.004
       0.004
      -0.001
      -0.012
      -0.020
      -0.018
      -0.009
       0.002
       0.010
       0.012
       0.010
       0.002
      -0.010
      -0.023
      -0.030
      -0.027
      -0.014
       0.002
       0.012
       0.011
       0.002
      -0.008
      -0.014
      -0.013
      -0.008
      -0.001
       0.002
       0.000
      -0.009
      -0.023
      -0.032
      -0.028
      -0.010
       0.012
       0.023
       0.014
      -0.008
      -0.029
      -0.042
      -0.045
      -0.038
      -0.023
      -0.005
       0.009
       0.011
       0.004
      -0.004
      -0.009
      -0.009
      -0.013
      -0.026
      -0.044
      -0.055
      -0.050
      -0.028
       0.002
       0.026
       0.027
       0.003
      -0.029
      -0.041
      -0.016
       0.027
       0.046
       0.008
      -0.071
      -0.126
      -0.097
       0.009
       0.114
       0.126
       0.018
      -0.131
      -0.182
      -0.044
       0.227
       0.432
       0.366
      -0.006
      -0.461
      -0.653
      -0.402
       0.104
       0.444
       0.344
      -0.059
      -0.355
      -0.263
       0.111
       0.406
       0.371
       0.102
      -0.089
      -0.014
       0.199
       0.251
      -0.014
      -0.441
      -0.695
      -0.570
      -0.189
       0.126
       0.193
       0.124
       0.156
       0.341
       0.473
       0.335
      -0.021
      -0.279
      -0.194
       0.128
       0.325
       0.137
      -0.371
      -0.877
      -1.023
      -0.649
       0.076
       0.734
       0.973
       0.768
       0.407
       0.195
       0.191
       0.207
       0.025
      -0.384
      -0.836
      -1.064
      -0.878
      -0.284
       0.464
       0.967
       0.951
       0.477
      -0.108
      -0.457
      -0.452
      -0.225
       0.018
       0.154
       0.162
       0.062
      -0.132
      -0.377
      -0.547
      -0.490
      -0.150
       0.360
       0.786
       0.866
       0.511
      -0.094
      -0.585
      -0.658
      -0.284
       0.261
       0.588
       0.458
      -0.053
      -0.597
      -0.788
      -0.472
       0.162
       0.686
       0.744
       0.328
      -0.220
      -0.512
      -0.407
      -0.028
       0.388
       0.574
       0.348
      -0.211
      -0.705
      -0.687
      -0.076
       0.703
       1.018
       0.570
      -0.310
      -0.907
      -0.762
      -0.091
       0.461
       0.450
      -0.031
      -0.562
      -0.802
      -0.692
      -0.371
       0.014
       0.406
       0.776
       0.998
       0.879
       0.365
      -0.288
      -0.641
      -0.450
       0.104
       0.559
       0.552
       0.086
      -0.514
      -0.844
      -0.696
      -0.233
       0.115
       0.048
      -0.265
      -0.297
       0.283
       1.175
       1.628
       1.113
      -0.155
      -1.359
      -1.748
      -1.195
      -0.162
       0.741
       1.129
       0.916
       0.242
      -0.573
      -1.087
      -0.944
      -0.157
       0.799
       1.268
       0.893
      -0.093
      -1.002
      -1.181
      -0.503
       0.518
       1.135
       0.970
       0.285
      -0.331
      -0.510
      -0.338
      -0.122
      -0.063
      -0.140
      -0.215
      -0.168
      -0.001
       0.165
       0.174
      -0.038
      -0.360
      -0.536
      -0.306
       0.358
       1.130
       1.492
       1.113
       0.133
      -0.895
      -1.365
      -1.063
      -0.321
       0.294
       0.482
       0.377
       0.241
       0.101
      -0.211
      -0.689
      -0.989
      -0.710
       0.135
       1.020
       1.328
       0.908
       0.170
      -0.335
      -0.382
      -0.165
      -0.023
      -0.115
      -0.322
      -0.425
      -0.338
      -0.139
       0.056
       0.200
       0.275
       0.232
       0.057
      -0.135
      -0.164
       0.038
       0.325
       0.455
       0.317
       0.043
      -0.130
      -0.101
       0.025
       0.077
      -0.030
      -0.263
      -0.510
      -0.617
      -0.463
      -0.056
       0.428
       0.738
       0.716
       0.408
       0.017
      -0.269
      -0.405
      -0.438
      -0.372
      -0.163
       0.154
       0.405
       0.409
       0.170
      -0.126
      -0.301
      -0.316
      -0.217
      -0.036
       0.215
       0.467
       0.569
       0.405
       0.011
      -0.421
      -0.684
      -0.669
      -0.377
       0.117
       0.649
       0.970
       0.866
       0.349
      -0.296
      -0.684
      -0.596
      -0.127
       0.360
       0.477
       0.097
      -0.531
      -0.953
      -0.862
      -0.332
       0.247
       0.511
       0.417
       0.235
       0.222
       0.349
       0.385
       0.201
      -0.074
      -0.189
      -0.042
       0.186
       0.187
      -0.175
      -0.700
      -0.973
      -0.694
       0.048
       0.823
       1.181
       0.971
       0.395
      -0.198
      -0.574
      -0.712
      -0.679
      -0.486
      -0.132
       0.256
       0.446
       0.327
       0.068
      -0.032
       0.149
       0.437
       0.546
       0.341
      -0.064
      -0.416
      -0.493
      -0.215
       0.298
       0.724
       0.689
       0.070
      -0.808
      -1.361
      -1.244
      -0.636
      -0.007
       0.358
       0.531
       0.688
       0.822
       0.750
       0.364
      -0.165
      -0.486
      -0.399
      -0.075
       0.115
      -0.034
      -0.366
      -0.518
      -0.241
       0.379
       0.968
       1.122
       0.699
      -0.072
      -0.758
      -1.018
      -0.788
      -0.260
       0.260
       0.519
       0.413
       0.007
      -0.494
      -0.825
      -0.800
      -0.429
       0.098
       0.562
       0.857
       1.047
       1.269
       1.548
       1.706
       1.509
       0.950
       0.343
       0.070
       0.207
       0.397
       0.133
      -0.791
      -2.057
      -3.056
      -3.374
      -3.063
      -2.488
      -1.941
      -1.441
      -0.871
      -0.224
       0.359
       0.777
       1.092
       1.399
       1.673
       1.789
       1.657
       1.279
       0.747
       0.252
       0.067
       0.409
       1.219
       2.096
       2.538
       2.317
       1.599
       0.727
      -0.073
      -0.754
      -1.308
      -1.681
      -1.842
      -1.852
      -1.785
      -1.619
      -1.309
      -0.975
      -0.857
      -1.007
      -1.086
      -0.620
       0.463
       1.604
       1.983
       1.195
      -0.425
      -2.089
      -3.088
      -3.095
      -2.172
      -0.665
       0.932
       2.161
       2.756
       2.729
       2.297
       1.717
       1.156
       0.699
       0.423
       0.416
       0.716
       1.245
       1.788
       2.051
       1.792
       0.942
      -0.321
      -1.592
      -2.400
      -2.476
      -1.909
      -1.073
      -0.435
      -0.376
      -0.987
      -1.911
      -2.465
      -2.153
      -1.130
      -0.088
       0.423
       0.551
       0.996
       2.276
       4.061
       5.205
       4.603
       2.215
      -0.736
      -2.622
      -2.584
      -1.104
       0.369
       0.443
      -1.211
      -3.659
      -5.483
      -5.850
      -4.912
      -3.306
      -1.438
       0.696
       3.042
       5.003
       5.640
       4.482
       2.161
       0.140
      -0.336
       0.810
       2.512
       3.500
       3.180
       1.734
      -0.297
      -2.289
      -3.633
      -3.936
      -3.259
      -2.058
      -0.799
       0.333
       1.277
       1.691
       1.023
      -0.743
      -2.570
      -3.017
      -1.475
       1.297
       3.793
       4.838
       4.233
       2.576
       0.601
      -1.208
      -2.506
      -3.001
      -2.705
      -2.047
      -1.492
      -1.088
      -0.543
       0.336
       1.341
       1.893
       1.409
      -0.105
      -1.786
      -2.510
      -1.889
      -0.556
       0.566
       1.098
       1.259
       1.270
       0.998
       0.265
      -0.670
      -1.175
      -0.787
       0.342
       1.541
       2.151
       2.023
       1.496
       0.885
       0.148
      -0.808
      -1.634
      -1.714
      -0.895
       0.206
       0.790
       0.642
       0.241
       0.224
       0.757
       1.280
       0.941
      -0.494
      -2.197
      -2.952
      -2.280
      -0.775
       0.555
       1.134
       1.072
       0.791
       0.478
       0.006
      -0.647
      -1.123
      -1.024
      -0.444
       0.070
       0.105
      -0.222
      -0.492
      -0.425
       0.005
       0.775
       1.832
       2.812
       2.974
       1.780
      -0.404
      -2.406
      -3.187
      -2.567
      -1.041
       0.844
       2.670
       3.868
       3.735
       2.037
      -0.537
      -2.768
      -3.834
      -3.778
      -3.127
      -2.237
      -1.151
       0.021
       0.901
       1.192
       1.071
       0.974
       1.067
       1.135
       0.970
       0.693
       0.588
       0.739
       0.905
       0.779
       0.347
       0.009
       0.226
       0.888
       1.138
       0.116
      -2.018
      -4.008
      -4.502
      -3.092
      -0.462
       2.195
       3.837
       3.966
       2.754
       0.878
      -0.877
      -2.000
      -2.376
      -2.142
      -1.441
      -0.317
       1.115
       2.417
       2.906
       2.146
       0.410
      -1.393
      -2.347
      -2.145
      -1.189
      -0.129
       0.693
       1.387
       2.139
       2.726
       2.534
       1.183
      -0.924
      -2.802
      -3.660
      -3.439
      -2.630
      -1.682
      -0.653
       0.600
       1.949
       2.857
       2.813
       1.884
       0.669
      -0.330
      -1.123
      -1.929
      -2.636
      -2.738
      -1.849
      -0.194
       1.457
       2.387
       2.486
       2.205
       1.959
       1.687
       1.061
       0.043
      -0.947
      -1.421
      -1.257
      -0.720
      -0.124
       0.416
       0.864
       1.014
       0.577
      -0.428
      -1.484
      -1.958
      -1.644
      -0.874
      -0.109
       0.456
       0.861
       1.125
       1.129
       0.729
      -0.039
      -0.841
      -1.213
      -0.973
      -0.418
       0.011
       0.254
       0.643
       1.358
       1.993
       1.800
       0.439
      -1.534
      -2.983
      -3.082
      -1.936
      -0.335
       1.003
       1.885
       2.439
       2.688
       2.435
       1.536
       0.167
      -1.203
      -2.115
      -2.395
      -2.138
      -1.482
      -0.470
       0.820
       2.030
       2.539
       1.934
       0.490
      -0.950
      -1.662
      -1.578
      -1.157
      -0.821
      -0.619
      -0.361
       0.048
       0.480
       0.744
       0.793
       0.742
       0.663
       0.442
      -0.055
      -0.691
      -1.076
      -0.930
      -0.404
       0.032
       0.043
      -0.247
      -0.403
      -0.113
       0.556
       1.270
       1.712
       1.749
       1.411
       0.812
       0.112
      -0.516
      -0.991
      -1.401
      -1.838
      -2.136
      -1.874
      -0.775
       0.852
       2.161
       2.415
       1.627
       0.502
      -0.234
      -0.363
      -0.107
       0.239
       0.490
       0.540
       0.344
      -0.049
      -0.524
      -0.959
      -1.275
      -1.445
      -1.467
      -1.300
      -0.880
      -0.263
       0.289
       0.492
       0.334
       0.127
       0.214
       0.633
       1.096
       1.273
       1.079
       0.719
       0.455
       0.338
       0.184
      -0.138
      -0.467
      -0.521
      -0.268
       0.015
       0.077
      -0.036
      -0.108
      -0.060
      -0.028
      -0.173
      -0.435
      -0.548
      -0.324
       0.136
       0.560
       0.757
       0.684
       0.336
      -0.271
      -0.973
      -1.424
      -1.300
      -0.558
       0.488
       1.359
       1.695
       1.421
       0.708
      -0.181
      -0.970
      -1.371
      -1.174
      -0.430
       0.487
       1.074
       1.019
       0.378
      -0.482
      -1.087
      -1.075
      -0.397
       0.594
       1.280
       1.158
       0.203
      -1.060
      -1.894
      -1.833
      -0.938
       0.349
       1.535
       2.249
       2.261
       1.543
       0.373
      -0.746
      -1.386
      -1.446
      -1.109
      -0.624
      -0.156
       0.241
       0.561
       0.776
       0.768
       0.383
      -0.378
      -1.207
      -1.605
      -1.230
      -0.188
       1.001
       1.733
       1.692
       1.004
       0.097
      -0.567
      -0.742
      -0.470
       0.024
       0.488
       0.735
       0.675
       0.307
      -0.241
      -0.710
      -0.802
      -0.409
       0.227
       0.659
       0.605
       0.164
      -0.362
      -0.813
      -1.222
      -1.534
      -1.428
      -0.597
       0.791
       1.997
       2.210
       1.204
      -0.430
      -1.713
      -1.979
      -1.249
      -0.059
       1.004
       1.591
       1.581
       1.007
