Origin Time       11/11/2013 19:11:18
Lat.              28.5 N	
Long.             77.2 E	
Depth (Km)         10.0
Magnitude         3.1
 Region           DELHI                                                            
 Above details taken from IMD 
   
Station Code      VCD
Station Lat.       28.589
Station Long.      77.168
Station Height(m)  272.0
Site Class        C   Vs30 between 200 m/sec to 375 m/sec *  
Record Time       11.11.2013 19:10:54.724
Sampling Rate     200. Hz
 Record Duration  155.465 Sec.
 Direction         Vert. (Up positive)
Max. Acceleration      4.323 cm/sec**2
     
  * For reference see Site Classification link of website 
     
 Base Line Corrected and Low Pass Filtered (Cut Off at 35 Hz) Time History
 Acceleration data in cm/sec**2
    
[...]
       0.004
       0.008
       0.000
      -0.018
      -0.039
      -0.050
      -0.044
      -0.021
       0.008
       0.028
       0.032
       0.020
       0.003
      -0.011
      -0.015
      -0.012
      -0.009
      -0.009
      -0.009
      -0.003
       0.009
       0.020
       0.021
       0.011
      -0.003
      -0.012
      -0.011
      -0.004
       0.003
       0.004
       0.000
      -0.008
      -0.012
      -0.011
      -0.004
       0.003
       0.009
       0.012
       0.012
       0.008
       0.000
      -0.009
      -0.016
      -0.015
      -0.009
       0.000
       0.007
       0.011
       0.016
       0.022
       0.026
       0.022
       0.008
      -0.011
      -0.026
      -0.027
      -0.016
      -0.001
       0.010
       0.011
       0.007
       0.005
       0.010
       0.015
       0.014
       0.004
      -0.009
      -0.019
      -0.022
      -0.020
      -0.015
      -0.010
      -0.004
       0.003
       0.010
       0.015
       0.013
       0.007
      -0.002
      -0.008
      -0.007
       0.000
       0.010
       0.016
       0.016
       0.009
       0.000
      -0.009
      -0.018
      -0.025
      -0.028
      -0.025
      -0.017
      -0.008
      -0.003
      -0.003
      -0.004
      -0.002
       0.005
       0.010
       0.010
       0.005
      -0.002
      -0.007
      -0.010
      -0.013
      -0.016
      -0.016
      -0.009
       0.004
       0.020
       0.031
       0.031
       0.022
       0.011
       0.005
       0.008
       0.014
       0.013
       0.003
      -0.012
      -0.022
      -0.021
      -0.011
      -0.001
       0.005
       0.007
       0.006
       0.001
      -0.007
      -0.016
      -0.022
      -0.023
      -0.020
      -0.014
      -0.006
       0.005
       0.016
       0.025
       0.026
       0.017
       0.001
      -0.012
      -0.014
      -0.006
       0.005
       0.012
       0.012
       0.010
       0.008
       0.008
       0.005
      -0.003
      -0.015
      -0.025
      -0.029
      -0.029
      -0.027
      -0.025
      -0.018
      -0.004
       0.015
       0.031
       0.039
       0.038
       0.029
       0.016
       0.002
      -0.009
      -0.011
      -0.006
       0.003
       0.009
       0.007
      -0.004
      -0.017
      -0.024
      -0.020
      -0.008
       0.005
       0.013
       0.015
       0.015
       0.015
       0.017
       0.018
       0.015
       0.010
       0.003
      -0.003
      -0.008
      -0.011
      -0.010
      -0.005
       0.001
       0.005
       0.004
      -0.001
      -0.007
      -0.009
      -0.008
      -0.005
      -0.004
      -0.006
      -0.007
      -0.006
      -0.003
      -0.002
      -0.004
      -0.008
      -0.008
      -0.005
      -0.001
       0.001
       0.000
      -0.003
      -0.004
      -0.002
       0.005
       0.014
       0.024
       0.029
       0.026
       0.013
      -0.006
      -0.024
      -0.034
      -0.035
      -0.027
      -0.016
      -0.006
       0.002
       0.007
       0.011
       0.012
       0.010
       0.008
       0.006
       0.006
       0.005
       0.001
      -0.004
      -0.009
      -0.011
      -0.012
      -0.012
      -0.013
      -0.012
      -0.008
      -0.002
       0.003
       0.004
       0.001
      -0.006
      -0.013
      -0.019
      -0.021
      -0.016
      -0.004
       0.011
       0.024
       0.028
       0.019
       0.000
      -0.021
      -0.038
      -0.042
      -0.032
      -0.015
       0.002
       0.009
       0.006
      -0.004
      -0.010
      -0.006
       0.007
       0.022
       0.030
       0.029
       0.020
       0.006
      -0.008
      -0.020
      -0.024
      -0.021
      -0.012
      -0.003
       0.000
      -0.004
      -0.011
      -0.012
      -0.006
       0.004
       0.009
       0.005
      -0.004
      -0.013
      -0.015
      -0.009
       0.000
       0.007
       0.012
       0.013
       0.011
       0.003
      -0.010
      -0.025
      -0.034
      -0.032
      -0.021
      -0.007
       0.003
       0.007
       0.006
       0.000
      -0.007
      -0.011
      -0.006
       0.007
       0.021
       0.026
       0.018
      -0.001
      -0.021
      -0.034
      -0.039
      -0.035
      -0.025
      -0.014
      -0.003
       0.003
       0.004
       0.003
       0.004
       0.010
       0.017
       0.020
       0.016
       0.007
      -0.002
      -0.005
      -0.003
      -0.001
      -0.005
      -0.013
      -0.021
      -0.024
      -0.020
      -0.015
      -0.012
      -0.015
      -0.020
      -0.022
      -0.018
      -0.005
       0.011
       0.023
       0.024
       0.014
       0.000
      -0.009
      -0.009
       0.000
       0.010
       0.015
       0.010
      -0.003
      -0.021
      -0.035
      -0.042
      -0.037
      -0.023
      -0.004
       0.013
       0.022
       0.019
       0.006
      -0.008
      -0.015
      -0.010
       0.001
       0.008
       0.008
       0.003
       0.000
       0.002
       0.007
       0.008
       0.008
       0.009
       0.015
       0.019
       0.014
       0.000
      -0.015
      -0.020
      -0.013
      -0.003
      -0.003
      -0.016
      -0.033
      -0.041
      -0.035
      -0.018
       0.001
       0.013
       0.017
       0.015
       0.011
       0.004
      -0.005
      -0.015
      -0.021
      -0.019
      -0.008
       0.006
       0.015
       0.016
       0.008
      -0.003
      -0.012
      -0.018
      -0.023
      -0.027
      -0.028
      -0.023
      -0.011
       0.004
       0.012
       0.009
      -0.001
      -0.012
      -0.018
      -0.019
      -0.016
      -0.012
      -0.009
      -0.010
      -0.012
      -0.012
      -0.009
      -0.004
       0.000
       0.002
       0.003
       0.004
       0.006
       0.006
       0.004
       0.000
      -0.004
      -0.007
      -0.008
      -0.008
      -0.005
       0.001
       0.011
       0.018
       0.019
       0.016
       0.012
       0.009
       0.005
      -0.003
      -0.018
      -0.035
      -0.047
      -0.050
      -0.041
      -0.024
      -0.004
       0.011
       0.018
       0.015
       0.007
       0.000
       0.000
       0.005
       0.010
       0.009
       0.002
      -0.009
      -0.018
      -0.024
      -0.025
      -0.022
      -0.014
      -0.002
       0.008
       0.012
       0.009
       0.002
      -0.005
      -0.012
      -0.018
      -0.021
      -0.018
      -0.009
       0.003
       0.012
       0.015
       0.012
       0.006
       0.004
       0.007
       0.011
       0.011
       0.003
      -0.009
      -0.017
      -0.017
      -0.010
      -0.002
       0.005
       0.010
       0.014
       0.015
       0.009
      -0.004
      -0.020
      -0.033
      -0.037
      -0.030
      -0.015
       0.002
       0.017
       0.023
       0.019
       0.012
       0.017
       0.040
       0.070
       0.072
       0.023
      -0.064
      -0.133
      -0.124
      -0.030
       0.080
       0.118
       0.051
      -0.060
      -0.105
      -0.026
       0.120
       0.180
       0.025
      -0.332
      -0.693
      -0.780
      -0.441
       0.185
       0.727
       0.855
       0.546
       0.095
      -0.159
      -0.121
       0.031
       0.068
      -0.052
      -0.204
      -0.283
      -0.325
      -0.399
      -0.436
      -0.263
       0.188
       0.714
       0.955
       0.700
       0.097
      -0.456
      -0.636
      -0.428
      -0.088
       0.092
       0.027
      -0.127
      -0.140
       0.059
       0.334
       0.475
       0.367
       0.049
      -0.323
      -0.560
      -0.529
      -0.222
       0.225
       0.592
       0.706
       0.532
       0.160
      -0.286
      -0.683
      -0.879
      -0.730
      -0.228
       0.403
       0.794
       0.701
       0.203
      -0.350
      -0.606
      -0.444
      -0.008
       0.432
       0.635
       0.500
       0.104
      -0.320
      -0.513
      -0.364
      -0.017
       0.224
       0.141
      -0.199
      -0.481
      -0.410
       0.034
       0.583
       0.895
       0.792
       0.334
      -0.251
      -0.703
      -0.849
      -0.673
      -0.318
       0.003
       0.135
       0.083
      -0.013
      -0.014
       0.085
       0.162
       0.118
      -0.013
      -0.088
       0.016
       0.283
       0.551
       0.619
       0.409
       0.048
      -0.230
      -0.268
      -0.133
      -0.054
      -0.191
      -0.446
      -0.533
      -0.265
       0.221
       0.544
       0.402
      -0.162
      -0.785
      -1.054
      -0.777
      -0.081
       0.694
       1.205
       1.256
       0.848
       0.153
      -0.546
      -0.939
      -0.833
      -0.280
       0.400
       0.782
       0.598
      -0.071
      -0.825
      -1.180
      -0.869
      -0.052
       0.756
       1.030
       0.635
      -0.072
      -0.552
      -0.536
      -0.206
       0.060
       0.083
       0.013
       0.085
       0.324
       0.539
       0.567
       0.424
       0.197
      -0.099
      -0.467
      -0.765
      -0.735
      -0.267
       0.388
       0.758
       0.539
      -0.135
      -0.796
      -1.010
      -0.676
      -0.036
       0.534
       0.761
       0.600
       0.230
      -0.082
      -0.166
      -0.054
       0.079
       0.076
      -0.083
      -0.313
      -0.533
      -0.689
      -0.701
      -0.465
       0.033
       0.642
       1.114
       1.256
       1.014
       0.472
      -0.191
      -0.752
      -1.011
      -0.868
      -0.405
       0.130
       0.453
       0.452
       0.257
       0.080
      -0.005
      -0.116
      -0.380
      -0.716
      -0.850
      -0.560
       0.092
       0.782
       1.159
       1.070
       0.608
       0.006
      -0.494
      -0.713
      -0.581
      -0.186
       0.219
       0.345
       0.081
      -0.399
      -0.757
      -0.739
      -0.345
       0.208
       0.641
       0.755
       0.495
      -0.015
      -0.511
      -0.709
      -0.464
       0.117
       0.725
       1.040
       0.929
       0.485
      -0.091
      -0.601
      -0.891
      -0.860
      -0.515
      -0.021
       0.363
       0.453
       0.278
       0.028
      -0.123
      -0.152
      -0.138
      -0.131
      -0.114
      -0.079
      -0.081
      -0.154
      -0.220
      -0.150
       0.077
       0.336
       0.470
       0.410
       0.185
      -0.123
      -0.413
      -0.563
      -0.463
      -0.125
       0.265
       0.459
       0.363
       0.139
       0.030
       0.101
       0.179
       0.093
      -0.109
      -0.213
      -0.086
       0.166
       0.305
       0.184
      -0.137
      -0.460
      -0.598
      -0.479
      -0.182
       0.098
       0.172
       0.024
      -0.133
      -0.045
       0.299
       0.602
       0.534
       0.090
      -0.364
      -0.430
      -0.057
       0.426
       0.633
       0.441
       0.014
      -0.408
      -0.700
      -0.847
      -0.828
      -0.575
      -0.082
       0.490
       0.866
       0.852
       0.488
       0.032
      -0.233
      -0.213
      -0.059
      -0.015
      -0.179
      -0.395
      -0.419
      -0.162
       0.220
       0.488
       0.531
       0.422
       0.283
       0.138
      -0.070
      -0.346
      -0.574
      -0.604
      -0.388
      -0.036
       0.275
       0.412
       0.357
       0.190
       0.019
      -0.095
      -0.162
      -0.240
      -0.387
      -0.578
      -0.692
      -0.576
      -0.178
       0.379
       0.842
       0.983
       0.760
       0.344
      -0.023
      -0.215
      -0.267
      -0.258
      -0.196
      -0.038
       0.191
       0.364
       0.372
       0.239
       0.084
      -0.016
      -0.110
      -0.293
      -0.550
      -0.731
      -0.675
      -0.362
       0.078
       0.472
       0.726
       0.848
       0.850
       0.674
       0.250
      -0.372
      -0.976
      -1.293
      -1.196
      -0.799
      -0.348
      -0.007
       0.258
       0.566
       0.923
       1.165
       1.087
       0.625
      -0.093
      -0.821
      -1.310
      -1.385
      -1.007
      -0.304
       0.440
       0.911
       0.940
       0.576
       0.009
      -0.563
      -1.002
      -1.206
      -1.077
      -0.580
       0.148
       0.791
       1.047
       0.881
       0.580
       0.535
       0.881
       1.328
       1.397
       0.887
       0.121
      -0.308
      -0.072
       0.555
       0.882
       0.371
      -0.875
      -2.164
      -2.764
      -2.456
      -1.611
      -0.784
      -0.258
       0.048
       0.279
       0.371
       0.122
      -0.483
      -1.104
      -1.277
      -0.833
      -0.049
       0.656
       1.146
       1.602
       2.162
       2.611
       2.523
       1.734
       0.622
      -0.168
      -0.311
      -0.101
      -0.117
      -0.598
      -1.186
      -1.282
      -0.673
       0.215
       0.674
       0.336
      -0.567
      -1.493
      -2.058
      -2.203
      -2.025
      -1.561
      -0.825
       0.049
       0.822
       1.359
       1.733
       2.081
       2.391
       2.455
       2.040
       1.129
      -0.009
      -0.964
      -1.416
      -1.274
      -0.675
       0.065
       0.576
       0.633
       0.329
       0.002
      -0.102
      -0.127
      -0.512
      -1.496
      -2.717
      -3.401
      -3.024
      -1.808
      -0.528
       0.187
       0.408
       0.781
       1.821
       3.297
       4.323
       4.069
       2.468
       0.306
      -1.356
      -1.927
      -1.585
      -0.972
      -0.622
      -0.592
      -0.579
      -0.357
      -0.057
      -0.002
      -0.303
      -0.684
      -0.709
      -0.191
       0.589
       1.094
       1.005
       0.450
      -0.191
      -0.634
      -0.781
      -0.603
      -0.099
       0.639
       1.343
       1.645
       1.314
       0.487
      -0.366
      -0.787
      -0.717
      -0.509
      -0.546
      -0.852
      -1.107
      -0.985
      -0.441
       0.291
       0.896
       1.111
       0.799
       0.029
      -0.874
      -1.485
      -1.578
      -1.287
      -0.939
      -0.717
      -0.489
      -0.016
       0.680
       1.217
       1.218
       0.758
       0.365
       0.506
       1.102
       1.615
       1.583
       1.052
       0.448
       0.074
      -0.174
      -0.516
      -0.839
      -0.747
      -0.139
       0.454
       0.321
      -0.628
      -1.654
      -1.871
      -1.117
      -0.088
       0.383
       0.097
      -0.440
      -0.591
      -0.130
       0.690
       1.414
       1.674
       1.310
       0.442
      -0.505
      -0.944
      -0.537
       0.420
       1.088
       0.759
      -0.462
      -1.642
      -1.804
      -0.786
       0.624
       1.375
       1.003
      -0.086
      -1.037
      -1.215
      -0.561
       0.507
       1.407
       1.650
       1.008
      -0.348
      -1.833
      -2.710
      -2.545
      -1.504
      -0.197
       0.777
       1.213
       1.304
       1.346
       1.441
       1.449
       1.190
       0.673
       0.136
      -0.125
       0.005
       0.353
       0.560
       0.333
      -0.335
      -1.131
      -1.632
      -1.611
      -1.192
      -0.705
      -0.378
      -0.201
      -0.049
       0.120
       0.254
       0.367
       0.606
       1.060
       1.523
       1.530
       0.759
      -0.557
      -1.668
      -1.857
      -1.076
      -0.033
       0.407
      -0.034
      -0.848
      -1.220
      -0.702
       0.501
       1.757
       2.438
       2.212
       1.139
      -0.310
      -1.389
      -1.482
      -0.595
       0.525
       0.919
       0.222
      -0.987
      -1.668
      -1.229
      -0.032
       0.968
       1.080
       0.410
      -0.371
      -0.689
      -0.493
      -0.115
       0.136
       0.171
       0.041
      -0.183
      -0.413
      -0.508
      -0.320
       0.174
       0.807
       1.285
       1.356
       0.950
       0.211
      -0.580
      -1.134
      -1.270
      -0.985
      -0.435
       0.143
       0.553
       0.710
       0.646
       0.458
       0.246
       0.055
      -0.103
      -0.207
      -0.216
      -0.103
       0.103
       0.309
       0.396
       0.277
      -0.049
      -0.470
      -0.803
      -0.915
      -0.817
      -0.624
      -0.392
      -0.063
       0.382
       0.751
       0.755
       0.304
      -0.345
      -0.785
      -0.781
      -0.394
       0.156
       0.681
       1.069
       1.247
       1.178
       0.899
       0.508
       0.079
      -0.368
      -0.799
      -1.067
      -0.963
      -0.413
       0.344
       0.831
       0.660
      -0.135
      -1.080
      -1.583
      -1.346
      -0.518
       0.462
       1.178
       1.421
       1.196
       0.640
      -0.017
      -0.497
      -0.598
      -0.344
       0.012
       0.192
       0.097
      -0.191
      -0.531
      -0.818
      -0.977
      -0.925
      -0.624
      -0.152
       0.294
       0.545
       0.602
       0.654
       0.892
       1.277
       1.505
       1.261
       0.552
      -0.240
      -0.654
      -0.525
      -0.112
       0.120
      -0.149
      -0.862
      -1.629
      -1.990
      -1.693
      -0.830
       0.222
       0.994
       1.194
       0.900
       0.511
       0.434
       0.743
       1.131
       1.190
       0.762
       0.032
      -0.657
      -1.057
      -1.116
      -0.924
      -0.640
      -0.432
      -0.405
      -0.524
      -0.610
      -0.481
      -0.121
       0.288
       0.535
       0.583
       0.601
       0.770
       1.051
       1.176
       0.908
       0.314
      -0.273
      -0.549
      -0.504
      -0.364
      -0.336
      -0.429
      -0.511
      -0.476
      -0.320
      -0.076
       0.237
       0.556
       0.727
       0.588
       0.136
      -0.437
      -0.879
      -1.028
      -0.854
      -0.419
       0.149
       0.680
       1.025
       1.108
       0.934
       0.540
      -0.008
      -0.565
      -0.892
      -0.791
      -0.307
       0.219
       0.387
       0.067
      -0.502
      -0.915
      -0.896
      -0.452
       0.166
       0.638
       0.772
       0.622
       0.406
       0.286
       0.215
       0.017
      -0.372
      -0.766
      -0.849
      -0.450
       0.268
       0.888
       1.043
       0.695
       0.148
      -0.214
      -0.230
      -0.049
       0.068
       0.012
      -0.109
      -0.127
      -0.020
       0.075
       0.021
      -0.179
      -0.424
      -0.622
      -0.720
      -0.655
      -0.387
       0.007
       0.318
       0.356
       0.144
      -0.046
       0.092
       0.602
       1.161
       1.302
       0.797
      -0.131
      -0.971
      -1.282
      -0.981
      -0.325
       0.310
       0.667
       0.684
       0.433
       0.046
      -0.317
      -0.501
      -0.416
      -0.104
       0.261
       0.467
       0.391
       0.066
      -0.350
      -0.656
      -0.702
      -0.456
      -0.037
       0.345
       0.503
       0.382
       0.066
      -0.280
      -0.498
      -0.493
      -0.263
       0.114
       0.521
       0.829
       0.916
       0.695
       0.182
      -0.446
      -0.899
      -0.946
      -0.565
       0.026
       0.498
       0.622
