Origin Time       11/11/2013 19:11:18 UTC
Lat.              28.5 N	
Long.             77.2 E	
Depth (Km)         10.0
Magnitude         3.1
 Region           DELHI                                                            
 Above details taken from IMD 
    
Station Code      VCD
Station Lat.       28.589  N
Station Long.      77.168  E
Station Height(m)  272.0
Site Class        C   Vs30 between 200 m/sec to 375 m/sec *  
Record Time       11.11.2013 19:10:54.724 UTC
Sampling Rate     200. Hz
 Record Duration  155.465 Sec.
 Direction         N-S (N positive)
Max. Acceleration      6.826 cm/sec**2
     
  * For reference see Site Classification link of website 
     
 Base Line Corrected and Low Pass Filtered (Cut Off at 35 Hz) Time History
 Acceleration data in cm/sec**2
    
[...]
       0.006
       0.017
       0.023
       0.027
       0.029
       0.024
       0.007
      -0.019
      -0.043
      -0.053
      -0.042
      -0.015
       0.014
       0.035
       0.046
       0.043
       0.027
       0.000
      -0.025
      -0.037
      -0.033
      -0.018
      -0.002
       0.007
       0.007
       0.001
      -0.007
      -0.014
      -0.021
      -0.024
      -0.019
      -0.004
       0.012
       0.019
       0.016
       0.012
       0.014
       0.020
       0.025
       0.022
       0.013
       0.003
      -0.001
      -0.001
      -0.004
      -0.012
      -0.022
      -0.027
      -0.026
      -0.021
      -0.012
      -0.001
       0.010
       0.014
       0.008
      -0.008
      -0.027
      -0.038
      -0.036
      -0.022
      -0.008
       0.002
       0.008
       0.015
       0.022
       0.023
       0.014
      -0.002
      -0.015
      -0.021
      -0.017
      -0.009
      -0.004
      -0.002
       0.000
       0.005
       0.010
       0.012
       0.009
       0.004
       0.000
       0.000
       0.004
       0.010
       0.017
       0.022
       0.024
       0.021
       0.015
       0.008
       0.004
       0.001
      -0.004
      -0.010
      -0.014
      -0.009
       0.002
       0.011
       0.014
       0.010
       0.005
       0.001
      -0.002
      -0.007
      -0.016
      -0.026
      -0.034
      -0.036
      -0.028
      -0.013
       0.007
       0.023
       0.026
       0.018
       0.005
      -0.003
      -0.005
      -0.001
       0.003
       0.007
       0.009
       0.009
       0.008
       0.006
       0.003
      -0.002
      -0.005
      -0.004
       0.000
       0.002
       0.000
      -0.002
      -0.002
       0.001
       0.007
       0.015
       0.020
       0.022
       0.020
       0.014
       0.006
      -0.002
      -0.009
      -0.013
      -0.017
      -0.020
      -0.023
      -0.024
      -0.024
      -0.022
      -0.016
      -0.007
       0.002
       0.007
       0.008
       0.008
       0.009
       0.008
       0.006
       0.006
       0.010
       0.013
       0.011
       0.003
      -0.008
      -0.017
      -0.018
      -0.008
       0.006
       0.016
       0.016
       0.006
      -0.007
      -0.016
      -0.017
      -0.013
      -0.010
      -0.011
      -0.011
      -0.008
      -0.003
      -0.002
      -0.004
      -0.007
      -0.007
      -0.004
       0.005
       0.016
       0.020
       0.010
      -0.012
      -0.032
      -0.037
      -0.027
      -0.011
      -0.002
      -0.004
      -0.012
      -0.014
      -0.005
       0.009
       0.025
       0.038
       0.043
       0.036
       0.016
      -0.006
      -0.019
      -0.018
      -0.009
       0.000
       0.005
       0.009
       0.016
       0.026
       0.032
       0.024
       0.000
      -0.028
      -0.045
      -0.042
      -0.029
      -0.018
      -0.015
      -0.012
      -0.003
       0.015
       0.029
       0.029
       0.014
      -0.006
      -0.018
      -0.018
      -0.014
      -0.010
      -0.007
      -0.006
      -0.007
      -0.011
      -0.013
      -0.010
      -0.003
       0.006
       0.011
       0.010
       0.003
      -0.002
       0.000
       0.009
       0.020
       0.027
       0.028
       0.023
       0.012
      -0.003
      -0.019
      -0.030
      -0.028
      -0.013
       0.007
       0.020
       0.018
       0.008
       0.001
       0.001
       0.000
      -0.009
      -0.022
      -0.032
      -0.033
      -0.027
      -0.018
      -0.006
       0.009
       0.025
       0.035
       0.031
       0.016
       0.000
      -0.011
      -0.016
      -0.022
      -0.030
      -0.031
      -0.018
       0.004
       0.025
       0.033
       0.027
       0.015
       0.006
       0.003
       0.000
      -0.006
      -0.014
      -0.019
      -0.020
      -0.019
      -0.015
      -0.002
       0.020
       0.042
       0.054
       0.051
       0.031
       0.000
      -0.033
      -0.053
      -0.054
      -0.037
      -0.013
       0.006
       0.014
       0.011
       0.003
      -0.007
      -0.014
      -0.018
      -0.018
      -0.014
      -0.004
       0.006
       0.014
       0.017
       0.016
       0.012
       0.006
       0.002
      -0.002
      -0.007
      -0.011
      -0.009
       0.000
       0.009
       0.015
       0.013
       0.006
      -0.001
      -0.005
      -0.004
       0.002
       0.009
       0.016
       0.020
       0.018
       0.007
      -0.009
      -0.019
      -0.014
       0.005
       0.027
       0.038
       0.033
       0.019
       0.009
       0.006
       0.003
      -0.009
      -0.029
      -0.044
      -0.046
      -0.035
      -0.022
      -0.012
      -0.007
      -0.001
       0.011
       0.024
       0.029
       0.024
       0.011
      -0.001
      -0.011
      -0.024
      -0.038
      -0.043
      -0.036
      -0.018
       0.000
       0.012
       0.019
       0.027
       0.036
       0.043
       0.038
       0.017
      -0.011
      -0.032
      -0.038
      -0.031
      -0.018
      -0.005
       0.006
       0.009
       0.003
      -0.012
      -0.031
      -0.047
      -0.052
      -0.041
      -0.021
      -0.004
       0.001
      -0.005
      -0.015
      -0.021
      -0.019
      -0.007
       0.009
       0.020
       0.018
       0.003
      -0.017
      -0.029
      -0.027
      -0.012
       0.006
       0.015
       0.009
      -0.007
      -0.020
      -0.022
      -0.011
       0.005
       0.018
       0.023
       0.023
       0.020
       0.014
       0.000
      -0.019
      -0.039
      -0.049
      -0.047
      -0.036
      -0.021
      -0.003
       0.017
       0.038
       0.051
       0.049
       0.030
       0.006
      -0.011
      -0.020
      -0.030
      -0.043
      -0.051
      -0.044
      -0.022
       0.003
       0.018
       0.016
       0.003
      -0.007
      -0.006
       0.000
      -0.003
      -0.017
      -0.031
      -0.029
      -0.010
       0.012
       0.022
       0.016
       0.002
      -0.006
      -0.003
       0.007
       0.014
       0.014
       0.007
      -0.006
      -0.023
      -0.039
      -0.046
      -0.035
      -0.008
       0.023
       0.041
       0.039
       0.019
      -0.003
      -0.013
      -0.011
      -0.003
       0.003
       0.007
       0.011
       0.012
       0.007
      -0.003
      -0.013
      -0.017
      -0.011
       0.000
       0.009
       0.011
       0.007
       0.003
       0.000
      -0.003
      -0.008
      -0.012
      -0.011
      -0.007
      -0.002
       0.000
       0.002
       0.008
       0.020
       0.030
       0.031
       0.017
      -0.004
      -0.020
      -0.024
      -0.018
      -0.011
      -0.004
       0.005
       0.014
       0.021
       0.019
       0.009
      -0.008
      -0.023
      -0.027
      -0.020
      -0.008
       0.000
       0.003
       0.002
       0.001
       0.002
       0.005
       0.004
      -0.004
      -0.017
      -0.025
      -0.019
      -0.004
       0.012
       0.020
       0.018
       0.011
       0.001
      -0.009
      -0.018
      -0.021
      -0.017
      -0.006
       0.007
       0.014
       0.012
       0.009
       0.008
       0.006
      -0.003
      -0.023
      -0.050
      -0.072
      -0.077
      -0.057
      -0.014
       0.036
       0.072
       0.075
       0.045
      -0.002
      -0.041
      -0.056
      -0.046
      -0.027
      -0.014
      -0.008
      -0.006
       0.000
       0.006
       0.012
       0.013
       0.009
       0.004
       0.000
       0.003
       0.017
       0.040
       0.059
       0.053
       0.012
      -0.040
      -0.057
      -0.019
       0.044
       0.075
       0.038
      -0.037
      -0.076
      -0.016
       0.131
       0.272
       0.277
       0.076
      -0.263
      -0.540
      -0.571
      -0.344
      -0.045
       0.121
       0.121
       0.091
       0.153
       0.249
       0.221
       0.038
      -0.116
      -0.036
       0.237
       0.410
       0.216
      -0.317
      -0.839
      -0.950
      -0.534
       0.135
       0.634
       0.745
       0.568
       0.335
       0.163
       0.014
      -0.152
      -0.263
      -0.214
      -0.031
       0.111
       0.065
      -0.143
      -0.367
      -0.464
      -0.367
      -0.107
       0.194
       0.391
       0.429
       0.402
       0.453
       0.604
       0.675
       0.406
      -0.276
      -1.106
      -1.611
      -1.427
      -0.579
       0.485
       1.176
       1.172
       0.625
      -0.034
      -0.449
      -0.517
      -0.308
       0.074
       0.495
       0.736
       0.573
      -0.009
      -0.723
      -1.167
      -1.134
      -0.721
      -0.147
       0.434
       0.905
       1.099
       0.883
       0.368
      -0.099
      -0.224
      -0.042
       0.140
       0.058
      -0.280
      -0.648
      -0.811
      -0.673
      -0.287
       0.162
       0.423
       0.327
      -0.051
      -0.411
      -0.442
      -0.045
       0.599
       1.095
       1.048
       0.378
      -0.537
      -1.105
      -0.970
      -0.278
       0.454
       0.748
       0.527
       0.099
      -0.144
      -0.042
       0.267
       0.479
       0.326
      -0.200
      -0.775
      -0.960
      -0.611
      -0.020
       0.394
       0.482
       0.387
       0.256
       0.077
      -0.205
      -0.515
      -0.641
      -0.409
       0.134
       0.683
       0.879
       0.563
      -0.103
      -0.735
      -0.984
      -0.774
      -0.327
       0.056
       0.269
       0.446
       0.731
       1.026
       1.017
       0.485
      -0.388
      -1.091
      -1.211
      -0.747
      -0.034
       0.572
       0.883
       0.859
       0.512
      -0.072
      -0.651
      -0.877
      -0.556
       0.113
       0.609
       0.514
      -0.084
      -0.664
      -0.785
      -0.486
      -0.151
      -0.035
      -0.010
       0.190
       0.574
       0.832
       0.688
       0.228
      -0.206
      -0.372
      -0.283
      -0.069
       0.171
       0.336
       0.270
      -0.130
      -0.711
      -1.081
      -0.908
      -0.227
       0.583
       1.096
       1.104
       0.682
       0.114
      -0.284
      -0.368
      -0.243
      -0.115
      -0.084
      -0.110
      -0.143
      -0.203
      -0.326
      -0.464
      -0.494
      -0.328
       0.000
       0.341
       0.547
       0.572
       0.480
       0.364
       0.260
       0.113
      -0.150
      -0.472
      -0.649
      -0.527
      -0.194
       0.068
       0.049
      -0.177
      -0.328
      -0.170
       0.270
       0.732
       0.924
       0.724
       0.231
      -0.345
      -0.765
      -0.825
      -0.472
       0.089
       0.497
       0.526
       0.257
      -0.036
      -0.141
      -0.053
       0.106
       0.232
       0.282
       0.220
       0.033
      -0.197
      -0.343
      -0.389
      -0.456
      -0.616
      -0.738
      -0.588
      -0.113
       0.449
       0.767
       0.714
       0.432
       0.163
       0.047
       0.057
       0.086
       0.072
       0.039
       0.040
       0.077
       0.068
      -0.100
      -0.437
      -0.754
      -0.761
      -0.345
       0.277
       0.720
       0.758
       0.465
       0.104
      -0.077
       0.021
       0.308
       0.539
       0.450
      -0.055
      -0.761
      -1.245
      -1.188
      -0.638
       0.041
       0.504
       0.695
       0.775
       0.822
       0.686
       0.189
      -0.563
      -1.134
      -1.074
      -0.355
       0.520
       0.893
       0.509
      -0.281
      -0.855
      -0.845
      -0.365
       0.188
       0.497
       0.496
       0.328
       0.193
       0.200
       0.298
       0.326
       0.152
      -0.188
      -0.487
      -0.548
      -0.362
      -0.091
       0.105
       0.189
       0.230
       0.266
       0.260
       0.169
       0.041
      -0.011
       0.067
       0.190
       0.191
      -0.004
      -0.296
      -0.497
      -0.513
      -0.391
      -0.210
       0.018
       0.290
       0.507
       0.531
       0.331
       0.012
      -0.279
      -0.442
      -0.461
      -0.398
      -0.323
      -0.261
      -0.180
      -0.036
       0.195
       0.478
       0.694
       0.679
       0.338
      -0.223
      -0.697
      -0.757
      -0.317
       0.379
       0.936
       1.103
       0.906
       0.518
       0.059
      -0.431
      -0.856
      -1.054
      -0.945
      -0.638
      -0.338
      -0.148
      -0.001
       0.198
       0.384
       0.392
       0.160
      -0.172
      -0.414
      -0.511
      -0.539
      -0.539
      -0.396
       0.064
       0.855
       1.706
       2.213
       2.138
       1.534
       0.619
      -0.372
      -1.200
      -1.575
      -1.308
      -0.548
       0.190
       0.405
       0.060
      -0.409
      -0.601
      -0.598
      -0.820
      -1.472
      -2.200
      -2.344
      -1.535
      -0.056
       1.364
       2.093
       1.957
       1.234
       0.411
      -0.084
      -0.042
       0.468
       1.168
       1.720
       1.895
       1.645
       1.048
       0.228
      -0.662
      -1.413
      -1.774
      -1.572
      -0.877
      -0.048
       0.500
       0.616
       0.480
       0.281
      -0.074
      -0.882
      -2.243
      -3.788
      -4.813
      -4.670
      -3.061
      -0.163
       3.273
       6.001
       6.826
       5.415
       2.685
       0.249
      -0.719
      -0.239
       0.771
       1.446
       1.559
       1.305
       0.811
      -0.005
      -1.199
      -2.548
      -3.575
      -3.893
      -3.526
      -2.821
      -2.061
      -1.254
      -0.297
       0.756
       1.663
       2.194
       2.305
       2.105
       1.754
       1.446
       1.375
       1.557
       1.633
       0.977
      -0.709
      -2.788
      -3.881
      -3.012
      -0.662
       1.505
       2.099
       1.165
      -0.138
      -0.864
      -1.120
      -1.622
      -2.642
      -3.609
      -3.706
      -2.685
      -1.030
       0.505
       1.425
       1.651
       1.369
       0.918
       0.792
       1.442
       2.795
       4.057
       4.264
       3.094
       1.093
      -0.807
      -1.902
      -1.895
      -0.784
       1.116
       2.974
       3.576
       2.117
      -0.984
      -4.183
      -5.885
      -5.510
      -3.655
      -1.341
       0.805
       2.605
       3.741
       3.560
       1.791
      -0.755
      -2.533
      -2.402
      -0.513
       1.764
       2.806
       1.943
      -0.022
      -1.490
      -1.434
      -0.209
       0.922
       0.932
      -0.304
      -2.124
      -3.572
      -3.864
      -2.736
      -0.671
       1.229
       1.862
       0.916
      -0.880
      -2.295
      -2.454
      -1.304
       0.578
       2.520
       4.073
       4.901
       4.654
       3.245
       1.217
      -0.457
      -1.072
      -0.673
       0.125
       0.631
       0.461
      -0.269
      -0.967
      -0.983
      -0.232
       0.618
       0.692
      -0.322
      -1.872
      -2.877
      -2.496
      -0.810
       1.195
       2.356
       2.071
       0.504
      -1.600
      -3.234
      -3.527
      -2.234
       0.010
       2.021
       2.865
       2.460
       1.440
       0.552
       0.206
       0.397
       0.760
       0.681
      -0.320
      -2.104
      -3.845
      -4.599
      -3.931
      -2.083
       0.233
       2.125
       2.878
       2.343
       1.115
       0.170
       0.133
       0.802
       1.425
       1.419
       0.783
      -0.114
      -0.926
      -1.412
      -1.332
      -0.599
       0.448
       1.208
       1.411
       1.359
       1.426
       1.465
       0.963
      -0.226
      -1.507
      -1.998
      -1.308
       0.138
       1.418
       1.744
       0.938
      -0.511
      -1.873
      -2.661
      -2.693
      -1.863
      -0.164
       1.963
       3.534
       3.603
       2.040
      -0.270
      -2.042
      -2.456
      -1.589
      -0.185
       0.900
       1.114
       0.368
      -0.944
      -2.045
      -2.166
      -1.109
       0.481
       1.524
       1.343
       0.199
      -0.962
      -1.218
      -0.241
       1.491
       2.845
       2.679
       0.762
      -1.828
      -3.414
      -3.050
      -1.247
       0.603
       1.497
       1.533
       1.451
       1.661
       1.868
       1.593
       0.793
      -0.139
      -0.860
      -1.391
      -1.953
      -2.569
      -2.885
      -2.468
      -1.313
       0.034
       0.918
       1.121
       0.951
       0.864
       1.079
       1.479
       1.751
       1.586
       0.875
      -0.154
      -0.978
      -1.096
      -0.440
       0.508
       1.087
       0.964
       0.311
      -0.443
      -0.936
      -1.029
      -0.767
      -0.305
       0.146
       0.401
       0.401
       0.198
      -0.160
      -0.602
      -0.892
      -0.711
      -0.040
       0.629
       0.662
      -0.067
      -0.945
      -1.122
      -0.324
       0.830
       1.380
       0.919
      -0.113
      -0.969
      -1.282
      -1.138
      -0.667
       0.170
       1.299
       2.256
       2.376
       1.377
      -0.266
      -1.588
      -1.874
      -1.215
      -0.318
       0.252
       0.615
       1.236
       2.089
       2.395
       1.403
      -0.662
      -2.621
      -3.356
      -2.766
      -1.699
      -1.006
      -0.711
      -0.169
       1.024
       2.405
       2.997
       2.251
       0.566
      -1.061
      -1.815
      -1.535
      -0.653
       0.211
       0.586
       0.287
      -0.575
      -1.587
      -2.130
      -1.676
      -0.188
       1.722
       3.095
       3.277
       2.369
       1.063
       0.062
      -0.328
      -0.198
       0.153
       0.372
       0.194
      -0.422
      -1.263
      -1.989
      -2.316
      -2.075
      -1.217
       0.082
       1.343
       1.975
       1.686
       0.719
      -0.338
      -0.949
      -0.887
      -0.242
       0.672
       1.439
       1.683
       1.226
       0.202
      -0.935
      -1.671
      -1.834
      -1.673
      -1.486
      -1.272
      -0.826
      -0.099
       0.667
       1.154
       1.202
       0.849
       0.285
      -0.186
      -0.293
      -0.033
       0.295
       0.400
       0.293
       0.226
       0.385
       0.688
       0.877
       0.737
       0.280
      -0.283
      -0.719
      -0.920
      -0.849
      -0.454
       0.275
       1.167
       1.849
       1.894
       1.063
      -0.455
      -2.015
      -2.823
      -2.424
      -0.977
       0.879
       2.387
       2.993
       2.499
       1.088
      -0.765
      -2.438
      -3.336
      -3.118
      -1.913
      -0.323
       0.879
       1.209
       0.732
      -0.059
      -0.598
      -0.570
       0.003
       0.868
       1.686
       2.145
       2.037
       1.319
       0.139
      -1.207
      -2.349
      -2.917
      -2.634
      -1.510
       0.041
       1.387
       2.095
       2.128
       1.694
       1.019
       0.282
      -0.381
      -0.894
      -1.205
      -1.191
      -0.680
       0.289
       1.267
       1.614
       1.024
      -0.178
      -1.285
      -1.732
