Origin Time       11/11/2013 20:11:30
Lat.              28.4 N	
Long.             77.2 E	
Depth (Km)         10.0
Magnitude         3.3
 Region           DELHI                                                            
 Above details taken from IMD 
   
Station Code      VCD
Station Lat.       28.589
Station Long.      77.168
Station Height(m)  272.0
Site Class        C   Vs30 between 200 m/sec to 375 m/sec *  
Record Time       11.11.2013 20:11:07.144
Sampling Rate     200. Hz
 Record Duration   92.965 Sec.
 Direction         Vert. (Up positive)
Max. Acceleration     -8.708 cm/sec**2
     
  * For reference see Site Classification link of website 
     
 Base Line Corrected and Low Pass Filtered (Cut Off at 35 Hz) Time History
 Acceleration data in cm/sec**2
    
[...]
       0.017
       0.023
       0.025
       0.020
       0.010
       0.001
      -0.003
      -0.001
       0.002
       0.003
       0.003
       0.005
       0.009
       0.015
       0.018
       0.017
       0.015
       0.016
       0.022
       0.028
       0.028
       0.021
       0.008
      -0.004
      -0.012
      -0.016
      -0.013
      -0.006
       0.004
       0.011
       0.013
       0.010
       0.005
       0.005
       0.010
       0.017
       0.022
       0.022
       0.016
       0.009
       0.006
       0.007
       0.010
       0.010
       0.005
      -0.001
      -0.002
       0.001
       0.006
       0.005
       0.000
      -0.005
      -0.005
       0.000
       0.005
       0.006
       0.003
      -0.002
      -0.006
      -0.005
       0.001
       0.010
       0.019
       0.024
       0.024
       0.021
       0.016
       0.009
       0.003
      -0.004
      -0.008
      -0.010
      -0.008
      -0.006
      -0.006
      -0.010
      -0.013
      -0.011
      -0.001
       0.015
       0.032
       0.044
       0.045
       0.037
       0.025
       0.014
       0.004
      -0.005
      -0.014
      -0.021
      -0.025
      -0.025
      -0.022
      -0.018
      -0.012
      -0.002
       0.012
       0.026
       0.032
       0.027
       0.012
      -0.003
      -0.011
      -0.007
       0.003
       0.011
       0.011
       0.006
       0.001
       0.001
       0.003
       0.005
       0.002
      -0.001
      -0.001
       0.005
       0.013
       0.017
       0.013
       0.001
      -0.009
      -0.013
      -0.008
      -0.002
       0.002
       0.003
       0.004
       0.007
       0.011
       0.012
       0.008
       0.001
      -0.006
      -0.007
      -0.003
       0.002
       0.006
       0.008
       0.008
       0.007
       0.005
       0.001
      -0.003
      -0.008
      -0.012
      -0.015
      -0.014
      -0.009
      -0.001
       0.007
       0.010
       0.011
       0.010
       0.012
       0.015
       0.019
       0.020
       0.017
       0.012
       0.004
      -0.001
      -0.001
       0.004
       0.013
       0.020
       0.021
       0.015
       0.009
       0.006
       0.008
       0.010
       0.008
       0.003
      -0.003
      -0.004
       0.000
       0.007
       0.011
       0.009
       0.004
      -0.002
      -0.004
      -0.001
       0.004
       0.008
       0.009
       0.008
       0.009
       0.012
       0.016
       0.015
       0.007
      -0.006
      -0.017
      -0.019
      -0.013
      -0.003
       0.004
       0.004
      -0.002
      -0.010
      -0.013
      -0.009
       0.000
       0.012
       0.024
       0.033
       0.039
       0.036
       0.025
       0.010
      -0.003
      -0.010
      -0.011
      -0.008
      -0.006
      -0.006
      -0.005
      -0.004
      -0.002
       0.003
       0.009
       0.016
       0.023
       0.028
       0.026
       0.017
       0.002
      -0.011
      -0.019
      -0.021
      -0.019
      -0.015
      -0.006
       0.007
       0.022
       0.030
       0.027
       0.017
       0.005
      -0.003
      -0.004
      -0.001
       0.001
       0.001
       0.001
       0.002
       0.005
       0.009
       0.012
       0.015
       0.016
       0.017
       0.016
       0.014
       0.009
       0.001
      -0.006
      -0.011
      -0.010
       0.000
       0.016
       0.031
       0.037
       0.026
       0.004
      -0.018
      -0.027
      -0.018
       0.004
       0.026
       0.037
       0.034
       0.023
       0.013
       0.010
       0.014
       0.018
       0.019
       0.014
       0.007
       0.002
       0.001
       0.003
       0.007
       0.009
       0.010
       0.007
       0.004
       0.001
       0.001
       0.002
       0.001
      -0.003
      -0.007
      -0.007
      -0.004
       0.003
       0.011
       0.019
       0.025
       0.027
       0.020
       0.006
      -0.009
      -0.020
      -0.022
      -0.019
      -0.015
      -0.012
      -0.008
       0.002
       0.015
       0.025
       0.027
       0.021
       0.012
       0.005
       0.002
       0.002
       0.003
       0.001
      -0.003
      -0.006
      -0.004
       0.001
       0.005
       0.005
       0.002
      -0.002
      -0.002
       0.002
       0.008
       0.011
       0.009
       0.001
      -0.011
      -0.020
      -0.023
      -0.020
      -0.010
       0.003
       0.015
       0.022
       0.021
       0.014
       0.008
       0.006
       0.008
       0.009
       0.005
      -0.003
      -0.012
      -0.017
      -0.017
      -0.014
      -0.010
      -0.005
       0.000
       0.006
       0.012
       0.018
       0.022
       0.023
       0.017
       0.006
      -0.009
      -0.021
      -0.024
      -0.018
      -0.006
       0.006
       0.013
       0.011
       0.004
      -0.005
      -0.012
      -0.016
      -0.016
      -0.012
      -0.005
       0.004
       0.013
       0.019
       0.022
       0.022
       0.023
       0.023
       0.021
       0.014
       0.003
      -0.009
      -0.019
      -0.023
      -0.019
      -0.007
       0.009
       0.025
       0.037
       0.043
       0.042
       0.034
       0.021
       0.006
      -0.006
      -0.014
      -0.017
      -0.015
      -0.012
      -0.011
      -0.010
      -0.007
       0.004
       0.019
       0.033
       0.040
       0.035
       0.021
       0.004
      -0.009
      -0.014
      -0.011
      -0.002
       0.008
       0.016
       0.020
       0.018
       0.009
      -0.001
      -0.007
      -0.006
       0.002
       0.011
       0.014
       0.012
       0.008
       0.006
       0.007
       0.008
       0.008
       0.009
       0.013
       0.017
       0.017
       0.008
      -0.007
      -0.021
      -0.026
      -0.020
      -0.008
       0.000
       0.004
       0.004
       0.004
       0.008
       0.012
       0.012
       0.008
       0.004
       0.002
       0.003
       0.007
       0.009
       0.008
       0.003
      -0.006
      -0.017
      -0.026
      -0.028
      -0.023
      -0.013
      -0.002
       0.003
       0.001
      -0.005
      -0.012
      -0.014
      -0.011
      -0.009
      -0.009
      -0.011
      -0.010
      -0.003
       0.009
       0.018
       0.021
       0.019
       0.015
       0.011
       0.006
      -0.001
      -0.009
      -0.014
      -0.017
      -0.019
      -0.019
      -0.019
      -0.016
      -0.012
      -0.007
      -0.002
       0.004
       0.008
       0.009
       0.005
      -0.005
      -0.016
      -0.022
      -0.019
      -0.010
       0.001
       0.007
       0.007
       0.002
      -0.005
      -0.010
      -0.011
      -0.008
      -0.002
       0.003
       0.003
      -0.003
      -0.010
      -0.006
       0.011
       0.028
       0.023
       0.003
       0.023
       0.160
       0.420
       0.670
       0.692
       0.361
      -0.184
      -0.594
      -0.616
      -0.359
      -0.210
      -0.408
      -0.704
      -0.538
       0.357
       1.524
       2.017
       1.167
      -0.818
      -2.926
      -3.981
      -3.292
      -0.984
       2.004
       4.257
       4.560
       2.655
      -0.456
      -3.044
      -3.750
      -2.446
      -0.154
       1.774
       2.466
       1.796
       0.263
      -1.231
      -1.736
      -0.846
       0.893
       2.245
       2.179
       0.677
      -1.254
      -2.403
      -2.257
      -1.197
       0.033
       0.930
       1.383
       1.467
       1.233
       0.672
      -0.188
      -1.167
      -1.896
      -1.962
      -1.217
      -0.014
       0.944
       1.102
       0.518
      -0.156
      -0.199
       0.583
       1.700
       2.397
       2.170
       0.967
      -0.883
      -2.745
      -3.778
      -3.306
      -1.341
       1.211
       3.066
       3.440
       2.521
       1.088
      -0.246
      -1.368
      -2.327
      -2.905
      -2.694
      -1.535
       0.223
       1.925
       2.951
       2.926
       1.816
       0.031
      -1.620
      -2.322
      -1.830
      -0.692
       0.207
       0.401
       0.151
      -0.010
       0.113
       0.297
       0.338
       0.362
       0.612
       1.026
       1.143
       0.536
      -0.680
      -1.813
      -2.108
      -1.337
       0.058
       1.312
       1.855
       1.570
       0.736
      -0.195
      -0.795
      -0.821
      -0.380
       0.085
       0.134
      -0.271
      -0.738
      -0.851
      -0.551
      -0.081
       0.355
       0.739
       1.040
       1.047
       0.570
      -0.249
      -0.972
      -1.241
      -1.020
      -0.476
       0.243
       0.975
       1.414
       1.219
       0.397
      -0.545
      -0.970
      -0.670
       0.005
       0.526
       0.599
       0.244
      -0.348
      -0.907
      -1.102
      -0.700
       0.171
       0.961
       1.068
       0.354
      -0.695
      -1.366
      -1.283
      -0.616
       0.188
       0.798
       1.123
       1.195
       1.028
       0.612
       0.017
      -0.509
      -0.639
      -0.276
       0.257
       0.480
       0.250
      -0.065
       0.004
       0.474
       0.827
       0.531
      -0.372
      -1.279
      -1.587
      -1.187
      -0.429
       0.235
       0.495
       0.208
      -0.564
      -1.412
      -1.655
      -0.837
       0.719
       1.998
       2.114
       1.114
      -0.098
      -0.643
      -0.399
       0.117
       0.409
       0.400
       0.292
       0.261
       0.348
       0.505
       0.610
       0.467
      -0.045
      -0.733
      -1.119
      -0.872
      -0.219
       0.204
      -0.013
      -0.641
      -1.068
      -0.903
      -0.269
       0.436
       0.908
       1.019
       0.703
      -0.006
      -0.772
      -1.010
      -0.391
       0.709
       1.407
       1.092
       0.026
      -0.865
      -0.824
       0.073
       1.057
       1.356
       0.787
      -0.229
      -1.105
      -1.515
      -1.469
      -1.111
      -0.541
       0.190
       0.980
       1.610
       1.769
       1.220
       0.034
      -1.293
      -2.039
      -1.717
      -0.442
       1.063
       1.897
       1.598
       0.484
      -0.624
      -1.032
      -0.622
       0.154
       0.639
       0.414
      -0.407
      -1.210
      -1.300
      -0.444
       0.878
       1.772
       1.596
       0.431
      -1.014
      -1.919
      -1.853
      -0.956
       0.210
       1.024
       1.147
       0.669
      -0.005
      -0.450
      -0.477
      -0.183
       0.195
       0.457
       0.519
       0.418
       0.258
       0.160
       0.188
       0.273
       0.224
      -0.107
      -0.632
      -1.003
      -0.859
      -0.141
       0.773
       1.287
       1.025
       0.165
      -0.666
      -0.891
      -0.428
       0.291
       0.701
       0.528
      -0.080
      -0.735
      -1.084
      -1.015
      -0.695
      -0.388
      -0.167
       0.163
       0.752
       1.325
       1.287
       0.358
      -0.932
      -1.516
      -0.732
       0.947
       2.190
       1.920
       0.247
      -1.637
      -2.442
      -1.727
      -0.106
       1.308
       1.705
       1.061
       0.031
      -0.592
      -0.480
       0.006
       0.200
      -0.175
      -0.669
      -0.551
       0.346
       1.290
       1.264
      -0.041
      -1.815
      -2.721
      -1.966
       0.076
       2.167
       3.108
       2.489
       0.775
      -1.159
      -2.571
      -3.080
      -2.614
      -1.324
       0.421
       2.035
       2.875
       2.550
       1.202
      -0.464
      -1.520
      -1.417
      -0.428
       0.554
       0.766
       0.224
      -0.341
      -0.199
       0.647
       1.418
       1.293
       0.244
      -0.899
      -1.235
      -0.601
       0.367
       0.856
       0.529
      -0.315
      -1.059
      -1.244
      -0.846
      -0.196
       0.323
       0.573
       0.687
       0.834
       0.946
       0.717
      -0.081
      -1.257
      -2.195
      -2.269
      -1.378
      -0.068
       0.926
       1.292
       1.297
       1.351
       1.534
       1.580
       1.259
       0.629
      -0.123
      -0.965
      -1.977
      -2.969
      -3.276
      -2.170
       0.355
       3.139
       4.359
       2.796
      -1.075
      -5.159
      -7.045
      -5.583
      -1.606
       2.687
       5.146
       4.907
       2.707
       0.265
      -0.805
       0.043
       1.976
       3.349
       2.905
       0.800
      -1.433
      -2.061
      -0.576
       1.881
       3.464
       3.072
       1.091
      -1.105
      -2.327
      -2.419
      -2.121
      -2.218
      -2.846
      -3.531
      -3.791
      -3.590
      -3.236
      -2.949
      -2.572
      -1.635
       0.264
       2.962
       5.490
       6.464
       4.998
       1.490
      -2.352
      -4.400
      -3.429
       0.040
       4.085
       6.731
       7.199
       6.066
       4.347
       2.533
       0.491
      -1.917
      -4.329
      -5.972
      -6.166
      -4.807
      -2.558
      -0.596
      -0.003
      -1.089
      -3.070
      -4.386
      -3.685
      -0.865
       2.723
       5.217
       5.553
       4.018
       1.747
      -0.195
      -1.374
      -1.869
      -1.747
      -0.767
       1.240
       3.682
       5.161
       4.477
       1.881
      -0.815
      -1.637
      -0.158
       2.138
       3.138
       1.749
      -1.521
      -5.225
      -7.931
      -8.708
      -7.250
      -4.009
      -0.249
       2.427
       3.002
       1.726
      -0.102
      -1.067
      -0.499
       1.355
       3.695
       5.576
       6.154
       4.979
       2.350
      -0.635
      -2.660
      -3.034
      -2.094
      -0.852
      -0.231
      -0.483
      -1.191
      -1.730
      -1.708
      -1.094
      -0.134
       0.755
       1.155
       0.970
       0.653
       0.881
       1.806
       2.670
       2.369
       0.544
      -1.892
      -3.348
      -2.816
      -0.743
       1.249
       1.704
       0.689
      -0.191
       0.624
       2.885
       4.463
       3.242
      -0.775
      -5.169
      -7.022
      -5.380
      -2.023
       0.198
      -0.099
      -1.781
      -2.565
      -1.386
       0.650
       1.635
       1.006
       0.078
       0.409
       1.927
       2.946
       1.974
      -0.692
      -3.072
      -3.056
      -0.065
       4.340
       7.332
       6.725
       2.680
      -2.174
      -4.599
      -3.288
       0.129
       2.631
       2.455
       0.333
      -1.633
      -2.085
      -1.378
      -0.798
      -1.120
      -1.957
      -2.285
      -1.467
       0.131
       1.386
       1.327
       0.042
      -1.270
      -1.295
       0.159
       1.955
       2.663
       1.830
       0.281
      -0.705
      -0.537
       0.226
       0.514
      -0.127
      -1.033
      -1.110
      -0.014
       1.443
       2.092
       1.560
       0.531
      -0.118
      -0.311
      -0.762
      -2.000
      -3.531
      -4.134
      -3.022
      -0.663
       1.554
       2.401
       1.550
      -0.467
      -2.643
      -3.735
      -2.664
       0.650
       4.641
       6.791
       5.557
       1.851
      -1.573
      -2.358
      -0.334
       2.631
       4.293
       3.631
       1.271
      -1.254
      -2.659
      -2.636
      -1.812
      -1.139
      -1.237
      -2.099
      -3.221
      -3.936
      -3.735
      -2.470
      -0.420
       1.788
       3.412
       3.959
       3.440
       2.272
       0.917
      -0.312
      -1.122
      -1.201
      -0.520
       0.391
       0.747
       0.206
      -0.785
      -1.383
      -1.071
      -0.065
       0.932
       1.364
       1.233
       0.926
       0.681
       0.340
      -0.298
      -1.000
      -1.161
      -0.455
       0.657
       1.206
       0.584
      -0.861
      -2.087
      -2.171
      -0.967
       0.821
       2.105
       2.076
       0.684
      -1.338
      -2.911
      -3.237
      -2.224
      -0.478
       1.130
       2.021
       2.200
       2.028
       1.726
       1.128
      -0.018
      -1.537
      -2.639
      -2.361
      -0.399
       2.356
       4.191
       3.801
       1.407
      -1.289
      -2.445
      -1.577
       0.183
       1.283
       1.121
       0.272
      -0.407
      -0.635
      -0.760
      -1.220
      -2.088
      -2.989
      -3.298
      -2.486
      -0.550
       1.740
       3.141
       2.765
       0.835
      -1.365
      -2.405
      -1.753
      -0.043
       1.599
       2.451
       2.486
       2.028
       1.313
       0.428
      -0.464
      -0.963
      -0.640
       0.511
       1.850
       2.413
       1.618
      -0.216
      -1.985
      -2.557
      -1.644
      -0.083
       0.782
       0.137
      -1.691
      -3.478
      -3.950
      -2.631
      -0.155
       2.198
       3.378
       3.196
       2.239
       1.240
       0.512
      -0.097
      -0.803
      -1.487
      -1.704
      -1.144
      -0.045
       0.928
       1.268
       0.988
       0.417
      -0.213
      -0.837
      -1.336
      -1.462
      -1.063
      -0.257
       0.652
       1.365
       1.661
       1.418
       0.694
      -0.178
      -0.683
      -0.497
       0.169
       0.662
       0.452
      -0.351
      -1.072
      -1.079
      -0.338
       0.583
       1.020
       0.721
      -0.038
      -0.736
      -1.054
      -1.070
      -1.032
      -0.943
      -0.464
       0.667
       2.117
       2.993
       2.500
       0.644
      -1.645
      -3.091
      -2.917
      -1.360
       0.486
       1.402
       0.852
      -0.648
      -1.848
      -1.618
       0.177
       2.424
       3.477
       2.441
      -0.017
      -2.115
      -2.371
      -0.743
       1.483
       2.810
       2.568
       1.120
      -0.660
      -2.017
      -2.614
      -2.456
      -1.728
      -0.724
       0.208
       0.805
       1.047
       1.094
       1.030
       0.748
       0.150
      -0.576
      -0.988
      -0.741
       0.070
       0.919
       1.211
       0.744
      -0.109
      -0.655
      -0.430
       0.412
       1.174
       1.143
       0.167
      -1.148
      -1.820
      -1.273
       0.108
       1.215
       1.127
      -0.128
      -1.676
      -2.594
      -2.559
      -1.791
      -0.632
       0.669
       1.860
       2.615
       2.681
       2.089
       1.171
       0.346
      -0.156
      -0.402
      -0.599
      -0.806
      -0.840
      -0.487
       0.178
       0.738
       0.734
       0.097
      -0.730
      -1.120
      -0.813
      -0.171
       0.138
      -0.227
      -0.943
      -1.330
      -0.940
       0.124
       1.350
       2.108
       1.913
       0.709
      -0.879
      -1.743
      -1.143
       0.504
       1.806
       1.601
       0.050
      -1.488
      -1.722
      -0.599
       0.743
       1.120
       0.380
      -0.605
      -0.848
      -0.115
       0.989
       1.611
       1.343
       0.458
      -0.422
      -0.868
      -0.911
      -0.849
      -0.862
      -0.837
      -0.524
       0.155
       0.943
       1.357
       0.995
      -0.160
      -1.645
      -2.725
      -2.752
      -1.527
       0.528
       2.546
       3.704
       3.683
       2.706
