Origin Time       07/09/2011 17:58:18 UTC
Lat.              28.6 N	
Long.             77.0 E	
Depth (Km)          8.0
Magnitude         4.2
 Region           DELHI-HARYANA(SONIPAT)                                           
 Above details taken from IMD 
    
Station Code      FAR
Station Lat.       28.383  N
Station Long.      77.325  E
Station Height(m)  203.0
Site Class        C   Vs30 between 200 m/sec to 375 m/sec *  
Record Time       07.09.2011 17:58:14.639 UTC
Sampling Rate     200. Hz
 Record Duration   65.250 Sec.
 Direction         N-S (N positive)
Max. Acceleration      7.935 cm/sec**2
     
  * For reference see Site Classification link of website 
     
 Base Line Corrected and Low Pass Filtered (Cut Off at 35 Hz) Time History
 Acceleration data in cm/sec**2
    
[...]
      -0.008
      -0.004
       0.001
       0.003
      -0.002
      -0.013
      -0.023
      -0.027
      -0.024
      -0.015
      -0.007
      -0.002
      -0.002
      -0.005
      -0.007
      -0.006
      -0.003
      -0.004
      -0.009
      -0.017
      -0.023
      -0.025
      -0.023
      -0.019
      -0.015
      -0.015
      -0.018
      -0.022
      -0.022
      -0.018
      -0.011
      -0.001
       0.008
       0.012
       0.011
       0.007
       0.003
       0.000
      -0.001
       0.001
       0.004
       0.005
       0.003
      -0.001
      -0.004
      -0.005
      -0.003
       0.002
       0.004
       0.003
       0.000
      -0.003
      -0.007
      -0.012
      -0.017
      -0.019
      -0.018
      -0.017
      -0.018
      -0.019
      -0.020
      -0.021
      -0.019
      -0.015
      -0.011
      -0.007
      -0.004
      -0.003
      -0.003
      -0.006
      -0.008
      -0.010
      -0.011
      -0.010
      -0.008
      -0.005
      -0.005
      -0.006
      -0.005
      -0.003
       0.001
       0.004
       0.005
       0.008
       0.010
       0.009
       0.004
      -0.007
      -0.019
      -0.029
      -0.031
      -0.027
      -0.021
      -0.016
      -0.015
      -0.013
      -0.008
      -0.001
       0.005
       0.006
       0.000
      -0.008
      -0.013
      -0.014
      -0.013
      -0.015
      -0.019
      -0.021
      -0.019
      -0.017
      -0.017
      -0.019
      -0.022
      -0.021
      -0.015
      -0.006
       0.000
       0.000
      -0.005
      -0.011
      -0.016
      -0.020
      -0.022
      -0.023
      -0.023
      -0.021
      -0.018
      -0.012
      -0.005
       0.002
       0.009
       0.018
       0.026
       0.032
       0.032
       0.028
       0.020
       0.010
       0.001
      -0.006
      -0.012
      -0.021
      -0.033
      -0.042
      -0.046
      -0.042
      -0.034
      -0.029
      -0.033
      -0.044
      -0.055
      -0.060
      -0.061
      -0.061
      -0.062
      -0.060
      -0.049
      -0.030
      -0.009
       0.007
       0.015
       0.017
       0.020
       0.025
       0.027
       0.023
       0.014
       0.005
       0.004
       0.011
       0.025
       0.041
       0.053
       0.063
       0.067
       0.063
       0.045
       0.013
      -0.026
      -0.061
      -0.081
      -0.083
      -0.067
      -0.039
      -0.010
       0.013
       0.027
       0.034
       0.033
       0.019
      -0.009
      -0.042
      -0.065
      -0.070
      -0.057
      -0.035
      -0.010
       0.019
       0.057
       0.108
       0.167
       0.222
       0.258
       0.276
       0.288
       0.305
       0.319
       0.300
       0.219
       0.066
      -0.131
      -0.326
      -0.472
      -0.537
      -0.512
      -0.406
      -0.252
      -0.095
       0.020
       0.067
       0.046
      -0.019
      -0.091
      -0.134
      -0.127
      -0.081
      -0.039
      -0.042
      -0.094
      -0.149
      -0.142
      -0.050
       0.087
       0.200
       0.246
       0.236
       0.206
       0.180
       0.148
       0.094
       0.018
      -0.061
      -0.127
      -0.178
      -0.211
      -0.206
      -0.142
      -0.029
       0.084
       0.140
       0.121
       0.048
      -0.046
      -0.142
      -0.233
      -0.300
      -0.309
      -0.232
      -0.083
       0.078
       0.181
       0.193
       0.139
       0.072
       0.031
       0.030
       0.059
       0.110
       0.173
       0.242
       0.308
       0.354
       0.363
       0.318
       0.218
       0.079
      -0.069
      -0.192
      -0.269
      -0.304
      -0.312
      -0.307
      -0.279
      -0.199
      -0.050
       0.147
       0.335
       0.452
       0.468
       0.407
       0.318
       0.235
       0.152
       0.047
      -0.081
      -0.200
      -0.279
      -0.311
      -0.313
      -0.305
      -0.303
      -0.313
      -0.330
      -0.332
      -0.299
      -0.230
      -0.158
      -0.124
      -0.135
      -0.154
      -0.116
       0.019
       0.226
       0.428
       0.543
       0.544
       0.472
       0.400
       0.377
       0.401
       0.419
       0.372
       0.226
      -0.014
      -0.305
      -0.580
      -0.761
      -0.788
      -0.656
      -0.410
      -0.127
       0.114
       0.241
       0.213
       0.046
      -0.172
      -0.308
      -0.261
      -0.030
       0.278
       0.517
       0.591
       0.506
       0.336
       0.163
       0.032
      -0.056
      -0.125
      -0.202
      -0.293
      -0.372
      -0.386
      -0.298
      -0.115
       0.096
       0.251
       0.303
       0.271
       0.218
       0.193
       0.198
       0.198
       0.178
       0.162
       0.178
       0.212
       0.202
       0.089
      -0.129
      -0.380
      -0.570
      -0.634
      -0.558
      -0.375
      -0.150
       0.031
       0.096
       0.034
      -0.083
      -0.148
      -0.098
       0.043
       0.197
       0.293
       0.311
       0.266
       0.183
       0.081
      -0.011
      -0.050
       0.000
       0.136
       0.297
       0.400
       0.388
       0.263
       0.069
      -0.131
      -0.285
      -0.363
      -0.363
      -0.307
      -0.228
      -0.154
      -0.098
      -0.060
      -0.037
      -0.027
      -0.025
      -0.008
       0.041
       0.112
       0.165
       0.172
       0.141
       0.113
       0.125
       0.174
       0.222
       0.223
       0.153
       0.022
      -0.132
      -0.251
      -0.290
      -0.241
      -0.147
      -0.075
      -0.074
      -0.139
      -0.209
      -0.218
      -0.138
       0.002
       0.145
       0.248
       0.295
       0.290
       0.243
       0.168
       0.073
      -0.037
      -0.168
      -0.312
      -0.435
      -0.477
      -0.398
      -0.224
      -0.036
       0.071
       0.060
      -0.026
      -0.099
      -0.092
      -0.003
       0.108
       0.171
       0.162
       0.117
       0.109
       0.185
       0.328
       0.474
       0.562
       0.573
       0.517
       0.412
       0.274
       0.124
      -0.007
      -0.095
      -0.149
      -0.202
      -0.272
      -0.343
      -0.382
      -0.371
      -0.330
      -0.298
      -0.297
      -0.316
      -0.318
      -0.267
      -0.146
       0.035
       0.240
       0.420
       0.528
       0.544
       0.487
       0.398
       0.304
       0.209
       0.098
      -0.036
      -0.177
      -0.299
      -0.380
      -0.417
      -0.417
      -0.384
      -0.310
      -0.196
      -0.060
       0.058
       0.122
       0.119
       0.065
      -0.001
      -0.040
      -0.040
      -0.013
       0.019
       0.048
       0.072
       0.092
       0.096
       0.073
       0.019
      -0.054
      -0.120
      -0.159
      -0.178
      -0.208
      -0.272
      -0.348
      -0.372
      -0.286
      -0.089
       0.156
       0.362
       0.471
       0.478
       0.421
       0.342
       0.278
       0.250
       0.260
       0.283
       0.271
       0.195
       0.071
      -0.047
      -0.121
      -0.144
      -0.130
      -0.087
      -0.026
       0.030
       0.045
       0.002
      -0.087
      -0.191
      -0.293
      -0.383
      -0.440
      -0.422
      -0.297
      -0.083
       0.140
       0.285
       0.306
       0.219
       0.085
      -0.037
      -0.114
      -0.146
      -0.140
      -0.096
      -0.006
       0.135
       0.306
       0.459
       0.543
       0.531
       0.440
       0.316
       0.203
       0.124
       0.066
       0.003
      -0.082
      -0.187
      -0.288
      -0.353
      -0.363
      -0.326
      -0.266
      -0.218
      -0.204
      -0.228
      -0.268
      -0.287
      -0.251
      -0.146
       0.004
       0.140
       0.195
       0.130
      -0.021
      -0.158
      -0.184
      -0.086
       0.054
       0.124
       0.082
      -0.016
      -0.062
       0.009
       0.168
       0.316
       0.365
       0.309
       0.215
       0.147
       0.103
       0.023
      -0.142
      -0.370
      -0.559
      -0.598
      -0.453
      -0.202
       0.026
       0.149
       0.195
       0.263
       0.415
       0.619
       0.766
       0.768
       0.624
       0.422
       0.272
       0.224
       0.230
       0.189
       0.033
      -0.229
      -0.516
      -0.738
      -0.839
      -0.815
      -0.706
      -0.574
      -0.475
      -0.426
      -0.391
      -0.305
      -0.132
       0.096
       0.303
       0.429
       0.485
       0.533
       0.624
       0.742
       0.803
       0.721
       0.476
       0.139
      -0.176
      -0.380
      -0.458
      -0.457
      -0.432
      -0.407
      -0.363
      -0.273
      -0.143
      -0.014
       0.063
       0.063
       0.004
      -0.076
      -0.144
      -0.186
      -0.213
      -0.244
      -0.287
      -0.321
      -0.301
      -0.181
       0.053
       0.355
       0.630
       0.778
       0.764
       0.635
       0.481
       0.365
       0.288
       0.214
       0.110
      -0.023
      -0.161
      -0.266
      -0.308
      -0.281
      -0.202
      -0.099
      -0.002
       0.051
       0.028
      -0.063
      -0.155
      -0.165
      -0.065
       0.093
       0.213
       0.240
       0.194
       0.135
       0.099
       0.072
       0.002
      -0.145
      -0.342
      -0.516
      -0.588
      -0.524
      -0.352
      -0.136
       0.055
       0.176
       0.215
       0.188
       0.134
       0.106
       0.146
       0.257
       0.399
       0.517
       0.569
       0.537
       0.416
       0.215
      -0.029
      -0.252
      -0.392
      -0.425
      -0.378
      -0.309
      -0.270
      -0.271
      -0.264
      -0.193
      -0.043
       0.126
       0.213
       0.159
      -0.009
      -0.194
      -0.302
      -0.296
      -0.203
      -0.080
       0.028
       0.104
       0.146
       0.157
       0.140
       0.100
       0.046
      -0.008
      -0.052
      -0.089
      -0.124
      -0.143
      -0.109
       0.015
       0.222
       0.451
       0.612
       0.642
       0.551
       0.414
       0.308
       0.246
       0.167
       0.000
      -0.253
      -0.494
      -0.600
      -0.516
      -0.304
      -0.099
      -0.016
      -0.087
      -0.249
      -0.387
      -0.410
      -0.313
      -0.173
      -0.087
      -0.094
      -0.156
      -0.202
      -0.185
      -0.119
      -0.062
      -0.070
      -0.161
      -0.287
      -0.362
      -0.316
      -0.150
       0.058
       0.214
       0.286
       0.319
       0.381
       0.498
       0.634
       0.730
       0.746
       0.686
       0.567
       0.408
       0.226
       0.044
      -0.104
      -0.195
      -0.232
      -0.247
      -0.277
      -0.336
      -0.406
      -0.456
      -0.465
      -0.437
      -0.387
      -0.319
      -0.215
      -0.058
       0.144
       0.343
       0.467
       0.469
       0.363
       0.219
       0.125
       0.129
       0.214
       0.304
       0.312
       0.199
       0.011
      -0.143
      -0.171
      -0.077
       0.031
       0.021
      -0.139
      -0.339
      -0.408
      -0.255
       0.052
       0.339
       0.448
       0.335
       0.074
      -0.208
      -0.406
      -0.475
      -0.430
      -0.333
      -0.264
      -0.268
      -0.325
      -0.365
      -0.324
      -0.202
      -0.057
       0.050
       0.113
       0.180
       0.295
       0.438
       0.534
       0.507
       0.363
       0.197
       0.126
       0.191
       0.321
       0.385
       0.299
       0.095
      -0.098
      -0.154
      -0.048
       0.136
       0.289
       0.359
       0.364
       0.346
       0.318
       0.261
       0.159
       0.031
      -0.079
      -0.136
      -0.156
      -0.200
      -0.325
      -0.535
      -0.759
      -0.901
      -0.903
      -0.785
      -0.623
      -0.477
      -0.343
      -0.169
       0.085
       0.381
       0.625
       0.727
       0.668
       0.500
       0.302
       0.128
      -0.016
      -0.157
      -0.326
      -0.521
      -0.698
      -0.788
      -0.747
      -0.590
      -0.382
      -0.200
      -0.081
      -0.016
       0.044
       0.149
       0.312
       0.494
       0.637
       0.711
       0.740
       0.775
       0.851
       0.964
       1.065
       1.100
       1.036
       0.882
       0.676
       0.464
       0.279
       0.129
       0.005
      -0.105
      -0.202
      -0.283
      -0.358
      -0.431
      -0.491
      -0.516
      -0.510
      -0.519
      -0.596
      -0.743
      -0.913
      -1.049
      -1.128
      -1.154
      -1.140
      -1.083
      -0.970
      -0.790
      -0.549
      -0.286
      -0.068
       0.047
       0.048
      -0.007
      -0.020
       0.100
       0.402
       0.873
       1.446
       2.037
       2.581
       3.044
       3.393
       3.576
       3.537
       3.260
       2.805
       2.274
       1.742
       1.200
       0.559
      -0.284
      -1.347
      -2.518
      -3.609
      -4.450
      -4.958
      -5.125
      -4.988
      -4.586
      -3.970
      -3.213
      -2.398
      -1.551
      -0.625
       0.450
       1.652
       2.805
       3.643
       3.957
       3.702
       2.969
       1.891
       0.573
      -0.890
      -2.355
      -3.622
      -4.497
      -4.852
      -4.645
      -3.888
      -2.607
      -0.866
       1.199
       3.354
       5.319
       6.850
       7.773
       7.935
       7.172
       5.405
       2.810
      -0.114
      -2.724
      -4.534
      -5.422
      -5.576
      -5.280
      -4.750
      -4.125
      -3.540
      -3.128
      -2.937
      -2.847
      -2.624
      -2.101
      -1.306
      -0.443
       0.262
       0.703
       0.955
       1.213
       1.673
       2.417
       3.374
       4.375
       5.241
       5.827
       6.017
       5.698
       4.795
       3.346
       1.565
      -0.175
      -1.477
      -2.078
      -1.958
      -1.327
      -0.521
       0.105
       0.293
      -0.028
      -0.717
      -1.505
      -2.150
      -2.554
      -2.754
      -2.812
      -2.714
      -2.357
      -1.662
      -0.674
       0.426
       1.413
       2.134
       2.566
       2.795
       2.931
       3.005
       2.935
       2.564
       1.793
       0.702
      -0.428
      -1.269
      -1.653
      -1.666
      -1.547
      -1.467
      -1.418
      -1.291
      -1.049
      -0.820
      -0.817
      -1.191
      -1.936
      -2.899
      -3.821
      -4.401
      -4.385
      -3.661
      -2.304
      -0.549
       1.295
       2.943
       4.178
       4.857
       4.905
       4.331
       3.259
       1.943
       0.725
      -0.068
      -0.266
       0.054
       0.604
       1.023
       1.039
       0.575
      -0.232
      -1.071
      -1.594
      -1.602
      -1.200
      -0.758
      -0.667
      -1.054
      -1.694
      -2.193
      -2.288
      -1.979
      -1.441
      -0.840
      -0.253
       0.286
       0.701
       0.882
       0.777
       0.480
       0.212
       0.210
       0.567
       1.146
       1.646
       1.799
       1.564
       1.150
       0.823
       0.671
       0.517
       0.082
      -0.747
      -1.782
      -2.642
      -3.034
      -2.924
      -2.483
      -1.870
      -1.117
      -0.203
       0.789
       1.654
       2.210
       2.442
       2.506
       2.567
       2.644
       2.577
       2.174
       1.394
       0.455
      -0.254
      -0.410
      -0.004
       0.609
       0.930
       0.671
      -0.046
      -0.789
      -1.141
      -0.977
      -0.504
      -0.065
       0.093
      -0.066
      -0.390
      -0.641
      -0.617
      -0.256
       0.298
       0.756
       0.861
       0.587
       0.147
      -0.204
      -0.381
      -0.472
      -0.566
      -0.631
      -0.605
      -0.554
      -0.667
      -1.062
      -1.611
      -2.012
      -2.069
      -1.868
      -1.661
      -1.573
      -1.463
      -1.075
      -0.322
       0.577
       1.242
       1.425
       1.208
       0.926
       0.876
       1.086
       1.320
       1.309
       0.968
       0.432
      -0.086
      -0.445
      -0.613
      -0.599
      -0.403
      -0.037
       0.404
       0.755
       0.869
       0.721
       0.432
       0.193
       0.154
       0.357
       0.711
       1.009
       0.994
       0.485
      -0.464
      -1.521
      -2.231
      -2.309
      -1.838
      -1.181
      -0.709
      -0.562
      -0.632
      -0.713
      -0.636
      -0.318
       0.259
       1.048
       1.913
       2.624
       2.933
       2.719
       2.102
       1.403
       0.947
       0.855
       0.982
       1.058
       0.895
       0.502
       0.055
      -0.247
      -0.319
      -0.245
      -0.207
      -0.332
      -0.601
      -0.888
      -1.101
      -1.256
      -1.427
      -1.610
      -1.681
      -1.508
      -1.092
      -0.602
      -0.253
      -0.138
      -0.165
      -0.155
       0.014
       0.321
       0.618
       0.719
       0.510
       0.041
      -0.497
      -0.891
      -1.026
      -0.921
      -0.654
      -0.284
       0.139
       0.527
       0.765
       0.796
       0.699
       0.639
       0.710
       0.830
       0.822
       0.603
       0.285
       0.069
       0.055
       0.156
       0.192
       0.056
      -0.201
      -0.441
      -0.576
      -0.631
      -0.697
      -0.807
      -0.895
      -0.862
      -0.683
      -0.441
      -0.267
      -0.239
      -0.322
      -0.393
      -0.316
      -0.046
       0.321
       0.603
       0.656
       0.472
       0.181
      -0.050
      -0.112
      -0.006
       0.173
       0.294
       0.241
      -0.023
      -0.418
      -0.766
      -0.887
      -0.727
      -0.409
      -0.148
      -0.079
      -0.134
      -0.099
       0.197
       0.706
       1.169
       1.318
       1.098
       0.722
       0.502
       0.605
       0.914
       1.129
       0.997
       0.504
      -0.116
      -0.547
      -0.604
      -0.340
       0.025
       0.268
       0.301
       0.182
       0.046
       0.022
       0.160
       0.400
       0.582
       0.545
       0.262
      -0.111
      -0.338
      -0.282
       0.003
       0.351
       0.629
       0.808
       0.901
       0.897
       0.773
       0.547
       0.272
      -0.022
      -0.350
      -0.718
      -1.082
      -1.366
      -1.529
      -1.578
      -1.547
      -1.458
      -1.316
      -1.110
      -0.818
      -0.421
       0.056
       0.512
       0.787
       0.744
       0.381
      -0.128
      -0.534
      -0.701
      -0.708
      -0.755
      -0.948
      -1.179
      -1.230
      -1.002
      -0.623
      -0.332
      -0.253
      -0.297
      -0.288
      -0.147
       0.060
       0.228
       0.341
       0.474
       0.706
       1.028
       1.339
       1.532
       1.569
       1.494
       1.361
       1.187
       0.967
       0.743
       0.602
       0.593
       0.636
       0.564
       0.271
      -0.168
      -0.531
      -0.628
      -0.464
      -0.238
      -0.153
      -0.240
      -0.342
      -0.272
       0.009
       0.350
       0.532
       0.442
       0.150
      -0.175
      -0.414
      -0.556
      -0.629
      -0.623
