Origin Time       07/09/2011 17:58:18
Lat.              28.6 N	
Long.             77.0 E	
Depth (Km)          8.0
Magnitude         4.2
 Region           DELHI-HARYANA(SONIPAT)                                           
 Above details taken from IMD 
     
Station Code      FAR
Station Lat.       28.383  N
Station Long.      77.325  E
Station Height(m)  203.0
Site Class        C   Vs30 between 200 m/sec to 375 m/sec *  
Record Time       07.09.2011 17:58:14.639
Sampling Rate     200. Hz
 Record Duration   65.250 Sec.
 Direction         E-W (E positive)
Max. Acceleration      7.858 cm/sec**2
     
  * For reference see Site Classification link of website 
     
 Base Line Corrected and Low Pass Filtered (Cut Off at 35 Hz) Time History
 Acceleration data in cm/sec**2
    
[...]
      -0.001
      -0.007
      -0.014
      -0.016
      -0.013
      -0.007
      -0.003
      -0.003
      -0.007
      -0.012
      -0.015
      -0.013
      -0.009
      -0.006
      -0.009
      -0.016
      -0.020
      -0.020
      -0.016
      -0.013
      -0.013
      -0.014
      -0.017
      -0.020
      -0.022
      -0.024
      -0.026
      -0.026
      -0.022
      -0.019
      -0.019
      -0.021
      -0.021
      -0.017
      -0.009
      -0.005
      -0.008
      -0.016
      -0.023
      -0.023
      -0.016
      -0.007
      -0.003
      -0.004
      -0.006
      -0.006
      -0.003
       0.000
      -0.001
      -0.004
      -0.010
      -0.013
      -0.012
      -0.010
      -0.011
      -0.016
      -0.023
      -0.027
      -0.027
      -0.022
      -0.014
      -0.005
       0.002
       0.006
       0.004
      -0.004
      -0.013
      -0.020
      -0.023
      -0.023
      -0.021
      -0.018
      -0.012
      -0.007
      -0.005
      -0.008
      -0.012
      -0.014
      -0.012
      -0.007
      -0.003
      -0.002
      -0.003
      -0.004
      -0.003
      -0.001
       0.000
      -0.002
      -0.006
      -0.012
      -0.017
      -0.021
      -0.022
      -0.020
      -0.016
      -0.012
      -0.012
      -0.016
      -0.021
      -0.023
      -0.023
      -0.023
      -0.026
      -0.026
      -0.022
      -0.012
      -0.001
       0.009
       0.020
       0.030
       0.039
       0.043
       0.039
       0.021
      -0.008
      -0.039
      -0.061
      -0.066
      -0.051
      -0.019
       0.023
       0.062
       0.085
       0.085
       0.065
       0.040
       0.025
       0.023
       0.027
       0.023
       0.009
       0.000
       0.008
       0.029
       0.043
       0.030
      -0.004
      -0.039
      -0.054
      -0.053
      -0.053
      -0.062
      -0.064
      -0.044
      -0.011
       0.005
      -0.002
      -0.004
       0.036
       0.113
       0.174
       0.168
       0.093
      -0.006
      -0.087
      -0.142
      -0.186
      -0.211
      -0.187
      -0.102
       0.007
       0.087
       0.125
       0.150
       0.176
       0.172
       0.096
      -0.045
      -0.192
      -0.293
      -0.342
      -0.368
      -0.391
      -0.401
      -0.381
      -0.340
      -0.301
      -0.260
      -0.170
       0.009
       0.252
       0.475
       0.607
       0.630
       0.564
       0.440
       0.302
       0.209
       0.197
       0.244
       0.285
       0.268
       0.207
       0.157
       0.162
       0.199
       0.198
       0.103
      -0.079
      -0.293
      -0.469
      -0.565
      -0.568
      -0.502
      -0.415
      -0.356
      -0.332
      -0.310
      -0.248
      -0.132
       0.021
       0.196
       0.379
       0.541
       0.628
       0.596
       0.462
       0.300
       0.182
       0.121
       0.080
       0.032
      -0.004
      -0.001
       0.022
       0.002
      -0.097
      -0.243
      -0.358
      -0.393
      -0.361
      -0.295
      -0.200
      -0.066
       0.083
       0.185
       0.203
       0.172
       0.156
       0.173
       0.171
       0.103
      -0.020
      -0.144
      -0.236
      -0.305
      -0.369
      -0.412
      -0.403
      -0.337
      -0.245
      -0.174
      -0.135
      -0.104
      -0.047
       0.046
       0.161
       0.278
       0.371
       0.409
       0.382
       0.324
       0.287
       0.295
       0.317
       0.311
       0.261
       0.188
       0.124
       0.089
       0.081
       0.071
       0.020
      -0.086
      -0.203
      -0.263
      -0.226
      -0.122
      -0.022
       0.014
      -0.026
      -0.116
      -0.222
      -0.319
      -0.376
      -0.357
      -0.251
      -0.111
      -0.024
      -0.029
      -0.081
      -0.098
      -0.048
       0.031
       0.081
       0.081
       0.066
       0.084
       0.155
       0.248
       0.317
       0.340
       0.322
       0.279
       0.225
       0.183
       0.182
       0.233
       0.303
       0.332
       0.281
       0.146
      -0.047
      -0.265
      -0.462
      -0.575
      -0.535
      -0.334
      -0.067
       0.104
       0.057
      -0.193
      -0.509
      -0.729
      -0.760
      -0.603
      -0.320
      -0.005
       0.251
       0.395
       0.442
       0.448
       0.456
       0.459
       0.424
       0.343
       0.261
       0.233
       0.257
       0.267
       0.193
       0.035
      -0.130
      -0.212
      -0.169
      -0.027
       0.148
       0.287
       0.344
       0.299
       0.160
      -0.043
      -0.258
      -0.425
      -0.496
      -0.463
      -0.355
      -0.218
      -0.084
       0.026
       0.089
       0.086
       0.010
      -0.118
      -0.249
      -0.312
      -0.257
      -0.098
       0.086
       0.204
       0.217
       0.168
       0.140
       0.176
       0.247
       0.286
       0.253
       0.168
       0.078
       0.007
      -0.056
      -0.123
      -0.176
      -0.184
      -0.141
      -0.064
       0.024
       0.110
       0.181
       0.218
       0.204
       0.140
       0.038
      -0.084
      -0.212
      -0.320
      -0.365
      -0.295
      -0.095
       0.178
       0.424
       0.562
       0.580
       0.506
       0.369
       0.185
      -0.010
      -0.157
      -0.212
      -0.179
      -0.098
      -0.008
       0.075
       0.139
       0.159
       0.111
       0.009
      -0.085
      -0.105
      -0.053
       0.000
      -0.021
      -0.121
      -0.255
      -0.374
      -0.457
      -0.489
      -0.456
      -0.367
      -0.247
      -0.123
       0.005
       0.144
       0.280
       0.371
       0.365
       0.250
       0.067
      -0.106
      -0.199
      -0.189
      -0.099
       0.019
       0.108
       0.131
       0.097
       0.058
       0.075
       0.170
       0.306
       0.418
       0.458
       0.413
       0.305
       0.174
       0.052
      -0.057
      -0.179
      -0.338
      -0.517
      -0.654
      -0.686
      -0.594
      -0.424
      -0.250
      -0.120
      -0.027
       0.071
       0.198
       0.340
       0.455
       0.511
       0.496
       0.434
       0.365
       0.327
       0.314
       0.290
       0.230
       0.149
       0.079
       0.012
      -0.081
      -0.205
      -0.311
      -0.350
      -0.328
      -0.303
      -0.315
      -0.338
      -0.314
      -0.209
      -0.054
       0.098
       0.207
       0.256
       0.241
       0.170
       0.077
       0.009
      -0.018
      -0.031
      -0.054
      -0.072
      -0.046
       0.019
       0.074
       0.078
       0.053
       0.045
       0.045
      -0.014
      -0.171
      -0.367
      -0.478
      -0.424
      -0.240
      -0.028
       0.132
       0.231
       0.299
       0.357
       0.404
       0.432
       0.430
       0.380
       0.262
       0.081
      -0.120
      -0.281
      -0.369
      -0.388
      -0.362
      -0.300
      -0.202
      -0.085
       0.024
       0.115
       0.201
       0.276
       0.293
       0.207
       0.036
      -0.133
      -0.201
      -0.133
       0.022
       0.171
       0.236
       0.195
       0.085
      -0.036
      -0.125
      -0.173
      -0.194
      -0.199
      -0.180
      -0.110
       0.030
       0.216
       0.375
       0.427
       0.342
       0.166
      -0.010
      -0.099
      -0.060
       0.082
       0.257
       0.400
       0.493
       0.557
       0.600
       0.595
       0.499
       0.297
       0.017
      -0.283
      -0.541
      -0.707
      -0.768
      -0.743
      -0.669
      -0.574
      -0.466
      -0.346
      -0.220
      -0.102
      -0.010
       0.051
       0.082
       0.087
       0.059
      -0.007
      -0.097
      -0.160
      -0.145
      -0.043
       0.105
       0.236
       0.310
       0.317
       0.269
       0.187
       0.096
       0.013
      -0.050
      -0.080
      -0.062
       0.013
       0.137
       0.280
       0.401
       0.463
       0.453
       0.380
       0.261
       0.120
      -0.015
      -0.112
      -0.158
      -0.169
      -0.182
      -0.232
      -0.327
      -0.448
      -0.552
      -0.595
      -0.552
      -0.429
      -0.263
      -0.107
       0.000
       0.058
       0.098
       0.143
       0.180
       0.176
       0.135
       0.116
       0.177
       0.313
       0.462
       0.553
       0.557
       0.491
       0.407
       0.366
       0.401
       0.494
       0.574
       0.555
       0.389
       0.100
      -0.243
      -0.576
      -0.876
      -1.131
      -1.299
      -1.306
      -1.115
      -0.768
      -0.351
       0.064
       0.431
       0.692
       0.761
       0.586
       0.219
      -0.190
      -0.476
      -0.552
      -0.421
      -0.158
       0.135
       0.370
       0.513
       0.593
       0.676
       0.783
       0.863
       0.820
       0.607
       0.277
      -0.040
      -0.234
      -0.285
      -0.243
      -0.163
      -0.061
       0.061
       0.175
       0.226
       0.167
      -0.001
      -0.231
      -0.451
      -0.605
      -0.683
      -0.729
      -0.795
      -0.887
      -0.950
      -0.912
      -0.757
      -0.535
      -0.325
      -0.175
      -0.078
      -0.009
       0.055
       0.125
       0.218
       0.346
       0.498
       0.643
       0.760
       0.863
       0.982
       1.115
       1.209
       1.184
       0.981
       0.613
       0.162
      -0.261
      -0.574
      -0.739
      -0.773
      -0.731
      -0.695
      -0.724
      -0.804
      -0.854
      -0.787
      -0.585
      -0.316
      -0.079
       0.075
       0.168
       0.253
       0.361
       0.462
       0.501
       0.440
       0.290
       0.101
      -0.068
      -0.161
      -0.151
      -0.059
       0.044
       0.082
       0.040
      -0.019
      -0.018
       0.057
       0.163
       0.248
       0.286
       0.288
       0.278
       0.275
       0.279
       0.272
       0.229
       0.130
      -0.023
      -0.181
      -0.275
      -0.272
      -0.215
      -0.187
      -0.236
      -0.351
      -0.489
      -0.608
      -0.671
      -0.641
      -0.504
      -0.297
      -0.092
       0.044
       0.103
       0.126
       0.173
       0.272
       0.415
       0.563
       0.662
       0.654
       0.514
       0.274
       0.008
      -0.224
      -0.408
      -0.538
      -0.584
      -0.507
      -0.325
      -0.128
      -0.014
      -0.012
      -0.072
      -0.135
      -0.181
      -0.219
      -0.245
      -0.221
      -0.115
       0.049
       0.203
       0.301
       0.363
       0.426
       0.484
       0.490
       0.419
       0.287
       0.115
      -0.087
      -0.288
      -0.430
      -0.469
      -0.435
      -0.398
      -0.376
      -0.297
      -0.081
       0.233
       0.493
       0.570
       0.488
       0.387
       0.370
       0.415
       0.436
       0.396
       0.317
       0.234
       0.153
       0.089
       0.068
       0.093
       0.114
       0.061
      -0.078
      -0.239
      -0.350
      -0.402
      -0.447
      -0.525
      -0.602
      -0.619
      -0.554
      -0.432
      -0.266
      -0.059
       0.139
       0.216
       0.102
      -0.129
      -0.307
      -0.318
      -0.188
      -0.025
       0.095
       0.154
       0.149
       0.059
      -0.101
      -0.228
      -0.189
       0.043
       0.331
       0.487
       0.453
       0.327
       0.242
       0.231
       0.252
       0.301
       0.426
       0.634
       0.814
       0.817
       0.589
       0.227
      -0.114
      -0.344
      -0.478
      -0.569
      -0.639
      -0.672
      -0.656
      -0.616
      -0.585
      -0.563
      -0.523
      -0.451
      -0.356
      -0.255
      -0.149
      -0.047
       0.032
       0.080
       0.132
       0.230
       0.364
       0.468
       0.494
       0.446
       0.360
       0.241
       0.064
      -0.168
      -0.386
      -0.488
      -0.419
      -0.211
       0.055
       0.321
       0.582
       0.836
       1.028
       1.069
       0.907
       0.577
       0.187
      -0.126
      -0.244
      -0.110
       0.238
       0.685
       1.095
       1.384
       1.551
       1.643
       1.696
       1.694
       1.588
       1.334
       0.912
       0.331
      -0.369
      -1.118
      -1.844
      -2.500
      -3.081
      -3.598
      -4.028
      -4.285
      -4.236
      -3.760
      -2.803
      -1.390
       0.388
       2.368
       4.303
       5.889
       6.854
       7.042
       6.435
       5.130
       3.316
       1.238
      -0.871
      -2.850
      -4.610
      -6.079
      -7.144
      -7.676
      -7.611
      -7.026
      -6.094
      -4.963
      -3.667
      -2.173
      -0.505
       1.194
       2.710
       3.852
       4.506
       4.624
       4.231
       3.447
       2.486
       1.597
       0.978
       0.729
       0.848
       1.245
       1.744
       2.120
       2.193
       1.934
       1.477
       1.039
       0.810
       0.867
       1.120
       1.325
       1.194
       0.569
      -0.462
      -1.607
      -2.523
      -2.977
      -2.914
      -2.445
      -1.808
      -1.292
      -1.129
      -1.382
      -1.897
      -2.390
      -2.639
      -2.637
      -2.574
      -2.684
      -3.078
      -3.672
      -4.182
      -4.226
      -3.516
      -2.055
      -0.139
       1.841
       3.634
       5.166
       6.419
       7.319
       7.792
       7.858
       7.635
       7.232
       6.657
       5.834
       4.703
       3.302
       1.740
       0.130
      -1.444
      -2.898
      -4.149
      -5.155
      -5.928
      -6.469
      -6.710
      -6.532
      -5.846
      -4.676
      -3.157
      -1.485
       0.137
       1.517
       2.490
       2.940
       2.840
       2.279
       1.452
       0.596
      -0.095
      -0.514
      -0.621
      -0.407
       0.096
       0.774
       1.419
       1.793
       1.761
       1.368
       0.811
       0.310
       0.008
      -0.065
       0.022
       0.137
       0.168
       0.116
       0.111
       0.283
       0.608
       0.908
       0.999
       0.823
       0.410
      -0.227
      -1.080
      -2.024
      -2.796
      -3.174
      -3.174
      -3.027
      -2.926
      -2.823
      -2.501
      -1.819
      -0.864
       0.135
       0.994
       1.670
       2.203
       2.639
       3.026
       3.413
       3.774
       3.940
       3.692
       2.980
       2.030
       1.176
       0.569
       0.062
      -0.616
      -1.571
      -2.647
      -3.576
      -4.181
      -4.416
      -4.265
      -3.676
      -2.629
      -1.239
       0.247
       1.569
       2.564
       3.186
       3.447
       3.358
       2.932
       2.206
       1.260
       0.206
      -0.825
      -1.708
      -2.334
      -2.644
      -2.624
      -2.288
      -1.691
      -0.960
      -0.289
       0.146
       0.300
       0.288
       0.296
       0.442
       0.711
       1.011
       1.259
       1.426
       1.517
       1.539
       1.503
       1.433
       1.333
       1.146
       0.759
       0.114
      -0.685
      -1.393
      -1.778
      -1.773
      -1.511
      -1.214
      -1.041
      -1.001
      -0.991
      -0.909
      -0.733
      -0.533
      -0.412
      -0.413
      -0.469
      -0.428
      -0.176
       0.248
       0.641
       0.787
       0.645
       0.386
       0.214
       0.178
       0.169
       0.108
       0.063
       0.156
       0.407
       0.712
       0.975
       1.191
       1.394
       1.596
       1.798
       2.049
       2.413
       2.846
       3.145
       3.090
       2.637
       1.954
       1.249
       0.609
       0.030
      -0.481
      -0.893
      -1.231
      -1.596
      -2.055
      -2.547
      -2.917
      -3.040
      -2.913
      -2.633
      -2.298
      -1.936
      -1.513
      -1.010
      -0.473
       0.004
       0.324
       0.426
       0.308
       0.049
      -0.218
      -0.376
      -0.395
      -0.321
      -0.204
      -0.063
       0.088
       0.211
       0.268
       0.270
       0.284
       0.393
       0.635
       0.966
       1.277
       1.465
       1.509
       1.465
       1.407
       1.349
       1.244
       1.035
       0.700
       0.262
      -0.215
      -0.630
      -0.876
      -0.903
      -0.772
      -0.625
      -0.575
      -0.619
      -0.639
      -0.513
      -0.216
       0.153
       0.442
       0.540
       0.425
       0.166
      -0.139
      -0.430
      -0.709
      -1.004
      -1.300
      -1.510
      -1.543
      -1.392
      -1.132
      -0.828
      -0.487
      -0.098
       0.295
       0.612
       0.811
       0.925
       1.011
       1.074
       1.067
       0.949
       0.737
       0.493
       0.260
       0.023
      -0.267
      -0.636
      -1.066
      -1.488
      -1.774
      -1.766
      -1.380
      -0.730
      -0.097
       0.267
       0.341
       0.328
       0.442
       0.713
       0.995
       1.136
       1.110
       0.984
       0.807
       0.573
       0.287
       0.021
      -0.139
      -0.198
      -0.240
      -0.304
      -0.305
      -0.128
       0.224
       0.622
       0.935
       1.130
       1.252
       1.340
       1.387
       1.358
       1.219
       0.968
       0.665
       0.433
       0.391
       0.554
       0.790
       0.901
       0.764
       0.397
      -0.075
      -0.533
      -0.920
      -1.241
      -1.511
      -1.730
      -1.864
      -1.830
      -1.526
      -0.925
      -0.166
       0.484
       0.813
       0.800
       0.595
       0.391
       0.314
       0.377
       0.461
       0.366
      -0.057
      -0.755
      -1.479
      -1.972
      -2.160
      -2.172
      -2.190
      -2.280
      -2.359
      -2.291
      -1.996
      -1.470
      -0.764
       0.017
       0.724
       1.252
       1.631
       1.994
       2.409
       2.774
       2.886
       2.608
       1.962
       1.098
       0.205
      -0.566
      -1.147
      -1.546
      -1.805
      -1.941
      -1.918
      -1.659
      -1.098
      -0.265
       0.679
       1.512
       2.072
       2.322
       2.308
       2.104
       1.826
       1.622
       1.603
       1.762
       1.976
       2.086
       1.990
       1.670
       1.172
       0.590
       0.049
      -0.322
      -0.460
      -0.429
      -0.394
      -0.489
      -0.709
      -0.949
      -1.139
      -1.295
      -1.464
      -1.653
      -1.842
      -2.033
      -2.245
      -2.457
      -2.587
      -2.530
      -2.240
      -1.783
      -1.310
      -0.956
      -0.751
      -0.615
      -0.436
      -0.156
       0.188
       0.479
       0.599
       0.528
       0.376
       0.281
       0.291
       0.363
       0.465
       0.642
       0.947
       1.334
       1.666
       1.853
       1.938
       2.016
       2.082
       2.007
       1.673
       1.120
       0.536
       0.123
      -0.033
       0.039
       0.253
       0.494
       0.616
       0.509
       0.212
      -0.079
      -0.179
      -0.087
       0.032
       0.036
      -0.089
      -0.276
      -0.476
      -0.663
      -0.799
      -0.838
      -0.776
      -0.662
      -0.556
      -0.497
      -0.490
      -0.527
