Origin Time       07/09/2011 17:58:18
Lat.              28.6 N	
Long.             77.0 E	
Depth (Km)          8.0
Magnitude         4.2
 Region           DELHI-HARYANA(SONIPAT)                                           
 Above details taken from IMD 
   
Station Code      FAR
Station Lat.       28.383
Station Long.      77.325
Station Height(m)  203.0
Site Class        C   Vs30 between 200 m/sec to 375 m/sec *  
Record Time       07.09.2011 17:58:14.639
Sampling Rate     200. Hz
 Record Duration   65.250 Sec.
 Direction         Vert. (Up positive)
Max. Acceleration      7.400 cm/sec**2
     
  * For reference see Site Classification link of website 
     
 Base Line Corrected and Low Pass Filtered (Cut Off at 35 Hz) Time History
 Acceleration data in cm/sec**2
    
[...]
      -0.011
      -0.009
      -0.011
      -0.016
      -0.021
      -0.022
      -0.019
      -0.013
      -0.007
      -0.003
       0.001
       0.002
       0.001
      -0.001
      -0.005
      -0.008
      -0.010
      -0.010
      -0.009
      -0.008
      -0.011
      -0.013
      -0.011
      -0.005
       0.000
       0.000
      -0.003
      -0.004
      -0.001
       0.008
       0.017
       0.021
       0.019
       0.011
       0.004
       0.000
       0.002
       0.006
       0.008
       0.006
      -0.001
      -0.007
      -0.008
      -0.004
       0.002
       0.006
       0.010
       0.017
       0.025
       0.027
       0.020
       0.010
       0.005
       0.007
       0.010
       0.006
      -0.002
      -0.008
      -0.005
       0.002
       0.005
      -0.002
      -0.013
      -0.016
      -0.011
      -0.004
      -0.004
      -0.011
      -0.020
      -0.024
      -0.022
      -0.015
      -0.006
      -0.001
       0.000
      -0.002
      -0.004
       0.000
       0.009
       0.019
       0.024
       0.019
       0.010
       0.006
       0.012
       0.021
       0.023
       0.016
       0.010
       0.009
       0.013
       0.015
       0.010
       0.006
       0.009
       0.017
       0.025
       0.026
       0.020
       0.012
       0.006
       0.001
      -0.007
      -0.016
      -0.022
      -0.022
      -0.019
      -0.016
      -0.016
      -0.017
      -0.014
      -0.008
      -0.002
       0.004
       0.008
       0.010
       0.012
       0.011
       0.007
       0.002
      -0.002
      -0.003
      -0.001
       0.002
       0.006
       0.011
       0.018
       0.028
       0.036
       0.038
       0.036
       0.037
       0.047
       0.060
       0.067
       0.058
       0.037
       0.017
       0.006
       0.005
       0.007
       0.005
       0.001
      -0.002
      -0.001
       0.002
       0.004
       0.007
       0.008
       0.007
      -0.001
      -0.014
      -0.027
      -0.030
      -0.024
      -0.013
      -0.007
      -0.009
      -0.015
      -0.022
      -0.027
      -0.026
      -0.020
      -0.009
       0.001
       0.006
       0.002
      -0.004
      -0.008
      -0.010
      -0.011
      -0.014
      -0.018
      -0.020
      -0.021
      -0.021
      -0.021
      -0.019
      -0.012
      -0.001
       0.010
       0.012
       0.007
       0.002
       0.003
       0.007
       0.009
       0.005
       0.000
      -0.004
      -0.008
      -0.013
      -0.015
      -0.010
       0.003
       0.018
       0.027
       0.025
       0.014
      -0.003
      -0.025
      -0.055
      -0.098
      -0.155
      -0.223
      -0.297
      -0.373
      -0.449
      -0.519
      -0.570
      -0.574
      -0.495
      -0.306
      -0.019
       0.303
       0.572
       0.722
       0.737
       0.657
       0.548
       0.473
       0.465
       0.528
       0.634
       0.732
       0.762
       0.691
       0.541
       0.379
       0.270
       0.209
       0.118
      -0.086
      -0.399
      -0.709
      -0.873
      -0.839
      -0.683
      -0.544
      -0.490
      -0.476
      -0.411
      -0.276
      -0.149
      -0.107
      -0.125
      -0.093
       0.041
       0.172
       0.127
      -0.127
      -0.397
      -0.427
      -0.154
       0.219
       0.445
       0.482
       0.491
       0.582
       0.629
       0.391
      -0.172
      -0.775
      -1.043
      -0.856
      -0.421
      -0.021
       0.247
       0.456
       0.623
       0.633
       0.399
       0.039
      -0.209
      -0.229
      -0.132
      -0.105
      -0.199
      -0.310
      -0.334
      -0.298
      -0.298
      -0.353
      -0.381
      -0.318
      -0.214
      -0.160
      -0.163
      -0.144
      -0.071
      -0.010
      -0.019
      -0.047
       0.005
       0.143
       0.283
       0.370
       0.457
       0.609
       0.772
       0.790
       0.566
       0.188
      -0.121
      -0.201
      -0.090
       0.038
       0.064
       0.015
      -0.006
       0.057
       0.185
       0.331
       0.432
       0.407
       0.204
      -0.123
      -0.422
      -0.572
      -0.586
      -0.567
      -0.567
      -0.543
      -0.417
      -0.178
       0.126
       0.430
       0.671
       0.747
       0.553
       0.094
      -0.424
      -0.706
      -0.607
      -0.263
       0.064
       0.255
       0.400
       0.590
       0.727
       0.619
       0.249
      -0.140
      -0.289
      -0.188
      -0.038
       0.004
      -0.030
      -0.053
      -0.091
      -0.230
      -0.437
      -0.530
      -0.371
      -0.066
       0.109
      -0.011
      -0.294
      -0.440
      -0.299
      -0.017
       0.144
       0.084
      -0.070
      -0.153
      -0.137
      -0.104
      -0.115
      -0.144
      -0.104
       0.078
       0.403
       0.765
       0.976
       0.881
       0.466
      -0.114
      -0.617
      -0.812
      -0.604
      -0.107
       0.386
       0.582
       0.396
      -0.014
      -0.391
      -0.566
      -0.523
      -0.342
      -0.118
       0.070
       0.150
       0.080
      -0.077
      -0.135
       0.071
       0.467
       0.734
       0.595
       0.129
      -0.266
      -0.250
       0.149
       0.603
       0.813
       0.742
       0.540
       0.306
      -0.012
      -0.484
      -1.002
      -1.299
      -1.206
      -0.831
      -0.462
      -0.296
      -0.304
      -0.351
      -0.352
      -0.303
      -0.195
       0.011
       0.309
       0.608
       0.790
       0.807
       0.690
       0.477
       0.174
      -0.178
      -0.428
      -0.381
      -0.004
       0.473
       0.734
       0.643
       0.327
       0.000
      -0.229
      -0.365
      -0.399
      -0.270
       0.011
       0.281
       0.328
       0.125
      -0.115
      -0.146
       0.039
       0.199
       0.115
      -0.165
      -0.381
      -0.343
      -0.111
       0.097
       0.137
       0.043
      -0.063
      -0.119
      -0.161
      -0.242
      -0.356
      -0.457
      -0.516
      -0.538
      -0.513
      -0.395
      -0.158
       0.141
       0.385
       0.485
       0.436
       0.309
       0.205
       0.197
       0.291
       0.406
       0.433
       0.320
       0.140
       0.034
       0.077
       0.183
       0.180
      -0.021
      -0.313
      -0.496
      -0.488
      -0.386
      -0.311
      -0.241
      -0.062
       0.236
       0.488
       0.511
       0.300
       0.025
      -0.156
      -0.231
      -0.277
      -0.319
      -0.274
      -0.074
       0.205
       0.375
       0.314
       0.084
      -0.154
      -0.298
      -0.342
      -0.283
      -0.071
       0.295
       0.682
       0.892
       0.816
       0.501
       0.071
      -0.367
      -0.734
      -0.945
      -0.908
      -0.612
      -0.172
       0.232
       0.502
       0.661
       0.755
       0.737
       0.521
       0.118
      -0.333
      -0.682
      -0.862
      -0.852
      -0.637
      -0.255
       0.121
       0.257
       0.060
      -0.299
      -0.496
      -0.317
       0.158
       0.617
       0.775
       0.584
       0.214
      -0.134
      -0.375
      -0.515
      -0.557
      -0.478
      -0.265
       0.050
       0.406
       0.724
       0.909
       0.883
       0.638
       0.247
      -0.168
      -0.478
      -0.563
      -0.366
       0.057
       0.523
       0.808
       0.776
       0.446
      -0.027
      -0.454
      -0.712
      -0.799
      -0.797
      -0.777
      -0.747
      -0.655
      -0.455
      -0.171
       0.093
       0.218
       0.176
       0.061
      -0.003
       0.030
       0.121
       0.232
       0.350
       0.411
       0.296
      -0.026
      -0.384
      -0.511
      -0.300
       0.083
       0.371
       0.454
       0.448
       0.527
       0.726
       0.915
       0.931
       0.714
       0.326
      -0.106
      -0.431
      -0.510
      -0.308
       0.035
       0.275
       0.275
       0.116
      -0.033
      -0.109
      -0.183
      -0.290
      -0.344
      -0.269
      -0.138
      -0.115
      -0.254
      -0.421
      -0.447
      -0.325
      -0.205
      -0.212
      -0.301
      -0.334
      -0.265
      -0.191
      -0.213
      -0.292
      -0.294
      -0.167
      -0.018
       0.022
      -0.050
      -0.111
      -0.049
       0.155
       0.453
       0.773
       0.997
       0.976
       0.657
       0.183
      -0.190
      -0.306
      -0.235
      -0.172
      -0.233
      -0.354
      -0.373
      -0.204
       0.065
       0.237
       0.177
      -0.076
      -0.346
      -0.460
      -0.341
      -0.041
       0.285
       0.453
       0.385
       0.187
       0.067
       0.135
       0.290
       0.321
       0.117
      -0.229
      -0.483
      -0.444
      -0.087
       0.415
       0.818
       0.967
       0.869
       0.619
       0.313
       0.025
      -0.181
      -0.284
      -0.348
      -0.453
      -0.583
      -0.614
      -0.447
      -0.134
       0.134
       0.177
      -0.038
      -0.372
      -0.612
      -0.620
      -0.408
      -0.104
       0.153
       0.265
       0.199
       0.008
      -0.170
      -0.191
      -0.038
       0.151
       0.221
       0.128
      -0.047
      -0.198
      -0.249
      -0.160
       0.069
       0.363
       0.596
       0.661
       0.548
       0.365
       0.263
       0.324
       0.499
       0.658
       0.716
       0.686
       0.607
       0.448
       0.139
      -0.311
      -0.772
      -1.086
      -1.198
      -1.172
      -1.101
      -1.034
      -0.971
      -0.911
      -0.862
      -0.826
      -0.776
      -0.663
      -0.450
      -0.139
       0.212
       0.520
       0.742
       0.909
       1.079
       1.220
       1.199
       0.932
       0.546
       0.315
       0.412
       0.726
       0.952
       0.863
       0.469
      -0.052
      -0.523
      -0.841
      -0.948
      -0.806
      -0.459
      -0.079
       0.130
       0.127
       0.092
       0.237
       0.556
       0.824
       0.848
       0.663
       0.440
       0.268
       0.088
      -0.160
      -0.413
      -0.567
      -0.618
      -0.678
      -0.820
      -0.970
      -0.982
      -0.817
      -0.608
      -0.528
      -0.598
      -0.664
      -0.573
      -0.333
      -0.079
       0.095
       0.227
       0.417
       0.710
       1.070
       1.408
       1.608
       1.556
       1.195
       0.594
      -0.062
      -0.548
      -0.709
      -0.534
      -0.178
       0.097
       0.069
      -0.273
      -0.696
      -0.873
      -0.632
      -0.102
       0.381
       0.535
       0.345
       0.029
      -0.174
      -0.186
      -0.067
       0.110
       0.318
       0.511
       0.585
       0.448
       0.132
      -0.198
      -0.375
      -0.383
      -0.361
      -0.452
      -0.654
      -0.831
      -0.864
      -0.756
      -0.591
      -0.446
      -0.350
      -0.296
      -0.243
      -0.110
       0.168
       0.543
       0.841
       0.881
       0.634
       0.262
      -0.009
      -0.063
       0.050
       0.205
       0.336
       0.432
       0.462
       0.351
       0.096
      -0.156
      -0.217
      -0.078
       0.055
      -0.002
      -0.181
      -0.227
       0.024
       0.463
       0.812
       0.873
       0.667
       0.361
       0.108
      -0.026
      -0.031
       0.093
       0.300
       0.458
       0.404
       0.088
      -0.378
      -0.791
      -0.981
      -0.878
      -0.544
      -0.161
       0.053
       0.001
      -0.205
      -0.357
      -0.338
      -0.208
      -0.104
      -0.089
      -0.121
      -0.132
      -0.111
      -0.091
      -0.081
      -0.051
       0.004
       0.026
      -0.055
      -0.226
      -0.395
      -0.493
      -0.527
      -0.497
      -0.337
      -0.001
       0.420
       0.733
       0.818
       0.736
       0.636
       0.584
       0.534
       0.450
       0.387
       0.405
       0.422
       0.256
      -0.144
      -0.557
      -0.676
      -0.418
      -0.017
       0.227
       0.200
      -0.028
      -0.340
      -0.622
      -0.720
      -0.509
      -0.063
       0.318
       0.378
       0.185
       0.069
       0.243
       0.543
       0.616
       0.337
      -0.051
      -0.253
      -0.277
      -0.393
      -0.760
      -1.202
      -1.404
      -1.265
      -0.967
      -0.743
      -0.657
      -0.617
      -0.533
      -0.384
      -0.177
       0.075
       0.288
       0.314
       0.078
      -0.286
      -0.522
      -0.490
      -0.261
       0.040
       0.385
       0.773
       1.084
       1.161
       1.042
       0.992
       1.184
       1.442
       1.400
       0.952
       0.438
       0.303
       0.621
       1.043
       1.246
       1.303
       1.505
       1.850
       1.935
       1.445
       0.642
       0.157
       0.281
       0.619
       0.535
      -0.147
      -0.988
      -1.434
      -1.333
      -0.938
      -0.516
      -0.120
       0.279
       0.540
       0.394
      -0.241
      -1.071
      -1.630
      -1.689
      -1.414
      -1.143
      -1.077
      -1.190
      -1.350
      -1.444
      -1.415
      -1.269
      -1.059
      -0.818
      -0.527
      -0.232
      -0.168
      -0.663
      -1.793
      -3.167
      -4.150
      -4.366
      -3.969
      -3.417
      -2.972
      -2.453
      -1.480
       0.072
       1.910
       3.606
       4.978
       6.100
       6.980
       7.400
       7.153
       6.376
       5.502
       4.857
       4.341
       3.546
       2.177
       0.346
      -1.513
      -2.969
      -3.860
      -4.282
      -4.388
      -4.228
      -3.777
      -3.049
      -2.166
      -1.307
      -0.619
      -0.164
       0.088
       0.219
       0.311
       0.412
       0.536
       0.681
       0.793
       0.744
       0.392
      -0.293
      -1.161
      -1.995
      -2.653
      -3.096
      -3.276
      -3.115
      -2.624
      -1.989
      -1.438
      -1.011
      -0.508
       0.273
       1.281
       2.233
       2.918
       3.449
       4.127
       5.032
       5.816
       5.985
       5.420
       4.496
       3.650
       2.877
       1.796
       0.184
      -1.649
      -3.089
      -3.770
      -3.839
      -3.725
      -3.742
      -3.927
      -4.181
      -4.427
      -4.600
      -4.545
      -4.027
      -2.897
      -1.286
       0.412
       1.781
       2.658
       3.162
       3.443
       3.432
       2.919
       1.899
       0.752
       0.014
      -0.093
       0.148
       0.227
      -0.118
      -0.678
      -0.986
      -0.752
      -0.119
       0.498
       0.770
       0.670
       0.388
       0.136
       0.021
       0.021
       0.020
      -0.078
      -0.200
      -0.109
       0.347
       1.031
       1.628
       1.951
       2.046
       1.972
       1.593
       0.686
      -0.760
      -2.402
      -3.729
      -4.406
      -4.444
      -4.069
      -3.452
      -2.612
      -1.565
      -0.487
       0.397
       1.036
       1.601
       2.267
       3.022
       3.726
       4.290
       4.717
       4.965
       4.854
       4.180
       2.922
       1.340
      -0.156
      -1.270
      -1.987
      -2.485
      -2.925
      -3.324
      -3.610
      -3.717
      -3.598
      -3.199
      -2.513
      -1.670
      -0.908
      -0.371
       0.057
       0.676
       1.672
       2.877
       3.857
       4.230
       3.894
       2.963
       1.597
       0.001
      -1.489
      -2.497
      -2.916
      -2.990
      -2.984
      -2.792
      -2.067
      -0.794
       0.434
       0.897
       0.491
      -0.135
      -0.249
       0.255
       0.894
       1.246
       1.365
       1.506
       1.595
       1.207
       0.129
      -1.243
      -2.215
      -2.458
      -2.204
      -1.809
      -1.332
      -0.676
       0.013
       0.357
       0.224
       0.010
       0.254
       1.017
       1.772
       1.987
       1.715
       1.524
       1.847
       2.508
       2.931
       2.740
       2.081
       1.364
       0.833
       0.423
      -0.013
      -0.484
      -0.901
      -1.243
      -1.601
      -2.036
      -2.476
      -2.775
      -2.847
      -2.704
      -2.380
      -1.874
      -1.188
      -0.397
       0.340
       0.860
       1.105
       1.168
       1.232
       1.441
       1.787
       2.094
       2.127
       1.764
       1.108
       0.406
      -0.180
      -0.721
      -1.392
      -2.183
      -2.813
      -3.000
      -2.771
      -2.425
      -2.180
      -1.948
      -1.481
      -0.689
       0.242
       1.028
       1.518
       1.746
       1.812
       1.789
       1.740
       1.764
       1.924
       2.114
       2.068
       1.585
       0.752
      -0.111
      -0.733
      -1.058
      -1.129
      -0.924
      -0.447
       0.063
       0.226
      -0.083
      -0.529
      -0.659
      -0.429
      -0.239
      -0.403
      -0.705
      -0.593
       0.213
       1.387
       2.280
       2.440
       1.840
       0.720
      -0.607
      -1.774
      -2.378
      -2.184
      -1.345
      -0.311
       0.512
       0.970
       1.030
       0.627
      -0.229
      -1.213
      -1.727
      -1.329
      -0.145
       1.173
       1.948
       1.979
       1.589
       1.243
       1.145
       1.201
       1.254
       1.238
       1.106
       0.780
       0.248
      -0.356
      -0.839
      -1.113
      -1.215
      -1.216
      -1.182
      -1.208
      -1.416
      -1.829
      -2.280
      -2.468
      -2.166
      -1.420
      -0.574
      -0.053
      -0.052
      -0.426
      -0.856
      -1.091
      -1.032
      -0.671
      -0.089
       0.493
       0.794
       0.722
       0.528
       0.633
       1.241
       2.143
       2.887
       3.143
       2.912
       2.441
       1.974
       1.594
       1.262
       0.942
       0.635
       0.309
      -0.125
      -0.731
      -1.453
      -2.119
      -2.537
      -2.615
      -2.431
      -2.209
      -2.165
      -2.309
      -2.401
      -2.166
      -1.562
      -0.811
      -0.169
       0.287
       0.647
       0.996
       1.318
       1.564
       1.759
       1.983
       2.205
       2.212
       1.792
       1.007
       0.217
      -0.228
      -0.272
      -0.091
       0.152
       0.372
       0.437
       0.193
      -0.310
      -0.721
      -0.676
      -0.179
       0.391
       0.675
       0.677
       0.678
       0.841
       1.021
       0.991
       0.809
       0.777
       1.011
       1.167
       0.764
      -0.218
      -1.237
      -1.729
      -1.655
      -1.452
      -1.502
      -1.779
      -1.989
      -1.945
      -1.746
      -1.634
      -1.725
      -1.863
      -1.746
      -1.212
      -0.398
       0.373
       0.873
       1.114
       1.257
       1.403
       1.489
       1.377
       1.022
       0.541
       0.111
      -0.170
      -0.287
      -0.204
       0.167
       0.823
       1.591
       2.216
       2.539
       2.505
       2.083
       1.287
       0.287
      -0.600
      -1.111
      -1.208
      -1.034
      -0.760
      -0.517
      -0.411
      -0.514
      -0.776
      -0.996
      -0.950
      -0.583
      -0.056
       0.414
       0.750
       0.988
