Origin Time       04/04/2011 11:31:40
Lat.              29.6 N	
Long.             80.8 E	
Depth (Km)         10.0
Magnitude         5.7
 Region           NEPAL-INDIA-BORDER-REGION                                        
 Above details taken from IMD 
   
Station Code      PTI
Station Lat.       29.407
Station Long.      79.931
Station Height(m) 1667.0
Site Class        A   Vs30 between 700 m/sec to 1400 m/sec * 
Record Time       04.04.2011 11:31:38.004
Sampling Rate     200. Hz
 Record Duration   97.110 Sec.
 Direction         Vert. (Up positive)
Max. Acceleration      3.928 cm/sec**2
     
  * For reference see Site Classification link of website 
     
 Base Line Corrected and Low Pass Filtered (Cut Off at 35 Hz) Time History
 Acceleration data in cm/sec**2
    
[...]
      -0.268
      -0.922
      -1.246
      -1.149
      -0.728
      -0.160
       0.382
       0.723
       0.709
       0.327
      -0.201
      -0.516
      -0.382
       0.143
       0.797
       1.344
       1.683
       1.771
       1.520
       0.872
      -0.023
      -0.798
      -1.135
      -1.038
      -0.803
      -0.722
      -0.840
      -0.969
      -0.890
      -0.534
      -0.040
       0.340
       0.433
       0.286
       0.117
       0.085
       0.145
       0.134
      -0.013
      -0.175
      -0.164
       0.099
       0.509
       0.837
       0.883
       0.605
       0.156
      -0.194
      -0.232
       0.052
       0.438
       0.629
       0.483
       0.127
      -0.147
      -0.145
       0.068
       0.259
       0.275
       0.171
       0.107
       0.137
       0.143
      -0.017
      -0.338
      -0.664
      -0.855
      -0.908
      -0.882
      -0.770
      -0.524
      -0.204
      -0.002
      -0.053
      -0.246
      -0.317
      -0.123
       0.227
       0.524
       0.689
       0.776
       0.797
       0.621
       0.141
      -0.486
      -0.854
      -0.646
       0.039
       0.738
       1.034
       0.892
       0.588
       0.377
       0.285
       0.216
       0.158
       0.206
       0.403
       0.622
       0.651
       0.402
       0.007
      -0.303
      -0.386
      -0.272
      -0.074
       0.110
       0.224
       0.214
       0.043
      -0.253
      -0.547
      -0.698
      -0.636
      -0.387
      -0.037
       0.299
       0.480
       0.368
      -0.069
      -0.651
      -1.028
      -0.921
      -0.381
       0.206
       0.429
       0.211
      -0.157
      -0.333
      -0.247
      -0.096
      -0.059
      -0.077
       0.036
       0.325
       0.593
       0.594
       0.295
      -0.079
      -0.266
      -0.202
      -0.027
       0.090
       0.107
       0.062
      -0.046
      -0.267
      -0.582
      -0.836
      -0.858
      -0.626
      -0.273
       0.061
       0.331
       0.508
       0.488
       0.173
      -0.332
      -0.683
      -0.543
       0.080
       0.773
       1.042
       0.726
       0.128
      -0.273
      -0.246
       0.041
       0.243
       0.172
      -0.082
      -0.305
      -0.374
      -0.331
      -0.266
      -0.185
      -0.001
       0.338
       0.742
       1.028
       1.078
       0.913
       0.625
       0.281
      -0.078
      -0.372
      -0.480
      -0.352
      -0.084
       0.121
       0.121
      -0.060
      -0.272
      -0.383
      -0.355
      -0.201
       0.078
       0.456
       0.787
       0.825
       0.437
      -0.195
      -0.642
      -0.578
      -0.070
       0.480
       0.691
       0.483
       0.028
      -0.472
      -0.909
      -1.202
      -1.240
      -0.954
      -0.418
       0.164
       0.596
       0.785
       0.737
       0.509
       0.189
      -0.131
      -0.398
      -0.628
      -0.840
      -0.974
      -0.913
      -0.645
      -0.350
      -0.244
      -0.320
      -0.296
       0.086
       0.719
       1.164
       1.075
       0.562
       0.091
       0.027
       0.328
       0.691
       0.897
       0.939
       0.837
       0.491
      -0.192
      -1.025
      -1.527
      -1.286
      -0.368
       0.664
       1.186
       0.982
       0.307
      -0.433
      -0.996
      -1.309
      -1.311
      -0.936
      -0.268
       0.368
       0.585
       0.234
      -0.457
      -1.038
      -1.138
      -0.677
       0.133
       0.940
       1.439
       1.479
       1.106
       0.511
      -0.072
      -0.502
      -0.750
      -0.802
      -0.595
      -0.121
       0.415
       0.643
       0.346
      -0.275
      -0.716
      -0.614
      -0.077
       0.438
       0.568
       0.320
      -0.051
      -0.357
      -0.585
      -0.729
      -0.656
      -0.248
       0.356
       0.768
       0.669
       0.110
      -0.535
      -0.916
      -0.967
      -0.845
      -0.681
      -0.478
      -0.194
       0.130
       0.383
       0.479
       0.421
       0.296
       0.219
       0.246
       0.298
       0.199
      -0.154
      -0.622
      -0.881
      -0.695
      -0.141
       0.438
       0.709
       0.615
       0.378
       0.260
       0.326
       0.422
       0.391
       0.250
       0.143
       0.142
       0.151
       0.022
      -0.279
      -0.640
      -0.899
      -0.933
      -0.698
      -0.239
       0.301
       0.720
       0.853
       0.658
       0.257
      -0.122
      -0.279
      -0.188
      -0.028
      -0.037
      -0.308
      -0.710
      -0.997
      -0.998
      -0.726
      -0.355
      -0.077
       0.026
       0.011
       0.007
       0.102
       0.294
       0.494
       0.587
       0.498
       0.253
      -0.024
      -0.191
      -0.202
      -0.126
      -0.050
       0.034
       0.191
       0.394
       0.477
       0.291
      -0.082
      -0.352
      -0.291
       0.032
       0.317
       0.328
       0.108
      -0.081
      -0.002
       0.371
       0.856
       1.196
       1.210
       0.864
       0.280
      -0.300
      -0.613
      -0.551
      -0.267
      -0.077
      -0.174
      -0.444
      -0.592
      -0.445
      -0.131
       0.069
       0.010
      -0.169
      -0.212
      -0.014
       0.273
       0.405
       0.293
       0.075
      -0.039
       0.034
       0.221
       0.404
       0.515
       0.541
       0.487
       0.360
       0.192
       0.033
      -0.066
      -0.076
      -0.001
       0.119
       0.224
       0.252
       0.150
      -0.102
      -0.431
      -0.649
      -0.555
      -0.118
       0.433
       0.751
       0.619
       0.107
      -0.498
      -0.912
      -1.046
      -1.023
      -1.021
      -1.110
      -1.210
      -1.182
      -0.942
      -0.506
       0.022
       0.511
       0.882
       1.114
       1.180
       0.997
       0.495
      -0.241
      -0.959
      -1.379
      -1.368
      -0.971
      -0.344
       0.301
       0.731
       0.767
       0.406
      -0.120
      -0.462
      -0.381
       0.068
       0.565
       0.764
       0.540
       0.057
      -0.384
      -0.581
      -0.556
      -0.473
      -0.446
      -0.432
      -0.313
      -0.080
       0.126
       0.168
       0.105
       0.180
       0.589
       1.262
       1.866
       2.039
       1.654
       0.890
       0.063
      -0.587
      -0.981
      -1.108
      -0.941
      -0.516
      -0.035
       0.214
       0.123
      -0.104
      -0.139
       0.125
       0.459
       0.515
       0.157
      -0.422
      -0.884
      -1.028
      -0.914
      -0.724
      -0.547
      -0.299
       0.126
       0.665
       1.063
       1.069
       0.680
       0.176
      -0.103
      -0.041
       0.191
       0.340
       0.313
       0.205
       0.125
       0.062
      -0.069
      -0.289
      -0.510
      -0.636
      -0.653
      -0.621
      -0.570
      -0.453
      -0.205
       0.146
       0.443
       0.512
       0.328
       0.041
      -0.195
      -0.387
      -0.657
      -1.006
      -1.195
      -0.937
      -0.218
       0.609
       1.094
       1.058
       0.696
       0.324
       0.089
      -0.076
      -0.248
      -0.367
      -0.310
      -0.062
       0.244
       0.453
       0.516
       0.489
       0.435
       0.330
       0.071
      -0.411
      -1.030
      -1.554
      -1.783
      -1.707
      -1.485
      -1.272
      -1.119
      -1.028
      -1.006
      -1.032
      -1.015
      -0.854
      -0.546
      -0.201
       0.067
       0.237
       0.358
       0.462
       0.514
       0.466
       0.322
       0.140
      -0.025
      -0.166
      -0.279
      -0.316
      -0.186
       0.162
       0.671
       1.163
       1.433
       1.379
       1.085
       0.761
       0.591
       0.612
       0.702
       0.668
       0.385
      -0.082
      -0.461
      -0.455
      -0.011
       0.578
       0.876
       0.658
       0.088
      -0.442
      -0.629
      -0.466
      -0.174
       0.043
       0.160
       0.285
       0.482
       0.675
       0.733
       0.606
       0.393
       0.262
       0.309
       0.457
       0.501
       0.290
      -0.096
      -0.374
      -0.300
       0.093
       0.510
       0.657
       0.501
       0.299
       0.348
       0.684
       1.002
       0.929
       0.408
      -0.183
      -0.346
       0.062
       0.683
       0.972
       0.686
       0.074
      -0.364
      -0.290
       0.235
       0.870
       1.301
       1.427
       1.314
       1.041
       0.661
       0.276
       0.062
       0.167
       0.564
       1.040
       1.326
       1.262
       0.897
       0.450
       0.178
       0.237
       0.610
       1.142
       1.622
       1.877
       1.821
       1.474
       0.940
       0.373
      -0.047
      -0.186
      -0.043
       0.224
       0.403
       0.400
       0.309
       0.301
       0.427
       0.554
       0.516
       0.320
       0.168
       0.231
       0.427
       0.465
       0.145
      -0.388
      -0.719
      -0.527
       0.121
       0.804
       1.095
       0.915
       0.569
       0.429
       0.571
       0.734
       0.615
       0.207
      -0.192
      -0.310
      -0.195
      -0.162
      -0.441
      -0.902
      -1.180
      -1.076
      -0.780
      -0.671
      -0.878
      -1.118
      -1.003
      -0.466
       0.161
       0.504
       0.523
       0.480
       0.549
       0.546
       0.127
      -0.741
      -1.599
      -1.845
      -1.311
      -0.453
       0.026
      -0.248
      -1.068
      -1.910
      -2.383
      -2.456
      -2.301
      -2.052
      -1.723
      -1.341
      -1.032
      -0.937
      -1.071
      -1.275
      -1.316
      -1.042
      -0.479
       0.148
       0.503
       0.328
      -0.334
      -1.086
      -1.410
      -1.067
      -0.326
       0.243
       0.241
      -0.241
      -0.775
      -1.032
      -1.039
      -1.012
      -1.004
      -0.793
      -0.156
       0.796
       1.593
       1.780
       1.324
       0.656
       0.290
       0.388
       0.694
       0.874
       0.840
       0.738
       0.669
       0.541
       0.222
      -0.235
      -0.579
      -0.591
      -0.304
       0.017
       0.116
      -0.047
      -0.318
      -0.552
      -0.721
      -0.852
      -0.931
      -0.956
      -1.048
      -1.398
      -2.032
      -2.688
      -2.990
      -2.776
      -2.220
      -1.652
      -1.265
      -1.038
      -0.874
      -0.765
      -0.763
      -0.826
      -0.779
      -0.468
       0.038
       0.451
       0.522
       0.280
      -0.014
      -0.151
      -0.181
      -0.324
      -0.714
      -1.251
      -1.682
      -1.784
      -1.496
      -0.944
      -0.376
      -0.044
      -0.072
      -0.399
      -0.868
      -1.353
      -1.783
      -2.058
      -2.008
      -1.500
      -0.592
       0.446
       1.282
       1.699
       1.684
       1.377
       0.968
       0.612
       0.382
       0.281
       0.261
       0.268
       0.280
       0.325
       0.460
       0.715
       1.049
       1.368
       1.594
       1.712
       1.741
       1.666
       1.439
       1.037
       0.512
      -0.052
      -0.610
      -1.165
      -1.716
      -2.219
      -2.597
      -2.774
      -2.671
      -2.233
      -1.486
      -0.583
       0.244
       0.823
       1.153
       1.374
       1.610
       1.867
       2.093
       2.327
       2.697
       3.218
       3.644
       3.602
       2.924
       1.814
       0.675
      -0.202
      -0.774
      -1.133
      -1.344
      -1.422
      -1.410
      -1.400
      -1.454
      -1.535
      -1.545
      -1.423
      -1.188
      -0.924
      -0.730
      -0.701
      -0.885
      -1.226
      -1.555
      -1.671
      -1.478
      -1.068
      -0.657
      -0.399
      -0.265
      -0.129
       0.061
       0.221
       0.265
       0.264
       0.407
       0.799
       1.309
       1.654
       1.644
       1.357
       1.053
       0.917
       0.898
       0.813
       0.611
       0.470
       0.623
       1.091
       1.617
       1.888
       1.823
       1.643
       1.630
       1.803
       1.839
       1.380
       0.453
      -0.432
      -0.667
      -0.095
       0.806
       1.330
       1.183
       0.714
       0.528
       0.866
       1.409
       1.669
       1.526
       1.332
       1.531
       2.210
       3.018
       3.487
       3.429
       3.044
       2.680
       2.512
       2.433
       2.211
       1.720
       1.041
       0.390
      -0.037
      -0.198
      -0.230
      -0.323
      -0.571
      -0.907
      -1.182
      -1.292
      -1.224
      -1.015
      -0.700
      -0.300
       0.171
       0.677
       1.148
       1.511
       1.735
       1.842
       1.849
       1.721
       1.426
       1.045
       0.783
       0.792
       0.968
       1.013
       0.764
       0.435
       0.424
       0.859
       1.380
       1.452
       0.889
       0.026
      -0.634
      -0.906
      -1.039
      -1.397
      -2.065
      -2.780
      -3.184
      -3.131
      -2.772
      -2.373
      -2.065
      -1.757
      -1.290
      -0.637
       0.022
       0.394
       0.260
      -0.355
      -1.140
      -1.664
      -1.676
      -1.280
      -0.809
      -0.523
      -0.430
      -0.390
      -0.330
      -0.313
      -0.413
      -0.549
      -0.498
      -0.057
       0.788
       1.845
       2.841
       3.563
       3.919
       3.928
       3.711
       3.457
       3.311
       3.218
       2.913
       2.162
       1.052
      -0.020
      -0.700
      -1.008
      -1.237
      -1.575
      -1.896
      -1.962
      -1.764
      -1.576
      -1.694
      -2.150
      -2.679
      -2.936
      -2.761
      -2.251
      -1.636
      -1.106
      -0.772
      -0.708
      -0.924
      -1.247
      -1.347
      -0.992
      -0.300
       0.338
       0.617
       0.549
       0.348
       0.145
      -0.106
      -0.444
      -0.720
      -0.702
      -0.360
       0.017
       0.082
      -0.206
      -0.543
      -0.624
      -0.466
      -0.347
      -0.463
      -0.723
      -0.897
      -0.900
      -0.871
      -0.980
      -1.214
      -1.392
      -1.381
      -1.252
      -1.200
      -1.328
      -1.540
      -1.663
      -1.629
      -1.508
      -1.377
      -1.195
      -0.846
      -0.291
       0.337
       0.813
       1.005
       0.981
       0.941
       1.047
       1.314
       1.637
       1.887
       1.962
       1.754
       1.155
       0.162
      -0.994
      -1.867
      -2.056
      -1.534
      -0.734
      -0.256
      -0.409
      -0.997
      -1.515
      -1.597
      -1.290
      -0.924
      -0.751
      -0.718
      -0.596
      -0.302
      -0.019
       0.005
      -0.241
      -0.482
      -0.406
       0.061
       0.703
       1.206
       1.383
       1.270
       1.054
       0.931
       0.982
       1.158
       1.355
       1.497
       1.571
       1.578
       1.496
       1.271
       0.873
       0.352
      -0.145
      -0.440
      -0.461
      -0.306
      -0.161
      -0.143
      -0.224
      -0.312
      -0.364
      -0.429
      -0.579
      -0.800
      -0.955
      -0.856
      -0.424
       0.222
       0.843
       1.250
       1.408
       1.365
       1.127
       0.622
      -0.182
      -1.149
      -1.965
      -2.320
      -2.153
      -1.726
      -1.444
      -1.530
      -1.866
      -2.130
      -2.085
      -1.728
      -1.208
      -0.658
      -0.137
       0.312
       0.620
       0.732
       0.683
       0.586
       0.542
       0.565
       0.605
       0.627
       0.630
       0.609
       0.511
       0.281
      -0.059
      -0.365
      -0.450
      -0.222
       0.210
       0.581
       0.637
       0.297
      -0.305
      -0.902
      -1.239
      -1.211
      -0.893
      -0.443
       0.055
       0.607
       1.190
       1.690
       2.012
       2.236
       2.551
       3.011
       3.389
       3.331
       2.653
       1.512
       0.295
      -0.642
      -1.160
      -1.301
      -1.122
      -0.633
       0.074
       0.713
       0.938
       0.617
      -0.058
      -0.771
      -1.348
      -1.786
      -2.072
      -2.056
      -1.592
      -0.771
       0.045
       0.498
       0.541
       0.460
       0.566
       0.892
       1.190
       1.207
       0.911
       0.487
       0.159
       0.040
       0.109
       0.294
       0.544
       0.821
       1.047
       1.088
       0.863
       0.475
       0.204
       0.297
       0.738
       1.224
       1.392
       1.119
       0.606
       0.175
      -0.007
      -0.020
      -0.041
      -0.146
      -0.296
      -0.454
      -0.680
      -1.059
      -1.571
      -2.059
      -2.355
      -2.390
      -2.167
      -1.671
      -0.873
       0.113
       0.985
       1.440
       1.432
       1.195
       1.021
       1.061
       1.333
       1.817
       2.438
       2.985
       3.176
       2.870
       2.214
       1.537
       1.074
       0.800
       0.523
       0.119
      -0.354
      -0.783
      -1.179
      -1.659
      -2.210
      -2.566
      -2.399
      -1.663
      -0.682
       0.130
       0.602
       0.828
       0.917
       0.813
       0.405
      -0.230
      -0.766
      -0.870
      -0.516
      -0.023
       0.217
       0.072
      -0.277
      -0.542
      -0.531
      -0.197
       0.408
       1.146
       1.802
       2.165
       2.130
       1.739
       1.145
       0.556
       0.174
       0.125
       0.401
       0.846
       1.232
       1.378
       1.266
       1.057
       0.951
       1.008
       1.114
       1.130
       1.026
       0.832
       0.499
      -0.091
      -0.938
      -1.798
      -2.295
      -2.208
      -1.647
      -0.953
      -0.440
      -0.227
      -0.276
      -0.520
      -0.898
      -1.325
      -1.690
      -1.958
      -2.222
      -2.604
      -3.098
      -3.552
      -3.787
      -3.717
      -3.353
      -2.761
      -2.049
      -1.357
      -0.808
      -0.451
      -0.248
      -0.109
       0.037
       0.198
       0.335
       0.417
       0.450
       0.437
       0.356
       0.230
       0.196
       0.418
       0.911
       1.485
       1.922
       2.152
       2.233
       2.189
       1.947
       1.474
       0.911
       0.509
       0.400
       0.442
       0.340
      -0.046
      -0.510
      -0.684
      -0.412
       0.075
       0.403
       0.472
       0.558
       0.981
       1.693
       2.244
       2.201
       1.584
       0.882
       0.623
       0.921
       1.436
       1.731
       1.649
       1.363
       1.112
       0.936
       0.687
       0.258
      -0.231
      -0.516
      -0.431
      -0.054
       0.346
       0.483
       0.190
      -0.522
      -1.457
      -2.321
      -2.885
      -3.139
      -3.257
      -3.380
      -3.458
      -3.329
      -2.937
      -2.399
      -1.850
      -1.281
      -0.596
       0.202
       0.948
       1.462
       1.745
       1.979
       2.332
       2.760
       3.045
       3.037
       2.811
       2.549
       2.281
       1.846
       1.104
       0.162
      -0.688
      -1.223
      -1.473
      -1.667
      -2.028
      -2.577
      -3.100
