Origin Time       26/2/2010 4:42:33	  UTC
Lat.              28.5 N	
Long.             86.7 E	
Depth (Km)         28.0
Magnitude         5.4
 Region           Tibet                                                            
 Above details taken from IMD 
    
Station Code      GTK
Station Lat.       27.352  N
Station Long.      88.627  E
Station Height(m) 1536.0
Site Class        A   Vs30 between 700 m/sec to 1400 m/sec * 
Record Time       26.02.2010 04:43:12.824 UTC
Sampling Rate     200. Hz
 Record Duration   88.515 Sec.
 Direction         N-S (N positive)
Max. Acceleration     -3.715 cm/sec**2
     
  * For reference see Site Classification link of website 
     
 Base Line Corrected and Low Pass Filtered (Cut Off at 35 Hz) Time History
 Acceleration data in cm/sec**2
    
[...]
      -0.114
       0.160
       0.367
       0.482
       0.526
       0.535
       0.524
       0.475
       0.354
       0.146
      -0.128
      -0.417
      -0.670
      -0.860
      -0.984
      -1.055
      -1.083
      -1.076
      -1.041
      -0.983
      -0.903
      -0.785
      -0.608
      -0.364
      -0.070
       0.246
       0.556
       0.848
       1.119
       1.348
       1.494
       1.513
       1.378
       1.101
       0.723
       0.297
      -0.128
      -0.506
      -0.796
      -0.957
      -0.966
      -0.822
      -0.549
      -0.194
       0.188
       0.547
       0.849
       1.070
       1.200
       1.242
       1.210
       1.128
       1.026
       0.932
       0.867
       0.841
       0.843
       0.841
       0.788
       0.639
       0.376
       0.018
      -0.388
      -0.786
      -1.134
      -1.410
      -1.600
      -1.692
      -1.667
      -1.513
      -1.244
      -0.904
      -0.552
      -0.238
       0.026
       0.256
       0.472
       0.677
       0.849
       0.964
       1.011
       0.997
       0.932
       0.824
       0.666
       0.448
       0.159
      -0.205
      -0.633
      -1.087
      -1.498
      -1.783
      -1.869
      -1.726
      -1.374
      -0.880
      -0.328
       0.209
       0.677
       1.044
       1.292
       1.413
       1.408
       1.295
       1.112
       0.919
       0.769
       0.690
       0.670
       0.660
       0.608
       0.479
       0.270
       0.008
      -0.269
      -0.526
      -0.739
      -0.904
      -1.027
      -1.127
      -1.218
      -1.296
      -1.336
      -1.301
      -1.166
      -0.932
      -0.627
      -0.283
       0.069
       0.410
       0.720
       0.973
       1.142
       1.202
       1.144
       0.969
       0.685
       0.306
      -0.148
      -0.644
      -1.130
      -1.540
      -1.815
      -1.926
      -1.886
      -1.744
      -1.549
      -1.326
      -1.066
      -0.746
      -0.354
       0.096
       0.566
       1.011
       1.395
       1.698
       1.910
       2.034
       2.073
       2.036
       1.930
       1.762
       1.540
       1.271
       0.971
       0.653
       0.326
      -0.006
      -0.345
      -0.678
      -0.978
      -1.211
      -1.349
      -1.385
      -1.317
      -1.152
      -0.904
      -0.608
      -0.324
      -0.102
       0.038
       0.122
       0.198
       0.297
       0.406
       0.481
       0.476
       0.374
       0.193
      -0.044
      -0.326
      -0.667
      -1.078
      -1.540
      -1.992
      -2.353
      -2.550
      -2.548
      -2.343
      -1.956
      -1.429
      -0.823
      -0.214
       0.321
       0.735
       1.027
       1.239
       1.429
       1.645
       1.908
       2.214
       2.535
       2.826
       3.033
       3.101
       2.992
       2.699
       2.249
       1.689
       1.070
       0.444
      -0.142
      -0.649
      -1.047
      -1.325
      -1.489
      -1.557
      -1.547
      -1.475
      -1.350
      -1.180
      -0.978
      -0.752
      -0.502
      -0.226
       0.071
       0.366
       0.620
       0.799
       0.889
       0.900
       0.850
       0.745
       0.575
       0.329
       0.017
      -0.321
      -0.622
      -0.831
      -0.936
      -0.971
      -0.996
      -1.061
      -1.166
      -1.265
      -1.293
      -1.207
      -1.010
      -0.743
      -0.459
      -0.190
       0.064
       0.324
       0.604
       0.893
       1.150
       1.329
       1.406
       1.392
       1.315
       1.196
       1.037
       0.838
       0.621
       0.439
       0.350
       0.375
       0.479
       0.583
       0.605
       0.499
       0.263
      -0.069
      -0.451
      -0.835
      -1.167
      -1.387
      -1.437
      -1.285
      -0.942
      -0.466
       0.056
       0.537
       0.904
       1.112
       1.138
       0.987
       0.695
       0.326
      -0.044
      -0.357
      -0.590
      -0.765
      -0.921
      -1.095
      -1.299
      -1.514
      -1.700
      -1.807
      -1.789
      -1.624
      -1.316
      -0.897
      -0.411
       0.093
       0.567
       0.958
       1.212
       1.293
       1.208
       1.014
       0.796
       0.631
       0.558
       0.576
       0.662
       0.794
       0.947
       1.087
       1.163
       1.115
       0.897
       0.501
      -0.038
      -0.651
      -1.251
      -1.762
      -2.126
      -2.316
      -2.336
      -2.207
      -1.955
      -1.596
      -1.138
      -0.596
      -0.006
       0.569
       1.059
       1.407
       1.580
       1.578
       1.418
       1.137
       0.785
       0.425
       0.115
      -0.111
      -0.253
      -0.337
      -0.400
      -0.470
      -0.550
      -0.621
      -0.651
      -0.604
      -0.467
      -0.252
      -0.008
       0.204
       0.335
       0.380
       0.378
       0.388
       0.443
       0.525
       0.576
       0.538
       0.390
       0.166
      -0.075
      -0.277
      -0.406
      -0.448
      -0.396
      -0.247
      -0.013
       0.267
       0.530
       0.719
       0.809
       0.821
       0.803
       0.800
       0.831
       0.892
       0.964
       1.026
       1.046
       0.985
       0.808
       0.509
       0.122
      -0.284
      -0.629
      -0.851
      -0.932
      -0.898
      -0.804
      -0.705
      -0.640
      -0.627
      -0.667
      -0.746
      -0.831
      -0.881
      -0.855
      -0.733
      -0.520
      -0.241
       0.070
       0.376
       0.642
       0.847
       0.988
       1.081
       1.147
       1.194
       1.205
       1.150
       1.007
       0.779
       0.502
       0.223
      -0.023
      -0.226
      -0.404
      -0.575
      -0.743
      -0.891
      -0.992
      -1.020
      -0.956
      -0.789
      -0.517
      -0.159
       0.234
       0.580
       0.788
       0.794
       0.578
       0.184
      -0.301
      -0.770
      -1.134
      -1.339
      -1.376
      -1.268
      -1.059
      -0.796
      -0.525
      -0.282
      -0.091
       0.040
       0.124
       0.188
       0.272
       0.411
       0.615
       0.860
       1.090
       1.247
       1.296
       1.239
       1.109
       0.947
       0.776
       0.591
       0.380
       0.148
      -0.053
      -0.148
      -0.081
       0.142
       0.448
       0.733
       0.914
       0.955
       0.848
       0.591
       0.171
      -0.414
      -1.121
      -1.856
      -2.497
      -2.937
      -3.114
      -3.018
      -2.678
      -2.144
      -1.483
      -0.776
      -0.112
       0.422
       0.771
       0.924
       0.918
       0.826
       0.720
       0.648
       0.620
       0.619
       0.617
       0.588
       0.516
       0.394
       0.220
       0.001
      -0.245
      -0.492
      -0.707
      -0.863
      -0.936
      -0.908
      -0.775
      -0.547
      -0.249
       0.088
       0.430
       0.754
       1.043
       1.280
       1.449
       1.538
       1.548
       1.491
       1.385
       1.240
       1.056
       0.831
       0.561
       0.247
      -0.113
      -0.524
      -0.977
      -1.441
      -1.854
      -2.144
      -2.261
      -2.194
      -1.968
      -1.629
      -1.216
      -0.759
      -0.279
       0.198
       0.634
       0.991
       1.235
       1.357
       1.383
       1.361
       1.341
       1.346
       1.365
       1.356
       1.269
       1.068
       0.751
       0.348
      -0.087
      -0.496
      -0.826
      -1.037
      -1.108
      -1.044
      -0.872
      -0.640
      -0.396
      -0.174
       0.020
       0.197
       0.368
       0.526
       0.652
       0.732
       0.770
       0.779
       0.770
       0.739
       0.666
       0.540
       0.364
       0.155
      -0.069
      -0.292
      -0.495
      -0.645
      -0.710
      -0.675
      -0.564
      -0.429
      -0.332
      -0.309
      -0.363
      -0.463
      -0.567
      -0.640
      -0.653
      -0.593
      -0.461
      -0.279
      -0.093
       0.041
       0.086
       0.044
      -0.043
      -0.123
      -0.169
      -0.193
      -0.227
      -0.280
      -0.323
      -0.304
      -0.190
       0.003
       0.217
       0.389
       0.478
       0.480
       0.415
       0.316
       0.218
       0.153
       0.138
       0.172
       0.235
       0.292
       0.312
       0.273
       0.173
       0.033
      -0.109
      -0.205
      -0.222
      -0.154
      -0.034
       0.086
       0.160
       0.175
       0.149
       0.119
       0.112
       0.131
       0.159
       0.172
       0.156
       0.110
       0.044
      -0.039
      -0.140
      -0.253
      -0.355
      -0.402
      -0.351
      -0.182
       0.078
       0.365
       0.609
       0.767
       0.845
       0.883
       0.916
       0.950
       0.950
       0.874
       0.702
       0.452
       0.169
      -0.099
      -0.310
      -0.427
      -0.415
      -0.257
       0.021
       0.351
       0.640
       0.811
       0.818
       0.645
       0.281
      -0.280
      -1.009
      -1.825
      -2.594
      -3.173
      -3.462
      -3.430
      -3.110
      -2.577
      -1.933
      -1.288
      -0.739
      -0.337
      -0.072
       0.119
       0.311
       0.547
       0.814
       1.062
       1.237
       1.318
       1.318
       1.266
       1.183
       1.064
       0.898
       0.681
       0.432
       0.183
      -0.039
      -0.217
      -0.339
      -0.389
      -0.342
      -0.173
       0.121
       0.519
       0.968
       1.397
       1.724
       1.873
       1.794
       1.473
       0.946
       0.303
      -0.342
      -0.877
      -1.225
      -1.355
      -1.284
      -1.066
      -0.779
      -0.504
      -0.304
      -0.208
      -0.208
      -0.269
      -0.347
      -0.398
      -0.398
      -0.343
      -0.248
      -0.135
      -0.017
       0.105
       0.234
       0.355
       0.428
       0.403
       0.250
      -0.015
      -0.341
      -0.660
      -0.917
      -1.075
      -1.114
      -1.028
      -0.831
      -0.562
      -0.266
       0.016
       0.271
       0.504
       0.722
       0.924
       1.097
       1.239
       1.361
       1.477
       1.587
       1.660
       1.648
       1.512
       1.247
       0.883
       0.463
       0.018
      -0.438
      -0.893
      -1.319
      -1.674
      -1.914
      -2.014
      -1.981
      -1.845
      -1.644
      -1.397
      -1.092
      -0.696
      -0.185
       0.422
       1.051
       1.590
       1.934
       2.019
       1.847
       1.477
       0.988
       0.455
      -0.064
      -0.523
      -0.883
      -1.112
      -1.202
      -1.182
      -1.101
      -1.013
      -0.935
      -0.844
      -0.690
      -0.435
      -0.086
       0.309
       0.689
       1.016
       1.294
       1.552
       1.811
       2.065
       2.281
       2.414
       2.429
       2.303
       2.016
       1.556
       0.934
       0.203
      -0.539
      -1.177
      -1.640
      -1.934
      -2.126
      -2.282
      -2.409
      -2.455
      -2.345
      -2.039
      -1.559
      -0.970
      -0.350
       0.233
       0.719
       1.057
       1.215
       1.193
       1.030
       0.781
       0.487
       0.162
      -0.191
      -0.559
      -0.903
      -1.176
      -1.336
      -1.367
      -1.266
      -1.036
      -0.674
      -0.198
       0.329
       0.801
       1.099
       1.149
       0.961
       0.628
       0.276
       0.005
      -0.141
      -0.172
      -0.112
       0.025
       0.231
       0.491
       0.759
       0.965
       1.040
       0.952
       0.722
       0.420
       0.133
      -0.060
      -0.109
      -0.008
       0.201
       0.448
       0.655
       0.770
       0.775
       0.685
       0.527
       0.329
       0.106
      -0.135
      -0.393
      -0.667
      -0.943
      -1.185
      -1.343
      -1.366
      -1.241
      -1.012
      -0.771
      -0.616
      -0.602
      -0.716
      -0.882
      -1.004
      -1.010
      -0.877
      -0.639
      -0.364
      -0.123
       0.033
       0.088
       0.060
      -0.006
      -0.058
      -0.056
       0.017
       0.143
       0.283
       0.389
       0.433
       0.430
       0.438
       0.536
       0.769
       1.113
       1.473
       1.728
       1.789
       1.645
       1.358
       1.023
       0.719
       0.480
       0.296
       0.134
      -0.032
      -0.208
      -0.385
      -0.543
      -0.679
      -0.801
      -0.931
      -1.083
      -1.245
      -1.376
      -1.413
      -1.299
      -1.021
      -0.615
      -0.160
       0.257
       0.574
       0.774
       0.873
       0.903
       0.880
       0.800
       0.636
       0.372
       0.017
      -0.387
      -0.764
      -1.033
      -1.121
      -0.988
      -0.650
      -0.182
       0.290
       0.638
       0.774
       0.688
       0.442
       0.147
      -0.084
      -0.177
      -0.113
       0.077
       0.337
       0.607
       0.849
       1.045
       1.198
       1.307
       1.353
       1.285
       1.040
       0.579
      -0.077
      -0.834
      -1.551
      -2.089
      -2.355
      -2.322
      -2.022
      -1.527
      -0.937
      -0.355
       0.134
       0.487
       0.708
       0.840
       0.937
       1.039
       1.158
       1.281
       1.390
       1.472
       1.525
       1.557
       1.567
       1.536
       1.423
       1.177
       0.755
       0.144
      -0.635
      -1.516
      -2.394
      -3.138
      -3.611
      -3.715
      -3.426
      -2.803
      -1.980
      -1.111
      -0.328
       0.306
       0.792
       1.177
       1.508
       1.803
       2.032
       2.139
       2.075
       1.838
       1.489
       1.127
       0.846
       0.692
       0.649
       0.651
       0.622
       0.503
       0.276
      -0.042
      -0.410
      -0.786
      -1.128
      -1.398
      -1.568
      -1.626
      -1.590
      -1.511
      -1.454
      -1.467
      -1.560
      -1.682
      -1.750
      -1.678
      -1.421
      -0.987
      -0.430
       0.188
       0.814
       1.418
       1.973
       2.436
       2.751
       2.863
       2.747
       2.420
       1.928
       1.331
       0.688
       0.065
      -0.474
      -0.867
      -1.080
      -1.111
      -0.983
      -0.738
      -0.423
      -0.088
       0.218
       0.456
       0.603
       0.650
       0.596
       0.440
       0.180
      -0.166
      -0.556
      -0.925
      -1.222
      -1.427
      -1.561
      -1.653
      -1.695
      -1.632
      -1.394
      -0.951
      -0.349
       0.300
       0.868
       1.259
       1.446
       1.459
       1.352
       1.176
       0.951
       0.679
       0.369
       0.049
      -0.228
      -0.408
      -0.469
      -0.436
      -0.381
      -0.380
      -0.476
      -0.651
      -0.837
      -0.954
      -0.945
      -0.796
      -0.530
      -0.190
       0.179
       0.531
       0.822
       1.011
       1.074
       1.008
       0.823
       0.547
       0.225
      -0.086
      -0.330
      -0.468
      -0.491
      -0.413
      -0.256
      -0.035
       0.223
       0.470
       0.635
       0.652
       0.502
       0.234
      -0.060
      -0.293
      -0.426
      -0.473
      -0.474
      -0.459
      -0.428
      -0.364
      -0.255
      -0.104
       0.071
       0.234
       0.341
       0.349
       0.235
       0.019
      -0.240
      -0.469
      -0.611
      -0.640
      -0.557
      -0.382
      -0.150
       0.090
       0.288
       0.402
       0.412
       0.322
       0.156
      -0.051
      -0.264
      -0.451
      -0.584
      -0.645
      -0.632
      -0.561
      -0.458
      -0.341
      -0.202
      -0.013
       0.257
       0.622
       1.062
       1.527
       1.950
       2.258
       2.384
       2.281
       1.932
       1.370
       0.673
      -0.055
      -0.729
      -1.304
      -1.772
      -2.127
      -2.334
      -2.336
      -2.086
      -1.587
      -0.905
      -0.154
       0.531
       1.039
       1.305
       1.323
       1.139
       0.819
       0.432
       0.035
      -0.327
      -0.614
      -0.795
      -0.858
      -0.813
      -0.683
      -0.484
      -0.220
       0.111
       0.496
       0.891
       1.236
       1.485
       1.620
       1.653
       1.596
       1.441
       1.164
       0.749
       0.217
      -0.368
      -0.917
      -1.344
      -1.600
      -1.680
      -1.624
      -1.490
      -1.321
      -1.136
      -0.923
      -0.672
      -0.386
      -0.095
       0.164
       0.362
       0.487
       0.537
       0.505
       0.386
       0.192
      -0.032
      -0.212
      -0.278
      -0.205
      -0.028
       0.175
       0.331
       0.410
       0.446
       0.515
       0.690
       0.983
       1.323
       1.575
       1.613
       1.387
       0.951
       0.423
      -0.088
      -0.534
      -0.917
      -1.254
      -1.539
      -1.737
      -1.820
      -1.798
      -1.709
      -1.593
      -1.459
      -1.290
      -1.061
      -0.775
      -0.466
      -0.175
       0.078
       0.302
       0.514
       0.716
       0.889
       0.999
       1.021
       0.952
       0.816
       0.645
       0.467
       0.292
       0.125
      -0.030
      -0.156
      -0.237
      -0.268
      -0.263
      -0.239
      -0.206
      -0.167
      -0.123
      -0.087
      -0.072
      -0.081
      -0.096
      -0.094
      -0.063
      -0.015
       0.020
       0.021
      -0.013
      -0.065
      -0.116
      -0.157
      -0.187
      -0.192
      -0.146
      -0.020
       0.193
       0.468
       0.758
       1.005
       1.156
       1.169
       1.030
       0.764
       0.430
       0.110
      -0.130
      -0.258
      -0.283
      -0.235
      -0.138
      -0.001
       0.175
       0.381
       0.597
       0.793
       0.938
       1.010
       1.003
       0.930
       0.815
       0.672
       0.494
       0.261
      -0.041
      -0.396
      -0.747
      -1.014
      -1.127
      -1.063
      -0.859
      -0.591
      -0.339
      -0.146
      -0.011
       0.098
       0.205
       0.312
       0.402
       0.452
       0.446
       0.369
       0.204
      -0.052
      -0.367
      -0.665
      -0.848
      -0.848
      -0.671
      -0.404
      -0.170
      -0.074
      -0.153
      -0.378
      -0.668
      -0.936
      -1.110
      -1.151
      -1.056
      -0.849
      -0.568
      -0.252
       0.072
       0.383
       0.659
       0.875
       1.005
       1.037
       0.976
       0.849
       0.698
       0.565
       0.478
       0.437
       0.420
       0.398
       0.356
       0.289
       0.200
       0.092
      -0.039
      -0.195
      -0.371
      -0.555
      -0.735
      -0.900
      -1.042
      -1.154
      -1.230
      -1.258
      -1.226
      -1.122
      -0.944
      -0.707
      -0.438
      -0.163
       0.106
       0.363
       0.600
       0.795
       0.920
       0.948
       0.863
       0.669
       0.390
       0.066
      -0.255
      -0.530
      -0.723
      -0.813
      -0.794
      -0.668
      -0.447
      -0.149
       0.190
       0.515
       0.762
       0.878
       0.842
       0.679
       0.444
       0.201
       0.000
      -0.137
      -0.206
      -0.213
      -0.168
      -0.080
