Origin Time       26/2/2010 4:42:33	 
Lat.              28.5 N	
Long.             86.7 E	
Depth (Km)         28.0
Magnitude         5.4
 Region           Tibet                                                            
 Above details taken from IMD 
   
Station Code      GTK
Station Lat.       27.352
Station Long.      88.627
Station Height(m) 1536.0
Site Class        A   Vs30 between 700 m/sec to 1400 m/sec * 
Record Time       26.02.2010 04:43:12.824
Sampling Rate     200. Hz
 Record Duration   88.515 Sec.
 Direction         Vert. (Up positive)
Max. Acceleration      2.291 cm/sec**2
     
  * For reference see Site Classification link of website 
     
 Base Line Corrected and Low Pass Filtered (Cut Off at 35 Hz) Time History
 Acceleration data in cm/sec**2
    
[...]
       0.095
      -0.041
      -0.328
      -0.679
      -0.974
      -1.113
      -1.051
      -0.791
      -0.384
       0.087
       0.514
       0.800
       0.904
       0.862
       0.753
       0.642
       0.542
       0.431
       0.297
       0.164
       0.084
       0.095
       0.183
       0.278
       0.280
       0.115
      -0.216
      -0.614
      -0.923
      -1.007
      -0.834
      -0.495
      -0.151
       0.066
       0.128
       0.108
       0.116
       0.220
       0.402
       0.584
       0.678
       0.646
       0.517
       0.368
       0.269
       0.246
       0.273
       0.302
       0.296
       0.233
       0.106
      -0.087
      -0.327
      -0.569
      -0.762
      -0.878
      -0.926
      -0.925
      -0.873
      -0.742
      -0.518
      -0.238
       0.003
       0.111
       0.055
      -0.106
      -0.260
      -0.312
      -0.232
      -0.056
       0.143
       0.302
       0.376
       0.345
       0.205
      -0.035
      -0.340
      -0.639
      -0.847
      -0.896
      -0.783
      -0.576
      -0.380
      -0.267
      -0.232
      -0.201
      -0.094
       0.120
       0.407
       0.696
       0.926
       1.056
       1.065
       0.954
       0.766
       0.589
       0.513
       0.572
       0.704
       0.797
       0.772
       0.645
       0.511
       0.455
       0.477
       0.498
       0.438
       0.293
       0.148
       0.101
       0.187
       0.355
       0.507
       0.562
       0.492
       0.311
       0.066
      -0.181
      -0.372
      -0.464
      -0.458
      -0.405
      -0.398
      -0.509
      -0.735
      -0.972
      -1.065
      -0.917
      -0.562
      -0.160
       0.116
       0.180
       0.074
      -0.090
      -0.211
      -0.249
      -0.220
      -0.171
      -0.146
      -0.161
      -0.194
      -0.197
      -0.132
      -0.010
       0.101
       0.111
      -0.020
      -0.231
      -0.391
      -0.366
      -0.114
       0.290
       0.680
       0.890
       0.830
       0.536
       0.142
      -0.193
      -0.379
      -0.423
      -0.383
      -0.304
      -0.190
      -0.046
       0.081
       0.121
       0.048
      -0.076
      -0.147
      -0.109
      -0.003
       0.080
       0.072
      -0.034
      -0.197
      -0.363
      -0.478
      -0.494
      -0.401
      -0.249
      -0.143
      -0.178
      -0.369
      -0.637
      -0.866
      -0.970
      -0.930
      -0.789
      -0.613
      -0.454
      -0.312
      -0.133
       0.160
       0.581
       1.038
       1.357
       1.396
       1.140
       0.715
       0.303
       0.029
      -0.078
      -0.072
      -0.027
      -0.001
      -0.005
      -0.007
       0.054
       0.201
       0.370
       0.412
       0.202
      -0.227
      -0.653
      -0.797
      -0.528
       0.037
       0.618
       0.969
       1.013
       0.833
       0.584
       0.392
       0.309
       0.306
       0.288
       0.164
      -0.078
      -0.340
      -0.477
      -0.408
      -0.178
       0.075
       0.225
       0.222
       0.100
      -0.070
      -0.233
      -0.360
      -0.432
      -0.432
      -0.341
      -0.167
       0.040
       0.189
       0.203
       0.062
      -0.169
      -0.381
      -0.474
      -0.407
      -0.192
       0.120
       0.464
       0.755
       0.905
       0.844
       0.567
       0.147
      -0.298
      -0.671
      -0.938
      -1.110
      -1.184
      -1.126
      -0.900
      -0.526
      -0.093
       0.286
       0.527
       0.599
       0.515
       0.319
       0.086
      -0.087
      -0.123
       0.000
       0.238
       0.504
       0.720
       0.830
       0.799
       0.610
       0.270
      -0.162
      -0.572
      -0.826
      -0.832
      -0.613
      -0.305
      -0.096
      -0.110
      -0.327
      -0.600
      -0.753
      -0.696
      -0.457
      -0.139
       0.158
       0.379
       0.514
       0.572
       0.582
       0.585
       0.627
       0.723
       0.834
       0.882
       0.810
       0.631
       0.415
       0.229
       0.087
      -0.049
      -0.212
      -0.397
      -0.571
      -0.694
      -0.745
      -0.712
      -0.579
      -0.336
       0.004
       0.387
       0.730
       0.944
       0.968
       0.796
       0.484
       0.132
      -0.153
      -0.316
      -0.386
      -0.449
      -0.580
      -0.776
      -0.966
      -1.071
      -1.059
      -0.947
      -0.764
      -0.524
      -0.234
       0.088
       0.403
       0.680
       0.902
       1.065
       1.164
       1.198
       1.166
       1.059
       0.860
       0.554
       0.167
      -0.225
      -0.529
      -0.687
      -0.718
      -0.696
      -0.700
      -0.760
      -0.846
      -0.901
      -0.879
      -0.762
      -0.553
      -0.267
       0.072
       0.416
       0.689
       0.810
       0.729
       0.446
       0.008
      -0.493
      -0.927
      -1.144
      -1.046
      -0.654
      -0.131
       0.305
       0.509
       0.482
       0.329
       0.158
       0.014
      -0.102
      -0.180
      -0.174
      -0.044
       0.199
       0.483
       0.716
       0.836
       0.834
       0.738
       0.590
       0.445
       0.348
       0.321
       0.331
       0.307
       0.179
      -0.072
      -0.405
      -0.757
      -1.073
      -1.312
      -1.425
      -1.359
      -1.094
      -0.685
      -0.264
       0.018
       0.081
      -0.033
      -0.175
      -0.176
       0.052
       0.460
       0.893
       1.194
       1.299
       1.255
       1.161
       1.075
       0.971
       0.777
       0.442
       0.003
      -0.429
      -0.715
      -0.764
      -0.576
      -0.249
       0.060
       0.202
       0.115
      -0.152
      -0.469
      -0.705
      -0.798
      -0.771
      -0.696
      -0.635
      -0.600
      -0.554
      -0.443
      -0.236
       0.053
       0.367
       0.634
       0.791
       0.807
       0.693
       0.492
       0.266
       0.083
      -0.009
       0.000
       0.074
       0.139
       0.133
       0.040
      -0.096
      -0.210
      -0.265
      -0.277
      -0.299
      -0.381
      -0.526
      -0.682
      -0.779
      -0.775
      -0.673
      -0.501
      -0.272
       0.024
       0.392
       0.796
       1.164
       1.421
       1.529
       1.488
       1.308
       1.000
       0.595
       0.169
      -0.167
      -0.315
      -0.245
      -0.018
       0.243
       0.406
       0.390
       0.176
      -0.189
      -0.606
      -0.942
      -1.076
      -0.949
      -0.620
      -0.247
       0.000
       0.046
      -0.052
      -0.161
      -0.189
      -0.146
      -0.109
      -0.129
      -0.172
      -0.151
      -0.002
       0.255
       0.540
       0.772
       0.909
       0.942
       0.871
       0.695
       0.419
       0.073
      -0.281
      -0.570
      -0.735
      -0.757
      -0.660
      -0.506
      -0.360
      -0.269
      -0.238
      -0.248
      -0.274
      -0.294
      -0.295
      -0.265
      -0.205
      -0.128
      -0.048
       0.031
       0.127
       0.254
       0.394
       0.494
       0.501
       0.408
       0.256
       0.108
       0.005
      -0.031
       0.018
       0.164
       0.375
       0.549
       0.551
       0.307
      -0.121
      -0.556
      -0.815
      -0.825
      -0.651
      -0.430
      -0.278
      -0.235
      -0.268
      -0.301
      -0.258
      -0.108
       0.109
       0.282
       0.285
       0.068
      -0.298
      -0.641
      -0.796
      -0.711
      -0.478
      -0.267
      -0.212
      -0.321
      -0.490
      -0.588
      -0.537
      -0.340
      -0.049
       0.274
       0.570
       0.783
       0.872
       0.832
       0.705
       0.558
       0.449
       0.396
       0.376
       0.343
       0.258
       0.111
      -0.061
      -0.192
      -0.223
      -0.139
       0.010
       0.133
       0.140
       0.000
      -0.248
      -0.505
      -0.672
      -0.707
      -0.644
      -0.549
      -0.468
      -0.405
      -0.337
      -0.242
      -0.108
       0.083
       0.359
       0.730
       1.153
       1.524
       1.722
       1.671
       1.366
       0.868
       0.290
      -0.220
      -0.513
      -0.499
      -0.211
       0.199
       0.552
       0.747
       0.794
       0.750
       0.641
       0.460
       0.214
      -0.043
      -0.250
      -0.397
      -0.528
      -0.670
      -0.791
      -0.814
      -0.691
      -0.451
      -0.180
       0.043
       0.173
       0.200
       0.124
      -0.043
      -0.266
      -0.494
      -0.673
      -0.777
      -0.795
      -0.731
      -0.588
      -0.382
      -0.152
       0.050
       0.174
       0.188
       0.096
      -0.059
      -0.198
      -0.245
      -0.187
      -0.111
      -0.158
      -0.413
      -0.801
      -1.113
      -1.135
      -0.815
      -0.300
       0.168
       0.409
       0.406
       0.264
       0.106
      -0.004
      -0.056
      -0.067
      -0.058
      -0.058
      -0.102
      -0.199
      -0.301
      -0.313
      -0.145
       0.210
       0.672
       1.116
       1.446
       1.619
       1.631
       1.493
       1.225
       0.884
       0.558
       0.347
       0.306
       0.417
       0.591
       0.710
       0.697
       0.550
       0.343
       0.168
       0.075
       0.042
       0.012
      -0.054
      -0.148
      -0.233
      -0.298
      -0.361
      -0.438
      -0.515
      -0.552
      -0.541
      -0.527
      -0.575
      -0.699
      -0.838
      -0.908
      -0.877
      -0.782
      -0.666
      -0.538
      -0.380
      -0.216
      -0.128
      -0.209
      -0.487
      -0.900
      -1.332
      -1.660
      -1.785
      -1.647
      -1.265
      -0.759
      -0.306
      -0.029
       0.088
       0.170
       0.327
       0.555
       0.737
       0.754
       0.588
       0.347
       0.199
       0.277
       0.593
       1.027
       1.382
       1.499
       1.346
       1.040
       0.753
       0.596
       0.558
       0.546
       0.478
       0.340
       0.174
       0.031
      -0.060
      -0.090
      -0.062
      -0.003
       0.041
       0.022
      -0.063
      -0.164
      -0.205
      -0.151
      -0.033
       0.086
       0.164
       0.216
       0.289
       0.415
       0.579
       0.720
       0.758
       0.622
       0.287
      -0.199
      -0.711
      -1.092
      -1.225
      -1.106
      -0.864
      -0.697
      -0.746
      -0.990
      -1.245
      -1.292
      -1.049
      -0.639
      -0.306
      -0.218
      -0.342
      -0.479
      -0.421
      -0.101
       0.388
       0.870
       1.186
       1.261
       1.117
       0.860
       0.631
       0.528
       0.545
       0.573
       0.480
       0.218
      -0.142
      -0.456
      -0.597
      -0.518
      -0.255
       0.096
       0.416
       0.611
       0.655
       0.595
       0.502
       0.410
       0.311
       0.190
       0.064
      -0.042
      -0.132
      -0.239
      -0.373
      -0.485
      -0.488
      -0.329
      -0.050
       0.216
       0.315
       0.172
      -0.168
      -0.558
      -0.840
      -0.914
      -0.773
      -0.480
      -0.134
       0.181
       0.416
       0.571
       0.657
       0.668
       0.568
       0.345
       0.049
      -0.225
      -0.413
      -0.524
      -0.609
      -0.683
      -0.710
      -0.644
      -0.497
      -0.334
      -0.222
      -0.178
      -0.175
      -0.174
      -0.147
      -0.068
       0.085
       0.306
       0.531
       0.674
       0.685
       0.588
       0.443
       0.277
       0.079
      -0.150
      -0.345
      -0.411
      -0.300
      -0.070
       0.144
       0.213
       0.085
      -0.194
      -0.516
      -0.743
      -0.756
      -0.509
      -0.070
       0.386
       0.656
       0.617
       0.304
      -0.112
      -0.418
      -0.476
      -0.282
       0.064
       0.436
       0.742
       0.931
       0.987
       0.925
       0.791
       0.652
       0.555
       0.489
       0.400
       0.237
       0.010
      -0.203
      -0.298
      -0.202
       0.075
       0.451
       0.810
       1.051
       1.115
       0.981
       0.662
       0.205
      -0.311
      -0.797
      -1.190
      -1.469
      -1.638
      -1.694
      -1.624
      -1.421
      -1.115
      -0.770
      -0.462
      -0.247
      -0.143
      -0.131
      -0.170
      -0.229
      -0.308
      -0.431
      -0.597
      -0.749
      -0.783
      -0.622
      -0.281
       0.141
       0.529
       0.813
       0.979
       1.034
       0.982
       0.838
       0.648
       0.482
       0.401
       0.419
       0.506
       0.607
       0.658
       0.596
       0.387
       0.063
      -0.277
      -0.510
      -0.569
      -0.488
      -0.368
      -0.309
      -0.355
      -0.488
      -0.643
      -0.739
      -0.697
      -0.469
      -0.064
       0.441
       0.924
       1.257
       1.353
       1.209
       0.913
       0.609
       0.427
       0.419
       0.542
       0.690
       0.755
       0.671
       0.436
       0.109
      -0.218
      -0.464
      -0.599
      -0.645
      -0.656
      -0.683
      -0.762
      -0.907
      -1.097
      -1.285
      -1.416
      -1.454
      -1.395
      -1.251
      -1.035
      -0.770
      -0.502
      -0.295
      -0.197
      -0.205
      -0.277
      -0.370
      -0.470
      -0.552
      -0.526
      -0.255
       0.333
       1.133
       1.877
       2.291
       2.271
       1.927
       1.471
       1.064
       0.761
       0.545
       0.392
       0.279
       0.167
       0.002
      -0.238
      -0.500
      -0.681
      -0.694
      -0.532
      -0.266
       0.002
       0.179
       0.208
       0.085
      -0.130
      -0.328
      -0.395
      -0.295
      -0.104
       0.034
       0.009
      -0.176
      -0.408
      -0.539
      -0.467
      -0.196
       0.158
       0.414
       0.429
       0.194
      -0.144
      -0.368
      -0.343
      -0.111
       0.135
       0.190
      -0.031
      -0.431
      -0.796
      -0.927
      -0.764
      -0.424
      -0.118
      -0.013
      -0.126
      -0.320
      -0.401
      -0.239
       0.141
       0.575
       0.860
       0.876
       0.662
       0.388
       0.247
       0.332
       0.589
       0.858
       0.971
       0.835
       0.475
       0.016
      -0.365
      -0.527
      -0.445
      -0.232
      -0.058
      -0.034
      -0.145
      -0.295
      -0.405
      -0.475
      -0.543
      -0.618
      -0.655
      -0.609
      -0.476
      -0.281
      -0.043
       0.235
       0.555
       0.899
       1.249
       1.574
       1.815
       1.863
       1.620
       1.106
       0.494
       0.011
      -0.227
      -0.289
      -0.349
      -0.529
      -0.815
      -1.103
      -1.292
      -1.331
      -1.211
      -0.959
      -0.656
      -0.417
      -0.335
      -0.405
      -0.524
      -0.557
      -0.434
      -0.183
       0.098
       0.292
       0.312
       0.132
      -0.192
      -0.537
      -0.762
      -0.775
      -0.573
      -0.217
       0.200
       0.590
       0.866
       0.963
       0.864
       0.639
       0.419
       0.319
       0.346
       0.397
       0.347
       0.155
      -0.106
      -0.325
      -0.463
      -0.573
      -0.729
      -0.930
      -1.076
      -1.050
      -0.816
      -0.457
      -0.126
       0.048
       0.018
      -0.165
      -0.383
      -0.511
      -0.458
      -0.215
       0.153
       0.530
       0.822
       0.989
       1.054
       1.060
       1.043
       1.015
       0.969
       0.899
       0.799
       0.667
       0.500
       0.301
       0.085
      -0.119
      -0.280
      -0.376
      -0.409
      -0.412
      -0.450
      -0.581
      -0.813
      -1.062
      -1.173
      -1.015
      -0.585
      -0.038
       0.405
       0.606
       0.588
       0.475
       0.363
       0.233
      -0.006
      -0.387
      -0.797
      -1.022
      -0.899
      -0.455
       0.092
       0.473
       0.541
       0.354
       0.100
      -0.050
      -0.029
       0.117
       0.297
       0.418
       0.418
       0.288
       0.089
      -0.084
      -0.169
      -0.192
      -0.250
      -0.415
      -0.655
      -0.844
      -0.856
      -0.664
      -0.362
      -0.096
       0.033
       0.035
       0.016
       0.106
       0.365
       0.742
       1.110
       1.354
       1.439
       1.413
       1.343
       1.253
       1.121
       0.931
       0.714
       0.528
       0.400
       0.277
       0.056
      -0.326
      -0.829
      -1.321
      -1.667
      -1.809
      -1.770
      -1.603
      -1.343
      -1.018
      -0.675
      -0.388
      -0.210
      -0.125
      -0.051
       0.097
       0.329
       0.574
       0.727
       0.736
       0.624
       0.460
       0.306
       0.187
       0.105
       0.059
       0.051
       0.083
       0.164
       0.301
       0.486
       0.659
       0.721
       0.592
       0.297
      -0.030
      -0.223
      -0.204
      -0.020
       0.213
       0.401
       0.508
       0.536
       0.509
       0.458
       0.414
       0.380
       0.304
       0.124
      -0.162
      -0.469
      -0.684
      -0.775
      -0.809
      -0.884
      -1.019
      -1.131
      -1.118
      -0.955
      -0.713
      -0.497
      -0.359
      -0.266
      -0.129
       0.127
       0.502
       0.898
       1.148
       1.105
       0.731
       0.132
      -0.478
      -0.888
      -0.990
      -0.810
      -0.482
      -0.168
       0.005
      -0.007
      -0.161
      -0.348
      -0.459
      -0.468
      -0.450
      -0.513
      -0.672
      -0.805
      -0.749
      -0.451
      -0.021
       0.372
       0.641
       0.824
       0.991
       1.142
       1.205
       1.108
       0.855
       0.518
       0.196
      -0.026
      -0.101
      -0.036
       0.101
       0.212
       0.228
       0.153
       0.054
      -0.005
      -0.003
       0.021
       0.015
      -0.055
      -0.179
      -0.316
      -0.418
      -0.465
      -0.466
      -0.446
      -0.412
      -0.344
      -0.196
       0.052
       0.363
       0.624
       0.703
       0.535
       0.199
      -0.104
      -0.173
       0.058
       0.465
       0.822
       0.948
       0.810
       0.512
       0.200
      -0.034
      -0.179
      -0.271
      -0.348
      -0.407
      -0.413
      -0.324
      -0.139
       0.079
       0.228
       0.225
       0.065
      -0.183
      -0.411
      -0.527
      -0.486
      -0.296
      -0.023
       0.219
       0.316
       0.220
       0.002
      -0.187
      -0.221
      -0.106
       0.027
       0.024
      -0.165
      -0.454
      -0.698
      -0.783
      -0.681
      -0.430
      -0.112
       0.171
       0.321
       0.291
       0.140
       0.014
       0.035
       0.195
       0.349
       0.326
       0.079
      -0.267
      -0.499
      -0.461
      -0.160
       0.232
       0.470
       0.367
      -0.101
      -0.766
      -1.335
      -1.539
      -1.291
      -0.753
      -0.254
      -0.078
      -0.279
      -0.657
      -0.892
      -0.747
      -0.196
       0.584
       1.320
       1.777
       1.859
       1.635
       1.270
