Origin Time       26/2/2010 4:42:33	 
Lat.              28.5 N	
Long.             86.7 E	
Depth (Km)         28.0
Magnitude         5.4
 Region           Tibet                                                            
 Above details taken from IMD 
     
Station Code      GTK
Station Lat.       27.352  N
Station Long.      88.627  E
Station Height(m) 1536.0
Site Class        A   Vs30 between 700 m/sec to 1400 m/sec * 
Record Time       26.02.2010 04:43:12.824
Sampling Rate     200. Hz
 Record Duration   88.515 Sec.
 Direction         E-W (E positive)
Max. Acceleration     -4.018 cm/sec**2
     
  * For reference see Site Classification link of website 
     
 Base Line Corrected and Low Pass Filtered (Cut Off at 35 Hz) Time History
 Acceleration data in cm/sec**2
    
[...]
       0.438
       0.188
      -0.014
      -0.161
      -0.259
      -0.311
      -0.312
      -0.257
      -0.160
      -0.056
       0.001
      -0.033
      -0.165
      -0.359
      -0.552
      -0.682
      -0.712
      -0.637
      -0.470
      -0.232
       0.054
       0.359
       0.645
       0.872
       1.013
       1.056
       1.003
       0.859
       0.640
       0.377
       0.119
      -0.085
      -0.202
      -0.234
      -0.205
      -0.146
      -0.078
      -0.018
       0.021
       0.025
      -0.017
      -0.106
      -0.235
      -0.394
      -0.572
      -0.761
      -0.954
      -1.134
      -1.273
      -1.323
      -1.232
      -0.965
      -0.528
       0.016
       0.560
       0.992
       1.231
       1.252
       1.078
       0.755
       0.333
      -0.131
      -0.572
      -0.920
      -1.121
      -1.155
      -1.043
      -0.827
      -0.555
      -0.272
      -0.023
       0.149
       0.202
       0.114
      -0.106
      -0.415
      -0.741
      -0.997
      -1.110
      -1.039
      -0.785
      -0.387
       0.098
       0.611
       1.101
       1.525
       1.845
       2.034
       2.077
       1.985
       1.795
       1.560
       1.333
       1.149
       1.022
       0.935
       0.849
       0.718
       0.504
       0.199
      -0.175
      -0.573
      -0.942
      -1.235
      -1.419
      -1.475
      -1.415
      -1.275
      -1.105
      -0.934
      -0.762
      -0.562
      -0.324
      -0.068
       0.159
       0.319
       0.408
       0.451
       0.477
       0.482
       0.429
       0.265
      -0.043
      -0.483
      -0.983
      -1.424
      -1.679
      -1.661
      -1.354
      -0.809
      -0.116
       0.622
       1.320
       1.907
       2.330
       2.549
       2.545
       2.328
       1.938
       1.441
       0.920
       0.459
       0.125
      -0.055
      -0.099
      -0.072
      -0.042
      -0.064
      -0.159
      -0.335
      -0.597
      -0.946
      -1.357
      -1.773
      -2.104
      -2.269
      -2.224
      -1.975
      -1.563
      -1.041
      -0.463
       0.114
       0.633
       1.041
       1.308
       1.437
       1.460
       1.413
       1.323
       1.195
       1.028
       0.823
       0.591
       0.341
       0.078
      -0.199
      -0.486
      -0.759
      -0.978
      -1.098
      -1.091
      -0.951
      -0.704
      -0.404
      -0.123
       0.059
       0.086
      -0.056
      -0.335
      -0.685
      -1.032
      -1.303
      -1.438
      -1.396
      -1.176
      -0.812
      -0.371
       0.079
       0.485
       0.824
       1.092
       1.287
       1.400
       1.409
       1.288
       1.028
       0.653
       0.223
      -0.167
      -0.417
      -0.449
      -0.239
       0.174
       0.691
       1.192
       1.562
       1.730
       1.685
       1.475
       1.190
       0.921
       0.732
       0.634
       0.585
       0.519
       0.373
       0.119
      -0.228
      -0.622
      -1.011
      -1.361
      -1.651
      -1.865
      -1.984
      -1.991
      -1.887
      -1.700
      -1.468
      -1.219
      -0.963
      -0.697
      -0.415
      -0.107
       0.241
       0.646
       1.105
       1.578
       1.998
       2.292
       2.420
       2.375
       2.182
       1.871
       1.467
       1.003
       0.530
       0.115
      -0.191
      -0.377
      -0.482
      -0.569
      -0.696
      -0.895
      -1.167
      -1.492
      -1.822
      -2.091
      -2.226
      -2.174
      -1.920
      -1.491
      -0.944
      -0.342
       0.261
       0.815
       1.266
       1.557
       1.633
       1.471
       1.087
       0.540
      -0.081
      -0.688
      -1.209
      -1.600
      -1.835
      -1.901
      -1.797
      -1.544
      -1.198
      -0.844
      -0.568
      -0.424
      -0.413
      -0.486
      -0.567
      -0.589
      -0.516
      -0.350
      -0.119
       0.148
       0.436
       0.749
       1.087
       1.418
       1.676
       1.786
       1.710
       1.474
       1.150
       0.822
       0.545
       0.337
       0.199
       0.128
       0.127
       0.190
       0.299
       0.420
       0.512
       0.543
       0.501
       0.394
       0.249
       0.089
      -0.065
      -0.202
      -0.308
      -0.359
      -0.324
      -0.181
       0.076
       0.431
       0.852
       1.285
       1.664
       1.913
       1.975
       1.833
       1.517
       1.084
       0.592
       0.073
      -0.458
      -0.979
      -1.446
      -1.788
      -1.943
      -1.884
      -1.637
      -1.268
      -0.848
      -0.428
      -0.040
       0.300
       0.574
       0.756
       0.817
       0.738
       0.525
       0.222
      -0.096
      -0.345
      -0.476
      -0.499
      -0.483
      -0.510
      -0.621
      -0.783
      -0.904
      -0.881
      -0.663
      -0.271
       0.217
       0.702
       1.104
       1.385
       1.541
       1.585
       1.530
       1.389
       1.176
       0.921
       0.661
       0.426
       0.227
       0.048
      -0.143
      -0.380
      -0.684
      -1.064
      -1.509
      -1.986
      -2.443
      -2.814
      -3.031
      -3.038
      -2.802
      -2.326
      -1.654
      -0.871
      -0.089
       0.586
       1.077
       1.359
       1.455
       1.412
       1.276
       1.076
       0.834
       0.582
       0.359
       0.210
       0.157
       0.191
       0.266
       0.330
       0.341
       0.294
       0.208
       0.113
       0.031
      -0.029
      -0.066
      -0.080
      -0.067
      -0.030
       0.024
       0.081
       0.134
       0.181
       0.235
       0.307
       0.397
       0.487
       0.539
       0.513
       0.380
       0.138
      -0.191
      -0.561
      -0.923
      -1.229
      -1.441
      -1.533
      -1.492
      -1.322
      -1.037
      -0.661
      -0.214
       0.283
       0.813
       1.349
       1.856
       2.280
       2.554
       2.612
       2.417
       1.986
       1.400
       0.784
       0.259
      -0.086
      -0.221
      -0.163
       0.037
       0.310
       0.582
       0.781
       0.850
       0.757
       0.505
       0.128
      -0.321
      -0.788
      -1.224
      -1.594
      -1.873
      -2.045
      -2.099
      -2.038
      -1.872
      -1.626
      -1.334
      -1.038
      -0.774
      -0.565
      -0.415
      -0.309
      -0.222
      -0.135
      -0.033
       0.082
       0.204
       0.321
       0.421
       0.493
       0.533
       0.541
       0.527
       0.510
       0.511
       0.548
       0.624
       0.728
       0.832
       0.905
       0.932
       0.917
       0.888
       0.880
       0.903
       0.934
       0.918
       0.796
       0.539
       0.156
      -0.311
      -0.804
      -1.272
      -1.675
      -1.988
      -2.201
      -2.319
      -2.357
      -2.331
      -2.236
      -2.044
      -1.705
      -1.171
      -0.428
       0.482
       1.457
       2.362
       3.058
       3.455
       3.530
       3.329
       2.933
       2.431
       1.885
       1.330
       0.779
       0.241
      -0.268
      -0.727
      -1.113
      -1.412
      -1.624
      -1.762
      -1.854
      -1.926
      -1.981
      -1.989
      -1.899
      -1.667
      -1.283
      -0.782
      -0.239
       0.250
       0.594
       0.739
       0.683
       0.482
       0.223
      -0.004
      -0.137
      -0.145
      -0.022
       0.226
       0.581
       1.010
       1.451
       1.825
       2.055
       2.088
       1.919
       1.595
       1.200
       0.826
       0.532
       0.334
       0.211
       0.134
       0.076
       0.026
      -0.032
      -0.119
      -0.260
      -0.466
      -0.726
      -1.007
      -1.267
      -1.472
      -1.600
      -1.639
      -1.576
      -1.392
      -1.079
      -0.652
      -0.156
       0.343
       0.773
       1.077
       1.221
       1.201
       1.045
       0.814
       0.582
       0.405
       0.297
       0.218
       0.100
      -0.104
      -0.401
      -0.752
      -1.105
      -1.422
      -1.694
      -1.921
      -2.100
      -2.205
      -2.185
      -1.990
      -1.605
      -1.075
      -0.501
       0.011
       0.403
       0.698
       0.976
       1.322
       1.770
       2.285
       2.787
       3.194
       3.463
       3.591
       3.580
       3.410
       3.024
       2.360
       1.410
       0.253
      -0.947
      -1.999
      -2.761
      -3.181
      -3.295
      -3.189
      -2.950
      -2.637
      -2.278
      -1.879
      -1.452
      -1.019
      -0.614
      -0.266
       0.017
       0.251
       0.470
       0.705
       0.976
       1.284
       1.608
       1.915
       2.167
       2.331
       2.373
       2.263
       1.978
       1.518
       0.914
       0.225
      -0.483
      -1.153
      -1.745
      -2.226
      -2.570
      -2.746
      -2.729
      -2.510
      -2.110
      -1.583
      -1.005
      -0.448
       0.043
       0.451
       0.778
       1.019
       1.151
       1.134
       0.938
       0.566
       0.064
      -0.475
      -0.938
      -1.227
      -1.284
      -1.107
      -0.735
      -0.225
       0.365
       0.973
       1.537
       1.990
       2.283
       2.401
       2.364
       2.214
       1.992
       1.713
       1.375
       0.963
       0.480
      -0.051
      -0.585
      -1.075
      -1.478
      -1.764
      -1.915
      -1.918
      -1.760
      -1.440
      -0.984
      -0.450
       0.079
       0.522
       0.828
       0.983
       0.996
       0.878
       0.637
       0.292
      -0.114
      -0.503
      -0.779
      -0.852
      -0.679
      -0.279
       0.259
       0.806
       1.235
       1.457
       1.443
       1.222
       0.850
       0.398
      -0.063
      -0.464
      -0.749
      -0.883
      -0.856
      -0.689
      -0.417
      -0.088
       0.243
       0.514
       0.661
       0.635
       0.426
       0.073
      -0.346
      -0.741
      -1.047
      -1.241
      -1.329
      -1.330
      -1.256
      -1.113
      -0.915
      -0.689
      -0.474
      -0.301
      -0.169
      -0.038
       0.163
       0.499
       0.987
       1.566
       2.109
       2.463
       2.520
       2.256
       1.735
       1.064
       0.344
      -0.357
      -0.994
      -1.524
      -1.900
      -2.074
      -2.022
      -1.754
      -1.323
      -0.809
      -0.306
       0.111
       0.402
       0.563
       0.613
       0.573
       0.468
       0.341
       0.264
       0.315
       0.539
       0.914
       1.363
       1.779
       2.064
       2.148
       1.990
       1.579
       0.946
       0.160
      -0.683
      -1.489
      -2.185
      -2.725
      -3.073
      -3.202
      -3.099
      -2.788
      -2.325
      -1.784
      -1.226
      -0.681
      -0.155
       0.349
       0.811
       1.184
       1.413
       1.462
       1.338
       1.092
       0.801
       0.538
       0.345
       0.223
       0.150
       0.096
       0.046
       0.003
      -0.026
      -0.041
      -0.049
      -0.053
      -0.038
       0.033
       0.202
       0.485
       0.848
       1.216
       1.494
       1.619
       1.583
       1.434
       1.231
       1.006
       0.747
       0.421
       0.010
      -0.472
      -0.992
      -1.512
      -1.996
      -2.402
      -2.679
      -2.781
      -2.680
      -2.373
      -1.878
      -1.227
      -0.466
       0.338
       1.103
       1.752
       2.232
       2.518
       2.605
       2.499
       2.220
       1.810
       1.333
       0.857
       0.433
       0.081
      -0.215
      -0.486
      -0.766
      -1.057
      -1.318
      -1.468
      -1.427
      -1.173
      -0.772
      -0.358
      -0.059
       0.070
       0.069
       0.032
       0.040
       0.115
       0.225
       0.327
       0.402
       0.458
       0.516
       0.578
       0.623
       0.615
       0.530
       0.372
       0.180
       0.008
      -0.100
      -0.123
      -0.073
       0.028
       0.155
       0.284
       0.387
       0.432
       0.392
       0.261
       0.059
      -0.175
      -0.401
      -0.590
      -0.737
      -0.846
      -0.920
      -0.948
      -0.912
      -0.799
      -0.617
      -0.397
      -0.188
      -0.038
       0.026
       0.009
      -0.048
      -0.090
      -0.070
       0.018
       0.130
       0.191
       0.145
      -0.011
      -0.222
      -0.421
      -0.569
      -0.675
      -0.765
      -0.845
      -0.884
      -0.836
      -0.670
      -0.404
      -0.094
       0.195
       0.420
       0.585
       0.719
       0.851
       0.977
       1.056
       1.042
       0.914
       0.704
       0.483
       0.320
       0.243
       0.219
       0.178
       0.058
      -0.157
      -0.426
      -0.675
      -0.839
      -0.887
      -0.823
      -0.672
      -0.458
      -0.191
       0.129
       0.504
       0.916
       1.331
       1.696
       1.943
       2.006
       1.840
       1.456
       0.931
       0.390
      -0.052
      -0.360
      -0.593
      -0.856
      -1.215
      -1.639
      -2.011
      -2.194
      -2.120
      -1.828
      -1.443
      -1.105
      -0.904
      -0.837
      -0.816
      -0.712
      -0.424
       0.072
       0.709
       1.371
       1.960
       2.452
       2.886
       3.302
       3.681
       3.926
       3.907
       3.536
       2.812
       1.808
       0.638
      -0.576
      -1.723
      -2.702
      -3.435
      -3.877
      -4.018
      -3.872
      -3.463
      -2.829
      -2.033
      -1.166
      -0.328
       0.413
       1.039
       1.572
       2.025
       2.358
       2.481
       2.307
       1.821
       1.109
       0.336
      -0.340
      -0.828
      -1.131
      -1.294
      -1.355
      -1.311
      -1.144
      -0.862
      -0.526
      -0.224
      -0.028
       0.051
       0.052
       0.046
       0.083
       0.174
       0.287
       0.370
       0.387
       0.337
       0.255
       0.186
       0.152
       0.138
       0.107
       0.028
      -0.094
      -0.219
      -0.312
      -0.379
      -0.473
      -0.661
      -0.959
      -1.308
      -1.592
      -1.694
      -1.548
      -1.162
      -0.591
       0.086
       0.788
       1.435
       1.955
       2.294
       2.430
       2.370
       2.141
       1.777
       1.312
       0.789
       0.259
      -0.224
      -0.614
      -0.891
      -1.056
      -1.133
      -1.163
      -1.187
      -1.240
      -1.325
      -1.414
      -1.457
      -1.403
      -1.215
      -0.880
      -0.414
       0.136
       0.692
       1.171
       1.516
       1.714
       1.791
       1.778
       1.684
       1.492
       1.187
       0.790
       0.366
       0.002
      -0.243
      -0.364
      -0.404
      -0.422
      -0.454
      -0.494
      -0.512
      -0.483
      -0.412
      -0.321
      -0.233
      -0.152
      -0.058
       0.065
       0.214
       0.355
       0.445
       0.448
       0.361
       0.208
       0.022
      -0.168
      -0.355
      -0.549
      -0.761
      -0.987
      -1.194
      -1.333
      -1.354
      -1.236
      -0.985
      -0.627
      -0.180
       0.340
       0.905
       1.455
       1.905
       2.171
       2.208
       2.019
       1.654
       1.178
       0.645
       0.089
      -0.464
      -0.984
      -1.427
      -1.747
      -1.908
      -1.908
      -1.778
      -1.568
      -1.317
      -1.037
      -0.716
      -0.334
       0.110
       0.590
       1.052
       1.436
       1.685
       1.765
       1.671
       1.426
       1.068
       0.634
       0.149
      -0.372
      -0.906
      -1.410
      -1.813
      -2.035
      -2.020
      -1.773
      -1.353
      -0.857
      -0.378
       0.025
       0.330
       0.546
       0.701
       0.827
       0.945
       1.066
       1.193
       1.328
       1.476
       1.629
       1.746
       1.754
       1.575
       1.180
       0.616
      -0.005
      -0.553
      -0.933
      -1.109
      -1.089
      -0.901
      -0.577
      -0.159
       0.302
       0.738
       1.082
       1.283
       1.320
       1.201
       0.957
       0.621
       0.221
      -0.213
      -0.644
      -1.014
      -1.259
      -1.342
      -1.281
      -1.150
      -1.036
      -0.997
      -1.023
      -1.047
      -0.997
      -0.835
      -0.574
      -0.261
       0.050
       0.327
       0.557
       0.748
       0.914
       1.063
       1.189
       1.276
       1.307
       1.279
       1.199
       1.075
       0.896
       0.632
       0.254
      -0.249
      -0.846
      -1.472
      -2.045
      -2.488
      -2.748
      -2.799
      -2.649
      -2.334
      -1.909
      -1.426
      -0.927
      -0.433
       0.051
       0.524
       0.981
       1.408
       1.778
       2.053
       2.194
       2.176
       2.002
       1.707
       1.348
       0.981
       0.638
       0.329
       0.057
      -0.165
      -0.308
      -0.352
      -0.311
      -0.232
      -0.173
      -0.173
      -0.238
      -0.350
      -0.487
      -0.628
      -0.746
      -0.807
      -0.773
      -0.629
      -0.388
      -0.086
       0.243
       0.581
       0.912
       1.205
       1.411
       1.478
       1.383
       1.143
       0.800
       0.397
      -0.040
      -0.491
      -0.933
      -1.322
      -1.607
      -1.745
      -1.723
      -1.557
      -1.281
      -0.930
      -0.522
      -0.064
       0.435
       0.954
       1.457
       1.899
       2.241
       2.455
       2.526
       2.447
       2.216
       1.829
       1.285
       0.602
      -0.173
      -0.958
      -1.663
      -2.217
      -2.584
      -2.752
      -2.706
      -2.418
      -1.876
      -1.124
      -0.276
       0.509
       1.097
       1.436
       1.561
       1.561
       1.512
       1.442
       1.320
       1.088
       0.700
       0.157
      -0.489
      -1.157
      -1.765
      -2.251
      -2.581
      -2.730
      -2.679
      -2.410
      -1.918
      -1.229
      -0.406
       0.449
       1.226
       1.830
       2.207
       2.343
       2.257
       1.988
       1.582
       1.088
       0.550
       0.010
      -0.489
      -0.904
      -1.210
      -1.408
      -1.532
      -1.622
      -1.695
      -1.739
      -1.717
      -1.607
      -1.405
      -1.126
      -0.779
      -0.356
       0.152
       0.738
       1.363
       1.968
       2.488
       2.860
       3.023
       2.927
       2.555
       1.938
       1.164
       0.357
      -0.363
      -0.903
      -1.215
      -1.293
      -1.165
      -0.887
      -0.534
      -0.181
       0.111
       0.305
       0.395
       0.386
       0.286
       0.100
      -0.163
      -0.470
      -0.762
      -0.967
      -1.029
      -0.925
      -0.676
      -0.328
       0.063
       0.445
       0.770
       0.998
       1.095
       1.036
       0.806
       0.411
      -0.109
      -0.670
      -1.156
      -1.447
      -1.458
      -1.163
      -0.602
       0.129
       0.909
       1.614
       2.141
       2.426
       2.445
       2.212
       1.766
       1.165
       0.471
      -0.249
      -0.925
      -1.489
      -1.888
      -2.098
      -2.122
      -1.973
      -1.662
      -1.200
      -0.612
       0.037
       0.653
