Origin Time       21/9/2009 8:53:04	 
Lat.              27.3 N	
Long.             91.5 E	
Depth (Km)          8.0
Magnitude         6.2
 Region           BHUTAN                                                           
 Above details taken from IMD 
   
Station Code      GTK
Station Lat.       27.352
Station Long.      88.627
Station Height(m) 1536.0
Site Class        A   Vs30 between 700 m/sec to 1400 m/sec * 
Record Time       21.09.2009 08:54:12.334
Sampling Rate     200. Hz
 Record Duration   74.640 Sec.
 Direction         Vert. (Up positive)
Max. Acceleration     -3.350 cm/sec**2
     
  * For reference see Site Classification link of website 
     
 Base Line Corrected and Low Pass Filtered (Cut Off at 35 Hz) Time History
 Acceleration data in cm/sec**2
    
[...]
       0.177
       0.299
       0.398
       0.471
       0.514
       0.518
       0.480
       0.400
       0.283
       0.136
      -0.031
      -0.203
      -0.356
      -0.470
      -0.538
      -0.559
      -0.538
      -0.480
      -0.386
      -0.261
      -0.114
       0.047
       0.217
       0.394
       0.574
       0.747
       0.895
       1.000
       1.048
       1.039
       0.980
       0.881
       0.748
       0.582
       0.387
       0.172
      -0.045
      -0.241
      -0.389
      -0.462
      -0.449
      -0.354
      -0.197
      -0.010
       0.182
       0.360
       0.516
       0.647
       0.753
       0.834
       0.895
       0.939
       0.970
       0.989
       0.990
       0.962
       0.893
       0.779
       0.623
       0.444
       0.265
       0.111
       0.004
      -0.047
      -0.044
      -0.002
       0.053
       0.091
       0.095
       0.068
       0.030
       0.007
       0.020
       0.078
       0.176
       0.306
       0.453
       0.598
       0.717
       0.784
       0.775
       0.678
       0.494
       0.238
      -0.065
      -0.387
      -0.699
      -0.967
      -1.162
      -1.269
      -1.291
      -1.249
      -1.165
      -1.056
      -0.930
      -0.788
      -0.636
      -0.483
      -0.341
      -0.218
      -0.113
      -0.021
       0.058
       0.112
       0.120
       0.066
      -0.042
      -0.173
      -0.288
      -0.351
      -0.346
      -0.279
      -0.173
      -0.062
       0.021
       0.063
       0.078
       0.096
       0.150
       0.255
       0.400
       0.559
       0.705
       0.819
       0.898
       0.943
       0.957
       0.939
       0.886
       0.804
       0.710
       0.622
       0.558
       0.527
       0.537
       0.589
       0.677
       0.776
       0.856
       0.887
       0.853
       0.757
       0.611
       0.428
       0.220
       0.002
      -0.204
      -0.379
      -0.513
      -0.612
      -0.685
      -0.738
      -0.769
      -0.769
      -0.740
      -0.683
      -0.602
      -0.491
      -0.341
      -0.157
       0.042
       0.219
       0.343
       0.402
       0.408
       0.394
       0.393
       0.426
       0.490
       0.564
       0.621
       0.636
       0.599
       0.512
       0.389
       0.248
       0.108
      -0.010
      -0.086
      -0.113
      -0.094
      -0.052
      -0.014
       0.000
      -0.017
      -0.057
      -0.112
      -0.170
      -0.225
      -0.279
      -0.339
      -0.416
      -0.514
      -0.625
      -0.729
      -0.799
      -0.814
      -0.768
      -0.664
      -0.518
      -0.349
      -0.173
      -0.002
       0.150
       0.272
       0.361
       0.424
       0.478
       0.528
       0.561
       0.558
       0.504
       0.409
       0.293
       0.177
       0.063
      -0.055
      -0.186
      -0.328
      -0.475
      -0.618
      -0.754
      -0.877
      -0.978
      -1.046
      -1.082
      -1.092
      -1.091
      -1.093
      -1.110
      -1.148
      -1.207
      -1.282
      -1.365
      -1.448
      -1.519
      -1.562
      -1.556
      -1.486
      -1.354
      -1.176
      -0.973
      -0.766
      -0.575
      -0.417
      -0.309
      -0.252
      -0.226
      -0.201
      -0.148
      -0.056
       0.072
       0.227
       0.400
       0.584
       0.766
       0.931
       1.062
       1.145
       1.177
       1.158
       1.088
       0.961
       0.773
       0.529
       0.245
      -0.052
      -0.329
      -0.549
      -0.678
      -0.692
      -0.580
      -0.352
      -0.041
       0.305
       0.635
       0.904
       1.087
       1.182
       1.202
       1.177
       1.133
       1.086
       1.043
       1.008
       0.983
       0.977
       0.999
       1.053
       1.131
       1.222
       1.305
       1.361
       1.365
       1.303
       1.180
       1.019
       0.854
       0.710
       0.600
       0.521
       0.463
       0.421
       0.388
       0.359
       0.325
       0.281
       0.228
       0.169
       0.107
       0.039
      -0.047
      -0.166
      -0.326
      -0.523
      -0.740
      -0.950
      -1.124
      -1.242
      -1.295
      -1.286
      -1.225
      -1.124
      -0.992
      -0.842
      -0.687
      -0.545
      -0.428
      -0.339
      -0.271
      -0.212
      -0.157
      -0.120
      -0.126
      -0.202
      -0.359
      -0.583
      -0.840
      -1.087
      -1.285
      -1.408
      -1.444
      -1.397
      -1.281
      -1.119
      -0.935
      -0.752
      -0.584
      -0.439
      -0.315
      -0.202
      -0.091
       0.025
       0.148
       0.278
       0.422
       0.588
       0.784
       1.011
       1.257
       1.504
       1.730
       1.913
       2.030
       2.064
       2.005
       1.857
       1.638
       1.365
       1.057
       0.727
       0.395
       0.091
      -0.150
      -0.300
      -0.346
      -0.295
      -0.162
       0.032
       0.268
       0.531
       0.809
       1.087
       1.351
       1.579
       1.751
       1.848
       1.867
       1.820
       1.717
       1.560
       1.332
       1.017
       0.619
       0.167
      -0.282
      -0.670
      -0.953
      -1.122
      -1.201
      -1.233
      -1.256
      -1.292
      -1.339
      -1.382
      -1.405
      -1.398
      -1.356
      -1.276
      -1.163
      -1.022
      -0.865
      -0.705
      -0.551
      -0.407
      -0.273
      -0.151
      -0.050
       0.017
       0.039
       0.012
      -0.060
      -0.173
      -0.327
      -0.518
      -0.733
      -0.951
      -1.146
      -1.296
      -1.392
      -1.432
      -1.420
      -1.359
      -1.261
      -1.152
      -1.063
      -1.016
      -1.000
      -0.976
      -0.893
      -0.721
      -0.468
      -0.173
       0.117
       0.374
       0.598
       0.808
       1.027
       1.262
       1.505
       1.741
       1.952
       2.121
       2.229
       2.254
       2.180
       2.009
       1.776
       1.533
       1.324
       1.168
       1.047
       0.929
       0.794
       0.635
       0.460
       0.279
       0.101
      -0.066
      -0.211
      -0.330
      -0.424
      -0.499
      -0.562
      -0.618
      -0.669
      -0.718
      -0.770
      -0.829
      -0.904
      -1.002
      -1.126
      -1.274
      -1.431
      -1.583
      -1.719
      -1.841
      -1.961
      -2.097
      -2.257
      -2.442
      -2.637
      -2.822
      -2.973
      -3.068
      -3.089
      -3.028
      -2.889
      -2.686
      -2.436
      -2.156
      -1.856
      -1.545
      -1.230
      -0.921
      -0.635
      -0.387
      -0.192
      -0.051
       0.047
       0.119
       0.180
       0.249
       0.337
       0.451
       0.583
       0.707
       0.791
       0.805
       0.735
       0.590
       0.397
       0.192
       0.016
      -0.099
      -0.129
      -0.070
       0.068
       0.269
       0.514
       0.791
       1.093
       1.408
       1.723
       2.027
       2.312
       2.575
       2.807
       2.995
       3.117
       3.152
       3.091
       2.936
       2.707
       2.429
       2.131
       1.832
       1.547
       1.279
       1.029
       0.793
       0.572
       0.372
       0.201
       0.070
      -0.009
      -0.025
       0.024
       0.133
       0.281
       0.438
       0.575
       0.671
       0.720
       0.729
       0.705
       0.652
       0.568
       0.448
       0.292
       0.104
      -0.109
      -0.337
      -0.570
      -0.791
      -0.982
      -1.129
      -1.233
      -1.301
      -1.339
      -1.349
      -1.325
      -1.261
      -1.149
      -0.983
      -0.763
      -0.505
      -0.238
      -0.003
       0.175
       0.289
       0.351
       0.374
       0.355
       0.287
       0.168
       0.017
      -0.130
      -0.237
      -0.277
      -0.245
      -0.150
      -0.008
       0.157
       0.321
       0.471
       0.600
       0.713
       0.819
       0.926
       1.041
       1.161
       1.279
       1.380
       1.453
       1.490
       1.490
       1.454
       1.387
       1.294
       1.178
       1.036
       0.854
       0.612
       0.292
      -0.108
      -0.564
      -1.034
      -1.471
      -1.835
      -2.096
      -2.236
      -2.249
      -2.142
      -1.938
      -1.676
      -1.396
      -1.129
      -0.889
      -0.672
      -0.470
      -0.285
      -0.133
      -0.040
      -0.025
      -0.089
      -0.214
      -0.369
      -0.529
      -0.682
      -0.839
      -1.021
      -1.241
      -1.500
      -1.778
      -2.036
      -2.225
      -2.302
      -2.245
      -2.063
      -1.793
      -1.482
      -1.172
      -0.886
      -0.627
      -0.389
      -0.166
       0.035
       0.200
       0.312
       0.363
       0.361
       0.321
       0.267
       0.218
       0.192
       0.196
       0.228
       0.275
       0.329
       0.393
       0.482
       0.613
       0.788
       0.983
       1.161
       1.282
       1.324
       1.282
       1.170
       1.013
       0.848
       0.709
       0.616
       0.575
       0.578
       0.612
       0.671
       0.755
       0.864
       0.994
       1.127
       1.237
       1.296
       1.284
       1.198
       1.055
       0.882
       0.710
       0.561
       0.449
       0.372
       0.320
       0.268
       0.197
       0.092
      -0.039
      -0.169
      -0.266
      -0.304
      -0.281
      -0.216
      -0.139
      -0.076
      -0.037
      -0.019
      -0.016
      -0.032
      -0.076
      -0.153
      -0.250
      -0.343
      -0.409
      -0.442
      -0.453
      -0.464
      -0.487
      -0.526
      -0.573
      -0.619
      -0.659
      -0.690
      -0.706
      -0.692
      -0.631
      -0.510
      -0.338
      -0.146
       0.023
       0.143
       0.213
       0.255
       0.288
       0.314
       0.317
       0.283
       0.210
       0.109
      -0.001
      -0.104
      -0.183
      -0.225
      -0.227
      -0.198
      -0.163
      -0.148
      -0.175
      -0.246
      -0.348
      -0.460
      -0.560
      -0.633
      -0.674
      -0.688
      -0.687
      -0.685
      -0.695
      -0.720
      -0.755
      -0.796
      -0.839
      -0.887
      -0.943
      -1.002
      -1.053
      -1.081
      -1.070
      -1.013
      -0.914
      -0.788
      -0.663
      -0.563
      -0.507
      -0.497
      -0.519
      -0.548
      -0.556
      -0.520
      -0.431
      -0.295
      -0.127
       0.052
       0.220
       0.363
       0.473
       0.541
       0.556
       0.500
       0.366
       0.164
      -0.075
      -0.314
      -0.525
      -0.703
      -0.859
      -1.003
      -1.132
      -1.230
      -1.271
      -1.236
      -1.114
      -0.910
      -0.641
      -0.332
      -0.003
       0.336
       0.691
       1.066
       1.459
       1.850
       2.213
       2.519
       2.754
       2.907
       2.975
       2.959
       2.860
       2.685
       2.451
       2.177
       1.879
       1.572
       1.264
       0.968
       0.706
       0.503
       0.376
       0.331
       0.355
       0.421
       0.505
       0.584
       0.647
       0.683
       0.684
       0.640
       0.543
       0.390
       0.194
      -0.019
      -0.215
      -0.369
      -0.471
      -0.533
      -0.577
      -0.627
      -0.697
      -0.790
      -0.900
      -1.011
      -1.103
      -1.158
      -1.167
      -1.137
      -1.080
      -1.012
      -0.938
      -0.856
      -0.757
      -0.632
      -0.481
      -0.320
      -0.179
      -0.088
      -0.066
      -0.108
      -0.186
      -0.260
      -0.296
      -0.279
      -0.218
      -0.127
      -0.015
       0.112
       0.256
       0.417
       0.596
       0.792
       1.002
       1.208
       1.380
       1.473
       1.453
       1.310
       1.067
       0.775
       0.494
       0.271
       0.133
       0.082
       0.105
       0.180
       0.283
       0.389
       0.471
       0.501
       0.458
       0.331
       0.122
      -0.158
      -0.491
      -0.845
      -1.179
      -1.444
      -1.610
      -1.671
      -1.642
      -1.551
      -1.419
      -1.262
      -1.099
      -0.954
      -0.849
      -0.791
      -0.777
      -0.796
      -0.837
      -0.885
      -0.927
      -0.957
      -0.975
      -0.998
      -1.038
      -1.099
      -1.172
      -1.235
      -1.265
      -1.243
      -1.162
      -1.026
      -0.856
      -0.678
      -0.511
      -0.362
      -0.219
      -0.071
       0.085
       0.239
       0.375
       0.482
       0.556
       0.603
       0.637
       0.671
       0.717
       0.787
       0.894
       1.046
       1.240
       1.463
       1.693
       1.917
       2.137
       2.364
       2.596
       2.817
       2.997
       3.111
       3.152
       3.131
       3.065
       2.969
       2.845
       2.695
       2.522
       2.336
       2.152
       1.990
       1.869
       1.803
       1.796
       1.844
       1.935
       2.050
       2.164
       2.256
       2.312
       2.325
       2.285
       2.179
       1.984
       1.688
       1.294
       0.820
       0.298
      -0.235
      -0.743
      -1.196
      -1.578
      -1.886
      -2.124
      -2.298
      -2.415
      -2.484
      -2.511
      -2.498
      -2.441
      -2.338
      -2.191
      -2.011
      -1.816
      -1.636
      -1.505
      -1.452
      -1.486
      -1.595
      -1.755
      -1.947
      -2.163
      -2.399
      -2.650
      -2.900
      -3.124
      -3.287
      -3.350
      -3.286
      -3.098
      -2.817
      -2.492
      -2.158
      -1.825
      -1.489
      -1.142
      -0.787
      -0.432
      -0.093
       0.210
       0.457
       0.630
       0.729
       0.764
       0.753
       0.707
       0.632
       0.533
       0.418
       0.299
       0.194
       0.112
       0.059
       0.031
       0.021
       0.017
       0.019
       0.033
       0.072
       0.142
       0.236
       0.337
       0.427
       0.496
       0.551
       0.610
       0.692
       0.812
       0.971
       1.152
       1.332
       1.483
       1.583
       1.618
       1.593
       1.525
       1.436
       1.339
       1.233
       1.104
       0.941
       0.749
       0.546
       0.362
       0.226
       0.157
       0.157
       0.207
       0.273
       0.317
       0.307
       0.237
       0.118
      -0.021
      -0.153
      -0.258
      -0.331
      -0.381
      -0.421
      -0.467
      -0.535
      -0.635
      -0.765
      -0.902
      -1.013
      -1.067
      -1.049
      -0.968
      -0.841
      -0.681
      -0.494
      -0.286
      -0.073
       0.125
       0.291
       0.417
       0.501
       0.540
       0.532
       0.479
       0.391
       0.292
       0.201
       0.126
       0.059
      -0.018
      -0.121
      -0.252
      -0.400
      -0.541
      -0.647
      -0.703
      -0.710
      -0.689
      -0.664
      -0.651
      -0.646
      -0.631
      -0.585
      -0.505
      -0.407
      -0.319
      -0.265
      -0.254
      -0.275
      -0.306
      -0.324
      -0.313
      -0.269
      -0.201
      -0.126
      -0.066
      -0.038
      -0.051
      -0.104
      -0.196
      -0.322
      -0.477
      -0.648
      -0.813
      -0.943
      -1.011
      -1.001
      -0.911
      -0.746
      -0.516
      -0.228
       0.102
       0.442
       0.748
       0.977
       1.105
       1.137
       1.099
       1.024
       0.935
       0.841
       0.745
       0.647
       0.548
       0.448
       0.355
       0.286
       0.257
       0.269
       0.299
       0.309
       0.266
       0.153
      -0.026
      -0.246
      -0.466
      -0.635
      -0.712
      -0.677
      -0.549
      -0.372
      -0.197
      -0.061
       0.022
       0.058
       0.057
       0.028
      -0.032
      -0.130
      -0.267
      -0.426
      -0.577
      -0.686
      -0.724
      -0.671
      -0.524
      -0.294
      -0.010
       0.294
       0.584
       0.835
       1.034
       1.169
       1.234
       1.233
       1.177
       1.088
       0.989
       0.897
       0.823
       0.771
       0.748
       0.752
       0.779
       0.813
       0.836
       0.833
       0.802
       0.747
       0.676
       0.597
       0.517
       0.445
       0.392
       0.368
       0.374
       0.402
       0.434
       0.451
       0.439
       0.389
       0.304
       0.193
       0.070
      -0.053
      -0.168
      -0.272
      -0.361
      -0.431
      -0.472
      -0.481
      -0.465
      -0.433
      -0.399
      -0.365
      -0.333
      -0.301
      -0.268
      -0.226
      -0.170
      -0.096
      -0.008
       0.082
       0.166
       0.239
       0.300
       0.347
       0.373
       0.375
       0.352
       0.307
       0.244
       0.164
       0.062
      -0.064
      -0.212
      -0.364
      -0.501
      -0.605
      -0.668
      -0.687
      -0.661
      -0.587
      -0.468
      -0.320
      -0.169
      -0.040
       0.048
       0.091
       0.095
       0.072
       0.040
       0.012
      -0.010
      -0.034
      -0.074
      -0.133
      -0.202
      -0.259
      -0.293
      -0.310
      -0.323
      -0.349
      -0.397
      -0.464
      -0.540
      -0.604
      -0.632
      -0.608
      -0.529
      -0.415
      -0.296
      -0.199
      -0.124
      -0.053
       0.042
       0.172
       0.321
       0.452
       0.529
       0.535
       0.481
       0.397
       0.309
       0.224
       0.126
      -0.011
      -0.204
      -0.443
      -0.695
      -0.912
      -1.055
      -1.115
      -1.112
      -1.084
      -1.071
      -1.093
      -1.150
      -1.226
      -1.294
      -1.321
      -1.273
      -1.127
      -0.872
      -0.514
      -0.075
       0.409
       0.893
       1.325
       1.654
       1.848
       1.896
       1.816
       1.647
       1.432
       1.206
       0.991
       0.797
       0.636
       0.516
       0.445
       0.420
       0.428
       0.458
       0.507
       0.578
       0.672
       0.778
       0.874
       0.935
       0.944
       0.904
       0.833
       0.755
       0.678
       0.586
       0.445
       0.231
      -0.049
      -0.350
      -0.613
      -0.790
      -0.869
      -0.865
      -0.813
      -0.742
      -0.678
      -0.635
      -0.614
      -0.610
      -0.608
      -0.600
      -0.581
      -0.557
      -0.533
      -0.512
      -0.494
      -0.476
      -0.448
      -0.402
      -0.338
      -0.262
      -0.196
      -0.162
      -0.186
      -0.277
      -0.423
      -0.594
      -0.757
      -0.892
      -1.000
      -1.098
      -1.193
      -1.275
      -1.322
      -1.317
      -1.266
      -1.197
      -1.143
      -1.123
      -1.131
      -1.150
      -1.160
      -1.149
      -1.119
      -1.071
      -1.001
      -0.901
      -0.759
      -0.565
      -0.318
      -0.024
       0.304
       0.638
       0.937
       1.156
       1.267
       1.263
       1.163
       0.995
       0.788
       0.559
       0.320
       0.078
      -0.161
      -0.389
      -0.598
      -0.777
      -0.912
      -0.981
      -0.963
      -0.842
      -0.627
      -0.356
      -0.091
       0.106
       0.202
       0.204
       0.149
       0.076
       0.015
      -0.026
      -0.049
      -0.056
      -0.049
