Origin Time       21/9/2009 8:53:04	 
Lat.              27.3 N	
Long.             91.5 E	
Depth (Km)          8.0
Magnitude         6.2
 Region           BHUTAN                                                           
 Above details taken from IMD 
     
Station Code      GTK
Station Lat.       27.352  N
Station Long.      88.627  E
Station Height(m) 1536.0
Site Class        A   Vs30 between 700 m/sec to 1400 m/sec * 
Record Time       21.09.2009 08:54:12.334
Sampling Rate     200. Hz
 Record Duration   74.640 Sec.
 Direction         E-W (E positive)
Max. Acceleration     -6.277 cm/sec**2
     
  * For reference see Site Classification link of website 
     
 Base Line Corrected and Low Pass Filtered (Cut Off at 35 Hz) Time History
 Acceleration data in cm/sec**2
    
[...]
       0.024
       0.062
       0.101
       0.134
       0.155
       0.160
       0.153
       0.138
       0.125
       0.124
       0.134
       0.152
       0.173
       0.196
       0.226
       0.268
       0.316
       0.365
       0.405
       0.427
       0.422
       0.380
       0.298
       0.176
       0.021
      -0.163
      -0.367
      -0.578
      -0.772
      -0.919
      -0.995
      -0.990
      -0.912
      -0.780
      -0.621
      -0.458
      -0.313
      -0.198
      -0.114
      -0.057
      -0.017
       0.020
       0.067
       0.141
       0.249
       0.394
       0.568
       0.756
       0.936
       1.078
       1.151
       1.141
       1.049
       0.895
       0.704
       0.500
       0.304
       0.132
      -0.002
      -0.087
      -0.123
      -0.117
      -0.084
      -0.038
       0.010
       0.053
       0.086
       0.109
       0.124
       0.135
       0.153
       0.193
       0.264
       0.363
       0.477
       0.582
       0.660
       0.701
       0.702
       0.664
       0.595
       0.505
       0.408
       0.310
       0.214
       0.120
       0.028
      -0.061
      -0.148
      -0.235
      -0.320
      -0.391
      -0.436
      -0.446
      -0.418
      -0.353
      -0.251
      -0.118
       0.035
       0.188
       0.325
       0.430
       0.500
       0.535
       0.541
       0.520
       0.477
       0.413
       0.336
       0.253
       0.167
       0.074
      -0.035
      -0.166
      -0.316
      -0.476
      -0.637
      -0.795
      -0.945
      -1.081
      -1.190
      -1.262
      -1.291
      -1.276
      -1.216
      -1.113
      -0.972
      -0.806
      -0.635
      -0.475
      -0.340
      -0.235
      -0.161
      -0.111
      -0.075
      -0.045
      -0.017
       0.004
       0.011
       0.002
      -0.014
      -0.030
      -0.042
      -0.051
      -0.061
      -0.074
      -0.090
      -0.104
      -0.107
      -0.093
      -0.057
      -0.007
       0.040
       0.061
       0.034
      -0.056
      -0.206
      -0.398
      -0.602
      -0.784
      -0.920
      -0.996
      -1.008
      -0.959
      -0.854
      -0.700
      -0.504
      -0.272
      -0.017
       0.244
       0.492
       0.706
       0.875
       0.992
       1.053
       1.057
       1.005
       0.901
       0.757
       0.583
       0.391
       0.190
      -0.002
      -0.167
      -0.285
      -0.342
      -0.334
      -0.262
      -0.134
       0.039
       0.234
       0.430
       0.606
       0.745
       0.838
       0.875
       0.851
       0.765
       0.622
       0.435
       0.224
       0.013
      -0.175
      -0.322
      -0.416
      -0.447
      -0.408
      -0.296
      -0.123
       0.085
       0.295
       0.474
       0.600
       0.663
       0.662
       0.606
       0.512
       0.405
       0.308
       0.240
       0.213
       0.235
       0.304
       0.413
       0.536
       0.641
       0.694
       0.669
       0.557
       0.370
       0.139
      -0.089
      -0.272
      -0.386
      -0.426
      -0.402
      -0.327
      -0.216
      -0.086
       0.044
       0.157
       0.250
       0.325
       0.385
       0.429
       0.451
       0.444
       0.402
       0.326
       0.220
       0.090
      -0.056
      -0.210
      -0.362
      -0.498
      -0.603
      -0.669
      -0.693
      -0.677
      -0.627
      -0.550
      -0.458
      -0.368
      -0.293
      -0.241
      -0.210
      -0.194
      -0.182
      -0.165
      -0.140
      -0.110
      -0.084
      -0.068
      -0.067
      -0.083
      -0.117
      -0.173
      -0.253
      -0.354
      -0.466
      -0.574
      -0.659
      -0.709
      -0.715
      -0.676
      -0.599
      -0.497
      -0.386
      -0.278
      -0.180
      -0.091
      -0.009
       0.074
       0.157
       0.238
       0.304
       0.342
       0.343
       0.305
       0.226
       0.106
      -0.051
      -0.237
      -0.433
      -0.616
      -0.764
      -0.862
      -0.898
      -0.865
      -0.762
      -0.593
      -0.367
      -0.102
       0.178
       0.440
       0.653
       0.791
       0.837
       0.792
       0.668
       0.490
       0.288
       0.100
      -0.045
      -0.129
      -0.144
      -0.098
      -0.009
       0.097
       0.196
       0.270
       0.320
       0.355
       0.393
       0.442
       0.503
       0.569
       0.629
       0.668
       0.671
       0.625
       0.530
       0.393
       0.228
       0.045
      -0.142
      -0.312
      -0.442
      -0.514
      -0.523
      -0.476
      -0.384
      -0.253
      -0.096
       0.068
       0.209
       0.301
       0.325
       0.279
       0.176
       0.037
      -0.112
      -0.247
      -0.350
      -0.409
      -0.416
      -0.367
      -0.266
      -0.123
       0.046
       0.219
       0.376
       0.496
       0.559
       0.550
       0.466
       0.312
       0.109
      -0.118
      -0.342
      -0.540
      -0.700
      -0.815
      -0.890
      -0.931
      -0.953
      -0.973
      -1.007
      -1.062
      -1.132
      -1.198
      -1.239
      -1.237
      -1.186
      -1.084
      -0.936
      -0.744
      -0.517
      -0.263
       0.005
       0.276
       0.534
       0.762
       0.938
       1.041
       1.055
       0.973
       0.803
       0.558
       0.263
      -0.058
      -0.381
      -0.683
      -0.943
      -1.142
      -1.263
      -1.294
      -1.227
      -1.059
      -0.800
      -0.474
      -0.118
       0.227
       0.530
       0.765
       0.915
       0.970
       0.934
       0.823
       0.666
       0.491
       0.322
       0.177
       0.070
       0.011
       0.001
       0.033
       0.096
       0.175
       0.253
       0.318
       0.360
       0.374
       0.357
       0.308
       0.228
       0.120
      -0.006
      -0.140
      -0.277
      -0.413
      -0.544
      -0.657
      -0.731
      -0.743
      -0.675
      -0.513
      -0.253
       0.098
       0.514
       0.959
       1.390
       1.770
       2.066
       2.255
       2.323
       2.268
       2.102
       1.844
       1.514
       1.135
       0.729
       0.326
      -0.047
      -0.364
      -0.604
      -0.754
      -0.808
      -0.762
      -0.622
      -0.397
      -0.108
       0.215
       0.536
       0.819
       1.039
       1.185
       1.255
       1.248
       1.164
       1.009
       0.794
       0.532
       0.242
      -0.065
      -0.371
      -0.663
      -0.923
      -1.140
      -1.304
      -1.404
      -1.430
      -1.375
      -1.235
      -1.010
      -0.708
      -0.352
       0.027
       0.387
       0.692
       0.914
       1.039
       1.062
       0.986
       0.822
       0.588
       0.305
      -0.008
      -0.340
      -0.674
      -0.995
      -1.282
      -1.520
      -1.701
      -1.820
      -1.872
      -1.853
      -1.764
      -1.613
      -1.417
      -1.192
      -0.957
      -0.733
      -0.542
      -0.402
      -0.315
      -0.274
      -0.261
      -0.256
      -0.248
      -0.228
      -0.194
      -0.147
      -0.093
      -0.038
       0.008
       0.030
       0.018
      -0.039
      -0.145
      -0.304
      -0.510
      -0.748
      -0.984
      -1.173
      -1.272
      -1.257
      -1.129
      -0.905
      -0.612
      -0.278
       0.067
       0.391
       0.664
       0.859
       0.956
       0.947
       0.833
       0.626
       0.341
      -0.007
      -0.399
      -0.811
      -1.210
      -1.566
      -1.858
      -2.071
      -2.193
      -2.216
      -2.139
      -1.970
      -1.723
      -1.418
      -1.071
      -0.693
      -0.294
       0.114
       0.522
       0.918
       1.288
       1.618
       1.890
       2.087
       2.198
       2.224
       2.174
       2.068
       1.926
       1.762
       1.589
       1.415
       1.243
       1.074
       0.904
       0.729
       0.545
       0.356
       0.181
       0.046
      -0.017
       0.016
       0.156
       0.394
       0.704
       1.048
       1.383
       1.670
       1.873
       1.967
       1.943
       1.808
       1.587
       1.308
       0.999
       0.676
       0.353
       0.040
      -0.256
      -0.525
      -0.760
      -0.953
      -1.086
      -1.146
      -1.119
      -1.004
      -0.809
      -0.556
      -0.270
       0.016
       0.269
       0.458
       0.562
       0.570
       0.481
       0.306
       0.063
      -0.221
      -0.515
      -0.784
      -0.992
      -1.110
      -1.118
      -1.021
      -0.843
      -0.626
      -0.413
      -0.238
      -0.115
      -0.045
      -0.014
      -0.007
      -0.011
      -0.017
      -0.015
       0.008
       0.060
       0.141
       0.244
       0.361
       0.487
       0.623
       0.765
       0.904
       1.028
       1.126
       1.190
       1.219
       1.220
       1.202
       1.176
       1.149
       1.115
       1.066
       0.994
       0.894
       0.771
       0.630
       0.482
       0.337
       0.202
       0.088
      -0.001
      -0.061
      -0.089
      -0.085
      -0.049
       0.023
       0.133
       0.284
       0.475
       0.696
       0.930
       1.158
       1.364
       1.531
       1.646
       1.694
       1.663
       1.548
       1.348
       1.072
       0.739
       0.377
       0.026
      -0.273
      -0.488
      -0.602
      -0.614
      -0.540
      -0.406
      -0.246
      -0.101
      -0.004
       0.016
      -0.050
      -0.196
      -0.401
      -0.637
      -0.882
      -1.121
      -1.348
      -1.557
      -1.743
      -1.901
      -2.027
      -2.119
      -2.174
      -2.189
      -2.158
      -2.075
      -1.932
      -1.725
      -1.463
      -1.164
      -0.853
      -0.553
      -0.282
      -0.055
       0.120
       0.232
       0.278
       0.265
       0.215
       0.152
       0.100
       0.072
       0.072
       0.090
       0.109
       0.099
       0.037
      -0.093
      -0.290
      -0.541
      -0.825
      -1.120
      -1.404
      -1.660
      -1.877
      -2.053
      -2.190
      -2.290
      -2.350
      -2.366
      -2.337
      -2.263
      -2.151
      -2.009
      -1.850
      -1.684
      -1.517
      -1.351
      -1.181
      -1.000
      -0.807
      -0.600
      -0.377
      -0.131
       0.151
       0.480
       0.858
       1.275
       1.710
       2.131
       2.508
       2.808
       3.007
       3.090
       3.050
       2.888
       2.611
       2.227
       1.754
       1.223
       0.678
       0.168
      -0.268
      -0.600
      -0.815
      -0.908
      -0.883
      -0.760
      -0.568
      -0.342
      -0.118
       0.077
       0.223
       0.313
       0.354
       0.366
       0.371
       0.382
       0.404
       0.433
       0.462
       0.484
       0.495
       0.499
       0.504
       0.521
       0.560
       0.624
       0.708
       0.802
       0.887
       0.944
       0.955
       0.910
       0.816
       0.693
       0.566
       0.455
       0.376
       0.340
       0.357
       0.430
       0.553
       0.709
       0.878
       1.035
       1.150
       1.191
       1.125
       0.935
       0.618
       0.194
      -0.301
      -0.816
      -1.300
      -1.703
      -1.989
      -2.135
      -2.135
      -1.995
      -1.730
      -1.369
      -0.948
      -0.512
      -0.101
       0.248
       0.509
       0.669
       0.727
       0.695
       0.594
       0.445
       0.272
       0.088
      -0.094
      -0.267
      -0.422
      -0.553
      -0.659
      -0.748
      -0.831
      -0.912
      -0.980
      -1.011
      -0.987
      -0.904
      -0.776
      -0.626
      -0.474
      -0.332
      -0.204
      -0.085
       0.036
       0.176
       0.353
       0.577
       0.848
       1.153
       1.469
       1.762
       1.995
       2.130
       2.142
       2.016
       1.753
       1.372
       0.904
       0.392
      -0.118
      -0.576
      -0.934
      -1.149
      -1.190
      -1.045
      -0.723
      -0.258
       0.302
       0.899
       1.470
       1.952
       2.291
       2.455
       2.432
       2.236
       1.898
       1.464
       0.983
       0.501
       0.046
      -0.370
      -0.744
      -1.075
      -1.361
      -1.596
      -1.780
      -1.914
      -1.999
      -2.028
      -1.997
      -1.898
      -1.729
      -1.494
      -1.207
      -0.891
      -0.576
      -0.288
      -0.047
       0.133
       0.246
       0.291
       0.269
       0.184
       0.041
      -0.150
      -0.373
      -0.608
      -0.833
      -1.033
      -1.200
      -1.322
      -1.387
      -1.375
      -1.276
      -1.089
      -0.825
      -0.503
      -0.142
       0.235
       0.611
       0.968
       1.291
       1.564
       1.771
       1.900
       1.948
       1.923
       1.839
       1.715
       1.567
       1.416
       1.281
       1.184
       1.148
       1.189
       1.316
       1.524
       1.785
       2.062
       2.312
       2.505
       2.625
       2.662
       2.615
       2.487
       2.294
       2.056
       1.794
       1.522
       1.252
       0.987
       0.725
       0.459
       0.184
      -0.099
      -0.386
      -0.672
      -0.951
      -1.221
      -1.473
      -1.698
      -1.891
      -2.052
      -2.180
      -2.281
      -2.365
      -2.450
      -2.564
      -2.732
      -2.963
      -3.253
      -3.588
      -3.951
      -4.329
      -4.708
      -5.076
      -5.420
      -5.729
      -5.988
      -6.176
      -6.277
      -6.274
      -6.159
      -5.925
      -5.563
      -5.073
      -4.466
      -3.766
      -3.009
      -2.230
      -1.460
      -0.720
      -0.030
       0.588
       1.113
       1.520
       1.789
       1.907
       1.877
       1.716
       1.458
       1.147
       0.826
       0.536
       0.306
       0.154
       0.088
       0.109
       0.209
       0.373
       0.578
       0.801
       1.023
       1.230
       1.412
       1.569
       1.704
       1.833
       1.969
       2.126
       2.307
       2.508
       2.718
       2.922
       3.098
       3.225
       3.290
       3.295
       3.250
       3.169
       3.060
       2.926
       2.768
       2.583
       2.363
       2.099
       1.791
       1.449
       1.097
       0.769
       0.500
       0.318
       0.245
       0.289
       0.448
       0.709
       1.042
       1.402
       1.734
       1.989
       2.140
       2.184
       2.134
       2.009
       1.825
       1.596
       1.337
       1.064
       0.795
       0.543
       0.321
       0.143
       0.031
       0.001
       0.060
       0.202
       0.413
       0.678
       0.983
       1.315
       1.658
       1.992
       2.286
       2.508
       2.625
       2.621
       2.489
       2.241
       1.895
       1.476
       1.008
       0.515
       0.021
      -0.451
      -0.880
      -1.247
      -1.533
      -1.725
      -1.817
      -1.811
      -1.716
      -1.552
      -1.343
      -1.115
      -0.887
      -0.669
      -0.457
      -0.237
       0.010
       0.298
       0.636
       1.013
       1.409
       1.796
       2.144
       2.425
       2.604
       2.648
       2.528
       2.231
       1.762
       1.146
       0.420
      -0.363
      -1.145
      -1.869
      -2.492
      -2.989
      -3.349
      -3.573
      -3.675
      -3.676
      -3.597
      -3.449
      -3.234
      -2.949
      -2.592
      -2.172
      -1.712
      -1.249
      -0.831
      -0.508
      -0.325
      -0.304
      -0.442
      -0.713
      -1.078
      -1.494
      -1.919
      -2.315
      -2.650
      -2.893
      -3.019
      -3.011
      -2.866
      -2.598
      -2.230
      -1.787
      -1.298
      -0.784
      -0.266
       0.238
       0.712
       1.136
       1.484
       1.732
       1.853
       1.833
       1.668
       1.371
       0.966
       0.489
      -0.021
      -0.528
      -1.005
      -1.442
      -1.830
      -2.161
      -2.414
      -2.564
      -2.584
      -2.462
      -2.201
      -1.835
      -1.411
      -0.988
      -0.616
      -0.328
      -0.138
      -0.043
      -0.029
      -0.070
      -0.136
      -0.194
      -0.219
      -0.192
      -0.099
       0.066
       0.300
       0.590
       0.918
       1.262
       1.604
       1.928
       2.226
       2.493
       2.732
       2.945
       3.132
       3.285
       3.387
       3.422
       3.382
       3.275
       3.125
       2.962
       2.817
       2.706
       2.632
       2.580
       2.528
       2.451
       2.325
       2.131
       1.864
       1.537
       1.174
       0.802
       0.440
       0.099
      -0.215
      -0.496
      -0.734
      -0.924
      -1.058
      -1.133
      -1.144
      -1.085
      -0.959
      -0.772
      -0.541
      -0.289
      -0.049
       0.150
       0.289
       0.357
       0.351
       0.275
       0.143
      -0.017
      -0.174
      -0.298
      -0.373
      -0.398
      -0.379
      -0.325
      -0.246
      -0.152
      -0.053
       0.042
       0.127
       0.200
       0.260
       0.304
       0.330
       0.331
       0.298
       0.226
       0.112
      -0.044
      -0.238
      -0.470
      -0.732
      -1.011
      -1.286
      -1.534
      -1.738
      -1.886
      -1.978
      -2.018
      -2.025
      -2.024
      -2.046
      -2.113
      -2.238
      -2.414
      -2.620
      -2.826
      -3.004
      -3.134
      -3.205
      -3.210
      -3.148
      -3.025
      -2.855
      -2.664
      -2.475
      -2.298
      -2.134
      -1.973
      -1.802
      -1.612
      -1.401
      -1.182
      -0.973
      -0.803
      -0.693
      -0.658
      -0.702
      -0.823
      -1.017
      -1.276
      -1.582
      -1.909
      -2.220
      -2.474
      -2.627
      -2.638
      -2.476
      -2.127
      -1.603
      -0.933
      -0.162
       0.663
       1.495
       2.285
       2.991
       3.578
       4.027
       4.330
       4.494
       4.540
       4.505
       4.425
       4.332
       4.243
       4.172
       4.132
       4.136
       4.184
       4.272
       4.393
       4.545
       4.725
       4.921
       5.106
       5.246
       5.311
       5.281
       5.153
       4.927
       4.608
       4.205
       3.728
       3.196
       2.631
       2.050
       1.465
       0.878
       0.296
      -0.261
      -0.762
      -1.175
      -1.475
      -1.647
      -1.683
      -1.579
      -1.339
      -0.982
      -0.550
      -0.094
       0.332
       0.684
       0.931
       1.058
       1.067
       0.975
       0.805
       0.582
       0.326
       0.049
      -0.240
      -0.537
      -0.840
      -1.146
      -1.446
      -1.724
      -1.959
      -2.133
      -2.237
      -2.277
      -2.268
      -2.229
      -2.184
      -2.159
      -2.181
      -2.270
      -2.432
      -2.654
      -2.912
      -3.172
      -3.399
      -3.555
      -3.604
      -3.519
      -3.296
      -2.954
      -2.529
      -2.059
      -1.581
      -1.128
      -0.734
      -0.429
      -0.233
      -0.159
      -0.210
      -0.385
      -0.671
      -1.041
      -1.455
      -1.865
      -2.223
      -2.486
      -2.621
      -2.607
      -2.445
      -2.155
      -1.776
      -1.348
      -0.912
      -0.501
      -0.138
       0.160
       0.389
