Origin Time       21/9/2009 8:53:04	  UTC
Lat.              27.3 N	
Long.             91.5 E	
Depth (Km)          8.0
Magnitude         6.2
 Region           BHUTAN                                                           
 Above details taken from IMD 
    
Station Code      GTK
Station Lat.       27.352  N
Station Long.      88.627  E
Station Height(m) 1536.0
Site Class        A   Vs30 between 700 m/sec to 1400 m/sec * 
Record Time       21.09.2009 08:54:12.334 UTC
Sampling Rate     200. Hz
 Record Duration   74.640 Sec.
 Direction         N-S (N positive)
Max. Acceleration      4.820 cm/sec**2
     
  * For reference see Site Classification link of website 
     
 Base Line Corrected and Low Pass Filtered (Cut Off at 35 Hz) Time History
 Acceleration data in cm/sec**2
    
[...]
      -0.924
      -0.912
      -0.910
      -0.923
      -0.953
      -1.008
      -1.095
      -1.216
      -1.366
      -1.532
      -1.702
      -1.863
      -2.003
      -2.106
      -2.157
      -2.138
      -2.033
      -1.824
      -1.498
      -1.053
      -0.511
       0.088
       0.693
       1.253
       1.725
       2.080
       2.303
       2.392
       2.356
       2.219
       2.011
       1.761
       1.489
       1.208
       0.923
       0.644
       0.384
       0.151
      -0.051
      -0.228
      -0.386
      -0.529
      -0.656
      -0.768
      -0.867
      -0.956
      -1.032
      -1.086
      -1.105
      -1.075
      -0.986
      -0.838
      -0.636
      -0.390
      -0.115
       0.179
       0.482
       0.786
       1.079
       1.347
       1.578
       1.764
       1.898
       1.981
       2.018
       2.021
       2.004
       1.985
       1.972
       1.968
       1.970
       1.971
       1.964
       1.940
       1.891
       1.812
       1.704
       1.570
       1.407
       1.208
       0.958
       0.646
       0.270
      -0.162
      -0.631
      -1.112
      -1.580
      -2.016
      -2.409
      -2.751
      -3.040
      -3.266
      -3.414
      -3.462
      -3.387
      -3.179
      -2.840
      -2.397
      -1.886
      -1.353
      -0.841
      -0.389
      -0.031
       0.214
       0.345
       0.373
       0.323
       0.224
       0.101
      -0.021
      -0.124
      -0.195
      -0.232
      -0.239
      -0.228
      -0.216
      -0.225
      -0.270
      -0.359
      -0.495
      -0.675
      -0.896
      -1.151
      -1.428
      -1.705
      -1.961
      -2.183
      -2.363
      -2.501
      -2.596
      -2.645
      -2.651
      -2.620
      -2.563
      -2.483
      -2.380
      -2.247
      -2.076
      -1.858
      -1.583
      -1.243
      -0.837
      -0.372
       0.124
       0.611
       1.044
       1.379
       1.588
       1.652
       1.570
       1.353
       1.031
       0.646
       0.244
      -0.132
      -0.448
      -0.682
      -0.822
      -0.862
      -0.802
      -0.656
      -0.450
      -0.224
      -0.024
       0.119
       0.188
       0.185
       0.126
       0.028
      -0.087
      -0.194
      -0.267
      -0.291
      -0.258
      -0.176
      -0.061
       0.071
       0.211
       0.360
       0.521
       0.690
       0.854
       0.999
       1.110
       1.178
       1.201
       1.178
       1.109
       0.991
       0.829
       0.634
       0.428
       0.233
       0.071
      -0.044
      -0.109
      -0.127
      -0.110
      -0.072
      -0.030
       0.004
       0.016
      -0.006
      -0.073
      -0.193
      -0.365
      -0.580
      -0.815
      -1.044
      -1.234
      -1.351
      -1.363
      -1.251
      -1.009
      -0.644
      -0.182
       0.346
       0.896
       1.419
       1.870
       2.212
       2.425
       2.501
       2.448
       2.286
       2.049
       1.772
       1.486
       1.215
       0.975
       0.781
       0.645
       0.570
       0.550
       0.574
       0.636
       0.732
       0.858
       1.007
       1.170
       1.335
       1.492
       1.625
       1.718
       1.758
       1.738
       1.658
       1.526
       1.355
       1.165
       0.975
       0.800
       0.654
       0.547
       0.491
       0.485
       0.518
       0.565
       0.600
       0.602
       0.559
       0.465
       0.320
       0.128
      -0.103
      -0.358
      -0.621
      -0.867
      -1.071
      -1.214
      -1.291
      -1.306
      -1.269
      -1.192
      -1.086
      -0.967
      -0.852
      -0.754
      -0.680
      -0.626
      -0.581
      -0.533
      -0.476
      -0.411
      -0.343
      -0.280
      -0.233
      -0.213
      -0.230
      -0.295
      -0.414
      -0.595
      -0.837
      -1.125
      -1.429
      -1.710
      -1.929
      -2.064
      -2.103
      -2.047
      -1.904
      -1.683
      -1.394
      -1.043
      -0.638
      -0.191
       0.280
       0.747
       1.181
       1.549
       1.818
       1.967
       1.994
       1.916
       1.763
       1.563
       1.336
       1.090
       0.830
       0.553
       0.260
      -0.048
      -0.371
      -0.706
      -1.048
      -1.385
      -1.698
      -1.962
      -2.146
      -2.220
      -2.161
      -1.960
      -1.618
      -1.152
      -0.591
       0.021
       0.635
       1.206
       1.699
       2.092
       2.372
       2.534
       2.580
       2.518
       2.363
       2.129
       1.826
       1.464
       1.050
       0.596
       0.124
      -0.341
      -0.771
      -1.141
      -1.431
      -1.627
      -1.716
      -1.694
      -1.565
      -1.348
      -1.074
      -0.781
      -0.503
      -0.258
      -0.050
       0.134
       0.314
       0.503
       0.710
       0.933
       1.168
       1.408
       1.642
       1.859
       2.042
       2.178
       2.260
       2.291
       2.277
       2.226
       2.149
       2.058
       1.968
       1.895
       1.852
       1.845
       1.868
       1.903
       1.924
       1.900
       1.807
       1.633
       1.380
       1.064
       0.711
       0.350
       0.005
      -0.309
      -0.586
      -0.826
      -1.035
      -1.219
      -1.388
      -1.548
      -1.699
      -1.836
      -1.953
      -2.045
      -2.110
      -2.140
      -2.131
      -2.069
      -1.942
      -1.739
      -1.456
      -1.100
      -0.691
      -0.262
       0.147
       0.497
       0.753
       0.891
       0.904
       0.799
       0.596
       0.323
       0.009
      -0.318
      -0.635
      -0.923
      -1.173
      -1.386
      -1.569
      -1.735
      -1.890
      -2.036
      -2.168
      -2.280
      -2.368
      -2.428
      -2.460
      -2.464
      -2.442
      -2.388
      -2.297
      -2.163
      -1.994
      -1.804
      -1.608
      -1.417
      -1.237
      -1.072
      -0.923
      -0.783
      -0.636
      -0.464
      -0.248
       0.022
       0.350
       0.731
       1.158
       1.624
       2.117
       2.619
       3.106
       3.552
       3.929
       4.214
       4.398
       4.482
       4.478
       4.401
       4.259
       4.053
       3.783
       3.457
       3.084
       2.679
       2.254
       1.816
       1.375
       0.949
       0.560
       0.236
       0.001
      -0.129
      -0.145
      -0.049
       0.151
       0.442
       0.802
       1.199
       1.591
       1.931
       2.176
       2.298
       2.296
       2.195
       2.035
       1.856
       1.692
       1.565
       1.481
       1.435
       1.416
       1.407
       1.391
       1.349
       1.272
       1.154
       0.999
       0.815
       0.606
       0.376
       0.122
      -0.153
      -0.447
      -0.749
      -1.051
      -1.352
      -1.663
      -1.996
      -2.356
      -2.728
      -3.081
      -3.377
      -3.584
      -3.676
      -3.641
      -3.474
      -3.178
      -2.764
      -2.251
      -1.667
      -1.045
      -0.417
       0.182
       0.720
       1.169
       1.507
       1.727
       1.829
       1.827
       1.747
       1.628
       1.505
       1.406
       1.334
       1.273
       1.201
       1.105
       0.983
       0.849
       0.723
       0.617
       0.537
       0.471
       0.401
       0.303
       0.152
      -0.068
      -0.363
      -0.719
      -1.107
      -1.495
      -1.852
      -2.156
      -2.392
      -2.542
      -2.585
      -2.506
      -2.299
      -1.971
      -1.534
      -1.005
      -0.402
       0.245
       0.899
       1.517
       2.063
       2.516
       2.870
       3.123
       3.278
       3.330
       3.273
       3.103
       2.832
       2.490
       2.124
       1.784
       1.509
       1.323
       1.227
       1.210
       1.253
       1.332
       1.422
       1.495
       1.527
       1.504
       1.419
       1.270
       1.057
       0.783
       0.453
       0.079
      -0.323
      -0.735
      -1.138
      -1.514
      -1.846
      -2.125
      -2.349
      -2.521
      -2.647
      -2.739
      -2.809
      -2.873
      -2.947
      -3.044
      -3.171
      -3.325
      -3.493
      -3.653
      -3.777
      -3.846
      -3.848
      -3.778
      -3.633
      -3.415
      -3.134
      -2.814
      -2.485
      -2.178
      -1.910
      -1.682
      -1.482
      -1.295
      -1.104
      -0.897
      -0.660
      -0.384
      -0.072
       0.262
       0.590
       0.882
       1.113
       1.265
       1.335
       1.329
       1.267
       1.176
       1.089
       1.034
       1.026
       1.067
       1.143
       1.235
       1.328
       1.410
       1.472
       1.499
       1.476
       1.392
       1.245
       1.041
       0.790
       0.502
       0.188
      -0.139
      -0.469
      -0.791
      -1.094
      -1.367
      -1.602
      -1.793
      -1.938
      -2.030
      -2.055
      -1.996
      -1.836
      -1.566
      -1.188
      -0.712
      -0.156
       0.454
       1.086
       1.703
       2.266
       2.741
       3.093
       3.292
       3.319
       3.171
       2.862
       2.419
       1.877
       1.276
       0.651
       0.036
      -0.540
      -1.047
      -1.458
      -1.754
      -1.928
      -1.986
      -1.941
      -1.810
      -1.616
      -1.392
      -1.172
      -0.984
      -0.840
      -0.733
      -0.647
      -0.569
      -0.490
      -0.406
      -0.318
      -0.233
      -0.162
      -0.115
      -0.096
      -0.100
      -0.113
      -0.108
      -0.058
       0.062
       0.266
       0.551
       0.900
       1.287
       1.677
       2.036
       2.330
       2.537
       2.646
       2.647
       2.536
       2.308
       1.970
       1.549
       1.086
       0.634
       0.242
      -0.054
      -0.237
      -0.308
      -0.273
      -0.146
       0.056
       0.308
       0.576
       0.827
       1.032
       1.166
       1.211
       1.149
       0.970
       0.681
       0.306
      -0.115
      -0.537
      -0.915
      -1.210
      -1.387
      -1.427
      -1.332
      -1.124
      -0.842
      -0.530
      -0.227
       0.031
       0.218
       0.318
       0.328
       0.258
       0.128
      -0.030
      -0.186
      -0.315
      -0.394
      -0.411
      -0.348
      -0.195
       0.048
       0.361
       0.703
       1.021
       1.270
       1.415
       1.441
       1.347
       1.148
       0.869
       0.542
       0.198
      -0.137
      -0.445
      -0.713
      -0.937
      -1.118
      -1.255
      -1.346
      -1.386
      -1.376
      -1.321
      -1.233
      -1.127
      -1.026
      -0.950
      -0.912
      -0.916
      -0.957
      -1.020
      -1.091
      -1.154
      -1.198
      -1.216
      -1.205
      -1.160
      -1.076
      -0.947
      -0.769
      -0.549
      -0.301
      -0.042
       0.208
       0.434
       0.623
       0.772
       0.882
       0.957
       1.000
       1.015
       1.007
       0.979
       0.938
       0.891
       0.840
       0.788
       0.739
       0.700
       0.682
       0.697
       0.748
       0.834
       0.944
       1.063
       1.175
       1.272
       1.350
       1.408
       1.446
       1.464
       1.464
       1.449
       1.421
       1.372
       1.287
       1.147
       0.945
       0.691
       0.405
       0.109
      -0.181
      -0.443
      -0.653
      -0.792
      -0.856
      -0.855
      -0.814
      -0.749
      -0.666
      -0.560
      -0.427
      -0.274
      -0.115
       0.028
       0.137
       0.197
       0.202
       0.151
       0.052
      -0.082
      -0.235
      -0.387
      -0.518
      -0.613
      -0.661
      -0.658
      -0.604
      -0.505
      -0.369
      -0.206
      -0.027
       0.154
       0.317
       0.440
       0.501
       0.488
       0.403
       0.261
       0.087
      -0.091
      -0.247
      -0.362
      -0.427
      -0.441
      -0.407
      -0.330
      -0.212
      -0.060
       0.117
       0.300
       0.464
       0.580
       0.622
       0.576
       0.442
       0.241
       0.007
      -0.222
      -0.411
      -0.539
      -0.601
      -0.600
      -0.546
      -0.455
      -0.339
      -0.208
      -0.071
       0.068
       0.201
       0.319
       0.413
       0.471
       0.486
       0.452
       0.368
       0.240
       0.077
      -0.108
      -0.297
      -0.472
      -0.612
      -0.699
      -0.722
      -0.677
      -0.568
      -0.406
      -0.202
       0.027
       0.266
       0.500
       0.714
       0.893
       1.024
       1.090
       1.079
       0.983
       0.804
       0.553
       0.248
      -0.089
      -0.435
      -0.768
      -1.061
      -1.286
      -1.415
      -1.427
      -1.309
      -1.059
      -0.687
      -0.219
       0.301
       0.813
       1.258
       1.585
       1.758
       1.764
       1.607
       1.310
       0.899
       0.396
      -0.182
      -0.819
      -1.481
      -2.122
      -2.684
      -3.114
      -3.375
      -3.455
      -3.364
      -3.126
      -2.777
      -2.352
      -1.882
      -1.396
      -0.918
      -0.474
      -0.089
       0.210
       0.399
       0.459
       0.386
       0.203
      -0.048
      -0.313
      -0.542
      -0.704
      -0.785
      -0.786
      -0.718
      -0.598
      -0.438
      -0.251
      -0.042
       0.186
       0.434
       0.700
       0.979
       1.271
       1.581
       1.923
       2.307
       2.738
       3.200
       3.664
       4.096
       4.458
       4.711
       4.820
       4.756
       4.509
       4.095
       3.555
       2.949
       2.340
       1.783
       1.316
       0.963
       0.737
       0.636
       0.643
       0.718
       0.813
       0.876
       0.864
       0.749
       0.523
       0.202
      -0.177
      -0.562
      -0.901
      -1.147
      -1.271
      -1.265
      -1.144
      -0.944
      -0.708
      -0.476
      -0.275
      -0.123
      -0.032
      -0.009
      -0.055
      -0.151
      -0.265
      -0.358
      -0.395
      -0.357
      -0.243
      -0.072
       0.123
       0.304
       0.430
       0.469
       0.402
       0.226
      -0.044
      -0.380
      -0.749
      -1.113
      -1.439
      -1.695
      -1.857
      -1.907
      -1.838
      -1.656
      -1.383
      -1.056
      -0.722
      -0.435
      -0.242
      -0.177
      -0.251
      -0.461
      -0.782
      -1.178
      -1.603
      -2.009
      -2.356
      -2.609
      -2.742
      -2.738
      -2.591
      -2.305
      -1.901
      -1.412
      -0.875
      -0.329
       0.197
       0.679
       1.102
       1.454
       1.730
       1.933
       2.066
       2.134
       2.135
       2.057
       1.887
       1.615
       1.240
       0.781
       0.266
      -0.262
      -0.759
      -1.182
      -1.496
      -1.685
      -1.745
      -1.690
      -1.544
      -1.336
      -1.098
      -0.853
      -0.621
      -0.410
      -0.224
      -0.057
       0.098
       0.252
       0.420
       0.614
       0.844
       1.112
       1.412
       1.724
       2.024
       2.284
       2.482
       2.605
       2.647
       2.612
       2.504
       2.335
       2.119
       1.873
       1.611
       1.332
       1.027
       0.679
       0.278
      -0.173
      -0.658
      -1.156
      -1.640
      -2.083
      -2.455
      -2.730
      -2.889
      -2.924
      -2.838
      -2.640
      -2.347
      -1.981
      -1.578
      -1.181
      -0.834
      -0.569
      -0.407
      -0.359
      -0.426
      -0.592
      -0.833
      -1.125
      -1.445
      -1.772
      -2.088
      -2.374
      -2.616
      -2.809
      -2.953
      -3.044
      -3.070
      -3.010
      -2.848
      -2.578
      -2.206
      -1.752
      -1.243
      -0.713
      -0.196
       0.274
       0.669
       0.974
       1.181
       1.291
       1.313
       1.260
       1.154
       1.019
       0.881
       0.756
       0.653
       0.573
       0.511
       0.457
       0.403
       0.341
       0.269
       0.193
       0.123
       0.069
       0.039
       0.036
       0.059
       0.102
       0.146
       0.170
       0.153
       0.084
      -0.041
      -0.214
      -0.424
      -0.654
      -0.888
      -1.109
      -1.300
      -1.451
      -1.556
      -1.616
      -1.634
      -1.615
      -1.562
      -1.480
      -1.373
      -1.247
      -1.110
      -0.969
      -0.825
      -0.675
      -0.513
      -0.339
      -0.161
       0.011
       0.160
       0.269
       0.323
       0.315
       0.250
       0.150
       0.046
      -0.032
      -0.065
      -0.051
       0.002
       0.077
       0.159
       0.234
       0.293
       0.330
       0.343
       0.336
       0.320
       0.303
       0.293
       0.288
       0.289
       0.295
       0.306
       0.319
       0.329
       0.323
       0.291
       0.229
       0.144
       0.049
      -0.034
      -0.087
      -0.091
      -0.032
       0.099
       0.301
       0.566
       0.873
       1.196
       1.507
       1.780
       1.993
       2.131
       2.188
       2.161
       2.056
       1.877
       1.632
       1.336
       1.006
       0.667
       0.347
       0.076
      -0.117
      -0.215
      -0.215
      -0.130
       0.011
       0.172
       0.315
       0.408
       0.421
       0.328
       0.115
      -0.220
      -0.658
      -1.166
      -1.702
      -2.229
      -2.711
      -3.113
      -3.402
      -3.544
      -3.514
      -3.300
      -2.912
      -2.388
      -1.785
      -1.174
      -0.617
      -0.166
       0.148
       0.313
       0.343
       0.268
       0.130
      -0.034
      -0.200
      -0.358
      -0.504
      -0.636
      -0.745
      -0.825
      -0.874
      -0.898
      -0.909
      -0.919
      -0.931
      -0.940
      -0.931
      -0.885
      -0.780
      -0.591
      -0.301
       0.097
       0.583
       1.117
       1.644
       2.117
       2.500
       2.776
       2.938
       2.986
       2.925
       2.768
       2.534
       2.247
       1.934
       1.617
       1.319
       1.058
       0.845
       0.686
       0.585
       0.541
       0.547
       0.593
       0.666
       0.754
       0.849
       0.948
       1.050
       1.157
       1.275
       1.408
       1.557
       1.709
       1.843
       1.930
       1.944
       1.867
       1.697
       1.444
       1.131
       0.779
       0.413
       0.056
      -0.271
      -0.555
      -0.790
      -0.981
      -1.134
      -1.256
      -1.353
      -1.423
      -1.462
      -1.465
      -1.427
      -1.349
      -1.236
      -1.095
      -0.938
      -0.773
      -0.613
      -0.466
      -0.339
      -0.237
      -0.164
      -0.125
      -0.132
      -0.197
      -0.330
      -0.534
      -0.801
      -1.114
      -1.448
      -1.773
      -2.063
      -2.304
      -2.493
      -2.630
      -2.715
      -2.746
      -2.717
      -2.627
      -2.483
      -2.301
      -2.095
      -1.881
      -1.673
      -1.479
      -1.305
      -1.150
      -1.011
      -0.877
      -0.739
      -0.587
      -0.415
      -0.221
      -0.011
       0.205
       0.416
       0.610
       0.777
       0.904
       0.982
       1.004
       0.973
       0.901
       0.806
       0.704
       0.604
       0.509
       0.419
       0.337
       0.272
