Origin Time       21/9/2009 9:43:47	  UTC
Lat.              30.9 N	
Long.             79.1 E	
Depth (Km)         13.0
Magnitude         4.7
 Region           UTTARKASHI-UTTARAKHAND                                           
 Above details taken from IMD 
    
Station Code      GAR
Station Lat.       30.051  N
Station Long.      79.588  E
Station Height(m) 1638.0
Site Class        A   Vs30 between 700 m/sec to 1400 m/sec * 
Record Time       21.09.2009 09:43:54.384 UTC
Sampling Rate     200. Hz
 Record Duration   81.270 Sec.
 Direction         N-S (N positive)
Max. Acceleration    -15.671 cm/sec**2
     
  * For reference see Site Classification link of website 
     
 Base Line Corrected and Low Pass Filtered (Cut Off at 35 Hz) Time History
 Acceleration data in cm/sec**2
    
[...]
       0.718
       0.520
       0.266
       0.038
      -0.127
      -0.252
      -0.384
      -0.551
      -0.743
      -0.934
      -1.102
      -1.233
      -1.314
      -1.337
      -1.300
      -1.217
      -1.098
      -0.926
      -0.659
      -0.266
       0.226
       0.728
       1.117
       1.306
       1.283
       1.123
       0.952
       0.878
       0.930
       1.046
       1.121
       1.096
       0.980
       0.822
       0.643
       0.420
       0.122
      -0.247
      -0.632
      -0.963
      -1.182
      -1.270
      -1.246
      -1.157
      -1.055
      -0.977
      -0.927
      -0.885
      -0.813
      -0.677
      -0.458
      -0.172
       0.134
       0.406
       0.608
       0.738
       0.808
       0.834
       0.826
       0.798
       0.773
       0.771
       0.791
       0.796
       0.720
       0.506
       0.152
      -0.261
      -0.616
      -0.834
      -0.938
      -1.022
      -1.139
      -1.224
      -1.137
      -0.802
      -0.302
       0.157
       0.393
       0.373
       0.230
       0.156
       0.266
       0.534
       0.827
       1.015
       1.049
       0.962
       0.817
       0.659
       0.504
       0.363
       0.253
       0.179
       0.120
       0.034
      -0.125
      -0.375
      -0.695
      -1.028
      -1.294
      -1.412
      -1.324
      -1.017
      -0.550
      -0.038
       0.395
       0.670
       0.786
       0.795
       0.763
       0.738
       0.754
       0.824
       0.943
       1.073
       1.153
       1.122
       0.946
       0.622
       0.167
      -0.377
      -0.928
      -1.376
      -1.626
      -1.660
      -1.540
      -1.356
      -1.168
      -0.986
      -0.787
      -0.544
      -0.242
       0.108
       0.458
       0.752
       0.954
       1.082
       1.178
       1.264
       1.309
       1.263
       1.106
       0.868
       0.615
       0.395
       0.205
      -0.019
      -0.341
      -0.766
      -1.211
      -1.557
      -1.733
      -1.761
      -1.716
      -1.650
      -1.550
      -1.363
      -1.062
      -0.679
      -0.279
       0.087
       0.411
       0.704
       0.965
       1.175
       1.315
       1.387
       1.398
       1.344
       1.202
       0.964
       0.669
       0.378
       0.118
      -0.154
      -0.501
      -0.914
      -1.282
      -1.462
      -1.394
      -1.146
      -0.861
      -0.652
      -0.532
      -0.432
      -0.273
      -0.044
       0.196
       0.368
       0.441
       0.447
       0.453
       0.504
       0.597
       0.703
       0.798
       0.875
       0.929
       0.941
       0.877
       0.715
       0.468
       0.187
      -0.064
      -0.242
      -0.337
      -0.373
      -0.385
      -0.408
      -0.462
      -0.545
      -0.618
      -0.617
      -0.495
      -0.266
      -0.012
       0.161
       0.214
       0.206
       0.251
       0.414
       0.647
       0.814
       0.786
       0.534
       0.151
      -0.201
      -0.385
      -0.357
      -0.176
       0.053
       0.244
       0.363
       0.413
       0.412
       0.363
       0.246
       0.039
      -0.245
      -0.532
      -0.705
      -0.677
      -0.460
      -0.170
       0.039
       0.072
      -0.068
      -0.300
      -0.518
      -0.642
      -0.634
      -0.498
      -0.273
      -0.012
       0.225
       0.393
       0.464
       0.422
       0.273
       0.047
      -0.182
      -0.320
      -0.294
      -0.095
       0.205
       0.482
       0.618
       0.546
       0.285
      -0.071
      -0.397
      -0.590
      -0.627
      -0.568
      -0.509
      -0.512
      -0.569
      -0.635
      -0.691
      -0.755
      -0.826
      -0.826
      -0.642
      -0.238
       0.260
       0.626
       0.679
       0.414
       0.000
      -0.327
      -0.403
      -0.204
       0.168
       0.559
       0.843
       0.965
       0.935
       0.787
       0.550
       0.249
      -0.069
      -0.329
      -0.444
      -0.370
      -0.138
       0.159
       0.418
       0.580
       0.632
       0.593
       0.495
       0.388
       0.334
       0.379
       0.514
       0.671
       0.758
       0.711
       0.511
       0.185
      -0.215
      -0.622
      -0.956
      -1.137
      -1.117
      -0.907
      -0.576
      -0.227
       0.048
       0.197
       0.228
       0.203
       0.206
       0.277
       0.369
       0.388
       0.264
       0.028
      -0.204
      -0.305
      -0.220
      -0.004
       0.215
       0.312
       0.227
      -0.014
      -0.334
      -0.658
      -0.934
      -1.132
      -1.224
      -1.184
      -1.004
      -0.706
      -0.340
       0.033
       0.366
       0.632
       0.826
       0.956
       1.034
       1.062
       1.033
       0.945
       0.812
       0.664
       0.522
       0.378
       0.199
      -0.040
      -0.328
      -0.621
      -0.873
      -1.070
      -1.238
      -1.405
      -1.572
      -1.695
      -1.707
      -1.548
      -1.188
      -0.635
       0.050
       0.736
       1.263
       1.516
       1.506
       1.363
       1.245
       1.234
       1.307
       1.375
       1.372
       1.298
       1.203
       1.123
       1.039
       0.890
       0.632
       0.266
      -0.155
      -0.570
      -0.931
      -1.220
      -1.442
      -1.615
      -1.747
      -1.822
      -1.804
      -1.673
      -1.440
      -1.143
      -0.811
      -0.447
      -0.037
       0.411
       0.853
       1.218
       1.440
       1.492
       1.398
       1.226
       1.047
       0.909
       0.813
       0.728
       0.613
       0.452
       0.265
       0.085
      -0.065
      -0.195
      -0.331
      -0.494
      -0.673
      -0.832
      -0.922
      -0.914
      -0.837
      -0.770
      -0.786
      -0.890
      -1.000
      -1.004
      -0.830
      -0.494
      -0.084
       0.293
       0.583
       0.806
       1.020
       1.251
       1.452
       1.529
       1.414
       1.115
       0.716
       0.338
       0.080
      -0.028
      -0.040
      -0.062
      -0.183
      -0.421
      -0.719
      -0.994
      -1.195
      -1.324
      -1.403
      -1.441
      -1.422
      -1.321
      -1.134
      -0.883
      -0.601
      -0.323
      -0.078
       0.116
       0.259
       0.377
       0.498
       0.635
       0.771
       0.887
       0.991
       1.111
       1.269
       1.436
       1.531
       1.462
       1.208
       0.838
       0.470
       0.181
      -0.036
      -0.237
      -0.456
      -0.662
      -0.785
      -0.778
      -0.658
      -0.498
      -0.378
      -0.335
      -0.355
      -0.402
      -0.454
      -0.508
      -0.561
      -0.593
      -0.560
      -0.417
      -0.139
       0.244
       0.636
       0.912
       0.973
       0.803
       0.479
       0.134
      -0.102
      -0.156
      -0.035
       0.187
       0.412
       0.563
       0.608
       0.563
       0.476
       0.394
       0.338
       0.289
       0.203
       0.043
      -0.194
      -0.467
      -0.709
      -0.857
      -0.877
      -0.772
      -0.567
      -0.291
       0.014
       0.276
       0.393
       0.273
      -0.103
      -0.646
      -1.175
      -1.488
      -1.457
      -1.085
      -0.496
       0.145
       0.704
       1.108
       1.319
       1.323
       1.135
       0.819
       0.476
       0.208
       0.069
       0.039
       0.036
      -0.018
      -0.143
      -0.290
      -0.389
      -0.421
      -0.430
      -0.484
      -0.619
      -0.809
      -0.991
      -1.100
      -1.094
      -0.960
      -0.705
      -0.357
       0.027
       0.361
       0.554
       0.563
       0.435
       0.303
       0.305
       0.504
       0.854
       1.242
       1.565
       1.755
       1.761
       1.532
       1.044
       0.365
      -0.343
      -0.892
      -1.182
      -1.252
      -1.222
      -1.196
      -1.194
      -1.159
      -1.039
      -0.851
      -0.670
      -0.557
      -0.481
      -0.328
      -0.001
       0.486
       0.997
       1.372
       1.523
       1.467
       1.281
       1.048
       0.817
       0.607
       0.410
       0.207
      -0.020
      -0.276
      -0.552
      -0.824
      -1.059
      -1.221
      -1.281
      -1.225
      -1.066
      -0.843
      -0.611
      -0.424
      -0.303
      -0.229
      -0.149
      -0.003
       0.235
       0.545
       0.870
       1.130
       1.250
       1.181
       0.939
       0.616
       0.347
       0.232
       0.269
       0.355
       0.371
       0.264
       0.078
      -0.077
      -0.103
       0.028
       0.247
       0.419
       0.431
       0.267
       0.016
      -0.195
      -0.288
      -0.272
      -0.209
      -0.157
      -0.129
      -0.106
      -0.075
      -0.051
      -0.067
      -0.128
      -0.201
      -0.233
      -0.199
      -0.126
      -0.067
      -0.062
      -0.102
      -0.136
      -0.107
       0.001
       0.153
       0.283
       0.347
       0.350
       0.333
       0.332
       0.349
       0.362
       0.350
       0.293
       0.167
      -0.050
      -0.339
      -0.620
      -0.795
      -0.826
      -0.786
      -0.798
      -0.912
      -1.058
      -1.111
      -1.013
      -0.815
      -0.617
      -0.469
      -0.338
      -0.156
       0.089
       0.322
       0.428
       0.354
       0.158
      -0.020
      -0.061
       0.054
       0.244
       0.395
       0.430
       0.345
       0.180
      -0.017
      -0.213
      -0.390
      -0.536
      -0.645
      -0.715
      -0.749
      -0.756
      -0.735
      -0.681
      -0.587
      -0.455
      -0.292
      -0.104
       0.108
       0.349
       0.614
       0.877
       1.094
       1.232
       1.288
       1.287
       1.241
       1.130
       0.923
       0.617
       0.256
      -0.083
      -0.325
      -0.429
      -0.404
      -0.307
      -0.217
      -0.196
      -0.255
      -0.354
      -0.435
      -0.466
      -0.474
      -0.533
      -0.698
      -0.937
      -1.119
      -1.088
      -0.780
      -0.269
       0.276
       0.701
       0.943
       1.018
       0.966
       0.812
       0.579
       0.316
       0.101
       0.002
       0.038
       0.163
       0.298
       0.366
       0.326
       0.191
       0.037
      -0.028
       0.073
       0.343
       0.703
       1.039
       1.270
       1.363
       1.332
       1.214
       1.060
       0.927
       0.850
       0.828
       0.827
       0.809
       0.755
       0.667
       0.541
       0.362
       0.140
      -0.068
      -0.189
      -0.203
      -0.184
      -0.253
      -0.472
      -0.779
      -1.025
      -1.073
      -0.890
      -0.553
      -0.191
       0.106
       0.320
       0.494
       0.691
       0.952
       1.263
       1.546
       1.686
       1.599
       1.295
       0.874
       0.463
       0.133
      -0.107
      -0.274
      -0.372
      -0.389
      -0.324
      -0.203
      -0.074
       0.019
       0.056
       0.052
       0.054
       0.112
       0.246
       0.425
       0.570
       0.608
       0.510
       0.314
       0.085
      -0.125
      -0.318
      -0.535
      -0.835
      -1.261
      -1.815
      -2.442
      -3.047
      -3.529
      -3.827
      -3.937
      -3.903
      -3.778
      -3.587
      -3.314
      -2.923
      -2.400
      -1.771
      -1.091
      -0.394
       0.326
       1.106
       1.952
       2.804
       3.529
       3.980
       4.061
       3.767
       3.173
       2.373
       1.439
       0.408
      -0.695
      -1.835
      -2.959
      -3.997
      -4.859
      -5.458
      -5.752
      -5.772
      -5.614
      -5.373
      -5.086
      -4.705
      -4.129
      -3.257
      -2.039
      -0.497
       1.283
       3.155
       4.933
       6.415
       7.436
       7.935
       7.977
       7.717
       7.292
       6.727
       5.932
       4.800
       3.342
       1.717
       0.161
      -1.145
      -2.139
      -2.858
      -3.365
      -3.690
      -3.819
      -3.734
      -3.456
      -3.038
      -2.524
      -1.887
      -1.035
       0.104
       1.498
       2.982
       4.331
       5.363
       6.001
       6.251
       6.138
       5.671
       4.855
       3.749
       2.486
       1.229
       0.089
      -0.918
      -1.859
      -2.824
      -3.868
      -5.002
      -6.192
      -7.351
      -8.325
      -8.900
      -8.876
      -8.171
      -6.889
      -5.284
      -3.637
      -2.128
      -0.795
       0.420
       1.580
       2.691
       3.712
       4.596
       5.325
       5.892
       6.251
       6.312
       6.001
       5.328
       4.424
       3.487
       2.692
       2.099
       1.630
       1.115
       0.401
      -0.556
      -1.665
      -2.772
      -3.742
      -4.497
      -4.981
      -5.115
      -4.803
      -3.989
      -2.718
      -1.156
       0.450
       1.836
       2.791
       3.207
       3.102
       2.598
       1.873
       1.094
       0.385
      -0.175
      -0.539
      -0.694
      -0.676
      -0.582
      -0.532
      -0.607
      -0.802
      -1.045
      -1.258
      -1.418
      -1.561
      -1.730
      -1.910
      -1.993
      -1.799
      -1.151
       0.041
       1.710
       3.633
       5.502
       7.051
       8.137
       8.741
       8.889
       8.592
       7.852
       6.699
       5.231
       3.596
       1.931
       0.301
      -1.340
      -3.114
      -5.136
      -7.421
      -9.831
     -12.108
     -13.962
     -15.178
     -15.671
     -15.464
     -14.634
     -13.274
     -11.491
      -9.426
      -7.252
      -5.115
      -3.076
      -1.089
       0.955
       3.152
       5.519
       7.959
      10.278
      12.248
      13.695
      14.552
      14.849
      14.661
      14.058
      13.079
      11.762
      10.153
       8.301
       6.239
       3.977
       1.533
      -1.040
      -3.631
      -6.066
      -8.112
      -9.511
     -10.066
      -9.723
      -8.596
      -6.911
      -4.902
      -2.765
      -0.659
       1.247
       2.772
       3.761
       4.170
       4.112
       3.829
       3.606
       3.660
       4.071
       4.773
       5.577
       6.224
       6.448
       6.053
       4.947
       3.147
       0.775
      -1.959
      -4.754
      -7.255
      -9.145
     -10.240
     -10.551
     -10.256
      -9.609
      -8.837
      -8.077
      -7.366
      -6.677
      -5.959
      -5.177
      -4.328
      -3.446
      -2.577
      -1.739
      -0.896
       0.021
       1.065
       2.213
       3.365
       4.371
       5.076
       5.342
       5.059
       4.188
       2.820
       1.221
      -0.221
      -1.155
      -1.409
      -1.035
      -0.245
       0.707
       1.600
       2.262
       2.564
       2.439
       1.935
       1.236
       0.615
       0.314
       0.433
       0.905
       1.569
       2.272
       2.932
       3.534
       4.085
       4.564
       4.898
       4.980
       4.711
       4.058
       3.080
       1.920
       0.743
      -0.310
      -1.160
      -1.771
      -2.119
      -2.177
      -1.920
      -1.364
      -0.593
       0.246
       0.972
       1.421
       1.499
       1.219
       0.703
       0.126
      -0.380
      -0.787
      -1.161
      -1.568
      -1.988
      -2.304
      -2.388
      -2.222
      -1.938
      -1.739
      -1.761
      -1.988
      -2.268
      -2.412
      -2.300
      -1.934
      -1.410
      -0.844
      -0.312
       0.163
       0.579
       0.929
       1.194
       1.350
       1.350
       1.136
       0.674
       0.013
      -0.696
      -1.247
      -1.471
      -1.318
      -0.882
      -0.348
       0.078
       0.250
       0.121
      -0.266
      -0.821
      -1.459
      -2.115
      -2.726
      -3.207
      -3.442
      -3.319
      -2.771
      -1.831
      -0.646
       0.553
       1.532
       2.138
       2.338
       2.199
       1.844
       1.416
       1.044
       0.804
       0.675
       0.550
       0.318
      -0.035
      -0.404
      -0.650
      -0.703
      -0.598
      -0.424
      -0.235
      -0.003
       0.361
       0.941
       1.757
       2.759
       3.868
       5.000
       6.065
       6.931
       7.412
       7.316
       6.512
       4.989
       2.872
       0.402
      -2.101
      -4.308
      -5.952
      -6.891
      -7.132
      -6.805
      -6.118
      -5.302
      -4.562
      -4.045
      -3.822
      -3.882
      -4.138
      -4.438
      -4.610
      -4.491
      -3.965
      -2.982
      -1.571
       0.156
       2.028
       3.855
       5.469
       6.754
       7.642
       8.101
       8.127
       7.781
       7.208
       6.592
       6.045
       5.526
       4.875
       3.942
       2.699
       1.243
      -0.282
      -1.778
      -3.231
      -4.658
      -6.034
      -7.240
      -8.093
      -8.444
      -8.267
      -7.685
      -6.902
      -6.092
      -5.322
      -4.548
      -3.692
      -2.711
      -1.613
      -0.425
       0.832
       2.140
       3.447
       4.664
       5.712
       6.564
       7.261
       7.851
       8.328
       8.605
       8.562
       8.126
       7.308
       6.171
       4.753
       3.038
       1.005
      -1.302
      -3.729
      -6.054
      -8.064
      -9.612
     -10.618
     -11.038
     -10.859
     -10.139
      -9.042
      -7.777
      -6.480
      -5.137
      -3.657
      -1.999
      -0.231
       1.540
       3.266
       4.979
       6.715
       8.426
       9.960
      11.113
      11.693
      11.565
      10.664
       9.020
       6.770
       4.149
       1.440
      -1.110
      -3.348
      -5.219
      -6.731
      -7.904
      -8.762
      -9.326
      -9.621
      -9.671
      -9.485
      -9.046
      -8.306
      -7.205
      -5.720
      -3.893
      -1.821
       0.392
       2.663
       4.914
       7.041
       8.892
      10.280
      11.046
      11.101
      10.465
       9.251
       7.641
       5.828
       3.975
       2.184
       0.512
      -0.994
      -2.283
      -3.320
      -4.131
      -4.786
      -5.352
      -5.835
      -6.171
      -6.258
      -6.012
      -5.417
      -4.531
      -3.451
      -2.250
      -0.951
       0.437
       1.852
       3.151
       4.168
       4.806
       5.075
       5.056
       4.824
       4.389
       3.713
       2.774
       1.624
       0.403
      -0.700
      -1.523
      -1.996
      -2.166
      -2.159
      -2.104
      -2.073
      -2.070
      -2.059
      -1.995
      -1.829
      -1.510
      -0.991
      -0.260
       0.652
       1.666
       2.681
       3.596
       4.321
       4.784
       4.927
       4.723
       4.178
       3.317
       2.164
       0.741
      -0.887
      -2.560
      -4.035
      -5.083
      -5.616
      -5.729
      -5.630
      -5.489
      -5.335
      -5.065
      -4.556
      -3.779
      -2.833
      -1.873
      -1.006
      -0.244
       0.447
       1.069
       1.555
       1.820
       1.845
       1.728
       1.660
       1.823
       2.280
       2.947
       3.631
       4.129
       4.305
       4.124
       3.637
       2.933
       2.088
       1.150
       0.162
      -0.795
      -1.576
      -2.015
      -2.013
      -1.606
      -0.948
      -0.230
       0.397
       0.851
       1.109
