Origin Time       20/06/2011 06:27:18
Lat.              30.5 N	
Long.             79.4 E	
Depth (Km)         12.0
Magnitude         4.6
 Region           Chamoli-Uttarakhand                                              
 Above details taken from IMD 
   
Station Code      GAR
Station Lat.       30.051
Station Long.      79.288
Station Height(m) 1614.0
Site Class        A   Vs30 between 700 m/sec to 1400 m/sec * 
Record Time       20.06.2011 06:27:20.569
Sampling Rate     200. Hz
 Record Duration   70.330 Sec.
 Direction         Vert. (Up positive)
Max. Acceleration     -5.064 cm/sec**2
     
  * For reference see Site Classification link of website 
     
 Base Line Corrected and Low Pass Filtered (Cut Off at 35 Hz) Time History
 Acceleration data in cm/sec**2
    
[...]
       0.212
       0.257
       0.179
      -0.030
      -0.317
      -0.577
      -0.708
      -0.693
      -0.612
      -0.569
      -0.598
      -0.655
      -0.667
      -0.581
      -0.375
      -0.061
       0.306
       0.627
       0.805
       0.798
       0.651
       0.473
       0.362
       0.345
       0.375
       0.381
       0.329
       0.227
       0.091
      -0.065
      -0.222
      -0.350
      -0.425
      -0.445
      -0.417
      -0.341
      -0.213
      -0.049
       0.104
       0.188
       0.187
       0.146
       0.139
       0.200
       0.304
       0.396
       0.454
       0.499
       0.558
       0.616
       0.632
       0.584
       0.478
       0.325
       0.107
      -0.189
      -0.520
      -0.776
      -0.853
      -0.752
      -0.590
      -0.505
      -0.545
      -0.638
      -0.663
      -0.543
      -0.280
       0.043
       0.305
       0.405
       0.326
       0.152
       0.023
       0.044
       0.228
       0.489
       0.713
       0.829
       0.842
       0.793
       0.706
       0.569
       0.379
       0.158
      -0.074
      -0.310
      -0.541
      -0.715
      -0.773
      -0.702
      -0.564
      -0.436
      -0.351
      -0.281
      -0.172
      -0.001
       0.198
       0.349
       0.388
       0.294
       0.095
      -0.151
      -0.368
      -0.479
      -0.437
      -0.271
      -0.080
       0.019
      -0.026
      -0.167
      -0.302
      -0.346
      -0.280
      -0.139
       0.023
       0.150
       0.202
       0.174
       0.106
       0.047
       0.012
      -0.027
      -0.091
      -0.147
      -0.126
       0.009
       0.206
       0.350
       0.354
       0.228
       0.068
      -0.020
      -0.005
       0.052
       0.054
      -0.065
      -0.285
      -0.504
      -0.584
      -0.418
      -0.005
       0.519
       0.931
       1.046
       0.823
       0.395
      -0.036
      -0.323
      -0.422
      -0.369
      -0.221
      -0.043
       0.096
       0.143
       0.105
       0.043
       0.017
       0.035
       0.054
       0.040
       0.014
       0.016
       0.042
       0.029
      -0.077
      -0.259
      -0.437
      -0.534
      -0.528
      -0.440
      -0.309
      -0.173
      -0.068
      -0.022
      -0.044
      -0.119
      -0.199
      -0.224
      -0.157
      -0.008
       0.174
       0.343
       0.479
       0.580
       0.647
       0.684
       0.703
       0.713
       0.698
       0.624
       0.465
       0.227
      -0.053
      -0.323
      -0.529
      -0.616
      -0.541
      -0.308
      -0.005
       0.222
       0.260
       0.119
      -0.067
      -0.143
      -0.043
       0.177
       0.399
       0.524
       0.519
       0.412
       0.268
       0.157
       0.118
       0.141
       0.174
       0.159
       0.077
      -0.045
      -0.159
      -0.252
      -0.349
      -0.479
      -0.636
      -0.767
      -0.824
      -0.801
      -0.735
      -0.660
      -0.573
      -0.454
      -0.301
      -0.139
       0.009
       0.149
       0.296
       0.429
       0.491
       0.442
       0.316
       0.210
       0.196
       0.261
       0.320
       0.294
       0.170
      -0.015
      -0.214
      -0.392
      -0.518
      -0.569
      -0.559
      -0.543
      -0.575
      -0.639
      -0.648
      -0.511
      -0.211
       0.176
       0.537
       0.788
       0.903
       0.905
       0.833
       0.728
       0.628
       0.569
       0.562
       0.578
       0.553
       0.422
       0.155
      -0.217
      -0.605
      -0.884
      -0.972
      -0.903
      -0.829
      -0.894
      -1.084
      -1.208
      -1.053
      -0.575
       0.065
       0.635
       0.993
       1.128
       1.100
       0.978
       0.827
       0.705
       0.645
       0.632
       0.608
       0.523
       0.381
       0.243
       0.167
       0.146
       0.107
      -0.023
      -0.257
      -0.538
      -0.787
      -0.945
      -0.999
      -0.986
      -0.971
      -0.998
      -1.045
      -1.030
      -0.860
      -0.503
      -0.029
       0.410
       0.666
       0.698
       0.588
       0.459
       0.375
       0.312
       0.234
       0.151
       0.103
       0.099
       0.101
       0.073
       0.016
      -0.032
      -0.044
      -0.028
      -0.017
      -0.022
      -0.008
       0.082
       0.269
       0.504
       0.690
       0.758
       0.712
       0.610
       0.497
       0.373
       0.215
       0.011
      -0.225
      -0.475
      -0.720
      -0.933
      -1.083
      -1.145
      -1.098
      -0.917
      -0.594
      -0.175
       0.229
       0.503
       0.604
       0.571
       0.476
       0.365
       0.253
       0.147
       0.046
      -0.080
      -0.273
      -0.528
      -0.747
      -0.771
      -0.492
       0.060
       0.712
       1.221
       1.389
       1.157
       0.633
       0.047
      -0.359
      -0.452
      -0.260
       0.053
       0.289
       0.335
       0.220
       0.082
       0.042
       0.102
       0.149
       0.067
      -0.170
      -0.484
      -0.772
      -0.962
      -1.008
      -0.884
      -0.602
      -0.243
       0.071
       0.257
       0.327
       0.357
       0.407
       0.466
       0.482
       0.419
       0.289
       0.139
       0.016
      -0.056
      -0.074
      -0.062
      -0.062
      -0.119
      -0.237
      -0.362
      -0.411
      -0.344
      -0.203
      -0.080
      -0.049
      -0.107
      -0.183
      -0.188
      -0.060
       0.210
       0.582
       0.968
       1.248
       1.317
       1.152
       0.826
       0.456
       0.131
      -0.114
      -0.268
      -0.321
      -0.287
      -0.242
      -0.304
      -0.540
      -0.898
      -1.205
      -1.271
      -1.019
      -0.547
      -0.067
       0.233
       0.297
       0.204
       0.080
       0.019
       0.053
       0.178
       0.363
       0.530
       0.563
       0.369
      -0.027
      -0.463
      -0.723
      -0.661
      -0.282
       0.260
       0.728
       0.911
       0.733
       0.289
      -0.218
      -0.608
      -0.820
      -0.897
      -0.890
      -0.804
      -0.629
      -0.400
      -0.194
      -0.068
      -0.005
       0.059
       0.174
       0.345
       0.541
       0.717
       0.829
       0.840
       0.739
       0.550
       0.329
       0.145
       0.053
       0.080
       0.205
       0.366
       0.473
       0.429
       0.181
      -0.234
      -0.678
      -0.981
      -1.042
      -0.889
      -0.646
      -0.443
      -0.348
      -0.346
      -0.375
      -0.347
      -0.173
       0.193
       0.697
       1.158
       1.357
       1.178
       0.702
       0.156
      -0.233
      -0.379
      -0.353
      -0.290
      -0.287
      -0.363
      -0.484
      -0.600
      -0.656
      -0.595
      -0.394
      -0.112
       0.120
       0.179
       0.031
      -0.249
      -0.532
      -0.683
      -0.598
      -0.243
       0.313
       0.905
       1.348
       1.534
       1.461
       1.199
       0.822
       0.393
      -0.016
      -0.308
      -0.398
      -0.286
      -0.092
       0.012
      -0.082
      -0.350
      -0.685
      -0.990
      -1.228
      -1.391
      -1.457
      -1.393
      -1.194
      -0.898
      -0.558
      -0.194
       0.226
       0.746
       1.357
       1.963
       2.408
       2.531
       2.250
       1.608
       0.781
       0.012
      -0.514
      -0.752
      -0.791
      -0.773
      -0.814
      -0.956
      -1.165
      -1.334
      -1.336
      -1.103
      -0.693
      -0.272
      -0.004
       0.082
       0.118
       0.290
       0.657
       1.091
       1.381
       1.410
       1.240
       1.026
       0.869
       0.743
       0.536
       0.173
      -0.311
      -0.785
      -1.115
      -1.251
      -1.238
      -1.173
      -1.140
      -1.171
      -1.233
      -1.234
      -1.067
      -0.682
      -0.141
       0.385
       0.716
       0.773
       0.618
       0.415
       0.333
       0.476
       0.840
       1.310
       1.699
       1.848
       1.722
       1.426
       1.112
       0.852
       0.605
       0.288
      -0.134
      -0.631
      -1.143
      -1.609
      -1.952
      -2.085
      -1.970
      -1.648
      -1.205
      -0.710
      -0.199
       0.280
       0.655
       0.867
       0.925
       0.887
       0.810
       0.705
       0.554
       0.349
       0.128
      -0.039
      -0.098
      -0.048
       0.065
       0.180
       0.250
       0.235
       0.099
      -0.165
      -0.493
      -0.767
      -0.879
      -0.814
      -0.670
      -0.589
      -0.653
      -0.832
      -1.007
      -1.058
      -0.926
      -0.622
      -0.193
       0.296
       0.773
       1.171
       1.442
       1.573
       1.587
       1.531
       1.461
       1.401
       1.325
       1.154
       0.799
       0.233
      -0.447
      -1.044
      -1.371
      -1.381
      -1.180
      -0.924
      -0.687
      -0.458
      -0.231
      -0.074
      -0.077
      -0.237
      -0.421
      -0.456
      -0.267
       0.075
       0.424
       0.674
       0.784
       0.758
       0.619
       0.427
       0.275
       0.214
       0.190
       0.078
      -0.204
      -0.609
      -0.999
      -1.231
      -1.225
      -0.985
      -0.595
      -0.189
       0.111
       0.260
       0.309
       0.342
       0.411
       0.495
       0.533
       0.482
       0.345
       0.171
       0.034
      -0.008
       0.040
       0.088
       0.020
      -0.210
      -0.514
      -0.713
      -0.665
      -0.362
       0.069
       0.465
       0.729
       0.867
       0.943
       1.000
       1.018
       0.958
       0.828
       0.699
       0.628
       0.601
       0.560
       0.480
       0.396
       0.337
       0.269
       0.121
      -0.136
      -0.444
      -0.699
      -0.832
      -0.857
      -0.846
      -0.867
      -0.932
      -1.001
      -1.020
      -0.969
      -0.871
      -0.778
      -0.741
      -0.781
      -0.858
      -0.879
      -0.768
      -0.548
      -0.332
      -0.223
      -0.215
      -0.198
      -0.055
       0.252
       0.665
       1.082
       1.424
       1.680
       1.906
       2.165
       2.453
       2.669
       2.645
       2.236
       1.421
       0.355
      -0.684
      -1.416
      -1.692
      -1.548
      -1.167
      -0.779
      -0.532
      -0.443
      -0.428
      -0.413
      -0.395
      -0.426
      -0.544
      -0.728
      -0.911
      -1.016
      -0.981
      -0.801
      -0.558
      -0.410
      -0.481
      -0.761
      -1.107
      -1.354
      -1.438
      -1.409
      -1.380
      -1.447
      -1.652
      -1.935
      -2.131
      -2.028
      -1.490
      -0.586
       0.415
       1.200
       1.613
       1.732
       1.765
       1.859
       2.007
       2.107
       2.098
       2.008
       1.899
       1.794
       1.671
       1.501
       1.269
       0.966
       0.597
       0.197
      -0.170
      -0.451
      -0.654
      -0.827
      -0.991
      -1.108
      -1.107
      -0.945
      -0.640
      -0.245
       0.171
       0.545
       0.809
       0.901
       0.797
       0.536
       0.209
      -0.100
      -0.372
      -0.641
      -0.933
      -1.227
      -1.489
      -1.726
      -1.973
      -2.233
      -2.430
      -2.433
      -2.154
      -1.614
      -0.946
      -0.319
       0.155
       0.449
       0.608
       0.710
       0.842
       1.062
       1.343
       1.562
       1.564
       1.277
       0.799
       0.344
       0.097
       0.091
       0.215
       0.346
       0.453
       0.600
       0.847
       1.165
       1.434
       1.512
       1.339
       1.013
       0.751
       0.745
       1.004
       1.340
       1.515
       1.429
       1.164
       0.888
       0.712
       0.639
       0.606
       0.557
       0.499
       0.483
       0.560
       0.731
       0.933
       1.064
       1.028
       0.792
       0.408
      -0.001
      -0.328
      -0.547
      -0.730
      -0.972
      -1.328
      -1.779
      -2.256
      -2.674
      -2.951
      -3.024
      -2.876
      -2.566
      -2.216
      -1.936
      -1.713
      -1.398
      -0.835
      -0.028
       0.815
       1.440
       1.718
       1.691
       1.469
       1.128
       0.694
       0.198
      -0.283
      -0.645
      -0.805
      -0.755
      -0.566
      -0.334
      -0.126
       0.034
       0.140
       0.229
       0.397
       0.761
       1.344
       2.013
       2.542
       2.770
       2.688
       2.415
       2.118
       1.954
       2.009
       2.246
       2.492
       2.515
       2.141
       1.333
       0.190
      -1.102
      -2.328
      -3.285
      -3.835
      -3.962
      -3.785
      -3.498
      -3.244
      -3.026
      -2.725
      -2.233
      -1.567
      -0.877
      -0.350
      -0.106
      -0.152
      -0.390
      -0.655
      -0.762
      -0.589
      -0.156
       0.376
       0.788
       0.922
       0.755
       0.391
      -0.013
      -0.346
      -0.599
      -0.832
      -1.088
      -1.302
      -1.322
      -1.000
      -0.304
       0.659
       1.686
       2.563
       3.145
       3.417
       3.497
       3.547
       3.652
       3.750
       3.698
       3.397
       2.866
       2.224
       1.606
       1.088
       0.657
       0.231
      -0.272
      -0.880
      -1.568
      -2.293
      -3.024
      -3.730
      -4.355
      -4.826
      -5.064
      -5.008
      -4.639
      -4.019
      -3.292
      -2.624
      -2.138
      -1.867
      -1.758
      -1.685
      -1.473
      -0.991
      -0.243
       0.602
       1.340
       1.873
       2.250
       2.558
       2.809
       2.946
       2.934
       2.789
       2.541
       2.182
       1.702
       1.155
       0.663
       0.332
       0.174
       0.127
       0.132
       0.202
       0.386
       0.712
       1.139
       1.558
       1.810
       1.722
       1.186
       0.257
      -0.827
      -1.749
      -2.305
      -2.500
      -2.492
      -2.423
      -2.329
      -2.175
      -1.967
      -1.777
      -1.691
      -1.726
      -1.830
      -1.925
      -1.943
      -1.813
      -1.478
      -0.936
      -0.257
       0.455
       1.101
       1.589
       1.819
       1.730
       1.359
       0.849
       0.366
       0.013
      -0.176
      -0.178
       0.047
       0.517
       1.158
       1.805
       2.270
       2.438
       2.315
       2.015
       1.689
       1.440
       1.262
       1.075
       0.811
       0.481
       0.147
      -0.150
      -0.425
      -0.701
      -0.961
      -1.155
      -1.254
      -1.262
      -1.193
      -1.038
      -0.787
      -0.463
      -0.123
       0.186
       0.465
       0.752
       1.064
       1.360
       1.552
       1.561
       1.368
       1.028
       0.651
       0.354
       0.223
       0.270
       0.428
       0.592
       0.678
       0.665
       0.592
       0.523
       0.501
       0.522
       0.534
       0.476
       0.305
       0.007
      -0.424
      -0.993
      -1.687
      -2.453
      -3.191
      -3.758
      -3.985
      -3.731
      -2.989
      -1.961
      -0.988
      -0.343
      -0.036
       0.148
       0.428
       0.824
       1.180
       1.344
       1.305
       1.169
       1.033
       0.915
       0.790
       0.671
       0.635
       0.767
       1.072
       1.455
       1.788
       1.997
       2.080
       2.065
       1.960
       1.768
       1.520
       1.292
       1.175
       1.217
       1.367
       1.476
       1.364
       0.951
       0.334
      -0.268
      -0.683
      -0.891
      -1.000
      -1.103
      -1.197
      -1.229
      -1.194
      -1.167
      -1.220
      -1.330
      -1.375
      -1.228
      -0.865
      -0.402
      -0.042
       0.058
      -0.117
      -0.441
      -0.738
      -0.890
      -0.893
      -0.836
      -0.825
      -0.911
      -1.051
      -1.139
      -1.101
      -0.981
      -0.931
      -1.080
      -1.396
      -1.677
      -1.711
      -1.437
      -0.969
      -0.483
      -0.089
       0.201
       0.437
       0.705
       1.099
       1.659
       2.282
       2.735
       2.789
       2.388
       1.698
       1.011
       0.602
       0.604
       0.970
       1.493
       1.919
       2.066
       1.908
       1.560
       1.185
       0.898
       0.714
       0.577
       0.420
       0.196
      -0.124
      -0.540
      -1.002
      -1.413
      -1.680
      -1.802
      -1.888
      -2.086
      -2.470
      -3.005
      -3.587
      -4.107
      -4.470
      -4.590
      -4.401
      -3.905
      -3.198
      -2.445
      -1.790
      -1.274
      -0.832
      -0.376
       0.117
       0.589
       0.964
       1.222
       1.414
       1.619
       1.891
       2.211
       2.490
       2.602
       2.468
       2.139
       1.799
       1.647
       1.730
       1.896
       1.918
       1.678
       1.254
       0.847
       0.624
       0.620
       0.764
       0.954
       1.118
       1.205
       1.176
       1.013
       0.738
       0.397
       0.014
      -0.422
      -0.911
      -1.399
      -1.813
      -2.127
      -2.396
      -2.684
      -2.985
      -3.212
      -3.266
      -3.101
      -2.718
      -2.127
      -1.342
      -0.419
       0.510
       1.259
       1.681
       1.754
       1.581
       1.313
       1.059
       0.871
       0.777
       0.795
       0.907
       1.034
       1.068
       0.944
       0.675
       0.348
       0.073
      -0.064
      -0.046
       0.065
       0.175
       0.230
       0.253
       0.317
       0.468
       0.677
       0.864
       0.961
       0.946
       0.840
       0.669
       0.466
       0.263
       0.088
      -0.061
      -0.208
      -0.362
      -0.472
      -0.463
      -0.314
      -0.110
       0.002
      -0.072
      -0.298
      -0.529
      -0.622
      -0.541
      -0.358
      -0.156
       0.046
       0.283
       0.583
       0.914
       1.214
       1.421
       1.482
       1.351
       1.021
       0.572
       0.164
      -0.056
      -0.067
       0.020
       0.075
       0.078
       0.123
       0.290
       0.538
       0.722
       0.729
       0.567
       0.333
       0.106
      -0.114
      -0.378
      -0.722
      -1.124
      -1.506
      -1.773
      -1.879
      -1.856
      -1.794
      -1.767
      -1.778
      -1.771
      -1.682
      -1.481
      -1.182
      -0.823
      -0.429
       0.003
       0.484
       1.001
       1.486
       1.851
       2.034
       2.030
       1.877
       1.646
       1.429
       1.308
       1.298
       1.307
       1.181
       0.824
       0.282
      -0.272
      -0.653
      -0.771
      -0.645
      -0.366
      -0.051
       0.180
       0.233
       0.079
      -0.230
      -0.580
      -0.870
      -1.060
      -1.162
      -1.194
      -1.157
      -1.060
      -0.932
      -0.815
      -0.724
      -0.639
      -0.528
      -0.379
      -0.205
      -0.018
       0.191
       0.443
       0.732
       1.004
       1.182
       1.211
       1.083
       0.824
       0.480
       0.110
      -0.231
      -0.535
      -0.868
      -1.315
      -1.873
      -2.389
      -2.627
