Origin Time       14/03/2010 6:53:21	
Lat.              31.7 N	
Long.             76.1 E	
Depth (Km)         29.0
Magnitude         4.6
 Region           HIMACHAL-PUNJAB-(HOSHIARPUR)-BORDER                              
 Above details taken from IMD 
   
Station Code      GAR
Station Lat.       31.228
Station Long.      76.135
Station Height(m)  261.0
Site Class        C   Vs30 between 200 m/sec to 375 m/sec *  
Record Time       14.03.2010 06:53:23.174
Sampling Rate     200. Hz
 Record Duration   65.210 Sec.
 Direction         Vert. (Up positive)
Max. Acceleration     -6.019 cm/sec**2
     
  * For reference see Site Classification link of website 
     
 Base Line Corrected and Low Pass Filtered (Cut Off at 35 Hz) Time History
 Acceleration data in cm/sec**2
    
[...]
      -1.797
      -1.872
      -1.747
      -1.535
      -1.253
      -0.879
      -0.402
       0.188
       0.892
       1.644
       2.236
       2.384
       1.922
       0.976
      -0.070
      -0.810
      -1.052
      -0.875
      -0.509
      -0.157
       0.100
       0.307
       0.566
       0.938
       1.368
       1.669
       1.612
       1.086
       0.215
      -0.675
      -1.240
      -1.321
      -1.013
      -0.559
      -0.186
      -0.002
      -0.014
      -0.194
      -0.515
      -0.935
      -1.383
      -1.783
      -2.074
      -2.204
      -2.112
      -1.729
      -1.034
      -0.119
       0.823
       1.575
       1.996
       2.067
       1.866
       1.507
       1.084
       0.650
       0.252
      -0.020
      -0.051
       0.212
       0.663
       1.055
       1.171
       1.008
       0.769
       0.661
       0.663
       0.512
      -0.072
      -1.091
      -2.195
      -2.881
      -2.834
      -2.124
      -1.129
      -0.266
       0.232
       0.360
       0.242
       0.011
      -0.239
      -0.438
      -0.512
      -0.397
      -0.082
       0.373
       0.863
       1.303
       1.660
       1.942
       2.154
       2.274
       2.267
       2.112
       1.819
       1.412
       0.912
       0.334
      -0.300
      -0.944
      -1.504
      -1.863
      -1.943
      -1.779
      -1.527
      -1.392
      -1.499
      -1.807
      -2.129
      -2.246
      -2.037
      -1.556
      -0.992
      -0.558
      -0.356
      -0.296
      -0.140
       0.347
       1.225
       2.290
       3.160
       3.493
       3.187
       2.425
       1.537
       0.789
       0.264
      -0.098
      -0.365
      -0.530
      -0.552
      -0.469
      -0.423
      -0.559
      -0.906
      -1.333
      -1.649
      -1.734
      -1.601
      -1.349
      -1.059
      -0.724
      -0.288
       0.265
       0.841
       1.291
       1.541
       1.667
       1.813
       2.017
       2.121
       1.884
       1.203
       0.246
      -0.642
      -1.167
      -1.270
      -1.109
      -0.917
      -0.861
      -0.989
      -1.233
      -1.446
      -1.457
      -1.154
      -0.574
       0.084
       0.559
       0.701
       0.577
       0.406
       0.378
       0.505
       0.634
       0.603
       0.384
       0.117
       0.011
       0.218
       0.734
       1.372
       1.811
       1.760
       1.135
       0.157
      -0.762
      -1.266
      -1.271
      -0.990
      -0.751
      -0.779
      -1.074
      -1.448
      -1.641
      -1.443
      -0.808
       0.074
       0.825
       1.075
       0.729
       0.076
      -0.388
      -0.292
       0.361
       1.223
       1.856
       2.000
       1.682
       1.140
       0.640
       0.308
       0.092
      -0.141
      -0.462
      -0.812
      -1.046
      -1.040
      -0.769
      -0.338
       0.055
       0.189
      -0.065
      -0.642
      -1.272
      -1.611
      -1.430
      -0.759
       0.113
       0.794
       0.997
       0.703
       0.158
      -0.285
      -0.382
      -0.151
       0.144
       0.166
      -0.269
      -1.041
      -1.756
      -1.954
      -1.392
      -0.218
       1.091
       2.007
       2.229
       1.817
       1.102
       0.490
       0.241
       0.354
       0.593
       0.648
       0.336
      -0.281
      -0.921
      -1.246
      -1.041
      -0.333
       0.579
       1.247
       1.309
       0.722
      -0.168
      -0.827
      -0.870
      -0.302
       0.516
       1.129
       1.268
       0.952
       0.394
      -0.156
      -0.531
      -0.683
      -0.675
      -0.624
      -0.628
      -0.691
      -0.720
      -0.609
      -0.337
       0.003
       0.283
       0.418
       0.399
       0.261
       0.048
      -0.204
      -0.465
      -0.708
      -0.909
      -1.020
      -0.973
      -0.725
      -0.324
       0.094
       0.419
       0.675
       0.996
       1.450
       1.891
       2.002
       1.553
       0.609
      -0.492
      -1.383
      -1.864
      -1.928
      -1.640
      -1.087
      -0.415
       0.144
       0.390
       0.325
       0.182
       0.238
       0.558
       0.907
       0.939
       0.500
      -0.215
      -0.774
      -0.783
      -0.115
       1.039
       2.264
       3.105
       3.230
       2.570
       1.344
      -0.036
      -1.174
      -1.860
      -2.113
      -2.075
      -1.875
      -1.569
      -1.169
      -0.695
      -0.202
       0.232
       0.526
       0.591
       0.352
      -0.196
      -0.916
      -1.538
      -1.784
      -1.559
      -1.019
      -0.422
       0.103
       0.637
       1.290
       1.967
       2.345
       2.122
       1.287
       0.169
      -0.761
      -1.165
      -0.981
      -0.406
       0.227
       0.621
       0.653
       0.424
       0.171
       0.095
       0.222
       0.393
       0.396
       0.130
      -0.318
      -0.745
      -0.971
      -0.930
      -0.658
      -0.228
       0.280
       0.760
       1.074
       1.096
       0.789
       0.218
      -0.491
      -1.183
      -1.673
      -1.752
      -1.291
      -0.366
       0.702
       1.491
       1.723
       1.435
       0.927
       0.546
       0.464
       0.596
       0.685
       0.489
      -0.060
      -0.809
      -1.487
      -1.868
      -1.914
      -1.765
      -1.613
      -1.537
      -1.452
      -1.218
      -0.812
      -0.422
      -0.358
      -0.814
      -1.660
      -2.436
      -2.596
      -1.839
      -0.294
       1.548
       3.095
       3.930
       3.973
       3.475
       2.867
       2.505
       2.446
       2.416
       2.035
       1.160
       0.063
      -0.744
      -0.904
      -0.512
      -0.055
      -0.042
      -0.652
      -1.652
      -2.588
      -3.051
      -2.854
      -2.082
      -1.059
      -0.200
       0.217
       0.231
       0.165
       0.365
       0.914
       1.552
       1.891
       1.718
       1.174
       0.653
       0.538
       0.969
       1.792
       2.667
       3.210
       3.108
       2.227
       0.692
      -1.118
      -2.740
      -3.841
      -4.322
      -4.245
      -3.713
      -2.844
      -1.822
      -0.904
      -0.306
      -0.071
      -0.046
      -0.022
       0.108
       0.294
       0.420
       0.460
       0.538
       0.842
       1.463
       2.291
       3.040
       3.352
       2.958
       1.835
       0.295
      -1.107
      -1.867
      -1.846
      -1.369
      -0.997
      -1.118
      -1.674
      -2.237
      -2.358
      -1.916
      -1.163
      -0.491
      -0.127
      -0.043
      -0.083
      -0.136
      -0.165
      -0.161
      -0.112
      -0.039
       0.000
      -0.016
      -0.009
       0.159
       0.568
       1.134
       1.628
       1.804
       1.562
       1.033
       0.525
       0.339
       0.551
       0.972
       1.309
       1.401
       1.302
       1.165
       1.063
       0.918
       0.581
      -0.041
      -0.909
      -1.856
      -2.654
      -3.115
      -3.163
      -2.839
      -2.244
      -1.479
      -0.620
       0.263
       1.090
       1.744
       2.054
       1.838
       1.060
      -0.019
      -0.889
      -1.085
      -0.508
       0.500
       1.401
       1.808
       1.686
       1.319
       1.096
       1.276
       1.805
       2.312
       2.284
       1.370
      -0.348
      -2.311
      -3.727
      -4.011
      -3.118
      -1.555
      -0.046
       0.871
       1.068
       0.750
       0.237
      -0.230
      -0.546
      -0.704
      -0.752
      -0.746
      -0.711
      -0.609
      -0.343
       0.174
       0.918
       1.671
       2.087
       1.894
       1.116
       0.125
      -0.585
      -0.717
      -0.345
       0.216
       0.676
       0.929
       0.995
       0.887
       0.587
       0.126
      -0.382
      -0.806
      -1.085
      -1.228
      -1.227
      -1.038
      -0.681
      -0.330
      -0.243
      -0.566
      -1.180
      -1.762
      -2.002
      -1.791
      -1.246
      -0.600
      -0.052
       0.317
       0.556
       0.774
       1.029
       1.271
       1.378
       1.267
       0.971
       0.623
       0.371
       0.309
       0.453
       0.745
       1.045
       1.163
       0.963
       0.479
      -0.061
      -0.361
      -0.244
       0.230
       0.777
       1.017
       0.687
      -0.183
      -1.223
      -1.903
      -1.870
      -1.211
      -0.430
      -0.084
      -0.351
      -0.901
      -1.180
      -0.878
      -0.175
       0.439
       0.588
       0.296
      -0.099
      -0.279
      -0.204
      -0.072
      -0.104
      -0.340
      -0.624
      -0.711
      -0.407
       0.349
       1.433
       2.515
       3.106
       2.763
       1.405
      -0.514
      -2.158
      -2.772
      -2.148
      -0.739
       0.648
       1.354
       1.215
       0.553
      -0.117
      -0.432
      -0.354
      -0.114
      -0.015
      -0.237
      -0.751
      -1.340
      -1.729
      -1.736
      -1.359
      -0.726
       0.013
       0.760
       1.440
       1.931
       2.060
       1.690
       0.858
      -0.164
      -0.940
      -1.057
      -0.360
       0.899
       2.141
       2.781
       2.580
       1.783
       0.907
       0.348
       0.131
      -0.045
      -0.516
      -1.387
      -2.452
      -3.320
      -3.638
      -3.285
      -2.428
      -1.425
      -0.611
      -0.139
       0.041
       0.047
      -0.048
      -0.231
      -0.446
      -0.530
      -0.280
       0.374
       1.265
       2.057
       2.450
       2.343
       1.835
       1.109
       0.324
      -0.384
      -0.869
      -1.017
      -0.848
      -0.564
      -0.420
      -0.489
      -0.540
      -0.190
       0.743
       1.995
       2.950
       3.053
       2.200
       0.800
      -0.509
      -1.257
      -1.363
      -1.087
      -0.811
      -0.797
      -1.052
      -1.345
      -1.360
      -0.910
      -0.085
       0.758
       1.148
       0.744
      -0.445
      -1.990
      -3.190
      -3.420
      -2.491
      -0.803
       0.852
       1.730
       1.570
       0.732
      -0.051
      -0.160
       0.544
       1.692
       2.720
       3.244
       3.227
       2.889
       2.515
       2.330
       2.440
       2.761
       2.964
       2.554
       1.179
      -1.033
      -3.428
      -5.220
      -6.004
      -5.949
      -5.496
      -4.899
      -4.060
      -2.771
      -1.054
       0.747
       2.180
       2.952
       3.033
       2.586
       1.886
       1.277
       1.121
       1.637
       2.705
       3.803
       4.224
       3.490
       1.679
      -0.594
      -2.546
      -3.677
      -3.967
      -3.737
      -3.332
      -2.879
      -2.269
      -1.308
       0.093
       1.775
       3.310
       4.147
       3.860
       2.390
       0.141
      -2.152
      -3.745
      -4.233
      -3.701
      -2.612
      -1.485
      -0.592
       0.129
       0.898
       1.826
       2.776
       3.426
       3.473
       2.836
       1.743
       0.671
       0.089
       0.155
       0.548
       0.644
      -0.051
      -1.504
      -3.148
      -4.244
      -4.349
      -3.556
      -2.379
      -1.412
      -1.010
      -1.114
      -1.307
      -1.043
       0.032
       1.818
       3.710
       4.875
       4.758
       3.461
       1.710
       0.404
       0.075
       0.596
       1.303
       1.425
       0.546
      -1.137
      -2.894
      -3.836
      -3.407
      -1.703
       0.539
       2.304
       2.823
       1.987
       0.391
      -1.036
      -1.623
      -1.332
      -0.650
      -0.136
      -0.019
      -0.127
      -0.118
       0.221
       0.828
       1.407
       1.591
       1.135
       0.059
      -1.311
      -2.458
      -2.931
      -2.595
      -1.693
      -0.672
       0.090
       0.462
       0.535
       0.498
       0.515
       0.668
       0.935
       1.207
       1.351
       1.338
       1.323
       1.567
       2.202
       3.044
       3.622
       3.456
       2.382
       0.692
      -1.025
      -2.223
      -2.693
      -2.637
      -2.478
      -2.563
      -2.963
      -3.466
      -3.748
      -3.573
      -2.920
      -1.999
      -1.140
      -0.606
      -0.430
      -0.392
      -0.177
       0.400
       1.275
       2.225
       3.041
       3.632
       3.981
       4.049
       3.774
       3.168
       2.406
       1.765
       1.431
       1.342
       1.227
       0.813
       0.018
      -1.009
      -1.997
      -2.686
      -2.903
      -2.599
      -1.861
      -0.932
      -0.157
       0.163
      -0.068
      -0.679
      -1.352
      -1.845
      -2.146
      -2.421
      -2.821
      -3.290
      -3.556
      -3.303
      -2.397
      -0.997
       0.504
       1.680
       2.297
       2.438
       2.438
       2.639
       3.133
       3.688
       3.927
       3.627
       2.875
       1.996
       1.307
       0.938
       0.795
       0.654
       0.289
      -0.413
      -1.382
      -2.356
      -3.003
      -3.110
      -2.732
      -2.169
      -1.752
      -1.600
      -1.544
      -1.291
      -0.718
      -0.043
       0.308
       0.049
      -0.696
      -1.443
      -1.669
      -1.150
      -0.046
       1.233
       2.258
       2.760
       2.717
       2.355
       2.029
       1.999
       2.238
       2.420
       2.140
       1.229
      -0.048
      -1.085
      -1.290
      -0.517
       0.722
       1.470
       0.918
      -1.018
      -3.553
      -5.502
      -6.019
      -5.063
      -3.278
      -1.485
      -0.218
       0.418
       0.618
       0.691
       0.908
       1.377
       1.958
       2.323
       2.189
       1.561
       0.768
       0.238
       0.214
       0.635
       1.224
       1.675
       1.787
       1.501
       0.878
       0.056
      -0.793
      -1.500
      -1.946
      -2.088
      -1.952
      -1.583
      -0.994
      -0.177
       0.819
       1.816
       2.565
       2.867
       2.669
       2.045
       1.146
       0.166
      -0.655
      -1.087
      -1.022
      -0.574
      -0.052
       0.203
       0.025
      -0.483
      -1.044
      -1.405
      -1.484
      -1.351
      -1.136
      -0.970
      -0.983
      -1.263
      -1.748
      -2.165
      -2.155
      -1.541
      -0.510
       0.499
       1.125
       1.348
       1.440
       1.637
       1.862
       1.779
       1.150
       0.140
      -0.762
      -1.146
      -1.017
      -0.753
      -0.740
      -1.047
      -1.418
      -1.517
      -1.161
      -0.373
       0.714
       1.909
       2.958
       3.570
       3.550
       2.955
       2.113
       1.433
       1.142
       1.156
       1.197
       1.030
       0.626
       0.131
      -0.255
      -0.387
      -0.229
       0.108
       0.354
       0.167
      -0.653
      -1.979
      -3.340
      -4.151
      -4.027
      -2.991
      -1.463
      -0.063
       0.666
       0.518
      -0.264
      -1.112
      -1.469
      -1.131
      -0.352
       0.377
       0.701
       0.618
       0.400
       0.323
       0.502
       0.907
       1.450
       2.002
       2.346
       2.248
       1.634
       0.723
      -0.056
      -0.332
      -0.054
       0.465
       0.741
       0.461
      -0.266
      -0.940
      -1.002
      -0.265
       0.884
       1.679
       1.467
       0.156
      -1.711
      -3.308
      -4.028
      -3.796
      -2.984
      -2.078
      -1.376
      -0.924
      -0.628
      -0.386
      -0.123
       0.206
       0.571
       0.826
       0.777
       0.370
      -0.177
      -0.466
      -0.185
       0.656
       1.735
       2.642
       3.110
       3.083
       2.642
       1.939
       1.190
       0.649
       0.482
       0.617
       0.755
       0.596
       0.122
      -0.363
      -0.500
      -0.231
       0.117
       0.103
      -0.440
      -1.260
      -1.895
      -2.009
      -1.572
      -0.769
       0.164
       1.021
       1.615
       1.791
       1.503
       0.864
       0.077
      -0.697
      -1.394
      -1.970
      -2.300
      -2.224
      -1.723
      -1.040
      -0.553
      -0.489
      -0.742
      -0.982
      -0.959
      -0.688
      -0.360
      -0.097
       0.177
       0.615
       1.221
       1.776
       2.021
       1.906
       1.650
       1.516
       1.518
       1.392
       0.857
      -0.081
      -1.092
      -1.776
      -1.943
      -1.671
      -1.177
      -0.675
      -0.337
      -0.261
      -0.396
      -0.501
      -0.286
       0.313
       1.003
       1.324
       1.064
       0.485
       0.133
       0.350
       0.962
       1.431
       1.294
       0.492
      -0.671
      -1.779
      -2.502
      -2.644
      -2.142
      -1.136
       0.002
       0.797
       0.945
       0.546
       0.062
       0.021
       0.649
       1.694
       2.572
       2.739
       2.060
       0.909
      -0.068
      -0.392
      -0.092
       0.323
       0.228
      -0.660
      -2.080
      -3.379
      -3.908
      -3.397
      -2.098
      -0.629
       0.371
       0.587
       0.167
      -0.401
      -0.601
      -0.188
       0.675
       1.521
       1.884
       1.587
       0.850
       0.123
      -0.216
      -0.085
       0.310
       0.652
       0.696
       0.383
      -0.146
      -0.604
      -0.679
      -0.204
       0.701
       1.627
       2.078
       1.774
       0.852
      -0.181
      -0.737
      -0.493
       0.421
       1.490
       2.097
       1.864
       0.866
      -0.384
      -1.243
      -1.338
      -0.822
      -0.263
      -0.249
      -0.985
      -2.171
      -3.205
      -3.538
      -2.939
      -1.563
       0.158
       1.709
       2.675
       2.867
       2.354
       1.413
       0.416
      -0.336
      -0.757
      -1.009
      -1.332
      -1.778
      -2.083
      -1.848
      -0.923
       0.357
       1.349
       1.569
       1.047
       0.295
      -0.082
       0.221
       1.038
       1.841
       2.032
       1.284
      -0.205
      -1.722
      -2.400
      -1.774
      -0.138
       1.620
       2.594
       2.422
       1.410
       0.217
      -0.601
      -0.862
      -0.748
      -0.604
      -0.689
      -1.004
      -1.300
      -1.275
      -0.801
      -0.041
       0.614
       0.761
       0.215
      -0.840
      -1.897
      -2.382
      -1.999
      -0.923
       0.307
       1.126
       1.281
       0.941
       0.541
       0.475
       0.824
       1.322
       1.565
       1.303
       0.587
      -0.298
      -1.028
      -1.396
      -1.363
      -1.046
      -0.659
      -0.411
      -0.394
      -0.513
      -0.537
      -0.262
       0.320
       0.971
       1.325
       1.103
       0.297
      -0.809
      -1.786
      -2.308
      -2.311
      -1.986
      -1.612
      -1.359
      -1.196
      -0.951
      -0.475
       0.218
       0.950
       1.503
       1.774
       1.816
       1.770
       1.740
       1.767
       1.857
       2.005
       2.142
       2.114
       1.783
       1.178
       0.529
       0.074
      -0.146
      -0.297
      -0.525
      -0.760
      -0.780
      -0.462
       0.043
       0.407
       0.410
       0.131
      -0.122
      -0.092
       0.235
       0.692
       1.157
       1.687
       2.395
       3.224
