Origin Time       04/04/2011 11:31:40
Lat.              29.6 N	
Long.             80.8 E	
Depth (Km)         10.0
Magnitude         5.7
 Region           NEPAL-INDIA-BORDER-REGION                                        
 Above details taken from IMD 
   
Station Code      GAR
Station Lat.       30.051
Station Long.      79.288
Station Height(m) 1614.0
Site Class        A   Vs30 between 700 m/sec to 1400 m/sec * 
Record Time       04.04.2011 11:32:11.154
Sampling Rate     200. Hz
 Record Duration   76.605 Sec.
 Direction         Vert. (Up positive)
Max. Acceleration     12.845 cm/sec**2
     
  * For reference see Site Classification link of website 
     
 Base Line Corrected and Low Pass Filtered (Cut Off at 35 Hz) Time History
 Acceleration data in cm/sec**2
    
[...]
      -0.002
      -0.006
      -0.098
      -0.236
      -0.367
      -0.449
      -0.452
      -0.360
      -0.175
       0.075
       0.335
       0.541
       0.642
       0.621
       0.504
       0.342
       0.177
       0.018
      -0.153
      -0.354
      -0.571
      -0.740
      -0.776
      -0.623
      -0.300
       0.102
       0.461
       0.669
       0.664
       0.437
       0.033
      -0.469
      -0.969
      -1.364
      -1.576
      -1.570
      -1.354
      -0.972
      -0.485
       0.040
       0.541
       0.969
       1.293
       1.513
       1.651
       1.729
       1.748
       1.683
       1.505
       1.217
       0.865
       0.522
       0.248
       0.064
      -0.055
      -0.143
      -0.226
      -0.303
      -0.366
      -0.410
      -0.446
      -0.494
      -0.554
      -0.608
      -0.622
      -0.563
      -0.413
      -0.187
       0.064
       0.271
       0.370
       0.339
       0.197
      -0.005
      -0.204
      -0.350
      -0.416
      -0.395
      -0.303
      -0.172
      -0.033
       0.093
       0.196
       0.261
       0.255
       0.141
      -0.101
      -0.442
      -0.808
      -1.103
      -1.254
      -1.238
      -1.078
      -0.811
      -0.464
      -0.046
       0.431
       0.924
       1.366
       1.692
       1.870
       1.911
       1.854
       1.734
       1.561
       1.330
       1.041
       0.718
       0.400
       0.124
      -0.094
      -0.265
      -0.410
      -0.546
      -0.677
      -0.802
      -0.930
      -1.076
      -1.258
      -1.473
      -1.701
      -1.892
      -1.991
      -1.953
      -1.765
      -1.455
      -1.083
      -0.719
      -0.415
      -0.187
      -0.018
       0.114
       0.225
       0.318
       0.381
       0.401
       0.367
       0.276
       0.136
      -0.044
      -0.251
      -0.467
      -0.661
      -0.776
      -0.744
      -0.523
      -0.125
       0.380
       0.888
       1.314
       1.624
       1.837
       1.994
       2.118
       2.201
       2.207
       2.091
       1.830
       1.443
       0.989
       0.552
       0.210
       0.014
      -0.033
       0.031
       0.151
       0.287
       0.416
       0.530
       0.625
       0.691
       0.713
       0.686
       0.618
       0.526
       0.417
       0.275
       0.081
      -0.169
      -0.441
      -0.673
      -0.816
      -0.858
      -0.834
      -0.787
      -0.734
      -0.659
      -0.525
      -0.311
      -0.027
       0.284
       0.569
       0.784
       0.906
       0.933
       0.876
       0.748
       0.568
       0.360
       0.157
      -0.012
      -0.139
      -0.235
      -0.327
      -0.443
      -0.600
      -0.794
      -1.005
      -1.206
      -1.369
      -1.469
      -1.475
      -1.359
      -1.110
      -0.748
      -0.330
       0.076
       0.417
       0.667
       0.820
       0.873
       0.821
       0.662
       0.403
       0.056
      -0.353
      -0.800
      -1.256
      -1.690
      -2.064
      -2.351
      -2.531
      -2.596
      -2.547
      -2.399
      -2.182
      -1.944
      -1.743
      -1.628
      -1.614
      -1.664
      -1.701
      -1.632
      -1.397
      -1.005
      -0.530
      -0.064
       0.324
       0.612
       0.812
       0.955
       1.074
       1.190
       1.313
       1.442
       1.569
       1.690
       1.812
       1.950
       2.108
       2.267
       2.383
       2.394
       2.249
       1.940
       1.515
       1.065
       0.670
       0.354
       0.093
      -0.155
      -0.401
      -0.619
      -0.770
      -0.853
      -0.912
      -1.005
      -1.153
      -1.309
      -1.374
      -1.248
      -0.884
      -0.310
       0.399
       1.153
       1.869
       2.474
       2.899
       3.090
       3.025
       2.734
       2.297
       1.814
       1.371
       1.021
       0.773
       0.605
       0.479
       0.355
       0.212
       0.048
      -0.113
      -0.233
      -0.273
      -0.215
      -0.059
       0.178
       0.477
       0.819
       1.181
       1.519
       1.767
       1.842
       1.686
       1.284
       0.676
      -0.057
      -0.827
      -1.568
      -2.229
      -2.762
      -3.109
      -3.229
      -3.119
      -2.835
      -2.474
      -2.122
      -1.817
      -1.524
      -1.165
      -0.677
      -0.065
       0.573
       1.090
       1.359
       1.340
       1.095
       0.748
       0.410
       0.125
      -0.147
      -0.493
      -0.970
      -1.557
      -2.156
      -2.641
      -2.926
      -2.992
      -2.879
      -2.643
      -2.321
      -1.921
      -1.438
      -0.878
      -0.284
       0.265
       0.673
       0.876
       0.862
       0.673
       0.382
       0.074
      -0.178
      -0.335
      -0.391
      -0.367
      -0.287
      -0.165
      -0.007
       0.178
       0.361
       0.500
       0.558
       0.515
       0.372
       0.154
      -0.097
      -0.330
      -0.490
      -0.543
      -0.480
      -0.314
      -0.062
       0.268
       0.677
       1.156
       1.665
       2.122
       2.422
       2.470
       2.226
       1.728
       1.067
       0.352
      -0.323
      -0.901
      -1.358
      -1.696
      -1.930
      -2.075
      -2.134
      -2.094
      -1.939
      -1.677
      -1.352
      -1.030
      -0.769
      -0.595
      -0.484
      -0.376
      -0.202
       0.077
       0.461
       0.919
       1.418
       1.934
       2.456
       2.966
       3.424
       3.770
       3.941
       3.898
       3.648
       3.240
       2.747
       2.232
       1.734
       1.282
       0.907
       0.641
       0.494
       0.435
       0.400
       0.319
       0.152
      -0.094
      -0.382
      -0.662
      -0.897
      -1.079
      -1.218
      -1.322
      -1.387
      -1.402
      -1.368
      -1.305
      -1.252
      -1.244
      -1.292
      -1.366
      -1.412
      -1.380
      -1.249
      -1.022
      -0.718
      -0.348
       0.082
       0.562
       1.067
       1.558
       1.999
       2.357
       2.603
       2.703
       2.648
       2.467
       2.227
       1.988
       1.760
       1.493
       1.124
       0.631
       0.062
      -0.488
      -0.936
      -1.258
      -1.502
      -1.755
      -2.076
      -2.443
      -2.756
      -2.879
      -2.728
      -2.323
      -1.783
      -1.255
      -0.838
      -0.558
      -0.397
      -0.327
      -0.331
      -0.400
      -0.524
      -0.690
      -0.871
      -1.025
      -1.098
      -1.044
      -0.849
      -0.538
      -0.159
       0.240
       0.626
       0.994
       1.370
       1.787
       2.250
       2.709
       3.070
       3.240
       3.184
       2.937
       2.574
       2.156
       1.707
       1.207
       0.617
      -0.089
      -0.903
      -1.780
      -2.663
      -3.510
      -4.287
      -4.940
      -5.387
      -5.539
      -5.356
      -4.876
      -4.187
      -3.371
      -2.469
      -1.497
      -0.472
       0.560
       1.529
       2.351
       2.953
       3.303
       3.416
       3.344
       3.155
       2.906
       2.623
       2.296
       1.901
       1.420
       0.855
       0.229
      -0.409
      -0.998
      -1.468
      -1.758
      -1.831
      -1.677
      -1.318
      -0.798
      -0.193
       0.398
       0.880
       1.191
       1.328
       1.328
       1.235
       1.080
       0.882
       0.654
       0.387
       0.046
      -0.411
      -0.998
      -1.666
      -2.320
      -2.858
      -3.210
      -3.351
      -3.296
      -3.082
      -2.735
      -2.255
      -1.622
      -0.839
       0.047
       0.935
       1.696
       2.215
       2.437
       2.376
       2.093
       1.667
       1.176
       0.686
       0.254
      -0.085
      -0.312
      -0.424
      -0.418
      -0.297
      -0.099
       0.080
       0.131
       0.020
      -0.163
      -0.248
      -0.095
       0.320
       0.908
       1.535
       2.102
       2.566
       2.914
       3.124
       3.149
       2.934
       2.465
       1.788
       0.988
       0.163
      -0.609
      -1.256
      -1.719
      -1.956
      -1.961
      -1.766
      -1.429
      -1.013
      -0.566
      -0.119
       0.301
       0.656
       0.904
       1.020
       1.015
       0.928
       0.800
       0.648
       0.471
       0.274
       0.076
      -0.105
      -0.260
      -0.363
      -0.371
      -0.248
      -0.008
       0.258
       0.412
       0.320
      -0.101
      -0.857
      -1.871
      -2.996
      -4.057
      -4.904
      -5.452
      -5.668
      -5.542
      -5.068
      -4.246
      -3.094
      -1.657
      -0.030
       1.632
       3.152
       4.385
       5.259
       5.764
       5.926
       5.783
       5.386
       4.808
       4.128
       3.391
       2.594
       1.711
       0.731
      -0.336
      -1.463
      -2.615
      -3.740
      -4.765
      -5.609
      -6.198
      -6.483
      -6.451
      -6.138
      -5.625
      -4.991
      -4.276
      -3.479
      -2.605
      -1.697
      -0.824
      -0.047
       0.613
       1.188
       1.749
       2.386
       3.157
       4.047
       4.965
       5.779
       6.375
       6.696
       6.719
       6.439
       5.868
       5.054
       4.099
       3.122
       2.212
       1.393
       0.635
      -0.119
      -0.914
      -1.772
      -2.690
      -3.640
      -4.565
      -5.380
      -6.001
      -6.369
      -6.470
      -6.314
      -5.916
      -5.282
      -4.434
      -3.414
      -2.276
      -1.070
       0.142
       1.268
       2.203
       2.882
       3.318
       3.590
       3.798
       4.033
       4.347
       4.760
       5.265
       5.829
       6.389
       6.847
       7.114
       7.148
       6.958
       6.581
       6.060
       5.435
       4.746
       4.037
       3.351
       2.713
       2.116
       1.514
       0.871
       0.193
      -0.465
      -1.040
      -1.496
      -1.829
      -2.052
      -2.200
      -2.327
      -2.466
      -2.590
      -2.624
      -2.493
      -2.170
      -1.681
      -1.087
      -0.452
       0.176
       0.783
       1.379
       1.955
       2.435
       2.675
       2.536
       1.973
       1.056
      -0.072
      -1.277
      -2.466
      -3.572
      -4.527
      -5.273
      -5.783
      -6.072
      -6.188
      -6.183
      -6.090
      -5.927
      -5.701
      -5.414
      -5.061
      -4.619
      -4.052
      -3.326
      -2.433
      -1.413
      -0.335
       0.733
       1.748
       2.669
       3.445
       4.005
       4.277
       4.220
       3.838
       3.190
       2.374
       1.511
       0.718
       0.095
      -0.297
      -0.437
      -0.340
      -0.041
       0.413
       0.953
       1.489
       1.923
       2.184
       2.255
       2.162
       1.956
       1.692
       1.429
       1.217
       1.086
       1.026
       0.989
       0.921
       0.783
       0.560
       0.256
      -0.116
      -0.530
      -0.961
      -1.405
      -1.886
      -2.448
      -3.111
      -3.853
      -4.604
      -5.269
      -5.757
      -6.006
      -5.987
      -5.693
      -5.128
      -4.325
      -3.372
      -2.422
      -1.645
      -1.151
      -0.943
      -0.938
      -1.036
      -1.166
      -1.278
      -1.319
      -1.230
      -0.977
      -0.565
      -0.025
       0.619
       1.372
       2.239
       3.185
       4.121
       4.923
       5.472
       5.692
       5.575
       5.185
       4.617
       3.946
       3.197
       2.354
       1.421
       0.455
      -0.442
      -1.186
      -1.767
      -2.234
      -2.642
      -2.983
      -3.186
      -3.167
      -2.900
      -2.439
      -1.887
      -1.350
      -0.899
      -0.550
      -0.280
      -0.042
       0.201
       0.483
       0.848
       1.351
       2.013
       2.794
       3.621
       4.445
       5.273
       6.111
       6.890
       7.478
       7.789
       7.871
       7.875
       7.908
       7.927
       7.770
       7.292
       6.462
       5.369
       4.149
       2.923
       1.781
       0.779
      -0.079
      -0.860
      -1.662
      -2.525
      -3.382
      -4.096
      -4.552
      -4.725
      -4.670
      -4.472
      -4.190
      -3.864
      -3.550
      -3.353
      -3.382
      -3.687
      -4.229
      -4.924
      -5.707
      -6.562
      -7.470
      -8.363
      -9.138
      -9.707
     -10.038
     -10.117
      -9.913
      -9.383
      -8.517
      -7.362
      -6.005
      -4.527
      -2.982
      -1.415
       0.099
       1.461
       2.579
       3.407
       3.953
       4.274
       4.447
       4.535
       4.574
       4.577
       4.543
       4.445
       4.244
       3.905
       3.424
       2.816
       2.092
       1.259
       0.351
      -0.556
      -1.357
      -1.968
      -2.363
      -2.550
      -2.538
      -2.325
      -1.915
      -1.340
      -0.666
       0.023
       0.649
       1.144
       1.452
       1.544
       1.443
       1.218
       0.954
       0.714
       0.518
       0.349
       0.173
      -0.021
      -0.203
      -0.316
      -0.286
      -0.053
       0.405
       1.066
       1.877
       2.765
       3.629
       4.323
       4.679
       4.580
       4.024
       3.105
       1.925
       0.537
      -1.036
      -2.728
      -4.395
      -5.840
      -6.860
      -7.285
      -7.008
      -6.018
      -4.411
      -2.371
      -0.101
       2.247
       4.581
       6.822
       8.869
      10.591
      11.873
      12.635
      12.845
      12.499
      11.622
      10.274
       8.540
       6.510
       4.243
       1.765
      -0.887
      -3.613
      -6.234
      -8.540
     -10.361
     -11.608
     -12.274
     -12.419
     -12.131
     -11.479
     -10.488
      -9.158
      -7.538
      -5.767
      -4.029
      -2.459
      -1.084
       0.142
       1.255
       2.235
       3.041
       3.662
       4.136
       4.518
       4.843
       5.129
       5.386
       5.615
       5.799
       5.912
       5.952
       5.972
       6.077
       6.366
       6.867
       7.517
       8.195
       8.777
       9.179
       9.354
       9.274
       8.914
       8.240
       7.195
       5.715
       3.764
       1.404
      -1.189
      -3.763
      -6.083
      -7.996
      -9.437
     -10.408
     -10.950
     -11.109
     -10.899
     -10.294
      -9.267
      -7.856
      -6.204
      -4.528
      -3.032
      -1.831
      -0.935
      -0.268
       0.279
       0.813
       1.398
       2.023
       2.588
       2.932
       2.906
       2.446
       1.596
       0.470
      -0.796
      -2.077
      -3.274
      -4.313
      -5.127
      -5.656
      -5.842
      -5.645
      -5.071
      -4.195
      -3.136
      -2.010
      -0.892
       0.173
       1.130
       1.911
       2.471
       2.829
       3.055
       3.216
       3.325
       3.338
       3.192
       2.841
       2.277
       1.528
       0.647
      -0.301
      -1.259
      -2.184
      -3.035
      -3.754
      -4.267
      -4.512
      -4.465
      -4.153
      -3.651
      -3.066
      -2.501
      -2.022
      -1.634
      -1.294
      -0.945
      -0.557
      -0.149
       0.226
       0.509
       0.655
       0.633
       0.412
      -0.037
      -0.733
      -1.659
      -2.751
      -3.907
      -5.004
      -5.913
      -6.516
      -6.715
      -6.434
      -5.628
      -4.291
      -2.479
      -0.317
       2.005
       4.271
       6.281
       7.901
       9.077
       9.832
      10.255
      10.460
      10.527
      10.451
      10.158
       9.584
       8.747
       7.749
       6.709
       5.699
       4.724
       3.750
       2.742
       1.688
       0.597
      -0.502
      -1.567
      -2.548
      -3.378
      -3.972
      -4.226
      -4.051
      -3.415
      -2.373
      -1.065
       0.299
       1.494
       2.341
       2.761
       2.766
       2.418
       1.790
       0.963
       0.025
      -0.959
      -1.987
      -3.094
      -4.281
      -5.454
      -6.458
      -7.156
      -7.476
      -7.401
      -6.939
      -6.113
      -4.959
      -3.522
      -1.850
      -0.012
       1.884
       3.686
       5.239
       6.432
       7.225
       7.633
       7.701
       7.478
       6.989
       6.216
       5.111
       3.654
       1.912
       0.049
      -1.705
      -3.129
      -4.074
      -4.487
      -4.419
      -3.987
      -3.334
      -2.581
      -1.805
      -1.044
      -0.308
       0.391
       1.033
       1.598
       2.074
       2.455
       2.718
       2.807
       2.643
       2.156
       1.332
       0.239
      -0.985
      -2.178
      -3.224
      -4.086
      -4.800
      -5.418
      -5.950
      -6.341
      -6.494
      -6.338
      -5.891
      -5.254
      -4.565
      -3.943
      -3.450
      -3.086
      -2.810
      -2.571
      -2.322
      -2.022
      -1.655
      -1.239
      -0.825
      -0.469
      -0.206
      -0.026
       0.130
       0.361
       0.759
       1.352
       2.066
       2.737
       3.174
       3.241
       2.916
       2.308
       1.618
       1.061
       0.775
       0.772
       0.964
       1.228
       1.479
       1.695
       1.907
       2.157
       2.463
       2.810
       3.155
       3.449
       3.654
       3.748
       3.724
       3.577
       3.309
       2.940
       2.527
       2.147
       1.859
       1.655
       1.450
       1.103
       0.485
      -0.459
      -1.664
      -2.980
      -4.218
      -5.208
      -5.814
      -5.951
      -5.603
      -4.830
      -3.763
      -2.557
      -1.362
      -0.308
       0.496
       0.972
       1.107
       0.965
       0.678
       0.395
       0.213
       0.142
       0.119
       0.070
      -0.035
      -0.156
      -0.211
      -0.128
       0.116
       0.489
       0.949
       1.490
       2.143
       2.928
       3.817
       4.754
       5.696
       6.625
       7.519
       8.295
       8.807
       8.908
       8.534
       7.732
       6.618
       5.317
       3.928
       2.511
       1.088
      -0.338
      -1.749
      -3.073
      -4.178
      -4.931
      -5.258
      -5.176
      -4.771
      -4.152
      -3.424
      -2.662
      -1.905
      -1.182
      -0.542
      -0.068
       0.147
       0.037
      -0.408
      -1.143
      -2.085
      -3.155
      -4.292
      -5.463
      -6.637
      -7.746
      -8.669
      -9.268
      -9.441
      -9.154
      -8.429
      -7.332
      -5.945
      -4.348
      -2.611
      -0.797
       1.022
       2.736
       4.190
       5.208
       5.652
       5.489
       4.827
       3.883
       2.901
       2.058
       1.416
       0.946
       0.591
       0.302
       0.055
      -0.146
      -0.255
      -0.196
       0.076
       0.508
       0.952
       1.230
       1.214
       0.864
       0.242
      -0.502
      -1.180
      -1.636
      -1.827
      -1.835
      -1.824
      -1.947
      -2.282
      -2.800
      -3.373
      -3.822
      -4.000
      -3.861
      -3.475
      -2.961
      -2.407
      -1.830
      -1.194
      -0.466
       0.336
       1.123
       1.759
       2.128
       2.204
       2.063
       1.819
       1.551
       1.294
       1.088
       0.999
       1.077
       1.310
       1.634
       1.973
       2.267
