Origin Time       14/03/2010 6:53:21	 UTC
Lat.              31.7 N	
Long.             76.1 E	
Depth (Km)         29.0
Magnitude         4.6
 Region           HIMACHAL-PUNJAB-(HOSHIARPUR)-BORDER                              
 Above details taken from IMD 
    
Station Code      GAR
Station Lat.       31.228  N
Station Long.      76.135  E
Station Height(m)  261.0
Site Class        C   Vs30 between 200 m/sec to 375 m/sec *  
Record Time       14.03.2010 06:53:23.174 UTC
Sampling Rate     200. Hz
 Record Duration   65.210 Sec.
 Direction         N-S (N positive)
Max. Acceleration    -14.668 cm/sec**2
     
  * For reference see Site Classification link of website 
     
 Base Line Corrected and Low Pass Filtered (Cut Off at 35 Hz) Time History
 Acceleration data in cm/sec**2
    
[...]
       0.153
       0.147
       0.081
      -0.016
      -0.093
      -0.111
      -0.058
       0.051
       0.183
       0.302
       0.376
       0.392
       0.356
       0.292
       0.223
       0.157
       0.086
       0.002
      -0.087
      -0.160
      -0.196
      -0.187
      -0.148
      -0.103
      -0.075
      -0.072
      -0.087
      -0.105
      -0.111
      -0.097
      -0.064
      -0.019
       0.025
       0.051
       0.043
      -0.004
      -0.078
      -0.147
      -0.176
      -0.148
      -0.081
      -0.021
      -0.012
      -0.062
      -0.122
      -0.124
      -0.035
       0.104
       0.206
       0.208
       0.122
       0.016
      -0.042
      -0.039
      -0.008
       0.005
      -0.008
      -0.022
      -0.003
       0.052
       0.109
       0.123
       0.064
      -0.056
      -0.197
      -0.309
      -0.352
      -0.317
      -0.216
      -0.081
       0.048
       0.130
       0.136
       0.071
      -0.019
      -0.073
      -0.048
       0.053
       0.177
       0.264
       0.281
       0.244
       0.193
       0.158
       0.141
       0.123
       0.089
       0.051
       0.038
       0.071
       0.142
       0.223
       0.276
       0.273
       0.199
       0.060
      -0.112
      -0.262
      -0.334
      -0.300
      -0.180
      -0.035
       0.065
       0.087
       0.045
      -0.016
      -0.057
      -0.074
      -0.098
      -0.156
      -0.242
      -0.309
      -0.309
      -0.233
      -0.123
      -0.041
      -0.019
      -0.031
      -0.029
       0.013
       0.068
       0.079
       0.010
      -0.131
      -0.296
      -0.428
      -0.488
      -0.470
      -0.386
      -0.264
      -0.139
      -0.043
       0.001
       0.001
      -0.008
       0.017
       0.110
       0.275
       0.482
       0.681
       0.815
       0.854
       0.804
       0.711
       0.629
       0.589
       0.577
       0.547
       0.453
       0.284
       0.071
      -0.140
      -0.312
      -0.445
      -0.559
      -0.674
      -0.789
      -0.882
      -0.919
      -0.883
      -0.775
      -0.614
      -0.419
      -0.208
       0.000
       0.170
       0.258
       0.239
       0.128
      -0.013
      -0.105
      -0.088
       0.041
       0.228
       0.393
       0.473
       0.453
       0.365
       0.265
       0.199
       0.176
       0.165
       0.113
      -0.011
      -0.192
      -0.364
      -0.451
      -0.412
      -0.271
      -0.094
       0.052
       0.136
       0.158
       0.126
       0.043
      -0.077
      -0.201
      -0.288
      -0.308
      -0.256
      -0.145
       0.003
       0.160
       0.290
       0.362
       0.379
       0.372
       0.382
       0.419
       0.453
       0.442
       0.365
       0.244
       0.125
       0.038
      -0.023
      -0.089
      -0.190
      -0.326
      -0.461
      -0.546
      -0.547
      -0.466
      -0.334
      -0.182
      -0.023
       0.144
       0.307
       0.427
       0.450
       0.344
       0.129
      -0.125
      -0.331
      -0.417
      -0.353
      -0.165
       0.076
       0.277
       0.361
       0.303
       0.134
      -0.079
      -0.269
      -0.385
      -0.394
      -0.280
      -0.051
       0.249
       0.546
       0.765
       0.866
       0.851
       0.743
       0.559
       0.304
      -0.011
      -0.347
      -0.633
      -0.803
      -0.826
      -0.728
      -0.570
      -0.418
      -0.305
      -0.222
      -0.141
      -0.052
       0.020
       0.035
      -0.016
      -0.080
      -0.078
       0.044
       0.261
       0.489
       0.633
       0.644
       0.537
       0.371
       0.214
       0.110
       0.065
       0.045
      -0.004
      -0.112
      -0.263
      -0.389
      -0.418
      -0.323
      -0.147
       0.028
       0.128
       0.122
       0.022
      -0.138
      -0.313
      -0.457
      -0.534
      -0.529
      -0.458
      -0.352
      -0.241
      -0.140
      -0.061
      -0.014
      -0.002
      -0.011
      -0.015
       0.003
       0.037
       0.059
       0.054
       0.043
       0.069
       0.160
       0.296
       0.411
       0.436
       0.346
       0.171
      -0.024
      -0.180
      -0.267
      -0.285
      -0.253
      -0.188
      -0.104
      -0.020
       0.039
       0.054
       0.034
       0.020
       0.051
       0.131
       0.214
       0.240
       0.188
       0.095
       0.021
       0.004
       0.033
       0.065
       0.071
       0.056
       0.043
       0.044
       0.033
      -0.032
      -0.169
      -0.338
      -0.451
      -0.434
      -0.276
      -0.045
       0.148
       0.219
       0.150
      -0.014
      -0.190
      -0.302
      -0.298
      -0.172
       0.040
       0.266
       0.426
       0.470
       0.408
       0.298
       0.212
       0.193
       0.233
       0.295
       0.336
       0.335
       0.299
       0.249
       0.212
       0.205
       0.227
       0.254
       0.255
       0.200
       0.072
      -0.114
      -0.312
      -0.460
      -0.516
      -0.483
      -0.410
      -0.363
      -0.377
      -0.441
      -0.519
      -0.579
      -0.607
      -0.591
      -0.511
      -0.347
      -0.106
       0.160
       0.372
       0.472
       0.456
       0.380
       0.321
       0.339
       0.441
       0.574
       0.655
       0.607
       0.413
       0.133
      -0.127
      -0.273
      -0.274
      -0.177
      -0.065
      -0.008
      -0.017
      -0.049
      -0.044
       0.028
       0.146
       0.256
       0.312
       0.306
       0.261
       0.203
       0.143
       0.073
      -0.009
      -0.089
      -0.141
      -0.145
      -0.109
      -0.067
      -0.053
      -0.081
      -0.145
      -0.232
      -0.333
      -0.433
      -0.498
      -0.477
      -0.338
      -0.097
       0.176
       0.394
       0.491
       0.454
       0.314
       0.129
      -0.046
      -0.186
      -0.296
      -0.397
      -0.487
      -0.535
      -0.495
      -0.345
      -0.117
       0.122
       0.306
       0.395
       0.380
       0.276
       0.115
      -0.050
      -0.161
      -0.173
      -0.089
       0.049
       0.181
       0.274
       0.322
       0.331
       0.286
       0.155
      -0.081
      -0.387
      -0.678
      -0.848
      -0.827
      -0.613
      -0.273
       0.091
       0.378
       0.520
       0.505
       0.370
       0.180
      -0.001
      -0.136
      -0.218
      -0.262
      -0.284
      -0.299
      -0.308
      -0.300
      -0.260
      -0.181
      -0.072
       0.033
       0.105
       0.144
       0.184
       0.274
       0.434
       0.636
       0.813
       0.903
       0.886
       0.786
       0.649
       0.506
       0.357
       0.179
      -0.047
      -0.316
      -0.588
      -0.807
      -0.925
      -0.931
      -0.850
      -0.725
      -0.597
      -0.489
      -0.408
      -0.348
      -0.299
      -0.239
      -0.150
      -0.032
       0.092
       0.193
       0.267
       0.344
       0.456
       0.590
       0.676
       0.637
       0.454
       0.197
      -0.016
      -0.103
      -0.059
       0.049
       0.145
       0.182
       0.151
       0.073
      -0.028
      -0.117
      -0.162
      -0.137
      -0.042
       0.086
       0.186
       0.198
       0.103
      -0.071
      -0.260
      -0.402
      -0.460
      -0.432
      -0.342
      -0.214
      -0.063
       0.096
       0.244
       0.356
       0.416
       0.422
       0.376
       0.279
       0.127
      -0.070
      -0.280
      -0.455
      -0.546
      -0.526
      -0.395
      -0.183
       0.054
       0.240
       0.311
       0.238
       0.045
      -0.194
      -0.386
      -0.470
      -0.438
      -0.339
      -0.233
      -0.153
      -0.085
       0.012
       0.162
       0.342
       0.493
       0.564
       0.548
       0.489
       0.454
       0.481
       0.554
       0.608
       0.571
       0.411
       0.154
      -0.125
      -0.346
      -0.467
      -0.496
      -0.474
      -0.444
      -0.424
      -0.409
      -0.383
      -0.340
      -0.290
      -0.250
      -0.239
      -0.253
      -0.265
      -0.230
      -0.112
       0.090
       0.336
       0.557
       0.683
       0.679
       0.559
       0.378
       0.204
       0.088
       0.048
       0.073
       0.143
       0.242
       0.357
       0.471
       0.550
       0.553
       0.453
       0.257
       0.008
      -0.237
      -0.433
      -0.575
      -0.692
      -0.826
      -0.990
      -1.152
      -1.247
      -1.210
      -1.016
      -0.702
      -0.348
      -0.053
       0.117
       0.149
       0.083
      -0.012
      -0.070
      -0.052
       0.062
       0.270
       0.553
       0.865
       1.127
       1.246
       1.149
       0.833
       0.381
      -0.055
      -0.326
      -0.358
      -0.189
       0.055
       0.239
       0.287
       0.214
       0.097
       0.020
       0.021
       0.075
       0.117
       0.099
       0.022
      -0.067
      -0.121
      -0.130
      -0.129
      -0.160
      -0.241
      -0.344
      -0.412
      -0.386
      -0.241
       0.000
       0.269
       0.485
       0.588
       0.555
       0.397
       0.146
      -0.164
      -0.488
      -0.766
      -0.924
      -0.904
      -0.691
      -0.329
       0.103
       0.509
       0.798
       0.898
       0.767
       0.418
      -0.067
      -0.543
      -0.856
      -0.900
      -0.661
      -0.216
       0.305
       0.767
       1.070
       1.153
       1.004
       0.649
       0.159
      -0.357
      -0.778
      -1.009
      -1.006
      -0.787
      -0.422
      -0.005
       0.358
       0.578
       0.603
       0.437
       0.143
      -0.178
      -0.415
      -0.491
      -0.381
      -0.120
       0.202
       0.469
       0.579
       0.483
       0.204
      -0.172
      -0.529
      -0.767
      -0.837
      -0.755
      -0.587
      -0.408
      -0.262
      -0.148
      -0.049
       0.030
       0.058
       0.022
      -0.028
       0.015
       0.243
       0.647
       1.097
       1.402
       1.427
       1.164
       0.721
       0.254
      -0.119
      -0.344
      -0.430
      -0.408
      -0.315
      -0.183
      -0.048
       0.046
       0.059
      -0.036
      -0.234
      -0.498
      -0.766
      -0.972
      -1.062
      -1.007
      -0.802
      -0.473
      -0.069
       0.340
       0.680
       0.909
       1.021
       1.034
       0.966
       0.823
       0.609
       0.355
       0.126
      -0.008
      -0.013
       0.084
       0.204
       0.259
       0.198
       0.021
      -0.222
      -0.465
      -0.653
      -0.775
      -0.862
      -0.961
      -1.089
      -1.203
      -1.216
      -1.043
      -0.661
      -0.135
       0.397
       0.783
       0.922
       0.821
       0.597
       0.404
       0.345
       0.410
       0.514
       0.580
       0.605
       0.635
       0.697
       0.744
       0.679
       0.426
       0.003
      -0.468
      -0.824
      -0.959
      -0.880
      -0.690
      -0.513
      -0.423
      -0.418
      -0.463
      -0.528
      -0.609
      -0.692
      -0.726
      -0.638
      -0.375
       0.044
       0.527
       0.946
       1.196
       1.234
       1.084
       0.813
       0.494
       0.183
      -0.085
      -0.269
      -0.331
      -0.243
      -0.024
       0.251
       0.468
       0.536
       0.423
       0.177
      -0.110
      -0.344
      -0.468
      -0.467
      -0.361
      -0.181
       0.033
       0.239
       0.386
       0.420
       0.310
       0.069
      -0.225
      -0.456
      -0.517
      -0.374
      -0.090
       0.200
       0.368
       0.363
       0.234
       0.083
      -0.013
      -0.052
      -0.083
      -0.154
      -0.251
      -0.306
      -0.244
      -0.052
       0.199
       0.381
       0.382
       0.158
      -0.230
      -0.645
      -0.933
      -0.997
      -0.847
      -0.584
      -0.337
      -0.178
      -0.082
       0.038
       0.245
       0.520
       0.765
       0.879
       0.835
       0.702
       0.588
       0.573
       0.663
       0.798
       0.898
       0.903
       0.783
       0.534
       0.179
      -0.239
      -0.653
      -0.998
      -1.223
      -1.312
      -1.277
      -1.166
      -1.048
      -0.993
      -1.035
      -1.146
      -1.240
      -1.219
      -1.035
      -0.725
      -0.392
      -0.146
      -0.052
      -0.108
      -0.259
      -0.424
      -0.529
      -0.519
      -0.384
      -0.163
       0.061
       0.198
       0.189
       0.035
      -0.199
      -0.410
      -0.500
      -0.425
      -0.214
       0.045
       0.256
       0.362
       0.361
       0.282
       0.154
      -0.008
      -0.195
      -0.394
      -0.587
      -0.752
      -0.863
      -0.889
      -0.805
      -0.606
      -0.324
      -0.036
       0.158
       0.165
      -0.058
      -0.485
      -1.017
      -1.518
      -1.856
      -1.953
      -1.808
      -1.485
      -1.077
      -0.659
      -0.260
       0.129
       0.538
       1.006
       1.567
       2.248
       3.046
       3.918
       4.796
       5.621
       6.372
       7.054
       7.662
       8.148
       8.422
       8.407
       8.092
       7.554
       6.906
       6.207
       5.415
       4.407
       3.068
       1.375
      -0.585
      -2.671
      -4.773
      -6.843
      -8.865
     -10.786
     -12.484
     -13.791
     -14.552
     -14.668
     -14.125
     -12.986
     -11.370
      -9.416
      -7.261
      -5.021
      -2.780
      -0.594
       1.503
       3.495
       5.362
       7.067
       8.550
       9.755
      10.656
      11.264
      11.599
      11.650
      11.370
      10.707
       9.640
       8.203
       6.474
       4.536
       2.463
       0.314
      -1.863
      -4.030
      -6.143
      -8.119
      -9.819
     -11.067
     -11.729
     -11.789
     -11.363
     -10.632
      -9.715
      -8.587
      -7.106
      -5.123
      -2.627
       0.199
       3.040
       5.568
       7.538
       8.829
       9.426
       9.382
       8.791
       7.775
       6.466
       5.003
       3.514
       2.101
       0.832
      -0.271
      -1.228
      -2.088
      -2.901
      -3.676
      -4.361
      -4.859
      -5.071
      -4.936
      -4.443
      -3.625
      -2.536
      -1.252
       0.130
       1.497
       2.730
       3.725
       4.424
       4.831
       5.018
       5.097
       5.157
       5.228
       5.273
       5.226
       5.024
       4.612
       3.957
       3.057
       1.956
       0.735
      -0.528
      -1.801
      -3.091
      -4.408
      -5.714
      -6.888
      -7.753
      -8.149
      -8.014
      -7.432
      -6.609
      -5.776
      -5.087
      -4.561
      -4.106
      -3.599
      -2.975
      -2.256
      -1.527
      -0.868
      -0.303
       0.216
       0.779
       1.472
       2.338
       3.351
       4.424
       5.426
       6.219
       6.702
       6.839
       6.667
       6.259
       5.677
       4.941
       4.051
       3.014
       1.882
       0.736
      -0.345
      -1.322
      -2.208
      -3.046
      -3.859
      -4.616
      -5.244
      -5.661
      -5.818
      -5.711
      -5.365
      -4.806
      -4.036
      -3.041
      -1.824
      -0.432
       1.030
       2.418
       3.592
       4.458
       4.994
       5.233
       5.233
       5.036
       4.656
       4.080
       3.293
       2.308
       1.187
       0.045
      -0.985
      -1.797
      -2.353
      -2.701
      -2.936
      -3.154
      -3.408
      -3.688
      -3.939
      -4.090
      -4.074
      -3.840
      -3.365
      -2.660
      -1.782
      -0.818
       0.144
       1.037
       1.836
       2.562
       3.268
       4.002
       4.761
       5.452
       5.911
       5.970
       5.556
       4.749
       3.748
       2.767
       1.920
       1.183
       0.446
      -0.399
      -1.385
      -2.467
      -3.552
      -4.541
      -5.340
      -5.877
      -6.102
      -6.008
      -5.628
      -5.026
      -4.270
      -3.406
      -2.451
      -1.400
      -0.255
       0.952
       2.142
       3.210
       4.045
       4.566
       4.741
       4.605
       4.266
       3.871
       3.548
       3.345
       3.201
       2.987
       2.595
       2.020
       1.369
       0.787
       0.362
       0.074
      -0.179
      -0.503
      -0.929
      -1.399
      -1.798
      -2.027
      -2.058
      -1.954
      -1.832
      -1.810
      -1.955
      -2.259
      -2.647
      -3.016
      -3.287
      -3.444
      -3.525
      -3.566
      -3.523
      -3.268
      -2.661
      -1.663
      -0.385
       0.965
       2.194
       3.201
       3.980
       4.560
       4.954
       5.151
       5.128
       4.874
       4.403
       3.763
       3.027
       2.274
       1.551
       0.851
       0.119
      -0.730
      -1.759
      -2.964
      -4.251
      -5.454
      -6.402
      -6.985
      -7.191
      -7.075
      -6.692
      -6.056
      -5.151
      -3.982
      -2.606
      -1.136
       0.310
       1.637
       2.785
       3.707
       4.367
       4.757
       4.913
       4.911
       4.843
       4.778
       4.729
       4.651
       4.473
       4.137
       3.640
       3.018
       2.323
       1.584
       0.812
       0.030
      -0.700
      -1.282
      -1.631
      -1.724
      -1.614
      -1.397
      -1.174
      -1.015
      -0.947
      -0.956
      -0.989
      -0.985
      -0.898
      -0.740
      -0.577
      -0.500
      -0.568
      -0.769
      -1.025
      -1.224
      -1.277
      -1.146
      -0.843
      -0.416
       0.070
       0.531
       0.872
       1.016
       0.942
       0.693
       0.362
       0.049
      -0.161
      -0.206
      -0.052
       0.282
       0.707
       1.066
       1.192
       0.993
       0.495
      -0.166
      -0.815
      -1.316
      -1.604
      -1.668
      -1.523
      -1.196
      -0.754
      -0.310
       0.008
       0.111
      -0.004
      -0.258
      -0.540
      -0.774
      -0.932
      -1.020
      -1.032
      -0.942
      -0.725
      -0.390
       0.007
       0.390
       0.683
       0.834
       0.806
       0.585
       0.190
      -0.320
      -0.859
      -1.332
      -1.665
      -1.796
      -1.675
      -1.275
      -0.625
       0.164
       0.923
       1.503
       1.838
       1.969
       1.982
       1.937
       1.825
       1.605
       1.265
       0.878
       0.580
       0.489
       0.628
       0.906
       1.176
       1.312
       1.267
       1.047
       0.674
       0.151
      -0.510
      -1.250
      -1.943
      -2.449
      -2.666
      -2.576
      -2.222
      -1.668
      -0.969
      -0.172
       0.651
       1.392
       1.935
       2.208
       2.227
       2.078
       1.868
       1.668
       1.499
       1.346
       1.193
       1.030
       0.843
       0.598
       0.258
      -0.195
      -0.747
      -1.359
      -1.974
      -2.510
      -2.864
      -2.942
      -2.712
      -2.233
      -1.638
      -1.074
      -0.635
      -0.342
      -0.167
      -0.076
      -0.052
      -0.093
      -0.183
      -0.281
      -0.327
      -0.265
      -0.054
       0.317
