Origin Time       01/05/2009 22:36:25 UTC
Lat.              29.9 N 
Long.             80.1 E 
Depth (Km)         10.0
Magnitude         4.6
 Region           Bageshwar-Uttarakhand                                            
 Above details taken from IMD 
    
Station Code      GAR
Station Lat.       30.051  N
Station Long.      79.288  E
Station Height(m) 1614.0
Site Class        A   Vs30 between 700 m/sec to 1400 m/sec * 
Record Time       01.05.2010 22:36:30.114 UTC
Sampling Rate     200. Hz
 Record Duration   66.740 Sec.
 Direction         N-S (N positive)
Max. Acceleration      8.651 cm/sec**2
     
  * For reference see Site Classification link of website 
     
 Base Line Corrected and Low Pass Filtered (Cut Off at 35 Hz) Time History
 Acceleration data in cm/sec**2
    
[...]
      -0.294
      -0.258
      -0.203
      -0.143
      -0.078
      -0.001
       0.085
       0.168
       0.224
       0.228
       0.172
       0.085
       0.027
       0.041
       0.113
       0.177
       0.175
       0.109
       0.041
       0.032
       0.088
       0.146
       0.146
       0.086
       0.021
       0.004
       0.022
       0.015
      -0.056
      -0.156
      -0.204
      -0.156
      -0.051
       0.031
       0.037
      -0.029
      -0.125
      -0.216
      -0.295
      -0.363
      -0.413
      -0.431
      -0.407
      -0.348
      -0.270
      -0.185
      -0.093
       0.009
       0.121
       0.237
       0.345
       0.428
       0.463
       0.444
       0.394
       0.365
       0.402
       0.503
       0.612
       0.653
       0.586
       0.449
       0.331
       0.303
       0.355
       0.403
       0.358
       0.205
       0.012
      -0.128
      -0.182
      -0.199
      -0.268
      -0.429
      -0.636
      -0.792
      -0.833
      -0.765
      -0.640
      -0.503
      -0.359
      -0.185
       0.042
       0.312
       0.578
       0.774
       0.849
       0.799
       0.671
       0.530
       0.420
       0.340
       0.253
       0.128
      -0.031
      -0.187
      -0.311
      -0.411
      -0.512
      -0.626
      -0.744
      -0.848
      -0.924
      -0.959
      -0.934
      -0.833
      -0.655
      -0.401
      -0.077
       0.299
       0.663
       0.913
       0.977
       0.871
       0.709
       0.611
       0.607
       0.623
       0.560
       0.398
       0.216
       0.106
       0.085
       0.080
       0.006
      -0.167
      -0.394
      -0.611
      -0.781
      -0.900
      -0.963
      -0.947
      -0.826
      -0.600
      -0.318
      -0.050
       0.140
       0.232
       0.251
       0.255
       0.299
       0.405
       0.548
       0.673
       0.727
       0.684
       0.553
       0.370
       0.178
       0.018
      -0.084
      -0.128
      -0.149
      -0.202
      -0.334
      -0.552
      -0.802
      -0.987
      -1.016
      -0.866
      -0.597
      -0.323
      -0.130
      -0.024
       0.058
       0.180
       0.351
       0.514
       0.605
       0.608
       0.567
       0.531
       0.516
       0.510
       0.518
       0.564
       0.653
       0.731
       0.715
       0.554
       0.278
      -0.021
      -0.246
      -0.358
      -0.383
      -0.389
      -0.439
      -0.562
      -0.728
      -0.864
      -0.897
      -0.808
      -0.649
      -0.513
      -0.453
      -0.441
      -0.388
      -0.215
       0.075
       0.400
       0.659
       0.801
       0.837
       0.810
       0.760
       0.712
       0.664
       0.596
       0.484
       0.331
       0.174
       0.056
      -0.026
      -0.123
      -0.284
      -0.493
      -0.670
      -0.733
      -0.675
      -0.560
      -0.451
      -0.337
      -0.158
       0.112
       0.412
       0.630
       0.676
       0.544
       0.317
       0.122
       0.062
       0.171
       0.393
       0.615
       0.721
       0.651
       0.424
       0.121
      -0.170
      -0.403
      -0.571
      -0.679
      -0.727
      -0.721
      -0.709
      -0.757
      -0.890
      -1.032
      -1.048
      -0.848
      -0.464
      -0.033
       0.308
       0.507
       0.608
       0.687
       0.780
       0.872
       0.923
       0.908
       0.829
       0.702
       0.546
       0.380
       0.218
       0.075
      -0.023
      -0.052
      -0.025
      -0.007
      -0.076
      -0.262
      -0.515
      -0.744
      -0.874
      -0.902
      -0.873
      -0.837
      -0.807
      -0.765
      -0.695
      -0.598
      -0.482
      -0.346
      -0.180
       0.025
       0.261
       0.501
       0.701
       0.824
       0.855
       0.817
       0.757
       0.710
       0.674
       0.620
       0.525
       0.401
       0.294
       0.256
       0.304
       0.399
       0.455
       0.398
       0.220
      -0.012
      -0.213
      -0.352
      -0.468
      -0.621
      -0.820
      -0.996
      -1.050
      -0.937
      -0.709
      -0.480
      -0.333
      -0.270
      -0.232
      -0.171
      -0.085
      -0.004
       0.056
       0.111
       0.186
       0.290
       0.403
       0.491
       0.517
       0.455
       0.306
       0.110
      -0.066
      -0.153
      -0.128
      -0.025
       0.082
       0.117
       0.042
      -0.133
      -0.357
      -0.553
      -0.641
      -0.569
      -0.352
      -0.071
       0.161
       0.258
       0.212
       0.100
       0.035
       0.089
       0.237
       0.388
       0.467
       0.479
       0.494
       0.560
       0.653
       0.691
       0.611
       0.429
       0.218
       0.051
      -0.044
      -0.074
      -0.056
      -0.010
       0.028
       0.018
      -0.059
      -0.182
      -0.309
      -0.408
      -0.467
      -0.479
      -0.426
      -0.298
      -0.108
       0.099
       0.265
       0.342
       0.321
       0.230
       0.116
       0.016
      -0.057
      -0.097
      -0.084
       0.007
       0.182
       0.393
       0.556
       0.600
       0.503
       0.311
       0.088
      -0.124
      -0.325
      -0.530
      -0.715
      -0.814
      -0.760
      -0.554
      -0.289
      -0.098
      -0.067
      -0.173
      -0.314
      -0.392
      -0.374
      -0.282
      -0.127
       0.102
       0.393
       0.679
       0.863
       0.882
       0.735
       0.480
       0.199
      -0.025
      -0.137
      -0.134
      -0.071
      -0.025
      -0.058
      -0.177
      -0.333
      -0.449
      -0.475
      -0.418
      -0.336
      -0.288
      -0.305
      -0.386
      -0.508
      -0.632
      -0.701
      -0.661
      -0.493
      -0.242
      -0.006
       0.119
       0.105
       0.026
      -0.005
       0.077
       0.236
       0.383
       0.449
       0.438
       0.401
       0.384
       0.388
       0.371
       0.294
       0.166
       0.045
      -0.016
      -0.015
       0.002
      -0.010
      -0.054
      -0.101
      -0.114
      -0.069
       0.040
       0.205
       0.389
       0.524
       0.532
       0.372
       0.076
      -0.252
      -0.487
      -0.549
      -0.441
      -0.237
      -0.042
       0.062
       0.040
      -0.083
      -0.237
      -0.337
      -0.325
      -0.197
      -0.013
       0.136
       0.182
       0.120
       0.020
      -0.034
      -0.015
       0.021
      -0.016
      -0.149
      -0.300
      -0.352
      -0.258
      -0.081
       0.072
       0.147
       0.178
       0.220
       0.266
       0.232
       0.050
      -0.228
      -0.434
      -0.405
      -0.109
       0.328
       0.717
       0.914
       0.895
       0.729
       0.525
       0.357
       0.236
       0.120
      -0.039
      -0.242
      -0.433
      -0.534
      -0.512
      -0.407
      -0.295
      -0.234
      -0.230
      -0.261
      -0.315
      -0.385
      -0.445
      -0.433
      -0.292
      -0.023
       0.290
       0.522
       0.583
       0.474
       0.285
       0.119
       0.011
      -0.086
      -0.227
      -0.404
      -0.537
      -0.543
      -0.411
      -0.220
      -0.089
      -0.098
      -0.234
      -0.406
      -0.513
      -0.510
      -0.417
      -0.279
      -0.116
       0.089
       0.353
       0.661
       0.964
       1.195
       1.302
       1.270
       1.127
       0.926
       0.720
       0.528
       0.342
       0.146
      -0.069
      -0.289
      -0.489
      -0.647
      -0.771
      -0.900
      -1.072
      -1.283
      -1.482
      -1.602
      -1.604
      -1.497
      -1.315
      -1.089
      -0.821
      -0.497
      -0.114
       0.286
       0.634
       0.877
       1.013
       1.070
       1.049
       0.914
       0.647
       0.322
       0.085
       0.061
       0.255
       0.552
       0.805
       0.928
       0.910
       0.776
       0.564
       0.323
       0.108
      -0.046
      -0.138
      -0.192
      -0.225
      -0.239
      -0.228
      -0.199
      -0.166
      -0.145
      -0.149
      -0.198
      -0.308
      -0.471
      -0.646
      -0.764
      -0.774
      -0.692
      -0.603
      -0.600
      -0.698
      -0.813
      -0.830
      -0.689
      -0.422
      -0.112
       0.177
       0.428
       0.650
       0.842
       0.976
       1.015
       0.961
       0.867
       0.807
       0.814
       0.848
       0.806
       0.612
       0.296
      -0.002
      -0.136
      -0.081
       0.026
      -0.009
      -0.289
      -0.754
      -1.233
      -1.560
      -1.662
      -1.565
      -1.344
      -1.081
      -0.836
      -0.640
      -0.501
      -0.410
      -0.348
      -0.294
      -0.228
      -0.137
      -0.032
       0.042
       0.030
      -0.083
      -0.239
      -0.322
      -0.232
       0.041
       0.395
       0.684
       0.811
       0.777
       0.674
       0.629
       0.725
       0.959
       1.246
       1.494
       1.667
       1.792
       1.890
       1.928
       1.830
       1.559
       1.181
       0.838
       0.633
       0.551
       0.479
       0.323
       0.077
      -0.209
      -0.495
      -0.776
      -1.052
      -1.298
      -1.479
      -1.572
      -1.575
      -1.497
      -1.348
      -1.141
      -0.899
      -0.650
      -0.416
      -0.204
      -0.019
       0.124
       0.202
       0.213
       0.192
       0.194
       0.246
       0.315
       0.336
       0.269
       0.134
      -0.014
      -0.147
      -0.287
      -0.477
      -0.710
      -0.916
      -1.003
      -0.947
      -0.819
      -0.741
      -0.794
      -0.959
      -1.131
      -1.202
      -1.136
      -0.984
      -0.831
      -0.721
      -0.614
      -0.423
      -0.083
       0.404
       0.966
       1.505
       1.936
       2.220
       2.356
       2.372
       2.318
       2.260
       2.263
       2.360
       2.515
       2.633
       2.607
       2.372
       1.936
       1.369
       0.772
       0.235
      -0.202
      -0.551
      -0.845
      -1.098
      -1.289
      -1.400
      -1.441
      -1.448
      -1.442
      -1.403
      -1.291
      -1.094
      -0.855
      -0.664
      -0.607
      -0.711
      -0.914
      -1.091
      -1.143
      -1.086
      -1.053
      -1.191
      -1.533
      -1.976
      -2.368
      -2.635
      -2.805
      -2.936
      -3.024
      -2.992
      -2.773
      -2.377
      -1.902
      -1.462
      -1.114
      -0.819
      -0.469
       0.033
       0.709
       1.483
       2.227
       2.836
       3.282
       3.612
       3.889
       4.125
       4.267
       4.234
       3.990
       3.558
       3.002
       2.370
       1.693
       1.013
       0.413
      -0.018
      -0.237
      -0.296
      -0.320
      -0.450
      -0.753
      -1.188
      -1.616
      -1.889
      -1.923
      -1.728
      -1.353
      -0.825
      -0.153
       0.626
       1.393
       1.982
       2.276
       2.297
       2.200
       2.168
       2.283
       2.485
       2.617
       2.521
       2.118
       1.431
       0.549
      -0.434
      -1.461
      -2.495
      -3.493
      -4.391
      -5.128
      -5.686
      -6.094
      -6.388
      -6.552
      -6.509
      -6.157
      -5.450
      -4.435
      -3.215
      -1.889
      -0.508
       0.907
       2.310
       3.591
       4.594
       5.192
       5.373
       5.265
       5.080
       4.988
       5.011
       5.010
       4.789
       4.238
       3.389
       2.356
       1.230
       0.026
      -1.246
      -2.501
      -3.571
      -4.306
      -4.684
      -4.813
      -4.830
      -4.788
      -4.633
      -4.267
      -3.620
      -2.689
      -1.546
      -0.302
       0.930
       2.078
       3.122
       4.069
       4.918
       5.635
       6.176
       6.509
       6.629
       6.533
       6.195
       5.589
       4.734
       3.706
       2.604
       1.501
       0.435
      -0.575
      -1.519
      -2.405
      -3.259
      -4.100
      -4.894
      -5.565
      -6.040
      -6.300
      -6.366
      -6.251
      -5.939
      -5.421
      -4.737
      -3.979
      -3.232
      -2.524
      -1.823
      -1.098
      -0.382
       0.240
       0.679
       0.900
       0.943
       0.888
       0.815
       0.776
       0.782
       0.805
       0.787
       0.676
       0.463
       0.193
      -0.051
      -0.199
      -0.234
      -0.204
      -0.191
      -0.259
      -0.418
      -0.606
      -0.705
      -0.595
      -0.231
       0.334
       0.986
       1.618
       2.190
       2.713
       3.212
       3.684
       4.099
       4.412
       4.579
       4.559
       4.315
       3.842
       3.210
       2.568
       2.094
       1.880
       1.872
       1.899
       1.784
       1.453
       0.945
       0.342
      -0.294
      -0.928
      -1.521
      -2.030
      -2.424
      -2.709
      -2.919
      -3.071
      -3.146
      -3.090
      -2.853
      -2.420
      -1.837
      -1.198
      -0.616
      -0.164
       0.171
       0.482
       0.883
       1.421
       2.013
       2.476
       2.639
       2.440
       1.926
       1.166
       0.196
      -0.954
      -2.194
      -3.366
      -4.318
      -4.998
      -5.470
      -5.834
      -6.136
      -6.340
      -6.363
      -6.136
      -5.652
      -4.962
      -4.144
      -3.236
      -2.210
      -1.002
       0.427
       2.047
       3.755
       5.403
       6.832
       7.903
       8.521
       8.651
       8.320
       7.605
       6.599
       5.393
       4.077
       2.746
       1.505
       0.439
      -0.439
      -1.205
      -1.962
      -2.740
      -3.455
      -3.969
      -4.199
      -4.172
      -3.980
      -3.693
      -3.318
      -2.837
      -2.257
      -1.607
      -0.900
      -0.109
       0.787
       1.743
       2.623
       3.270
       3.597
       3.625
       3.444
       3.138
       2.758
       2.338
       1.936
       1.635
       1.487
       1.464
       1.460
       1.356
       1.095
       0.703
       0.262
      -0.153
      -0.513
      -0.843
      -1.203
      -1.635
      -2.142
      -2.681
      -3.193
      -3.637
      -3.998
      -4.279
      -4.478
      -4.580
      -4.558
      -4.411
      -4.169
      -3.872
      -3.520
      -3.042
      -2.340
      -1.375
      -0.215
       0.985
       2.067
       2.936
       3.570
       4.001
       4.296
       4.557
       4.888
       5.327
       5.783
       6.059
       5.953
       5.393
       4.475
       3.399
       2.334
       1.329
       0.318
      -0.786
      -1.999
      -3.237
      -4.348
      -5.186
      -5.662
      -5.765
      -5.555
      -5.129
      -4.578
      -3.962
      -3.312
      -2.639
      -1.934
      -1.169
      -0.326
       0.581
       1.495
       2.337
       3.031
       3.529
       3.813
       3.900
       3.843
       3.726
       3.637
       3.614
       3.616
       3.537
       3.259
       2.695
       1.834
       0.750
      -0.405
      -1.456
      -2.270
      -2.804
      -3.104
      -3.241
      -3.243
      -3.087
      -2.766
      -2.355
      -1.995
      -1.785
      -1.674
      -1.470
      -0.978
      -0.165
       0.776
       1.529
       1.855
       1.722
       1.279
       0.727
       0.216
      -0.188
      -0.474
      -0.646
      -0.706
      -0.663
      -0.545
      -0.414
      -0.341
      -0.371
      -0.483
      -0.603
      -0.651
      -0.600
      -0.491
      -0.395
      -0.353
      -0.335
      -0.261
      -0.074
       0.207
       0.492
       0.691
       0.771
       0.777
       0.774
       0.799
       0.840
       0.879
       0.930
       1.043
       1.243
       1.486
       1.667
       1.705
       1.601
       1.445
       1.327
       1.250
       1.118
       0.814
       0.320
      -0.242
      -0.690
      -0.925
      -1.007
      -1.095
      -1.317
      -1.676
      -2.060
      -2.341
      -2.447
      -2.383
      -2.179
      -1.863
      -1.461
      -1.010
      -0.549
      -0.106
       0.298
       0.637
       0.885
       1.034
       1.100
       1.102
       1.064
       1.027
       1.055
       1.210
       1.494
       1.816
       2.017
       1.956
       1.597
       1.053
       0.517
       0.142
      -0.055
      -0.174
      -0.315
      -0.498
      -0.681
      -0.853
      -1.080
      -1.440
      -1.904
      -2.295
      -2.383
      -2.059
      -1.439
      -0.808
      -0.439
      -0.421
      -0.621
      -0.788
      -0.705
      -0.300
       0.344
       1.068
       1.738
       2.288
       2.698
       2.944
       2.983
       2.792
       2.405
       1.897
       1.336
       0.746
       0.125
      -0.518
      -1.150
      -1.737
      -2.269
      -2.747
      -3.154
      -3.432
      -3.512
      -3.365
      -3.026
      -2.583
      -2.114
      -1.638
      -1.094
      -0.402
       0.463
       1.410
       2.281
       2.946
       3.390
       3.694
       3.922
       4.036
       3.897
       3.390
       2.530
       1.472
       0.409
      -0.535
      -1.344
      -2.058
      -2.707
      -3.262
      -3.652
      -3.804
      -3.684
      -3.311
      -2.738
      -2.029
      -1.245
      -0.444
       0.315
       0.978
       1.532
       2.015
       2.485
       2.963
       3.390
       3.656
       3.661
       3.376
       2.834
       2.104
       1.250
       0.327
      -0.631
      -1.587
      -2.484
      -3.226
      -3.698
      -3.817
      -3.598
      -3.162
      -2.678
      -2.253
      -1.869
      -1.431
      -0.881
      -0.255
       0.373
       0.991
       1.673
       2.476
       3.313
       3.948
       4.142
       3.826
       3.149
       2.373
       1.721
       1.298
       1.104
       1.086
       1.176
       1.300
       1.390
       1.398
       1.290
       1.027
       0.574
      -0.077
      -0.872
      -1.708
      -2.474
      -3.085
      -3.493
      -3.663
      -3.579
      -3.261
      -2.802
      -2.349
      -2.035
      -1.908
      -1.911
      -1.935
      -1.893
      -1.736
      -1.433
      -0.947
      -0.248
       0.648
       1.655
       2.635
       3.454
       4.044
       4.423
       4.641
       4.719
       4.613
       4.255
       3.632
       2.824
       1.960
       1.122
       0.312
      -0.508
      -1.343
      -2.147
      -2.851
      -3.409
      -3.800
      -4.014
      -4.040
      -3.872
      -3.531
      -3.058
      -2.508
      -1.926
      -1.339
      -0.743
      -0.116
       0.569
       1.320
       2.103
       2.830
       3.389
       3.705
       3.781
       3.682
       3.461
       3.111
       2.575
       1.810
       0.850
      -0.191
      -1.166
      -1.955
      -2.513
      -2.868
      -3.089
      -3.223
      -3.271
      -3.212
      -3.036
      -2.742
      -2.313
      -1.709
      -0.911
       0.026
       0.957
       1.720
       2.222
       2.475
       2.549
       2.499
       2.331
       2.031
       1.611
       1.124
       0.648
       0.254
      -0.030
      -0.237
      -0.439
      -0.712
      -1.086
      -1.549
      -2.058
      -2.558
      -2.971
      -3.189
      -3.104
      -2.668
      -1.947
      -1.120
