Origin Time       10/5/2012 22:00:40	
Lat.              30.2 N	
Long.             79.4 E	
Depth (Km)          5.0
Magnitude         3.9
 Region           Chamoli-Uttarakhand                                              
 Above details taken from IMD 
   
Station Code      GAR
Station Lat.       30.051
Station Long.      79.288
Station Height(m) 1614.0
Site Class        A   Vs30 between 700 m/sec to 1400 m/sec * 
Record Time       10.05.2012 22:00:18.404
Sampling Rate     200. Hz
 Record Duration   80.365 Sec.
 Direction         Vert. (Up positive)
Max. Acceleration     -3.797 cm/sec**2
     
  * For reference see Site Classification link of website 
     
 Base Line Corrected and Low Pass Filtered (Cut Off at 35 Hz) Time History
 Acceleration data in cm/sec**2
    
[...]
      -0.049
      -0.154
      -0.172
      -0.091
       0.045
       0.172
       0.245
       0.262
       0.248
       0.228
       0.209
       0.190
       0.162
       0.111
       0.019
      -0.125
      -0.305
      -0.473
      -0.564
      -0.530
      -0.374
      -0.152
       0.059
       0.197
       0.236
       0.192
       0.114
       0.054
       0.033
       0.021
      -0.039
      -0.171
      -0.333
      -0.437
      -0.408
      -0.233
       0.023
       0.260
       0.400
       0.418
       0.348
       0.256
       0.207
       0.230
       0.302
       0.361
       0.347
       0.232
       0.044
      -0.144
      -0.244
      -0.213
      -0.097
      -0.011
      -0.056
      -0.231
      -0.434
      -0.533
      -0.458
      -0.252
      -0.041
       0.041
      -0.046
      -0.215
      -0.317
      -0.246
      -0.005
       0.304
       0.544
       0.620
       0.518
       0.305
       0.081
      -0.069
      -0.114
      -0.082
      -0.039
      -0.040
      -0.093
      -0.153
      -0.168
      -0.124
      -0.064
      -0.041
      -0.069
      -0.109
      -0.115
      -0.081
      -0.049
      -0.072
      -0.157
      -0.262
      -0.323
      -0.305
      -0.205
      -0.043
       0.148
       0.326
       0.450
       0.491
       0.435
       0.300
       0.149
       0.076
       0.153
       0.364
       0.594
       0.684
       0.530
       0.156
      -0.285
      -0.593
      -0.648
      -0.486
      -0.257
      -0.106
      -0.090
      -0.181
      -0.319
      -0.448
      -0.523
      -0.502
      -0.364
      -0.123
       0.154
       0.375
       0.463
       0.404
       0.258
       0.127
       0.080
       0.112
       0.153
       0.134
       0.041
      -0.093
      -0.233
      -0.350
      -0.401
      -0.338
      -0.161
       0.054
       0.200
       0.222
       0.145
       0.038
      -0.025
       0.006
       0.136
       0.299
       0.386
       0.336
       0.189
       0.050
       0.013
       0.107
       0.290
       0.466
       0.516
       0.362
       0.025
      -0.373
      -0.666
      -0.730
      -0.549
      -0.230
       0.057
       0.170
       0.075
      -0.144
      -0.344
      -0.422
      -0.366
      -0.233
      -0.097
       0.003
       0.060
       0.078
       0.062
       0.031
       0.004
      -0.008
      -0.001
       0.041
       0.125
       0.210
       0.216
       0.099
      -0.092
      -0.234
      -0.220
      -0.034
       0.253
       0.524
       0.668
       0.619
       0.375
       0.012
      -0.330
      -0.500
      -0.416
      -0.131
       0.190
       0.377
       0.367
       0.218
       0.026
      -0.152
      -0.295
      -0.375
      -0.350
      -0.206
      -0.004
       0.126
       0.062
      -0.207
      -0.543
      -0.731
      -0.639
      -0.321
       0.020
       0.191
       0.149
       0.011
      -0.048
       0.079
       0.364
       0.668
       0.829
       0.774
       0.554
       0.285
       0.051
      -0.145
      -0.342
      -0.543
      -0.693
      -0.724
      -0.605
      -0.358
      -0.040
       0.272
       0.499
       0.580
       0.488
       0.260
      -0.002
      -0.174
      -0.182
      -0.068
       0.048
       0.064
      -0.021
      -0.116
      -0.115
       0.009
       0.171
       0.239
       0.149
      -0.045
      -0.220
      -0.292
      -0.268
      -0.220
      -0.211
      -0.251
      -0.297
      -0.281
      -0.154
       0.071
       0.308
       0.434
       0.364
       0.103
      -0.233
      -0.466
      -0.448
      -0.161
       0.262
       0.615
       0.745
       0.625
       0.343
       0.042
      -0.155
      -0.208
      -0.160
      -0.092
      -0.065
      -0.091
      -0.147
      -0.203
      -0.225
      -0.181
      -0.058
       0.119
       0.287
       0.373
       0.331
       0.170
      -0.046
      -0.237
      -0.353
      -0.377
      -0.318
      -0.199
      -0.054
       0.086
       0.188
       0.217
       0.153
       0.029
      -0.057
       0.003
       0.227
       0.507
       0.674
       0.620
       0.370
       0.051
      -0.198
      -0.297
      -0.253
      -0.142
      -0.068
      -0.110
      -0.275
      -0.486
      -0.634
      -0.646
      -0.538
      -0.385
      -0.253
      -0.151
      -0.047
       0.088
       0.257
       0.420
       0.515
       0.486
       0.337
       0.150
       0.042
       0.092
       0.268
       0.446
       0.502
       0.418
       0.284
       0.208
       0.217
       0.234
       0.153
      -0.074
      -0.395
      -0.683
      -0.820
      -0.786
      -0.663
      -0.555
      -0.495
      -0.449
      -0.384
      -0.303
      -0.217
      -0.105
       0.059
       0.257
       0.430
       0.513
       0.491
       0.415
       0.363
       0.382
       0.448
       0.479
       0.383
       0.141
      -0.167
      -0.393
      -0.436
      -0.332
      -0.222
      -0.209
      -0.256
      -0.228
      -0.053
       0.184
       0.318
       0.246
       0.024
      -0.194
      -0.273
      -0.201
      -0.069
       0.019
       0.032
       0.005
      -0.027
      -0.071
      -0.149
      -0.249
      -0.311
      -0.265
      -0.094
       0.136
       0.320
       0.399
       0.408
       0.418
       0.445
       0.423
       0.276
       0.011
      -0.286
      -0.511
      -0.609
      -0.588
      -0.483
      -0.334
      -0.159
       0.022
       0.174
       0.247
       0.211
       0.089
      -0.048
      -0.110
      -0.042
       0.142
       0.362
       0.529
       0.613
       0.647
       0.668
       0.655
       0.532
       0.254
      -0.121
      -0.445
      -0.585
      -0.539
      -0.430
      -0.393
      -0.457
      -0.534
      -0.524
      -0.414
      -0.279
      -0.204
      -0.203
      -0.212
      -0.144
       0.027
       0.242
       0.404
       0.459
       0.435
       0.394
       0.370
       0.352
       0.310
       0.231
       0.130
       0.031
      -0.054
      -0.130
      -0.191
      -0.209
      -0.161
      -0.077
      -0.025
      -0.052
      -0.121
      -0.147
      -0.081
       0.045
       0.140
       0.129
       0.000
      -0.188
      -0.345
      -0.407
      -0.363
      -0.241
      -0.083
       0.083
       0.249
       0.423
       0.601
       0.744
       0.782
       0.645
       0.311
      -0.182
      -0.728
      -1.173
      -1.361
      -1.205
      -0.755
      -0.186
       0.285
       0.525
       0.555
       0.499
       0.462
       0.441
       0.348
       0.130
      -0.149
      -0.332
      -0.293
      -0.030
       0.336
       0.660
       0.851
       0.895
       0.804
       0.582
       0.236
      -0.198
      -0.650
      -1.046
      -1.326
      -1.430
      -1.295
      -0.894
      -0.289
       0.342
       0.772
       0.845
       0.580
       0.169
      -0.137
      -0.192
      -0.036
       0.162
       0.251
       0.193
       0.066
      -0.019
      -0.002
       0.085
       0.154
       0.158
       0.124
       0.105
       0.101
       0.052
      -0.088
      -0.274
      -0.384
      -0.318
      -0.100
       0.113
       0.146
      -0.037
      -0.280
      -0.333
      -0.052
       0.468
       0.935
       1.050
       0.705
       0.050
      -0.611
      -1.013
      -1.055
      -0.803
      -0.395
       0.033
       0.380
       0.589
       0.668
       0.677
       0.667
       0.626
       0.478
       0.159
      -0.299
      -0.739
      -0.953
      -0.818
      -0.389
       0.118
       0.455
       0.510
       0.369
       0.235
       0.251
       0.371
       0.409
       0.221
      -0.154
      -0.527
      -0.727
      -0.728
      -0.627
      -0.543
      -0.532
      -0.565
      -0.564
      -0.457
      -0.235
       0.042
       0.290
       0.461
       0.561
       0.618
       0.640
       0.605
       0.500
       0.362
       0.256
       0.212
       0.186
       0.095
      -0.087
      -0.296
      -0.420
      -0.395
      -0.253
      -0.086
       0.024
       0.054
       0.033
      -0.010
      -0.075
      -0.160
      -0.214
      -0.142
       0.102
       0.423
       0.606
       0.482
       0.089
      -0.319
      -0.463
      -0.254
       0.151
       0.470
       0.497
       0.217
      -0.207
      -0.527
      -0.556
      -0.279
       0.130
       0.397
       0.310
      -0.158
      -0.821
      -1.368
      -1.530
      -1.218
      -0.570
       0.146
       0.694
       0.979
       1.038
       0.969
       0.853
       0.728
       0.597
       0.464
       0.351
       0.279
       0.225
       0.121
      -0.076
      -0.318
      -0.476
      -0.433
      -0.190
       0.105
       0.257
       0.159
      -0.137
      -0.459
      -0.642
      -0.615
      -0.409
      -0.108
       0.193
       0.418
       0.535
       0.567
       0.562
       0.536
       0.446
       0.223
      -0.161
      -0.634
      -1.007
      -1.054
      -0.672
      -0.019
       0.545
       0.696
       0.380
      -0.142
      -0.487
      -0.412
       0.038
       0.590
       0.933
       0.892
       0.496
      -0.075
      -0.594
      -0.895
      -0.926
      -0.738
      -0.424
      -0.078
       0.210
       0.367
       0.375
       0.312
       0.297
       0.394
       0.560
       0.673
       0.607
       0.314
      -0.127
      -0.527
      -0.701
      -0.608
      -0.383
      -0.208
      -0.142
      -0.095
       0.048
       0.278
       0.443
       0.376
       0.035
      -0.440
      -0.819
      -0.914
      -0.690
      -0.275
       0.110
       0.276
       0.188
      -0.019
      -0.138
      -0.040
       0.237
       0.532
       0.671
       0.558
       0.212
      -0.245
      -0.651
      -0.894
      -0.966
      -0.944
      -0.908
      -0.861
      -0.706
      -0.312
       0.363
       1.171
       1.802
       1.967
       1.617
       1.015
       0.553
       0.456
       0.635
       0.799
       0.717
       0.371
      -0.090
      -0.510
      -0.826
      -1.042
      -1.155
      -1.135
      -0.975
      -0.732
      -0.513
      -0.401
      -0.375
      -0.325
      -0.165
       0.060
       0.196
       0.111
      -0.169
      -0.458
      -0.548
      -0.361
      -0.016
       0.277
       0.385
       0.326
       0.201
       0.063
      -0.113
      -0.364
      -0.654
      -0.875
      -0.919
      -0.765
      -0.506
      -0.288
      -0.195
      -0.177
      -0.094
       0.152
       0.539
       0.961
       1.323
       1.575
       1.686
       1.629
       1.410
       1.100
       0.819
       0.686
       0.747
       0.933
       1.065
       0.936
       0.452
      -0.275
      -0.967
      -1.356
      -1.358
      -1.104
      -0.807
      -0.592
      -0.437
      -0.248
       0.028
       0.354
       0.638
       0.799
       0.819
       0.755
       0.675
       0.585
       0.433
       0.187
      -0.113
      -0.381
      -0.559
      -0.661
      -0.739
      -0.825
      -0.906
      -0.944
      -0.929
      -0.895
      -0.903
      -0.994
      -1.146
      -1.259
      -1.197
      -0.879
      -0.362
       0.159
       0.469
       0.483
       0.304
       0.134
       0.128
       0.292
       0.511
       0.647
       0.626
       0.464
       0.223
      -0.023
      -0.192
      -0.216
      -0.093
       0.092
       0.229
       0.280
       0.298
       0.338
       0.372
       0.307
       0.097
      -0.173
      -0.319
      -0.178
       0.259
       0.805
       1.163
       1.101
       0.602
      -0.132
      -0.797
      -1.167
      -1.213
      -1.107
      -1.068
      -1.166
      -1.254
      -1.093
      -0.542
       0.353
       1.399
       2.357
       3.021
       3.271
       3.104
       2.605
       1.892
       1.083
       0.294
      -0.369
      -0.837
      -1.117
      -1.256
      -1.273
      -1.136
      -0.822
      -0.420
      -0.110
      -0.034
      -0.165
      -0.351
      -0.483
      -0.617
      -0.907
      -1.418
      -1.997
      -2.311
      -2.035
      -1.060
       0.379
       1.763
       2.532
       2.399
       1.509
       0.326
      -0.667
      -1.242
      -1.484
      -1.617
      -1.767
      -1.876
      -1.812
      -1.536
      -1.156
      -0.829
      -0.615
      -0.422
      -0.090
       0.458
       1.128
       1.722
       2.114
       2.361
       2.628
       3.003
       3.384
       3.569
       3.417
       2.947
       2.287
       1.556
       0.787
      -0.042
      -0.923
      -1.762
      -2.426
      -2.834
      -3.001
      -3.001
      -2.890
      -2.682
      -2.375
      -1.996
      -1.603
      -1.262
      -1.017
      -0.875
      -0.810
      -0.779
      -0.744
      -0.664
      -0.471
      -0.072
       0.575
       1.383
       2.124
       2.534
       2.473
       2.006
       1.360
       0.789
       0.415
       0.161
      -0.192
      -0.834
      -1.762
      -2.738
      -3.417
      -3.559
      -3.152
      -2.396
      -1.557
      -0.810
      -0.186
       0.378
       0.955
       1.581
       2.244
       2.870
       3.326
       3.463
       3.197
       2.588
       1.863
       1.347
       1.306
       1.780
       2.525
       3.128
       3.236
       2.731
       1.749
       0.543
      -0.674
      -1.786
      -2.730
      -3.430
      -3.797
      -3.778
      -3.390
      -2.718
      -1.878
      -0.985
      -0.146
       0.562
       1.103
       1.486
       1.731
       1.826
       1.717
       1.346
       0.715
      -0.058
      -0.750
      -1.128
      -1.084
      -0.721
      -0.310
      -0.132
      -0.318
      -0.793
      -1.354
      -1.800
      -2.016
      -1.998
      -1.829
      -1.630
      -1.475
      -1.320
      -0.995
      -0.318
       0.739
       1.958
       2.978
       3.508
       3.491
       3.088
       2.523
       1.963
       1.486
       1.124
       0.871
       0.670
       0.414
       0.015
      -0.508
      -1.015
      -1.340
      -1.396
      -1.208
      -0.850
      -0.379
       0.177
       0.771
       1.285
       1.535
       1.397
       0.934
       0.395
       0.033
      -0.091
      -0.150
      -0.399
      -0.959
      -1.721
      -2.416
      -2.783
      -2.715
      -2.300
      -1.739
      -1.224
      -0.846
      -0.584
      -0.374
      -0.188
      -0.053
      -0.012
      -0.049
      -0.077
       0.005
       0.233
       0.562
       0.924
       1.269
       1.549
       1.698
       1.651
       1.396
       0.975
       0.447
      -0.131
      -0.685
      -1.102
      -1.261
      -1.099
      -0.661
      -0.098
       0.391
       0.642
       0.599
       0.331
      -0.041
      -0.416
      -0.754
      -1.035
      -1.213
      -1.209
      -0.950
      -0.421
       0.303
       1.069
       1.679
       1.973
       1.896
       1.498
       0.864
       0.045
      -0.911
      -1.870
      -2.582
      -2.766
      -2.283
      -1.257
      -0.041
       0.957
       1.489
       1.582
       1.469
       1.419
       1.547
       1.737
       1.731
       1.317
       0.506
      -0.440
      -1.158
      -1.388
      -1.099
      -0.471
       0.204
       0.649
       0.703
       0.404
      -0.033
      -0.345
      -0.402
      -0.296
      -0.261
      -0.492
      -0.995
      -1.566
      -1.912
      -1.827
      -1.313
      -0.574
       0.121
       0.591
       0.803
       0.822
       0.710
       0.505
       0.262
       0.086
       0.070
       0.213
       0.428
       0.627
       0.791
       0.949
       1.100
       1.185
       1.110
       0.812
       0.321
      -0.214
      -0.580
      -0.630
      -0.389
      -0.035
       0.224
       0.264
       0.073
      -0.303
      -0.785
      -1.264
      -1.607
      -1.692
      -1.479
      -1.041
      -0.536
      -0.127
       0.103
       0.192
       0.260
       0.400
       0.586
       0.683
       0.570
       0.265
      -0.073
      -0.279
      -0.315
      -0.265
      -0.197
      -0.070
       0.219
       0.708
       1.290
       1.746
       1.871
       1.608
       1.097
       0.588
       0.287
       0.232
       0.296
       0.305
       0.164
      -0.106
      -0.430
      -0.753
      -1.045
      -1.264
      -1.343
      -1.232
      -0.938
      -0.519
      -0.049
       0.401
       0.781
       1.060
       1.228
       1.277
       1.193
       0.990
       0.740
       0.532
       0.397
       0.292
       0.151
      -0.058
      -0.317
      -0.582
      -0.811
      -0.991
      -1.152
      -1.349
      -1.585
      -1.768
      -1.750
      -1.434
      -0.868
      -0.243
       0.224
       0.430
       0.444
       0.431
       0.519
       0.705
       0.877
       0.916
       0.783
       0.527
       0.239
      -0.009
      -0.190
      -0.307
      -0.347
      -0.272
      -0.056
       0.256
       0.536
       0.638
       0.493
       0.165
      -0.183
      -0.390
      -0.391
      -0.245
      -0.065
       0.063
       0.104
       0.051
      -0.113
      -0.392
      -0.739
      -1.047
      -1.199
      -1.144
      -0.935
      -0.695
      -0.536
      -0.481
      -0.458
      -0.363
      -0.155
       0.104
       0.304
       0.388
       0.403
       0.441
       0.533
       0.611
       0.577
       0.410
       0.216
       0.162
       0.339
       0.680
       0.986
       1.072
       0.903
       0.616
       0.408
       0.384
       0.490
       0.576
       0.521
       0.308
       0.018
      -0.236
      -0.380
      -0.408
      -0.385
      -0.405
      -0.539
      -0.786
      -1.061
      -1.237
      -1.233
      -1.083
      -0.909
      -0.830
      -0.879
      -1.000
      -1.097
      -1.091
      -0.932
      -0.598
      -0.109
       0.457
       0.964
       1.274
       1.305
       1.077
       0.711
       0.384
       0.248
       0.345
       0.575
       0.755
       0.741
       0.540
       0.290
       0.159
       0.233
       0.484
       0.822
       1.151
       1.411
       1.565
       1.568
       1.379
       1.004
       0.545
       0.162
      -0.024
      -0.024
       0.024
      -0.036
      -0.261
      -0.571
      -0.820
      -0.901
      -0.819
      -0.690
      -0.661
      -0.801
      -1.029
      -1.158
      -1.020
      -0.606
      -0.084
       0.305
       0.410
       0.245
      -0.048
      -0.308
      -0.446
      -0.469
      -0.466
      -0.536
      -0.706
      -0.890
      -0.921
      -0.660
      -0.102
       0.589
       1.152
       1.381
       1.247
       0.909
       0.598
       0.460
       0.470
       0.485
       0.368
       0.110
      -0.175
      -0.332
      -0.281
      -0.050
       0.255
       0.516
       0.633
       0.549
       0.291
      -0.021
      -0.253
      -0.362
      -0.424
      -0.537
      -0.717
      -0.887
      -0.949
      -0.872
      -0.712
      -0.554
      -0.450
      -0.383
      -0.294
      -0.148
       0.028
       0.149
       0.132
      -0.039
      -0.287
      -0.482
      -0.530
      -0.424
      -0.228
