Origin Time       10/07/2010 03:16:20 UTC
Lat.              29.9 N 
Long.             79.6 E 
Depth (Km)         10.0
Magnitude         4.1
 Region           ALMORA-UTTARAKHAND                                               
 Above details taken from IMD 
    
Station Code      GAR
Station Lat.       30.051  N
Station Long.      79.288  E
Station Height(m) 1614.0
Site Class        A   Vs30 between 700 m/sec to 1400 m/sec * 
Record Time       10.07.2010 03:16:14.249 UTC
Sampling Rate     200. Hz
 Record Duration   66.590 Sec.
 Direction         N-S (N positive)
Max. Acceleration     -8.965 cm/sec**2
     
  * For reference see Site Classification link of website 
     
 Base Line Corrected and Low Pass Filtered (Cut Off at 35 Hz) Time History
 Acceleration data in cm/sec**2
    
[...]
       0.008
      -0.032
      -0.064
      -0.073
      -0.054
      -0.013
       0.033
       0.063
       0.066
       0.045
       0.018
       0.007
       0.027
       0.068
       0.098
       0.087
       0.031
      -0.037
      -0.077
      -0.070
      -0.023
       0.033
       0.072
       0.088
       0.089
       0.087
       0.079
       0.054
       0.009
      -0.044
      -0.087
      -0.106
      -0.102
      -0.084
      -0.059
      -0.033
      -0.009
       0.006
       0.007
      -0.002
      -0.014
      -0.022
      -0.031
      -0.053
      -0.087
      -0.112
      -0.101
      -0.042
       0.048
       0.137
       0.192
       0.195
       0.146
       0.065
      -0.011
      -0.048
      -0.035
       0.008
       0.047
       0.062
       0.055
       0.045
       0.045
       0.047
       0.033
      -0.009
      -0.073
      -0.142
      -0.200
      -0.236
      -0.243
      -0.226
      -0.196
      -0.159
      -0.101
      -0.005
       0.123
       0.249
       0.326
       0.324
       0.250
       0.133
       0.007
      -0.102
      -0.172
      -0.181
      -0.114
       0.024
       0.194
       0.343
       0.431
       0.439
       0.372
       0.240
       0.063
      -0.134
      -0.319
      -0.463
      -0.543
      -0.546
      -0.469
      -0.326
      -0.150
       0.016
       0.133
       0.176
       0.145
       0.055
      -0.064
      -0.179
      -0.250
      -0.244
      -0.155
      -0.009
       0.143
       0.263
       0.341
       0.384
       0.393
       0.353
       0.248
       0.085
      -0.097
      -0.238
      -0.281
      -0.204
      -0.023
       0.205
       0.409
       0.522
       0.506
       0.366
       0.148
      -0.079
      -0.250
      -0.327
      -0.308
      -0.224
      -0.118
      -0.022
       0.049
       0.093
       0.094
       0.029
      -0.115
      -0.324
      -0.544
      -0.696
      -0.708
      -0.556
      -0.279
       0.036
       0.293
       0.426
       0.418
       0.298
       0.122
      -0.055
      -0.200
      -0.295
      -0.314
      -0.229
      -0.039
       0.205
       0.418
       0.541
       0.565
       0.523
       0.453
       0.373
       0.285
       0.185
       0.078
      -0.026
      -0.110
      -0.152
      -0.133
      -0.046
       0.084
       0.201
       0.240
       0.160
      -0.032
      -0.282
      -0.517
      -0.674
      -0.719
      -0.663
      -0.548
      -0.419
      -0.299
      -0.172
      -0.012
       0.178
       0.341
       0.404
       0.332
       0.174
       0.030
      -0.027
      -0.002
       0.041
       0.054
       0.048
       0.077
       0.178
       0.329
       0.465
       0.527
       0.497
       0.399
       0.269
       0.132
      -0.006
      -0.147
      -0.283
      -0.389
      -0.423
      -0.357
      -0.202
      -0.021
       0.104
       0.120
       0.030
      -0.116
      -0.255
      -0.344
      -0.369
      -0.337
      -0.265
      -0.172
      -0.077
      -0.012
       0.001
      -0.028
      -0.040
       0.030
       0.199
       0.407
       0.551
       0.557
       0.434
       0.268
       0.152
       0.121
       0.134
       0.128
       0.078
       0.014
      -0.021
      -0.017
      -0.014
      -0.054
      -0.141
      -0.230
      -0.271
      -0.265
      -0.263
      -0.320
      -0.428
      -0.502
      -0.448
      -0.245
       0.028
       0.247
       0.341
       0.330
       0.303
       0.326
       0.402
       0.471
       0.464
       0.344
       0.124
      -0.132
      -0.326
      -0.362
      -0.211
       0.050
       0.274
       0.325
       0.165
      -0.148
      -0.506
      -0.807
      -0.980
      -0.981
      -0.799
      -0.470
      -0.081
       0.268
       0.512
       0.644
       0.689
       0.665
       0.571
       0.413
       0.230
       0.085
       0.023
       0.041
       0.097
       0.145
       0.167
       0.163
       0.136
       0.067
      -0.071
      -0.276
      -0.502
      -0.666
      -0.687
      -0.528
      -0.216
       0.156
       0.457
       0.574
       0.478
       0.249
       0.028
      -0.068
      -0.030
       0.056
       0.078
      -0.012
      -0.168
      -0.303
      -0.353
      -0.314
      -0.216
      -0.103
      -0.020
      -0.005
      -0.061
      -0.142
      -0.178
      -0.140
      -0.061
       0.003
       0.038
       0.098
       0.241
       0.459
       0.660
       0.730
       0.625
       0.408
       0.207
       0.117
       0.142
       0.197
       0.179
       0.029
      -0.224
      -0.473
      -0.591
      -0.511
      -0.271
       0.002
       0.170
       0.161
      -0.010
      -0.269
      -0.527
      -0.701
      -0.730
      -0.605
      -0.386
      -0.190
      -0.119
      -0.180
      -0.271
      -0.251
      -0.044
       0.316
       0.713
       1.015
       1.129
       1.023
       0.731
       0.350
       0.009
      -0.185
      -0.205
      -0.107
       0.016
       0.104
       0.154
       0.189
       0.208
       0.182
       0.094
      -0.036
      -0.175
      -0.320
      -0.489
      -0.663
      -0.767
      -0.709
      -0.455
      -0.076
       0.284
       0.490
       0.481
       0.296
       0.031
      -0.218
      -0.383
      -0.429
      -0.346
      -0.151
       0.101
       0.333
       0.468
       0.462
       0.323
       0.103
      -0.132
      -0.331
      -0.463
      -0.508
      -0.458
      -0.328
      -0.170
      -0.047
       0.010
       0.009
      -0.022
      -0.070
      -0.130
      -0.174
      -0.144
       0.014
       0.306
       0.670
       1.016
       1.272
       1.406
       1.409
       1.269
       0.968
       0.521
       0.009
      -0.439
      -0.715
      -0.795
      -0.751
      -0.698
      -0.716
      -0.818
      -0.963
      -1.095
      -1.166
      -1.148
      -1.027
      -0.822
      -0.575
      -0.334
      -0.122
       0.066
       0.247
       0.441
       0.666
       0.937
       1.243
       1.524
       1.683
       1.632
       1.360
       0.941
       0.491
       0.098
      -0.203
      -0.418
      -0.569
      -0.683
      -0.780
      -0.852
      -0.847
      -0.697
      -0.387
      -0.002
       0.299
       0.370
       0.162
      -0.247
      -0.684
      -0.966
      -0.986
      -0.758
      -0.394
      -0.024
       0.272
       0.478
       0.616
       0.697
       0.718
       0.678
       0.599
       0.511
       0.423
       0.325
       0.204
       0.071
      -0.048
      -0.140
      -0.211
      -0.288
      -0.393
      -0.546
      -0.746
      -0.964
      -1.122
      -1.126
      -0.915
      -0.518
      -0.048
       0.363
       0.638
       0.773
       0.805
       0.768
       0.690
       0.610
       0.590
       0.679
       0.868
       1.072
       1.171
       1.090
       0.847
       0.530
       0.220
      -0.069
      -0.396
      -0.817
      -1.322
      -1.809
      -2.137
      -2.205
      -2.003
      -1.615
      -1.168
      -0.766
      -0.436
      -0.130
       0.217
       0.615
       1.002
       1.293
       1.434
       1.448
       1.403
       1.365
       1.338
       1.271
       1.098
       0.807
       0.451
       0.134
      -0.058
      -0.105
      -0.082
      -0.119
      -0.322
      -0.687
      -1.095
      -1.394
      -1.505
      -1.452
      -1.309
      -1.129
      -0.915
      -0.654
      -0.337
       0.028
       0.412
       0.765
       1.017
       1.118
       1.081
       0.988
       0.927
       0.927
       0.935
       0.866
       0.679
       0.410
       0.153
      -0.014
      -0.087
      -0.134
      -0.245
      -0.453
      -0.714
      -0.933
      -1.029
      -0.980
      -0.821
      -0.622
      -0.448
      -0.330
      -0.252
      -0.178
      -0.082
       0.026
       0.115
       0.164
       0.176
       0.182
       0.235
       0.378
       0.602
       0.822
       0.916
       0.805
       0.509
       0.137
      -0.180
      -0.364
      -0.407
      -0.350
      -0.244
      -0.129
      -0.051
      -0.066
      -0.208
      -0.451
      -0.699
      -0.845
      -0.839
      -0.709
      -0.523
      -0.337
      -0.174
      -0.033
       0.084
       0.174
       0.233
       0.261
       0.259
       0.239
       0.228
       0.271
       0.407
       0.634
       0.897
       1.096
       1.130
       0.951
       0.600
       0.213
      -0.045
      -0.071
       0.114
       0.361
       0.473
       0.317
      -0.091
      -0.589
      -0.968
      -1.110
      -1.041
      -0.879
      -0.727
      -0.609
      -0.491
      -0.336
      -0.141
       0.072
       0.270
       0.431
       0.543
       0.595
       0.581
       0.506
       0.399
       0.304
       0.260
       0.272
       0.309
       0.318
       0.236
       0.011
      -0.369
      -0.831
      -1.216
      -1.353
      -1.166
      -0.744
      -0.285
       0.035
       0.166
       0.183
       0.196
       0.262
       0.374
       0.514
       0.693
       0.913
       1.125
       1.216
       1.083
       0.713
       0.198
      -0.328
      -0.773
      -1.113
      -1.342
      -1.430
      -1.332
      -1.052
      -0.671
      -0.308
      -0.037
       0.143
       0.278
       0.400
       0.526
       0.673
       0.873
       1.128
       1.386
       1.566
       1.631
       1.627
       1.626
       1.649
       1.623
       1.448
       1.066
       0.503
      -0.159
      -0.838
      -1.477
      -2.053
      -2.560
      -2.977
      -3.250
      -3.309
      -3.123
      -2.724
      -2.179
      -1.528
      -0.770
       0.073
       0.898
       1.527
       1.825
       1.816
       1.695
       1.706
       1.976
       2.434
       2.883
       3.139
       3.136
       2.909
       2.521
       2.005
       1.377
       0.671
      -0.069
      -0.820
      -1.588
      -2.367
      -3.095
      -3.671
      -4.022
      -4.145
      -4.084
      -3.880
      -3.557
      -3.151
      -2.719
      -2.304
      -1.905
      -1.485
      -1.018
      -0.506
       0.034
       0.579
       1.101
       1.560
       1.921
       2.199
       2.459
       2.758
       3.054
       3.182
       2.942
       2.256
       1.264
       0.268
      -0.420
      -0.619
      -0.330
       0.301
       1.040
       1.637
       1.892
       1.729
       1.208
       0.471
      -0.319
      -1.013
      -1.478
      -1.617
      -1.409
      -0.930
      -0.334
       0.205
       0.557
       0.666
       0.558
       0.332
       0.112
      -0.004
       0.022
       0.184
       0.466
       0.857
       1.324
       1.801
       2.215
       2.524
       2.739
       2.900
       3.032
       3.103
       3.007
       2.616
       1.866
       0.817
      -0.375
      -1.550
      -2.631
      -3.617
      -4.505
      -5.207
      -5.537
      -5.307
      -4.474
      -3.229
      -1.944
      -0.980
      -0.492
      -0.376
      -0.397
      -0.350
      -0.160
       0.144
       0.503
       0.893
       1.330
       1.821
       2.300
       2.613
       2.582
       2.119
       1.288
       0.266
      -0.753
      -1.638
      -2.330
      -2.797
      -2.999
      -2.921
      -2.645
      -2.379
      -2.374
      -2.762
      -3.441
      -4.092
      -4.340
      -3.931
      -2.837
      -1.224
       0.661
       2.608
       4.476
       6.147
       7.475
       8.282
       8.443
       7.974
       7.056
       5.931
       4.765
       3.595
       2.400
       1.222
       0.205
      -0.511
      -0.937
      -1.296
      -1.910
      -2.990
      -4.453
      -5.935
      -6.978
      -7.269
      -6.764
      -5.631
      -4.118
      -2.465
      -0.916
       0.258
       0.828
       0.755
       0.270
      -0.207
      -0.286
       0.204
       1.187
       2.439
       3.701
       4.745
       5.390
       5.517
       5.089
       4.165
       2.899
       1.510
       0.239
      -0.736
      -1.364
      -1.747
      -2.082
      -2.569
      -3.308
      -4.233
      -5.117
      -5.644
      -5.538
      -4.675
      -3.136
      -1.195
       0.763
       2.370
       3.393
       3.805
       3.744
       3.382
       2.805
       1.981
       0.859
      -0.521
      -1.955
      -3.121
      -3.695
      -3.497
      -2.594
      -1.297
      -0.021
       0.909
       1.390
       1.524
       1.495
       1.436
       1.386
       1.330
       1.246
       1.125
       0.975
       0.861
       0.927
       1.341
       2.147
       3.163
       4.058
       4.556
       4.570
       4.141
       3.263
       1.826
      -0.231
      -2.700
      -5.085
      -6.839
      -7.673
      -7.666
      -7.095
      -6.186
      -4.998
      -3.524
      -1.830
      -0.093
       1.470
       2.697
       3.530
       4.002
       4.214
       4.282
       4.295
       4.267
       4.123
       3.712
       2.867
       1.503
      -0.314
      -2.338
      -4.196
      -5.510
      -6.045
      -5.800
      -4.967
      -3.801
      -2.487
      -1.103
       0.307
       1.659
       2.817
       3.658
       4.162
       4.441
       4.687
       5.053
       5.528
       5.933
       6.017
       5.610
       4.703
       3.420
       1.921
       0.334
      -1.254
      -2.767
      -4.144
      -5.371
      -6.494
      -7.540
      -8.428
      -8.965
      -8.957
      -8.333
      -7.159
      -5.562
      -3.666
      -1.614
       0.391
       2.096
       3.294
       3.922
       4.090
       4.017
       3.933
       4.000
       4.264
       4.643
       4.967
       5.063
       4.831
       4.271
       3.441
       2.416
       1.273
       0.111
      -0.969
      -1.904
      -2.707
      -3.409
      -3.974
      -4.256
      -4.083
      -3.393
      -2.310
      -1.084
       0.055
       0.990
       1.725
       2.310
       2.788
       3.170
       3.426
       3.482
       3.249
       2.714
       2.007
       1.364
       0.958
       0.753
       0.497
      -0.092
      -1.105
      -2.346
      -3.441
      -4.082
      -4.207
      -3.990
      -3.666
      -3.338
      -2.924
      -2.283
      -1.398
      -0.462
       0.232
       0.484
       0.336
       0.042
      -0.092
       0.116
       0.650
       1.331
       1.933
       2.299
       2.390
       2.244
       1.895
       1.311
       0.433
      -0.721
      -1.974
      -3.012
      -3.516
      -3.317
      -2.466
      -1.203
       0.173
       1.422
       2.417
       3.126
       3.563
       3.760
       3.760
       3.623
       3.428
       3.248
       3.106
       2.930
       2.552
       1.796
       0.586
      -0.983
      -2.675
      -4.214
      -5.366
      -5.984
      -6.017
      -5.531
      -4.718
      -3.849
      -3.157
      -2.701
      -2.337
      -1.825
      -1.027
      -0.025
       0.936
       1.618
       1.949
       2.047
       2.120
       2.340
       2.754
       3.273
       3.714
       3.869
       3.582
       2.824
       1.709
       0.445
      -0.759
      -1.760
      -2.487
      -2.902
      -2.983
      -2.728
      -2.182
      -1.447
      -0.664
       0.033
       0.574
       0.974
       1.293
       1.563
       1.756
       1.822
       1.749
       1.579
       1.368
       1.153
       0.956
       0.791
       0.649
       0.479
       0.204
      -0.217
      -0.727
      -1.184
      -1.446
      -1.464
      -1.313
      -1.142
      -1.068
      -1.118
      -1.218
      -1.250
      -1.117
      -0.795
      -0.344
       0.133
       0.549
       0.888
       1.202
       1.567
       2.016
       2.496
       2.875
       3.013
       2.843
       2.396
       1.760
       1.010
       0.163
      -0.786
      -1.809
      -2.798
      -3.581
      -3.995
      -3.968
      -3.567
      -2.948
      -2.278
      -1.651
      -1.074
      -0.499
       0.102
       0.694
       1.188
       1.507
       1.644
       1.660
       1.607
       1.481
       1.236
       0.860
       0.409
      -0.019
      -0.337
      -0.494
      -0.466
      -0.266
       0.049
       0.371
       0.584
       0.621
       0.504
       0.322
       0.178
       0.127
       0.155
       0.186
       0.124
      -0.091
      -0.436
      -0.812
      -1.109
      -1.273
      -1.312
      -1.254
      -1.099
      -0.826
      -0.415
       0.118
       0.704
       1.220
       1.519
       1.494
       1.157
       0.659
       0.232
       0.058
       0.177
       0.481
       0.790
       0.957
       0.922
       0.693
       0.316
      -0.134
      -0.548
      -0.800
      -0.791
      -0.496
       0.014
       0.600
       1.087
       1.313
       1.186
       0.729
       0.079
      -0.569
      -1.038
      -1.230
      -1.141
      -0.842
      -0.448
      -0.088
       0.140
       0.188
       0.065
      -0.199
      -0.576
      -1.029
      -1.486
      -1.840
      -2.000
      -1.947
      -1.741
      -1.476
      -1.228
      -1.030
      -0.881
      -0.761
      -0.652
      -0.537
      -0.385
      -0.144
       0.242
       0.790
       1.441
       2.063
       2.503
       2.663
       2.536
       2.212
       1.805
       1.399
       1.024
       0.697
       0.456
       0.346
       0.365
       0.439
       0.458
       0.352
       0.138
      -0.098
      -0.255
      -0.278
      -0.184
      -0.045
       0.046
       0.023
      -0.124
      -0.343
      -0.555
      -0.688
      -0.700
      -0.582
      -0.339
      -0.008
       0.330
       0.550
       0.542
       0.289
      -0.114
      -0.520
      -0.832
      -1.044
      -1.200
      -1.315
      -1.345
      -1.240
      -1.002
      -0.699
      -0.411
      -0.181
      -0.004
       0.146
       0.286
       0.419
       0.532
       0.590
       0.548
       0.371
       0.062
      -0.325
      -0.688
      -0.911
      -0.903
      -0.636
      -0.158
       0.446
       1.091
       1.702
       2.211
       2.546
       2.658
       2.543
       2.250
       1.845
       1.374
       0.838
       0.225
      -0.440
      -1.086
      -1.635
      -2.042
      -2.297
      -2.389
      -2.296
      -2.013
      -1.591
      -1.122
      -0.689
      -0.339
      -0.088
       0.051
       0.074
       0.009
      -0.064
      -0.036
       0.172
       0.569
       1.094
       1.650
       2.139
       2.458
       2.508
       2.232
       1.664
       0.925
       0.182
      -0.423
      -0.814
      -0.982
      -0.973
      -0.851
      -0.681
      -0.516
      -0.414
      -0.425
      -0.553
      -0.728
      -0.834
      -0.768
      -0.503
      -0.093
       0.350
       0.704
       0.888
       0.879
       0.717
       0.470
       0.197
      -0.059
      -0.258
      -0.375
      -0.421
      -0.446
      -0.499
      -0.588
      -0.686
      -0.774
      -0.875
      -1.019
      -1.189
      -1.297
      -1.245
      -0.992
      -0.594
      -0.169
       0.170
       0.357
       0.398
       0.357
       0.320
       0.343
       0.428
       0.540
       0.637
       0.676
       0.606
       0.379
      -0.004
