Origin Time       04/04/2011 11:31:40 UTC
Lat.              29.6 N	
Long.             80.8 E	
Depth (Km)         10.0
Magnitude         5.7
 Region           NEPAL-INDIA-BORDER-REGION                                        
 Above details taken from IMD 
    
Station Code      GAR
Station Lat.       30.051  N
Station Long.      79.288  E
Station Height(m) 1614.0
Site Class        A   Vs30 between 700 m/sec to 1400 m/sec * 
Record Time       04.04.2011 11:32:11.154 UTC
Sampling Rate     200. Hz
 Record Duration   76.605 Sec.
 Direction         N-S (N positive)
Max. Acceleration    -19.236 cm/sec**2
     
  * For reference see Site Classification link of website 
     
 Base Line Corrected and Low Pass Filtered (Cut Off at 35 Hz) Time History
 Acceleration data in cm/sec**2
    
[...]
      -0.907
      -0.980
      -0.995
      -0.970
      -0.918
      -0.844
      -0.745
      -0.609
      -0.432
      -0.224
      -0.005
       0.201
       0.380
       0.528
       0.654
       0.772
       0.890
       1.003
       1.087
       1.113
       1.057
       0.922
       0.739
       0.551
       0.390
       0.264
       0.165
       0.076
      -0.018
      -0.132
      -0.275
      -0.455
      -0.668
      -0.892
      -1.088
      -1.209
      -1.216
      -1.095
      -0.869
      -0.588
      -0.314
      -0.100
       0.022
       0.044
      -0.020
      -0.138
      -0.270
      -0.370
      -0.406
      -0.370
      -0.280
      -0.169
      -0.065
       0.019
       0.089
       0.162
       0.255
       0.377
       0.520
       0.668
       0.806
       0.922
       1.019
       1.106
       1.186
       1.247
       1.268
       1.229
       1.121
       0.955
       0.758
       0.554
       0.352
       0.143
      -0.093
      -0.373
      -0.696
      -1.044
      -1.384
      -1.676
      -1.881
      -1.969
      -1.935
      -1.799
      -1.600
      -1.373
      -1.136
      -0.896
      -0.652
      -0.411
      -0.181
       0.033
       0.235
       0.431
       0.623
       0.805
       0.972
       1.119
       1.238
       1.310
       1.312
       1.225
       1.049
       0.814
       0.561
       0.324
       0.123
      -0.036
      -0.163
      -0.271
      -0.370
      -0.470
      -0.584
      -0.730
      -0.919
      -1.138
      -1.353
      -1.508
      -1.555
      -1.475
      -1.291
      -1.049
      -0.796
      -0.564
      -0.362
      -0.185
      -0.021
       0.144
       0.326
       0.540
       0.791
       1.074
       1.370
       1.655
       1.903
       2.092
       2.204
       2.223
       2.135
       1.940
       1.659
       1.323
       0.968
       0.615
       0.278
      -0.032
      -0.302
      -0.513
      -0.660
      -0.761
      -0.852
      -0.963
      -1.109
      -1.275
      -1.423
      -1.509
      -1.507
      -1.419
      -1.271
      -1.089
      -0.893
      -0.696
      -0.505
      -0.335
      -0.205
      -0.123
      -0.078
      -0.044
       0.000
       0.068
       0.157
       0.257
       0.358
       0.450
       0.524
       0.567
       0.566
       0.506
       0.379
       0.195
      -0.020
      -0.214
      -0.335
      -0.340
      -0.221
       0.001
       0.278
       0.553
       0.765
       0.870
       0.849
       0.717
       0.512
       0.278
       0.049
      -0.146
      -0.272
      -0.291
      -0.189
       0.013
       0.248
       0.439
       0.527
       0.502
       0.394
       0.251
       0.105
      -0.042
      -0.216
      -0.445
      -0.733
      -1.050
      -1.342
      -1.560
      -1.673
      -1.674
      -1.573
      -1.380
      -1.100
      -0.744
      -0.339
       0.072
       0.437
       0.720
       0.916
       1.059
       1.194
       1.360
       1.560
       1.774
       1.960
       2.082
       2.112
       2.039
       1.862
       1.599
       1.279
       0.935
       0.590
       0.262
      -0.039
      -0.305
      -0.528
      -0.696
      -0.804
      -0.853
      -0.848
      -0.803
      -0.741
      -0.684
      -0.652
      -0.646
      -0.654
      -0.658
      -0.642
      -0.606
      -0.565
      -0.545
      -0.577
      -0.687
      -0.872
      -1.084
      -1.239
      -1.253
      -1.089
      -0.784
      -0.431
      -0.130
       0.060
       0.139
       0.143
       0.113
       0.076
       0.041
       0.011
       0.000
       0.036
       0.147
       0.344
       0.603
       0.875
       1.107
       1.274
       1.380
       1.443
       1.466
       1.436
       1.337
       1.175
       0.975
       0.765
       0.561
       0.357
       0.141
      -0.087
      -0.314
      -0.514
      -0.664
      -0.756
      -0.811
      -0.870
      -0.975
      -1.137
      -1.321
      -1.457
      -1.472
      -1.329
      -1.041
      -0.651
      -0.218
       0.210
       0.587
       0.879
       1.065
       1.152
       1.177
       1.191
       1.236
       1.330
       1.461
       1.606
       1.736
       1.820
       1.835
       1.767
       1.606
       1.349
       0.998
       0.571
       0.106
      -0.346
      -0.735
      -1.035
      -1.254
      -1.419
      -1.554
      -1.657
      -1.706
      -1.677
      -1.570
      -1.422
      -1.287
      -1.206
      -1.184
      -1.191
      -1.177
      -1.094
      -0.919
      -0.661
      -0.352
      -0.029
       0.278
       0.538
       0.726
       0.823
       0.824
       0.752
       0.644
       0.529
       0.400
       0.230
      -0.005
      -0.297
      -0.595
      -0.836
      -0.978
      -1.021
      -0.990
      -0.915
      -0.803
      -0.651
      -0.456
      -0.233
      -0.008
       0.195
       0.377
       0.560
       0.764
       0.989
       1.209
       1.385
       1.482
       1.489
       1.419
       1.292
       1.120
       0.916
       0.699
       0.498
       0.344
       0.249
       0.189
       0.116
      -0.023
      -0.248
      -0.549
      -0.889
      -1.220
      -1.495
      -1.679
      -1.760
      -1.749
      -1.677
      -1.582
      -1.487
      -1.399
      -1.311
      -1.216
      -1.111
      -0.992
      -0.845
      -0.648
      -0.384
      -0.058
       0.299
       0.631
       0.886
       1.033
       1.074
       1.035
       0.949
       0.834
       0.695
       0.527
       0.334
       0.129
      -0.072
      -0.258
      -0.429
      -0.593
      -0.750
      -0.896
      -1.024
      -1.134
      -1.233
      -1.328
      -1.422
      -1.501
      -1.529
      -1.460
      -1.255
      -0.901
      -0.419
       0.140
       0.713
       1.243
       1.690
       2.034
       2.267
       2.386
       2.396
       2.311
       2.153
       1.949
       1.717
       1.467
       1.205
       0.931
       0.645
       0.349
       0.047
      -0.252
      -0.536
      -0.789
      -0.996
      -1.147
      -1.240
      -1.269
      -1.220
      -1.084
      -0.861
      -0.573
      -0.253
       0.062
       0.355
       0.625
       0.874
       1.099
       1.285
       1.417
       1.487
       1.496
       1.454
       1.373
       1.266
       1.132
       0.969
       0.761
       0.497
       0.171
      -0.207
      -0.609
      -0.993
      -1.311
      -1.523
      -1.616
      -1.605
      -1.528
      -1.423
      -1.309
      -1.175
      -0.998
      -0.772
      -0.522
      -0.295
      -0.120
       0.015
       0.150
       0.327
       0.563
       0.840
       1.131
       1.409
       1.655
       1.854
       1.994
       2.076
       2.108
       2.103
       2.068
       1.994
       1.863
       1.651
       1.343
       0.933
       0.432
      -0.127
      -0.686
      -1.183
      -1.567
      -1.819
      -1.957
      -2.026
      -2.082
      -2.169
      -2.299
      -2.444
      -2.546
      -2.541
      -2.394
      -2.108
      -1.719
      -1.280
      -0.848
      -0.466
      -0.156
       0.087
       0.283
       0.454
       0.606
       0.721
       0.767
       0.721
       0.589
       0.416
       0.267
       0.189
       0.194
       0.250
       0.297
       0.277
       0.156
      -0.066
      -0.342
      -0.594
      -0.742
      -0.728
      -0.541
      -0.214
       0.198
       0.640
       1.075
       1.488
       1.876
       2.241
       2.582
       2.896
       3.179
       3.429
       3.646
       3.832
       3.986
       4.102
       4.161
       4.135
       4.003
       3.763
       3.439
       3.065
       2.676
       2.289
       1.905
       1.508
       1.074
       0.588
       0.056
      -0.483
      -0.969
      -1.352
      -1.624
      -1.826
      -2.019
      -2.248
      -2.515
      -2.784
      -3.012
      -3.175
      -3.274
      -3.321
      -3.335
      -3.333
      -3.336
      -3.361
      -3.416
      -3.497
      -3.596
      -3.708
      -3.834
      -3.967
      -4.092
      -4.190
      -4.247
      -4.266
      -4.255
      -4.219
      -4.152
      -4.038
      -3.865
      -3.644
      -3.404
      -3.171
      -2.948
      -2.702
      -2.384
      -1.963
      -1.455
      -0.915
      -0.405
       0.035
       0.393
       0.681
       0.922
       1.149
       1.392
       1.671
       1.983
       2.302
       2.595
       2.841
       3.035
       3.190
       3.324
       3.458
       3.609
       3.792
       4.028
       4.341
       4.746
       5.238
       5.790
       6.344
       6.826
       7.169
       7.332
       7.306
       7.113
       6.785
       6.356
       5.854
       5.302
       4.723
       4.137
       3.555
       2.980
       2.411
       1.848
       1.293
       0.750
       0.222
      -0.295
      -0.804
      -1.301
      -1.774
      -2.207
      -2.585
      -2.897
      -3.143
      -3.341
      -3.513
      -3.683
      -3.863
      -4.054
      -4.241
      -4.398
      -4.501
      -4.533
      -4.492
      -4.398
      -4.274
      -4.138
      -3.991
      -3.821
      -3.614
      -3.367
      -3.093
      -2.814
      -2.547
      -2.296
      -2.052
      -1.804
      -1.541
      -1.252
      -0.935
      -0.601
      -0.279
      -0.012
       0.159
       0.210
       0.141
      -0.032
      -0.288
      -0.603
      -0.959
      -1.349
      -1.766
      -2.191
      -2.577
      -2.856
      -2.957
      -2.836
      -2.503
      -2.017
      -1.462
      -0.905
      -0.373
       0.151
       0.699
       1.294
       1.949
       2.673
       3.486
       4.403
       5.399
       6.402
       7.290
       7.933
       8.236
       8.168
       7.764
       7.093
       6.218
       5.173
       3.966
       2.608
       1.136
      -0.381
      -1.868
      -3.264
      -4.539
      -5.678
      -6.671
      -7.504
      -8.151
      -8.588
      -8.804
      -8.805
      -8.607
      -8.224
      -7.654
      -6.874
      -5.853
      -4.593
      -3.149
      -1.626
      -0.136
       1.245
       2.496
       3.607
       4.549
       5.264
       5.703
       5.846
       5.707
       5.315
       4.709
       3.937
       3.054
       2.113
       1.148
       0.180
      -0.774
      -1.679
      -2.479
      -3.102
      -3.481
      -3.580
      -3.414
      -3.034
      -2.499
      -1.849
      -1.108
      -0.293
       0.568
       1.451
       2.341
       3.240
       4.159
       5.100
       6.058
       7.022
       7.980
       8.906
       9.752
      10.451
      10.934
      11.156
      11.111
      10.847
      10.451
      10.020
       9.619
       9.256
       8.874
       8.390
       7.737
       6.892
       5.877
       4.724
       3.458
       2.087
       0.614
      -0.952
      -2.577
      -4.212
      -5.793
      -7.253
      -8.542
      -9.635
     -10.529
     -11.226
     -11.727
     -12.037
     -12.179
     -12.194
     -12.115
     -11.949
     -11.667
     -11.226
     -10.605
      -9.823
      -8.930
      -7.998
      -7.100
      -6.301
      -5.649
      -5.186
      -4.935
      -4.893
      -5.019
      -5.250
      -5.524
      -5.810
      -6.106
      -6.429
      -6.786
      -7.159
      -7.507
      -7.774
      -7.907
      -7.860
      -7.602
      -7.106
      -6.348
      -5.306
      -3.972
      -2.368
      -0.544
       1.424
       3.449
       5.452
       7.374
       9.177
      10.828
      12.281
      13.471
      14.328
      14.817
      14.945
      14.746
      14.253
      13.483
      12.434
      11.104
       9.514
       7.723
       5.841
       4.014
       2.396
       1.105
       0.189
      -0.373
      -0.642
      -0.678
      -0.528
      -0.229
       0.180
       0.652
       1.138
       1.602
       2.022
       2.383
       2.657
       2.795
       2.739
       2.439
       1.871
       1.040
      -0.022
      -1.270
      -2.642
      -4.075
      -5.510
      -6.906
      -8.232
      -9.442
     -10.464
     -11.224
     -11.679
     -11.831
     -11.713
     -11.365
     -10.822
     -10.117
      -9.275
      -8.305
      -7.210
      -6.003
      -4.725
      -3.419
      -2.120
      -0.852
       0.352
       1.455
       2.436
       3.297
       4.046
       4.669
       5.139
       5.444
       5.596
       5.617
       5.536
       5.393
       5.253
       5.188
       5.245
       5.426
       5.693
       5.985
       6.231
       6.359
       6.333
       6.168
       5.923
       5.673
       5.480
       5.377
       5.381
       5.492
       5.688
       5.942
       6.233
       6.556
       6.902
       7.258
       7.623
       8.017
       8.463
       8.959
       9.464
       9.910
      10.222
      10.333
      10.190
       9.755
       9.012
       7.968
       6.647
       5.081
       3.313
       1.398
      -0.606
      -2.641
      -4.655
      -6.589
      -8.383
      -9.981
     -11.341
     -12.435
     -13.253
     -13.797
     -14.068
     -14.048
     -13.690
     -12.944
     -11.793
     -10.273
      -8.455
      -6.430
      -4.294
      -2.164
      -0.165
       1.590
       3.022
       4.094
       4.812
       5.214
       5.327
       5.125
       4.512
       3.386
       1.710
      -0.455
      -2.966
      -5.650
      -8.344
     -10.909
     -13.227
     -15.209
     -16.805
     -18.001
     -18.804
     -19.219
     -19.236
     -18.830
     -17.991
     -16.743
     -15.156
     -13.322
     -11.330
      -9.249
      -7.144
      -5.091
      -3.174
      -1.445
       0.100
       1.492
       2.741
       3.823
       4.698
       5.354
       5.816
       6.139
       6.392
       6.623
       6.837
       6.997
       7.044
       6.949
       6.756
       6.569
       6.514
       6.692
       7.157
       7.908
       8.873
       9.927
      10.934
      11.808
      12.529
      13.111
      13.568
      13.896
      14.092
      14.162
      14.118
      13.964
      13.695
      13.318
      12.852
      12.321
      11.734
      11.077
      10.331
       9.490
       8.563
       7.573
       6.546
       5.513
       4.499
       3.523
       2.593
       1.710
       0.881
       0.139
      -0.470
      -0.903
      -1.141
      -1.195
      -1.105
      -0.928
      -0.730
      -0.565
      -0.462
      -0.422
      -0.442
      -0.536
      -0.730
      -1.040
      -1.459
      -1.978
      -2.601
      -3.337
      -4.188
      -5.139
      -6.173
      -7.273
      -8.408
      -9.526
     -10.562
     -11.472
     -12.248
     -12.899
     -13.430
     -13.836
     -14.123
     -14.306
     -14.411
     -14.452
     -14.410
     -14.225
     -13.808
     -13.077
     -11.997
     -10.613
      -9.035
      -7.386
      -5.760
      -4.204
      -2.728
      -1.308
       0.098
       1.535
       3.026
       4.564
       6.113
       7.634
       9.092
      10.460
      11.716
      12.844
      13.833
      14.668
      15.313
      15.718
      15.843
      15.674
      15.223
      14.511
      13.556
      12.371
      10.970
       9.370
       7.589
       5.642
       3.545
       1.308
      -1.054
      -3.523
      -6.057
      -8.571
     -10.930
     -12.972
     -14.537
     -15.505
     -15.806
     -15.418
     -14.349
     -12.642
     -10.386
      -7.718
      -4.808
      -1.828
       1.058
       3.698
       5.958
       7.727
       8.921
       9.476
       9.352
       8.552
       7.154
       5.293
       3.118
       0.753
      -1.695
      -4.130
      -6.480
      -8.723
     -10.882
     -12.961
     -14.884
     -16.512
     -17.718
     -18.457
     -18.746
     -18.600
     -17.989
     -16.872
     -15.251
     -13.185
     -10.771
      -8.128
      -5.381
      -2.640
       0.017
       2.538
       4.879
       6.980
       8.768
      10.158
      11.055
      11.374
      11.094
      10.295
       9.150
       7.858
       6.595
       5.503
       4.709
       4.304
       4.290
       4.572
       5.009
       5.506
       6.044
       6.640
       7.300
       8.002
       8.723
       9.466
      10.246
      11.065
      11.893
      12.676
      13.350
      13.837
      14.060
      13.954
      13.500
      12.738
      11.762
      10.675
       9.548
       8.400
       7.233
       6.059
       4.911
       3.817
       2.795
       1.860
       1.042
       0.376
      -0.132
      -0.521
      -0.863
      -1.222
      -1.644
      -2.149
      -2.735
      -3.381
      -4.060
      -4.758
      -5.477
      -6.228
      -7.003
      -7.775
      -8.515
      -9.217
      -9.891
     -10.532
     -11.094
     -11.501
     -11.679
     -11.584
     -11.212
     -10.586
      -9.751
      -8.771
      -7.739
      -6.757
      -5.895
      -5.176
      -4.596
      -4.151
      -3.835
      -3.620
      -3.452
      -3.282
      -3.114
      -3.005
      -3.012
      -3.148
      -3.392
      -3.738
      -4.204
      -4.807
      -5.517
      -6.253
      -6.916
      -7.423
      -7.726
      -7.804
      -7.644
      -7.245
      -6.616
      -5.784
      -4.799
      -3.727
      -2.634
      -1.567
      -0.538
       0.475
       1.496
       2.538
       3.609
       4.727
       5.935
       7.261
       8.672
      10.055
      11.264
      12.178
      12.719
      12.838
      12.508
      11.751
      10.666
       9.401
       8.100
       6.867
       5.763
       4.820
       4.033
       3.344
       2.668
       1.942
       1.163
       0.377
      -0.365
      -1.017
      -1.531
      -1.840
      -1.890
      -1.689
      -1.334
      -0.974
      -0.737
      -0.658
      -0.675
      -0.692
      -0.633
      -0.476
      -0.239
       0.044
       0.320
       0.529
       0.616
       0.562
       0.383
       0.107
      -0.243
      -0.624
      -0.954
      -1.126
      -1.060
      -0.726
      -0.139
       0.686
       1.733
       2.959
       4.277
       5.578
       6.770
       7.795
       8.613
       9.177
       9.437
       9.346
       8.889
       8.091
       7.020
       5.778
       4.484
       3.243
       2.119
       1.120
       0.221
      -0.598
      -1.336
      -1.995
      -2.592
      -3.135
      -3.588
      -3.874
      -3.933
      -3.791
      -3.578
      -3.471
      -3.615
      -4.084
      -4.864
      -5.870
      -6.966
      -8.009
      -8.898
      -9.583
     -10.046
     -10.277
     -10.289
     -10.124
      -9.852
      -9.531
      -9.170
      -8.733
      -8.177
      -7.467
      -6.571
      -5.456
      -4.103
      -2.540
      -0.840
       0.887
       2.533
       4.009
       5.259
       6.260
       7.004
       7.475
       7.629
       7.401
       6.737
       5.624
       4.113
       2.321
       0.426
      -1.353
      -2.807
      -3.788
      -4.255
      -4.261
      -3.905
      -3.280
      -2.453
      -1.468
      -0.361
       0.833
       2.091
       3.400
       4.751
       6.118
       7.456
       8.707
       9.801
      10.657
      11.182
      11.290
      10.936
      10.138
       8.965
       7.494
       5.806
       3.987
       2.132
       0.313
      -1.440
      -3.147
