Origin Time       14/03/2010 6:53:21	
Lat.              31.7 N	
Long.             76.1 E	
Depth (Km)         29.0
Magnitude         4.6
 Region           HIMACHAL-PUNJAB-(HOSHIARPUR)-BORDER                              
 Above details taken from IMD 
     
Station Code      GAR
Station Lat.       31.228  N
Station Long.      76.135  E
Station Height(m)  261.0
Site Class        C   Vs30 between 200 m/sec to 375 m/sec *  
Record Time       14.03.2010 06:53:23.174
Sampling Rate     200. Hz
 Record Duration   65.210 Sec.
 Direction         E-W (E positive)
Max. Acceleration    -10.205 cm/sec**2
     
  * For reference see Site Classification link of website 
     
 Base Line Corrected and Low Pass Filtered (Cut Off at 35 Hz) Time History
 Acceleration data in cm/sec**2
    
[...]
      -0.479
      -0.384
      -0.182
       0.036
       0.189
       0.243
       0.210
       0.127
       0.037
      -0.038
      -0.092
      -0.125
      -0.130
      -0.098
      -0.035
       0.035
       0.082
       0.096
       0.087
       0.069
       0.044
       0.006
      -0.046
      -0.107
      -0.166
      -0.221
      -0.277
      -0.332
      -0.385
      -0.429
      -0.464
      -0.485
      -0.481
      -0.436
      -0.342
      -0.206
      -0.047
       0.108
       0.233
       0.304
       0.316
       0.295
       0.284
       0.312
       0.375
       0.443
       0.487
       0.499
       0.490
       0.469
       0.437
       0.387
       0.321
       0.246
       0.162
       0.058
      -0.086
      -0.272
      -0.467
      -0.610
      -0.640
      -0.541
      -0.352
      -0.148
      -0.006
       0.034
      -0.022
      -0.125
      -0.211
      -0.234
      -0.190
      -0.114
      -0.050
      -0.017
      -0.001
       0.033
       0.108
       0.216
       0.328
       0.413
       0.451
       0.433
       0.357
       0.235
       0.093
      -0.038
      -0.136
      -0.203
      -0.258
      -0.318
      -0.387
      -0.453
      -0.497
      -0.507
      -0.472
      -0.383
      -0.242
      -0.072
       0.080
       0.167
       0.170
       0.111
       0.034
      -0.018
      -0.018
       0.038
       0.132
       0.238
       0.328
       0.389
       0.416
       0.410
       0.376
       0.325
       0.268
       0.209
       0.142
       0.059
      -0.038
      -0.140
      -0.232
      -0.299
      -0.322
      -0.287
      -0.190
      -0.054
       0.072
       0.123
       0.053
      -0.127
      -0.343
      -0.494
      -0.508
      -0.379
      -0.167
       0.054
       0.227
       0.333
       0.369
       0.338
       0.254
       0.154
       0.083
       0.067
       0.093
       0.112
       0.077
      -0.024
      -0.149
      -0.231
      -0.214
      -0.092
       0.080
       0.216
       0.244
       0.143
      -0.043
      -0.234
      -0.354
      -0.370
      -0.292
      -0.162
      -0.032
       0.048
       0.043
      -0.056
      -0.219
      -0.380
      -0.466
      -0.425
      -0.255
      -0.003
       0.251
       0.429
       0.498
       0.478
       0.421
       0.364
       0.307
       0.227
       0.117
       0.005
      -0.062
      -0.059
      -0.001
       0.066
       0.113
       0.140
       0.162
       0.175
       0.150
       0.052
      -0.122
      -0.331
      -0.510
      -0.596
      -0.561
      -0.423
      -0.232
      -0.050
       0.072
       0.115
       0.093
       0.037
      -0.021
      -0.057
      -0.058
      -0.020
       0.049
       0.124
       0.174
       0.188
       0.182
       0.190
       0.233
       0.304
       0.367
       0.377
       0.294
       0.107
      -0.159
      -0.435
      -0.631
      -0.683
      -0.585
      -0.391
      -0.175
       0.006
       0.128
       0.185
       0.171
       0.081
      -0.072
      -0.243
      -0.375
      -0.423
      -0.371
      -0.232
      -0.036
       0.172
       0.340
       0.429
       0.439
       0.404
       0.358
       0.299
       0.202
       0.062
      -0.075
      -0.135
      -0.075
       0.083
       0.263
       0.395
       0.445
       0.417
       0.326
       0.187
       0.016
      -0.151
      -0.272
      -0.310
      -0.259
      -0.149
      -0.034
       0.039
       0.060
       0.064
       0.097
       0.169
       0.237
       0.232
       0.117
      -0.075
      -0.266
      -0.377
      -0.381
      -0.312
      -0.235
      -0.195
      -0.191
      -0.190
      -0.164
      -0.122
      -0.107
      -0.150
      -0.233
      -0.298
      -0.282
      -0.171
      -0.008
       0.130
       0.192
       0.180
       0.147
       0.155
       0.233
       0.356
       0.454
       0.459
       0.341
       0.129
      -0.113
      -0.315
      -0.431
      -0.441
      -0.353
      -0.201
      -0.037
       0.087
       0.138
       0.121
       0.071
       0.029
       0.019
       0.040
       0.077
       0.112
       0.142
       0.176
       0.225
       0.297
       0.393
       0.508
       0.626
       0.709
       0.704
       0.566
       0.286
      -0.090
      -0.475
      -0.770
      -0.917
      -0.918
      -0.836
      -0.752
      -0.713
      -0.704
      -0.671
      -0.574
      -0.427
      -0.281
      -0.181
      -0.132
      -0.101
      -0.052
       0.029
       0.135
       0.253
       0.384
       0.536
       0.711
       0.890
       1.026
       1.058
       0.948
       0.701
       0.378
       0.057
      -0.196
      -0.362
      -0.461
      -0.524
      -0.567
      -0.589
      -0.582
      -0.535
      -0.443
      -0.316
      -0.184
      -0.096
      -0.104
      -0.217
      -0.386
      -0.514
      -0.511
      -0.343
      -0.052
       0.270
       0.532
       0.684
       0.730
       0.711
       0.671
       0.635
       0.589
       0.502
       0.352
       0.152
      -0.060
      -0.243
      -0.370
      -0.431
      -0.419
      -0.331
      -0.186
      -0.027
       0.090
       0.123
       0.067
      -0.051
      -0.185
      -0.288
      -0.325
      -0.283
      -0.172
      -0.022
       0.135
       0.274
       0.373
       0.419
       0.406
       0.349
       0.273
       0.200
       0.140
       0.092
       0.050
       0.009
      -0.032
      -0.075
      -0.111
      -0.129
      -0.120
      -0.093
      -0.075
      -0.099
      -0.186
      -0.329
      -0.489
      -0.610
      -0.649
      -0.605
      -0.514
      -0.425
      -0.371
      -0.349
      -0.326
      -0.266
      -0.159
      -0.024
       0.114
       0.247
       0.388
       0.544
       0.693
       0.795
       0.816
       0.760
       0.663
       0.571
       0.514
       0.492
       0.480
       0.446
       0.361
       0.212
       0.006
      -0.230
      -0.452
      -0.618
      -0.698
      -0.686
      -0.607
      -0.510
      -0.447
      -0.447
      -0.486
      -0.504
      -0.448
      -0.306
      -0.112
       0.085
       0.253
       0.384
       0.478
       0.535
       0.553
       0.543
       0.522
       0.508
       0.500
       0.484
       0.436
       0.343
       0.208
       0.061
      -0.049
      -0.074
      -0.006
       0.108
       0.180
       0.141
      -0.016
      -0.245
      -0.479
      -0.672
      -0.798
      -0.842
      -0.795
      -0.673
      -0.515
      -0.369
      -0.263
      -0.188
      -0.110
       0.002
       0.160
       0.339
       0.490
       0.560
       0.526
       0.406
       0.247
       0.099
      -0.015
      -0.099
      -0.168
      -0.224
      -0.254
      -0.248
      -0.209
      -0.156
      -0.105
      -0.050
       0.034
       0.166
       0.345
       0.531
       0.667
       0.704
       0.624
       0.447
       0.214
      -0.034
      -0.260
      -0.435
      -0.531
      -0.537
      -0.469
      -0.366
      -0.269
      -0.205
      -0.181
      -0.186
      -0.195
      -0.175
      -0.107
      -0.005
       0.092
       0.151
       0.171
       0.179
       0.199
       0.223
       0.225
       0.189
       0.133
       0.101
       0.132
       0.230
       0.363
       0.483
       0.547
       0.536
       0.448
       0.295
       0.097
      -0.117
      -0.315
      -0.465
      -0.549
      -0.559
      -0.510
      -0.434
      -0.377
      -0.379
      -0.449
      -0.554
      -0.641
      -0.663
      -0.603
      -0.465
      -0.255
       0.020
       0.333
       0.632
       0.849
       0.932
       0.863
       0.669
       0.417
       0.190
       0.050
       0.012
       0.034
       0.056
       0.047
       0.028
       0.055
       0.175
       0.382
       0.605
       0.743
       0.722
       0.542
       0.281
       0.033
      -0.148
      -0.275
      -0.396
      -0.533
      -0.663
      -0.730
      -0.694
      -0.563
      -0.393
      -0.257
      -0.211
      -0.260
      -0.362
      -0.453
      -0.480
      -0.433
      -0.339
      -0.231
      -0.120
       0.009
       0.167
       0.328
       0.437
       0.445
       0.346
       0.173
      -0.020
      -0.175
      -0.245
      -0.209
      -0.086
       0.069
       0.192
       0.244
       0.234
       0.201
       0.188
       0.205
       0.237
       0.262
       0.271
       0.269
       0.267
       0.267
       0.267
       0.263
       0.246
       0.200
       0.120
       0.020
      -0.073
      -0.140
      -0.184
      -0.209
      -0.206
      -0.159
      -0.071
       0.010
       0.011
      -0.124
      -0.384
      -0.687
      -0.917
      -0.982
      -0.852
      -0.561
      -0.197
       0.137
       0.351
       0.399
       0.308
       0.163
       0.062
       0.065
       0.166
       0.313
       0.457
       0.584
       0.716
       0.856
       0.966
       0.969
       0.810
       0.512
       0.167
      -0.117
      -0.281
      -0.347
      -0.387
      -0.469
      -0.619
      -0.793
      -0.911
      -0.906
      -0.779
      -0.595
      -0.434
      -0.324
      -0.233
      -0.111
       0.039
       0.159
       0.173
       0.055
      -0.145
      -0.318
      -0.358
      -0.220
       0.056
       0.370
       0.619
       0.753
       0.780
       0.731
       0.631
       0.479
       0.273
       0.036
      -0.176
      -0.278
      -0.206
       0.038
       0.374
       0.672
       0.823
       0.780
       0.565
       0.243
      -0.106
      -0.418
      -0.657
      -0.813
      -0.892
      -0.899
      -0.841
      -0.728
      -0.571
      -0.389
      -0.195
       0.000
       0.176
       0.302
       0.343
       0.291
       0.175
       0.054
      -0.009
       0.015
       0.107
       0.218
       0.298
       0.335
       0.357
       0.409
       0.511
       0.630
       0.680
       0.570
       0.266
      -0.178
      -0.638
      -0.981
      -1.125
      -1.056
      -0.818
      -0.477
      -0.111
       0.205
       0.407
       0.458
       0.366
       0.186
       0.001
      -0.107
      -0.092
       0.036
       0.225
       0.415
       0.568
       0.673
       0.712
       0.648
       0.432
       0.045
      -0.458
      -0.961
      -1.324
      -1.453
      -1.334
      -1.039
      -0.683
      -0.374
      -0.158
      -0.014
       0.109
       0.250
       0.408
       0.557
       0.677
       0.757
       0.783
       0.734
       0.585
       0.342
       0.054
      -0.201
      -0.347
      -0.343
      -0.205
      -0.003
       0.167
       0.228
       0.157
      -0.011
      -0.198
      -0.328
      -0.357
      -0.294
      -0.188
      -0.101
      -0.056
      -0.029
       0.034
       0.150
       0.277
       0.335
       0.280
       0.154
       0.072
       0.133
       0.346
       0.622
       0.838
       0.912
       0.841
       0.678
       0.482
       0.291
       0.114
      -0.054
      -0.208
      -0.328
      -0.381
      -0.351
      -0.263
      -0.180
      -0.172
      -0.266
      -0.422
      -0.559
      -0.605
      -0.545
      -0.422
      -0.295
      -0.196
      -0.117
      -0.037
       0.049
       0.110
       0.102
      -0.005
      -0.201
      -0.432
      -0.626
      -0.728
      -0.728
      -0.661
      -0.580
      -0.516
      -0.456
      -0.359
      -0.192
       0.035
       0.266
       0.433
       0.507
       0.507
       0.485
       0.481
       0.498
       0.504
       0.468
       0.389
       0.301
       0.257
       0.299
       0.429
       0.600
       0.736
       0.764
       0.648
       0.401
       0.058
      -0.348
      -0.782
      -1.205
      -1.570
      -1.828
      -1.954
      -1.941
      -1.789
      -1.500
      -1.092
      -0.627
      -0.210
       0.048
       0.087
      -0.067
      -0.318
      -0.554
      -0.691
      -0.706
      -0.624
      -0.503
      -0.409
      -0.402
      -0.514
      -0.748
      -1.068
      -1.410
      -1.694
      -1.847
      -1.832
      -1.668
      -1.431
      -1.227
      -1.140
      -1.193
      -1.350
      -1.544
      -1.729
      -1.891
      -2.041
      -2.178
      -2.281
      -2.302
      -2.181
      -1.867
      -1.330
      -0.584
       0.312
       1.271
       2.197
       3.020
       3.698
       4.210
       4.540
       4.681
       4.633
       4.411
       4.051
       3.607
       3.148
       2.742
       2.439
       2.247
       2.121
       1.968
       1.670
       1.137
       0.360
      -0.567
      -1.475
      -2.165
      -2.463
      -2.259
      -1.519
      -0.307
       1.215
       2.830
       4.331
       5.583
       6.531
       7.159
       7.453
       7.400
       7.009
       6.330
       5.455
       4.497
       3.563
       2.723
       1.990
       1.329
       0.695
       0.068
      -0.528
      -1.054
      -1.505
      -1.940
      -2.463
      -3.156
      -4.026
      -4.985
      -5.912
      -6.710
      -7.349
      -7.832
      -8.138
      -8.185
      -7.856
      -7.057
      -5.766
      -4.041
      -1.993
       0.236
       2.489
       4.617
       6.491
       8.007
       9.073
       9.619
       9.617
       9.097
       8.122
       6.761
       5.066
       3.089
       0.904
      -1.381
      -3.634
      -5.719
      -7.517
      -8.923
      -9.843
     -10.205
      -9.987
      -9.254
      -8.168
      -6.944
      -5.791
      -4.854
      -4.183
      -3.734
      -3.387
      -2.984
      -2.365
      -1.428
      -0.172
       1.293
       2.795
       4.172
       5.323
       6.207
       6.817
       7.163
       7.272
       7.186
       6.949
       6.569
       6.001
       5.160
       3.964
       2.394
       0.527
      -1.462
      -3.353
      -4.932
      -6.036
      -6.579
      -6.563
      -6.085
      -5.321
      -4.468
      -3.674
      -2.998
      -2.420
      -1.883
      -1.324
      -0.683
       0.086
       1.006
       2.061
       3.190
       4.296
       5.254
       5.925
       6.200
       6.039
       5.504
       4.730
       3.865
       3.004
       2.175
       1.358
       0.527
      -0.337
      -1.249
      -2.219
      -3.236
      -4.250
      -5.170
      -5.896
      -6.354
      -6.516
      -6.391
      -5.993
      -5.330
      -4.404
      -3.229
      -1.836
      -0.279
       1.363
       2.989
       4.492
       5.771
       6.758
       7.410
       7.709
       7.658
       7.286
       6.654
       5.842
       4.938
       4.008
       3.079
       2.131
       1.117
      -0.008
      -1.258
      -2.610
      -4.023
      -5.437
      -6.767
      -7.897
      -8.700
      -9.085
      -9.027
      -8.565
      -7.778
      -6.760
      -5.608
      -4.420
      -3.274
      -2.215
      -1.246
      -0.332
       0.588
       1.580
       2.685
       3.898
       5.152
       6.336
       7.339
       8.082
       8.521
       8.611
       8.295
       7.527
       6.329
       4.816
       3.176
       1.602
       0.231
      -0.883
      -1.756
      -2.446
      -3.028
      -3.568
      -4.095
      -4.589
      -4.995
      -5.257
      -5.352
      -5.296
      -5.108
      -4.780
      -4.270
      -3.537
      -2.577
      -1.436
      -0.198
       1.035
       2.162
       3.098
       3.786
       4.205
       4.366
       4.304
       4.064
       3.691
       3.233
       2.738
       2.251
       1.796
       1.359
       0.890
       0.325
      -0.364
      -1.146
      -1.938
      -2.648
      -3.212
      -3.612
      -3.853
      -3.942
      -3.874
      -3.650
      -3.282
      -2.810
      -2.299
      -1.816
      -1.400
      -1.018
      -0.571
       0.060
       0.940
       2.037
       3.226
       4.339
       5.211
       5.721
       5.822
       5.550
       4.999
       4.272
       3.433
       2.496
       1.454
       0.318
      -0.863
      -2.003
      -3.006
      -3.799
      -4.364
      -4.732
      -4.945
      -5.003
      -4.849
      -4.407
      -3.648
      -2.625
      -1.443
      -0.211
       0.996
       2.120
       3.096
       3.859
       4.366
       4.623
       4.691
       4.660
       4.594
       4.494
       4.297
       3.920
       3.316
       2.504
       1.563
       0.591
      -0.352
      -1.265
      -2.177
      -3.094
      -3.963
      -4.684
      -5.166
      -5.375
      -5.342
      -5.130
      -4.786
      -4.300
      -3.625
      -2.728
      -1.653
      -0.530
       0.475
       1.241
       1.735
       2.004
       2.134
       2.216
       2.326
       2.518
       2.800
       3.122
       3.383
       3.468
       3.307
       2.887
       2.241
       1.415
       0.468
      -0.520
      -1.440
      -2.182
      -2.673
      -2.907
      -2.946
      -2.884
      -2.789
      -2.675
      -2.487
      -2.140
      -1.580
      -0.842
      -0.058
       0.594
       0.989
       1.115
       1.068
       0.985
       0.971
       1.064
       1.249
       1.488
       1.734
       1.929
       2.000
       1.868
       1.482
       0.857
       0.098
      -0.631
      -1.169
      -1.420
      -1.374
      -1.103
      -0.718
      -0.336
      -0.054
       0.064
      -0.018
      -0.305
      -0.760
      -1.300
      -1.804
      -2.150
      -2.254
      -2.109
      -1.772
      -1.313
      -0.763
      -0.127
       0.574
       1.263
       1.832
       2.204
       2.382
       2.449
       2.511
       2.634
       2.802
       2.924
       2.882
       2.582
       1.995
       1.167
       0.201
      -0.771
      -1.618
      -2.232
      -2.545
      -2.552
      -2.313
      -1.940
      -1.550
      -1.218
      -0.945
      -0.673
      -0.325
       0.131
       0.655
       1.154
       1.542
       1.783
       1.881
       1.841
       1.626
       1.169
       0.435
      -0.515
      -1.513
      -2.346
      -2.847
      -2.963
      -2.750
      -2.319
      -1.773
      -1.189
      -0.628
      -0.147
       0.217
       0.467
       0.647
       0.814
       1.002
       1.205
       1.386
       1.510
       1.558
       1.532
       1.442
       1.291
       1.074
       0.789
       0.459
       0.133
      -0.127
      -0.266
      -0.256
      -0.111
       0.101
       0.269
       0.294
       0.139
      -0.152
      -0.507
      -0.870
      -1.227
      -1.564
      -1.842
      -1.990
      -1.956
      -1.744
      -1.413
      -1.035
      -0.656
      -0.291
       0.062
       0.401
       0.724
       1.027
       1.317
       1.592
       1.839
       2.019
       2.090
       2.028
       1.846
       1.582
       1.275
       0.946
       0.600
       0.229
      -0.166
      -0.560
      -0.894
      -1.089
      -1.104
      -0.990
      -0.892
      -0.978
      -1.328
      -1.871
      -2.428
      -2.826
      -2.986
      -2.915
      -2.636
      -2.130
      -1.365
      -0.357
       0.792
       1.920
       2.867
       3.519
       3.825
       3.795
       3.499
       3.036
       2.494
       1.918
       1.320
       0.724
       0.199
      -0.173
      -0.360
      -0.421
