Origin Time       04/04/2011 11:31:40
Lat.              29.6 N	
Long.             80.8 E	
Depth (Km)         10.0
Magnitude         5.7
 Region           NEPAL-INDIA-BORDER-REGION                                        
 Above details taken from IMD 
     
Station Code      GAR
Station Lat.       30.051  N
Station Long.      79.288  E
Station Height(m) 1614.0
Site Class        A   Vs30 between 700 m/sec to 1400 m/sec * 
Record Time       04.04.2011 11:32:11.154
Sampling Rate     200. Hz
 Record Duration   76.605 Sec.
 Direction         E-W (E positive)
Max. Acceleration     20.355 cm/sec**2
     
  * For reference see Site Classification link of website 
     
 Base Line Corrected and Low Pass Filtered (Cut Off at 35 Hz) Time History
 Acceleration data in cm/sec**2
    
[...]
       1.214
       1.835
       2.401
       2.880
       3.266
       3.576
       3.820
       3.993
       4.071
       4.033
       3.875
       3.621
       3.308
       2.962
       2.594
       2.201
       1.773
       1.307
       0.818
       0.335
      -0.114
      -0.505
      -0.833
      -1.102
      -1.327
      -1.520
      -1.681
      -1.804
      -1.874
      -1.872
      -1.785
      -1.617
      -1.386
      -1.121
      -0.853
      -0.608
      -0.408
      -0.256
      -0.137
      -0.026
       0.102
       0.253
       0.412
       0.547
       0.626
       0.638
       0.591
       0.513
       0.437
       0.386
       0.360
       0.341
       0.302
       0.217
       0.080
      -0.090
      -0.259
      -0.392
      -0.470
      -0.490
      -0.459
      -0.388
      -0.284
      -0.157
      -0.021
       0.108
       0.214
       0.285
       0.310
       0.283
       0.212
       0.110
      -0.014
      -0.161
      -0.347
      -0.580
      -0.848
      -1.111
      -1.315
      -1.421
      -1.418
      -1.318
      -1.151
      -0.939
      -0.695
      -0.414
      -0.096
       0.243
       0.567
       0.831
       1.002
       1.071
       1.063
       1.021
       0.993
       1.005
       1.052
       1.089
       1.056
       0.898
       0.595
       0.166
      -0.333
      -0.838
      -1.292
      -1.668
      -1.960
      -2.179
      -2.335
      -2.427
      -2.445
      -2.384
      -2.261
      -2.109
      -1.957
      -1.819
      -1.683
      -1.528
      -1.338
      -1.119
      -0.899
      -0.713
      -0.579
      -0.484
      -0.394
      -0.273
      -0.095
       0.144
       0.436
       0.767
       1.118
       1.464
       1.779
       2.053
       2.295
       2.525
       2.766
       3.020
       3.261
       3.445
       3.524
       3.475
       3.310
       3.073
       2.825
       2.619
       2.478
       2.400
       2.364
       2.351
       2.360
       2.409
       2.522
       2.701
       2.919
       3.120
       3.235
       3.216
       3.052
       2.769
       2.413
       2.015
       1.580
       1.084
       0.496
      -0.192
      -0.951
      -1.722
      -2.447
      -3.076
      -3.584
      -3.955
      -4.179
      -4.242
      -4.140
      -3.888
      -3.531
      -3.132
      -2.756
      -2.447
      -2.215
      -2.046
      -1.923
      -1.848
      -1.843
      -1.944
      -2.175
      -2.526
      -2.942
      -3.341
      -3.650
      -3.836
      -3.917
      -3.936
      -3.924
      -3.863
      -3.699
      -3.378
      -2.892
      -2.297
      -1.695
      -1.177
      -0.784
      -0.492
      -0.241
       0.019
       0.302
       0.582
       0.809
       0.938
       0.954
       0.883
       0.783
       0.728
       0.782
       0.973
       1.281
       1.658
       2.048
       2.420
       2.772
       3.123
       3.486
       3.850
       4.179
       4.437
       4.597
       4.649
       4.597
       4.448
       4.208
       3.880
       3.465
       2.971
       2.406
       1.787
       1.134
       0.467
      -0.191
      -0.813
      -1.369
      -1.829
      -2.175
      -2.399
      -2.504
      -2.506
      -2.422
      -2.269
      -2.063
      -1.824
      -1.577
      -1.349
      -1.166
      -1.040
      -0.967
      -0.937
      -0.937
      -0.962
      -1.009
      -1.083
      -1.190
      -1.331
      -1.501
      -1.692
      -1.889
      -2.082
      -2.269
      -2.455
      -2.649
      -2.853
      -3.066
      -3.278
      -3.471
      -3.622
      -3.698
      -3.667
      -3.497
      -3.167
      -2.673
      -2.032
      -1.282
      -0.477
       0.326
       1.087
       1.794
       2.454
       3.087
       3.707
       4.319
       4.911
       5.463
       5.954
       6.365
       6.685
       6.908
       7.035
       7.063
       6.990
       6.818
       6.554
       6.203
       5.775
       5.284
       4.749
       4.196
       3.653
       3.140
       2.667
       2.232
       1.829
       1.450
       1.079
       0.695
       0.279
      -0.174
      -0.649
      -1.112
      -1.518
      -1.836
      -2.052
      -2.180
      -2.251
      -2.313
      -2.408
      -2.565
      -2.790
      -3.080
      -3.427
      -3.826
      -4.272
      -4.738
      -5.173
      -5.511
      -5.702
      -5.733
      -5.629
      -5.440
      -5.214
      -4.993
      -4.801
      -4.654
      -4.559
      -4.517
      -4.523
      -4.575
      -4.660
      -4.755
      -4.825
      -4.841
      -4.789
      -4.678
      -4.528
      -4.362
      -4.187
      -3.991
      -3.744
      -3.408
      -2.948
      -2.354
      -1.652
      -0.892
      -0.130
       0.589
       1.246
       1.843
       2.401
       2.941
       3.468
       3.962
       4.377
       4.674
       4.842
       4.923
       4.992
       5.136
       5.418
       5.865
       6.462
       7.166
       7.927
       8.699
       9.448
      10.151
      10.788
      11.334
      11.753
      12.005
      12.058
      11.899
      11.534
      10.983
      10.265
       9.393
       8.374
       7.213
       5.925
       4.528
       3.060
       1.567
       0.097
      -1.307
      -2.604
      -3.754
      -4.720
      -5.476
      -6.016
      -6.364
      -6.566
      -6.664
      -6.687
      -6.652
      -6.583
      -6.507
      -6.452
      -6.432
      -6.448
      -6.498
      -6.584
      -6.709
      -6.873
      -7.062
      -7.257
      -7.433
      -7.567
      -7.631
      -7.611
      -7.504
      -7.327
      -7.107
      -6.872
      -6.645
      -6.435
      -6.245
      -6.073
      -5.905
      -5.716
      -5.472
      -5.141
      -4.710
      -4.205
      -3.682
      -3.200
      -2.789
      -2.438
      -2.094
      -1.685
      -1.143
      -0.435
       0.432
       1.410
       2.423
       3.379
       4.192
       4.813
       5.235
       5.483
       5.589
       5.567
       5.409
       5.112
       4.698
       4.216
       3.731
       3.297
       2.952
       2.713
       2.575
       2.526
       2.562
       2.696
       2.954
       3.356
       3.903
       4.568
       5.307
       6.076
       6.830
       7.508
       8.040
       8.357
       8.420
       8.237
       7.852
       7.314
       6.658
       5.901
       5.057
       4.139
       3.168
       2.169
       1.174
       0.209
      -0.714
      -1.597
      -2.458
      -3.317
      -4.188
      -5.074
      -5.967
      -6.849
      -7.705
      -8.521
      -9.293
     -10.010
     -10.649
     -11.176
     -11.556
     -11.752
     -11.723
     -11.431
     -10.852
      -9.985
      -8.853
      -7.502
      -5.992
      -4.398
      -2.803
      -1.297
       0.053
       1.206
       2.147
       2.870
       3.373
       3.654
       3.712
       3.545
       3.162
       2.587
       1.859
       1.024
       0.133
      -0.760
      -1.588
      -2.268
      -2.709
      -2.840
      -2.631
      -2.101
      -1.304
      -0.307
       0.830
       2.058
       3.322
       4.555
       5.690
       6.690
       7.544
       8.268
       8.886
       9.419
       9.877
      10.249
      10.512
      10.634
      10.596
      10.402
      10.075
       9.638
       9.098
       8.442
       7.647
       6.694
       5.590
       4.365
       3.056
       1.688
       0.265
      -1.220
      -2.767
      -4.354
      -5.934
      -7.428
      -8.741
      -9.792
     -10.536
     -10.978
     -11.149
     -11.076
     -10.757
     -10.167
      -9.295
      -8.170
      -6.876
      -5.528
      -4.239
      -3.086
      -2.113
      -1.341
      -0.770
      -0.392
      -0.184
      -0.122
      -0.179
      -0.330
      -0.547
      -0.790
      -1.010
      -1.156
      -1.193
      -1.093
      -0.821
      -0.336
       0.383
       1.318
       2.401
       3.532
       4.609
       5.556
       6.341
       6.967
       7.453
       7.814
       8.040
       8.105
       8.000
       7.748
       7.399
       6.991
       6.531
       5.995
       5.347
       4.574
       3.699
       2.785
       1.915
       1.170
       0.600
       0.210
      -0.029
      -0.155
      -0.206
      -0.208
      -0.171
      -0.093
       0.035
       0.217
       0.437
       0.659
       0.835
       0.929
       0.935
       0.882
       0.806
       0.738
       0.684
       0.627
       0.539
       0.395
       0.183
      -0.093
      -0.411
      -0.733
      -1.017
      -1.236
      -1.389
      -1.508
      -1.638
      -1.818
      -2.059
      -2.343
      -2.638
      -2.931
      -3.244
      -3.624
      -4.120
      -4.758
      -5.519
      -6.347
      -7.163
      -7.880
      -8.432
      -8.782
      -8.929
      -8.884
      -8.656
      -8.246
      -7.655
      -6.889
      -5.959
      -4.880
      -3.661
      -2.312
      -0.860
       0.638
       2.095
       3.411
       4.498
       5.309
       5.852
       6.176
       6.354
       6.454
       6.529
       6.613
       6.717
       6.859
       7.064
       7.364
       7.777
       8.290
       8.859
       9.421
       9.910
      10.271
      10.461
      10.438
      10.171
       9.634
       8.815
       7.718
       6.376
       4.852
       3.220
       1.551
      -0.117
      -1.773
      -3.424
      -5.061
      -6.652
      -8.139
      -9.470
     -10.615
     -11.581
     -12.397
     -13.094
     -13.684
     -14.160
     -14.513
     -14.751
     -14.895
     -14.977
     -15.009
     -14.972
     -14.827
     -14.536
     -14.082
     -13.465
     -12.696
     -11.797
     -10.791
      -9.690
      -8.485
      -7.137
      -5.610
      -3.908
      -2.104
      -0.309
       1.371
       2.875
       4.194
       5.351
       6.375
       7.288
       8.098
       8.804
       9.398
       9.870
      10.213
      10.432
      10.532
      10.511
      10.373
      10.142
       9.861
       9.580
       9.325
       9.092
       8.856
       8.593
       8.294
       7.967
       7.629
       7.312
       7.061
       6.933
       6.978
       7.210
       7.588
       8.029
       8.451
       8.813
       9.119
       9.393
       9.647
       9.865
       9.997
       9.959
       9.655
       9.002
       7.968
       6.585
       4.931
       3.087
       1.115
      -0.947
      -3.064
      -5.203
      -7.331
      -9.404
     -11.358
     -13.116
     -14.605
     -15.776
     -16.609
     -17.098
     -17.245
     -17.053
     -16.527
     -15.689
     -14.582
     -13.278
     -11.863
     -10.429
      -9.052
      -7.789
      -6.697
      -5.834
      -5.265
      -5.043
      -5.186
      -5.656
      -6.357
      -7.161
      -7.942
      -8.608
      -9.114
      -9.460
      -9.659
      -9.710
      -9.588
      -9.255
      -8.677
      -7.834
      -6.737
      -5.421
      -3.939
      -2.351
      -0.705
       0.963
       2.638
       4.303
       5.925
       7.460
       8.860
      10.101
      11.186
      12.153
      13.047
      13.897
      14.704
      15.449
      16.106
      16.652
      17.067
      17.326
      17.404
      17.292
      17.019
      16.645
      16.233
      15.815
      15.377
      14.854
      14.151
      13.184
      11.907
      10.321
       8.469
       6.427
       4.287
       2.160
       0.170
      -1.552
      -2.888
      -3.766
      -4.173
      -4.150
      -3.778
      -3.143
      -2.330
      -1.423
      -0.514
       0.295
       0.904
       1.223
       1.179
       0.721
      -0.167
      -1.458
      -3.087
      -4.967
      -7.006
      -9.112
     -11.194
     -13.148
     -14.865
     -16.250
     -17.235
     -17.800
     -17.977
     -17.835
     -17.448
     -16.868
     -16.121
     -15.211
     -14.141
     -12.928
     -11.605
     -10.219
      -8.811
      -7.414
      -6.045
      -4.702
      -3.372
      -2.040
      -0.699
       0.663
       2.064
       3.525
       5.041
       6.566
       8.016
       9.305
      10.377
      11.214
      11.821
      12.201
      12.368
      12.352
      12.203
      11.973
      11.702
      11.400
      11.046
      10.599
       9.997
       9.177
       8.101
       6.788
       5.319
       3.807
       2.352
       1.011
      -0.201
      -1.292
      -2.256
      -3.067
      -3.693
      -4.118
      -4.351
      -4.433
      -4.424
      -4.396
      -4.408
      -4.497
      -4.669
      -4.903
      -5.148
      -5.344
      -5.441
      -5.421
      -5.298
      -5.096
      -4.819
      -4.434
      -3.890
      -3.152
      -2.218
      -1.124
       0.068
       1.276
       2.422
       3.444
       4.314
       5.042
       5.655
       6.170
       6.571
       6.807
       6.807
       6.510
       5.892
       4.979
       3.841
       2.568
       1.245
      -0.059
      -1.289
      -2.400
      -3.342
      -4.061
      -4.518
      -4.696
      -4.609
      -4.303
      -3.847
      -3.319
      -2.790
      -2.314
      -1.925
      -1.636
      -1.451
      -1.373
      -1.410
      -1.574
      -1.876
      -2.327
      -2.932
      -3.681
      -4.542
      -5.462
      -6.368
      -7.176
      -7.799
      -8.155
      -8.171
      -7.792
      -6.996
      -5.802
      -4.267
      -2.465
      -0.468
       1.673
       3.923
       6.245
       8.586
      10.871
      13.029
      14.999
      16.727
      18.165
      19.271
      20.007
      20.355
      20.309
      19.877
      19.076
      17.950
      16.559
      14.963
      13.190
      11.230
       9.046
       6.614
       3.952
       1.131
      -1.738
      -4.528
      -7.112
      -9.389
     -11.293
     -12.814
     -13.996
     -14.914
     -15.637
     -16.190
     -16.537
     -16.598
     -16.283
     -15.526
     -14.306
     -12.673
     -10.738
      -8.657
      -6.583
      -4.648
      -2.959
      -1.599
      -0.632
      -0.088
       0.049
      -0.157
      -0.612
      -1.223
      -1.916
      -2.649
      -3.410
      -4.195
      -4.989
      -5.740
      -6.362
      -6.754
      -6.822
      -6.507
      -5.797
      -4.737
      -3.423
      -1.987
      -0.575
       0.688
       1.718
       2.488
       3.032
       3.421
       3.726
       3.984
       4.180
       4.271
       4.218
       4.023
       3.746
       3.488
       3.351
       3.402
       3.652
       4.045
       4.474
       4.808
       4.933
       4.776
       4.324
       3.625
       2.761
       1.811
       0.825
      -0.180
      -1.210
      -2.276
      -3.389
      -4.546
      -5.724
      -6.858
      -7.844
      -8.564
      -8.920
      -8.864
      -8.389
      -7.519
      -6.299
      -4.782
      -3.044
      -1.180
       0.695
       2.458
       3.998
       5.243
       6.181
       6.860
       7.358
       7.751
       8.080
       8.341
       8.493
       8.489
       8.301
       7.938
       7.433
       6.827
       6.159
       5.460
       4.749
       4.047
       3.382
       2.780
       2.254
       1.791
       1.349
       0.879
       0.363
      -0.163
      -0.618
      -0.917
      -1.013
      -0.926
      -0.726
      -0.502
      -0.316
      -0.181
      -0.049
       0.165
       0.548
       1.147
       1.932
       2.796
       3.586
       4.151
       4.394
       4.285
       3.863
       3.203
       2.390
       1.495
       0.570
      -0.362
      -1.305
      -2.295
      -3.390
      -4.662
      -6.153
      -7.846
      -9.656
     -11.457
     -13.113
     -14.515
     -15.595
     -16.316
     -16.662
     -16.627
     -16.225
     -15.485
     -14.449
     -13.153
     -11.616
      -9.841
      -7.828
      -5.595
      -3.195
      -0.713
       1.735
       4.031
       6.090
       7.877
       9.406
      10.712
      11.822
      12.733
      13.395
      13.731
      13.679
      13.237
      12.481
      11.540
      10.540
       9.548
       8.571
       7.589
       6.584
       5.573
       4.611
       3.798
       3.246
       3.040
       3.197
       3.661
       4.337
       5.129
       5.969
       6.829
       7.693
       8.534
       9.284
       9.825
      10.007
       9.704
       8.861
       7.518
       5.786
       3.803
       1.686
      -0.487
      -2.681
      -4.878
      -7.055
      -9.164
     -11.118
     -12.805
     -14.110
     -14.956
     -15.315
     -15.199
     -14.634
     -13.638
     -12.225
     -10.418
      -8.273
      -5.878
      -3.344
      -0.786
       1.685
       3.965
       5.955
       7.556
       8.690
       9.315
       9.432
       9.080
       8.322
       7.239
       5.916
       4.441
       2.898
       1.368
      -0.069
      -1.332
      -2.342
      -3.051
      -3.457
      -3.616
      -3.628
      -3.620
      -3.715
      -4.000
      -4.495
      -5.153
      -5.879
      -6.557
      -7.093
      -7.436
      -7.597
      -7.632
      -7.615
      -7.602
      -7.595
      -7.539
      -7.353
      -6.965
      -6.336
      -5.461
      -4.369
      -3.109
      -1.743
      -0.341
       1.023
       2.269
       3.318
       4.104
       4.589
       4.776
       4.694
       4.401
       3.978
       3.523
       3.137
       2.888
       2.811
       2.909
       3.173
       3.594
       4.168
       4.878
       5.688
       6.528
       7.302
       7.899
       8.227
       8.234
       7.920
       7.311
       6.433
       5.309
       3.965
       2.441
       0.805
      -0.846
      -2.399
      -3.745
      -4.827
      -5.659
      -6.328
      -6.939
      -7.557
      -8.162
      -8.665
      -8.960
      -8.983
      -8.743
      -8.320
      -7.831
      -7.389
      -7.076
      -6.923
      -6.895
      -6.910
      -6.859
      -6.644
      -6.206
      -5.538
      -4.680
      -3.696
      -2.647
      -1.582
      -0.530
       0.490
       1.467
       2.396
       3.285
       4.151
       5.005
       5.830
       6.576
       7.184
       7.597
       7.785
       7.749
       7.514
       7.125
       6.636
       6.103
       5.565
       5.042
       4.535
       4.030
       3.507
       2.939
       2.310
       1.621
       0.893
       0.162
      -0.540
      -1.187
      -1.751
      -2.187
      -2.432
      -2.412
      -2.068
      -1.377
      -0.358
       0.920
       2.350
       3.804
       5.151
       6.280
       7.118
       7.638
       7.854
       7.819
       7.602
       7.262
       6.826
       6.286
       5.628
       4.848
       3.955
       2.962
       1.882
       0.728
      -0.471
      -1.664
      -2.792
      -3.800
      -4.645
      -5.301
      -5.755
      -6.024
      -6.142
      -6.148
      -6.066
      -5.906
      -5.667
      -5.349
      -4.960
      -4.515
      -4.029
      -3.513
      -2.985
      -2.465
      -1.977
      -1.549
      -1.214
      -1.010
      -0.969
      -1.096
      -1.364
      -1.714
      -2.071
      -2.362
      -2.522
      -2.501
      -2.270
      -1.839
      -1.254
      -0.580
       0.121
       0.811
       1.472
       2.109
       2.728
       3.335
       3.925
       4.473
       4.933
       5.240
       5.327
       5.136
       4.633
       3.839
       2.836
