Origin Time       20/06/2011 06:27:18 UTC
Lat.              30.5 N	
Long.             79.4 E	
Depth (Km)         12.0
Magnitude         4.6
 Region           Chamoli-Uttarakhand                                              
 Above details taken from IMD 
    
Station Code      GAR
Station Lat.       30.051  N
Station Long.      79.288  E
Station Height(m) 1614.0
Site Class        A   Vs30 between 700 m/sec to 1400 m/sec * 
Record Time       20.06.2011 06:27:20.569 UTC
Sampling Rate     200. Hz
 Record Duration   70.330 Sec.
 Direction         N-S (N positive)
Max. Acceleration      5.348 cm/sec**2
     
  * For reference see Site Classification link of website 
     
 Base Line Corrected and Low Pass Filtered (Cut Off at 35 Hz) Time History
 Acceleration data in cm/sec**2
    
[...]
       1.420
       1.251
       1.082
       0.888
       0.648
       0.350
      -0.012
      -0.431
      -0.871
      -1.263
      -1.537
      -1.659
      -1.656
      -1.597
      -1.549
      -1.548
      -1.601
      -1.703
      -1.847
      -2.017
      -2.175
      -2.263
      -2.228
      -2.064
      -1.821
      -1.583
      -1.398
      -1.236
      -1.018
      -0.693
      -0.289
       0.110
       0.420
       0.612
       0.712
       0.781
       0.877
       1.020
       1.197
       1.380
       1.554
       1.707
       1.809
       1.812
       1.696
       1.507
       1.364
       1.379
       1.579
       1.868
       2.086
       2.103
       1.890
       1.524
       1.119
       0.757
       0.446
       0.141
      -0.197
      -0.550
      -0.849
      -1.051
      -1.200
      -1.407
      -1.754
      -2.205
      -2.622
      -2.888
      -2.995
      -3.017
      -3.013
      -2.953
      -2.768
      -2.436
      -2.023
      -1.627
      -1.284
      -0.942
      -0.511
       0.054
       0.706
       1.335
       1.837
       2.160
       2.324
       2.391
       2.418
       2.409
       2.302
       2.024
       1.561
       1.005
       0.501
       0.146
      -0.068
      -0.216
      -0.345
      -0.425
      -0.406
      -0.310
      -0.242
      -0.308
      -0.524
      -0.810
      -1.063
      -1.222
      -1.262
      -1.172
      -0.938
      -0.570
      -0.110
       0.375
       0.814
       1.152
       1.367
       1.459
       1.445
       1.347
       1.184
       0.969
       0.731
       0.520
       0.392
       0.368
       0.417
       0.480
       0.535
       0.618
       0.781
       1.018
       1.252
       1.389
       1.396
       1.315
       1.210
       1.118
       1.039
       0.974
       0.931
       0.905
       0.854
       0.720
       0.472
       0.127
      -0.271
      -0.686
      -1.104
      -1.519
      -1.928
      -2.345
      -2.807
      -3.331
      -3.857
      -4.242
      -4.342
      -4.126
      -3.707
      -3.261
      -2.902
      -2.617
      -2.301
      -1.853
      -1.245
      -0.538
       0.171
       0.810
       1.366
       1.869
       2.343
       2.761
       3.054
       3.171
       3.136
       3.043
       2.989
       3.001
       3.014
       2.936
       2.719
       2.382
       1.977
       1.541
       1.092
       0.646
       0.203
      -0.262
      -0.785
      -1.370
      -1.966
      -2.508
      -2.957
      -3.318
      -3.606
      -3.811
      -3.894
      -3.824
      -3.604
      -3.276
      -2.892
      -2.488
      -2.078
      -1.657
      -1.209
      -0.713
      -0.155
       0.449
       1.043
       1.561
       1.985
       2.361
       2.754
       3.175
       3.559
       3.821
       3.928
       3.912
       3.815
       3.650
       3.407
       3.097
       2.757
       2.413
       2.043
       1.588
       1.007
       0.320
      -0.394
      -1.032
      -1.511
      -1.796
      -1.909
      -1.915
      -1.887
      -1.890
      -1.963
      -2.112
      -2.306
      -2.487
      -2.600
      -2.620
      -2.560
      -2.451
      -2.315
      -2.144
      -1.897
      -1.515
      -0.962
      -0.261
       0.497
       1.179
       1.680
       1.974
       2.091
       2.066
       1.912
       1.658
       1.382
       1.181
       1.097
       1.073
       1.011
       0.854
       0.610
       0.324
       0.017
      -0.325
      -0.728
      -1.175
      -1.587
      -1.853
      -1.903
      -1.761
      -1.524
      -1.301
      -1.141
      -1.019
      -0.875
      -0.667
      -0.392
      -0.072
       0.274
       0.649
       1.049
       1.437
       1.734
       1.859
       1.774
       1.501
       1.105
       0.672
       0.305
       0.102
       0.093
       0.191
       0.229
       0.083
      -0.211
      -0.475
      -0.527
      -0.310
       0.094
       0.548
       0.958
       1.289
       1.533
       1.676
       1.704
       1.638
       1.523
       1.399
       1.280
       1.170
       1.090
       1.059
       1.044
       0.939
       0.611
      -0.004
      -0.835
      -1.713
      -2.453
      -2.937
      -3.121
      -3.007
      -2.627
      -2.062
      -1.462
      -0.998
      -0.776
      -0.799
      -0.996
      -1.280
      -1.559
      -1.735
      -1.717
      -1.473
      -1.054
      -0.557
      -0.064
       0.367
       0.675
       0.794
       0.695
       0.447
       0.216
       0.184
       0.432
       0.889
       1.380
       1.733
       1.859
       1.768
       1.538
       1.272
       1.050
       0.899
       0.787
       0.650
       0.444
       0.171
      -0.125
      -0.398
      -0.630
      -0.836
      -1.045
      -1.267
      -1.469
      -1.574
      -1.493
      -1.181
      -0.685
      -0.117
       0.421
       0.909
       1.397
       1.905
       2.341
       2.524
       2.317
       1.751
       1.051
       0.506
       0.304
       0.423
       0.672
       0.820
       0.725
       0.379
      -0.124
      -0.661
      -1.127
      -1.449
      -1.598
      -1.589
      -1.484
      -1.368
      -1.318
      -1.369
      -1.503
      -1.654
      -1.741
      -1.695
      -1.490
      -1.145
      -0.703
      -0.214
       0.264
       0.671
       0.975
       1.201
       1.415
       1.673
       1.971
       2.256
       2.467
       2.545
       2.429
       2.065
       1.453
       0.680
      -0.097
      -0.721
      -1.092
      -1.190
      -1.066
      -0.824
      -0.598
      -0.514
      -0.637
      -0.931
      -1.269
      -1.486
      -1.457
      -1.148
      -0.632
      -0.059
       0.404
       0.639
       0.625
       0.444
       0.246
       0.170
       0.261
       0.444
       0.584
       0.583
       0.436
       0.203
      -0.058
      -0.324
      -0.583
      -0.789
      -0.858
      -0.727
      -0.407
       0.006
       0.368
       0.544
       0.459
       0.119
      -0.384
      -0.907
      -1.319
      -1.545
      -1.585
      -1.493
      -1.342
      -1.195
      -1.076
      -0.970
      -0.854
      -0.731
      -0.633
      -0.595
      -0.612
      -0.631
      -0.581
      -0.422
      -0.181
       0.072
       0.274
       0.437
       0.662
       1.060
       1.659
       2.366
       3.035
       3.557
       3.887
       4.008
       3.910
       3.605
       3.150
       2.613
       2.028
       1.386
       0.687
      -0.029
      -0.691
      -1.238
      -1.653
      -1.961
      -2.212
      -2.463
      -2.744
      -3.045
      -3.301
      -3.428
      -3.364
      -3.091
      -2.620
      -1.954
      -1.082
      -0.021
       1.124
       2.164
       2.915
       3.292
       3.332
       3.125
       2.736
       2.194
       1.522
       0.744
      -0.129
      -1.096
      -2.132
      -3.150
      -4.019
      -4.636
      -4.971
      -5.048
      -4.876
      -4.418
      -3.634
      -2.561
      -1.365
      -0.279
       0.512
       0.977
       1.242
       1.500
       1.890
       2.423
       2.982
       3.385
       3.477
       3.196
       2.605
       1.846
       1.072
       0.378
      -0.202
      -0.680
      -1.073
      -1.381
      -1.583
      -1.648
      -1.561
      -1.336
      -1.021
      -0.671
      -0.315
       0.071
       0.556
       1.196
       1.986
       2.837
       3.615
       4.192
       4.472
       4.420
       4.070
       3.512
       2.844
       2.132
       1.382
       0.561
      -0.367
      -1.397
      -2.449
      -3.380
      -4.032
      -4.310
      -4.221
      -3.868
      -3.402
      -2.942
      -2.523
      -2.094
      -1.586
      -0.976
      -0.297
       0.419
       1.169
       1.955
       2.731
       3.395
       3.856
       4.089
       4.121
       3.953
       3.528
       2.799
       1.828
       0.813
      -0.016
      -0.539
      -0.808
      -0.970
      -1.134
      -1.314
      -1.467
      -1.563
      -1.613
      -1.626
      -1.575
      -1.401
      -1.057
      -0.536
       0.137
       0.911
       1.704
       2.402
       2.883
       3.050
       2.872
       2.386
       1.685
       0.893
       0.146
      -0.431
      -0.779
      -0.938
      -1.032
      -1.199
      -1.506
      -1.924
      -2.369
      -2.741
      -2.934
      -2.856
      -2.483
      -1.893
      -1.244
      -0.666
      -0.204
       0.152
       0.381
       0.411
       0.191
      -0.222
      -0.666
      -0.947
      -0.943
      -0.645
      -0.146
       0.401
       0.829
       1.008
       0.893
       0.533
       0.035
      -0.503
      -1.019
      -1.467
      -1.793
      -1.960
      -1.991
      -1.984
      -2.033
      -2.134
      -2.170
      -2.006
      -1.617
      -1.108
      -0.606
      -0.145
       0.341
       0.922
       1.592
       2.293
       2.969
       3.589
       4.099
       4.410
       4.449
       4.227
       3.848
       3.429
       3.014
       2.560
       2.009
       1.357
       0.675
       0.046
      -0.499
      -1.010
      -1.575
      -2.243
      -2.986
      -3.707
      -4.311
      -4.755
      -5.033
      -5.128
      -4.969
      -4.454
      -3.505
      -2.140
      -0.498
       1.181
       2.634
       3.680
       4.278
       4.520
       4.556
       4.518
       4.455
       4.317
       3.961
       3.232
       2.069
       0.574
      -1.011
      -2.426
      -3.509
      -4.218
      -4.591
      -4.685
      -4.561
      -4.290
      -3.954
      -3.609
      -3.252
      -2.821
      -2.239
      -1.480
      -0.597
       0.308
       1.134
       1.831
       2.411
       2.938
       3.468
       3.997
       4.430
       4.626
       4.468
       3.915
       2.999
       1.804
       0.454
      -0.875
      -1.995
      -2.783
      -3.230
      -3.421
      -3.448
      -3.340
      -3.065
      -2.583
      -1.910
      -1.123
      -0.320
       0.438
       1.148
       1.842
       2.539
       3.199
       3.721
       3.980
       3.904
       3.527
       2.997
       2.505
       2.185
       2.028
       1.908
       1.682
       1.292
       0.789
       0.279
      -0.154
      -0.469
      -0.669
      -0.792
      -0.908
      -1.087
      -1.359
      -1.693
      -2.026
      -2.338
      -2.667
      -3.052
      -3.436
      -3.654
      -3.527
      -2.990
      -2.137
      -1.174
      -0.327
       0.238
       0.468
       0.427
       0.271
       0.183
       0.304
       0.675
       1.227
       1.816
       2.304
       2.608
       2.710
       2.610
       2.299
       1.780
       1.099
       0.365
      -0.280
      -0.713
      -0.875
      -0.792
      -0.573
      -0.367
      -0.292
      -0.382
      -0.586
      -0.828
      -1.067
      -1.302
      -1.520
      -1.675
      -1.714
      -1.632
      -1.484
      -1.348
      -1.275
      -1.281
      -1.351
      -1.444
      -1.489
      -1.416
      -1.192
      -0.832
      -0.376
       0.140
       0.681
       1.189
       1.579
       1.776
       1.767
       1.617
       1.447
       1.386
       1.512
       1.828
       2.251
       2.630
       2.799
       2.642
       2.156
       1.462
       0.747
       0.163
      -0.245
      -0.528
      -0.754
      -0.947
      -1.100
      -1.226
      -1.359
      -1.506
      -1.599
      -1.539
      -1.267
      -0.822
      -0.300
       0.194
       0.602
       0.925
       1.198
       1.448
       1.652
       1.749
       1.698
       1.520
       1.298
       1.116
       0.996
       0.871
       0.617
       0.134
      -0.580
      -1.411
      -2.177
      -2.724
      -3.001
      -3.058
      -2.999
      -2.910
      -2.814
      -2.694
      -2.532
      -2.344
      -2.167
      -2.001
      -1.768
      -1.343
      -0.646
       0.268
       1.234
       2.087
       2.763
       3.297
       3.743
       4.096
       4.294
       4.277
       4.043
       3.648
       3.177
       2.692
       2.219
       1.767
       1.341
       0.939
       0.517
      -0.017
      -0.754
      -1.717
      -2.808
      -3.828
      -4.550
      -4.818
      -4.604
      -4.016
      -3.235
      -2.434
      -1.696
      -1.008
      -0.317
       0.384
       1.026
       1.535
       1.918
       2.275
       2.700
       3.178
       3.587
       3.794
       3.726
       3.371
       2.734
       1.837
       0.759
      -0.351
      -1.318
      -2.005
      -2.356
      -2.407
      -2.256
      -2.034
      -1.857
      -1.787
      -1.809
      -1.845
      -1.798
      -1.598
      -1.218
      -0.673
      -0.012
       0.694
       1.365
       1.944
       2.424
       2.837
       3.193
       3.431
       3.427
       3.079
       2.374
       1.401
       0.304
      -0.763
      -1.674
      -2.364
      -2.852
      -3.225
      -3.574
      -3.910
      -4.140
      -4.137
      -3.826
      -3.230
      -2.435
      -1.528
      -0.570
       0.394
       1.310
       2.112
       2.736
       3.135
       3.287
       3.208
       2.959
       2.626
       2.277
       1.929
       1.529
       0.995
       0.263
      -0.659
      -1.681
      -2.661
      -3.448
      -3.930
      -4.061
      -3.874
      -3.468
      -2.958
      -2.429
      -1.912
      -1.407
      -0.899
      -0.361
       0.265
       1.050
       2.011
       3.069
       4.064
       4.836
       5.278
       5.348
       5.057
       4.474
       3.717
       2.911
       2.131
       1.372
       0.579
      -0.290
      -1.201
      -2.045
      -2.694
      -3.084
      -3.248
      -3.280
      -3.244
      -3.121
      -2.848
      -2.393
      -1.809
      -1.196
      -0.651
      -0.220
       0.090
       0.300
       0.442
       0.547
       0.629
       0.683
       0.695
       0.652
       0.539
       0.340
       0.059
      -0.261
      -0.534
      -0.685
      -0.714
      -0.700
      -0.747
      -0.891
      -1.061
      -1.108
      -0.906
      -0.437
       0.193
       0.832
       1.375
       1.817
       2.200
       2.525
       2.714
       2.650
       2.276
       1.668
       1.003
       0.467
       0.157
       0.054
       0.075
       0.131
       0.164
       0.140
       0.041
      -0.129
      -0.321
      -0.451
      -0.464
      -0.391
      -0.336
      -0.395
      -0.573
      -0.798
      -0.998
      -1.147
      -1.239
      -1.246
      -1.127
      -0.884
      -0.590
      -0.355
      -0.267
      -0.348
      -0.554
      -0.807
      -1.030
      -1.160
      -1.150
      -0.961
      -0.589
      -0.083
       0.453
       0.900
       1.173
       1.247
       1.138
       0.886
       0.547
       0.189
      -0.124
      -0.343
      -0.454
      -0.477
      -0.470
      -0.489
      -0.549
      -0.601
      -0.570
      -0.431
      -0.240
      -0.078
       0.032
       0.159
       0.399
       0.773
       1.195
       1.532
       1.698
       1.710
       1.664
       1.655
       1.708
       1.752
       1.668
       1.359
       0.820
       0.147
      -0.512
      -1.035
      -1.377
      -1.564
      -1.646
      -1.639
      -1.521
      -1.259
      -0.847
      -0.320
       0.270
       0.870
       1.406
       1.769
       1.837
       1.561
       1.014
       0.367
      -0.216
      -0.650
      -0.909
      -0.972
      -0.826
      -0.523
      -0.213
      -0.073
      -0.201
      -0.561
      -1.028
      -1.463
      -1.765
      -1.894
      -1.856
      -1.682
      -1.400
      -1.019
      -0.532
       0.055
       0.704
       1.355
       1.948
       2.444
       2.820
       3.056
       3.130
       3.022
       2.721
       2.221
       1.529
       0.693
      -0.187
      -0.977
      -1.588
      -2.026
      -2.375
      -2.692
      -2.931
      -2.971
      -2.733
      -2.269
      -1.733
      -1.263
      -0.895
      -0.574
      -0.225
       0.193
       0.688
       1.248
       1.826
       2.318
       2.590
       2.546
       2.200
       1.667
       1.085
       0.526
      -0.020
      -0.585
      -1.162
      -1.693
      -2.104
      -2.350
      -2.422
      -2.341
      -2.148
      -1.898
      -1.640
      -1.390
      -1.110
      -0.748
      -0.300
       0.166
       0.548
       0.783
       0.893
       0.959
       1.057
       1.221
       1.448
       1.718
       1.984
       2.163
       2.166
       1.962
       1.603
       1.190
       0.810
       0.494
       0.229
       0.008
      -0.146
      -0.182
      -0.078
       0.120
       0.299
       0.350
       0.236
       0.023
      -0.159
      -0.202
      -0.082
       0.127
       0.312
       0.407
       0.415
       0.377
       0.313
       0.197
       0.003
      -0.250
      -0.489
      -0.636
      -0.676
      -0.668
      -0.702
      -0.838
      -1.064
      -1.298
      -1.438
      -1.415
      -1.234
      -0.966
      -0.694
      -0.461
      -0.253
      -0.034
       0.204
       0.435
       0.609
       0.691
       0.673
       0.578
       0.448
       0.332
       0.265
       0.262
       0.302
       0.340
       0.328
       0.256
       0.167
       0.126
       0.164
       0.250
       0.313
       0.303
       0.222
       0.106
      -0.013
      -0.127
      -0.231
      -0.303
      -0.317
      -0.272
      -0.206
      -0.172
      -0.200
      -0.285
      -0.396
      -0.489
      -0.509
      -0.413
      -0.218
      -0.019
       0.056
      -0.058
      -0.316
      -0.584
      -0.727
      -0.683
      -0.473
      -0.163
       0.173
       0.462
       0.634
       0.646
       0.517
       0.323
       0.161
       0.090
       0.112
       0.191
       0.282
       0.338
       0.319
       0.195
      -0.032
      -0.327
      -0.629
      -0.866
      -0.968
      -0.890
      -0.648
      -0.333
      -0.074
       0.050
       0.073
       0.133
       0.373
       0.832
       1.418
       1.965
       2.318
       2.401
       2.220
       1.847
       1.385
       0.949
       0.629
       0.457
       0.385
       0.317
       0.175
      -0.061
      -0.358
      -0.666
      -0.953
      -1.212
      -1.456
      -1.707
      -1.980
      -2.259
      -2.486
      -2.570
      -2.442
      -2.103
      -1.630
      -1.130
      -0.682
      -0.324
      -0.066
       0.099
       0.202
       0.286
       0.356
       0.370
       0.289
       0.142
       0.022
       0.017
       0.139
       0.323
       0.486
       0.597
       0.683
       0.781
       0.889
       0.954
       0.916
       0.751
       0.487
       0.181
      -0.104
      -0.317
      -0.431
      -0.457
      -0.450
      -0.480
      -0.597
      -0.822
      -1.142
      -1.513
      -1.842
      -1.988
      -1.825
      -1.329
      -0.622
       0.097
       0.662
       1.014
       1.188
       1.261
       1.309
       1.394
       1.538
       1.709
       1.830
       1.826
       1.669
       1.381
       0.997
       0.541
       0.051
      -0.399
      -0.696
      -0.750
      -0.559
      -0.221
       0.127
       0.393
       0.551
       0.628
       0.660
       0.675
       0.701
       0.765
       0.881
