Origin Time       21/9/2009 9:43:47	 
Lat.              30.9 N	
Long.             79.1 E	
Depth (Km)         13.0
Magnitude         4.7
 Region           UTTARKASHI-UTTARAKHAND                                           
 Above details taken from IMD 
     
Station Code      GAR
Station Lat.       30.051  N
Station Long.      79.588  E
Station Height(m) 1638.0
Site Class        A   Vs30 between 700 m/sec to 1400 m/sec * 
Record Time       21.09.2009 09:43:54.384
Sampling Rate     200. Hz
 Record Duration   81.270 Sec.
 Direction         E-W (E positive)
Max. Acceleration     13.963 cm/sec**2
     
  * For reference see Site Classification link of website 
     
 Base Line Corrected and Low Pass Filtered (Cut Off at 35 Hz) Time History
 Acceleration data in cm/sec**2
    
[...]
      -0.048
      -0.146
      -0.176
      -0.175
      -0.172
      -0.161
      -0.117
      -0.028
       0.095
       0.226
       0.348
       0.464
       0.575
       0.666
       0.699
       0.637
       0.470
       0.219
      -0.080
      -0.395
      -0.705
      -0.993
      -1.238
      -1.420
      -1.533
      -1.579
      -1.560
      -1.476
      -1.329
      -1.128
      -0.897
      -0.659
      -0.424
      -0.177
       0.115
       0.463
       0.823
       1.106
       1.232
       1.205
       1.111
       1.050
       1.052
       1.065
       0.998
       0.801
       0.509
       0.214
      -0.002
      -0.132
      -0.239
      -0.397
      -0.628
      -0.872
      -1.026
      -1.017
      -0.844
      -0.575
      -0.302
      -0.080
       0.101
       0.292
       0.545
       0.867
       1.221
       1.551
       1.808
       1.957
       1.966
       1.819
       1.530
       1.141
       0.700
       0.236
      -0.243
      -0.714
      -1.131
      -1.429
      -1.555
      -1.496
      -1.293
      -1.020
      -0.760
      -0.563
      -0.425
      -0.304
      -0.153
       0.046
       0.273
       0.500
       0.703
       0.847
       0.874
       0.730
       0.409
      -0.023
      -0.454
      -0.774
      -0.929
      -0.923
      -0.809
      -0.659
      -0.536
      -0.461
      -0.416
      -0.352
      -0.234
      -0.061
       0.128
       0.291
       0.411
       0.506
       0.599
       0.686
       0.738
       0.728
       0.662
       0.566
       0.454
       0.317
       0.141
      -0.061
      -0.246
      -0.369
      -0.416
      -0.404
      -0.362
      -0.307
      -0.247
      -0.191
      -0.145
      -0.102
      -0.050
       0.006
       0.032
      -0.024
      -0.179
      -0.387
      -0.548
      -0.561
      -0.388
      -0.088
       0.214
       0.400
       0.428
       0.340
       0.210
       0.089
      -0.009
      -0.090
      -0.148
      -0.166
      -0.140
      -0.100
      -0.111
      -0.216
      -0.395
      -0.563
      -0.635
      -0.590
      -0.482
      -0.383
      -0.323
      -0.277
      -0.195
      -0.050
       0.155
       0.400
       0.651
       0.861
       0.985
       1.006
       0.954
       0.882
       0.829
       0.787
       0.715
       0.576
       0.367
       0.118
      -0.131
      -0.352
      -0.532
      -0.669
      -0.767
      -0.833
      -0.876
      -0.891
      -0.865
      -0.785
      -0.657
      -0.506
      -0.362
      -0.231
      -0.102
       0.034
       0.151
       0.194
       0.123
      -0.043
      -0.227
      -0.346
      -0.365
      -0.311
      -0.260
      -0.280
      -0.382
      -0.490
      -0.487
      -0.302
       0.030
       0.387
       0.652
       0.785
       0.839
       0.897
       1.003
       1.127
       1.199
       1.155
       0.975
       0.693
       0.370
       0.070
      -0.167
      -0.327
      -0.420
      -0.472
      -0.511
      -0.564
      -0.641
      -0.731
      -0.807
      -0.841
      -0.812
      -0.718
      -0.568
      -0.365
      -0.104
       0.217
       0.571
       0.886
       1.073
       1.079
       0.932
       0.721
       0.527
       0.378
       0.258
       0.155
       0.077
       0.023
      -0.036
      -0.142
      -0.300
      -0.465
      -0.564
      -0.555
      -0.463
      -0.355
      -0.296
      -0.295
      -0.304
      -0.251
      -0.097
       0.136
       0.378
       0.557
       0.637
       0.634
       0.603
       0.604
       0.653
       0.717
       0.730
       0.647
       0.464
       0.224
      -0.021
      -0.228
      -0.382
      -0.492
      -0.582
      -0.675
      -0.791
      -0.934
      -1.096
      -1.256
      -1.383
      -1.454
      -1.457
      -1.393
      -1.257
      -1.027
      -0.686
      -0.254
       0.192
       0.540
       0.722
       0.768
       0.795
       0.921
       1.170
       1.448
       1.609
       1.554
       1.282
       0.887
       0.487
       0.158
      -0.105
      -0.363
      -0.658
      -0.973
      -1.234
      -1.366
      -1.331
      -1.140
      -0.836
      -0.468
      -0.088
       0.249
       0.499
       0.644
       0.707
       0.734
       0.764
       0.796
       0.802
       0.754
       0.653
       0.524
       0.394
       0.274
       0.167
       0.076
       0.006
      -0.040
      -0.063
      -0.062
      -0.030
       0.027
       0.080
       0.086
       0.013
      -0.137
      -0.323
      -0.481
      -0.547
      -0.489
      -0.345
      -0.228
      -0.269
      -0.511
      -0.850
      -1.091
      -1.097
      -0.883
      -0.582
      -0.329
      -0.163
      -0.031
       0.131
       0.335
       0.533
       0.676
       0.756
       0.794
       0.804
       0.768
       0.653
       0.452
       0.189
      -0.097
      -0.377
      -0.636
      -0.858
      -1.014
      -1.068
      -0.994
      -0.801
      -0.535
      -0.273
      -0.097
      -0.057
      -0.133
      -0.235
      -0.236
      -0.054
       0.291
       0.673
       0.938
       0.999
       0.880
       0.690
       0.543
       0.490
       0.506
       0.524
       0.477
       0.333
       0.109
      -0.139
      -0.330
      -0.394
      -0.315
      -0.146
       0.018
       0.103
       0.115
       0.120
       0.189
       0.326
       0.454
       0.458
       0.271
      -0.059
      -0.382
      -0.533
      -0.450
      -0.212
       0.011
       0.083
      -0.021
      -0.212
      -0.371
      -0.430
      -0.407
      -0.370
      -0.369
      -0.401
      -0.424
      -0.405
      -0.344
      -0.259
      -0.148
       0.013
       0.245
       0.523
       0.766
       0.886
       0.842
       0.664
       0.429
       0.213
       0.058
      -0.032
      -0.080
      -0.116
      -0.159
      -0.219
      -0.290
      -0.340
      -0.318
      -0.183
       0.041
       0.238
       0.267
       0.075
      -0.242
      -0.510
      -0.616
      -0.589
      -0.539
      -0.531
      -0.515
      -0.373
      -0.032
       0.454
       0.925
       1.224
       1.291
       1.191
       1.039
       0.912
       0.798
       0.623
       0.316
      -0.131
      -0.652
      -1.144
      -1.521
      -1.753
      -1.843
      -1.802
      -1.623
      -1.308
      -0.877
      -0.372
       0.165
       0.689
       1.144
       1.464
       1.606
       1.576
       1.434
       1.253
       1.074
       0.882
       0.631
       0.291
      -0.110
      -0.496
      -0.786
      -0.939
      -0.968
      -0.923
      -0.859
      -0.795
      -0.699
      -0.522
      -0.242
       0.097
       0.416
       0.645
       0.759
       0.764
       0.670
       0.464
       0.134
      -0.291
      -0.712
      -0.990
      -1.025
      -0.827
      -0.517
      -0.254
      -0.145
      -0.192
      -0.307
      -0.383
      -0.356
      -0.236
      -0.077
       0.065
       0.171
       0.250
       0.309
       0.331
       0.292
       0.183
       0.030
      -0.132
      -0.282
      -0.421
      -0.537
      -0.600
      -0.573
      -0.452
      -0.278
      -0.106
       0.041
       0.188
       0.375
       0.611
       0.851
       1.027
       1.094
       1.061
       0.977
       0.885
       0.794
       0.700
       0.626
       0.629
       0.761
       1.019
       1.326
       1.576
       1.687
       1.632
       1.441
       1.158
       0.810
       0.401
      -0.056
      -0.517
      -0.917
      -1.209
      -1.397
      -1.531
      -1.666
      -1.811
      -1.920
      -1.924
      -1.784
      -1.530
      -1.241
      -0.985
      -0.771
      -0.551
      -0.269
       0.101
       0.537
       0.996
       1.428
       1.792
       2.065
       2.248
       2.346
       2.353
       2.242
       1.982
       1.561
       1.014
       0.414
      -0.145
      -0.592
      -0.894
      -1.071
      -1.182
      -1.290
      -1.419
      -1.530
      -1.547
      -1.426
      -1.208
      -1.000
      -0.887
      -0.861
      -0.820
      -0.642
      -0.272
       0.231
       0.737
       1.134
       1.385
       1.530
       1.613
       1.625
       1.515
       1.232
       0.782
       0.252
      -0.221
      -0.511
      -0.572
      -0.469
      -0.336
      -0.287
      -0.348
      -0.461
      -0.549
      -0.568
      -0.523
      -0.427
      -0.288
      -0.119
       0.045
       0.150
       0.153
       0.044
      -0.147
      -0.381
      -0.624
      -0.863
      -1.093
      -1.313
      -1.524
      -1.720
      -1.879
      -1.960
      -1.920
      -1.735
      -1.427
      -1.073
      -0.786
      -0.650
      -0.670
      -0.769
      -0.852
      -0.871
      -0.848
      -0.847
      -0.921
      -1.073
      -1.267
      -1.465
      -1.665
      -1.894
      -2.171
      -2.462
      -2.677
      -2.723
      -2.553
      -2.185
      -1.674
      -1.074
      -0.425
       0.248
       0.925
       1.593
       2.236
       2.826
       3.315
       3.639
       3.743
       3.612
       3.286
       2.844
       2.372
       1.939
       1.573
       1.251
       0.903
       0.447
      -0.153
      -0.845
      -1.506
      -2.002
      -2.254
      -2.262
      -2.077
      -1.753
      -1.318
      -0.775
      -0.113
       0.681
       1.598
       2.578
       3.497
       4.201
       4.576
       4.612
       4.416
       4.157
       3.993
       3.993
       4.095
       4.135
       3.937
       3.411
       2.588
       1.570
       0.447
      -0.740
      -1.965
      -3.171
      -4.255
      -5.110
      -5.674
      -5.955
      -6.009
      -5.891
      -5.613
      -5.143
      -4.449
      -3.556
      -2.561
      -1.590
      -0.731
       0.009
       0.668
       1.281
       1.835
       2.279
       2.553
       2.634
       2.545
       2.347
       2.127
       1.974
       1.953
       2.074
       2.276
       2.454
       2.517
       2.427
       2.190
       1.823
       1.345
       0.817
       0.364
       0.121
       0.124
       0.237
       0.209
      -0.181
      -0.990
      -2.087
      -3.226
      -4.178
      -4.822
      -5.161
      -5.265
      -5.184
      -4.908
      -4.381
      -3.562
      -2.472
      -1.202
       0.113
       1.351
       2.439
       3.382
       4.226
       5.006
       5.703
       6.238
       6.509
       6.430
       5.959
       5.120
       4.007
       2.772
       1.587
       0.587
      -0.184
      -0.777
      -1.299
      -1.840
      -2.420
      -2.970
      -3.350
      -3.403
      -3.023
      -2.219
      -1.138
      -0.017
       0.918
       1.536
       1.843
       1.947
       1.967
       1.956
       1.888
       1.717
       1.438
       1.103
       0.795
       0.575
       0.458
       0.403
       0.336
       0.173
      -0.136
      -0.585
      -1.112
      -1.640
      -2.111
      -2.506
      -2.819
      -3.025
      -3.074
      -2.931
      -2.638
      -2.328
      -2.178
      -2.317
      -2.765
      -3.426
      -4.151
      -4.807
      -5.313
      -5.638
      -5.783
      -5.767
      -5.614
      -5.326
      -4.868
      -4.188
      -3.271
      -2.179
      -1.041
       0.001
       0.869
       1.580
       2.229
       2.928
       3.745
       4.677
       5.668
       6.631
       7.457
       8.020
       8.204
       7.961
       7.348
       6.495
       5.531
       4.531
       3.524
       2.554
       1.705
       1.085
       0.767
       0.735
       0.885
       1.082
       1.230
       1.315
       1.384
       1.483
       1.592
       1.614
       1.417
       0.905
       0.086
      -0.930
      -1.977
      -2.925
      -3.733
      -4.428
      -5.050
      -5.594
      -6.015
      -6.271
      -6.349
      -6.256
      -5.986
      -5.510
      -4.795
      -3.838
      -2.693
      -1.458
      -0.244
       0.870
       1.852
       2.718
       3.508
       4.260
       4.982
       5.647
       6.194
       6.555
       6.690
       6.622
       6.430
       6.200
       5.973
       5.721
       5.378
       4.881
       4.193
       3.296
       2.176
       0.824
      -0.751
      -2.504
      -4.331
      -6.069
      -7.548
      -8.656
      -9.379
      -9.783
      -9.946
      -9.904
      -9.639
      -9.128
      -8.389
      -7.491
      -6.524
      -5.554
      -4.593
      -3.611
      -2.565
      -1.421
      -0.149
       1.284
       2.893
       4.637
       6.380
       7.908
       8.994
       9.485
       9.354
       8.695
       7.679
       6.497
       5.321
       4.286
       3.462
       2.835
       2.301
       1.691
       0.848
      -0.309
      -1.755
      -3.387
      -5.058
      -6.584
      -7.734
      -8.260
      -7.986
      -6.901
      -5.168
      -3.048
      -0.774
       1.521
       3.787
       5.965
       7.915
       9.401
      10.167
      10.029
       8.951
       7.063
       4.622
       1.949
      -0.642
      -2.893
      -4.636
      -5.805
      -6.422
      -6.577
      -6.393
      -6.006
      -5.545
      -5.109
      -4.750
      -4.443
      -4.104
      -3.628
      -2.981
      -2.250
      -1.623
      -1.291
      -1.343
      -1.716
      -2.230
      -2.654
      -2.776
      -2.442
      -1.582
      -0.221
       1.531
       3.519
       5.591
       7.630
       9.538
      11.223
      12.587
      13.530
      13.963
      13.807
      13.007
      11.557
       9.511
       6.976
       4.095
       1.026
      -2.072
      -5.042
      -7.727
      -9.975
     -11.660
     -12.717
     -13.158
     -13.041
     -12.420
     -11.310
      -9.718
      -7.696
      -5.393
      -3.052
      -0.955
       0.664
       1.704
       2.237
       2.476
       2.661
       2.930
       3.250
       3.447
       3.317
       2.730
       1.682
       0.273
      -1.330
      -2.940
      -4.363
      -5.421
      -5.972
      -5.938
      -5.310
      -4.147
      -2.575
      -0.775
       1.040
       2.675
       4.015
       5.058
       5.876
       6.544
       7.066
       7.387
       7.444
       7.210
       6.687
       5.880
       4.811
       3.560
       2.288
       1.190
       0.403
      -0.072
      -0.365
      -0.656
      -1.077
      -1.654
      -2.320
      -2.966
      -3.494
      -3.855
      -4.054
      -4.121
      -4.083
      -3.948
      -3.728
      -3.493
      -3.376
      -3.520
      -3.986
      -4.691
      -5.415
      -5.852
      -5.703
      -4.774
      -3.055
      -0.723
       1.928
       4.593
       7.024
       9.044
      10.538
      11.439
      11.728
      11.418
      10.540
       9.135
       7.253
       4.953
       2.300
      -0.624
      -3.692
      -6.701
      -9.366
     -11.365
     -12.417
     -12.360
     -11.189
      -9.047
      -6.195
      -2.963
       0.299
       3.264
       5.668
       7.348
       8.274
       8.535
       8.257
       7.513
       6.292
       4.551
       2.315
      -0.272
      -2.973
      -5.536
      -7.780
      -9.602
     -10.942
     -11.726
     -11.843
     -11.189
      -9.730
      -7.562
      -4.913
      -2.081
       0.661
       3.139
       5.295
       7.140
       8.701
       9.959
      10.832
      11.207
      10.997
      10.190
       8.872
       7.208
       5.416
       3.724
       2.315
       1.288
       0.655
       0.368
       0.335
       0.411
       0.392
       0.071
      -0.664
      -1.742
      -2.957
      -4.083
      -4.997
      -5.698
      -6.250
      -6.706
      -7.068
      -7.300
      -7.370
      -7.271
      -6.997
      -6.525
      -5.827
      -4.905
      -3.827
      -2.701
      -1.611
      -0.558
       0.543
       1.794
       3.217
       4.689
       5.974
       6.818
       7.075
       6.772
       6.076
       5.203
       4.333
       3.553
       2.862
       2.207
       1.539
       0.859
       0.214
      -0.336
      -0.751
      -1.014
      -1.114
      -1.030
      -0.747
      -0.267
       0.383
       1.152
       1.957
       2.681
       3.198
       3.425
       3.372
       3.137
       2.827
       2.468
       1.983
       1.264
       0.278
      -0.896
      -2.102
      -3.184
      -4.040
      -4.628
      -4.934
      -4.949
      -4.669
      -4.121
      -3.380
      -2.560
      -1.778
      -1.127
      -0.651
      -0.348
      -0.187
      -0.129
      -0.140
      -0.193
      -0.253
      -0.291
      -0.297
      -0.296
      -0.321
      -0.378
      -0.419
      -0.368
      -0.173
       0.150
       0.523
       0.847
       1.057
       1.153
       1.191
       1.246
       1.365
       1.550
       1.770
       1.980
       2.139
       2.211
       2.165
       1.996
       1.736
       1.441
       1.148
       0.848
       0.506
       0.114
      -0.287
      -0.653
      -0.997
      -1.406
      -1.980
      -2.763
      -3.706
      -4.686
      -5.569
      -6.251
      -6.660
      -6.731
      -6.383
      -5.540
      -4.183
      -2.405
      -0.402
       1.589
       3.373
       4.839
       5.966
       6.776
       7.284
       7.466
       7.266
       6.645
       5.624
       4.311
       2.869
       1.472
       0.249
      -0.727
      -1.437
      -1.891
      -2.114
      -2.150
      -2.051
      -1.864
      -1.618
      -1.324
      -0.993
      -0.659
      -0.387
      -0.251
      -0.301
      -0.529
      -0.868
      -1.207
      -1.440
      -1.492
      -1.359
      -1.102
      -0.823
      -0.613
      -0.520
      -0.534
      -0.605
      -0.680
      -0.728
      -0.758
      -0.801
      -0.868
      -0.918
      -0.874
      -0.682
      -0.370
      -0.023
       0.276
       0.522
       0.782
       1.132
       1.584
       2.069
       2.474
       2.719
       2.802
       2.801
       2.817
       2.915
       3.079
       3.217
       3.212
       2.987
       2.547
       1.973
       1.366
       0.788
       0.221
      -0.421
      -1.244
      -2.316
      -3.616
      -5.017
      -6.308
      -7.258
      -7.699
      -7.583
      -6.964
      -5.948
      -4.638
      -3.134
      -1.562
      -0.072
       1.227
       2.331
       3.333
       4.322
       5.287
       6.108
       6.640
       6.803
       6.607
       6.111
       5.376
       4.449
       3.391
       2.292
       1.255
       0.357
      -0.389
      -1.015
      -1.572
      -2.087
      -2.552
      -2.928
      -3.165
      -3.223
      -3.077
      -2.717
      -2.154
      -1.429
      -0.632
       0.101
       0.626
       0.839
       0.720
       0.330
      -0.210
      -0.750
      -1.159
      -1.359
      -1.357
      -1.235
      -1.108
      -1.072
      -1.157
      -1.319
      -1.468
      -1.523
      -1.461
      -1.324
      -1.180
      -1.078
      -0.999
      -0.871
      -0.624
      -0.257
       0.146
       0.471
       0.667
       0.787
       0.958
       1.286
       1.770
       2.284
       2.637
       2.693
       2.449
       2.042
       1.662
       1.438
       1.372
       1.367
       1.303
       1.114
       0.794
       0.364
      -0.168
      -0.800
      -1.500
      -2.191
