Origin Time       01/05/2009 22:36:25
Lat.              29.9 N 
Long.             80.1 E 
Depth (Km)         10.0
Magnitude         4.6
 Region           Bageshwar-Uttarakhand                                            
 Above details taken from IMD 
     
Station Code      GAR
Station Lat.       30.051  N
Station Long.      79.288  E
Station Height(m) 1614.0
Site Class        A   Vs30 between 700 m/sec to 1400 m/sec * 
Record Time       01.05.2010 22:36:30.114
Sampling Rate     200. Hz
 Record Duration   66.740 Sec.
 Direction         E-W (E positive)
Max. Acceleration      9.785 cm/sec**2
     
  * For reference see Site Classification link of website 
     
 Base Line Corrected and Low Pass Filtered (Cut Off at 35 Hz) Time History
 Acceleration data in cm/sec**2
    
[...]
       0.632
       0.583
       0.461
       0.319
       0.208
       0.131
       0.040
      -0.114
      -0.316
      -0.488
      -0.549
      -0.487
      -0.361
      -0.234
      -0.114
       0.048
       0.284
       0.555
       0.754
       0.787
       0.648
       0.427
       0.244
       0.165
       0.172
       0.201
       0.193
       0.121
      -0.013
      -0.181
      -0.340
      -0.450
      -0.496
      -0.486
      -0.442
      -0.376
      -0.283
      -0.161
      -0.029
       0.064
       0.065
      -0.043
      -0.219
      -0.399
      -0.547
      -0.671
      -0.800
      -0.932
      -1.019
      -1.013
      -0.910
      -0.751
      -0.572
      -0.374
      -0.130
       0.170
       0.483
       0.716
       0.781
       0.663
       0.448
       0.279
       0.255
       0.360
       0.486
       0.534
       0.502
       0.484
       0.559
       0.702
       0.790
       0.717
       0.496
       0.243
       0.073
       0.013
       0.008
      -0.015
      -0.082
      -0.169
      -0.244
      -0.288
      -0.310
      -0.326
      -0.356
      -0.406
      -0.460
      -0.477
      -0.419
      -0.286
      -0.123
       0.014
       0.115
       0.214
       0.341
       0.468
       0.525
       0.467
       0.328
       0.187
       0.101
       0.062
       0.025
      -0.025
      -0.053
      -0.009
       0.107
       0.228
       0.269
       0.207
       0.111
       0.089
       0.206
       0.426
       0.634
       0.716
       0.630
       0.432
       0.232
       0.104
       0.048
       0.008
      -0.070
      -0.209
      -0.404
      -0.635
      -0.873
      -1.079
      -1.219
      -1.265
      -1.215
      -1.087
      -0.906
      -0.697
      -0.483
      -0.287
      -0.122
       0.019
       0.156
       0.295
       0.418
       0.492
       0.504
       0.479
       0.465
       0.496
       0.556
       0.584
       0.522
       0.367
       0.188
       0.079
       0.085
       0.152
       0.166
       0.062
      -0.107
      -0.209
      -0.163
      -0.025
       0.049
      -0.041
      -0.245
      -0.399
      -0.380
      -0.213
      -0.028
       0.061
       0.043
      -0.025
      -0.089
      -0.135
      -0.159
      -0.145
      -0.073
       0.047
       0.171
       0.258
       0.300
       0.318
       0.343
       0.388
       0.457
       0.536
       0.591
       0.574
       0.453
       0.248
       0.031
      -0.126
      -0.205
      -0.247
      -0.311
      -0.418
      -0.539
      -0.622
      -0.632
      -0.569
      -0.456
      -0.316
      -0.164
      -0.018
       0.095
       0.136
       0.087
      -0.026
      -0.129
      -0.148
      -0.064
       0.060
       0.123
       0.065
      -0.078
      -0.197
      -0.197
      -0.067
       0.121
       0.276
       0.347
       0.339
       0.289
       0.229
       0.170
       0.104
       0.017
      -0.077
      -0.133
      -0.091
       0.076
       0.317
       0.521
       0.585
       0.496
       0.341
       0.244
       0.279
       0.423
       0.575
       0.621
       0.510
       0.284
       0.039
      -0.150
      -0.268
      -0.349
      -0.428
      -0.502
      -0.538
      -0.508
      -0.422
      -0.320
      -0.229
      -0.142
      -0.036
       0.085
       0.164
       0.143
       0.028
      -0.081
      -0.065
       0.100
       0.290
       0.328
       0.133
      -0.213
      -0.545
      -0.736
      -0.756
      -0.647
      -0.472
      -0.297
      -0.169
      -0.105
      -0.092
      -0.097
      -0.090
      -0.055
       0.004
       0.081
       0.171
       0.253
       0.288
       0.245
       0.125
      -0.029
      -0.160
      -0.239
      -0.268
      -0.274
      -0.275
      -0.265
      -0.229
      -0.166
      -0.115
      -0.123
      -0.203
      -0.295
      -0.303
      -0.177
       0.037
       0.230
       0.317
       0.313
       0.309
       0.383
       0.515
       0.589
       0.498
       0.245
      -0.047
      -0.231
      -0.246
      -0.141
      -0.013
       0.061
       0.056
      -0.019
      -0.141
      -0.286
      -0.439
      -0.581
      -0.676
      -0.680
      -0.565
      -0.356
      -0.126
       0.032
       0.064
      -0.017
      -0.128
      -0.169
      -0.081
       0.119
       0.350
       0.524
       0.590
       0.560
       0.480
       0.399
       0.346
       0.331
       0.353
       0.405
       0.474
       0.531
       0.540
       0.479
       0.374
       0.285
       0.246
       0.214
       0.093
      -0.171
      -0.523
      -0.815
      -0.915
      -0.807
      -0.595
      -0.410
      -0.316
      -0.282
      -0.250
      -0.187
      -0.091
       0.041
       0.205
       0.373
       0.486
       0.492
       0.383
       0.201
       0.011
      -0.124
      -0.167
      -0.118
      -0.013
       0.084
       0.107
       0.022
      -0.152
      -0.351
      -0.522
      -0.665
      -0.806
      -0.943
      -1.003
      -0.893
      -0.580
      -0.141
       0.276
       0.541
       0.618
       0.571
       0.495
       0.432
       0.354
       0.218
       0.036
      -0.122
      -0.171
      -0.078
       0.108
       0.283
       0.355
       0.306
       0.182
       0.047
      -0.065
      -0.143
      -0.175
      -0.136
      -0.017
       0.154
       0.320
       0.427
       0.450
       0.395
       0.269
       0.073
      -0.183
      -0.466
      -0.719
      -0.891
      -0.969
      -0.981
      -0.976
      -0.992
      -1.030
      -1.059
      -1.029
      -0.898
      -0.656
      -0.342
      -0.028
       0.217
       0.369
       0.458
       0.539
       0.661
       0.839
       1.042
       1.197
       1.229
       1.126
       0.943
       0.752
       0.578
       0.390
       0.169
      -0.039
      -0.146
      -0.121
      -0.040
      -0.039
      -0.191
      -0.426
      -0.590
      -0.576
      -0.414
      -0.233
      -0.151
      -0.187
      -0.276
      -0.334
      -0.324
      -0.267
      -0.207
      -0.166
      -0.126
      -0.041
       0.124
       0.359
       0.608
       0.786
       0.820
       0.698
       0.479
       0.260
       0.106
       0.017
      -0.051
      -0.134
      -0.235
      -0.332
      -0.410
      -0.468
      -0.496
      -0.457
      -0.314
      -0.089
       0.112
       0.162
       0.022
      -0.199
      -0.307
      -0.159
       0.230
       0.694
       1.034
       1.144
       1.065
       0.924
       0.837
       0.835
       0.871
       0.864
       0.745
       0.501
       0.186
      -0.102
      -0.282
      -0.337
      -0.327
      -0.338
      -0.420
      -0.554
      -0.677
      -0.733
      -0.711
      -0.650
      -0.614
      -0.653
      -0.776
      -0.946
      -1.107
      -1.218
      -1.264
      -1.258
      -1.232
      -1.237
      -1.315
      -1.469
      -1.635
      -1.709
      -1.606
      -1.319
      -0.926
      -0.538
      -0.225
       0.014
       0.224
       0.426
       0.588
       0.660
       0.644
       0.633
       0.759
       1.082
       1.514
       1.874
       2.025
       1.976
       1.844
       1.734
       1.657
       1.557
       1.380
       1.129
       0.852
       0.613
       0.454
       0.393
       0.423
       0.516
       0.627
       0.699
       0.686
       0.569
       0.378
       0.185
       0.083
       0.138
       0.343
       0.599
       0.761
       0.723
       0.483
       0.133
      -0.206
      -0.462
      -0.637
      -0.789
      -0.978
      -1.216
      -1.467
      -1.684
      -1.851
      -1.980
      -2.079
      -2.127
      -2.106
      -2.035
      -1.971
      -1.970
      -2.030
      -2.084
      -2.049
      -1.890
      -1.651
      -1.405
      -1.185
      -0.959
      -0.672
      -0.304
       0.108
       0.481
       0.741
       0.861
       0.887
       0.916
       1.050
       1.336
       1.729
       2.118
       2.390
       2.505
       2.515
       2.512
       2.551
       2.613
       2.644
       2.606
       2.513
       2.410
       2.331
       2.279
       2.226
       2.143
       2.004
       1.796
       1.514
       1.156
       0.724
       0.248
      -0.200
      -0.531
      -0.724
      -0.874
      -1.140
      -1.611
      -2.207
      -2.712
      -2.932
      -2.830
      -2.545
      -2.278
      -2.142
      -2.108
      -2.070
      -1.948
      -1.742
      -1.506
      -1.297
      -1.145
      -1.056
      -1.027
      -1.045
      -1.072
      -1.063
      -0.978
      -0.805
      -0.553
      -0.241
       0.120
       0.517
       0.923
       1.288
       1.556
       1.698
       1.732
       1.713
       1.709
       1.765
       1.863
       1.927
       1.854
       1.576
       1.109
       0.552
       0.025
      -0.395
      -0.724
      -1.039
      -1.401
      -1.781
      -2.054
      -2.084
      -1.831
      -1.386
      -0.919
      -0.559
      -0.316
      -0.095
       0.195
       0.542
       0.843
       0.993
       0.973
       0.861
       0.767
       0.763
       0.858
       1.016
       1.198
       1.382
       1.561
       1.730
       1.879
       1.988
       2.029
       1.984
       1.857
       1.683
       1.506
       1.348
       1.196
       1.000
       0.702
       0.255
      -0.351
      -1.096
      -1.924
      -2.763
      -3.539
      -4.184
      -4.637
      -4.840
      -4.753
      -4.380
      -3.777
      -3.025
      -2.198
      -1.362
      -0.605
      -0.046
       0.223
       0.214
       0.058
      -0.083
      -0.128
      -0.117
      -0.132
      -0.199
      -0.255
      -0.215
      -0.044
       0.218
       0.507
       0.789
       1.077
       1.390
       1.702
       1.938
       2.028
       1.966
       1.821
       1.687
       1.612
       1.567
       1.478
       1.302
       1.068
       0.865
       0.776
       0.822
       0.962
       1.123
       1.238
       1.273
       1.246
       1.220
       1.266
       1.406
       1.573
       1.647
       1.534
       1.236
       0.836
       0.411
      -0.053
      -0.643
      -1.411
      -2.293
      -3.128
      -3.765
      -4.141
      -4.282
      -4.246
      -4.079
      -3.815
      -3.492
      -3.155
      -2.837
      -2.523
      -2.146
      -1.619
      -0.894
       0.011
       1.019
       2.035
       2.984
       3.812
       4.477
       4.937
       5.153
       5.097
       4.771
       4.206
       3.440
       2.503
       1.442
       0.348
      -0.639
      -1.395
      -1.886
      -2.194
      -2.464
      -2.801
      -3.184
      -3.477
      -3.530
      -3.295
      -2.844
      -2.291
      -1.676
      -0.939
      -0.005
       1.105
       2.253
       3.265
       4.040
       4.574
       4.905
       5.040
       4.955
       4.619
       4.033
       3.230
       2.267
       1.213
       0.138
      -0.908
      -1.899
      -2.817
      -3.614
      -4.213
      -4.545
      -4.598
      -4.433
      -4.147
      -3.815
      -3.462
      -3.076
      -2.656
      -2.227
      -1.815
      -1.401
      -0.936
      -0.393
       0.194
       0.747
       1.207
       1.571
       1.874
       2.127
       2.294
       2.324
       2.224
       2.082
       2.016
       2.077
       2.189
       2.202
       2.007
       1.622
       1.181
       0.825
       0.596
       0.428
       0.222
      -0.076
      -0.447
      -0.839
      -1.203
      -1.508
      -1.734
      -1.866
      -1.896
      -1.827
      -1.673
      -1.459
      -1.201
      -0.909
      -0.586
      -0.243
       0.100
       0.416
       0.666
       0.791
       0.720
       0.410
      -0.107
      -0.715
      -1.279
      -1.724
      -2.062
      -2.342
      -2.582
      -2.734
      -2.715
      -2.477
      -2.050
      -1.523
      -0.969
      -0.386
       0.281
       1.072
       1.947
       2.807
       3.561
       4.174
       4.636
       4.904
       4.911
       4.637
       4.157
       3.600
       3.057
       2.521
       1.927
       1.234
       0.470
      -0.286
      -0.946
      -1.456
      -1.806
      -2.026
      -2.155
      -2.203
      -2.142
      -1.949
      -1.641
      -1.289
      -0.991
      -0.831
      -0.849
      -1.030
      -1.325
      -1.689
      -2.093
      -2.508
      -2.882
      -3.140
      -3.232
      -3.172
      -3.031
      -2.873
      -2.690
      -2.399
      -1.918
      -1.250
      -0.482
       0.279
       0.999
       1.717
       2.475
       3.238
       3.900
       4.367
       4.651
       4.870
       5.144
       5.488
       5.800
       5.940
       5.836
       5.513
       5.045
       4.484
       3.843
       3.118
       2.311
       1.438
       0.509
      -0.473
      -1.493
      -2.506
      -3.435
      -4.194
      -4.732
      -5.060
      -5.240
      -5.327
      -5.331
      -5.209
      -4.910
      -4.419
      -3.778
      -3.059
      -2.320
      -1.591
      -0.883
      -0.208
       0.418
       0.973
       1.396
       1.587
       1.445
       0.953
       0.217
      -0.598
      -1.377
      -2.110
      -2.846
      -3.594
      -4.279
      -4.790
      -5.052
      -5.048
      -4.778
      -4.218
      -3.356
      -2.243
      -0.997
       0.263
       1.490
       2.715
       3.989
       5.318
       6.641
       7.854
       8.841
       9.505
       9.785
       9.680
       9.247
       8.566
       7.703
       6.693
       5.546
       4.278
       2.920
       1.525
       0.152
      -1.138
      -2.286
      -3.242
      -3.980
      -4.515
      -4.902
      -5.194
      -5.414
      -5.542
      -5.539
      -5.390
      -5.125
      -4.807
      -4.485
      -4.158
      -3.796
      -3.397
      -3.022
      -2.755
      -2.613
      -2.473
      -2.127
      -1.432
      -0.432
       0.651
       1.566
       2.171
       2.473
       2.579
       2.609
       2.654
       2.747
       2.867
       2.950
       2.934
       2.800
       2.578
       2.297
       1.952
       1.507
       0.962
       0.387
      -0.099
      -0.396
      -0.481
      -0.401
      -0.229
      -0.016
       0.213
       0.440
       0.643
       0.794
       0.884
       0.930
       0.948
       0.907
       0.725
       0.321
      -0.301
      -1.027
      -1.689
      -2.164
      -2.423
      -2.500
      -2.413
      -2.121
      -1.574
      -0.808
       0.022
       0.712
       1.149
       1.372
       1.485
       1.541
       1.495
       1.274
       0.880
       0.415
       0.021
      -0.230
      -0.364
      -0.473
      -0.633
      -0.867
      -1.150
      -1.431
      -1.648
      -1.726
      -1.599
      -1.244
      -0.699
      -0.061
       0.548
       1.026
       1.309
       1.372
       1.227
       0.909
       0.477
      -0.007
      -0.482
      -0.905
      -1.259
      -1.566
      -1.861
      -2.155
      -2.391
      -2.470
      -2.315
      -1.934
      -1.428
      -0.923
      -0.497
      -0.155
       0.159
       0.516
       0.962
       1.495
       2.064
       2.590
       3.007
       3.268
       3.345
       3.231
       2.945
       2.537
       2.056
       1.529
       0.954
       0.331
      -0.303
      -0.870
      -1.281
      -1.491
      -1.527
      -1.471
      -1.408
      -1.377
      -1.367
      -1.350
      -1.323
      -1.304
      -1.296
      -1.268
      -1.174
      -0.990
      -0.723
      -0.378
       0.064
       0.622
       1.258
       1.847
       2.235
       2.342
       2.239
       2.100
       2.075
       2.187
       2.348
       2.464
       2.508
       2.493
       2.398
       2.150
       1.706
       1.131
       0.570
       0.118
      -0.262
      -0.700
      -1.298
      -2.049
      -2.840
      -3.523
      -3.983
      -4.161
      -4.062
      -3.747
      -3.315
      -2.853
      -2.406
      -1.979
      -1.569
      -1.196
      -0.887
      -0.641
      -0.409
      -0.129
       0.217
       0.581
       0.884
       1.082
       1.194
       1.259
       1.276
       1.186
       0.933
       0.543
       0.141
      -0.129
      -0.216
      -0.201
      -0.208
      -0.291
      -0.385
      -0.376
      -0.203
       0.096
       0.424
       0.710
       0.968
       1.267
       1.660
       2.127
       2.588
       2.963
       3.214
       3.351
       3.397
       3.353
       3.194
       2.896
       2.455
       1.896
       1.260
       0.591
      -0.081
      -0.751
      -1.427
      -2.103
      -2.729
      -3.213
      -3.476
      -3.506
      -3.368
      -3.147
      -2.886
      -2.569
      -2.180
      -1.759
      -1.401
      -1.188
      -1.109
      -1.044
      -0.849
      -0.469
       0.006
       0.411
       0.637
       0.713
       0.748
       0.807
       0.837
       0.724
       0.421
       0.018
      -0.318
      -0.479
      -0.499
      -0.499
      -0.550
      -0.594
      -0.497
      -0.174
       0.347
       0.954
       1.523
       1.962
       2.216
       2.255
       2.071
       1.688
       1.165
       0.598
       0.103
      -0.228
      -0.370
      -0.380
      -0.356
      -0.370
      -0.418
      -0.433
      -0.341
      -0.123
       0.178
       0.506
       0.853
       1.244
       1.675
       2.064
       2.281
       2.252
       2.026
       1.742
       1.499
       1.270
       0.935
       0.405
      -0.289
      -1.030
      -1.708
      -2.291
      -2.819
      -3.333
      -3.801
      -4.109
      -4.144
      -3.887
      -3.437
      -2.936
      -2.479
      -2.075
      -1.677
      -1.237
      -0.733
      -0.177
       0.395
       0.939
       1.415
       1.797
       2.082
       2.287
       2.440
       2.570
       2.695
       2.815
       2.889
       2.840
       2.585
       2.102
       1.466
       0.819
       0.290
      -0.073
      -0.298
      -0.434
      -0.509
      -0.523
      -0.489
      -0.458
      -0.511
      -0.686
      -0.917
      -1.056
      -0.988
      -0.735
      -0.458
      -0.320
      -0.352
      -0.421
      -0.359
      -0.133
       0.103
       0.138
      -0.127
      -0.610
      -1.139
      -1.568
      -1.825
      -1.887
      -1.747
      -1.418
      -0.956
      -0.445
       0.049
       0.513
       0.968
       1.412
       1.795
       2.036
       2.079
       1.929
       1.643
       1.301
       0.974
       0.692
       0.426
       0.111
      -0.291
      -0.722
      -1.045
      -1.135
      -0.976
      -0.664
      -0.312
       0.042
       0.451
       0.971
       1.581
       2.167
       2.599
       2.833
       2.931
       2.994
       3.055
       3.037
       2.807
       2.272
       1.462
       0.527
      -0.338
      -0.993
      -1.398
      -1.602
      -1.696
      -1.770
      -1.868
      -1.984
      -2.079
      -2.119
      -2.113
      -2.097
      -2.092
      -2.067
      -1.958
      -1.723
      -1.393
      -1.072
      -0.859
      -0.776
      -0.757
      -0.708
      -0.576
      -0.364
      -0.100
       0.182
       0.442
       0.632
       0.718
       0.728
       0.757
       0.917
       1.234
