Origin Time       20/06/2011 06:27:18
Lat.              30.5 N	
Long.             79.4 E	
Depth (Km)         12.0
Magnitude         4.6
 Region           Chamoli-Uttarakhand                                              
 Above details taken from IMD 
     
Station Code      GAR
Station Lat.       30.051  N
Station Long.      79.288  E
Station Height(m) 1614.0
Site Class        A   Vs30 between 700 m/sec to 1400 m/sec * 
Record Time       20.06.2011 06:27:20.569
Sampling Rate     200. Hz
 Record Duration   70.330 Sec.
 Direction         E-W (E positive)
Max. Acceleration     -7.257 cm/sec**2
     
  * For reference see Site Classification link of website 
     
 Base Line Corrected and Low Pass Filtered (Cut Off at 35 Hz) Time History
 Acceleration data in cm/sec**2
    
[...]
      -0.029
       0.237
       0.529
       0.801
       0.991
       1.066
       1.053
       1.022
       1.012
       0.992
       0.896
       0.706
       0.482
       0.306
       0.186
       0.049
      -0.181
      -0.488
      -0.752
      -0.849
      -0.743
      -0.492
      -0.180
       0.138
       0.439
       0.688
       0.836
       0.853
       0.758
       0.611
       0.469
       0.360
       0.289
       0.246
       0.213
       0.163
       0.068
      -0.068
      -0.205
      -0.295
      -0.313
      -0.268
      -0.175
      -0.027
       0.184
       0.420
       0.580
       0.567
       0.368
       0.084
      -0.145
      -0.254
      -0.277
      -0.287
      -0.318
      -0.365
      -0.429
      -0.530
      -0.668
      -0.799
      -0.868
      -0.853
      -0.773
      -0.656
      -0.510
      -0.322
      -0.087
       0.166
       0.371
       0.459
       0.403
       0.229
       0.007
      -0.196
      -0.331
      -0.385
      -0.383
      -0.369
      -0.377
      -0.383
      -0.320
      -0.129
       0.185
       0.550
       0.882
       1.129
       1.280
       1.345
       1.363
       1.398
       1.500
       1.642
       1.707
       1.568
       1.212
       0.773
       0.427
       0.249
       0.158
       0.008
      -0.280
      -0.652
      -0.964
      -1.100
      -1.040
      -0.863
      -0.682
      -0.574
      -0.548
      -0.561
      -0.545
      -0.460
      -0.318
      -0.173
      -0.079
      -0.051
      -0.068
      -0.113
      -0.192
      -0.311
      -0.438
      -0.500
      -0.429
      -0.229
       0.033
       0.280
       0.484
       0.657
       0.798
       0.882
       0.920
       0.994
       1.200
       1.533
       1.854
       1.987
       1.854
       1.516
       1.098
       0.695
       0.339
       0.024
      -0.253
      -0.483
      -0.654
      -0.760
      -0.787
      -0.718
      -0.556
      -0.335
      -0.115
       0.062
       0.203
       0.348
       0.532
       0.751
       0.975
       1.169
       1.310
       1.378
       1.358
       1.246
       1.051
       0.778
       0.420
      -0.010
      -0.441
      -0.766
      -0.934
      -1.012
      -1.140
      -1.387
      -1.655
      -1.740
      -1.506
      -1.011
      -0.470
      -0.104
       0.001
      -0.092
      -0.251
      -0.371
      -0.406
      -0.364
      -0.298
      -0.290
      -0.414
      -0.696
      -1.086
      -1.489
      -1.814
      -2.024
      -2.128
      -2.162
      -2.147
      -2.085
      -1.963
      -1.760
      -1.444
      -0.998
      -0.451
       0.103
       0.553
       0.857
       1.067
       1.268
       1.484
       1.652
       1.708
       1.667
       1.609
       1.582
       1.554
       1.452
       1.250
       0.988
       0.725
       0.491
       0.274
       0.042
      -0.229
      -0.534
      -0.842
      -1.119
      -1.347
      -1.533
      -1.693
      -1.824
      -1.897
      -1.868
      -1.711
      -1.433
      -1.080
      -0.710
      -0.360
      -0.048
       0.217
       0.412
       0.524
       0.574
       0.606
       0.636
       0.628
       0.524
       0.306
       0.006
      -0.339
      -0.720
      -1.135
      -1.536
      -1.821
      -1.906
      -1.803
      -1.625
      -1.499
      -1.468
      -1.466
      -1.378
      -1.129
      -0.727
      -0.254
       0.183
       0.512
       0.737
       0.939
       1.219
       1.624
       2.088
       2.452
       2.562
       2.373
       1.983
       1.582
       1.339
       1.341
       1.574
       1.967
       2.416
       2.815
       3.084
       3.199
       3.208
       3.179
       3.124
       2.985
       2.710
       2.341
       2.003
       1.782
       1.630
       1.391
       0.932
       0.228
      -0.644
      -1.573
      -2.470
      -3.280
      -3.970
      -4.513
      -4.892
      -5.116
      -5.222
      -5.260
      -5.264
      -5.241
      -5.168
      -5.004
      -4.716
      -4.314
      -3.848
      -3.378
      -2.926
      -2.462
      -1.929
      -1.292
      -0.560
       0.241
       1.084
       1.931
       2.717
       3.369
       3.864
       4.254
       4.615
       4.957
       5.214
       5.323
       5.309
       5.280
       5.325
       5.443
       5.553
       5.578
       5.492
       5.312
       5.053
       4.691
       4.184
       3.494
       2.608
       1.540
       0.330
      -0.950
      -2.211
      -3.372
      -4.380
      -5.212
      -5.853
      -6.296
      -6.552
      -6.665
      -6.700
      -6.708
      -6.713
      -6.715
      -6.687
      -6.575
      -6.298
      -5.797
      -5.064
      -4.132
      -3.035
      -1.798
      -0.476
       0.816
       1.956
       2.889
       3.645
       4.298
       4.899
       5.456
       5.942
       6.325
       6.588
       6.736
       6.788
       6.771
       6.698
       6.562
       6.321
       5.908
       5.256
       4.337
       3.208
       2.018
       0.943
       0.096
      -0.527
      -1.020
      -1.482
      -1.949
      -2.397
      -2.776
      -3.035
      -3.142
      -3.120
      -3.076
      -3.166
      -3.489
      -3.994
      -4.488
      -4.768
      -4.738
      -4.446
      -4.015
      -3.560
      -3.155
      -2.831
      -2.589
      -2.401
      -2.210
      -1.938
      -1.525
      -0.951
      -0.236
       0.570
       1.410
       2.217
       2.920
       3.455
       3.805
       4.012
       4.165
       4.345
       4.585
       4.851
       5.054
       5.082
       4.832
       4.267
       3.448
       2.517
       1.616
       0.804
       0.062
      -0.630
      -1.249
      -1.760
      -2.196
      -2.638
      -3.125
      -3.570
      -3.800
      -3.683
      -3.227
      -2.579
      -1.934
      -1.434
      -1.125
      -0.979
      -0.944
      -0.979
      -1.051
      -1.134
      -1.206
      -1.264
      -1.331
      -1.445
      -1.625
      -1.837
      -1.993
      -1.999
      -1.819
      -1.515
      -1.200
      -0.958
      -0.781
      -0.611
      -0.413
      -0.214
      -0.051
       0.098
       0.312
       0.634
       1.015
       1.342
       1.529
       1.577
       1.536
       1.447
       1.318
       1.159
       1.019
       0.966
       1.029
       1.168
       1.293
       1.330
       1.270
       1.165
       1.099
       1.140
       1.303
       1.533
       1.722
       1.756
       1.577
       1.227
       0.815
       0.442
       0.130
      -0.162
      -0.458
      -0.701
      -0.790
      -0.674
      -0.418
      -0.163
      -0.041
      -0.104
      -0.329
      -0.635
      -0.909
      -1.060
      -1.087
      -1.099
      -1.229
      -1.522
      -1.889
      -2.183
      -2.295
      -2.201
      -1.946
      -1.610
      -1.283
      -1.037
      -0.893
      -0.793
      -0.632
      -0.320
       0.151
       0.697
       1.195
       1.562
       1.784
       1.889
       1.915
       1.895
       1.869
       1.871
       1.888
       1.849
       1.667
       1.303
       0.793
       0.235
      -0.257
      -0.571
      -0.629
      -0.442
      -0.136
       0.092
       0.091
      -0.149
      -0.514
      -0.875
      -1.178
      -1.440
      -1.674
      -1.852
      -1.927
      -1.887
      -1.775
      -1.657
      -1.576
      -1.535
      -1.501
      -1.416
      -1.209
      -0.835
      -0.310
       0.264
       0.740
       1.019
       1.118
       1.154
       1.253
       1.459
       1.714
       1.911
       1.970
       1.875
       1.672
       1.439
       1.245
       1.110
       0.980
       0.758
       0.393
      -0.049
      -0.401
      -0.532
      -0.462
      -0.347
      -0.336
      -0.455
      -0.610
      -0.673
      -0.573
      -0.311
       0.050
       0.419
       0.704
       0.836
       0.788
       0.597
       0.350
       0.151
       0.059
       0.066
       0.114
       0.125
       0.033
      -0.203
      -0.584
      -1.059
      -1.536
      -1.915
      -2.116
      -2.097
      -1.853
      -1.415
      -0.845
      -0.216
       0.432
       1.107
       1.816
       2.502
       3.040
       3.307
       3.274
       3.010
       2.616
       2.159
       1.665
       1.150
       0.640
       0.160
      -0.272
      -0.650
      -0.958
      -1.164
      -1.240
      -1.187
      -1.050
      -0.882
      -0.711
      -0.522
      -0.294
      -0.028
       0.242
       0.478
       0.649
       0.732
       0.699
       0.528
       0.233
      -0.120
      -0.444
      -0.680
      -0.826
      -0.898
      -0.896
      -0.810
      -0.668
      -0.533
      -0.440
      -0.338
      -0.131
       0.224
       0.665
       1.078
       1.380
       1.560
       1.644
       1.655
       1.588
       1.416
       1.102
       0.629
       0.021
      -0.649
      -1.285
      -1.814
      -2.222
      -2.554
      -2.868
      -3.193
      -3.516
      -3.790
      -3.948
      -3.922
      -3.667
      -3.205
      -2.631
      -2.084
      -1.662
      -1.371
      -1.140
      -0.891
      -0.586
      -0.214
       0.248
       0.822
       1.460
       2.011
       2.289
       2.202
       1.826
       1.360
       1.006
       0.889
       1.037
       1.407
       1.907
       2.403
       2.755
       2.872
       2.760
       2.523
       2.296
       2.175
       2.182
       2.268
       2.352
       2.359
       2.257
       2.067
       1.850
       1.651
       1.467
       1.245
       0.933
       0.534
       0.113
      -0.255
      -0.540
      -0.760
      -0.952
      -1.147
      -1.389
      -1.745
      -2.243
      -2.818
      -3.319
      -3.620
      -3.709
      -3.676
      -3.613
      -3.540
      -3.419
      -3.207
      -2.884
      -2.450
      -1.924
      -1.364
      -0.862
      -0.511
      -0.347
      -0.305
      -0.251
      -0.061
       0.310
       0.806
       1.311
       1.707
       1.924
       1.968
       1.924
       1.938
       2.147
       2.594
       3.191
       3.762
       4.145
       4.260
       4.107
       3.734
       3.217
       2.646
       2.095
       1.563
       0.975
       0.262
      -0.546
      -1.301
      -1.839
      -2.115
      -2.238
      -2.379
      -2.638
      -2.984
      -3.283
      -3.400
      -3.271
      -2.934
      -2.495
      -2.072
      -1.739
      -1.504
      -1.341
      -1.222
      -1.147
      -1.125
      -1.144
      -1.152
      -1.088
      -0.924
      -0.686
      -0.427
      -0.172
       0.109
       0.472
       0.948
       1.520
       2.138
       2.734
       3.218
       3.484
       3.468
       3.223
       2.917
       2.702
       2.587
       2.430
       2.071
       1.473
       0.736
       0.013
      -0.581
      -1.001
      -1.259
      -1.403
      -1.497
      -1.608
      -1.774
      -1.986
      -2.187
      -2.304
      -2.297
      -2.174
      -1.985
      -1.792
      -1.655
      -1.621
      -1.713
      -1.908
      -2.140
      -2.325
      -2.398
      -2.323
      -2.088
      -1.701
      -1.196
      -0.610
       0.062
       0.877
       1.882
       3.030
       4.163
       5.084
       5.672
       5.924
       5.906
       5.679
       5.267
       4.672
       3.896
       2.938
       1.805
       0.538
      -0.762
      -1.943
      -2.858
      -3.429
      -3.665
      -3.628
      -3.377
      -2.940
      -2.331
      -1.603
      -0.865
      -0.260
       0.093
       0.146
      -0.055
      -0.383
      -0.677
      -0.803
      -0.728
      -0.549
      -0.445
      -0.555
      -0.872
      -1.234
      -1.431
      -1.337
      -0.968
      -0.453
       0.027
       0.304
       0.298
       0.094
      -0.090
      -0.029
       0.346
       0.907
       1.419
       1.685
       1.649
       1.388
       1.053
       0.777
       0.637
       0.634
       0.718
       0.815
       0.873
       0.886
       0.893
       0.943
       1.059
       1.233
       1.431
       1.592
       1.636
       1.501
       1.195
       0.813
       0.488
       0.294
       0.203
       0.117
      -0.034
      -0.247
      -0.478
      -0.695
      -0.897
      -1.074
      -1.171
      -1.125
      -0.918
      -0.611
      -0.303
      -0.067
       0.073
       0.128
       0.101
      -0.020
      -0.253
      -0.588
      -0.975
      -1.347
      -1.649
      -1.866
      -2.021
      -2.146
      -2.247
      -2.278
      -2.159
      -1.825
      -1.279
      -0.600
       0.093
       0.709
       1.216
       1.635
       2.003
       2.343
       2.662
       2.945
       3.142
       3.160
       2.910
       2.380
       1.671
       0.929
       0.230
      -0.460
      -1.227
      -2.103
      -3.039
      -3.938
      -4.695
      -5.226
      -5.478
      -5.450
      -5.194
      -4.792
      -4.307
      -3.744
      -3.063
      -2.228
      -1.249
      -0.192
       0.859
       1.824
       2.625
       3.180
       3.425
       3.370
       3.115
       2.799
       2.516
       2.275
       2.030
       1.738
       1.387
       0.982
       0.556
       0.197
       0.043
       0.192
       0.624
       1.197
       1.756
       2.238
       2.685
       3.160
       3.652
       4.050
       4.198
       3.968
       3.316
       2.289
       0.997
      -0.435
      -1.899
      -3.319
      -4.634
      -5.774
      -6.651
      -7.169
      -7.257
      -6.887
      -6.084
      -4.916
      -3.475
      -1.857
      -0.168
       1.475
       2.954
       4.171
       5.058
       5.578
       5.727
       5.551
       5.151
       4.633
       4.036
       3.294
       2.314
       1.086
      -0.257
      -1.499
      -2.456
      -3.040
      -3.251
      -3.146
      -2.817
      -2.360
      -1.841
      -1.276
      -0.658
      -0.009
       0.605
       1.092
       1.383
       1.458
       1.338
       1.070
       0.711
       0.323
      -0.037
      -0.343
      -0.615
      -0.901
      -1.231
      -1.584
      -1.894
      -2.094
      -2.139
      -2.006
      -1.690
      -1.221
      -0.668
      -0.113
       0.408
       0.912
       1.413
       1.854
       2.107
       2.067
       1.742
       1.258
       0.770
       0.354
       0.002
      -0.317
      -0.598
      -0.799
      -0.887
      -0.850
      -0.688
      -0.402
       0.001
       0.485
       0.991
       1.450
       1.796
       1.972
       1.935
       1.676
       1.230
       0.679
       0.122
      -0.368
      -0.764
      -1.091
      -1.398
      -1.741
      -2.158
      -2.644
      -3.134
      -3.510
      -3.651
      -3.510
      -3.146
      -2.671
      -2.165
      -1.643
      -1.099
      -0.550
      -0.008
       0.565
       1.230
       2.000
       2.787
       3.438
       3.820
       3.880
       3.653
       3.220
       2.670
       2.086
       1.534
       1.062
       0.691
       0.415
       0.228
       0.137
       0.161
       0.293
       0.497
       0.723
       0.949
       1.173
       1.385
       1.548
       1.609
       1.540
       1.344
       1.042
       0.664
       0.264
      -0.075
      -0.296
      -0.432
      -0.619
      -0.995
      -1.581
      -2.238
      -2.753
      -2.976
      -2.890
      -2.581
      -2.167
      -1.743
      -1.378
      -1.121
      -1.012
      -1.050
      -1.179
      -1.300
      -1.319
      -1.203
      -0.987
      -0.759
      -0.607
      -0.572
      -0.621
      -0.662
      -0.596
      -0.381
      -0.058
       0.288
       0.599
       0.870
       1.130
       1.391
       1.636
       1.850
       2.041
       2.214
       2.316
       2.234
       1.872
       1.231
       0.410
      -0.453
      -1.238
      -1.846
      -2.202
      -2.284
      -2.155
      -1.938
      -1.744
      -1.604
      -1.463
      -1.228
      -0.836
      -0.288
       0.353
       1.006
       1.599
       2.090
       2.475
       2.781
       3.037
       3.241
       3.351
       3.335
       3.223
       3.112
       3.092
       3.166
       3.234
       3.156
       2.835
       2.257
       1.489
       0.661
      -0.085
      -0.671
      -1.135
      -1.599
      -2.146
      -2.721
      -3.162
      -3.343
      -3.286
      -3.143
      -3.075
      -3.133
      -3.246
      -3.280
      -3.131
      -2.768
      -2.236
      -1.639
      -1.105
      -0.733
      -0.534
      -0.426
      -0.297
      -0.090
       0.148
       0.312
       0.322
       0.181
      -0.032
      -0.211
      -0.275
      -0.189
       0.028
       0.310
       0.552
       0.661
       0.630
       0.557
       0.582
       0.776
       1.079
       1.361
       1.523
       1.543
       1.436
       1.215
       0.902
       0.560
       0.291
       0.172
       0.214
       0.368
       0.561
       0.741
       0.884
       0.994
       1.075
       1.119
       1.091
       0.950
       0.676
       0.300
      -0.099
      -0.433
      -0.662
      -0.819
      -0.973
      -1.182
      -1.469
      -1.831
      -2.248
      -2.655
      -2.923
      -2.911
      -2.562
      -1.963
      -1.295
      -0.717
      -0.298
      -0.038
       0.078
       0.074
       0.017
       0.010
       0.129
       0.340
       0.515
       0.525
       0.338
       0.039
      -0.242
      -0.410
      -0.443
      -0.369
      -0.234
      -0.074
       0.096
       0.280
       0.486
       0.701
       0.880
       0.962
       0.905
       0.717
       0.453
       0.182
      -0.058
      -0.254
      -0.398
      -0.466
      -0.442
      -0.355
      -0.263
      -0.203
      -0.154
      -0.071
       0.050
       0.162
       0.237
       0.313
       0.452
       0.661
       0.868
       1.000
       1.054
       1.079
       1.099
       1.082
       0.979
       0.785
       0.556
       0.382
       0.340
       0.469
       0.765
       1.174
       1.605
       1.944
       2.112
       2.103
       1.973
       1.769
       1.474
       1.015
       0.344
      -0.497
      -1.385
      -2.181
      -2.786
      -3.152
      -3.271
      -3.169
      -2.907
      -2.548
      -2.116
      -1.582
      -0.928
      -0.194
       0.519
       1.114
       1.563
       1.888
       2.103
       2.182
       2.081
       1.801
       1.396
       0.941
       0.485
       0.037
      -0.402
      -0.817
      -1.175
      -1.443
      -1.600
      -1.630
      -1.525
      -1.294
      -0.967
      -0.576
      -0.121
       0.421
       1.045
       1.675
       2.185
       2.473
       2.516
       2.358
       2.044
       1.588
       1.005
       0.366
      -0.212
      -0.652
      -0.971
      -1.244
      -1.514
      -1.762
      -1.955
      -2.090
      -2.178
      -2.193
      -2.082
      -1.818
      -1.435
      -0.999
      -0.553
      -0.101
       0.368
       0.831
       1.219
       1.453
       1.498
       1.394
       1.234
       1.106
       1.051
       1.046
       1.025
       0.926
       0.728
       0.468
       0.211
       0.009
      -0.133
      -0.239
      -0.332
      -0.411
      -0.462
      -0.470
      -0.411
      -0.247
       0.041
       0.404
       0.714
