Origin Time       10/07/2010 03:16:20
Lat.              29.9 N 
Long.             79.6 E 
Depth (Km)         10.0
Magnitude         4.1
 Region           ALMORA-UTTARAKHAND                                               
 Above details taken from IMD 
   
Station Code      GAR
Station Lat.       30.051
Station Long.      79.288
Station Height(m) 1614.0
Site Class        A   Vs30 between 700 m/sec to 1400 m/sec * 
Record Time       10.07.2010 03:16:14.249
Sampling Rate     200. Hz
 Record Duration   66.590 Sec.
 Direction         Vert. (Up positive)
Max. Acceleration     -7.852 cm/sec**2
     
  * For reference see Site Classification link of website 
     
 Base Line Corrected and Low Pass Filtered (Cut Off at 35 Hz) Time History
 Acceleration data in cm/sec**2
    
[...]
       0.001
       0.029
       0.042
       0.038
       0.022
       0.005
      -0.006
      -0.010
      -0.011
      -0.018
      -0.034
      -0.055
      -0.064
      -0.047
      -0.008
       0.030
       0.046
       0.035
       0.015
       0.002
       0.006
       0.019
       0.025
       0.015
      -0.005
      -0.024
      -0.032
      -0.026
      -0.011
       0.009
       0.029
       0.040
       0.041
       0.035
       0.025
       0.017
       0.011
       0.003
      -0.011
      -0.033
      -0.058
      -0.068
      -0.048
      -0.004
       0.037
       0.049
       0.032
       0.006
      -0.007
      -0.002
       0.009
       0.004
      -0.028
      -0.083
      -0.140
      -0.179
      -0.188
      -0.171
      -0.136
      -0.096
      -0.061
      -0.032
      -0.006
       0.020
       0.048
       0.075
       0.098
       0.116
       0.129
       0.147
       0.183
       0.244
       0.321
       0.381
       0.396
       0.351
       0.257
       0.142
       0.034
      -0.047
      -0.099
      -0.131
      -0.152
      -0.167
      -0.180
      -0.197
      -0.223
      -0.257
      -0.288
      -0.298
      -0.274
      -0.218
      -0.148
      -0.095
      -0.077
      -0.085
      -0.090
      -0.056
       0.040
       0.190
       0.358
       0.483
       0.518
       0.460
       0.350
       0.240
       0.154
       0.083
       0.005
      -0.081
      -0.154
      -0.191
      -0.196
      -0.195
      -0.214
      -0.251
      -0.284
      -0.294
      -0.282
      -0.260
      -0.242
      -0.232
      -0.230
      -0.225
      -0.206
      -0.165
      -0.106
      -0.034
       0.053
       0.165
       0.294
       0.418
       0.511
       0.565
       0.599
       0.643
       0.705
       0.758
       0.743
       0.616
       0.378
       0.087
      -0.182
      -0.384
      -0.521
      -0.623
      -0.716
      -0.791
      -0.808
      -0.721
      -0.509
      -0.188
       0.184
       0.525
       0.759
       0.844
       0.790
       0.636
       0.409
       0.097
      -0.314
      -0.788
      -1.218
      -1.463
      -1.424
      -1.105
      -0.614
      -0.115
       0.250
       0.422
       0.437
       0.379
       0.317
       0.273
       0.229
       0.171
       0.111
       0.092
       0.152
       0.302
       0.511
       0.714
       0.829
       0.785
       0.559
       0.209
      -0.147
      -0.385
      -0.444
      -0.347
      -0.172
       0.000
       0.120
       0.170
       0.148
       0.056
      -0.096
      -0.287
      -0.488
      -0.665
      -0.779
      -0.781
      -0.632
      -0.327
       0.081
       0.490
       0.778
       0.853
       0.695
       0.377
       0.020
      -0.271
      -0.446
      -0.506
      -0.459
      -0.309
      -0.069
       0.221
       0.504
       0.724
       0.827
       0.769
       0.529
       0.143
      -0.284
      -0.608
      -0.718
      -0.600
      -0.349
      -0.116
      -0.023
      -0.091
      -0.247
      -0.370
      -0.377
      -0.258
      -0.073
       0.112
       0.266
       0.405
       0.554
       0.703
       0.792
       0.739
       0.496
       0.101
      -0.327
      -0.645
      -0.771
      -0.731
      -0.623
      -0.535
      -0.478
      -0.397
      -0.236
      -0.002
       0.232
       0.384
       0.426
       0.400
       0.374
       0.377
       0.376
       0.314
       0.177
       0.026
      -0.038
       0.055
       0.289
       0.558
       0.732
       0.735
       0.587
       0.373
       0.165
      -0.037
      -0.279
      -0.585
      -0.911
      -1.171
      -1.298
      -1.281
      -1.145
      -0.919
      -0.633
      -0.327
      -0.050
       0.176
       0.378
       0.590
       0.794
       0.910
       0.865
       0.670
       0.428
       0.254
       0.194
       0.200
       0.183
       0.078
      -0.117
      -0.352
      -0.561
      -0.700
      -0.753
      -0.721
      -0.603
      -0.412
      -0.177
       0.060
       0.269
       0.449
       0.606
       0.744
       0.858
       0.945
       1.001
       0.996
       0.877
       0.605
       0.205
      -0.224
      -0.558
      -0.727
      -0.752
      -0.726
      -0.751
      -0.869
      -1.031
      -1.128
      -1.061
      -0.819
      -0.509
      -0.286
      -0.226
      -0.264
      -0.239
      -0.014
       0.430
       1.003
       1.559
       1.954
       2.074
       1.869
       1.373
       0.709
       0.039
      -0.522
      -0.955
      -1.315
      -1.637
      -1.869
      -1.877
      -1.545
      -0.894
      -0.106
       0.553
       0.880
       0.830
       0.521
       0.147
      -0.119
      -0.187
      -0.054
       0.216
       0.527
       0.795
       0.975
       1.061
       1.049
       0.911
       0.612
       0.175
      -0.300
      -0.682
      -0.901
      -0.984
      -1.004
      -0.997
      -0.926
      -0.718
      -0.343
       0.151
       0.639
       0.956
       0.961
       0.618
       0.061
      -0.436
      -0.611
      -0.384
       0.076
       0.473
       0.586
       0.402
       0.095
      -0.117
      -0.111
       0.089
       0.346
       0.499
       0.458
       0.250
      -0.013
      -0.207
      -0.276
      -0.255
      -0.239
      -0.306
      -0.457
      -0.604
      -0.636
      -0.514
      -0.317
      -0.184
      -0.198
      -0.310
      -0.367
      -0.228
       0.121
       0.547
       0.855
       0.903
       0.682
       0.311
      -0.032
      -0.196
      -0.135
       0.064
       0.236
       0.247
       0.099
      -0.073
      -0.104
       0.084
       0.430
       0.770
       0.927
       0.789
       0.371
      -0.172
      -0.601
      -0.730
      -0.541
      -0.192
       0.095
       0.162
      -0.031
      -0.417
      -0.851
      -1.149
      -1.151
      -0.815
      -0.288
       0.150
       0.258
       0.016
      -0.348
      -0.521
      -0.322
       0.199
       0.831
       1.348
       1.598
       1.529
       1.197
       0.732
       0.283
      -0.067
      -0.336
      -0.599
      -0.910
      -1.238
      -1.478
      -1.525
      -1.357
      -1.062
      -0.770
      -0.543
      -0.323
      -0.005
       0.445
       0.934
       1.305
       1.467
       1.444
       1.328
       1.191
       1.053
       0.899
       0.721
       0.522
       0.301
       0.040
      -0.286
      -0.670
      -1.052
      -1.331
      -1.425
      -1.322
      -1.087
      -0.821
      -0.610
      -0.478
      -0.381
      -0.243
      -0.026
       0.223
       0.395
       0.394
       0.232
       0.051
       0.052
       0.363
       0.924
       1.481
       1.702
       1.384
       0.592
      -0.368
      -1.131
      -1.476
      -1.403
      -1.072
      -0.675
      -0.347
      -0.118
       0.076
       0.330
       0.677
       1.034
       1.240
       1.182
       0.885
       0.494
       0.154
      -0.082
      -0.253
      -0.402
      -0.521
      -0.573
      -0.558
      -0.508
      -0.439
      -0.317
      -0.103
       0.172
       0.424
       0.592
       0.683
       0.725
       0.705
       0.570
       0.296
      -0.063
      -0.385
      -0.558
      -0.566
      -0.499
      -0.485
      -0.588
      -0.758
      -0.886
      -0.908
      -0.854
      -0.791
      -0.726
      -0.573
      -0.238
       0.268
       0.789
       1.132
       1.203
       1.054
       0.813
       0.582
       0.401
       0.281
       0.232
       0.242
       0.251
       0.167
      -0.058
      -0.387
      -0.707
      -0.896
      -0.882
      -0.676
      -0.350
       0.005
       0.315
       0.525
       0.597
       0.531
       0.393
       0.298
       0.316
       0.394
       0.379
       0.152
      -0.248
      -0.625
      -0.764
      -0.599
      -0.250
       0.065
       0.187
       0.098
      -0.106
      -0.296
      -0.376
      -0.322
      -0.210
      -0.175
      -0.307
      -0.543
      -0.682
      -0.523
      -0.023
       0.661
       1.275
       1.618
       1.639
       1.425
       1.104
       0.761
       0.406
       0.009
      -0.452
      -0.937
      -1.343
      -1.560
      -1.551
      -1.379
      -1.148
      -0.907
      -0.602
      -0.143
       0.478
       1.118
       1.543
       1.583
       1.233
       0.639
      -0.007
      -0.569
      -0.978
      -1.201
      -1.208
      -0.982
      -0.540
       0.051
       0.663
       1.103
       1.180
       0.825
       0.178
      -0.459
      -0.805
      -0.759
      -0.419
       0.037
       0.476
       0.861
       1.206
       1.502
       1.675
       1.620
       1.275
       0.673
      -0.079
      -0.859
      -1.546
      -2.013
      -2.154
      -1.947
      -1.497
      -0.983
      -0.563
      -0.309
      -0.200
      -0.160
      -0.116
      -0.040
       0.038
       0.074
       0.072
       0.098
       0.239
       0.530
       0.908
       1.235
       1.368
       1.236
       0.865
       0.366
      -0.099
      -0.366
      -0.354
      -0.128
       0.111
       0.144
      -0.110
      -0.553
      -0.981
      -1.224
      -1.220
      -1.009
      -0.682
      -0.341
      -0.094
      -0.006
      -0.050
      -0.077
       0.090
       0.516
       1.073
       1.525
       1.710
       1.651
       1.516
       1.468
       1.527
       1.544
       1.295
       0.644
      -0.352
      -1.440
      -2.299
      -2.683
      -2.524
      -1.948
      -1.225
      -0.649
      -0.392
      -0.417
      -0.532
      -0.523
      -0.280
       0.169
       0.690
       1.109
       1.282
       1.181
       0.914
       0.648
       0.491
       0.425
       0.349
       0.193
      -0.032
      -0.255
      -0.422
      -0.537
      -0.624
      -0.670
      -0.598
      -0.328
       0.126
       0.624
       0.966
       1.020
       0.794
       0.415
       0.050
      -0.186
      -0.274
      -0.265
      -0.232
      -0.225
      -0.261
      -0.321
      -0.352
      -0.303
      -0.180
      -0.064
      -0.044
      -0.109
      -0.132
       0.024
       0.336
       0.596
       0.562
       0.181
      -0.335
      -0.646
      -0.549
      -0.158
       0.181
       0.169
      -0.196
      -0.652
      -0.910
      -0.887
      -0.712
      -0.582
      -0.595
      -0.712
      -0.810
      -0.755
      -0.465
       0.045
       0.645
       1.156
       1.468
       1.627
       1.794
       2.094
       2.474
       2.704
       2.526
       1.835
       0.783
      -0.289
      -1.034
      -1.297
      -1.201
      -1.052
      -1.122
      -1.442
      -1.776
      -1.802
      -1.350
      -0.529
       0.338
       0.907
       1.008
       0.721
       0.316
       0.062
       0.039
       0.094
      -0.018
      -0.420
      -1.014
      -1.548
      -1.767
      -1.539
      -0.905
      -0.042
       0.843
       1.625
       2.263
       2.697
       2.796
       2.476
       1.831
       1.110
       0.500
      -0.022
      -0.600
      -1.306
      -2.030
      -2.570
      -2.775
      -2.615
      -2.162
      -1.537
      -0.875
      -0.296
       0.129
       0.412
       0.645
       0.943
       1.341
       1.739
       1.959
       1.884
       1.548
       1.124
       0.816
       0.736
       0.826
       0.894
       0.761
       0.388
      -0.111
      -0.611
      -1.086
      -1.591
      -2.150
      -2.673
      -2.981
      -2.909
      -2.406
      -1.559
      -0.554
       0.403
       1.131
       1.494
       1.440
       1.050
       0.537
       0.163
       0.103
       0.359
       0.768
       1.084
       1.106
       0.799
       0.312
      -0.149
      -0.474
      -0.676
      -0.808
      -0.877
      -0.861
      -0.752
      -0.542
      -0.204
       0.286
       0.893
       1.499
       1.967
       2.229
       2.338
       2.433
       2.618
       2.844
       2.896
       2.503
       1.497
      -0.097
      -2.053
      -4.002
      -5.526
      -6.276
      -6.093
      -5.069
      -3.512
      -1.817
      -0.290
       0.947
       1.933
       2.742
       3.359
       3.655
       3.449
       2.644
       1.341
      -0.129
      -1.329
      -1.930
      -1.857
      -1.302
      -0.585
      -0.015
       0.217
       0.050
      -0.468
      -1.221
      -2.024
      -2.622
      -2.752
      -2.266
      -1.216
       0.165
       1.566
       2.663
       3.181
       2.967
       2.066
       0.727
      -0.686
      -1.819
      -2.415
      -2.365
      -1.738
      -0.763
       0.263
       1.119
       1.735
       2.175
       2.545
       2.904
       3.232
       3.460
       3.503
       3.287
       2.736
       1.779
       0.389
      -1.340
      -3.150
      -4.694
      -5.689
      -6.039
      -5.850
      -5.307
      -4.521
      -3.455
      -2.027
      -0.289
       1.501
       2.997
       3.946
       4.253
       3.939
       3.130
       2.121
       1.360
       1.250
       1.876
       2.902
       3.723
       3.756
       2.704
       0.678
      -1.838
      -4.187
      -5.808
      -6.429
      -6.085
      -5.007
      -3.504
      -1.907
      -0.517
       0.503
       1.234
       1.966
       2.985
       4.323
       5.676
       6.579
       6.708
       6.066
       4.922
       3.563
       2.096
       0.438
      -1.504
      -3.642
      -5.660
      -7.155
      -7.852
      -7.742
      -7.035
      -5.998
      -4.806
      -3.502
      -2.047
      -0.406
       1.376
       3.133
       4.613
       5.592
       5.970
       5.796
       5.200
       4.297
       3.144
       1.799
       0.406
      -0.813
      -1.675
      -2.144
      -2.306
      -2.243
      -1.948
      -1.390
      -0.613
       0.242
       1.012
       1.584
       1.899
       1.932
       1.689
       1.197
       0.479
      -0.457
      -1.572
      -2.738
      -3.731
      -4.300
      -4.248
      -3.488
      -2.075
      -0.214
       1.768
       3.518
       4.757
       5.351
       5.299
       4.674
       3.596
       2.228
       0.777
      -0.561
      -1.684
      -2.642
      -3.560
      -4.454
      -5.124
      -5.254
      -4.653
      -3.428
      -1.949
      -0.667
       0.089
       0.232
      -0.064
      -0.433
      -0.498
      -0.064
       0.782
       1.766
       2.617
       3.191
       3.459
       3.423
       3.087
       2.502
       1.772
       0.997
       0.190
      -0.704
      -1.670
      -2.511
      -2.883
      -2.507
      -1.384
       0.187
       1.787
       3.111
       4.038
       4.534
       4.549
       4.017
       2.949
       1.515
       0.046
      -1.074
      -1.593
      -1.558
      -1.304
      -1.242
      -1.574
      -2.183
      -2.770
      -3.085
      -3.051
      -2.746
      -2.310
      -1.870
      -1.516
      -1.288
      -1.176
      -1.103
      -0.943
      -0.571
       0.043
       0.799
       1.533
       2.140
       2.619
       2.988
       3.148
       2.843
       1.805
      -0.005
      -2.253
      -4.346
      -5.718
      -6.084
      -5.497
      -4.227
      -2.612
      -0.959
       0.490
       1.608
       2.412
       3.032
       3.589
       4.072
       4.323
       4.176
       3.633
       2.909
       2.283
       1.869
       1.521
       0.989
       0.166
      -0.800
      -1.630
      -2.147
      -2.390
      -2.547
      -2.761
      -2.997
      -3.059
      -2.746
      -2.013
      -1.015
       0.003
       0.860
       1.529
       2.093
       2.632
       3.128
       3.442
       3.383
       2.823
       1.796
       0.531
      -0.630
      -1.376
      -1.572
      -1.329
      -0.936
      -0.706
      -0.827
      -1.305
      -1.993
      -2.673
      -3.156
      -3.354
      -3.305
      -3.099
      -2.786
      -2.318
      -1.587
      -0.519
       0.845
       2.332
       3.695
       4.704
       5.228
       5.254
       4.863
       4.188
       3.373
       2.526
       1.695
       0.903
       0.216
      -0.259
      -0.478
      -0.555
      -0.732
      -1.188
      -1.872
      -2.526
      -2.884
      -2.879
      -2.671
      -2.498
      -2.480
      -2.533
      -2.446
      -2.033
      -1.233
      -0.097
       1.250
       2.613
       3.719
       4.290
       4.179
       3.460
       2.379
       1.218
       0.173
      -0.676
      -1.336
      -1.855
      -2.284
      -2.634
      -2.859
      -2.903
      -2.780
      -2.609
      -2.543
      -2.640
      -2.790
      -2.779
      -2.423
      -1.669
      -0.590
       0.694
       2.086
       3.528
       4.951
       6.211
       7.074
       7.296
       6.764
       5.595
       4.081
       2.546
       1.201
       0.107
      -0.792
      -1.608
      -2.439
      -3.286
      -3.993
      -4.292
      -3.980
      -3.095
      -1.948
      -0.942
      -0.316
      -0.026
       0.139
       0.331
       0.500
       0.457
       0.059
      -0.626
      -1.324
      -1.702
      -1.562
      -0.954
      -0.148
       0.522
       0.834
       0.771
       0.478
       0.126
      -0.215
      -0.597
      -1.106
      -1.734
      -2.321
      -2.601
      -2.350
      -1.538
      -0.406
       0.614
       1.120
       0.992
       0.474
       0.007
      -0.068
       0.280
       0.801
       1.171
       1.216
       0.997
       0.746
       0.701
       0.960
       1.431
       1.913
       2.228
       2.287
       2.083
       1.661
       1.099
       0.500
      -0.054
      -0.540
      -0.967
      -1.315
      -1.507
      -1.471
      -1.221
      -0.880
      -0.607
      -0.499
      -0.537
      -0.623
      -0.663
      -0.642
      -0.620
      -0.676
      -0.842
      -1.048
      -1.147
      -1.002
      -0.588
      -0.040
       0.435
       0.705
       0.803
       0.886
       1.079
       1.354
       1.535
       1.432
       1.010
       0.415
      -0.142
      -0.552
      -0.860
      -1.155
      -1.444
      -1.634
      -1.621
      -1.371
      -0.925
      -0.359
       0.234
       0.752
       1.107
       1.271
       1.300
       1.307
       1.388
       1.558
       1.718
       1.722
       1.487
       1.068
       0.620
       0.294
       0.134
       0.083
       0.048
      -0.038
      -0.199
      -0.443
      -0.779
      -1.205
      -1.675
      -2.068
      -2.218
      -2.003
      -1.424
      -0.624
       0.191
       0.852
       1.291
       1.527
       1.618
       1.608
       1.505
       1.291
       0.968
       0.589
       0.249
       0.016
      -0.126
      -0.279
      -0.567
      -1.043
      -1.644
      -2.203
      -2.520
      -2.475
      -2.100
      -1.578
      -1.141
      -0.920
      -0.849
      -0.695
      -0.193
       0.775
       2.073
       3.337
       4.150
       4.265
       3.734
       2.859
       1.997
       1.325
       0.760
       0.081
      -0.828
      -1.846
      -2.704
      -3.195
      -3.291
      -3.083
      -2.658
      -2.062
      -1.347
      -0.626
      -0.037
       0.331
       0.489
       0.523
       0.530
       0.564
       0.630
       0.727
       0.893
       1.171
