Origin Time       21/9/2009 9:43:47	 
Lat.              30.9 N	
Long.             79.1 E	
Depth (Km)         13.0
Magnitude         4.7
 Region           UTTARKASHI-UTTARAKHAND                                           
 Above details taken from IMD 
   
Station Code      GAR
Station Lat.       30.051
Station Long.      79.588
Station Height(m) 1638.0
Site Class        A   Vs30 between 700 m/sec to 1400 m/sec * 
Record Time       21.09.2009 09:43:54.384
Sampling Rate     200. Hz
 Record Duration   81.270 Sec.
 Direction         Vert. (Up positive)
Max. Acceleration    -10.384 cm/sec**2
     
  * For reference see Site Classification link of website 
     
 Base Line Corrected and Low Pass Filtered (Cut Off at 35 Hz) Time History
 Acceleration data in cm/sec**2
    
[...]
      -0.049
      -0.125
      -0.134
      -0.040
       0.100
       0.174
       0.118
      -0.025
      -0.144
      -0.160
      -0.086
      -0.008
      -0.006
      -0.088
      -0.187
      -0.220
      -0.160
      -0.048
       0.042
       0.065
       0.034
      -0.001
      -0.003
       0.032
       0.077
       0.101
       0.088
       0.048
       0.007
      -0.012
      -0.004
       0.012
       0.019
       0.013
       0.004
       0.000
       0.005
       0.014
       0.021
       0.021
       0.016
       0.007
      -0.003
      -0.010
      -0.008
       0.002
       0.013
       0.011
      -0.006
      -0.027
      -0.032
      -0.003
       0.056
       0.116
       0.130
       0.066
      -0.053
      -0.156
      -0.176
      -0.103
       0.005
       0.071
       0.052
      -0.028
      -0.102
      -0.113
      -0.060
       0.008
       0.030
      -0.011
      -0.076
      -0.106
      -0.070
       0.010
       0.086
       0.114
       0.090
       0.041
       0.008
       0.010
       0.034
       0.054
       0.048
       0.023
       0.000
      -0.001
       0.017
       0.037
       0.040
       0.023
      -0.001
      -0.012
      -0.002
       0.023
       0.047
       0.056
       0.042
       0.009
      -0.022
      -0.029
      -0.005
       0.032
       0.041
      -0.007
      -0.098
      -0.170
      -0.151
      -0.035
       0.100
       0.150
       0.075
      -0.061
      -0.150
      -0.133
      -0.044
       0.021
      -0.008
      -0.110
      -0.200
      -0.204
      -0.121
      -0.012
       0.052
       0.050
       0.010
      -0.018
      -0.005
       0.041
       0.091
       0.114
       0.099
       0.057
       0.017
       0.000
       0.008
       0.025
       0.031
       0.021
       0.007
       0.000
       0.004
       0.014
       0.023
       0.026
       0.025
       0.023
       0.023
       0.026
       0.031
       0.031
       0.018
      -0.006
      -0.033
      -0.045
      -0.026
       0.031
       0.102
       0.137
       0.092
      -0.020
      -0.131
      -0.169
      -0.114
      -0.007
       0.075
       0.079
       0.009
      -0.076
      -0.108
      -0.065
       0.013
       0.057
       0.027
      -0.053
      -0.116
      -0.112
      -0.045
       0.037
       0.082
       0.069
       0.025
      -0.004
       0.008
       0.048
       0.078
       0.070
       0.037
       0.011
       0.012
       0.033
       0.047
       0.038
       0.011
      -0.010
      -0.009
       0.012
       0.034
       0.038
       0.021
      -0.004
      -0.017
      -0.012
       0.010
       0.041
       0.065
       0.060
       0.005
      -0.093
      -0.176
      -0.177
      -0.076
       0.060
       0.127
       0.072
      -0.056
      -0.153
      -0.150
      -0.068
       0.006
       0.000
      -0.083
      -0.173
      -0.196
      -0.132
      -0.026
       0.055
       0.074
       0.046
       0.013
       0.012
       0.047
       0.094
       0.122
       0.114
       0.075
       0.033
       0.009
       0.010
       0.024
       0.035
       0.037
       0.030
       0.019
       0.011
       0.009
       0.013
       0.019
       0.026
       0.031
       0.033
       0.031
       0.029
       0.027
       0.020
       0.004
      -0.020
      -0.043
      -0.043
      -0.004
       0.065
       0.122
       0.115
       0.025
      -0.106
      -0.200
      -0.198
      -0.107
       0.010
       0.075
       0.048
      -0.039
      -0.112
      -0.111
      -0.037
       0.047
       0.071
       0.017
      -0.066
      -0.109
      -0.079
      -0.002
       0.064
       0.079
       0.051
       0.018
       0.016
       0.045
       0.075
       0.078
       0.050
       0.017
       0.006
       0.021
       0.042
       0.044
       0.022
      -0.004
      -0.014
      -0.005
       0.008
       0.011
       0.004
      -0.001
       0.000
       0.003
       0.002
       0.006
       0.023
       0.044
       0.032
      -0.037
      -0.133
      -0.177
      -0.112
       0.030
       0.141
       0.132
       0.016
      -0.108
      -0.145
      -0.082
       0.008
       0.036
      -0.028
      -0.138
      -0.208
      -0.180
      -0.071
       0.045
       0.099
       0.073
       0.011
      -0.027
      -0.010
       0.047
       0.101
       0.116
       0.088
       0.041
       0.007
       0.001
       0.017
       0.037
       0.043
       0.031
       0.008
      -0.012
      -0.019
      -0.015
      -0.006
       0.002
       0.012
       0.023
       0.032
       0.033
       0.022
       0.006
      -0.009
      -0.017
      -0.013
       0.010
       0.058
       0.119
       0.156
       0.128
       0.026
      -0.108
      -0.199
      -0.196
      -0.112
      -0.008
       0.044
       0.015
      -0.065
      -0.127
      -0.117
      -0.039
       0.044
       0.067
       0.015
      -0.065
      -0.111
      -0.090
      -0.025
       0.034
       0.051
       0.032
       0.014
       0.026
       0.060
       0.082
       0.070
       0.034
       0.004
       0.002
       0.018
       0.029
       0.021
       0.002
      -0.011
      -0.004
       0.017
       0.036
       0.041
       0.032
       0.019
       0.008
      -0.001
      -0.008
      -0.006
       0.011
       0.034
       0.029
      -0.032
      -0.126
      -0.180
      -0.128
       0.008
       0.126
       0.131
       0.024
      -0.102
      -0.146
      -0.088
       0.005
       0.040
      -0.017
      -0.116
      -0.170
      -0.132
      -0.031
       0.063
       0.097
       0.071
       0.027
       0.008
       0.033
       0.084
       0.127
       0.134
       0.106
       0.064
       0.033
       0.021
       0.025
       0.033
       0.036
       0.028
       0.009
      -0.013
      -0.024
      -0.014
       0.011
       0.034
       0.043
       0.036
       0.028
       0.032
       0.046
       0.053
       0.038
       0.002
      -0.035
      -0.043
      -0.003
       0.078
       0.156
       0.172
       0.100
      -0.031
      -0.145
      -0.177
      -0.113
      -0.006
       0.067
       0.058
      -0.020
      -0.103
      -0.126
      -0.073
       0.011
       0.059
       0.036
      -0.032
      -0.085
      -0.079
      -0.015
       0.061
       0.101
       0.088
       0.046
       0.017
       0.026
       0.061
       0.083
       0.064
       0.018
      -0.017
      -0.013
       0.022
       0.049
       0.043
       0.009
      -0.023
      -0.031
      -0.012
       0.016
       0.036
       0.045
       0.042
       0.028
       0.005
      -0.011
      -0.005
       0.021
       0.033
      -0.007
      -0.094
      -0.167
      -0.152
      -0.039
       0.094
       0.142
       0.066
      -0.070
      -0.160
      -0.147
      -0.066
       0.000
      -0.012
      -0.090
      -0.163
      -0.163
      -0.081
       0.030
       0.101
       0.103
       0.058
       0.013
       0.005
       0.039
       0.085
       0.107
       0.089
       0.045
       0.008
       0.001
       0.022
       0.048
       0.061
       0.054
       0.034
       0.014
       0.006
       0.014
       0.026
       0.031
       0.024
       0.011
      -0.002
      -0.010
      -0.010
      -0.005
      -0.001
      -0.006
      -0.020
      -0.028
      -0.007
       0.052
       0.123
       0.153
       0.100
      -0.023
      -0.142
      -0.184
      -0.133
      -0.038
       0.030
       0.031
      -0.025
      -0.089
      -0.113
      -0.083
      -0.030
       0.000
      -0.018
      -0.065
      -0.096
      -0.077
      -0.014
       0.053
       0.082
       0.063
       0.025
       0.006
       0.021
       0.054
       0.073
       0.060
       0.025
      -0.009
      -0.019
      -0.003
       0.021
       0.029
       0.015
      -0.006
      -0.014
      -0.005
       0.014
       0.029
       0.035
       0.029
       0.014
      -0.005
      -0.015
      -0.001
       0.031
       0.048
       0.012
      -0.076
      -0.157
      -0.152
      -0.040
       0.106
       0.173
       0.108
      -0.037
      -0.149
      -0.150
      -0.061
       0.025
       0.022
      -0.072
      -0.182
      -0.219
      -0.158
      -0.047
       0.038
       0.056
       0.019
      -0.023
      -0.025
       0.021
       0.083
       0.116
       0.100
       0.050
       0.001
      -0.020
      -0.012
       0.011
       0.030
       0.037
       0.033
       0.022
       0.009
      -0.002
      -0.007
      -0.004
      -0.001
      -0.005
      -0.016
      -0.025
      -0.019
       0.003
       0.028
       0.041
       0.033
       0.013
       0.010
       0.045
       0.108
       0.152
       0.121
       0.004
      -0.139
      -0.216
      -0.181
      -0.065
       0.046
       0.076
       0.015
      -0.081
      -0.139
      -0.117
      -0.037
       0.033
       0.036
      -0.028
      -0.104
      -0.128
      -0.084
      -0.006
       0.056
       0.074
       0.056
       0.032
       0.028
       0.045
       0.061
       0.055
       0.030
       0.011
       0.015
       0.037
       0.059
       0.062
       0.045
       0.022
       0.010
       0.017
       0.033
       0.042
       0.036
       0.019
       0.002
      -0.009
      -0.009
       0.004
       0.025
       0.037
       0.012
      -0.062
      -0.150
      -0.178
      -0.097
       0.055
       0.170
       0.156
       0.026
      -0.120
      -0.174
      -0.114
      -0.011
       0.033
      -0.022
      -0.124
      -0.183
      -0.149
      -0.051
       0.039
       0.067
       0.039
      -0.002
      -0.015
       0.017
       0.073
       0.116
       0.113
       0.066
       0.011
      -0.015
      -0.003
       0.024
       0.039
       0.031
       0.012
      -0.002
      -0.005
       0.001
       0.010
       0.017
       0.020
       0.020
       0.021
       0.024
       0.030
       0.032
       0.025
       0.009
      -0.010
      -0.022
      -0.014
       0.025
       0.087
       0.133
       0.115
       0.016
      -0.118
      -0.206
      -0.191
      -0.086
       0.033
       0.086
       0.043
      -0.056
      -0.130
      -0.122
      -0.045
       0.036
       0.053
      -0.001
      -0.075
      -0.109
      -0.078
      -0.009
       0.051
       0.070
       0.049
       0.020
       0.014
       0.038
       0.069
       0.078
       0.055
       0.014
      -0.017
      -0.023
      -0.010
       0.008
       0.016
       0.014
       0.005
       0.000
       0.001
       0.011
       0.024
       0.031
       0.027
       0.011
      -0.006
      -0.007
       0.016
       0.044
       0.037
      -0.032
      -0.136
      -0.199
      -0.152
      -0.011
       0.126
       0.155
       0.060
      -0.076
      -0.144
      -0.103
      -0.004
       0.054
       0.016
      -0.092
      -0.188
      -0.203
      -0.129
      -0.023
       0.048
       0.057
       0.025
       0.001
       0.018
       0.071
       0.126
       0.143
       0.109
       0.050
       0.008
       0.007
       0.035
       0.058
       0.049
       0.012
      -0.029
      -0.049
      -0.039
      -0.011
       0.016
       0.028
       0.025
       0.018
       0.017
       0.025
       0.033
       0.033
       0.023
       0.007
      -0.008
      -0.014
      -0.005
       0.027
       0.075
       0.108
       0.083
      -0.007
      -0.118
      -0.178
      -0.147
      -0.050
       0.041
       0.067
       0.017
      -0.065
      -0.115
      -0.095
      -0.030
       0.021
       0.011
      -0.050
      -0.108
      -0.110
      -0.051
       0.030
       0.080
       0.075
       0.035
       0.004
       0.008
       0.037
       0.062
       0.062
       0.043
       0.025
       0.027
       0.046
       0.067
       0.074
       0.067
       0.060
       0.063
       0.077
       0.095
       0.112
       0.129
       0.151
       0.173
       0.190
       0.201
       0.217
       0.247
       0.280
       0.280
       0.229
       0.164
       0.161
       0.259
       0.404
       0.482
       0.418
       0.249
       0.082
       0.005
       0.011
       0.024
      -0.029
      -0.155
      -0.294
      -0.365
      -0.336
      -0.246
      -0.177
      -0.190
      -0.295
      -0.457
      -0.634
      -0.812
      -1.000
      -1.217
      -1.459
      -1.682
      -1.812
      -1.774
      -1.518
      -1.032
      -0.334
       0.532
       1.491
       2.443
       3.271
       3.855
       4.097
       3.940
       3.382
       2.470
       1.300
       0.003
      -1.262
      -2.332
      -3.075
      -3.421
      -3.369
      -2.971
      -2.307
      -1.482
      -0.629
       0.091
       0.521
       0.564
       0.211
      -0.459
      -1.316
      -2.212
      -2.986
      -3.446
      -3.370
      -2.562
      -0.952
       1.309
       3.839
       6.124
       7.676
       8.169
       7.488
       5.710
       3.072
      -0.048
      -3.163
      -5.753
      -7.358
      -7.702
      -6.784
      -4.903
      -2.574
      -0.360
       1.293
       2.148
       2.174
       1.509
       0.412
      -0.783
      -1.717
      -2.078
      -1.663
      -0.419
       1.547
       3.970
       6.450
       8.485
       9.574
       9.341
       7.652
       4.669
       0.833
      -3.220
      -6.790
      -9.289
     -10.384
     -10.063
      -8.599
      -6.457
      -4.161
      -2.130
      -0.569
       0.542
       1.337
       1.922
       2.300
       2.381
       2.086
       1.455
       0.697
       0.126
       0.033
       0.552
       1.608
       2.938
       4.182
       5.016
       5.244
       4.825
       3.820
       2.338
       0.522
      -1.433
      -3.278
      -4.733
      -5.565
      -5.660
      -5.056
      -3.919
      -2.493
      -1.033
       0.255
       1.247
       1.906
       2.249
       2.304
       2.070
       1.548
       0.809
       0.049
      -0.456
      -0.495
      -0.062
       0.631
       1.268
       1.584
       1.448
       0.874
      -0.007
      -0.992
      -1.863
      -2.454
      -2.678
      -2.512
      -1.968
      -1.096
       0.004
       1.178
       2.255
       3.091
       3.597
       3.730
       3.489
       2.910
       2.076
       1.104
       0.131
      -0.719
      -1.361
      -1.787
      -2.063
      -2.294
      -2.558
      -2.838
      -3.011
      -2.896
      -2.362
      -1.423
      -0.260
       0.839
       1.604
       1.891
       1.728
       1.290
       0.817
       0.522
       0.509
       0.728
       1.015
       1.175
       1.089
       0.778
       0.394
       0.128
       0.087
       0.210
       0.311
       0.205
      -0.167
      -0.721
      -1.302
      -1.783
      -2.100
      -2.245
      -2.240
      -2.106
      -1.833
      -1.386
      -0.756
      -0.017
       0.687
       1.247
       1.674
       2.075
       2.546
       3.057
       3.458
       3.560
       3.248
       2.534
       1.555
       0.513
      -0.399
      -1.073
      -1.514
      -1.804
      -2.027
      -2.197
      -2.265
      -2.180
      -1.956
      -1.689
      -1.494
      -1.432
      -1.472
      -1.514
      -1.455
      -1.228
      -0.816
      -0.252
       0.390
       1.020
       1.555
       1.939
       2.157
       2.236
       2.226
       2.168
       2.067
       1.897
       1.616
       1.202
       0.656
       0.006
      -0.692
      -1.356
      -1.904
      -2.282
      -2.488
      -2.549
      -2.478
      -2.238
      -1.765
      -1.037
      -0.125
       0.823
       1.637
       2.183
       2.385
       2.235
       1.800
       1.211
       0.627
       0.180
      -0.076
      -0.149
      -0.070
       0.141
       0.462
       0.828
       1.122
       1.214
       1.031
       0.606
       0.050
      -0.512
      -1.013
      -1.442
      -1.793
      -2.030
      -2.110
      -2.042
      -1.896
      -1.731
      -1.528
      -1.210
      -0.740
      -0.196
       0.252
       0.444
       0.323
      -0.029
      -0.441
      -0.725
      -0.742
      -0.424
       0.226
       1.135
       2.153
       3.059
       3.612
       3.655
       3.199
       2.415
       1.519
       0.668
      -0.064
      -0.621
      -0.944
      -1.025
      -0.955
      -0.906
      -1.040
      -1.428
      -2.021
      -2.667
      -3.166
      -3.335
      -3.072
      -2.406
      -1.473
      -0.467
       0.433
       1.114
       1.535
       1.721
       1.739
       1.661
       1.534
       1.364
       1.138
       0.858
       0.563
       0.317
       0.178
       0.181
       0.318
       0.533
       0.719
       0.752
       0.549
       0.101
      -0.525
      -1.223
      -1.848
      -2.225
      -2.172
      -1.590
      -0.530
       0.792
       2.063
       2.990
       3.400
       3.287
       2.775
       2.036
       1.218
       0.411
      -0.339
      -1.020
      -1.628
      -2.160
      -2.594
      -2.886
      -2.967
      -2.781
      -2.340
      -1.739
      -1.117
      -0.568
      -0.100
       0.335
       0.761
       1.149
       1.451
       1.643
       1.745
       1.781
       1.759
       1.672
       1.515
       1.286
       0.990
       0.645
       0.301
       0.015
      -0.198
      -0.383
      -0.598
      -0.834
      -1.006
      -1.023
      -0.878
      -0.685
      -0.604
      -0.739
      -1.077
      -1.500
      -1.859
      -2.043
      -2.002
      -1.723
      -1.215
      -0.509
       0.333
       1.227
       2.088
       2.837
       3.389
       3.639
       3.484
       2.896
       1.977
       0.931
      -0.033
      -0.804
      -1.380
      -1.797
      -2.048
      -2.077
      -1.836
      -1.349
      -0.739
      -0.186
       0.146
       0.174
      -0.083
      -0.528
      -1.028
      -1.444
      -1.656
      -1.591
      -1.241
      -0.656
       0.079
       0.858
       1.569
       2.092
       2.335
       2.266
       1.948
       1.509
       1.077
       0.723
       0.447
       0.211
      -0.016
      -0.245
      -0.476
      -0.712
      -0.961
      -1.216
      -1.431
      -1.521
      -1.397
      -1.005
      -0.369
       0.398
       1.109
       1.554
       1.597
       1.263
       0.746
       0.309
       0.121
       0.159
       0.231
       0.137
      -0.188
      -0.625
      -0.978
      -1.119
      -1.082
      -1.016
      -1.058
      -1.206
      -1.304
      -1.151
      -0.657
       0.067
       0.760
       1.178
       1.229
       1.006
       0.699
       0.469
       0.373
       0.383
       0.448
       0.519
       0.549
       0.492
       0.329
       0.100
      -0.116
      -0.248
      -0.286
      -0.267
      -0.235
      -0.197
      -0.120
       0.025
       0.223
       0.404
       0.469
       0.347
       0.045
      -0.356
      -0.745
      -1.021
      -1.110
      -0.974
      -0.626
      -0.169
       0.227
       0.408
       0.342
       0.143
      -0.007
       0.012
       0.192
       0.414
       0.545
       0.530
       0.417
       0.315
       0.298
       0.340
       0.325
