Origin Time       10/07/2010 03:16:20
Lat.              29.9 N 
Long.             79.6 E 
Depth (Km)         10.0
Magnitude         4.1
 Region           ALMORA-UTTARAKHAND                                               
 Above details taken from IMD 
     
Station Code      GAR
Station Lat.       30.051  N
Station Long.      79.288  E
Station Height(m) 1614.0
Site Class        A   Vs30 between 700 m/sec to 1400 m/sec * 
Record Time       10.07.2010 03:16:14.249
Sampling Rate     200. Hz
 Record Duration   66.590 Sec.
 Direction         E-W (E positive)
Max. Acceleration      9.478 cm/sec**2
     
  * For reference see Site Classification link of website 
     
 Base Line Corrected and Low Pass Filtered (Cut Off at 35 Hz) Time History
 Acceleration data in cm/sec**2
    
[...]
      -0.019
      -0.010
      -0.007
      -0.003
       0.014
       0.047
       0.086
       0.105
       0.083
       0.023
      -0.042
      -0.076
      -0.067
      -0.032
      -0.004
      -0.001
      -0.018
      -0.034
      -0.031
      -0.003
       0.036
       0.064
       0.065
       0.038
      -0.007
      -0.048
      -0.068
      -0.060
      -0.036
      -0.010
       0.005
       0.008
       0.006
       0.012
       0.034
       0.066
       0.085
       0.066
       0.013
      -0.043
      -0.070
      -0.061
      -0.035
      -0.019
      -0.022
      -0.036
      -0.039
      -0.019
       0.019
       0.056
       0.071
       0.059
       0.027
      -0.014
      -0.050
      -0.068
      -0.063
      -0.044
      -0.022
      -0.010
      -0.010
      -0.009
       0.004
       0.038
       0.080
       0.098
       0.072
       0.011
      -0.050
      -0.076
      -0.063
      -0.034
      -0.013
      -0.011
      -0.021
      -0.026
      -0.010
       0.027
       0.071
       0.101
       0.103
       0.077
       0.037
      -0.002
      -0.025
      -0.031
      -0.026
      -0.019
      -0.015
      -0.016
      -0.018
      -0.014
       0.001
       0.023
       0.028
      -0.002
      -0.062
      -0.118
      -0.137
      -0.110
      -0.056
      -0.008
       0.013
       0.013
       0.012
       0.029
       0.068
       0.110
       0.134
       0.128
       0.093
       0.042
      -0.012
      -0.057
      -0.089
      -0.111
      -0.123
      -0.126
      -0.117
      -0.099
      -0.079
      -0.064
      -0.067
      -0.099
      -0.156
      -0.211
      -0.226
      -0.180
      -0.095
      -0.011
       0.037
       0.048
       0.047
       0.068
       0.125
       0.199
       0.253
       0.262
       0.224
       0.161
       0.099
       0.057
       0.037
       0.033
       0.036
       0.043
       0.052
       0.059
       0.057
       0.047
       0.036
       0.027
       0.005
      -0.046
      -0.124
      -0.200
      -0.241
      -0.231
      -0.188
      -0.145
      -0.123
      -0.122
      -0.115
      -0.078
      -0.007
       0.080
       0.154
       0.194
       0.200
       0.189
       0.187
       0.205
       0.230
       0.229
       0.176
       0.068
      -0.068
      -0.192
      -0.274
      -0.308
      -0.319
      -0.336
      -0.364
      -0.370
      -0.309
      -0.165
       0.025
       0.189
       0.268
       0.246
       0.156
       0.056
      -0.013
      -0.046
      -0.068
      -0.109
      -0.177
      -0.256
      -0.307
      -0.300
      -0.229
      -0.124
      -0.030
       0.021
       0.029
       0.026
       0.053
       0.142
       0.293
       0.467
       0.604
       0.661
       0.644
       0.592
       0.539
       0.489
       0.419
       0.306
       0.147
      -0.036
      -0.199
      -0.297
      -0.305
      -0.239
      -0.146
      -0.090
      -0.107
      -0.193
      -0.306
      -0.397
      -0.433
      -0.405
      -0.323
      -0.219
      -0.132
      -0.095
      -0.111
      -0.159
      -0.215
      -0.269
      -0.317
      -0.339
      -0.307
      -0.207
      -0.051
       0.132
       0.315
       0.484
       0.630
       0.735
       0.769
       0.709
       0.555
       0.346
       0.142
      -0.004
      -0.077
      -0.102
      -0.125
      -0.189
      -0.302
      -0.439
      -0.556
      -0.614
      -0.597
      -0.521
      -0.430
      -0.377
      -0.391
      -0.449
      -0.485
      -0.433
      -0.281
      -0.074
       0.123
       0.266
       0.352
       0.402
       0.433
       0.451
       0.455
       0.452
       0.457
       0.473
       0.474
       0.431
       0.338
       0.231
       0.156
       0.128
       0.122
       0.100
       0.052
       0.013
       0.033
       0.121
       0.219
       0.242
       0.151
      -0.019
      -0.187
      -0.292
      -0.328
      -0.327
      -0.329
      -0.354
      -0.406
      -0.480
      -0.568
      -0.674
      -0.796
      -0.914
      -0.993
      -0.987
      -0.865
      -0.628
      -0.307
       0.040
       0.355
       0.596
       0.747
       0.821
       0.853
       0.885
       0.930
       0.963
       0.935
       0.826
       0.660
       0.488
       0.349
       0.253
       0.186
       0.130
       0.062
      -0.038
      -0.182
      -0.361
      -0.548
      -0.711
      -0.835
      -0.918
      -0.951
      -0.904
      -0.738
      -0.449
      -0.092
       0.235
       0.454
       0.546
       0.553
       0.533
       0.512
       0.459
       0.319
       0.069
      -0.230
      -0.463
      -0.542
      -0.469
      -0.331
      -0.231
      -0.219
      -0.267
      -0.297
      -0.233
      -0.049
       0.210
       0.451
       0.588
       0.594
       0.523
       0.476
       0.529
       0.679
       0.843
       0.911
       0.802
       0.507
       0.093
      -0.319
      -0.599
      -0.685
      -0.619
      -0.521
      -0.498
      -0.562
      -0.636
      -0.630
      -0.515
      -0.342
      -0.197
      -0.144
      -0.189
      -0.287
      -0.373
      -0.397
      -0.340
      -0.223
      -0.092
       0.021
       0.112
       0.203
       0.307
       0.408
       0.473
       0.479
       0.443
       0.418
       0.462
       0.591
       0.741
       0.797
       0.673
       0.390
       0.072
      -0.144
      -0.206
      -0.182
      -0.199
      -0.349
      -0.628
      -0.934
      -1.135
      -1.137
      -0.933
      -0.600
      -0.256
      -0.003
       0.122
       0.159
       0.188
       0.267
       0.395
       0.525
       0.601
       0.599
       0.537
       0.466
       0.436
       0.456
       0.478
       0.425
       0.248
      -0.021
      -0.287
      -0.449
      -0.475
      -0.430
      -0.424
      -0.521
      -0.686
      -0.815
      -0.811
      -0.643
      -0.348
      -0.005
       0.302
       0.502
       0.574
       0.548
       0.493
       0.467
       0.478
       0.479
       0.415
       0.269
       0.083
      -0.079
      -0.177
      -0.221
      -0.251
      -0.298
      -0.372
      -0.464
      -0.547
      -0.580
      -0.522
      -0.362
      -0.139
       0.077
       0.223
       0.266
       0.205
       0.069
      -0.083
      -0.177
      -0.159
      -0.025
       0.157
       0.283
       0.274
       0.141
      -0.009
      -0.034
       0.153
       0.518
       0.911
       1.152
       1.130
       0.857
       0.454
       0.068
      -0.213
      -0.388
      -0.519
      -0.661
      -0.816
      -0.929
      -0.931
      -0.788
      -0.542
      -0.286
      -0.112
      -0.059
      -0.088
      -0.097
       0.017
       0.295
       0.680
       1.047
       1.273
       1.297
       1.138
       0.872
       0.593
       0.366
       0.189
       0.001
      -0.265
      -0.613
      -0.972
      -1.226
      -1.296
      -1.183
      -0.962
      -0.732
      -0.556
      -0.435
      -0.324
      -0.166
       0.071
       0.374
       0.676
       0.878
       0.909
       0.769
       0.526
       0.275
       0.091
       0.002
      -0.001
       0.046
       0.099
       0.123
       0.102
       0.033
      -0.076
      -0.200
      -0.297
      -0.339
      -0.328
      -0.299
      -0.290
      -0.311
      -0.344
      -0.359
      -0.334
      -0.260
      -0.144
      -0.012
       0.097
       0.150
       0.138
       0.087
       0.043
       0.042
       0.084
       0.150
       0.221
       0.283
       0.324
       0.337
       0.331
       0.334
       0.359
       0.382
       0.353
       0.241
       0.067
      -0.113
      -0.255
      -0.356
      -0.449
      -0.557
      -0.667
      -0.735
      -0.731
      -0.653
      -0.522
      -0.344
      -0.111
       0.176
       0.482
       0.732
       0.845
       0.780
       0.575
       0.342
       0.200
       0.210
       0.326
       0.443
       0.462
       0.354
       0.159
      -0.056
      -0.236
      -0.349
      -0.382
      -0.337
      -0.238
      -0.132
      -0.062
      -0.046
      -0.070
      -0.105
      -0.121
      -0.097
      -0.022
       0.088
       0.193
       0.251
       0.257
       0.252
       0.284
       0.364
       0.451
       0.481
       0.411
       0.249
       0.038
      -0.176
      -0.365
      -0.514
      -0.605
      -0.618
      -0.558
      -0.454
      -0.343
      -0.241
      -0.134
      -0.006
       0.140
       0.274
       0.356
       0.366
       0.313
       0.228
       0.132
       0.022
      -0.116
      -0.278
      -0.422
      -0.476
      -0.379
      -0.121
       0.235
       0.570
       0.769
       0.781
       0.638
       0.414
       0.171
      -0.077
      -0.336
      -0.600
      -0.819
      -0.925
      -0.867
      -0.647
      -0.324
       0.000
       0.219
       0.268
       0.148
      -0.074
      -0.306
      -0.482
      -0.587
      -0.625
      -0.589
      -0.445
      -0.170
       0.223
       0.667
       1.068
       1.344
       1.461
       1.423
       1.240
       0.912
       0.450
      -0.089
      -0.609
      -1.006
      -1.222
      -1.246
      -1.100
      -0.824
      -0.468
      -0.111
       0.159
       0.268
       0.206
       0.034
      -0.137
      -0.214
      -0.164
      -0.030
       0.111
       0.205
       0.262
       0.333
       0.463
       0.642
       0.816
       0.928
       0.950
       0.882
       0.740
       0.549
       0.346
       0.159
      -0.009
      -0.172
      -0.333
      -0.475
      -0.582
      -0.655
      -0.713
      -0.753
      -0.746
      -0.672
      -0.558
      -0.489
      -0.545
      -0.723
      -0.904
      -0.917
      -0.652
      -0.149
       0.434
       0.919
       1.213
       1.351
       1.439
       1.556
       1.679
       1.683
       1.434
       0.891
       0.150
      -0.602
      -1.178
      -1.467
      -1.458
      -1.221
      -0.879
      -0.562
      -0.356
      -0.269
      -0.240
      -0.187
      -0.069
       0.090
       0.228
       0.297
       0.281
       0.194
       0.053
      -0.127
      -0.326
      -0.520
      -0.674
      -0.760
      -0.777
      -0.753
      -0.717
      -0.664
      -0.547
      -0.321
       0.009
       0.385
       0.719
       0.947
       1.045
       1.037
       0.969
       0.881
       0.781
       0.645
       0.436
       0.139
      -0.216
      -0.549
      -0.757
      -0.765
      -0.581
      -0.299
      -0.060
       0.037
      -0.013
      -0.122
      -0.174
      -0.120
      -0.022
      -0.007
      -0.157
      -0.434
      -0.712
      -0.877
      -0.903
      -0.851
      -0.798
      -0.774
      -0.749
      -0.676
      -0.531
      -0.327
      -0.092
       0.162
       0.434
       0.728
       1.039
       1.360
       1.675
       1.955
       2.162
       2.258
       2.234
       2.114
       1.932
       1.694
       1.350
       0.820
       0.074
      -0.796
      -1.581
      -2.058
      -2.120
      -1.844
      -1.447
      -1.156
      -1.081
      -1.168
      -1.245
      -1.160
      -0.880
      -0.508
      -0.187
       0.014
       0.146
       0.330
       0.658
       1.121
       1.612
       1.992
       2.157
       2.078
       1.789
       1.365
       0.885
       0.417
      -0.003
      -0.347
      -0.568
      -0.602
      -0.405
      -0.009
       0.467
       0.874
       1.113
       1.168
       1.073
       0.860
       0.539
       0.116
      -0.382
      -0.901
      -1.373
      -1.723
      -1.874
      -1.792
      -1.535
      -1.248
      -1.068
      -1.025
      -1.016
      -0.909
      -0.664
      -0.367
      -0.156
      -0.127
      -0.288
      -0.584
      -0.950
      -1.333
      -1.688
      -1.967
      -2.117
      -2.088
      -1.854
      -1.413
      -0.806
      -0.117
       0.545
       1.093
       1.510
       1.858
       2.225
       2.645
       3.048
       3.283
       3.193
       2.715
       1.933
       1.055
       0.324
      -0.087
      -0.153
       0.013
       0.222
       0.320
       0.242
       0.009
      -0.321
      -0.705
      -1.117
      -1.528
      -1.885
      -2.118
      -2.153
      -1.952
      -1.515
      -0.889
      -0.143
       0.666
       1.510
       2.373
       3.202
       3.867
       4.183
       4.007
       3.320
       2.236
       0.926
      -0.469
      -1.857
      -3.164
      -4.295
      -5.137
      -5.583
      -5.561
      -5.072
      -4.202
      -3.117
      -2.006
      -1.012
      -0.180
       0.525
       1.158
       1.734
       2.204
       2.491
       2.537
       2.332
       1.916
       1.365
       0.781
       0.276
      -0.062
      -0.220
      -0.267
      -0.315
      -0.412
      -0.466
      -0.265
       0.400
       1.562
       3.006
       4.352
       5.236
       5.460
       5.009
       3.987
       2.555
       0.914
      -0.699
      -2.058
      -3.026
      -3.595
      -3.867
      -3.970
      -3.980
      -3.895
      -3.651
      -3.169
      -2.409
      -1.411
      -0.314
       0.680
       1.383
       1.703
       1.672
       1.388
       0.931
       0.301
      -0.567
      -1.726
      -3.119
      -4.549
      -5.731
      -6.397
      -6.381
      -5.635
      -4.196
      -2.162
       0.301
       2.940
       5.432
       7.465
       8.834
       9.478
       9.446
       8.818
       7.676
       6.108
       4.226
       2.161
       0.054
      -1.965
      -3.804
      -5.430
      -6.846
      -7.996
      -8.679
      -8.581
      -7.448
      -5.294
      -2.466
       0.492
       3.063
       4.932
       6.028
       6.458
       6.394
       5.979
       5.273
       4.254
       2.876
       1.156
      -0.756
      -2.589
      -4.046
      -4.919
      -5.154
      -4.843
      -4.156
      -3.264
      -2.278
      -1.217
      -0.024
       1.365
       2.918
       4.456
       5.693
       6.347
       6.249
       5.401
       3.967
       2.223
       0.478
      -1.001
      -2.067
      -2.723
      -3.071
      -3.207
      -3.125
      -2.729
      -1.928
      -0.753
       0.616
       1.909
       2.849
       3.219
       2.897
       1.899
       0.421
      -1.167
      -2.437
      -3.087
      -3.074
      -2.613
      -2.045
      -1.679
      -1.682
      -2.035
      -2.544
      -2.927
      -2.954
      -2.568
      -1.888
      -1.085
      -0.255
       0.605
       1.525
       2.465
       3.300
       3.867
       4.045
       3.800
       3.198
       2.386
       1.534
       0.771
       0.120
      -0.481
      -1.110
      -1.788
      -2.465
      -3.049
      -3.450
      -3.605
      -3.494
      -3.153
      -2.653
      -2.062
      -1.412
      -0.688
       0.140
       1.088
       2.131
       3.199
       4.184
       4.963
       5.432
       5.535
       5.274
       4.681
       3.797
       2.671
       1.406
       0.174
      -0.840
      -1.530
      -1.923
      -2.125
      -2.224
      -2.240
      -2.161
      -2.009
      -1.866
      -1.833
      -1.953
      -2.182
      -2.402
      -2.499
      -2.424
      -2.208
      -1.924
      -1.627
      -1.318
      -0.951
      -0.477
       0.108
       0.735
       1.279
       1.623
       1.707
       1.547
       1.214
       0.798
       0.379
       0.018
      -0.241
      -0.376
      -0.405
      -0.395
      -0.442
      -0.620
      -0.945
      -1.373
      -1.819
      -2.188
      -2.389
      -2.366
      -2.116
      -1.676
      -1.076
      -0.313
       0.636
       1.762
       2.988
       4.168
       5.121
       5.690
       5.789
       5.420
       4.646
       3.550
       2.219
       0.771
      -0.627
      -1.785
      -2.538
      -2.817
      -2.670
      -2.239
      -1.716
      -1.284
      -1.068
      -1.104
      -1.327
      -1.593
      -1.758
      -1.768
      -1.680
      -1.596
      -1.561
      -1.521
      -1.359
      -0.993
      -0.428
       0.247
       0.909
       1.429
       1.703
       1.677
       1.386
       0.963
       0.585
       0.386
       0.396
       0.557
       0.778
       0.976
       1.100
       1.129
       1.080
       0.996
       0.916
       0.848
       0.776
       0.681
       0.578
       0.521
       0.570
       0.738
       0.949
       1.056
       0.910
       0.445
      -0.269
      -1.044
      -1.654
      -1.944
      -1.896
      -1.624
      -1.269
      -0.915
      -0.555
      -0.151
       0.301
       0.738
       1.068
       1.228
       1.218
       1.096
       0.926
       0.719
       0.429
      -0.012
      -0.631
      -1.378
      -2.123
      -2.701
      -2.969
      -2.852
      -2.361
      -1.602
      -0.755
      -0.020
       0.474
       0.726
       0.837
       0.910
       0.971
       0.981
       0.908
       0.775
       0.639
       0.551
       0.529
       0.558
       0.596
       0.572
       0.418
       0.113
      -0.284
      -0.645
      -0.833
      -0.768
      -0.459
       0.021
       0.581
       1.137
       1.606
       1.909
       1.978
       1.793
       1.389
       0.859
       0.329
      -0.085
      -0.329
      -0.435
      -0.500
      -0.618
      -0.832
      -1.125
      -1.451
      -1.774
      -2.078
      -2.349
      -2.543
      -2.581
      -2.372
      -1.863
      -1.080
      -0.143
       0.761
       1.430
       1.730
       1.643
       1.278
       0.804
       0.376
       0.071
      -0.114
      -0.240
      -0.379
      -0.573
      -0.814
      -1.063
      -1.277
      -1.419
      -1.470
      -1.415
      -1.255
      -1.010
      -0.716
      -0.409
      -0.097
       0.244
       0.646
       1.099
       1.531
       1.835
       1.936
       1.850
       1.683
       1.560
       1.548
       1.606
       1.613
       1.459
       1.127
       0.705
       0.325
       0.089
       0.027
       0.116
       0.310
       0.558
       0.813
       1.028
       1.158
       1.173
       1.063
       0.844
       0.551
       0.229
      -0.073
      -0.314
      -0.484
      -0.618
      -0.786
      -1.043
      -1.386
      -1.749
      -2.032
      -2.155
      -2.100
      -1.924
      -1.722
      -1.574
      -1.486
      -1.393
      -1.203
      -0.869
      -0.420
       0.055
       0.468
       0.786
       1.043
       1.308
       1.626
       1.986
       2.324
       2.567
       2.675
       2.658
       2.550
       2.372
       2.112
       1.740
       1.258
       0.712
       0.173
      -0.302
      -0.691
      -1.016
      -1.327
      -1.681
      -2.094
      -2.518
      -2.858
      -3.022
      -2.966
      -2.703
      -2.280
      -1.753
      -1.177
      -0.615
      -0.125
       0.259
       0.540
       0.744
       0.894
       1.000
       1.075
       1.136
       1.194
       1.221
       1.163
       0.985
       0.720
       0.455
       0.283
       0.249
       0.339
       0.484
       0.596
       0.591
       0.430
       0.129
      -0.247
      -0.626
      -0.966
      -1.266
      -1.544
      -1.793
      -1.970
      -2.019
      -1.918
      -1.692
