Origin Time       01/05/2009 22:36:25
Lat.              29.9 N 
Long.             80.1 E 
Depth (Km)         10.0
Magnitude         4.6
 Region           Bageshwar-Uttarakhand                                            
 Above details taken from IMD 
   
Station Code      GAR
Station Lat.       30.051
Station Long.      79.288
Station Height(m) 1614.0
Site Class        A   Vs30 between 700 m/sec to 1400 m/sec * 
Record Time       01.05.2010 22:36:30.114
Sampling Rate     200. Hz
 Record Duration   66.740 Sec.
 Direction         Vert. (Up positive)
Max. Acceleration      6.613 cm/sec**2
     
  * For reference see Site Classification link of website 
     
 Base Line Corrected and Low Pass Filtered (Cut Off at 35 Hz) Time History
 Acceleration data in cm/sec**2
    
[...]
      -0.300
      -0.557
      -0.743
      -0.869
      -0.968
      -1.055
      -1.105
      -1.082
      -0.985
      -0.848
      -0.698
      -0.523
      -0.279
       0.074
       0.529
       1.014
       1.418
       1.644
       1.663
       1.502
       1.187
       0.718
       0.123
      -0.481
      -0.912
      -1.033
      -0.863
      -0.566
      -0.351
      -0.319
      -0.407
      -0.453
      -0.344
      -0.110
       0.097
       0.134
      -0.018
      -0.236
      -0.337
      -0.220
       0.049
       0.292
       0.361
       0.225
      -0.028
      -0.271
      -0.405
      -0.401
      -0.300
      -0.173
      -0.075
      -0.015
       0.037
       0.126
       0.273
       0.449
       0.595
       0.659
       0.634
       0.549
       0.433
       0.289
       0.116
      -0.048
      -0.128
      -0.081
       0.038
       0.109
       0.054
      -0.093
      -0.218
      -0.257
      -0.271
      -0.389
      -0.662
      -0.968
      -1.096
      -0.929
      -0.556
      -0.186
       0.047
       0.174
       0.309
       0.518
       0.753
       0.912
       0.918
       0.765
       0.507
       0.236
       0.052
       0.015
       0.112
       0.257
       0.348
       0.339
       0.263
       0.193
       0.155
       0.093
      -0.076
      -0.381
      -0.743
      -1.029
      -1.137
      -1.046
      -0.804
      -0.489
      -0.186
       0.045
       0.192
       0.286
       0.356
       0.394
       0.372
       0.312
       0.300
       0.410
       0.604
       0.746
       0.719
       0.533
       0.308
       0.142
       0.023
      -0.121
      -0.307
      -0.442
      -0.412
      -0.201
       0.072
       0.241
       0.213
       0.034
      -0.179
      -0.334
      -0.416
      -0.445
      -0.426
      -0.352
      -0.231
      -0.093
       0.031
       0.113
       0.124
       0.049
      -0.082
      -0.183
      -0.174
      -0.062
       0.053
       0.066
      -0.034
      -0.160
      -0.220
      -0.207
      -0.173
      -0.154
      -0.127
      -0.050
       0.068
       0.166
       0.183
       0.104
      -0.042
      -0.218
      -0.379
      -0.469
      -0.435
      -0.280
      -0.083
       0.057
       0.101
       0.097
       0.123
       0.204
       0.286
       0.303
       0.269
       0.281
       0.417
       0.652
       0.867
       0.941
       0.825
       0.550
       0.192
      -0.158
      -0.428
      -0.601
      -0.715
      -0.804
      -0.851
      -0.786
      -0.557
      -0.205
       0.150
       0.391
       0.495
       0.523
       0.533
       0.505
       0.376
       0.134
      -0.128
      -0.280
      -0.259
      -0.128
      -0.006
       0.042
       0.074
       0.209
       0.495
       0.835
       1.039
       0.958
       0.589
       0.071
      -0.404
      -0.701
      -0.792
      -0.740
      -0.631
      -0.527
      -0.438
      -0.343
      -0.226
      -0.097
       0.026
       0.159
       0.330
       0.514
       0.622
       0.592
       0.472
       0.371
       0.335
       0.299
       0.173
      -0.050
      -0.272
      -0.375
      -0.304
      -0.112
       0.078
       0.141
       0.029
      -0.202
      -0.425
      -0.519
      -0.437
      -0.210
       0.084
       0.353
       0.522
       0.562
       0.508
       0.432
       0.380
       0.347
       0.297
       0.214
       0.107
      -0.015
      -0.147
      -0.278
      -0.384
      -0.444
      -0.467
      -0.502
      -0.610
      -0.807
      -1.031
      -1.174
      -1.154
      -0.974
      -0.705
      -0.449
      -0.294
      -0.251
      -0.225
      -0.066
       0.310
       0.815
       1.227
       1.349
       1.159
       0.827
       0.569
       0.474
       0.438
       0.280
      -0.081
      -0.544
      -0.915
      -1.049
      -0.928
      -0.635
      -0.282
       0.037
       0.267
       0.388
       0.404
       0.351
       0.288
       0.260
       0.258
       0.225
       0.124
      -0.013
      -0.109
      -0.114
      -0.029
       0.114
       0.270
       0.369
       0.315
       0.062
      -0.313
      -0.621
      -0.699
      -0.546
      -0.326
      -0.234
      -0.350
      -0.603
      -0.852
      -0.998
      -1.016
      -0.928
      -0.768
      -0.562
      -0.327
      -0.071
       0.212
       0.523
       0.829
       1.054
       1.113
       0.984
       0.729
       0.450
       0.224
       0.066
      -0.058
      -0.186
      -0.314
      -0.383
      -0.319
      -0.084
       0.296
       0.744
       1.152
       1.400
       1.393
       1.131
       0.726
       0.339
       0.070
      -0.106
      -0.299
      -0.599
      -0.960
      -1.208
      -1.173
      -0.861
      -0.481
      -0.290
      -0.392
      -0.668
      -0.900
      -0.928
      -0.721
      -0.348
       0.096
       0.518
       0.849
       1.046
       1.088
       0.948
       0.610
       0.110
      -0.413
      -0.767
      -0.823
      -0.611
      -0.300
      -0.081
      -0.053
      -0.183
      -0.340
      -0.389
      -0.275
      -0.041
       0.216
       0.413
       0.526
       0.585
       0.622
       0.628
       0.563
       0.412
       0.199
      -0.026
      -0.215
      -0.338
      -0.397
      -0.425
      -0.458
      -0.498
      -0.508
      -0.459
      -0.368
      -0.286
      -0.243
      -0.202
      -0.078
       0.174
       0.495
       0.751
       0.836
       0.746
       0.550
       0.315
       0.081
      -0.123
      -0.268
      -0.353
      -0.416
      -0.511
      -0.668
      -0.860
      -1.025
      -1.111
      -1.114
      -1.064
      -0.974
      -0.821
      -0.589
      -0.316
      -0.056
       0.200
       0.531
       0.997
       1.552
       2.057
       2.369
       2.425
       2.230
       1.807
       1.167
       0.346
      -0.528
      -1.254
      -1.657
      -1.702
      -1.512
      -1.262
      -1.049
      -0.863
      -0.646
      -0.393
      -0.159
      -0.005
       0.074
       0.150
       0.300
       0.524
       0.749
       0.884
       0.895
       0.810
       0.661
       0.470
       0.261
       0.073
      -0.082
      -0.253
      -0.502
      -0.823
      -1.133
      -1.327
      -1.352
      -1.218
      -0.966
      -0.626
      -0.218
       0.233
       0.666
       0.991
       1.123
       1.056
       0.889
       0.785
       0.854
       1.075
       1.297
       1.350
       1.159
       0.801
       0.427
       0.135
      -0.110
      -0.412
      -0.831
      -1.307
      -1.700
      -1.880
      -1.796
      -1.483
      -1.029
      -0.537
      -0.105
       0.174
       0.249
       0.143
      -0.033
      -0.133
      -0.085
       0.066
       0.215
       0.318
       0.433
       0.652
       0.995
       1.370
       1.609
       1.557
       1.181
       0.605
       0.066
      -0.226
      -0.217
      -0.052
       0.020
      -0.161
      -0.556
      -0.963
      -1.189
      -1.177
      -0.994
      -0.736
      -0.451
      -0.154
       0.124
       0.345
       0.500
       0.640
       0.831
       1.074
       1.247
       1.157
       0.672
      -0.153
      -1.057
      -1.702
      -1.881
      -1.656
      -1.301
      -1.098
      -1.141
      -1.289
      -1.300
      -1.012
      -0.438
       0.255
       0.856
       1.211
       1.276
       1.132
       0.945
       0.880
       0.992
       1.202
       1.367
       1.400
       1.328
       1.251
       1.236
       1.256
       1.199
       0.951
       0.487
      -0.096
      -0.641
      -1.029
      -1.236
      -1.304
      -1.291
      -1.248
      -1.214
      -1.199
      -1.165
      -1.038
      -0.761
      -0.354
       0.072
       0.362
       0.413
       0.257
       0.039
      -0.098
      -0.115
      -0.081
      -0.092
      -0.174
      -0.263
      -0.247
      -0.059
       0.261
       0.572
       0.728
       0.675
       0.472
       0.242
       0.091
       0.066
       0.133
       0.196
       0.144
      -0.080
      -0.433
      -0.762
      -0.891
      -0.725
      -0.300
       0.253
       0.786
       1.186
       1.390
       1.398
       1.275
       1.137
       1.084
       1.130
       1.187
       1.140
       0.935
       0.605
       0.238
      -0.069
      -0.265
      -0.365
      -0.448
      -0.620
      -0.944
      -1.394
      -1.857
      -2.205
      -2.354
      -2.291
      -2.045
      -1.661
      -1.186
      -0.655
      -0.090
       0.501
       1.097
       1.619
       1.936
       1.917
       1.533
       0.910
       0.269
      -0.209
      -0.472
      -0.587
      -0.671
      -0.799
      -0.972
      -1.122
      -1.176
      -1.101
      -0.926
      -0.702
      -0.444
      -0.101
       0.414
       1.130
       1.963
       2.743
       3.298
       3.532
       3.445
       3.111
       2.647
       2.160
       1.702
       1.245
       0.716
       0.084
      -0.596
      -1.195
      -1.593
      -1.721
      -1.579
      -1.242
      -0.878
      -0.687
      -0.766
      -0.997
      -1.110
      -0.873
      -0.260
       0.520
       1.161
       1.448
       1.376
       1.109
       0.824
       0.568
       0.268
      -0.146
      -0.647
      -1.139
      -1.544
      -1.848
      -2.061
      -2.177
      -2.183
      -2.102
      -1.987
      -1.864
      -1.707
      -1.458
      -1.085
      -0.607
      -0.094
       0.358
       0.677
       0.845
       0.903
       0.902
       0.862
       0.758
       0.585
       0.394
       0.272
       0.281
       0.415
       0.630
       0.896
       1.213
       1.562
       1.870
       2.029
       1.957
       1.639
       1.125
       0.496
      -0.159
      -0.767
      -1.269
      -1.623
      -1.816
      -1.873
      -1.851
      -1.792
      -1.680
      -1.435
      -0.974
      -0.289
       0.527
       1.317
       1.927
       2.261
       2.320
       2.183
       1.955
       1.706
       1.447
       1.145
       0.765
       0.311
      -0.163
      -0.595
      -0.966
      -1.335
      -1.805
      -2.423
      -3.091
      -3.569
      -3.602
      -3.084
      -2.145
      -1.085
      -0.204
       0.343
       0.582
       0.638
       0.632
       0.625
       0.633
       0.654
       0.673
       0.654
       0.569
       0.442
       0.353
       0.377
       0.501
       0.607
       0.546
       0.261
      -0.161
      -0.564
      -0.857
      -1.073
      -1.284
      -1.469
      -1.502
      -1.258
      -0.741
      -0.102
       0.448
       0.773
       0.873
       0.836
       0.738
       0.584
       0.361
       0.144
       0.109
       0.392
       0.936
       1.493
       1.805
       1.775
       1.498
       1.168
       0.967
       0.989
       1.201
       1.466
       1.609
       1.519
       1.198
       0.755
       0.328
      -0.016
      -0.320
      -0.683
      -1.151
      -1.658
      -2.062
      -2.232
      -2.123
      -1.792
      -1.376
      -1.042
      -0.929
      -1.061
      -1.312
      -1.470
      -1.391
      -1.093
      -0.712
      -0.372
      -0.088
       0.205
       0.550
       0.903
       1.181
       1.356
       1.491
       1.670
       1.895
       2.061
       2.024
       1.668
       0.964
       0.015
      -0.961
      -1.713
      -2.082
      -2.070
      -1.822
      -1.539
      -1.377
      -1.357
      -1.363
      -1.246
      -0.953
      -0.562
      -0.189
       0.106
       0.353
       0.616
       0.907
       1.159
       1.302
       1.369
       1.513
       1.876
       2.425
       2.936
       3.151
       2.958
       2.443
       1.802
       1.186
       0.597
      -0.070
      -0.898
      -1.809
      -2.566
      -2.912
      -2.746
      -2.202
      -1.550
      -1.020
      -0.677
      -0.447
      -0.237
      -0.054
       0.002
      -0.155
      -0.494
      -0.860
      -1.075
      -1.036
      -0.759
      -0.319
       0.211
       0.783
       1.352
       1.840
       2.135
       2.166
       1.962
       1.634
       1.268
       0.846
       0.282
      -0.457
      -1.276
      -1.998
      -2.473
      -2.667
      -2.629
      -2.404
      -2.000
      -1.462
      -0.949
      -0.691
      -0.808
      -1.170
      -1.456
      -1.353
      -0.747
       0.241
       1.353
       2.349
       3.100
       3.592
       3.876
       4.021
       4.057
       3.947
       3.597
       2.946
       2.048
       1.083
       0.246
      -0.388
      -0.888
      -1.375
      -1.902
      -2.427
      -2.852
      -3.069
      -3.004
      -2.673
      -2.206
      -1.793
      -1.549
      -1.445
      -1.360
      -1.225
      -1.080
      -1.005
      -1.018
      -1.058
      -1.066
      -1.038
      -0.989
      -0.865
      -0.546
       0.057
       0.909
       1.877
       2.809
       3.609
       4.234
       4.665
       4.878
       4.829
       4.467
       3.779
       2.833
       1.759
       0.686
      -0.305
      -1.172
      -1.872
      -2.340
      -2.511
      -2.397
      -2.123
      -1.888
      -1.820
      -1.877
      -1.888
      -1.721
      -1.404
      -1.098
      -0.968
      -1.087
      -1.449
      -1.995
      -2.619
      -3.165
      -3.464
      -3.397
      -2.926
      -2.092
      -1.004
       0.187
       1.344
       2.411
       3.419
       4.421
       5.402
       6.214
       6.613
       6.401
       5.583
       4.385
       3.101
       1.922
       0.919
       0.118
      -0.469
      -0.889
      -1.263
      -1.699
      -2.185
      -2.588
      -2.775
      -2.719
      -2.514
      -2.280
      -2.087
      -1.941
      -1.813
      -1.669
      -1.490
      -1.282
      -1.089
      -0.966
      -0.921
      -0.884
      -0.751
      -0.491
      -0.191
      -0.012
      -0.100
      -0.500
      -1.119
      -1.746
      -2.137
      -2.139
      -1.771
      -1.209
      -0.664
      -0.248
       0.078
       0.429
       0.878
       1.395
       1.875
       2.228
       2.448
       2.606
       2.767
       2.902
       2.904
       2.684
       2.260
       1.758
       1.326
       1.049
       0.890
       0.723
       0.436
       0.035
      -0.369
      -0.669
      -0.857
      -0.999
      -1.136
      -1.238
      -1.239
      -1.120
      -0.944
      -0.815
      -0.797
      -0.859
      -0.910
      -0.867
      -0.699
      -0.423
      -0.091
       0.196
       0.314
       0.194
      -0.104
      -0.399
      -0.483
      -0.238
       0.271
       0.816
       1.139
       1.126
       0.877
       0.606
       0.440
       0.315
       0.051
      -0.452
      -1.098
      -1.661
      -1.972
      -2.042
      -2.015
      -2.025
      -2.093
      -2.129
      -1.999
      -1.608
      -0.958
      -0.180
       0.506
       0.918
       1.044
       1.058
       1.184
       1.519
       1.959
       2.285
       2.326
       2.063
       1.617
       1.141
       0.729
       0.405
       0.166
       0.054
       0.156
       0.538
       1.165
       1.890
       2.496
       2.785
       2.656
       2.154
       1.454
       0.781
       0.273
      -0.085
      -0.426
      -0.893
      -1.545
      -2.337
      -3.150
      -3.816
      -4.145
      -4.022
      -3.513
      -2.873
      -2.384
      -2.157
      -2.088
      -1.997
      -1.798
      -1.517
      -1.201
      -0.849
      -0.441
      -0.025
       0.302
       0.484
       0.581
       0.703
       0.884
       1.045
       1.117
       1.167
       1.361
       1.764
       2.227
       2.496
       2.454
       2.211
       1.992
       1.944
       2.062
       2.257
       2.442
       2.555
       2.546
       2.379
       2.063
       1.677
       1.340
       1.148
       1.124
       1.185
       1.164
       0.882
       0.255
      -0.639
      -1.600
      -2.412
      -2.961
      -3.248
      -3.337
      -3.280
      -3.100
      -2.816
      -2.478
      -2.171
      -1.973
      -1.905
      -1.905
      -1.876
      -1.754
      -1.564
      -1.400
      -1.359
      -1.450
      -1.546
      -1.455
      -1.050
      -0.362
       0.460
       1.274
       2.023
       2.703
       3.275
       3.645
       3.728
       3.528
       3.135
       2.641
       2.072
       1.394
       0.591
      -0.262
      -0.992
      -1.396
      -1.349
      -0.865
      -0.094
       0.759
       1.513
       2.056
       2.328
       2.297
       1.944
       1.274
       0.341
      -0.727
      -1.704
      -2.308
      -2.360
      -1.941
      -1.392
      -1.095
      -1.207
      -1.594
      -1.983
      -2.171
      -2.109
      -1.860
      -1.533
      -1.240
      -1.056
      -0.978
      -0.927
      -0.802
      -0.574
      -0.309
      -0.111
      -0.029
      -0.020
       0.015
       0.171
       0.496
       0.958
       1.441
       1.794
       1.934
       1.910
       1.862
       1.893
       1.972
       1.965
       1.750
       1.319
       0.774
       0.256
      -0.128
      -0.331
      -0.367
      -0.289
      -0.177
      -0.108
      -0.119
      -0.165
      -0.138
       0.047
       0.362
       0.679
       0.878
       0.946
       0.966
       1.017
       1.086
       1.061
       0.826
       0.365
      -0.195
      -0.633
      -0.753
      -0.484
       0.077
       0.705
       1.154
       1.279
       1.093
       0.719
       0.269
      -0.242
      -0.887
      -1.737
      -2.760
      -3.784
      -4.559
      -4.895
      -4.787
      -4.412
      -3.978
      -3.544
      -2.975
      -2.073
      -0.790
       0.691
       2.060
       3.066
       3.634
       3.847
       3.854
       3.782
       3.683
       3.528
       3.234
       2.720
       1.962
       1.022
       0.057
      -0.728
      -1.184
      -1.319
      -1.314
      -1.413
      -1.743
      -2.211
      -2.558
      -2.543
      -2.101
      -1.354
      -0.488
       0.361
       1.155
       1.907
       2.602
       3.141
       3.378
       3.227
       2.762
       2.192
       1.691
       1.237
       0.634
      -0.280
      -1.435
      -2.534
      -3.264
      -3.514
      -3.419
      -3.210
      -3.029
      -2.855
      -2.571
      -2.081
      -1.411
      -0.710
      -0.145
       0.249
       0.598
       1.039
       1.542
       1.896
       1.877
       1.433
       0.731
       0.077
      -0.242
      -0.105
       0.398
       1.049
       1.640
       2.055
       2.251
       2.222
       1.984
       1.565
       1.010
       0.395
      -0.176
      -0.628
      -0.967
      -1.254
      -1.537
      -1.795
      -1.958
      -1.967
      -1.826
      -1.582
      -1.264
      -0.858
      -0.341
       0.262
       0.871
       1.395
       1.792
       2.066
       2.235
       2.300
       2.233
       1.997
       1.567
       0.970
       0.284
      -0.406
      -1.078
      -1.762
      -2.453
      -3.021
      -3.248
      -2.969
      -2.210
      -1.175
      -0.119
       0.790
       1.513
       2.070
       2.493
       2.819
       3.079
       3.243
       3.183
       2.752
       1.939
       0.927
      -0.013
      -0.698
