Origin Time       21/9/2009 9:43:47	 
Lat.              30.9 N	
Long.             79.1 E	
Depth (Km)         13.0
Magnitude         4.7
 Region           UTTARKASHI-UTTARAKHAND                                           
 Above details taken from IMD 
   
Station Code      GHA
Station Lat.       30.434
Station Long.      78.656
Station Height(m)  360.0
Site Class        A   Vs30 between 700 m/sec to 1400 m/sec * 
Record Time       21.09.2009 09:43:54.889
Sampling Rate     200. Hz
 Record Duration   81.060 Sec.
 Direction         Vert. (Up positive)
Max. Acceleration      9.701 cm/sec**2
     
  * For reference see Site Classification link of website 
     
 Base Line Corrected and Low Pass Filtered (Cut Off at 35 Hz) Time History
 Acceleration data in cm/sec**2
    
[...]
       0.896
       0.720
       0.511
       0.301
       0.124
       0.036
       0.086
       0.276
       0.533
       0.735
       0.796
       0.734
       0.659
       0.680
       0.794
       0.872
       0.760
       0.410
      -0.086
      -0.567
      -0.927
      -1.170
      -1.367
      -1.565
      -1.738
      -1.798
      -1.664
      -1.315
      -0.814
      -0.274
       0.204
       0.580
       0.871
       1.120
       1.355
       1.568
       1.718
       1.750
       1.604
       1.245
       0.681
      -0.013
      -0.716
      -1.295
      -1.650
      -1.755
      -1.661
      -1.471
      -1.288
      -1.163
      -1.081
      -0.989
      -0.845
      -0.644
      -0.419
      -0.204
      -0.008
       0.205
       0.493
       0.900
       1.403
       1.894
       2.214
       2.243
       1.969
       1.498
       0.975
       0.490
       0.032
      -0.456
      -0.993
      -1.517
      -1.916
      -2.098
      -2.027
      -1.696
      -1.098
      -0.238
       0.814
       1.878
       2.695
       3.038
       2.831
       2.194
       1.362
       0.549
      -0.148
      -0.740
      -1.264
      -1.711
      -2.036
      -2.210
      -2.255
      -2.222
      -2.123
      -1.903
      -1.480
      -0.821
      -0.013
       0.755
       1.290
       1.505
       1.463
       1.317
       1.182
       1.043
       0.789
       0.331
      -0.270
      -0.794
      -0.983
      -0.718
      -0.110
       0.569
       1.066
       1.298
       1.363
       1.406
       1.465
       1.429
       1.136
       0.525
      -0.289
      -1.071
      -1.603
      -1.801
      -1.725
      -1.500
      -1.215
      -0.889
      -0.505
      -0.081
       0.306
       0.543
       0.547
       0.305
      -0.113
      -0.576
      -0.943
      -1.102
      -1.010
      -0.699
      -0.254
       0.237
       0.717
       1.174
       1.611
       2.008
       2.316
       2.474
       2.445
       2.227
       1.841
       1.320
       0.706
       0.069
      -0.514
      -0.981
      -1.321
      -1.569
      -1.768
      -1.929
      -2.019
      -1.978
      -1.753
      -1.324
      -0.721
      -0.040
       0.562
       0.920
       0.941
       0.674
       0.298
       0.016
      -0.070
      -0.017
       0.024
      -0.061
      -0.246
      -0.395
      -0.376
      -0.179
       0.075
       0.232
       0.221
       0.086
      -0.068
      -0.173
      -0.243
      -0.332
      -0.455
      -0.537
      -0.444
      -0.083
       0.504
       1.138
       1.599
       1.763
       1.657
       1.422
       1.184
       0.975
       0.732
       0.389
      -0.048
      -0.486
      -0.816
      -0.991
      -1.061
      -1.134
      -1.284
      -1.486
      -1.636
      -1.629
      -1.449
      -1.193
      -0.998
      -0.947
      -1.006
      -1.035
      -0.873
      -0.427
       0.274
       1.087
       1.812
       2.282
       2.441
       2.351
       2.137
       1.903
       1.672
       1.408
       1.071
       0.676
       0.291
      -0.013
      -0.205
      -0.312
      -0.388
      -0.476
      -0.590
      -0.706
      -0.784
      -0.787
      -0.704
      -0.569
      -0.448
      -0.411
      -0.483
      -0.634
      -0.799
      -0.926
      -1.002
      -1.042
      -1.047
      -0.982
      -0.790
      -0.437
       0.040
       0.538
       0.935
       1.154
       1.202
       1.152
       1.084
       1.017
       0.894
       0.637
       0.221
      -0.277
      -0.720
      -0.987
      -1.031
      -0.874
      -0.567
      -0.167
       0.266
       0.658
       0.944
       1.076
       1.042
       0.852
       0.534
       0.143
      -0.243
      -0.538
      -0.693
      -0.718
      -0.660
      -0.558
      -0.403
      -0.155
       0.198
       0.591
       0.899
       1.004
       0.879
       0.613
       0.353
       0.204
       0.164
       0.145
       0.049
      -0.156
      -0.412
      -0.616
      -0.685
      -0.615
      -0.480
      -0.375
      -0.350
      -0.380
      -0.391
      -0.327
      -0.210
      -0.142
      -0.238
      -0.546
      -0.995
      -1.429
      -1.699
      -1.741
      -1.587
      -1.306
      -0.947
      -0.519
      -0.018
       0.541
       1.125
       1.694
       2.201
       2.582
       2.762
       2.689
       2.375
       1.906
       1.396
       0.918
       0.469
       0.001
      -0.509
      -1.008
      -1.383
      -1.541
      -1.479
      -1.297
      -1.139
      -1.101
      -1.177
      -1.268
      -1.253
      -1.078
      -0.795
      -0.519
      -0.327
      -0.185
       0.030
       0.421
       0.974
       1.543
       1.941
       2.060
       1.924
       1.644
       1.334
       1.046
       0.788
       0.565
       0.397
       0.285
       0.169
      -0.047
      -0.416
      -0.886
      -1.314
      -1.560
      -1.582
      -1.467
      -1.372
      -1.429
      -1.652
      -1.921
      -2.038
      -1.828
      -1.231
      -0.326
       0.702
       1.650
       2.363
       2.773
       2.875
       2.689
       2.249
       1.607
       0.852
       0.100
      -0.529
      -0.933
      -1.050
      -0.883
      -0.514
      -0.086
       0.248
       0.390
       0.318
       0.063
      -0.319
      -0.755
      -1.152
      -1.414
      -1.478
      -1.347
      -1.088
      -0.785
      -0.488
      -0.185
       0.192
       0.699
       1.308
       1.875
       2.204
       2.164
       1.770
       1.169
       0.549
       0.050
      -0.279
      -0.469
      -0.589
      -0.702
      -0.837
      -0.978
      -1.090
      -1.142
      -1.116
      -1.006
      -0.803
      -0.518
      -0.194
       0.095
       0.278
       0.319
       0.222
       0.019
      -0.241
      -0.492
      -0.660
      -0.678
      -0.516
      -0.196
       0.210
       0.615
       0.954
       1.219
       1.446
       1.674
       1.883
       1.990
       1.906
       1.615
       1.193
       0.752
       0.345
      -0.068
      -0.561
      -1.152
      -1.751
      -2.202
      -2.371
      -2.229
      -1.874
      -1.467
      -1.139
      -0.914
      -0.712
      -0.438
      -0.075
       0.289
       0.529
       0.581
       0.487
       0.356
       0.285
       0.309
       0.407
       0.542
       0.682
       0.803
       0.885
       0.913
       0.899
       0.886
       0.930
       1.036
       1.127
       1.070
       0.766
       0.231
      -0.397
      -0.937
      -1.267
      -1.376
      -1.344
      -1.267
      -1.195
      -1.123
      -1.021
      -0.868
      -0.663
      -0.414
      -0.139
       0.118
       0.286
       0.302
       0.172
      -0.010
      -0.102
      -0.001
       0.297
       0.702
       1.080
       1.317
       1.363
       1.233
       0.980
       0.655
       0.290
      -0.083
      -0.411
      -0.622
      -0.668
      -0.561
      -0.377
      -0.204
      -0.096
      -0.049
      -0.024
       0.018
       0.093
       0.179
       0.247
       0.286
       0.309
       0.337
       0.358
       0.328
       0.201
      -0.029
      -0.321
      -0.623
      -0.908
      -1.172
      -1.403
      -1.547
      -1.520
      -1.262
      -0.796
      -0.227
       0.315
       0.737
       1.014
       1.156
       1.169
       1.058
       0.856
       0.650
       0.533
       0.534
       0.586
       0.570
       0.408
       0.122
      -0.187
      -0.415
      -0.527
      -0.550
      -0.534
      -0.496
      -0.427
      -0.324
      -0.216
      -0.143
      -0.101
      -0.021
       0.182
       0.533
       0.953
       1.303
       1.461
       1.392
       1.161
       0.895
       0.708
       0.620
       0.540
       0.312
      -0.164
      -0.846
      -1.561
      -2.102
      -2.344
      -2.287
      -2.028
      -1.679
      -1.311
      -0.936
      -0.531
      -0.093
       0.319
       0.605
       0.689
       0.578
       0.369
       0.175
       0.048
      -0.030
      -0.100
      -0.162
      -0.158
      -0.018
       0.271
       0.633
       0.923
       1.018
       0.899
       0.682
       0.546
       0.615
       0.879
       1.210
       1.445
       1.483
       1.319
       1.024
       0.694
       0.407
       0.200
       0.077
       0.021
      -0.005
      -0.058
      -0.219
      -0.564
      -1.119
      -1.814
      -2.489
      -2.957
      -3.083
      -2.848
      -2.329
      -1.651
      -0.922
      -0.218
       0.394
       0.829
       1.006
       0.896
       0.568
       0.172
      -0.128
      -0.219
      -0.071
       0.273
       0.737
       1.228
       1.644
       1.868
       1.807
       1.438
       0.853
       0.242
      -0.193
      -0.327
      -0.169
       0.153
       0.459
       0.593
       0.477
       0.137
      -0.304
      -0.682
      -0.860
      -0.797
      -0.556
      -0.266
      -0.051
       0.026
      -0.013
      -0.086
      -0.106
      -0.021
       0.164
       0.390
       0.559
       0.573
       0.383
       0.038
      -0.335
      -0.601
      -0.692
      -0.633
      -0.490
      -0.321
      -0.154
      -0.015
       0.056
       0.008
      -0.183
      -0.487
      -0.818
      -1.056
      -1.101
      -0.912
      -0.526
      -0.036
       0.458
       0.883
       1.205
       1.420
       1.546
       1.607
       1.622
       1.578
       1.437
       1.167
       0.794
       0.403
       0.101
      -0.042
      -0.032
       0.057
       0.107
       0.000
      -0.335
      -0.878
      -1.507
      -2.042
      -2.315
      -2.241
      -1.842
      -1.223
      -0.517
       0.165
       0.761
       1.231
       1.524
       1.567
       1.304
       0.743
      -0.009
      -0.774
      -1.357
      -1.624
      -1.549
      -1.229
      -0.836
      -0.523
      -0.332
      -0.182
       0.063
       0.486
       1.055
       1.652
       2.153
       2.489
       2.653
       2.655
       2.479
       2.089
       1.462
       0.633
      -0.295
      -1.197
      -1.978
      -2.586
      -2.977
      -3.082
      -2.836
      -2.248
      -1.445
      -0.639
      -0.035
       0.252
       0.231
       0.016
      -0.224
      -0.320
      -0.171
       0.202
       0.651
       0.977
       1.046
       0.864
       0.570
       0.343
       0.293
       0.416
       0.615
       0.757
       0.742
       0.535
       0.195
      -0.144
      -0.338
      -0.309
      -0.092
       0.201
       0.440
       0.535
       0.442
       0.163
      -0.247
      -0.677
      -0.995
      -1.092
      -0.931
      -0.554
      -0.067
       0.403
       0.767
       1.012
       1.183
       1.313
       1.355
       1.197
       0.756
       0.077
      -0.654
      -1.193
      -1.368
      -1.175
      -0.780
      -0.427
      -0.301
      -0.421
      -0.634
      -0.738
      -0.624
      -0.339
      -0.018
       0.233
       0.404
       0.528
       0.609
       0.599
       0.470
       0.284
       0.175
       0.246
       0.472
       0.715
       0.834
       0.790
       0.648
       0.487
       0.330
       0.131
      -0.148
      -0.478
      -0.753
      -0.867
      -0.799
      -0.650
      -0.578
      -0.677
      -0.899
      -1.087
      -1.104
      -0.942
      -0.724
      -0.607
      -0.666
      -0.863
      -1.091
      -1.242
      -1.251
      -1.108
      -0.841
      -0.491
      -0.093
       0.328
       0.748
       1.136
       1.456
       1.679
       1.790
       1.787
       1.675
       1.457
       1.139
       0.731
       0.262
      -0.207
      -0.571
      -0.714
      -0.553
      -0.093
       0.553
       1.192
       1.624
       1.736
       1.559
       1.233
       0.887
       0.536
       0.091
      -0.520
      -1.236
      -1.856
      -2.163
      -2.077
      -1.719
      -1.320
      -1.060
      -0.942
      -0.821
      -0.550
      -0.118
       0.319
       0.554
       0.483
       0.175
      -0.179
      -0.397
      -0.412
      -0.287
      -0.131
       0.008
       0.175
       0.446
       0.832
       1.233
       1.509
       1.583
       1.513
       1.447
       1.503
       1.665
       1.786
       1.710
       1.408
       1.013
       0.704
       0.552
       0.449
       0.203
      -0.305
      -1.030
      -1.800
      -2.449
      -2.921
      -3.264
      -3.542
      -3.734
      -3.715
      -3.324
      -2.477
      -1.245
       0.157
       1.447
       2.405
       2.969
       3.251
       3.451
       3.719
       4.047
       4.273
       4.163
       3.548
       2.410
       0.909
      -0.678
      -2.075
      -3.106
      -3.739
      -4.042
      -4.107
      -3.999
      -3.748
      -3.374
      -2.912
      -2.418
      -1.956
      -1.571
      -1.258
      -0.968
      -0.652
      -0.313
      -0.015
       0.168
       0.223
       0.224
       0.298
       0.563
       1.070
       1.780
       2.578
       3.306
       3.821
       4.043
       3.969
       3.660
       3.200
       2.675
       2.154
       1.683
       1.290
       0.993
       0.803
       0.708
       0.638
       0.456
       0.018
      -0.736
      -1.720
      -2.733
      -3.591
      -4.248
      -4.817
      -5.461
      -6.218
      -6.913
      -7.221
      -6.853
      -5.747
      -4.101
      -2.248
      -0.440
       1.288
       3.068
       5.004
       6.985
       8.669
       9.652
       9.701
       8.894
       7.560
       6.087
       4.713
       3.451
       2.180
       0.818
      -0.592
      -1.918
      -3.028
      -3.864
      -4.425
      -4.719
      -4.705
      -4.313
      -3.526
      -2.449
      -1.304
      -0.324
       0.376
       0.859
       1.294
       1.794
       2.291
       2.557
       2.349
       1.575
       0.373
      -0.973
      -2.188
      -3.145
      -3.873
      -4.462
      -4.944
      -5.238
      -5.222
      -4.835
      -4.149
      -3.331
      -2.553
      -1.900
      -1.352
      -0.818
      -0.213
       0.495
       1.286
       2.136
       3.056
       4.073
       5.173
       6.241
       7.072
       7.439
       7.205
       6.389
       5.155
       3.749
       2.417
       1.321
       0.488
      -0.190
      -0.892
      -1.764
      -2.842
      -4.018
      -5.088
      -5.835
      -6.116
      -5.901
      -5.267
      -4.343
      -3.253
      -2.087
      -0.915
       0.184
       1.134
       1.915
       2.590
       3.270
       4.032
       4.851
       5.591
       6.061
       6.086
       5.549
       4.430
       2.829
       0.953
      -0.951
      -2.679
      -4.113
      -5.213
      -5.990
      -6.482
      -6.725
      -6.741
      -6.524
      -6.054
      -5.318
      -4.326
      -3.102
      -1.682
      -0.122
       1.481
       2.990
       4.254
       5.149
       5.623
       5.715
       5.550
       5.290
       5.063
       4.909
       4.773
       4.548
       4.153
       3.575
       2.861
       2.073
       1.245
       0.377
      -0.551
      -1.553
      -2.631
      -3.748
      -4.800
      -5.623
      -6.051
      -5.992
      -5.470
      -4.616
      -3.614
      -2.629
      -1.736
      -0.904
      -0.049
       0.870
       1.773
       2.476
       2.809
       2.743
       2.414
       2.027
       1.723
       1.500
       1.252
       0.876
       0.362
      -0.189
      -0.637
      -0.898
      -0.993
      -1.008
      -1.019
      -1.015
      -0.910
      -0.617
      -0.126
       0.496
       1.160
       1.810
       2.419
       2.925
       3.202
       3.123
       2.674
       1.981
       1.213
       0.443
      -0.405
      -1.457
      -2.723
      -4.013
      -5.037
      -5.602
      -5.718
      -5.528
      -5.114
      -4.383
      -3.131
      -1.254
       1.076
       3.430
       5.294
       6.296
       6.342
       5.598
       4.373
       2.972
       1.615
       0.413
      -0.601
      -1.440
      -2.122
      -2.644
      -2.952
      -2.947
      -2.528
      -1.677
      -0.534
       0.622
       1.476
       1.841
       1.760
       1.459
       1.202
       1.130
       1.219
       1.349
       1.414
       1.397
       1.348
       1.289
       1.141
       0.747
       0.012
      -0.950
      -1.815
      -2.238
      -2.097
      -1.562
      -0.943
      -0.468
      -0.170
       0.025
       0.131
       0.034
      -0.421
      -1.246
      -2.208
      -2.906
      -2.988
      -2.391
      -1.404
      -0.502
      -0.040
      -0.044
      -0.257
      -0.389
      -0.356
      -0.313
      -0.479
      -0.922
      -1.471
      -1.811
      -1.680
      -1.030
      -0.054
       0.947
       1.758
       2.362
       2.886
       3.431
       3.954
       4.307
       4.376
       4.179
       3.839
       3.480
       3.128
       2.715
       2.131
       1.307
       0.268
      -0.863
      -1.912
      -2.722
      -3.200
      -3.349
      -3.247
      -3.017
      -2.784
      -2.629
      -2.581
      -2.624
      -2.724
      -2.845
      -2.937
      -2.936
      -2.762
      -2.348
      -1.660
      -0.715
       0.408
       1.582
       2.670
       3.575
       4.243
       4.637
       4.694
       4.330
       3.517
       2.353
       1.079
      -0.003
      -0.660
      -0.820
      -0.576
      -0.102
       0.434
       0.896
       1.156
       1.080
       0.568
      -0.378
      -1.602
      -2.821
      -3.736
      -4.181
      -4.204
      -3.999
      -3.741
      -3.451
      -2.997
      -2.235
      -1.170
       0.008
       1.021
       1.654
       1.872
       1.824
       1.763
       1.914
       2.382
       3.131
       4.020
       4.851
       5.408
       5.511
       5.075
       4.174
       3.011
       1.820
       0.729
      -0.274
      -1.267
      -2.258
      -3.110
      -3.597
      -3.572
      -3.095
      -2.436
      -1.933
      -1.818
      -2.112
      -2.634
      -3.118
      -3.354
      -3.268
      -2.909
      -2.369
      -1.715
      -0.971
      -0.176
       0.558
       1.063
       1.194
       0.932
       0.430
      -0.042
      -0.221
       0.020
       0.617
       1.366
       2.039
       2.503
       2.728
       2.730
       2.507
       2.061
       1.451
       0.815
       0.317
       0.057
       0.031
       0.138
       0.254
       0.297
       0.250
       0.133
      -0.062
      -0.409
      -1.000
      -1.829
      -2.734
      -3.435
      -3.674
      -3.351
      -2.582
      -1.622
      -0.718
       0.005
       0.582
       1.140
       1.788
       2.530
       3.242
       3.741
       3.867
       3.551
       2.821
       1.771
       0.538
      -0.710
      -1.774
      -2.448
      -2.588
      -2.177
      -1.331
      -0.230
       0.975
       2.192
       3.325
       4.191
       4.535
       4.168
       3.120
       1.671
       0.191
      -1.068
      -2.076
      -2.945
      -3.757
      -4.454
      -4.861
      -4.802
      -4.207
      -3.136
      -1.732
      -0.166
       1.393
       2.755
       3.711
       4.081
       3.809
       3.021
       1.968
       0.883
      -0.133
      -1.109
      -2.104
      -3.097
      -3.945
