Origin Time       21/9/2009 9:43:47	  UTC
Lat.              30.9 N	
Long.             79.1 E	
Depth (Km)         13.0
Magnitude         4.7
 Region           UTTARKASHI-UTTARAKHAND                                           
 Above details taken from IMD 
    
Station Code      GHA
Station Lat.       30.434  N
Station Long.      78.656  E
Station Height(m)  360.0
Site Class        A   Vs30 between 700 m/sec to 1400 m/sec * 
Record Time       21.09.2009 09:43:54.889 UTC
Sampling Rate     200. Hz
 Record Duration   81.060 Sec.
 Direction         N-S (N positive)
Max. Acceleration     25.695 cm/sec**2
     
  * For reference see Site Classification link of website 
     
 Base Line Corrected and Low Pass Filtered (Cut Off at 35 Hz) Time History
 Acceleration data in cm/sec**2
    
[...]
      -0.092
       0.119
       0.166
       0.037
      -0.204
      -0.459
      -0.649
      -0.758
      -0.839
      -0.968
      -1.182
      -1.444
      -1.652
      -1.688
      -1.485
      -1.054
      -0.486
       0.092
       0.564
       0.876
       1.045
       1.140
       1.232
       1.347
       1.458
       1.507
       1.452
       1.297
       1.092
       0.892
       0.714
       0.509
       0.189
      -0.320
      -1.014
      -1.797
      -2.512
      -3.010
      -3.207
      -3.110
      -2.790
      -2.340
      -1.831
      -1.293
      -0.710
      -0.038
       0.763
       1.696
       2.696
       3.650
       4.421
       4.909
       5.073
       4.942
       4.585
       4.070
       3.436
       2.689
       1.831
       0.874
      -0.153
      -1.223
      -2.319
      -3.415
      -4.462
      -5.377
      -6.057
      -6.400
      -6.325
      -5.795
      -4.847
      -3.597
      -2.228
      -0.935
       0.141
       0.962
       1.586
       2.113
       2.622
       3.130
       3.592
       3.922
       4.028
       3.830
       3.291
       2.440
       1.389
       0.313
      -0.596
      -1.206
      -1.492
      -1.525
      -1.421
      -1.263
      -1.062
      -0.774
      -0.356
       0.172
       0.731
       1.222
       1.592
       1.853
       2.043
       2.169
       2.180
       1.997
       1.567
       0.905
       0.086
      -0.785
      -1.602
      -2.276
      -2.739
      -2.954
      -2.932
      -2.731
      -2.437
      -2.124
      -1.819
      -1.493
      -1.085
      -0.548
       0.117
       0.849
       1.542
       2.079
       2.362
       2.342
       2.020
       1.441
       0.673
      -0.202
      -1.078
      -1.830
      -2.332
      -2.503
      -2.342
      -1.917
      -1.323
      -0.630
       0.131
       0.938
       1.739
       2.437
       2.926
       3.141
       3.096
       2.856
       2.484
       1.989
       1.344
       0.548
      -0.317
      -1.093
      -1.623
      -1.847
      -1.823
      -1.677
      -1.503
      -1.311
      -1.051
      -0.681
      -0.240
       0.157
       0.374
       0.321
       0.002
      -0.496
      -1.049
      -1.539
      -1.893
      -2.077
      -2.086
      -1.927
      -1.608
      -1.138
      -0.526
       0.211
       1.032
       1.870
       2.643
       3.283
       3.763
       4.085
       4.249
       4.219
       3.924
       3.290
       2.298
       1.019
      -0.381
      -1.695
      -2.739
      -3.416
      -3.730
      -3.754
      -3.578
      -3.268
      -2.854
      -2.358
      -1.828
      -1.337
      -0.954
      -0.705
      -0.563
      -0.468
      -0.351
      -0.152
       0.175
       0.648
       1.237
       1.850
       2.357
       2.645
       2.680
       2.525
       2.286
       2.045
       1.804
       1.502
       1.084
       0.555
      -0.009
      -0.507
      -0.872
      -1.105
      -1.260
      -1.394
      -1.528
      -1.631
      -1.648
      -1.551
      -1.362
      -1.154
      -1.004
      -0.957
      -0.996
      -1.049
      -1.026
      -0.865
      -0.570
      -0.220
       0.074
       0.226
       0.238
       0.192
       0.199
       0.324
       0.554
       0.827
       1.088
       1.320
       1.533
       1.722
       1.842
       1.838
       1.698
       1.493
       1.341
       1.334
       1.463
       1.616
       1.648
       1.469
       1.086
       0.583
       0.054
      -0.451
      -0.936
      -1.439
      -1.989
      -2.571
      -3.127
      -3.578
      -3.858
      -3.937
      -3.823
      -3.550
      -3.164
      -2.704
      -2.181
      -1.575
      -0.846
       0.028
       1.015
       2.018
       2.909
       3.581
       3.982
       4.118
       4.026
       3.737
       3.273
       2.656
       1.925
       1.137
       0.354
      -0.377
      -1.019
      -1.533
      -1.878
      -2.019
      -1.951
      -1.705
      -1.339
      -0.897
      -0.403
       0.127
       0.658
       1.130
       1.490
       1.719
       1.835
       1.864
       1.801
       1.604
       1.222
       0.636
      -0.112
      -0.932
      -1.709
      -2.345
      -2.779
      -3.005
      -3.057
      -2.990
      -2.852
      -2.658
      -2.397
      -2.045
      -1.595
      -1.070
      -0.515
       0.026
       0.530
       1.005
       1.470
       1.937
       2.389
       2.783
       3.071
       3.232
       3.280
       3.250
       3.167
       3.018
       2.766
       2.376
       1.847
       1.220
       0.551
      -0.122
      -0.790
      -1.449
      -2.067
      -2.577
      -2.903
      -3.004
      -2.900
      -2.661
      -2.363
      -2.062
      -1.780
      -1.507
      -1.206
      -0.821
      -0.318
       0.278
       0.868
       1.314
       1.519
       1.474
       1.257
       0.983
       0.726
       0.494
       0.254
      -0.007
      -0.246
      -0.385
      -0.366
      -0.205
       0.018
       0.215
       0.347
       0.447
       0.567
       0.710
       0.798
       0.703
       0.341
      -0.248
      -0.905
      -1.427
      -1.680
      -1.647
      -1.406
      -1.053
      -0.648
      -0.207
       0.270
       0.765
       1.242
       1.646
       1.926
       2.052
       2.019
       1.848
       1.562
       1.163
       0.633
      -0.042
      -0.837
      -1.675
      -2.450
      -3.064
      -3.443
      -3.527
      -3.264
      -2.632
      -1.675
      -0.526
       0.620
       1.576
       2.235
       2.597
       2.746
       2.789
       2.801
       2.799
       2.753
       2.620
       2.371
       2.006
       1.564
       1.099
       0.658
       0.248
      -0.173
      -0.656
      -1.223
      -1.830
      -2.381
      -2.778
      -2.977
      -3.002
      -2.922
      -2.804
      -2.668
      -2.491
      -2.229
      -1.856
      -1.394
      -0.908
      -0.474
      -0.147
       0.072
       0.232
       0.403
       0.629
       0.906
       1.184
       1.396
       1.485
       1.429
       1.256
       1.038
       0.867
       0.813
       0.883
       1.016
       1.119
       1.131
       1.060
       0.976
       0.963
       1.069
       1.276
       1.507
       1.654
       1.614
       1.328
       0.808
       0.149
      -0.506
      -1.030
      -1.372
      -1.581
      -1.769
      -2.029
      -2.369
      -2.701
      -2.889
      -2.830
      -2.496
      -1.933
      -1.220
      -0.441
       0.327
       1.009
       1.545
       1.916
       2.147
       2.289
       2.369
       2.360
       2.192
       1.800
       1.179
       0.412
      -0.351
      -0.954
      -1.300
      -1.391
      -1.314
      -1.183
      -1.072
      -0.979
      -0.853
      -0.641
      -0.338
      -0.003
       0.274
       0.418
       0.404
       0.273
       0.113
       0.022
       0.062
       0.221
       0.418
       0.550
       0.567
       0.514
       0.516
       0.694
       1.085
       1.599
       2.055
       2.269
       2.136
       1.676
       1.006
       0.278
      -0.389
      -0.942
      -1.394
      -1.792
      -2.187
      -2.602
      -3.010
      -3.337
      -3.489
      -3.396
      -3.061
      -2.561
      -2.016
      -1.509
      -1.036
      -0.510
       0.172
       1.035
       1.988
       2.869
       3.527
       3.890
       3.975
       3.841
       3.552
       3.156
       2.688
       2.170
       1.609
       0.999
       0.332
      -0.391
      -1.153
      -1.913
      -2.598
      -3.117
      -3.398
      -3.429
      -3.269
      -3.009
      -2.721
      -2.425
      -2.092
      -1.668
      -1.113
      -0.425
       0.342
       1.089
       1.705
       2.119
       2.332
       2.409
       2.430
       2.436
       2.408
       2.292
       2.052
       1.691
       1.242
       0.734
       0.183
      -0.398
      -0.972
      -1.471
      -1.831
      -2.022
      -2.069
      -2.033
      -1.970
      -1.897
      -1.778
      -1.552
      -1.174
      -0.660
      -0.080
       0.483
       0.981
       1.421
       1.832
       2.217
       2.532
       2.712
       2.718
       2.559
       2.264
       1.844
       1.294
       0.621
      -0.103
      -0.748
      -1.184
      -1.352
      -1.309
      -1.196
      -1.161
      -1.290
      -1.581
      -1.945
      -2.255
      -2.392
      -2.305
      -2.039
      -1.715
      -1.456
      -1.307
      -1.202
      -1.012
      -0.633
      -0.051
       0.660
       1.394
       2.067
       2.638
       3.081
       3.361
       3.422
       3.217
       2.734
       2.006
       1.099
       0.103
      -0.887
      -1.769
      -2.447
      -2.836
      -2.877
      -2.556
      -1.921
      -1.082
      -0.186
       0.634
       1.303
       1.816
       2.200
       2.466
       2.592
       2.537
       2.290
       1.882
       1.372
       0.818
       0.253
      -0.305
      -0.834
      -1.310
      -1.724
      -2.099
      -2.469
      -2.838
      -3.141
      -3.255
      -3.070
      -2.567
      -1.849
      -1.089
      -0.437
       0.059
       0.449
       0.819
       1.221
       1.650
       2.060
       2.412
       2.675
       2.812
       2.764
       2.463
       1.888
       1.098
       0.235
      -0.531
      -1.064
      -1.305
      -1.285
      -1.097
      -0.855
      -0.647
      -0.502
      -0.395
      -0.275
      -0.119
       0.040
       0.113
       0.003
      -0.326
      -0.807
      -1.275
      -1.546
      -1.502
      -1.151
      -0.616
      -0.068
       0.358
       0.604
       0.697
       0.714
       0.728
       0.760
       0.762
       0.641
       0.330
      -0.151
      -0.681
      -1.085
      -1.224
      -1.059
      -0.675
      -0.236
       0.095
       0.229
       0.188
       0.091
       0.093
       0.304
       0.728
       1.255
       1.711
       1.942
       1.876
       1.541
       1.034
       0.474
      -0.030
      -0.393
      -0.555
      -0.498
      -0.249
       0.124
       0.531
       0.893
       1.156
       1.289
       1.279
       1.117
       0.809
       0.373
      -0.159
      -0.753
      -1.375
      -1.990
      -2.548
      -2.984
      -3.237
      -3.265
      -3.059
      -2.640
      -2.070
      -1.450
      -0.898
      -0.499
      -0.234
       0.027
       0.451
       1.135
       2.028
       2.953
       3.700
       4.125
       4.188
       3.930
       3.420
       2.723
       1.902
       1.029
       0.171
      -0.629
      -1.375
      -2.101
      -2.830
      -3.542
      -4.165
      -4.609
      -4.789
      -4.642
      -4.126
      -3.217
      -1.927
      -0.349
       1.324
       2.819
       3.882
       4.387
       4.382
       4.047
       3.585
       3.137
       2.760
       2.459
       2.214
       1.967
       1.613
       1.033
       0.165
      -0.933
      -2.093
      -3.115
      -3.875
      -4.361
      -4.636
      -4.734
      -4.608
      -4.150
      -3.289
      -2.077
      -0.689
       0.651
       1.770
       2.596
       3.137
       3.415
       3.429
       3.169
       2.656
       1.973
       1.246
       0.581
       0.035
      -0.368
      -0.581
      -0.501
      -0.001
       0.969
       2.292
       3.683
       4.796
       5.373
       5.355
       4.863
       4.092
       3.184
       2.181
       1.065
      -0.163
      -1.439
      -2.659
      -3.726
      -4.590
      -5.253
      -5.743
      -6.088
      -6.291
      -6.324
      -6.141
      -5.692
      -4.964
      -4.004
      -2.926
      -1.876
      -0.956
      -0.175
       0.542
       1.272
       1.999
       2.606
       2.943
       2.934
       2.623
       2.139
       1.611
       1.106
       0.631
       0.186
      -0.203
      -0.481
      -0.605
      -0.561
      -0.359
      -0.019
       0.433
       0.944
       1.422
       1.764
       1.913
       1.896
       1.809
       1.750
       1.764
       1.815
       1.831
       1.750
       1.562
       1.294
       0.976
       0.612
       0.185
      -0.312
      -0.847
      -1.362
      -1.825
      -2.271
      -2.792
      -3.472
      -4.303
      -5.153
      -5.821
      -6.131
      -6.014
      -5.524
      -4.781
      -3.895
      -2.923
      -1.874
      -0.744
       0.451
       1.668
       2.848
       3.944
       4.942
       5.867
       6.753
       7.601
       8.355
       8.918
       9.207
       9.202
       8.970
       8.616
       8.203
       7.687
       6.914
       5.709
       4.001
       1.899
      -0.356
      -2.515
      -4.449
      -6.165
      -7.739
      -9.221
     -10.592
     -11.781
     -12.706
     -13.299
     -13.499
     -13.242
     -12.451
     -11.061
      -9.071
      -6.590
      -3.829
      -1.046
       1.533
       3.767
       5.591
       6.996
       8.013
       8.720
       9.235
       9.688
      10.161
      10.650
      11.058
      11.249
      11.115
      10.619
       9.801
       8.745
       7.535
       6.216
       4.780
       3.174
       1.335
      -0.769
      -3.106
      -5.576
      -8.038
     -10.354
     -12.442
     -14.280
     -15.884
     -17.250
     -18.316
     -18.964
     -19.068
     -18.535
     -17.334
     -15.484
     -13.031
     -10.021
      -6.502
      -2.533
       1.788
       6.312
      10.830
      15.088
      18.825
      21.831
      23.992
      25.278
      25.695
      25.229
      23.846
      21.540
      18.398
      14.602
      10.377
       5.940
       1.477
      -2.819
      -6.735
     -10.060
     -12.646
     -14.454
     -15.551
     -16.065
     -16.124
     -15.830
     -15.240
     -14.381
     -13.266
     -11.923
     -10.405
      -8.782
      -7.117
      -5.442
      -3.752
      -2.019
      -0.214
       1.676
       3.613
       5.497
       7.177
       8.514
       9.438
       9.965
      10.147
      10.024
       9.626
       9.009
       8.303
       7.669
       7.212
       6.900
       6.558
       5.953
       4.896
       3.328
       1.342
      -0.860
      -3.063
      -5.118
      -6.979
      -8.655
     -10.146
     -11.396
     -12.289
     -12.670
     -12.386
     -11.318
      -9.427
      -6.785
      -3.573
      -0.044
       3.532
       6.918
       9.940
      12.486
      14.477
      15.814
      16.334
      15.841
      14.217
      11.546
       8.161
       4.541
       1.142
      -1.763
      -4.124
      -6.052
      -7.696
      -9.147
     -10.403
     -11.397
     -12.060
     -12.367
     -12.339
     -12.025
     -11.486
     -10.786
      -9.983
      -9.104
      -8.125
      -6.975
      -5.583
      -3.910
      -1.960
       0.225
       2.558
       4.887
       7.002
       8.689
       9.791
      10.265
      10.180
       9.692
       8.990
       8.236
       7.526
       6.879
       6.279
       5.729
       5.273
       4.973
       4.858
       4.901
       5.021
       5.110
       5.064
       4.804
       4.288
       3.498
       2.408
       0.950
      -0.959
      -3.359
      -6.172
      -9.193
     -12.141
     -14.734
     -16.736
     -17.968
     -18.302
     -17.671
     -16.104
     -13.752
     -10.864
      -7.720
      -4.538
      -1.431
       1.567
       4.440
       7.137
       9.558
      11.569
      13.036
      13.885
      14.149
      13.988
      13.612
      13.157
      12.599
      11.781
      10.551
       8.898
       6.969
       4.980
       3.085
       1.320
      -0.364
      -2.032
      -3.724
      -5.453
      -7.205
      -8.929
     -10.507
     -11.762
     -12.516
     -12.657
     -12.184
     -11.198
      -9.853
      -8.302
      -6.648
      -4.918
      -3.085
      -1.115
       0.964
       3.035
       4.925
       6.477
       7.624
       8.393
       8.847
       9.003
       8.808
       8.181
       7.086
       5.570
       3.749
       1.762
      -0.251
      -2.145
      -3.787
      -5.081
      -6.008
      -6.616
      -6.957
      -7.011
      -6.654
      -5.706
      -4.045
      -1.717
       1.021
       3.772
       6.134
       7.830
       8.741
       8.866
       8.249
       6.951
       5.055
       2.682
       0.016
      -2.701
      -5.186
      -7.172
      -8.489
      -9.132
      -9.249
      -9.065
      -8.750
      -8.324
      -7.639
      -6.463
      -4.631
      -2.199
       0.520
       3.069
       5.053
       6.312
       6.934
       7.131
       7.067
       6.778
       6.217
       5.371
       4.336
       3.286
       2.386
       1.730
       1.336
       1.172
       1.177
       1.269
       1.351
       1.351
       1.272
       1.204
       1.277
       1.564
       2.007
       2.424
       2.602
       2.421
       1.919
       1.254
       0.592
       0.003
      -0.564
      -1.209
      -1.968
      -2.752
      -3.385
      -3.740
      -3.858
      -3.967
      -4.348
      -5.150
      -6.267
      -7.375
      -8.104
      -8.223
      -7.727
      -6.774
      -5.536
      -4.087
      -2.399
      -0.458
       1.621
       3.595
       5.203
       6.305
       6.945
       7.285
       7.495
       7.664
       7.784
       7.789
       7.591
       7.099
       6.228
       4.947
       3.323
       1.539
      -0.167
      -1.606
      -2.710
      -3.529
      -4.161
      -4.681
      -5.127
      -5.522
      -5.888
      -6.229
      -6.487
      -6.530
      -6.198
      -5.396
      -4.180
      -2.752
      -1.375
      -0.238
       0.621
       1.292
       1.901
       2.520
       3.132
       3.678
       4.119
       4.461
       4.734
       4.946
       5.071
       5.077
       4.963
       4.765
       4.516
       4.192
       3.725
       3.065
       2.255
       1.426
       0.710
       0.138
      -0.393
      -1.056
      -1.977
      -3.157
      -4.473
      -5.737
      -6.766
      -7.417
      -7.610
      -7.338
      -6.681
      -5.799
      -4.882
      -4.064
      -3.368
      -2.734
      -2.117
      -1.575
      -1.252
      -1.268
      -1.600
      -2.056
      -2.360
      -2.279
      -1.710
      -0.684
       0.700
       2.334
       4.144
       6.083
       8.089
      10.059
      11.849
      13.302
      14.257
      14.544
      13.978
      12.416
       9.848
       6.475
       2.705
      -0.953
      -4.046
      -6.314
      -7.740
      -8.510
      -8.898
      -9.152
      -9.397
      -9.606
      -9.647
      -9.386
      -8.785
      -7.928
      -6.965
      -6.018
      -5.130
      -4.274
      -3.402
      -2.493
      -1.555
      -0.599
       0.380
       1.404
       2.489
       3.615
       4.711
       5.671
       6.375
       6.733
       6.700
       6.270
       5.467
       4.357
       3.066
       1.780
       0.699
      -0.045
      -0.439
      -0.589
      -0.642
      -0.708
      -0.796
      -0.823
      -0.669
      -0.247
       0.456
       1.371
       2.365
       3.278
       3.954
       4.268
       4.159
       3.638
       2.784
       1.723
       0.594
      -0.480
      -1.423
      -2.218
      -2.900
      -3.517
      -4.091
      -4.603
      -5.013
      -5.299
      -5.463
      -5.505
      -5.378
