Origin Time       21/9/2009 9:43:47	 
Lat.              30.9 N	
Long.             79.1 E	
Depth (Km)         13.0
Magnitude         4.7
 Region           UTTARKASHI-UTTARAKHAND                                           
 Above details taken from IMD 
     
Station Code      GHA
Station Lat.       30.434  N
Station Long.      78.656  E
Station Height(m)  360.0
Site Class        A   Vs30 between 700 m/sec to 1400 m/sec * 
Record Time       21.09.2009 09:43:54.889
Sampling Rate     200. Hz
 Record Duration   81.060 Sec.
 Direction         E-W (E positive)
Max. Acceleration    -13.733 cm/sec**2
     
  * For reference see Site Classification link of website 
     
 Base Line Corrected and Low Pass Filtered (Cut Off at 35 Hz) Time History
 Acceleration data in cm/sec**2
    
[...]
      -0.878
      -0.928
      -0.882
      -0.800
      -0.733
      -0.711
      -0.751
      -0.851
      -0.976
      -1.056
      -1.006
      -0.766
      -0.338
       0.206
       0.745
       1.162
       1.384
       1.412
       1.314
       1.191
       1.123
       1.130
       1.169
       1.170
       1.088
       0.929
       0.741
       0.559
       0.358
       0.055
      -0.422
      -1.066
      -1.770
      -2.384
      -2.796
      -2.988
      -3.011
      -2.938
      -2.806
      -2.605
      -2.305
      -1.888
      -1.376
      -0.815
      -0.251
       0.292
       0.817
       1.326
       1.800
       2.198
       2.483
       2.649
       2.719
       2.722
       2.659
       2.507
       2.233
       1.826
       1.311
       0.741
       0.182
      -0.299
      -0.655
      -0.871
      -0.981
      -1.055
      -1.165
      -1.339
      -1.530
      -1.637
      -1.575
      -1.355
      -1.102
      -0.991
      -1.114
      -1.406
      -1.663
      -1.670
      -1.322
      -0.679
       0.084
       0.786
       1.323
       1.696
       1.980
       2.260
       2.570
       2.862
       3.036
       2.994
       2.709
       2.237
       1.673
       1.087
       0.479
      -0.192
      -0.957
      -1.787
      -2.581
      -3.199
      -3.508
      -3.431
      -2.981
      -2.266
      -1.453
      -0.706
      -0.128
       0.264
       0.524
       0.719
       0.890
       1.041
       1.160
       1.239
       1.281
       1.275
       1.190
       0.993
       0.690
       0.349
       0.067
      -0.089
      -0.140
      -0.182
      -0.321
      -0.598
      -0.960
      -1.289
      -1.470
      -1.447
      -1.233
      -0.880
      -0.447
       0.030
       0.532
       1.044
       1.531
       1.931
       2.166
       2.167
       1.896
       1.373
       0.685
      -0.032
      -0.636
      -1.036
      -1.224
      -1.256
      -1.213
      -1.150
      -1.086
      -1.011
      -0.908
      -0.769
      -0.603
      -0.437
      -0.306
      -0.232
      -0.215
      -0.228
      -0.239
      -0.226
      -0.190
      -0.154
      -0.142
      -0.174
      -0.247
      -0.324
      -0.337
      -0.215
       0.072
       0.480
       0.897
       1.188
       1.262
       1.109
       0.793
       0.426
       0.130
       0.000
       0.076
       0.318
       0.627
       0.894
       1.060
       1.131
       1.157
       1.176
       1.187
       1.144
       0.997
       0.720
       0.337
      -0.088
      -0.477
      -0.769
      -0.950
      -1.051
      -1.130
      -1.247
      -1.438
      -1.715
      -2.051
      -2.373
      -2.572
      -2.536
      -2.197
      -1.575
      -0.782
       0.013
       0.652
       1.057
       1.253
       1.339
       1.406
       1.473
       1.479
       1.337
       1.006
       0.522
      -0.017
      -0.499
      -0.847
      -1.037
      -1.087
      -1.028
      -0.879
      -0.639
      -0.303
       0.109
       0.538
       0.906
       1.156
       1.284
       1.338
       1.385
       1.468
       1.571
       1.624
       1.544
       1.290
       0.907
       0.514
       0.246
       0.172
       0.252
       0.368
       0.402
       0.297
       0.069
      -0.238
      -0.598
      -1.001
      -1.427
      -1.813
      -2.077
      -2.152
      -2.026
      -1.737
      -1.338
      -0.872
      -0.369
       0.121
       0.516
       0.718
       0.678
       0.450
       0.188
       0.068
       0.183
       0.480
       0.795
       0.957
       0.892
       0.654
       0.365
       0.138
       0.021
      -0.008
      -0.012
      -0.057
      -0.177
      -0.365
      -0.573
      -0.733
      -0.789
      -0.711
      -0.503
      -0.195
       0.162
       0.504
       0.770
       0.918
       0.943
       0.868
       0.731
       0.563
       0.372
       0.142
      -0.153
      -0.526
      -0.948
      -1.341
      -1.614
      -1.705
      -1.612
      -1.385
      -1.090
      -0.785
      -0.509
      -0.272
      -0.053
       0.191
       0.499
       0.856
       1.183
       1.371
       1.353
       1.152
       0.872
       0.635
       0.517
       0.530
       0.652
       0.866
       1.177
       1.572
       1.972
       2.219
       2.143
       1.659
       0.840
      -0.108
      -0.949
      -1.530
      -1.833
      -1.938
      -1.945
      -1.912
      -1.846
      -1.740
      -1.590
      -1.404
      -1.180
      -0.904
      -0.574
      -0.225
       0.063
       0.201
       0.141
      -0.087
      -0.381
      -0.612
      -0.684
      -0.566
      -0.300
       0.030
       0.344
       0.601
       0.816
       1.033
       1.281
       1.543
       1.746
       1.805
       1.668
       1.357
       0.951
       0.537
       0.166
      -0.158
      -0.434
      -0.633
      -0.701
      -0.611
      -0.405
      -0.192
      -0.095
      -0.180
      -0.415
      -0.686
      -0.854
      -0.827
      -0.597
      -0.239
       0.149
       0.493
       0.770
       0.984
       1.129
       1.175
       1.093
       0.879
       0.562
       0.176
      -0.273
      -0.794
      -1.363
      -1.895
      -2.262
      -2.364
      -2.168
      -1.708
      -1.053
      -0.284
       0.502
       1.189
       1.663
       1.847
       1.721
       1.334
       0.792
       0.231
      -0.226
      -0.516
      -0.653
      -0.697
      -0.691
      -0.637
      -0.514
      -0.315
      -0.063
       0.213
       0.496
       0.770
       0.999
       1.118
       1.074
       0.864
       0.564
       0.298
       0.173
       0.223
       0.385
       0.530
       0.529
       0.331
      -0.006
      -0.365
      -0.647
      -0.838
      -0.994
      -1.161
      -1.318
      -1.375
      -1.247
      -0.923
      -0.470
       0.018
       0.476
       0.882
       1.237
       1.530
       1.741
       1.858
       1.894
       1.888
       1.877
       1.861
       1.803
       1.639
       1.324
       0.840
       0.198
      -0.577
      -1.436
      -2.289
      -3.014
      -3.500
      -3.693
      -3.618
      -3.345
      -2.943
      -2.459
      -1.920
      -1.346
      -0.745
      -0.113
       0.571
       1.315
       2.086
       2.802
       3.362
       3.689
       3.766
       3.631
       3.346
       2.965
       2.526
       2.070
       1.644
       1.293
       1.025
       0.788
       0.499
       0.085
      -0.474
      -1.138
      -1.835
      -2.488
      -3.028
      -3.391
      -3.517
      -3.380
      -3.010
      -2.506
      -2.001
      -1.611
      -1.401
      -1.377
      -1.506
      -1.745
      -2.069
      -2.476
      -2.960
      -3.477
      -3.925
      -4.166
      -4.082
      -3.628
      -2.852
      -1.869
      -0.801
       0.287
       1.395
       2.547
       3.733
       4.873
       5.844
       6.533
       6.884
       6.903
       6.637
       6.133
       5.430
       4.575
       3.650
       2.773
       2.067
       1.599
       1.338
       1.165
       0.942
       0.594
       0.144
      -0.316
      -0.702
      -0.992
      -1.228
      -1.459
      -1.697
      -1.899
      -2.010
      -2.011
      -1.955
      -1.939
      -2.053
      -2.331
      -2.746
      -3.247
      -3.799
      -4.384
      -4.970
      -5.480
      -5.796
      -5.800
      -5.436
      -4.738
      -3.829
      -2.866
      -1.977
      -1.212
      -0.544
       0.080
       0.669
       1.163
       1.466
       1.536
       1.437
       1.343
       1.458
       1.919
       2.744
       3.835
       5.055
       6.286
       7.450
       8.485
       9.312
       9.827
       9.938
       9.611
       8.883
       7.847
       6.607
       5.237
       3.760
       2.166
       0.445
      -1.361
      -3.146
      -4.775
      -6.138
      -7.200
      -8.005
      -8.624
      -9.091
      -9.367
      -9.359
      -8.986
      -8.242
      -7.228
      -6.123
      -5.110
      -4.297
      -3.666
      -3.090
      -2.416
      -1.558
      -0.562
       0.418
       1.191
       1.625
       1.705
       1.516
       1.184
       0.802
       0.399
      -0.047
      -0.543
      -1.020
      -1.332
      -1.323
      -0.921
      -0.199
       0.659
       1.464
       2.124
       2.668
       3.192
       3.752
       4.305
       4.739
       4.957
       4.960
       4.858
       4.809
       4.916
       5.166
       5.433
       5.569
       5.486
       5.186
       4.721
       4.142
       3.467
       2.703
       1.865
       0.980
       0.057
      -0.924
      -1.999
      -3.181
      -4.425
      -5.634
      -6.689
      -7.489
      -7.981
      -8.180
      -8.145
      -7.936
      -7.562
      -6.967
      -6.061
      -4.795
      -3.221
      -1.502
       0.143
       1.524
       2.541
       3.199
       3.561
       3.703
       3.691
       3.593
       3.484
       3.425
       3.436
       3.501
       3.589
       3.667
       3.706
       3.666
       3.506
       3.203
       2.769
       2.243
       1.673
       1.112
       0.604
       0.175
      -0.193
      -0.571
      -1.060
      -1.725
      -2.532
      -3.314
      -3.823
      -3.847
      -3.317
      -2.347
      -1.171
      -0.034
       0.904
       1.597
       2.090
       2.472
       2.824
       3.182
       3.518
       3.752
       3.788
       3.552
       3.011
       2.177
       1.096
      -0.165
      -1.528
      -2.919
      -4.266
      -5.475
      -6.439
      -7.060
      -7.300
      -7.201
      -6.869
      -6.415
      -5.903
      -5.331
      -4.659
      -3.873
      -3.026
      -2.223
      -1.548
      -0.994
      -0.448
       0.238
       1.148
       2.234
       3.331
       4.240
       4.832
       5.094
       5.122
       5.057
       5.018
       5.060
       5.175
       5.318
       5.447
       5.551
       5.640
       5.723
       5.787
       5.800
       5.731
       5.544
       5.173
       4.492
       3.355
       1.674
      -0.493
      -2.940
      -5.396
      -7.642
      -9.572
     -11.156
     -12.360
     -13.098
     -13.263
     -12.794
     -11.727
     -10.192
      -8.356
      -6.363
      -4.299
      -2.189
      -0.043
       2.096
       4.139
       5.963
       7.466
       8.593
       9.337
       9.718
       9.767
       9.531
       9.074
       8.471
       7.797
       7.109
       6.435
       5.767
       5.066
       4.287
       3.426
       2.536
       1.683
       0.887
       0.075
      -0.896
      -2.178
      -3.852
      -5.884
      -8.104
     -10.237
     -11.959
     -12.982
     -13.150
     -12.490
     -11.191
      -9.495
      -7.588
      -5.546
      -3.386
      -1.151
       1.041
       3.030
       4.678
       5.936
       6.841
       7.472
       7.897
       8.143
       8.192
       8.005
       7.542
       6.789
       5.779
       4.579
       3.278
       1.962
       0.701
      -0.469
      -1.572
      -2.683
      -3.874
      -5.135
      -6.335
      -7.266
      -7.745
      -7.703
      -7.201
      -6.385
      -5.406
      -4.367
      -3.300
      -2.194
      -1.036
       0.150
       1.298
       2.335
       3.230
       4.005
       4.706
       5.357
       5.952
       6.481
       6.961
       7.415
       7.816
       8.053
       7.965
       7.452
       6.556
       5.447
       4.314
       3.245
       2.198
       1.078
      -0.152
      -1.420
      -2.595
      -3.578
      -4.352
      -4.954
      -5.413
      -5.727
      -5.897
      -5.972
      -6.046
      -6.200
      -6.442
      -6.692
      -6.815
      -6.695
      -6.308
      -5.740
      -5.141
      -4.627
      -4.199
      -3.738
      -3.087
      -2.166
      -1.033
       0.145
       1.190
       2.018
       2.665
       3.233
       3.813
       4.439
       5.086
       5.705
       6.243
       6.641
       6.824
       6.711
       6.260
       5.509
       4.579
       3.636
       2.829
       2.244
       1.890
       1.715
       1.636
       1.553
       1.358
       0.942
       0.239
      -0.734
      -1.872
      -3.025
      -4.073
      -4.980
      -5.775
      -6.492
      -7.116
      -7.580
      -7.814
      -7.794
      -7.544
      -7.093
      -6.437
      -5.527
      -4.300
      -2.723
      -0.828
       1.259
       3.345
       5.220
       6.734
       7.844
       8.621
       9.199
       9.697
      10.142
      10.436
      10.401
       9.864
       8.746
       7.100
       5.087
       2.929
       0.858
      -0.925
      -2.291
      -3.235
      -3.880
      -4.434
      -5.081
      -5.878
      -6.717
      -7.376
      -7.637
      -7.393
      -6.694
      -5.707
      -4.628
      -3.593
      -2.638
      -1.721
      -0.790
       0.145
       1.001
       1.665
       2.054
       2.147
       1.968
       1.547
       0.912
       0.097
      -0.830
      -1.762
      -2.572
      -3.162
      -3.494
      -3.592
      -3.485
      -3.160
      -2.553
      -1.607
      -0.355
       1.038
       2.311
       3.231
       3.709
       3.838
       3.822
       3.838
       3.935
       4.045
       4.082
       4.046
       4.047
       4.235
       4.684
       5.328
       5.969
       6.363
       6.310
       5.719
       4.610
       3.074
       1.210
      -0.915
      -3.260
      -5.751
      -8.240
     -10.496
     -12.269
     -13.374
     -13.733
     -13.361
     -12.329
     -10.744
      -8.755
      -6.538
      -4.267
      -2.053
       0.068
       2.117
       4.120
       6.069
       7.909
       9.548
      10.884
      11.816
      12.260
      12.145
      11.425
      10.093
       8.185
       5.795
       3.069
       0.215
      -2.518
      -4.864
      -6.590
      -7.549
      -7.717
      -7.199
      -6.195
      -4.932
      -3.581
      -2.218
      -0.846
       0.513
       1.743
       2.635
       2.978
       2.688
       1.886
       0.850
      -0.107
      -0.765
      -1.056
      -1.038
      -0.815
      -0.473
      -0.052
       0.441
       0.999
       1.590
       2.168
       2.687
       3.111
       3.405
       3.515
       3.372
       2.926
       2.190
       1.252
       0.254
      -0.667
      -1.431
      -2.025
      -2.473
      -2.790
      -2.972
      -3.007
      -2.902
      -2.690
      -2.411
      -2.112
      -1.847
      -1.677
      -1.657
      -1.786
      -1.988
      -2.135
      -2.121
      -1.923
      -1.614
      -1.308
      -1.097
      -1.010
      -1.021
      -1.074
      -1.107
      -1.069
      -0.917
      -0.616
      -0.150
       0.475
       1.216
       1.998
       2.721
       3.288
       3.625
       3.706
       3.566
       3.301
       3.045
       2.909
       2.919
       2.975
       2.895
       2.506
       1.728
       0.600
      -0.735
      -2.062
      -3.138
      -3.745
      -3.760
      -3.215
      -2.308
      -1.340
      -0.602
      -0.262
      -0.316
      -0.616
      -0.946
      -1.105
      -0.976
      -0.541
       0.139
       0.957
       1.791
       2.514
       3.013
       3.224
       3.169
       2.934
       2.596
       2.165
       1.582
       0.803
      -0.127
      -1.074
      -1.896
      -2.521
      -2.974
      -3.339
      -3.693
      -4.056
      -4.384
      -4.576
      -4.512
      -4.091
      -3.276
      -2.127
      -0.798
       0.499
       1.536
       2.130
       2.190
       1.750
       0.948
      -0.018
      -0.951
      -1.691
      -2.136
      -2.250
      -2.063
      -1.644
      -1.054
      -0.312
       0.601
       1.693
       2.928
       4.209
       5.395
       6.331
       6.893
       7.036
       6.821
       6.398
       5.925
       5.470
       4.978
       4.327
       3.432
       2.326
       1.140
       0.017
      -0.967
      -1.824
      -2.604
      -3.340
      -4.028
      -4.640
      -5.148
      -5.530
      -5.771
      -5.866
      -5.823
      -5.662
      -5.404
      -5.067
      -4.674
      -4.260
      -3.881
      -3.593
      -3.418
      -3.316
      -3.185
      -2.906
      -2.403
      -1.695
      -0.878
      -0.065
       0.694
       1.448
       2.310
       3.371
       4.617
       5.903
       7.007
       7.719
       7.926
       7.633
       6.938
       5.968
       4.845
       3.670
       2.529
       1.509
       0.697
       0.162
      -0.089
      -0.147
      -0.186
      -0.388
      -0.845
      -1.522
      -2.310
      -3.107
      -3.863
      -4.542
      -5.085
      -5.392
      -5.371
      -4.981
      -4.265
      -3.340
      -2.361
      -1.475
      -0.794
      -0.378
      -0.228
      -0.292
      -0.451
      -0.544
      -0.402
       0.077
       0.869
       1.829
       2.753
       3.471
       3.903
       4.054
       3.987
       3.790
       3.557
       3.369
       3.269
       3.242
       3.228
       3.141
       2.903
       2.451
       1.749
       0.815
      -0.247
      -1.263
      -2.051
      -2.515
      -2.700
      -2.769
      -2.900
      -3.183
      -3.579
      -3.950
      -4.151
      -4.094
      -3.784
      -3.303
      -2.772
      -2.286
      -1.859
      -1.400
      -0.751
       0.218
       1.516
       2.986
       4.355
       5.341
       5.779
       5.677
       5.196
       4.548
       3.886
       3.258
       2.643
       2.023
       1.441
       0.997
       0.782
       0.814
       0.997
       1.150
       1.077
       0.652
      -0.139
      -1.195
      -2.356
      -3.454
      -4.368
      -5.034
      -5.442
      -5.603
      -5.543
      -5.300
      -4.940
      -4.540
      -4.156
      -3.791
      -3.380
      -2.823
      -2.034
      -0.999
       0.192
       1.354
       2.262
       2.729
       2.674
       2.162
       1.385
       0.616
       0.136
       0.161
       0.781
       1.943
       3.453
       5.019
       6.324
       7.108
       7.253
       6.809
       5.945
       4.859
       3.686
       2.460
       1.148
      -0.275
      -1.765
      -3.201
      -4.433
      -5.352
      -5.935
      -6.242
      -6.366
      -6.373
      -6.270
      -6.034
      -5.666
      -5.221
      -4.792
      -4.453
      -4.211
      -3.991
      -3.661
      -3.078
      -2.147
      -0.868
       0.657
       2.245
       3.710
       4.927
       5.862
       6.541
       7.012
       7.305
       7.423
       7.362
       7.112
       6.663
       6.009
       5.159
       4.146
       3.001
       1.734
       0.330
      -1.212
      -2.833
      -4.407
      -5.772
      -6.777
      -7.314
      -7.323
      -6.780
      -5.717
      -4.229
      -2.477
      -0.659
       1.032
       2.445
       3.489
       4.132
       4.394
       4.343
       4.084
       3.735
       3.383
       3.039
       2.628
       2.047
       1.252
       0.312
      -0.620
      -1.400
      -1.973
      -2.384
      -2.709
      -2.982
      -3.166
      -3.182
      -2.972
      -2.542
      -1.971
      -1.373
      -0.850
      -0.455
      -0.168
       0.091
       0.426
       0.903
       1.498
       2.090
       2.517
       2.658
       2.488
       2.086
       1.578
