Origin Time       04/09/2008 12:53:21
Lat.              30.1°N 
Long.             80.4°E 
Depth (Km)         10.0
Magnitude         5.1
 Region           INDIA(UTTARAKHAND)-TIBET-BORDER-REGION                           
 Above details taken from IMD 
     
Station Code      GHA
Station Lat.       30.434  N
Station Long.      78.656  E
Station Height(m)  360.0
Site Class        A   Vs30 between 700 m/sec to 1400 m/sec * 
Record Time       04.09.2008 12:53:49.849
Sampling Rate     200. Hz
 Record Duration   65.015 Sec.
 Direction         E-W (E positive)
Max. Acceleration     -3.651 cm/sec**2
     
  * For reference see Site Classification link of website 
     
 Base Line Corrected and Low Pass Filtered (Cut Off at 35 Hz) Time History
 Acceleration data in cm/sec**2
    
[...]
       0.271
       0.365
       0.442
       0.497
       0.529
       0.542
       0.538
       0.517
       0.482
       0.441
       0.402
       0.374
       0.359
       0.350
       0.340
       0.321
       0.286
       0.238
       0.177
       0.107
       0.033
      -0.043
      -0.118
      -0.188
      -0.251
      -0.302
      -0.336
      -0.347
      -0.332
      -0.294
      -0.237
      -0.169
      -0.102
      -0.043
       0.004
       0.037
       0.058
       0.066
       0.057
       0.027
      -0.028
      -0.104
      -0.198
      -0.302
      -0.407
      -0.506
      -0.590
      -0.650
      -0.681
      -0.676
      -0.636
      -0.564
      -0.465
      -0.346
      -0.213
      -0.072
       0.072
       0.214
       0.346
       0.464
       0.562
       0.636
       0.679
       0.690
       0.669
       0.623
       0.559
       0.484
       0.400
       0.308
       0.213
       0.121
       0.044
      -0.011
      -0.040
      -0.045
      -0.034
      -0.015
       0.004
       0.018
       0.022
       0.012
      -0.010
      -0.040
      -0.073
      -0.108
      -0.144
      -0.180
      -0.215
      -0.247
      -0.274
      -0.296
      -0.310
      -0.313
      -0.303
      -0.281
      -0.248
      -0.201
      -0.136
      -0.051
       0.053
       0.168
       0.284
       0.392
       0.490
       0.573
       0.636
       0.669
       0.664
       0.619
       0.543
       0.444
       0.331
       0.209
       0.081
      -0.044
      -0.160
      -0.259
      -0.338
      -0.393
      -0.427
      -0.442
      -0.443
      -0.434
      -0.421
      -0.407
      -0.395
      -0.386
      -0.379
      -0.370
      -0.356
      -0.334
      -0.302
      -0.260
      -0.210
      -0.154
      -0.098
      -0.045
      -0.001
       0.031
       0.052
       0.060
       0.059
       0.048
       0.031
       0.012
      -0.003
      -0.007
       0.003
       0.026
       0.059
       0.096
       0.134
       0.174
       0.212
       0.245
       0.271
       0.287
       0.294
       0.294
       0.287
       0.271
       0.242
       0.201
       0.152
       0.100
       0.050
       0.003
      -0.039
      -0.077
      -0.112
      -0.145
      -0.173
      -0.197
      -0.217
      -0.231
      -0.238
      -0.236
      -0.220
      -0.190
      -0.148
      -0.097
      -0.038
       0.027
       0.095
       0.159
       0.211
       0.243
       0.252
       0.241
       0.212
       0.167
       0.107
       0.039
      -0.031
      -0.101
      -0.166
      -0.225
      -0.272
      -0.299
      -0.306
      -0.297
      -0.278
      -0.251
      -0.217
      -0.173
      -0.121
      -0.067
      -0.016
       0.027
       0.062
       0.092
       0.120
       0.145
       0.165
       0.174
       0.170
       0.156
       0.140
       0.130
       0.135
       0.162
       0.213
       0.282
       0.362
       0.439
       0.504
       0.555
       0.593
       0.621
       0.636
       0.636
       0.617
       0.578
       0.517
       0.434
       0.329
       0.208
       0.079
      -0.046
      -0.163
      -0.268
      -0.361
      -0.443
      -0.510
      -0.563
      -0.603
      -0.633
      -0.656
      -0.672
      -0.679
      -0.678
      -0.668
      -0.649
      -0.621
      -0.582
      -0.529
      -0.458
      -0.366
      -0.255
      -0.132
      -0.005
       0.122
       0.249
       0.373
       0.491
       0.594
       0.680
       0.746
       0.795
       0.828
       0.849
       0.858
       0.855
       0.840
       0.810
       0.765
       0.704
       0.635
       0.560
       0.485
       0.408
       0.331
       0.253
       0.172
       0.086
      -0.007
      -0.107
      -0.216
      -0.331
      -0.451
      -0.573
      -0.694
      -0.810
      -0.920
      -1.020
      -1.110
      -1.188
      -1.251
      -1.294
      -1.311
      -1.298
      -1.253
      -1.175
      -1.068
      -0.934
      -0.776
      -0.596
      -0.401
      -0.198
       0.006
       0.207
       0.398
       0.572
       0.722
       0.846
       0.943
       1.019
       1.079
       1.124
       1.150
       1.153
       1.131
       1.087
       1.021
       0.936
       0.828
       0.701
       0.562
       0.418
       0.276
       0.141
       0.018
      -0.091
      -0.184
      -0.263
      -0.329
      -0.377
      -0.404
      -0.415
      -0.415
      -0.412
      -0.407
      -0.396
      -0.375
      -0.343
      -0.301
      -0.252
      -0.195
      -0.131
      -0.058
       0.020
       0.103
       0.187
       0.272
       0.354
       0.423
       0.472
       0.489
       0.472
       0.421
       0.341
       0.236
       0.112
      -0.021
      -0.154
      -0.279
      -0.390
      -0.490
      -0.582
      -0.669
      -0.745
      -0.806
      -0.845
      -0.858
      -0.841
      -0.793
      -0.711
      -0.597
      -0.458
      -0.304
      -0.147
       0.004
       0.142
       0.265
       0.366
       0.441
       0.485
       0.499
       0.488
       0.456
       0.405
       0.339
       0.262
       0.178
       0.091
       0.009
      -0.061
      -0.115
      -0.151
      -0.175
      -0.193
      -0.205
      -0.208
      -0.201
      -0.186
      -0.171
      -0.159
      -0.147
      -0.130
      -0.106
      -0.074
      -0.035
       0.016
       0.081
       0.158
       0.238
       0.317
       0.388
       0.449
       0.499
       0.532
       0.546
       0.537
       0.503
       0.447
       0.370
       0.278
       0.177
       0.074
      -0.023
      -0.104
      -0.162
      -0.193
      -0.197
      -0.180
      -0.147
      -0.102
      -0.045
       0.020
       0.090
       0.158
       0.218
       0.266
       0.297
       0.307
       0.293
       0.253
       0.186
       0.095
      -0.015
      -0.132
      -0.244
      -0.339
      -0.411
      -0.456
      -0.477
      -0.477
      -0.461
      -0.434
      -0.401
      -0.368
      -0.339
      -0.322
      -0.323
      -0.341
      -0.376
      -0.424
      -0.483
      -0.553
      -0.630
      -0.706
      -0.773
      -0.823
      -0.847
      -0.835
      -0.780
      -0.680
      -0.539
      -0.362
      -0.156
       0.075
       0.322
       0.573
       0.816
       1.042
       1.243
       1.418
       1.566
       1.683
       1.764
       1.806
       1.807
       1.771
       1.702
       1.605
       1.484
       1.338
       1.173
       0.989
       0.794
       0.590
       0.383
       0.173
      -0.042
      -0.265
      -0.495
      -0.722
      -0.938
      -1.136
      -1.313
      -1.468
      -1.597
      -1.695
      -1.754
      -1.772
      -1.753
      -1.701
      -1.622
      -1.519
      -1.392
      -1.240
      -1.065
      -0.865
      -0.636
      -0.376
      -0.085
       0.228
       0.552
       0.874
       1.182
       1.464
       1.705
       1.895
       2.026
       2.098
       2.110
       2.064
       1.958
       1.796
       1.583
       1.326
       1.037
       0.725
       0.402
       0.077
      -0.240
      -0.536
      -0.797
      -1.015
      -1.189
      -1.322
      -1.417
      -1.478
      -1.507
      -1.512
      -1.500
      -1.474
      -1.433
      -1.374
      -1.294
      -1.192
      -1.069
      -0.924
      -0.759
      -0.578
      -0.394
      -0.219
      -0.061
       0.077
       0.195
       0.289
       0.358
       0.402
       0.424
       0.424
       0.402
       0.362
       0.310
       0.252
       0.193
       0.136
       0.085
       0.049
       0.035
       0.051
       0.095
       0.162
       0.242
       0.326
       0.408
       0.481
       0.544
       0.601
       0.655
       0.710
       0.764
       0.816
       0.864
       0.903
       0.931
       0.944
       0.936
       0.905
       0.845
       0.758
       0.646
       0.521
       0.390
       0.261
       0.134
       0.010
      -0.112
      -0.230
      -0.341
      -0.440
      -0.526
      -0.597
      -0.654
      -0.698
      -0.730
      -0.751
      -0.761
      -0.761
      -0.754
      -0.745
      -0.737
      -0.732
      -0.728
      -0.720
      -0.705
      -0.680
      -0.644
      -0.599
      -0.548
      -0.497
      -0.448
      -0.403
      -0.358
      -0.311
      -0.256
      -0.186
      -0.092
       0.029
       0.172
       0.325
       0.478
       0.619
       0.746
       0.859
       0.956
       1.033
       1.081
       1.098
       1.079
       1.025
       0.932
       0.799
       0.632
       0.444
       0.251
       0.062
      -0.118
      -0.287
      -0.434
      -0.552
      -0.639
      -0.704
      -0.758
      -0.807
      -0.847
      -0.874
      -0.889
      -0.893
      -0.886
      -0.865
      -0.821
      -0.751
      -0.657
      -0.551
      -0.440
      -0.327
      -0.209
      -0.089
       0.027
       0.129
       0.209
       0.262
       0.291
       0.300
       0.293
       0.279
       0.265
       0.264
       0.282
       0.324
       0.392
       0.482
       0.591
       0.714
       0.846
       0.980
       1.111
       1.226
       1.314
       1.362
       1.366
       1.329
       1.258
       1.160
       1.041
       0.902
       0.743
       0.565
       0.370
       0.164
      -0.049
      -0.265
      -0.484
      -0.699
      -0.906
      -1.102
      -1.283
      -1.446
      -1.583
      -1.687
      -1.752
      -1.778
      -1.767
      -1.720
      -1.636
      -1.515
      -1.357
      -1.163
      -0.937
      -0.689
      -0.428
      -0.164
       0.098
       0.355
       0.606
       0.847
       1.072
       1.276
       1.458
       1.617
       1.752
       1.860
       1.935
       1.974
       1.974
       1.934
       1.853
       1.732
       1.572
       1.378
       1.156
       0.918
       0.674
       0.432
       0.193
      -0.049
      -0.292
      -0.535
      -0.770
      -0.993
      -1.202
      -1.394
      -1.570
      -1.722
      -1.844
      -1.928
      -1.966
      -1.954
      -1.892
      -1.786
      -1.641
      -1.461
      -1.250
      -1.013
      -0.758
      -0.492
      -0.221
       0.049
       0.313
       0.561
       0.789
       0.991
       1.166
       1.315
       1.438
       1.536
       1.609
       1.655
       1.673
       1.664
       1.629
       1.571
       1.491
       1.392
       1.274
       1.134
       0.970
       0.784
       0.574
       0.338
       0.071
      -0.226
      -0.547
      -0.880
      -1.215
      -1.540
      -1.845
      -2.116
      -2.339
      -2.502
      -2.592
      -2.601
      -2.528
      -2.380
      -2.169
      -1.909
      -1.607
      -1.269
      -0.904
      -0.523
      -0.142
       0.226
       0.567
       0.874
       1.139
       1.361
       1.543
       1.695
       1.830
       1.948
       2.041
       2.096
       2.104
       2.063
       1.974
       1.835
       1.645
       1.399
       1.101
       0.757
       0.380
      -0.018
      -0.422
      -0.819
      -1.192
      -1.523
      -1.796
      -2.002
      -2.134
      -2.183
      -2.145
      -2.023
      -1.830
      -1.578
      -1.280
      -0.943
      -0.575
      -0.192
       0.184
       0.529
       0.829
       1.075
       1.269
       1.416
       1.518
       1.576
       1.585
       1.536
       1.423
       1.246
       1.008
       0.720
       0.397
       0.053
      -0.293
      -0.624
      -0.920
      -1.172
      -1.375
      -1.533
      -1.647
      -1.718
      -1.737
      -1.700
      -1.607
      -1.463
      -1.278
      -1.061
      -0.813
      -0.538
      -0.242
       0.071
       0.394
       0.723
       1.055
       1.381
       1.692
       1.977
       2.227
       2.434
       2.593
       2.695
       2.732
       2.697
       2.589
       2.411
       2.170
       1.875
       1.535
       1.159
       0.758
       0.338
      -0.094
      -0.533
      -0.968
      -1.388
      -1.778
      -2.132
      -2.453
      -2.741
      -2.995
      -3.208
      -3.368
      -3.467
      -3.499
      -3.459
      -3.346
      -3.156
      -2.893
      -2.567
      -2.190
      -1.774
      -1.329
      -0.862
      -0.386
       0.090
       0.552
       0.991
       1.401
       1.780
       2.126
       2.441
       2.723
       2.968
       3.167
       3.313
       3.398
       3.425
       3.395
       3.314
       3.180
       2.988
       2.736
       2.429
       2.080
       1.707
       1.326
       0.948
       0.578
       0.219
      -0.119
      -0.427
      -0.695
      -0.919
      -1.100
      -1.245
      -1.359
      -1.437
      -1.475
      -1.472
      -1.438
      -1.386
      -1.329
      -1.271
      -1.213
      -1.158
      -1.112
      -1.083
      -1.076
      -1.086
      -1.106
      -1.127
      -1.142
      -1.149
      -1.146
      -1.129
      -1.094
      -1.040
      -0.969
      -0.886
      -0.797
      -0.707
      -0.617
      -0.527
      -0.433
      -0.328
      -0.205
      -0.051
       0.146
       0.391
       0.681
       1.001
       1.335
       1.663
       1.972
       2.251
       2.486
       2.661
       2.760
       2.773
       2.695
       2.532
       2.288
       1.968
       1.579
       1.130
       0.636
       0.112
      -0.425
      -0.963
      -1.490
      -1.993
      -2.457
      -2.864
      -3.197
      -3.444
      -3.597
      -3.651
      -3.603
      -3.450
      -3.196
      -2.849
      -2.423
      -1.938
      -1.420
      -0.896
      -0.392
       0.075
       0.499
       0.875
       1.200
       1.466
       1.669
       1.814
       1.917
       1.997
       2.075
       2.161
       2.255
       2.355
       2.456
       2.557
       2.657
       2.750
       2.820
       2.848
       2.815
       2.709
       2.527
       2.276
       1.963
       1.596
       1.182
       0.732
       0.260
      -0.212
      -0.672
      -1.107
      -1.510
      -1.871
      -2.179
      -2.428
      -2.614
      -2.733
      -2.781
      -2.752
      -2.646
      -2.469
      -2.229
      -1.938
      -1.606
      -1.248
      -0.882
      -0.528
      -0.210
       0.053
       0.248
       0.371
       0.423
       0.413
       0.350
       0.247
       0.120
      -0.012
      -0.133
      -0.232
      -0.308
      -0.359
      -0.380
      -0.365
      -0.312
      -0.226
      -0.117
       0.002
       0.117
       0.213
       0.281
       0.323
       0.351
       0.375
       0.397
       0.415
       0.426
       0.434
       0.449
       0.476
       0.516
       0.566
       0.625
       0.694
       0.776
       0.866
       0.955
       1.033
       1.090
       1.122
       1.127
       1.104
       1.054
       0.976
       0.867
       0.724
       0.551
       0.351
       0.129
      -0.108
      -0.353
      -0.593
      -0.813
      -1.000
      -1.148
      -1.254
      -1.316
      -1.332
      -1.302
      -1.224
      -1.096
      -0.922
      -0.708
      -0.470
      -0.226
       0.008
       0.225
       0.420
       0.591
       0.734
       0.840
       0.905
       0.928
       0.918
       0.884
       0.835
       0.774
       0.699
       0.612
       0.513
       0.406
       0.292
       0.167
       0.030
      -0.121
      -0.285
      -0.454
      -0.623
      -0.781
      -0.921
      -1.031
      -1.103
      -1.126
      -1.092
      -1.000
      -0.859
      -0.684
      -0.493
      -0.302
      -0.128
       0.017
       0.126
       0.196
       0.227
       0.222
       0.187
       0.131
       0.061
      -0.014
      -0.094
      -0.179
      -0.271
      -0.363
      -0.443
      -0.498
      -0.516
      -0.493
      -0.428
      -0.327
      -0.195
      -0.040
       0.133
       0.322
       0.523
       0.728
       0.927
       1.100
       1.229
       1.296
       1.292
       1.212
       1.060
       0.846
       0.584
       0.295
       0.000
      -0.282
      -0.534
      -0.751
      -0.930
      -1.077
      -1.199
      -1.300
      -1.382
      -1.445
      -1.490
      -1.521
      -1.546
      -1.567
      -1.584
      -1.584
      -1.555
      -1.481
      -1.351
      -1.154
      -0.889
      -0.563
      -0.192
       0.204
       0.610
       1.014
       1.406
       1.770
       2.089
       2.348
       2.535
       2.643
       2.671
       2.615
       2.474
       2.245
       1.931
       1.545
       1.105
       0.635
       0.159
      -0.307
      -0.748
      -1.151
      -1.503
      -1.786
      -1.989
      -2.107
      -2.139
      -2.084
      -1.936
      -1.690
      -1.350
      -0.931
      -0.459
       0.032
       0.511
       0.946
       1.310
       1.589
       1.775
       1.876
       1.901
       1.862
       1.767
       1.617
       1.418
       1.176
       0.904
       0.617
       0.328
       0.056
      -0.186
      -0.384
      -0.530
      -0.621
      -0.660
      -0.657
      -0.623
      -0.572
      -0.515
      -0.459
      -0.413
      -0.386
      -0.387
      -0.424
      -0.493
      -0.585
      -0.691
      -0.807
      -0.932
      -1.061
      -1.180
      -1.272
      -1.323
      -1.327
      -1.284
      -1.192
      -1.045
      -0.845
      -0.598
      -0.319
      -0.021
       0.287
       0.599
       0.912
       1.222
       1.522
       1.804
       2.055
       2.261
       2.412
       2.499
       2.519
       2.468
       2.338
       2.120
       1.810
       1.409
       0.926
       0.380
      -0.207
      -0.810
      -1.404
      -1.959
      -2.447
      -2.847
      -3.149
      -3.347
      -3.441
      -3.420
      -3.279
      -3.017
      -2.652
      -2.212
      -1.724
      -1.207
      -0.676
      -0.148
       0.360
       0.829
       1.247
       1.612
       1.927
       2.193
       2.407
       2.559
       2.644
       2.655
       2.591
       2.451
       2.232
       1.938
       1.578
       1.171
       0.743
       0.320
      -0.080
      -0.440
      -0.742
      -0.964
      -1.089
      -1.109
      -1.027
      -0.851
      -0.597
      -0.291
       0.041
       0.372
       0.681
       0.949
       1.159
       1.294
       1.341
       1.297
       1.171
       0.979
       0.739
       0.462
       0.156
      -0.170
      -0.507
      -0.843
      -1.165
      -1.466
      -1.737
      -1.969
      -2.150
      -2.273
      -2.330
      -2.319
      -2.239
      -2.095
      -1.895
      -1.646
      -1.359
      -1.045
      -0.717
      -0.390
      -0.073
       0.227
       0.507
       0.768
       1.009
       1.225
       1.413
       1.572
       1.702
       1.809
       1.894
       1.951
       1.973
       1.948
       1.869
       1.729
       1.527
       1.269
       0.962
       0.619
       0.255
      -0.108
      -0.452
      -0.760
      -1.025
      -1.243
      -1.408
      -1.513
      -1.553
      -1.525
      -1.434
      -1.286
      -1.089
      -0.852
      -0.589
      -0.323
      -0.080
       0.113
       0.240
       0.296
       0.280
       0.198
       0.059
      -0.122
      -0.326
      -0.534
      -0.729
      -0.894
      -1.015
      -1.082
      -1.092
