Origin Time       04/09/2008 12:53:21 UTC
Lat.              30.1°N 
Long.             80.4°E 
Depth (Km)         10.0
Magnitude         5.1
 Region           INDIA(UTTARAKHAND)-TIBET-BORDER-REGION                           
 Above details taken from IMD 
    
Station Code      GHA
Station Lat.       30.434  N
Station Long.      78.656  E
Station Height(m)  360.0
Site Class        A   Vs30 between 700 m/sec to 1400 m/sec * 
Record Time       04.09.2008 12:53:49.849 UTC
Sampling Rate     200. Hz
 Record Duration   65.015 Sec.
 Direction         N-S (N positive)
Max. Acceleration      5.129 cm/sec**2
     
  * For reference see Site Classification link of website 
     
 Base Line Corrected and Low Pass Filtered (Cut Off at 35 Hz) Time History
 Acceleration data in cm/sec**2
    
[...]
      -0.610
      -0.706
      -0.792
      -0.854
      -0.877
      -0.856
      -0.792
      -0.691
      -0.553
      -0.381
      -0.178
       0.046
       0.277
       0.503
       0.718
       0.914
       1.086
       1.224
       1.322
       1.380
       1.397
       1.372
       1.304
       1.195
       1.052
       0.889
       0.721
       0.555
       0.396
       0.247
       0.109
      -0.017
      -0.133
      -0.245
      -0.356
      -0.472
      -0.596
      -0.728
      -0.864
      -0.997
      -1.120
      -1.224
      -1.304
      -1.354
      -1.366
      -1.335
      -1.256
      -1.133
      -0.974
      -0.788
      -0.587
      -0.382
      -0.178
       0.020
       0.211
       0.397
       0.578
       0.752
       0.915
       1.063
       1.190
       1.294
       1.374
       1.434
       1.476
       1.506
       1.524
       1.526
       1.508
       1.462
       1.384
       1.274
       1.132
       0.955
       0.739
       0.478
       0.175
      -0.157
      -0.500
      -0.836
      -1.151
      -1.435
      -1.682
      -1.886
      -2.041
      -2.144
      -2.192
      -2.184
      -2.116
      -1.987
      -1.796
      -1.549
      -1.255
      -0.927
      -0.581
      -0.231
       0.111
       0.439
       0.750
       1.041
       1.309
       1.545
       1.740
       1.884
       1.973
       2.004
       1.977
       1.891
       1.745
       1.545
       1.299
       1.018
       0.712
       0.391
       0.064
      -0.256
      -0.557
      -0.832
      -1.074
      -1.280
      -1.443
      -1.559
      -1.627
      -1.647
      -1.625
      -1.566
      -1.468
      -1.328
      -1.145
      -0.924
      -0.675
      -0.412
      -0.144
       0.117
       0.361
       0.573
       0.737
       0.846
       0.900
       0.905
       0.869
       0.797
       0.694
       0.568
       0.429
       0.288
       0.158
       0.047
      -0.043
      -0.109
      -0.146
      -0.149
      -0.114
      -0.045
       0.050
       0.157
       0.264
       0.360
       0.436
       0.488
       0.517
       0.527
       0.522
       0.505
       0.480
       0.448
       0.407
       0.352
       0.279
       0.186
       0.076
      -0.045
      -0.169
      -0.291
      -0.410
      -0.523
      -0.632
      -0.731
      -0.815
      -0.876
      -0.911
      -0.920
      -0.904
      -0.865
      -0.803
      -0.719
      -0.616
      -0.498
      -0.366
      -0.226
      -0.084
       0.048
       0.159
       0.242
       0.294
       0.315
       0.307
       0.277
       0.236
       0.192
       0.150
       0.111
       0.074
       0.036
      -0.006
      -0.055
      -0.112
      -0.178
      -0.251
      -0.327
      -0.401
      -0.468
      -0.527
      -0.576
      -0.613
      -0.632
      -0.627
      -0.596
      -0.543
      -0.474
      -0.393
      -0.300
      -0.191
      -0.063
       0.083
       0.241
       0.397
       0.532
       0.635
       0.699
       0.729
       0.732
       0.715
       0.684
       0.643
       0.598
       0.555
       0.512
       0.466
       0.413
       0.350
       0.275
       0.190
       0.097
       0.006
      -0.072
      -0.127
      -0.153
      -0.152
      -0.130
      -0.099
      -0.063
      -0.027
       0.011
       0.054
       0.103
       0.159
       0.217
       0.273
       0.320
       0.351
       0.364
       0.356
       0.323
       0.267
       0.189
       0.100
       0.005
      -0.086
      -0.169
      -0.236
      -0.284
      -0.309
      -0.308
      -0.277
      -0.210
      -0.101
       0.048
       0.232
       0.441
       0.662
       0.882
       1.085
       1.254
       1.373
       1.425
       1.395
       1.276
       1.070
       0.788
       0.446
       0.059
      -0.358
      -0.788
      -1.209
      -1.593
      -1.914
      -2.151
      -2.287
      -2.310
      -2.217
      -2.011
      -1.709
      -1.331
      -0.899
      -0.440
       0.018
       0.450
       0.830
       1.145
       1.390
       1.566
       1.676
       1.722
       1.707
       1.637
       1.521
       1.369
       1.190
       0.993
       0.784
       0.566
       0.340
       0.105
      -0.141
      -0.395
      -0.652
      -0.904
      -1.140
      -1.343
      -1.496
      -1.587
      -1.615
      -1.587
      -1.509
      -1.388
      -1.222
      -1.013
      -0.768
      -0.500
      -0.226
       0.041
       0.290
       0.515
       0.710
       0.869
       0.990
       1.075
       1.125
       1.146
       1.140
       1.113
       1.070
       1.014
       0.944
       0.863
       0.774
       0.681
       0.587
       0.490
       0.389
       0.280
       0.161
       0.028
      -0.125
      -0.301
      -0.494
      -0.691
      -0.876
      -1.034
      -1.158
      -1.244
      -1.289
      -1.291
      -1.250
      -1.170
      -1.057
      -0.920
      -0.763
      -0.585
      -0.382
      -0.154
       0.095
       0.357
       0.619
       0.868
       1.089
       1.267
       1.392
       1.461
       1.475
       1.437
       1.347
       1.206
       1.024
       0.809
       0.567
       0.296
      -0.008
      -0.338
      -0.683
      -1.021
      -1.334
      -1.607
      -1.827
      -1.980
      -2.056
      -2.047
      -1.954
      -1.788
      -1.564
      -1.300
      -1.009
      -0.698
      -0.372
      -0.037
       0.301
       0.630
       0.942
       1.231
       1.492
       1.724
       1.916
       2.059
       2.139
       2.149
       2.086
       1.954
       1.759
       1.505
       1.192
       0.827
       0.420
      -0.014
      -0.457
      -0.890
      -1.293
      -1.648
      -1.935
      -2.146
      -2.275
      -2.325
      -2.302
      -2.214
      -2.070
      -1.883
      -1.667
      -1.436
      -1.203
      -0.971
      -0.740
      -0.508
      -0.274
      -0.045
       0.174
       0.374
       0.552
       0.707
       0.842
       0.964
       1.075
       1.179
       1.275
       1.365
       1.454
       1.547
       1.643
       1.738
       1.820
       1.878
       1.907
       1.904
       1.865
       1.786
       1.658
       1.479
       1.248
       0.971
       0.655
       0.309
      -0.056
      -0.431
      -0.805
      -1.162
      -1.487
      -1.765
      -1.983
      -2.130
      -2.199
      -2.186
      -2.096
      -1.937
      -1.726
      -1.474
      -1.191
      -0.882
      -0.558
      -0.233
       0.080
       0.367
       0.623
       0.846
       1.032
       1.179
       1.275
       1.309
       1.269
       1.156
       0.981
       0.764
       0.524
       0.273
       0.021
      -0.219
      -0.433
      -0.608
      -0.736
      -0.814
      -0.844
      -0.826
      -0.764
      -0.667
      -0.545
      -0.402
      -0.244
      -0.069
       0.121
       0.325
       0.536
       0.743
       0.940
       1.122
       1.288
       1.434
       1.550
       1.628
       1.660
       1.647
       1.590
       1.491
       1.355
       1.187
       0.997
       0.793
       0.577
       0.344
       0.090
      -0.181
      -0.462
      -0.738
      -1.001
      -1.244
      -1.462
      -1.651
      -1.807
      -1.929
      -2.023
      -2.095
      -2.150
      -2.188
      -2.205
      -2.198
      -2.164
      -2.103
      -2.014
      -1.898
      -1.751
      -1.571
      -1.355
      -1.101
      -0.805
      -0.467
      -0.089
       0.325
       0.766
       1.224
       1.687
       2.147
       2.592
       3.009
       3.382
       3.689
       3.912
       4.032
       4.032
       3.897
       3.620
       3.206
       2.672
       2.039
       1.331
       0.573
      -0.208
      -0.977
      -1.700
      -2.347
      -2.890
      -3.305
      -3.576
      -3.693
      -3.657
      -3.472
      -3.147
      -2.689
      -2.116
      -1.454
      -0.744
      -0.030
       0.644
       1.248
       1.758
       2.152
       2.406
       2.497
       2.413
       2.159
       1.759
       1.251
       0.675
       0.070
      -0.528
      -1.083
      -1.562
      -1.936
      -2.189
      -2.319
      -2.333
      -2.239
      -2.041
      -1.748
      -1.378
      -0.961
      -0.531
      -0.113
       0.277
       0.634
       0.950
       1.219
       1.434
       1.590
       1.686
       1.721
       1.696
       1.611
       1.468
       1.275
       1.046
       0.797
       0.548
       0.311
       0.097
      -0.093
      -0.255
      -0.385
      -0.477
      -0.523
      -0.523
      -0.480
      -0.407
      -0.318
      -0.225
      -0.142
      -0.081
      -0.050
      -0.054
      -0.096
      -0.182
      -0.324
      -0.531
      -0.801
      -1.110
      -1.429
      -1.728
      -1.988
      -2.191
      -2.318
      -2.347
      -2.262
      -2.060
      -1.745
      -1.338
      -0.858
      -0.330
       0.229
       0.799
       1.361
       1.897
       2.385
       2.808
       3.148
       3.392
       3.530
       3.554
       3.463
       3.262
       2.955
       2.553
       2.072
       1.532
       0.955
       0.358
      -0.242
      -0.828
      -1.373
      -1.851
      -2.238
      -2.524
      -2.699
      -2.760
      -2.702
      -2.528
      -2.251
      -1.889
      -1.464
      -1.002
      -0.528
      -0.065
       0.367
       0.755
       1.084
       1.337
       1.496
       1.550
       1.499
       1.360
       1.161
       0.930
       0.688
       0.446
       0.211
      -0.009
      -0.208
      -0.378
      -0.513
      -0.610
      -0.672
      -0.705
      -0.719
      -0.725
      -0.732
      -0.741
      -0.754
      -0.766
      -0.774
      -0.775
      -0.770
      -0.756
      -0.730
      -0.684
      -0.610
      -0.507
      -0.378
      -0.226
      -0.053
       0.143
       0.356
       0.575
       0.781
       0.951
       1.074
       1.142
       1.157
       1.123
       1.043
       0.919
       0.754
       0.556
       0.335
       0.106
      -0.117
      -0.315
      -0.471
      -0.570
      -0.604
      -0.575
      -0.493
      -0.373
      -0.231
      -0.083
       0.054
       0.167
       0.251
       0.308
       0.345
       0.369
       0.389
       0.415
       0.457
       0.525
       0.618
       0.731
       0.851
       0.967
       1.063
       1.120
       1.118
       1.038
       0.873
       0.623
       0.294
      -0.106
      -0.560
      -1.043
      -1.521
      -1.962
      -2.338
      -2.627
      -2.811
      -2.878
      -2.820
      -2.637
      -2.336
      -1.928
      -1.428
      -0.856
      -0.238
       0.399
       1.028
       1.622
       2.150
       2.587
       2.914
       3.125
       3.218
       3.202
       3.083
       2.874
       2.590
       2.249
       1.867
       1.456
       1.024
       0.578
       0.127
      -0.319
      -0.744
      -1.139
      -1.496
      -1.814
      -2.094
      -2.335
      -2.541
      -2.715
      -2.859
      -2.974
      -3.052
      -3.086
      -3.070
      -2.995
      -2.855
      -2.641
      -2.345
      -1.962
      -1.494
      -0.949
      -0.343
       0.305
       0.970
       1.627
       2.247
       2.804
       3.280
       3.660
       3.936
       4.103
       4.158
       4.101
       3.935
       3.666
       3.302
       2.855
       2.336
       1.756
       1.129
       0.476
      -0.176
      -0.801
      -1.380
      -1.902
      -2.353
      -2.719
      -2.985
      -3.144
      -3.200
      -3.161
      -3.033
      -2.820
      -2.526
      -2.170
      -1.779
      -1.385
      -1.011
      -0.667
      -0.352
      -0.068
       0.180
       0.388
       0.557
       0.699
       0.826
       0.945
       1.059
       1.171
       1.281
       1.388
       1.486
       1.568
       1.630
       1.671
       1.696
       1.706
       1.705
       1.694
       1.675
       1.643
       1.589
       1.501
       1.372
       1.197
       0.971
       0.687
       0.340
      -0.067
      -0.519
      -0.996
      -1.478
      -1.947
      -2.387
      -2.786
      -3.132
      -3.412
      -3.609
      -3.709
      -3.703
      -3.592
      -3.383
      -3.080
      -2.682
      -2.185
      -1.592
      -0.921
      -0.205
       0.517
       1.207
       1.840
       2.398
       2.867
       3.235
       3.490
       3.623
       3.622
       3.482
       3.209
       2.817
       2.334
       1.792
       1.224
       0.660
       0.125
      -0.366
      -0.799
      -1.170
      -1.475
      -1.709
      -1.875
      -1.977
      -2.023
      -2.017
      -1.951
      -1.819
      -1.620
      -1.370
      -1.090
      -0.804
      -0.524
      -0.261
      -0.027
       0.166
       0.308
       0.397
       0.438
       0.435
       0.400
       0.345
       0.287
       0.246
       0.241
       0.287
       0.389
       0.545
       0.747
       0.990
       1.263
       1.551
       1.829
       2.072
       2.259
       2.375
       2.410
       2.356
       2.202
       1.939
       1.566
       1.090
       0.532
      -0.079
      -0.715
      -1.351
      -1.966
      -2.537
      -3.040
      -3.454
      -3.770
      -3.990
      -4.117
      -4.150
      -4.078
      -3.893
      -3.593
      -3.189
      -2.692
      -2.106
      -1.434
      -0.685
       0.116
       0.930
       1.724
       2.474
       3.165
       3.782
       4.306
       4.717
       4.996
       5.129
       5.110
       4.939
       4.623
       4.178
       3.627
       2.999
       2.326
       1.634
       0.948
       0.283
      -0.352
      -0.954
      -1.515
      -2.028
      -2.485
      -2.880
      -3.208
      -3.463
      -3.633
      -3.707
      -3.676
      -3.537
      -3.295
      -2.955
      -2.523
      -2.013
      -1.445
      -0.841
      -0.224
       0.388
       0.976
       1.523
       2.008
       2.414
       2.724
       2.922
       2.997
       2.941
       2.763
       2.484
       2.130
       1.727
       1.301
       0.873
       0.462
       0.075
      -0.290
      -0.645
      -0.997
      -1.345
      -1.671
      -1.950
      -2.165
      -2.308
      -2.384
      -2.394
      -2.336
      -2.207
      -2.008
      -1.753
      -1.453
      -1.122
      -0.768
      -0.399
      -0.028
       0.327
       0.642
       0.895
       1.074
       1.178
       1.219
       1.210
       1.160
       1.079
       0.980
       0.880
       0.795
       0.737
       0.708
       0.707
       0.726
       0.760
       0.800
       0.841
       0.871
       0.884
       0.870
       0.823
       0.738
       0.611
       0.440
       0.226
      -0.027
      -0.315
      -0.631
      -0.967
      -1.310
      -1.645
      -1.948
      -2.197
      -2.369
      -2.445
      -2.411
      -2.267
      -2.025
      -1.709
      -1.344
      -0.950
      -0.544
      -0.143
       0.234
       0.566
       0.842
       1.058
       1.225
       1.353
       1.454
       1.532
       1.590
       1.630
       1.658
       1.675
       1.681
       1.671
       1.632
       1.553
       1.427
       1.246
       1.010
       0.722
       0.393
       0.039
      -0.326
      -0.689
      -1.036
      -1.349
      -1.614
      -1.815
      -1.944
      -1.997
      -1.970
      -1.862
      -1.677
      -1.432
      -1.147
      -0.845
      -0.543
      -0.249
       0.029
       0.283
       0.502
       0.683
       0.832
       0.960
       1.074
       1.176
       1.257
       1.307
       1.314
       1.269
       1.170
       1.019
       0.821
       0.582
       0.310
       0.019
      -0.276
      -0.562
      -0.829
      -1.072
      -1.291
      -1.482
      -1.638
      -1.752
      -1.817
      -1.831
      -1.793
      -1.701
      -1.552
      -1.346
      -1.091
      -0.799
      -0.488
      -0.166
       0.163
       0.498
       0.839
       1.180
       1.515
       1.837
       2.138
       2.406
       2.621
       2.761
       2.805
       2.739
       2.565
       2.288
       1.920
       1.480
       0.985
       0.452
      -0.106
      -0.675
      -1.231
      -1.747
      -2.187
      -2.524
      -2.740
      -2.827
      -2.787
      -2.626
      -2.359
      -2.007
      -1.592
      -1.135
      -0.656
      -0.174
       0.290
       0.713
       1.072
       1.347
       1.526
       1.611
       1.607
       1.525
       1.368
       1.143
       0.860
       0.538
       0.199
      -0.137
      -0.459
      -0.752
      -1.005
      -1.205
      -1.340
      -1.404
      -1.390
      -1.297
      -1.127
      -0.888
      -0.598
      -0.279
       0.039
       0.336
       0.594
       0.809
       0.978
       1.102
       1.174
       1.189
       1.147
       1.055
       0.928
       0.786
       0.647
       0.530
       0.448
       0.408
       0.407
       0.439
       0.499
       0.583
       0.683
       0.785
       0.873
       0.932
       0.951
       0.926
       0.853
       0.726
       0.543
       0.304
       0.016
      -0.309
      -0.658
      -1.015
      -1.365
      -1.693
      -1.979
      -2.207
      -2.365
      -2.448
      -2.449
      -2.367
      -2.200
      -1.953
      -1.642
      -1.290
      -0.924
      -0.565
      -0.227
       0.079
       0.346
       0.567
       0.738
       0.859
       0.938
       0.984
       1.008
       1.014
       1.006
       0.987
       0.961
       0.936
       0.914
       0.896
       0.880
       0.866
       0.849
       0.826
       0.796
       0.751
       0.688
       0.608
       0.517
       0.425
       0.336
       0.250
       0.162
       0.069
      -0.026
      -0.122
      -0.223
      -0.341
      -0.489
      -0.670
      -0.875
      -1.087
      -1.288
      -1.463
      -1.604
      -1.701
      -1.748
      -1.742
      -1.680
      -1.563
      -1.388
      -1.157
      -0.874
      -0.546
      -0.183
       0.207
       0.611
       1.011
       1.388
       1.724
       2.006
       2.217
       2.344
       2.377
       2.317
       2.170
       1.943
       1.642
       1.275
       0.849
       0.380
      -0.106
      -0.584
      -1.032
      -1.429
      -1.759
      -2.004
      -2.151
      -2.191
      -2.118
      -1.930
      -1.627
      -1.218
      -0.724
      -0.174
       0.401
       0.968
       1.500
       1.970
       2.355
       2.638
       2.810
       2.865
       2.799
       2.604
       2.277
       1.818
       1.240
       0.569
      -0.165
      -0.924
      -1.670
      -2.368
      -2.984
      -3.488
      -3.860
      -4.084
      -4.154
      -4.072
      -3.849
      -3.504
      -3.057
      -2.532
      -1.951
      -1.330
      -0.686
      -0.038
       0.599
       1.210
       1.781
       2.297
       2.741
       3.101
       3.369
       3.541
       3.623
       3.620
       3.539
       3.388
       3.169
       2.884
       2.535
       2.123
       1.657
       1.147
       0.606
       0.045
      -0.517
      -1.063
      -1.571
      -2.023
      -2.406
      -2.710
      -2.929
      -3.065
      -3.117
      -3.085
      -2.962
      -2.748
      -2.446
      -2.070
      -1.642
      -1.183
      -0.712
      -0.247
