Origin Time       04/09/2008 12:53:21
Lat.              30.1°N 
Long.             80.4°E 
Depth (Km)         10.0
Magnitude         5.1
 Region           INDIA(UTTARAKHAND)-TIBET-BORDER-REGION                           
 Above details taken from IMD 
   
Station Code      GHA
Station Lat.       30.434
Station Long.      78.656
Station Height(m)  360.0
Site Class        A   Vs30 between 700 m/sec to 1400 m/sec * 
Record Time       04.09.2008 12:53:49.849
Sampling Rate     200. Hz
 Record Duration   65.015 Sec.
 Direction         Vert. (Up positive)
Max. Acceleration     -1.850 cm/sec**2
     
  * For reference see Site Classification link of website 
     
 Base Line Corrected and Low Pass Filtered (Cut Off at 35 Hz) Time History
 Acceleration data in cm/sec**2
    
[...]
      -0.024
      -0.039
      -0.046
      -0.040
      -0.016
       0.026
       0.078
       0.136
       0.191
       0.245
       0.300
       0.361
       0.427
       0.486
       0.525
       0.532
       0.506
       0.452
       0.378
       0.291
       0.199
       0.112
       0.041
      -0.003
      -0.020
      -0.012
       0.013
       0.045
       0.078
       0.103
       0.118
       0.121
       0.113
       0.096
       0.071
       0.037
      -0.007
      -0.062
      -0.126
      -0.200
      -0.281
      -0.366
      -0.447
      -0.515
      -0.561
      -0.577
      -0.559
      -0.508
      -0.428
      -0.328
      -0.218
      -0.106
       0.002
       0.097
       0.176
       0.237
       0.279
       0.302
       0.307
       0.294
       0.270
       0.244
       0.224
       0.210
       0.200
       0.188
       0.170
       0.147
       0.119
       0.087
       0.056
       0.033
       0.025
       0.035
       0.060
       0.093
       0.125
       0.152
       0.168
       0.171
       0.160
       0.134
       0.096
       0.048
      -0.005
      -0.062
      -0.120
      -0.180
      -0.243
      -0.311
      -0.377
      -0.435
      -0.476
      -0.495
      -0.493
      -0.472
      -0.432
      -0.378
      -0.317
      -0.260
      -0.215
      -0.182
      -0.156
      -0.131
      -0.106
      -0.083
      -0.067
      -0.058
      -0.047
      -0.029
      -0.002
       0.030
       0.065
       0.104
       0.153
       0.216
       0.293
       0.376
       0.459
       0.539
       0.609
       0.664
       0.696
       0.697
       0.664
       0.597
       0.503
       0.392
       0.275
       0.161
       0.052
      -0.053
      -0.155
      -0.256
      -0.352
      -0.438
      -0.504
      -0.542
      -0.550
      -0.528
      -0.483
      -0.424
      -0.359
      -0.294
      -0.233
      -0.179
      -0.138
      -0.115
      -0.110
      -0.123
      -0.154
      -0.202
      -0.264
      -0.336
      -0.411
      -0.479
      -0.526
      -0.540
      -0.513
      -0.441
      -0.326
      -0.176
      -0.004
       0.176
       0.355
       0.525
       0.678
       0.805
       0.894
       0.938
       0.934
       0.885
       0.799
       0.689
       0.568
       0.448
       0.333
       0.227
       0.127
       0.031
      -0.062
      -0.155
      -0.248
      -0.338
      -0.419
      -0.487
      -0.538
      -0.568
      -0.572
      -0.548
      -0.501
      -0.445
      -0.389
      -0.337
      -0.284
      -0.223
      -0.152
      -0.074
       0.005
       0.085
       0.164
       0.243
       0.324
       0.402
       0.470
       0.517
       0.535
       0.521
       0.478
       0.415
       0.341
       0.265
       0.196
       0.136
       0.085
       0.034
      -0.023
      -0.092
      -0.176
      -0.273
      -0.377
      -0.479
      -0.572
      -0.651
      -0.711
      -0.746
      -0.750
      -0.718
      -0.647
      -0.539
      -0.401
      -0.242
      -0.073
       0.095
       0.257
       0.405
       0.532
       0.626
       0.683
       0.702
       0.695
       0.672
       0.640
       0.597
       0.535
       0.447
       0.330
       0.184
       0.021
      -0.142
      -0.287
      -0.405
      -0.494
      -0.560
      -0.607
      -0.636
      -0.645
      -0.632
      -0.594
      -0.530
      -0.439
      -0.321
      -0.178
      -0.015
       0.162
       0.346
       0.528
       0.693
       0.830
       0.928
       0.982
       0.990
       0.957
       0.887
       0.787
       0.658
       0.505
       0.332
       0.146
      -0.040
      -0.219
      -0.385
      -0.530
      -0.647
      -0.722
      -0.749
      -0.723
      -0.655
      -0.558
      -0.451
      -0.349
      -0.263
      -0.198
      -0.153
      -0.121
      -0.099
      -0.082
      -0.065
      -0.041
      -0.003
       0.051
       0.117
       0.188
       0.256
       0.320
       0.376
       0.419
       0.440
       0.432
       0.394
       0.334
       0.263
       0.190
       0.118
       0.050
      -0.012
      -0.065
      -0.104
      -0.129
      -0.140
      -0.141
      -0.134
      -0.120
      -0.102
      -0.079
      -0.054
      -0.028
      -0.006
       0.005
       0.000
      -0.025
      -0.071
      -0.139
      -0.225
      -0.322
      -0.420
      -0.508
      -0.579
      -0.631
      -0.670
      -0.699
      -0.718
      -0.723
      -0.705
      -0.657
      -0.572
      -0.446
      -0.279
      -0.074
       0.158
       0.404
       0.646
       0.867
       1.053
       1.194
       1.283
       1.317
       1.297
       1.227
       1.116
       0.972
       0.802
       0.618
       0.430
       0.252
       0.096
      -0.036
      -0.146
      -0.236
      -0.307
      -0.358
      -0.388
      -0.405
      -0.418
      -0.439
      -0.471
      -0.512
      -0.556
      -0.598
      -0.636
      -0.666
      -0.682
      -0.675
      -0.640
      -0.577
      -0.494
      -0.404
      -0.322
      -0.263
      -0.230
      -0.221
      -0.224
      -0.231
      -0.235
      -0.233
      -0.221
      -0.197
      -0.163
      -0.122
      -0.074
      -0.018
       0.046
       0.115
       0.180
       0.236
       0.286
       0.331
       0.369
       0.393
       0.397
       0.380
       0.347
       0.306
       0.262
       0.224
       0.197
       0.187
       0.194
       0.213
       0.236
       0.256
       0.265
       0.254
       0.218
       0.161
       0.095
       0.036
      -0.007
      -0.037
      -0.066
      -0.097
      -0.129
      -0.151
      -0.161
      -0.167
      -0.178
      -0.202
      -0.241
      -0.295
      -0.369
      -0.470
      -0.596
      -0.739
      -0.884
      -1.013
      -1.113
      -1.175
      -1.190
      -1.153
      -1.059
      -0.910
      -0.714
      -0.476
      -0.204
       0.093
       0.397
       0.689
       0.951
       1.170
       1.342
       1.466
       1.538
       1.559
       1.527
       1.447
       1.327
       1.176
       1.005
       0.825
       0.648
       0.480
       0.320
       0.168
       0.021
      -0.116
      -0.237
      -0.339
      -0.421
      -0.486
      -0.534
      -0.566
      -0.581
      -0.581
      -0.570
      -0.550
      -0.523
      -0.494
      -0.469
      -0.449
      -0.432
      -0.411
      -0.381
      -0.342
      -0.296
      -0.248
      -0.195
      -0.130
      -0.049
       0.051
       0.169
       0.307
       0.468
       0.652
       0.845
       1.027
       1.177
       1.278
       1.317
       1.289
       1.195
       1.046
       0.860
       0.655
       0.441
       0.221
      -0.002
      -0.215
      -0.405
      -0.558
      -0.671
      -0.748
      -0.796
      -0.823
      -0.835
      -0.838
      -0.836
      -0.824
      -0.796
      -0.747
      -0.679
      -0.600
      -0.519
      -0.431
      -0.329
      -0.201
      -0.045
       0.138
       0.346
       0.571
       0.799
       1.004
       1.164
       1.266
       1.312
       1.307
       1.252
       1.141
       0.975
       0.763
       0.523
       0.274
       0.034
      -0.185
      -0.373
      -0.522
      -0.632
      -0.707
      -0.753
      -0.771
      -0.764
      -0.734
      -0.687
      -0.636
      -0.587
      -0.545
      -0.512
      -0.484
      -0.458
      -0.428
      -0.390
      -0.342
      -0.287
      -0.228
      -0.170
      -0.109
      -0.042
       0.031
       0.105
       0.170
       0.219
       0.250
       0.266
       0.267
       0.255
       0.235
       0.215
       0.198
       0.189
       0.183
       0.178
       0.167
       0.143
       0.096
       0.018
      -0.090
      -0.213
      -0.329
      -0.420
      -0.475
      -0.495
      -0.487
      -0.456
      -0.409
      -0.356
      -0.307
      -0.266
      -0.233
      -0.204
      -0.170
      -0.128
      -0.076
      -0.018
       0.043
       0.095
       0.127
       0.132
       0.109
       0.066
       0.013
      -0.043
      -0.097
      -0.143
      -0.173
      -0.180
      -0.161
      -0.122
      -0.070
      -0.011
       0.053
       0.117
       0.175
       0.224
       0.264
       0.299
       0.328
       0.344
       0.336
       0.302
       0.241
       0.154
       0.045
      -0.084
      -0.223
      -0.358
      -0.474
      -0.561
      -0.612
      -0.622
      -0.585
      -0.497
      -0.364
      -0.198
      -0.022
       0.145
       0.287
       0.393
       0.453
       0.465
       0.429
       0.355
       0.256
       0.151
       0.055
      -0.020
      -0.069
      -0.087
      -0.069
      -0.014
       0.078
       0.205
       0.361
       0.537
       0.717
       0.883
       1.019
       1.111
       1.152
       1.132
       1.048
       0.901
       0.706
       0.484
       0.259
       0.043
      -0.152
      -0.323
      -0.464
      -0.574
      -0.659
      -0.729
      -0.786
      -0.829
      -0.854
      -0.865
      -0.864
      -0.856
      -0.836
      -0.803
      -0.757
      -0.699
      -0.631
      -0.552
      -0.461
      -0.363
      -0.263
      -0.167
      -0.074
       0.014
       0.096
       0.171
       0.238
       0.303
       0.365
       0.420
       0.458
       0.470
       0.455
       0.421
       0.376
       0.331
       0.292
       0.262
       0.236
       0.202
       0.151
       0.079
      -0.012
      -0.113
      -0.212
      -0.302
      -0.376
      -0.431
      -0.463
      -0.469
      -0.450
      -0.404
      -0.331
      -0.235
      -0.122
      -0.001
       0.122
       0.243
       0.361
       0.477
       0.592
       0.700
       0.793
       0.859
       0.889
       0.869
       0.795
       0.669
       0.500
       0.302
       0.088
      -0.131
      -0.342
      -0.531
      -0.679
      -0.773
      -0.803
      -0.767
      -0.677
      -0.551
      -0.411
      -0.277
      -0.159
      -0.063
       0.014
       0.072
       0.115
       0.147
       0.168
       0.180
       0.184
       0.185
       0.188
       0.192
       0.196
       0.197
       0.202
       0.215
       0.237
       0.260
       0.275
       0.283
       0.284
       0.278
       0.262
       0.230
       0.186
       0.136
       0.090
       0.053
       0.029
       0.021
       0.024
       0.032
       0.035
       0.024
       0.003
      -0.024
      -0.052
      -0.081
      -0.109
      -0.132
      -0.142
      -0.135
      -0.118
      -0.095
      -0.070
      -0.043
      -0.021
      -0.013
      -0.032
      -0.078
      -0.145
      -0.223
      -0.307
      -0.392
      -0.465
      -0.511
      -0.514
      -0.472
      -0.395
      -0.295
      -0.181
      -0.060
       0.064
       0.183
       0.291
       0.384
       0.459
       0.506
       0.516
       0.484
       0.421
       0.342
       0.260
       0.181
       0.103
       0.028
      -0.040
      -0.102
      -0.164
      -0.235
      -0.319
      -0.410
      -0.500
      -0.583
      -0.650
      -0.693
      -0.698
      -0.659
      -0.576
      -0.457
      -0.314
      -0.159
      -0.009
       0.119
       0.211
       0.266
       0.292
       0.298
       0.291
       0.269
       0.232
       0.183
       0.129
       0.074
       0.023
      -0.027
      -0.080
      -0.140
      -0.209
      -0.285
      -0.366
      -0.451
      -0.535
      -0.605
      -0.649
      -0.652
      -0.608
      -0.511
      -0.363
      -0.171
       0.054
       0.300
       0.555
       0.809
       1.049
       1.260
       1.420
       1.513
       1.525
       1.454
       1.306
       1.089
       0.816
       0.502
       0.168
      -0.167
      -0.484
      -0.767
      -0.998
      -1.163
      -1.254
      -1.277
      -1.251
      -1.193
      -1.108
      -0.994
      -0.845
      -0.664
      -0.464
      -0.264
      -0.077
       0.087
       0.227
       0.344
       0.442
       0.525
       0.592
       0.637
       0.653
       0.635
       0.580
       0.483
       0.339
       0.152
      -0.064
      -0.286
      -0.485
      -0.640
      -0.733
      -0.754
      -0.702
      -0.589
      -0.432
      -0.251
      -0.059
       0.137
       0.326
       0.492
       0.613
       0.674
       0.673
       0.618
       0.530
       0.428
       0.333
       0.260
       0.218
       0.210
       0.229
       0.263
       0.303
       0.341
       0.375
       0.398
       0.401
       0.369
       0.297
       0.186
       0.050
      -0.098
      -0.246
      -0.386
      -0.510
      -0.612
      -0.686
      -0.726
      -0.728
      -0.689
      -0.610
      -0.499
      -0.370
      -0.235
      -0.100
       0.027
       0.143
       0.241
       0.315
       0.366
       0.395
       0.407
       0.402
       0.382
       0.345
       0.290
       0.215
       0.117
       0.003
      -0.114
      -0.217
      -0.293
      -0.339
      -0.358
      -0.354
      -0.332
      -0.298
      -0.260
      -0.226
      -0.199
      -0.179
      -0.169
      -0.173
      -0.189
      -0.204
      -0.196
      -0.146
      -0.046
       0.097
       0.270
       0.461
       0.661
       0.859
       1.040
       1.191
       1.299
       1.354
       1.347
       1.271
       1.124
       0.908
       0.629
       0.297
      -0.070
      -0.454
      -0.833
      -1.184
      -1.483
      -1.706
      -1.832
      -1.850
      -1.761
      -1.570
      -1.295
      -0.959
      -0.591
      -0.217
       0.147
       0.488
       0.788
       1.028
       1.189
       1.267
       1.267
       1.200
       1.075
       0.899
       0.676
       0.413
       0.122
      -0.180
      -0.475
      -0.742
      -0.963
      -1.125
      -1.218
      -1.234
      -1.166
      -1.012
      -0.778
      -0.480
      -0.140
       0.219
       0.577
       0.914
       1.208
       1.438
       1.589
       1.653
       1.635
       1.545
       1.390
       1.173
       0.898
       0.577
       0.230
      -0.119
      -0.444
      -0.726
      -0.950
      -1.110
      -1.207
      -1.251
      -1.257
      -1.239
      -1.210
      -1.175
      -1.135
      -1.084
      -1.015
      -0.921
      -0.799
      -0.649
      -0.476
      -0.289
      -0.103
       0.071
       0.228
       0.364
       0.476
       0.563
       0.624
       0.661
       0.678
       0.674
       0.644
       0.582
       0.488
       0.369
       0.229
       0.074
      -0.092
      -0.258
      -0.413
      -0.545
      -0.652
      -0.730
      -0.775
      -0.780
      -0.736
      -0.639
      -0.497
      -0.326
      -0.146
       0.021
       0.158
       0.255
       0.309
       0.325
       0.314
       0.290
       0.264
       0.246
       0.235
       0.228
       0.220
       0.213
       0.210
       0.218
       0.241
       0.282
       0.337
       0.399
       0.459
       0.505
       0.531
       0.528
       0.492
       0.425
       0.331
       0.217
       0.087
      -0.054
      -0.199
      -0.336
      -0.451
      -0.531
      -0.571
      -0.572
      -0.541
      -0.480
      -0.395
      -0.293
      -0.188
      -0.093
      -0.014
       0.047
       0.091
       0.114
       0.111
       0.078
       0.019
      -0.058
      -0.144
      -0.227
      -0.294
      -0.334
      -0.338
      -0.303
      -0.231
      -0.129
      -0.003
       0.141
       0.297
       0.453
       0.599
       0.724
       0.824
       0.898
       0.941
       0.953
       0.937
       0.899
       0.842
       0.763
       0.655
       0.515
       0.341
       0.139
      -0.084
      -0.319
      -0.555
      -0.782
      -0.987
      -1.160
      -1.290
      -1.369
      -1.388
      -1.344
      -1.239
      -1.082
      -0.884
      -0.661
      -0.426
      -0.189
       0.037
       0.244
       0.420
       0.562
       0.670
       0.754
       0.819
       0.868
       0.899
       0.915
       0.919
       0.916
       0.905
       0.883
       0.848
       0.799
       0.737
       0.662
       0.572
       0.468
       0.349
       0.218
       0.075
      -0.076
      -0.229
      -0.374
      -0.500
      -0.601
      -0.676
      -0.726
      -0.753
      -0.752
      -0.721
      -0.666
      -0.596
      -0.521
      -0.444
      -0.369
      -0.296
      -0.220
      -0.133
      -0.022
       0.112
       0.256
       0.390
       0.500
       0.582
       0.639
       0.670
       0.673
       0.643
       0.584
       0.498
       0.390
       0.261
       0.115
      -0.037
      -0.183
      -0.312
      -0.416
      -0.491
      -0.536
      -0.555
      -0.556
      -0.545
      -0.526
      -0.500
      -0.466
      -0.429
      -0.395
      -0.369
      -0.351
      -0.336
      -0.322
      -0.302
      -0.270
      -0.224
      -0.160
      -0.080
       0.011
       0.110
       0.206
       0.291
       0.360
       0.408
       0.437
       0.450
       0.451
       0.442
       0.424
       0.399
       0.364
       0.319
       0.262
       0.190
       0.095
      -0.027
      -0.177
      -0.350
      -0.531
      -0.700
      -0.834
      -0.915
      -0.934
      -0.892
      -0.800
      -0.673
      -0.526
      -0.366
      -0.197
      -0.021
       0.156
       0.322
       0.466
       0.585
       0.678
       0.743
       0.776
       0.774
       0.739
       0.683
       0.614
       0.538
       0.459
       0.385
       0.326
       0.286
       0.259
       0.235
       0.204
       0.164
       0.116
       0.061
      -0.003
      -0.079
      -0.163
      -0.253
      -0.344
      -0.432
      -0.509
      -0.567
      -0.599
      -0.604
      -0.590
      -0.562
      -0.523
      -0.473
      -0.410
      -0.337
      -0.258
      -0.180
      -0.106
      -0.041
       0.012
       0.053
       0.084
       0.109
       0.127
       0.138
       0.141
       0.137
       0.129
       0.120
       0.108
       0.096
       0.089
       0.088
       0.090
       0.087
       0.075
       0.054
       0.029
       0.007
      -0.008
      -0.014
      -0.011
      -0.001
       0.016
       0.036
       0.053
       0.060
       0.050
       0.023
      -0.015
      -0.059
      -0.099
      -0.134
      -0.162
      -0.179
      -0.184
      -0.174
      -0.154
      -0.128
      -0.100
      -0.066
      -0.023
       0.029
       0.086
       0.137
       0.178
       0.201
       0.202
       0.170
       0.099
      -0.013
      -0.159
      -0.328
      -0.505
      -0.676
      -0.821
      -0.921
      -0.963
      -0.940
      -0.855
      -0.721
      -0.549
      -0.351
      -0.137
       0.087
       0.310
       0.523
       0.715
       0.869
       0.967
       0.993
       0.945
       0.829
       0.661
       0.463
       0.259
       0.079
      -0.050
      -0.111
      -0.103
      -0.033
       0.085
       0.237
       0.407
       0.576
       0.723
       0.827
       0.872
       0.850
       0.763
       0.622
       0.439
       0.227
      -0.007
      -0.251
      -0.488
      -0.700
      -0.866
      -0.973
      -1.013
      -0.988
      -0.905
      -0.773
      -0.604
      -0.409
