Origin Time       12/3/2010 23:19:54	 UTC
Lat.              23.0 N	
Long.             94.5 E	
Depth (Km)         96.0
Magnitude         5.6
 Region           MYANMAR                                                          
 Above details taken from IMD 
    
Station Code      GLP
Station Lat.       26.152  N
Station Long.      90.627  E
Station Height(m)   56.0
Site Class        C   Vs30 between 200 m/sec to 375 m/sec *  
Record Time       12.03.2010 23:21:22.259 UTC
Sampling Rate     200. Hz
 Record Duration   98.660 Sec.
 Direction         N-S (N positive)
Max. Acceleration      5.073 cm/sec**2
     
  * For reference see Site Classification link of website 
     
 Base Line Corrected and Low Pass Filtered (Cut Off at 35 Hz) Time History
 Acceleration data in cm/sec**2
    
[...]
       0.157
       0.105
       0.017
      -0.073
      -0.106
      -0.038
       0.110
       0.260
       0.328
       0.280
       0.154
       0.030
      -0.032
      -0.022
       0.024
       0.064
       0.078
       0.074
       0.070
       0.075
       0.082
       0.083
       0.072
       0.048
       0.002
      -0.080
      -0.194
      -0.301
      -0.356
      -0.348
      -0.314
      -0.299
      -0.307
      -0.302
      -0.247
      -0.141
      -0.010
       0.123
       0.244
       0.338
       0.384
       0.375
       0.328
       0.266
       0.187
       0.072
      -0.088
      -0.253
      -0.358
      -0.359
      -0.283
      -0.202
      -0.181
      -0.221
      -0.270
      -0.266
      -0.191
      -0.083
      -0.010
      -0.022
      -0.113
      -0.220
      -0.267
      -0.215
      -0.100
       0.001
       0.023
      -0.037
      -0.128
      -0.180
      -0.155
      -0.060
       0.060
       0.155
       0.186
       0.147
       0.066
      -0.007
      -0.035
      -0.020
      -0.006
      -0.037
      -0.114
      -0.200
      -0.252
      -0.263
      -0.256
      -0.255
      -0.256
      -0.234
      -0.166
      -0.059
       0.055
       0.138
       0.179
       0.199
       0.229
       0.286
       0.350
       0.373
       0.320
       0.202
       0.079
       0.017
       0.039
       0.110
       0.173
       0.194
       0.186
       0.185
       0.216
       0.272
       0.323
       0.340
       0.319
       0.277
       0.243
       0.238
       0.262
       0.289
       0.283
       0.217
       0.092
      -0.060
      -0.189
      -0.241
      -0.184
      -0.025
       0.185
       0.374
       0.492
       0.526
       0.504
       0.465
       0.435
       0.406
       0.361
       0.301
       0.254
       0.259
       0.311
       0.355
       0.313
       0.151
      -0.085
      -0.284
      -0.346
      -0.248
      -0.069
       0.072
       0.103
       0.050
       0.005
       0.047
       0.178
       0.329
       0.423
       0.437
       0.412
       0.405
       0.430
       0.454
       0.431
       0.354
       0.267
       0.228
       0.261
       0.331
       0.362
       0.279
       0.048
      -0.308
      -0.708
      -1.056
      -1.281
      -1.360
      -1.310
      -1.161
      -0.946
      -0.705
      -0.475
      -0.278
      -0.105
       0.072
       0.269
       0.473
       0.640
       0.714
       0.664
       0.514
       0.334
       0.202
       0.150
       0.149
       0.132
       0.038
      -0.147
      -0.387
      -0.609
      -0.739
      -0.734
      -0.612
      -0.453
      -0.358
      -0.378
      -0.481
      -0.578
      -0.586
      -0.479
      -0.286
      -0.062
       0.145
       0.301
       0.383
       0.380
       0.293
       0.150
      -0.002
      -0.110
      -0.148
      -0.126
      -0.086
      -0.076
      -0.124
      -0.221
      -0.327
      -0.385
      -0.350
      -0.200
       0.048
       0.335
       0.576
       0.699
       0.679
       0.554
       0.396
       0.271
       0.203
       0.174
       0.132
       0.023
      -0.177
      -0.438
      -0.681
      -0.814
      -0.785
      -0.615
      -0.385
      -0.185
      -0.064
      -0.015
      -0.009
      -0.023
      -0.059
      -0.118
      -0.199
      -0.292
      -0.389
      -0.473
      -0.517
      -0.491
      -0.389
      -0.228
      -0.034
       0.170
       0.368
       0.537
       0.650
       0.691
       0.678
       0.645
       0.613
       0.566
       0.459
       0.261
      -0.013
      -0.308
      -0.555
      -0.700
      -0.718
      -0.628
      -0.490
      -0.371
      -0.320
      -0.351
      -0.443
      -0.556
      -0.641
      -0.655
      -0.574
      -0.397
      -0.150
       0.133
       0.426
       0.707
       0.957
       1.163
       1.325
       1.445
       1.502
       1.472
       1.337
       1.105
       0.800
       0.455
       0.102
      -0.236
      -0.550
      -0.839
      -1.089
      -1.274
      -1.372
      -1.396
      -1.385
      -1.353
      -1.267
      -1.064
      -0.716
      -0.260
       0.210
       0.592
       0.836
       0.963
       1.040
       1.132
       1.254
       1.380
       1.466
       1.479
       1.407
       1.250
       1.020
       0.740
       0.442
       0.157
      -0.085
      -0.267
      -0.392
      -0.480
      -0.561
      -0.648
      -0.728
      -0.772
      -0.763
      -0.700
      -0.590
      -0.434
      -0.241
      -0.035
       0.143
       0.265
       0.336
       0.390
       0.461
       0.564
       0.676
       0.745
       0.721
       0.598
       0.432
       0.306
       0.261
       0.261
       0.227
       0.102
      -0.098
      -0.304
      -0.443
      -0.481
      -0.423
      -0.300
      -0.155
      -0.046
      -0.032
      -0.149
      -0.391
      -0.698
      -0.978
      -1.150
      -1.180
      -1.095
      -0.964
      -0.843
      -0.742
      -0.622
      -0.429
      -0.139
       0.220
       0.573
       0.845
       1.002
       1.063
       1.071
       1.046
       0.969
       0.799
       0.513
       0.127
      -0.309
      -0.742
      -1.134
      -1.449
      -1.649
      -1.702
      -1.597
      -1.359
      -1.044
      -0.720
      -0.437
      -0.209
      -0.008
       0.209
       0.462
       0.729
       0.963
       1.124
       1.197
       1.200
       1.160
       1.106
       1.044
       0.966
       0.853
       0.695
       0.491
       0.258
       0.023
      -0.181
      -0.319
      -0.370
      -0.337
      -0.245
      -0.134
      -0.041
       0.017
       0.044
       0.067
       0.107
       0.151
       0.143
       0.012
      -0.271
      -0.659
      -1.035
      -1.277
      -1.311
      -1.150
      -0.865
      -0.555
      -0.300
      -0.141
      -0.074
      -0.057
      -0.033
       0.050
       0.211
       0.416
       0.587
       0.649
       0.584
       0.439
       0.292
       0.204
       0.185
       0.208
       0.240
       0.257
       0.253
       0.228
       0.180
       0.105
       0.003
      -0.107
      -0.199
      -0.251
      -0.254
      -0.206
      -0.100
       0.071
       0.292
       0.534
       0.772
       1.003
       1.240
       1.478
       1.695
       1.866
       1.990
       2.076
       2.114
       2.066
       1.890
       1.574
       1.152
       0.688
       0.243
      -0.141
      -0.448
      -0.682
      -0.865
      -1.017
      -1.145
      -1.237
      -1.274
      -1.257
      -1.208
      -1.153
      -1.098
      -1.035
      -0.954
      -0.846
      -0.703
      -0.532
      -0.370
      -0.270
      -0.265
      -0.340
      -0.451
      -0.567
      -0.701
      -0.896
      -1.171
      -1.474
      -1.692
      -1.712
      -1.493
      -1.097
      -0.650
      -0.272
      -0.021
       0.122
       0.216
       0.310
       0.413
       0.493
       0.518
       0.490
       0.449
       0.441
       0.472
       0.505
       0.485
       0.393
       0.267
       0.184
       0.202
       0.323
       0.504
       0.705
       0.912
       1.117
       1.287
       1.376
       1.360
       1.252
       1.095
       0.926
       0.752
       0.555
       0.316
       0.045
      -0.218
      -0.440
      -0.618
      -0.777
      -0.945
      -1.119
      -1.260
      -1.294
      -1.151
      -0.803
      -0.284
       0.320
       0.900
       1.368
       1.680
       1.836
       1.875
       1.848
       1.794
       1.707
       1.546
       1.261
       0.822
       0.235
      -0.470
      -1.225
      -1.930
      -2.484
      -2.826
      -2.944
      -2.861
      -2.612
      -2.237
      -1.781
      -1.287
      -0.787
      -0.298
       0.168
       0.601
       0.989
       1.323
       1.598
       1.816
       1.987
       2.112
       2.170
       2.127
       1.940
       1.582
       1.054
       0.401
      -0.284
      -0.887
      -1.310
      -1.512
      -1.520
      -1.412
      -1.282
      -1.193
      -1.146
      -1.089
      -0.950
      -0.677
      -0.263
       0.245
       0.755
       1.155
       1.354
       1.306
       1.023
       0.575
       0.073
      -0.368
      -0.672
      -0.824
      -0.852
      -0.804
      -0.728
      -0.666
      -0.646
      -0.659
      -0.664
      -0.622
      -0.538
      -0.466
      -0.463
      -0.543
      -0.658
      -0.726
      -0.675
      -0.481
      -0.172
       0.186
       0.523
       0.789
       0.977
       1.117
       1.249
       1.395
       1.539
       1.641
       1.657
       1.556
       1.336
       1.013
       0.627
       0.236
      -0.068
      -0.179
      -0.020
       0.400
       0.959
       1.471
       1.778
       1.820
       1.643
       1.320
       0.898
       0.384
      -0.208
      -0.827
      -1.395
      -1.861
      -2.225
      -2.519
      -2.752
      -2.896
      -2.908
      -2.772
      -2.500
      -2.108
      -1.608
      -1.023
      -0.402
       0.197
       0.719
       1.122
       1.360
       1.386
       1.160
       0.676
       0.002
      -0.733
      -1.377
      -1.833
      -2.103
      -2.285
      -2.505
      -2.815
      -3.132
      -3.262
      -3.026
      -2.388
      -1.481
      -0.518
       0.330
       1.004
       1.530
       1.937
       2.207
       2.290
       2.159
       1.861
       1.499
       1.172
       0.925
       0.752
       0.649
       0.641
       0.760
       0.983
       1.211
       1.298
       1.144
       0.765
       0.312
      -0.013
      -0.075
       0.117
       0.438
       0.733
       0.899
       0.905
       0.771
       0.543
       0.280
       0.064
      -0.006
       0.148
       0.514
       0.959
       1.294
       1.407
       1.334
       1.226
       1.215
       1.316
       1.433
       1.441
       1.284
       1.006
       0.714
       0.490
       0.339
       0.199
       0.018
      -0.187
      -0.349
      -0.417
      -0.415
      -0.420
      -0.494
      -0.630
      -0.775
      -0.876
      -0.920
      -0.923
      -0.901
      -0.846
      -0.742
      -0.588
      -0.402
      -0.188
       0.097
       0.524
       1.115
       1.794
       2.410
       2.822
       2.983
       2.951
       2.841
       2.743
       2.655
       2.493
       2.163
       1.630
       0.941
       0.200
      -0.474
      -0.997
      -1.371
      -1.670
      -1.987
      -2.353
      -2.707
      -2.938
      -2.967
      -2.805
      -2.556
      -2.352
      -2.262
      -2.266
      -2.293
      -2.286
      -2.226
      -2.118
      -1.966
      -1.775
      -1.573
      -1.403
      -1.286
      -1.178
      -0.995
      -0.678
      -0.248
       0.205
       0.586
       0.854
       1.040
       1.209
       1.407
       1.618
       1.770
       1.763
       1.516
       1.004
       0.284
      -0.507
      -1.190
      -1.619
      -1.751
      -1.661
      -1.493
      -1.373
      -1.340
      -1.346
      -1.300
      -1.139
      -0.864
      -0.539
      -0.249
      -0.062
      -0.010
      -0.074
      -0.185
      -0.255
      -0.220
      -0.069
       0.170
       0.443
       0.677
       0.780
       0.684
       0.400
       0.050
      -0.186
      -0.177
       0.059
       0.357
       0.510
       0.416
       0.150
      -0.110
      -0.216
      -0.155
      -0.037
       0.005
      -0.083
      -0.250
      -0.402
      -0.491
      -0.549
      -0.635
      -0.760
      -0.874
      -0.882
      -0.686
      -0.224
       0.502
       1.400
       2.321
       3.115
       3.689
       4.006
       4.069
       3.904
       3.573
       3.175
       2.800
       2.477
       2.156
       1.749
       1.188
       0.466
      -0.354
      -1.160
      -1.853
      -2.397
      -2.818
      -3.155
      -3.399
      -3.491
      -3.356
      -2.962
      -2.338
      -1.557
      -0.716
       0.083
       0.757
       1.265
       1.607
       1.808
       1.907
       1.948
       1.974
       2.018
       2.078
       2.108
       2.035
       1.802
       1.418
       0.965
       0.555
       0.248
       0.017
      -0.227
      -0.564
      -0.998
      -1.447
      -1.776
      -1.848
      -1.600
      -1.081
      -0.443
       0.129
       0.506
       0.661
       0.645
       0.526
       0.338
       0.089
      -0.203
      -0.474
      -0.627
      -0.596
      -0.396
      -0.123
       0.114
       0.255
       0.326
       0.411
       0.584
       0.847
       1.123
       1.318
       1.378
       1.312
       1.171
       1.026
       0.947
       0.974
       1.091
       1.236
       1.322
       1.269
       1.024
       0.581
      -0.008
      -0.649
      -1.252
      -1.766
      -2.167
      -2.437
      -2.543
      -2.460
      -2.193
      -1.793
      -1.347
      -0.936
      -0.602
      -0.321
      -0.032
       0.312
       0.697
       1.053
       1.297
       1.372
       1.256
       0.938
       0.406
      -0.335
      -1.228
      -2.149
      -2.922
      -3.379
      -3.433
      -3.122
      -2.598
      -2.047
      -1.602
      -1.290
      -1.051
      -0.812
      -0.555
      -0.338
      -0.243
      -0.308
      -0.490
      -0.697
      -0.866
      -0.995
      -1.109
      -1.170
      -1.042
      -0.562
       0.336
       1.548
       2.831
       3.924
       4.661
       5.015
       5.073
       4.943
       4.682
       4.256
       3.590
       2.659
       1.557
       0.493
      -0.301
      -0.711
      -0.817
      -0.868
      -1.139
      -1.773
      -2.699
      -3.659
      -4.338
      -4.520
      -4.186
      -3.510
      -2.762
      -2.177
      -1.846
      -1.691
      -1.533
      -1.218
      -0.702
      -0.046
       0.642
       1.264
       1.747
       2.034
       2.084
       1.922
       1.674
       1.521
       1.573
       1.762
       1.869
       1.704
       1.267
       0.749
       0.374
       0.232
       0.242
       0.251
       0.154
      -0.061
      -0.341
      -0.623
      -0.841
      -0.933
      -0.847
      -0.577
      -0.183
       0.234
       0.579
       0.808
       0.931
       0.993
       1.040
       1.104
       1.189
       1.278
       1.328
       1.284
       1.100
       0.767
       0.340
      -0.065
      -0.306
      -0.292
      -0.044
       0.286
       0.472
       0.324
      -0.220
      -1.048
      -1.914
      -2.548
      -2.788
      -2.654
      -2.328
      -2.031
      -1.897
      -1.899
      -1.896
      -1.738
      -1.373
      -0.873
      -0.365
       0.056
       0.383
       0.673
       0.982
       1.312
       1.600
       1.758
       1.716
       1.455
       1.021
       0.511
       0.050
      -0.264
      -0.402
      -0.424
      -0.424
      -0.458
      -0.496
      -0.468
      -0.337
      -0.142
       0.022
       0.074
      -0.003
      -0.153
      -0.287
      -0.346
      -0.334
      -0.308
      -0.332
      -0.417
      -0.504
      -0.481
      -0.261
       0.137
       0.578
       0.877
       0.903
       0.642
       0.172
      -0.404
      -1.013
      -1.621
      -2.190
      -2.649
      -2.883
      -2.773
      -2.249
      -1.339
      -0.195
       0.960
       1.933
       2.642
       3.117
       3.422
       3.569
       3.516
       3.233
       2.773
       2.278
       1.893
       1.685
       1.620
       1.620
       1.635
       1.671
       1.753
       1.859
       1.898
       1.746
       1.349
       0.785
       0.234
      -0.134
      -0.281
      -0.320
      -0.422
      -0.669
      -0.999
      -1.272
      -1.409
      -1.448
      -1.489
      -1.579
      -1.679
      -1.719
      -1.683
      -1.610
      -1.522
      -1.375
      -1.092
      -0.656
      -0.171
       0.192
       0.313
       0.203
      -0.024
      -0.250
      -0.429
      -0.588
      -0.791
      -1.075
      -1.406
      -1.663
      -1.678
      -1.320
      -0.582
       0.394
       1.369
       2.107
       2.498
       2.587
       2.526
       2.448
       2.371
       2.193
       1.766
       1.009
      -0.026
      -1.140
      -2.058
      -2.541
      -2.502
      -2.048
      -1.427
      -0.899
      -0.613
      -0.563
      -0.623
      -0.644
      -0.545
      -0.357
      -0.189
      -0.152
      -0.286
      -0.537
      -0.791
      -0.923
      -0.843
      -0.527
      -0.027
       0.555
       1.099
       1.510
       1.743
       1.810
       1.756
       1.612
       1.368
       0.983
       0.433
      -0.237
      -0.900
      -1.378
      -1.522
      -1.283
      -0.747
      -0.090
       0.508
       0.940
       1.199
       1.350
       1.460
       1.554
       1.598
       1.508
       1.195
       0.621
      -0.148
      -0.942
      -1.558
      -1.860
      -1.853
      -1.653
      -1.404
      -1.176
      -0.949
      -0.684
      -0.396
      -0.158
      -0.044
      -0.086
      -0.283
      -0.629
      -1.108
      -1.660
      -2.163
      -2.456
      -2.409
      -1.966
      -1.166
      -0.132
       0.953
       1.887
       2.505
       2.731
       2.587
       2.160
       1.537
       0.752
      -0.194
      -1.274
      -2.371
      -3.312
      -3.950
      -4.238
      -4.216
      -3.955
      -3.519
      -2.981
      -2.433
      -1.955
      -1.565
      -1.200
      -0.777
      -0.275
       0.215
       0.558
       0.678
       0.629
       0.548
       0.562
       0.713
       0.965
       1.247
       1.494
       1.655
       1.686
       1.561
       1.297
       0.972
       0.711
       0.619
       0.716
       0.916
       1.086
       1.140
       1.085
       0.987
       0.900
       0.823
       0.710
       0.535
       0.332
       0.179
       0.139
       0.184
       0.198
       0.064
      -0.221
      -0.499
      -0.535
      -0.172
       0.555
       1.437
       2.219
       2.737
       2.971
       3.004
       2.923
       2.757
       2.477
       2.048
       1.495
       0.927
       0.483
       0.244
       0.172
       0.131
      -0.006
      -0.250
      -0.481
      -0.529
      -0.292
       0.197
       0.797
       1.331
       1.678
       1.810
       1.766
       1.589
       1.282
       0.824
       0.229
      -0.430
      -1.056
      -1.570
      -1.918
      -2.035
      -1.856
      -1.361
      -0.624
       0.199
       0.934
       1.440
       1.637
       1.486
       0.981
       0.171
      -0.806
      -1.721
      -2.347
      -2.578
      -2.492
      -2.299
      -2.195
      -2.251
      -2.398
      -2.495
      -2.419
      -2.109
      -1.581
      -0.913
      -0.226
       0.364
       0.776
       0.967
       0.932
       0.700
       0.348
      -0.021
      -0.318
      -0.498
      -0.560
      -0.520
      -0.384
      -0.162
       0.119
       0.402
       0.617
       0.718
       0.696
       0.585
       0.446
       0.343
       0.332
       0.448
       0.688
       0.986
       1.232
       1.339
       1.291
       1.155
       1.009
       0.878
       0.725
       0.512
       0.256
       0.025
      -0.125
      -0.197
      -0.251
      -0.342
