Origin Time       26/2/2010 4:42:33	 
Lat.              28.5 N	
Long.             86.7 E	
Depth (Km)         28.0
Magnitude         5.4
 Region           Tibet                                                            
 Above details taken from IMD 
   
Station Code      GLP
Station Lat.       26.152
Station Long.      90.627
Station Height(m)   56.0
Site Class        C   Vs30 between 200 m/sec to 375 m/sec *  
Record Time       26.02.2010 04:43:56.844
Sampling Rate     200. Hz
 Record Duration   89.900 Sec.
 Direction         Vert. (Up positive)
Max. Acceleration      2.490 cm/sec**2
     
  * For reference see Site Classification link of website 
     
 Base Line Corrected and Low Pass Filtered (Cut Off at 35 Hz) Time History
 Acceleration data in cm/sec**2
    
[...]
       0.240
       0.247
       0.272
       0.305
       0.327
       0.319
       0.264
       0.149
      -0.031
      -0.251
      -0.467
      -0.627
      -0.704
      -0.699
      -0.638
      -0.544
      -0.418
      -0.246
      -0.022
       0.224
       0.440
       0.585
       0.655
       0.670
       0.640
       0.552
       0.390
       0.161
      -0.092
      -0.313
      -0.470
      -0.568
      -0.635
      -0.682
      -0.685
      -0.602
      -0.428
      -0.211
      -0.017
       0.136
       0.286
       0.472
       0.679
       0.841
       0.903
       0.873
       0.805
       0.745
       0.687
       0.599
       0.477
       0.350
       0.234
       0.112
      -0.049
      -0.248
      -0.445
      -0.598
      -0.694
      -0.746
      -0.765
      -0.743
      -0.674
      -0.571
      -0.461
      -0.358
      -0.256
      -0.149
      -0.048
       0.025
       0.065
       0.089
       0.126
       0.182
       0.230
       0.234
       0.178
       0.081
      -0.018
      -0.092
      -0.139
      -0.185
      -0.250
      -0.323
      -0.362
      -0.325
      -0.203
      -0.038
       0.114
       0.219
       0.292
       0.370
       0.473
       0.582
       0.656
       0.670
       0.624
       0.537
       0.428
       0.309
       0.186
       0.056
      -0.087
      -0.234
      -0.347
      -0.388
      -0.363
      -0.315
      -0.287
      -0.290
      -0.313
      -0.345
      -0.376
      -0.385
      -0.345
      -0.256
      -0.151
      -0.073
      -0.032
      -0.008
       0.023
       0.069
       0.133
       0.232
       0.372
       0.517
       0.597
       0.564
       0.448
       0.326
       0.257
       0.229
       0.196
       0.126
       0.026
      -0.093
      -0.220
      -0.332
      -0.390
      -0.367
      -0.279
      -0.183
      -0.122
      -0.095
      -0.061
       0.008
       0.104
       0.193
       0.240
       0.233
       0.187
       0.134
       0.099
       0.083
       0.063
       0.004
      -0.103
      -0.237
      -0.362
      -0.448
      -0.482
      -0.458
      -0.375
      -0.257
      -0.149
      -0.091
      -0.080
      -0.071
      -0.005
       0.140
       0.332
       0.503
       0.582
       0.538
       0.391
       0.207
       0.052
      -0.047
      -0.112
      -0.182
      -0.267
      -0.328
      -0.320
      -0.238
      -0.134
      -0.071
      -0.070
      -0.090
      -0.070
       0.012
       0.115
       0.172
       0.149
       0.066
      -0.030
      -0.111
      -0.178
      -0.239
      -0.288
      -0.315
      -0.322
      -0.322
      -0.318
      -0.297
      -0.248
      -0.175
      -0.093
      -0.009
       0.091
       0.210
       0.325
       0.387
       0.361
       0.261
       0.145
       0.076
       0.082
       0.136
       0.176
       0.144
       0.022
      -0.145
      -0.276
      -0.290
      -0.167
       0.035
       0.205
       0.251
       0.162
       0.016
      -0.083
      -0.079
       0.000
       0.070
       0.064
      -0.032
      -0.176
      -0.304
      -0.362
      -0.331
      -0.232
      -0.116
      -0.034
      -0.016
      -0.058
      -0.130
      -0.189
      -0.196
      -0.139
      -0.035
       0.084
       0.187
       0.267
       0.342
       0.422
       0.492
       0.511
       0.458
       0.362
       0.285
       0.270
       0.303
       0.321
       0.276
       0.174
       0.052
      -0.061
      -0.158
      -0.231
      -0.258
      -0.229
      -0.178
      -0.159
      -0.204
      -0.277
      -0.302
      -0.226
      -0.061
       0.112
       0.203
       0.184
       0.112
       0.094
       0.201
       0.398
       0.551
       0.525
       0.291
      -0.042
      -0.294
      -0.350
      -0.243
      -0.120
      -0.123
      -0.272
      -0.456
      -0.529
      -0.429
      -0.214
       0.004
       0.145
       0.202
       0.214
       0.223
       0.255
       0.316
       0.406
       0.509
       0.591
       0.614
       0.554
       0.417
       0.239
       0.058
      -0.100
      -0.229
      -0.350
      -0.489
      -0.656
      -0.822
      -0.932
      -0.939
      -0.832
      -0.637
      -0.387
      -0.113
       0.140
       0.320
       0.406
       0.446
       0.532
       0.705
       0.893
       0.963
       0.839
       0.575
       0.308
       0.144
       0.095
       0.099
       0.092
       0.046
      -0.025
      -0.085
      -0.092
      -0.023
       0.098
       0.200
       0.199
       0.071
      -0.112
      -0.236
      -0.230
      -0.126
      -0.015
       0.041
       0.054
       0.070
       0.094
       0.079
      -0.008
      -0.131
      -0.210
      -0.209
      -0.176
      -0.188
      -0.268
      -0.363
      -0.412
      -0.401
      -0.357
      -0.305
      -0.244
      -0.166
      -0.077
       0.015
       0.122
       0.255
       0.394
       0.494
       0.521
       0.496
       0.472
       0.481
       0.504
       0.498
       0.444
       0.362
       0.292
       0.263
       0.264
       0.251
       0.186
       0.072
      -0.045
      -0.124
      -0.180
      -0.265
      -0.415
      -0.601
      -0.751
      -0.818
      -0.820
      -0.810
      -0.823
      -0.848
      -0.849
      -0.791
      -0.658
      -0.454
      -0.211
       0.024
       0.223
       0.408
       0.631
       0.894
       1.121
       1.201
       1.091
       0.863
       0.639
       0.481
       0.348
       0.167
      -0.072
      -0.298
      -0.426
      -0.434
      -0.365
      -0.293
      -0.272
      -0.309
      -0.379
      -0.439
      -0.455
      -0.413
      -0.312
      -0.155
       0.044
       0.250
       0.405
       0.467
       0.445
       0.400
       0.398
       0.456
       0.544
       0.618
       0.649
       0.618
       0.511
       0.323
       0.087
      -0.132
      -0.264
      -0.290
      -0.253
      -0.225
      -0.251
      -0.320
      -0.378
      -0.365
      -0.256
      -0.089
       0.057
       0.107
       0.048
      -0.053
      -0.104
      -0.066
       0.005
       0.015
      -0.065
      -0.161
      -0.170
      -0.064
       0.079
       0.147
       0.101
       0.001
      -0.055
      -0.021
       0.057
       0.098
       0.063
      -0.020
      -0.105
      -0.187
      -0.300
      -0.456
      -0.612
      -0.696
      -0.669
      -0.554
      -0.409
      -0.267
      -0.118
       0.065
       0.279
       0.485
       0.626
       0.658
       0.559
       0.335
       0.029
      -0.276
      -0.490
      -0.566
      -0.530
      -0.461
      -0.428
      -0.451
      -0.494
      -0.496
      -0.404
      -0.214
       0.020
       0.210
       0.300
       0.310
       0.329
       0.435
       0.629
       0.840
       0.996
       1.069
       1.066
       0.989
       0.846
       0.676
       0.536
       0.440
       0.323
       0.096
      -0.260
      -0.657
      -0.983
      -1.201
      -1.355
      -1.488
      -1.570
      -1.538
      -1.389
      -1.198
      -1.024
      -0.821
      -0.468
       0.092
       0.756
       1.308
       1.577
       1.556
       1.400
       1.292
       1.308
       1.365
       1.296
       0.986
       0.472
      -0.065
      -0.427
      -0.525
      -0.429
      -0.296
      -0.249
      -0.296
      -0.351
      -0.329
      -0.209
      -0.043
       0.107
       0.217
       0.300
       0.368
       0.408
       0.402
       0.359
       0.315
       0.298
       0.295
       0.279
       0.254
       0.257
       0.305
       0.356
       0.327
       0.180
      -0.043
      -0.258
      -0.428
      -0.584
      -0.774
      -0.985
      -1.151
      -1.221
      -1.209
      -1.149
      -1.033
      -0.810
      -0.470
      -0.090
       0.209
       0.369
       0.442
       0.532
       0.690
       0.866
       0.955
       0.864
       0.570
       0.127
      -0.345
      -0.713
      -0.901
      -0.942
      -0.930
      -0.923
      -0.874
      -0.689
      -0.341
       0.071
       0.399
       0.567
       0.626
       0.681
       0.793
       0.933
       1.027
       1.018
       0.905
       0.723
       0.520
       0.341
       0.219
       0.164
       0.158
       0.163
       0.136
       0.038
      -0.149
      -0.412
      -0.699
      -0.936
      -1.080
      -1.142
      -1.177
      -1.227
      -1.284
      -1.297
      -1.203
      -0.958
      -0.568
      -0.108
       0.298
       0.550
       0.645
       0.679
       0.762
       0.915
       1.055
       1.064
       0.890
       0.580
       0.238
      -0.036
      -0.196
      -0.249
      -0.227
      -0.168
      -0.104
      -0.048
       0.012
       0.116
       0.316
       0.638
       1.049
       1.444
       1.687
       1.693
       1.492
       1.200
       0.921
       0.669
       0.383
       0.014
      -0.407
      -0.796
      -1.096
      -1.326
      -1.544
      -1.762
      -1.919
      -1.933
      -1.788
      -1.556
      -1.334
      -1.160
      -0.988
      -0.753
      -0.445
      -0.132
       0.105
       0.250
       0.366
       0.524
       0.732
       0.926
       1.039
       1.059
       1.023
       0.961
       0.874
       0.750
       0.602
       0.465
       0.368
       0.300
       0.225
       0.107
      -0.051
      -0.210
      -0.311
      -0.324
      -0.265
      -0.190
      -0.144
      -0.123
      -0.081
       0.024
       0.178
       0.312
       0.355
       0.278
       0.101
      -0.143
      -0.413
      -0.661
      -0.822
      -0.850
      -0.767
      -0.664
      -0.633
      -0.695
      -0.779
      -0.779
      -0.643
      -0.407
      -0.158
       0.033
       0.157
       0.256
       0.376
       0.520
       0.642
       0.692
       0.666
       0.625
       0.646
       0.767
       0.960
       1.161
       1.309
       1.378
       1.377
       1.346
       1.322
       1.303
       1.235
       1.052
       0.749
       0.418
       0.189
       0.121
       0.137
       0.087
      -0.108
      -0.378
      -0.569
      -0.608
      -0.579
      -0.644
      -0.874
      -1.171
      -1.364
      -1.375
      -1.291
      -1.263
      -1.354
      -1.477
      -1.494
      -1.357
      -1.155
      -1.024
      -1.009
      -1.019
      -0.920
      -0.672
      -0.362
      -0.115
       0.030
       0.140
       0.303
       0.526
       0.731
       0.826
       0.786
       0.658
       0.522
       0.436
       0.415
       0.433
       0.444
       0.425
       0.390
       0.369
       0.365
       0.334
       0.233
       0.077
      -0.049
      -0.060
       0.060
       0.244
       0.404
       0.509
       0.581
       0.658
       0.747
       0.825
       0.866
       0.860
       0.821
       0.787
       0.791
       0.825
       0.835
       0.757
       0.587
       0.393
       0.243
       0.128
      -0.036
      -0.308
      -0.639
      -0.900
      -0.998
      -0.952
      -0.873
      -0.848
      -0.867
      -0.846
      -0.729
      -0.543
      -0.356
      -0.189
      -0.008
       0.209
       0.425
       0.563
       0.569
       0.459
       0.305
       0.189
       0.151
       0.156
       0.114
      -0.053
      -0.348
      -0.688
      -0.963
      -1.105
      -1.111
      -1.023
      -0.893
      -0.776
      -0.717
      -0.739
      -0.810
      -0.852
      -0.800
      -0.650
      -0.452
      -0.255
      -0.067
       0.132
       0.342
       0.536
       0.669
       0.705
       0.631
       0.451
       0.184
      -0.130
      -0.450
      -0.747
      -1.002
      -1.180
      -1.214
      -1.054
      -0.727
      -0.342
      -0.020
       0.197
       0.353
       0.514
       0.681
       0.780
       0.742
       0.579
       0.384
       0.247
       0.188
       0.158
       0.109
       0.040
      -0.019
      -0.055
      -0.092
      -0.148
      -0.193
      -0.176
      -0.094
      -0.033
      -0.101
      -0.316
      -0.564
      -0.690
      -0.614
      -0.377
      -0.076
       0.220
       0.489
       0.723
       0.907
       1.039
       1.144
       1.257
       1.382
       1.472
       1.463
       1.326
       1.103
       0.872
       0.692
       0.551
       0.382
       0.129
      -0.178
      -0.432
      -0.529
      -0.462
      -0.307
      -0.154
      -0.037
       0.048
       0.100
       0.086
      -0.020
      -0.200
      -0.399
      -0.565
      -0.679
      -0.731
      -0.703
      -0.584
      -0.397
      -0.195
      -0.018
       0.141
       0.309
       0.486
       0.628
       0.680
       0.626
       0.499
       0.356
       0.236
       0.153
       0.099
       0.047
      -0.040
      -0.183
      -0.365
      -0.541
      -0.681
      -0.792
      -0.899
      -1.006
      -1.081
      -1.095
      -1.055
      -0.990
      -0.909
      -0.789
      -0.601
      -0.341
      -0.039
       0.248
       0.446
       0.505
       0.424
       0.268
       0.130
       0.075
       0.099
       0.130
       0.088
      -0.048
      -0.220
      -0.344
      -0.390
      -0.389
      -0.393
      -0.417
      -0.446
      -0.478
      -0.538
      -0.635
      -0.726
      -0.754
      -0.704
      -0.609
      -0.497
      -0.346
      -0.120
       0.170
       0.460
       0.703
       0.924
       1.187
       1.522
       1.887
       2.201
       2.405
       2.490
       2.469
       2.364
       2.191
       1.969
       1.708
       1.407
       1.066
       0.698
       0.343
       0.040
      -0.196
      -0.386
      -0.563
      -0.749
      -0.934
      -1.076
      -1.133
      -1.109
      -1.059
      -1.058
      -1.128
      -1.202
      -1.183
      -1.037
      -0.829
      -0.665
      -0.588
      -0.547
      -0.457
      -0.300
      -0.138
      -0.057
      -0.082
      -0.171
      -0.264
      -0.339
      -0.414
      -0.515
      -0.644
      -0.775
      -0.867
      -0.887
      -0.824
      -0.691
      -0.516
      -0.321
      -0.117
       0.084
       0.262
       0.392
       0.462
       0.483
       0.477
       0.453
       0.408
       0.335
       0.252
       0.182
       0.130
       0.069
      -0.037
      -0.199
      -0.391
      -0.577
      -0.742
      -0.888
      -1.014
      -1.104
      -1.140
      -1.132
      -1.117
      -1.109
      -1.062
      -0.889
      -0.555
      -0.143
       0.179
       0.290
       0.225
       0.155
       0.232
       0.462
       0.720
       0.883
       0.954
       1.025
       1.165
       1.339
       1.462
       1.495
       1.478
       1.463
       1.443
       1.355
       1.155
       0.865
       0.545
       0.235
      -0.070
      -0.391
      -0.717
      -1.007
      -1.223
      -1.354
      -1.417
      -1.431
      -1.412
      -1.360
      -1.264
      -1.103
      -0.865
      -0.555
      -0.190
       0.214
       0.640
       1.051
       1.382
       1.568
       1.595
       1.507
       1.378
       1.256
       1.137
       0.985
       0.778
       0.534
       0.296
       0.099
      -0.047
      -0.149
      -0.211
      -0.233
      -0.221
      -0.193
      -0.177
      -0.189
      -0.225
      -0.254
      -0.236
      -0.159
      -0.056
       0.003
      -0.029
      -0.133
      -0.238
      -0.281
      -0.254
      -0.205
      -0.201
      -0.288
      -0.466
      -0.686
      -0.887
      -1.033
      -1.122
      -1.159
      -1.141
      -1.050
      -0.870
      -0.596
      -0.245
       0.151
       0.539
       0.865
       1.094
       1.231
       1.321
       1.415
       1.519
       1.579
       1.516
       1.291
       0.933
       0.510
       0.081
      -0.330
      -0.723
      -1.103
      -1.458
      -1.757
      -1.975
      -2.101
      -2.133
      -2.066
      -1.895
      -1.631
      -1.318
      -1.003
      -0.710
      -0.426
      -0.127
       0.191
       0.501
       0.765
       0.959
       1.077
       1.131
       1.140
       1.126
       1.101
       1.054
       0.956
       0.797
       0.612
       0.449
       0.321
       0.201
       0.076
      -0.009
       0.013
       0.159
       0.368
       0.549
       0.658
       0.721
       0.776
       0.825
       0.837
       0.789
       0.689
       0.556
       0.396
       0.211
       0.031
      -0.106
      -0.187
      -0.244
      -0.321
      -0.416
      -0.498
      -0.553
      -0.624
      -0.753
      -0.922
      -1.061
      -1.119
      -1.122
      -1.134
      -1.183
      -1.224
      -1.186
      -1.038
      -0.799
      -0.511
      -0.212
       0.076
       0.353
       0.633
       0.921
       1.186
       1.368
       1.423
       1.342
       1.154
       0.898
       0.594
       0.245
      -0.141
      -0.520
      -0.834
      -1.048
      -1.179
      -1.274
      -1.361
      -1.425
      -1.433
      -1.351
      -1.163
      -0.875
      -0.515
      -0.121
       0.277
       0.671
       1.058
       1.420
       1.720
       1.920
       1.998
       1.943
       1.751
       1.431
       1.023
       0.590
       0.198
      -0.114
      -0.344
      -0.519
      -0.669
      -0.784
      -0.805
      -0.675
      -0.399
      -0.070
       0.192
       0.336
       0.413
       0.519
       0.682
       0.837
       0.909
       0.902
       0.883
       0.883
       0.847
       0.701
       0.459
       0.229
       0.106
       0.066
      -0.016
      -0.228
      -0.535
      -0.821
      -1.014
      -1.139
      -1.249
      -1.342
      -1.358
      -1.256
      -1.067
      -0.865
      -0.704
      -0.590
      -0.504
      -0.426
      -0.348
      -0.276
      -0.224
      -0.207
      -0.207
      -0.174
      -0.064
       0.122
       0.335
       0.527
       0.687
       0.819
       0.904
       0.914
       0.848
       0.736
       0.605
       0.452
       0.257
       0.024
      -0.219
      -0.448
      -0.660
      -0.859
      -1.018
      -1.107
      -1.121
      -1.092
      -1.048
      -0.995
      -0.919
      -0.810
      -0.674
      -0.533
      -0.408
      -0.309
      -0.215
      -0.092
       0.086
       0.304
       0.519
       0.685
       0.777
       0.782
       0.689
       0.497
       0.240
      -0.014
      -0.205
      -0.311
      -0.356
      -0.376
      -0.389
      -0.381
      -0.327
      -0.209
      -0.031
       0.183
       0.408
       0.633
       0.866
       1.110
       1.344
       1.539
       1.677
       1.758
       1.784
       1.752
       1.662
       1.518
       1.329
       1.098
       0.817
       0.474
       0.079
      -0.303
      -0.581
      -0.706
      -0.723
      -0.728
      -0.782
      -0.865
      -0.912
      -0.880
      -0.785
      -0.688
      -0.648
      -0.679
      -0.738
      -0.755
      -0.678
      -0.510
      -0.308
      -0.138
      -0.024
       0.055
       0.130
       0.198
       0.215
       0.137
      -0.045
      -0.294
      -0.547
      -0.759
      -0.919
      -1.048
      -1.171
      -1.295
      -1.409
      -1.504
      -1.581
      -1.625
      -1.603
      -1.479
      -1.259
      -0.993
      -0.739
      -0.515
