Origin Time       12/3/2010 23:19:54	
Lat.              23.0 N	
Long.             94.5 E	
Depth (Km)         96.0
Magnitude         5.6
 Region           MYANMAR                                                          
 Above details taken from IMD 
     
Station Code      GLP
Station Lat.       26.152  N
Station Long.      90.627  E
Station Height(m)   56.0
Site Class        C   Vs30 between 200 m/sec to 375 m/sec *  
Record Time       12.03.2010 23:21:22.259
Sampling Rate     200. Hz
 Record Duration   98.660 Sec.
 Direction         E-W (E positive)
Max. Acceleration     -3.570 cm/sec**2
     
  * For reference see Site Classification link of website 
     
 Base Line Corrected and Low Pass Filtered (Cut Off at 35 Hz) Time History
 Acceleration data in cm/sec**2
    
[...]
       0.311
       0.327
       0.235
       0.051
      -0.183
      -0.414
      -0.583
      -0.647
      -0.589
      -0.429
      -0.216
      -0.013
       0.130
       0.191
       0.180
       0.133
       0.090
       0.073
       0.078
       0.078
       0.048
      -0.005
      -0.043
      -0.017
       0.089
       0.247
       0.400
       0.499
       0.528
       0.498
       0.428
       0.335
       0.232
       0.132
       0.050
      -0.004
      -0.024
      -0.005
       0.054
       0.154
       0.290
       0.452
       0.620
       0.778
       0.913
       1.018
       1.081
       1.084
       1.012
       0.864
       0.663
       0.441
       0.221
       0.003
      -0.221
      -0.451
      -0.663
      -0.811
      -0.854
      -0.779
      -0.626
      -0.463
      -0.348
      -0.288
      -0.234
      -0.123
       0.070
       0.311
       0.533
       0.676
       0.719
       0.684
       0.608
       0.517
       0.411
       0.283
       0.133
      -0.019
      -0.150
      -0.250
      -0.332
      -0.411
      -0.494
      -0.578
      -0.659
      -0.734
      -0.795
      -0.820
      -0.780
      -0.661
      -0.485
      -0.300
      -0.154
      -0.062
      -0.004
       0.049
       0.110
       0.164
       0.193
       0.198
       0.204
       0.233
       0.274
       0.287
       0.234
       0.114
      -0.037
      -0.164
      -0.220
      -0.188
      -0.078
       0.075
       0.223
       0.325
       0.376
       0.399
       0.427
       0.472
       0.522
       0.549
       0.530
       0.449
       0.309
       0.132
      -0.044
      -0.183
      -0.272
      -0.319
      -0.343
      -0.354
      -0.350
      -0.330
      -0.290
      -0.233
      -0.163
      -0.087
      -0.020
       0.022
       0.024
      -0.007
      -0.041
      -0.036
       0.046
       0.215
       0.449
       0.696
       0.898
       1.013
       1.035
       0.983
       0.879
       0.726
       0.510
       0.216
      -0.144
      -0.517
      -0.821
      -0.985
      -0.983
      -0.847
      -0.650
      -0.459
      -0.306
      -0.180
      -0.045
       0.127
       0.333
       0.533
       0.662
       0.660
       0.502
       0.220
      -0.108
      -0.392
      -0.573
      -0.645
      -0.632
      -0.559
      -0.443
      -0.297
      -0.142
       0.000
       0.110
       0.166
       0.142
       0.019
      -0.193
      -0.451
      -0.706
      -0.930
      -1.115
      -1.252
      -1.323
      -1.310
      -1.230
      -1.125
      -1.034
      -0.961
      -0.875
      -0.745
      -0.568
      -0.374
      -0.195
      -0.049
       0.066
       0.160
       0.239
       0.312
       0.379
       0.434
       0.456
       0.427
       0.348
       0.245
       0.162
       0.120
       0.104
       0.073
      -0.012
      -0.149
      -0.294
      -0.385
      -0.384
      -0.305
      -0.203
      -0.130
      -0.098
      -0.074
      -0.011
       0.115
       0.297
       0.509
       0.721
       0.901
       1.017
       1.032
       0.923
       0.683
       0.328
      -0.104
      -0.554
      -0.954
      -1.242
      -1.378
      -1.354
      -1.205
      -0.989
      -0.772
      -0.592
      -0.435
      -0.239
       0.075
       0.540
       1.101
       1.628
       1.977
       2.066
       1.901
       1.560
       1.141
       0.731
       0.381
       0.106
      -0.103
      -0.262
      -0.377
      -0.448
      -0.479
      -0.488
      -0.487
      -0.471
      -0.417
      -0.297
      -0.099
       0.165
       0.467
       0.778
       1.080
       1.363
       1.610
       1.794
       1.883
       1.860
       1.745
       1.592
       1.456
       1.361
       1.283
       1.174
       1.006
       0.794
       0.582
       0.404
       0.267
       0.154
       0.040
      -0.101
      -0.285
      -0.507
      -0.731
      -0.903
      -0.990
      -1.004
      -0.993
      -1.006
      -1.049
      -1.073
      -1.005
      -0.789
      -0.435
      -0.021
       0.342
       0.575
       0.657
       0.627
       0.549
       0.477
       0.442
       0.443
       0.457
       0.453
       0.400
       0.275
       0.076
      -0.173
      -0.430
      -0.652
      -0.806
      -0.869
      -0.839
      -0.739
      -0.611
      -0.493
      -0.394
      -0.294
      -0.165
       0.004
       0.192
       0.360
       0.473
       0.502
       0.423
       0.220
      -0.094
      -0.452
      -0.752
      -0.907
      -0.890
      -0.751
      -0.580
      -0.455
      -0.406
      -0.413
      -0.422
      -0.390
      -0.301
      -0.170
      -0.023
       0.118
       0.240
       0.337
       0.409
       0.463
       0.498
       0.509
       0.493
       0.464
       0.450
       0.467
       0.500
       0.490
       0.363
       0.084
      -0.303
      -0.684
      -0.936
      -1.003
      -0.927
      -0.818
      -0.775
      -0.823
      -0.916
      -0.968
      -0.917
      -0.747
      -0.492
      -0.209
       0.054
       0.264
       0.401
       0.439
       0.347
       0.121
      -0.189
      -0.477
      -0.629
      -0.592
      -0.406
      -0.184
      -0.035
      -0.002
      -0.056
      -0.122
      -0.127
      -0.040
       0.104
       0.216
       0.197
       0.009
      -0.293
      -0.597
      -0.794
      -0.837
      -0.753
      -0.599
      -0.432
      -0.277
      -0.134
       0.007
       0.152
       0.305
       0.464
       0.620
       0.754
       0.830
       0.817
       0.707
       0.528
       0.335
       0.176
       0.078
       0.040
       0.051
       0.085
       0.104
       0.068
      -0.035
      -0.178
      -0.305
      -0.371
      -0.372
      -0.336
      -0.293
      -0.257
      -0.229
      -0.209
      -0.205
      -0.222
      -0.253
      -0.267
      -0.235
      -0.143
      -0.014
       0.109
       0.185
       0.204
       0.183
       0.151
       0.121
       0.091
       0.047
      -0.020
      -0.112
      -0.227
      -0.356
      -0.482
      -0.580
      -0.624
      -0.603
      -0.521
      -0.405
      -0.302
      -0.271
      -0.362
      -0.583
      -0.881
      -1.161
      -1.345
      -1.412
      -1.394
      -1.333
      -1.239
      -1.086
      -0.831
      -0.457
       0.017
       0.541
       1.062
       1.530
       1.889
       2.079
       2.053
       1.811
       1.410
       0.952
       0.539
       0.238
       0.056
      -0.036
      -0.066
      -0.035
       0.069
       0.251
       0.486
       0.747
       1.006
       1.243
       1.416
       1.469
       1.349
       1.054
       0.647
       0.234
      -0.093
      -0.289
      -0.364
      -0.355
      -0.286
      -0.147
       0.098
       0.467
       0.915
       1.337
       1.612
       1.684
       1.586
       1.411
       1.238
       1.092
       0.942
       0.749
       0.498
       0.215
      -0.047
      -0.237
      -0.325
      -0.309
      -0.208
      -0.060
       0.094
       0.219
       0.293
       0.301
       0.248
       0.159
       0.086
       0.085
       0.183
       0.361
       0.569
       0.758
       0.908
       1.028
       1.133
       1.219
       1.261
       1.220
       1.069
       0.797
       0.409
      -0.077
      -0.618
      -1.135
      -1.533
      -1.744
      -1.766
      -1.663
      -1.532
      -1.446
      -1.403
      -1.329
      -1.128
      -0.733
      -0.147
       0.561
       1.267
       1.810
       2.031
       1.845
       1.302
       0.595
      -0.029
      -0.400
      -0.516
      -0.531
      -0.644
      -0.967
      -1.451
      -1.930
      -2.228
      -2.268
      -2.098
      -1.837
      -1.594
      -1.412
      -1.270
      -1.118
      -0.920
      -0.691
      -0.492
      -0.395
      -0.431
      -0.566
      -0.714
      -0.783
      -0.703
      -0.445
      -0.031
       0.467
       0.939
       1.273
       1.399
       1.323
       1.124
       0.920
       0.808
       0.803
       0.827
       0.757
       0.501
       0.051
      -0.513
      -1.069
      -1.505
      -1.752
      -1.801
      -1.690
      -1.478
      -1.231
      -1.017
      -0.906
      -0.939
      -1.101
      -1.313
      -1.481
      -1.546
      -1.514
      -1.433
      -1.351
      -1.289
      -1.231
      -1.135
      -0.946
      -0.622
      -0.171
       0.335
       0.781
       1.062
       1.136
       1.025
       0.785
       0.468
       0.104
      -0.286
      -0.689
      -1.083
      -1.429
      -1.671
      -1.754
      -1.661
      -1.432
      -1.146
      -0.872
      -0.631
      -0.380
      -0.058
       0.363
       0.853
       1.338
       1.734
       1.964
       1.980
       1.784
       1.442
       1.076
       0.817
       0.748
       0.883
       1.169
       1.505
       1.769
       1.844
       1.659
       1.218
       0.610
      -0.023
      -0.533
      -0.829
      -0.906
      -0.834
      -0.707
      -0.595
      -0.512
      -0.418
      -0.251
       0.045
       0.487
       1.031
       1.583
       2.043
       2.350
       2.510
       2.576
       2.591
       2.549
       2.387
       2.028
       1.445
       0.698
      -0.085
      -0.761
      -1.230
      -1.457
      -1.470
      -1.326
      -1.077
      -0.762
      -0.416
      -0.100
       0.098
       0.114
      -0.038
      -0.246
      -0.355
      -0.254
       0.055
       0.466
       0.825
       1.017
       1.019
       0.899
       0.764
       0.690
       0.685
       0.717
       0.747
       0.763
       0.769
       0.767
       0.742
       0.662
       0.505
       0.278
       0.032
      -0.159
      -0.234
      -0.180
      -0.039
       0.116
       0.215
       0.226
       0.167
       0.084
       0.023
      -0.004
      -0.019
      -0.053
      -0.116
      -0.182
      -0.197
      -0.110
       0.106
       0.423
       0.763
       1.013
       1.065
       0.865
       0.440
      -0.100
      -0.610
      -0.956
      -1.079
      -1.022
      -0.924
      -0.959
      -1.239
      -1.749
      -2.345
      -2.821
      -3.003
      -2.824
      -2.341
      -1.702
      -1.069
      -0.558
      -0.219
      -0.052
      -0.029
      -0.104
      -0.220
      -0.320
      -0.375
      -0.374
      -0.316
      -0.182
       0.054
       0.398
       0.814
       1.231
       1.570
       1.786
       1.880
       1.881
       1.811
       1.663
       1.412
       1.034
       0.530
      -0.066
      -0.683
      -1.207
      -1.499
      -1.455
      -1.072
      -0.476
       0.141
       0.608
       0.844
       0.863
       0.741
       0.574
       0.447
       0.406
       0.444
       0.512
       0.541
       0.459
       0.210
      -0.235
      -0.851
      -1.541
      -2.163
      -2.586
      -2.760
      -2.738
      -2.643
      -2.591
      -2.619
      -2.665
      -2.608
      -2.353
      -1.897
      -1.340
      -0.819
      -0.402
      -0.036
       0.418
       1.068
       1.877
       2.658
       3.168
       3.247
       2.909
       2.320
       1.703
       1.204
       0.842
       0.537
       0.205
      -0.177
      -0.589
      -0.996
      -1.358
      -1.609
      -1.658
      -1.451
      -1.047
      -0.621
      -0.364
      -0.365
      -0.565
      -0.827
      -1.037
      -1.152
      -1.173
      -1.109
      -0.975
      -0.802
      -0.645
      -0.543
      -0.498
      -0.474
      -0.435
      -0.369
      -0.293
      -0.229
      -0.186
      -0.152
      -0.107
      -0.041
       0.041
       0.132
       0.244
       0.401
       0.614
       0.847
       1.023
       1.061
       0.939
       0.734
       0.586
       0.603
       0.783
       0.998
       1.077
       0.913
       0.531
       0.067
      -0.318
      -0.534
      -0.594
      -0.570
      -0.523
      -0.463
      -0.348
      -0.121
       0.256
       0.771
       1.337
       1.806
       2.035
       1.966
       1.670
       1.297
       0.987
       0.816
       0.792
       0.883
       1.032
       1.179
       1.275
       1.318
       1.342
       1.387
       1.449
       1.480
       1.427
       1.277
       1.062
       0.827
       0.596
       0.356
       0.076
      -0.265
      -0.662
      -1.082
      -1.479
      -1.800
      -1.990
      -1.994
      -1.787
      -1.407
      -0.962
      -0.586
      -0.361
      -0.265
      -0.183
       0.000
       0.316
       0.696
       1.030
       1.250
       1.357
       1.374
       1.298
       1.091
       0.738
       0.294
      -0.122
      -0.403
      -0.531
      -0.589
      -0.703
      -0.953
      -1.314
      -1.667
      -1.865
      -1.803
      -1.452
      -0.864
      -0.146
       0.554
       1.094
       1.400
       1.498
       1.501
       1.531
       1.634
       1.763
       1.815
       1.702
       1.407
       0.983
       0.514
       0.075
      -0.287
      -0.566
      -0.788
      -1.014
      -1.310
      -1.717
      -2.204
      -2.658
      -2.935
      -2.927
      -2.634
      -2.157
      -1.639
      -1.197
      -0.875
      -0.641
      -0.407
      -0.071
       0.443
       1.133
       1.909
       2.611
       3.073
       3.187
       2.949
       2.459
       1.889
       1.415
       1.136
       1.020
       0.924
       0.682
       0.200
      -0.510
      -1.365
      -2.236
      -2.978
      -3.450
      -3.570
      -3.361
      -2.936
      -2.417
      -1.858
      -1.245
      -0.557
       0.169
       0.852
       1.424
       1.878
       2.246
       2.535
       2.702
       2.682
       2.463
       2.127
       1.808
       1.602
       1.492
       1.355
       1.037
       0.456
      -0.336
      -1.166
      -1.828
      -2.170
      -2.151
      -1.838
      -1.367
      -0.873
      -0.433
      -0.045
       0.340
       0.747
       1.140
       1.435
       1.544
       1.423
       1.086
       0.593
       0.030
      -0.508
      -0.923
      -1.136
      -1.128
      -0.960
      -0.766
      -0.688
      -0.804
      -1.082
      -1.400
      -1.616
      -1.650
      -1.537
      -1.414
      -1.426
      -1.627
      -1.933
      -2.186
      -2.257
      -2.121
      -1.841
      -1.511
      -1.187
      -0.874
      -0.545
      -0.191
       0.149
       0.388
       0.446
       0.317
       0.097
      -0.060
      -0.041
       0.145
       0.365
       0.441
       0.257
      -0.160
      -0.650
      -1.011
      -1.113
      -0.974
      -0.746
      -0.618
      -0.708
      -1.000
      -1.365
      -1.629
      -1.670
      -1.472
      -1.123
      -0.748
      -0.439
      -0.212
      -0.032
       0.135
       0.280
       0.354
       0.310
       0.139
      -0.119
      -0.396
      -0.628
      -0.763
      -0.772
      -0.654
      -0.450
      -0.229
      -0.047
       0.079
       0.181
       0.307
       0.492
       0.736
       1.010
       1.277
       1.522
       1.758
       2.017
       2.317
       2.631
       2.887
       2.988
       2.854
       2.453
       1.819
       1.065
       0.371
      -0.067
      -0.123
       0.192
       0.734
       1.315
       1.798
       2.121
       2.264
       2.200
       1.901
       1.395
       0.796
       0.274
      -0.025
      -0.050
       0.141
       0.422
       0.681
       0.881
       1.077
       1.354
       1.749
       2.203
       2.584
       2.765
       2.686
       2.356
       1.829
       1.179
       0.504
      -0.082
      -0.474
      -0.622
      -0.557
      -0.368
      -0.152
       0.040
       0.199
       0.321
       0.387
       0.372
       0.269
       0.105
      -0.069
      -0.198
      -0.242
      -0.195
      -0.084
       0.038
       0.127
       0.154
       0.115
       0.023
      -0.091
      -0.183
      -0.214
      -0.172
      -0.097
      -0.067
      -0.162
      -0.408
      -0.757
      -1.104
      -1.354
      -1.465
      -1.448
      -1.330
      -1.125
      -0.837
      -0.499
      -0.177
       0.053
       0.170
       0.228
       0.328
       0.549
       0.887
       1.238
       1.452
       1.409
       1.086
       0.556
      -0.046
      -0.589
      -0.987
      -1.226
      -1.363
      -1.486
      -1.657
      -1.878
      -2.104
      -2.280
      -2.376
      -2.379
      -2.281
      -2.078
      -1.800
      -1.525
      -1.356
      -1.366
      -1.543
      -1.774
      -1.897
      -1.793
      -1.451
      -0.981
      -0.552
      -0.303
      -0.269
      -0.370
      -0.490
      -0.563
      -0.633
      -0.800
      -1.129
      -1.573
      -1.995
      -2.255
      -2.301
      -2.192
      -2.025
      -1.848
      -1.629
      -1.291
      -0.767
      -0.040
       0.842
       1.760
       2.544
       3.039
       3.182
       3.040
       2.765
       2.497
       2.296
       2.133
       1.924
       1.588
       1.100
       0.523
      -0.003
      -0.335
      -0.421
      -0.325
      -0.174
      -0.074
      -0.071
      -0.171
      -0.371
      -0.653
      -0.971
      -1.235
      -1.357
      -1.302
      -1.120
      -0.931
      -0.851
      -0.916
      -1.033
      -1.021
      -0.716
      -0.096
       0.686
       1.387
       1.813
       1.921
       1.809
       1.627
       1.477
       1.364
       1.227
       1.009
       0.706
       0.365
       0.043
      -0.229
      -0.439
      -0.579
      -0.630
      -0.594
      -0.513
      -0.462
      -0.493
      -0.584
      -0.635
      -0.535
      -0.246
       0.144
       0.450
       0.494
       0.227
      -0.230
      -0.662
      -0.901
      -0.933
      -0.885
      -0.906
      -1.038
      -1.176
      -1.132
      -0.771
      -0.105
       0.706
       1.443
       1.943
       2.154
       2.125
       1.954
       1.741
       1.560
       1.432
       1.314
       1.124
       0.786
       0.287
      -0.317
      -0.923
      -1.412
      -1.681
      -1.664
      -1.355
      -0.818
      -0.176
       0.428
       0.890
       1.195
       1.405
       1.601
       1.794
       1.898
       1.781
       1.374
       0.738
       0.049
      -0.497
      -0.782
      -0.788
      -0.577
      -0.227
       0.200
       0.664
       1.134
       1.582
       1.975
       2.278
       2.461
       2.506
       2.407
       2.172
       1.801
       1.274
       0.560
      -0.349
      -1.387
      -2.391
      -3.149
      -3.486
      -3.364
      -2.898
      -2.285
      -1.684
      -1.145
      -0.632
      -0.105
       0.414
       0.864
       1.196
       1.411
       1.537
       1.577
       1.477
       1.166
       0.626
      -0.074
      -0.795
      -1.399
      -1.798
      -1.973
      -1.963
      -1.837
      -1.661
      -1.474
      -1.279
      -1.055
      -0.770
      -0.398
       0.055
       0.539
       0.964
       1.247
       1.363
       1.360
       1.317
       1.287
       1.276
       1.261
       1.215
       1.113
       0.916
       0.590
       0.142
      -0.355
      -0.782
      -1.050
      -1.155
      -1.176
      -1.211
      -1.301
      -1.396
      -1.400
      -1.240
      -0.920
      -0.516
      -0.141
