Origin Time       26/2/2010 4:42:33	 
Lat.              28.5 N	
Long.             86.7 E	
Depth (Km)         28.0
Magnitude         5.4
 Region           Tibet                                                            
 Above details taken from IMD 
     
Station Code      GLP
Station Lat.       26.152  N
Station Long.      90.627  E
Station Height(m)   56.0
Site Class        C   Vs30 between 200 m/sec to 375 m/sec *  
Record Time       26.02.2010 04:43:56.844
Sampling Rate     200. Hz
 Record Duration   89.900 Sec.
 Direction         E-W (E positive)
Max. Acceleration      5.114 cm/sec**2
     
  * For reference see Site Classification link of website 
     
 Base Line Corrected and Low Pass Filtered (Cut Off at 35 Hz) Time History
 Acceleration data in cm/sec**2
    
[...]
      -0.480
      -0.468
      -0.411
      -0.323
      -0.225
      -0.133
      -0.053
       0.020
       0.088
       0.146
       0.194
       0.233
       0.267
       0.293
       0.308
       0.315
       0.324
       0.336
       0.336
       0.306
       0.241
       0.161
       0.096
       0.062
       0.053
       0.046
       0.026
      -0.013
      -0.063
      -0.115
      -0.164
      -0.213
      -0.263
      -0.313
      -0.356
      -0.383
      -0.392
      -0.387
      -0.368
      -0.326
      -0.254
      -0.157
      -0.056
       0.027
       0.084
       0.125
       0.166
       0.216
       0.269
       0.304
       0.302
       0.254
       0.173
       0.088
       0.028
       0.001
      -0.005
      -0.013
      -0.029
      -0.046
      -0.048
      -0.029
       0.005
       0.043
       0.074
       0.097
       0.113
       0.118
       0.103
       0.060
      -0.005
      -0.074
      -0.128
      -0.160
      -0.177
      -0.191
      -0.215
      -0.252
      -0.303
      -0.359
      -0.401
      -0.408
      -0.376
      -0.319
      -0.259
      -0.206
      -0.154
      -0.088
      -0.010
       0.059
       0.093
       0.086
       0.058
       0.045
       0.077
       0.154
       0.253
       0.334
       0.367
       0.348
       0.301
       0.266
       0.271
       0.314
       0.366
       0.392
       0.375
       0.326
       0.275
       0.252
       0.263
       0.291
       0.310
       0.305
       0.275
       0.232
       0.187
       0.146
       0.102
       0.048
      -0.025
      -0.118
      -0.217
      -0.300
      -0.346
      -0.348
      -0.316
      -0.274
      -0.244
      -0.239
      -0.253
      -0.269
      -0.270
      -0.249
      -0.211
      -0.169
      -0.131
      -0.103
      -0.093
      -0.106
      -0.140
      -0.179
      -0.201
      -0.189
      -0.138
      -0.055
       0.050
       0.158
       0.250
       0.308
       0.328
       0.311
       0.261
       0.191
       0.120
       0.065
       0.027
      -0.018
      -0.091
      -0.191
      -0.286
      -0.335
      -0.322
      -0.270
      -0.228
      -0.228
      -0.264
      -0.299
      -0.299
      -0.255
      -0.191
      -0.140
      -0.123
      -0.128
      -0.127
      -0.093
      -0.027
       0.053
       0.120
       0.159
       0.171
       0.169
       0.163
       0.165
       0.181
       0.217
       0.275
       0.347
       0.422
       0.488
       0.536
       0.560
       0.562
       0.548
       0.521
       0.475
       0.396
       0.281
       0.146
       0.018
      -0.074
      -0.114
      -0.106
      -0.064
      -0.017
       0.011
       0.015
       0.015
       0.037
       0.084
       0.127
       0.124
       0.053
      -0.074
      -0.219
      -0.340
      -0.414
      -0.444
      -0.453
      -0.472
      -0.511
      -0.553
      -0.558
      -0.500
      -0.385
      -0.256
      -0.162
      -0.130
      -0.149
      -0.191
      -0.229
      -0.254
      -0.271
      -0.287
      -0.303
      -0.312
      -0.305
      -0.273
      -0.217
      -0.142
      -0.058
       0.027
       0.114
       0.208
       0.310
       0.409
       0.483
       0.512
       0.490
       0.430
       0.348
       0.249
       0.133
       0.011
      -0.093
      -0.164
      -0.207
      -0.251
      -0.311
      -0.381
      -0.431
      -0.443
      -0.419
      -0.380
      -0.345
      -0.313
      -0.265
      -0.176
      -0.040
       0.123
       0.273
       0.376
       0.426
       0.436
       0.418
       0.376
       0.308
       0.217
       0.117
       0.022
      -0.060
      -0.125
      -0.171
      -0.197
      -0.205
      -0.195
      -0.165
      -0.117
      -0.054
       0.018
       0.098
       0.193
       0.313
       0.463
       0.638
       0.819
       0.981
       1.096
       1.148
       1.138
       1.083
       1.007
       0.922
       0.823
       0.695
       0.528
       0.328
       0.117
      -0.090
      -0.285
      -0.464
      -0.623
      -0.753
      -0.850
      -0.908
      -0.921
      -0.880
      -0.782
      -0.643
      -0.494
      -0.368
      -0.285
      -0.249
      -0.244
      -0.250
      -0.250
      -0.240
      -0.226
      -0.217
      -0.221
      -0.240
      -0.274
      -0.321
      -0.373
      -0.415
      -0.435
      -0.431
      -0.406
      -0.365
      -0.310
      -0.245
      -0.183
      -0.150
      -0.166
      -0.227
      -0.301
      -0.341
      -0.322
      -0.251
      -0.158
      -0.066
       0.028
       0.142
       0.292
       0.468
       0.649
       0.814
       0.954
       1.077
       1.188
       1.283
       1.351
       1.376
       1.348
       1.259
       1.109
       0.906
       0.668
       0.411
       0.142
      -0.134
      -0.407
      -0.657
      -0.869
      -1.033
      -1.150
      -1.215
      -1.216
      -1.142
      -1.001
      -0.823
      -0.639
      -0.461
      -0.278
      -0.071
       0.163
       0.395
       0.581
       0.683
       0.687
       0.602
       0.452
       0.263
       0.057
      -0.153
      -0.362
      -0.564
      -0.744
      -0.877
      -0.945
      -0.943
      -0.876
      -0.762
      -0.623
      -0.485
      -0.364
      -0.254
      -0.138
      -0.003
       0.145
       0.280
       0.381
       0.444
       0.479
       0.481
       0.430
       0.315
       0.160
       0.019
      -0.061
      -0.084
      -0.105
      -0.186
      -0.348
      -0.551
      -0.725
      -0.821
      -0.841
      -0.834
      -0.846
      -0.881
      -0.887
      -0.801
      -0.593
      -0.294
       0.029
       0.314
       0.546
       0.749
       0.950
       1.143
       1.286
       1.326
       1.243
       1.070
       0.872
       0.701
       0.568
       0.450
       0.316
       0.160
       0.006
      -0.108
      -0.164
      -0.174
      -0.174
      -0.194
      -0.241
      -0.293
      -0.319
      -0.305
      -0.260
      -0.211
      -0.183
      -0.183
      -0.202
      -0.228
      -0.264
      -0.320
      -0.389
      -0.441
      -0.442
      -0.381
      -0.268
      -0.120
       0.066
       0.299
       0.575
       0.865
       1.130
       1.344
       1.497
       1.592
       1.629
       1.606
       1.517
       1.357
       1.125
       0.844
       0.556
       0.300
       0.084
      -0.112
      -0.309
      -0.495
      -0.631
      -0.691
      -0.685
      -0.658
      -0.652
      -0.676
      -0.708
      -0.712
      -0.661
      -0.555
      -0.418
      -0.289
      -0.194
      -0.137
      -0.100
      -0.064
      -0.028
      -0.003
       0.002
      -0.018
      -0.055
      -0.099
      -0.143
      -0.184
      -0.222
      -0.256
      -0.281
      -0.294
      -0.297
      -0.293
      -0.287
      -0.284
      -0.277
      -0.256
      -0.211
      -0.151
      -0.103
      -0.104
      -0.181
      -0.330
      -0.508
      -0.665
      -0.773
      -0.838
      -0.879
      -0.891
      -0.836
      -0.664
      -0.352
       0.079
       0.564
       1.035
       1.450
       1.803
       2.107
       2.363
       2.559
       2.675
       2.697
       2.620
       2.442
       2.165
       1.810
       1.414
       1.015
       0.633
       0.266
      -0.089
      -0.411
      -0.659
      -0.805
      -0.849
      -0.822
      -0.766
      -0.715
      -0.688
      -0.686
      -0.707
      -0.753
      -0.821
      -0.894
      -0.956
      -1.007
      -1.079
      -1.207
      -1.400
      -1.627
      -1.835
      -1.982
      -2.064
      -2.112
      -2.158
      -2.207
      -2.229
      -2.180
      -2.039
      -1.823
      -1.578
      -1.337
      -1.098
      -0.833
      -0.511
      -0.128
       0.293
       0.712
       1.098
       1.432
       1.708
       1.915
       2.033
       2.035
       1.903
       1.645
       1.302
       0.934
       0.598
       0.315
       0.072
      -0.152
      -0.364
      -0.545
      -0.677
      -0.760
      -0.811
      -0.841
      -0.837
      -0.772
      -0.625
      -0.404
      -0.146
       0.108
       0.327
       0.501
       0.639
       0.763
       0.888
       1.008
       1.093
       1.110
       1.046
       0.925
       0.785
       0.658
       0.542
       0.419
       0.275
       0.119
      -0.021
      -0.115
      -0.162
      -0.189
      -0.233
      -0.301
      -0.363
      -0.371
      -0.302
      -0.174
      -0.025
       0.116
       0.254
       0.402
       0.565
       0.724
       0.849
       0.921
       0.940
       0.914
       0.848
       0.731
       0.544
       0.274
      -0.064
      -0.431
      -0.782
      -1.088
      -1.349
      -1.577
      -1.772
      -1.906
      -1.944
      -1.871
      -1.713
      -1.515
      -1.311
      -1.106
      -0.894
      -0.678
      -0.485
      -0.340
      -0.250
      -0.193
      -0.137
      -0.060
       0.038
       0.150
       0.272
       0.407
       0.564
       0.748
       0.954
       1.168
       1.374
       1.551
       1.686
       1.774
       1.815
       1.807
       1.745
       1.624
       1.449
       1.233
       0.983
       0.700
       0.388
       0.071
      -0.211
      -0.426
      -0.576
      -0.689
      -0.796
      -0.902
      -0.977
      -0.975
      -0.873
      -0.694
      -0.481
      -0.265
      -0.051
       0.167
       0.382
       0.569
       0.708
       0.799
       0.868
       0.948
       1.057
       1.188
       1.309
       1.380
       1.376
       1.291
       1.140
       0.948
       0.731
       0.492
       0.236
      -0.021
      -0.252
      -0.439
      -0.583
      -0.696
      -0.789
      -0.857
      -0.883
      -0.854
      -0.778
      -0.688
      -0.629
      -0.632
      -0.696
      -0.798
      -0.917
      -1.046
      -1.194
      -1.359
      -1.523
      -1.650
      -1.687
      -1.586
      -1.320
      -0.908
      -0.415
       0.079
       0.516
       0.885
       1.199
       1.466
       1.674
       1.808
       1.876
       1.904
       1.914
       1.901
       1.837
       1.698
       1.496
       1.269
       1.053
       0.856
       0.662
       0.451
       0.214
      -0.043
      -0.311
      -0.587
      -0.870
      -1.153
      -1.420
      -1.657
      -1.857
      -2.021
      -2.151
      -2.235
      -2.243
      -2.142
      -1.933
      -1.664
      -1.397
      -1.174
      -0.991
      -0.815
      -0.622
      -0.423
      -0.260
      -0.162
      -0.122
      -0.100
      -0.056
       0.021
       0.114
       0.201
       0.267
       0.303
       0.312
       0.309
       0.332
       0.418
       0.577
       0.782
       0.986
       1.162
       1.315
       1.465
       1.613
       1.729
       1.766
       1.693
       1.517
       1.271
       0.988
       0.687
       0.377
       0.078
      -0.178
      -0.360
      -0.458
      -0.488
      -0.483
      -0.476
      -0.491
      -0.546
      -0.653
      -0.806
      -0.978
      -1.138
      -1.279
      -1.423
      -1.600
      -1.809
      -2.013
      -2.164
      -2.248
      -2.289
      -2.323
      -2.353
      -2.350
      -2.277
      -2.114
      -1.873
      -1.574
      -1.239
      -0.874
      -0.482
      -0.071
       0.335
       0.704
       1.009
       1.245
       1.431
       1.591
       1.733
       1.839
       1.876
       1.825
       1.698
       1.532
       1.363
       1.202
       1.036
       0.859
       0.688
       0.560
       0.493
       0.472
       0.468
       0.462
       0.459
       0.474
       0.513
       0.577
       0.665
       0.774
       0.900
       1.025
       1.126
       1.176
       1.159
       1.079
       0.966
       0.863
       0.798
       0.768
       0.745
       0.709
       0.671
       0.658
       0.668
       0.658
       0.567
       0.367
       0.085
      -0.215
      -0.474
      -0.660
      -0.774
      -0.831
      -0.858
      -0.874
      -0.889
      -0.891
      -0.866
      -0.813
      -0.753
      -0.704
      -0.658
      -0.581
      -0.444
      -0.251
      -0.034
       0.163
       0.319
       0.434
       0.519
       0.573
       0.577
       0.515
       0.393
       0.239
       0.082
      -0.065
      -0.211
      -0.363
      -0.513
      -0.642
      -0.734
      -0.784
      -0.793
      -0.755
      -0.655
      -0.486
      -0.262
      -0.016
       0.213
       0.409
       0.581
       0.748
       0.913
       1.053
       1.128
       1.121
       1.052
       0.962
       0.879
       0.799
       0.705
       0.591
       0.474
       0.368
       0.270
       0.153
      -0.004
      -0.197
      -0.407
      -0.612
      -0.805
      -0.993
      -1.176
      -1.341
      -1.467
      -1.541
      -1.561
      -1.530
      -1.451
      -1.322
      -1.142
      -0.914
      -0.651
      -0.361
      -0.051
       0.265
       0.556
       0.770
       0.869
       0.860
       0.802
       0.772
       0.821
       0.939
       1.068
       1.151
       1.167
       1.133
       1.073
       0.983
       0.832
       0.582
       0.223
      -0.227
      -0.731
      -1.253
      -1.756
      -2.211
      -2.589
      -2.869
      -3.028
      -3.034
      -2.853
      -2.464
      -1.872
      -1.104
      -0.200
       0.785
       1.781
       2.713
       3.515
       4.155
       4.633
       4.955
       5.114
       5.085
       4.851
       4.424
       3.845
       3.163
       2.409
       1.606
       0.780
      -0.032
      -0.794
      -1.486
      -2.103
      -2.652
      -3.143
      -3.574
      -3.930
      -4.191
      -4.348
      -4.410
      -4.388
      -4.290
      -4.113
      -3.856
      -3.524
      -3.133
      -2.703
      -2.250
      -1.785
      -1.314
      -0.852
      -0.425
      -0.058
       0.238
       0.477
       0.686
       0.880
       1.046
       1.156
       1.191
       1.165
       1.123
       1.112
       1.149
       1.210
       1.262
       1.288
       1.295
       1.296
       1.293
       1.280
       1.249
       1.195
       1.115
       1.020
       0.925
       0.848
       0.795
       0.761
       0.728
       0.690
       0.661
       0.665
       0.711
       0.784
       0.851
       0.891
       0.901
       0.890
       0.860
       0.798
       0.689
       0.527
       0.323
       0.095
      -0.135
      -0.346
      -0.522
      -0.658
      -0.759
      -0.844
      -0.935
      -1.046
      -1.174
      -1.299
      -1.394
      -1.436
      -1.412
      -1.327
      -1.199
      -1.048
      -0.888
      -0.723
      -0.553
      -0.384
      -0.226
      -0.086
       0.039
       0.151
       0.253
       0.344
       0.434
       0.535
       0.647
       0.743
       0.787
       0.758
       0.670
       0.548
       0.399
       0.202
      -0.071
      -0.422
      -0.824
      -1.231
      -1.604
      -1.913
      -2.133
      -2.233
      -2.186
      -1.990
      -1.668
      -1.267
      -0.832
      -0.397
       0.016
       0.393
       0.723
       1.005
       1.245
       1.453
       1.637
       1.806
       1.964
       2.111
       2.232
       2.307
       2.325
       2.292
       2.231
       2.157
       2.064
       1.933
       1.751
       1.526
       1.287
       1.062
       0.860
       0.676
       0.499
       0.323
       0.154
      -0.006
      -0.168
      -0.355
      -0.597
      -0.911
      -1.288
      -1.695
      -2.090
      -2.438
      -2.708
      -2.871
      -2.905
      -2.805
      -2.595
      -2.312
      -1.981
      -1.606
      -1.168
      -0.654
      -0.071
       0.536
       1.108
       1.596
       1.989
       2.311
       2.589
       2.824
       2.983
       3.031
       2.954
       2.766
       2.492
       2.155
       1.784
       1.408
       1.054
       0.739
       0.459
       0.208
      -0.017
      -0.204
      -0.343
      -0.430
      -0.481
      -0.524
      -0.581
      -0.651
      -0.715
      -0.747
      -0.738
      -0.693
      -0.618
      -0.516
      -0.385
      -0.236
      -0.087
       0.042
       0.145
       0.221
       0.269
       0.277
       0.230
       0.121
      -0.042
      -0.245
      -0.469
      -0.699
      -0.924
      -1.140
      -1.350
      -1.556
      -1.752
      -1.919
      -2.029
      -2.064
      -2.025
      -1.940
      -1.845
      -1.769
      -1.724
      -1.698
      -1.659
      -1.577
      -1.434
      -1.233
      -0.985
      -0.694
      -0.353
       0.040
       0.466
       0.881
       1.236
       1.502
       1.672
       1.756
       1.774
       1.746
       1.688
       1.604
       1.488
       1.331
       1.122
       0.857
       0.531
       0.145
      -0.277
      -0.694
      -1.063
      -1.357
      -1.563
      -1.676
      -1.689
      -1.607
      -1.459
      -1.292
      -1.146
      -1.034
      -0.944
      -0.861
      -0.782
      -0.707
      -0.630
      -0.531
      -0.386
      -0.194
       0.025
       0.242
       0.445
       0.653
       0.897
       1.194
       1.526
       1.852
       2.130
       2.332
       2.445
       2.458
       2.360
       2.155
       1.868
       1.536
       1.180
       0.796
       0.381
      -0.037
      -0.403
      -0.672
      -0.845
      -0.967
      -1.093
      -1.240
      -1.378
      -1.444
      -1.395
      -1.237
      -1.018
      -0.792
      -0.579
      -0.368
      -0.143
       0.091
       0.306
       0.470
       0.566
       0.592
       0.557
       0.480
       0.385
       0.294
       0.206
       0.105
      -0.034
      -0.212
      -0.410
      -0.589
      -0.721
      -0.795
      -0.825
      -0.835
      -0.837
      -0.825
      -0.779
      -0.687
      -0.564
      -0.436
      -0.327
      -0.238
      -0.160
      -0.078
       0.017
       0.128
       0.250
       0.376
       0.496
       0.610
       0.725
       0.845
       0.970
       1.091
       1.199
       1.281
       1.328
       1.340
       1.331
       1.326
       1.345
       1.387
       1.443
       1.497
       1.541
       1.566
       1.560
       1.511
       1.408
       1.252
       1.049
       0.816
       0.579
       0.360
       0.170
       0.002
      -0.158
      -0.323
      -0.492
      -0.663
      -0.832
      -0.993
      -1.132
      -1.228
      -1.262
      -1.230
      -1.140
      -1.010
      -0.846
      -0.655
      -0.449
      -0.257
      -0.113
      -0.043
      -0.054
      -0.140
      -0.282
      -0.447
      -0.601
      -0.717
      -0.788
      -0.821
      -0.823
      -0.784
      -0.686
      -0.520
      -0.299
      -0.054
       0.176
       0.369
       0.526
       0.666
       0.805
       0.936
       1.036
       1.080
       1.066
       1.014
       0.945
       0.865
       0.763
       0.632
       0.487
       0.372
       0.323
       0.345
       0.408
       0.468
       0.494
       0.477
       0.419
       0.327
       0.212
       0.097
       0.006
      -0.048
      -0.074
      -0.089
      -0.102
      -0.111
      -0.111
      -0.119
      -0.161
      -0.253
      -0.378
      -0.503
      -0.607
