Origin Time       26/2/2010 4:42:33	  UTC
Lat.              28.5 N	
Long.             86.7 E	
Depth (Km)         28.0
Magnitude         5.4
 Region           Tibet                                                            
 Above details taken from IMD 
    
Station Code      GLP
Station Lat.       26.152  N
Station Long.      90.627  E
Station Height(m)   56.0
Site Class        C   Vs30 between 200 m/sec to 375 m/sec *  
Record Time       26.02.2010 04:43:56.844 UTC
Sampling Rate     200. Hz
 Record Duration   89.900 Sec.
 Direction         N-S (N positive)
Max. Acceleration     -4.877 cm/sec**2
     
  * For reference see Site Classification link of website 
     
 Base Line Corrected and Low Pass Filtered (Cut Off at 35 Hz) Time History
 Acceleration data in cm/sec**2
    
[...]
      -0.062
      -0.053
      -0.044
      -0.046
      -0.059
      -0.072
      -0.074
      -0.058
      -0.029
       0.002
       0.020
       0.015
      -0.016
      -0.063
      -0.107
      -0.133
      -0.136
      -0.128
      -0.122
      -0.125
      -0.135
      -0.138
      -0.119
      -0.070
       0.007
       0.102
       0.197
       0.274
       0.323
       0.343
       0.344
       0.334
       0.319
       0.293
       0.247
       0.172
       0.066
      -0.058
      -0.180
      -0.286
      -0.372
      -0.439
      -0.484
      -0.504
      -0.502
      -0.489
      -0.470
      -0.438
      -0.386
      -0.311
      -0.225
      -0.141
      -0.075
      -0.032
      -0.015
      -0.020
      -0.040
      -0.065
      -0.088
      -0.105
      -0.113
      -0.107
      -0.087
      -0.054
      -0.013
       0.033
       0.086
       0.148
       0.220
       0.308
       0.416
       0.539
       0.654
       0.734
       0.765
       0.756
       0.724
       0.681
       0.629
       0.566
       0.499
       0.438
       0.387
       0.344
       0.303
       0.261
       0.216
       0.164
       0.102
       0.025
      -0.069
      -0.180
      -0.311
      -0.453
      -0.586
      -0.687
      -0.744
      -0.763
      -0.757
      -0.735
      -0.695
      -0.627
      -0.524
      -0.388
      -0.234
      -0.083
       0.044
       0.140
       0.208
       0.258
       0.294
       0.315
       0.318
       0.310
       0.298
       0.291
       0.287
       0.285
       0.289
       0.302
       0.323
       0.347
       0.366
       0.374
       0.362
       0.328
       0.271
       0.196
       0.112
       0.022
      -0.077
      -0.184
      -0.290
      -0.381
      -0.446
      -0.478
      -0.484
      -0.473
      -0.453
      -0.427
      -0.392
      -0.344
      -0.286
      -0.225
      -0.168
      -0.123
      -0.092
      -0.071
      -0.058
      -0.053
      -0.061
      -0.082
      -0.107
      -0.128
      -0.139
      -0.144
      -0.149
      -0.157
      -0.164
      -0.163
      -0.147
      -0.119
      -0.085
      -0.057
      -0.044
      -0.041
      -0.035
      -0.013
       0.023
       0.060
       0.084
       0.093
       0.093
       0.094
       0.108
       0.134
       0.164
       0.190
       0.205
       0.211
       0.210
       0.209
       0.219
       0.246
       0.293
       0.360
       0.435
       0.498
       0.519
       0.483
       0.399
       0.297
       0.209
       0.152
       0.126
       0.113
       0.091
       0.050
       0.001
      -0.039
      -0.066
      -0.100
      -0.161
      -0.259
      -0.376
      -0.486
      -0.569
      -0.618
      -0.644
      -0.664
      -0.689
      -0.714
      -0.724
      -0.705
      -0.662
      -0.610
      -0.569
      -0.546
      -0.535
      -0.518
      -0.473
      -0.386
      -0.261
      -0.114
       0.031
       0.161
       0.275
       0.381
       0.487
       0.592
       0.691
       0.771
       0.823
       0.844
       0.839
       0.822
       0.807
       0.805
       0.815
       0.824
       0.812
       0.775
       0.725
       0.688
       0.676
       0.674
       0.650
       0.579
       0.465
       0.340
       0.236
       0.169
       0.134
       0.112
       0.086
       0.048
       0.000
      -0.047
      -0.083
      -0.098
      -0.095
      -0.086
      -0.087
      -0.111
      -0.161
      -0.228
      -0.298
      -0.359
      -0.407
      -0.447
      -0.487
      -0.526
      -0.553
      -0.551
      -0.504
      -0.416
      -0.294
      -0.147
       0.021
       0.195
       0.348
       0.462
       0.532
       0.563
       0.559
       0.519
       0.447
       0.355
       0.262
       0.179
       0.102
       0.019
      -0.086
      -0.214
      -0.361
      -0.516
      -0.674
      -0.832
      -0.984
      -1.120
      -1.225
      -1.293
      -1.324
      -1.329
      -1.319
      -1.294
      -1.248
      -1.171
      -1.057
      -0.908
      -0.734
      -0.545
      -0.348
      -0.140
       0.088
       0.338
       0.599
       0.851
       1.068
       1.233
       1.335
       1.378
       1.376
       1.348
       1.302
       1.243
       1.171
       1.099
       1.045
       1.027
       1.040
       1.068
       1.092
       1.100
       1.093
       1.072
       1.039
       0.996
       0.935
       0.844
       0.709
       0.528
       0.316
       0.094
      -0.124
      -0.333
      -0.535
      -0.726
      -0.900
      -1.054
      -1.186
      -1.300
      -1.391
      -1.454
      -1.487
      -1.490
      -1.463
      -1.405
      -1.317
      -1.201
      -1.061
      -0.904
      -0.740
      -0.581
      -0.433
      -0.292
      -0.143
       0.027
       0.221
       0.423
       0.612
       0.775
       0.911
       1.022
       1.109
       1.172
       1.213
       1.235
       1.238
       1.215
       1.153
       1.034
       0.845
       0.587
       0.282
      -0.030
      -0.315
      -0.553
      -0.742
      -0.880
      -0.966
      -1.001
      -1.000
      -0.987
      -0.985
      -1.003
      -1.037
      -1.071
      -1.087
      -1.081
      -1.068
      -1.069
      -1.101
      -1.164
      -1.242
      -1.307
      -1.327
      -1.279
      -1.160
      -0.978
      -0.748
      -0.483
      -0.191
       0.117
       0.426
       0.722
       0.994
       1.229
       1.417
       1.552
       1.634
       1.674
       1.686
       1.683
       1.672
       1.660
       1.647
       1.635
       1.620
       1.596
       1.552
       1.484
       1.396
       1.299
       1.205
       1.113
       1.006
       0.861
       0.662
       0.407
       0.113
      -0.204
      -0.532
      -0.864
      -1.192
      -1.507
      -1.794
      -2.033
      -2.200
      -2.277
      -2.258
      -2.157
      -1.996
      -1.796
      -1.563
      -1.296
      -0.988
      -0.647
      -0.299
       0.014
       0.247
       0.377
       0.410
       0.370
       0.284
       0.169
       0.044
      -0.069
      -0.147
      -0.181
      -0.179
      -0.165
      -0.152
      -0.144
      -0.127
      -0.081
       0.013
       0.163
       0.350
       0.532
       0.666
       0.728
       0.731
       0.700
       0.655
       0.597
       0.519
       0.419
       0.305
       0.189
       0.092
       0.040
       0.061
       0.165
       0.335
       0.535
       0.727
       0.889
       1.021
       1.133
       1.227
       1.295
       1.315
       1.272
       1.164
       1.006
       0.826
       0.647
       0.480
       0.329
       0.189
       0.056
      -0.072
      -0.198
      -0.317
      -0.415
      -0.477
      -0.485
      -0.436
      -0.344
      -0.241
      -0.160
      -0.121
      -0.124
      -0.155
      -0.199
      -0.244
      -0.285
      -0.322
      -0.351
      -0.362
      -0.345
      -0.292
      -0.204
      -0.082
       0.067
       0.233
       0.388
       0.489
       0.492
       0.364
       0.110
      -0.240
      -0.639
      -1.045
      -1.426
      -1.769
      -2.065
      -2.308
      -2.483
      -2.568
      -2.542
      -2.383
      -2.085
      -1.659
      -1.143
      -0.587
      -0.033
       0.508
       1.045
       1.583
       2.093
       2.511
       2.778
       2.876
       2.842
       2.727
       2.566
       2.351
       2.058
       1.674
       1.219
       0.744
       0.305
      -0.065
      -0.364
      -0.611
      -0.819
      -0.977
      -1.060
      -1.060
      -1.007
      -0.959
      -0.963
      -1.030
      -1.137
      -1.252
      -1.359
      -1.461
      -1.560
      -1.648
      -1.707
      -1.709
      -1.626
      -1.433
      -1.131
      -0.742
      -0.301
       0.158
       0.607
       1.018
       1.362
       1.621
       1.788
       1.868
       1.859
       1.747
       1.528
       1.214
       0.833
       0.408
      -0.039
      -0.481
      -0.876
      -1.172
      -1.331
      -1.357
      -1.281
      -1.142
      -0.954
      -0.711
      -0.411
      -0.083
       0.220
       0.446
       0.574
       0.625
       0.642
       0.667
       0.710
       0.743
       0.716
       0.593
       0.381
       0.120
      -0.145
      -0.388
      -0.613
      -0.824
      -1.009
      -1.137
      -1.173
      -1.106
      -0.958
      -0.767
      -0.563
      -0.353
      -0.120
       0.149
       0.448
       0.744
       0.988
       1.141
       1.190
       1.153
       1.065
       0.952
       0.823
       0.675
       0.521
       0.389
       0.303
       0.257
       0.207
       0.103
      -0.079
      -0.317
      -0.550
      -0.711
      -0.761
      -0.701
      -0.573
      -0.434
      -0.321
      -0.238
      -0.163
      -0.078
       0.012
       0.088
       0.140
       0.182
       0.239
       0.319
       0.407
       0.474
       0.508
       0.511
       0.495
       0.457
       0.388
       0.292
       0.203
       0.169
       0.224
       0.363
       0.553
       0.757
       0.960
       1.157
       1.342
       1.496
       1.598
       1.641
       1.642
       1.618
       1.572
       1.491
       1.365
       1.190
       0.960
       0.665
       0.305
      -0.092
      -0.485
      -0.843
      -1.171
      -1.490
      -1.807
      -2.093
      -2.309
      -2.442
      -2.519
      -2.582
      -2.645
      -2.679
      -2.649
      -2.553
      -2.428
      -2.306
      -2.170
      -1.966
      -1.651
      -1.236
      -0.773
      -0.313
       0.134
       0.589
       1.065
       1.542
       1.969
       2.311
       2.576
       2.804
       3.033
       3.267
       3.471
       3.603
       3.636
       3.563
       3.388
       3.123
       2.785
       2.396
       1.968
       1.510
       1.032
       0.557
       0.106
      -0.312
      -0.702
      -1.068
      -1.406
      -1.720
      -2.025
      -2.335
      -2.635
      -2.882
      -3.036
      -3.095
      -3.096
      -3.078
      -3.055
      -3.020
      -2.968
      -2.903
      -2.828
      -2.728
      -2.583
      -2.376
      -2.108
      -1.785
      -1.412
      -0.992
      -0.541
      -0.081
       0.365
       0.777
       1.135
       1.427
       1.653
       1.832
       1.990
       2.156
       2.351
       2.578
       2.812
       3.014
       3.149
       3.196
       3.148
       3.011
       2.796
       2.512
       2.155
       1.730
       1.262
       0.801
       0.390
       0.047
      -0.234
      -0.473
      -0.690
      -0.894
      -1.074
      -1.203
      -1.249
      -1.196
      -1.064
      -0.894
      -0.724
      -0.575
      -0.455
      -0.375
      -0.358
      -0.419
      -0.549
      -0.714
      -0.874
      -0.991
      -1.036
      -0.976
      -0.797
      -0.510
      -0.155
       0.215
       0.563
       0.860
       1.079
       1.187
       1.159
       0.991
       0.700
       0.306
      -0.168
      -0.694
      -1.233
      -1.752
      -2.242
      -2.712
      -3.157
      -3.544
      -3.815
      -3.923
      -3.849
      -3.595
      -3.166
      -2.570
      -1.825
      -0.989
      -0.146
       0.619
       1.256
       1.760
       2.146
       2.419
       2.566
       2.581
       2.483
       2.307
       2.093
       1.870
       1.667
       1.505
       1.388
       1.294
       1.197
       1.087
       0.981
       0.897
       0.834
       0.774
       0.707
       0.645
       0.600
       0.558
       0.476
       0.318
       0.078
      -0.213
      -0.518
      -0.804
      -1.057
      -1.264
      -1.405
      -1.455
      -1.394
      -1.227
      -0.991
      -0.734
      -0.499
      -0.306
      -0.161
      -0.069
      -0.034
      -0.053
      -0.111
      -0.191
      -0.280
      -0.365
      -0.421
      -0.413
      -0.320
      -0.151
       0.059
       0.277
       0.486
       0.685
       0.869
       1.023
       1.144
       1.244
       1.342
       1.446
       1.543
       1.615
       1.659
       1.674
       1.640
       1.517
       1.281
       0.949
       0.572
       0.209
      -0.104
      -0.353
      -0.537
      -0.660
      -0.735
      -0.779
      -0.797
      -0.794
      -0.782
      -0.785
      -0.835
      -0.945
      -1.111
      -1.298
      -1.462
      -1.561
      -1.578
      -1.521
      -1.408
      -1.252
      -1.050
      -0.790
      -0.453
      -0.031
       0.467
       1.000
       1.510
       1.955
       2.319
       2.604
       2.798
       2.877
       2.822
       2.636
       2.338
       1.956
       1.516
       1.048
       0.573
       0.110
      -0.321
      -0.694
      -0.979
      -1.170
      -1.303
      -1.429
      -1.578
      -1.722
      -1.801
      -1.772
      -1.643
      -1.467
      -1.301
      -1.171
      -1.076
      -1.015
      -1.003
      -1.066
      -1.204
      -1.377
      -1.526
      -1.605
      -1.608
      -1.557
      -1.473
      -1.350
      -1.167
      -0.907
      -0.572
      -0.183
       0.240
       0.682
       1.128
       1.567
       1.990
       2.392
       2.759
       3.068
       3.295
       3.435
       3.513
       3.566
       3.604
       3.609
       3.545
       3.395
       3.175
       2.900
       2.565
       2.136
       1.589
       0.933
       0.204
      -0.558
      -1.332
      -2.118
      -2.904
      -3.647
      -4.271
      -4.696
      -4.877
      -4.829
      -4.606
      -4.262
      -3.821
      -3.281
      -2.645
      -1.937
      -1.197
      -0.462
       0.251
       0.924
       1.520
       1.989
       2.291
       2.428
       2.437
       2.362
       2.223
       2.021
       1.763
       1.484
       1.241
       1.072
       0.974
       0.907
       0.834
       0.750
       0.677
       0.624
       0.556
       0.413
       0.166
      -0.155
      -0.484
      -0.781
      -1.063
      -1.371
      -1.719
      -2.065
      -2.350
      -2.530
      -2.601
      -2.578
      -2.472
      -2.294
      -2.069
      -1.847
      -1.673
      -1.562
      -1.489
      -1.419
      -1.329
      -1.220
      -1.104
      -0.998
      -0.916
      -0.853
      -0.773
      -0.629
      -0.392
      -0.078
       0.259
       0.561
       0.802
       0.986
       1.130
       1.241
       1.321
       1.372
       1.397
       1.393
       1.345
       1.244
       1.093
       0.903
       0.690
       0.459
       0.223
       0.005
      -0.165
      -0.270
      -0.312
      -0.303
      -0.248
      -0.150
      -0.024
       0.109
       0.237
       0.357
       0.470
       0.582
       0.705
       0.857
       1.044
       1.254
       1.454
       1.613
       1.711
       1.759
       1.778
       1.783
       1.766
       1.704
       1.589
       1.431
       1.252
       1.067
       0.889
       0.726
       0.591
       0.494
       0.433
       0.397
       0.370
       0.346
       0.329
       0.324
       0.328
       0.324
       0.292
       0.214
       0.079
      -0.119
      -0.371
      -0.661
      -0.963
      -1.252
      -1.508
      -1.727
      -1.919
      -2.102
      -2.277
      -2.415
      -2.472
      -2.417
      -2.256
      -2.014
      -1.708
      -1.338
      -0.906
      -0.432
       0.047
       0.493
       0.875
       1.167
       1.350
       1.422
       1.402
       1.311
       1.159
       0.945
       0.687
       0.422
       0.187
       0.001
      -0.141
      -0.239
      -0.287
      -0.287
      -0.263
      -0.258
      -0.305
      -0.408
      -0.546
      -0.703
      -0.874
      -1.046
      -1.190
      -1.269
      -1.269
      -1.208
      -1.119
      -1.027
      -0.945
      -0.887
      -0.859
      -0.854
      -0.839
      -0.784
      -0.681
      -0.543
      -0.385
      -0.213
      -0.027
       0.164
       0.344
       0.501
       0.644
       0.794
       0.967
       1.176
       1.423
       1.693
       1.959
       2.192
       2.373
       2.491
       2.532
       2.487
       2.366
       2.210
       2.076
       2.018
       2.074
       2.245
       2.500
       2.789
       3.059
       3.266
       3.370
       3.337
       3.144
       2.779
       2.247
       1.572
       0.797
      -0.019
      -0.818
      -1.546
      -2.153
      -2.593
      -2.843
      -2.915
      -2.854
      -2.716
      -2.543
      -2.356
      -2.159
      -1.940
      -1.687
      -1.401
      -1.107
      -0.847
      -0.648
      -0.516
      -0.435
      -0.380
      -0.325
      -0.266
      -0.229
      -0.259
      -0.386
      -0.599
      -0.851
      -1.094
      -1.316
      -1.539
      -1.789
      -2.065
      -2.344
      -2.598
      -2.807
      -2.961
      -3.051
      -3.071
      -3.036
      -2.972
      -2.893
      -2.779
      -2.585
      -2.276
      -1.858
      -1.370
      -0.854
      -0.336
       0.171
       0.641
       1.045
       1.369
       1.632
       1.865
       2.081
       2.274
       2.431
       2.556
       2.658
       2.740
       2.798
       2.830
       2.841
       2.833
       2.790
       2.690
       2.521
       2.282
       1.980
       1.633
       1.277
       0.947
       0.658
       0.400
       0.161
      -0.049
      -0.206
      -0.300
      -0.356
      -0.415
      -0.510
      -0.657
      -0.866
      -1.131
      -1.433
      -1.745
      -2.049
      -2.335
      -2.588
      -2.784
      -2.894
      -2.904
      -2.818
      -2.654
      -2.433
      -2.177
      -1.896
      -1.578
      -1.191
      -0.711
      -0.147
       0.466
       1.093
       1.705
       2.282
       2.804
       3.249
       3.603
       3.853
       3.986
       3.995
       3.887
       3.684
       3.413
       3.090
       2.722
       2.317
       1.884
       1.436
       0.979
       0.524
       0.080
      -0.343
      -0.741
      -1.116
      -1.477
      -1.827
      -2.162
      -2.466
      -2.733
      -2.962
      -3.146
      -3.255
      -3.256
      -3.129
      -2.885
      -2.546
      -2.140
      -1.693
      -1.241
      -0.825
      -0.472
      -0.187
       0.046
       0.261
       0.483
       0.719
       0.951
       1.149
       1.295
       1.398
       1.478
       1.539
       1.562
       1.526
       1.427
       1.281
       1.118
       0.956
       0.798
       0.642
       0.497
       0.386
       0.329
       0.319
       0.319
       0.291
       0.230
       0.169
       0.153
       0.194
       0.269
       0.352
       0.432
       0.516
       0.609
       0.692
       0.739
       0.726
       0.647
       0.522
       0.387
       0.280
       0.216
       0.177
       0.131
       0.056
      -0.047
      -0.171
      -0.303
      -0.429
      -0.530
      -0.596
      -0.636
      -0.678
      -0.749
      -0.858
      -0.989
      -1.101
      -1.146
      -1.092
      -0.954
      -0.779
      -0.612
      -0.454
      -0.271
      -0.034
       0.256
       0.569
       0.877
       1.166
       1.427
       1.637
       1.773
       1.812
       1.745
       1.570
       1.304
       0.980
       0.636
       0.289
      -0.063
      -0.420
      -0.762
      -1.062
      -1.304
