Origin Time       12/3/2010 23:19:54	
Lat.              23.0 N	
Long.             94.5 E	
Depth (Km)         96.0
Magnitude         5.6
 Region           MYANMAR                                                          
 Above details taken from IMD 
   
Station Code      GLP
Station Lat.       26.152
Station Long.      90.627
Station Height(m)   56.0
Site Class        C   Vs30 between 200 m/sec to 375 m/sec *  
Record Time       12.03.2010 23:21:22.259
Sampling Rate     200. Hz
 Record Duration   98.660 Sec.
 Direction         Vert. (Up positive)
Max. Acceleration     -2.995 cm/sec**2
     
  * For reference see Site Classification link of website 
     
 Base Line Corrected and Low Pass Filtered (Cut Off at 35 Hz) Time History
 Acceleration data in cm/sec**2
    
[...]
      -0.017
      -0.056
      -0.169
      -0.351
      -0.521
      -0.565
      -0.417
      -0.103
       0.261
       0.535
       0.631
       0.555
       0.396
       0.267
       0.238
       0.286
       0.321
       0.254
       0.076
      -0.121
      -0.216
      -0.152
       0.027
       0.215
       0.326
       0.345
       0.315
       0.286
       0.274
       0.245
       0.144
      -0.051
      -0.309
      -0.556
      -0.724
      -0.786
      -0.760
      -0.671
      -0.524
      -0.299
       0.014
       0.384
       0.747
       1.047
       1.258
       1.377
       1.400
       1.304
       1.062
       0.669
       0.171
      -0.348
      -0.812
      -1.181
      -1.438
      -1.554
      -1.471
      -1.149
      -0.626
      -0.025
       0.502
       0.857
       1.033
       1.078
       1.036
       0.904
       0.662
       0.327
      -0.015
      -0.263
      -0.371
      -0.382
      -0.366
      -0.356
      -0.343
      -0.322
      -0.323
      -0.371
      -0.431
      -0.422
      -0.301
      -0.128
      -0.016
      -0.021
      -0.087
      -0.114
      -0.056
       0.059
       0.187
       0.315
       0.438
       0.510
       0.463
       0.267
      -0.026
      -0.315
      -0.520
      -0.625
      -0.664
      -0.672
      -0.658
      -0.606
      -0.497
      -0.327
      -0.114
       0.112
       0.324
       0.502
       0.627
       0.685
       0.683
       0.662
       0.648
       0.626
       0.554
       0.407
       0.199
      -0.037
      -0.269
      -0.477
      -0.649
      -0.772
      -0.818
      -0.746
      -0.531
      -0.216
       0.080
       0.232
       0.224
       0.171
       0.219
       0.413
       0.668
       0.849
       0.887
       0.812
       0.705
       0.611
       0.504
       0.320
       0.031
      -0.314
      -0.627
      -0.855
      -1.012
      -1.124
      -1.165
      -1.059
      -0.760
      -0.342
       0.029
       0.214
       0.211
       0.147
       0.162
       0.311
       0.541
       0.763
       0.918
       0.993
       0.983
       0.876
       0.677
       0.438
       0.239
       0.118
       0.025
      -0.151
      -0.481
      -0.920
      -1.324
      -1.543
      -1.520
      -1.302
      -0.985
      -0.654
      -0.358
      -0.112
       0.089
       0.280
       0.495
       0.736
       0.939
       1.008
       0.876
       0.561
       0.162
      -0.200
      -0.441
      -0.531
      -0.479
      -0.322
      -0.126
       0.018
       0.054
       0.011
      -0.006
       0.086
       0.273
       0.461
       0.564
       0.552
       0.423
       0.180
      -0.153
      -0.490
      -0.709
      -0.747
      -0.664
      -0.581
      -0.561
      -0.561
      -0.495
      -0.348
      -0.182
      -0.068
      -0.024
      -0.036
      -0.115
      -0.283
      -0.518
      -0.726
      -0.796
      -0.679
      -0.413
      -0.081
       0.242
       0.503
       0.669
       0.727
       0.699
       0.640
       0.613
       0.642
       0.706
       0.754
       0.739
       0.636
       0.436
       0.152
      -0.187
      -0.540
      -0.869
      -1.134
      -1.281
      -1.250
      -1.016
      -0.637
      -0.249
       0.013
       0.107
       0.107
       0.120
       0.198
       0.320
       0.436
       0.520
       0.575
       0.610
       0.626
       0.630
       0.637
       0.653
       0.657
       0.606
       0.468
       0.235
      -0.067
      -0.372
      -0.582
      -0.612
      -0.456
      -0.214
      -0.029
       0.012
      -0.063
      -0.139
      -0.099
       0.104
       0.439
       0.815
       1.118
       1.246
       1.146
       0.846
       0.451
       0.094
      -0.137
      -0.248
      -0.321
      -0.446
      -0.653
      -0.888
      -1.043
      -1.023
      -0.804
      -0.442
      -0.039
       0.306
       0.538
       0.659
       0.708
       0.721
       0.707
       0.645
       0.491
       0.208
      -0.194
      -0.639
      -1.008
      -1.212
      -1.236
      -1.123
      -0.903
      -0.570
      -0.127
       0.360
       0.760
       0.960
       0.944
       0.814
       0.705
       0.679
       0.682
       0.595
       0.341
      -0.045
      -0.439
      -0.712
      -0.799
      -0.720
      -0.540
      -0.319
      -0.094
       0.111
       0.285
       0.436
       0.604
       0.822
       1.078
       1.301
       1.416
       1.398
       1.278
       1.103
       0.906
       0.702
       0.500
       0.292
       0.046
      -0.255
      -0.579
      -0.851
      -1.006
      -1.035
      -0.978
      -0.879
      -0.745
      -0.565
      -0.341
      -0.108
       0.102
       0.291
       0.481
       0.663
       0.794
       0.852
       0.870
       0.888
       0.885
       0.782
       0.514
       0.110
      -0.318
      -0.658
      -0.871
      -0.993
      -1.078
      -1.144
      -1.181
      -1.188
      -1.169
      -1.092
      -0.882
      -0.480
       0.063
       0.597
       0.977
       1.169
       1.238
       1.249
       1.197
       1.039
       0.775
       0.464
       0.180
      -0.044
      -0.223
      -0.397
      -0.592
      -0.788
      -0.925
      -0.955
      -0.880
      -0.750
      -0.603
      -0.429
      -0.194
       0.107
       0.422
       0.666
       0.764
       0.694
       0.486
       0.204
      -0.076
      -0.284
      -0.369
      -0.313
      -0.144
       0.075
       0.274
       0.399
       0.409
       0.277
       0.004
      -0.353
      -0.702
      -0.957
      -1.085
      -1.104
      -1.057
      -0.989
      -0.934
      -0.899
      -0.859
      -0.764
      -0.570
      -0.272
       0.082
       0.409
       0.652
       0.809
       0.910
       0.965
       0.943
       0.816
       0.599
       0.332
       0.044
      -0.268
      -0.608
      -0.945
      -1.205
      -1.307
      -1.205
      -0.926
      -0.573
      -0.282
      -0.141
      -0.127
      -0.134
      -0.061
       0.116
       0.339
       0.535
       0.667
       0.738
       0.765
       0.761
       0.739
       0.707
       0.668
       0.612
       0.529
       0.416
       0.267
       0.076
      -0.151
      -0.372
      -0.529
      -0.585
      -0.556
      -0.481
      -0.385
      -0.268
      -0.139
      -0.037
       0.014
       0.044
       0.113
       0.227
       0.299
       0.218
      -0.026
      -0.316
      -0.503
      -0.539
      -0.493
      -0.445
      -0.379
      -0.197
       0.150
       0.583
       0.946
       1.146
       1.203
       1.193
       1.155
       1.071
       0.924
       0.743
       0.585
       0.477
       0.384
       0.253
       0.078
      -0.075
      -0.118
      -0.024
       0.143
       0.267
       0.265
       0.153
       0.044
       0.063
       0.252
       0.538
       0.804
       0.975
       1.042
       1.025
       0.930
       0.760
       0.544
       0.324
       0.110
      -0.134
      -0.445
      -0.806
      -1.135
      -1.340
      -1.385
      -1.311
      -1.197
      -1.093
      -0.990
      -0.848
      -0.657
      -0.459
      -0.307
      -0.222
      -0.185
      -0.177
      -0.215
      -0.344
      -0.588
      -0.894
      -1.120
      -1.099
      -0.751
      -0.148
       0.536
       1.130
       1.535
       1.718
       1.681
       1.446
       1.071
       0.638
       0.226
      -0.111
      -0.348
      -0.501
      -0.624
      -0.782
      -0.989
      -1.174
      -1.228
      -1.091
      -0.790
      -0.408
      -0.024
       0.311
       0.560
       0.689
       0.690
       0.605
       0.514
       0.470
       0.457
       0.402
       0.250
       0.022
      -0.188
      -0.277
      -0.210
      -0.026
       0.204
       0.406
       0.505
       0.436
       0.187
      -0.183
      -0.585
      -0.948
      -1.234
      -1.425
      -1.524
      -1.559
      -1.567
      -1.570
      -1.556
      -1.477
      -1.270
      -0.912
      -0.469
      -0.076
       0.152
       0.209
       0.191
       0.199
       0.244
       0.239
       0.095
      -0.171
      -0.413
      -0.462
      -0.254
       0.126
       0.527
       0.836
       1.019
       1.093
       1.084
       1.008
       0.897
       0.783
       0.676
       0.555
       0.411
       0.286
       0.263
       0.393
       0.641
       0.908
       1.096
       1.157
       1.090
       0.923
       0.696
       0.467
       0.286
       0.160
       0.063
      -0.037
      -0.133
      -0.192
      -0.193
      -0.157
      -0.126
      -0.107
      -0.058
       0.065
       0.238
       0.379
       0.425
       0.376
       0.265
       0.094
      -0.155
      -0.489
      -0.887
      -1.311
      -1.711
      -2.019
      -2.161
      -2.105
      -1.895
      -1.644
      -1.467
      -1.404
      -1.398
      -1.344
      -1.171
      -0.870
      -0.465
       0.022
       0.556
       1.054
       1.404
       1.524
       1.417
       1.174
       0.910
       0.695
       0.526
       0.371
       0.236
       0.168
       0.197
       0.287
       0.358
       0.355
       0.287
       0.200
       0.113
       0.001
      -0.165
      -0.354
      -0.485
      -0.499
      -0.437
      -0.415
      -0.501
      -0.618
      -0.583
      -0.275
       0.228
       0.689
       0.918
       0.913
       0.818
       0.747
       0.680
       0.529
       0.264
      -0.045
      -0.312
      -0.500
      -0.603
      -0.585
      -0.394
      -0.029
       0.415
       0.789
       0.958
       0.863
       0.530
       0.054
      -0.436
      -0.830
      -1.065
      -1.133
      -1.055
      -0.871
      -0.633
      -0.394
      -0.185
       0.002
       0.196
       0.398
       0.572
       0.685
       0.772
       0.931
       1.238
       1.647
       1.989
       2.104
       1.970
       1.720
       1.519
       1.430
       1.398
       1.338
       1.220
       1.066
       0.899
       0.720
       0.526
       0.345
       0.225
       0.185
       0.172
       0.096
      -0.085
      -0.318
      -0.499
      -0.565
      -0.547
      -0.549
      -0.682
      -0.978
      -1.335
      -1.568
      -1.548
      -1.308
      -1.007
      -0.771
      -0.585
      -0.344
       0.004
       0.379
       0.653
       0.772
       0.801
       0.832
       0.865
       0.801
       0.544
       0.112
      -0.359
      -0.712
      -0.870
      -0.857
      -0.747
      -0.618
      -0.553
      -0.631
      -0.885
      -1.230
      -1.462
      -1.371
      -0.911
      -0.266
       0.275
       0.538
       0.599
       0.696
       0.986
       1.380
       1.626
       1.551
       1.225
       0.882
       0.680
       0.576
       0.410
       0.101
      -0.284
      -0.627
      -0.877
      -1.047
      -1.118
      -1.021
      -0.726
      -0.331
      -0.022
       0.064
      -0.076
      -0.361
      -0.701
      -1.045
      -1.342
      -1.522
      -1.514
      -1.315
      -1.025
      -0.814
      -0.816
      -1.025
      -1.275
      -1.342
      -1.108
      -0.669
      -0.272
      -0.120
      -0.213
      -0.358
      -0.339
      -0.069
       0.389
       0.916
       1.425
       1.868
       2.214
       2.430
       2.482
       2.351
       2.046
       1.616
       1.148
       0.730
       0.411
       0.178
      -0.004
      -0.138
      -0.197
      -0.194
      -0.209
      -0.315
      -0.466
      -0.530
      -0.444
      -0.315
      -0.307
      -0.444
      -0.554
      -0.455
      -0.156
       0.125
       0.171
      -0.032
      -0.287
      -0.354
      -0.112
       0.394
       1.019
       1.609
       2.061
       2.340
       2.474
       2.495
       2.387
       2.093
       1.577
       0.868
       0.051
      -0.785
      -1.562
      -2.193
      -2.574
      -2.609
      -2.276
      -1.665
      -0.957
      -0.349
       0.036
       0.209
       0.302
       0.472
       0.782
       1.133
       1.327
       1.215
       0.809
       0.263
      -0.241
      -0.592
      -0.775
      -0.850
      -0.914
      -1.034
      -1.172
      -1.186
      -0.940
      -0.468
       0.009
       0.238
       0.138
      -0.173
      -0.518
      -0.821
      -1.102
      -1.354
      -1.480
      -1.384
      -1.082
      -0.699
      -0.347
      -0.056
       0.173
       0.287
       0.211
      -0.057
      -0.402
      -0.683
      -0.841
      -0.913
      -0.945
      -0.909
      -0.720
      -0.332
       0.184
       0.665
       0.957
       1.026
       0.980
       0.969
       1.052
       1.125
       1.001
       0.587
       0.006
      -0.495
      -0.758
      -0.851
      -0.958
      -1.167
      -1.374
      -1.405
      -1.194
      -0.830
      -0.447
      -0.098
       0.233
       0.536
       0.737
       0.779
       0.719
       0.708
       0.851
       1.104
       1.302
       1.294
       1.045
       0.652
       0.256
      -0.028
      -0.139
      -0.059
       0.203
       0.597
       1.028
       1.390
       1.612
       1.679
       1.620
       1.461
       1.202
       0.813
       0.259
      -0.442
      -1.156
      -1.632
      -1.637
      -1.143
      -0.398
       0.239
       0.575
       0.697
       0.820
       1.015
       1.136
       0.998
       0.590
       0.084
      -0.361
      -0.742
      -1.178
      -1.733
      -2.327
      -2.793
      -2.995
      -2.876
      -2.429
      -1.688
      -0.766
       0.149
       0.890
       1.410
       1.770
       2.025
       2.139
       2.026
       1.632
       0.978
       0.140
      -0.772
      -1.621
      -2.262
      -2.621
      -2.728
      -2.674
      -2.501
      -2.165
      -1.608
      -0.875
      -0.134
       0.435
       0.789
       1.036
       1.310
       1.614
       1.813
       1.778
       1.529
       1.246
       1.135
       1.277
       1.571
       1.808
       1.788
       1.425
       0.765
      -0.051
      -0.857
      -1.502
      -1.871
      -1.906
      -1.641
      -1.199
      -0.731
      -0.328
       0.008
       0.322
       0.619
       0.833
       0.885
       0.766
       0.563
       0.389
       0.295
       0.246
       0.185
       0.098
       0.026
       0.014
       0.055
       0.083
       0.022
      -0.148
      -0.357
      -0.484
      -0.445
      -0.262
      -0.058
       0.034
      -0.020
      -0.135
      -0.195
      -0.160
      -0.091
      -0.079
      -0.183
      -0.403
      -0.697
      -0.980
      -1.154
      -1.150
      -0.960
      -0.643
      -0.287
       0.045
       0.333
       0.604
       0.909
       1.268
       1.608
       1.766
       1.566
       0.948
       0.022
      -0.987
      -1.857
      -2.445
      -2.698
      -2.621
      -2.262
      -1.713
      -1.098
      -0.536
      -0.093
       0.244
       0.534
       0.839
       1.175
       1.491
       1.671
       1.580
       1.155
       0.483
      -0.209
      -0.678
      -0.822
      -0.715
      -0.534
      -0.422
      -0.417
      -0.464
      -0.468
      -0.346
      -0.071
       0.303
       0.676
       0.955
       1.106
       1.143
       1.090
       0.968
       0.814
       0.696
       0.681
       0.769
       0.874
       0.888
       0.766
       0.550
       0.307
       0.053
      -0.236
      -0.548
      -0.804
      -0.913
      -0.861
      -0.715
      -0.555
      -0.388
      -0.165
       0.145
       0.488
       0.743
       0.795
       0.603
       0.233
      -0.182
      -0.513
      -0.714
      -0.816
      -0.865
      -0.844
      -0.688
      -0.369
       0.041
       0.405
       0.620
       0.683
       0.657
       0.592
       0.496
       0.367
       0.223
       0.106
       0.057
       0.116
       0.317
       0.646
       0.975
       1.090
       0.853
       0.365
      -0.075
      -0.229
      -0.126
      -0.002
      -0.030
      -0.155
      -0.182
       0.005
       0.339
       0.665
       0.859
       0.874
       0.676
       0.230
      -0.438
      -1.154
      -1.639
      -1.682
      -1.296
      -0.701
      -0.148
       0.241
       0.483
       0.603
       0.556
       0.287
      -0.153
      -0.591
      -0.842
      -0.848
      -0.706
      -0.561
      -0.483
      -0.429
      -0.317
      -0.112
       0.146
       0.386
       0.569
       0.707
       0.829
       0.954
       1.083
       1.222
       1.391
       1.589
       1.755
       1.787
       1.618
       1.284
       0.896
       0.556
       0.276
      -0.014
      -0.381
      -0.794
      -1.122
      -1.248
      -1.185
      -1.083
      -1.103
      -1.271
      -1.442
      -1.406
      -1.047
      -0.428
       0.250
       0.783
       1.067
       1.115
       0.993
       0.752
       0.417
       0.022
      -0.366
      -0.669
      -0.856
      -0.980
      -1.126
      -1.317
      -1.474
      -1.500
      -1.401
      -1.300
      -1.295
      -1.336
      -1.265
      -0.999
      -0.630
      -0.322
      -0.135
       0.021
       0.253
       0.552
       0.818
       0.974
       1.036
       1.050
       1.032
       0.961
       0.831
       0.672
       0.517
       0.381
       0.271
       0.205
       0.204
       0.273
       0.372
       0.411
       0.288
      -0.039
      -0.509
      -0.976
      -1.308
      -1.474
      -1.561
      -1.667
      -1.794
      -1.822
      -1.607
      -1.096
      -0.354
       0.492
       1.314
       1.992
       2.420
       2.528
       2.315
       1.855
       1.263
       0.662
       0.159
      -0.179
      -0.359
      -0.463
      -0.584
      -0.734
      -0.823
      -0.748
      -0.525
      -0.319
      -0.317
      -0.564
      -0.893
      -1.036
      -0.808
      -0.223
       0.550
       1.297
       1.866
       2.189
       2.258
       2.091
       1.716
       1.189
       0.609
       0.112
      -0.184
      -0.255
      -0.194
      -0.123
      -0.090
      -0.047
       0.059
       0.185
       0.207
       0.053
      -0.207
      -0.412
      -0.444
      -0.307
      -0.075
       0.189
       0.448
       0.640
       0.680
       0.525
       0.228
      -0.085
      -0.289
      -0.311
      -0.123
       0.255
       0.755
       1.257
       1.629
       1.797
       1.772
       1.607
       1.339
       0.976
       0.538
       0.080
      -0.359
      -0.794
      -1.264
      -1.751
      -2.143
      -2.312
      -2.223
      -1.977
      -1.732
      -1.568
      -1.432
      -1.192
      -0.763
      -0.172
       0.452
       0.961
       1.275
       1.407
       1.412
       1.325
       1.132
       0.828
       0.474
       0.174
      -0.011
      -0.111
      -0.207
      -0.335
      -0.464
      -0.531
      -0.513
      -0.446
      -0.399
      -0.429
      -0.552
      -0.741
      -0.937
      -1.084
      -1.166
      -1.224
      -1.318
      -1.465
      -1.582
      -1.534
      -1.244
      -0.774
      -0.302
       0.000
       0.070
      -0.021
      -0.133
      -0.150
      -0.036
       0.172
       0.420
       0.691
       0.991
       1.284
       1.461
       1.392
       1.043
       0.541
