Origin Time       21/9/2009 8:53:04	  UTC
Lat.              27.3 N	
Long.             91.5 E	
Depth (Km)          8.0
Magnitude         6.2
 Region           BHUTAN                                                           
 Above details taken from IMD 
    
Station Code      GOL
Station Lat.       26.152  N
Station Long.      90.627  E
Station Height(m)   56.0
Site Class        C   Vs30 between 200 m/sec to 375 m/sec *  
Record Time       21.09.2009 08:53:18.144 UTC
Sampling Rate     200. Hz
 Record Duration  113.830 Sec.
 Direction         N-S (N positive)
Max. Acceleration    -41.191 cm/sec**2
     
  * For reference see Site Classification link of website 
     
 Base Line Corrected and Low Pass Filtered (Cut Off at 35 Hz) Time History
 Acceleration data in cm/sec**2
    
[...]
      -0.141
      -0.546
      -1.172
      -1.893
      -2.590
      -3.172
      -3.580
      -3.776
      -3.743
      -3.479
      -3.008
      -2.409
      -1.823
      -1.444
      -1.434
      -1.830
      -2.496
      -3.169
      -3.592
      -3.629
      -3.316
      -2.826
      -2.372
      -2.109
      -2.054
      -2.084
      -1.999
      -1.635
      -0.949
      -0.024
       0.987
       1.928
       2.696
       3.249
       3.591
       3.740
       3.724
       3.584
       3.397
       3.263
       3.253
       3.359
       3.478
       3.471
       3.238
       2.770
       2.163
       1.581
       1.191
       1.092
       1.268
       1.602
       1.943
       2.184
       2.311
       2.393
       2.510
       2.683
       2.830
       2.817
       2.554
       2.080
       1.554
       1.175
       1.069
       1.243
       1.609
       2.046
       2.459
       2.793
       3.026
       3.151
       3.156
       3.023
       2.728
       2.254
       1.617
       0.884
       0.171
      -0.377
      -0.633
      -0.539
      -0.151
       0.381
       0.869
       1.181
       1.276
       1.175
       0.907
       0.475
      -0.121
      -0.848
      -1.620
      -2.331
      -2.901
      -3.319
      -3.638
      -3.927
      -4.200
      -4.380
      -4.334
      -3.946
      -3.200
      -2.217
      -1.223
      -0.472
      -0.141
      -0.260
      -0.716
      -1.337
      -1.987
      -2.616
      -3.221
      -3.779
      -4.216
      -4.429
      -4.329
      -3.873
      -3.074
      -2.002
      -0.795
       0.365
       1.278
       1.776
       1.760
       1.223
       0.263
      -0.930
      -2.098
      -2.978
      -3.376
      -3.258
      -2.792
      -2.277
      -2.000
      -2.071
      -2.380
      -2.681
      -2.768
      -2.585
      -2.228
      -1.853
      -1.566
      -1.383
      -1.253
      -1.119
      -0.952
      -0.758
      -0.556
      -0.354
      -0.135
       0.145
       0.550
       1.134
       1.889
       2.715
       3.431
       3.856
       3.907
       3.659
       3.303
       3.031
       2.923
       2.902
       2.805
       2.514
       2.036
       1.493
       1.027
       0.715
       0.543
       0.462
       0.454
       0.561
       0.861
       1.404
       2.157
       2.990
       3.728
       4.223
       4.427
       4.411
       4.315
       4.275
       4.339
       4.454
       4.492
       4.335
       3.939
       3.369
       2.770
       2.272
       1.903
       1.568
       1.117
       0.463
      -0.353
      -1.190
      -1.900
      -2.429
      -2.850
      -3.313
      -3.946
      -4.769
      -5.677
      -6.502
      -7.123
      -7.539
      -7.859
      -8.215
      -8.681
      -9.247
      -9.849
     -10.431
     -10.987
     -11.549
     -12.137
     -12.714
     -13.190
     -13.458
     -13.444
     -13.107
     -12.420
     -11.361
      -9.928
      -8.177
      -6.226
      -4.214
      -2.251
      -0.383
       1.385
       3.054
       4.614
       6.061
       7.416
       8.699
       9.871
      10.814
      11.383
      11.507
      11.256
      10.831
      10.458
      10.264
      10.206
      10.106
       9.774
       9.155
       8.378
       7.684
       7.294
       7.297
       7.639
       8.180
       8.772
       9.292
       9.644
       9.757
       9.619
       9.316
       9.008
       8.840
       8.857
       8.977
       9.054
       8.959
       8.642
       8.116
       7.419
       6.584
       5.661
       4.728
       3.875
       3.141
       2.489
       1.817
       1.030
       0.091
      -0.963
      -2.068
      -3.189
      -4.336
      -5.536
      -6.798
      -8.098
      -9.401
     -10.668
     -11.858
     -12.924
     -13.827
     -14.547
     -15.076
     -15.391
     -15.461
     -15.286
     -14.928
     -14.486
     -14.028
     -13.550
     -13.010
     -12.410
     -11.848
     -11.501
     -11.522
     -11.952
     -12.683
     -13.515
     -14.253
     -14.786
     -15.100
     -15.238
     -15.240
     -15.091
     -14.703
     -13.923
     -12.562
     -10.432
      -7.410
      -3.490
       1.187
       6.384
      11.858
      17.408
      22.843
      27.925
      32.369
      35.940
      38.530
      40.139
      40.797
      40.523
      39.373
      37.496
      35.102
      32.352
      29.290
      25.899
      22.262
      18.665
      15.545
      13.278
      11.984
      11.489
      11.473
      11.692
      12.100
      12.744
      13.544
      14.174
      14.185
      13.249
      11.299
       8.481
       4.997
       0.985
      -3.509
      -8.457
     -13.734
     -19.050
     -23.941
     -27.852
     -30.289
     -30.993
     -30.048
     -27.817
     -24.768
     -21.307
     -17.724
     -14.222
     -10.949
      -8.030
      -5.590
      -3.760
      -2.647
      -2.292
      -2.675
      -3.751
      -5.467
      -7.746
     -10.450
     -13.362
     -16.202
     -18.637
     -20.331
     -21.037
     -20.713
     -19.572
     -17.985
     -16.278
     -14.583
     -12.833
     -10.876
      -8.592
      -5.972
      -3.138
      -0.320
       2.196
       4.136
       5.292
       5.557
       4.966
       3.700
       2.050
       0.310
      -1.336
      -2.855
      -4.317
      -5.795
      -7.291
      -8.695
      -9.804
     -10.373
     -10.176
      -9.071
      -7.064
      -4.345
      -1.238
       1.928
       4.945
       7.771
      10.455
      13.029
      15.420
      17.429
      18.796
      19.295
      18.844
      17.538
      15.605
      13.288
      10.756
       8.083
       5.305
       2.489
      -0.254
      -2.779
      -4.917
      -6.482
      -7.295
      -7.242
      -6.333
      -4.737
      -2.750
      -0.702
       1.137
       2.624
       3.712
       4.391
       4.615
       4.300
       3.375
       1.846
      -0.157
      -2.419
      -4.721
      -6.917
      -8.940
     -10.756
     -12.316
     -13.526
     -14.268
     -14.427
     -13.945
     -12.849
     -11.242
      -9.243
      -6.948
      -4.451
      -1.891
       0.503
       2.434
       3.612
       3.845
       3.109
       1.528
      -0.693
      -3.339
      -6.213
      -9.131
     -11.905
     -14.335
     -16.237
     -17.507
     -18.163
     -18.335
     -18.157
     -17.651
     -16.690
     -15.087
     -12.746
      -9.735
      -6.250
      -2.507
       1.307
       4.997
       8.313
      10.945
      12.582
      12.967
      11.953
       9.570
       6.096
       2.075
      -1.795
      -4.898
      -6.904
      -7.828
      -7.892
      -7.297
      -6.053
      -3.975
      -0.835
       3.427
       8.587
      14.187
      19.688
      24.622
      28.655
      31.587
      33.338
      33.931
      33.462
      32.048
      29.781
      26.750
      23.104
      19.100
      15.070
      11.327
       8.119
       5.677
       4.262
       4.100
       5.242
       7.461
      10.277
      13.105
      15.437
      16.987
      17.744
      17.903
      17.715
      17.323
      16.707
      15.751
      14.384
      12.645
      10.629
       8.378
       5.859
       3.025
      -0.102
      -3.390
      -6.616
      -9.518
     -11.869
     -13.545
     -14.566
     -15.060
     -15.163
     -14.935
     -14.358
     -13.397
     -12.060
     -10.379
      -8.366
      -6.031
      -3.463
      -0.871
       1.488
       3.429
       4.898
       5.930
       6.575
       6.861
       6.818
       6.514
       6.053
       5.532
       4.991
       4.421
       3.800
       3.127
       2.397
       1.559
       0.535
      -0.673
      -1.909
      -2.948
      -3.664
      -4.126
      -4.489
      -4.812
      -4.971
      -4.785
      -4.238
      -3.571
      -3.124
      -3.081
      -3.357
      -3.711
      -3.927
      -3.920
      -3.738
      -3.515
      -3.425
      -3.625
      -4.183
      -5.003
      -5.802
      -6.187
      -5.790
      -4.416
      -2.145
       0.642
       3.348
       5.307
       5.972
       5.076
       2.668
      -0.969
      -5.442
     -10.321
     -15.150
     -19.484
     -22.980
     -25.452
     -26.844
     -27.150
     -26.397
     -24.672
     -22.163
     -19.135
     -15.837
     -12.438
      -9.022
      -5.609
      -2.165
       1.363
       4.916
       8.187
      10.637
      11.741
      11.298
       9.588
       7.257
       5.046
       3.524
       2.946
       3.234
       4.099
       5.256
       6.613
       8.275
      10.386
      12.953
      15.799
      18.668
      21.370
      23.851
      26.152
      28.343
      30.431
      32.266
      33.498
      33.681
      32.511
      30.014
      26.507
      22.352
      17.685
      12.370
       6.212
      -0.756
      -8.140
     -15.250
     -21.298
     -25.610
     -27.801
     -27.909
     -26.426
     -24.145
     -21.854
     -20.015
     -18.635
     -17.403
     -15.986
     -14.267
     -12.396
     -10.668
      -9.350
      -8.592
      -8.444
      -8.925
     -10.053
     -11.806
     -14.080
     -16.696
     -19.463
     -22.261
     -25.078
     -27.957
     -30.880
     -33.669
     -36.008
     -37.597
     -38.335
     -38.356
     -37.894
     -37.086
     -35.859
     -33.997
     -31.301
     -27.744
     -23.528
     -19.024
     -14.659
     -10.776
      -7.540
      -4.941
      -2.864
      -1.163
       0.301
       1.675
       3.135
       4.870
       7.050
       9.774
      13.019
      16.574
      20.008
      22.748
      24.318
      24.563
      23.708
      22.194
      20.474
      18.906
      17.764
      17.225
      17.324
      17.916
      18.745
      19.573
      20.291
      20.901
      21.392
      21.672
      21.646
      21.371
      21.107
      21.194
      21.852
      23.048
      24.524
      25.924
      26.923
      27.267
      26.808
      25.543
      23.643
      21.387
      19.036
      16.733
      14.500
      12.293
      10.061
       7.763
       5.354
       2.759
      -0.133
      -3.419
      -7.085
     -10.909
     -14.464
     -17.221
     -18.703
     -18.612
     -16.909
     -13.834
      -9.867
      -5.605
      -1.600
       1.764
       4.282
       5.883
       6.585
       6.469
       5.668
       4.344
       2.676
       0.857
      -0.902
      -2.401
      -3.532
      -4.338
      -4.973
      -5.574
      -6.124
      -6.435
      -6.262
      -5.446
      -3.973
      -1.967
       0.358
       2.737
       4.891
       6.571
       7.641
       8.127
       8.197
       8.054
       7.822
       7.477
       6.873
       5.819
       4.206
       2.085
      -0.316
      -2.673
      -4.700
      -6.252
      -7.347
      -8.077
      -8.530
      -8.766
      -8.841
      -8.822
      -8.766
      -8.693
      -8.597
      -8.485
      -8.396
      -8.391
      -8.501
      -8.686
      -8.820
      -8.719
      -8.193
      -7.118
      -5.542
      -3.726
      -2.053
      -0.821
      -0.063
       0.461
       1.084
       2.000
       3.118
       4.093
       4.507
       4.097
       2.899
       1.209
      -0.573
      -2.078
      -3.027
      -3.239
      -2.642
      -1.293
       0.648
       2.983
       5.526
       8.118
      10.621
      12.905
      14.863
      16.399
      17.417
      17.833
      17.622
      16.869
      15.794
      14.725
      14.008
      13.877
      14.351
      15.228
      16.170
      16.830
      16.924
      16.247
      14.708
      12.365
       9.391
       5.967
       2.206
      -1.805
      -5.914
      -9.864
     -13.376
     -16.281
     -18.563
     -20.276
     -21.411
     -21.821
     -21.258
     -19.488
     -16.422
     -12.196
      -7.200
      -2.002
       2.824
       6.857
       9.874
      11.762
      12.428
      11.792
       9.860
       6.781
       2.811
      -1.753
      -6.605
     -11.420
     -15.862
     -19.663
     -22.712
     -25.092
     -26.996
     -28.596
     -29.958
     -31.060
     -31.837
     -32.211
     -32.067
     -31.240
     -29.548
     -26.869
     -23.237
     -18.882
     -14.217
      -9.754
      -5.986
      -3.277
      -1.790
      -1.464
      -2.053
      -3.208
      -4.548
      -5.730
      -6.486
      -6.674
      -6.296
      -5.492
      -4.473
      -3.456
      -2.623
      -2.094
      -1.875
      -1.842
      -1.783
      -1.508
      -0.930
      -0.088
       0.873
       1.712
       2.095
       1.656
       0.145
      -2.405
      -5.611
      -8.834
     -11.399
     -12.833
     -13.008
     -12.107
     -10.442
      -8.260
      -5.649
      -2.598
       0.869
       4.582
       8.222
      11.431
      13.977
      15.878
      17.387
      18.822
      20.337
      21.805
      22.946
      23.601
      23.911
      24.227
      24.864
      25.908
      27.204
      28.469
      29.444
      29.982
      30.064
      29.778
      29.305
      28.892
      28.786
      29.136
      29.921
      30.935
      31.857
      32.370
      32.267
      31.485
      30.065
      28.088
      25.669
      22.984
      20.246
      17.606
      15.065
      12.495
       9.774
       6.927
       4.177
       1.861
       0.247
      -0.632
      -1.020
      -1.325
      -1.933
      -3.107
      -4.997
      -7.713
     -11.343
     -15.860
     -21.024
     -26.371
     -31.328
     -35.394
     -38.292
     -40.025
     -40.840
     -41.110
     -41.173
     -41.191
     -41.110
     -40.724
     -39.782
     -38.087
     -35.578
     -32.370
     -28.760
     -25.169
     -22.029
     -19.648
     -18.114
     -17.279
     -16.837
     -16.480
     -16.018
     -15.418
     -14.726
     -13.958
     -13.041
     -11.848
     -10.280
      -8.307
      -5.943
      -3.223
      -0.214
       2.964
       6.155
       9.233
      12.195
      15.162
      18.265
      21.482
      24.581
      27.198
      29.014
      29.887
      29.917
      29.384
      28.629
      27.918
      27.371
      26.988
      26.728
      26.570
      26.508
      26.495
      26.409
      26.084
      25.388
      24.292
      22.883
      21.311
      19.681
      17.950
      15.928
      13.437
      10.515
       7.493
       4.840
       2.879
       1.573
       0.575
      -0.504
      -1.820
      -3.207
      -4.306
      -4.764
      -4.387
      -3.217
      -1.540
       0.192
       1.527
       2.169
       2.009
       1.054
      -0.643
      -2.954
      -5.613
      -8.270
     -10.652
     -12.680
     -14.393
     -15.811
     -16.899
     -17.667
     -18.216
     -18.628
     -18.822
     -18.600
     -17.844
     -16.684
     -15.492
     -14.700
     -14.594
     -15.196
     -16.278
     -17.497
     -18.568
     -19.382
     -19.991
     -20.468
     -20.762
     -20.696
     -20.094
     -18.962
     -17.531
     -16.124
     -14.965
     -14.084
     -13.383
     -12.764
     -12.230
     -11.879
     -11.828
     -12.125
     -12.720
     -13.482
     -14.262
     -14.947
     -15.468
     -15.757
     -15.685
     -15.094
     -13.898
     -12.175
     -10.144
      -8.027
      -5.937
      -3.887
      -1.901
      -0.101
       1.328
       2.260
       2.746
       3.028
       3.450
       4.317
       5.750
       7.604
       9.525
      11.152
      12.315
      13.096
      13.710
      14.343
      15.064
      15.830
      16.520
      16.994
      17.174
      17.131
      17.099
      17.379
      18.182
      19.527
      21.229
      22.972
      24.412
      25.267
      25.362
      24.655
      23.253
      21.411
      19.471
      17.742
      16.383
      15.351
      14.458
      13.483
      12.287
      10.854
       9.307
       7.898
       6.973
       6.835
       7.569
       8.947
      10.495
      11.683
      12.121
      11.684
      10.533
       9.039
       7.625
       6.599
       6.047
       5.834
       5.685
       5.282
       4.354
       2.767
       0.610
      -1.783
      -3.938
      -5.476
      -6.311
      -6.677
      -6.954
      -7.438
      -8.199
      -9.098
      -9.895
     -10.390
     -10.515
     -10.332
      -9.954
      -9.458
      -8.862
      -8.189
      -7.536
      -7.103
      -7.129
      -7.790
      -9.097
     -10.866
     -12.789
     -14.583
     -16.099
     -17.341
     -18.397
     -19.337
     -20.132
     -20.654
     -20.733
     -20.261
     -19.274
     -17.978
     -16.669
     -15.592
     -14.827
     -14.254
     -13.622
     -12.681
     -11.314
      -9.598
      -7.735
      -5.927
      -4.259
      -2.676
      -1.070
       0.625
       2.374
       4.100
       5.768
       7.438
       9.226
      11.210
      13.347
      15.456
      17.284
      18.611
      19.357
      19.618
      19.598
      19.502
      19.441
      19.422
      19.400
      19.338
      19.225
      19.024
      18.651
      18.040
      17.249
      16.502
      16.093
      16.183
      16.670
      17.239
      17.545
      17.383
      16.734
      15.714
      14.536
      13.481
      12.810
      12.601
      12.635
      12.488
      11.776
      10.369
       8.411
       6.217
       4.137
       2.441
       1.211
       0.265
      -0.780
      -2.307
      -4.498
      -7.299
     -10.548
     -14.079
     -17.709
     -21.165
     -24.124
     -26.372
     -27.910
     -28.911
     -29.571
     -30.005
     -30.228
     -30.160
     -29.630
     -28.423
     -26.410
     -23.691
     -20.611
     -17.635
     -15.176
     -13.468
     -12.527
     -12.183
     -12.170
     -12.217
     -12.124
     -11.778
     -11.133
     -10.193
      -9.042
      -7.863
      -6.911
      -6.399
      -6.411
      -6.884
      -7.674
      -8.643
      -9.705
     -10.837
     -12.042
     -13.283
     -14.397
     -15.051
     -14.813
     -13.339
     -10.572
      -6.825
      -2.675
       1.276
       4.612
       7.161
       8.921
       9.954
      10.322
      10.088
       9.374
       8.415
       7.538
       7.053
       7.132
       7.770
       8.837
      10.154
      11.543
      12.894
      14.202
      15.536
      16.915
      18.230
      19.264
      19.787
      19.646
      18.802
      17.309
      15.279
      12.855
      10.201
       7.478
       4.824
       2.354
       0.177
      -1.602
      -2.899
      -3.683
      -3.974
      -3.812
      -3.245
      -2.356
      -1.286
      -0.219
       0.681
       1.317
       1.663
       1.750
       1.665
       1.557
       1.595
       1.887
       2.434
       3.158
       3.984
       4.887
       5.894
       7.041
       8.346
       9.784
      11.280
      12.702
      13.894
      14.726
      15.150
      15.192
      14.903
      14.333
      13.527
      12.530
      11.338
       9.876
       8.030
       5.759
       3.192
       0.597
      -1.752
      -3.733
      -5.418
      -6.988
      -8.574
     -10.156
     -11.579
     -12.660
     -13.288
     -13.451
     -13.186
     -12.520
     -11.442
      -9.934
      -8.018
      -5.803
      -3.464
      -1.172
       0.991
       3.062
       5.144
       7.314
       9.550
      11.715
      13.595
      14.964
      15.639
      15.518
      14.596
      12.985
      10.923
