Origin Time       21/9/2009 8:53:04	 
Lat.              27.3 N	
Long.             91.5 E	
Depth (Km)          8.0
Magnitude         6.2
 Region           BHUTAN                                                           
 Above details taken from IMD 
     
Station Code      GOL
Station Lat.       26.152  N
Station Long.      90.627  E
Station Height(m)   56.0
Site Class        C   Vs30 between 200 m/sec to 375 m/sec *  
Record Time       21.09.2009 08:53:18.144
Sampling Rate     200. Hz
 Record Duration  113.830 Sec.
 Direction         E-W (E positive)
Max. Acceleration     41.862 cm/sec**2
     
  * For reference see Site Classification link of website 
     
 Base Line Corrected and Low Pass Filtered (Cut Off at 35 Hz) Time History
 Acceleration data in cm/sec**2
    
[...]
      -0.307
       0.040
       0.265
       0.318
       0.194
      -0.051
      -0.287
      -0.357
      -0.155
       0.302
       0.883
       1.410
       1.733
       1.767
       1.496
       0.974
       0.329
      -0.254
      -0.600
      -0.621
      -0.363
       0.024
       0.369
       0.573
       0.655
       0.730
       0.934
       1.342
       1.919
       2.520
       2.941
       3.011
       2.683
       2.073
       1.403
       0.896
       0.667
       0.708
       0.943
       1.287
       1.669
       2.012
       2.220
       2.211
       1.950
       1.479
       0.905
       0.365
      -0.032
      -0.264
      -0.408
      -0.601
      -0.940
      -1.403
      -1.860
      -2.157
      -2.226
      -2.120
      -1.966
      -1.879
      -1.902
      -2.011
      -2.158
      -2.309
      -2.449
      -2.553
      -2.575
      -2.450
      -2.133
      -1.624
      -0.966
      -0.222
       0.559
       1.330
       2.027
       2.558
       2.835
       2.823
       2.572
       2.195
       1.816
       1.523
       1.344
       1.246
       1.166
       1.048
       0.879
       0.703
       0.588
       0.588
       0.706
       0.897
       1.100
       1.268
       1.390
       1.478
       1.540
       1.570
       1.547
       1.446
       1.246
       0.940
       0.553
       0.130
      -0.283
      -0.656
      -0.996
      -1.343
      -1.745
      -2.224
      -2.748
      -3.239
      -3.613
      -3.834
      -3.946
      -4.047
      -4.232
      -4.526
      -4.864
      -5.126
      -5.200
      -5.023
      -4.584
      -3.912
      -3.063
      -2.123
      -1.204
      -0.431
       0.103
       0.377
       0.449
       0.431
       0.437
       0.534
       0.719
       0.919
       1.026
       0.949
       0.679
       0.314
       0.029
      -0.007
       0.286
       0.858
       1.556
       2.198
       2.647
       2.849
       2.823
       2.620
       2.291
       1.884
       1.453
       1.048
       0.707
       0.431
       0.195
      -0.018
      -0.185
      -0.245
      -0.135
       0.157
       0.561
       0.940
       1.155
       1.135
       0.914
       0.607
       0.335
       0.173
       0.132
       0.181
       0.290
       0.450
       0.655
       0.883
       1.087
       1.226
       1.290
       1.298
       1.276
       1.239
       1.180
       1.077
       0.896
       0.604
       0.191
      -0.317
      -0.856
      -1.353
      -1.750
      -2.017
      -2.145
      -2.131
      -1.978
      -1.708
      -1.371
      -1.029
      -0.724
      -0.461
      -0.213
       0.054
       0.359
       0.695
       1.033
       1.334
       1.552
       1.655
       1.629
       1.493
       1.290
       1.075
       0.891
       0.763
       0.701
       0.712
       0.791
       0.913
       1.029
       1.093
       1.090
       1.047
       1.009
       1.017
       1.084
       1.195
       1.307
       1.371
       1.362
       1.300
       1.231
       1.181
       1.109
       0.938
       0.614
       0.173
      -0.263
      -0.554
      -0.613
      -0.449
      -0.147
       0.179
       0.437
       0.553
       0.470
       0.146
      -0.429
      -1.194
      -2.009
      -2.683
      -3.045
      -3.025
      -2.691
      -2.212
      -1.769
      -1.472
      -1.313
      -1.198
      -1.011
      -0.701
      -0.312
       0.049
       0.298
       0.431
       0.527
       0.692
       1.003
       1.486
       2.120
       2.829
       3.490
       3.942
       4.043
       3.731
       3.054
       2.148
       1.188
       0.334
      -0.301
      -0.659
      -0.744
      -0.615
      -0.380
      -0.170
      -0.102
      -0.245
      -0.593
      -1.057
      -1.509
      -1.837
      -2.002
      -2.063
      -2.135
      -2.313
      -2.612
      -2.968
      -3.292
      -3.536
      -3.704
      -3.824
      -3.891
      -3.865
      -3.692
      -3.359
      -2.907
      -2.407
      -1.924
      -1.494
      -1.127
      -0.822
      -0.572
      -0.364
      -0.186
      -0.035
       0.071
       0.098
       0.014
      -0.194
      -0.511
      -0.891
      -1.263
      -1.539
      -1.633
      -1.481
      -1.066
      -0.437
       0.297
       0.993
       1.529
       1.860
       2.032
       2.137
       2.241
       2.340
       2.375
       2.282
       2.048
       1.728
       1.423
       1.226
       1.173
       1.234
       1.342
       1.438
       1.497
       1.519
       1.507
       1.454
       1.354
       1.223
       1.105
       1.047
       1.057
       1.084
       1.019
       0.751
       0.238
      -0.438
      -1.080
      -1.464
      -1.466
      -1.126
      -0.618
      -0.132
       0.239
       0.537
       0.872
       1.320
       1.848
       2.320
       2.578
       2.530
       2.198
       1.687
       1.119
       0.576
       0.089
      -0.341
      -0.716
      -1.023
      -1.231
      -1.308
      -1.245
      -1.076
      -0.865
      -0.674
      -0.531
      -0.419
      -0.296
      -0.118
       0.132
       0.429
       0.711
       0.907
       0.983
       0.966
       0.919
       0.881
       0.825
       0.674
       0.368
      -0.070
      -0.524
      -0.838
      -0.894
      -0.679
      -0.290
       0.111
       0.372
       0.416
       0.263
       0.001
      -0.264
      -0.464
      -0.576
      -0.606
      -0.553
      -0.398
      -0.121
       0.264
       0.685
       1.035
       1.214
       1.181
       0.964
       0.643
       0.322
       0.089
      -0.003
       0.048
       0.198
       0.368
       0.480
       0.479
       0.354
       0.146
      -0.069
      -0.205
      -0.223
      -0.151
      -0.078
      -0.105
      -0.295
      -0.651
      -1.131
      -1.665
      -2.173
      -2.566
      -2.759
      -2.713
      -2.465
      -2.130
      -1.854
      -1.744
      -1.815
      -1.983
      -2.101
      -2.008
      -1.600
      -0.879
       0.024
       0.894
       1.515
       1.772
       1.701
       1.466
       1.268
       1.249
       1.443
       1.791
       2.193
       2.563
       2.850
       3.045
       3.160
       3.215
       3.218
       3.146
       2.941
       2.536
       1.893
       1.046
       0.098
      -0.807
      -1.542
      -2.038
      -2.295
      -2.364
      -2.315
      -2.214
      -2.120
      -2.089
      -2.159
      -2.325
      -2.535
      -2.708
      -2.780
      -2.727
      -2.563
      -2.316
      -2.016
      -1.688
      -1.351
      -1.015
      -0.686
      -0.361
      -0.038
       0.276
       0.562
       0.781
       0.887
       0.853
       0.690
       0.439
       0.156
      -0.105
      -0.288
      -0.333
      -0.192
       0.135
       0.573
       0.999
       1.308
       1.464
       1.512
       1.532
       1.581
       1.662
       1.729
       1.723
       1.602
       1.355
       1.004
       0.614
       0.283
       0.122
       0.196
       0.481
       0.848
       1.128
       1.197
       1.036
       0.726
       0.377
       0.067
      -0.191
      -0.428
      -0.687
      -0.981
      -1.272
      -1.482
      -1.523
      -1.340
      -0.946
      -0.409
       0.182
       0.746
       1.217
       1.536
       1.654
       1.559
       1.282
       0.887
       0.438
      -0.023
      -0.491
      -0.997
      -1.598
      -2.328
      -3.130
      -3.831
      -4.203
      -4.101
      -3.574
      -2.863
      -2.251
      -1.899
      -1.770
      -1.702
      -1.550
      -1.281
      -0.961
      -0.671
      -0.443
      -0.256
      -0.075
       0.107
       0.271
       0.413
       0.569
       0.806
       1.171
       1.649
       2.173
       2.671
       3.101
       3.460
       3.762
       4.010
       4.197
       4.305
       4.317
       4.229
       4.065
       3.869
       3.678
       3.484
       3.228
       2.850
       2.351
       1.816
       1.351
       0.982
       0.598
       0.008
      -0.924
      -2.172
      -3.546
      -4.789
      -5.692
      -6.165
      -6.223
      -5.955
      -5.477
      -4.915
      -4.390
      -3.997
      -3.794
      -3.775
      -3.885
      -4.023
      -4.075
      -3.940
      -3.564
      -2.962
      -2.211
      -1.409
      -0.637
       0.053
       0.631
       1.065
       1.337
       1.459
       1.475
       1.444
       1.405
       1.368
       1.315
       1.216
       1.043
       0.803
       0.555
       0.396
       0.402
       0.583
       0.864
       1.139
       1.316
       1.358
       1.279
       1.128
       0.977
       0.895
       0.919
       1.035
       1.179
       1.265
       1.223
       1.021
       0.678
       0.249
      -0.196
      -0.581
      -0.843
      -0.934
      -0.846
      -0.617
      -0.329
      -0.069
       0.106
       0.203
       0.299
       0.497
       0.857
       1.344
       1.831
       2.161
       2.215
       1.960
       1.446
       0.782
       0.115
      -0.402
      -0.649
      -0.588
      -0.295
       0.055
       0.269
       0.217
      -0.120
      -0.672
      -1.335
      -2.008
      -2.604
      -3.028
      -3.185
      -3.016
      -2.547
      -1.912
      -1.309
      -0.915
      -0.805
      -0.923
      -1.125
      -1.259
      -1.243
      -1.088
      -0.866
      -0.650
      -0.465
      -0.281
      -0.043
       0.270
       0.617
       0.914
       1.083
       1.105
       1.032
       0.953
       0.934
       0.974
       1.006
       0.947
       0.759
       0.473
       0.166
      -0.099
      -0.298
      -0.433
      -0.496
      -0.465
      -0.346
      -0.200
      -0.122
      -0.174
      -0.324
      -0.465
      -0.508
      -0.458
      -0.429
      -0.566
      -0.940
      -1.484
      -2.031
      -2.406
      -2.519
      -2.390
      -2.117
      -1.814
      -1.571
      -1.431
      -1.386
      -1.389
      -1.368
      -1.250
      -0.987
      -0.573
      -0.050
       0.502
       1.001
       1.398
       1.686
       1.887
       2.030
       2.140
       2.233
       2.311
       2.344
       2.274
       2.043
       1.651
       1.174
       0.737
       0.442
       0.332
       0.394
       0.599
       0.916
       1.307
       1.717
       2.073
       2.318
       2.432
       2.432
       2.352
       2.216
       2.041
       1.850
       1.685
       1.585
       1.559
       1.569
       1.541
       1.415
       1.189
       0.928
       0.727
       0.655
       0.704
       0.786
       0.784
       0.614
       0.290
      -0.071
      -0.299
      -0.258
       0.090
       0.671
       1.345
       1.977
       2.483
       2.850
       3.105
       3.279
       3.385
       3.428
       3.415
       3.361
       3.280
       3.176
       3.037
       2.843
       2.575
       2.238
       1.872
       1.545
       1.308
       1.131
       0.897
       0.454
      -0.289
      -1.295
      -2.396
      -3.366
      -4.010
      -4.233
      -4.060
      -3.614
      -3.047
      -2.485
      -1.977
      -1.492
      -0.946
      -0.243
       0.666
       1.743
       2.856
       3.831
       4.531
       4.921
       5.065
       5.084
       5.093
       5.156
       5.285
       5.445
       5.583
       5.643
       5.592
       5.429
       5.174
       4.835
       4.403
       3.860
       3.208
       2.487
       1.770
       1.144
       0.666
       0.340
       0.116
      -0.075
      -0.283
      -0.509
      -0.696
      -0.752
      -0.586
      -0.174
       0.423
       1.084
       1.688
       2.166
       2.509
       2.742
       2.879
       2.904
       2.783
       2.503
       2.098
       1.634
       1.172
       0.730
       0.297
      -0.141
      -0.578
      -0.980
      -1.310
      -1.554
      -1.729
      -1.884
      -2.090
      -2.429
      -2.963
      -3.687
      -4.495
      -5.211
      -5.672
      -5.807
      -5.671
      -5.412
      -5.197
      -5.135
      -5.234
      -5.411
      -5.547
      -5.531
      -5.310
      -4.889
      -4.331
      -3.718
      -3.112
      -2.538
      -1.992
      -1.466
      -0.974
      -0.557
      -0.277
      -0.173
      -0.216
      -0.285
      -0.228
       0.048
       0.497
       0.967
       1.304
       1.454
       1.480
       1.487
       1.541
       1.631
       1.718
       1.804
       1.958
       2.254
       2.666
       3.022
       3.089
       2.741
       2.057
       1.252
       0.529
      -0.021
      -0.407
      -0.680
      -0.885
      -1.051
      -1.174
      -1.185
      -0.978
      -0.478
       0.273
       1.129
       1.915
       2.492
       2.743
       2.542
       1.768
       0.380
      -1.543
      -3.832
      -6.329
      -8.967
     -11.753
     -14.684
     -17.670
     -20.552
     -23.180
     -25.478
     -27.436
     -29.023
     -30.132
     -30.619
     -30.403
     -29.557
     -28.294
     -26.870
     -25.478
     -24.193
     -22.976
     -21.719
     -20.324
     -18.752
     -17.035
     -15.240
     -13.424
     -11.610
      -9.817
      -8.089
      -6.502
      -5.117
      -3.930
      -2.873
      -1.858
      -0.824
       0.232
       1.241
       2.090
       2.695
       3.091
       3.467
       4.133
       5.407
       7.509
      10.484
      14.197
      18.378
      22.701
      26.881
      30.737
      34.184
      37.158
      39.545
      41.174
      41.862
      41.480
      39.985
      37.429
      33.945
      29.732
      25.054
      20.245
      15.671
      11.662
       8.453
       6.147
       4.723
       4.079
       4.102
       4.714
       5.874
       7.531
       9.579
      11.835
      14.054
      15.972
      17.363
      18.075
      18.047
      17.296
      15.883
      13.885
      11.376
       8.453
       5.238
       1.858
      -1.567
      -4.930
      -8.131
     -11.096
     -13.786
     -16.171
     -18.189
     -19.718
     -20.588
     -20.635
     -19.793
     -18.144
     -15.897
     -13.293
     -10.530
      -7.736
      -4.977
      -2.265
       0.413
       3.027
       5.464
       7.543
       9.081
       9.941
      10.051
       9.413
       8.155
       6.556
       5.002
       3.845
       3.266
       3.229
       3.533
       3.909
       4.106
       3.935
       3.289
       2.179
       0.745
      -0.777
      -2.139
      -3.176
      -3.834
      -4.154
      -4.221
      -4.146
      -4.054
      -4.076
      -4.331
      -4.916
      -5.909
      -7.356
      -9.222
     -11.334
     -13.386
     -15.040
     -16.099
     -16.613
     -16.864
     -17.226
     -17.978
     -19.174
     -20.625
     -21.985
     -22.880
     -23.016
     -22.234
     -20.496
     -17.837
     -14.313
      -9.997
      -5.033
       0.288
       5.537
      10.287
      14.288
      17.546
      20.203
      22.346
      23.912
      24.788
      24.995
      24.768
      24.435
      24.200
      24.010
      23.619
      22.786
      21.431
      19.644
      17.603
      15.497
      13.486
      11.680
      10.176
       9.131
       8.772
       9.296
      10.727
      12.878
      15.429
      18.062
      20.533
      22.663
      24.318
      25.416
      25.923
      25.815
      25.018
      23.390
      20.795
      17.225
      12.840
       7.921
       2.769
      -2.342
      -7.171
     -11.496
     -15.151
     -18.078
     -20.368
     -22.250
     -24.029
     -25.974
     -28.217
     -30.699
     -33.212
     -35.514
     -37.436
     -38.887
     -39.788
     -40.024
     -39.490
     -38.174
     -36.182
     -33.738
     -31.146
     -28.744
     -26.826
     -25.566
     -25.001
     -25.065
     -25.645
     -26.608
     -27.815
     -29.136
     -30.458
     -31.659
     -32.592
     -33.107
     -33.096
     -32.511
     -31.336
     -29.549
     -27.139
     -24.153
     -20.728
     -17.064
     -13.382
      -9.873
      -6.657
      -3.716
      -0.857
       2.231
       5.815
       9.918
      14.265
      18.388
      21.848
      24.404
      26.033
      26.833
      26.922
      26.413
      25.433
      24.078
      22.351
      20.190
      17.590
      14.723
      11.896
       9.373
       7.208
       5.257
       3.338
       1.394
      -0.481
      -2.136
      -3.462
      -4.416
      -4.989
      -5.170
      -4.913
      -4.102
      -2.554
      -0.113
       3.220
       7.196
      11.381
      15.299
      18.566
      20.932
      22.291
      22.687
      22.291
      21.308
      19.886
      18.107
      16.096
      14.115
      12.534
      11.687
      11.754
      12.712
      14.370
      16.423
      18.527
      20.391
      21.830
      22.789
      23.326
      23.558
      23.580
      23.408
      22.981
      22.204
      20.988
      19.239
      16.847
      13.701
       9.760
       5.131
       0.074
      -5.080
     -10.038
     -14.607
     -18.655
     -22.033
     -24.533
     -25.948
     -26.186
     -25.316
     -23.522
     -20.996
     -17.871
     -14.235
     -10.217
      -6.043
      -2.022
       1.519
       4.323
       6.265
       7.377
       7.809
       7.726
       7.218
       6.296
       4.973
       3.323
       1.487
      -0.389
      -2.210
      -3.942
      -5.561
      -6.980
      -8.023
      -8.476
      -8.164
      -7.034
      -5.219
      -3.031
      -0.877
       0.889
       2.063
       2.610
       2.644
       2.387
       2.096
       1.980
       2.170
       2.728
       3.647
       4.851
       6.220
       7.638
       9.023
      10.317
      11.464
      12.417
      13.161
      13.691
      13.964
      13.885
      13.378
      12.483
      11.398
      10.424
       9.860
       9.896
      10.551
      11.653
      12.919
      14.089
      15.028
      15.716
      16.166
      16.350
      16.205
      15.697
      14.869
      13.817
      12.628
      11.366
      10.113
       8.989
       8.093
       7.405
       6.759
       5.921
       4.714
       3.105
       1.200
      -0.846
      -2.918
      -4.977
      -7.065
      -9.270
     -11.679
     -14.311
     -17.082
     -19.812
     -22.277
     -24.266
     -25.614
     -26.214
     -26.038
     -25.145
     -23.650
     -21.669
     -19.288
     -16.595
     -13.765
     -11.102
      -8.977
      -7.691
      -7.363
      -7.907
      -9.064
     -10.466
     -11.707
     -12.435
     -12.469
     -11.867
     -10.869
      -9.723
      -8.553
      -7.372
      -6.185
      -5.061
      -4.094
      -3.330
      -2.726
      -2.187
      -1.651
      -1.151
      -0.808
      -0.760
      -1.083
      -1.756
      -2.662
      -3.623
      -4.461
      -5.077
      -5.498
      -5.886
      -6.476
      -7.474
      -8.950
     -10.809
     -12.829
     -14.765
     -16.450
     -17.863
     -19.118
     -20.384
     -21.767
     -23.238
     -24.632
     -25.723
     -26.342
     -26.442
     -26.062
     -25.219
     -23.845
     -21.826
     -19.122
     -15.852
     -12.309
      -8.882
      -5.924
      -3.621
      -1.929
      -0.631
       0.551
       1.841
       3.372
       5.180
       7.223
       9.381
      11.445
      13.138
      14.181
