Origin Time       29/10/2009 17:00:35 UTC
Lat.              27.3°N	
Long.             91.4°E	
Depth (Km)          5.0
Magnitude         5.2
 Region           BHUTAN                                                           
 Above details taken from IMD 
    
Station Code      GOL
Station Lat.       26.152  N
Station Long.      90.627  E
Station Height(m)   56.0
Site Class        C   Vs30 between 200 m/sec to 375 m/sec *  
Record Time       29.10.2009 17:01:02.989 UTC
Sampling Rate     200. Hz
 Record Duration   75.405 Sec.
 Direction         N-S (N positive)
Max. Acceleration     11.449 cm/sec**2
     
  * For reference see Site Classification link of website 
     
 Base Line Corrected and Low Pass Filtered (Cut Off at 35 Hz) Time History
 Acceleration data in cm/sec**2
    
[...]
      -0.048
       0.034
       0.126
       0.227
       0.298
       0.298
       0.242
       0.186
       0.168
       0.173
       0.173
       0.174
       0.198
       0.235
       0.249
       0.224
       0.179
       0.139
       0.087
      -0.013
      -0.162
      -0.306
      -0.387
      -0.406
      -0.403
      -0.404
      -0.402
      -0.389
      -0.381
      -0.399
      -0.432
      -0.445
      -0.410
      -0.324
      -0.189
      -0.003
       0.218
       0.423
       0.563
       0.628
       0.643
       0.639
       0.638
       0.660
       0.707
       0.758
       0.792
       0.804
       0.792
       0.732
       0.600
       0.409
       0.203
       0.024
      -0.114
      -0.218
      -0.302
      -0.377
      -0.442
      -0.495
      -0.545
      -0.603
      -0.658
      -0.677
      -0.634
      -0.540
      -0.434
      -0.348
      -0.283
      -0.215
      -0.127
      -0.030
       0.051
       0.099
       0.125
       0.148
       0.185
       0.254
       0.367
       0.520
       0.676
       0.780
       0.800
       0.749
       0.653
       0.533
       0.394
       0.244
       0.089
      -0.061
      -0.187
      -0.271
      -0.327
      -0.404
      -0.544
      -0.728
      -0.890
      -0.977
      -0.981
      -0.925
      -0.828
      -0.704
      -0.576
      -0.468
      -0.383
      -0.300
      -0.210
      -0.138
      -0.105
      -0.093
      -0.056
       0.013
       0.059
       0.022
      -0.091
      -0.197
      -0.222
      -0.175
      -0.134
      -0.153
      -0.195
      -0.171
      -0.028
       0.182
       0.343
       0.374
       0.297
       0.217
       0.226
       0.321
       0.419
       0.445
       0.400
       0.352
       0.350
       0.370
       0.351
       0.268
       0.154
       0.062
       0.009
      -0.027
      -0.062
      -0.097
      -0.140
      -0.223
      -0.366
      -0.533
      -0.664
      -0.732
      -0.760
      -0.784
      -0.814
      -0.834
      -0.827
      -0.785
      -0.703
      -0.577
      -0.418
      -0.243
      -0.075
       0.069
       0.165
       0.191
       0.155
       0.092
       0.041
       0.019
       0.029
       0.076
       0.151
       0.229
       0.290
       0.343
       0.403
       0.468
       0.523
       0.562
       0.585
       0.592
       0.587
       0.590
       0.621
       0.680
       0.752
       0.836
       0.944
       1.080
       1.215
       1.296
       1.281
       1.159
       0.966
       0.765
       0.621
       0.557
       0.545
       0.528
       0.444
       0.254
      -0.048
      -0.424
      -0.806
      -1.130
      -1.374
      -1.555
      -1.696
      -1.804
      -1.883
      -1.937
      -1.964
      -1.950
      -1.884
      -1.763
      -1.577
      -1.309
      -0.962
      -0.573
      -0.179
       0.196
       0.527
       0.764
       0.864
       0.840
       0.774
       0.752
       0.821
       0.980
       1.215
       1.499
       1.781
       1.991
       2.095
       2.111
       2.085
       2.031
       1.928
       1.760
       1.540
       1.290
       1.014
       0.708
       0.393
       0.114
      -0.101
      -0.265
      -0.406
      -0.519
      -0.586
      -0.612
      -0.637
      -0.698
      -0.793
      -0.887
      -0.949
      -0.970
      -0.961
      -0.949
      -0.964
      -1.027
      -1.117
      -1.188
      -1.202
      -1.160
      -1.080
      -0.971
      -0.840
      -0.703
      -0.572
      -0.444
      -0.313
      -0.187
      -0.076
       0.019
       0.104
       0.169
       0.202
       0.198
       0.164
       0.118
       0.084
       0.085
       0.129
       0.200
       0.276
       0.344
       0.402
       0.450
       0.484
       0.493
       0.463
       0.390
       0.263
       0.067
      -0.194
      -0.472
      -0.691
      -0.791
      -0.761
      -0.622
      -0.410
      -0.179
       0.010
       0.109
       0.131
       0.128
       0.152
       0.210
       0.290
       0.379
       0.462
       0.500
       0.451
       0.316
       0.146
       0.001
      -0.086
      -0.112
      -0.080
       0.005
       0.105
       0.162
       0.147
       0.096
       0.076
       0.116
       0.193
       0.271
       0.342
       0.413
       0.476
       0.510
       0.505
       0.475
       0.423
       0.331
       0.183
      -0.007
      -0.207
      -0.396
      -0.564
      -0.714
      -0.863
      -1.039
      -1.250
      -1.477
      -1.691
      -1.874
      -2.011
      -2.080
      -2.075
      -2.016
      -1.939
      -1.864
      -1.787
      -1.702
      -1.615
      -1.535
      -1.450
      -1.326
      -1.143
      -0.919
      -0.685
      -0.446
      -0.184
       0.102
       0.390
       0.668
       0.951
       1.265
       1.610
       1.957
       2.288
       2.604
       2.903
       3.162
       3.362
       3.498
       3.568
       3.556
       3.453
       3.279
       3.069
       2.848
       2.630
       2.427
       2.239
       2.047
       1.822
       1.535
       1.169
       0.722
       0.221
      -0.285
      -0.745
      -1.105
      -1.313
      -1.337
      -1.188
      -0.923
      -0.596
      -0.240
       0.127
       0.490
       0.844
       1.199
       1.550
       1.854
       2.054
       2.123
       2.070
       1.910
       1.661
       1.345
       0.994
       0.646
       0.336
       0.077
      -0.157
      -0.423
      -0.772
      -1.212
      -1.704
      -2.187
      -2.597
      -2.890
      -3.075
      -3.212
      -3.367
      -3.572
      -3.815
      -4.054
      -4.229
      -4.292
      -4.245
      -4.147
      -4.065
      -4.026
      -4.010
      -3.984
      -3.926
      -3.829
      -3.697
      -3.524
      -3.293
      -2.990
      -2.629
      -2.237
      -1.835
      -1.432
      -1.036
      -0.657
      -0.277
       0.148
       0.636
       1.148
       1.615
       1.986
       2.245
       2.397
       2.476
       2.537
       2.632
       2.784
       2.988
       3.216
       3.428
       3.585
       3.687
       3.789
       3.966
       4.273
       4.725
       5.296
       5.919
       6.504
       6.958
       7.200
       7.161
       6.800
       6.133
       5.229
       4.163
       2.979
       1.686
       0.283
      -1.231
      -2.837
      -4.452
      -5.934
      -7.124
      -7.914
      -8.274
      -8.237
      -7.869
      -7.234
      -6.377
      -5.343
      -4.213
      -3.097
      -2.086
      -1.216
      -0.495
       0.069
       0.466
       0.720
       0.875
       0.960
       0.964
       0.859
       0.645
       0.352
       0.017
      -0.325
      -0.626
      -0.810
      -0.807
      -0.590
      -0.191
       0.319
       0.846
       1.294
       1.596
       1.732
       1.732
       1.646
       1.506
       1.304
       1.020
       0.661
       0.264
      -0.146
      -0.589
      -1.094
      -1.642
      -2.140
      -2.490
      -2.651
      -2.636
      -2.463
      -2.134
      -1.666
      -1.124
      -0.603
      -0.171
       0.151
       0.355
       0.422
       0.339
       0.139
      -0.115
      -0.365
      -0.578
      -0.731
      -0.818
      -0.864
      -0.936
      -1.096
      -1.339
      -1.583
      -1.734
      -1.735
      -1.571
      -1.248
      -0.796
      -0.259
       0.331
       0.976
       1.689
       2.478
       3.320
       4.157
       4.894
       5.435
       5.736
       5.821
       5.739
       5.523
       5.196
       4.795
       4.362
       3.904
       3.384
       2.766
       2.073
       1.391
       0.802
       0.340
       0.022
      -0.112
       0.003
       0.384
       0.953
       1.564
       2.087
       2.467
       2.704
       2.786
       2.642
       2.153
       1.224
      -0.138
      -1.791
      -3.500
      -5.023
      -6.200
      -6.987
      -7.430
      -7.605
      -7.572
      -7.361
      -6.973
      -6.385
      -5.574
      -4.548
      -3.370
      -2.144
      -0.971
       0.091
       1.042
       1.909
       2.709
       3.414
       3.953
       4.242
       4.236
       3.951
       3.457
       2.835
       2.137
       1.378
       0.577
      -0.203
      -0.850
      -1.265
      -1.446
      -1.488
      -1.496
      -1.493
      -1.403
      -1.138
      -0.683
      -0.124
       0.394
       0.757
       0.934
       0.981
       0.998
       1.069
       1.209
       1.359
       1.424
       1.336
       1.078
       0.663
       0.089
      -0.661
      -1.585
      -2.605
      -3.552
      -4.228
      -4.501
      -4.356
      -3.880
      -3.211
      -2.481
      -1.792
      -1.189
      -0.663
      -0.169
       0.335
       0.850
       1.347
       1.779
       2.110
       2.323
       2.431
       2.479
       2.526
       2.596
       2.653
       2.623
       2.460
       2.191
       1.890
       1.606
       1.312
       0.934
       0.421
      -0.187
      -0.776
      -1.222
      -1.472
      -1.569
      -1.614
      -1.674
      -1.725
      -1.656
      -1.340
      -0.714
       0.187
       1.252
       2.333
       3.295
       4.048
       4.577
       4.923
       5.146
       5.269
       5.276
       5.160
       4.990
       4.901
       5.009
       5.309
       5.660
       5.863
       5.791
       5.454
       4.967
       4.451
       3.935
       3.337
       2.521
       1.400
       0.005
      -1.531
      -3.045
      -4.426
      -5.638
      -6.672
      -7.487
      -7.992
      -8.081
      -7.719
      -7.002
      -6.151
      -5.412
      -4.944
      -4.770
      -4.815
      -4.997
      -5.294
      -5.736
      -6.358
      -7.145
      -8.013
      -8.828
      -9.462
      -9.839
      -9.957
      -9.860
      -9.590
      -9.143
      -8.458
      -7.447
      -6.065
      -4.366
      -2.495
      -0.622
       1.130
       2.712
       4.094
       5.217
       5.998
       6.396
       6.453
       6.294
       6.057
       5.826
       5.605
       5.351
       5.019
       4.609
       4.179
       3.811
       3.559
       3.402
       3.250
       3.016
       2.676
       2.284
       1.906
       1.571
       1.292
       1.105
       1.072
       1.205
       1.423
       1.595
       1.661
       1.690
       1.799
       2.024
       2.269
       2.395
       2.363
       2.277
       2.289
       2.462
       2.725
       2.958
       3.102
       3.182
       3.231
       3.210
       3.024
       2.613
       2.018
       1.364
       0.776
       0.313
      -0.046
      -0.372
      -0.723
      -1.110
      -1.511
      -1.921
      -2.382
      -2.930
      -3.525
      -4.023
      -4.282
      -4.288
      -4.185
      -4.141
      -4.187
      -4.189
      -3.989
      -3.567
      -3.039
      -2.522
      -2.028
      -1.507
      -0.971
      -0.546
      -0.388
      -0.562
      -1.001
      -1.565
      -2.147
      -2.707
      -3.211
      -3.564
      -3.592
      -3.119
      -2.081
      -0.590
       1.113
       2.787
       4.302
       5.663
       6.930
       8.116
       9.142
       9.890
      10.285
      10.344
      10.149
       9.767
       9.199
       8.384
       7.255
       5.825
       4.208
       2.586
       1.103
      -0.184
      -1.289
      -2.226
      -2.961
      -3.428
      -3.599
      -3.535
      -3.395
      -3.353
      -3.503
      -3.814
      -4.190
      -4.572
      -4.994
      -5.530
      -6.193
      -6.893
      -7.490
      -7.895
      -8.113
      -8.179
      -8.072
      -7.706
      -7.022
      -6.076
      -5.018
      -3.983
      -2.996
      -2.000
      -0.961
       0.058
       0.957
       1.706
       2.393
       3.156
       4.056
       5.039
       6.014
       6.933
       7.788
       8.547
       9.116
       9.402
       9.390
       9.136
       8.681
       8.008
       7.092
       5.978
       4.789
       3.649
       2.598
       1.599
       0.620
      -0.304
      -1.090
      -1.683
      -2.081
      -2.297
      -2.300
      -2.042
      -1.539
      -0.923
      -0.383
      -0.052
       0.058
       0.007
      -0.150
      -0.395
      -0.684
      -0.900
      -0.886
      -0.566
      -0.040
       0.440
       0.638
       0.494
       0.146
      -0.209
      -0.485
      -0.754
      -1.151
      -1.758
      -2.580
      -3.600
      -4.788
      -6.060
      -7.246
      -8.162
      -8.726
      -8.984
      -9.028
      -8.902
      -8.612
      -8.167
      -7.597
      -6.915
      -6.122
      -5.256
      -4.417
      -3.719
      -3.201
      -2.795
      -2.394
      -1.921
      -1.351
      -0.679
       0.084
       0.897
       1.693
       2.408
       3.005
       3.461
       3.759
       3.915
       4.000
       4.111
       4.304
       4.573
       4.866
       5.113
       5.246
       5.219
       5.044
       4.788
       4.519
       4.271
       4.040
       3.820
       3.600
       3.358
       3.057
       2.679
       2.232
       1.719
       1.090
       0.269
      -0.780
      -2.016
      -3.361
      -4.750
      -6.133
      -7.434
      -8.542
      -9.350
      -9.818
      -9.960
      -9.797
      -9.315
      -8.502
      -7.390
      -6.049
      -4.523
      -2.789
      -0.816
       1.337
       3.498
       5.457
       7.068
       8.279
       9.136
       9.754
      10.264
      10.733
      11.133
      11.386
      11.449
      11.334
      11.077
      10.700
      10.237
       9.736
       9.236
       8.718
       8.126
       7.426
       6.639
       5.801
       4.932
       4.031
       3.100
       2.127
       1.093
      -0.005
      -1.126
      -2.206
      -3.201
      -4.111
      -4.953
      -5.735
      -6.452
      -7.098
      -7.662
      -8.105
      -8.381
      -8.476
      -8.429
      -8.292
      -8.087
      -7.804
      -7.446
      -7.052
      -6.667
      -6.284
      -5.846
      -5.308
      -4.688
      -4.043
      -3.398
      -2.704
      -1.892
      -0.966
      -0.059
       0.644
       1.035
       1.163
       1.175
       1.187
       1.186
       1.070
       0.758
       0.272
      -0.277
      -0.777
      -1.182
      -1.509
      -1.780
      -1.969
      -1.993
      -1.767
      -1.274
      -0.592
       0.141
       0.826
       1.456
       2.083
       2.731
       3.346
       3.829
       4.137
       4.325
       4.497
       4.726
       5.018
       5.334
       5.637
       5.892
       6.045
       6.031
       5.811
       5.427
       4.995
       4.630
       4.356
       4.094
       3.739
       3.266
       2.749
       2.283
       1.877
       1.428
       0.812
       0.005
      -0.876
      -1.666
      -2.279
      -2.768
      -3.261
      -3.831
      -4.429
      -4.931
      -5.247
      -5.383
      -5.408
      -5.376
      -5.290
      -5.138
      -4.941
      -4.743
      -4.552
      -4.317
      -3.978
      -3.538
      -3.070
      -2.648
      -2.277
      -1.900
      -1.467
      -0.977
      -0.464
       0.027
       0.437
       0.696
       0.767
       0.679
       0.517
       0.350
       0.193
       0.022
      -0.159
      -0.288
      -0.289
      -0.147
       0.074
       0.295
       0.504
       0.764
       1.139
       1.614
       2.083
       2.427
       2.593
       2.630
       2.649
       2.746
       2.948
       3.189
       3.348
       3.297
       2.962
       2.358
       1.588
       0.802
       0.119
      -0.427
      -0.890
      -1.342
      -1.800
      -2.206
      -2.496
      -2.672
      -2.817
      -3.025
      -3.311
      -3.594
      -3.760
      -3.749
      -3.585
      -3.328
      -3.003
      -2.601
      -2.127
      -1.635
      -1.192
      -0.823
      -0.500
      -0.198
       0.060
       0.223
       0.269
       0.204
       0.031
      -0.243
      -0.555
      -0.777
      -0.783
      -0.536
      -0.095
       0.451
       1.041
       1.637
       2.179
       2.589
       2.818
       2.865
       2.770
       2.589
       2.402
       2.287
       2.261
       2.251
       2.142
       1.870
       1.481
       1.083
       0.771
       0.591
       0.571
       0.730
       1.047
       1.446
       1.819
       2.068
       2.124
       1.974
       1.683
       1.375
       1.161
       1.069
       1.036
       0.977
       0.855
       0.692
       0.551
       0.497
       0.578
       0.787
       1.042
       1.246
       1.372
       1.498
       1.726
       2.066
       2.401
       2.566
       2.456
       2.063
       1.436
       0.624
      -0.320
      -1.307
      -2.213
      -2.930
      -3.437
      -3.794
      -4.077
      -4.336
      -4.584
      -4.789
      -4.862
      -4.686
      -4.208
      -3.508
      -2.767
      -2.148
      -1.699
      -1.357
      -1.042
      -0.735
      -0.479
      -0.297
      -0.138
       0.088
       0.425
       0.839
       1.253
       1.621
       1.940
       2.195
       2.334
       2.306
       2.130
       1.897
       1.676
       1.455
       1.170
       0.798
       0.398
       0.052
      -0.220
      -0.467
      -0.728
      -0.957
      -1.053
      -0.942
      -0.656
      -0.319
      -0.061
       0.066
       0.105
       0.136
       0.185
       0.203
       0.113
      -0.107
      -0.400
      -0.681
      -0.922
      -1.167
      -1.468
      -1.817
      -2.134
      -2.333
      -2.384
      -2.306
      -2.128
      -1.882
      -1.623
      -1.424
      -1.329
      -1.323
      -1.339
      -1.292
      -1.119
      -0.811
      -0.428
      -0.050
       0.291
       0.628
       1.004
       1.434
       1.890
       2.322
       2.682
       2.960
       3.204
       3.487
       3.848
       4.261
       4.662
       4.986
       5.188
       5.258
       5.224
       5.118
       4.937
       4.644
       4.214
       3.658
       3.002
       2.269
       1.482
       0.668
      -0.132
      -0.856
      -1.437
      -1.852
      -2.160
      -2.456
      -2.797
      -3.171
      -3.544
      -3.894
      -4.190
      -4.359
      -4.302
      -3.987
      -3.495
      -2.991
      -2.618
      -2.434
      -2.434
      -2.595
      -2.884
      -3.224
      -3.480
      -3.530
      -3.354
      -3.052
      -2.763
      -2.576
      -2.499
      -2.473
      -2.405
      -2.200
      -1.811
      -1.277
      -0.719
      -0.265
       0.016
       0.135
       0.137
       0.079
       0.016
      -0.016
      -0.021
      -0.025
      -0.047
      -0.085
      -0.138
      -0.202
      -0.236
      -0.168
       0.057
       0.419
       0.836
       1.220
       1.525
       1.742
       1.880
       1.974
       2.088
       2.280
       2.557
       2.875
       3.176
       3.410
       3.523
       3.471
       3.256
       2.958
       2.685
       2.473
       2.242
       1.847
       1.200
       0.349
      -0.567
      -1.425
      -2.175
      -2.805
      -3.259
      -3.445
      -3.310
      -2.889
      -2.279
      -1.550
      -0.713
       0.226
       1.193
       2.045
       2.657
       3.008
       3.181
       3.292
       3.409
       3.538
       3.666
       3.808
       4.003
