Origin Time       1/7/2012 04:13:52	 
Lat.              25.7 N	
Long.             94.6 E	
Depth (Km)         50.0
Magnitude         5.8
 Region           Phek-Nagaland                                                    
 Above details taken from IMD 
     
Station Code      GOL
Station Lat.       26.515  N
Station Long.      93.972  E
Station Height(m)   93.0
Site Class        B   Vs30 between 375 m/sec to 700 m/sec *  
Record Time       01.07.2012 04:14:12.629
Sampling Rate     200. Hz
 Record Duration   76.555 Sec.
 Direction         E-W (E positive)
Max. Acceleration    -20.014 cm/sec**2
     
  * For reference see Site Classification link of website 
     
 Base Line Corrected and Low Pass Filtered (Cut Off at 35 Hz) Time History
 Acceleration data in cm/sec**2
    
[...]
       0.377
       0.344
       0.459
       0.742
       1.130
       1.501
       1.738
       1.792
       1.699
       1.527
       1.298
       0.986
       0.581
       0.147
      -0.205
      -0.394
      -0.424
      -0.364
      -0.311
      -0.343
      -0.486
      -0.704
      -0.922
      -1.081
      -1.165
      -1.185
      -1.151
      -1.065
      -0.941
      -0.822
      -0.762
      -0.796
      -0.930
      -1.141
      -1.385
      -1.598
      -1.710
      -1.673
      -1.480
      -1.147
      -0.679
      -0.077
       0.604
       1.218
       1.587
       1.617
       1.377
       1.046
       0.790
       0.653
       0.558
       0.388
       0.090
      -0.288
      -0.627
      -0.810
      -0.781
      -0.561
      -0.233
       0.089
       0.301
       0.346
       0.240
       0.058
      -0.104
      -0.188
      -0.192
      -0.157
      -0.132
      -0.135
      -0.157
      -0.165
      -0.124
      -0.006
       0.195
       0.448
       0.691
       0.852
       0.880
       0.764
       0.559
       0.377
       0.336
       0.484
       0.752
       0.986
       1.033
       0.817
       0.382
      -0.141
      -0.596
      -0.883
      -1.001
      -1.036
      -1.083
      -1.166
      -1.205
      -1.093
      -0.790
      -0.366
       0.055
       0.387
       0.612
       0.737
       0.751
       0.635
       0.416
       0.187
       0.057
       0.069
       0.148
       0.159
       0.011
      -0.254
      -0.494
      -0.575
      -0.495
      -0.387
      -0.407
      -0.603
      -0.872
      -1.049
      -1.026
      -0.806
      -0.457
      -0.046
       0.372
       0.742
       1.004
       1.126
       1.131
       1.085
       1.068
       1.122
       1.217
       1.260
       1.157
       0.893
       0.558
       0.281
       0.148
       0.173
       0.313
       0.504
       0.673
       0.761
       0.747
       0.655
       0.519
       0.331
       0.032
      -0.435
      -1.036
      -1.621
      -1.995
      -2.028
      -1.736
      -1.262
      -0.793
      -0.467
      -0.318
      -0.268
      -0.186
       0.034
       0.395
       0.782
       1.022
       0.975
       0.628
       0.127
      -0.281
      -0.383
      -0.126
       0.363
       0.867
       1.217
       1.357
       1.310
       1.118
       0.816
       0.461
       0.136
      -0.093
      -0.223
      -0.313
      -0.433
      -0.602
      -0.766
      -0.824
      -0.697
      -0.388
       0.004
       0.328
       0.476
       0.439
       0.295
       0.147
       0.059
       0.024
      -0.022
      -0.144
      -0.364
      -0.644
      -0.923
      -1.159
      -1.350
      -1.511
      -1.630
      -1.647
      -1.479
      -1.098
      -0.586
      -0.110
       0.181
       0.268
       0.261
       0.307
       0.475
       0.721
       0.943
       1.067
       1.081
       1.027
       0.964
       0.941
       0.966
       1.003
       0.989
       0.876
       0.674
       0.438
       0.218
       0.025
      -0.143
      -0.261
      -0.280
      -0.175
       0.012
       0.172
       0.208
       0.102
      -0.077
      -0.227
      -0.282
      -0.245
      -0.180
      -0.175
      -0.302
      -0.567
      -0.899
      -1.188
      -1.360
      -1.410
      -1.368
      -1.256
      -1.074
      -0.831
      -0.573
      -0.363
      -0.236
      -0.159
      -0.049
       0.159
       0.463
       0.793
       1.064
       1.226
       1.268
       1.204
       1.071
       0.923
       0.811
       0.747
       0.690
       0.567
       0.330
      -0.012
      -0.377
      -0.642
      -0.700
      -0.521
      -0.177
       0.194
       0.472
       0.631
       0.745
       0.898
       1.080
       1.165
       0.992
       0.497
      -0.223
      -0.934
      -1.382
      -1.438
      -1.176
      -0.833
      -0.646
      -0.698
      -0.891
      -1.047
      -1.048
      -0.902
      -0.714
      -0.578
      -0.477
      -0.296
       0.057
       0.548
       1.024
       1.319
       1.337
       1.087
       0.657
       0.188
      -0.168
      -0.313
      -0.233
       0.002
       0.288
       0.531
       0.659
       0.642
       0.506
       0.324
       0.186
       0.139
       0.154
       0.141
       0.015
      -0.258
      -0.641
      -1.036
      -1.308
      -1.330
      -1.049
      -0.546
      -0.009
       0.366
       0.471
       0.320
       0.005
      -0.347
      -0.616
      -0.722
      -0.672
      -0.573
      -0.566
      -0.721
      -0.957
      -1.096
      -0.986
      -0.624
      -0.152
       0.235
       0.404
       0.335
       0.103
      -0.174
      -0.395
      -0.493
      -0.425
      -0.172
       0.238
       0.701
       1.063
       1.188
       1.041
       0.688
       0.252
      -0.155
      -0.460
      -0.613
      -0.568
      -0.293
       0.185
       0.758
       1.263
       1.565
       1.613
       1.453
       1.173
       0.850
       0.519
       0.195
      -0.092
      -0.288
      -0.350
      -0.286
      -0.157
      -0.045
      -0.021
      -0.146
      -0.455
      -0.924
      -1.421
      -1.734
      -1.679
      -1.226
      -0.554
       0.043
       0.341
       0.327
       0.181
       0.126
       0.278
       0.610
       1.016
       1.390
       1.643
       1.706
       1.535
       1.145
       0.628
       0.127
      -0.232
      -0.399
      -0.414
      -0.374
      -0.381
      -0.485
      -0.654
      -0.797
      -0.819
      -0.680
      -0.414
      -0.102
       0.169
       0.324
       0.316
       0.137
      -0.178
      -0.555
      -0.903
      -1.132
      -1.168
      -0.983
      -0.624
      -0.198
       0.182
       0.454
       0.617
       0.707
       0.767
       0.821
       0.864
       0.853
       0.737
       0.507
       0.233
       0.030
      -0.029
       0.038
       0.137
       0.170
       0.099
      -0.042
      -0.166
      -0.183
      -0.045
       0.218
       0.499
       0.671
       0.662
       0.493
       0.258
       0.060
      -0.044
      -0.070
      -0.080
      -0.133
      -0.261
      -0.469
      -0.752
      -1.079
      -1.373
      -1.532
      -1.494
      -1.292
      -1.051
      -0.918
      -0.983
      -1.223
      -1.528
      -1.765
      -1.838
      -1.713
      -1.402
      -0.945
      -0.396
       0.186
       0.738
       1.198
       1.503
       1.601
       1.478
       1.185
       0.845
       0.605
       0.570
       0.733
       0.989
       1.205
       1.295
       1.257
       1.142
       1.017
       0.925
       0.888
       0.913
       0.995
       1.111
       1.203
       1.204
       1.081
       0.862
       0.620
       0.444
       0.399
       0.500
       0.700
       0.899
       1.002
       0.974
       0.852
       0.712
       0.605
       0.532
       0.462
       0.367
       0.257
       0.178
       0.166
       0.210
       0.248
       0.206
       0.046
      -0.224
      -0.549
      -0.856
      -1.084
      -1.210
      -1.262
      -1.298
      -1.373
      -1.491
      -1.609
      -1.680
      -1.695
      -1.673
      -1.611
      -1.480
      -1.262
      -0.991
      -0.731
      -0.519
      -0.335
      -0.124
       0.148
       0.446
       0.670
       0.706
       0.503
       0.107
      -0.364
      -0.787
      -1.072
      -1.175
      -1.097
      -0.879
      -0.580
      -0.241
       0.121
       0.495
       0.845
       1.129
       1.330
       1.459
       1.520
       1.483
       1.305
       0.968
       0.515
       0.044
      -0.329
      -0.520
      -0.513
      -0.375
      -0.230
      -0.190
      -0.288
      -0.462
      -0.613
      -0.674
      -0.649
      -0.594
      -0.558
      -0.554
      -0.555
      -0.517
      -0.408
      -0.220
       0.025
       0.276
       0.464
       0.543
       0.511
       0.417
       0.330
       0.294
       0.300
       0.287
       0.173
      -0.074
      -0.376
      -0.568
      -0.500
      -0.152
       0.360
       0.873
       1.274
       1.508
       1.551
       1.399
       1.108
       0.816
       0.677
       0.764
       1.004
       1.234
       1.329
       1.285
       1.177
       1.044
       0.837
       0.480
      -0.039
      -0.646
      -1.238
      -1.748
      -2.161
      -2.484
      -2.707
      -2.781
      -2.654
      -2.322
      -1.860
      -1.394
      -1.041
      -0.855
      -0.830
      -0.936
      -1.159
      -1.497
      -1.922
      -2.339
      -2.585
      -2.486
      -1.944
      -1.012
       0.093
       1.081
       1.739
       2.037
       2.099
       2.073
       2.022
       1.908
       1.668
       1.294
       0.862
       0.483
       0.230
       0.091
       0.016
      -0.003
       0.085
       0.310
       0.596
       0.783
       0.763
       0.569
       0.347
       0.221
       0.196
       0.174
       0.056
      -0.156
      -0.365
      -0.455
      -0.384
      -0.219
      -0.084
      -0.057
      -0.118
      -0.181
      -0.185
      -0.132
      -0.039
       0.118
       0.381
       0.721
       1.000
       1.056
       0.827
       0.393
      -0.100
      -0.533
      -0.860
      -1.096
      -1.269
      -1.383
      -1.400
      -1.261
      -0.933
      -0.424
       0.203
       0.831
       1.282
       1.371
       0.995
       0.225
      -0.701
      -1.487
      -1.944
      -2.066
      -1.971
      -1.769
      -1.491
      -1.136
      -0.734
      -0.344
      -0.033
       0.139
       0.118
      -0.101
      -0.423
      -0.652
      -0.604
      -0.222
       0.372
       0.948
       1.289
       1.305
       1.063
       0.716
       0.404
       0.193
       0.099
       0.133
       0.302
       0.557
       0.772
       0.808
       0.637
       0.394
       0.302
       0.504
       0.955
       1.455
       1.788
       1.828
       1.572
       1.103
       0.567
       0.141
      -0.032
       0.086
       0.393
       0.694
       0.809
       0.670
       0.358
       0.031
      -0.197
      -0.330
      -0.450
      -0.600
      -0.723
      -0.703
      -0.473
      -0.062
       0.441
       0.960
       1.466
       1.949
       2.378
       2.692
       2.816
       2.697
       2.347
       1.852
       1.346
       0.950
       0.739
       0.749
       0.993
       1.445
       1.993
       2.452
       2.653
       2.541
       2.198
       1.761
       1.337
       0.974
       0.692
       0.514
       0.428
       0.339
       0.089
      -0.450
      -1.276
      -2.238
      -3.097
      -3.623
      -3.683
      -3.295
      -2.627
      -1.925
      -1.403
      -1.157
      -1.160
      -1.328
      -1.568
      -1.806
      -1.990
      -2.098
      -2.152
      -2.211
      -2.354
      -2.642
      -3.091
      -3.660
      -4.258
      -4.793
      -5.206
      -5.494
      -5.670
      -5.708
      -5.531
      -5.080
      -4.403
      -3.661
      -3.022
      -2.537
      -2.095
      -1.528
      -0.786
      -0.033
       0.433
       0.400
      -0.106
      -0.838
      -1.502
      -1.915
      -2.041
      -1.915
      -1.563
      -0.985
      -0.197
       0.718
       1.623
       2.407
       3.041
       3.579
       4.066
       4.472
       4.703
       4.688
       4.479
       4.238
       4.126
       4.175
       4.248
       4.144
       3.742
       3.085
       2.351
       1.753
       1.457
       1.539
       1.990
       2.735
       3.659
       4.613
       5.439
       6.011
       6.269
       6.217
       5.911
       5.462
       5.032
       4.770
       4.693
       4.621
       4.246
       3.303
       1.717
      -0.360
      -2.639
      -4.814
      -6.633
      -7.936
      -8.669
      -8.899
      -8.798
      -8.557
      -8.283
      -7.943
      -7.408
      -6.568
      -5.444
      -4.243
      -3.294
      -2.887
      -3.107
      -3.777
      -4.570
      -5.202
      -5.532
      -5.549
      -5.280
      -4.732
      -3.906
      -2.833
      -1.580
      -0.212
       1.248
       2.805
       4.417
       5.964
       7.300
       8.329
       9.011
       9.300
       9.094
       8.283
       6.853
       4.981
       2.999
       1.264
      -0.004
      -0.782
      -1.198
      -1.447
      -1.743
      -2.288
      -3.209
      -4.465
      -5.802
      -6.836
      -7.245
      -6.930
      -6.062
      -4.982
      -4.031
      -3.391
      -3.040
      -2.821
      -2.573
      -2.218
      -1.762
      -1.232
      -0.644
      -0.029
       0.515
       0.844
       0.875
       0.698
       0.562
       0.735
       1.336
       2.251
       3.213
       4.004
       4.612
       5.219
       6.044
       7.183
       8.599
      10.168
      11.706
      12.969
      13.688
      13.698
      13.040
      11.954
      10.759
       9.686
       8.815
       8.120
       7.573
       7.186
       6.978
       6.904
       6.852
       6.684
       6.295
       5.644
       4.748
       3.670
       2.482
       1.226
      -0.098
      -1.498
      -2.936
      -4.270
      -5.276
      -5.748
      -5.647
      -5.159
      -4.584
      -4.139
      -3.829
      -3.490
      -2.955
      -2.214
      -1.481
      -1.115
      -1.438
      -2.561
      -4.320
      -6.367
      -8.344
     -10.044
     -11.473
     -12.787
     -14.169
     -15.699
     -17.305
     -18.763
     -19.762
     -20.014
     -19.411
     -18.111
     -16.463
     -14.791
     -13.218
     -11.655
      -9.949
      -8.033
      -5.943
      -3.737
      -1.414
       1.043
       3.577
       6.031
       8.233
      10.123
      11.778
      13.310
      14.751
      16.014
      16.949
      17.428
      17.420
      17.015
      16.373
      15.636
      14.863
      14.031
      13.098
      12.054
      10.949
       9.856
       8.825
       7.827
       6.745
       5.424
       3.766
       1.810
      -0.250
      -2.155
      -3.732
      -5.023
      -6.299
      -7.920
     -10.086
     -12.632
     -15.047
     -16.725
     -17.251
     -16.548
     -14.825
     -12.429
      -9.706
      -6.944
      -4.374
      -2.164
      -0.399
       0.943
       1.970
       2.813
       3.531
       4.076
       4.360
       4.373
       4.246
       4.226
       4.585
       5.520
       7.045
       8.945
      10.809
      12.185
      12.745
      12.390
      11.219
       9.423
       7.202
       4.763
       2.366
       0.324
      -1.109
      -1.890
      -2.247
      -2.548
      -3.102
      -4.021
      -5.246
      -6.656
      -8.153
      -9.647
     -10.993
     -11.999
     -12.534
     -12.625
     -12.430
     -12.085
     -11.606
     -10.973
     -10.273
      -9.730
      -9.565
      -9.813
     -10.290
     -10.736
     -10.994
     -11.079
     -11.081
     -11.010
     -10.718
      -9.968
      -8.557
      -6.410
      -3.590
      -0.275
       3.273
       6.737
       9.791
      12.196
      13.874
      14.898
      15.395
      15.461
      15.200
      14.835
      14.714
      15.136
      16.110
      17.265
      18.015
      17.870
      16.667
      14.569
      11.906
       9.014
       6.190
       3.708
       1.780
       0.466
      -0.377
      -1.037
      -1.801
      -2.817
      -4.004
      -5.061
      -5.591
      -5.335
      -4.364
      -3.080
      -1.975
      -1.324
      -1.068
      -0.955
      -0.775
      -0.504
      -0.292
      -0.329
      -0.696
      -1.278
      -1.822
      -2.134
      -2.255
      -2.470
      -3.108
      -4.282
      -5.790
      -7.188
      -7.997
      -7.895
      -6.838
      -5.034
      -2.802
      -0.414
       1.969
       4.261
       6.397
       8.327
      10.026
      11.469
      12.586
      13.275
      13.490
      13.309
      12.892
      12.381
      11.820
      11.137
      10.182
       8.785
       6.838
       4.375
       1.594
      -1.187
      -3.669
      -5.699
      -7.316
      -8.676
      -9.931
     -11.160
     -12.386
     -13.608
     -14.783
     -15.774
     -16.332
     -16.190
     -15.223
     -13.533
     -11.397
      -9.102
      -6.842
      -4.743
      -2.964
      -1.735
      -1.297
      -1.769
      -3.044
      -4.772
      -6.475
      -7.745
      -8.425
      -8.645
      -8.666
      -8.648
      -8.517
      -8.020
      -6.925
      -5.201
      -3.041
      -0.710
       1.645
       4.068
       6.645
       9.285
      11.659
      13.404
      14.416
      14.928
      15.285
      15.608
      15.653
      15.020
      13.497
      11.245
       8.668
       6.122
       3.744
       1.521
      -0.506
      -2.118
      -2.985
      -2.897
      -1.951
      -0.544
       0.816
       1.742
       2.073
       1.855
       1.272
       0.621
       0.288
       0.641
       1.826
       3.635
       5.589
       7.208
       8.222
       8.582
       8.346
       7.588
       6.397
       4.874
       3.096
       1.065
      -1.293
      -4.056
      -7.221
     -10.598
     -13.785
     -16.255
     -17.544
     -17.424
     -15.961
     -13.418
     -10.114
      -6.340
      -2.391
       1.362
       4.489
       6.631
       7.654
       7.661
       6.871
       5.493
       3.689
       1.631
      -0.460
      -2.326
      -3.755
      -4.644
      -5.004
      -4.918
      -4.480
      -3.778
      -2.911
      -2.019
      -1.262
      -0.784
      -0.672
      -0.930
      -1.473
      -2.162
      -2.872
      -3.503
      -3.932
      -3.983
      -3.490
      -2.454
      -1.105
       0.212
       1.256
       1.987
       2.471
       2.710
       2.593
       2.013
       1.013
      -0.211
      -1.440
      -2.572
      -3.629
      -4.662
      -5.651
      -6.505
      -7.131
      -7.518
      -7.756
      -7.952
      -8.105
      -8.042
      -7.474
      -6.118
      -3.830
      -0.679
       3.024
       6.791
      10.108
      12.612
      14.182
      14.912
      15.007
      14.686
      14.134
      13.483
      12.791
      12.037
      11.123
       9.919
       8.343
       6.456
       4.493
       2.793
       1.655
       1.202
       1.315
       1.669
       1.865
       1.605
       0.821
      -0.314
      -1.488
      -2.399
      -2.879
      -2.941
      -2.750
      -2.533
      -2.490
      -2.741
      -3.322
      -4.192
      -5.243
      -6.339
      -7.374
      -8.311
      -9.153
      -9.840
     -10.203
     -10.019
      -9.157
      -7.677
      -5.803
      -3.828
      -2.022
      -0.596
       0.331
       0.778
       0.955
       1.213
       1.874
       3.019
       4.389
       5.497
       5.886
       5.363
       4.058
       2.328
       0.610
      -0.694
      -1.295
      -1.094
      -0.248
       0.842
       1.682
       1.918
       1.535
       0.866
       0.366
       0.320
       0.671
       1.087
       1.184
       0.745
      -0.183
      -1.345
      -2.407
      -3.090
      -3.255
      -2.912
      -2.198
      -1.329
      -0.540
      -0.023
       0.163
       0.121
       0.063
       0.166
       0.435
       0.701
       0.751
       0.493
       0.008
      -0.521
      -0.935
      -1.176
      -1.272
