Origin Time       29/10/2009 17:00:35
Lat.              27.3°N	
Long.             91.4°E	
Depth (Km)          5.0
Magnitude         5.2
 Region           BHUTAN                                                           
 Above details taken from IMD 
     
Station Code      GOL
Station Lat.       26.152  N
Station Long.      90.627  E
Station Height(m)   56.0
Site Class        C   Vs30 between 200 m/sec to 375 m/sec *  
Record Time       29.10.2009 17:01:02.989
Sampling Rate     200. Hz
 Record Duration   75.405 Sec.
 Direction         E-W (E positive)
Max. Acceleration    -14.825 cm/sec**2
     
  * For reference see Site Classification link of website 
     
 Base Line Corrected and Low Pass Filtered (Cut Off at 35 Hz) Time History
 Acceleration data in cm/sec**2
    
[...]
      -0.083
      -0.166
      -0.205
      -0.191
      -0.133
      -0.048
       0.052
       0.154
       0.243
       0.298
       0.308
       0.283
       0.244
       0.208
       0.181
       0.165
       0.163
       0.173
       0.183
       0.173
       0.139
       0.105
       0.106
       0.167
       0.287
       0.444
       0.609
       0.746
       0.820
       0.806
       0.710
       0.579
       0.466
       0.398
       0.364
       0.334
       0.292
       0.249
       0.219
       0.192
       0.132
       0.005
      -0.181
      -0.376
      -0.514
      -0.559
      -0.523
      -0.451
      -0.379
      -0.313
      -0.248
      -0.187
      -0.146
      -0.132
      -0.134
      -0.128
      -0.101
      -0.059
      -0.015
       0.023
       0.052
       0.065
       0.055
       0.026
      -0.014
      -0.062
      -0.117
      -0.167
      -0.198
      -0.204
      -0.195
      -0.186
      -0.180
      -0.174
      -0.162
      -0.140
      -0.106
      -0.059
      -0.002
       0.054
       0.100
       0.138
       0.173
       0.210
       0.248
       0.290
       0.332
       0.364
       0.373
       0.354
       0.306
       0.227
       0.116
      -0.020
      -0.161
      -0.292
      -0.391
      -0.436
      -0.411
      -0.321
      -0.197
      -0.074
       0.025
       0.094
       0.136
       0.149
       0.139
       0.119
       0.107
       0.107
       0.116
       0.130
       0.145
       0.155
       0.148
       0.117
       0.067
       0.017
      -0.024
      -0.056
      -0.084
      -0.109
      -0.127
      -0.135
      -0.136
      -0.129
      -0.112
      -0.084
      -0.048
      -0.010
       0.033
       0.081
       0.127
       0.156
       0.149
       0.098
       0.017
      -0.063
      -0.107
      -0.097
      -0.047
      -0.002
       0.001
      -0.042
      -0.105
      -0.163
      -0.204
      -0.229
      -0.239
      -0.241
      -0.249
      -0.277
      -0.322
      -0.364
      -0.381
      -0.367
      -0.326
      -0.263
      -0.174
      -0.062
       0.067
       0.207
       0.353
       0.494
       0.609
       0.671
       0.674
       0.640
       0.603
       0.573
       0.528
       0.439
       0.304
       0.156
       0.040
      -0.019
      -0.018
       0.026
       0.081
       0.104
       0.064
      -0.044
      -0.196
      -0.358
      -0.494
      -0.575
      -0.593
      -0.554
      -0.476
      -0.378
      -0.277
      -0.193
      -0.136
      -0.092
      -0.034
       0.055
       0.168
       0.288
       0.394
       0.462
       0.467
       0.404
       0.301
       0.206
       0.150
       0.119
       0.084
       0.033
      -0.019
      -0.055
      -0.079
      -0.107
      -0.143
      -0.178
      -0.203
      -0.229
      -0.274
      -0.331
      -0.367
      -0.343
      -0.257
      -0.142
      -0.036
       0.051
       0.132
       0.216
       0.289
       0.332
       0.335
       0.307
       0.254
       0.167
       0.041
      -0.109
      -0.252
      -0.367
      -0.450
      -0.502
      -0.519
      -0.499
      -0.464
      -0.451
      -0.484
      -0.544
      -0.582
      -0.561
      -0.495
      -0.426
      -0.392
      -0.386
      -0.382
      -0.362
      -0.330
      -0.290
      -0.231
      -0.130
       0.015
       0.179
       0.331
       0.453
       0.539
       0.580
       0.565
       0.495
       0.395
       0.299
       0.241
       0.235
       0.278
       0.345
       0.400
       0.412
       0.376
       0.308
       0.233
       0.163
       0.098
       0.028
      -0.053
      -0.147
      -0.236
      -0.297
      -0.315
      -0.302
      -0.278
      -0.254
      -0.223
      -0.184
      -0.140
      -0.087
      -0.009
       0.115
       0.286
       0.477
       0.660
       0.820
       0.950
       1.031
       1.044
       0.989
       0.889
       0.775
       0.665
       0.569
       0.495
       0.452
       0.430
       0.394
       0.306
       0.157
      -0.034
      -0.237
      -0.424
      -0.567
      -0.645
      -0.651
      -0.606
      -0.546
      -0.500
      -0.470
      -0.444
      -0.417
      -0.385
      -0.343
      -0.281
      -0.193
      -0.084
       0.036
       0.146
       0.226
       0.262
       0.265
       0.258
       0.259
       0.274
       0.303
       0.342
       0.387
       0.418
       0.414
       0.362
       0.272
       0.172
       0.083
       0.014
      -0.037
      -0.075
      -0.101
      -0.115
      -0.118
      -0.121
      -0.141
      -0.183
      -0.236
      -0.281
      -0.308
      -0.314
      -0.292
      -0.242
      -0.174
      -0.110
      -0.067
      -0.048
      -0.044
      -0.047
      -0.054
      -0.064
      -0.080
      -0.101
      -0.122
      -0.149
      -0.203
      -0.303
      -0.447
      -0.605
      -0.737
      -0.827
      -0.887
      -0.934
      -0.968
      -0.972
      -0.934
      -0.850
      -0.722
      -0.565
      -0.405
      -0.270
      -0.166
      -0.069
       0.047
       0.187
       0.323
       0.429
       0.503
       0.557
       0.588
       0.571
       0.489
       0.356
       0.222
       0.137
       0.117
       0.139
       0.164
       0.177
       0.185
       0.205
       0.234
       0.247
       0.220
       0.153
       0.072
       0.003
      -0.050
      -0.099
      -0.152
      -0.194
      -0.200
      -0.164
      -0.104
      -0.043
       0.020
       0.096
       0.187
       0.268
       0.310
       0.308
       0.278
       0.239
       0.191
       0.132
       0.067
       0.017
      -0.001
       0.015
       0.049
       0.075
       0.066
       0.014
      -0.062
      -0.131
      -0.171
      -0.177
      -0.158
      -0.128
      -0.104
      -0.102
      -0.129
      -0.188
      -0.279
      -0.397
      -0.533
      -0.666
      -0.774
      -0.843
      -0.868
      -0.848
      -0.782
      -0.681
      -0.571
      -0.481
      -0.417
      -0.370
      -0.321
      -0.253
      -0.156
      -0.038
       0.071
       0.138
       0.148
       0.104
       0.025
      -0.061
      -0.122
      -0.134
      -0.089
       0.006
       0.139
       0.291
       0.438
       0.564
       0.668
       0.751
       0.811
       0.841
       0.846
       0.836
       0.822
       0.808
       0.789
       0.769
       0.758
       0.774
       0.829
       0.917
       1.014
       1.087
       1.117
       1.108
       1.072
       1.009
       0.905
       0.758
       0.583
       0.398
       0.207
       0.012
      -0.168
      -0.306
      -0.383
      -0.398
      -0.365
      -0.301
      -0.235
      -0.202
      -0.227
      -0.298
      -0.365
      -0.374
      -0.302
      -0.156
       0.041
       0.266
       0.486
       0.657
       0.744
       0.741
       0.675
       0.582
       0.485
       0.396
       0.325
       0.271
       0.228
       0.182
       0.124
       0.051
      -0.040
      -0.151
      -0.283
      -0.433
      -0.612
      -0.832
      -1.087
      -1.341
      -1.546
      -1.667
      -1.700
      -1.659
      -1.559
      -1.411
      -1.229
      -1.023
      -0.796
      -0.551
      -0.297
      -0.044
       0.204
       0.450
       0.696
       0.919
       1.083
       1.161
       1.156
       1.096
       1.019
       0.951
       0.903
       0.869
       0.834
       0.789
       0.734
       0.672
       0.596
       0.503
       0.397
       0.285
       0.172
       0.063
      -0.028
      -0.090
      -0.120
      -0.123
      -0.096
      -0.039
       0.041
       0.127
       0.208
       0.288
       0.373
       0.455
       0.508
       0.514
       0.473
       0.400
       0.307
       0.199
       0.087
      -0.015
      -0.094
      -0.138
      -0.140
      -0.099
      -0.033
       0.013
      -0.002
      -0.092
      -0.229
      -0.376
      -0.513
      -0.639
      -0.751
      -0.839
      -0.899
      -0.942
      -0.990
      -1.054
      -1.124
      -1.170
      -1.157
      -1.056
      -0.858
      -0.586
      -0.286
      -0.015
       0.179
       0.274
       0.279
       0.231
       0.182
       0.173
       0.218
       0.310
       0.428
       0.560
       0.701
       0.851
       1.001
       1.152
       1.307
       1.468
       1.625
       1.767
       1.889
       1.982
       2.039
       2.055
       2.039
       1.988
       1.878
       1.673
       1.355
       0.940
       0.467
      -0.016
      -0.468
      -0.864
      -1.200
      -1.493
      -1.769
      -2.032
      -2.259
      -2.421
      -2.507
      -2.530
      -2.515
      -2.485
      -2.447
      -2.409
      -2.387
      -2.401
      -2.463
      -2.571
      -2.702
      -2.820
      -2.889
      -2.894
      -2.844
      -2.752
      -2.610
      -2.397
      -2.097
      -1.718
      -1.275
      -0.779
      -0.228
       0.376
       1.013
       1.650
       2.246
       2.751
       3.114
       3.303
       3.315
       3.166
       2.880
       2.484
       2.010
       1.476
       0.885
       0.229
      -0.485
      -1.238
      -1.999
      -2.727
      -3.379
      -3.911
      -4.290
      -4.497
      -4.529
      -4.405
      -4.163
      -3.851
      -3.511
      -3.168
      -2.827
      -2.484
      -2.136
      -1.785
      -1.436
      -1.091
      -0.745
      -0.397
      -0.045
       0.295
       0.600
       0.852
       1.052
       1.216
       1.364
       1.518
       1.714
       2.000
       2.411
       2.948
       3.576
       4.239
       4.886
       5.464
       5.924
       6.227
       6.355
       6.305
       6.091
       5.747
       5.328
       4.890
       4.476
       4.110
       3.800
       3.528
       3.251
       2.921
       2.512
       2.038
       1.544
       1.072
       0.639
       0.228
      -0.194
      -0.653
      -1.161
      -1.715
      -2.287
      -2.817
      -3.235
      -3.496
      -3.594
      -3.548
      -3.378
      -3.097
      -2.714
      -2.221
      -1.595
      -0.804
       0.159
       1.251
       2.376
       3.420
       4.299
       4.979
       5.468
       5.784
       5.940
       5.935
       5.752
       5.366
       4.750
       3.903
       2.854
       1.644
       0.296
      -1.171
      -2.720
      -4.278
      -5.754
      -7.067
      -8.159
      -8.986
      -9.506
      -9.678
      -9.485
      -8.955
      -8.157
      -7.169
      -6.055
      -4.859
      -3.609
      -2.315
      -0.974
       0.393
       1.723
       2.928
       3.937
       4.720
       5.271
       5.588
       5.665
       5.509
       5.150
       4.627
       3.976
       3.225
       2.401
       1.521
       0.596
      -0.358
      -1.287
      -2.100
      -2.703
      -3.053
      -3.155
      -3.042
      -2.733
      -2.240
      -1.593
      -0.857
      -0.119
       0.529
       1.019
       1.319
       1.441
       1.420
       1.300
       1.112
       0.870
       0.567
       0.184
      -0.294
      -0.873
      -1.534
      -2.237
      -2.931
      -3.567
      -4.109
      -4.535
      -4.825
      -4.960
      -4.928
      -4.733
      -4.399
      -3.964
      -3.446
      -2.828
      -2.070
      -1.137
      -0.028
       1.232
       2.606
       4.045
       5.490
       6.869
       8.115
       9.195
      10.109
      10.867
      11.460
      11.845
      11.964
      11.775
      11.264
      10.436
       9.307
       7.900
       6.260
       4.451
       2.534
       0.552
      -1.469
      -3.466
      -5.320
      -6.883
      -8.059
      -8.851
      -9.337
      -9.601
      -9.686
      -9.592
      -9.306
      -8.825
      -8.171
      -7.394
      -6.555
      -5.697
      -4.831
      -3.964
      -3.140
      -2.452
      -1.995
      -1.804
      -1.816
      -1.905
      -1.961
      -1.949
      -1.896
      -1.847
      -1.831
      -1.856
      -1.913
      -1.971
      -1.980
      -1.894
      -1.694
      -1.396
      -1.043
      -0.689
      -0.396
      -0.214
      -0.154
      -0.176
      -0.200
      -0.154
      -0.015
       0.170
       0.300
       0.271
       0.015
      -0.472
      -1.128
      -1.846
      -2.498
      -2.960
      -3.132
      -2.951
      -2.405
      -1.532
      -0.408
       0.852
       2.123
       3.296
       4.309
       5.158
       5.880
       6.519
       7.103
       7.623
       8.030
       8.246
       8.187
       7.806
       7.120
       6.205
       5.164
       4.078
       2.979
       1.854
       0.687
      -0.507
      -1.670
      -2.717
      -3.562
      -4.143
      -4.431
      -4.419
      -4.108
      -3.513
      -2.682
      -1.714
      -0.739
       0.127
       0.821
       1.337
       1.701
       1.935
       2.042
       2.005
       1.803
       1.425
       0.886
       0.231
      -0.464
      -1.110
      -1.632
      -1.995
      -2.209
      -2.322
      -2.399
      -2.483
      -2.575
      -2.639
      -2.625
      -2.481
      -2.155
      -1.596
      -0.785
       0.245
       1.428
       2.693
       3.992
       5.297
       6.588
       7.842
       9.026
      10.091
      10.965
      11.569
      11.838
      11.732
      11.229
      10.325
       9.036
       7.406
       5.498
       3.376
       1.090
      -1.322
      -3.812
      -6.297
      -8.658
     -10.759
     -12.483
     -13.753
     -14.535
     -14.825
     -14.647
     -14.055
     -13.136
     -11.987
     -10.684
      -9.268
      -7.768
      -6.225
      -4.705
      -3.278
      -1.985
      -0.816
       0.279
       1.362
       2.461
       3.548
       4.541
       5.340
       5.877
       6.139
       6.155
       5.948
       5.519
       4.870
       4.063
       3.226
       2.493
       1.931
       1.528
       1.236
       1.030
       0.923
       0.928
       1.035
       1.211
       1.427
       1.668
       1.929
       2.209
       2.516
       2.866
       3.277
       3.742
       4.221
       4.671
       5.067
       5.409
       5.695
       5.892
       5.944
       5.793
       5.402
       4.767
       3.918
       2.917
       1.842
       0.756
      -0.305
      -1.309
      -2.206
      -2.948
      -3.533
      -4.006
      -4.418
      -4.778
      -5.062
      -5.265
      -5.430
      -5.626
      -5.883
      -6.157
      -6.372
      -6.494
      -6.557
      -6.620
      -6.711
      -6.798
      -6.810
      -6.690
      -6.419
      -6.022
      -5.550
      -5.049
      -4.542
      -4.036
      -3.553
      -3.125
      -2.767
      -2.443
      -2.071
      -1.569
      -0.885
      -0.003
       1.077
       2.337
       3.732
       5.175
       6.542
       7.699
       8.532
       8.983
       9.061
       8.843
       8.439
       7.950
       7.428
       6.879
       6.292
       5.664
       5.003
       4.303
       3.531
       2.640
       1.600
       0.429
      -0.799
      -1.973
      -3.004
      -3.873
      -4.639
      -5.386
      -6.161
      -6.944
      -7.684
      -8.364
      -9.006
      -9.627
     -10.170
     -10.514
     -10.555
     -10.279
      -9.766
      -9.114
      -8.377
      -7.554
      -6.636
      -5.633
      -4.569
      -3.458
      -2.288
      -1.062
       0.180
       1.360
       2.404
       3.294
       4.067
       4.785
       5.487
       6.176
       6.837
       7.456
       8.014
       8.473
       8.783
       8.912
       8.858
       8.632
       8.240
       7.698
       7.055
       6.389
       5.769
       5.214
       4.686
       4.134
       3.531
       2.884
       2.219
       1.560
       0.938
       0.406
       0.039
      -0.106
      -0.027
       0.197
       0.452
       0.644
       0.725
       0.678
       0.495
       0.193
      -0.169
      -0.501
      -0.740
      -0.896
      -1.045
      -1.267
      -1.584
      -1.945
      -2.276
      -2.525
      -2.680
      -2.744
      -2.724
      -2.630
      -2.502
      -2.398
      -2.374
      -2.445
      -2.593
      -2.781
      -2.974
      -3.140
      -3.254
      -3.302
      -3.285
      -3.223
      -3.124
      -2.962
      -2.676
      -2.201
      -1.504
      -0.610
       0.399
       1.406
       2.301
       3.015
       3.544
       3.927
       4.218
       4.444
       4.594
       4.622
       4.476
       4.128
       3.610
       3.011
       2.437
       1.972
       1.668
       1.546
       1.582
       1.692
       1.771
       1.765
       1.708
       1.692
       1.788
       1.992
       2.241
       2.454
       2.575
       2.570
       2.416
       2.106
       1.649
       1.062
       0.359
      -0.437
      -1.287
      -2.143
      -2.981
      -3.824
      -4.720
      -5.687
      -6.695
      -7.680
      -8.580
      -9.337
      -9.882
     -10.121
      -9.973
      -9.414
      -8.495
      -7.316
      -5.976
      -4.554
      -3.115
      -1.707
      -0.371
       0.864
       1.962
       2.872
       3.544
       3.956
       4.142
       4.181
       4.165
       4.155
       4.167
       4.189
       4.207
       4.224
       4.246
       4.262
       4.250
       4.194
       4.102
       3.987
       3.854
       3.698
       3.523
       3.346
       3.181
       3.021
       2.843
       2.618
       2.325
       1.959
       1.548
       1.146
       0.806
       0.545
       0.336
       0.147
      -0.039
      -0.231
      -0.453
      -0.738
      -1.084
      -1.434
      -1.705
      -1.847
      -1.873
      -1.830
      -1.746
      -1.627
      -1.478
      -1.327
      -1.215
      -1.155
      -1.130
      -1.111
      -1.088
      -1.068
      -1.045
      -0.991
      -0.874
      -0.695
      -0.495
      -0.341
      -0.287
      -0.344
      -0.491
      -0.710
      -0.998
      -1.368
      -1.818
      -2.305
      -2.741
      -3.020
      -3.070
      -2.884
      -2.516
      -2.047
      -1.553
      -1.093
      -0.712
      -0.442
      -0.294
      -0.242
      -0.225
      -0.169
      -0.039
       0.145
       0.327
       0.464
       0.555
       0.634
       0.724
       0.818
       0.887
       0.908
       0.873
       0.780
       0.617
       0.374
       0.068
      -0.257
      -0.561
      -0.850
      -1.169
      -1.554
      -1.981
      -2.367
      -2.620
      -2.700
      -2.642
      -2.525
      -2.410
      -2.301
      -2.159
      -1.945
      -1.673
      -1.404
      -1.200
      -1.071
      -0.960
      -0.792
      -0.524
      -0.175
       0.199
       0.532
       0.776
       0.901
       0.904
       0.817
       0.696
       0.588
       0.509
       0.455
       0.427
       0.437
       0.497
       0.600
       0.736
       0.907
       1.131
       1.423
       1.788
       2.228
       2.760
       3.402
       4.134
       4.885
       5.552
       6.066
       6.419
       6.644
       6.747
       6.681
       6.373
       5.789
       4.977
       4.037
       3.061
       2.085
       1.091
       0.047
      -1.058
      -2.193
      -3.286
      -4.243
      -4.975
      -5.439
      -5.659
      -5.708
      -5.664
      -5.564
      -5.388
      -5.086
      -4.624
      -4.026
