Origin Time       29/10/2009 19:56:58
Lat.              26.6°N	
Long.             90.0°E	
Depth (Km)         10.0
Magnitude         4.2
 Region           KOKRAJHAR-ASSAM                                                  
 Above details taken from IMD 
   
Station Code      GOL
Station Lat.       26.152
Station Long.      90.627
Station Height(m)   56.0
Site Class        C   Vs30 between 200 m/sec to 375 m/sec *  
Record Time       29.10.2009 19:57:07.054
Sampling Rate     200. Hz
 Record Duration   68.415 Sec.
 Direction         Vert. (Up positive)
Max. Acceleration    -11.330 cm/sec**2
     
  * For reference see Site Classification link of website 
     
 Base Line Corrected and Low Pass Filtered (Cut Off at 35 Hz) Time History
 Acceleration data in cm/sec**2
    
[...]
       0.369
       0.798
       0.829
       0.441
      -0.169
      -0.717
      -0.939
      -0.683
      -0.008
       0.768
       1.205
       1.019
       0.293
      -0.555
      -1.065
      -1.025
      -0.566
      -0.012
       0.355
       0.417
       0.214
      -0.118
      -0.382
      -0.382
      -0.044
       0.489
       0.913
       0.982
       0.713
       0.374
       0.259
       0.468
       0.882
       1.271
       1.412
       1.153
       0.460
      -0.542
      -1.570
      -2.276
      -2.403
      -1.938
      -1.121
      -0.305
       0.239
       0.450
       0.449
       0.400
       0.385
       0.381
       0.309
       0.094
      -0.289
      -0.761
      -1.138
      -1.194
      -0.801
      -0.028
       0.861
       1.542
       1.786
       1.540
       0.920
       0.163
      -0.449
      -0.692
      -0.518
      -0.088
       0.347
       0.625
       0.735
       0.719
       0.558
       0.181
      -0.398
      -0.979
      -1.266
      -1.084
      -0.523
       0.140
       0.645
       0.898
       0.959
       0.951
       0.962
       0.993
       0.942
       0.661
       0.066
      -0.771
      -1.625
      -2.234
      -2.423
      -2.161
      -1.551
      -0.781
      -0.054
       0.480
       0.785
       0.938
       1.038
       1.096
       1.012
       0.669
       0.044
      -0.740
      -1.455
      -1.845
      -1.698
      -0.955
       0.213
       1.420
       2.262
       2.549
       2.398
       2.054
       1.628
       1.001
       0.039
      -1.132
      -2.088
      -2.387
      -1.915
      -0.983
      -0.099
       0.368
       0.371
       0.143
      -0.001
       0.160
       0.650
       1.288
       1.768
       1.822
       1.379
       0.597
      -0.256
      -0.969
      -1.455
      -1.677
      -1.588
      -1.190
      -0.633
      -0.176
       0.011
       0.004
       0.050
       0.299
       0.614
       0.652
       0.172
      -0.667
      -1.332
      -1.287
      -0.418
       0.841
       1.804
       2.022
       1.567
       0.880
       0.357
       0.066
      -0.181
      -0.535
      -0.915
      -1.092
      -0.921
      -0.472
       0.056
       0.515
       0.865
       1.065
       0.974
       0.454
      -0.415
      -1.256
      -1.606
      -1.262
      -0.441
       0.394
       0.867
       0.868
       0.479
      -0.179
      -0.935
      -1.477
      -1.431
      -0.670
       0.447
       1.252
       1.291
       0.712
       0.140
       0.142
       0.788
       1.654
       2.200
       2.138
       1.530
       0.651
      -0.213
      -0.870
      -1.237
      -1.330
      -1.239
      -1.084
      -0.930
      -0.753
      -0.491
      -0.150
       0.180
       0.387
       0.432
       0.354
       0.204
       0.005
      -0.224
      -0.410
      -0.439
      -0.228
       0.183
       0.618
       0.845
       0.696
       0.170
      -0.557
      -1.223
      -1.634
      -1.764
      -1.716
      -1.575
      -1.284
      -0.711
       0.166
       1.128
       1.830
       2.041
       1.796
       1.307
       0.775
       0.286
      -0.121
      -0.359
      -0.331
      -0.075
       0.177
       0.180
      -0.071
      -0.283
      -0.113
       0.505
       1.272
       1.751
       1.693
       1.172
       0.440
      -0.302
      -0.996
      -1.603
      -1.973
      -1.893
      -1.296
      -0.384
       0.478
       1.017
       1.188
       1.108
       0.888
       0.568
       0.186
      -0.149
      -0.324
      -0.334
      -0.319
      -0.440
      -0.698
      -0.909
      -0.862
      -0.538
      -0.146
       0.035
      -0.112
      -0.479
      -0.852
      -1.067
      -1.053
      -0.785
      -0.259
       0.431
       1.040
       1.275
       1.021
       0.491
       0.111
       0.215
       0.774
       1.406
       1.663
       1.340
       0.588
      -0.222
      -0.756
      -0.876
      -0.641
      -0.208
       0.263
       0.635
       0.802
       0.709
       0.382
      -0.099
      -0.637
      -1.152
      -1.566
      -1.804
      -1.813
      -1.576
      -1.102
      -0.425
       0.353
       1.028
       1.344
       1.138
       0.463
      -0.406
      -1.103
      -1.349
      -1.055
      -0.324
       0.608
       1.472
       2.068
       2.323
       2.254
       1.884
       1.219
       0.329
      -0.574
      -1.202
      -1.356
      -1.052
      -0.515
      -0.053
       0.083
      -0.204
      -0.817
      -1.489
      -1.884
      -1.757
      -1.102
      -0.179
       0.637
       1.091
       1.174
       1.050
       0.887
       0.757
       0.683
       0.696
       0.799
       0.888
       0.766
       0.311
      -0.379
      -1.021
      -1.345
      -1.278
      -0.944
      -0.525
      -0.143
       0.168
       0.418
       0.639
       0.873
       1.127
       1.316
       1.265
       0.835
       0.098
      -0.622
      -0.922
      -0.616
       0.088
       0.721
       0.884
       0.502
      -0.194
      -0.900
      -1.437
      -1.777
      -1.939
      -1.906
      -1.646
      -1.201
      -0.709
      -0.329
      -0.118
       0.005
       0.166
       0.410
       0.670
       0.838
       0.854
       0.749
       0.607
       0.512
       0.516
       0.630
       0.820
       0.994
       0.992
       0.659
      -0.044
      -0.945
      -1.701
      -1.958
      -1.557
      -0.636
       0.439
       1.292
       1.733
       1.794
       1.611
       1.309
       0.964
       0.642
       0.397
       0.215
      -0.013
      -0.404
      -0.939
      -1.402
      -1.502
      -1.101
      -0.364
       0.313
       0.574
       0.337
      -0.189
      -0.719
      -1.099
      -1.337
      -1.467
      -1.448
      -1.204
      -0.723
      -0.099
       0.517
       0.997
       1.284
       1.384
       1.334
       1.164
       0.884
       0.495
       0.019
      -0.467
      -0.850
      -1.021
      -0.935
      -0.626
      -0.181
       0.290
       0.668
       0.850
       0.795
       0.580
       0.393
       0.415
       0.649
       0.883
       0.863
       0.546
       0.163
       0.003
       0.103
       0.188
      -0.045
      -0.600
      -1.168
      -1.422
      -1.297
      -0.969
      -0.616
      -0.283
       0.054
       0.368
       0.579
       0.660
       0.697
       0.809
       0.989
       1.056
       0.767
       0.029
      -1.001
      -1.987
      -2.606
      -2.688
      -2.234
      -1.344
      -0.155
       1.150
       2.308
       3.021
       3.082
       2.510
       1.543
       0.511
      -0.339
      -0.911
      -1.214
      -1.293
      -1.206
      -1.023
      -0.813
      -0.623
      -0.458
      -0.295
      -0.091
       0.210
       0.629
       1.082
       1.370
       1.299
       0.834
       0.164
      -0.412
      -0.675
      -0.623
      -0.443
      -0.381
      -0.581
      -1.005
      -1.436
      -1.579
      -1.217
      -0.368
       0.696
       1.598
       2.086
       2.158
       1.963
       1.616
       1.106
       0.405
      -0.397
      -1.123
      -1.675
      -2.105
      -2.459
      -2.578
      -2.151
      -1.018
       0.573
       2.046
       2.857
       2.830
       2.216
       1.451
       0.843
       0.412
      -0.021
      -0.584
      -1.172
      -1.512
      -1.429
      -1.054
      -0.746
      -0.756
      -0.963
      -0.976
      -0.521
       0.282
       1.032
       1.407
       1.398
       1.205
       0.960
       0.612
       0.072
      -0.590
      -1.135
      -1.360
      -1.289
      -1.127
      -1.036
      -0.958
      -0.689
      -0.107
       0.669
       1.364
       1.764
       1.841
       1.711
       1.484
       1.179
       0.762
       0.262
      -0.197
      -0.494
      -0.620
      -0.677
      -0.751
      -0.817
      -0.776
      -0.587
      -0.328
      -0.132
      -0.043
       0.019
       0.127
       0.206
       0.089
      -0.257
      -0.609
      -0.667
      -0.380
      -0.034
       0.031
      -0.220
      -0.462
      -0.348
       0.146
       0.720
       1.062
       1.107
       1.004
       0.904
       0.849
       0.806
       0.717
       0.500
       0.066
      -0.587
      -1.295
      -1.782
      -1.844
      -1.500
      -0.965
      -0.475
      -0.107
       0.218
       0.591
       0.989
       1.329
       1.580
       1.746
       1.752
       1.439
       0.728
      -0.215
      -1.016
      -1.334
      -1.133
      -0.747
      -0.638
      -1.013
      -1.659
      -2.130
      -2.102
      -1.548
      -0.672
       0.265
       1.076
       1.699
       2.176
       2.565
       2.853
       2.916
       2.581
       1.751
       0.519
      -0.816
      -1.890
      -2.464
      -2.515
      -2.180
      -1.616
      -0.900
      -0.062
       0.786
       1.387
       1.453
       0.912
       0.032
      -0.707
      -0.914
      -0.522
       0.203
       0.864
       1.164
       1.021
       0.523
      -0.166
      -0.875
      -1.434
      -1.668
      -1.452
      -0.816
      -0.001
       0.640
       0.873
       0.729
       0.449
       0.263
       0.200
       0.105
      -0.181
      -0.660
      -1.152
      -1.378
      -1.106
      -0.295
       0.834
       1.892
       2.514
       2.536
       2.043
       1.255
       0.393
      -0.381
      -0.918
      -1.055
      -0.691
       0.055
       0.811
       1.145
       0.834
      -0.008
      -1.012
      -1.757
      -1.975
      -1.667
      -1.081
      -0.556
      -0.316
      -0.342
      -0.417
      -0.292
       0.150
       0.832
       1.530
       1.979
       1.975
       1.442
       0.471
      -0.682
      -1.634
      -2.021
      -1.710
      -0.933
      -0.162
       0.210
       0.153
      -0.020
       0.078
       0.599
       1.352
       1.958
       2.120
       1.787
       1.123
       0.345
      -0.401
      -1.057
      -1.574
      -1.846
      -1.727
      -1.157
      -0.319
       0.384
       0.602
       0.349
       0.027
       0.076
       0.574
       1.146
       1.280
       0.758
      -0.185
      -1.070
      -1.525
      -1.483
      -1.128
      -0.694
      -0.329
      -0.069
       0.101
       0.215
       0.301
       0.388
       0.514
       0.738
       1.109
       1.571
       1.907
       1.826
       1.190
       0.161
      -0.874
      -1.572
      -1.848
      -1.836
      -1.689
      -1.413
      -0.905
      -0.118
       0.816
       1.626
       2.061
       2.005
       1.507
       0.735
      -0.060
      -0.595
      -0.658
      -0.237
       0.415
       0.898
       0.910
       0.430
      -0.310
      -1.032
      -1.569
      -1.853
      -1.845
      -1.534
      -0.999
      -0.404
       0.124
       0.570
       0.972
       1.274
       1.326
       1.043
       0.567
       0.206
       0.162
       0.331
       0.409
       0.215
      -0.127
      -0.330
      -0.241
       0.018
       0.177
       0.032
      -0.432
      -1.042
      -1.523
      -1.610
      -1.165
      -0.259
       0.817
       1.653
       1.912
       1.501
       0.629
      -0.308
      -0.924
      -1.026
      -0.678
      -0.145
       0.275
       0.427
       0.371
       0.316
       0.460
       0.838
       1.278
       1.494
       1.246
       0.475
      -0.673
      -1.917
      -2.917
      -3.365
      -3.107
      -2.242
      -1.081
       0.038
       0.930
       1.578
       2.029
       2.285
       2.309
       2.097
       1.732
       1.318
       0.885
       0.384
      -0.210
      -0.782
      -1.120
      -1.071
      -0.688
      -0.248
      -0.114
      -0.494
      -1.228
      -1.815
      -1.731
      -0.820
       0.553
       1.759
       2.313
       2.118
       1.363
       0.307
      -0.806
      -1.702
      -2.083
      -1.789
      -0.977
      -0.068
       0.530
       0.684
       0.544
       0.334
       0.173
       0.045
      -0.110
      -0.328
      -0.611
      -0.943
      -1.240
      -1.304
      -0.926
      -0.109
       0.829
       1.448
       1.507
       1.110
       0.537
      -0.013
      -0.481
      -0.787
      -0.741
      -0.205
       0.694
       1.572
       2.078
       2.177
       2.149
       2.309
       2.693
       3.000
       2.840
       2.075
       0.967
      -0.021
      -0.577
      -0.743
      -0.809
      -1.021
      -1.416
      -1.900
      -2.405
      -2.921
      -3.376
      -3.560
      -3.273
      -2.542
      -1.645
      -0.841
      -0.080
       0.962
       2.521
       4.402
       6.018
       6.777
       6.456
       5.251
       3.527
       1.559
      -0.478
      -2.354
      -3.728
      -4.347
      -4.298
      -3.982
      -3.777
      -3.729
      -3.595
      -3.191
      -2.639
      -2.233
      -2.115
      -2.145
      -2.073
      -1.767
      -1.264
      -0.622
       0.192
       1.249
       2.494
       3.654
       4.314
       4.096
       2.849
       0.768
      -1.625
      -3.664
      -4.819
      -4.881
      -3.991
      -2.517
      -0.881
       0.605
       1.813
       2.736
       3.361
       3.578
       3.213
       2.150
       0.512
      -1.234
      -2.382
      -2.321
      -0.869
       1.644
       4.590
       7.325
       9.328
      10.216
       9.761
       7.980
       5.176
       1.815
      -1.674
      -4.991
      -7.899
     -10.121
     -11.330
     -11.262
      -9.871
      -7.400
      -4.295
      -1.043
       1.929
       4.272
       5.706
       6.082
       5.454
       4.091
       2.407
       0.859
      -0.164
      -0.479
      -0.135
       0.670
       1.713
       2.755
       3.489
       3.548
       2.645
       0.757
      -1.824
      -4.622
      -7.169
      -9.099
     -10.101
      -9.870
      -8.179
      -5.081
      -1.064
       3.042
       6.410
       8.567
       9.503
       9.483
       8.769
       7.515
       5.862
       4.051
       2.375
       1.046
       0.085
      -0.638
      -1.258
      -1.797
      -2.182
      -2.395
      -2.594
      -3.066
      -4.000
      -5.279
      -6.505
      -7.265
      -7.335
      -6.656
      -5.222
      -3.078
      -0.429
       2.365
       4.912
       6.907
       8.129
       8.409
       7.688
       6.127
       4.115
       2.137
       0.558
      -0.507
      -1.166
      -1.605
      -1.926
      -2.132
      -2.237
      -2.383
      -2.780
      -3.535
      -4.519
      -5.407
      -5.825
      -5.504
      -4.364
      -2.523
      -0.287
       1.885
       3.513
       4.325
       4.462
       4.404
       4.620
       5.193
       5.799
       6.048
       5.814
       5.240
       4.469
       3.404
       1.755
      -0.673
      -3.704
      -6.777
      -9.187
     -10.397
     -10.223
      -8.832
      -6.636
      -4.126
      -1.696
       0.517
       2.645
       4.883
       7.185
       9.142
      10.156
       9.775
       7.923
       4.939
       1.459
      -1.780
      -4.177
      -5.457
      -5.669
      -5.018
      -3.703
      -1.915
       0.055
       1.783
       2.807
       2.809
       1.769
       0.011
      -1.886
      -3.300
      -3.824
      -3.446
      -2.532
      -1.568
      -0.789
      -0.047
       0.903
       1.941
       2.502
       2.037
       0.568
      -1.238
      -2.552
      -2.958
      -2.596
      -1.830
      -0.830
       0.489
       2.172
       3.952
       5.312
       5.858
       5.628
       5.002
       4.303
       3.484
       2.260
       0.508
      -1.490
      -3.204
      -4.168
      -4.190
      -3.389
      -2.137
      -0.910
      -0.071
       0.278
       0.266
       0.074
      -0.213
      -0.617
      -1.180
      -1.882
      -2.611
      -3.205
      -3.539
      -3.596
      -3.449
      -3.176
      -2.810
      -2.369
      -1.891
      -1.398
      -0.828
      -0.058
       0.971
       2.154
       3.263
       4.071
       4.411
       4.197
       3.461
       2.446
       1.602
       1.355
       1.769
       2.455
       2.878
       2.779
       2.277
       1.614
       0.872
       0.005
      -0.923
      -1.685
      -2.154
      -2.539
      -3.231
      -4.359
      -5.520
      -5.973
      -5.145
      -3.040
      -0.219
       2.569
       4.767
       6.168
       6.835
       6.972
       6.838
       6.616
       6.251
       5.401
       3.676
       1.037
      -1.987
      -4.510
      -5.817
      -5.806
      -4.995
      -4.110
      -3.609
      -3.514
      -3.561
      -3.436
      -2.913
      -1.938
      -0.694
       0.401
       0.876
       0.539
      -0.285
      -0.867
      -0.560
       0.691
       2.279
       3.363
       3.467
       2.761
       1.813
       1.089
       0.617
       0.083
      -0.762
      -1.790
      -2.593
      -2.881
      -2.700
      -2.291
      -1.817
      -1.280
      -0.648
       0.031
       0.678
       1.298
       1.952
       2.597
       3.011
       2.946
       2.382
       1.566
       0.776
       0.072
      -0.686
      -1.570
      -2.378
      -2.703
      -2.213
      -0.917
       0.754
       2.147
       2.780
       2.642
       2.157
       1.820
       1.802
       1.809
       1.356
       0.230
      -1.269
      -2.549
      -3.197
      -3.254
      -3.052
      -2.815
      -2.450
      -1.710
      -0.541
       0.755
       1.694
       1.938
       1.474
       0.564
      -0.431
      -1.182
      -1.497
      -1.381
      -1.029
      -0.705
      -0.541
      -0.403
       0.016
       0.914
       2.130
       3.185
       3.600
       3.226
       2.357
       1.511
       1.071
       1.064
       1.252
       1.396
       1.434
       1.444
       1.477
       1.445
       1.189
       0.714
       0.266
       0.090
       0.091
      -0.143
      -0.895
      -1.938
      -2.706
      -2.856
      -2.592
      -2.383
      -2.414
      -2.398
      -1.950
      -1.057
      -0.122
       0.426
       0.507
       0.359
       0.225
       0.107
      -0.153
      -0.615
      -1.102
      -1.345
      -1.238
      -0.957
      -0.819
      -0.982
      -1.250
      -1.200
      -0.550
       0.575
       1.742
       2.527
       2.760
       2.525
       2.012
       1.387
       0.732
       0.052
      -0.688
      -1.489
      -2.255
      -2.777
      -2.803
      -2.187
      -1.018
       0.378
       1.603
       2.400
       2.732
       2.705
       2.465
       2.139
       1.829
       1.594
       1.398
       1.106
       0.597
      -0.079
      -0.673
      -0.926
      -0.815
      -0.598
      -0.595
      -0.879
      -1.199
      -1.195
      -0.717
       0.073
       0.854
       1.385
       1.620
       1.696
       1.828
       2.135
       2.466
       2.387
       1.470
      -0.292
      -2.329
      -3.788
      -4.062
      -3.113
      -1.435
       0.236
       1.272
       1.441
       1.016
       0.551
       0.446
       0.616
       0.574
      -0.148
      -1.589
      -3.297
      -4.612
      -5.048
      -4.515
      -3.271
      -1.699
      -0.098
       1.390
       2.714
       3.805
       4.505
       4.601
       3.983
       2.849
