Origin Time       3/9/2009 19:51:08	  UTC
Lat.              24.3 N	
Long.             94.6 E	
Depth (Km)        100.0
Magnitude         5.9
 Region           MYANMAR-India-Manipuir-Border                                    
 Above details taken from IMD 
    
Station Code      GOL
Station Lat.       26.152  N
Station Long.      90.627  E
Station Height(m)   56.0
Site Class        C   Vs30 between 200 m/sec to 375 m/sec *  
Record Time       03.09.2009 19:52:36.244 UTC
Sampling Rate     200. Hz
 Record Duration   66.620 Sec.
 Direction         N-S (N positive)
Max. Acceleration      5.817 cm/sec**2
     
  * For reference see Site Classification link of website 
     
 Base Line Corrected and Low Pass Filtered (Cut Off at 35 Hz) Time History
 Acceleration data in cm/sec**2
    
[...]
      -0.101
      -0.216
      -0.285
      -0.286
      -0.211
      -0.071
       0.098
       0.252
       0.347
       0.359
       0.295
       0.196
       0.119
       0.105
       0.160
       0.262
       0.381
       0.486
       0.550
       0.554
       0.495
       0.399
       0.309
       0.263
       0.268
       0.305
       0.340
       0.348
       0.323
       0.273
       0.205
       0.125
       0.041
      -0.030
      -0.064
      -0.045
       0.018
       0.098
       0.161
       0.182
       0.159
       0.103
       0.027
      -0.055
      -0.124
      -0.154
      -0.130
      -0.058
       0.028
       0.081
       0.059
      -0.047
      -0.200
      -0.333
      -0.390
      -0.358
      -0.272
      -0.182
      -0.130
      -0.132
      -0.182
      -0.263
      -0.346
      -0.411
      -0.446
      -0.446
      -0.412
      -0.336
      -0.211
      -0.047
       0.117
       0.230
       0.255
       0.196
       0.098
       0.017
      -0.016
      -0.025
      -0.061
      -0.161
      -0.307
      -0.431
      -0.465
      -0.390
      -0.255
      -0.137
      -0.097
      -0.143
      -0.230
      -0.292
      -0.284
      -0.208
      -0.108
      -0.041
      -0.036
      -0.073
      -0.097
      -0.056
       0.057
       0.198
       0.300
       0.314
       0.249
       0.164
       0.128
       0.169
       0.260
       0.346
       0.378
       0.337
       0.230
       0.087
      -0.045
      -0.119
      -0.106
      -0.018
       0.104
       0.216
       0.294
       0.341
       0.372
       0.394
       0.397
       0.366
       0.303
       0.233
       0.188
       0.185
       0.210
       0.229
       0.213
       0.167
       0.121
       0.109
       0.142
       0.199
       0.244
       0.248
       0.209
       0.151
       0.112
       0.116
       0.160
       0.210
       0.230
       0.193
       0.103
      -0.019
      -0.134
      -0.193
      -0.159
      -0.025
       0.167
       0.339
       0.415
       0.361
       0.202
       0.002
      -0.181
      -0.317
      -0.413
      -0.487
      -0.541
      -0.564
      -0.546
      -0.501
      -0.457
      -0.431
      -0.411
      -0.376
      -0.328
      -0.306
      -0.353
      -0.473
      -0.607
      -0.662
      -0.580
      -0.383
      -0.167
      -0.041
      -0.065
      -0.218
      -0.421
      -0.579
      -0.629
      -0.557
      -0.400
      -0.226
      -0.104
      -0.069
      -0.101
      -0.145
      -0.145
      -0.080
       0.038
       0.178
       0.297
       0.350
       0.307
       0.178
       0.016
      -0.107
      -0.147
      -0.111
      -0.037
       0.032
       0.073
       0.085
       0.079
       0.064
       0.048
       0.037
       0.036
       0.053
       0.095
       0.164
       0.255
       0.344
       0.387
       0.351
       0.240
       0.109
       0.029
       0.039
       0.130
       0.250
       0.344
       0.375
       0.338
       0.260
       0.181
       0.129
       0.106
       0.088
       0.064
       0.053
       0.088
       0.179
       0.284
       0.341
       0.312
       0.208
       0.076
      -0.029
      -0.065
      -0.009
       0.136
       0.332
       0.504
       0.570
       0.490
       0.301
       0.091
      -0.047
      -0.069
       0.006
       0.114
       0.185
       0.174
       0.086
      -0.039
      -0.150
      -0.218
      -0.235
      -0.208
      -0.144
      -0.050
       0.063
       0.169
       0.233
       0.223
       0.134
      -0.003
      -0.132
      -0.202
      -0.190
      -0.113
      -0.009
       0.081
       0.127
       0.114
       0.045
      -0.061
      -0.181
      -0.294
      -0.390
      -0.460
      -0.493
      -0.485
      -0.451
      -0.432
      -0.461
      -0.533
      -0.592
      -0.569
      -0.439
      -0.240
      -0.046
       0.089
       0.156
       0.179
       0.185
       0.175
       0.143
       0.087
       0.021
      -0.033
      -0.068
      -0.088
      -0.096
      -0.082
      -0.035
       0.044
       0.127
       0.187
       0.217
       0.243
       0.298
       0.387
       0.478
       0.512
       0.445
       0.279
       0.073
      -0.097
      -0.177
      -0.166
      -0.102
      -0.033
       0.012
       0.042
       0.076
       0.125
       0.174
       0.201
       0.199
       0.179
       0.155
       0.138
       0.132
       0.144
       0.180
       0.232
       0.271
       0.258
       0.183
       0.073
      -0.019
      -0.057
      -0.040
      -0.002
       0.021
       0.018
       0.010
       0.029
       0.094
       0.189
       0.272
       0.295
       0.230
       0.095
      -0.055
      -0.162
      -0.208
      -0.218
      -0.233
      -0.266
      -0.301
      -0.318
      -0.315
      -0.307
      -0.300
      -0.287
      -0.251
      -0.192
      -0.127
      -0.077
      -0.042
      -0.006
       0.046
       0.102
       0.128
       0.093
       0.006
      -0.089
      -0.143
      -0.139
      -0.095
      -0.048
      -0.022
      -0.021
      -0.028
      -0.037
      -0.065
      -0.132
      -0.230
      -0.310
      -0.321
      -0.252
      -0.144
      -0.055
      -0.030
      -0.074
      -0.154
      -0.220
      -0.236
      -0.201
      -0.153
      -0.135
      -0.159
      -0.195
      -0.183
      -0.085
       0.093
       0.294
       0.447
       0.498
       0.441
       0.316
       0.184
       0.090
       0.038
      -0.007
      -0.083
      -0.191
      -0.295
      -0.353
      -0.348
      -0.303
      -0.268
      -0.281
      -0.341
      -0.400
      -0.395
      -0.291
      -0.101
       0.121
       0.315
       0.441
       0.482
       0.439
       0.326
       0.173
       0.017
      -0.107
      -0.178
      -0.184
      -0.126
      -0.015
       0.124
       0.262
       0.373
       0.430
       0.414
       0.326
       0.195
       0.064
      -0.032
      -0.090
      -0.130
      -0.165
      -0.189
      -0.186
      -0.148
      -0.079
       0.014
       0.126
       0.240
       0.329
       0.371
       0.360
       0.312
       0.253
       0.198
       0.158
       0.138
       0.134
       0.133
       0.111
       0.059
      -0.010
      -0.069
      -0.106
      -0.135
      -0.183
      -0.262
      -0.350
      -0.401
      -0.379
      -0.282
      -0.138
       0.023
       0.181
       0.323
       0.431
       0.485
       0.482
       0.445
       0.412
       0.411
       0.436
       0.444
       0.379
       0.208
      -0.039
      -0.279
      -0.425
      -0.444
      -0.376
      -0.299
      -0.264
      -0.251
      -0.201
      -0.070
       0.119
       0.295
       0.382
       0.347
       0.216
       0.047
      -0.111
      -0.246
      -0.383
      -0.546
      -0.731
      -0.893
      -0.974
      -0.937
      -0.785
      -0.573
      -0.385
      -0.281
      -0.249
      -0.213
      -0.087
       0.161
       0.496
       0.850
       1.162
       1.393
       1.508
       1.475
       1.272
       0.916
       0.470
       0.029
      -0.321
      -0.542
      -0.648
      -0.677
      -0.658
      -0.580
      -0.413
      -0.137
       0.227
       0.618
       0.957
       1.179
       1.258
       1.211
       1.084
       0.923
       0.758
       0.594
       0.425
       0.252
       0.081
      -0.070
      -0.183
      -0.250
      -0.275
      -0.270
      -0.238
      -0.161
      -0.010
       0.217
       0.473
       0.665
       0.707
       0.576
       0.325
       0.051
      -0.164
      -0.289
      -0.351
      -0.397
      -0.457
      -0.517
      -0.532
      -0.471
      -0.338
      -0.171
      -0.008
       0.139
       0.266
       0.356
       0.372
       0.280
       0.080
      -0.195
      -0.491
      -0.761
      -0.981
      -1.147
      -1.270
      -1.357
      -1.394
      -1.347
      -1.195
      -0.955
      -0.685
      -0.442
      -0.252
      -0.103
       0.037
       0.196
       0.368
       0.505
       0.538
       0.424
       0.189
      -0.086
      -0.311
      -0.436
      -0.463
      -0.434
      -0.387
      -0.335
      -0.265
      -0.164
      -0.043
       0.062
       0.112
       0.097
       0.042
       0.002
       0.021
       0.105
       0.218
       0.297
       0.292
       0.186
       0.006
      -0.184
      -0.305
      -0.313
      -0.217
      -0.078
       0.030
       0.060
       0.019
      -0.035
      -0.028
       0.079
       0.258
       0.433
       0.539
       0.580
       0.623
       0.743
       0.947
       1.145
       1.213
       1.086
       0.796
       0.430
       0.061
      -0.293
      -0.646
      -1.001
      -1.329
      -1.582
      -1.723
      -1.737
      -1.621
      -1.378
      -1.012
      -0.542
      -0.002
       0.559
       1.071
       1.445
       1.599
       1.498
       1.184
       0.760
       0.339
      -0.007
      -0.265
      -0.462
      -0.629
      -0.784
      -0.918
      -1.009
      -1.036
      -0.998
      -0.909
      -0.775
      -0.581
      -0.296
       0.090
       0.538
       0.950
       1.219
       1.281
       1.157
       0.936
       0.721
       0.587
       0.547
       0.573
       0.616
       0.637
       0.612
       0.532
       0.397
       0.225
       0.067
       0.009
       0.143
       0.507
       1.033
       1.554
       1.873
       1.857
       1.504
       0.923
       0.261
      -0.368
      -0.893
      -1.278
      -1.504
      -1.584
      -1.568
      -1.524
      -1.505
      -1.523
      -1.533
      -1.471
      -1.287
      -0.989
      -0.637
      -0.329
      -0.155
      -0.158
      -0.299
      -0.458
      -0.488
      -0.299
       0.079
       0.503
       0.800
       0.875
       0.773
       0.635
       0.616
       0.783
       1.097
       1.434
       1.653
       1.639
       1.345
       0.797
       0.086
      -0.657
      -1.301
      -1.739
      -1.919
      -1.857
      -1.624
      -1.319
      -1.018
      -0.740
      -0.449
      -0.108
       0.270
       0.605
       0.797
       0.782
       0.565
       0.221
      -0.142
      -0.421
      -0.566
      -0.584
      -0.515
      -0.391
      -0.218
       0.009
       0.281
       0.574
       0.849
       1.062
       1.173
       1.161
       1.045
       0.884
       0.741
       0.649
       0.585
       0.496
       0.335
       0.085
      -0.230
      -0.556
      -0.825
      -0.985
      -1.023
      -0.965
      -0.845
      -0.672
      -0.433
      -0.127
       0.204
       0.482
       0.642
       0.665
       0.593
       0.490
       0.432
       0.490
       0.725
       1.148
       1.687
       2.183
       2.448
       2.361
       1.914
       1.211
       0.400
      -0.395
      -1.099
      -1.687
      -2.145
      -2.449
      -2.556
      -2.426
      -2.073
      -1.595
      -1.148
      -0.857
      -0.733
      -0.669
      -0.530
      -0.269
       0.048
       0.303
       0.417
       0.399
       0.328
       0.302
       0.379
       0.556
       0.766
       0.907
       0.904
       0.758
       0.555
       0.426
       0.475
       0.727
       1.127
       1.562
       1.901
       2.043
       1.950
       1.646
       1.195
       0.650
       0.018
      -0.733
      -1.624
      -2.603
      -3.518
      -4.157
      -4.359
      -4.120
      -3.605
      -3.034
      -2.543
      -2.105
      -1.597
      -0.911
      -0.047
       0.878
       1.693
       2.249
       2.490
       2.458
       2.262
       2.013
       1.779
       1.583
       1.433
       1.344
       1.328
       1.370
       1.412
       1.384
       1.231
       0.931
       0.502
      -0.008
      -0.525
      -0.970
      -1.276
      -1.414
      -1.410
      -1.341
      -1.304
      -1.361
      -1.500
      -1.633
      -1.651
      -1.488
      -1.173
      -0.820
      -0.577
      -0.529
      -0.632
      -0.701
      -0.507
       0.077
       0.981
       1.960
       2.719
       3.040
       2.837
       2.152
       1.121
      -0.074
      -1.247
      -2.249
      -2.984
      -3.415
      -3.549
      -3.428
      -3.120
      -2.702
      -2.245
      -1.809
      -1.429
      -1.107
      -0.821
      -0.548
      -0.278
      -0.017
       0.234
       0.481
       0.735
       0.995
       1.251
       1.479
       1.645
       1.711
       1.667
       1.559
       1.500
       1.615
       1.954
       2.440
       2.885
       3.085
       2.926
       2.448
       1.818
       1.247
       0.884
       0.728
       0.642
       0.429
      -0.040
      -0.737
      -1.477
      -2.019
      -2.193
      -1.983
      -1.497
      -0.878
      -0.209
       0.509
       1.302
       2.157
       3.002
       3.739
       4.294
       4.635
       4.759
       4.680
       4.438
       4.101
       3.758
       3.469
       3.216
       2.878
       2.300
       1.402
       0.258
      -0.941
      -1.988
      -2.770
      -3.291
      -3.623
      -3.823
      -3.881
      -3.726
      -3.288
      -2.578
      -1.740
      -1.031
      -0.721
      -0.962
      -1.692
      -2.661
      -3.555
      -4.153
      -4.423
      -4.493
      -4.545
      -4.681
      -4.853
      -4.881
      -4.558
      -3.777
      -2.590
      -1.179
       0.242
       1.524
       2.625
       3.588
       4.465
       5.225
       5.734
       5.817
       5.386
       4.506
       3.365
       2.145
       0.926
      -0.303
      -1.552
      -2.762
      -3.787
      -4.453
      -4.628
      -4.272
      -3.473
      -2.421
      -1.353
      -0.482
       0.060
       0.238
       0.099
      -0.250
      -0.663
      -0.976
      -1.036
      -0.756
      -0.138
       0.723
       1.670
       2.527
       3.132
       3.391
       3.308
       2.982
       2.550
       2.128
       1.780
       1.520
       1.327
       1.162
       0.972
       0.697
       0.279
      -0.301
      -0.994
      -1.680
      -2.220
      -2.538
      -2.642
      -2.575
      -2.347
      -1.916
      -1.240
      -0.357
       0.601
       1.457
       2.088
       2.488
       2.750
       2.997
       3.296
       3.603
       3.788
       3.730
       3.418
       2.972
       2.550
       2.222
       1.906
       1.419
       0.617
      -0.482
      -1.672
      -2.679
      -3.315
      -3.563
      -3.525
      -3.319
      -3.027
      -2.711
      -2.439
      -2.269
      -2.188
      -2.099
      -1.861
      -1.383
      -0.686
       0.115
       0.893
       1.582
       2.188
       2.745
       3.256
       3.650
       3.781
       3.479
       2.636
       1.285
      -0.373
      -2.033
      -3.400
      -4.318
      -4.807
      -5.005
      -5.049
      -4.992
      -4.806
      -4.440
      -3.881
      -3.166
      -2.357
      -1.497
      -0.605
       0.308
       1.213
       2.057
       2.779
       3.323
       3.652
       3.740
       3.579
       3.204
       2.718
       2.291
       2.072
       2.077
       2.141
       2.028
       1.617
       1.016
       0.468
       0.153
       0.053
      -0.016
      -0.238
      -0.649
      -1.118
      -1.436
      -1.450
      -1.149
      -0.648
      -0.116
       0.309
       0.552
       0.599
       0.480
       0.264
       0.055
      -0.046
       0.007
       0.191
       0.448
       0.737
       1.047
       1.360
       1.610
       1.718
       1.651
       1.458
       1.227
       1.003
       0.759
       0.436
       0.026
      -0.403
      -0.745
      -0.923
      -0.910
      -0.720
      -0.392
      -0.002
       0.336
       0.506
       0.460
       0.257
       0.036
      -0.058
       0.034
       0.255
       0.456
       0.458
       0.149
      -0.467
      -1.273
      -2.109
      -2.870
      -3.547
      -4.190
      -4.818
      -5.348
      -5.605
      -5.416
      -4.719
      -3.622
      -2.359
      -1.166
      -0.171
       0.636
       1.324
       1.894
       2.240
       2.234
       1.891
       1.436
       1.202
       1.389
       1.902
       2.375
       2.409
       1.837
       0.799
      -0.386
      -1.450
      -2.278
      -2.854
      -3.164
      -3.166
      -2.857
      -2.330
      -1.739
      -1.214
      -0.793
      -0.449
      -0.132
       0.213
       0.656
       1.268
       2.064
       2.952
       3.757
       4.298
       4.485
       4.353
       4.042
       3.716
       3.468
       3.279
       3.051
       2.699
       2.207
       1.647
       1.142
       0.828
       0.780
       0.948
       1.139
       1.095
       0.653
      -0.115
      -0.893
      -1.260
      -0.926
       0.085
       1.415
       2.554
       3.116
       3.020
       2.461
       1.732
       1.054
       0.520
       0.136
      -0.143
      -0.400
      -0.760
      -1.321
      -2.076
      -2.894
      -3.617
      -4.170
      -4.579
      -4.880
      -5.054
      -5.036
      -4.794
      -4.364
      -3.834
      -3.276
      -2.692
      -2.010
      -1.149
      -0.094
       1.065
       2.155
       2.987
       3.411
       3.367
       2.901
       2.152
       1.304
       0.536
      -0.014
      -0.260
      -0.199
       0.067
       0.322
       0.306
      -0.148
      -0.994
      -1.967
      -2.731
      -3.071
      -3.001
      -2.714
      -2.437
      -2.310
      -2.354
      -2.489
      -2.573
      -2.436
      -1.952
      -1.113
      -0.054
       1.007
       1.904
       2.618
       3.254
       3.911
       4.566
       5.077
       5.316
       5.300
       5.186
       5.134
       5.153
       5.071
       4.646
       3.740
       2.415
       0.907
      -0.488
      -1.544
      -2.192
      -2.546
      -2.824
      -3.213
      -3.750
      -4.298
      -4.645
      -4.647
      -4.318
      -3.778
      -3.133
      -2.388
      -1.493
      -0.446
       0.656
       1.669
       2.473
       3.004
       3.232
       3.167
       2.894
       2.579
       2.402
       2.449
       2.633
       2.721
       2.483
       1.854
       0.999
       0.229
      -0.175
      -0.133
       0.172
       0.388
       0.202
      -0.451
      -1.336
      -2.063
      -2.313
      -1.979
      -1.167
      -0.107
       0.915
       1.612
       1.743
       1.199
       0.095
      -1.239
      -2.399
      -3.110
      -3.341
      -3.279
      -3.195
      -3.305
      -3.655
      -4.093
      -4.347
      -4.202
      -3.663
      -2.960
      -2.383
      -2.089
      -2.044
      -2.092
      -2.066
      -1.855
      -1.415
      -0.759
       0.056
       0.953
       1.864
       2.727
       3.463
       3.961
       4.112
       3.863
       3.263
       2.462
       1.665
       1.065
       0.772
       0.756
       0.860
       0.898
       0.789
       0.639
       0.671
       1.059
       1.774
       2.562
       3.077
       3.076
       2.567
       1.817
       1.193
       0.931
       0.988
       1.082
       0.895
       0.281
      -0.664
      -1.693
      -2.560
      -3.126
      -3.372
      -3.331
      -3.048
      -2.577
      -2.019
      -1.521
      -1.204
      -1.072
      -0.963
