Origin Time       31/12/2009 09:57:00 UTC
Lat.              27.3°N	
Long.             91.4°E	
Depth (Km)          7.0
Magnitude         5.5
 Region           BHUTAN                                                           
 Above details taken from IMD 
    
Station Code      GOL
Station Lat.       26.152  N
Station Long.      90.627  E
Station Height(m)   56.0
Site Class        C   Vs30 between 200 m/sec to 375 m/sec *  
Record Time       31.12.2009 09:57:58.674 UTC
Sampling Rate     200. Hz
 Record Duration   82.350 Sec.
 Direction         N-S (N positive)
Max. Acceleration      8.973 cm/sec**2
     
  * For reference see Site Classification link of website 
     
 Base Line Corrected and Low Pass Filtered (Cut Off at 35 Hz) Time History
 Acceleration data in cm/sec**2
    
[...]
      -0.716
      -0.164
       0.362
       0.935
       1.639
       2.466
       3.292
       3.956
       4.363
       4.519
       4.493
       4.352
       4.131
       3.847
       3.513
       3.128
       2.659
       2.055
       1.308
       0.484
      -0.310
      -1.005
      -1.603
      -2.149
      -2.669
      -3.149
      -3.572
      -3.940
      -4.244
      -4.413
      -4.320
      -3.875
      -3.116
      -2.223
      -1.406
      -0.776
      -0.292
       0.175
       0.724
       1.364
       2.040
       2.716
       3.419
       4.203
       5.058
       5.865
       6.442
       6.649
       6.442
       5.862
       4.980
       3.871
       2.632
       1.383
       0.231
      -0.776
      -1.657
      -2.439
      -3.097
      -3.549
      -3.727
      -3.651
      -3.432
      -3.207
      -3.048
      -2.923
      -2.740
      -2.441
      -2.073
      -1.797
      -1.790
      -2.125
      -2.688
      -3.237
      -3.535
      -3.477
      -3.100
      -2.498
      -1.748
      -0.911
      -0.076
       0.637
       1.140
       1.434
       1.602
       1.720
       1.797
       1.776
       1.590
       1.217
       0.682
       0.030
      -0.691
      -1.432
      -2.138
      -2.760
      -3.256
      -3.583
      -3.680
      -3.491
      -3.015
      -2.321
      -1.497
      -0.588
       0.404
       1.473
       2.567
       3.607
       4.530
       5.302
       5.890
       6.238
       6.279
       5.995
       5.439
       4.702
       3.842
       2.862
       1.762
       0.615
      -0.444
      -1.307
      -1.962
      -2.502
      -3.039
      -3.619
      -4.198
      -4.697
      -5.073
      -5.347
      -5.551
      -5.662
      -5.583
      -5.219
      -4.571
      -3.765
      -2.961
      -2.252
      -1.625
      -1.014
      -0.348
       0.412
       1.251
       2.108
       2.901
       3.573
       4.110
       4.531
       4.862
       5.134
       5.371
       5.576
       5.696
       5.650
       5.397
       4.994
       4.560
       4.176
       3.833
       3.454
       2.965
       2.337
       1.576
       0.697
      -0.252
      -1.190
      -2.039
      -2.789
      -3.502
      -4.229
      -4.932
      -5.505
      -5.860
      -5.986
      -5.911
      -5.636
      -5.134
      -4.379
      -3.372
      -2.133
      -0.724
       0.748
       2.162
       3.411
       4.403
       5.061
       5.342
       5.258
       4.863
       4.214
       3.365
       2.406
       1.473
       0.705
       0.163
      -0.198
      -0.493
      -0.836
      -1.295
      -1.858
      -2.413
      -2.781
      -2.804
      -2.421
      -1.684
      -0.735
       0.230
       1.002
       1.435
       1.499
       1.264
       0.859
       0.426
       0.077
      -0.154
      -0.317
      -0.478
      -0.645
      -0.773
      -0.801
      -0.679
      -0.370
       0.145
       0.868
       1.777
       2.814
       3.856
       4.742
       5.347
       5.650
       5.696
       5.516
       5.071
       4.302
       3.206
       1.870
       0.430
      -0.994
      -2.313
      -3.465
      -4.418
      -5.160
      -5.669
      -5.912
      -5.892
      -5.679
      -5.370
      -5.031
      -4.694
      -4.380
      -4.098
      -3.825
      -3.498
      -3.032
      -2.363
      -1.488
      -0.497
       0.448
       1.192
       1.655
       1.844
       1.828
       1.718
       1.643
       1.710
       1.956
       2.328
       2.712
       3.005
       3.146
       3.105
       2.848
       2.335
       1.574
       0.664
      -0.234
      -0.968
      -1.457
      -1.686
      -1.658
      -1.388
      -0.923
      -0.370
       0.147
       0.542
       0.804
       0.951
       0.959
       0.727
       0.136
      -0.835
      -2.035
      -3.169
      -3.930
      -4.142
      -3.819
      -3.125
      -2.258
      -1.357
      -0.483
       0.344
       1.093
       1.702
       2.097
       2.232
       2.112
       1.783
       1.285
       0.622
      -0.241
      -1.340
      -2.650
      -4.054
      -5.348
      -6.305
      -6.742
      -6.574
      -5.823
      -4.602
      -3.094
      -1.514
      -0.048
       1.204
       2.242
       3.109
       3.816
       4.309
       4.494
       4.309
       3.764
       2.950
       2.008
       1.109
       0.426
       0.106
       0.224
       0.745
       1.505
       2.251
       2.734
       2.832
       2.610
       2.276
       2.045
       2.022
       2.163
       2.311
       2.274
       1.882
       1.049
      -0.209
      -1.781
      -3.495
      -5.135
      -6.448
      -7.181
      -7.170
      -6.436
      -5.199
      -3.795
      -2.520
      -1.512
      -0.741
      -0.084
       0.577
       1.282
       1.980
       2.559
       2.920
       3.057
       3.079
       3.144
       3.344
       3.642
       3.908
       4.043
       4.055
       4.039
       4.071
       4.115
       4.053
       3.798
       3.407
       3.062
       2.926
       2.986
       3.021
       2.740
       1.977
       0.809
      -0.511
      -1.706
      -2.599
      -3.130
      -3.285
      -3.057
      -2.460
      -1.585
      -0.613
       0.250
       0.860
       1.187
       1.291
       1.261
       1.169
       1.068
       1.014
       1.080
       1.331
       1.764
       2.241
       2.522
       2.397
       1.832
       1.004
       0.191
      -0.389
      -0.675
      -0.734
      -0.680
      -0.627
      -0.699
      -1.037
      -1.760
      -2.896
      -4.340
      -5.874
      -7.241
      -8.235
      -8.740
      -8.739
      -8.295
      -7.529
      -6.610
      -5.712
      -4.941
      -4.283
      -3.635
      -2.924
      -2.192
      -1.544
      -0.996
      -0.393
       0.522
       1.922
       3.741
       5.680
       7.334
       8.368
       8.624
       8.161
       7.215
       6.099
       5.073
       4.265
       3.682
       3.309
       3.161
       3.267
       3.607
       4.091
       4.563
       4.839
       4.763
       4.279
       3.451
       2.413
       1.306
       0.246
      -0.696
      -1.513
      -2.245
      -2.891
      -3.359
      -3.501
      -3.240
      -2.646
      -1.909
      -1.224
      -0.711
      -0.422
      -0.390
      -0.641
      -1.143
      -1.761
      -2.271
      -2.446
      -2.157
      -1.429
      -0.428
       0.611
       1.464
       1.989
       2.141
       1.956
       1.521
       0.944
       0.330
      -0.253
      -0.803
      -1.384
      -2.077
      -2.898
      -3.746
      -4.429
      -4.764
      -4.674
      -4.226
      -3.590
      -2.936
      -2.358
      -1.840
      -1.293
      -0.615
       0.254
       1.307
       2.479
       3.647
       4.633
       5.212
       5.184
       4.488
       3.285
       1.932
       0.828
       0.239
       0.214
       0.617
       1.224
       1.802
       2.142
       2.057
       1.403
       0.141
      -1.619
      -3.625
      -5.571
      -7.188
      -8.307
      -8.847
      -8.800
      -8.238
      -7.336
      -6.350
      -5.537
      -5.034
      -4.782
      -4.564
      -4.139
      -3.384
      -2.356
      -1.250
      -0.278
       0.430
       0.858
       1.068
       1.135
       1.118
       1.078
       1.098
       1.261
       1.597
       2.035
       2.432
       2.644
       2.596
       2.309
       1.862
       1.351
       0.845
       0.386
      -0.006
      -0.314
      -0.520
      -0.591
      -0.481
      -0.129
       0.531
       1.530
       2.820
       4.265
       5.664
       6.825
       7.634
       8.075
       8.202
       8.076
       7.726
       7.151
       6.347
       5.328
       4.119
       2.752
       1.296
      -0.119
      -1.297
      -2.051
      -2.300
      -2.123
      -1.730
      -1.355
      -1.133
      -1.051
      -0.981
      -0.776
      -0.366
       0.185
       0.701
       0.969
       0.834
       0.262
      -0.656
      -1.759
      -2.885
      -3.908
      -4.761
      -5.423
      -5.901
      -6.214
      -6.386
      -6.455
      -6.454
      -6.370
      -6.111
      -5.520
      -4.467
      -2.950
      -1.156
       0.583
       1.914
       2.609
       2.650
       2.218
       1.596
       1.055
       0.768
       0.780
       1.031
       1.398
       1.742
       1.945
       1.947
       1.777
       1.552
       1.418
       1.473
       1.699
       1.955
       2.052
       1.862
       1.392
       0.777
       0.208
      -0.143
      -0.155
       0.240
       1.056
       2.234
       3.629
       5.015
       6.135
       6.790
       6.911
       6.577
       5.970
       5.276
       4.612
       4.012
       3.475
       3.017
       2.675
       2.470
       2.376
       2.336
       2.297
       2.255
       2.241
       2.291
       2.400
       2.512
       2.535
       2.362
       1.898
       1.087
      -0.053
      -1.423
      -2.862
      -4.188
      -5.253
      -5.984
      -6.410
      -6.641
      -6.801
      -6.951
      -7.039
      -6.917
      -6.422
      -5.471
      -4.128
      -2.588
      -1.106
       0.107
       0.946
       1.424
       1.619
       1.609
       1.425
       1.042
       0.408
      -0.508
      -1.679
      -2.992
      -4.245
      -5.178
      -5.550
      -5.243
      -4.337
      -3.100
      -1.880
      -0.966
      -0.478
      -0.352
      -0.412
      -0.473
      -0.423
      -0.234
       0.069
       0.454
       0.897
       1.375
       1.863
       2.351
       2.853
       3.390
       3.949
       4.459
       4.823
       4.972
       4.901
       4.646
       4.229
       3.618
       2.748
       1.583
       0.171
      -1.350
      -2.800
      -4.017
      -4.907
      -5.454
      -5.698
      -5.692
      -5.459
      -4.988
      -4.269
      -3.363
      -2.438
      -1.734
      -1.456
      -1.676
      -2.313
      -3.188
      -4.098
      -4.855
      -5.299
      -5.317
      -4.876
      -4.044
      -2.969
      -1.806
      -0.661
       0.418
       1.410
       2.283
       2.979
       3.438
       3.629
       3.571
       3.323
       2.964
       2.563
       2.159
       1.755
       1.338
       0.915
       0.549
       0.349
       0.428
       0.819
       1.428
       2.049
       2.446
       2.455
       2.048
       1.336
       0.523
      -0.169
      -0.576
      -0.651
      -0.460
      -0.110
       0.331
       0.866
       1.528
       2.299
       3.081
       3.758
       4.282
       4.711
       5.154
       5.656
       6.125
       6.352
       6.113
       5.301
       3.980
       2.369
       0.766
      -0.536
      -1.328
      -1.546
      -1.300
      -0.838
      -0.457
      -0.401
      -0.791
      -1.610
      -2.739
      -4.011
      -5.241
      -6.248
      -6.877
      -7.039
      -6.752
      -6.155
      -5.461
      -4.868
      -4.471
      -4.233
      -4.013
      -3.634
      -2.955
      -1.927
      -0.610
       0.856
       2.314
       3.654
       4.846
       5.897
       6.796
       7.490
       7.917
       8.074
       8.043
       7.940
       7.836
       7.699
       7.421
       6.911
       6.162
       5.252
       4.263
       3.224
       2.117
       0.945
      -0.207
      -1.181
      -1.820
      -2.064
      -1.988
      -1.783
      -1.682
      -1.853
      -2.332
      -3.019
      -3.744
      -4.374
      -4.880
      -5.322
      -5.762
      -6.171
      -6.429
      -6.407
      -6.071
      -5.521
      -4.937
      -4.481
      -4.225
      -4.138
      -4.141
      -4.161
      -4.150
      -4.082
      -3.930
      -3.666
      -3.272
      -2.728
      -2.019
      -1.134
      -0.095
       1.037
       2.162
       3.181
       4.028
       4.687
       5.177
       5.525
       5.731
       5.760
       5.558
       5.089
       4.374
       3.508
       2.643
       1.945
       1.540
       1.496
       1.816
       2.434
       3.213
       3.952
       4.450
       4.578
       4.322
       3.752
       2.948
       1.963
       0.846
      -0.296
      -1.284
      -1.934
      -2.168
      -2.063
      -1.798
      -1.541
      -1.348
      -1.169
      -0.935
      -0.635
      -0.342
      -0.168
      -0.189
      -0.392
      -0.680
      -0.942
      -1.139
      -1.335
      -1.647
      -2.146
      -2.781
      -3.381
      -3.737
      -3.701
      -3.250
      -2.502
      -1.665
      -0.953
      -0.511
      -0.354
      -0.368
      -0.368
      -0.188
       0.229
       0.804
       1.378
       1.804
       2.023
       2.081
       2.066
       2.031
       1.964
       1.811
       1.529
       1.124
       0.633
       0.094
      -0.488
      -1.136
      -1.871
      -2.677
      -3.485
      -4.188
      -4.682
      -4.913
      -4.896
      -4.694
      -4.364
      -3.932
      -3.423
      -2.904
      -2.507
      -2.357
      -2.482
      -2.768
      -3.042
      -3.186
      -3.213
      -3.218
      -3.273
      -3.345
      -3.319
      -3.086
      -2.617
      -1.969
      -1.231
      -0.473
       0.267
       0.948
       1.496
       1.805
       1.782
       1.411
       0.804
       0.181
      -0.233
      -0.329
      -0.155
       0.149
       0.486
       0.878
       1.429
       2.215
       3.202
       4.250
       5.187
       5.902
       6.394
       6.747
       7.078
       7.459
       7.896
       8.344
       8.734
       8.973
       8.933
       8.456
       7.426
       5.864
       3.975
       2.090
       0.519
      -0.595
      -1.317
      -1.834
      -2.321
      -2.834
      -3.319
      -3.681
      -3.872
      -3.935
      -3.983
      -4.113
      -4.337
      -4.565
      -4.679
      -4.629
      -4.450
      -4.204
      -3.897
      -3.470
      -2.865
      -2.092
      -1.231
      -0.378
       0.388
       1.004
       1.417
       1.610
       1.649
       1.669
       1.786
       1.988
       2.115
       1.979
       1.504
       0.782
      -0.016
      -0.775
      -1.498
      -2.253
      -3.071
      -3.873
      -4.503
      -4.809
      -4.726
      -4.291
      -3.590
      -2.702
      -1.678
      -0.575
       0.521
       1.503
       2.288
       2.853
       3.239
       3.527
       3.808
       4.165
       4.651
       5.270
       5.952
       6.560
       6.922
       6.886
       6.378
       5.433
       4.181
       2.809
       1.502
       0.399
      -0.426
      -0.958
      -1.220
      -1.257
      -1.140
      -0.971
      -0.866
      -0.915
      -1.147
      -1.517
      -1.938
      -2.319
      -2.589
      -2.711
      -2.691
      -2.562
      -2.363
      -2.113
      -1.796
      -1.390
      -0.891
      -0.340
       0.202
       0.682
       1.091
       1.459
       1.846
       2.303
       2.851
       3.462
       4.061
       4.529
       4.734
       4.563
       3.977
       3.053
       1.977
       0.978
       0.237
      -0.163
      -0.230
      -0.005
       0.484
       1.211
       2.102
       3.002
       3.686
       3.928
       3.578
       2.620
       1.165
      -0.587
      -2.410
      -4.110
      -5.562
      -6.718
      -7.587
      -8.193
      -8.543
      -8.629
      -8.441
      -7.991
      -7.304
      -6.421
      -5.406
      -4.362
      -3.425
      -2.724
      -2.331
      -2.228
      -2.319
      -2.484
      -2.626
      -2.694
      -2.669
      -2.536
      -2.281
      -1.906
      -1.451
      -0.975
      -0.518
      -0.067
       0.418
       0.958
       1.500
       1.918
       2.067
       1.856
       1.302
       0.522
      -0.314
      -1.049
      -1.581
      -1.861
      -1.865
      -1.577
      -0.996
      -0.152
       0.887
       2.038
       3.220
       4.361
       5.382
       6.187
       6.686
       6.832
       6.665
       6.318
       5.978
       5.810
       5.879
       6.118
       6.371
       6.475
       6.328
       5.913
       5.269
       4.457
       3.536
       2.547
       1.508
       0.392
      -0.869
      -2.332
      -3.966
      -5.610
      -7.014
      -7.952
      -8.330
      -8.214
      -7.769
      -7.157
      -6.479
      -5.787
      -5.120
      -4.541
      -4.124
      -3.923
      -3.932
      -4.076
      -4.226
      -4.263
      -4.132
      -3.842
      -3.427
      -2.897
      -2.233
      -1.425
      -0.502
       0.464
       1.385
       2.195
       2.882
       3.493
       4.098
       4.749
       5.426
       6.034
       6.441
       6.538
       6.291
       5.751
       5.027
       4.219
       3.362
       2.411
       1.295
       0.015
      -1.294
      -2.399
      -3.080
      -3.253
      -3.003
      -2.526
      -2.025
      -1.620
      -1.316
      -1.033
      -0.675
      -0.211
       0.292
       0.688
       0.832
       0.678
       0.331
       0.011
      -0.041
       0.314
       1.058
       2.029
       2.991
       3.720
       4.063
       3.985
       3.581
       3.055
       2.638
       2.496
       2.651
       2.991
       3.333
       3.523
       3.501
       3.286
       2.922
       2.424
       1.794
       1.049
       0.255
      -0.488
      -1.085
      -1.460
      -1.562
      -1.348
      -0.803
       0.028
       1.014
       1.967
       2.704
       3.114
       3.187
       2.989
       2.596
       2.035
       1.264
       0.217
      -1.120
      -2.662
      -4.239
      -5.674
      -6.842
      -7.690
      -8.198
      -8.352
      -8.139
      -7.582
      -6.760
      -5.797
      -4.817
      -3.889
      -3.008
      -2.116
      -1.179
      -0.237
       0.601
       1.210
       1.507
       1.474
       1.160
       0.690
       0.260
       0.091
       0.337
       0.998
       1.906
       2.825
       3.582
       4.121
       4.457
       4.575
       4.398
       3.860
       3.006
       2.043
       1.260
       0.901
       1.064
       1.684
       2.582
       3.538
       4.349
       4.873
       5.069
       5.000
       4.788
       4.530
       4.230
       3.794
       3.099
       2.095
       0.852
      -0.493
      -1.825
      -3.109
      -4.352
      -5.532
      -6.554
      -7.306
      -7.746
      -7.941
      -8.010
      -8.006
      -7.871
      -7.496
      -6.852
      -6.062
      -5.341
      -4.853
      -4.595
      -4.425
      -4.180
      -3.786
      -3.255
      -2.618
      -1.876
      -1.019
      -0.078
       0.876
       1.765
       2.528
       3.102
       3.413
       3.406
       3.117
       2.703
       2.374
       2.263
       2.344
       2.463
       2.466
       2.308
       2.067
       1.849
       1.677
       1.485
       1.195
       0.797
       0.324
      -0.222
      -0.893
      -1.721
      -2.627
      -3.435
      -3.983
      -4.232
      -4.253
      -4.111
      -3.791
      -3.234
      -2.462
      -1.614
      -0.854
      -0.241
       0.299
       0.859
       1.441
       1.948
       2.294
       2.505
       2.713
       3.034
       3.447
       3.779
       3.823
       3.491
       2.863
       2.100
       1.336
       0.636
       0.056
      -0.318
      -0.393
      -0.160
       0.283
       0.786
       1.236
       1.600
