Origin Time       11/5/2012 18:41:28	 UTC
Lat.              26.6 N	
Long.             93.0 E	
Depth (Km)         20.0
Magnitude         5.4
 Region           Assam                                                            
 Above details taken from IMD 
    
Station Code      GOL
Station Lat.       26.516  N
Station Long.      93.972  E
Station Height(m)   93.0
Site Class        B   Vs30 between 375 m/sec to 700 m/sec *  
Record Time       11.05.2012 12:41:51.184 UTC
Sampling Rate     200. Hz
 Record Duration   66.690 Sec.
 Direction         N-S (N positive)
Max. Acceleration     14.556 cm/sec**2
     
  * For reference see Site Classification link of website 
     
 Base Line Corrected and Low Pass Filtered (Cut Off at 35 Hz) Time History
 Acceleration data in cm/sec**2
    
[...]
      -0.536
      -0.042
       0.534
       0.859
       0.782
       0.430
       0.096
       0.021
       0.253
       0.650
       0.999
       1.136
       1.001
       0.640
       0.163
      -0.305
      -0.670
      -0.886
      -0.937
      -0.838
      -0.634
      -0.410
      -0.260
      -0.246
      -0.357
      -0.496
      -0.538
      -0.408
      -0.143
       0.119
       0.221
       0.093
      -0.195
      -0.483
      -0.619
      -0.540
      -0.296
      -0.009
       0.214
       0.349
       0.444
       0.539
       0.612
       0.611
       0.531
       0.440
       0.429
       0.521
       0.636
       0.641
       0.463
       0.151
      -0.158
      -0.343
      -0.371
      -0.288
      -0.140
       0.057
       0.275
       0.439
       0.465
       0.331
       0.090
      -0.173
      -0.398
      -0.550
      -0.589
      -0.475
      -0.210
       0.120
       0.368
       0.426
       0.307
       0.127
      -0.003
      -0.072
      -0.156
      -0.292
      -0.389
      -0.297
       0.017
       0.379
       0.537
       0.375
       0.003
      -0.350
      -0.533
      -0.556
      -0.515
      -0.468
      -0.380
      -0.195
       0.067
       0.308
       0.448
       0.501
       0.525
       0.536
       0.498
       0.406
       0.319
       0.292
       0.286
       0.184
      -0.079
      -0.421
      -0.649
      -0.621
      -0.367
      -0.076
       0.061
      -0.003
      -0.139
      -0.172
      -0.037
       0.182
       0.345
       0.363
       0.219
      -0.059
      -0.393
      -0.643
      -0.666
      -0.434
      -0.085
       0.181
       0.274
       0.269
       0.289
       0.356
       0.365
       0.216
      -0.044
      -0.229
      -0.175
       0.094
       0.354
       0.362
       0.067
      -0.330
      -0.562
      -0.524
      -0.331
      -0.176
      -0.160
      -0.261
      -0.427
      -0.629
      -0.821
      -0.888
      -0.697
      -0.221
       0.386
       0.862
       0.995
       0.761
       0.335
      -0.015
      -0.103
       0.056
       0.283
       0.401
       0.365
       0.259
       0.186
       0.187
       0.232
       0.260
       0.234
       0.177
       0.155
       0.210
       0.307
       0.350
       0.262
       0.063
      -0.138
      -0.227
      -0.165
      -0.001
       0.158
       0.223
       0.195
       0.160
       0.196
       0.282
       0.310
       0.200
      -0.016
      -0.224
      -0.330
      -0.319
      -0.252
      -0.212
      -0.233
      -0.269
      -0.237
      -0.111
       0.045
       0.131
       0.107
       0.030
      -0.020
      -0.024
      -0.038
      -0.141
      -0.368
      -0.696
      -1.046
      -1.309
      -1.378
      -1.183
      -0.712
      -0.032
       0.673
       1.138
       1.153
       0.726
       0.106
      -0.392
      -0.593
      -0.526
      -0.311
      -0.035
       0.270
       0.571
       0.802
       0.884
       0.798
       0.605
       0.407
       0.272
       0.212
       0.214
       0.268
       0.352
       0.392
       0.289
       0.023
      -0.284
      -0.454
      -0.425
      -0.323
      -0.334
      -0.519
      -0.765
      -0.887
      -0.773
      -0.459
      -0.093
       0.174
       0.280
       0.277
       0.258
       0.251
       0.178
      -0.063
      -0.444
      -0.767
      -0.798
      -0.474
       0.015
       0.357
       0.351
       0.056
      -0.269
      -0.380
      -0.234
       0.020
       0.207
       0.264
       0.246
       0.203
       0.130
       0.004
      -0.166
      -0.352
      -0.522
      -0.630
      -0.592
      -0.322
       0.180
       0.766
       1.184
       1.221
       0.857
       0.280
      -0.230
      -0.488
      -0.495
      -0.386
      -0.286
      -0.228
      -0.188
      -0.177
      -0.235
      -0.347
      -0.411
      -0.341
      -0.173
      -0.033
       0.008
       0.012
       0.095
       0.301
       0.557
       0.773
       0.927
       1.062
       1.178
       1.155
       0.828
       0.172
      -0.581
      -1.056
      -1.035
      -0.631
      -0.176
       0.089
       0.180
       0.250
       0.355
       0.374
       0.158
      -0.283
      -0.757
      -1.035
      -1.017
      -0.756
      -0.368
       0.044
       0.403
       0.644
       0.744
       0.765
       0.829
       1.004
       1.221
       1.321
       1.195
       0.856
       0.397
      -0.070
      -0.456
      -0.691
      -0.734
      -0.596
      -0.361
      -0.164
      -0.118
      -0.248
      -0.480
      -0.702
      -0.823
      -0.798
      -0.615
      -0.288
       0.103
       0.405
       0.474
       0.282
      -0.046
      -0.341
      -0.507
      -0.537
      -0.441
      -0.217
       0.100
       0.401
       0.568
       0.568
       0.492
       0.468
       0.529
       0.551
       0.366
      -0.049
      -0.494
      -0.694
      -0.537
      -0.165
       0.163
       0.278
       0.183
      -0.034
      -0.309
      -0.595
      -0.804
      -0.826
      -0.621
      -0.282
       0.026
       0.194
       0.251
       0.316
       0.448
       0.541
       0.404
      -0.018
      -0.531
      -0.825
      -0.716
      -0.272
       0.278
       0.712
       0.912
       0.869
       0.654
       0.397
       0.227
       0.192
       0.221
       0.208
       0.114
      -0.009
      -0.104
      -0.169
      -0.241
      -0.315
      -0.338
      -0.275
      -0.179
      -0.142
      -0.169
      -0.124
       0.148
       0.620
       1.037
       1.098
       0.720
       0.121
      -0.365
      -0.539
      -0.456
      -0.323
      -0.318
      -0.474
      -0.692
      -0.834
      -0.824
      -0.695
      -0.553
      -0.499
      -0.556
      -0.639
      -0.593
      -0.315
       0.141
       0.573
       0.786
       0.771
       0.714
       0.782
       0.917
       0.870
       0.451
      -0.259
      -0.939
      -1.263
      -1.133
      -0.723
      -0.326
      -0.143
      -0.152
      -0.170
      -0.023
       0.294
       0.613
       0.749
       0.669
       0.504
       0.414
       0.441
       0.488
       0.438
       0.275
       0.094
      -0.027
      -0.121
      -0.285
      -0.528
      -0.700
      -0.620
      -0.265
       0.196
       0.554
       0.711
       0.703
       0.579
       0.324
      -0.104
      -0.648
      -1.120
      -1.331
      -1.273
      -1.132
      -1.082
      -1.081
      -0.900
      -0.398
       0.282
       0.796
       0.909
       0.683
       0.373
       0.170
       0.064
      -0.021
      -0.043
       0.150
       0.620
       1.172
       1.455
       1.249
       0.658
       0.001
      -0.473
      -0.731
      -0.842
      -0.780
      -0.437
       0.172
       0.779
       1.019
       0.744
       0.185
      -0.224
      -0.194
       0.183
       0.516
       0.445
      -0.076
      -0.766
      -1.235
      -1.230
      -0.731
       0.080
       0.901
       1.409
       1.412
       0.972
       0.382
      -0.038
      -0.161
      -0.103
      -0.078
      -0.193
      -0.372
      -0.460
      -0.386
      -0.224
      -0.097
      -0.043
       0.005
       0.100
       0.183
       0.135
      -0.091
      -0.406
      -0.648
      -0.710
      -0.612
      -0.469
      -0.380
      -0.362
      -0.373
      -0.379
      -0.388
      -0.407
      -0.410
      -0.364
      -0.291
      -0.267
      -0.330
      -0.404
      -0.345
      -0.106
       0.175
       0.272
       0.087
      -0.232
      -0.398
      -0.231
       0.181
       0.580
       0.798
       0.898
       1.059
       1.330
       1.526
       1.406
       0.927
       0.319
      -0.122
      -0.299
      -0.341
      -0.394
      -0.430
      -0.306
      -0.007
       0.253
       0.219
      -0.114
      -0.461
      -0.502
      -0.172
       0.315
       0.685
       0.820
       0.791
       0.701
       0.567
       0.359
       0.121
      -0.005
       0.074
       0.277
       0.413
       0.378
       0.275
       0.316
       0.611
       1.049
       1.412
       1.557
       1.493
       1.302
       1.074
       0.922
       0.983
       1.303
       1.725
       1.931
       1.660
       0.910
      -0.051
      -0.863
      -1.302
      -1.393
      -1.327
      -1.259
      -1.171
      -0.925
      -0.458
       0.091
       0.435
       0.338
      -0.185
      -0.842
      -1.256
      -1.222
      -0.836
      -0.391
      -0.133
      -0.085
      -0.093
      -0.023
       0.088
       0.102
      -0.018
      -0.105
       0.079
       0.587
       1.179
       1.498
       1.374
       0.955
       0.554
       0.376
       0.395
       0.446
       0.406
       0.270
       0.104
      -0.033
      -0.110
      -0.120
      -0.071
      -0.014
      -0.041
      -0.248
      -0.680
      -1.294
      -1.989
      -2.650
      -3.173
      -3.424
      -3.246
      -2.567
      -1.531
      -0.473
       0.277
       0.602
       0.631
       0.589
       0.615
       0.704
       0.780
       0.800
       0.799
       0.799
       0.718
       0.414
      -0.133
      -0.719
      -1.029
      -0.896
      -0.434
       0.085
       0.453
       0.626
       0.660
       0.611
       0.509
       0.381
       0.263
       0.196
       0.187
       0.171
       0.030
      -0.304
      -0.748
      -1.099
      -1.177
      -0.948
      -0.495
       0.078
       0.696
       1.297
       1.802
       2.129
       2.244
       2.202
       2.116
       2.042
       1.893
       1.516
       0.886
       0.202
      -0.265
      -0.437
      -0.511
      -0.750
      -1.200
      -1.625
      -1.730
      -1.479
      -1.155
      -1.106
      -1.394
      -1.701
      -1.597
      -0.920
       0.100
       1.067
       1.760
       2.243
       2.662
       2.978
       2.967
       2.469
       1.599
       0.661
      -0.125
      -0.795
      -1.540
      -2.455
      -3.409
      -4.159
      -4.540
      -4.516
      -4.090
      -3.255
      -2.046
      -0.606
       0.863
       2.217
       3.418
       4.463
       5.264
       5.644
       5.483
       4.869
       4.032
       3.100
       1.976
       0.504
      -1.248
      -2.912
      -4.056
      -4.489
      -4.328
      -3.771
      -2.869
      -1.590
      -0.088
       1.183
       1.705
       1.280
       0.188
      -1.061
      -2.116
      -2.945
      -3.625
      -4.070
      -4.030
      -3.352
      -2.162
      -0.774
       0.548
       1.735
       2.855
       3.959
       4.970
       5.728
       6.122
       6.166
       5.919
       5.382
       4.514
       3.366
       2.144
       1.076
       0.193
      -0.741
      -2.032
      -3.795
      -5.843
      -7.794
      -9.269
     -10.004
      -9.851
      -8.736
      -6.706
      -4.029
      -1.213
       1.194
       2.896
       4.003
       4.899
       5.926
       7.160
       8.433
       9.492
      10.087
       9.926
       8.699
       6.234
       2.682
      -1.458
      -5.520
      -8.919
     -11.310
     -12.561
     -12.629
     -11.489
      -9.212
      -6.098
      -2.688
       0.438
       2.940
       4.830
       6.298
       7.419
       8.027
       7.868
       6.852
       5.159
       3.129
       1.040
      -1.035
      -3.164
      -5.333
      -7.268
      -8.480
      -8.544
      -7.347
      -5.136
      -2.379
       0.407
       2.774
       4.424
       5.275
       5.464
       5.227
       4.734
       4.019
       3.049
       1.813
       0.355
      -1.223
      -2.739
      -3.902
      -4.338
      -3.731
      -2.001
       0.549
       3.276
       5.418
       6.419
       6.174
       5.010
       3.414
       1.726
       0.041
      -1.653
      -3.282
      -4.666
      -5.648
      -6.240
      -6.620
      -6.959
      -7.209
      -7.085
      -6.294
      -4.830
      -3.025
      -1.310
       0.074
       1.150
       2.075
       2.979
       3.927
       4.919
       5.862
       6.513
       6.568
       5.885
       4.665
       3.347
       2.258
       1.344
       0.232
      -1.429
      -3.644
      -6.012
      -7.968
      -9.098
      -9.304
      -8.739
      -7.626
      -6.126
      -4.312
      -2.244
      -0.045
       2.108
       4.070
       5.808
       7.379
       8.811
       9.981
      10.601
      10.349
       9.047
       6.762
       3.731
       0.210
      -3.595
      -7.403
     -10.681
     -12.623
     -12.454
      -9.910
      -5.518
      -0.403
       4.272
       7.786
       9.932
      10.731
      10.174
       8.276
       5.320
       1.950
      -1.052
      -3.155
      -4.324
      -4.955
      -5.551
      -6.399
      -7.433
      -8.312
      -8.576
      -7.837
      -5.960
      -3.140
       0.192
       3.540
       6.411
       8.304
       8.777
       7.674
       5.309
       2.402
      -0.242
      -2.069
      -2.902
      -2.832
      -2.023
      -0.618
       1.185
       2.998
       4.250
       4.413
       3.307
       1.243
      -1.115
      -3.022
      -3.917
      -3.582
      -2.191
      -0.249
       1.575
       2.639
       2.489
       0.980
      -1.610
      -4.545
      -6.806
      -7.498
      -6.311
      -3.749
      -0.923
       1.010
       1.461
       0.660
      -0.585
      -1.401
      -1.212
       0.225
       2.887
       6.443
      10.198
      13.198
      14.556
      13.780
      10.911
       6.433
       1.137
      -4.026
      -8.136
     -10.584
     -11.302
     -10.769
      -9.772
      -8.969
      -8.495
      -7.852
      -6.285
      -3.403
       0.452
       4.395
       7.550
       9.442
       9.997
       9.342
       7.731
       5.582
       3.416
       1.617
       0.203
      -1.145
      -2.755
      -4.573
      -6.075
      -6.620
      -5.978
      -4.538
      -2.981
      -1.722
      -0.645
       0.650
       2.389
       4.374
       6.112
       7.107
       7.054
       5.886
       3.737
       0.892
      -2.264
      -5.256
      -7.500
      -8.356
      -7.351
      -4.481
      -0.365
       3.875
       6.988
       8.034
       6.739
       3.607
      -0.273
      -3.649
      -5.574
      -5.710
      -4.387
      -2.389
      -0.588
       0.439
       0.601
       0.209
      -0.291
      -0.562
      -0.451
       0.036
       0.750
       1.402
       1.653
       1.313
       0.502
      -0.386
      -0.908
      -0.831
      -0.269
       0.384
       0.704
       0.532
       0.107
      -0.108
       0.227
       1.079
       2.058
       2.643
       2.477
       1.559
       0.244
      -0.969
      -1.756
      -2.185
      -2.615
      -3.336
      -4.224
      -4.780
      -4.534
      -3.474
      -2.080
      -0.922
      -0.186
       0.451
       1.493
       3.186
       5.318
       7.341
       8.646
       8.794
       7.613
       5.205
       1.941
      -1.584
      -4.682
      -6.808
      -7.749
      -7.635
      -6.809
      -5.661
      -4.516
      -3.525
      -2.571
      -1.296
       0.648
       3.237
       5.885
       7.661
       7.825
       6.302
       3.758
       1.207
      -0.573
      -1.383
      -1.510
      -1.338
      -1.076
      -0.803
      -0.620
      -0.643
      -0.832
      -0.915
      -0.561
       0.353
       1.639
       2.914
       3.800
       4.028
       3.457
       2.114
       0.276
      -1.520
      -2.695
      -3.015
      -2.844
      -2.908
      -3.647
      -4.711
      -5.112
      -3.987
      -1.345
       1.836
       4.228
       4.941
       3.922
       1.800
      -0.545
      -2.359
      -3.192
      -2.959
      -1.927
      -0.598
       0.534
       1.239
       1.585
       1.744
       1.760
       1.521
       0.959
       0.230
      -0.358
      -0.626
      -0.700
      -0.834
      -1.079
      -1.164
      -0.745
       0.275
       1.685
       3.185
       4.573
       5.686
       6.236
       5.858
       4.407
       2.194
      -0.176
      -2.205
      -3.756
      -4.921
      -5.702
      -5.857
      -5.094
      -3.458
      -1.515
      -0.109
       0.165
      -0.643
      -1.885
      -2.727
      -2.609
      -1.469
       0.292
       2.035
       3.189
       3.534
       3.292
       2.898
       2.619
       2.362
       1.813
       0.785
      -0.534
      -1.627
      -1.983
      -1.453
      -0.335
       0.831
       1.597
       1.798
       1.513
       0.883
      -0.023
      -1.181
      -2.517
      -3.873
      -5.063
      -5.902
      -6.184
      -5.665
      -4.172
      -1.815
       0.874
       3.041
       3.899
       3.222
       1.602
       0.167
      -0.118
       0.935
       2.731
       4.403
       5.333
       5.272
       4.182
       2.146
      -0.538
      -3.270
      -5.318
      -6.171
      -5.747
      -4.298
      -2.180
       0.257
       2.606
       4.363
       5.068
       4.562
       3.146
       1.438
       0.034
      -0.734
      -0.791
      -0.246
       0.613
       1.313
       1.387
       0.712
      -0.323
      -1.066
      -1.123
      -0.645
      -0.142
      -0.022
      -0.327
      -0.847
      -1.383
      -1.865
      -2.246
      -2.381
      -2.085
      -1.308
      -0.243
       0.817
       1.732
       2.577
       3.401
       3.958
       3.788
       2.648
       0.851
      -0.857
      -1.780
      -1.688
      -0.861
       0.169
       0.912
       1.086
       0.665
      -0.116
      -0.836
      -1.071
      -0.626
       0.351
       1.449
       2.192
       2.229
       1.440
      -0.052
      -1.915
      -3.680
      -4.874
      -5.222
      -4.798
      -3.970
      -3.120
      -2.345
      -1.387
       0.107
       2.199
       4.445
       6.023
       6.135
       4.462
       1.438
      -1.864
      -4.184
      -4.656
      -3.190
      -0.498
       2.232
       3.860
       3.782
       2.171
      -0.160
      -2.182
      -3.153
      -2.933
      -1.974
      -0.975
      -0.455
      -0.499
      -0.866
      -1.279
      -1.611
      -1.810
      -1.717
      -1.062
       0.305
       2.185
       4.074
       5.438
       5.936
       5.402
       3.751
       1.067
      -2.176
      -5.121
      -6.899
      -7.080
      -5.850
      -3.803
      -1.571
       0.445
       2.073
       3.164
       3.491
       2.955
       1.859
       0.876
       0.596
       1.070
       1.775
       2.037
       1.504
       0.295
      -1.163
      -2.378
      -2.935
      -2.600
      -1.438
       0.120
       1.431
       1.970
       1.655
       0.887
       0.254
       0.091
       0.256
       0.341
       0.067
      -0.504
      -1.115
      -1.571
      -1.822
      -1.884
      -1.737
      -1.346
      -0.739
      -0.048
       0.540
       0.907
       1.075
       1.173
       1.349
       1.679
       2.129
       2.528
       2.604
       2.111
       1.040
      -0.259
      -1.211
      -1.384
      -0.821
      -0.016
       0.490
       0.527
       0.351
       0.304
       0.472
       0.653
       0.613
       0.305
      -0.134
      -0.549
      -0.895
      -1.228
      -1.596
      -1.938
      -2.069
      -1.760
