Origin Time       29/12/2009 09:01:42
Lat.              24.5°N	
Long.             94.8°E	
Depth (Km)         80.0
Magnitude         5.5
 Region           MYANMAR-INDIA(MANIPUR)-BORDER                                    
 Above details taken from IMD 
     
Station Code      GOL
Station Lat.       26.152  N
Station Long.      90.627  E
Station Height(m)   56.0
Site Class        C   Vs30 between 200 m/sec to 375 m/sec *  
Record Time       29.12.2009 09:03:23.589
Sampling Rate     200. Hz
 Record Duration   70.055 Sec.
 Direction         E-W (E positive)
Max. Acceleration     -7.920 cm/sec**2
     
  * For reference see Site Classification link of website 
     
 Base Line Corrected and Low Pass Filtered (Cut Off at 35 Hz) Time History
 Acceleration data in cm/sec**2
    
[...]
       0.114
       0.185
       0.238
       0.274
       0.282
       0.251
       0.185
       0.106
       0.046
       0.033
       0.072
       0.144
       0.213
       0.243
       0.214
       0.126
       0.000
      -0.127
      -0.220
      -0.259
      -0.257
      -0.251
      -0.273
      -0.319
      -0.349
      -0.314
      -0.201
      -0.042
       0.103
       0.190
       0.203
       0.155
       0.069
      -0.027
      -0.111
      -0.171
      -0.220
      -0.285
      -0.386
      -0.518
      -0.647
      -0.725
      -0.724
      -0.649
      -0.536
      -0.434
      -0.379
      -0.372
      -0.381
      -0.362
      -0.291
      -0.185
      -0.089
      -0.040
      -0.040
      -0.061
      -0.071
      -0.051
       0.002
       0.084
       0.180
       0.272
       0.339
       0.362
       0.337
       0.271
       0.192
       0.135
       0.130
       0.184
       0.272
       0.350
       0.378
       0.340
       0.258
       0.180
       0.146
       0.161
       0.201
       0.238
       0.257
       0.254
       0.219
       0.131
      -0.019
      -0.211
      -0.393
      -0.516
      -0.555
      -0.517
      -0.428
      -0.314
      -0.201
      -0.111
      -0.063
      -0.070
      -0.123
      -0.190
      -0.222
      -0.189
      -0.095
       0.019
       0.107
       0.154
       0.181
       0.222
       0.295
       0.391
       0.482
       0.547
       0.581
       0.595
       0.592
       0.570
       0.512
       0.406
       0.253
       0.082
      -0.057
      -0.120
      -0.101
      -0.035
       0.018
       0.013
      -0.057
      -0.163
      -0.265
      -0.327
      -0.331
      -0.286
      -0.219
      -0.164
      -0.145
      -0.162
      -0.204
      -0.252
      -0.285
      -0.285
      -0.235
      -0.143
      -0.038
       0.042
       0.074
       0.060
       0.012
      -0.057
      -0.143
      -0.245
      -0.353
      -0.448
      -0.504
      -0.499
      -0.429
      -0.313
      -0.181
      -0.056
       0.060
       0.175
       0.296
       0.419
       0.529
       0.617
       0.683
       0.730
       0.758
       0.753
       0.705
       0.619
       0.519
       0.433
       0.372
       0.321
       0.252
       0.148
       0.012
      -0.129
      -0.239
      -0.278
      -0.224
      -0.083
       0.098
       0.247
       0.304
       0.249
       0.116
      -0.034
      -0.144
      -0.188
      -0.174
      -0.127
      -0.074
      -0.032
      -0.004
       0.012
       0.012
      -0.008
      -0.053
      -0.105
      -0.127
      -0.084
       0.030
       0.183
       0.323
       0.418
       0.471
       0.504
       0.532
       0.542
       0.492
       0.350
       0.121
      -0.136
      -0.339
      -0.430
      -0.406
      -0.314
      -0.213
      -0.139
      -0.101
      -0.087
      -0.081
      -0.064
      -0.021
       0.046
       0.111
       0.131
       0.081
      -0.027
      -0.146
      -0.229
      -0.250
      -0.208
      -0.124
      -0.035
       0.016
      -0.009
      -0.118
      -0.288
      -0.468
      -0.605
      -0.661
      -0.628
      -0.526
      -0.385
      -0.234
      -0.088
       0.045
       0.159
       0.247
       0.301
       0.321
       0.310
       0.271
       0.200
       0.095
      -0.038
      -0.179
      -0.301
      -0.378
      -0.405
      -0.399
      -0.385
      -0.380
      -0.388
      -0.402
      -0.409
      -0.396
      -0.356
      -0.286
      -0.195
      -0.101
      -0.026
       0.017
       0.029
       0.026
       0.027
       0.037
       0.048
       0.043
       0.022
       0.009
       0.039
       0.119
       0.212
       0.255
       0.211
       0.113
       0.043
       0.071
       0.200
       0.365
       0.480
       0.492
       0.400
       0.249
       0.098
       0.001
      -0.020
       0.024
       0.091
       0.136
       0.127
       0.065
      -0.027
      -0.108
      -0.146
      -0.142
      -0.131
      -0.156
      -0.238
      -0.351
      -0.453
      -0.508
      -0.502
      -0.437
      -0.321
      -0.167
      -0.005
       0.125
       0.194
       0.208
       0.192
       0.172
       0.157
       0.147
       0.148
       0.183
       0.281
       0.448
       0.644
       0.784
       0.777
       0.582
       0.243
      -0.129
      -0.414
      -0.546
      -0.530
      -0.426
      -0.315
      -0.256
      -0.269
      -0.333
      -0.407
      -0.450
      -0.433
      -0.340
      -0.168
       0.062
       0.304
       0.495
       0.578
       0.529
       0.370
       0.165
      -0.003
      -0.070
      -0.023
       0.099
       0.225
       0.287
       0.251
       0.130
      -0.025
      -0.144
      -0.175
      -0.120
      -0.036
       0.006
      -0.029
      -0.111
      -0.177
      -0.182
      -0.132
      -0.064
      -0.020
      -0.020
      -0.059
      -0.121
      -0.185
      -0.236
      -0.261
      -0.250
      -0.202
      -0.126
      -0.035
       0.052
       0.125
       0.184
       0.236
       0.287
       0.336
       0.370
       0.374
       0.338
       0.274
       0.217
       0.208
       0.266
       0.377
       0.499
       0.587
       0.611
       0.555
       0.417
       0.216
      -0.005
      -0.185
      -0.269
      -0.238
      -0.120
       0.030
       0.154
       0.221
       0.232
       0.216
       0.208
       0.231
       0.285
       0.353
       0.409
       0.423
       0.372
       0.239
       0.033
      -0.199
      -0.386
      -0.475
      -0.464
      -0.400
      -0.342
      -0.316
      -0.309
      -0.292
      -0.251
      -0.197
      -0.155
      -0.143
      -0.161
      -0.204
      -0.267
      -0.337
      -0.390
      -0.393
      -0.331
      -0.218
      -0.106
      -0.051
      -0.076
      -0.164
      -0.258
      -0.303
      -0.266
      -0.155
      -0.018
       0.083
       0.094
      -0.005
      -0.191
      -0.411
      -0.591
      -0.660
      -0.574
      -0.342
      -0.031
       0.259
       0.436
       0.460
       0.359
       0.216
       0.127
       0.150
       0.279
       0.447
       0.566
       0.575
       0.473
       0.320
       0.200
       0.176
       0.252
       0.376
       0.476
       0.505
       0.464
       0.390
       0.328
       0.298
       0.292
       0.293
       0.289
       0.274
       0.236
       0.155
       0.016
      -0.167
      -0.354
      -0.492
      -0.540
      -0.490
      -0.368
      -0.213
      -0.060
       0.065
       0.149
       0.183
       0.170
       0.118
       0.039
      -0.062
      -0.189
      -0.341
      -0.498
      -0.620
      -0.666
      -0.624
      -0.517
      -0.399
      -0.317
      -0.293
      -0.322
      -0.384
      -0.454
      -0.512
      -0.539
      -0.523
      -0.475
      -0.421
      -0.393
      -0.406
      -0.447
      -0.488
      -0.510
      -0.512
      -0.509
      -0.505
      -0.484
      -0.421
      -0.308
      -0.170
      -0.051
       0.012
       0.006
      -0.055
      -0.142
      -0.222
      -0.267
      -0.262
      -0.201
      -0.095
       0.035
       0.164
       0.275
       0.379
       0.517
       0.724
       0.996
       1.258
       1.403
       1.349
       1.098
       0.725
       0.340
       0.030
      -0.168
      -0.259
      -0.272
      -0.239
      -0.188
      -0.131
      -0.060
       0.048
       0.215
       0.441
       0.690
       0.892
       0.978
       0.913
       0.714
       0.437
       0.146
      -0.110
      -0.305
      -0.431
      -0.495
      -0.516
      -0.506
      -0.465
      -0.377
      -0.213
       0.060
       0.445
       0.894
       1.302
       1.551
       1.571
       1.374
       1.041
       0.672
       0.348
       0.112
      -0.025
      -0.085
      -0.121
      -0.198
      -0.357
      -0.578
      -0.794
      -0.922
      -0.896
      -0.695
      -0.341
       0.100
       0.537
       0.891
       1.120
       1.233
       1.274
       1.290
       1.302
       1.282
       1.160
       0.854
       0.332
      -0.347
      -1.043
      -1.602
      -1.935
      -2.053
      -2.048
      -2.025
      -2.042
      -2.095
      -2.141
      -2.139
      -2.076
      -1.971
      -1.861
      -1.783
      -1.768
      -1.824
      -1.929
      -2.021
      -2.014
      -1.826
      -1.418
      -0.813
      -0.087
       0.661
       1.340
       1.888
       2.278
       2.514
       2.613
       2.581
       2.410
       2.088
       1.618
       1.042
       0.437
      -0.103
      -0.492
      -0.680
      -0.654
      -0.439
      -0.089
       0.313
       0.675
       0.925
       1.043
       1.052
       0.987
       0.866
       0.696
       0.485
       0.251
       0.022
      -0.178
      -0.328
      -0.404
      -0.382
      -0.241
       0.014
       0.341
       0.669
       0.934
       1.108
       1.211
       1.294
       1.404
       1.558
       1.723
       1.841
       1.852
       1.734
       1.515
       1.261
       1.050
       0.934
       0.906
       0.898
       0.820
       0.599
       0.214
      -0.308
      -0.901
      -1.465
      -1.903
      -2.157
      -2.235
      -2.206
      -2.145
      -2.085
      -1.998
      -1.820
      -1.498
      -1.031
      -0.481
       0.057
       0.509
       0.863
       1.158
       1.429
       1.657
       1.772
       1.711
       1.463
       1.072
       0.586
       0.030
      -0.592
      -1.263
      -1.927
      -2.507
      -2.934
      -3.177
      -3.241
      -3.139
      -2.865
      -2.383
      -1.665
      -0.728
       0.332
       1.359
       2.189
       2.710
       2.903
       2.831
       2.596
       2.281
       1.916
       1.491
       0.986
       0.399
      -0.241
      -0.883
      -1.475
      -1.977
      -2.375
      -2.665
      -2.840
      -2.885
      -2.785
      -2.556
      -2.252
      -1.936
      -1.645
      -1.371
      -1.065
      -0.668
      -0.149
       0.468
       1.109
       1.677
       2.116
       2.444
       2.729
       3.028
       3.322
       3.502
       3.424
       2.988
       2.193
       1.153
       0.058
      -0.888
      -1.529
      -1.805
      -1.747
      -1.453
      -1.040
      -0.605
      -0.217
       0.088
       0.301
       0.435
       0.513
       0.551
       0.535
       0.420
       0.157
      -0.275
      -0.851
      -1.510
      -2.182
      -2.800
      -3.299
      -3.595
      -3.595
      -3.221
      -2.469
      -1.439
      -0.316
       0.698
       1.469
       1.970
       2.257
       2.415
       2.499
       2.519
       2.462
       2.319
       2.094
       1.793
       1.407
       0.915
       0.308
      -0.371
      -1.002
      -1.407
      -1.428
      -1.020
      -0.300
       0.494
       1.116
       1.425
       1.432
       1.276
       1.139
       1.169
       1.425
       1.864
       2.354
       2.712
       2.767
       2.425
       1.705
       0.729
      -0.318
      -1.264
      -1.999
      -2.513
      -2.864
      -3.119
      -3.286
      -3.315
      -3.147
      -2.779
      -2.275
      -1.717
      -1.156
      -0.588
       0.001
       0.591
       1.119
       1.517
       1.763
       1.894
       1.970
       2.029
       2.069
       2.061
       1.983
       1.840
       1.675
       1.550
       1.513
       1.553
       1.596
       1.539
       1.310
       0.893
       0.318
      -0.372
      -1.138
      -1.934
      -2.704
      -3.372
      -3.849
      -4.056
      -3.942
      -3.503
      -2.795
      -1.932
      -1.074
      -0.379
       0.048
       0.195
       0.149
       0.041
      -0.028
      -0.041
      -0.066
      -0.181
      -0.404
      -0.651
      -0.779
      -0.664
      -0.269
       0.335
       1.010
       1.618
       2.065
       2.325
       2.423
       2.405
       2.313
       2.160
       1.954
       1.716
       1.494
       1.328
       1.199
       1.031
       0.738
       0.289
      -0.255
      -0.776
      -1.152
      -1.317
      -1.277
      -1.094
      -0.865
      -0.692
      -0.656
      -0.786
      -1.047
      -1.344
      -1.564
      -1.622
      -1.497
      -1.208
      -0.789
      -0.260
       0.361
       1.056
       1.798
       2.546
       3.242
       3.802
       4.128
       4.130
       3.760
       3.027
       2.012
       0.846
      -0.317
      -1.344
      -2.158
      -2.752
      -3.169
      -3.454
      -3.630
      -3.694
      -3.628
      -3.405
      -2.992
      -2.365
      -1.536
      -0.586
       0.333
       1.046
       1.430
       1.488
       1.350
       1.219
       1.256
       1.489
       1.789
       1.928
       1.714
       1.091
       0.171
      -0.832
      -1.689
      -2.242
      -2.450
      -2.396
      -2.236
      -2.102
      -2.019
      -1.909
      -1.674
      -1.292
      -0.841
      -0.433
      -0.149
      -0.019
      -0.056
      -0.272
      -0.656
      -1.127
      -1.540
      -1.733
      -1.606
      -1.158
      -0.480
       0.300
       1.065
       1.745
       2.327
       2.858
       3.424
       4.107
       4.919
       5.766
       6.470
       6.845
       6.783
       6.308
       5.540
       4.625
       3.648
       2.616
       1.486
       0.232
      -1.134
      -2.553
      -3.951
      -5.251
      -6.382
      -7.266
      -7.811
      -7.920
      -7.527
      -6.640
      -5.354
      -3.813
      -2.148
      -0.428
       1.313
       3.017
       4.541
       5.669
       6.182
       5.972
       5.111
       3.856
       2.550
       1.477
       0.729
       0.168
      -0.477
      -1.434
      -2.727
      -4.160
      -5.431
      -6.299
      -6.673
      -6.599
      -6.176
      -5.486
      -4.569
      -3.441
      -2.110
      -0.614
       0.962
       2.479
       3.764
       4.636
       4.956
       4.673
       3.861
       2.715
       1.485
       0.398
      -0.396
      -0.830
      -0.916
      -0.737
      -0.423
      -0.116
       0.103
       0.238
       0.369
       0.588
       0.932
       1.348
       1.711
       1.871
       1.721
       1.238
       0.507
      -0.291
      -0.941
      -1.263
      -1.199
      -0.841
      -0.404
      -0.127
      -0.149
      -0.421
      -0.726
      -0.799
      -0.484
       0.171
       0.942
       1.551
       1.815
       1.702
       1.315
       0.812
       0.341
      -0.003
      -0.197
      -0.290
      -0.368
      -0.498
      -0.690
      -0.890
      -1.021
      -1.022
      -0.877
      -0.598
      -0.188
       0.368
       1.078
       1.893
       2.696
       3.360
       3.820
       4.113
       4.346
       4.605
       4.878
       5.045
       4.946
       4.471
       3.622
       2.497
       1.249
       0.023
      -1.087
      -2.047
      -2.857
      -3.510
      -3.973
      -4.211
      -4.238
      -4.126
      -3.954
      -3.732
      -3.383
      -2.824
      -2.074
      -1.318
      -0.849
      -0.903
      -1.493
      -2.343
      -2.992
      -3.036
      -2.355
      -1.186
       0.015
       0.834
       1.104
       0.933
       0.580
       0.283
       0.153
       0.179
       0.284
       0.395
       0.472
       0.514
       0.542
       0.588
       0.671
       0.786
       0.889
       0.912
       0.795
       0.508
       0.068
      -0.470
      -1.032
      -1.535
      -1.908
      -2.108
      -2.139
      -2.033
      -1.812
      -1.453
      -0.905
      -0.159
       0.703
       1.525
       2.153
       2.519
       2.662
       2.675
       2.632
       2.536
       2.321
       1.911
       1.296
       0.595
       0.021
      -0.232
      -0.123
       0.210
       0.545
       0.733
       0.780
       0.795
       0.863
       0.968
       1.008
       0.880
       0.550
       0.061
      -0.503
      -1.072
      -1.613
      -2.119
      -2.590
      -2.996
      -3.273
      -3.342
      -3.144
      -2.672
      -1.964
      -1.074
      -0.055
       1.032
       2.097
       3.020
       3.675
       3.974
       3.902
       3.506
       2.871
       2.090
       1.239
       0.375
      -0.451
      -1.171
      -1.681
      -1.847
      -1.568
      -0.848
       0.156
       1.170
       1.892
       2.103
       1.721
       0.799
      -0.510
      -1.992
      -3.414
      -4.565
      -5.295
      -5.543
      -5.345
      -4.795
      -4.005
      -3.054
      -1.981
      -0.803
       0.442
       1.680
       2.819
       3.779
       4.512
       4.970
       5.077
       4.743
       3.927
       2.715
       1.327
       0.048
      -0.890
      -1.386
      -1.477
      -1.289
      -0.971
      -0.648
      -0.389
      -0.202
      -0.057
       0.047
       0.054
      -0.118
      -0.497
      -0.982
      -1.366
      -1.444
      -1.130
      -0.510
       0.209
       0.822
       1.228
       1.455
       1.609
       1.766
       1.898
       1.885
       1.604
       1.028
       0.234
      -0.665
      -1.579
      -2.455
      -3.234
      -3.823
      -4.099
      -3.966
      -3.415
      -2.553
      -1.563
      -0.615
       0.221
       0.971
       1.670
       2.242
       2.484
       2.175
       1.240
      -0.153
      -1.656
      -2.908
      -3.702
      -4.025
      -3.968
      -3.593
      -2.873
      -1.740
      -0.200
       1.585
       3.310
       4.637
       5.347
       5.450
       5.152
       4.713
       4.269
       3.774
       3.087
       2.136
       1.007
      -0.097
      -0.981
      -1.585
      -2.004
      -2.423
      -2.973
      -3.629
      -4.194
      -4.391
      -4.013
      -3.043
      -1.675
      -0.237
       0.962
       1.757
       2.156
       2.286
       2.285
       2.232
       2.139
       1.984
       1.753
       1.479
       1.248
       1.171
       1.310
       1.607
       1.875
       1.881
       1.488
       0.744
      -0.122
      -0.826
      -1.200
      -1.301
      -1.378
      -1.707
      -2.415
      -3.406
      -4.430
      -5.211
      -5.531
      -5.271
      -4.436
      -3.201
      -1.879
      -0.806
      -0.157
       0.146
       0.365
       0.762
       1.431
       2.263
       3.054
       3.632
       3.914
       3.892
       3.586
       3.032
       2.307
       1.559
       0.996
       0.807
       1.054
       1.614
       2.212
       2.552
       2.464
       1.975
       1.271
       0.599
       0.147
      -0.010
       0.076
       0.272
       0.419
       0.397
       0.158
      -0.275
      -0.836
      -1.444
      -2.027
      -2.520
      -2.855
      -2.952
      -2.733
      -2.163
      -1.290
      -0.266
       0.693
       1.385
       1.712
       1.712
       1.523
       1.281
       1.064
       0.885
       0.731
       0.598
       0.476
       0.335
       0.145
      -0.076
      -0.240
      -0.233
       0.000
       0.409
       0.865
       1.245
       1.494
       1.618
       1.614
       1.440
       1.054
       0.490
      -0.120
      -0.589
      -0.767
      -0.597
      -0.134
       0.477
       1.031
       1.324
       1.240
       0.830
       0.302
