Origin Time       09/1/2013 01:41:52	
Lat.              25.4 N	
Long.             94.9 E	
Depth (Km)         89.0
Magnitude         5.9
 Region           Myanmar-India-Border-Region                                      
 Above details taken from IMD 
   
Station Code      GOL
Station Lat.       26.515
Station Long.      93.972
Station Height(m)   93.0
Site Class        B   Vs30 between 375 m/sec to 700 m/sec *  
Record Time       09.01.2013 01:42:22.854
Sampling Rate     200. Hz
 Record Duration   78.840 Sec.
 Direction         Vert. (Up positive)
Max. Acceleration     20.858 cm/sec**2
     
  * For reference see Site Classification link of website 
     
 Base Line Corrected and Low Pass Filtered (Cut Off at 35 Hz) Time History
 Acceleration data in cm/sec**2
    
[...]
      -0.811
      -0.546
       0.190
       0.743
       0.697
       0.275
       0.009
       0.153
       0.508
       0.729
       0.663
       0.405
       0.137
       0.018
       0.107
       0.245
       0.051
      -0.735
      -1.769
      -2.130
      -1.083
       1.056
       2.906
       3.074
       1.372
      -0.952
      -2.208
      -1.582
       0.323
       2.037
       2.257
       0.621
      -2.133
      -4.551
      -5.232
      -3.694
      -0.806
       1.648
       2.146
       0.574
      -1.614
      -2.481
      -1.153
       1.463
       3.386
       3.114
       0.768
      -2.029
      -3.385
      -2.494
      -0.082
       2.313
       3.517
       3.363
       2.423
       1.303
       0.265
      -0.539
      -0.766
      -0.060
       1.370
       2.532
       2.279
       0.409
      -1.895
      -2.980
      -2.251
      -0.756
      -0.131
      -0.952
      -2.235
      -2.572
      -1.648
      -0.507
      -0.359
      -1.255
      -2.029
      -1.526
       0.218
       2.028
       2.783
       2.456
       1.969
       2.082
       2.542
       2.398
       1.127
      -0.667
      -1.752
      -1.435
      -0.193
       0.802
       0.740
      -0.223
      -1.252
      -1.585
      -1.031
       0.089
       1.263
       2.020
       2.054
       1.372
       0.387
      -0.291
      -0.330
      -0.015
      -0.069
      -1.048
      -2.781
      -4.333
      -4.577
      -3.003
      -0.168
       2.548
       3.738
       2.768
       0.127
      -2.828
      -4.582
      -4.240
      -1.967
       1.101
       3.389
       3.648
       1.711
      -1.213
      -3.172
      -2.835
      -0.554
       1.949
       3.074
       2.570
       1.355
       0.336
      -0.353
      -0.976
      -1.356
      -0.732
       1.400
       4.376
       6.458
       6.137
       3.540
       0.505
      -0.985
      -0.565
       0.332
       0.046
      -1.694
      -3.761
      -5.008
      -5.345
      -5.340
      -5.069
      -3.817
      -1.136
       2.011
       3.619
       2.457
      -0.567
      -3.073
      -3.286
      -1.317
       1.455
       3.799
       5.201
       5.437
       4.262
       1.848
      -0.713
      -1.884
      -0.980
       1.091
       2.614
       2.607
       1.448
       0.045
      -1.238
      -2.546
      -3.661
      -3.754
      -2.311
      -0.037
       1.575
       1.672
       0.836
       0.308
       0.588
       0.994
       0.623
      -0.465
      -1.270
      -1.097
      -0.567
      -0.977
      -2.553
      -3.710
      -2.565
       0.753
       3.769
       4.020
       1.624
      -0.835
      -1.023
       0.816
       2.349
       1.749
      -0.438
      -2.002
      -1.448
       0.473
       1.576
       0.456
      -2.161
      -4.102
      -3.634
      -0.802
       2.704
       4.802
       4.387
       1.970
      -0.805
      -2.416
      -2.520
      -1.937
      -1.653
      -1.842
      -1.868
      -1.132
       0.146
       1.020
       0.646
      -0.944
      -2.757
      -3.476
      -2.347
       0.265
       3.061
       4.603
       4.170
       2.158
      -0.188
      -1.540
      -1.306
       0.022
       1.311
       1.713
       1.315
       0.913
       1.213
       2.301
       3.733
       4.861
       5.016
       3.675
       0.804
      -2.819
      -5.737
      -6.538
      -4.790
      -1.432
       1.751
       3.239
       2.654
       0.854
      -0.699
      -0.897
       0.259
       1.653
       1.939
       0.714
      -1.114
      -2.140
      -1.678
      -0.143
       1.568
       2.786
       3.144
       2.330
       0.248
      -2.504
      -4.666
      -5.210
      -4.276
      -3.036
      -2.499
      -2.541
      -2.234
      -1.055
       0.414
       1.107
       0.660
      -0.197
      -0.440
       0.216
       1.115
       1.349
       0.585
      -0.654
      -1.327
      -0.567
       1.637
       4.220
       5.637
       4.970
       2.650
       0.069
      -1.556
      -1.979
      -1.763
      -1.622
      -2.026
      -3.102
      -4.511
      -5.382
      -4.735
      -2.334
       0.795
       2.869
       2.697
       0.801
      -0.806
      -0.243
       2.548
       5.641
       6.762
       5.201
       2.204
      -0.421
      -1.880
      -2.574
      -3.024
      -3.045
      -2.133
      -0.428
       1.029
       1.083
      -0.473
      -2.538
      -3.395
      -1.983
       1.147
       3.984
       4.406
       1.905
      -1.728
      -3.622
      -2.180
       1.523
       4.655
       5.041
       2.813
      -0.122
      -2.055
      -2.804
      -3.137
      -3.171
      -1.837
       1.682
       6.104
       8.260
       5.799
      -0.089
      -5.004
      -4.904
       0.319
       6.695
       9.591
       7.390
       2.230
      -2.297
      -3.972
      -2.956
      -0.774
       1.199
       2.367
       2.588
       1.760
      -0.093
      -2.460
      -4.370
      -5.026
      -4.552
      -3.949
      -4.153
      -5.119
      -5.976
      -6.052
      -5.529
      -4.980
      -4.420
      -3.190
      -0.957
       1.378
       2.210
       0.941
      -0.950
      -0.961
       1.959
       6.007
       8.012
       6.570
       3.558
       2.244
       3.936
       6.707
       7.447
       4.992
       1.107
      -1.413
      -1.298
       0.550
       2.442
       3.428
       3.514
       3.013
       2.167
       1.325
       0.985
       1.255
       1.363
       0.084
      -2.971
      -6.490
      -8.242
      -7.080
      -4.224
      -2.350
      -3.223
      -6.130
      -8.533
      -8.197
      -4.783
       0.245
       4.873
       7.696
       8.338
       7.272
       5.438
       3.821
       2.995
       2.775
       2.332
       0.906
      -1.439
      -3.771
      -5.067
      -5.151
      -4.871
      -5.282
      -6.533
      -7.547
      -6.854
      -3.956
      -0.008
       2.864
       3.233
       1.627
       0.159
       0.761
       3.525
       6.571
       7.568
       5.714
       2.561
       0.846
       2.114
       5.201
       7.118
       5.687
       1.456
      -2.913
      -5.052
      -4.667
      -3.164
      -1.978
      -1.433
      -0.935
       0.171
       1.998
       4.093
       5.810
       6.698
       6.585
       5.386
       3.055
      -0.089
      -3.101
      -4.781
      -4.573
      -3.153
      -2.092
      -2.813
      -5.566
      -9.089
     -11.295
     -10.687
      -7.530
      -3.753
      -1.522
      -1.573
      -2.666
      -2.633
      -0.273
       3.390
       5.686
       4.536
       0.547
      -3.133
      -3.366
       0.213
       4.802
       6.811
       4.839
       0.635
      -2.610
      -2.877
      -0.618
       1.997
       2.867
       1.352
      -1.503
      -3.863
      -4.415
      -3.193
      -1.298
       0.160
       0.830
       0.924
       0.605
      -0.097
      -0.836
      -0.827
       0.433
       2.379
       3.717
       3.802
       3.522
       4.444
       6.994
       9.672
      10.291
       8.097
       4.627
       2.331
       2.270
       3.197
       2.936
       0.609
      -2.575
      -4.683
      -4.981
      -4.422
      -4.390
      -5.210
      -5.945
      -5.505
      -3.869
      -2.224
      -1.927
      -3.303
      -5.398
      -6.784
      -6.553
      -4.694
      -1.927
       0.646
       2.018
       1.926
       1.192
       1.167
       2.564
       4.727
       6.074
       5.386
       2.880
       0.156
      -1.061
      -0.389
       0.934
       1.355
       0.636
       0.029
       0.764
       2.592
       4.066
       4.083
       2.785
       0.916
      -1.202
      -3.722
      -6.471
      -8.518
      -8.722
      -6.700
      -3.261
       0.092
       2.219
       3.084
       3.506
       4.132
       4.692
       4.337
       2.645
       0.194
      -1.915
      -2.992
      -3.234
      -3.305
      -3.497
      -3.272
      -1.694
       1.501
       5.229
       7.673
       7.845
       6.551
       5.635
       6.054
       6.692
       5.258
       0.654
      -5.408
      -9.400
      -8.999
      -5.338
      -2.139
      -2.326
      -5.353
      -7.850
      -6.847
      -2.380
       2.861
       6.097
       6.577
       5.485
       4.283
       3.437
       2.648
       1.897
       1.771
       2.615
       3.648
       3.353
       1.048
      -2.066
      -3.801
      -3.171
      -1.524
      -1.205
      -3.083
      -5.654
      -6.726
      -5.752
      -4.216
      -3.755
      -4.202
      -3.714
      -0.798
       3.957
       8.153
       9.481
       7.406
       3.329
      -0.606
      -2.922
      -3.521
      -3.476
      -4.144
      -6.152
      -8.891
     -10.889
     -10.755
      -7.980
      -3.140
       2.359
       6.824
       9.087
       9.310
       8.941
       9.476
      11.005
      12.020
      10.852
       7.304
       2.815
      -0.988
      -3.731
      -6.248
      -9.303
     -12.591
     -14.936
     -15.228
     -13.140
      -9.162
      -4.246
       0.499
       4.105
       6.280
       7.785
       9.821
      12.558
      14.387
      13.140
       8.350
       2.235
      -1.795
      -1.961
       0.333
       1.868
       0.655
      -2.378
      -4.715
      -4.966
      -3.931
      -3.008
      -2.068
       0.388
       4.827
       9.099
      10.098
       7.101
       2.912
       1.283
       3.326
       6.641
       7.814
       5.469
       0.941
      -3.538
      -6.796
      -8.936
     -10.258
     -10.567
      -9.608
      -7.815
      -6.304
      -5.984
      -6.618
      -6.773
      -4.867
      -0.626
       4.310
       7.425
       7.306
       4.769
       2.040
       0.818
       1.038
       1.275
       0.133
      -2.649
      -6.098
      -8.686
      -9.240
      -7.658
      -5.003
      -2.654
      -1.063
       0.527
       2.949
       5.839
       7.840
       8.070
       7.121
       6.412
       6.588
       6.615
       4.577
      -0.403
      -6.872
     -11.828
     -13.117
     -11.218
      -8.628
      -7.360
      -7.061
      -5.660
      -1.818
       3.548
       8.264
      11.038
      12.216
      12.602
      12.115
       9.943
       5.941
       1.606
      -0.589
       0.881
       5.067
       8.901
       9.390
       5.942
       0.688
      -3.485
      -5.166
      -4.822
      -3.656
      -2.713
      -2.864
      -4.733
      -8.051
     -11.282
     -12.377
     -10.221
      -5.588
      -0.791
       1.829
       1.642
       0.219
      -0.125
       1.429
       3.420
       3.609
       1.288
      -1.918
      -3.417
      -1.746
       2.417
       6.882
       9.441
       9.166
       6.788
       3.955
       1.926
       0.842
       0.180
      -0.339
      -0.462
       0.107
       1.219
       2.356
       2.999
       2.775
       1.366
      -1.372
      -5.051
      -8.637
     -10.812
     -10.665
      -8.334
      -5.141
      -2.774
      -1.979
      -2.000
      -1.545
      -0.299
       0.714
       0.325
      -1.464
      -3.498
      -4.630
      -4.607
      -3.957
      -3.341
      -3.019
      -2.687
      -1.687
       0.451
       3.490
       6.506
       8.611
       9.777
      10.842
      12.562
      14.687
      16.056
      15.577
      13.076
       9.307
       5.378
       2.161
      -0.017
      -1.394
      -2.529
      -3.939
      -5.884
      -8.307
     -10.843
     -12.862
     -13.679
     -12.973
     -11.148
      -9.110
      -7.387
      -5.481
      -2.418
       1.890
       5.966
       7.778
       6.621
       3.885
       1.751
       1.192
       1.449
       1.389
       0.878
       0.569
       0.719
       0.781
       0.281
      -0.328
      -0.064
       1.328
       2.823
       3.034
       1.656
      -0.162
      -0.895
      -0.066
       1.393
       2.103
       1.517
       0.268
      -0.615
      -0.672
      -0.167
       0.425
       0.722
       0.298
      -1.271
      -3.860
      -6.459
      -7.695
      -6.858
      -4.472
      -1.918
      -0.392
      -0.002
       0.219
       1.337
       3.467
       5.721
       7.157
       7.581
       7.330
       6.549
       5.006
       2.603
      -0.223
      -2.729
      -4.342
      -4.791
      -4.043
      -2.485
      -1.122
      -1.061
      -2.410
      -3.834
      -3.575
      -1.130
       2.042
       3.545
       1.997
      -1.721
      -5.050
      -5.852
      -4.228
      -2.251
      -1.836
      -2.926
      -3.878
      -3.467
      -2.257
      -1.846
      -2.784
      -3.526
      -1.872
       2.420
       6.841
       8.342
       6.298
       3.026
       1.402
       2.209
       3.799
       4.047
       2.416
       0.221
      -0.846
      -0.340
       0.668
       0.729
      -0.609
      -2.428
      -3.369
      -2.879
      -1.489
      -0.051
       1.037
       1.845
       2.492
       2.953
       3.163
       3.103
       2.769
       2.153
       1.232
      -0.116
      -2.146
      -4.949
      -7.889
      -9.536
      -8.642
      -5.439
      -1.850
      -0.103
      -0.953
      -3.127
      -4.318
      -2.786
       1.507
       6.751
      10.282
      10.343
       7.420
       3.862
       1.907
       1.877
       2.162
       0.878
      -2.452
      -6.605
      -9.695
     -10.501
      -9.110
      -6.645
      -4.356
      -2.595
      -0.386
       3.763
      10.157
      16.885
      20.858
      20.280
      16.170
      11.353
       7.959
       5.854
       3.295
      -1.032
      -6.584
     -11.331
     -13.424
     -12.639
     -10.429
      -8.717
      -8.490
      -9.202
      -9.349
      -7.772
      -4.666
      -1.403
       0.662
       1.257
       1.208
       1.576
       2.836
       4.691
       6.315
       6.739
       5.335
       2.362
      -0.888
      -2.781
      -2.515
      -0.706
       1.193
       2.069
       1.855
       1.284
       1.192
       2.017
       3.629
       5.342
       6.222
       5.725
       4.185
       2.533
       1.376
       0.312
      -1.725
      -5.363
      -9.975
     -13.926
     -15.655
     -14.674
     -11.693
      -7.900
      -4.170
      -0.959
       1.285
       2.161
       2.074
       2.639
       5.560
      10.648
      15.162
      15.724
      11.332
       4.553
      -0.462
      -1.346
       0.883
       3.265
       3.628
       2.006
      -0.115
      -1.416
      -1.602
      -1.100
      -0.422
       0.042
      -0.121
      -1.281
      -3.275
      -5.013
      -4.922
      -2.277
       1.715
       4.401
       3.695
      -0.142
      -4.650
      -7.136
      -6.705
      -4.656
      -3.066
      -2.955
      -3.586
      -3.307
      -1.061
       2.726
       6.525
       8.921
       9.675
       9.743
      10.229
      11.140
      11.141
       8.731
       3.915
      -1.243
      -3.998
      -3.269
      -0.846
      -0.006
      -2.573
      -7.148
     -10.257
      -9.357
      -4.915
       0.145
       2.861
       2.335
      -0.061
      -2.164
      -2.714
      -1.970
      -1.090
      -1.050
      -2.039
      -3.694
      -5.628
      -7.531
      -8.852
      -8.836
      -7.180
      -4.573
      -2.338
      -1.353
      -1.213
      -0.410
       2.521
       7.704
      13.445
      17.064
      16.684
      12.675
       7.437
       3.592
       2.163
       2.181
       1.762
      -0.387
      -4.065
      -7.756
      -9.791
      -9.747
      -8.829
      -8.641
      -9.425
      -9.649
      -7.575
      -3.257
       1.143
       3.100
       1.825
      -1.161
      -3.322
      -3.019
      -0.481
       2.682
       4.836
       5.381
       4.796
       3.919
       3.338
       3.318
       3.875
       4.642
       4.879
       4.007
       2.306
       0.901
       0.836
       2.063
       3.359
       3.264
       1.274
      -1.661
      -3.744
      -3.645
      -1.583
       0.777
       1.643
       0.535
      -1.493
      -3.010
      -3.490
      -3.472
      -3.692
      -4.237
      -4.436
      -3.376
      -0.656
       3.047
       6.105
       6.947
       5.308
       2.575
       0.769
       0.999
       2.641
       3.834
       2.922
      -0.135
      -3.443
      -4.473
      -2.153
       2.137
       5.792
       7.234
       6.897
       6.084
       5.191
       3.392
       0.099
      -3.625
      -5.625
      -4.919
      -3.206
      -3.696
      -8.117
     -14.796
     -19.723
     -19.655
     -14.433
      -6.681
       0.400
       4.979
       6.993
       7.395
       7.224
       7.016
       6.717
       6.010
       4.752
       3.159
       1.703
       0.903
       1.055
       1.963
       2.961
       3.301
       2.542
       0.598
      -2.343
      -5.673
      -8.213
      -8.690
      -6.733
      -3.389
      -0.413
       1.139
       1.569
       1.721
       1.592
       0.098
      -3.411
      -7.490
      -9.095
      -6.409
      -1.183
       2.311
       1.211
      -2.973
      -5.540
      -2.888
       4.265
      11.639
      15.094
      13.709
       9.678
       5.827
       3.574
       2.872
       3.199
       3.984
       4.397
       3.507
       1.103
      -1.780
      -3.560
      -3.509
      -2.345
      -1.285
      -0.634
       0.411
       2.431
       4.546
       4.921
       2.743
      -0.425
      -1.668
       0.543
       4.547
       6.673
       4.514
      -0.818
      -5.712
      -7.338
      -5.912
      -3.934
      -3.479
      -4.293
      -4.417
      -2.555
       0.312
       1.781
       0.489
      -2.518
      -4.934
      -5.482
      -4.823
      -4.391
      -4.735
      -5.177
      -4.828
      -3.595
      -2.090
      -0.708
       0.924
       3.396
       6.426
       8.562
       8.191
       4.974
       0.306
      -3.627
      -5.345
      -4.863
      -3.288
      -1.725
      -0.455
       0.942
       2.734
       4.398
       5.004
       4.185
       2.489
       0.762
      -0.552
      -1.413
      -1.764
      -1.407
      -0.278
       1.345
       2.948
       4.011
       4.113
       2.981
       0.707
      -1.945
      -3.668
      -3.442
      -1.446
       0.903
       2.000
       1.323
      -0.223
      -1.250
      -1.249
      -0.972
      -1.386
      -2.408
      -3.012
      -2.641
      -2.160
      -2.977
      -5.208
      -7.072
      -6.505
      -3.378
       0.195
       1.894
       1.372
       0.317
       0.588
       2.488
       4.729
       5.797
       5.254
       3.936
       3.031
       2.948
       3.023
       2.356
       0.853
      -0.685
      -1.490
      -1.648
      -1.859
      -2.507
      -3.158
      -3.047
      -1.969
      -0.628
      -0.120
      -1.038
      -2.868
      -4.107
      -3.240
      -0.019
       4.022
       6.544
       6.238
       3.879
       1.560
       0.796
       1.278
       1.449
       0.238
      -1.767
      -2.796
      -1.548
       1.523
       4.430
       5.301
       4.027
       2.374
       2.320
       4.120
       5.962
       5.655
       2.712
      -1.236
      -4.077
      -5.195
      -5.697
      -6.714
      -7.811
      -7.468
      -5.100
      -2.148
      -0.749
      -1.309
