Origin Time       1/7/2012 04:13:52	  UTC
Lat.              25.7 N	
Long.             94.6 E	
Depth (Km)         50.0
Magnitude         5.8
 Region           Phek-Nagaland                                                    
 Above details taken from IMD 
    
Station Code      GOL
Station Lat.       26.515  N
Station Long.      93.972  E
Station Height(m)   93.0
Site Class        B   Vs30 between 375 m/sec to 700 m/sec *  
Record Time       01.07.2012 04:14:12.629 UTC
Sampling Rate     200. Hz
 Record Duration   76.555 Sec.
 Direction         N-S (N positive)
Max. Acceleration     36.742 cm/sec**2
     
  * For reference see Site Classification link of website 
     
 Base Line Corrected and Low Pass Filtered (Cut Off at 35 Hz) Time History
 Acceleration data in cm/sec**2
    
[...]
      -0.395
      -0.185
      -0.029
       0.208
       0.569
       0.961
       1.220
       1.245
       1.077
       0.868
       0.784
       0.898
       1.157
       1.441
       1.658
       1.787
       1.848
       1.862
       1.849
       1.850
       1.896
       1.936
       1.831
       1.435
       0.715
      -0.197
      -1.061
      -1.642
      -1.822
      -1.640
      -1.259
      -0.869
      -0.605
      -0.504
      -0.528
      -0.613
      -0.706
      -0.783
      -0.848
      -0.931
      -1.071
      -1.287
      -1.551
      -1.794
      -1.940
      -1.954
      -1.848
      -1.652
      -1.389
      -1.080
      -0.778
      -0.569
      -0.503
      -0.524
      -0.480
      -0.240
       0.195
       0.677
       1.021
       1.134
       1.050
       0.872
       0.706
       0.627
       0.704
       0.990
       1.477
       2.056
       2.532
       2.727
       2.568
       2.114
       1.502
       0.892
       0.431
       0.239
       0.351
       0.664
       0.944
       0.952
       0.603
       0.014
      -0.589
      -1.032
      -1.275
      -1.392
      -1.473
      -1.554
      -1.608
      -1.572
      -1.388
      -1.033
      -0.528
       0.046
       0.563
       0.894
       0.975
       0.845
       0.594
       0.286
      -0.079
      -0.516
      -0.974
      -1.316
      -1.391
      -1.152
      -0.724
      -0.332
      -0.144
      -0.164
      -0.252
      -0.244
      -0.055
       0.283
       0.668
       0.985
       1.150
       1.124
       0.913
       0.582
       0.259
       0.110
       0.238
       0.589
       0.942
       1.055
       0.833
       0.386
      -0.075
      -0.385
      -0.496
      -0.434
      -0.252
      -0.004
       0.243
       0.413
       0.440
       0.311
       0.080
      -0.165
      -0.357
      -0.500
      -0.639
      -0.792
      -0.913
      -0.956
      -0.946
      -0.978
      -1.124
      -1.367
      -1.609
      -1.749
      -1.737
      -1.566
      -1.245
      -0.792
      -0.265
       0.230
       0.570
       0.686
       0.614
       0.469
       0.354
       0.298
       0.284
       0.315
       0.434
       0.658
       0.922
       1.108
       1.123
       0.973
       0.771
       0.649
       0.649
       0.684
       0.627
       0.440
       0.206
       0.038
      -0.026
      -0.027
      -0.009
       0.028
       0.109
       0.227
       0.338
       0.395
       0.379
       0.298
       0.166
      -0.011
      -0.223
      -0.455
      -0.690
      -0.913
      -1.107
      -1.242
      -1.273
      -1.160
      -0.888
      -0.487
      -0.048
       0.293
       0.402
       0.207
      -0.258
      -0.855
      -1.391
      -1.698
      -1.706
      -1.456
      -1.051
      -0.592
      -0.145
       0.265
       0.637
       0.968
       1.243
       1.441
       1.556
       1.607
       1.628
       1.636
       1.614
       1.545
       1.445
       1.367
       1.351
       1.393
       1.447
       1.463
       1.410
       1.281
       1.074
       0.785
       0.431
       0.061
      -0.275
      -0.567
      -0.859
      -1.195
      -1.550
      -1.823
      -1.919
      -1.811
      -1.551
      -1.220
      -0.894
      -0.639
      -0.501
      -0.496
      -0.596
      -0.741
      -0.861
      -0.921
      -0.930
      -0.924
      -0.933
      -0.962
      -0.999
      -1.028
      -1.035
      -1.011
      -0.949
      -0.860
      -0.777
      -0.733
      -0.743
      -0.790
      -0.826
      -0.779
      -0.573
      -0.171
       0.388
       1.004
       1.558
       1.985
       2.292
       2.524
       2.704
       2.801
       2.753
       2.522
       2.127
       1.638
       1.141
       0.696
       0.320
      -0.003
      -0.288
      -0.521
      -0.682
      -0.777
      -0.811
      -0.753
      -0.549
      -0.175
       0.321
       0.838
       1.250
       1.437
       1.317
       0.895
       0.263
      -0.420
      -0.992
      -1.331
      -1.392
      -1.230
      -0.980
      -0.776
      -0.665
      -0.615
      -0.589
      -0.593
      -0.637
      -0.682
      -0.654
      -0.502
      -0.230
       0.122
       0.508
       0.890
       1.230
       1.492
       1.643
       1.650
       1.497
       1.198
       0.822
       0.463
       0.208
       0.100
       0.127
       0.223
       0.295
       0.241
       0.000
      -0.411
      -0.871
      -1.199
      -1.248
      -0.996
      -0.565
      -0.137
       0.152
       0.262
       0.223
       0.077
      -0.133
      -0.360
      -0.573
      -0.791
      -1.067
      -1.413
      -1.734
      -1.858
      -1.651
      -1.137
      -0.499
       0.035
       0.341
       0.447
       0.446
       0.381
       0.214
      -0.092
      -0.466
      -0.734
      -0.743
      -0.502
      -0.184
       0.000
      -0.040
      -0.221
      -0.358
      -0.307
      -0.050
       0.302
       0.600
       0.760
       0.816
       0.874
       1.023
       1.257
       1.484
       1.600
       1.563
       1.400
       1.173
       0.923
       0.655
       0.349
      -0.003
      -0.388
      -0.774
      -1.120
      -1.372
      -1.467
      -1.369
      -1.098
      -0.720
      -0.299
       0.125
       0.507
       0.750
       0.735
       0.432
      -0.027
      -0.389
      -0.455
      -0.220
       0.138
       0.418
       0.548
       0.592
       0.633
       0.675
       0.650
       0.516
       0.310
       0.112
      -0.040
      -0.186
      -0.390
      -0.677
      -1.011
      -1.320
      -1.544
      -1.663
      -1.687
      -1.642
      -1.552
      -1.441
      -1.328
      -1.203
      -1.009
      -0.669
      -0.176
       0.354
       0.736
       0.840
       0.655
       0.247
      -0.298
      -0.890
      -1.413
      -1.738
      -1.777
      -1.528
      -1.074
      -0.529
       0.010
       0.486
       0.877
       1.184
       1.428
       1.649
       1.876
       2.096
       2.245
       2.243
       2.059
       1.734
       1.343
       0.937
       0.516
       0.068
      -0.382
      -0.757
      -0.962
      -0.937
      -0.714
      -0.427
      -0.244
      -0.263
      -0.435
      -0.613
      -0.680
      -0.636
      -0.578
      -0.604
      -0.735
      -0.913
      -1.060
      -1.129
      -1.125
      -1.070
      -0.961
      -0.740
      -0.333
       0.281
       1.018
       1.704
       2.157
       2.267
       2.041
       1.601
       1.115
       0.706
       0.379
       0.033
      -0.421
      -0.965
      -1.461
      -1.722
      -1.612
      -1.102
      -0.286
       0.656
       1.537
       2.216
       2.610
       2.666
       2.370
       1.788
       1.101
       0.534
       0.236
       0.194
       0.265
       0.294
       0.216
       0.078
      -0.037
      -0.106
      -0.194
      -0.394
      -0.729
      -1.104
      -1.359
      -1.375
      -1.161
      -0.832
      -0.531
      -0.360
      -0.361
      -0.507
      -0.718
      -0.910
      -1.056
      -1.200
      -1.388
      -1.595
      -1.721
      -1.669
      -1.415
      -1.014
      -0.564
      -0.152
       0.184
       0.446
       0.644
       0.759
       0.762
       0.659
       0.509
       0.377
       0.271
       0.135
      -0.080
      -0.337
      -0.520
      -0.528
      -0.367
      -0.156
      -0.037
      -0.070
      -0.183
      -0.247
      -0.185
      -0.019
       0.179
       0.370
       0.559
       0.749
       0.899
       0.955
       0.915
       0.828
       0.750
       0.682
       0.572
       0.360
       0.019
      -0.426
      -0.899
      -1.295
      -1.512
      -1.495
      -1.259
      -0.892
      -0.503
      -0.157
       0.167
       0.531
       0.958
       1.387
       1.707
       1.823
       1.704
       1.380
       0.904
       0.334
      -0.259
      -0.785
      -1.130
      -1.198
      -0.955
      -0.481
       0.056
       0.489
       0.734
       0.805
       0.791
       0.790
       0.851
       0.920
       0.855
       0.538
      -0.009
      -0.605
      -1.047
      -1.254
      -1.271
      -1.167
      -0.952
      -0.614
      -0.204
       0.132
       0.241
       0.090
      -0.196
      -0.450
      -0.613
      -0.759
      -0.977
      -1.240
      -1.424
      -1.453
      -1.393
      -1.396
      -1.548
      -1.780
      -1.927
      -1.855
      -1.547
      -1.087
      -0.608
      -0.225
      -0.004
       0.035
      -0.086
      -0.324
      -0.613
      -0.900
      -1.170
      -1.444
      -1.704
      -1.846
      -1.738
      -1.353
      -0.833
      -0.383
      -0.132
      -0.065
      -0.088
      -0.101
      -0.030
       0.185
       0.584
       1.149
       1.767
       2.222
       2.290
       1.901
       1.240
       0.663
       0.456
       0.631
       0.938
       1.097
       1.032
       0.903
       0.916
       1.129
       1.434
       1.684
       1.796
       1.740
       1.482
       0.982
       0.259
      -0.556
      -1.246
      -1.612
      -1.582
      -1.255
      -0.819
      -0.417
      -0.063
       0.301
       0.691
       1.049
       1.313
       1.485
       1.590
       1.604
       1.457
       1.111
       0.627
       0.139
      -0.234
      -0.474
      -0.647
      -0.804
      -0.882
      -0.732
      -0.234
       0.572
       1.481
       2.233
       2.662
       2.784
       2.741
       2.654
       2.509
       2.204
       1.702
       1.133
       0.701
       0.517
       0.507
       0.491
       0.334
       0.022
      -0.351
      -0.660
      -0.838
      -0.934
      -1.094
      -1.447
      -1.990
      -2.562
      -2.947
      -3.033
      -2.899
      -2.755
      -2.800
      -3.086
      -3.496
      -3.842
      -3.994
      -3.919
      -3.632
      -3.148
      -2.495
      -1.774
      -1.174
      -0.889
      -0.979
      -1.297
      -1.570
      -1.573
      -1.252
      -0.695
      -0.023
       0.676
       1.318
       1.794
       1.998
       1.891
       1.536
       1.077
       0.673
       0.447
       0.439
       0.607
       0.838
       0.989
       0.921
       0.565
      -0.018
      -0.612
      -0.944
      -0.836
      -0.293
       0.532
       1.432
       2.210
       2.688
       2.760
       2.486
       2.121
       1.991
       2.276
       2.885
       3.522
       3.904
       3.932
       3.697
       3.333
       2.904
       2.398
       1.814
       1.200
       0.605
      -0.014
      -0.787
      -1.834
      -3.122
      -4.429
      -5.453
      -5.972
      -5.974
      -5.660
      -5.322
      -5.160
      -5.161
      -5.133
      -4.874
      -4.323
      -3.600
      -2.888
      -2.283
      -1.701
      -0.941
       0.158
       1.578
       3.099
       4.419
       5.301
       5.664
       5.564
       5.131
       4.544
       4.023
       3.773
       3.878
       4.233
       4.596
       4.740
       4.592
       4.256
       3.925
       3.736
       3.706
       3.775
       3.884
       4.019
       4.198
       4.436
       4.733
       5.063
       5.388
       5.656
       5.795
       5.700
       5.275
       4.507
       3.498
       2.442
       1.534
       0.889
       0.496
       0.226
      -0.116
      -0.704
      -1.623
      -2.845
      -4.273
      -5.778
      -7.238
      -8.572
      -9.744
     -10.731
     -11.493
     -12.000
     -12.308
     -12.558
     -12.864
     -13.181
     -13.325
     -13.136
     -12.654
     -12.142
     -11.898
     -12.007
     -12.225
     -12.099
     -11.246
      -9.558
      -7.217
      -4.523
      -1.728
       1.022
       3.622
       5.951
       7.869
       9.248
       9.998
      10.067
       9.439
       8.152
       6.348
       4.264
       2.166
       0.263
      -1.328
      -2.564
      -3.456
      -4.034
      -4.281
      -4.093
      -3.346
      -2.037
      -0.378
       1.258
       2.496
       3.093
       2.995
       2.347
       1.462
       0.756
       0.616
       1.261
       2.622
       4.343
       5.913
       6.922
       7.251
       7.092
       6.779
       6.589
       6.606
       6.725
       6.742
       6.477
       5.902
       5.191
       4.667
       4.630
       5.191
       6.238
       7.539
       8.918
      10.330
      11.785
      13.206
      14.416
      15.265
      15.772
      16.110
      16.452
      16.808
      16.988
      16.741
      15.934
      14.640
      13.074
      11.472
      10.008
       8.782
       7.837
       7.192
       6.836
       6.688
       6.568
       6.241
       5.527
       4.406
       3.030
       1.636
       0.389
      -0.700
      -1.749
      -2.858
      -3.989
      -4.976
      -5.663
      -6.033
      -6.201
      -6.321
      -6.515
      -6.885
      -7.541
      -8.552
      -9.861
     -11.279
     -12.626
     -13.896
     -15.271
     -16.960
     -18.999
     -21.218
     -23.366
     -25.268
     -26.863
     -28.149
     -29.139
     -29.850
     -30.305
     -30.493
     -30.318
     -29.612
     -28.235
     -26.215
     -23.792
     -21.311
     -19.028
     -17.024
     -15.264
     -13.684
     -12.178
     -10.544
      -8.501
      -5.830
      -2.502
       1.314
       5.389
       9.572
      13.803
      18.013
      22.028
      25.606
      28.575
      30.928
      32.783
      34.262
      35.416
      36.233
      36.685
      36.742
      36.336
      35.335
      33.570
      30.924
      27.439
      23.352
      18.997
      14.620
      10.256
       5.747
       0.915
      -4.276
      -9.669
     -15.024
     -20.150
     -24.938
     -29.249
     -32.809
     -35.234
     -36.189
     -35.553
     -33.440
     -30.078
     -25.673
     -20.405
     -14.519
      -8.386
      -2.462
       2.863
       7.380
      11.053
      13.875
      15.741
      16.494
      16.099
      14.755
      12.827
      10.677
       8.559
       6.594
       4.807
       3.156
       1.567
       0.011
      -1.422
      -2.484
      -2.802
      -1.993
       0.123
       3.308
       6.848
       9.815
      11.515
      11.825
      11.147
      10.047
       8.903
       7.806
       6.710
       5.613
       4.615
       3.865
       3.481
       3.504
       3.874
       4.403
       4.742
       4.414
       2.972
       0.244
      -3.497
      -7.581
     -11.186
     -13.642
     -14.633
     -14.243
     -12.882
     -11.121
      -9.446
      -8.038
      -6.723
      -5.182
      -3.278
      -1.204
       0.663
       2.033
       2.810
       2.979
       2.445
       1.044
      -1.259
      -4.179
      -7.125
      -9.469
     -10.870
     -11.410
     -11.435
     -11.234
     -10.848
     -10.162
      -9.166
      -8.089
      -7.283
      -6.975
      -7.105
      -7.374
      -7.398
      -6.855
      -5.570
      -3.531
      -0.893
       2.046
       4.953
       7.608
       9.990
      12.212
      14.325
      16.165
      17.399
      17.756
      17.241
      16.128
      14.713
      13.079
      11.106
       8.695
       5.981
       3.320
       1.103
      -0.426
      -1.205
      -1.281
      -0.772
       0.081
       0.913
       1.400
       1.515
       1.574
       1.981
       2.862
       3.964
       4.860
       5.234
       4.969
       4.045
       2.420
       0.033
      -3.088
      -6.699
     -10.302
     -13.242
     -14.931
     -15.075
     -13.744
     -11.263
      -8.070
      -4.645
      -1.478
       1.014
       2.570
       3.118
       2.738
       1.629
       0.089
      -1.561
      -3.083
      -4.376
      -5.414
      -6.141
      -6.442
      -6.195
      -5.358
      -3.973
      -2.100
       0.221
       2.935
       5.891
       8.785
      11.172
      12.554
      12.533
      10.984
       8.122
       4.412
       0.380
      -3.536
      -7.018
      -9.837
     -11.875
     -13.161
     -13.865
     -14.158
     -14.046
     -13.334
     -11.771
      -9.241
      -5.845
      -1.827
       2.489
       6.696
      10.288
      12.765
      13.839
      13.599
      12.436
      10.753
       8.680
       6.115
       3.054
      -0.106
      -2.623
      -3.802
      -3.396
      -1.696
       0.724
       3.322
       5.714
       7.631
       8.883
       9.420
       9.383
       9.016
       8.487
       7.802
       6.891
       5.766
       4.577
       3.468
       2.389
       1.071
      -0.757
      -3.083
      -5.519
      -7.505
      -8.622
      -8.759
      -8.043
      -6.694
      -4.973
      -3.240
      -1.935
      -1.397
      -1.645
      -2.339
      -2.981
      -3.185
      -2.772
      -1.702
      -0.024
       2.031
       3.962
       5.121
       5.065
       3.873
       2.191
       0.940
       0.876
       2.265
       4.784
       7.711
      10.256
      11.852
      12.249
      11.487
       9.849
       7.805
       5.857
       4.308
       3.158
       2.225
       1.349
       0.455
      -0.532
      -1.766
      -3.418
      -5.542
      -8.010
     -10.571
     -12.949
     -14.918
     -16.307
     -16.952
     -16.646
     -15.154
     -12.345
      -8.325
      -3.479
       1.609
       6.300
      10.029
      12.409
      13.267
      12.639
      10.718
       7.821
       4.395
       1.022
      -1.670
      -3.201
      -3.439
      -2.650
      -1.350
      -0.077
       0.795
       1.124
       0.997
       0.686
       0.550
       0.877
       1.720
       2.835
       3.762
       4.014
       3.286
       1.586
      -0.787
      -3.412
      -5.963
      -8.297
     -10.381
     -12.137
     -13.356
     -13.771
     -13.268
     -12.052
     -10.586
      -9.298
      -8.283
      -7.258
      -5.790
      -3.603
      -0.743
       2.434
       5.403
       7.639
       8.796
       8.817
       7.935
       6.560
       5.091
       3.778
       2.698
       1.859
       1.302
       1.116
       1.350
       1.923
       2.630
       3.222
       3.499
       3.379
       2.941
       2.418
       2.102
       2.176
       2.592
       3.092
       3.382
       3.352
       3.175
       3.176
       3.554
       4.148
       4.493
       4.148
       3.042
       1.544
       0.215
      -0.572
      -0.833
      -0.907
      -1.196
      -1.930
      -3.084
      -4.462
      -5.830
      -7.002
      -7.869
      -8.380
      -8.520
      -8.299
      -7.789
      -7.172
      -6.723
      -6.688
      -7.124
      -7.826
      -8.409
      -8.527
      -8.085
      -7.310
      -6.622
      -6.374
      -6.673
      -7.395
      -8.369
      -9.499
     -10.704
     -11.817
     -12.577
     -12.770
     -12.341
     -11.373
      -9.966
      -8.170
      -6.026
      -3.653
      -1.247
       1.021
       3.117
       5.143
       7.224
       9.400
      11.622
      13.826
      15.991
      18.085
      19.954
      21.295
      21.785
      21.317
      20.131
      18.704
      17.491
      16.709
      16.260
      15.791
      14.802
      12.844
       9.730
       5.667
       1.218
      -2.887
      -6.011
      -7.787
      -8.162
      -7.312
      -5.530
      -3.182
      -0.702
       1.437
       2.821
       3.232
