Origin Time       29/12/2009 09:01:42
Lat.              24.5°N	
Long.             94.8°E	
Depth (Km)         80.0
Magnitude         5.5
 Region           MYANMAR-INDIA(MANIPUR)-BORDER                                    
 Above details taken from IMD 
   
Station Code      GOL
Station Lat.       26.152
Station Long.      90.627
Station Height(m)   56.0
Site Class        C   Vs30 between 200 m/sec to 375 m/sec *  
Record Time       29.12.2009 09:03:23.589
Sampling Rate     200. Hz
 Record Duration   70.055 Sec.
 Direction         Vert. (Up positive)
Max. Acceleration     -5.786 cm/sec**2
     
  * For reference see Site Classification link of website 
     
 Base Line Corrected and Low Pass Filtered (Cut Off at 35 Hz) Time History
 Acceleration data in cm/sec**2
    
[...]
       0.002
      -0.035
      -0.046
      -0.047
      -0.072
      -0.132
      -0.204
      -0.255
      -0.277
      -0.276
      -0.249
      -0.182
      -0.074
       0.054
       0.169
       0.260
       0.343
       0.452
       0.605
       0.777
       0.899
       0.903
       0.769
       0.537
       0.269
      -0.002
      -0.287
      -0.595
      -0.902
      -1.143
      -1.262
      -1.249
      -1.140
      -0.986
      -0.814
      -0.612
      -0.353
      -0.035
       0.304
       0.600
       0.791
       0.845
       0.761
       0.573
       0.333
       0.103
      -0.062
      -0.125
      -0.085
       0.013
       0.093
       0.083
      -0.035
      -0.206
      -0.320
      -0.294
      -0.127
       0.094
       0.269
       0.343
       0.319
       0.215
       0.049
      -0.138
      -0.277
      -0.316
      -0.283
      -0.284
      -0.415
      -0.648
      -0.824
      -0.776
      -0.470
      -0.048
       0.277
       0.369
       0.247
       0.040
      -0.117
      -0.177
      -0.186
      -0.224
      -0.326
      -0.441
      -0.471
      -0.342
      -0.055
       0.311
       0.649
       0.877
       0.969
       0.942
       0.822
       0.631
       0.389
       0.133
      -0.086
      -0.235
      -0.320
      -0.361
      -0.351
      -0.266
      -0.111
       0.049
       0.125
       0.090
       0.017
       0.015
       0.135
       0.328
       0.507
       0.621
       0.666
       0.634
       0.493
       0.233
      -0.087
      -0.356
      -0.500
      -0.539
      -0.553
      -0.578
      -0.567
      -0.431
      -0.134
       0.266
       0.651
       0.917
       1.010
       0.918
       0.671
       0.343
       0.046
      -0.120
      -0.131
      -0.053
       0.016
       0.012
      -0.071
      -0.195
      -0.317
      -0.401
      -0.430
      -0.420
      -0.420
      -0.488
      -0.640
      -0.833
      -1.000
      -1.102
      -1.149
      -1.156
      -1.111
      -0.999
      -0.845
      -0.697
      -0.571
      -0.418
      -0.161
       0.223
       0.656
       1.001
       1.149
       1.072
       0.822
       0.484
       0.140
      -0.144
      -0.336
      -0.445
      -0.518
      -0.609
      -0.731
      -0.835
      -0.843
      -0.707
      -0.441
      -0.107
       0.237
       0.552
       0.810
       0.983
       1.056
       1.048
       1.002
       0.948
       0.873
       0.751
       0.586
       0.423
       0.307
       0.235
       0.162
       0.056
      -0.063
      -0.151
      -0.195
      -0.238
      -0.332
      -0.472
      -0.581
      -0.561
      -0.379
      -0.107
       0.114
       0.179
       0.087
      -0.065
      -0.167
      -0.193
      -0.196
      -0.242
      -0.342
      -0.444
      -0.493
      -0.474
      -0.397
      -0.271
      -0.100
       0.098
       0.281
       0.417
       0.508
       0.581
       0.653
       0.713
       0.735
       0.698
       0.597
       0.427
       0.180
      -0.128
      -0.446
      -0.682
      -0.755
      -0.626
      -0.314
       0.127
       0.624
       1.092
       1.449
       1.640
       1.655
       1.531
       1.323
       1.083
       0.834
       0.562
       0.236
      -0.149
      -0.537
      -0.835
      -0.977
      -0.969
      -0.871
      -0.747
      -0.629
      -0.531
      -0.478
      -0.505
      -0.639
      -0.879
      -1.202
      -1.581
      -1.981
      -2.328
      -2.517
      -2.451
      -2.106
      -1.543
      -0.862
      -0.143
       0.575
       1.261
       1.865
       2.323
       2.576
       2.588
       2.345
       1.872
       1.257
       0.653
       0.215
       0.003
      -0.054
      -0.097
      -0.218
      -0.416
      -0.644
      -0.875
      -1.104
      -1.300
      -1.398
      -1.344
      -1.161
      -0.934
      -0.752
      -0.652
      -0.606
      -0.548
      -0.413
      -0.170
       0.166
       0.541
       0.890
       1.172
       1.387
       1.551
       1.663
       1.679
       1.532
       1.180
       0.639
      -0.017
      -0.685
      -1.258
      -1.648
      -1.811
      -1.764
      -1.582
      -1.358
      -1.148
      -0.950
      -0.717
      -0.408
      -0.019
       0.407
       0.814
       1.164
       1.447
       1.680
       1.894
       2.104
       2.278
       2.340
       2.216
       1.888
       1.423
       0.930
       0.487
       0.096
      -0.296
      -0.741
      -1.238
      -1.735
      -2.166
      -2.481
      -2.648
      -2.622
      -2.343
      -1.777
      -0.978
      -0.101
       0.681
       1.274
       1.685
       1.950
       2.044
       1.892
       1.458
       0.835
       0.218
      -0.212
      -0.407
      -0.445
      -0.438
      -0.435
      -0.423
      -0.397
      -0.402
      -0.489
      -0.639
      -0.755
      -0.741
      -0.595
      -0.411
      -0.290
      -0.249
      -0.211
      -0.088
       0.143
       0.451
       0.799
       1.174
       1.541
       1.821
       1.928
       1.842
       1.622
       1.322
       0.928
       0.392
      -0.278
      -0.978
      -1.567
      -1.966
      -2.185
      -2.273
      -2.252
      -2.109
      -1.821
      -1.388
      -0.848
      -0.274
       0.236
       0.611
       0.846
       0.985
       1.057
       1.021
       0.814
       0.444
       0.026
      -0.298
      -0.474
      -0.568
      -0.681
      -0.848
      -1.010
      -1.078
      -1.006
      -0.815
      -0.566
      -0.321
      -0.116
       0.043
       0.186
       0.352
       0.550
       0.752
       0.903
       0.975
       0.971
       0.914
       0.820
       0.707
       0.615
       0.587
       0.619
       0.645
       0.597
       0.482
       0.387
       0.378
       0.393
       0.264
      -0.137
      -0.747
      -1.329
      -1.624
      -1.510
      -1.042
      -0.387
       0.283
       0.849
       1.254
       1.485
       1.546
       1.451
       1.241
       0.986
       0.751
       0.546
       0.293
      -0.105
      -0.664
      -1.260
      -1.700
      -1.871
      -1.802
      -1.600
      -1.347
      -1.080
      -0.836
      -0.680
      -0.634
      -0.612
      -0.455
      -0.072
       0.463
       0.963
       1.278
       1.387
       1.358
       1.239
       1.023
       0.723
       0.436
       0.288
       0.317
       0.417
       0.424
       0.242
      -0.103
      -0.507
      -0.859
      -1.074
      -1.099
      -0.924
      -0.610
      -0.294
      -0.125
      -0.172
      -0.384
      -0.626
      -0.779
      -0.798
      -0.720
      -0.620
      -0.553
      -0.508
      -0.433
      -0.284
      -0.054
       0.238
       0.583
       0.975
       1.383
       1.732
       1.933
       1.934
       1.753
       1.442
       1.050
       0.593
       0.090
      -0.416
      -0.882
      -1.300
      -1.665
      -1.907
      -1.879
      -1.471
      -0.742
       0.073
       0.711
       1.043
       1.098
       0.969
       0.714
       0.364
      -0.009
      -0.287
      -0.397
      -0.387
      -0.376
      -0.420
      -0.437
      -0.301
       0.018
       0.404
       0.706
       0.851
       0.857
       0.742
       0.484
       0.073
      -0.419
      -0.833
      -1.022
      -0.933
      -0.633
      -0.257
       0.070
       0.291
       0.448
       0.661
       1.040
       1.572
       2.074
       2.270
       1.963
       1.161
       0.061
      -1.070
      -2.014
      -2.642
      -2.896
      -2.783
      -2.384
      -1.843
      -1.320
      -0.917
      -0.633
      -0.397
      -0.144
       0.121
       0.329
       0.426
       0.407
       0.314
       0.184
       0.015
      -0.213
      -0.483
      -0.697
      -0.719
      -0.471
      -0.001
       0.551
       1.052
       1.440
       1.695
       1.786
       1.671
       1.353
       0.938
       0.590
       0.416
       0.394
       0.405
       0.337
       0.157
      -0.100
      -0.378
      -0.633
      -0.828
      -0.940
      -0.976
      -1.001
      -1.116
      -1.379
      -1.718
      -1.935
      -1.806
      -1.224
      -0.256
       0.898
       2.003
       2.864
       3.363
       3.452
       3.152
       2.558
       1.846
       1.241
       0.922
       0.905
       1.003
       0.936
       0.543
      -0.080
      -0.639
      -0.872
      -0.751
      -0.478
      -0.300
      -0.329
      -0.500
      -0.670
      -0.726
      -0.645
      -0.473
      -0.295
      -0.198
      -0.235
      -0.392
      -0.569
      -0.626
      -0.471
      -0.121
       0.304
       0.669
       0.901
       1.002
       1.014
       0.968
       0.848
       0.596
       0.158
      -0.429
      -1.018
      -1.426
      -1.579
      -1.559
      -1.517
      -1.522
      -1.528
      -1.485
      -1.448
      -1.531
      -1.758
      -1.988
      -2.005
      -1.700
      -1.152
      -0.558
      -0.095
       0.161
       0.233
       0.210
       0.210
       0.337
       0.618
       0.978
       1.299
       1.511
       1.626
       1.693
       1.719
       1.668
       1.504
       1.227
       0.868
       0.478
       0.137
      -0.040
       0.034
       0.351
       0.783
       1.161
       1.370
       1.400
       1.298
       1.095
       0.772
       0.296
      -0.327
      -1.028
      -1.698
      -2.242
      -2.602
      -2.749
      -2.663
      -2.334
      -1.771
      -1.028
      -0.204
       0.584
       1.249
       1.753
       2.083
       2.199
       2.023
       1.496
       0.672
      -0.245
      -0.990
      -1.393
      -1.464
      -1.338
      -1.151
      -0.962
      -0.756
      -0.504
      -0.215
       0.059
       0.253
       0.324
       0.244
      -0.006
      -0.429
      -0.965
      -1.485
      -1.854
      -2.019
      -2.027
      -1.947
      -1.776
      -1.446
      -0.920
      -0.265
       0.388
       0.972
       1.550
       2.229
       2.991
       3.622
       3.834
       3.467
       2.618
       1.569
       0.619
      -0.059
      -0.451
      -0.647
      -0.775
      -0.944
      -1.212
      -1.568
      -1.927
      -2.143
      -2.076
      -1.671
      -1.021
      -0.333
       0.198
       0.501
       0.641
       0.710
       0.721
       0.602
       0.287
      -0.200
      -0.734
      -1.144
      -1.262
      -0.969
      -0.262
       0.685
       1.569
       2.110
       2.214
       1.992
       1.654
       1.364
       1.173
       1.030
       0.841
       0.518
       0.023
      -0.570
      -1.062
      -1.220
      -0.916
      -0.234
       0.578
       1.254
       1.651
       1.783
       1.752
       1.668
       1.582
       1.471
       1.250
       0.839
       0.222
      -0.526
      -1.274
      -1.893
      -2.287
      -2.402
      -2.221
      -1.763
      -1.076
      -0.235
       0.659
       1.472
       2.057
       2.296
       2.157
       1.708
       1.070
       0.326
      -0.512
      -1.441
      -2.364
      -3.066
      -3.314
      -3.021
      -2.307
      -1.444
      -0.707
      -0.251
      -0.072
      -0.056
      -0.073
      -0.045
       0.038
       0.149
       0.265
       0.381
       0.501
       0.629
       0.758
       0.859
       0.889
       0.816
       0.659
       0.484
       0.348
       0.241
       0.103
      -0.077
      -0.204
      -0.152
       0.087
       0.341
       0.386
       0.146
      -0.242
      -0.569
      -0.744
      -0.849
      -1.009
      -1.252
      -1.485
      -1.587
      -1.483
      -1.154
      -0.614
       0.061
       0.725
       1.206
       1.398
       1.312
       1.045
       0.713
       0.430
       0.281
       0.296
       0.433
       0.624
       0.863
       1.218
       1.740
       2.336
       2.784
       2.887
       2.628
       2.147
       1.571
       0.924
       0.207
      -0.454
      -0.843
      -0.856
      -0.644
      -0.505
      -0.612
      -0.866
      -1.024
      -0.945
      -0.703
      -0.477
      -0.385
      -0.430
      -0.591
      -0.872
      -1.239
      -1.547
      -1.573
      -1.182
      -0.447
       0.384
       1.060
       1.475
       1.692
       1.854
       2.062
       2.300
       2.430
       2.277
       1.734
       0.832
      -0.293
      -1.502
      -2.708
      -3.842
      -4.779
      -5.343
      -5.406
      -4.984
      -4.218
      -3.272
      -2.258
      -1.243
      -0.306
       0.464
       1.014
       1.375
       1.645
       1.932
       2.285
       2.669
       2.966
       3.011
       2.686
       2.030
       1.259
       0.631
       0.241
      -0.049
      -0.443
      -0.962
      -1.388
      -1.478
      -1.217
      -0.850
      -0.662
      -0.738
      -0.934
      -1.031
      -0.914
      -0.593
      -0.124
       0.458
       1.092
       1.653
       1.995
       2.041
       1.825
       1.450
       1.031
       0.675
       0.473
       0.448
       0.529
       0.594
       0.563
       0.435
       0.249
       0.044
      -0.152
      -0.294
      -0.348
      -0.335
      -0.340
      -0.436
      -0.570
      -0.565
      -0.270
       0.275
       0.838
       1.179
       1.245
       1.181
       1.164
       1.239
       1.326
       1.367
       1.408
       1.530
       1.721
       1.861
       1.845
       1.677
       1.412
       1.002
       0.253
      -1.008
      -2.695
      -4.387
      -5.531
      -5.786
      -5.229
      -4.262
      -3.301
      -2.498
      -1.699
      -0.670
       0.633
       1.959
       2.929
       3.298
       3.097
       2.535
       1.815
       1.034
       0.242
      -0.485
      -1.071
      -1.531
      -1.976
      -2.492
      -3.007
      -3.338
      -3.348
      -3.070
      -2.645
      -2.183
      -1.686
      -1.082
      -0.298
       0.694
       1.856
       3.037
       3.989
       4.485
       4.472
       4.066
       3.420
       2.603
       1.653
       0.685
      -0.111
      -0.624
      -0.936
      -1.227
      -1.569
      -1.824
      -1.778
      -1.372
      -0.771
      -0.199
       0.236
       0.563
       0.835
       1.039
       1.133
       1.103
       0.960
       0.703
       0.332
      -0.107
      -0.496
      -0.722
      -0.762
      -0.686
      -0.557
      -0.342
       0.079
       0.791
       1.741
       2.717
       3.436
       3.680
       3.417
       2.847
       2.310
       2.072
       2.130
       2.218
       2.013
       1.381
       0.474
      -0.394
      -0.956
      -1.140
      -1.080
      -0.999
      -1.060
      -1.254
      -1.425
      -1.398
      -1.120
      -0.684
      -0.245
       0.106
       0.348
       0.444
       0.300
      -0.141
      -0.749
      -1.218
      -1.282
      -0.974
      -0.658
      -0.757
      -1.427
      -2.444
      -3.421
      -4.115
      -4.528
      -4.727
      -4.632
      -4.057
      -2.963
      -1.636
      -0.536
       0.049
       0.194
       0.201
       0.304
       0.516
       0.726
       0.859
       0.910
       0.859
       0.633
       0.200
      -0.343
      -0.808
      -1.073
      -1.160
      -1.149
      -1.027
      -0.668
       0.045
       1.087
       2.279
       3.373
       4.122
       4.342
       3.977
       3.151
       2.112
       1.076
       0.123
      -0.743
      -1.470
      -1.941
      -2.084
      -1.964
      -1.708
      -1.338
      -0.738
       0.191
       1.324
       2.336
       2.946
       3.131
       3.083
       2.989
       2.869
       2.641
       2.290
       1.930
       1.676
       1.498
       1.259
       0.902
       0.563
       0.449
       0.588
       0.744
       0.617
       0.117
      -0.584
      -1.251
      -1.795
      -2.261
      -2.648
      -2.827
      -2.676
      -2.258
      -1.832
      -1.636
      -1.670
      -1.701
      -1.489
      -0.997
      -0.406
       0.043
       0.207
       0.070
      -0.303
      -0.811
      -1.330
      -1.731
      -1.919
      -1.867
      -1.627
      -1.299
      -0.994
      -0.771
      -0.601
      -0.372
       0.042
       0.686
       1.478
       2.257
       2.869
       3.203
       3.189
       2.805
       2.134
       1.379
       0.765
       0.372
       0.052
      -0.437
      -1.180
      -1.979
      -2.484
      -2.467
      -1.980
      -1.292
      -0.709
      -0.424
      -0.459
      -0.665
      -0.787
      -0.627
      -0.193
       0.280
       0.501
       0.332
      -0.138
      -0.695
      -1.141
      -1.333
      -1.179
      -0.665
       0.081
       0.839
       1.452
       1.945
       2.448
       2.984
       3.371
       3.369
       2.923
       2.233
       1.564
       1.014
       0.485
      -0.137
      -0.819
      -1.382
      -1.624
      -1.452
      -0.929
      -0.235
       0.409
       0.846
       1.026
       1.012
       0.931
       0.922
       1.082
       1.410
       1.757
       1.847
       1.446
       0.556
      -0.522
      -1.386
      -1.780
      -1.696
      -1.259
      -0.618
       0.063
       0.568
       0.699
       0.438
      -0.004
      -0.341
      -0.451
      -0.445
      -0.512
      -0.711
      -0.912
      -0.933
      -0.712
      -0.367
      -0.113
      -0.128
      -0.449
      -0.960
      -1.452
      -1.736
      -1.766
      -1.676
      -1.666
      -1.818
      -2.008
      -2.008
      -1.662
      -0.995
      -0.160
       0.651
       1.271
       1.581
       1.534
       1.184
       0.665
       0.128
      -0.309
      -0.593
      -0.721
      -0.728
      -0.644
      -0.453
      -0.082
       0.531
       1.345
       2.198
       2.896
       3.334
       3.508
       3.428
       3.054
       2.357
       1.442
       0.559
      -0.053
      -0.331
      -0.406
      -0.471
      -0.645
      -0.925
      -1.224
      -1.434
      -1.489
      -1.415
      -1.326
      -1.336
      -1.454
      -1.560
      -1.541
      -1.446
      -1.477
      -1.771
      -2.198
      -2.420
      -2.161
      -1.411
      -0.387
       0.657
       1.552
       2.205
       2.551
       2.564
       2.297
       1.855
       1.317
       0.694
      -0.032
      -0.827
      -1.581
      -2.144
      -2.382
      -2.235
      -1.752
      -1.081
      -0.411
       0.112
       0.445
       0.622
       0.712
       0.788
       0.928
       1.204
       1.626
       2.082
       2.364
       2.277
       1.779
       1.014
       0.214
      -0.436
      -0.874
      -1.139
      -1.295
      -1.363
      -1.292
      -1.008
      -0.504
       0.118
       0.679
       1.020
       1.045
       0.712
       0.036
      -0.864
      -1.736
      -2.284
      -2.339
      -1.953
      -1.319
      -0.577
       0.287
       1.329
       2.464
       3.430
       3.965
       3.996
       3.626
       2.987
       2.148
       1.177
       0.235
      -0.461
      -0.787
      -0.813
      -0.717
      -0.625
      -0.527
      -0.343
      -0.030
       0.366
       0.742
       0.999
       1.078
       0.982
       0.759
       0.465
       0.136
      -0.219
      -0.603
      -0.998
      -1.369
      -1.696
      -1.986
      -2.255
      -2.476
      -2.577
