Origin Time       11/5/2012 18:41:28	
Lat.              26.6 N	
Long.             93.0 E	
Depth (Km)         20.0
Magnitude         5.4
 Region           Assam                                                            
 Above details taken from IMD 
   
Station Code      GOL
Station Lat.       26.516
Station Long.      93.972
Station Height(m)   93.0
Site Class        B   Vs30 between 375 m/sec to 700 m/sec *  
Record Time       11.05.2012 12:41:51.184
Sampling Rate     200. Hz
 Record Duration   66.690 Sec.
 Direction         Vert. (Up positive)
Max. Acceleration      8.996 cm/sec**2
     
  * For reference see Site Classification link of website 
     
 Base Line Corrected and Low Pass Filtered (Cut Off at 35 Hz) Time History
 Acceleration data in cm/sec**2
    
[...]
      -1.075
       0.037
       1.286
       2.127
       2.056
       1.017
      -0.370
      -1.111
      -0.582
       0.886
       2.176
       2.249
       0.962
      -0.856
      -2.091
      -2.165
      -1.343
      -0.354
       0.244
       0.379
       0.306
       0.244
       0.176
      -0.037
      -0.389
      -0.633
      -0.450
       0.237
       1.117
       1.654
       1.454
       0.561
      -0.506
      -1.070
      -0.776
       0.132
       0.976
       1.106
       0.321
      -1.022
      -2.228
      -2.647
      -2.038
      -0.726
       0.578
       1.252
       1.193
       0.791
       0.465
       0.279
       0.031
      -0.338
      -0.553
      -0.270
       0.493
       1.223
       1.260
       0.339
      -1.120
      -2.230
      -2.259
      -1.191
       0.241
       1.131
       1.115
       0.552
       0.089
       0.069
       0.359
       0.629
       0.718
       0.716
       0.733
       0.679
       0.362
      -0.199
      -0.677
      -0.785
      -0.655
      -0.706
      -1.065
      -1.278
      -0.746
       0.508
       1.668
       1.799
       0.755
      -0.616
      -1.180
      -0.512
       0.749
       1.496
       1.163
       0.162
      -0.630
      -0.758
      -0.487
      -0.321
      -0.413
      -0.524
      -0.420
      -0.139
       0.131
       0.287
       0.340
       0.284
       0.072
      -0.215
      -0.290
       0.135
       0.960
       1.565
       1.208
      -0.226
      -1.830
      -2.258
      -0.961
       1.114
       2.249
       1.512
      -0.413
      -1.939
      -2.017
      -0.888
       0.376
       0.899
       0.617
       0.085
      -0.170
      -0.061
       0.203
       0.492
       0.817
       1.094
       1.068
       0.589
      -0.114
      -0.609
      -0.720
      -0.677
      -0.740
      -0.789
      -0.462
       0.291
       0.961
       0.909
       0.054
      -0.950
      -1.241
      -0.520
       0.655
       1.319
       0.926
      -0.189
      -1.139
      -1.300
      -0.762
      -0.029
       0.586
       1.108
       1.475
       1.270
       0.132
      -1.524
      -2.490
      -1.757
       0.408
       2.504
       2.973
       1.444
      -1.007
      -2.691
      -2.501
      -0.652
       1.537
       2.663
       2.271
       1.039
      -0.014
      -0.456
      -0.590
      -0.855
      -1.304
      -1.669
      -1.717
      -1.378
      -0.647
       0.402
       1.458
       2.041
       1.860
       1.073
       0.162
      -0.415
      -0.483
      -0.189
       0.135
       0.194
      -0.107
      -0.633
      -1.116
      -1.266
      -0.905
      -0.113
       0.723
       1.085
       0.664
      -0.363
      -1.364
      -1.640
      -0.901
       0.502
       1.770
       2.177
       1.548
       0.321
      -0.870
      -1.661
      -1.984
      -1.759
      -0.814
       0.747
       2.244
       2.755
       1.841
      -0.039
      -1.820
      -2.524
      -1.851
      -0.332
       1.049
       1.533
       1.063
       0.181
      -0.522
      -0.826
      -0.786
      -0.417
       0.304
       1.123
       1.491
       1.067
       0.149
      -0.575
      -0.697
      -0.418
      -0.219
      -0.310
      -0.456
      -0.309
       0.148
       0.513
       0.380
      -0.155
      -0.519
      -0.294
       0.245
       0.400
      -0.104
      -0.703
      -0.524
       0.702
       2.282
       3.073
       2.373
       0.439
      -1.682
      -2.871
      -2.688
      -1.648
      -0.719
      -0.425
      -0.436
      -0.124
       0.559
       0.961
       0.555
      -0.305
      -0.639
       0.126
       1.507
       2.392
       2.050
       0.703
      -0.773
      -1.572
      -1.437
      -0.653
       0.272
       0.909
       1.026
       0.526
      -0.517
      -1.689
      -2.252
      -1.634
      -0.045
       1.501
       1.963
       1.144
      -0.197
      -1.051
      -0.949
      -0.203
       0.529
       0.877
       1.000
       1.167
       1.191
       0.520
      -0.985
      -2.520
      -2.895
      -1.697
       0.209
       1.491
       1.602
       1.110
       0.843
       0.975
       1.102
       0.990
       0.892
       1.031
       1.069
       0.411
      -0.986
      -2.317
      -2.587
      -1.576
      -0.144
       0.492
      -0.103
      -1.110
      -1.210
       0.095
       1.904
       2.727
       1.889
       0.117
      -1.226
      -1.379
      -0.672
       0.038
       0.209
      -0.083
      -0.479
      -0.746
      -0.837
      -0.719
      -0.331
       0.252
       0.736
       0.813
       0.458
      -0.015
      -0.259
      -0.234
      -0.245
      -0.626
      -1.337
      -1.804
      -1.283
       0.405
       2.410
       3.285
       2.135
      -0.522
      -3.069
      -3.978
      -2.801
      -0.294
       2.128
       3.179
       2.418
       0.534
      -1.169
      -1.762
      -1.295
      -0.480
       0.062
       0.164
      -0.080
      -0.525
      -0.874
      -0.660
       0.332
       1.597
       2.140
       1.407
      -0.068
      -1.084
      -0.874
       0.245
       1.267
       1.454
       0.900
       0.251
      -0.054
      -0.203
      -0.636
      -1.330
      -1.649
      -1.023
       0.282
       1.242
       1.053
       0.010
      -0.669
      -0.086
       1.267
       1.820
       0.499
      -1.994
      -3.640
      -2.939
      -0.313
       2.330
       3.335
       2.589
       1.195
       0.204
      -0.189
      -0.405
      -0.814
      -1.363
      -1.636
      -1.217
      -0.188
       0.686
       0.526
      -0.691
      -1.840
      -1.599
       0.152
       1.986
       2.165
       0.328
      -2.019
      -2.801
      -1.242
       1.431
       3.098
       2.575
       0.479
      -1.494
      -2.045
      -1.163
       0.195
       1.090
       1.240
       0.942
       0.603
       0.413
       0.318
       0.174
      -0.087
      -0.372
      -0.469
      -0.213
       0.342
       0.892
       1.056
       0.665
      -0.034
      -0.504
      -0.395
       0.029
       0.074
      -0.594
      -1.393
      -1.275
       0.145
       2.002
       2.851
       1.969
       0.005
      -1.600
      -1.791
      -0.640
       0.859
       1.617
       1.240
       0.208
      -0.668
      -1.040
      -1.230
      -1.647
      -2.072
      -1.716
      -0.118
       2.068
       3.357
       2.704
       0.547
      -1.489
      -2.047
      -1.192
      -0.131
       0.154
      -0.182
      -0.316
       0.092
       0.469
       0.099
      -0.923
      -1.705
      -1.524
      -0.594
       0.196
       0.256
      -0.088
      -0.015
       0.755
       1.446
       0.992
      -0.560
      -1.680
      -0.811
       1.732
       3.655
       2.799
      -0.623
      -4.047
      -4.880
      -2.794
       0.222
       1.905
       1.713
       0.857
       0.609
       0.904
       0.757
      -0.197
      -1.012
      -0.494
       1.258
       2.694
       2.297
       0.131
      -2.163
      -2.867
      -1.634
       0.405
       1.740
       1.641
       0.500
      -0.718
      -1.313
      -1.252
      -0.910
      -0.539
      -0.108
       0.389
       0.731
       0.744
       0.627
       0.755
       1.130
       1.227
       0.564
      -0.650
      -1.584
      -1.560
      -0.732
       0.046
       0.043
      -0.683
      -1.418
      -1.504
      -0.877
       0.006
       0.629
       0.772
       0.583
       0.431
       0.651
       1.243
       1.777
       1.685
       0.790
      -0.446
      -1.215
      -1.003
      -0.034
       0.797
       0.532
      -1.027
      -2.917
      -3.604
      -2.317
       0.099
       1.793
       1.530
      -0.258
      -1.965
      -2.268
      -1.122
       0.505
       1.687
       2.224
       2.404
       2.331
       1.738
       0.519
      -0.741
      -1.061
      -0.104
       1.170
       1.200
      -0.538
      -2.678
      -3.054
      -0.875
       2.260
       3.748
       2.480
      -0.106
      -1.514
      -0.669
       1.196
       1.995
       0.883
      -1.103
      -2.243
      -1.737
      -0.227
       0.972
       1.029
       0.136
      -0.860
      -1.266
      -0.998
      -0.366
       0.376
       1.149
       1.867
       2.387
       2.674
       2.788
       2.614
       1.800
       0.215
      -1.586
      -2.611
      -2.321
      -1.208
      -0.416
      -0.710
      -1.799
      -2.658
      -2.500
      -1.449
      -0.384
      -0.201
      -1.061
      -2.171
      -2.382
      -1.244
       0.508
       1.657
       1.733
       1.391
       1.525
       2.209
       2.674
       2.242
       1.117
       0.220
       0.291
       1.113
       1.633
       0.911
      -0.921
      -2.630
      -2.898
      -1.505
       0.400
       1.280
       0.600
      -0.695
      -1.169
      -0.376
       0.752
       0.997
       0.166
      -0.797
      -0.913
      -0.190
       0.481
       0.328
      -0.575
      -1.487
      -1.755
      -1.320
      -0.604
      -0.016
       0.405
       0.890
       1.545
       2.144
       2.377
       2.254
       2.077
       1.975
       1.649
       0.738
      -0.656
      -1.974
      -2.718
      -2.793
      -2.347
      -1.500
      -0.370
       0.734
       1.379
       1.346
       0.890
       0.586
       0.811
       1.268
       1.144
      -0.036
      -1.674
      -2.455
      -1.671
      -0.072
       0.810
       0.205
      -1.196
      -2.044
      -1.657
      -0.541
       0.175
      -0.263
      -1.588
      -2.678
      -2.454
      -0.850
       1.091
       2.191
       2.173
       1.642
       1.166
       0.774
       0.429
       0.565
       1.628
       3.153
       3.705
       2.156
      -0.935
      -3.374
      -3.126
      -0.338
       2.442
       2.397
      -0.863
      -4.715
      -5.858
      -3.360
       0.547
       2.617
       1.526
      -1.123
      -2.494
      -1.186
       1.641
       3.625
       3.542
       2.201
       1.157
       0.901
       0.606
      -0.497
      -1.941
      -2.501
      -1.720
      -0.640
      -0.795
      -2.476
      -4.161
      -3.870
      -1.171
       2.250
       4.102
       3.581
       1.963
       1.202
       2.034
       3.419
       3.688
       2.095
      -0.646
      -3.083
      -4.155
      -3.822
      -2.907
      -2.376
      -2.548
      -2.808
      -2.142
      -0.117
       2.493
       4.056
       3.335
       0.756
      -1.563
      -1.456
       1.234
       4.262
       4.894
       2.391
      -1.319
      -3.398
      -2.598
      -0.176
       1.531
       1.330
      -0.002
      -0.862
      -0.404
       1.036
       2.587
       3.495
       3.254
       1.626
      -1.072
      -3.705
      -4.750
      -3.384
      -0.340
       2.363
       2.796
       0.601
      -2.591
      -4.320
      -3.272
      -0.404
       1.966
       2.314
       1.125
       0.008
      -0.106
       0.345
       0.440
      -0.068
      -0.576
      -0.438
       0.219
       0.557
      -0.068
      -1.282
      -1.851
      -0.767
       1.768
       4.454
       5.957
       5.793
       4.207
       1.546
      -1.844
      -5.125
      -6.859
      -5.972
      -3.013
      -0.189
       0.306
      -1.760
      -4.340
      -4.800
      -2.099
       2.375
       5.934
       6.667
       4.784
       2.127
       0.378
      -0.238
      -0.561
      -1.094
      -1.296
      -0.357
       1.533
       2.957
       2.462
       0.016
      -2.752
      -3.893
      -2.881
      -1.095
      -0.497
      -1.692
      -3.278
      -3.220
      -0.925
       2.142
       3.881
       3.439
       1.645
      -0.055
      -0.712
      -0.118
       1.484
       3.542
       5.155
       5.262
       3.210
      -0.615
      -4.693
      -7.139
      -6.935
      -4.683
      -2.131
      -0.786
      -0.841
      -1.369
      -1.482
      -1.112
      -0.666
      -0.220
       0.619
       2.069
       3.620
       4.308
       3.604
       2.016
       0.743
       0.649
       1.477
       2.072
       1.455
      -0.273
      -2.101
      -3.104
      -3.144
      -2.526
      -1.335
       0.402
       1.936
       1.867
      -0.429
      -3.591
      -5.025
      -3.215
       0.739
       3.941
       4.130
       1.502
      -1.594
      -2.687
      -1.149
       1.427
       2.623
       1.177
      -1.967
      -4.423
      -4.336
      -1.853
       1.186
       2.927
       2.922
       2.136
       1.868
       2.688
       4.105
       5.049
       4.790
       3.548
       2.178
       1.213
       0.272
      -1.454
      -4.105
      -6.655
      -7.692
      -6.795
      -5.072
      -4.130
      -4.392
      -4.525
      -2.795
       0.870
       4.339
       5.138
       3.049
       0.638
       0.858
       4.031
       7.308
       7.278
       3.180
      -2.317
      -5.392
      -4.240
      -0.407
       2.616
       2.160
      -1.708
      -6.392
      -8.686
      -7.005
      -2.423
       2.182
       4.254
       3.337
       1.121
      -0.123
       0.756
       3.267
       5.996
       7.604
       7.389
       5.411
       2.431
      -0.380
      -2.009
      -2.177
      -1.512
      -1.156
      -1.990
      -3.947
      -5.902
      -6.400
      -4.846
      -2.161
      -0.143
      -0.019
      -1.479
      -2.996
      -2.971
      -0.760
       2.997
       6.770
       8.996
       8.905
       6.869
       4.047
       1.623
       0.130
      -0.754
      -1.818
      -3.491
      -5.266
      -6.063
      -5.316
      -3.542
      -1.713
      -0.231
       1.196
       2.684
       3.599
       3.165
       1.525
      -0.136
      -0.639
       0.141
       1.264
       1.633
       0.944
      -0.146
      -0.821
      -1.121
      -1.944
      -3.817
      -5.778
      -5.941
      -3.472
       0.177
       2.498
       2.539
       1.918
       2.864
       5.423
       7.110
       5.541
       1.159
      -2.887
      -3.612
      -0.952
       2.196
       2.672
      -0.028
      -3.370
      -4.346
      -2.444
       0.016
       0.487
      -1.157
      -2.737
      -2.291
      -0.109
       1.733
       1.549
      -0.392
      -2.305
      -2.659
      -1.438
       0.194
       1.203
       1.535
       1.743
       2.048
       2.017
       1.202
      -0.190
      -1.492
      -2.310
      -2.788
      -3.094
      -2.944
      -1.868
       0.158
       2.557
       4.556
       5.595
       5.449
       4.313
       2.863
       1.908
       1.697
       1.614
       0.780
      -1.001
      -3.035
      -4.496
      -5.213
      -5.568
      -5.708
      -5.194
      -3.585
      -1.261
       0.624
       1.153
       0.547
      -0.021
       0.462
       1.917
       3.311
       3.719
       3.261
       2.901
       3.248
       3.664
       2.756
      -0.093
      -3.716
      -5.793
      -4.643
      -0.640
       3.913
       6.387
       5.621
       2.538
      -0.789
      -2.671
      -2.732
      -1.740
      -0.789
      -0.542
      -0.993
      -1.728
      -2.347
      -2.689
      -2.765
      -2.540
      -1.888
      -0.818
       0.258
       0.668
       0.085
      -0.897
      -0.908
       1.177
       4.980
       8.343
       8.724
       5.338
       0.091
      -3.709
      -3.894
      -1.066
       2.059
       2.961
       1.271
      -1.271
      -2.665
      -2.437
      -1.652
      -1.450
      -1.910
      -2.412
      -2.735
      -3.360
      -4.600
      -5.746
      -5.445
      -3.041
       0.635
       3.935
       5.800
       6.420
       6.654
       6.981
       7.104
       6.491
       5.106
       3.400
       1.626
      -0.524
      -3.253
      -5.800
      -6.754
      -5.534
      -3.301
      -2.029
      -2.554
      -3.694
      -3.421
      -0.903
       2.582
       4.745
       4.372
       2.348
       0.660
       0.485
       1.362
       2.073
       1.996
       1.371
       0.484
      -0.851
      -2.745
      -4.426
      -4.527
      -2.484
       0.500
       2.240
       1.539
      -0.604
      -1.855
      -0.727
       2.115
       4.642
       5.364
       4.325
       2.453
       0.374
      -1.871
      -4.136
      -5.637
      -5.464
      -3.624
      -1.322
      -0.037
      -0.296
      -1.394
      -2.215
      -2.193
      -1.505
      -0.566
       0.418
       1.369
       2.006
       1.947
       1.322
       0.983
       1.681
       2.988
       3.378
       1.691
      -1.490
      -4.095
      -4.319
      -2.232
       0.251
       1.040
      -0.281
      -2.099
      -2.240
       0.032
       3.355
       5.554
       5.512
       3.830
       1.918
       0.749
       0.438
       0.591
       0.747
       0.567
      -0.133
      -1.331
      -2.813
      -4.263
      -5.342
      -5.661
      -4.891
      -3.132
      -1.091
       0.411
       1.207
       1.797
       2.502
       2.966
       2.814
       2.523
       3.064
       4.514
       5.510
       4.534
       1.633
      -1.488
      -3.055
      -2.694
      -1.316
       0.044
       0.950
       1.285
       0.739
      -1.015
      -3.596
      -5.659
      -5.724
      -3.438
      -0.056
       2.450
       2.887
       1.619
      -0.013
      -0.948
      -1.043
      -0.743
      -0.507
      -0.661
      -1.446
      -2.809
      -4.113
      -4.329
      -2.816
      -0.061
       2.446
       3.356
       2.680
       1.840
       2.304
       4.058
       5.459
       4.753
       1.831
      -1.533
      -3.195
      -2.428
      -0.300
       1.441
       1.697
       0.445
      -1.613
      -3.487
      -4.255
      -3.484
      -1.552
       0.518
       1.663
       1.397
       0.051
      -1.470
      -2.278
      -2.052
      -1.121
      -0.060
       0.789
       1.431
       2.005
       2.503
       2.690
       2.352
       1.624
       1.017
       1.001
       1.525
       2.004
       1.791
       0.724
      -0.676
      -1.524
      -1.245
      -0.121
       0.762
       0.316
      -1.523
      -3.478
      -3.861
      -2.105
       0.530
       1.915
       0.953
      -1.383
      -2.883
      -2.063
       0.584
       3.047
       3.430
       1.397
      -1.532
      -2.995
      -1.558
       1.998
       5.146
       5.714
       3.700
       0.929
      -1.012
      -2.184
      -3.477
      -4.857
      -5.101
      -3.480
      -1.165
      -0.358
      -1.900
      -4.122
      -4.365
      -1.617
       2.452
       4.995
       4.510
       2.101
       0.416
       1.198
       3.591
       4.928
       3.442
       0.187
      -2.018
      -1.634
       0.044
       0.565
      -0.886
      -2.829
      -3.363
      -2.159
      -0.526
       0.139
      -0.273
      -0.677
      -0.094
       1.234
       2.050
       1.389
      -0.377
      -1.828
      -1.794
      -0.315
       1.632
       3.101
       3.720
       3.469
       2.338
       0.500
      -1.407
      -2.543
      -2.562
      -1.889
      -1.329
      -1.431
      -2.149
      -2.978
      -3.445
      -3.448
      -3.034
      -1.949
       0.162
       2.829
       4.429
       3.443
       0.285
      -2.485
