Origin Time       09/1/2013 01:41:52	
Lat.              25.4 N	
Long.             94.9 E	
Depth (Km)         89.0
Magnitude         5.9
 Region           Myanmar-India-Border-Region                                      
 Above details taken from IMD 
     
Station Code      GOL
Station Lat.       26.515  N
Station Long.      93.972  E
Station Height(m)   93.0
Site Class        B   Vs30 between 375 m/sec to 700 m/sec *  
Record Time       09.01.2013 01:42:22.854
Sampling Rate     200. Hz
 Record Duration   78.840 Sec.
 Direction         E-W (E positive)
Max. Acceleration     25.433 cm/sec**2
     
  * For reference see Site Classification link of website 
     
 Base Line Corrected and Low Pass Filtered (Cut Off at 35 Hz) Time History
 Acceleration data in cm/sec**2
    
[...]
       0.987
       1.017
       0.894
       0.770
       0.764
       0.871
       0.957
       0.858
       0.489
      -0.104
      -0.790
      -1.433
      -1.952
      -2.313
      -2.478
      -2.367
      -1.898
      -1.095
      -0.169
       0.545
       0.770
       0.457
      -0.177
      -0.780
      -1.068
      -0.960
      -0.571
      -0.086
       0.338
       0.593
       0.611
       0.378
      -0.020
      -0.411
      -0.630
      -0.629
      -0.522
      -0.505
      -0.694
      -1.005
      -1.180
      -0.966
      -0.344
       0.398
       0.837
       0.730
       0.218
      -0.284
      -0.424
      -0.179
       0.160
       0.271
       0.079
      -0.220
      -0.367
      -0.269
      -0.042
       0.135
       0.205
       0.270
       0.482
       0.882
       1.339
       1.651
       1.696
       1.513
       1.249
       1.040
       0.944
       0.936
       0.949
       0.925
       0.838
       0.711
       0.595
       0.519
       0.446
       0.285
      -0.023
      -0.407
      -0.672
      -0.630
      -0.248
       0.300
       0.741
       0.875
       0.701
       0.391
       0.148
       0.039
      -0.058
      -0.337
      -0.866
      -1.499
      -1.969
      -2.096
      -1.897
      -1.523
      -1.110
      -0.691
      -0.243
       0.211
       0.572
       0.740
       0.705
       0.554
       0.385
       0.248
       0.158
       0.136
       0.207
       0.336
       0.391
       0.207
      -0.290
      -0.980
      -1.585
      -1.845
      -1.694
      -1.273
      -0.790
      -0.350
       0.079
       0.583
       1.177
       1.767
       2.192
       2.319
       2.118
       1.678
       1.166
       0.737
       0.468
       0.337
       0.252
       0.124
      -0.092
      -0.402
      -0.792
      -1.227
      -1.623
      -1.843
      -1.766
      -1.368
      -0.758
      -0.145
       0.263
       0.356
       0.193
      -0.036
      -0.125
       0.004
       0.255
       0.432
       0.401
       0.196
      -0.013
      -0.071
       0.028
       0.136
       0.084
      -0.193
      -0.604
      -0.956
      -1.053
      -0.773
      -0.125
       0.731
       1.533
       2.031
       2.109
       1.825
       1.355
       0.884
       0.520
       0.288
       0.172
       0.139
       0.131
       0.063
      -0.140
      -0.478
      -0.863
      -1.176
      -1.345
      -1.381
      -1.335
      -1.213
      -0.951
      -0.475
       0.173
       0.795
       1.119
       0.965
       0.365
      -0.443
      -1.146
      -1.524
      -1.551
      -1.342
      -1.031
      -0.669
      -0.255
       0.173
       0.494
       0.565
       0.347
      -0.037
      -0.368
      -0.474
      -0.315
       0.064
       0.612
       1.275
       1.917
       2.298
       2.210
       1.660
       0.914
       0.329
       0.096
       0.126
       0.146
      -0.063
      -0.500
      -0.951
      -1.137
      -0.875
      -0.158
       0.844
       1.829
       2.450
       2.439
       1.745
       0.598
      -0.562
      -1.298
      -1.414
      -1.053
      -0.588
      -0.364
      -0.482
      -0.757
      -0.903
      -0.777
      -0.482
      -0.266
      -0.304
      -0.574
      -0.893
      -1.047
      -0.906
      -0.455
       0.237
       1.034
       1.756
       2.220
       2.301
       1.985
       1.372
       0.623
      -0.091
      -0.641
      -0.951
      -0.994
      -0.782
      -0.384
       0.071
       0.429
       0.575
       0.474
       0.148
      -0.364
      -1.011
      -1.700
      -2.298
      -2.669
      -2.729
      -2.455
      -1.881
      -1.104
      -0.311
       0.258
       0.438
       0.272
       0.007
      -0.076
       0.125
       0.455
       0.642
       0.524
       0.181
      -0.146
      -0.245
      -0.054
       0.368
       0.926
       1.523
       2.015
       2.215
       2.000
       1.435
       0.784
       0.358
       0.306
       0.536
       0.823
       0.999
       1.040
       0.994
       0.847
       0.504
      -0.100
      -0.884
      -1.626
      -2.086
      -2.155
      -1.902
      -1.504
      -1.105
      -0.742
      -0.373
       0.014
       0.340
       0.477
       0.386
       0.178
       0.047
       0.109
       0.309
       0.472
       0.456
       0.252
      -0.044
      -0.334
      -0.584
      -0.783
      -0.870
      -0.716
      -0.229
       0.520
       1.248
       1.585
       1.299
       0.456
      -0.629
      -1.580
      -2.121
      -2.133
      -1.639
      -0.816
       0.033
       0.594
       0.706
       0.451
       0.089
      -0.098
       0.024
       0.358
       0.646
       0.657
       0.365
      -0.028
      -0.273
      -0.289
      -0.255
      -0.488
      -1.179
      -2.199
      -3.146
      -3.615
      -3.465
      -2.873
      -2.129
      -1.396
      -0.631
       0.277
       1.307
       2.245
       2.822
       2.931
       2.722
       2.481
       2.388
       2.383
       2.251
       1.835
       1.161
       0.390
      -0.318
      -0.876
      -1.253
      -1.431
      -1.411
      -1.230
      -0.929
      -0.519
       0.011
       0.648
       1.319
       1.909
       2.299
       2.393
       2.122
       1.464
       0.494
      -0.606
      -1.614
      -2.372
      -2.826
      -2.975
      -2.800
      -2.271
      -1.416
      -0.394
       0.531
       1.105
       1.235
       1.055
       0.829
       0.737
       0.717
       0.528
      -0.011
      -0.807
      -1.503
      -1.694
      -1.160
       0.015
       1.475
       2.720
       3.293
       2.995
       2.011
       0.845
       0.048
      -0.082
       0.326
       0.810
       0.883
       0.352
      -0.563
      -1.375
      -1.638
      -1.190
      -0.207
       0.932
       1.865
       2.403
       2.564
       2.489
       2.336
       2.220
       2.199
       2.259
       2.322
       2.287
       2.121
       1.889
       1.689
       1.558
       1.432
       1.193
       0.747
       0.099
      -0.625
      -1.241
      -1.594
      -1.622
      -1.361
      -0.940
      -0.573
      -0.519
      -0.963
      -1.896
      -3.067
      -4.089
      -4.615
      -4.498
      -3.835
      -2.901
      -2.019
      -1.409
      -1.117
      -1.043
      -1.029
      -0.932
      -0.647
      -0.120
       0.600
       1.337
       1.883
       2.156
       2.257
       2.308
       2.205
       1.597
       0.182
      -1.917
      -4.063
      -5.434
      -5.504
      -4.315
      -2.352
      -0.207
       1.706
       3.200
       4.227
       4.806
       5.006
       4.937
       4.676
       4.180
       3.275
       1.775
      -0.320
      -2.677
      -4.705
      -5.835
      -5.847
      -5.010
      -3.910
      -3.085
      -2.719
      -2.624
      -2.470
      -2.054
      -1.407
      -0.708
      -0.140
       0.172
       0.163
      -0.138
      -0.544
      -0.726
      -0.363
       0.646
       2.059
       3.371
       4.051
       3.834
       2.871
       1.637
       0.645
       0.169
       0.133
       0.210
       0.022
      -0.625
      -1.593
      -2.467
      -2.822
      -2.532
      -1.848
      -1.176
      -0.717
      -0.306
       0.436
       1.756
       3.530
       5.315
       6.630
       7.233
       7.202
       6.796
       6.248
       5.655
       5.013
       4.316
       3.607
       2.936
       2.304
       1.637
       0.830
      -0.181
      -1.347
      -2.486
      -3.359
      -3.810
      -3.877
      -3.783
      -3.798
      -4.072
      -4.554
      -5.044
      -5.333
      -5.356
      -5.214
      -5.049
      -4.846
      -4.358
      -3.250
      -1.370
       1.067
       3.536
       5.449
       6.424
       6.400
       5.574
       4.246
       2.681
       1.048
      -0.571
      -2.129
      -3.545
      -4.659
      -5.282
      -5.307
      -4.798
      -3.940
      -2.885
      -1.632
      -0.071
       1.802
       3.699
       5.083
       5.499
       4.937
       3.890
       3.008
       2.630
       2.593
       2.468
       1.968
       1.181
       0.455
       0.093
       0.103
       0.208
       0.070
      -0.461
      -1.259
      -2.060
      -2.650
      -2.959
      -2.998
      -2.764
      -2.216
      -1.336
      -0.226
       0.862
       1.609
       1.804
       1.483
       0.906
       0.395
       0.159
       0.222
       0.474
       0.769
       0.985
       1.018
       0.758
       0.107
      -0.936
      -2.219
      -3.476
      -4.449
      -4.984
      -5.020
      -4.521
      -3.465
      -1.942
      -0.252
       1.143
       1.837
       1.729
       1.110
       0.510
       0.434
       1.140
       2.562
       4.371
       6.113
       7.346
       7.749
       7.193
       5.774
       3.789
       1.614
      -0.454
      -2.306
      -3.993
      -5.583
      -6.993
      -7.944
      -8.097
      -7.280
      -5.647
      -3.662
      -1.903
      -0.813
      -0.520
      -0.849
      -1.487
      -2.178
      -2.797
      -3.302
      -3.680
      -3.946
      -4.142
      -4.275
      -4.226
      -3.782
      -2.774
      -1.240
       0.574
       2.347
       3.841
       4.945
       5.609
       5.786
       5.478
       4.813
       4.031
       3.367
       2.967
       2.923
       3.338
       4.303
       5.766
       7.427
       8.772
       9.275
       8.636
       6.915
       4.454
       1.690
      -0.975
      -3.187
      -4.640
      -5.185
      -4.957
      -4.325
      -3.635
      -2.971
      -2.162
      -1.011
       0.470
       2.000
       3.172
       3.679
       3.472
       2.757
       1.831
       0.898
      -0.036
      -1.128
      -2.596
      -4.542
      -6.791
      -8.835
     -10.007
      -9.807
      -8.195
      -5.650
      -2.972
      -0.923
       0.098
       0.205
      -0.109
      -0.289
      -0.031
       0.600
       1.271
       1.587
       1.244
       0.103
      -1.781
      -4.147
      -6.587
      -8.683
     -10.151
     -10.883
     -10.848
      -9.959
      -8.041
      -4.988
      -0.980
       3.410
       7.375
      10.215
      11.665
      11.971
      11.651
      11.108
      10.386
       9.246
       7.446
       4.970
       2.032
      -1.013
      -3.708
      -5.460
      -5.644
      -3.934
      -0.623
       3.406
       7.113
       9.809
      11.354
      11.946
      11.789
      10.947
       9.453
       7.486
       5.363
       3.347
       1.476
      -0.393
      -2.330
      -4.130
      -5.362
      -5.689
      -5.195
      -4.410
      -3.951
      -4.026
      -4.258
      -4.037
      -3.109
      -1.864
      -1.071
      -1.309
      -2.602
      -4.456
      -6.195
      -7.294
      -7.530
      -6.905
      -5.497
      -3.369
      -0.617
       2.515
       5.591
       8.090
       9.605
      10.012
       9.476
       8.325
       6.869
       5.273
       3.537
       1.632
      -0.306
      -1.884
      -2.585
      -2.103
      -0.634
       1.111
       2.263
       2.272
       1.164
      -0.562
      -2.275
      -3.558
      -4.385
      -5.044
      -5.854
      -6.894
      -7.921
      -8.512
      -8.269
      -6.955
      -4.575
      -1.436
       1.811
       4.294
       5.243
       4.383
       2.083
      -0.876
      -3.725
      -5.989
      -7.483
      -8.163
      -8.035
      -7.193
      -5.899
      -4.571
      -3.642
      -3.338
      -3.518
      -3.693
      -3.244
      -1.727
       0.939
       4.464
       8.291
      11.687
      13.849
      14.092
      12.136
       8.297
       3.404
      -1.551
      -5.791
      -8.943
     -10.967
     -11.938
     -11.898
     -10.852
      -8.900
      -6.339
      -3.618
      -1.136
       0.944
       2.706
       4.303
       5.813
       7.268
       8.780
      10.557
      12.751
      15.267
      17.725
      19.623
      20.620
      20.715
      20.160
      19.197
      17.840
      15.903
      13.217
       9.835
       6.069
       2.361
      -0.899
      -3.483
      -5.371
      -6.754
      -7.964
      -9.322
     -10.986
     -12.901
     -14.865
     -16.599
     -17.771
     -18.048
     -17.223
     -15.325
     -12.588
      -9.321
      -5.784
      -2.179
       1.294
       4.359
       6.660
       7.902
       8.080
       7.554
       6.810
       6.076
       5.179
       3.792
       1.797
      -0.565
      -2.836
      -4.612
      -5.740
      -6.365
      -6.810
      -7.363
      -8.080
      -8.724
      -8.897
      -8.247
      -6.641
      -4.198
      -1.208
       1.957
       4.907
       7.253
       8.614
       8.665
       7.253
       4.521
       0.935
      -2.850
      -6.244
      -8.926
     -10.865
     -12.155
     -12.777
     -12.469
     -10.829
      -7.621
      -3.088
       1.998
       6.595
       9.810
      11.248
      11.135
      10.191
       9.283
       9.046
       9.671
      10.957
      12.503
      13.855
      14.563
      14.235
      12.623
       9.746
       5.967
       1.994
      -1.296
      -3.209
      -3.617
      -3.088
      -2.617
      -3.120
      -5.022
      -8.130
     -11.759
     -15.016
     -17.145
     -17.825
     -17.259
     -15.995
     -14.620
     -13.533
     -12.855
     -12.385
     -11.573
      -9.634
      -5.878
      -0.156
       6.879
      13.956
      19.750
      23.496
      25.213
      25.433
      24.674
      23.077
      20.445
      16.601
      11.719
       6.364
       1.197
      -3.391
      -7.404
     -11.030
     -14.306
     -16.973
     -18.636
     -19.028
     -18.151
     -16.218
     -13.514
     -10.319
      -6.926
      -3.707
      -1.151
       0.248
       0.228
      -0.998
      -2.690
      -3.832
      -3.577
      -1.703
       1.170
       3.740
       4.584
       2.885
      -1.095
      -6.070
     -10.296
     -12.297
     -11.401
      -7.888
      -2.765
       2.710
       7.503
      11.066
      13.339
      14.603
      15.250
      15.501
      15.207
      13.953
      11.493
       8.168
       4.901
       2.701
       2.082
       2.823
       4.211
       5.564
       6.616
       7.510
       8.424
       9.227
       9.497
       8.852
       7.248
       4.988
       2.512
       0.239
      -1.450
      -2.232
      -1.980
      -0.926
       0.383
       1.323
       1.445
       0.599
      -1.050
      -3.053
      -4.781
      -5.649
      -5.388
      -4.191
      -2.597
      -1.214
      -0.478
      -0.556
      -1.333
      -2.442
      -3.458
      -4.242
      -5.168
      -6.927
      -9.964
     -13.999
     -18.070
     -21.112
     -22.617
     -22.844
     -22.445
     -21.824
     -20.788
     -18.754
     -15.286
     -10.513
      -5.071
       0.298
       5.096
       9.088
      12.074
      13.759
      13.891
      12.540
      10.237
       7.825
       6.079
       5.336
       5.393
       5.769
       6.141
       6.587
       7.453
       8.999
      11.132
      13.458
      15.576
      17.338
      18.875
      20.358
      21.691
      22.344
      21.523
      18.602
      13.591
       7.322
       1.196
      -3.412
      -5.736
      -5.862
      -4.540
      -2.753
      -1.365
      -0.966
      -1.828
      -3.871
      -6.602
      -9.113
     -10.275
      -9.199
      -5.820
      -1.204
       2.803
       4.463
       3.039
      -0.860
      -5.644
      -9.578
     -11.581
     -11.564
     -10.198
      -8.442
      -7.164
      -6.981
      -8.134
     -10.325
     -12.648
     -13.830
     -12.789
      -9.234
      -3.891
       1.836
       6.582
       9.625
      11.021
      11.252
      10.739
       9.544
       7.389
       3.898
      -1.065
      -7.164
     -13.576
     -19.206
     -23.051
     -24.550
     -23.794
     -21.466
     -18.505
     -15.675
     -13.224
     -10.869
      -8.115
      -4.721
      -0.973
       2.446
       4.834
       5.801
       5.345
       3.736
       1.391
      -1.181
      -3.374
      -4.547
      -4.221
      -2.336
       0.674
       4.116
       7.430
      10.400
      13.023
      15.230
      16.777
      17.429
      17.178
      16.281
      15.115
      14.009
      13.156
      12.578
      12.097
      11.397
      10.224
       8.651
       7.187
       6.581
       7.401
       9.632
      12.541
      14.910
      15.541
      13.783
       9.818
       4.578
      -0.648
      -4.695
      -6.903
      -7.299
      -6.540
      -5.637
      -5.524
      -6.638
      -8.723
     -11.003
     -12.632
     -13.163
     -12.722
     -11.803
     -10.869
     -10.043
      -9.099
      -7.706
      -5.738
      -3.464
      -1.519
      -0.649
      -1.301
      -3.291
      -5.772
      -7.587
      -7.856
      -6.461
      -4.112
      -1.949
      -0.951
      -1.482
      -3.183
      -5.175
      -6.404
      -5.971
      -3.408
       1.129
       6.807
      12.328
      16.380
      18.105
      17.336
      14.541
      10.582
       6.444
       2.968
       0.641
      -0.472
      -0.605
      -0.073
       0.856
       1.963
       3.060
       4.021
       4.831
       5.551
       6.258
       6.974
       7.621
       7.954
       7.560
       6.027
       3.239
      -0.476
      -4.515
      -8.374
     -11.895
     -15.146
     -18.094
     -20.384
     -21.451
     -20.903
     -18.906
     -16.231
     -13.896
     -12.599
     -12.345
     -12.485
     -12.059
     -10.257
      -6.794
      -2.111
       2.726
       6.472
       8.297
       8.181
       6.846
       5.270
       4.147
       3.642
       3.547
       3.605
       3.722
       3.955
       4.378
       5.030
       5.984
       7.397
       9.414
      11.933
      14.481
      16.340
      16.879
      15.850
      13.452
      10.147
       6.379
       2.380
      -1.824
      -6.225
     -10.586
     -14.338
     -16.759
     -17.335
     -16.034
     -13.294
      -9.758
      -5.963
      -2.203
       1.328
       4.290
       6.156
       6.510
       5.454
       3.665
       2.001
       0.969
       0.537
       0.386
       0.329
       0.516
       1.273
       2.736
       4.555
       5.957
       6.176
       4.998
       2.973
       1.109
       0.289
       0.822
       2.386
       4.285
       5.783
       6.370
       5.913
       4.673
       3.176
       1.954
       1.296
       1.156
       1.274
       1.437
       1.687
       2.341
       3.760
       6.038
       8.786
      11.178
      12.235
      11.205
       7.881
       2.705
      -3.340
      -9.046
     -13.367
     -15.791
     -16.462
     -15.988
     -15.035
     -13.987
     -12.892
     -11.623
     -10.080
      -8.273
      -6.294
      -4.247
      -2.183
      -0.080
       2.123
       4.405
       6.508
       7.886
       7.886
       6.114
       2.731
      -1.558
      -5.810
      -9.227
     -11.357
     -12.079
     -11.497
      -9.871
      -7.603
      -5.180
      -3.036
      -1.384
      -0.139
       1.007
       2.403
       4.257
       6.552
       9.057
      11.378
      12.983
      13.250
      11.651
       8.078
       3.110
      -2.039
      -5.957
      -7.640
