Origin Time       11/5/2012 18:41:28	
Lat.              26.6 N	
Long.             93.0 E	
Depth (Km)         20.0
Magnitude         5.4
 Region           Assam                                                            
 Above details taken from IMD 
     
Station Code      GOL
Station Lat.       26.516  N
Station Long.      93.972  E
Station Height(m)   93.0
Site Class        B   Vs30 between 375 m/sec to 700 m/sec *  
Record Time       11.05.2012 12:41:51.184
Sampling Rate     200. Hz
 Record Duration   66.690 Sec.
 Direction         E-W (E positive)
Max. Acceleration     13.559 cm/sec**2
     
  * For reference see Site Classification link of website 
     
 Base Line Corrected and Low Pass Filtered (Cut Off at 35 Hz) Time History
 Acceleration data in cm/sec**2
    
[...]
       0.146
       0.053
       0.071
       0.212
       0.414
       0.568
       0.570
       0.367
      -0.026
      -0.532
      -1.023
      -1.340
      -1.356
      -1.060
      -0.592
      -0.175
       0.026
       0.000
      -0.144
      -0.281
      -0.356
      -0.372
      -0.327
      -0.205
      -0.014
       0.176
       0.274
       0.247
       0.172
       0.177
       0.325
       0.553
       0.715
       0.708
       0.534
       0.280
       0.053
      -0.081
      -0.119
      -0.111
      -0.125
      -0.203
      -0.334
      -0.449
      -0.454
      -0.284
       0.032
       0.381
       0.630
       0.701
       0.601
       0.403
       0.196
       0.042
      -0.053
      -0.128
      -0.214
      -0.297
      -0.317
      -0.224
      -0.050
       0.094
       0.095
      -0.062
      -0.278
      -0.417
      -0.406
      -0.266
      -0.068
       0.119
       0.251
       0.307
       0.287
       0.214
       0.134
       0.092
       0.099
       0.112
       0.067
      -0.062
      -0.222
      -0.313
      -0.267
      -0.108
       0.054
       0.097
      -0.041
      -0.322
      -0.627
      -0.827
      -0.840
      -0.671
      -0.389
      -0.087
       0.159
       0.318
       0.399
       0.427
       0.414
       0.357
       0.258
       0.148
       0.082
       0.104
       0.201
       0.294
       0.278
       0.110
      -0.142
      -0.335
      -0.369
      -0.264
      -0.140
      -0.103
      -0.158
      -0.191
      -0.065
       0.257
       0.655
       0.913
       0.869
       0.518
       0.003
      -0.487
      -0.820
      -0.969
      -0.974
      -0.883
      -0.711
      -0.456
      -0.141
       0.179
       0.435
       0.575
       0.565
       0.407
       0.164
      -0.040
      -0.087
       0.050
       0.277
       0.435
       0.412
       0.214
      -0.038
      -0.196
      -0.178
      -0.004
       0.235
       0.441
       0.538
       0.488
       0.309
       0.076
      -0.122
      -0.232
      -0.273
      -0.293
      -0.312
      -0.301
      -0.230
      -0.128
      -0.077
      -0.125
      -0.213
      -0.203
      -0.013
       0.269
       0.422
       0.281
      -0.087
      -0.395
      -0.357
       0.052
       0.555
       0.784
       0.561
       0.019
      -0.523
      -0.797
      -0.736
      -0.474
      -0.213
      -0.087
      -0.108
      -0.199
      -0.260
      -0.220
      -0.064
       0.165
       0.389
       0.538
       0.582
       0.534
       0.416
       0.238
       0.013
      -0.206
      -0.340
      -0.325
      -0.174
       0.033
       0.196
       0.270
       0.288
       0.319
       0.396
       0.482
       0.499
       0.393
       0.180
      -0.077
      -0.327
      -0.570
      -0.814
      -1.004
      -1.029
      -0.832
      -0.499
      -0.213
      -0.093
      -0.094
      -0.069
       0.086
       0.336
       0.528
       0.510
       0.259
      -0.073
      -0.260
      -0.175
       0.104
       0.385
       0.531
       0.550
       0.514
       0.437
       0.256
      -0.068
      -0.457
      -0.750
      -0.820
      -0.671
      -0.430
      -0.251
      -0.209
      -0.258
      -0.293
      -0.252
      -0.171
      -0.134
      -0.177
      -0.219
      -0.113
       0.237
       0.776
       1.301
       1.575
       1.458
       0.995
       0.389
      -0.126
      -0.410
      -0.486
      -0.479
      -0.502
      -0.582
      -0.660
      -0.656
      -0.530
      -0.301
      -0.015
       0.270
       0.490
       0.572
       0.483
       0.275
       0.087
       0.051
       0.195
       0.413
       0.528
       0.412
       0.062
      -0.401
      -0.810
      -1.037
      -1.039
      -0.843
      -0.526
      -0.183
       0.087
       0.232
       0.270
       0.276
       0.309
       0.368
       0.413
       0.418
       0.397
       0.369
       0.320
       0.211
       0.033
      -0.164
      -0.304
      -0.362
      -0.379
      -0.401
      -0.407
      -0.329
      -0.147
       0.044
       0.101
      -0.027
      -0.241
      -0.360
      -0.269
      -0.002
       0.292
       0.463
       0.454
       0.314
       0.142
       0.021
      -0.038
      -0.091
      -0.195
      -0.319
      -0.356
      -0.230
       0.004
       0.191
       0.212
       0.103
       0.015
       0.066
       0.230
       0.355
       0.281
      -0.034
      -0.475
      -0.837
      -0.945
      -0.758
      -0.390
      -0.043
       0.111
       0.030
      -0.167
      -0.268
      -0.113
       0.283
       0.724
       0.968
       0.893
       0.560
       0.150
      -0.170
      -0.343
      -0.409
      -0.435
      -0.430
      -0.348
      -0.162
       0.075
       0.252
       0.299
       0.252
       0.219
       0.266
       0.365
       0.439
       0.443
       0.376
       0.242
       0.057
      -0.121
      -0.190
      -0.098
       0.087
       0.207
       0.142
      -0.099
      -0.395
      -0.618
      -0.733
      -0.785
      -0.818
      -0.787
      -0.592
      -0.194
       0.291
       0.638
       0.691
       0.498
       0.264
       0.166
       0.195
       0.199
       0.054
      -0.213
      -0.455
      -0.531
      -0.392
      -0.086
       0.267
       0.528
       0.591
       0.443
       0.183
      -0.039
      -0.100
       0.023
       0.237
       0.368
       0.265
      -0.071
      -0.451
      -0.610
      -0.407
       0.053
       0.501
       0.692
       0.558
       0.207
      -0.181
      -0.458
      -0.572
      -0.561
      -0.497
      -0.410
      -0.263
      -0.009
       0.330
       0.656
       0.879
       0.977
       0.974
       0.862
       0.605
       0.215
      -0.213
      -0.558
      -0.756
      -0.805
      -0.710
      -0.478
      -0.165
       0.089
       0.131
      -0.084
      -0.427
      -0.682
      -0.708
      -0.537
      -0.305
      -0.090
       0.153
       0.515
       0.980
       1.373
       1.463
       1.152
       0.578
       0.020
      -0.325
      -0.489
      -0.649
      -0.908
      -1.181
      -1.291
      -1.151
      -0.842
      -0.519
      -0.273
      -0.063
       0.215
       0.618
       1.083
       1.449
       1.536
       1.280
       0.798
       0.312
      -0.007
      -0.156
      -0.231
      -0.275
      -0.220
       0.005
       0.299
       0.406
       0.132
      -0.429
      -0.912
      -0.965
      -0.538
       0.092
       0.558
       0.676
       0.537
       0.358
       0.285
       0.291
       0.244
       0.041
      -0.287
      -0.585
      -0.682
      -0.532
      -0.267
      -0.099
      -0.140
      -0.292
      -0.325
      -0.078
       0.383
       0.788
       0.875
       0.605
       0.202
      -0.047
      -0.043
       0.052
       0.007
      -0.230
      -0.471
      -0.470
      -0.170
       0.225
       0.415
       0.246
      -0.166
      -0.527
      -0.582
      -0.287
       0.164
       0.479
       0.474
       0.197
      -0.131
      -0.314
      -0.326
      -0.279
      -0.280
      -0.324
      -0.333
      -0.256
      -0.118
       0.028
       0.159
       0.290
       0.425
       0.521
       0.522
       0.431
       0.321
       0.283
       0.330
       0.389
       0.362
       0.218
       0.005
      -0.196
      -0.344
      -0.443
      -0.491
      -0.437
      -0.226
       0.094
       0.332
       0.279
      -0.096
      -0.613
      -1.048
      -1.324
      -1.518
      -1.689
      -1.757
      -1.551
      -1.001
      -0.253
       0.413
       0.792
       0.886
       0.844
       0.776
       0.678
       0.511
       0.332
       0.279
       0.434
       0.716
       0.921
       0.888
       0.611
       0.221
      -0.128
      -0.347
      -0.424
      -0.395
      -0.314
      -0.238
      -0.194
      -0.153
      -0.048
       0.172
       0.458
       0.655
       0.602
       0.275
      -0.154
      -0.439
      -0.451
      -0.268
      -0.078
       0.003
       0.005
       0.021
       0.071
       0.074
      -0.063
      -0.330
      -0.610
      -0.750
      -0.662
      -0.363
       0.043
       0.418
       0.652
       0.698
       0.576
       0.348
       0.091
      -0.122
      -0.240
      -0.248
      -0.196
      -0.163
      -0.190
      -0.233
      -0.199
      -0.017
       0.322
       0.768
       1.214
       1.502
       1.483
       1.119
       0.548
       0.019
      -0.266
      -0.285
      -0.192
      -0.169
      -0.269
      -0.375
      -0.342
      -0.176
      -0.055
      -0.161
      -0.481
      -0.786
      -0.839
      -0.610
      -0.285
      -0.050
       0.103
       0.326
       0.672
       0.957
       0.892
       0.388
      -0.319
      -0.847
      -0.973
      -0.763
      -0.457
      -0.259
      -0.205
      -0.199
      -0.131
       0.001
       0.092
       0.029
      -0.173
      -0.361
      -0.370
      -0.162
       0.131
       0.305
       0.240
      -0.003
      -0.224
      -0.245
      -0.080
       0.077
       0.025
      -0.241
      -0.511
      -0.543
      -0.284
       0.087
       0.322
       0.333
       0.260
       0.339
       0.693
       1.212
       1.599
       1.567
       1.073
       0.400
      -0.037
      -0.039
       0.207
       0.312
       0.065
      -0.362
      -0.575
      -0.317
       0.294
       0.850
       0.988
       0.649
       0.075
      -0.424
      -0.694
      -0.771
      -0.752
      -0.664
      -0.476
      -0.215
      -0.032
      -0.093
      -0.397
      -0.727
      -0.839
      -0.679
      -0.413
      -0.252
      -0.272
      -0.411
      -0.582
      -0.751
      -0.910
      -1.024
      -1.035
      -0.909
      -0.671
      -0.399
      -0.176
      -0.038
       0.042
       0.118
       0.206
       0.251
       0.171
      -0.087
      -0.498
      -0.964
      -1.355
      -1.565
      -1.577
      -1.463
      -1.324
      -1.202
      -1.031
      -0.707
      -0.220
       0.272
       0.519
       0.375
      -0.047
      -0.433
      -0.512
      -0.269
       0.073
       0.276
       0.293
       0.251
       0.283
       0.400
       0.528
       0.620
       0.713
       0.867
       1.084
       1.277
       1.333
       1.201
       0.966
       0.810
       0.863
       1.066
       1.183
       0.998
       0.492
      -0.164
      -0.758
      -1.166
      -1.341
      -1.267
      -0.955
      -0.508
      -0.122
       0.020
      -0.084
      -0.211
      -0.072
       0.423
       1.058
       1.487
       1.526
       1.275
       0.974
       0.776
       0.657
       0.537
       0.445
       0.534
       0.886
       1.339
       1.545
       1.270
       0.623
      -0.022
      -0.363
      -0.419
      -0.459
      -0.714
      -1.167
      -1.622
      -1.937
      -2.157
      -2.404
      -2.659
      -2.714
      -2.382
      -1.728
      -1.069
      -0.722
      -0.741
      -0.892
      -0.861
      -0.483
       0.171
       0.879
       1.401
       1.597
       1.466
       1.132
       0.771
       0.516
       0.405
       0.406
       0.485
       0.651
       0.908
       1.164
       1.230
       0.974
       0.489
       0.074
      -0.031
       0.107
       0.127
      -0.319
      -1.238
      -2.249
      -2.848
      -2.773
      -2.138
      -1.267
      -0.415
       0.366
       1.150
       1.970
       2.706
       3.119
       3.002
       2.339
       1.367
       0.472
      -0.011
       0.012
       0.370
       0.761
       0.951
       0.886
       0.670
       0.457
       0.323
       0.203
      -0.041
      -0.467
      -0.930
      -1.154
      -0.959
      -0.421
       0.173
       0.558
       0.703
       0.805
       1.080
       1.519
       1.842
       1.694
       0.932
      -0.235
      -1.361
      -2.020
      -2.024
      -1.475
      -0.690
      -0.048
       0.198
       0.072
      -0.132
      -0.061
       0.413
       1.048
       1.384
       1.079
       0.173
      -0.918
      -1.668
      -1.780
      -1.348
      -0.757
      -0.399
      -0.432
      -0.747
      -1.117
      -1.363
      -1.398
      -1.167
      -0.601
       0.326
       1.498
       2.662
       3.561
       4.098
       4.357
       4.461
       4.393
       3.923
       2.725
       0.589
      -2.389
      -5.747
      -8.740
     -10.552
     -10.603
      -8.861
      -5.929
      -2.756
      -0.103
       1.847
       3.436
       5.117
       7.025
       8.853
      10.077
      10.306
       9.476
       7.768
       5.388
       2.448
      -0.943
      -4.497
      -7.693
      -9.962
     -10.974
     -10.764
      -9.613
      -7.811
      -5.513
      -2.806
       0.138
       2.983
       5.333
       6.930
       7.753
       7.919
       7.511
       6.510
       4.886
       2.730
       0.261
      -2.233
      -4.399
      -5.800
      -6.062
      -5.208
      -3.850
      -2.923
      -3.055
      -4.107
      -5.295
      -5.768
      -5.123
      -3.486
      -1.197
       1.499
       4.491
       7.608
      10.450
      12.443
      13.102
      12.297
      10.313
       7.633
       4.642
       1.465
      -1.930
      -5.465
      -8.776
     -11.280
     -12.476
     -12.263
     -11.015
      -9.340
      -7.665
      -5.994
      -3.990
      -1.327
       1.986
       5.545
       8.785
      11.292
      12.902
      13.559
      13.123
      11.385
       8.282
       4.110
      -0.505
      -4.850
      -8.370
     -10.682
     -11.472
     -10.493
      -7.744
      -3.656
       0.923
       4.983
       7.710
       8.745
       8.238
       6.676
       4.604
       2.393
       0.198
      -1.899
      -3.716
      -4.969
      -5.479
      -5.390
      -5.130
      -5.104
      -5.370
      -5.564
      -5.141
      -3.743
      -1.422
       1.417
       4.259
       6.709
       8.577
       9.772
      10.177
       9.650
       8.159
       5.886
       3.148
       0.235
      -2.678
      -5.506
      -8.175
     -10.541
     -12.298
     -12.993
     -12.239
     -10.002
      -6.709
      -3.051
       0.347
       3.146
       5.273
       6.763
       7.664
       8.046
       8.047
       7.847
       7.541
       7.055
       6.202
       4.864
       3.115
       1.169
      -0.771
      -2.624
      -4.382
      -5.997
      -7.312
      -8.097
      -8.135
      -7.336
      -5.838
      -4.027
      -2.379
      -1.185
      -0.366
       0.461
       1.685
       3.392
       5.250
       6.658
       7.039
       6.134
       4.123
       1.533
      -1.035
      -3.123
      -4.480
      -5.024
      -4.858
      -4.297
      -3.706
      -3.172
      -2.306
      -0.485
       2.574
       6.379
       9.761
      11.500
      11.031
       8.740
       5.646
       2.722
       0.363
      -1.613
      -3.541
      -5.475
      -7.078
      -7.875
      -7.592
      -6.322
      -4.435
      -2.374
      -0.500
       0.958
       1.910
       2.404
       2.598
       2.666
       2.696
       2.630
       2.315
       1.616
       0.528
      -0.814
      -2.201
      -3.463
      -4.514
      -5.325
      -5.839
      -5.888
      -5.198
      -3.530
      -0.886
       2.367
       5.592
       8.113
       9.457
       9.499
       8.462
       6.762
       4.753
       2.535
      -0.005
      -2.920
      -5.935
      -8.465
      -9.942
     -10.180
      -9.468
      -8.343
      -7.256
      -6.400
      -5.750
      -5.171
      -4.448
      -3.284
      -1.360
       1.456
       4.897
       8.269
      10.708
      11.612
      10.969
       9.344
       7.520
       6.034
       4.904
       3.744
       2.131
      -0.050
      -2.516
      -4.764
      -6.330
      -6.956
      -6.606
      -5.414
      -3.635
      -1.607
       0.294
       1.742
       2.558
       2.794
       2.731
       2.753
       3.103
       3.678
       4.039
       3.679
       2.367
       0.313
      -2.001
      -4.135
      -5.875
      -7.123
      -7.672
      -7.146
      -5.239
      -2.086
       1.584
       4.717
       6.449
       6.506
       5.211
       3.171
       0.966
      -0.963
      -2.277
      -2.749
      -2.388
      -1.523
      -0.708
      -0.430
      -0.837
      -1.685
      -2.505
      -2.867
      -2.548
      -1.558
      -0.079
       1.625
       3.264
       4.580
       5.401
       5.655
       5.334
       4.468
       3.159
       1.614
       0.081
      -1.304
      -2.567
      -3.773
      -4.824
      -5.396
      -5.096
      -3.718
      -1.431
       1.221
       3.508
       4.803
       4.842
       3.823
       2.309
       0.950
       0.154
      -0.102
      -0.175
      -0.440
      -0.989
      -1.561
      -1.779
      -1.486
      -0.914
      -0.570
      -0.904
      -1.995
      -3.459
      -4.639
      -4.954
      -4.186
      -2.562
      -0.630
       0.982
       1.797
       1.675
       0.878
      -0.017
      -0.379
       0.142
       1.433
       2.983
       4.158
       4.472
       3.746
       2.166
       0.242
      -1.343
      -2.016
      -1.627
      -0.600
       0.264
       0.281
      -0.626
      -1.838
      -2.430
      -1.799
      -0.041
       2.150
       3.925
       4.716
       4.385
       3.128
       1.309
      -0.621
      -2.193
      -3.044
      -3.081
      -2.540
      -1.829
      -1.277
      -0.996
      -0.939
      -1.022
      -1.165
      -1.248
      -1.092
      -0.551
       0.356
       1.389
       2.210
       2.595
       2.584
       2.465
       2.557
       2.952
       3.388
       3.416
       2.726
       1.366
      -0.358
      -2.159
      -3.921
      -5.575
      -6.878
      -7.415
      -6.839
      -5.141
      -2.697
      -0.103
       2.051
       3.329
       3.550
       2.830
       1.569
       0.297
      -0.541
      -0.766
      -0.478
       0.044
       0.490
       0.623
       0.328
      -0.365
      -1.260
      -2.027
      -2.318
      -1.947
      -0.999
       0.198
       1.239
       1.836
       1.955
       1.798
       1.649
       1.673
       1.821
       1.903
       1.753
       1.410
       1.149
       1.324
       2.072
       3.089
       3.718
       3.351
       1.905
      -0.041
      -1.592
      -2.126
      -1.681
      -0.852
      -0.328
      -0.471
      -1.166
      -1.981
      -2.453
      -2.341
      -1.710
      -0.837
      -0.020
       0.550
       0.813
       0.807
       0.615
       0.342
       0.106
       0.005
       0.071
       0.236
       0.367
       0.370
       0.257
       0.133
       0.105
       0.194
       0.333
       0.447
       0.529
       0.606
       0.634
       0.455
      -0.110
      -1.093
      -2.290
      -3.355
      -3.983
      -4.016
      -3.427
      -2.261
      -0.653
       1.105
       2.575
       3.341
       3.243
       2.489
       1.554
       0.936
       0.918
       1.462
       2.282
       3.032
       3.476
       3.524
       3.128
       2.192
       0.615
      -1.543
      -3.975
      -6.217
      -7.836
      -8.525
      -8.074
      -6.370
      -3.541
      -0.123
       3.014
       5.030
