Origin Time       09/1/2013 01:41:52	 UTC
Lat.              25.4 N	
Long.             94.9 E	
Depth (Km)         89.0
Magnitude         5.9
 Region           Myanmar-India-Border-Region                                      
 Above details taken from IMD 
    
Station Code      GOL
Station Lat.       26.515  N
Station Long.      93.972  E
Station Height(m)   93.0
Site Class        B   Vs30 between 375 m/sec to 700 m/sec *  
Record Time       09.01.2013 01:42:22.854 UTC
Sampling Rate     200. Hz
 Record Duration   78.840 Sec.
 Direction         N-S (N positive)
Max. Acceleration     45.546 cm/sec**2
     
  * For reference see Site Classification link of website 
     
 Base Line Corrected and Low Pass Filtered (Cut Off at 35 Hz) Time History
 Acceleration data in cm/sec**2
    
[...]
       1.135
       1.293
       1.193
       0.835
       0.472
       0.364
       0.522
       0.731
       0.784
       0.663
       0.503
       0.443
       0.514
       0.647
       0.730
       0.662
       0.399
       0.003
      -0.367
      -0.538
      -0.438
      -0.146
       0.182
       0.428
       0.567
       0.604
       0.510
       0.242
      -0.155
      -0.513
      -0.647
      -0.521
      -0.298
      -0.216
      -0.364
      -0.596
      -0.663
      -0.465
      -0.153
       0.004
      -0.139
      -0.506
      -0.899
      -1.168
      -1.267
      -1.182
      -0.855
      -0.224
       0.663
       1.611
       2.347
       2.659
       2.484
       1.927
       1.200
       0.515
      -0.001
      -0.331
      -0.502
      -0.522
      -0.364
      -0.057
       0.242
       0.308
       0.021
      -0.505
      -0.996
      -1.253
      -1.303
      -1.303
      -1.312
      -1.175
      -0.678
       0.185
       1.107
       1.644
       1.536
       0.873
       0.013
      -0.649
      -0.883
      -0.696
      -0.289
       0.061
       0.129
      -0.157
      -0.684
      -1.218
      -1.533
      -1.516
      -1.197
      -0.700
      -0.184
       0.212
       0.408
       0.401
       0.274
       0.163
       0.201
       0.451
       0.833
       1.105
       0.957
       0.241
      -0.819
      -1.686
      -1.859
      -1.249
      -0.236
       0.637
       1.050
       1.046
       0.858
       0.637
       0.365
      -0.010
      -0.388
      -0.525
      -0.255
       0.310
       0.825
       0.996
       0.854
       0.719
       0.890
       1.350
       1.772
       1.801
       1.336
       0.562
      -0.231
      -0.826
      -1.119
      -1.065
      -0.663
      -0.009
       0.684
       1.183
       1.363
       1.265
       1.030
       0.787
       0.576
       0.359
       0.068
      -0.328
      -0.812
      -1.339
      -1.850
      -2.249
      -2.405
      -2.225
      -1.735
      -1.085
      -0.447
       0.089
       0.537
       0.933
       1.232
       1.304
       1.044
       0.507
      -0.077
      -0.436
      -0.440
      -0.174
       0.164
       0.404
       0.468
       0.335
       0.001
      -0.493
      -1.015
      -1.383
      -1.493
      -1.394
      -1.206
      -0.929
      -0.390
       0.545
       1.675
       2.457
       2.391
       1.454
       0.156
      -0.845
      -1.199
      -0.993
      -0.528
      -0.015
       0.508
       1.041
       1.466
       1.577
       1.290
       0.757
       0.219
      -0.257
      -0.824
      -1.590
      -2.346
      -2.622
      -2.081
      -0.869
       0.415
       1.141
       1.070
       0.419
      -0.385
      -0.982
      -1.176
      -0.943
      -0.436
       0.064
       0.324
       0.347
       0.343
       0.493
       0.743
       0.845
       0.600
       0.021
      -0.705
      -1.371
      -1.848
      -2.048
      -1.877
      -1.295
      -0.455
       0.282
       0.570
       0.361
      -0.078
      -0.460
      -0.771
      -1.201
      -1.799
      -2.302
      -2.352
      -1.863
      -1.120
      -0.500
      -0.121
       0.233
       0.857
       1.785
       2.711
       3.229
       3.129
       2.480
       1.481
       0.309
      -0.883
      -1.914
      -2.600
      -2.843
      -2.682
      -2.259
      -1.754
      -1.324
      -1.037
      -0.825
      -0.508
       0.081
       0.956
       1.937
       2.780
       3.348
       3.646
       3.729
       3.601
       3.239
       2.688
       2.104
       1.653
       1.355
       1.036
       0.466
      -0.440
      -1.554
      -2.618
      -3.372
      -3.630
      -3.313
      -2.509
      -1.469
      -0.479
       0.293
       0.814
       1.086
       1.078
       0.773
       0.246
      -0.318
      -0.708
      -0.790
      -0.552
      -0.078
       0.511
       1.085
       1.526
       1.762
       1.812
       1.793
       1.839
       2.017
       2.280
       2.499
       2.508
       2.179
       1.509
       0.675
      -0.015
      -0.273
       0.008
       0.728
       1.672
       2.659
       3.587
       4.372
       4.880
       4.962
       4.548
       3.709
       2.588
       1.296
      -0.127
      -1.659
      -3.257
      -4.879
      -6.474
      -7.899
      -8.860
      -8.981
      -8.022
      -6.037
      -3.363
      -0.457
       2.263
       4.493
       6.051
       6.838
       6.793
       5.873
       4.094
       1.627
      -1.165
      -3.822
      -5.953
      -7.357
      -8.012
      -7.996
      -7.393
      -6.284
      -4.782
      -3.005
      -1.011
       1.193
       3.495
       5.542
       6.860
       7.173
       6.623
       5.620
       4.486
       3.279
       1.949
       0.594
      -0.492
      -1.019
      -0.869
      -0.084
       1.249
       3.014
       4.956
       6.603
       7.379
       6.889
       5.166
       2.700
       0.178
      -1.865
      -3.311
      -4.452
      -5.706
      -7.242
      -8.799
      -9.848
      -9.996
      -9.289
      -8.132
      -6.877
      -5.472
      -3.552
      -0.930
       2.021
       4.539
       6.069
       6.654
       6.706
       6.411
       5.460
       3.468
       0.620
      -2.171
      -3.839
      -3.963
      -3.051
      -2.071
      -1.680
      -1.843
      -2.127
      -2.260
      -2.386
      -2.811
      -3.582
      -4.356
      -4.654
      -4.225
      -3.171
      -1.784
      -0.326
       1.055
       2.295
       3.358
       4.237
       4.969
       5.623
       6.221
       6.651
       6.650
       5.933
       4.401
       2.271
      -0.005
      -1.958
      -3.273
      -3.827
      -3.708
      -3.232
      -2.833
      -2.793
      -3.016
      -3.089
      -2.641
      -1.682
      -0.579
       0.339
       1.141
       2.186
       3.644
       5.142
       5.947
       5.542
       4.057
       2.164
       0.559
      -0.481
      -1.126
      -1.662
      -2.191
      -2.630
      -2.903
      -3.070
      -3.267
      -3.565
      -3.887
      -4.022
      -3.718
      -2.804
      -1.325
       0.432
       2.073
       3.333
       4.234
       5.025
       5.934
       6.898
       7.546
       7.444
       6.434
       4.770
       2.948
       1.393
       0.262
      -0.537
      -1.186
      -1.816
      -2.485
      -3.227
      -4.087
      -5.057
      -5.963
      -6.449
      -6.180
      -5.104
      -3.539
      -1.978
      -0.794
      -0.093
       0.214
       0.217
      -0.110
      -0.802
      -1.685
      -2.303
      -2.170
      -1.181
       0.222
       1.359
       1.820
       1.695
       1.333
       0.930
       0.384
      -0.479
      -1.552
      -2.366
      -2.410
      -1.615
      -0.548
      -0.065
      -0.636
      -1.943
      -3.086
      -3.234
      -2.139
      -0.177
       2.021
       4.023
       5.820
       7.657
       9.611
      11.333
      12.240
      11.998
      10.846
       9.474
       8.580
       8.440
       8.768
       8.912
       8.279
       6.700
       4.468
       2.059
      -0.198
      -2.210
      -3.987
      -5.498
      -6.689
      -7.576
      -8.231
      -8.641
      -8.634
      -8.028
      -6.884
      -5.581
      -4.624
      -4.333
      -4.658
      -5.220
      -5.513
      -5.178
      -4.181
      -2.803
      -1.454
      -0.453
       0.073
       0.164
      -0.057
      -0.410
      -0.616
      -0.313
       0.761
       2.559
       4.683
       6.605
       7.980
       8.758
       8.996
       8.624
       7.503
       5.746
       3.885
       2.596
       2.188
       2.403
       2.730
       2.885
       2.950
       3.103
       3.265
       3.059
       2.086
       0.229
      -2.317
      -5.296
      -8.606
     -12.209
     -15.831
     -18.832
     -20.445
     -20.182
     -18.052
     -14.496
     -10.181
      -5.768
      -1.707
       1.877
       5.092
       8.046
      10.609
      12.359
      12.742
      11.392
       8.408
       4.366
      -0.005
      -4.212
      -8.088
     -11.529
     -14.211
     -15.649
     -15.516
     -13.871
     -11.058
      -7.390
      -2.948
       2.320
       8.282
      14.371
      19.626
      23.037
      23.933
      22.202
      18.271
      12.962
       7.283
       2.141
      -1.951
      -4.979
      -7.252
      -9.099
     -10.641
     -11.745
     -12.079
     -11.256
      -9.029
      -5.478
      -1.012
       3.786
       8.313
      11.967
      14.121
      14.214
      11.985
       7.690
       2.081
      -3.912
      -9.574
     -14.563
     -18.724
     -21.794
     -23.380
     -23.267
     -21.673
     -19.077
     -15.705
     -11.218
      -5.023
       2.967
      11.808
      19.752
      25.118
      27.141
      26.221
      23.443
      19.867
      16.095
      12.343
       8.711
       5.290
       2.066
      -1.129
      -4.435
      -7.741
     -10.687
     -12.835
     -13.800
     -13.226
     -10.753
      -6.155
       0.375
       8.045
      15.562
      21.523
      24.889
      25.266
      22.855
      18.202
      11.961
       4.816
      -2.559
      -9.601
     -15.973
     -21.549
     -26.213
     -29.652
     -31.359
     -30.898
     -28.245
     -23.862
     -18.447
     -12.573
      -6.560
      -0.563
       5.296
      10.917
      16.228
      21.118
      25.320
      28.356
      29.612
      28.513
      24.670
      18.016
       8.966
      -1.474
     -11.785
     -20.259
     -25.473
     -26.749
     -24.368
     -19.389
     -13.153
      -6.806
      -1.092
       3.594
       7.054
       9.218
      10.186
      10.285
       9.936
       9.407
       8.712
       7.811
       6.806
       5.868
       4.949
       3.693
       1.749
      -0.796
      -3.345
      -5.139
      -5.609
      -4.456
      -1.612
       2.616
       7.377
      11.402
      13.548
      13.354
      11.162
       7.723
       3.672
      -0.648
      -4.918
      -8.473
     -10.366
      -9.922
      -7.363
      -3.915
      -1.190
      -0.274
      -1.173
      -3.000
      -4.680
      -5.575
      -5.627
      -5.080
      -4.187
      -3.135
      -2.135
      -1.508
      -1.645
      -2.802
      -4.843
      -7.153
      -8.859
      -9.309
      -8.495
      -7.074
      -5.943
      -5.709
      -6.466
      -7.923
      -9.606
     -10.943
     -11.320
     -10.202
      -7.308
      -2.758
       2.844
       8.469
      12.982
      15.588
      16.106
      14.870
      12.479
       9.642
       7.135
       5.655
       5.510
       6.385
       7.520
       8.209
       8.184
       7.595
       6.740
       5.867
       5.129
       4.608
       4.322
       4.201
       4.068
       3.629
       2.519
       0.467
      -2.505
      -6.038
      -9.551
     -12.343
     -13.599
     -12.554
      -8.881
      -3.026
       3.862
      10.336
      15.069
      17.144
      16.191
      12.418
       6.535
      -0.334
      -6.787
     -11.483
     -13.703
     -13.725
     -12.585
     -11.344
     -10.490
      -9.863
      -8.978
      -7.355
      -4.712
      -1.081
       3.141
       7.291
      10.658
      12.711
      13.228
      12.377
      10.696
       8.843
       7.232
       5.861
       4.519
       3.157
       1.994
       1.230
       0.647
      -0.451
      -2.862
      -6.921
     -12.145
     -17.334
     -21.128
     -22.639
     -21.705
     -18.706
     -14.273
      -9.204
      -4.481
      -1.089
       0.409
       0.172
      -1.055
      -2.403
      -3.275
      -3.470
      -3.046
      -2.045
      -0.293
       2.537
       6.583
      11.467
      16.270
      19.878
      21.509
      21.102
      19.345
      17.303
      15.872
      15.319
      15.149
      14.384
      12.121
       8.093
       2.924
      -2.076
      -5.496
      -6.530
      -5.409
      -3.270
      -1.556
      -1.318
      -2.826
      -5.628
      -8.895
     -11.773
     -13.593
     -13.964
     -12.869
     -10.707
      -8.168
      -5.886
      -4.066
      -2.352
      -0.086
       3.248
       7.690
      12.752
      17.508
      20.809
      21.617
      19.416
      14.448
       7.565
      -0.195
      -7.990
     -15.224
     -21.332
     -25.611
     -27.342
     -26.149
     -22.309
     -16.732
     -10.558
      -4.672
       0.479
       4.655
       7.550
       8.866
       8.603
       7.165
       5.108
       2.817
       0.421
      -2.118
      -4.916
      -8.088
     -11.584
     -14.929
     -17.123
     -16.948
     -13.631
      -7.423
       0.364
       7.966
      13.957
      17.615
      18.777
      17.513
      14.026
       8.798
       2.716
      -3.049
      -7.438
      -9.949
     -10.837
     -10.875
     -10.798
     -10.809
     -10.473
      -9.038
      -5.910
      -1.000
       5.233
      11.950
      18.201
      23.136
      26.081
      26.523
      24.157
      19.094
      12.063
       4.275
      -3.042
      -9.053
     -13.361
     -15.791
     -16.223
     -14.643
     -11.352
      -7.050
      -2.586
       1.449
       4.887
       7.718
       9.741
      10.537
       9.756
       7.404
       3.825
      -0.558
      -5.482
     -10.827
     -16.357
     -21.514
     -25.492
     -27.590
     -27.543
     -25.496
     -21.634
     -15.841
      -7.829
       2.359
      13.932
      25.431
      35.217
      42.053
      45.427
      45.546
      43.057
      38.667
      32.783
      25.374
      16.192
       5.308
      -6.403
     -17.222
     -25.127
     -28.667
     -27.627
     -23.022
     -16.423
      -9.189
      -2.188
       3.980
       8.732
      11.557
      12.214
      10.761
       7.419
       2.513
      -3.413
      -9.524
     -14.837
     -18.537
     -20.232
     -20.036
     -18.526
     -16.597
     -15.113
     -14.427
     -14.098
     -13.106
     -10.493
      -5.983
      -0.169
       5.778
      10.631
      13.561
      14.306
      13.086
      10.427
       6.998
       3.418
       0.052
      -3.052
      -5.988
      -8.704
     -10.876
     -12.048
     -11.899
     -10.377
      -7.629
      -3.848
       0.791
       6.068
      11.614
      16.879
      21.252
      24.266
      25.689
      25.430
      23.366
      19.306
      13.187
       5.353
      -3.318
     -11.555
     -18.023
     -21.712
     -22.209
     -19.765
     -15.118
      -9.152
      -2.586
       4.117
      10.593
      16.335
      20.577
      22.455
      21.380
      17.350
      10.978
       3.218
      -4.935
     -12.583
     -18.919
     -23.296
     -25.402
     -25.349
     -23.468
     -19.971
     -14.869
      -8.236
      -0.531
       7.360
      14.344
      19.411
      21.864
      21.534
      18.920
      15.111
      11.373
       8.556
       6.724
       5.385
       4.129
       3.113
       2.876
       3.665
       4.925
       5.506
       4.461
       1.735
      -1.860
      -5.315
      -8.094
     -10.246
     -12.007
     -13.437
     -14.460
     -15.159
     -15.872
     -16.973
     -18.556
     -20.336
     -21.781
     -22.331
     -21.595
     -19.496
     -16.364
     -12.858
      -9.655
      -7.053
      -4.818
      -2.431
       0.453
       3.735
       6.998
       9.877
      12.317
      14.508
      16.634
      18.668
      20.361
      21.359
      21.333
      20.096
      17.741
      14.712
      11.652
       9.079
       7.143
       5.697
       4.595
       3.925
       3.934
       4.693
       5.826
       6.588
       6.275
       4.650
       2.047
      -0.881
      -3.570
      -5.815
      -7.762
      -9.702
     -11.839
     -14.117
     -16.112
     -17.101
     -16.331
     -13.404
      -8.565
      -2.745
       2.685
       6.407
       7.694
       6.767
       4.706
       2.899
       2.335
       3.211
       5.002
       6.795
       7.664
       6.981
       4.650
       1.153
      -2.650
      -5.852
      -7.768
      -8.041
      -6.630
      -3.775
      -0.004
       3.848
       6.689
       7.386
       5.148
      -0.057
      -7.309
     -14.922
     -20.935
     -23.701
     -22.359
     -17.064
      -8.924
       0.356
       8.987
      15.550
      19.300
      20.283
      19.257
      17.347
      15.499
      13.995
      12.359
       9.760
       5.651
       0.203
      -5.738
     -11.107
     -15.164
     -17.760
     -19.129
     -19.445
     -18.595
     -16.375
     -12.854
      -8.487
      -3.891
       0.400
       3.994
       6.599
       8.070
       8.543
       8.444
       8.281
       8.330
       8.432
       8.058
       6.655
       4.081
       0.796
      -2.388
      -4.797
      -6.180
      -6.590
      -6.081
      -4.549
      -1.823
       2.075
       6.694
      11.128
      14.334
      15.637
      15.065
      13.241
      10.892
       8.348
       5.416
       1.741
      -2.647
      -7.089
     -10.599
     -12.496
     -12.806
     -12.033
     -10.513
      -8.058
      -4.289
       0.671
       5.902
      10.080
      12.219
      12.163
      10.445
       7.708
       4.246
       0.078
      -4.618
      -9.228
     -12.884
     -14.894
     -15.080
     -13.852
     -12.039
     -10.508
      -9.653
      -9.087
      -7.830
      -4.938
      -0.092
       6.268
      13.266
      19.948
      25.377
      28.508
      28.256
      23.971
      16.051
       6.045
      -4.013
     -12.550
     -18.866
     -22.808
     -24.252
     -23.033
     -19.356
     -14.114
      -8.642
      -4.044
      -0.713
       1.519
       2.897
       3.535
       3.623
       3.577
       3.754
       4.013
       3.719
       2.327
       0.078
      -1.892
      -2.188
      -0.094
       3.937
       8.558
      12.252
      13.976
      13.445
      11.109
       7.926
       4.954
       2.849
       1.585
       0.648
      -0.418
      -1.624
      -2.701
      -3.604
      -4.682
      -6.247
      -8.009
      -9.079
      -8.616
      -6.529
      -3.616
      -1.003
       0.620
       1.352
       1.729
       2.067
       2.155
       1.625
       0.577
      -0.188
       0.368
       2.703
       6.186
       9.344
      10.737
       9.807
       7.085
       3.640
       0.324
      -2.593
      -5.232
      -7.695
      -9.825
     -11.280
     -11.778
     -11.294
     -10.053
      -8.353
      -6.373
      -4.125
      -1.562
       1.261
       4.088
       6.505
       8.135
       8.843
       8.769
       8.134
       7.038
       5.445
       3.348
       0.924
      -1.461
      -3.395
      -4.610
      -5.113
      -5.173
      -5.155
      -5.286
      -5.480
      -5.359
      -4.471
      -2.579
       0.150
       3.137
       5.570
       6.721
       6.306
       4.611
       2.225
      -0.406
      -3.151
      -5.924
      -8.335
      -9.729
      -9.649
      -8.220
      -5.991
      -3.414
      -0.540
       2.688
       5.907
       8.208
       8.637
       6.931
       3.804
       0.548
      -1.759
      -2.788
      -2.887
      -2.565
      -2.091
      -1.529
      -1.022
      -0.904
      -1.491
      -2.780
      -4.356
      -5.563
      -5.823
      -4.874
      -2.864
      -0.250
