Origin Time       1/7/2012 04:13:52	 
Lat.              25.7 N	
Long.             94.6 E	
Depth (Km)         50.0
Magnitude         5.8
 Region           Phek-Nagaland                                                    
 Above details taken from IMD 
   
Station Code      GOL
Station Lat.       26.515
Station Long.      93.972
Station Height(m)   93.0
Site Class        B   Vs30 between 375 m/sec to 700 m/sec *  
Record Time       01.07.2012 04:14:12.629
Sampling Rate     200. Hz
 Record Duration   76.555 Sec.
 Direction         Vert. (Up positive)
Max. Acceleration     14.703 cm/sec**2
     
  * For reference see Site Classification link of website 
     
 Base Line Corrected and Low Pass Filtered (Cut Off at 35 Hz) Time History
 Acceleration data in cm/sec**2
    
[...]
       3.014
       2.383
       1.175
       0.068
      -0.396
      -0.062
       0.821
       1.718
       2.051
       1.522
       0.322
      -1.005
      -2.002
      -2.595
      -2.935
      -2.986
      -2.433
      -1.093
       0.638
       1.885
       1.957
       0.947
      -0.329
      -1.034
      -1.001
      -0.744
      -0.804
      -1.136
      -1.163
      -0.446
       0.746
       1.545
       1.221
      -0.110
      -1.468
      -1.803
      -0.893
       0.527
       1.552
       1.942
       2.093
       2.315
       2.355
       1.768
       0.632
      -0.310
      -0.329
       0.508
       1.332
       1.266
       0.231
      -1.007
      -1.545
      -1.147
      -0.407
      -0.116
      -0.440
      -0.757
      -0.376
       0.626
       1.385
       1.139
       0.049
      -0.954
      -1.117
      -0.597
      -0.240
      -0.712
      -1.878
      -2.970
      -3.288
      -2.729
      -1.742
      -0.869
      -0.349
      -0.129
      -0.110
      -0.272
      -0.549
      -0.737
      -0.619
      -0.184
       0.343
       0.709
       0.849
       0.889
       0.949
       0.979
       0.840
       0.561
       0.472
       0.950
       1.928
       2.731
       2.568
       1.302
      -0.328
      -1.298
      -1.134
      -0.181
       0.779
       1.121
       0.725
      -0.064
      -0.761
      -1.109
      -1.190
      -1.209
      -1.213
      -1.032
      -0.487
       0.377
       1.246
       1.721
       1.561
       0.805
      -0.251
      -1.199
      -1.703
      -1.661
      -1.242
      -0.729
      -0.299
       0.093
       0.596
       1.255
       1.911
       2.304
       2.292
       1.959
       1.516
       1.062
       0.469
      -0.445
      -1.597
      -2.549
      -2.828
      -2.364
      -1.574
      -1.046
      -1.131
      -1.748
      -2.437
      -2.574
      -1.721
       0.013
       1.855
       2.770
       2.210
       0.644
      -0.706
      -0.807
       0.342
       1.742
       2.277
       1.637
       0.478
      -0.247
      -0.086
       0.676
       1.410
       1.637
       1.240
       0.406
      -0.516
      -1.173
      -1.369
      -1.148
      -0.732
      -0.369
      -0.217
      -0.314
      -0.587
      -0.873
      -0.984
      -0.806
      -0.364
       0.178
       0.601
       0.767
       0.718
       0.610
       0.535
       0.439
       0.251
       0.068
       0.119
       0.501
       0.961
       1.031
       0.450
      -0.523
      -1.224
      -1.072
      -0.027
       1.298
       1.998
       1.498
       0.025
      -1.476
      -1.986
      -1.164
       0.398
       1.629
       1.753
       0.769
      -0.652
      -1.655
      -1.698
      -0.842
       0.263
       0.729
       0.023
      -1.584
      -3.145
      -3.689
      -2.892
      -1.231
       0.383
       1.187
       0.982
       0.171
      -0.626
      -1.030
      -0.992
      -0.582
       0.119
       0.872
       1.273
       1.084
       0.503
      -0.014
      -0.212
      -0.203
      -0.219
      -0.301
      -0.320
      -0.204
      -0.010
       0.229
       0.575
       1.069
       1.605
       1.983
       2.049
       1.766
       1.210
       0.574
       0.142
       0.147
       0.582
       1.151
       1.457
       1.295
       0.751
       0.056
      -0.604
      -1.075
      -1.128
      -0.547
       0.531
       1.451
       1.459
       0.410
      -1.005
      -1.862
      -1.851
      -1.476
      -1.386
      -1.606
      -1.523
      -0.647
       0.691
       1.487
       0.945
      -0.732
      -2.400
      -2.864
      -1.827
      -0.092
       1.153
       1.304
       0.708
       0.183
       0.225
       0.653
       0.894
       0.563
      -0.210
      -0.935
      -1.192
      -0.921
      -0.351
       0.234
       0.654
       0.812
       0.632
       0.100
      -0.586
      -1.005
      -0.778
       0.056
       0.957
       1.283
       0.860
       0.158
      -0.113
       0.351
       1.172
       1.656
       1.457
       0.889
       0.556
       0.681
       0.860
       0.546
      -0.236
      -0.764
      -0.350
       0.818
       1.694
       1.349
      -0.073
      -1.473
      -1.875
      -1.343
      -0.815
      -1.066
      -1.917
      -2.475
      -2.056
      -0.830
       0.403
       0.973
       0.842
       0.446
       0.192
       0.129
       0.049
      -0.183
      -0.442
      -0.478
      -0.223
       0.076
       0.070
      -0.314
      -0.746
      -0.780
      -0.296
       0.374
       0.748
       0.624
       0.202
      -0.118
      -0.031
       0.509
       1.240
       1.682
       1.424
       0.504
      -0.524
      -1.024
      -0.821
      -0.290
       0.088
       0.152
       0.045
      -0.089
      -0.238
      -0.422
      -0.570
      -0.541
      -0.248
       0.211
       0.520
       0.313
      -0.513
      -1.589
      -2.236
      -1.932
      -0.744
       0.654
       1.458
       1.344
       0.692
       0.205
       0.272
       0.638
       0.678
       0.019
      -1.052
      -1.801
      -1.695
      -0.856
       0.086
       0.542
       0.386
      -0.067
      -0.346
      -0.137
       0.572
       1.497
       2.211
       2.378
       1.973
       1.325
       0.928
       1.089
       1.657
       2.052
       1.659
       0.357
      -1.253
      -2.203
      -1.879
      -0.521
       0.924
       1.468
       0.746
      -0.765
      -2.112
      -2.526
      -1.905
      -0.773
       0.213
       0.737
       0.880
       0.829
       0.672
       0.497
       0.518
       0.947
       1.701
       2.343
       2.376
       1.613
       0.332
      -0.877
      -1.472
      -1.286
      -0.621
      -0.006
       0.219
       0.119
       0.008
       0.114
       0.402
       0.684
       0.798
       0.650
       0.205
      -0.440
      -1.011
      -1.205
      -0.955
      -0.525
      -0.267
      -0.286
      -0.361
      -0.197
       0.272
       0.825
       1.128
       0.993
       0.568
       0.289
       0.523
       1.154
       1.599
       1.349
       0.495
      -0.322
      -0.486
       0.126
       1.137
       2.027
       2.466
       2.429
       2.084
       1.607
       1.065
       0.480
      -0.046
      -0.327
      -0.249
       0.093
       0.447
       0.565
       0.264
      -0.574
      -1.889
      -3.264
      -4.020
      -3.723
      -2.666
      -1.692
      -1.434
      -1.754
      -1.949
      -1.439
      -0.267
       0.992
       1.698
       1.584
       0.897
       0.176
      -0.158
      -0.115
      -0.097
      -0.513
      -1.389
      -2.324
      -2.808
      -2.585
      -1.774
      -0.724
       0.220
       0.878
       1.240
       1.386
       1.411
       1.388
       1.341
       1.193
       0.816
       0.190
      -0.525
      -1.077
      -1.282
      -1.125
      -0.802
      -0.653
      -0.938
      -1.512
      -1.754
      -1.039
       0.530
       1.940
       2.064
       0.772
      -0.853
      -1.523
      -0.911
       0.201
       0.879
       0.979
       1.085
       1.616
       2.166
       1.843
       0.307
      -1.662
      -2.749
      -2.321
      -0.980
       0.106
       0.307
      -0.101
      -0.521
      -0.731
      -0.971
      -1.490
      -2.152
      -2.492
      -2.129
      -1.144
      -0.103
       0.351
       0.006
      -0.704
      -1.017
      -0.429
       0.923
       2.354
       3.042
       2.475
       0.795
      -1.127
      -2.073
      -1.310
       0.750
       2.757
       3.470
       2.715
       1.409
       0.699
       1.009
       1.753
       1.922
       1.058
      -0.222
      -0.725
       0.146
       1.715
       2.631
       2.199
       1.018
       0.261
       0.420
       0.881
       0.702
      -0.367
      -1.712
      -2.582
      -2.829
      -2.901
      -3.212
      -3.640
      -3.672
      -2.969
      -1.784
      -0.772
      -0.332
      -0.100
       0.740
       2.463
       4.203
       4.597
       3.184
       1.033
      -0.193
       0.183
       1.305
       1.765
       1.012
      -0.242
      -0.842
      -0.263
       1.007
       1.961
       1.872
       0.781
      -0.650
      -1.749
      -2.327
      -2.596
      -2.686
      -2.394
      -1.471
      -0.080
       1.162
       1.696
       1.570
       1.386
       1.624
       2.095
       2.167
       1.500
       0.415
      -0.456
      -0.746
      -0.575
      -0.357
      -0.472
      -1.022
      -1.743
      -2.162
      -1.976
      -1.360
      -0.876
      -1.041
      -1.963
      -3.326
      -4.607
      -5.293
      -5.083
      -4.091
      -2.881
      -2.139
      -2.150
      -2.612
      -2.952
      -2.790
      -2.114
      -1.131
      -0.116
       0.607
       0.720
       0.160
      -0.648
      -0.946
      -0.243
       1.112
       2.045
       1.610
      -0.125
      -2.039
      -2.848
      -2.140
      -0.640
       0.500
       0.709
       0.391
       0.385
       1.072
       2.079
       2.828
       3.231
       3.679
       4.398
       5.036
       5.021
       4.227
       3.142
       2.399
       2.253
       2.547
       2.996
       3.403
       3.679
       3.841
       4.019
       4.355
       4.803
       5.067
       4.828
       4.068
       3.119
       2.324
       1.686
       0.866
      -0.430
      -2.086
      -3.606
      -4.531
      -4.807
      -4.744
      -4.649
      -4.537
      -4.186
      -3.432
      -2.381
      -1.382
      -0.789
      -0.712
      -0.914
      -0.938
      -0.418
       0.598
       1.590
       1.892
       1.187
      -0.269
      -1.818
      -2.758
      -2.631
      -1.434
       0.288
       1.646
       1.933
       1.112
      -0.202
      -1.256
      -1.698
      -1.653
      -1.387
      -0.991
      -0.427
       0.209
       0.628
       0.577
       0.101
      -0.476
      -0.808
      -0.772
      -0.473
      -0.034
       0.566
       1.385
       2.267
       2.811
       2.708
       2.111
       1.637
       1.952
       3.237
       4.952
       6.094
       5.801
       3.880
       0.888
      -2.193
      -4.406
      -5.185
      -4.521
      -2.903
      -1.103
       0.077
       0.092
      -0.998
      -2.367
      -2.849
      -1.817
       0.219
       1.944
       2.267
       1.159
      -0.385
      -1.138
      -0.507
       1.126
       2.752
       3.462
       3.029
       1.879
       0.611
      -0.423
      -1.124
      -1.472
      -1.532
      -1.529
      -1.683
      -1.906
      -1.789
      -1.067
      -0.085
       0.309
      -0.525
      -2.367
      -4.228
      -5.122
      -4.761
      -3.579
      -2.236
      -1.141
      -0.352
       0.264
       0.867
       1.570
       2.395
       3.236
       3.900
       4.208
       4.091
       3.619
       3.047
       2.826
       3.382
       4.694
       6.076
       6.483
       5.228
       2.565
      -0.368
      -2.263
      -2.559
      -1.780
      -0.985
      -0.825
      -1.135
      -1.423
      -1.579
      -1.974
      -2.875
      -3.955
      -4.493
      -4.052
      -2.920
      -1.813
      -1.163
      -0.751
      -0.104
       0.791
       1.327
       0.906
      -0.345
      -1.604
      -2.121
      -1.888
      -1.534
      -1.615
      -2.085
      -2.428
      -2.223
      -1.574
      -1.066
      -1.288
      -2.271
      -3.338
      -3.596
      -2.702
      -1.220
      -0.217
      -0.413
      -1.618
      -2.964
      -3.729
      -3.925
      -4.071
      -4.481
      -4.862
      -4.618
      -3.501
      -1.949
      -0.697
      -0.019
       0.575
       1.748
       3.463
       4.913
       5.408
       5.157
       5.011
       5.463
       6.077
       5.967
       4.790
       3.169
       2.148
       2.249
       3.049
       3.590
       3.126
       1.560
      -0.573
      -2.364
      -2.918
      -1.820
       0.474
       2.673
       3.318
       1.801
      -1.029
      -3.291
      -3.435
      -1.514
       0.769
       1.420
      -0.197
      -2.914
      -4.864
      -5.000
      -3.590
      -1.560
       0.365
       1.893
       2.924
       3.385
       3.318
       3.004
       2.801
       2.777
       2.523
       1.476
      -0.474
      -2.694
      -4.176
      -4.299
      -3.358
      -2.442
      -2.676
      -4.301
      -6.309
      -7.082
      -5.661
      -2.551
       0.704
       2.802
       3.619
       3.930
       4.316
       4.480
       3.761
       2.187
       0.779
       0.602
       1.609
       2.648
       2.701
       2.015
       1.821
       2.950
       4.808
       5.774
       4.611
       1.541
      -1.897
      -4.036
      -4.295
      -3.429
      -2.695
      -2.739
      -3.206
      -3.286
      -2.591
      -1.473
      -0.549
       0.010
       0.623
       1.730
       3.121
       3.870
       3.046
       0.685
      -1.891
      -2.924
      -1.668
       0.945
       3.144
       3.797
       3.066
       1.850
       0.841
       0.134
      -0.464
      -0.958
      -1.051
      -0.488
       0.571
       1.499
       1.552
       0.377
      -1.666
      -3.648
      -4.704
      -4.676
      -4.205
      -4.216
      -5.274
      -7.226
      -9.224
     -10.090
      -8.960
      -5.933
      -2.182
       0.767
       2.132
       2.441
       3.009
       4.797
       7.698
      10.784
      13.127
      14.380
      14.703
      14.310
      13.236
      11.529
       9.535
       7.779
       6.421
       4.809
       1.843
      -2.884
      -8.200
     -11.894
     -12.469
     -10.491
      -8.056
      -6.865
      -6.849
      -6.635
      -5.166
      -2.760
      -0.663
       0.234
       0.096
      -0.339
      -0.657
      -0.987
      -1.442
      -1.606
      -0.824
       0.982
       2.920
       3.797
       3.250
       2.159
       1.808
       2.631
       3.867
       4.423
       3.930
       2.858
       1.734
       0.513
      -1.116
      -2.954
      -4.144
      -4.004
      -2.954
      -2.409
      -3.526
      -5.959
      -7.911
      -7.630
      -5.004
      -1.738
       0.131
      -0.046
      -1.148
      -1.425
      -0.025
       2.383
       4.266
       4.496
       3.203
       1.558
       0.747
       1.089
       2.020
       2.783
       3.054
       2.951
       2.656
       2.214
       1.657
       1.108
       0.658
       0.243
      -0.240
      -0.769
      -1.245
      -1.658
      -2.084
      -2.571
      -3.121
      -3.772
      -4.567
      -5.362
      -5.717
      -5.109
      -3.351
      -0.884
       1.340
       2.388
       1.960
       0.653
      -0.376
      -0.151
       1.466
       3.666
       5.291
       5.708
       5.224
       4.660
       4.580
       4.985
       5.621
       6.329
       6.965
       7.149
       6.330
       4.289
       1.614
      -0.480
      -1.067
      -0.402
       0.180
      -0.534
      -2.459
      -4.308
      -4.930
      -4.513
      -4.332
      -5.287
      -6.792
      -7.283
      -5.844
      -3.198
      -0.997
      -0.252
      -0.608
      -1.050
      -1.025
      -0.794
      -0.918
      -1.642
      -2.794
      -4.061
      -5.222
      -6.091
      -6.430
      -6.063
      -5.102
      -3.932
      -2.884
      -1.916
      -0.613
       1.398
       3.911
       6.035
       6.835
       6.237
       5.150
       4.491
       4.151
       3.155
       0.928
      -1.772
      -3.426
      -3.294
      -2.226
      -1.746
      -2.396
      -3.175
      -2.688
      -0.692
       1.606
       2.726
       2.291
       1.327
       1.319
       2.916
       5.389
       7.230
       7.334
       5.750
       3.448
       1.422
       0.074
      -0.611
      -0.612
       0.068
       0.927
       0.988
      -0.335
      -2.426
      -3.781
      -3.238
      -0.943
       1.773
       3.328
       2.873
       0.801
      -1.512
      -2.670
      -2.286
      -1.220
      -0.755
      -1.511
      -3.073
      -4.515
      -5.182
      -5.066
      -4.643
      -4.383
      -4.261
      -3.628
      -1.728
       1.441
       4.752
       6.669
       6.495
       4.933
       3.408
       2.856
       3.109
       3.282
       2.577
       0.847
      -1.361
      -3.163
      -3.866
      -3.369
      -2.120
      -0.666
       0.766
       2.197
       3.504
       4.286
       4.258
       3.640
       2.969
       2.473
       1.844
       0.752
      -0.513
      -1.170
      -0.873
      -0.385
      -1.048
      -3.393
      -6.316
      -7.800
      -6.610
      -3.406
      -0.231
       1.179
       0.722
      -0.234
      -0.200
       1.188
       3.043
       4.089
       3.696
       2.314
       1.062
       0.815
       1.585
       2.698
       3.505
       3.851
       3.949
       3.970
       3.836
       3.289
       2.058
      -0.008
      -2.783
      -5.741
      -8.062
      -9.063
      -8.669
      -7.462
      -6.194
      -5.159
      -4.021
      -2.295
      -0.061
       1.896
       2.722
       2.290
       1.297
       0.605
       0.553
       0.851
       0.951
       0.435
      -0.820
      -2.647
      -4.678
      -6.447
      -7.526
      -7.715
      -7.192
      -6.412
      -5.742
      -5.139
      -4.211
      -2.649
      -0.562
       1.567
       3.213
       4.072
       4.094
       3.416
       2.374
       1.484
       1.235
       1.769
       2.714
       3.389
       3.346
       2.836
       2.662
       3.430
       4.920
       6.274
       6.831
       6.719
       6.597
       6.862
       7.165
       6.788
       5.501
       4.001
       3.365
       3.966
       4.989
       5.158
       4.025
       2.456
       1.747
       2.266
       3.043
       2.737
       0.955
      -1.428
      -3.166
      -3.756
      -3.694
      -3.784
      -4.338
      -5.062
      -5.588
      -5.965
      -6.574
      -7.646
      -8.947
      -9.958
     -10.362
     -10.349
     -10.362
     -10.485
     -10.111
      -8.403
      -5.199
      -1.395
       1.622
       2.990
       2.906
       2.364
       2.385
       3.326
       4.725
       5.807
       6.210
       6.269
       6.574
       7.243
       7.667
       7.065
       5.383
       3.600
       2.967
       3.847
       5.325
       6.040
       5.354
       3.779
       2.414
       2.027
       2.538
       3.206
       3.245
       2.317
       0.609
      -1.376
      -2.998
      -3.640
      -2.991
      -1.392
       0.135
       0.431
      -0.968
      -3.421
      -5.642
      -6.642
      -6.339
      -5.378
      -4.471
      -3.866
      -3.287
      -2.355
      -1.134
      -0.320
      -0.748
      -2.502
      -4.506
      -5.221
      -3.958
      -1.545
       0.375
       0.732
      -0.222
      -1.344
      -1.638
      -0.937
       0.176
       0.967
       1.119
       0.830
       0.427
      -0.048
      -0.781
      -1.699
      -2.222
      -1.696
      -0.131
       1.675
       2.909
       3.582
       4.377
       5.662
       6.814
       6.666
       4.607
       1.224
      -2.103
      -4.205
      -4.762
      -4.149
      -2.845
      -1.096
       0.922
       2.838
       4.190
