Origin Time       11/8/2009 21:43:39  UTC
Lat.              24.4 N 
Long.             94.8 E 
Depth (Km)         22.0
Magnitude         5.6
 Region           MYANMAR-INDIA(MANIPUR)BORDER                                     
 Above details taken from IMD 
    
Station Code      GOL
Station Lat.       26.152  N
Station Long.      90.627  E
Station Height(m)   56.0
Site Class        C   Vs30 between 200 m/sec to 375 m/sec *  
Record Time       11.08.2009 21:45:15.229 UTC
Sampling Rate     200. Hz
 Record Duration   73.965 Sec.
 Direction         N-S (N positive)
Max. Acceleration    -13.217 cm/sec**2
     
  * For reference see Site Classification link of website 
     
 Base Line Corrected and Low Pass Filtered (Cut Off at 35 Hz) Time History
 Acceleration data in cm/sec**2
    
[...]
      -0.263
      -0.316
      -0.361
      -0.374
      -0.343
      -0.281
      -0.211
      -0.163
      -0.162
      -0.214
      -0.301
      -0.381
      -0.418
      -0.401
      -0.351
      -0.287
      -0.213
      -0.122
      -0.025
       0.039
       0.027
      -0.082
      -0.263
      -0.456
      -0.593
      -0.632
      -0.575
      -0.473
      -0.397
      -0.400
      -0.483
      -0.593
      -0.655
      -0.615
      -0.477
      -0.296
      -0.155
      -0.112
      -0.164
      -0.241
      -0.250
      -0.131
       0.101
       0.356
       0.524
       0.542
       0.427
       0.257
       0.115
       0.050
       0.056
       0.095
       0.132
       0.152
       0.162
       0.168
       0.152
       0.066
      -0.130
      -0.425
      -0.737
      -0.949
      -0.984
      -0.847
      -0.612
      -0.372
      -0.199
      -0.119
      -0.109
      -0.102
      -0.005
       0.247
       0.645
       1.104
       1.502
       1.734
       1.762
       1.623
       1.404
       1.180
       0.977
       0.773
       0.542
       0.288
       0.052
      -0.119
      -0.192
      -0.157
      -0.027
       0.169
       0.380
       0.535
       0.569
       0.451
       0.199
      -0.135
      -0.501
      -0.869
      -1.226
      -1.555
      -1.827
      -2.007
      -2.061
      -1.973
      -1.757
      -1.453
      -1.110
      -0.749
      -0.369
       0.024
       0.390
       0.665
       0.805
       0.817
       0.756
       0.682
       0.613
       0.514
       0.323
       0.013
      -0.369
      -0.718
      -0.930
      -0.958
      -0.830
      -0.607
      -0.339
      -0.040
       0.304
       0.707
       1.152
       1.587
       1.933
       2.130
       2.166
       2.089
       1.960
       1.811
       1.635
       1.407
       1.123
       0.812
       0.521
       0.294
       0.150
       0.076
       0.038
      -0.001
      -0.059
      -0.116
      -0.133
      -0.091
      -0.023
       0.002
      -0.086
      -0.315
      -0.645
      -0.986
      -1.227
      -1.286
      -1.148
      -0.882
      -0.616
      -0.480
      -0.530
      -0.709
      -0.874
      -0.882
      -0.678
      -0.316
       0.087
       0.434
       0.693
       0.884
       1.043
       1.182
       1.288
       1.333
       1.285
       1.121
       0.834
       0.449
       0.032
      -0.338
      -0.602
      -0.756
      -0.845
      -0.927
      -1.030
      -1.135
      -1.191
      -1.154
      -1.017
      -0.815
      -0.588
      -0.344
      -0.059
       0.274
       0.605
       0.836
       0.892
       0.761
       0.496
       0.162
      -0.199
      -0.566
      -0.905
      -1.155
      -1.253
      -1.169
      -0.928
      -0.583
      -0.184
       0.236
       0.636
       0.949
       1.100
       1.057
       0.854
       0.584
       0.347
       0.200
       0.147
       0.160
       0.219
       0.319
       0.457
       0.606
       0.718
       0.760
       0.738
       0.702
       0.699
       0.733
       0.766
       0.745
       0.636
       0.429
       0.120
      -0.294
      -0.809
      -1.390
      -1.962
      -2.430
      -2.717
      -2.809
      -2.759
      -2.650
      -2.549
      -2.474
      -2.395
      -2.258
      -2.006
      -1.600
      -1.032
      -0.337
       0.411
       1.125
       1.749
       2.288
       2.788
       3.274
       3.702
       3.967
       3.953
       3.607
       2.968
       2.160
       1.333
       0.606
       0.032
      -0.399
      -0.734
      -1.035
      -1.353
      -1.712
      -2.095
      -2.445
      -2.682
      -2.742
      -2.609
      -2.325
      -1.952
      -1.536
      -1.083
      -0.573
      -0.004
       0.591
       1.166
       1.689
       2.156
       2.558
       2.847
       2.930
       2.731
       2.254
       1.604
       0.926
       0.327
      -0.182
      -0.667
      -1.210
      -1.842
      -2.505
      -3.069
      -3.403
      -3.452
      -3.272
      -2.994
      -2.739
      -2.555
      -2.393
      -2.161
      -1.775
      -1.212
      -0.509
       0.250
       0.974
       1.596
       2.095
       2.493
       2.833
       3.166
       3.544
       4.010
       4.569
       5.168
       5.712
       6.114
       6.321
       6.305
       6.032
       5.460
       4.568
       3.381
       1.956
       0.350
      -1.389
      -3.197
      -4.943
      -6.433
      -7.464
      -7.921
      -7.835
      -7.358
      -6.678
      -5.940
      -5.202
      -4.462
      -3.708
      -2.964
      -2.267
      -1.620
      -0.966
      -0.224
       0.630
       1.535
       2.382
       3.079
       3.580
       3.854
       3.875
       3.620
       3.100
       2.369
       1.517
       0.647
      -0.158
      -0.861
      -1.467
      -1.982
      -2.370
      -2.545
      -2.413
      -1.936
      -1.172
      -0.274
       0.574
       1.229
       1.655
       1.918
       2.125
       2.349
       2.593
       2.800
       2.889
       2.803
       2.534
       2.130
       1.694
       1.350
       1.188
       1.230
       1.418
       1.656
       1.858
       1.972
       1.975
       1.857
       1.614
       1.249
       0.774
       0.207
      -0.432
      -1.118
      -1.819
      -2.505
      -3.140
      -3.681
      -4.085
      -4.332
      -4.442
      -4.452
      -4.397
      -4.291
      -4.125
      -3.865
      -3.450
      -2.808
      -1.900
      -0.769
       0.453
       1.599
       2.548
       3.268
       3.798
       4.197
       4.499
       4.700
       4.764
       4.633
       4.250
       3.569
       2.593
       1.404
       0.166
      -0.916
      -1.694
      -2.146
      -2.370
      -2.503
      -2.613
      -2.638
      -2.429
      -1.863
      -0.969
       0.026
       0.792
       1.068
       0.800
       0.145
      -0.633
      -1.304
      -1.756
      -1.989
      -2.057
      -2.001
      -1.819
      -1.479
      -0.955
      -0.255
       0.569
       1.431
       2.241
       2.921
       3.395
       3.596
       3.462
       2.975
       2.189
       1.233
       0.266
      -0.589
      -1.304
      -1.939
      -2.572
      -3.211
      -3.746
      -3.993
      -3.807
      -3.182
      -2.270
      -1.297
      -0.442
       0.250
       0.863
       1.523
       2.284
       3.071
       3.717
       4.076
       4.124
       3.980
       3.824
       3.808
       3.981
       4.283
       4.580
       4.708
       4.525
       3.954
       2.996
       1.741
       0.344
      -1.028
      -2.277
      -3.408
      -4.502
      -5.637
      -6.815
      -7.951
      -8.899
      -9.517
      -9.716
      -9.484
      -8.892
      -8.065
      -7.141
      -6.222
      -5.333
      -4.420
      -3.379
      -2.116
      -0.606
       1.071
       2.749
       4.260
       5.515
       6.546
       7.454
       8.301
       9.046
       9.551
       9.664
       9.317
       8.569
       7.597
       6.610
       5.751
       5.013
       4.228
       3.157
       1.634
      -0.312
      -2.431
      -4.362
      -5.806
      -6.657
      -7.011
      -7.059
      -6.957
      -6.762
      -6.462
      -6.049
      -5.542
      -4.956
      -4.254
      -3.365
      -2.245
      -0.941
       0.419
       1.689
       2.774
       3.648
       4.338
       4.897
       5.372
       5.777
       6.055
       6.083
       5.737
       4.997
       3.977
       2.866
       1.815
       0.859
      -0.052
      -0.974
      -1.897
      -2.746
      -3.403
      -3.770
      -3.817
      -3.617
      -3.306
      -2.988
      -2.664
      -2.248
      -1.667
      -0.944
      -0.188
       0.474
       0.953
       1.228
       1.343
       1.386
       1.457
       1.624
       1.901
       2.243
       2.559
       2.741
       2.701
       2.410
       1.909
       1.275
       0.568
      -0.193
      -1.011
      -1.864
      -2.694
      -3.432
      -4.062
      -4.640
      -5.242
      -5.888
      -6.491
      -6.890
      -6.932
      -6.538
      -5.711
      -4.493
      -2.913
      -0.996
       1.182
       3.440
       5.511
       7.130
       8.131
       8.507
       8.386
       7.966
       7.429
       6.892
       6.388
       5.888
       5.341
       4.725
       4.072
       3.447
       2.904
       2.426
       1.910
       1.217
       0.276
      -0.839
      -1.942
      -2.872
      -3.624
      -4.351
      -5.242
      -6.367
      -7.636
      -8.856
      -9.832
     -10.396
     -10.417
      -9.820
      -8.635
      -7.021
      -5.206
      -3.384
      -1.643
       0.016
       1.603
       3.076
       4.330
       5.246
       5.755
       5.875
       5.707
       5.388
       5.028
       4.665
       4.284
       3.850
       3.331
       2.698
       1.918
       0.997
       0.034
      -0.786
      -1.271
      -1.338
      -1.085
      -0.743
      -0.563
      -0.702
      -1.172
      -1.859
      -2.587
      -3.182
      -3.513
      -3.515
      -3.191
      -2.603
      -1.839
      -0.990
      -0.104
       0.838
       1.913
       3.195
       4.670
       6.188
       7.511
       8.432
       8.868
       8.869
       8.541
       7.960
       7.139
       6.055
       4.688
       3.045
       1.168
      -0.852
      -2.859
      -4.647
      -6.031
      -6.929
      -7.385
      -7.513
      -7.421
      -7.163
      -6.742
      -6.143
      -5.382
      -4.538
      -3.735
      -3.077
      -2.589
      -2.207
      -1.830
      -1.385
      -0.865
      -0.316
       0.196
       0.610
       0.889
       1.013
       0.965
       0.735
       0.354
      -0.069
      -0.346
      -0.287
       0.175
       0.899
       1.569
       1.845
       1.569
       0.867
       0.103
      -0.315
      -0.148
       0.557
       1.507
       2.315
       2.688
       2.545
       2.040
       1.477
       1.160
       1.266
       1.783
       2.539
       3.294
       3.825
       3.995
       3.781
       3.262
       2.560
       1.784
       1.013
       0.315
      -0.244
      -0.630
      -0.896
      -1.193
      -1.704
      -2.556
      -3.747
      -5.128
      -6.430
      -7.326
      -7.527
      -6.887
      -5.487
      -3.631
      -1.764
      -0.301
       0.518
       0.697
       0.419
      -0.113
      -0.797
      -1.643
      -2.644
      -3.648
      -4.343
      -4.377
      -3.533
      -1.840
       0.392
       2.652
       4.384
       5.207
       5.086
       4.356
       3.545
       3.087
       3.105
       3.405
       3.658
       3.631
       3.301
       2.826
       2.413
       2.177
       2.072
       1.926
       1.549
       0.863
      -0.036
      -0.921
      -1.555
      -1.828
      -1.809
      -1.693
      -1.672
      -1.821
      -2.070
      -2.258
      -2.237
      -1.946
      -1.428
      -0.784
      -0.094
       0.622
       1.367
       2.105
       2.710
       2.996
       2.791
       2.046
       0.913
      -0.277
      -1.182
      -1.642
      -1.774
      -1.862
      -2.130
      -2.569
      -2.944
      -2.971
      -2.529
      -1.748
      -0.931
      -0.373
      -0.219
      -0.408
      -0.731
      -0.949
      -0.911
      -0.601
      -0.090
       0.557
       1.343
       2.315
       3.456
       4.595
       5.420
       5.604
       4.971
       3.598
       1.796
      -0.026
      -1.537
      -2.588
      -3.185
      -3.359
      -3.071
      -2.222
      -0.758
       1.214
       3.400
       5.397
       6.844
       7.543
       7.489
       6.796
       5.603
       4.025
       2.192
       0.301
      -1.389
      -2.657
      -3.438
      -3.841
      -4.032
      -4.076
      -3.863
      -3.205
      -2.009
      -0.423
       1.169
       2.306
       2.654
       2.127
       0.884
      -0.766
      -2.477
      -3.935
      -4.907
      -5.278
      -5.087
      -4.521
      -3.854
      -3.317
      -3.009
      -2.884
      -2.835
      -2.795
      -2.763
      -2.758
      -2.715
      -2.442
      -1.687
      -0.332
       1.428
       3.098
       4.127
       4.223
       3.474
       2.242
       0.914
      -0.265
      -1.232
      -2.039
      -2.749
      -3.365
      -3.799
      -3.909
      -3.586
      -2.822
      -1.726
      -0.462
       0.844
       2.161
       3.523
       4.945
       6.365
       7.631
       8.561
       8.991
       8.823
       8.057
       6.816
       5.330
       3.837
       2.462
       1.152
      -0.254
      -1.906
      -3.824
      -5.864
      -7.745
      -9.132
      -9.753
      -9.544
      -8.714
      -7.667
      -6.791
      -6.250
      -5.927
      -5.558
      -4.946
      -4.059
      -2.969
      -1.717
      -0.267
       1.390
       3.136
       4.739
       5.993
       6.847
       7.395
       7.745
       7.921
       7.874
       7.546
       6.902
       5.926
       4.626
       3.072
       1.433
      -0.037
      -1.080
      -1.553
      -1.519
      -1.244
      -1.096
      -1.361
      -2.099
      -3.094
      -3.951
      -4.275
      -3.836
      -2.654
      -0.967
       0.908
       2.732
       4.402
       5.881
       7.083
       7.835
       7.945
       7.339
       6.148
       4.672
       3.211
       1.902
       0.693
      -0.517
      -1.723
      -2.790
      -3.597
      -4.212
      -4.934
      -6.121
      -7.920
     -10.096
     -12.078
     -13.217
     -13.078
     -11.622
      -9.204
      -6.398
      -3.756
      -1.591
       0.081
       1.421
       2.558
       3.483
       4.126
       4.508
       4.817
       5.323
       6.205
       7.409
       8.623
       9.398
       9.368
       8.470
       6.990
       5.391
       4.034
       2.995
       2.116
       1.196
       0.145
      -1.012
      -2.220
      -3.434
      -4.563
      -5.412
      -5.718
      -5.297
      -4.195
      -2.725
      -1.326
      -0.328
       0.217
       0.504
       0.770
       1.093
       1.352
       1.365
       1.032
       0.365
      -0.573
      -1.700
      -2.881
      -3.915
      -4.578
      -4.744
      -4.474
      -3.984
      -3.524
      -3.234
      -3.103
      -3.028
      -2.910
      -2.722
      -2.511
      -2.352
      -2.281
      -2.260
      -2.196
      -2.006
      -1.644
      -1.081
      -0.267
       0.860
       2.287
       3.850
       5.249
       6.188
       6.519
       6.307
       5.771
       5.154
       4.629
       4.266
       4.064
       3.988
       3.978
       3.930
       3.706
       3.221
       2.523
       1.798
       1.259
       1.001
       0.923
       0.784
       0.367
      -0.366
      -1.210
      -1.816
      -1.913
      -1.522
      -1.001
      -0.857
      -1.437
      -2.696
      -4.186
      -5.299
      -5.583
      -4.944
      -3.617
      -1.981
      -0.369
       0.999
       1.978
       2.447
       2.334
       1.697
       0.745
      -0.282
      -1.275
      -2.295
      -3.428
      -4.595
      -5.511
      -5.842
      -5.446
      -4.501
      -3.423
      -2.629
      -2.268
      -2.134
      -1.813
      -0.980
       0.385
       2.017
       3.576
       4.844
       5.793
       6.509
       7.069
       7.471
       7.636
       7.481
       6.984
       6.202
       5.222
       4.111
       2.917
       1.732
       0.736
       0.138
       0.024
       0.236
       0.404
       0.113
      -0.907
      -2.659
      -4.872
      -7.101
      -8.853
      -9.700
      -9.348
      -7.685
      -4.845
      -1.245
       2.466
       5.576
       7.558
       8.260
       7.949
       7.148
       6.344
       5.740
       5.210
       4.476
       3.374
       2.023
       0.769
      -0.024
      -0.224
      -0.039
       0.065
      -0.424
      -1.785
      -3.854
      -6.024
      -7.505
      -7.758
      -6.788
      -5.093
      -3.332
      -1.963
      -1.100
      -0.604
      -0.279
      -0.007
       0.231
       0.391
       0.381
       0.081
      -0.598
      -1.638
      -2.871
      -4.060
      -5.030
      -5.742
      -6.232
      -6.460
      -6.262
      -5.474
      -4.116
      -2.482
      -1.043
      -0.274
      -0.481
      -1.694
      -3.626
      -5.751
      -7.480
      -8.365
      -8.205
      -7.040
      -5.065
      -2.564
       0.124
       2.669
       4.849
       6.637
       8.163
       9.552
      10.769
      11.617
      11.893
      11.568
      10.847
      10.046
       9.398
       8.909
       8.352
       7.402
       5.859
       3.818
       1.667
      -0.099
      -1.168
      -1.599
      -1.773
      -2.148
      -2.972
      -4.163
      -5.387
      -6.267
      -6.582
      -6.352
      -5.779
      -5.124
      -4.576
      -4.193
      -3.902
      -3.532
      -2.891
      -1.868
      -0.493
       1.104
       2.801
       4.552
       6.313
       7.924
       9.064
       9.375
       8.660
       7.036
       4.889
       2.684
       0.725
      -0.946
      -2.469
      -3.969
      -5.379
      -6.436
      -6.835
      -6.442
      -5.393
      -4.004
      -2.593
      -1.342
      -0.312
       0.475
       0.989
       1.230
       1.303
       1.395
       1.660
       2.107
       2.589
       2.901
       2.895
       2.519
       1.783
       0.717
      -0.631
      -2.145
      -3.599
      -4.704
      -5.222
      -5.067
      -4.298
      -3.032
      -1.402
       0.390
       2.001
       3.002
       3.064
       2.159
       0.615
      -1.019
      -2.208
      -2.601
      -2.099
      -0.837
       0.877
       2.644
       4.090
       4.952
       5.104
       4.545
       3.391
       1.878
       0.335
      -0.925
      -1.734
      -2.132
      -2.282
      -2.297
      -2.139
      -1.654
      -0.720
       0.638
       2.241
       3.833
       5.150
       5.957
       6.076
       5.445
       4.185
       2.577
       0.951
      -0.433
      -1.433
      -1.999
      -2.128
      -1.863
      -1.321
      -0.693
      -0.205
      -0.030
      -0.197
      -0.556
      -0.860
      -0.919
      -0.752
      -0.597
      -0.759
      -1.387
      -2.351
      -3.332
      -4.068
      -4.516
      -4.801
      -4.991
      -4.960
      -4.480
      -3.452
      -2.072
      -0.767
       0.051
       0.227
      -0.066
      -0.458
      -0.623
      -0.444
      -0.040
       0.377
       0.676
       0.905
       1.230
       1.737
       2.271
       2.487
       2.088
       1.082
      -0.188
      -1.247
      -1.765
      -1.716
      -1.330
      -0.919
      -0.717
      -0.800
      -1.091
      -1.392
      -1.458
      -1.107
      -0.327
       0.690
       1.623
       2.190
       2.290
       2.023
       1.579
       1.125
       0.771
       0.610
       0.742
       1.213
       1.927
       2.632
       3.003
       2.780
       1.878
       0.422
      -1.301
      -2.952
      -4.270
      -5.166
      -5.720
      -6.080
      -6.347
      -6.513
      -6.479
      -6.127
      -5.404
      -4.358
      -3.121
      -1.849
      -0.642
       0.497
       1.677
       3.055
       4.729
       6.630
       8.479
       9.892
      10.574
      10.471
       9.763
