Origin Time       24/2/2009 17:46:13 
Lat.              25.9 N 
Long.             94.3 E 
Depth (Km)         10.0
Magnitude         4.8
 Region           INDIA(NAGALAND)-MYANMAR-BORD-REG                                 
 Above details taken from IMD 
     
Station Code      GOL
Station Lat.       26.516  N
Station Long.      93.972  E
Station Height(m)   75.0
Site Class        B   Vs30 between 375 m/sec to 700 m/sec *  
Record Time       24.02.2009 17:46:29.554
Sampling Rate     200. Hz
 Record Duration   73.570 Sec.
 Direction         E-W (E positive)
Max. Acceleration    -12.801 cm/sec**2
     
  * For reference see Site Classification link of website 
     
 Base Line Corrected and Low Pass Filtered (Cut Off at 35 Hz) Time History
 Acceleration data in cm/sec**2
    
[...]
      -0.337
      -0.308
      -0.207
      -0.079
       0.038
       0.127
       0.181
       0.198
       0.170
       0.096
      -0.019
      -0.154
      -0.291
      -0.412
      -0.498
      -0.520
      -0.449
      -0.271
      -0.009
       0.273
       0.503
       0.632
       0.656
       0.606
       0.520
       0.428
       0.344
       0.274
       0.224
       0.196
       0.184
       0.175
       0.148
       0.082
      -0.032
      -0.184
      -0.347
      -0.484
      -0.569
      -0.596
      -0.570
      -0.504
      -0.406
      -0.293
      -0.185
      -0.101
      -0.053
      -0.050
      -0.105
      -0.233
      -0.434
      -0.671
      -0.872
      -0.962
      -0.886
      -0.641
      -0.272
       0.139
       0.503
       0.750
       0.852
       0.820
       0.694
       0.523
       0.355
       0.226
       0.156
       0.138
       0.147
       0.149
       0.115
       0.034
      -0.079
      -0.196
      -0.280
      -0.306
      -0.272
      -0.192
      -0.087
       0.024
       0.140
       0.270
       0.430
       0.621
       0.816
       0.952
       0.964
       0.826
       0.579
       0.316
       0.118
       0.009
      -0.055
      -0.152
      -0.327
      -0.558
      -0.765
      -0.864
      -0.817
      -0.653
      -0.439
      -0.248
      -0.119
      -0.056
      -0.037
      -0.023
       0.023
       0.124
       0.270
       0.411
       0.480
       0.422
       0.228
      -0.053
      -0.333
      -0.525
      -0.583
      -0.512
      -0.354
      -0.159
       0.033
       0.205
       0.351
       0.468
       0.547
       0.574
       0.540
       0.441
       0.276
       0.055
      -0.192
      -0.421
      -0.583
      -0.640
      -0.581
      -0.421
      -0.193
       0.063
       0.314
       0.537
       0.724
       0.867
       0.953
       0.960
       0.870
       0.684
       0.434
       0.166
      -0.075
      -0.261
      -0.387
      -0.461
      -0.494
      -0.494
      -0.469
      -0.438
      -0.419
      -0.418
      -0.414
      -0.374
      -0.279
      -0.156
      -0.064
      -0.056
      -0.136
      -0.254
      -0.342
      -0.374
      -0.379
      -0.419
      -0.527
      -0.675
      -0.788
      -0.794
      -0.666
      -0.440
      -0.183
       0.043
       0.208
       0.317
       0.387
       0.431
       0.443
       0.413
       0.337
       0.231
       0.125
       0.044
       0.000
      -0.003
       0.038
       0.137
       0.300
       0.512
       0.726
       0.880
       0.923
       0.831
       0.619
       0.335
       0.053
      -0.151
      -0.232
      -0.199
      -0.118
      -0.067
      -0.087
      -0.153
      -0.196
      -0.157
      -0.038
       0.097
       0.159
       0.093
      -0.091
      -0.328
      -0.537
      -0.654
      -0.651
      -0.522
      -0.285
       0.030
       0.370
       0.679
       0.910
       1.040
       1.076
       1.036
       0.935
       0.776
       0.553
       0.269
      -0.056
      -0.376
      -0.637
      -0.790
      -0.812
      -0.716
      -0.541
      -0.338
      -0.152
      -0.006
       0.091
       0.149
       0.178
       0.188
       0.184
       0.170
       0.143
       0.090
      -0.013
      -0.182
      -0.401
      -0.621
      -0.786
      -0.870
      -0.888
      -0.877
      -0.857
      -0.829
      -0.780
      -0.713
      -0.647
      -0.605
      -0.595
      -0.603
      -0.602
      -0.557
      -0.444
      -0.261
      -0.039
       0.164
       0.285
       0.292
       0.198
       0.061
      -0.044
      -0.060
       0.034
       0.219
       0.453
       0.681
       0.851
       0.930
       0.917
       0.840
       0.746
       0.669
       0.616
       0.582
       0.564
       0.576
       0.640
       0.764
       0.934
       1.107
       1.231
       1.258
       1.160
       0.933
       0.606
       0.229
      -0.142
      -0.455
      -0.670
      -0.771
      -0.761
      -0.669
      -0.531
      -0.381
      -0.231
      -0.080
       0.075
       0.229
       0.358
       0.424
       0.382
       0.199
      -0.117
      -0.510
      -0.882
      -1.142
      -1.247
      -1.225
      -1.149
      -1.088
      -1.067
      -1.059
      -1.015
      -0.900
      -0.714
      -0.484
      -0.246
      -0.035
       0.121
       0.201
       0.195
       0.113
      -0.020
      -0.172
      -0.318
      -0.433
      -0.498
      -0.492
      -0.404
      -0.227
       0.036
       0.380
       0.780
       1.190
       1.538
       1.746
       1.765
       1.595
       1.292
       0.938
       0.613
       0.360
       0.188
       0.078
       0.005
      -0.047
      -0.083
      -0.101
      -0.101
      -0.091
      -0.083
      -0.079
      -0.067
      -0.029
       0.042
       0.126
       0.187
       0.193
       0.132
       0.020
      -0.112
      -0.238
      -0.341
      -0.425
      -0.498
      -0.566
      -0.619
      -0.633
      -0.578
      -0.443
      -0.249
      -0.041
       0.127
       0.224
       0.255
       0.245
       0.223
       0.194
       0.136
       0.017
      -0.180
      -0.435
      -0.687
      -0.848
      -0.841
      -0.643
      -0.303
       0.077
       0.379
       0.518
       0.473
       0.285
       0.036
      -0.186
      -0.317
      -0.336
      -0.262
      -0.137
      -0.001
       0.129
       0.254
       0.377
       0.484
       0.545
       0.537
       0.460
       0.338
       0.201
       0.068
      -0.060
      -0.195
      -0.340
      -0.475
      -0.554
      -0.528
      -0.382
      -0.153
       0.093
       0.297
       0.432
       0.501
       0.514
       0.472
       0.373
       0.226
       0.059
      -0.096
      -0.225
      -0.350
      -0.513
      -0.736
      -0.994
      -1.208
      -1.281
      -1.151
      -0.820
      -0.353
       0.146
       0.578
       0.865
       0.971
       0.898
       0.685
       0.393
       0.083
      -0.200
      -0.424
      -0.559
      -0.583
      -0.490
      -0.307
      -0.093
       0.084
       0.185
       0.213
       0.208
       0.223
       0.300
       0.450
       0.651
       0.858
       1.017
       1.079
       1.015
       0.829
       0.559
       0.277
       0.063
      -0.036
      -0.029
       0.027
       0.066
       0.049
      -0.015
      -0.091
      -0.148
      -0.184
      -0.233
      -0.340
      -0.531
      -0.787
      -1.043
      -1.216
      -1.242
      -1.104
      -0.831
      -0.484
      -0.133
       0.160
       0.347
       0.403
       0.338
       0.186
      -0.010
      -0.221
      -0.436
      -0.652
      -0.865
      -1.059
      -1.208
      -1.280
      -1.255
      -1.140
      -0.974
      -0.817
      -0.727
      -0.731
      -0.815
      -0.930
      -1.018
      -1.045
      -1.021
      -0.988
      -0.989
      -1.034
      -1.092
      -1.118
      -1.093
      -1.049
      -1.053
      -1.159
      -1.375
      -1.656
      -1.933
      -2.145
      -2.256
      -2.244
      -2.097
      -1.826
      -1.474
      -1.117
      -0.831
      -0.642
      -0.511
      -0.362
      -0.135
       0.169
       0.494
       0.762
       0.930
       1.003
       1.024
       1.042
       1.089
       1.178
       1.309
       1.479
       1.679
       1.895
       2.113
       2.317
       2.487
       2.600
       2.632
       2.566
       2.397
       2.145
       1.867
       1.661
       1.639
       1.891
       2.441
       3.235
       4.156
       5.062
       5.825
       6.361
       6.633
       6.650
       6.444
       6.059
       5.539
       4.938
       4.327
       3.787
       3.393
       3.184
       3.149
       3.216
       3.275
       3.202
       2.905
       2.359
       1.609
       0.749
      -0.113
      -0.882
      -1.483
      -1.843
      -1.891
      -1.590
      -0.972
      -0.168
       0.633
       1.246
       1.550
       1.511
       1.154
       0.528
      -0.336
      -1.415
      -2.667
      -4.013
      -5.338
      -6.535
      -7.529
      -8.291
      -8.818
      -9.117
      -9.185
      -9.007
      -8.564
      -7.856
      -6.918
      -5.830
      -4.686
      -3.553
      -2.454
      -1.382
      -0.332
       0.679
       1.623
       2.494
       3.330
       4.194
       5.123
       6.078
       6.917
       7.422
       7.384
       6.703
       5.435
       3.772
       1.943
       0.135
      -1.533
      -2.969
      -4.080
      -4.780
      -5.033
      -4.873
      -4.373
      -3.605
      -2.641
      -1.584
      -0.606
       0.080
       0.280
      -0.104
      -1.025
      -2.303
      -3.691
      -4.965
      -5.987
      -6.717
      -7.170
      -7.365
      -7.307
      -7.013
      -6.548
      -6.024
      -5.557
      -5.196
      -4.895
      -4.534
      -3.993
      -3.221
      -2.259
      -1.217
      -0.219
       0.656
       1.402
       2.063
       2.689
       3.303
       3.907
       4.517
       5.184
       5.982
       6.958
       8.084
       9.249
      10.286
      11.033
      11.395
      11.376
      11.068
      10.597
      10.046
       9.406
       8.570
       7.394
       5.773
       3.702
       1.292
      -1.236
      -3.585
      -5.448
      -6.598
      -6.964
      -6.646
      -5.871
      -4.910
      -3.990
      -3.235
      -2.651
      -2.162
      -1.667
      -1.096
      -0.431
       0.309
       1.084
       1.842
       2.497
       2.926
       2.979
       2.541
       1.588
       0.213
      -1.387
      -2.969
      -4.299
      -5.195
      -5.552
      -5.362
      -4.726
      -3.837
      -2.918
      -2.144
      -1.583
      -1.190
      -0.858
      -0.498
      -0.094
       0.284
       0.535
       0.585
       0.429
       0.131
      -0.216
      -0.536
      -0.788
      -0.971
      -1.106
      -1.225
      -1.354
      -1.505
      -1.659
      -1.748
      -1.659
      -1.266
      -0.495
       0.636
       2.012
       3.461
       4.807
       5.888
       6.569
       6.752
       6.407
       5.597
       4.464
       3.182
       1.914
       0.790
      -0.093
      -0.670
      -0.924
      -0.903
      -0.705
      -0.452
      -0.248
      -0.154
      -0.192
      -0.357
      -0.635
      -1.013
      -1.475
      -1.988
      -2.500
      -2.959
      -3.348
      -3.690
      -4.021
      -4.336
      -4.576
      -4.660
      -4.531
      -4.174
      -3.596
      -2.820
      -1.909
      -0.985
      -0.226
       0.215
       0.303
       0.169
       0.065
       0.243
       0.822
       1.731
       2.756
       3.641
       4.198
       4.367
       4.216
       3.883
       3.516
       3.229
       3.098
       3.168
       3.451
       3.908
       4.455
       4.977
       5.354
       5.470
       5.222
       4.539
       3.424
       1.983
       0.413
      -1.057
      -2.253
      -3.110
      -3.695
      -4.152
      -4.629
      -5.206
      -5.876
      -6.567
      -7.183
      -7.625
      -7.802
      -7.641
      -7.111
      -6.246
      -5.140
      -3.929
      -2.749
      -1.705
      -0.843
      -0.156
       0.397
       0.859
       1.265
       1.638
       1.995
       2.335
       2.619
       2.767
       2.695
       2.378
       1.881
       1.352
       0.948
       0.770
       0.830
       1.079
       1.448
       1.884
       2.336
       2.727
       2.951
       2.900
       2.526
       1.882
       1.117
       0.421
      -0.059
      -0.272
      -0.275
      -0.194
      -0.158
      -0.239
      -0.432
      -0.685
      -0.941
      -1.165
      -1.342
      -1.468
      -1.543
      -1.576
      -1.577
      -1.551
      -1.470
      -1.280
      -0.921
      -0.376
       0.306
       1.014
       1.628
       2.082
       2.401
       2.675
       2.981
       3.296
       3.472
       3.303
       2.654
       1.570
       0.296
      -0.827
      -1.537
      -1.779
      -1.707
      -1.561
      -1.516
      -1.594
      -1.700
      -1.715
      -1.579
      -1.307
      -0.953
      -0.563
      -0.165
       0.208
       0.493
       0.606
       0.492
       0.185
      -0.182
      -0.438
      -0.481
      -0.355
      -0.214
      -0.203
      -0.327
      -0.428
      -0.294
       0.191
       0.960
       1.802
       2.488
       2.880
       2.963
       2.800
       2.461
       2.003
       1.476
       0.951
       0.512
       0.206
       0.002
      -0.206
      -0.527
      -0.999
      -1.541
      -2.004
      -2.262
      -2.289
      -2.167
      -2.013
      -1.893
      -1.770
      -1.546
      -1.134
      -0.515
       0.259
       1.098
       1.902
       2.584
       3.073
       3.332
       3.370
       3.241
       3.019
       2.762
       2.496
       2.219
       1.934
       1.691
       1.587
       1.721
       2.114
       2.674
       3.225
       3.600
       3.726
       3.639
       3.439
       3.205
       2.950
       2.622
       2.169
       1.589
       0.951
       0.350
      -0.144
      -0.513
      -0.764
      -0.887
      -0.851
      -0.653
      -0.348
      -0.035
       0.226
       0.462
       0.751
       1.134
       1.527
       1.739
       1.559
       0.851
      -0.400
      -2.106
      -4.102
      -6.180
      -8.109
      -9.686
     -10.788
     -11.417
     -11.696
     -11.820
     -11.972
     -12.235
     -12.559
     -12.801
     -12.794
     -12.419
     -11.632
     -10.440
      -8.879
      -7.002
      -4.894
      -2.687
      -0.555
       1.317
       2.782
       3.777
       4.334
       4.552
       4.542
       4.388
       4.138
       3.822
       3.475
       3.136
       2.834
       2.579
       2.396
       2.353
       2.561
       3.119
       4.061
       5.311
       6.700
       8.016
       9.060
       9.711
       9.948
       9.850
       9.548
       9.181
       8.863
       8.655
       8.549
       8.449
       8.184
       7.571
       6.491
       4.935
       3.002
       0.850
      -1.342
      -3.391
      -5.111
      -6.318
      -6.870
      -6.717
      -5.935
      -4.719
      -3.333
      -2.040
      -1.033
      -0.409
      -0.170
      -0.258
      -0.579
      -1.035
      -1.555
      -2.121
      -2.753
      -3.461
      -4.198
      -4.848
      -5.260
      -5.319
      -4.986
      -4.330
      -3.504
      -2.697
      -2.063
      -1.666
      -1.475
      -1.401
      -1.360
      -1.304
      -1.220
      -1.112
      -0.986
      -0.844
      -0.674
      -0.445
      -0.117
       0.355
       1.013
       1.889
       2.979
       4.216
       5.458
       6.515
       7.204
       7.401
       7.054
       6.188
       4.898
       3.351
       1.749
       0.255
      -1.065
      -2.232
      -3.273
      -4.138
      -4.685
      -4.758
      -4.298
      -3.396
      -2.267
      -1.168
      -0.300
       0.248
       0.508
       0.596
       0.644
       0.733
       0.868
       0.997
       1.061
       1.049
       1.015
       1.060
       1.287
       1.741
       2.388
       3.125
       3.816
       4.326
       4.547
       4.410
       3.907
       3.104
       2.121
       1.092
       0.124
      -0.695
      -1.290
      -1.600
      -1.623
      -1.441
      -1.205
      -1.055
      -1.047
      -1.137
      -1.219
      -1.204
      -1.075
      -0.912
      -0.843
      -0.987
      -1.406
      -2.087
      -2.955
      -3.891
      -4.735
      -5.318
      -5.514
      -5.290
      -4.725
      -3.969
      -3.187
      -2.524
      -2.081
      -1.904
      -1.954
      -2.098
      -2.146
      -1.929
      -1.374
      -0.543
       0.406
       1.289
       1.972
       2.402
       2.593
       2.574
       2.353
       1.918
       1.281
       0.523
      -0.206
      -0.741
      -0.978
      -0.923
      -0.687
      -0.429
      -0.291
      -0.349
      -0.589
      -0.923
      -1.230
      -1.405
      -1.401
      -1.221
      -0.904
      -0.496
      -0.049
       0.359
       0.634
       0.699
       0.538
       0.235
      -0.047
      -0.122
       0.143
       0.781
       1.710
       2.758
       3.710
       4.371
       4.608
       4.389
       3.787
       2.961
       2.116
       1.444
       1.060
       0.960
       1.025
       1.094
       1.050
       0.874
       0.628
       0.376
       0.133
      -0.143
      -0.485
      -0.862
      -1.184
      -1.364
      -1.405
      -1.398
      -1.437
      -1.521
      -1.533
      -1.333
      -0.873
      -0.241
       0.396
       0.886
       1.147
       1.152
       0.895
       0.375
      -0.375
      -1.257
      -2.124
      -2.839
      -3.321
      -3.554
      -3.543
      -3.275
      -2.720
      -1.892
      -0.907
       0.013
       0.631
       0.819
       0.619
       0.206
      -0.220
      -0.534
      -0.719
      -0.823
      -0.899
      -0.964
      -1.002
      -0.995
      -0.937
      -0.824
      -0.627
      -0.292
       0.241
       1.012
       2.021
       3.230
       4.552
       5.849
       6.928
       7.586
       7.685
       7.225
       6.370
       5.381
       4.515
       3.927
       3.643
       3.570
       3.549
       3.404
       3.016
       2.375
       1.581
       0.781
       0.089
      -0.468
      -0.930
      -1.360
      -1.787
      -2.197
      -2.546
      -2.796
      -2.929
      -2.949
      -2.868
      -2.697
      -2.446
      -2.120
      -1.727
      -1.280
      -0.803
      -0.342
       0.020
       0.177
       0.031
      -0.452
      -1.217
      -2.140
      -3.077
      -3.917
      -4.605
      -5.124
      -5.466
      -5.612
      -5.536
      -5.247
      -4.822
      -4.408
      -4.151
      -4.109
      -4.196
      -4.207
      -3.932
      -3.267
      -2.273
      -1.132
      -0.042
       0.877
       1.607
       2.189
       2.652
       2.977
       3.119
       3.060
       2.868
       2.691
       2.694
       2.965
       3.468
       4.080
       4.666
       5.137
       5.445
       5.542
       5.375
       4.915
       4.214
       3.402
       2.623
       1.938
       1.298
       0.590
      -0.255
      -1.200
      -2.118
      -2.866
      -3.363
      -3.624
      -3.725
      -3.753
      -3.775
      -3.847
      -4.021
      -4.332
      -4.756
      -5.187
      -5.469
      -5.465
      -5.123
      -4.491
      -3.671
      -2.756
      -1.797
      -0.805
       0.227
       1.303
       2.397
       3.444
       4.331
       4.929
       5.143
       4.980
       4.563
       4.086
       3.734
       3.610
       3.717
       3.983
       4.309
       4.611
       4.835
       4.956
       4.961
       4.822
       4.473
       3.833
       2.851
       1.580
       0.200
      -1.019
      -1.830
      -2.116
      -1.937
      -1.473
      -0.926
      -0.444
      -0.107
       0.045
      -0.022
      -0.328
      -0.852
      -1.505
      -2.149
      -2.634
      -2.863
      -2.830
      -2.627
      -2.399
      -2.283
      -2.342
      -2.545
      -2.786
      -2.947
      -2.960
      -2.842
      -2.666
      -2.492
      -2.314
      -2.063
      -1.666
      -1.119
