Origin Time       29/12/2009 09:01:42 UTC
Lat.              24.5°N	
Long.             94.8°E	
Depth (Km)         80.0
Magnitude         5.5
 Region           MYANMAR-INDIA(MANIPUR)-BORDER                                    
 Above details taken from IMD 
    
Station Code      GOL
Station Lat.       26.152  N
Station Long.      90.627  E
Station Height(m)   56.0
Site Class        C   Vs30 between 200 m/sec to 375 m/sec *  
Record Time       29.12.2009 09:03:23.589 UTC
Sampling Rate     200. Hz
 Record Duration   70.055 Sec.
 Direction         N-S (N positive)
Max. Acceleration     -9.576 cm/sec**2
     
  * For reference see Site Classification link of website 
     
 Base Line Corrected and Low Pass Filtered (Cut Off at 35 Hz) Time History
 Acceleration data in cm/sec**2
    
[...]
       0.249
       0.331
       0.344
       0.278
       0.171
       0.091
       0.081
       0.140
       0.227
       0.306
       0.354
       0.364
       0.330
       0.251
       0.133
      -0.006
      -0.138
      -0.236
      -0.280
      -0.273
      -0.240
      -0.212
      -0.201
      -0.201
      -0.193
      -0.173
      -0.153
      -0.159
      -0.215
      -0.323
      -0.447
      -0.528
      -0.515
      -0.396
      -0.210
      -0.021
       0.112
       0.170
       0.182
       0.197
       0.252
       0.345
       0.435
       0.465
       0.397
       0.242
       0.053
      -0.109
      -0.214
      -0.272
      -0.316
      -0.377
      -0.462
      -0.553
      -0.615
      -0.624
      -0.573
      -0.484
      -0.380
      -0.267
      -0.136
       0.021
       0.189
       0.341
       0.449
       0.499
       0.491
       0.440
       0.371
       0.309
       0.268
       0.238
       0.193
       0.114
       0.009
      -0.087
      -0.144
      -0.156
      -0.143
      -0.132
      -0.130
      -0.127
      -0.102
      -0.037
       0.072
       0.206
       0.320
       0.365
       0.320
       0.211
       0.096
       0.028
       0.023
       0.058
       0.095
       0.115
       0.119
       0.119
       0.124
       0.136
       0.154
       0.177
       0.202
       0.220
       0.220
       0.193
       0.137
       0.062
       0.000
      -0.011
       0.045
       0.141
       0.217
       0.218
       0.124
      -0.039
      -0.211
      -0.327
      -0.348
      -0.282
      -0.178
      -0.088
      -0.039
      -0.019
       0.002
       0.036
       0.066
       0.051
      -0.037
      -0.185
      -0.336
      -0.422
      -0.404
      -0.297
      -0.144
       0.014
       0.153
       0.258
       0.314
       0.315
       0.275
       0.224
       0.180
       0.137
       0.075
      -0.013
      -0.095
      -0.118
      -0.047
       0.105
       0.282
       0.411
       0.443
       0.374
       0.235
       0.063
      -0.117
      -0.300
      -0.473
      -0.616
      -0.704
      -0.722
      -0.677
      -0.590
      -0.479
      -0.350
      -0.208
      -0.073
       0.022
       0.054
       0.031
       0.001
       0.019
       0.109
       0.247
       0.370
       0.423
       0.391
       0.299
       0.179
       0.051
      -0.075
      -0.184
      -0.249
      -0.255
      -0.208
      -0.136
      -0.075
      -0.051
      -0.076
      -0.138
      -0.199
      -0.214
      -0.157
      -0.055
       0.023
       0.011
      -0.106
      -0.277
      -0.421
      -0.475
      -0.429
      -0.320
      -0.203
      -0.115
      -0.060
      -0.016
       0.038
       0.111
       0.185
       0.236
       0.253
       0.246
       0.232
       0.214
       0.175
       0.105
       0.026
      -0.014
       0.022
       0.119
       0.214
       0.242
       0.175
       0.026
      -0.172
      -0.388
      -0.587
      -0.728
      -0.773
      -0.714
      -0.583
      -0.450
      -0.392
      -0.453
      -0.616
      -0.805
      -0.930
      -0.935
      -0.832
      -0.691
      -0.584
      -0.540
      -0.538
      -0.529
      -0.477
      -0.365
      -0.187
       0.052
       0.336
       0.633
       0.894
       1.070
       1.128
       1.063
       0.906
       0.706
       0.517
       0.372
       0.284
       0.253
       0.280
       0.373
       0.529
       0.724
       0.917
       1.062
       1.136
       1.148
       1.124
       1.091
       1.056
       1.012
       0.958
       0.900
       0.851
       0.812
       0.774
       0.728
       0.680
       0.645
       0.637
       0.644
       0.636
       0.579
       0.459
       0.285
       0.087
      -0.089
      -0.206
      -0.249
      -0.237
      -0.210
      -0.206
      -0.239
      -0.299
      -0.363
      -0.406
      -0.419
      -0.401
      -0.358
      -0.296
      -0.223
      -0.143
      -0.067
      -0.010
       0.015
       0.007
      -0.009
       0.003
       0.060
       0.140
       0.202
       0.214
       0.169
       0.085
      -0.019
      -0.123
      -0.212
      -0.281
      -0.344
      -0.439
      -0.610
      -0.873
      -1.187
      -1.462
      -1.611
      -1.588
      -1.417
      -1.163
      -0.902
      -0.694
      -0.565
      -0.511
      -0.510
      -0.528
      -0.530
      -0.492
      -0.408
      -0.289
      -0.150
       0.006
       0.176
       0.347
       0.490
       0.570
       0.570
       0.498
       0.393
       0.310
       0.292
       0.344
       0.421
       0.450
       0.379
       0.204
      -0.019
      -0.210
      -0.316
      -0.338
      -0.322
      -0.314
      -0.319
      -0.304
      -0.221
      -0.045
       0.214
       0.503
       0.749
       0.881
       0.860
       0.696
       0.443
       0.167
      -0.101
      -0.380
      -0.701
      -1.064
      -1.413
      -1.675
      -1.801
      -1.785
      -1.645
      -1.398
      -1.044
      -0.573
       0.011
       0.657
       1.259
       1.688
       1.858
       1.771
       1.520
       1.236
       1.028
       0.938
       0.933
       0.937
       0.885
       0.766
       0.617
       0.484
       0.377
       0.267
       0.127
      -0.026
      -0.131
      -0.137
      -0.051
       0.053
       0.086
       0.005
      -0.154
      -0.292
      -0.298
      -0.110
       0.259
       0.724
       1.180
       1.546
       1.784
       1.894
       1.893
       1.797
       1.613
       1.330
       0.938
       0.457
      -0.045
      -0.470
      -0.755
      -0.911
      -1.025
      -1.204
      -1.500
      -1.884
      -2.257
      -2.514
      -2.600
      -2.536
      -2.400
      -2.285
      -2.245
      -2.266
      -2.276
      -2.183
      -1.942
      -1.590
      -1.237
      -1.007
      -0.965
      -1.081
      -1.240
      -1.305
      -1.196
      -0.916
      -0.540
      -0.151
       0.200
       0.508
       0.800
       1.111
       1.466
       1.856
       2.241
       2.548
       2.684
       2.553
       2.090
       1.298
       0.277
      -0.779
      -1.640
      -2.124
      -2.170
      -1.859
      -1.363
      -0.846
      -0.396
      -0.011
       0.355
       0.755
       1.221
       1.753
       2.317
       2.834
       3.197
       3.310
       3.134
       2.712
       2.157
       1.604
       1.160
       0.873
       0.739
       0.728
       0.799
       0.910
       1.001
       0.999
       0.843
       0.523
       0.090
      -0.367
      -0.778
      -1.136
      -1.481
      -1.854
      -2.242
      -2.581
      -2.786
      -2.788
      -2.558
      -2.103
      -1.465
      -0.720
       0.047
       0.759
       1.369
       1.853
       2.197
       2.388
       2.418
       2.303
       2.096
       1.877
       1.723
       1.676
       1.716
       1.766
       1.732
       1.540
       1.174
       0.677
       0.127
      -0.399
      -0.863
      -1.272
      -1.666
      -2.070
      -2.464
      -2.782
      -2.951
      -2.941
      -2.779
      -2.525
      -2.230
      -1.923
      -1.617
      -1.322
      -1.049
      -0.800
      -0.565
      -0.326
      -0.079
       0.158
       0.339
       0.400
       0.290
       0.005
      -0.385
      -0.736
      -0.888
      -0.755
      -0.376
       0.121
       0.614
       1.063
       1.497
       1.934
       2.312
       2.499
       2.370
       1.900
       1.186
       0.395
      -0.327
      -0.913
      -1.382
      -1.793
      -2.180
      -2.518
      -2.718
      -2.683
      -2.368
      -1.806
      -1.097
      -0.377
       0.220
       0.591
       0.704
       0.625
       0.505
       0.515
       0.763
       1.239
       1.836
       2.414
       2.861
       3.115
       3.145
       2.946
       2.542
       1.996
       1.408
       0.888
       0.511
       0.280
       0.128
      -0.050
      -0.336
      -0.729
      -1.114
      -1.287
      -1.051
      -0.352
       0.648
       1.623
       2.241
       2.324
       1.927
       1.276
       0.623
       0.111
      -0.265
      -0.594
      -0.971
      -1.430
      -1.931
      -2.374
      -2.644
      -2.675
      -2.491
      -2.200
      -1.949
      -1.856
      -1.963
      -2.215
      -2.497
      -2.688
      -2.722
      -2.598
      -2.355
      -2.044
      -1.708
      -1.382
      -1.099
      -0.882
      -0.729
      -0.613
      -0.502
      -0.382
      -0.273
      -0.211
      -0.207
      -0.212
      -0.114
       0.202
       0.781
       1.540
       2.280
       2.787
       2.954
       2.857
       2.714
       2.762
       3.126
       3.767
       4.525
       5.195
       5.592
       5.595
       5.176
       4.414
       3.479
       2.559
       1.751
       1.010
       0.197
      -0.789
      -1.912
      -2.983
      -3.759
      -4.061
      -3.862
      -3.288
      -2.548
      -1.851
      -1.369
      -1.222
      -1.447
      -1.958
      -2.546
      -2.957
      -3.021
      -2.748
      -2.321
      -1.974
      -1.832
      -1.823
      -1.715
      -1.253
      -0.322
       0.979
       2.380
       3.560
       4.280
       4.447
       4.119
       3.455
       2.657
       1.902
       1.288
       0.813
       0.400
      -0.039
      -0.532
      -1.030
      -1.456
      -1.770
      -2.003
      -2.215
      -2.434
      -2.627
      -2.743
      -2.766
      -2.714
      -2.590
      -2.328
      -1.823
      -1.017
       0.017
       1.081
       1.951
       2.502
       2.759
       2.853
       2.928
       3.070
       3.291
       3.562
       3.823
       3.979
       3.900
       3.470
       2.646
       1.490
       0.160
      -1.153
      -2.273
      -3.083
      -3.560
      -3.771
      -3.851
      -3.928
      -4.055
      -4.184
      -4.199
      -3.990
      -3.523
      -2.849
      -2.061
      -1.238
      -0.417
       0.381
       1.115
       1.706
       2.074
       2.188
       2.087
       1.855
       1.571
       1.279
       0.998
       0.754
       0.598
       0.581
       0.706
       0.900
       1.038
       0.997
       0.728
       0.295
      -0.136
      -0.394
      -0.417
      -0.315
      -0.304
      -0.553
      -1.058
      -1.637
      -2.042
      -2.093
      -1.756
      -1.128
      -0.365
       0.394
       1.064
       1.606
       2.013
       2.290
       2.447
       2.497
       2.461
       2.366
       2.246
       2.117
       1.955
       1.698
       1.276
       0.674
      -0.032
      -0.682
      -1.089
      -1.123
      -0.767
      -0.128
       0.593
       1.165
       1.407
       1.265
       0.841
       0.342
      -0.026
      -0.178
      -0.188
      -0.242
      -0.519
      -1.082
      -1.834
      -2.559
      -3.017
      -3.061
      -2.708
      -2.138
      -1.607
      -1.317
      -1.317
      -1.484
      -1.596
      -1.444
      -0.938
      -0.145
       0.748
       1.517
       1.969
       1.991
       1.580
       0.851
       0.017
      -0.686
      -1.090
      -1.173
      -1.058
      -0.934
      -0.934
      -1.055
      -1.184
      -1.192
      -1.036
      -0.775
      -0.514
      -0.341
      -0.297
      -0.376
      -0.548
      -0.782
      -1.047
      -1.304
      -1.489
      -1.517
      -1.290
      -0.751
       0.063
       0.982
       1.746
       2.129
       2.058
       1.662
       1.191
       0.870
       0.793
       0.915
       1.130
       1.351
       1.549
       1.733
       1.923
       2.123
       2.312
       2.447
       2.463
       2.297
       1.901
       1.272
       0.466
      -0.407
      -1.225
      -1.900
      -2.391
      -2.692
      -2.797
      -2.698
      -2.385
      -1.874
      -1.221
      -0.512
       0.175
       0.805
       1.397
       1.984
       2.579
       3.151
       3.618
       3.870
       3.811
       3.412
       2.748
       1.988
       1.328
       0.911
       0.789
       0.932
       1.264
       1.685
       2.076
       2.311
       2.302
       2.035
       1.580
       1.032
       0.445
      -0.201
      -0.953
      -1.815
      -2.710
      -3.507
      -4.085
      -4.379
      -4.400
      -4.199
      -3.834
      -3.351
      -2.799
      -2.220
      -1.613
      -0.923
      -0.079
       0.897
       1.831
       2.438
       2.493
       1.981
       1.120
       0.227
      -0.480
      -0.986
      -1.438
      -1.998
      -2.727
      -3.555
      -4.337
      -4.930
      -5.261
      -5.352
      -5.314
      -5.284
      -5.330
      -5.399
      -5.331
      -4.958
      -4.198
      -3.091
      -1.758
      -0.331
       1.093
       2.457
       3.717
       4.809
       5.648
       6.139
       6.224
       5.922
       5.342
       4.637
       3.928
       3.250
       2.584
       1.937
       1.393
       1.065
       0.991
       1.067
       1.095
       0.892
       0.383
      -0.384
      -1.286
      -2.173
      -2.887
      -3.280
      -3.242
      -2.762
      -1.941
      -0.959
       0.011
       0.872
       1.606
       2.237
       2.781
       3.252
       3.681
       4.131
       4.667
       5.319
       6.047
       6.758
       7.340
       7.691
       7.726
       7.376
       6.600
       5.410
       3.886
       2.160
       0.363
      -1.431
      -3.205
      -4.944
      -6.570
      -7.946
      -8.938
      -9.480
      -9.576
      -9.237
      -8.429
      -7.109
      -5.336
      -3.353
      -1.535
      -0.229
       0.406
       0.452
       0.141
      -0.281
      -0.665
      -0.982
      -1.269
      -1.552
      -1.802
      -1.952
      -1.943
      -1.738
      -1.307
      -0.613
       0.364
       1.568
       2.822
       3.848
       4.359
       4.191
       3.386
       2.179
       0.888
      -0.211
      -0.982
      -1.454
      -1.774
      -2.119
      -2.600
      -3.222
      -3.896
      -4.493
      -4.887
      -4.993
      -4.791
      -4.331
      -3.715
      -3.042
      -2.354
      -1.597
      -0.665
       0.508
       1.868
       3.228
       4.343
       5.002
       5.095
       4.658
       3.870
       3.012
       2.384
       2.205
       2.524
       3.188
       3.892
       4.324
       4.334
       4.032
       3.710
       3.633
       3.859
       4.206
       4.401
       4.278
       3.853
       3.262
       2.627
       1.976
       1.287
       0.565
      -0.116
      -0.658
      -1.035
      -1.318
      -1.605
      -1.904
      -2.088
      -1.973
      -1.481
      -0.746
      -0.085
       0.168
      -0.142
      -0.887
      -1.700
      -2.132
      -1.857
      -0.828
       0.681
       2.189
       3.230
       3.574
       3.296
       2.678
       1.994
       1.352
       0.670
      -0.195
      -1.278
      -2.421
      -3.339
      -3.796
      -3.760
      -3.425
      -3.076
      -2.901
      -2.884
      -2.864
      -2.675
      -2.269
      -1.724
      -1.170
      -0.731
      -0.508
      -0.586
      -0.999
      -1.669
      -2.384
      -2.870
      -2.937
      -2.608
      -2.105
      -1.712
      -1.592
      -1.716
      -1.917
      -2.012
      -1.892
      -1.562
      -1.136
      -0.816
      -0.822
      -1.277
      -2.093
      -2.963
      -3.495
      -3.438
      -2.828
      -1.940
      -1.073
      -0.359
       0.286
       1.034
       1.976
       3.062
       4.159
       5.157
       5.994
       6.602
       6.858
       6.618
       5.817
       4.561
       3.121
       1.831
       0.953
       0.580
       0.623
       0.871
       1.096
       1.133
       0.918
       0.510
       0.060
      -0.257
      -0.361
      -0.316
      -0.262
      -0.258
      -0.208
       0.074
       0.699
       1.569
       2.394
       2.828
       2.630
       1.762
       0.378
      -1.269
      -2.932
      -4.438
      -5.665
      -6.480
      -6.694
      -6.132
      -4.774
      -2.846
      -0.776
       0.983
       2.144
       2.698
       2.859
       2.895
       2.972
       3.112
       3.264
       3.390
       3.490
       3.569
       3.597
       3.512
       3.253
       2.791
       2.142
       1.363
       0.549
      -0.173
      -0.668
      -0.841
      -0.704
      -0.386
      -0.091
      -0.017
      -0.298
      -0.978
      -2.003
      -3.231
      -4.472
      -5.541
      -6.311
      -6.730
      -6.817
      -6.649
      -6.346
      -6.039
      -5.825
      -5.751
      -5.806
      -5.927
      -5.998
      -5.858
      -5.359
      -4.411
      -3.004
      -1.205
       0.828
       2.845
       4.546
       5.693
       6.226
       6.280
       6.075
       5.765
       5.365
       4.822
       4.150
       3.489
       3.038
       2.903
       3.015
       3.188
       3.284
       3.312
       3.397
       3.636
       3.989
       4.307
       4.444
       4.352
       4.076
       3.686
       3.205
       2.602
       1.824
       0.868
      -0.160
      -1.071
      -1.686
      -1.945
      -1.942
      -1.845
      -1.776
      -1.743
      -1.662
      -1.451
      -1.109
      -0.737
      -0.477
      -0.413
      -0.488
      -0.504
      -0.238
       0.411
       1.322
       2.212
       2.802
       2.963
       2.723
       2.173
       1.364
       0.331
      -0.821
      -1.867
      -2.544
      -2.727
      -2.540
      -2.296
      -2.307
      -2.691
      -3.332
      -3.988
      -4.445
      -4.596
      -4.448
      -4.088
      -3.660
      -3.329
      -3.216
      -3.333
      -3.568
      -3.724
      -3.612
      -3.141
      -2.367
      -1.449
      -0.553
       0.211
       0.784
       1.108
       1.109
       0.743
       0.071
      -0.712
      -1.312
      -1.436
      -0.924
       0.161
       1.538
       2.845
       3.834
       4.484
       4.962
       5.445
       5.949
       6.295
       6.245
       5.704
       4.830
       3.940
       3.291
       2.914
       2.633
       2.232
       1.618
       0.848
       0.037
      -0.742
      -1.491
      -2.252
      -3.052
      -3.872
      -4.625
      -5.160
      -5.302
      -4.929
      -4.065
      -2.901
      -1.730
      -0.800
      -0.189
       0.224
       0.659
       1.272
       2.044
       2.794
       3.300
       3.424
       3.173
       2.668
       2.054
       1.412
       0.738
       0.007
      -0.726
      -1.289
      -1.479
      -1.218
      -0.640
      -0.033
       0.345
       0.417
       0.337
       0.380
       0.759
       1.472
       2.275
       2.792
       2.710
       1.945
       0.709
      -0.576
      -1.472
      -1.730
      -1.388
      -0.716
      -0.062
       0.316
       0.315
      -0.047
      -0.715
      -1.638
      -2.740
      -3.867
      -4.808
      -5.407
      -5.662
      -5.721
      -5.738
      -5.719
      -5.470
      -4.716
      -3.308
      -1.401
       0.534
       1.908
       2.323
       1.813
       0.849
       0.081
      -0.034
       0.534
       1.421
       2.158
       2.467
       2.367
       2.077
       1.801
       1.596
       1.388
       1.110
       0.808
       0.613
       0.617
       0.760
       0.861
       0.740
