Origin Time       3/9/2009 19:51:08	 
Lat.              24.3 N	
Long.             94.6 E	
Depth (Km)        100.0
Magnitude         5.9
 Region           MYANMAR-India-Manipuir-Border                                    
 Above details taken from IMD 
   
Station Code      GOL
Station Lat.       26.152
Station Long.      90.627
Station Height(m)   56.0
Site Class        C   Vs30 between 200 m/sec to 375 m/sec *  
Record Time       03.09.2009 19:52:36.244
Sampling Rate     200. Hz
 Record Duration   66.620 Sec.
 Direction         Vert. (Up positive)
Max. Acceleration      4.271 cm/sec**2
     
  * For reference see Site Classification link of website 
     
 Base Line Corrected and Low Pass Filtered (Cut Off at 35 Hz) Time History
 Acceleration data in cm/sec**2
    
[...]
      -0.522
      -0.455
      -0.300
      -0.147
      -0.060
      -0.035
      -0.023
       0.008
       0.034
       0.001
      -0.107
      -0.238
      -0.308
      -0.259
      -0.101
       0.103
       0.285
       0.401
       0.429
       0.365
       0.229
       0.073
      -0.025
      -0.018
       0.063
       0.125
       0.080
      -0.070
      -0.241
      -0.331
      -0.307
      -0.213
      -0.120
      -0.067
      -0.046
      -0.033
      -0.012
       0.027
       0.102
       0.238
       0.436
       0.643
       0.770
       0.740
       0.542
       0.251
      -0.015
      -0.170
      -0.206
      -0.170
      -0.112
      -0.067
      -0.063
      -0.131
      -0.282
      -0.468
      -0.600
      -0.610
      -0.505
      -0.351
      -0.210
      -0.094
       0.033
       0.196
       0.381
       0.544
       0.661
       0.730
       0.746
       0.692
       0.571
       0.436
       0.360
       0.367
       0.394
       0.342
       0.162
      -0.086
      -0.285
      -0.348
      -0.280
      -0.155
      -0.051
      -0.007
      -0.022
      -0.075
      -0.133
      -0.154
      -0.113
      -0.040
      -0.006
      -0.068
      -0.202
      -0.295
      -0.237
      -0.018
       0.256
       0.450
       0.506
       0.467
       0.412
       0.376
       0.325
       0.215
       0.051
      -0.102
      -0.178
      -0.165
      -0.100
      -0.029
       0.026
       0.057
       0.056
       0.011
      -0.067
      -0.153
      -0.223
      -0.277
      -0.329
      -0.378
      -0.403
      -0.378
      -0.305
      -0.224
      -0.182
      -0.196
      -0.237
      -0.262
      -0.264
      -0.275
      -0.324
      -0.396
      -0.429
      -0.376
      -0.239
      -0.058
       0.127
       0.301
       0.456
       0.583
       0.655
       0.651
       0.567
       0.431
       0.292
       0.189
       0.133
       0.111
       0.100
       0.091
       0.093
       0.122
       0.177
       0.237
       0.278
       0.292
       0.286
       0.265
       0.225
       0.171
       0.124
       0.099
       0.078
      -0.003
      -0.201
      -0.501
      -0.786
      -0.911
      -0.817
      -0.586
      -0.371
      -0.265
      -0.234
      -0.177
      -0.036
       0.144
       0.276
       0.324
       0.327
       0.338
       0.364
       0.366
       0.319
       0.246
       0.198
       0.191
       0.203
       0.199
       0.167
       0.125
       0.093
       0.077
       0.072
       0.084
       0.129
       0.210
       0.289
       0.298
       0.187
      -0.017
      -0.207
      -0.260
      -0.123
       0.138
       0.379
       0.470
       0.373
       0.142
      -0.135
      -0.392
      -0.598
      -0.716
      -0.689
      -0.480
      -0.147
       0.153
       0.253
       0.098
      -0.205
      -0.473
      -0.585
      -0.553
      -0.486
      -0.483
      -0.561
      -0.665
      -0.730
      -0.717
      -0.616
      -0.430
      -0.171
       0.123
       0.385
       0.553
       0.612
       0.595
       0.528
       0.405
       0.208
      -0.043
      -0.286
      -0.475
      -0.630
      -0.809
      -1.019
      -1.181
      -1.175
      -0.947
      -0.542
      -0.048
       0.468
       0.973
       1.419
       1.722
       1.806
       1.660
       1.344
       0.947
       0.539
       0.163
      -0.144
      -0.347
      -0.430
      -0.410
      -0.331
      -0.250
      -0.201
      -0.176
      -0.135
      -0.051
       0.058
       0.128
       0.109
      -0.008
      -0.183
      -0.364
      -0.506
      -0.572
      -0.541
      -0.417
      -0.221
       0.008
       0.247
       0.492
       0.756
       1.023
       1.225
       1.268
       1.096
       0.739
       0.286
      -0.182
      -0.621
      -0.995
      -1.239
      -1.287
      -1.137
      -0.886
      -0.661
      -0.514
      -0.384
      -0.159
       0.201
       0.598
       0.857
       0.862
       0.645
       0.353
       0.116
      -0.040
      -0.174
      -0.308
      -0.376
      -0.283
      -0.016
       0.314
       0.561
       0.650
       0.619
       0.552
       0.491
       0.418
       0.297
       0.118
      -0.123
      -0.425
      -0.754
      -0.998
      -1.018
      -0.754
      -0.302
       0.151
       0.459
       0.596
       0.623
       0.596
       0.540
       0.475
       0.444
       0.473
       0.513
       0.453
       0.223
      -0.129
      -0.462
      -0.649
      -0.653
      -0.530
      -0.362
      -0.216
      -0.140
      -0.185
      -0.383
      -0.697
      -0.992
      -1.111
      -0.989
      -0.715
      -0.461
      -0.331
      -0.286
      -0.207
      -0.011
       0.283
       0.591
       0.838
       0.996
       1.059
       1.019
       0.875
       0.671
       0.504
       0.459
       0.531
       0.624
       0.634
       0.531
       0.363
       0.193
       0.040
      -0.122
      -0.317
      -0.528
      -0.705
      -0.801
      -0.813
      -0.774
      -0.719
      -0.644
      -0.508
      -0.263
       0.091
       0.495
       0.853
       1.087
       1.167
       1.101
       0.905
       0.606
       0.246
      -0.112
      -0.425
      -0.683
      -0.894
      -1.035
      -1.052
      -0.910
      -0.651
      -0.380
      -0.184
      -0.055
       0.078
       0.246
       0.377
       0.357
       0.153
      -0.139
      -0.379
      -0.500
      -0.543
      -0.575
      -0.602
      -0.562
      -0.398
      -0.126
       0.193
       0.516
       0.839
       1.150
       1.381
       1.439
       1.292
       1.015
       0.733
       0.510
       0.311
       0.052
      -0.294
      -0.672
      -0.998
      -1.221
      -1.333
      -1.341
      -1.259
      -1.117
      -0.951
      -0.779
      -0.574
      -0.289
       0.098
       0.559
       1.029
       1.437
       1.730
       1.874
       1.858
       1.697
       1.434
       1.107
       0.728
       0.296
      -0.175
      -0.633
      -1.028
      -1.335
      -1.553
      -1.660
      -1.608
      -1.367
      -0.991
      -0.612
      -0.367
      -0.298
      -0.327
      -0.326
      -0.216
      -0.005
       0.248
       0.478
       0.635
       0.683
       0.621
       0.506
       0.430
       0.459
       0.591
       0.769
       0.921
       0.987
       0.931
       0.743
       0.450
       0.130
      -0.118
      -0.230
      -0.218
      -0.153
      -0.091
      -0.015
       0.139
       0.418
       0.791
       1.146
       1.352
       1.322
       1.062
       0.651
       0.202
      -0.190
      -0.477
      -0.651
      -0.725
      -0.713
      -0.619
      -0.438
      -0.169
       0.173
       0.545
       0.874
       1.072
       1.081
       0.898
       0.556
       0.098
      -0.438
      -0.988
      -1.452
      -1.739
      -1.829
      -1.780
      -1.679
      -1.571
      -1.431
      -1.194
      -0.814
      -0.304
       0.253
       0.741
       1.046
       1.093
       0.886
       0.509
       0.099
      -0.229
      -0.429
      -0.533
      -0.596
      -0.625
      -0.563
      -0.349
       0.004
       0.386
       0.664
       0.791
       0.836
       0.889
       0.944
       0.885
       0.601
       0.112
      -0.419
      -0.806
      -0.976
      -0.990
      -0.950
      -0.905
      -0.834
      -0.699
      -0.485
      -0.196
       0.160
       0.559
       0.932
       1.164
       1.149
       0.874
       0.463
       0.127
       0.043
       0.238
       0.572
       0.823
       0.826
       0.578
       0.244
       0.035
       0.049
       0.207
       0.326
       0.273
       0.053
      -0.233
      -0.495
      -0.705
      -0.856
      -0.916
      -0.839
      -0.618
      -0.322
      -0.052
       0.128
       0.209
       0.206
       0.109
      -0.104
      -0.423
      -0.796
      -1.138
      -1.374
      -1.458
      -1.386
      -1.195
      -0.945
      -0.677
      -0.397
      -0.102
       0.183
       0.410
       0.555
       0.661
       0.788
       0.940
       1.046
       1.027
       0.867
       0.616
       0.330
       0.030
      -0.272
      -0.529
      -0.668
      -0.658
      -0.552
      -0.448
      -0.392
      -0.332
      -0.180
       0.096
       0.438
       0.754
       0.997
       1.193
       1.383
       1.545
       1.588
       1.424
       1.053
       0.572
       0.108
      -0.249
      -0.471
      -0.563
      -0.538
      -0.419
      -0.236
      -0.011
       0.269
       0.638
       1.100
       1.575
       1.917
       1.993
       1.767
       1.327
       0.816
       0.334
      -0.106
      -0.540
      -0.959
      -1.280
      -1.418
      -1.381
      -1.270
      -1.197
      -1.207
      -1.274
      -1.352
      -1.408
      -1.391
      -1.229
      -0.864
      -0.318
       0.290
       0.814
       1.178
       1.400
       1.532
       1.564
       1.413
       1.027
       0.496
       0.027
      -0.219
      -0.274
      -0.342
      -0.611
      -1.073
      -1.520
      -1.704
      -1.527
      -1.102
      -0.645
      -0.332
      -0.205
      -0.209
      -0.263
      -0.320
      -0.374
      -0.430
      -0.491
      -0.567
      -0.674
      -0.794
      -0.848
      -0.723
      -0.374
       0.110
       0.552
       0.815
       0.884
       0.824
       0.684
       0.482
       0.271
       0.189
       0.375
       0.805
       1.250
       1.414
       1.165
       0.618
       0.016
      -0.467
      -0.817
      -1.107
      -1.373
      -1.573
      -1.640
      -1.571
      -1.411
      -1.182
      -0.841
      -0.349
       0.250
       0.825
       1.263
       1.548
       1.746
       1.922
       2.078
       2.175
       2.185
       2.104
       1.917
       1.579
       1.078
       0.498
       0.012
      -0.220
      -0.152
       0.144
       0.538
       0.903
       1.139
       1.178
       1.007
       0.669
       0.235
      -0.233
      -0.684
      -1.056
      -1.276
      -1.313
      -1.218
      -1.092
      -0.987
      -0.845
      -0.564
      -0.139
       0.276
       0.467
       0.336
      -0.012
      -0.378
      -0.639
      -0.815
      -0.970
      -1.089
      -1.083
      -0.921
      -0.721
      -0.677
      -0.877
      -1.208
      -1.460
      -1.509
      -1.423
      -1.388
      -1.535
      -1.838
      -2.145
      -2.283
      -2.129
      -1.623
      -0.762
       0.379
       1.613
       2.669
       3.290
       3.358
       2.950
       2.300
       1.683
       1.268
       1.022
       0.754
       0.278
      -0.420
      -1.155
      -1.696
      -1.936
      -1.942
      -1.845
      -1.713
      -1.506
      -1.161
      -0.681
      -0.143
       0.398
       0.976
       1.634
       2.308
       2.797
       2.924
       2.706
       2.364
       2.130
       2.042
       1.946
       1.678
       1.210
       0.605
      -0.092
      -0.871
      -1.640
      -2.199
      -2.382
      -2.226
      -1.964
      -1.810
      -1.769
      -1.651
      -1.271
      -0.623
       0.112
       0.718
       1.094
       1.265
       1.296
       1.235
       1.132
       1.070
       1.125
       1.281
       1.410
       1.350
       1.035
       0.546
       0.033
      -0.404
      -0.762
      -1.071
      -1.301
      -1.379
      -1.278
      -1.080
      -0.920
      -0.881
      -0.933
      -0.991
      -0.996
      -0.953
      -0.889
      -0.793
      -0.605
      -0.274
       0.173
       0.628
       0.962
       1.093
       1.021
       0.812
       0.547
       0.272
      -0.005
      -0.283
      -0.541
      -0.747
      -0.893
      -0.991
      -1.049
      -1.070
      -1.068
      -1.094
      -1.198
      -1.367
      -1.491
      -1.404
      -0.982
      -0.253
       0.590
       1.295
       1.711
       1.872
       1.918
       1.945
       1.939
       1.854
       1.730
       1.676
       1.758
       1.913
       2.015
       2.012
       1.965
       1.935
       1.874
       1.657
       1.234
       0.709
       0.247
      -0.096
      -0.411
      -0.795
      -1.193
      -1.422
      -1.351
      -1.042
      -0.691
      -0.443
      -0.297
      -0.179
      -0.080
      -0.075
      -0.203
      -0.369
      -0.387
      -0.144
       0.296
       0.733
       0.982
       0.989
       0.836
       0.650
       0.492
       0.304
      -0.049
      -0.671
      -1.531
      -2.453
      -3.202
      -3.606
      -3.639
      -3.395
      -2.997
      -2.517
      -1.959
      -1.312
      -0.609
       0.070
       0.630
       0.998
       1.126
       0.993
       0.626
       0.123
      -0.345
      -0.598
      -0.548
      -0.263
       0.073
       0.304
       0.406
       0.460
       0.532
       0.584
       0.505
       0.210
      -0.296
      -0.920
      -1.547
      -2.100
      -2.543
      -2.824
      -2.850
      -2.515
      -1.782
      -0.738
       0.410
       1.421
       2.132
       2.533
       2.742
       2.908
       3.130
       3.435
       3.779
       4.065
       4.157
       3.937
       3.326
       2.308
       0.955
      -0.523
      -1.808
      -2.618
      -2.884
      -2.782
      -2.590
      -2.487
      -2.464
      -2.388
      -2.142
      -1.726
      -1.248
      -0.834
      -0.519
      -0.220
       0.192
       0.783
       1.523
       2.333
       3.136
       3.835
       4.271
       4.256
       3.689
       2.657
       1.396
       0.152
      -0.945
      -1.864
      -2.574
      -3.009
      -3.141
      -3.049
      -2.872
      -2.674
      -2.386
      -1.893
      -1.153
      -0.242
       0.712
       1.588
       2.284
       2.694
       2.727
       2.380
       1.793
       1.194
       0.732
       0.365
      -0.086
      -0.750
      -1.569
      -2.323
      -2.755
      -2.706
      -2.178
      -1.343
      -0.478
       0.158
       0.450
       0.474
       0.406
       0.349
       0.251
       0.002
      -0.382
      -0.700
      -0.720
      -0.414
      -0.007
       0.223
       0.194
       0.066
       0.039
       0.134
       0.188
       0.056
      -0.213
      -0.414
      -0.387
      -0.161
       0.116
       0.354
       0.569
       0.759
       0.796
       0.520
      -0.046
      -0.628
      -0.897
      -0.762
      -0.451
      -0.299
      -0.460
      -0.815
      -1.124
      -1.216
      -1.053
      -0.673
      -0.145
       0.441
       0.987
       1.447
       1.861
       2.312
       2.817
       3.279
       3.540
       3.521
       3.283
       2.931
       2.470
       1.790
       0.847
      -0.180
      -0.959
      -1.268
      -1.182
      -0.993
      -0.957
      -1.123
      -1.380
      -1.621
      -1.831
      -2.036
      -2.192
      -2.150
      -1.740
      -0.895
       0.260
       1.450
       2.367
       2.818
       2.817
       2.541
       2.174
       1.759
       1.202
       0.434
      -0.444
      -1.186
      -1.589
      -1.651
      -1.552
      -1.489
      -1.523
      -1.588
      -1.611
      -1.607
      -1.641
      -1.737
      -1.862
      -1.997
      -2.171
      -2.383
      -2.520
      -2.404
      -1.963
      -1.333
      -0.758
      -0.387
      -0.185
      -0.061
      -0.032
      -0.206
      -0.578
      -0.884
      -0.722
       0.108
       1.372
       2.533
       3.139
       3.135
       2.811
       2.465
       2.157
       1.757
       1.215
       0.707
       0.513
       0.743
       1.201
       1.527
       1.482
       1.108
       0.633
       0.251
      -0.001
      -0.176
      -0.293
      -0.307
      -0.188
       0.009
       0.166
       0.181
       0.029
      -0.220
      -0.418
      -0.416
      -0.162
       0.223
       0.485
       0.408
       0.001
      -0.479
      -0.710
      -0.558
      -0.156
       0.248
       0.507
       0.642
       0.720
       0.734
       0.628
       0.428
       0.277
       0.316
       0.538
       0.792
       0.949
       1.029
       1.163
       1.423
       1.685
       1.702
       1.311
       0.596
      -0.157
      -0.689
      -0.965
      -1.171
      -1.513
      -1.991
      -2.374
      -2.398
      -2.000
      -1.371
      -0.774
      -0.325
       0.042
       0.431
       0.821
       1.062
       1.001
       0.620
       0.051
      -0.512
      -0.924
      -1.142
      -1.215
      -1.245
      -1.349
      -1.627
      -2.095
      -2.638
      -3.037
      -3.082
      -2.716
      -2.069
      -1.370
      -0.811
      -0.458
      -0.262
      -0.116
       0.076
       0.346
       0.641
       0.840
       0.825
       0.559
       0.112
      -0.372
      -0.760
      -0.999
      -1.122
      -1.199
      -1.257
      -1.273
      -1.216
      -1.104
      -0.977
      -0.814
      -0.482
       0.183
       1.200
       2.349
       3.255
       3.616
       3.391
       2.813
       2.201
       1.739
       1.386
       1.008
       0.584
       0.264
       0.230
       0.501
       0.896
       1.184
       1.269
       1.218
       1.139
       1.054
       0.910
       0.701
       0.531
       0.518
       0.627
       0.644
       0.354
      -0.250
      -0.939
      -1.437
      -1.623
      -1.554
      -1.338
      -1.035
      -0.668
      -0.292
       0.018
       0.250
       0.499
       0.893
       1.457
       2.063
       2.506
       2.629
       2.384
       1.832
       1.105
       0.378
      -0.202
      -0.588
      -0.842
      -1.062
      -1.266
      -1.365
      -1.267
      -1.001
      -0.735
      -0.652
      -0.786
      -0.981
      -1.018
      -0.818
      -0.517
      -0.346
      -0.421
      -0.644
      -0.797
      -0.747
      -0.555
      -0.394
      -0.366
      -0.385
      -0.263
       0.080
       0.477
       0.618
       0.338
      -0.211
      -0.684
      -0.872
      -0.881
      -0.982
      -1.289
      -1.616
      -1.644
      -1.215
      -0.465
       0.321
       0.956
       1.464
       1.950
       2.400
       2.637
       2.494
       2.011
       1.448
       1.080
       0.987
       1.001
       0.867
       0.449
      -0.174
      -0.802
      -1.281
      -1.606
      -1.842
      -1.983
      -1.896
      -1.432
      -0.599
       0.392
       1.262
       1.841
       2.126
       2.207
       2.157
       2.001
       1.764
       1.508
       1.302
       1.154
       0.988
       0.716
       0.339
      -0.012
      -0.168
      -0.046
       0.274
       0.607
       0.786
       0.755
       0.554
       0.245
      -0.134
      -0.540
      -0.891
      -1.086
      -1.080
      -0.932
      -0.766
      -0.695
      -0.765
      -0.950
      -1.159
      -1.264
      -1.174
      -0.934
      -0.757
      -0.899
      -1.433
      -2.127
      -2.578
      -2.538
      -2.127
      -1.713
      -1.570
      -1.650
      -1.697
      -1.569
      -1.403
      -1.448
      -1.767
      -2.137
      -2.252
      -1.988
      -1.480
      -0.946
      -0.489
      -0.047
       0.470
       1.027
       1.467
       1.662
       1.642
       1.561
       1.531
       1.498
       1.287
       0.758
      -0.065
      -0.976
