Origin Time       14/7/2012 19:55:18	 UTC
Lat.              25.5 N	
Long.             94.2 E	
Depth (Km)         35.0
Magnitude         5.5
 Region           Kohima-Nagaland                                                  
 Above details taken from IMD 
    
Station Code      GOL
Station Lat.       26.515  N
Station Long.      93.972  E
Station Height(m)   93.0
Site Class        B   Vs30 between 375 m/sec to 700 m/sec *  
Record Time       14.07.2012 19:55:39.294 UTC
Sampling Rate     200. Hz
 Record Duration   79.475 Sec.
 Direction         N-S (N positive)
Max. Acceleration     24.772 cm/sec**2
     
  * For reference see Site Classification link of website 
     
 Base Line Corrected and Low Pass Filtered (Cut Off at 35 Hz) Time History
 Acceleration data in cm/sec**2
    
[...]
      -0.165
      -0.265
      -0.208
       0.005
       0.290
       0.552
       0.729
       0.804
       0.775
       0.638
       0.394
       0.064
      -0.304
      -0.643
      -0.899
      -1.049
      -1.103
      -1.093
      -1.051
      -0.984
      -0.878
      -0.704
      -0.446
      -0.123
       0.213
       0.493
       0.654
       0.645
       0.453
       0.125
      -0.234
      -0.500
      -0.599
      -0.533
      -0.375
      -0.216
      -0.121
      -0.105
      -0.144
      -0.192
      -0.218
      -0.207
      -0.161
      -0.085
       0.005
       0.095
       0.179
       0.269
       0.379
       0.508
       0.632
       0.719
       0.741
       0.693
       0.591
       0.475
       0.398
       0.403
       0.491
       0.609
       0.682
       0.666
       0.580
       0.480
       0.405
       0.342
       0.246
       0.090
      -0.117
      -0.347
      -0.583
      -0.822
      -1.053
      -1.233
      -1.292
      -1.176
      -0.891
      -0.506
      -0.104
       0.247
       0.506
       0.642
       0.637
       0.511
       0.336
       0.202
       0.168
       0.228
       0.329
       0.399
       0.391
       0.290
       0.120
      -0.059
      -0.176
      -0.175
      -0.040
       0.188
       0.428
       0.596
       0.646
       0.582
       0.452
       0.312
       0.189
       0.081
      -0.022
      -0.110
      -0.161
      -0.170
      -0.155
      -0.130
      -0.084
       0.013
       0.170
       0.348
       0.482
       0.524
       0.466
       0.331
       0.146
      -0.067
      -0.287
      -0.489
      -0.650
      -0.770
      -0.883
      -1.034
      -1.231
      -1.421
      -1.518
      -1.462
      -1.254
      -0.949
      -0.607
      -0.271
       0.031
       0.263
       0.381
       0.350
       0.181
      -0.036
      -0.165
      -0.096
       0.166
       0.503
       0.759
       0.846
       0.782
       0.647
       0.509
       0.375
       0.214
      -0.008
      -0.290
      -0.599
      -0.889
      -1.133
      -1.315
      -1.403
      -1.327
      -1.019
      -0.478
       0.200
       0.856
       1.357
       1.649
       1.754
       1.721
       1.589
       1.385
       1.136
       0.886
       0.685
       0.561
       0.487
       0.393
       0.201
      -0.117
      -0.515
      -0.894
      -1.152
      -1.228
      -1.133
      -0.927
      -0.684
      -0.458
      -0.280
      -0.168
      -0.137
      -0.189
      -0.276
      -0.311
      -0.213
       0.024
       0.325
       0.596
       0.794
       0.947
       1.082
       1.170
       1.139
       0.952
       0.660
       0.378
       0.210
       0.190
       0.264
       0.316
       0.233
      -0.037
      -0.459
      -0.930
      -1.332
      -1.585
      -1.677
      -1.648
      -1.551
      -1.403
      -1.178
      -0.843
      -0.418
       0.011
       0.332
       0.461
       0.386
       0.163
      -0.114
      -0.347
      -0.470
      -0.467
      -0.380
      -0.285
      -0.259
      -0.340
      -0.515
      -0.737
      -0.946
      -1.093
      -1.151
      -1.111
      -0.975
      -0.754
      -0.468
      -0.152
       0.153
       0.409
       0.594
       0.691
       0.674
       0.537
       0.328
       0.159
       0.143
       0.319
       0.620
       0.925
       1.137
       1.243
       1.283
       1.286
       1.238
       1.110
       0.915
       0.712
       0.550
       0.420
       0.272
       0.085
      -0.094
      -0.195
      -0.197
      -0.167
      -0.193
      -0.307
      -0.451
      -0.540
      -0.533
      -0.460
      -0.370
      -0.268
      -0.109
       0.125
       0.369
       0.502
       0.447
       0.234
      -0.029
      -0.254
      -0.422
      -0.565
      -0.699
      -0.804
      -0.841
      -0.796
      -0.677
      -0.504
      -0.291
      -0.051
       0.185
       0.363
       0.420
       0.312
       0.054
      -0.273
      -0.548
      -0.666
      -0.596
      -0.396
      -0.190
      -0.105
      -0.194
      -0.401
      -0.584
      -0.603
      -0.423
      -0.129
       0.128
       0.232
       0.139
      -0.153
      -0.626
      -1.214
      -1.777
      -2.133
      -2.159
      -1.851
      -1.310
      -0.678
      -0.085
       0.358
       0.564
       0.507
       0.261
      -0.001
      -0.086
       0.113
       0.562
       1.121
       1.628
       1.974
       2.119
       2.065
       1.849
       1.558
       1.331
       1.287
       1.428
       1.616
       1.677
       1.538
       1.276
       1.017
       0.825
       0.683
       0.576
       0.565
       0.736
       1.083
       1.452
       1.616
       1.443
       0.988
       0.446
       0.011
      -0.248
      -0.384
      -0.480
      -0.570
      -0.650
      -0.736
      -0.881
      -1.092
      -1.270
      -1.258
      -0.978
      -0.506
       0.012
       0.498
       0.986
       1.523
       2.036
       2.337
       2.267
       1.858
       1.333
       0.949
       0.807
       0.804
       0.756
       0.571
       0.320
       0.145
       0.110
       0.142
       0.110
      -0.042
      -0.248
      -0.410
      -0.491
      -0.549
      -0.656
      -0.836
      -1.054
      -1.273
      -1.488
      -1.711
      -1.929
      -2.083
      -2.094
      -1.928
      -1.628
      -1.292
      -1.034
      -0.936
      -1.020
      -1.219
      -1.389
      -1.364
      -1.038
      -0.426
       0.328
       1.019
       1.485
       1.670
       1.610
       1.377
       1.039
       0.656
       0.291
       0.008
      -0.145
      -0.159
      -0.066
       0.085
       0.257
       0.444
       0.636
       0.797
       0.854
       0.738
       0.444
       0.039
      -0.372
      -0.703
      -0.922
      -1.041
      -1.082
      -1.067
      -1.015
      -0.963
      -0.955
      -1.007
      -1.073
      -1.065
      -0.922
      -0.666
      -0.403
      -0.269
      -0.360
      -0.693
      -1.215
      -1.842
      -2.497
      -3.118
      -3.651
      -4.057
      -4.331
      -4.510
      -4.644
      -4.754
      -4.811
      -4.766
      -4.579
      -4.235
      -3.736
      -3.092
      -2.337
      -1.541
      -0.814
      -0.266
       0.031
       0.069
      -0.114
      -0.448
      -0.872
      -1.355
      -1.892
      -2.457
      -2.958
      -3.256
      -3.258
      -2.997
      -2.619
      -2.267
      -1.966
      -1.609
      -1.073
      -0.347
       0.419
       1.020
       1.365
       1.554
       1.817
       2.356
       3.231
       4.350
       5.536
       6.617
       7.468
       8.016
       8.221
       8.082
       7.650
       7.071
       6.577
       6.420
       6.753
       7.526
       8.481
       9.261
       9.572
       9.306
       8.564
       7.575
       6.582
       5.759
       5.198
       4.919
       4.869
       4.929
       4.954
       4.858
       4.665
       4.472
       4.361
       4.337
       4.318
       4.176
       3.790
       3.106
       2.173
       1.135
       0.172
      -0.593
      -1.146
      -1.583
      -2.058
      -2.706
      -3.576
      -4.585
      -5.557
      -6.287
      -6.612
      -6.447
      -5.803
      -4.785
      -3.554
      -2.261
      -1.020
       0.061
       0.840
       1.147
       0.860
      -0.017
      -1.352
      -2.946
      -4.588
      -6.071
      -7.191
      -7.797
      -7.857
      -7.469
      -6.798
      -5.969
      -5.019
      -3.952
      -2.843
      -1.867
      -1.219
      -0.976
      -1.049
      -1.278
      -1.583
      -2.020
      -2.691
      -3.618
      -4.709
      -5.827
      -6.857
      -7.683
      -8.125
      -7.949
      -6.978
      -5.232
      -2.978
      -0.650
       1.295
       2.532
       2.960
       2.687
       1.935
       0.954
       0.003
      -0.639
      -0.714
      -0.078
       1.205
       2.838
       4.359
       5.287
       5.295
       4.353
       2.752
       0.982
      -0.458
      -1.231
      -1.227
      -0.534
       0.633
       2.010
       3.368
       4.568
       5.602
       6.563
       7.563
       8.629
       9.630
      10.300
      10.341
       9.562
       7.969
       5.778
       3.334
       1.003
      -0.914
      -2.227
      -2.868
      -2.876
      -2.390
      -1.622
      -0.805
      -0.116
       0.363
       0.619
       0.640
       0.408
      -0.050
      -0.602
      -1.034
      -1.140
      -0.816
      -0.102
       0.832
       1.733
       2.351
       2.539
       2.314
       1.822
       1.229
       0.619
      -0.019
      -0.726
      -1.492
      -2.253
      -2.953
      -3.580
      -4.128
      -4.521
      -4.612
      -4.289
      -3.595
      -2.732
      -1.928
      -1.251
      -0.533
       0.515
       2.056
       3.957
       5.794
       7.049
       7.320
       6.444
       4.534
       1.949
      -0.778
      -3.107
      -4.698
      -5.548
      -5.937
      -6.203
      -6.519
      -6.842
      -7.026
      -6.955
      -6.576
      -5.881
      -4.919
      -3.844
      -2.906
      -2.339
      -2.198
      -2.281
      -2.244
      -1.836
      -1.070
      -0.215
       0.368
       0.408
      -0.176
      -1.279
      -2.664
      -4.027
      -5.090
      -5.698
      -5.883
      -5.813
      -5.659
      -5.490
      -5.290
      -5.068
      -4.915
      -4.925
      -5.045
      -5.041
      -4.654
      -3.818
      -2.734
      -1.740
      -1.122
      -1.014
      -1.423
      -2.272
      -3.404
      -4.590
      -5.589
      -6.239
      -6.499
      -6.401
      -5.970
      -5.178
      -3.995
      -2.496
      -0.922
       0.372
       1.063
       1.002
       0.285
      -0.792
      -1.867
      -2.659
      -3.059
      -3.103
      -2.894
      -2.542
      -2.137
      -1.740
      -1.375
      -1.034
      -0.721
      -0.497
      -0.465
      -0.681
      -1.050
      -1.340
      -1.304
      -0.832
       0.001
       1.013
       2.019
       2.886
       3.531
       3.917
       4.068
       4.071
       4.041
       4.050
       4.085
       4.078
       3.979
       3.814
       3.697
       3.805
       4.331
       5.437
       7.207
       9.624
      12.550
      15.720
      18.749
      21.197
      22.681
      22.995
      22.178
      20.503
      18.378
      16.189
      14.174
      12.376
      10.715
       9.094
       7.475
       5.899
       4.494
       3.464
       3.034
       3.351
       4.383
       5.916
       7.645
       9.327
      10.846
      12.174
      13.257
      13.978
      14.211
      13.898
      13.072
      11.833
      10.325
       8.758
       7.401
       6.484
       6.047
       5.892
       5.686
       5.173
       4.321
       3.302
       2.336
       1.556
       1.007
       0.744
       0.879
       1.502
       2.559
       3.801
       4.873
       5.460
       5.402
       4.719
       3.547
       2.058
       0.399
      -1.314
      -2.998
      -4.612
      -6.164
      -7.713
      -9.316
     -10.983
     -12.662
     -14.292
     -15.859
     -17.414
     -19.004
     -20.571
     -21.900
     -22.675
     -22.595
     -21.483
     -19.337
     -16.334
     -12.809
      -9.217
      -6.059
      -3.763
      -2.549
      -2.364
      -2.930
      -3.908
      -5.046
      -6.246
      -7.510
      -8.850
     -10.211
     -11.470
     -12.436
     -12.879
     -12.591
     -11.493
      -9.714
      -7.573
      -5.462
      -3.724
      -2.586
      -2.168
      -2.503
      -3.537
      -5.103
      -6.926
      -8.670
     -10.029
     -10.780
     -10.778
      -9.935
      -8.250
      -5.891
      -3.220
      -0.704
       1.265
       2.491
       2.992
       2.942
       2.592
       2.211
       2.008
       2.066
       2.314
       2.576
       2.657
       2.436
       1.898
       1.117
       0.214
      -0.665
      -1.365
      -1.753
      -1.760
      -1.408
      -0.792
      -0.006
       0.942
       2.148
       3.733
       5.712
       7.906
       9.956
      11.434
      12.003
      11.539
      10.149
       8.104
       5.744
       3.428
       1.514
       0.302
      -0.059
       0.348
       1.246
       2.322
       3.401
       4.496
       5.695
       6.996
       8.240
       9.175
       9.590
       9.382
       8.547
       7.148
       5.296
       3.138
       0.838
      -1.418
      -3.423
      -4.955
      -5.828
      -5.976
      -5.519
      -4.767
      -4.133
      -3.989
      -4.527
      -5.694
      -7.232
      -8.806
     -10.119
     -10.964
     -11.254
     -11.070
     -10.654
     -10.316
     -10.250
     -10.410
     -10.523
     -10.269
      -9.483
      -8.278
      -7.000
      -6.052
      -5.700
      -5.994
      -6.802
      -7.907
      -9.079
     -10.095
     -10.742
     -10.873
     -10.467
      -9.656
      -8.680
      -7.797
      -7.191
      -6.911
      -6.849
      -6.766
      -6.357
      -5.347
      -3.593
      -1.142
       1.801
       4.953
       8.033
      10.799
      13.050
      14.631
      15.490
      15.724
      15.548
      15.176
      14.722
      14.214
      13.663
      13.098
      12.529
      11.909
      11.179
      10.349
       9.535
       8.876
       8.437
       8.206
       8.200
       8.563
       9.513
      11.185
      13.488
      16.119
      18.717
      21.015
      22.867
      24.165
      24.772
      24.543
      23.404
      21.401
      18.694
      15.509
      12.093
       8.685
       5.512
       2.764
       0.567
      -1.045
      -2.107
      -2.679
      -2.820
      -2.607
      -2.190
      -1.784
      -1.574
      -1.592
      -1.670
      -1.534
      -0.992
      -0.099
       0.804
       1.222
       0.747
      -0.757
      -3.125
      -6.009
      -8.997
     -11.672
     -13.633
     -14.601
     -14.560
     -13.823
     -12.920
     -12.354
     -12.390
     -12.989
     -13.877
     -14.667
     -14.963
     -14.457
     -13.061
     -10.980
      -8.666
      -6.634
      -5.269
      -4.731
      -4.967
      -5.769
      -6.841
      -7.872
      -8.634
      -9.062
      -9.265
      -9.439
      -9.723
     -10.094
     -10.374
     -10.343
      -9.863
      -8.915
      -7.566
      -5.936
      -4.192
      -2.537
      -1.151
      -0.119
       0.590
       1.064
       1.394
       1.651
       1.912
       2.293
       2.941
       3.992
       5.510
       7.406
       9.423
      11.189
      12.350
      12.713
      12.295
      11.249
       9.735
       7.851
       5.699
       3.498
       1.622
       0.479
       0.320
       1.112
       2.553
       4.221
       5.741
       6.894
       7.620
       7.949
       7.939
       7.655
       7.179
       6.598
       5.991
       5.402
       4.827
       4.188
       3.343
       2.123
       0.428
      -1.700
      -4.078
      -6.468
      -8.666
     -10.523
     -11.896
     -12.605
     -12.465
     -11.378
      -9.422
      -6.871
      -4.151
      -1.760
      -0.171
       0.284
      -0.475
      -2.226
      -4.497
      -6.725
      -8.430
      -9.332
      -9.373
      -8.681
      -7.504
      -6.167
      -4.990
      -4.213
      -3.930
      -4.078
      -4.510
      -5.109
      -5.864
      -6.829
      -8.007
      -9.227
     -10.150
     -10.410
      -9.802
      -8.385
      -6.448
      -4.362
      -2.432
      -0.793
       0.576
       1.782
       2.936
       4.119
       5.356
       6.598
       7.727
       8.603
       9.146
       9.373
       9.367
       9.181
       8.764
       7.994
       6.785
       5.196
       3.457
       1.896
       0.832
       0.481
       0.905
       2.002
       3.549
       5.314
       7.165
       9.102
      11.170
      13.339
      15.452
      17.283
      18.629
      19.368
      19.460
      18.911
      17.738
      15.968
      13.672
      11.017
       8.299
       5.908
       4.193
       3.283
       2.998
       2.936
       2.699
       2.101
       1.221
       0.311
      -0.346
      -0.556
      -0.284
       0.308
       0.903
       1.140
       0.775
      -0.215
      -1.639
      -3.200
      -4.642
      -5.841
      -6.810
      -7.632
      -8.374
      -9.041
      -9.603
     -10.038
     -10.361
     -10.607
     -10.800
     -10.923
     -10.937
     -10.817
     -10.597
     -10.395
     -10.392
     -10.761
     -11.555
     -12.639
     -13.693
     -14.312
     -14.141
     -12.995
     -10.917
      -8.154
      -5.085
      -2.115
       0.425
       2.336
       3.536
       4.007
       3.769
       2.918
       1.651
       0.239
      -1.067
      -2.135
      -2.968
      -3.622
      -4.074
      -4.161
      -3.633
      -2.304
      -0.204
       2.364
       4.902
       6.902
       8.031
       8.235
       7.711
       6.808
       5.909
       5.317
       5.167
       5.379
       5.693
       5.789
       5.462
       4.769
       4.039
       3.707
       4.051
       5.003
       6.174
       7.042
       7.188
       6.422
       4.783
       2.480
      -0.159
      -2.743
      -4.903
      -6.385
      -7.108
      -7.133
      -6.593
      -5.621
      -4.321
      -2.765
      -1.027
       0.764
       2.376
       3.496
       3.843
       3.302
       1.994
       0.241
      -1.556
      -3.048
      -4.031
      -4.495
      -4.606
      -4.625
      -4.761
      -5.064
      -5.421
      -5.655
      -5.616
      -5.200
      -4.321
      -2.924
      -1.063
       1.033
       3.003
       4.505
       5.376
       5.695
       5.705
       5.667
       5.738
       5.948
       6.251
       6.584
       6.899
       7.153
       7.295
       7.271
       7.040
       6.603
       6.025
       5.425
       4.938
       4.627
       4.430
       4.167
       3.635
       2.729
       1.544
       0.365
      -0.440
      -0.595
      -0.044
       1.047
       2.411
       3.826
       5.174
       6.375
       7.310
       7.814
       7.774
       7.240
       6.430
       5.595
       4.837
       4.048
       3.049
       1.806
       0.528
      -0.468
      -0.999
      -1.139
      -1.121
      -1.135
      -1.225
      -1.353
      -1.527
      -1.849
      -2.436
      -3.321
      -4.415
      -5.552
      -6.557
      -7.267
      -7.546
      -7.305
      -6.520
      -5.239
      -3.577
      -1.693
       0.239
       2.050
       3.579
       4.660
       5.129
       4.891
       3.991
       2.615
       0.984
      -0.746
      -2.495
      -4.200
      -5.767
      -7.116
      -8.247
      -9.239
     -10.158
     -10.961
     -11.484
     -11.516
     -10.897
      -9.563
      -7.551
      -5.001
      -2.171
       0.541
       2.643
       3.693
       3.493
       2.197
       0.231
      -1.939
      -4.017
      -5.931
      -7.709
      -9.315
     -10.603
     -11.393
     -11.588
     -11.192
     -10.251
      -8.795
      -6.864
      -4.565
      -2.096
       0.306
       2.435
       4.151
       5.347
       5.920
       5.807
       5.042
       3.793
       2.312
       0.829
      -0.554
      -1.877
      -3.230
      -4.635
      -5.993
      -7.138
      -7.912
