Origin Time       3/9/2009 19:51:08	 
Lat.              24.3 N	
Long.             94.6 E	
Depth (Km)        100.0
Magnitude         5.9
 Region           MYANMAR-India-Manipuir-Border                                    
 Above details taken from IMD 
     
Station Code      GOL
Station Lat.       26.152  N
Station Long.      90.627  E
Station Height(m)   56.0
Site Class        C   Vs30 between 200 m/sec to 375 m/sec *  
Record Time       03.09.2009 19:52:36.244
Sampling Rate     200. Hz
 Record Duration   66.620 Sec.
 Direction         E-W (E positive)
Max. Acceleration      6.477 cm/sec**2
     
  * For reference see Site Classification link of website 
     
 Base Line Corrected and Low Pass Filtered (Cut Off at 35 Hz) Time History
 Acceleration data in cm/sec**2
    
[...]
      -0.379
      -0.400
      -0.394
      -0.374
      -0.341
      -0.283
      -0.188
      -0.060
       0.072
       0.159
       0.159
       0.066
      -0.074
      -0.188
      -0.210
      -0.113
       0.077
       0.295
       0.462
       0.517
       0.440
       0.268
       0.080
      -0.046
      -0.069
      -0.001
       0.114
       0.226
       0.300
       0.317
       0.272
       0.182
       0.084
       0.023
       0.030
       0.103
       0.211
       0.303
       0.342
       0.315
       0.241
       0.145
       0.049
      -0.038
      -0.113
      -0.172
      -0.206
      -0.205
      -0.169
      -0.124
      -0.111
      -0.165
      -0.286
      -0.435
      -0.548
      -0.580
      -0.526
      -0.418
      -0.300
      -0.204
      -0.129
      -0.057
       0.030
       0.136
       0.245
       0.343
       0.431
       0.523
       0.626
       0.722
       0.770
       0.742
       0.636
       0.476
       0.299
       0.134
      -0.004
      -0.099
      -0.136
      -0.101
       0.000
       0.136
       0.256
       0.313
       0.291
       0.219
       0.151
       0.132
       0.165
       0.219
       0.252
       0.240
       0.185
       0.106
       0.025
      -0.049
      -0.120
      -0.194
      -0.270
      -0.339
      -0.392
      -0.432
      -0.475
      -0.533
      -0.601
      -0.651
      -0.649
      -0.578
      -0.457
      -0.332
      -0.243
      -0.204
      -0.192
      -0.177
      -0.147
      -0.113
      -0.085
      -0.052
       0.011
       0.121
       0.261
       0.388
       0.462
       0.470
       0.437
       0.402
       0.386
       0.377
       0.347
       0.273
       0.154
       0.010
      -0.125
      -0.211
      -0.209
      -0.104
       0.088
       0.308
       0.482
       0.550
       0.503
       0.386
       0.269
       0.199
       0.174
       0.154
       0.110
       0.051
       0.018
       0.041
       0.108
       0.174
       0.197
       0.171
       0.123
       0.083
       0.066
       0.069
       0.088
       0.122
       0.164
       0.193
       0.182
       0.116
       0.008
      -0.105
      -0.174
      -0.173
      -0.110
      -0.024
       0.043
       0.069
       0.059
       0.039
       0.034
       0.057
       0.104
       0.156
       0.199
       0.226
       0.236
       0.224
       0.174
       0.070
      -0.084
      -0.256
      -0.399
      -0.478
      -0.490
      -0.465
      -0.440
      -0.444
      -0.483
      -0.549
      -0.624
      -0.693
      -0.734
      -0.727
      -0.653
      -0.518
      -0.350
      -0.184
      -0.038
       0.096
       0.230
       0.356
       0.445
       0.458
       0.385
       0.253
       0.116
       0.022
      -0.012
      -0.005
       0.009
       0.003
      -0.031
      -0.086
      -0.153
      -0.235
      -0.339
      -0.464
      -0.596
      -0.705
      -0.756
      -0.717
      -0.579
      -0.371
      -0.156
      -0.005
       0.038
      -0.030
      -0.171
      -0.333
      -0.469
      -0.552
      -0.581
      -0.574
      -0.553
      -0.526
      -0.476
      -0.384
      -0.255
      -0.127
      -0.049
      -0.035
      -0.051
      -0.039
       0.040
       0.184
       0.348
       0.474
       0.514
       0.458
       0.337
       0.208
       0.124
       0.109
       0.145
       0.177
       0.149
       0.033
      -0.144
      -0.313
      -0.394
      -0.335
      -0.139
       0.131
       0.384
       0.549
       0.605
       0.578
       0.506
       0.425
       0.362
       0.326
       0.304
       0.256
       0.149
      -0.019
      -0.208
      -0.361
      -0.445
      -0.457
      -0.412
      -0.317
      -0.165
       0.050
       0.314
       0.588
       0.819
       0.967
       1.022
       0.994
       0.906
       0.777
       0.626
       0.472
       0.330
       0.206
       0.099
       0.013
      -0.045
      -0.067
      -0.064
      -0.066
      -0.100
      -0.160
      -0.214
      -0.231
      -0.220
      -0.223
      -0.273
      -0.363
      -0.445
      -0.470
      -0.419
      -0.310
      -0.177
      -0.054
       0.031
       0.071
       0.074
       0.058
       0.032
      -0.013
      -0.095
      -0.229
      -0.413
      -0.627
      -0.839
      -1.020
      -1.149
      -1.215
      -1.212
      -1.131
      -0.969
      -0.733
      -0.443
      -0.126
       0.183
       0.443
       0.607
       0.646
       0.585
       0.501
       0.497
       0.629
       0.866
       1.102
       1.225
       1.197
       1.071
       0.953
       0.915
       0.960
       1.030
       1.063
       1.022
       0.905
       0.730
       0.526
       0.323
       0.156
       0.057
       0.047
       0.118
       0.230
       0.323
       0.340
       0.259
       0.106
      -0.066
      -0.198
      -0.254
      -0.227
      -0.137
      -0.021
       0.083
       0.155
       0.210
       0.280
       0.386
       0.515
       0.624
       0.684
       0.701
       0.704
       0.706
       0.677
       0.555
       0.289
      -0.122
      -0.623
      -1.130
      -1.566
      -1.878
      -2.047
      -2.072
      -1.969
      -1.768
      -1.506
      -1.225
      -0.947
      -0.670
      -0.370
      -0.026
       0.357
       0.735
       1.038
       1.188
       1.135
       0.869
       0.429
      -0.109
      -0.647
      -1.095
      -1.391
      -1.522
      -1.522
      -1.436
      -1.293
      -1.090
      -0.816
      -0.484
      -0.144
       0.136
       0.309
       0.375
       0.365
       0.309
       0.216
       0.074
      -0.117
      -0.334
      -0.539
      -0.695
      -0.784
      -0.805
      -0.772
      -0.712
      -0.650
      -0.602
      -0.575
      -0.570
      -0.584
      -0.595
      -0.547
      -0.374
      -0.043
       0.397
       0.832
       1.134
       1.236
       1.159
       0.990
       0.830
       0.749
       0.768
       0.858
       0.956
       0.996
       0.949
       0.834
       0.703
       0.608
       0.573
       0.595
       0.655
       0.733
       0.815
       0.895
       0.974
       1.054
       1.130
       1.184
       1.187
       1.116
       0.969
       0.768
       0.551
       0.351
       0.186
       0.055
      -0.052
      -0.136
      -0.190
      -0.206
      -0.203
      -0.226
      -0.329
      -0.540
      -0.826
      -1.104
      -1.278
      -1.298
      -1.189
      -1.039
      -0.944
      -0.960
      -1.072
      -1.218
      -1.331
      -1.384
      -1.400
      -1.426
      -1.500
      -1.620
      -1.752
      -1.840
      -1.833
      -1.689
      -1.395
      -0.979
      -0.513
      -0.094
       0.190
       0.307
       0.293
       0.233
       0.214
       0.291
       0.470
       0.703
       0.910
       1.012
       0.977
       0.849
       0.734
       0.745
       0.947
       1.330
       1.829
       2.365
       2.872
       3.297
       3.582
       3.674
       3.548
       3.228
       2.776
       2.249
       1.674
       1.048
       0.374
      -0.315
      -0.949
      -1.446
      -1.739
      -1.800
      -1.660
      -1.388
      -1.069
      -0.752
      -0.447
      -0.140
       0.158
       0.392
       0.485
       0.393
       0.142
      -0.168
      -0.421
      -0.541
      -0.519
      -0.402
      -0.257
      -0.151
      -0.136
      -0.243
      -0.468
      -0.774
      -1.095
      -1.360
      -1.510
      -1.521
      -1.417
      -1.269
      -1.162
      -1.155
      -1.253
      -1.422
      -1.613
      -1.777
      -1.865
      -1.828
      -1.634
      -1.292
      -0.857
      -0.400
       0.036
       0.437
       0.798
       1.089
       1.253
       1.243
       1.061
       0.768
       0.459
       0.211
       0.054
      -0.025
      -0.049
      -0.014
       0.089
       0.245
       0.395
       0.470
       0.444
       0.343
       0.212
       0.067
      -0.113
      -0.348
      -0.608
      -0.824
      -0.931
      -0.914
      -0.805
      -0.634
      -0.397
      -0.071
       0.332
       0.739
       1.037
       1.160
       1.143
       1.101
       1.145
       1.304
       1.509
       1.629
       1.547
       1.213
       0.671
       0.036
      -0.553
      -0.979
      -1.191
      -1.208
      -1.095
      -0.930
      -0.771
      -0.634
      -0.497
      -0.317
      -0.073
       0.225
       0.553
       0.913
       1.321
       1.755
       2.116
       2.260
       2.090
       1.615
       0.953
       0.261
      -0.322
      -0.717
      -0.905
      -0.911
      -0.783
      -0.578
      -0.351
      -0.151
      -0.015
       0.044
       0.042
       0.020
       0.016
       0.044
       0.082
       0.089
       0.036
      -0.067
      -0.173
      -0.225
      -0.201
      -0.123
      -0.042
       0.008
       0.031
       0.058
       0.116
       0.201
       0.274
       0.275
       0.154
      -0.107
      -0.471
      -0.856
      -1.164
      -1.318
      -1.295
      -1.136
      -0.938
      -0.823
      -0.885
      -1.135
      -1.482
      -1.753
      -1.778
      -1.474
      -0.882
      -0.148
       0.546
       1.051
       1.310
       1.370
       1.334
       1.280
       1.202
       1.030
       0.703
       0.242
      -0.237
      -0.583
      -0.682
      -0.499
      -0.073
       0.509
       1.122
       1.623
       1.878
       1.828
       1.516
       1.070
       0.621
       0.244
      -0.061
      -0.341
      -0.625
      -0.892
      -1.051
      -0.974
      -0.571
       0.147
       1.030
       1.834
       2.320
       2.348
       1.930
       1.222
       0.448
      -0.185
      -0.578
      -0.765
      -0.876
      -1.036
      -1.280
      -1.524
      -1.636
      -1.537
      -1.272
      -0.981
      -0.809
      -0.810
      -0.919
      -1.001
      -0.936
      -0.671
      -0.226
       0.337
       0.928
       1.452
       1.835
       2.061
       2.167
       2.191
       2.113
       1.850
       1.321
       0.527
      -0.421
      -1.337
      -2.037
      -2.396
      -2.385
      -2.065
      -1.555
      -0.988
      -0.464
      -0.034
       0.298
       0.554
       0.750
       0.877
       0.900
       0.766
       0.443
      -0.044
      -0.590
      -1.023
      -1.182
      -1.002
      -0.560
      -0.036
       0.371
       0.532
       0.430
       0.159
      -0.114
      -0.228
      -0.104
       0.221
       0.612
       0.909
       1.008
       0.907
       0.692
       0.459
       0.245
       0.033
      -0.180
      -0.340
      -0.368
      -0.241
      -0.036
       0.118
       0.120
      -0.045
      -0.332
      -0.669
      -0.964
      -1.097
      -0.950
      -0.474
       0.260
       1.072
       1.741
       2.083
       2.012
       1.554
       0.831
       0.016
      -0.733
      -1.327
      -1.768
      -2.134
      -2.517
      -2.964
      -3.437
      -3.830
      -4.023
      -3.954
      -3.637
      -3.131
      -2.485
      -1.698
      -0.739
       0.398
       1.637
       2.810
       3.716
       4.193
       4.193
       3.785
       3.115
       2.339
       1.573
       0.876
       0.263
      -0.253
      -0.648
      -0.890
      -0.979
      -0.961
      -0.913
      -0.906
      -0.970
      -1.084
      -1.184
      -1.192
      -1.063
      -0.819
      -0.549
      -0.379
      -0.400
      -0.624
      -0.976
      -1.324
      -1.531
      -1.496
      -1.191
      -0.670
      -0.065
       0.472
       0.849
       1.086
       1.299
       1.625
       2.129
       2.762
       3.372
       3.772
       3.824
       3.523
       3.011
       2.513
       2.211
       2.147
       2.211
       2.222
       2.037
       1.633
       1.090
       0.542
       0.103
      -0.167
      -0.273
      -0.264
      -0.190
      -0.065
       0.142
       0.476
       0.945
       1.488
       1.985
       2.313
       2.388
       2.186
       1.718
       1.033
       0.224
      -0.572
      -1.212
      -1.616
      -1.802
      -1.860
      -1.875
      -1.889
      -1.911
      -1.959
      -2.068
      -2.263
      -2.519
      -2.736
      -2.780
      -2.547
      -2.020
      -1.290
      -0.512
       0.168
       0.697
       1.138
       1.612
       2.180
       2.757
       3.123
       3.030
       2.363
       1.225
      -0.081
      -1.195
      -1.856
      -2.013
      -1.817
      -1.529
      -1.402
      -1.587
      -2.073
      -2.689
      -3.162
      -3.246
      -2.842
      -2.068
      -1.196
      -0.517
      -0.193
      -0.216
      -0.459
      -0.779
      -1.069
      -1.274
      -1.388
      -1.452
      -1.548
      -1.763
      -2.132
      -2.577
      -2.908
      -2.905
      -2.436
      -1.539
      -0.419
       0.644
       1.427
       1.856
       2.032
       2.144
       2.331
       2.580
       2.747
       2.668
       2.273
       1.632
       0.913
       0.289
      -0.133
      -0.349
      -0.426
      -0.458
      -0.515
      -0.614
      -0.712
      -0.720
      -0.558
      -0.228
       0.143
       0.352
       0.256
      -0.117
      -0.578
      -0.905
      -0.974
      -0.819
      -0.581
      -0.432
      -0.494
      -0.777
      -1.158
      -1.414
      -1.332
      -0.838
      -0.044
       0.840
       1.669
       2.458
       3.323
       4.314
       5.318
       6.101
       6.477
       6.437
       6.132
       5.740
       5.314
       4.749
       3.884
       2.647
       1.127
      -0.455
      -1.849
      -2.889
      -3.537
      -3.859
      -3.942
      -3.832
      -3.547
      -3.128
      -2.667
      -2.274
      -2.004
      -1.837
      -1.718
      -1.619
      -1.551
      -1.523
      -1.515
      -1.493
      -1.453
      -1.435
      -1.479
      -1.581
      -1.688
      -1.754
      -1.788
      -1.848
      -1.971
      -2.121
      -2.196
      -2.108
      -1.832
      -1.389
      -0.784
       0.016
       1.019
       2.113
       3.053
       3.578
       3.586
       3.213
       2.735
       2.380
       2.210
       2.149
       2.096
       2.007
       1.890
       1.757
       1.589
       1.362
       1.072
       0.756
       0.466
       0.247
       0.118
       0.075
       0.102
       0.174
       0.257
       0.300
       0.241
       0.023
      -0.362
      -0.842
      -1.253
      -1.416
      -1.229
      -0.742
      -0.140
       0.356
       0.589
       0.535
       0.302
       0.083
       0.063
       0.328
       0.824
       1.380
       1.791
       1.908
       1.689
       1.214
       0.638
       0.108
      -0.313
      -0.663
      -1.030
      -1.465
      -1.916
      -2.249
      -2.335
      -2.152
      -1.821
      -1.537
      -1.433
      -1.486
      -1.517
      -1.313
      -0.765
       0.041
       0.864
       1.441
       1.621
       1.442
       1.096
       0.828
       0.802
       1.005
       1.249
       1.295
       1.012
       0.453
      -0.202
      -0.755
      -1.059
      -1.031
      -0.654
      -0.021
       0.642
       1.043
       0.980
       0.463
      -0.287
      -0.978
      -1.398
      -1.497
      -1.333
      -0.965
      -0.396
       0.381
       1.283
       2.081
       2.469
       2.232
       1.403
       0.273
      -0.756
      -1.397
      -1.605
      -1.541
      -1.435
      -1.437
      -1.567
      -1.748
      -1.893
      -1.965
      -1.992
      -2.026
      -2.088
      -2.160
      -2.191
      -2.133
      -1.936
      -1.545
      -0.919
      -0.077
       0.853
       1.652
       2.109
       2.124
       1.753
       1.163
       0.532
      -0.028
      -0.469
      -0.767
      -0.895
      -0.818
      -0.515
       0.002
       0.690
       1.465
       2.200
       2.742
       2.967
       2.831
       2.403
       1.826
       1.241
       0.715
       0.240
      -0.207
      -0.603
      -0.862
      -0.903
      -0.718
      -0.402
      -0.102
       0.061
       0.040
      -0.137
      -0.394
      -0.625
      -0.716
      -0.573
      -0.164
       0.448
       1.102
       1.576
       1.652
       1.202
       0.269
      -0.906
      -1.953
      -2.518
      -2.419
      -1.737
      -0.760
       0.175
       0.859
       1.292
       1.612
       1.942
       2.279
       2.502
       2.481
       2.174
       1.663
       1.089
       0.548
       0.025
      -0.578
      -1.337
      -2.216
      -3.065
      -3.699
      -4.006
      -3.990
      -3.754
      -3.429
      -3.106
      -2.794
      -2.430
      -1.940
      -1.304
      -0.595
       0.046
       0.469
       0.576
       0.360
      -0.087
      -0.615
      -1.074
      -1.375
      -1.486
      -1.388
      -1.051
      -0.466
       0.299
       1.083
       1.700
       2.042
       2.140
       2.111
       2.038
       1.900
       1.606
       1.101
       0.448
      -0.185
      -0.606
      -0.683
      -0.405
       0.108
       0.653
       1.039
       1.188
       1.163
       1.107
       1.156
       1.379
       1.780
       2.325
       2.944
       3.517
       3.894
       3.953
       3.669
       3.126
       2.466
       1.793
       1.132
       0.457
      -0.227
      -0.829
      -1.198
      -1.223
      -0.923
      -0.464
      -0.068
       0.104
       0.026
      -0.198
      -0.419
      -0.519
      -0.470
      -0.326
      -0.186
      -0.147
      -0.263
      -0.514
      -0.794
      -0.928
      -0.750
      -0.195
       0.620
       1.430
       1.928
       1.914
       1.387
       0.550
      -0.284
      -0.829
      -0.963
      -0.762
      -0.419
      -0.105
       0.119
       0.306
       0.552
       0.938
       1.483
       2.119
       2.671
       2.889
       2.546
       1.580
       0.187
      -1.224
      -2.214
      -2.549
      -2.317
      -1.856
      -1.536
      -1.545
      -1.820
      -2.138
      -2.291
      -2.219
      -2.017
      -1.830
      -1.733
      -1.685
      -1.584
      -1.366
      -1.057
      -0.757
      -0.576
      -0.574
      -0.713
      -0.874
      -0.927
      -0.820
      -0.631
      -0.514
      -0.587
      -0.843
      -1.148
      -1.336
      -1.327
      -1.162
      -0.947
      -0.765
      -0.649
      -0.604
      -0.652
      -0.811
      -1.039
      -1.211
      -1.167
      -0.834
      -0.305
       0.190
       0.424
       0.329
       0.042
      -0.199
      -0.219
       0.000
       0.342
       0.657
       0.841
       0.866
       0.768
       0.635
       0.565
       0.620
       0.778
       0.948
       1.025
       0.953
       0.754
       0.503
       0.295
       0.223
       0.349
       0.670
       1.094
       1.484
       1.733
       1.830
       1.838
       1.820
       1.781
       1.668
       1.436
       1.100
       0.748
       0.483
       0.358
       0.347
       0.372
       0.354
       0.254
       0.083
      -0.095
      -0.169
      -0.036
       0.336
       0.866
       1.397
       1.773
       1.899
       1.752
       1.359
       0.779
       0.101
      -0.559
      -1.094
      -1.449
      -1.649
      -1.785
      -1.960
      -2.231
