Origin Time       24/2/2009 17:46:13  UTC
Lat.              25.9 N 
Long.             94.3 E 
Depth (Km)         10.0
Magnitude         4.8
 Region           INDIA(NAGALAND)-MYANMAR-BORD-REG                                 
 Above details taken from IMD 
    
Station Code      GOL
Station Lat.       26.516  N
Station Long.      93.972  E
Station Height(m)   75.0
Site Class        B   Vs30 between 375 m/sec to 700 m/sec *  
Record Time       24.02.2009 17:46:29.554 UTC
Sampling Rate     200. Hz
 Record Duration   73.570 Sec.
 Direction         N-S (N positive)
Max. Acceleration    -13.690 cm/sec**2
     
  * For reference see Site Classification link of website 
     
 Base Line Corrected and Low Pass Filtered (Cut Off at 35 Hz) Time History
 Acceleration data in cm/sec**2
    
[...]
      -0.076
      -0.040
      -0.053
      -0.135
      -0.281
      -0.455
      -0.601
      -0.677
      -0.669
      -0.589
      -0.453
      -0.266
      -0.029
       0.233
       0.467
       0.610
       0.630
       0.546
       0.416
       0.294
       0.197
       0.106
       0.004
      -0.106
      -0.199
      -0.252
      -0.269
      -0.281
      -0.323
      -0.411
      -0.521
      -0.602
      -0.611
      -0.530
      -0.372
      -0.167
       0.054
       0.256
       0.402
       0.464
       0.432
       0.322
       0.164
      -0.001
      -0.131
      -0.189
      -0.154
      -0.037
       0.120
       0.253
       0.314
       0.299
       0.246
       0.202
       0.194
       0.221
       0.266
       0.311
       0.354
       0.401
       0.463
       0.534
       0.587
       0.596
       0.554
       0.479
       0.390
       0.294
       0.183
       0.048
      -0.095
      -0.218
      -0.282
      -0.264
      -0.164
      -0.015
       0.127
       0.206
       0.194
       0.107
      -0.010
      -0.111
      -0.175
      -0.214
      -0.253
      -0.305
      -0.366
      -0.416
      -0.449
      -0.488
      -0.567
      -0.699
      -0.848
      -0.938
      -0.902
      -0.723
      -0.439
      -0.122
       0.157
       0.351
       0.442
       0.431
       0.330
       0.154
      -0.065
      -0.274
      -0.418
      -0.459
      -0.395
      -0.254
      -0.077
       0.097
       0.236
       0.312
       0.310
       0.240
       0.134
       0.026
      -0.059
      -0.117
      -0.153
      -0.171
      -0.172
      -0.159
      -0.132
      -0.086
      -0.018
       0.071
       0.173
       0.277
       0.376
       0.472
       0.570
       0.671
       0.761
       0.815
       0.794
       0.667
       0.429
       0.116
      -0.200
      -0.445
      -0.565
      -0.548
      -0.426
      -0.264
      -0.128
      -0.059
      -0.052
      -0.075
      -0.093
      -0.095
      -0.100
      -0.130
      -0.189
      -0.252
      -0.280
      -0.252
      -0.178
      -0.087
      -0.002
       0.069
       0.124
       0.153
       0.148
       0.116
       0.084
       0.081
       0.110
       0.145
       0.142
       0.072
      -0.058
      -0.211
      -0.346
      -0.435
      -0.468
      -0.447
      -0.375
      -0.256
      -0.098
       0.082
       0.264
       0.426
       0.558
       0.656
       0.719
       0.739
       0.709
       0.628
       0.508
       0.371
       0.237
       0.118
       0.024
      -0.029
      -0.037
      -0.013
       0.010
       0.008
      -0.019
      -0.046
      -0.045
      -0.001
       0.085
       0.195
       0.294
       0.335
       0.283
       0.139
      -0.058
      -0.254
      -0.408
      -0.505
      -0.556
      -0.583
      -0.598
      -0.590
      -0.535
      -0.416
      -0.247
      -0.077
       0.036
       0.056
      -0.010
      -0.117
      -0.206
      -0.244
      -0.241
      -0.235
      -0.262
      -0.323
      -0.373
      -0.349
      -0.215
       0.005
       0.234
       0.386
       0.412
       0.328
       0.188
       0.055
      -0.026
      -0.048
      -0.028
       0.007
       0.039
       0.066
       0.091
       0.111
       0.113
       0.086
       0.032
      -0.034
      -0.092
      -0.131
      -0.146
      -0.143
      -0.139
      -0.153
      -0.188
      -0.223
      -0.219
      -0.149
      -0.015
       0.156
       0.324
       0.458
       0.539
       0.563
       0.538
       0.481
       0.410
       0.347
       0.304
       0.278
       0.241
       0.159
       0.021
      -0.153
      -0.312
      -0.405
      -0.404
      -0.317
      -0.180
      -0.036
       0.075
       0.126
       0.115
       0.061
       0.009
       0.002
       0.056
       0.147
       0.233
       0.284
       0.295
       0.282
       0.256
       0.214
       0.150
       0.064
      -0.033
      -0.124
      -0.195
      -0.247
      -0.292
      -0.354
      -0.438
      -0.527
      -0.580
      -0.565
      -0.472
      -0.316
      -0.119
       0.096
       0.307
       0.480
       0.579
       0.575
       0.470
       0.301
       0.119
      -0.025
      -0.100
      -0.102
      -0.052
       0.015
       0.067
       0.092
       0.100
       0.118
       0.176
       0.278
       0.396
       0.478
       0.480
       0.398
       0.275
       0.169
       0.112
       0.094
       0.086
       0.060
       0.014
      -0.042
      -0.102
      -0.171
      -0.253
      -0.335
      -0.381
      -0.355
      -0.257
      -0.136
      -0.062
      -0.086
      -0.201
      -0.361
      -0.502
      -0.578
      -0.573
      -0.499
      -0.393
      -0.303
      -0.275
      -0.324
      -0.422
      -0.502
      -0.492
      -0.353
      -0.112
       0.149
       0.335
       0.388
       0.308
       0.149
      -0.018
      -0.139
      -0.185
      -0.157
      -0.066
       0.067
       0.215
       0.355
       0.471
       0.565
       0.645
       0.707
       0.720
       0.646
       0.468
       0.217
      -0.033
      -0.199
      -0.236
      -0.161
      -0.030
       0.095
       0.182
       0.229
       0.250
       0.262
       0.283
       0.323
       0.376
       0.417
       0.416
       0.358
       0.254
       0.136
       0.041
      -0.003
       0.005
       0.044
       0.077
       0.073
       0.015
      -0.088
      -0.209
      -0.311
      -0.367
      -0.371
      -0.335
      -0.289
      -0.268
      -0.306
      -0.420
      -0.592
      -0.778
      -0.915
      -0.949
      -0.856
      -0.658
      -0.416
      -0.204
      -0.069
      -0.009
       0.012
       0.032
       0.063
       0.094
       0.107
       0.100
       0.097
       0.126
       0.201
       0.315
       0.441
       0.549
       0.618
       0.637
       0.619
       0.588
       0.566
       0.556
       0.536
       0.469
       0.330
       0.120
      -0.126
      -0.344
      -0.472
      -0.477
      -0.370
      -0.198
      -0.020
       0.119
       0.200
       0.223
       0.208
       0.186
       0.185
       0.206
       0.214
       0.159
       0.014
      -0.201
      -0.420
      -0.572
      -0.618
      -0.572
      -0.483
      -0.402
      -0.338
      -0.264
      -0.147
       0.016
       0.194
       0.347
       0.458
       0.533
       0.583
       0.606
       0.593
       0.530
       0.413
       0.258
       0.096
      -0.038
      -0.123
      -0.167
      -0.193
      -0.222
      -0.259
      -0.286
      -0.276
      -0.205
      -0.076
       0.083
       0.230
       0.327
       0.354
       0.312
       0.223
       0.115
       0.011
      -0.076
      -0.143
      -0.183
      -0.184
      -0.144
      -0.078
      -0.012
       0.031
       0.043
       0.032
       0.019
       0.024
       0.056
       0.102
       0.137
       0.143
       0.118
       0.075
       0.035
       0.018
       0.032
       0.066
       0.088
       0.063
      -0.019
      -0.128
      -0.212
      -0.234
      -0.196
      -0.140
      -0.109
      -0.126
      -0.185
      -0.266
      -0.350
      -0.425
      -0.483
      -0.502
      -0.455
      -0.325
      -0.125
       0.086
       0.233
       0.269
       0.197
       0.066
      -0.062
      -0.149
      -0.190
      -0.202
      -0.203
      -0.197
      -0.174
      -0.122
      -0.042
       0.048
       0.120
       0.146
       0.124
       0.078
       0.043
       0.043
       0.079
       0.132
       0.181
       0.218
       0.250
       0.286
       0.320
       0.331
       0.291
       0.197
       0.081
      -0.003
      -0.011
       0.061
       0.165
       0.229
       0.201
       0.088
      -0.043
      -0.113
      -0.080
       0.034
       0.159
       0.232
       0.227
       0.167
       0.092
       0.036
       0.010
       0.008
       0.025
       0.059
       0.104
       0.149
       0.175
       0.169
       0.128
       0.071
       0.027
       0.028
       0.090
       0.200
       0.322
       0.409
       0.424
       0.347
       0.185
      -0.030
      -0.251
      -0.438
      -0.571
      -0.658
      -0.712
      -0.745
      -0.755
      -0.737
      -0.682
      -0.591
      -0.477
      -0.371
      -0.316
      -0.350
      -0.478
      -0.670
      -0.862
      -0.986
      -0.985
      -0.837
      -0.556
      -0.189
       0.197
       0.527
       0.741
       0.804
       0.723
       0.546
       0.350
       0.214
       0.189
       0.287
       0.480
       0.709
       0.904
       1.011
       1.012
       0.933
       0.820
       0.711
       0.623
       0.552
       0.490
       0.434
       0.389
       0.366
       0.372
       0.398
       0.419
       0.411
       0.365
       0.296
       0.229
       0.181
       0.141
       0.081
      -0.026
      -0.190
      -0.387
      -0.571
      -0.694
      -0.727
      -0.672
      -0.561
      -0.441
      -0.353
      -0.313
      -0.309
      -0.316
      -0.323
      -0.339
      -0.381
      -0.452
      -0.539
      -0.624
      -0.688
      -0.723
      -0.716
      -0.659
      -0.553
      -0.413
      -0.276
      -0.185
      -0.160
      -0.182
      -0.198
      -0.156
      -0.043
       0.117
       0.283
       0.426
       0.532
       0.599
       0.640
       0.679
       0.745
       0.849
       0.970
       1.064
       1.087
       1.022
       0.888
       0.739
       0.627
       0.574
       0.555
       0.518
       0.416
       0.244
       0.043
      -0.126
      -0.215
      -0.214
      -0.147
      -0.064
      -0.022
      -0.066
      -0.214
      -0.446
      -0.710
      -0.935
      -1.064
      -1.071
      -0.978
      -0.840
      -0.719
      -0.655
      -0.658
      -0.711
      -0.780
      -0.821
      -0.786
      -0.648
      -0.410
      -0.116
       0.170
       0.388
       0.498
       0.491
       0.397
       0.270
       0.175
       0.158
       0.233
       0.383
       0.568
       0.746
       0.886
       0.976
       1.021
       1.036
       1.037
       1.026
       0.994
       0.924
       0.806
       0.648
       0.472
       0.310
       0.180
       0.082
      -0.013
      -0.149
      -0.360
      -0.649
      -0.976
      -1.268
      -1.450
      -1.483
      -1.369
      -1.152
      -0.898
      -0.676
      -0.537
      -0.489
      -0.501
      -0.518
      -0.493
      -0.408
      -0.272
      -0.115
       0.046
       0.212
       0.391
       0.561
       0.675
       0.688
       0.605
       0.479
       0.376
       0.337
       0.369
       0.455
       0.563
       0.667
       0.746
       0.791
       0.788
       0.706
       0.522
       0.244
      -0.079
      -0.377
      -0.592
      -0.697
      -0.701
      -0.642
      -0.576
      -0.548
      -0.564
      -0.601
      -0.623
      -0.610
      -0.562
      -0.483
      -0.377
      -0.245
      -0.100
       0.024
       0.084
       0.041
      -0.116
      -0.353
      -0.598
      -0.775
      -0.834
      -0.768
      -0.601
      -0.358
      -0.059
       0.278
       0.619
       0.910
       1.092
       1.131
       1.037
       0.863
       0.680
       0.548
       0.499
       0.521
       0.561
       0.553
       0.459
       0.291
       0.116
       0.021
       0.071
       0.272
       0.563
       0.833
       0.980
       0.959
       0.809
       0.618
       0.476
       0.436
       0.494
       0.595
       0.657
       0.612
       0.438
       0.168
      -0.130
      -0.400
      -0.621
      -0.802
      -0.957
      -1.072
      -1.107
      -1.030
      -0.857
      -0.653
      -0.506
      -0.468
      -0.534
      -0.641
      -0.715
      -0.706
      -0.615
      -0.483
      -0.366
      -0.308
      -0.328
      -0.418
      -0.555
      -0.718
      -0.889
      -1.062
      -1.237
      -1.417
      -1.602
      -1.786
      -1.958
      -2.095
      -2.172
      -2.171
      -2.109
      -2.038
      -2.026
      -2.117
      -2.303
      -2.532
      -2.739
      -2.876
      -2.926
      -2.902
      -2.834
      -2.760
      -2.701
      -2.645
      -2.556
      -2.392
      -2.139
      -1.821
      -1.502
      -1.254
      -1.130
      -1.146
      -1.273
      -1.454
      -1.607
      -1.642
      -1.473
      -1.049
      -0.382
       0.460
       1.380
       2.291
       3.145
       3.934
       4.670
       5.347
       5.915
       6.290
       6.393
       6.196
       5.750
       5.186
       4.671
       4.354
       4.317
       4.555
       4.985
       5.494
       5.983
       6.392
       6.697
       6.875
       6.884
       6.676
       6.227
       5.555
       4.708
       3.739
       2.695
       1.606
       0.498
      -0.595
      -1.620
      -2.502
      -3.173
      -3.609
      -3.837
      -3.926
      -3.949
      -3.954
      -3.942
      -3.860
      -3.612
      -3.098
      -2.245
      -1.009
       0.627
       2.620
       4.823
       6.959
       8.674
       9.652
       9.727
       8.933
       7.467
       5.604
       3.634
       1.813
       0.343
      -0.657
      -1.170
      -1.271
      -1.108
      -0.856
      -0.677
      -0.673
      -0.867
      -1.235
      -1.754
      -2.429
      -3.261
      -4.207
      -5.195
      -6.179
      -7.186
      -8.287
      -9.524
     -10.848
     -12.116
     -13.130
     -13.690
     -13.637
     -12.905
     -11.562
      -9.818
      -7.973
      -6.321
      -5.056
      -4.211
      -3.663
      -3.187
      -2.542
      -1.556
      -0.171
       1.567
       3.553
       5.645
       7.664
       9.402
      10.661
      11.316
      11.358
      10.888
      10.084
       9.168
       8.363
       7.852
       7.722
       7.930
       8.318
       8.649
       8.673
       8.181
       7.050
       5.274
       2.966
       0.326
      -2.409
      -5.007
      -7.277
      -9.079
     -10.349
     -11.120
     -11.509
     -11.662
     -11.681
     -11.589
     -11.342
     -10.883
     -10.186
      -9.276
      -8.223
      -7.103
      -5.952
      -4.745
      -3.427
      -1.961
      -0.378
       1.216
       2.679
       3.887
       4.775
       5.355
       5.694
       5.867
       5.924
       5.862
       5.647
       5.258
       4.747
       4.251
       3.939
       3.921
       4.174
       4.553
       4.860
       4.941
       4.733
       4.255
       3.562
       2.711
       1.738
       0.669
      -0.458
      -1.551
      -2.452
      -2.967
      -2.942
      -2.345
      -1.296
      -0.029
       1.189
       2.145
       2.719
       2.890
       2.720
       2.315
       1.786
       1.210
       0.630
       0.086
      -0.363
      -0.650
      -0.723
      -0.561
      -0.183
       0.354
       0.956
       1.505
       1.871
       1.930
       1.596
       0.865
      -0.165
      -1.309
      -2.354
      -3.124
      -3.518
      -3.519
      -3.193
      -2.658
      -2.054
      -1.512
      -1.131
      -0.964
      -1.010
      -1.216
      -1.474
      -1.657
      -1.650
      -1.406
      -0.961
      -0.427
       0.057
       0.385
       0.519
       0.492
       0.372
       0.218
       0.040
      -0.203
      -0.568
      -1.084
      -1.725
      -2.424
      -3.090
      -3.618
      -3.885
      -3.759
      -3.140
      -2.025
      -0.551
       1.020
       2.363
       3.198
       3.382
       2.961
       2.134
       1.160
       0.267
      -0.378
      -0.662
      -0.513
       0.077
       1.018
       2.110
       3.099
       3.760
       3.961
       3.678
       2.957
       1.886
       0.580
      -0.799
      -2.057
      -3.002
      -3.503
      -3.513
      -3.080
      -2.335
      -1.456
      -0.635
      -0.029
       0.272
       0.270
       0.069
      -0.149
      -0.186
       0.063
       0.536
       1.016
       1.245
       1.053
       0.442
      -0.421
      -1.277
      -1.877
      -2.055
      -1.760
      -1.050
      -0.071
       0.992
       1.965
       2.730
       3.249
       3.545
       3.679
       3.719
       3.710
       3.653
       3.509
       3.235
       2.834
       2.353
       1.841
       1.291
       0.636
      -0.191
      -1.182
      -2.215
      -3.068
      -3.501
      -3.364
      -2.689
      -1.710
      -0.786
      -0.270
      -0.379
      -1.132
      -2.363
      -3.784
      -5.058
      -5.885
      -6.079
      -5.625
      -4.692
      -3.577
      -2.592
      -1.941
      -1.637
      -1.506
      -1.280
      -0.721
       0.273
       1.630
       3.136
       4.510
       5.484
       5.866
       5.585
       4.708
       3.426
       2.003
       0.709
      -0.240
      -0.714
      -0.689
      -0.250
       0.416
       1.061
       1.458
       1.477
       1.143
       0.616
       0.114
      -0.195
      -0.255
      -0.121
       0.103
       0.351
       0.617
       0.936
       1.327
       1.758
       2.164
       2.489
       2.734
       2.969
       3.310
       3.857
       4.628
       5.524
       6.345
       6.841
       6.771
       5.958
       4.322
       1.910
      -1.081
      -4.292
      -7.229
      -9.375
     -10.335
      -9.972
      -8.447
      -6.182
      -3.725
      -1.586
      -0.099
       0.628
       0.672
       0.218
      -0.507
      -1.267
      -1.856
      -2.159
      -2.200
      -2.154
      -2.280
      -2.816
      -3.868
      -5.341
      -6.944
      -8.281
      -8.991
      -8.882
      -7.980
      -6.493
      -4.697
      -2.835
      -1.077
       0.452
       1.641
       2.427
       2.849
       3.053
       3.220
       3.461
       3.791
       4.174
       4.583
       5.014
       5.469
       5.933
       6.392
       6.862
       7.392
       8.038
       8.808
       9.611
      10.267
      10.569
      10.379
       9.690
       8.599
       7.245
       5.744
       4.195
       2.719
       1.472
       0.611
       0.211
       0.209
       0.410
       0.574
       0.521
       0.198
      -0.330
      -0.934
      -1.486
      -1.908
      -2.180
      -2.330
      -2.414
      -2.510
      -2.718
      -3.149
      -3.884
      -4.921
      -6.150
      -7.380
      -8.413
      -9.119
      -9.491
      -9.627
      -9.668
      -9.710
      -9.764
      -9.766
      -9.620
      -9.228
      -8.493
      -7.349
      -5.818
      -4.042
      -2.261
      -0.726
       0.373
       0.922
       0.888
       0.329
      -0.590
      -1.626
      -2.522
      -3.077
      -3.173
      -2.776
      -1.922
      -0.698
       0.770
       2.335
       3.836
       5.099
       5.964
       6.331
       6.200
       5.664
       4.869
       3.985
       3.205
       2.737
       2.763
       3.376
       4.528
       6.024
       7.555
       8.787
       9.451
       9.420
       8.727
       7.512
       5.966
       4.289
       2.684
       1.344
       0.409
      -0.093
      -0.261
      -0.258
      -0.216
      -0.156
      -0.006
       0.315
       0.811
       1.384
       1.896
       2.244
       2.395
       2.346
       2.059
       1.440
       0.388
      -1.116
      -2.954
