Origin Time       31/12/2009 09:57:00
Lat.              27.3°N	
Long.             91.4°E	
Depth (Km)          7.0
Magnitude         5.5
 Region           BHUTAN                                                           
 Above details taken from IMD 
     
Station Code      GOL
Station Lat.       26.152  N
Station Long.      90.627  E
Station Height(m)   56.0
Site Class        C   Vs30 between 200 m/sec to 375 m/sec *  
Record Time       31.12.2009 09:57:58.674
Sampling Rate     200. Hz
 Record Duration   82.350 Sec.
 Direction         E-W (E positive)
Max. Acceleration     10.416 cm/sec**2
     
  * For reference see Site Classification link of website 
     
 Base Line Corrected and Low Pass Filtered (Cut Off at 35 Hz) Time History
 Acceleration data in cm/sec**2
    
[...]
       0.379
       0.330
       0.288
       0.284
       0.334
       0.427
       0.518
       0.549
       0.475
       0.295
       0.048
      -0.200
      -0.395
      -0.522
      -0.605
      -0.684
      -0.790
      -0.929
      -1.089
      -1.251
      -1.387
      -1.471
      -1.474
      -1.373
      -1.167
      -0.876
      -0.548
      -0.234
       0.032
       0.238
       0.386
       0.480
       0.526
       0.528
       0.497
       0.446
       0.400
       0.386
       0.419
       0.494
       0.593
       0.696
       0.782
       0.821
       0.769
       0.586
       0.274
      -0.111
      -0.471
      -0.707
      -0.764
      -0.647
      -0.406
      -0.121
       0.123
       0.268
       0.301
       0.250
       0.156
       0.043
      -0.078
      -0.206
      -0.331
      -0.436
      -0.498
      -0.518
      -0.517
      -0.532
      -0.575
      -0.618
      -0.615
      -0.542
      -0.425
      -0.326
      -0.306
      -0.391
      -0.560
      -0.753
      -0.887
      -0.898
      -0.770
      -0.542
      -0.275
      -0.031
       0.139
       0.216
       0.222
       0.207
       0.227
       0.308
       0.437
       0.573
       0.666
       0.677
       0.593
       0.430
       0.225
       0.043
      -0.033
       0.062
       0.324
       0.673
       0.984
       1.147
       1.110
       0.898
       0.600
       0.326
       0.142
       0.044
      -0.025
      -0.118
      -0.249
      -0.404
      -0.558
      -0.695
      -0.796
      -0.846
      -0.849
      -0.827
      -0.804
      -0.789
      -0.784
      -0.793
      -0.825
      -0.881
      -0.938
      -0.954
      -0.896
      -0.767
      -0.610
      -0.476
      -0.381
      -0.300
      -0.198
      -0.063
       0.088
       0.233
       0.363
       0.484
       0.598
       0.710
       0.829
       0.966
       1.120
       1.264
       1.361
       1.383
       1.319
       1.177
       0.978
       0.756
       0.550
       0.392
       0.283
       0.200
       0.113
       0.008
      -0.109
      -0.227
      -0.348
      -0.473
      -0.591
      -0.670
      -0.690
      -0.660
      -0.617
      -0.593
      -0.581
      -0.541
      -0.421
      -0.203
       0.084
       0.369
       0.583
       0.692
       0.709
       0.670
       0.604
       0.516
       0.393
       0.231
       0.049
      -0.119
      -0.246
      -0.330
      -0.400
      -0.491
      -0.614
      -0.744
      -0.826
      -0.806
      -0.666
      -0.435
      -0.175
       0.056
       0.232
       0.363
       0.480
       0.610
       0.764
       0.927
       1.063
       1.121
       1.058
       0.855
       0.535
       0.169
      -0.136
      -0.282
      -0.229
      -0.017
       0.251
       0.453
       0.507
       0.398
       0.185
      -0.028
      -0.150
      -0.142
      -0.036
       0.095
       0.185
       0.215
       0.207
       0.195
       0.197
       0.197
       0.160
       0.056
      -0.117
      -0.327
      -0.528
      -0.674
      -0.735
      -0.701
      -0.583
      -0.403
      -0.196
       0.005
       0.170
       0.278
       0.313
       0.277
       0.197
       0.119
       0.085
       0.102
       0.142
       0.159
       0.124
       0.042
      -0.056
      -0.131
      -0.166
      -0.180
      -0.218
      -0.319
      -0.487
      -0.681
      -0.837
      -0.907
      -0.882
      -0.787
      -0.658
      -0.515
      -0.356
      -0.167
       0.057
       0.285
       0.453
       0.495
       0.381
       0.134
      -0.191
      -0.528
      -0.813
      -0.991
      -1.023
      -0.910
      -0.705
      -0.491
      -0.333
      -0.237
      -0.169
      -0.100
      -0.051
      -0.072
      -0.196
      -0.396
      -0.605
      -0.757
      -0.814
      -0.775
      -0.647
      -0.439
      -0.167
       0.145
       0.461
       0.739
       0.944
       1.058
       1.103
       1.121
       1.148
       1.169
       1.122
       0.948
       0.645
       0.275
      -0.077
      -0.345
      -0.499
      -0.533
      -0.459
      -0.306
      -0.122
       0.039
       0.142
       0.164
       0.100
      -0.041
      -0.231
      -0.424
      -0.583
      -0.680
      -0.700
      -0.645
      -0.538
      -0.425
      -0.347
      -0.316
      -0.306
      -0.277
      -0.199
      -0.060
       0.135
       0.362
       0.577
       0.728
       0.792
       0.781
       0.733
       0.678
       0.624
       0.550
       0.430
       0.252
       0.047
      -0.130
      -0.232
      -0.254
      -0.240
      -0.247
      -0.304
      -0.381
      -0.419
      -0.373
      -0.246
      -0.079
       0.081
       0.211
       0.302
       0.352
       0.351
       0.300
       0.224
       0.157
       0.119
       0.092
       0.032
      -0.094
      -0.279
      -0.484
      -0.657
      -0.757
      -0.765
      -0.681
      -0.519
      -0.296
      -0.042
       0.200
       0.385
       0.480
       0.492
       0.460
       0.443
       0.485
       0.600
       0.765
       0.935
       1.054
       1.069
       0.942
       0.661
       0.257
      -0.195
      -0.604
      -0.894
      -1.027
      -1.009
      -0.877
      -0.693
      -0.528
      -0.430
      -0.407
      -0.426
      -0.431
      -0.379
      -0.252
      -0.052
       0.199
       0.457
       0.657
       0.738
       0.680
       0.523
       0.354
       0.256
       0.266
       0.355
       0.455
       0.501
       0.464
       0.362
       0.239
       0.142
       0.107
       0.154
       0.291
       0.503
       0.759
       1.007
       1.192
       1.270
       1.223
       1.063
       0.829
       0.571
       0.332
       0.134
      -0.031
      -0.182
      -0.335
      -0.481
      -0.591
      -0.626
      -0.576
      -0.470
      -0.369
      -0.327
      -0.358
      -0.424
      -0.472
      -0.473
      -0.446
      -0.440
      -0.505
      -0.664
      -0.900
      -1.160
      -1.372
      -1.488
      -1.508
      -1.477
      -1.450
      -1.439
      -1.400
      -1.280
      -1.062
      -0.790
      -0.522
      -0.293
      -0.102
       0.063
       0.215
       0.363
       0.514
       0.661
       0.783
       0.853
       0.868
       0.858
       0.860
       0.885
       0.908
       0.887
       0.798
       0.647
       0.468
       0.302
       0.173
       0.083
       0.021
      -0.020
      -0.040
      -0.040
      -0.037
      -0.065
      -0.158
      -0.323
      -0.533
      -0.741
      -0.914
      -1.034
      -1.093
      -1.084
      -1.010
      -0.893
      -0.763
      -0.637
      -0.513
      -0.375
      -0.200
       0.032
       0.321
       0.630
       0.889
       1.028
       1.001
       0.816
       0.538
       0.261
       0.067
      -0.009
       0.020
       0.115
       0.225
       0.289
       0.255
       0.117
      -0.078
      -0.255
      -0.353
      -0.351
      -0.276
      -0.186
      -0.157
      -0.251
      -0.488
      -0.822
      -1.146
      -1.344
      -1.341
      -1.143
      -0.832
      -0.517
      -0.281
      -0.146
      -0.084
      -0.046
       0.006
       0.091
       0.202
       0.318
       0.418
       0.489
       0.525
       0.527
       0.511
       0.507
       0.547
       0.640
       0.785
       0.977
       1.196
       1.406
       1.555
       1.610
       1.570
       1.458
       1.297
       1.104
       0.886
       0.647
       0.393
       0.143
      -0.067
      -0.192
      -0.213
      -0.165
      -0.123
      -0.147
      -0.242
      -0.356
      -0.436
      -0.474
      -0.503
      -0.556
      -0.628
      -0.682
      -0.687
      -0.649
      -0.597
      -0.543
      -0.460
      -0.299
      -0.037
       0.303
       0.675
       1.050
       1.419
       1.761
       2.034
       2.189
       2.209
       2.113
       1.934
       1.687
       1.370
       0.990
       0.574
       0.158
      -0.244
      -0.647
      -1.065
      -1.483
      -1.847
      -2.097
      -2.213
      -2.231
      -2.213
      -2.197
      -2.176
      -2.106
      -1.959
      -1.743
      -1.493
      -1.237
      -0.978
      -0.702
      -0.390
      -0.020
       0.434
       0.990
       1.631
       2.289
       2.866
       3.287
       3.534
       3.644
       3.677
       3.668
       3.611
       3.473
       3.221
       2.851
       2.385
       1.846
       1.227
       0.496
      -0.375
      -1.365
      -2.385
      -3.299
      -3.987
      -4.402
      -4.582
      -4.609
      -4.547
      -4.427
      -4.247
      -4.004
      -3.686
      -3.268
      -2.711
      -1.988
      -1.111
      -0.136
       0.843
       1.727
       2.438
       2.929
       3.190
       3.249
       3.180
       3.081
       3.012
       2.953
       2.826
       2.566
       2.163
       1.656
       1.090
       0.488
      -0.139
      -0.776
      -1.385
      -1.911
      -2.284
      -2.434
      -2.312
      -1.914
      -1.298
      -0.566
       0.178
       0.877
       1.521
       2.109
       2.602
       2.915
       2.968
       2.746
       2.313
       1.769
       1.187
       0.579
      -0.074
      -0.763
      -1.419
      -1.932
      -2.214
      -2.237
      -2.027
      -1.633
      -1.114
      -0.550
      -0.037
       0.334
       0.532
       0.592
       0.586
       0.579
       0.601
       0.650
       0.708
       0.751
       0.759
       0.714
       0.576
       0.286
      -0.192
      -0.823
      -1.491
      -2.043
      -2.362
      -2.397
      -2.169
      -1.730
      -1.143
      -0.484
       0.169
       0.747
       1.204
       1.519
       1.669
       1.626
       1.370
       0.918
       0.327
      -0.326
      -0.979
      -1.596
      -2.167
      -2.679
      -3.102
      -3.387
      -3.500
      -3.450
      -3.286
      -3.074
      -2.860
      -2.661
      -2.472
      -2.277
      -2.067
      -1.849
      -1.647
      -1.501
      -1.438
      -1.454
      -1.506
      -1.536
      -1.485
      -1.317
      -1.032
      -0.668
      -0.274
       0.109
       0.448
       0.703
       0.827
       0.786
       0.567
       0.179
      -0.346
      -0.967
      -1.628
      -2.264
      -2.798
      -3.165
      -3.328
      -3.284
      -3.057
      -2.691
      -2.250
      -1.815
      -1.451
      -1.174
      -0.938
      -0.657
      -0.259
       0.283
       0.936
       1.636
       2.322
       2.965
       3.569
       4.167
       4.795
       5.484
       6.241
       7.047
       7.873
       8.680
       9.408
       9.954
      10.194
      10.032
       9.449
       8.510
       7.326
       6.016
       4.692
       3.451
       2.360
       1.424
       0.581
      -0.263
      -1.164
      -2.108
      -3.015
      -3.786
      -4.331
      -4.581
      -4.487
      -4.038
      -3.286
      -2.339
      -1.331
      -0.392
       0.368
       0.856
       1.023
       0.891
       0.542
       0.080
      -0.420
      -0.927
      -1.435
      -1.926
      -2.349
      -2.627
      -2.706
      -2.585
      -2.314
      -1.951
      -1.532
      -1.077
      -0.624
      -0.255
      -0.075
      -0.167
      -0.548
      -1.178
      -1.986
      -2.904
      -3.849
      -4.710
      -5.356
      -5.685
      -5.672
      -5.375
      -4.883
      -4.248
      -3.450
      -2.426
      -1.145
       0.335
       1.858
       3.221
       4.251
       4.854
       5.020
       4.776
       4.160
       3.223
       2.060
       0.818
      -0.330
      -1.232
      -1.802
      -2.035
      -2.000
      -1.802
      -1.533
      -1.220
      -0.820
      -0.244
       0.586
       1.685
       2.969
       4.268
       5.369
       6.083
       6.303
       6.034
       5.394
       4.582
       3.816
       3.261
       2.977
       2.909
       2.920
       2.854
       2.586
       2.048
       1.230
       0.183
      -0.962
      -2.004
      -2.763
      -3.207
      -3.492
      -3.868
      -4.502
      -5.371
      -6.293
      -7.023
      -7.376
      -7.295
      -6.856
      -6.199
      -5.421
      -4.517
      -3.406
      -2.016
      -0.346
       1.521
       3.444
       5.254
       6.761
       7.771
       8.135
       7.817
       6.929
       5.706
       4.422
       3.315
       2.525
       2.062
       1.829
       1.681
       1.504
       1.234
       0.834
       0.271
      -0.469
      -1.330
      -2.200
      -2.979
      -3.643
      -4.246
      -4.847
      -5.428
      -5.882
      -6.060
      -5.868
      -5.340
      -4.629
      -3.925
      -3.351
      -2.926
      -2.594
      -2.285
      -1.945
      -1.519
      -0.928
      -0.094
       0.995
       2.237
       3.436
       4.378
       4.921
       5.053
       4.892
       4.617
       4.391
       4.300
       4.350
       4.477
       4.556
       4.443
       4.012
       3.200
       2.040
       0.655
      -0.792
      -2.180
      -3.479
      -4.730
      -5.958
      -7.112
      -8.070
      -8.711
      -8.973
      -8.858
      -8.404
      -7.648
      -6.642
      -5.470
      -4.275
      -3.243
      -2.547
      -2.282
      -2.426
      -2.849
      -3.353
      -3.725
      -3.796
      -3.481
      -2.793
      -1.816
      -0.648
       0.642
       2.032
       3.513
       5.049
       6.554
       7.919
       9.042
       9.851
      10.309
      10.416
      10.206
       9.722
       9.010
       8.120
       7.133
       6.155
       5.296
       4.620
       4.117
       3.697
       3.243
       2.668
       1.949
       1.097
       0.119
      -0.999
      -2.257
      -3.607
      -4.939
      -6.116
      -7.029
      -7.632
      -7.945
      -8.038
      -8.009
      -7.954
      -7.933
      -7.936
      -7.881
      -7.658
      -7.200
      -6.521
      -5.702
      -4.844
      -4.018
      -3.229
      -2.427
      -1.550
      -0.583
       0.410
       1.328
       2.119
       2.843
       3.656
       4.706
       6.017
       7.446
       8.734
       9.619
       9.944
       9.707
       9.051
       8.195
       7.359
       6.708
       6.326
       6.204
       6.257
       6.348
       6.324
       6.059
       5.471
       4.543
       3.320
       1.912
       0.473
      -0.832
      -1.860
      -2.510
      -2.732
      -2.542
      -2.015
      -1.278
      -0.489
       0.183
       0.593
       0.645
       0.312
      -0.367
      -1.308
      -2.420
      -3.612
      -4.791
      -5.842
      -6.643
      -7.080
      -7.074
      -6.600
      -5.705
      -4.515
      -3.225
      -2.052
      -1.173
      -0.674
      -0.518
      -0.558
      -0.598
      -0.485
      -0.186
       0.215
       0.578
       0.773
       0.714
       0.370
      -0.218
      -0.925
      -1.576
      -2.017
      -2.179
      -2.101
      -1.900
      -1.716
      -1.665
      -1.791
      -2.055
      -2.367
      -2.631
      -2.784
      -2.787
      -2.596
      -2.162
      -1.457
      -0.530
       0.478
       1.392
       2.086
       2.559
       2.923
       3.352
       3.987
       4.874
       5.939
       7.021
       7.952
       8.625
       9.032
       9.223
       9.253
       9.131
       8.827
       8.299
       7.525
       6.519
       5.336
       4.056
       2.760
       1.492
       0.256
      -0.971
      -2.198
      -3.403
      -4.534
      -5.524
      -6.303
      -6.803
      -6.983
      -6.850
      -6.462
      -5.911
      -5.307
      -4.765
      -4.397
      -4.286
      -4.459
      -4.862
      -5.378
      -5.851
      -6.119
      -6.044
      -5.528
      -4.532
      -3.096
      -1.351
       0.483
       2.134
       3.346
       3.963
       3.994
       3.604
       3.038
       2.516
       2.157
       1.973
       1.908
       1.883
       1.826
       1.679
       1.386
       0.897
       0.174
      -0.788
      -1.943
      -3.202
      -4.448
      -5.568
      -6.471
      -7.085
      -7.360
      -7.263
      -6.796
      -6.011
      -5.003
      -3.903
      -2.853
      -1.984
      -1.386
      -1.084
      -1.034
      -1.149
      -1.342
      -1.561
      -1.787
      -2.010
      -2.200
      -2.297
      -2.234
      -1.966
      -1.498
      -0.887
      -0.229
       0.382
       0.895
       1.316
       1.702
       2.117
       2.593
       3.114
       3.629
       4.101
       4.523
       4.910
       5.254
       5.505
       5.579
       5.412
       4.994
       4.388
       3.710
       3.097
       2.667
       2.481
       2.527
       2.726
       2.966
       3.147
       3.207
       3.130
       2.933
       2.642
       2.276
       1.856
       1.420
       1.028
       0.755
       0.669
       0.798
       1.103
       1.479
       1.800
       1.974
       1.986
       1.896
       1.807
       1.811
       1.956
       2.229
       2.569
       2.897
       3.148
       3.282
       3.288
       3.177
       2.976
       2.707
       2.376
       1.956
       1.397
       0.658
      -0.261
      -1.309
      -2.405
      -3.460
      -4.381
      -5.070
      -5.430
      -5.410
      -5.045
      -4.476
      -3.912
      -3.565
      -3.568
      -3.914
      -4.440
      -4.891
      -5.032
      -4.772
      -4.190
      -3.467
      -2.760
      -2.137
      -1.594
      -1.126
      -0.776
      -0.606
      -0.637
      -0.811
      -1.026
      -1.213
      -1.389
      -1.647
      -2.070
      -2.651
      -3.273
      -3.754
      -3.944
      -3.790
      -3.346
      -2.711
      -1.965
      -1.135
      -0.219
       0.766
       1.752
       2.625
       3.270
       3.611
       3.657
       3.512
       3.350
       3.349
       3.615
       4.142
       4.830
       5.552
       6.201
       6.720
       7.076
       7.240
       7.158
       6.783
       6.115
       5.238
       4.291
       3.402
       2.622
       1.929
       1.269
       0.614
      -0.023
      -0.607
      -1.106
      -1.511
      -1.837
      -2.108
      -2.343
      -2.548
      -2.730
      -2.917
      -3.148
      -3.459
      -3.845
      -4.256
      -4.609
      -4.811
      -4.792
      -4.538
      -4.115
      -3.668
      -3.372
      -3.361
      -3.672
      -4.235
      -4.907
      -5.518
      -5.910
      -5.961
      -5.601
      -4.826
      -3.704
      -2.374
      -1.027
       0.141
       0.990
       1.505
       1.805
       2.100
       2.585
       3.339
       4.278
       5.192
       5.840
       6.062
       5.839
       5.280
       4.558
       3.831
       3.194
       2.673
       2.247
       1.877
       1.517
       1.123
       0.644
       0.032
      -0.734
      -1.629
      -2.569
      -3.431
      -4.091
      -4.468
      -4.528
      -4.283
      -3.784
      -3.123
      -2.420
      -1.792
      -1.314
      -0.985
      -0.747
      -0.508
      -0.186
       0.270
       0.851
       1.482
       2.033
       2.376
       2.456
       2.336
       2.174
       2.138
       2.322
       2.706
       3.179
       3.605
       3.873
       3.916
       3.710
       3.273
       2.668
       2.002
       1.407
       0.996
       0.814
