Origin Time       29/10/2009 17:00:35
Lat.              27.3°N	
Long.             91.4°E	
Depth (Km)          5.0
Magnitude         5.2
 Region           BHUTAN                                                           
 Above details taken from IMD 
   
Station Code      GOL
Station Lat.       26.152
Station Long.      90.627
Station Height(m)   56.0
Site Class        C   Vs30 between 200 m/sec to 375 m/sec *  
Record Time       29.10.2009 17:01:02.989
Sampling Rate     200. Hz
 Record Duration   75.405 Sec.
 Direction         Vert. (Up positive)
Max. Acceleration     -6.507 cm/sec**2
     
  * For reference see Site Classification link of website 
     
 Base Line Corrected and Low Pass Filtered (Cut Off at 35 Hz) Time History
 Acceleration data in cm/sec**2
    
[...]
       0.019
      -0.026
       0.025
       0.130
       0.218
       0.255
       0.266
       0.293
       0.341
       0.383
       0.390
       0.355
       0.291
       0.209
       0.098
      -0.066
      -0.278
      -0.484
      -0.611
      -0.634
      -0.582
      -0.492
      -0.358
      -0.163
       0.071
       0.297
       0.478
       0.606
       0.665
       0.636
       0.526
       0.366
       0.189
       0.004
      -0.171
      -0.296
      -0.335
      -0.293
      -0.212
      -0.134
      -0.082
      -0.042
       0.012
       0.085
       0.150
       0.172
       0.160
       0.140
       0.108
       0.024
      -0.131
      -0.304
      -0.413
      -0.428
      -0.397
      -0.383
      -0.399
      -0.415
      -0.409
      -0.374
      -0.309
      -0.220
      -0.130
      -0.056
       0.019
       0.119
       0.237
       0.333
       0.379
       0.381
       0.358
       0.329
       0.317
       0.330
       0.338
       0.300
       0.208
       0.092
      -0.019
      -0.111
      -0.161
      -0.141
      -0.052
       0.065
       0.163
       0.220
       0.227
       0.172
       0.061
      -0.060
      -0.129
      -0.134
      -0.125
      -0.154
      -0.210
      -0.240
      -0.212
      -0.139
      -0.049
       0.037
       0.094
       0.101
       0.059
      -0.023
      -0.150
      -0.314
      -0.463
      -0.530
      -0.498
      -0.419
      -0.346
      -0.280
      -0.186
      -0.044
       0.136
       0.343
       0.569
       0.778
       0.896
       0.866
       0.694
       0.434
       0.130
      -0.186
      -0.462
      -0.633
      -0.673
      -0.604
      -0.461
      -0.249
       0.027
       0.325
       0.581
       0.758
       0.870
       0.926
       0.892
       0.730
       0.474
       0.223
       0.055
      -0.040
      -0.118
      -0.202
      -0.256
      -0.238
      -0.147
      -0.011
       0.148
       0.310
       0.446
       0.526
       0.544
       0.501
       0.394
       0.236
       0.074
      -0.045
      -0.124
      -0.202
      -0.300
      -0.385
      -0.411
      -0.372
      -0.309
      -0.276
      -0.282
      -0.309
      -0.341
      -0.369
      -0.374
      -0.330
      -0.238
      -0.143
      -0.106
      -0.157
      -0.263
      -0.352
      -0.369
      -0.315
      -0.242
      -0.193
      -0.161
      -0.096
       0.047
       0.254
       0.463
       0.613
       0.686
       0.703
       0.681
       0.607
       0.462
       0.257
       0.048
      -0.111
      -0.210
      -0.269
      -0.300
      -0.291
      -0.233
      -0.152
      -0.100
      -0.117
      -0.189
      -0.266
      -0.307
      -0.301
      -0.252
      -0.160
      -0.031
       0.117
       0.256
       0.363
       0.427
       0.471
       0.544
       0.666
       0.792
       0.848
       0.793
       0.647
       0.448
       0.223
      -0.029
      -0.305
      -0.578
      -0.799
      -0.932
      -0.978
      -0.965
      -0.922
      -0.856
      -0.755
      -0.607
      -0.423
      -0.246
      -0.121
      -0.050
       0.008
       0.092
       0.212
       0.362
       0.520
       0.649
       0.727
       0.755
       0.750
       0.710
       0.616
       0.468
       0.303
       0.187
       0.151
       0.169
       0.191
       0.192
       0.177
       0.136
       0.043
      -0.111
      -0.292
      -0.439
      -0.511
      -0.508
      -0.454
      -0.369
      -0.269
      -0.177
      -0.108
      -0.055
      -0.009
       0.007
      -0.032
      -0.120
      -0.210
      -0.265
      -0.274
      -0.257
      -0.243
      -0.258
      -0.303
      -0.360
      -0.392
      -0.371
      -0.289
      -0.175
      -0.070
      -0.009
      -0.001
      -0.046
      -0.128
      -0.216
      -0.274
      -0.287
      -0.251
      -0.162
      -0.014
       0.188
       0.407
       0.592
       0.716
       0.796
       0.858
       0.898
       0.890
       0.828
       0.740
       0.646
       0.534
       0.369
       0.137
      -0.127
      -0.349
      -0.463
      -0.448
      -0.325
      -0.141
       0.066
       0.265
       0.424
       0.525
       0.569
       0.582
       0.576
       0.538
       0.440
       0.266
       0.023
      -0.242
      -0.451
      -0.540
      -0.501
      -0.382
      -0.236
      -0.092
       0.018
       0.054
      -0.005
      -0.120
      -0.230
      -0.319
      -0.426
      -0.580
      -0.734
      -0.808
      -0.770
      -0.652
      -0.478
      -0.234
       0.078
       0.385
       0.570
       0.581
       0.484
       0.391
       0.336
       0.261
       0.107
      -0.079
      -0.179
      -0.116
       0.070
       0.273
       0.441
       0.601
       0.784
       0.943
       0.984
       0.866
       0.647
       0.417
       0.207
       0.008
      -0.164
      -0.267
      -0.295
      -0.314
      -0.396
      -0.535
      -0.650
      -0.681
      -0.659
      -0.657
      -0.689
      -0.691
      -0.608
      -0.477
      -0.396
      -0.406
      -0.437
      -0.388
      -0.250
      -0.129
      -0.124
      -0.214
      -0.272
      -0.195
       0.000
       0.214
       0.382
       0.509
       0.611
       0.660
       0.610
       0.454
       0.243
       0.027
      -0.183
      -0.383
      -0.545
      -0.628
      -0.612
      -0.496
      -0.292
      -0.046
       0.172
       0.313
       0.383
       0.413
       0.422
       0.425
       0.457
       0.541
       0.642
       0.694
       0.678
       0.642
       0.631
       0.630
       0.582
       0.459
       0.285
       0.085
      -0.138
      -0.367
      -0.538
      -0.591
      -0.548
      -0.494
      -0.476
      -0.455
      -0.359
      -0.192
      -0.034
       0.043
       0.042
       0.006
      -0.053
      -0.148
      -0.268
      -0.360
      -0.395
      -0.403
      -0.438
      -0.503
      -0.547
      -0.522
      -0.426
      -0.287
      -0.127
       0.035
       0.170
       0.260
       0.319
       0.367
       0.390
       0.361
       0.280
       0.175
       0.071
      -0.019
      -0.090
      -0.149
      -0.213
      -0.274
      -0.285
      -0.196
      -0.017
       0.182
       0.322
       0.365
       0.341
       0.312
       0.319
       0.343
       0.337
       0.290
       0.244
       0.237
       0.251
       0.232
       0.146
       0.023
      -0.064
      -0.053
       0.060
       0.225
       0.383
       0.503
       0.574
       0.596
       0.579
       0.548
       0.513
       0.447
       0.306
       0.086
      -0.159
      -0.359
      -0.472
      -0.484
      -0.405
      -0.272
      -0.134
      -0.010
       0.115
       0.248
       0.354
       0.395
       0.378
       0.342
       0.293
       0.199
       0.041
      -0.138
      -0.262
      -0.296
      -0.266
      -0.196
      -0.082
       0.076
       0.232
       0.342
       0.426
       0.552
       0.739
       0.896
       0.904
       0.739
       0.504
       0.322
       0.208
       0.070
      -0.170
      -0.483
      -0.750
      -0.878
      -0.889
      -0.897
      -0.989
      -1.138
      -1.217
      -1.122
      -0.876
      -0.616
      -0.474
      -0.467
      -0.507
      -0.510
      -0.490
      -0.517
      -0.614
      -0.722
      -0.765
      -0.731
      -0.666
      -0.591
      -0.475
      -0.285
      -0.039
       0.215
       0.445
       0.639
       0.764
       0.772
       0.642
       0.413
       0.147
      -0.106
      -0.317
      -0.455
      -0.492
      -0.426
      -0.274
      -0.047
       0.254
       0.606
       0.947
       1.217
       1.388
       1.453
       1.409
       1.274
       1.095
       0.911
       0.732
       0.562
       0.430
       0.367
       0.372
       0.421
       0.500
       0.602
       0.708
       0.793
       0.853
       0.895
       0.905
       0.843
       0.689
       0.459
       0.195
      -0.067
      -0.305
      -0.511
      -0.687
      -0.839
      -0.960
      -1.033
      -1.052
      -1.030
      -0.982
      -0.916
      -0.840
      -0.775
      -0.741
      -0.743
      -0.771
      -0.813
      -0.847
      -0.830
      -0.718
      -0.506
      -0.231
       0.063
       0.356
       0.628
       0.858
       1.047
       1.219
       1.381
       1.483
       1.468
       1.332
       1.115
       0.847
       0.540
       0.227
      -0.028
      -0.183
      -0.268
      -0.357
      -0.483
      -0.605
      -0.657
      -0.612
      -0.488
      -0.316
      -0.148
      -0.050
      -0.074
      -0.197
      -0.325
      -0.370
      -0.309
      -0.180
      -0.011
       0.196
       0.420
       0.602
       0.699
       0.746
       0.824
       0.964
       1.107
       1.146
       1.022
       0.749
       0.395
       0.044
      -0.236
      -0.419
      -0.536
      -0.640
      -0.743
      -0.811
      -0.818
      -0.790
      -0.763
      -0.741
      -0.703
      -0.646
      -0.592
      -0.563
      -0.576
      -0.649
      -0.778
      -0.924
      -1.045
      -1.130
      -1.197
      -1.261
      -1.309
      -1.299
      -1.186
      -0.955
      -0.654
      -0.368
      -0.140
       0.062
       0.314
       0.666
       1.102
       1.562
       1.992
       2.368
       2.670
       2.856
       2.870
       2.694
       2.356
       1.907
       1.392
       0.866
       0.405
       0.072
      -0.128
      -0.245
      -0.331
      -0.409
      -0.493
      -0.609
      -0.775
      -0.985
      -1.229
      -1.514
      -1.835
      -2.121
      -2.263
      -2.200
      -1.959
      -1.611
      -1.187
      -0.688
      -0.161
       0.275
       0.515
       0.547
       0.437
       0.237
      -0.061
      -0.464
      -0.930
      -1.380
      -1.753
      -2.007
      -2.096
      -1.956
      -1.574
      -1.013
      -0.375
       0.257
       0.827
       1.303
       1.686
       2.012
       2.321
       2.626
       2.923
       3.203
       3.438
       3.577
       3.586
       3.474
       3.272
       2.997
       2.651
       2.224
       1.698
       1.041
       0.236
      -0.679
      -1.592
      -2.364
      -2.919
      -3.275
      -3.480
      -3.536
      -3.411
      -3.110
      -2.698
      -2.235
      -1.730
      -1.173
      -0.615
      -0.173
       0.052
       0.042
      -0.169
      -0.543
      -1.044
      -1.620
      -2.219
      -2.801
      -3.322
      -3.721
      -3.947
      -3.988
      -3.856
      -3.571
      -3.155
      -2.635
      -2.030
      -1.335
      -0.539
       0.355
       1.318
       2.288
       3.170
       3.885
       4.401
       4.718
       4.814
       4.649
       4.228
       3.638
       2.986
       2.329
       1.687
       1.091
       0.578
       0.161
      -0.173
      -0.440
      -0.644
      -0.792
      -0.884
      -0.905
      -0.830
      -0.656
      -0.396
      -0.061
       0.334
       0.750
       1.116
       1.344
       1.360
       1.141
       0.752
       0.321
      -0.045
      -0.314
      -0.497
      -0.600
      -0.609
      -0.506
      -0.287
       0.023
       0.361
       0.657
       0.901
       1.153
       1.478
       1.877
       2.288
       2.648
       2.929
       3.134
       3.257
       3.236
       2.962
       2.363
       1.473
       0.423
      -0.654
      -1.677
      -2.581
      -3.281
      -3.708
      -3.850
      -3.752
      -3.466
      -3.044
      -2.537
      -1.990
      -1.434
      -0.903
      -0.437
      -0.058
       0.250
       0.522
       0.776
       1.014
       1.242
       1.472
       1.718
       1.987
       2.269
       2.513
       2.641
       2.586
       2.315
       1.806
       1.044
       0.056
      -1.074
      -2.234
      -3.326
      -4.275
      -5.022
      -5.541
      -5.841
      -5.919
      -5.738
      -5.253
      -4.458
      -3.385
      -2.102
      -0.720
       0.637
       1.881
       2.964
       3.838
       4.424
       4.674
       4.619
       4.346
       3.928
       3.393
       2.763
       2.095
       1.446
       0.848
       0.304
      -0.192
      -0.655
      -1.125
      -1.660
      -2.280
      -2.931
      -3.511
      -3.925
      -4.116
      -4.066
      -3.786
      -3.301
      -2.643
      -1.858
      -1.001
      -0.123
       0.728
       1.502
       2.154
       2.674
       3.093
       3.432
       3.659
       3.703
       3.539
       3.228
       2.855
       2.440
       1.936
       1.306
       0.588
      -0.124
      -0.760
      -1.287
      -1.673
      -1.873
      -1.871
      -1.718
      -1.501
      -1.278
      -1.062
      -0.843
      -0.605
      -0.334
      -0.036
       0.238
       0.413
       0.462
       0.448
       0.476
       0.583
       0.713
       0.793
       0.808
       0.775
       0.711
       0.636
       0.603
       0.699
       0.997
       1.508
       2.135
       2.689
       2.986
       2.969
       2.721
       2.360
       1.927
       1.409
       0.831
       0.295
      -0.091
      -0.312
      -0.427
      -0.475
      -0.419
      -0.210
       0.127
       0.496
       0.818
       1.080
       1.302
       1.458
       1.486
       1.349
       1.100
       0.856
       0.707
       0.626
       0.454
      -0.013
      -0.887
      -2.090
      -3.383
      -4.504
      -5.316
      -5.846
      -6.200
      -6.435
      -6.507
      -6.314
      -5.782
      -4.922
      -3.841
      -2.719
      -1.738
      -0.987
      -0.419
       0.087
       0.604
       1.113
       1.547
       1.866
       2.055
       2.097
       1.976
       1.728
       1.469
       1.318
       1.276
       1.202
       0.968
       0.623
       0.398
       0.489
       0.859
       1.262
       1.479
       1.507
       1.528
       1.706
       2.039
       2.368
       2.508
       2.357
       1.924
       1.299
       0.603
      -0.052
      -0.602
      -1.043
      -1.390
      -1.627
      -1.691
      -1.531
      -1.164
      -0.677
      -0.174
       0.284
       0.687
       1.050
       1.388
       1.711
       2.031
       2.334
       2.563
       2.631
       2.480
       2.125
       1.649
       1.160
       0.738
       0.428
       0.235
       0.130
       0.077
       0.064
       0.121
       0.271
       0.459
       0.538
       0.364
      -0.082
      -0.660
      -1.182
      -1.564
      -1.891
      -2.342
      -3.024
      -3.863
      -4.618
      -4.999
      -4.837
      -4.180
      -3.277
      -2.425
      -1.784
      -1.313
      -0.873
      -0.384
       0.099
       0.442
       0.543
       0.404
       0.120
      -0.170
      -0.356
      -0.409
      -0.403
      -0.483
      -0.761
      -1.210
      -1.653
      -1.874
      -1.767
      -1.396
      -0.918
      -0.462
      -0.052
       0.370
       0.871
       1.456
       2.041
       2.515
       2.822
       3.016
       3.235
       3.600
       4.109
       4.616
       4.929
       4.942
       4.707
       4.375
       4.056
       3.725
       3.242
       2.487
       1.476
       0.376
      -0.582
      -1.228
      -1.546
      -1.675
      -1.827
      -2.154
      -2.642
      -3.125
      -3.402
      -3.369
      -3.059
      -2.587
      -2.064
      -1.554
      -1.086
      -0.693
      -0.418
      -0.285
      -0.279
      -0.354
      -0.460
      -0.559
      -0.620
      -0.622
      -0.536
      -0.321
       0.052
       0.572
       1.183
       1.815
       2.414
       2.932
       3.302
       3.434
       3.279
       2.882
       2.364
       1.822
       1.243
       0.531
      -0.370
      -1.389
      -2.382
      -3.236
      -3.919
      -4.430
      -4.754
      -4.872
      -4.796
      -4.554
      -4.139
      -3.524
      -2.739
      -1.908
      -1.159
      -0.514
       0.130
       0.881
       1.736
       2.579
       3.289
       3.829
       4.223
       4.492
       4.630
       4.638
       4.548
       4.379
       4.092
       3.599
       2.861
       1.952
       1.028
       0.234
      -0.357
      -0.747
      -0.982
      -1.165
      -1.426
      -1.830
      -2.269
      -2.501
      -2.362
      -1.954
      -1.585
      -1.492
      -1.621
      -1.698
      -1.515
      -1.131
      -0.786
      -0.650
      -0.676
      -0.703
      -0.637
      -0.542
      -0.560
      -0.784
      -1.178
      -1.596
      -1.885
      -1.994
      -2.005
      -2.042
      -2.151
      -2.235
      -2.141
      -1.799
      -1.300
      -0.829
      -0.536
      -0.452
      -0.505
      -0.603
      -0.712
      -0.870
      -1.150
      -1.585
      -2.094
      -2.489
      -2.566
      -2.254
      -1.677
      -1.067
      -0.585
      -0.220
       0.126
       0.474
       0.706
       0.678
       0.395
       0.056
      -0.080
       0.081
       0.379
       0.539
       0.436
       0.224
       0.198
       0.495
       0.938
       1.177
       1.012
       0.583
       0.236
       0.212
       0.440
       0.652
       0.673
       0.582
       0.593
       0.835
       1.250
       1.704
       2.145
       2.630
       3.218
       3.881
       4.528
       5.092
       5.570
       5.952
       6.156
       6.069
       5.681
       5.141
       4.639
       4.223
       3.738
       2.991
       1.950
       0.765
      -0.390
      -1.453
      -2.460
      -3.422
      -4.258
      -4.854
      -5.156
      -5.212
      -5.095
      -4.839
      -4.448
      -3.967
      -3.507
      -3.155
      -2.868
      -2.478
      -1.849
      -1.021
      -0.183
       0.507
       1.065
       1.633
       2.300
       2.981
       3.487
       3.700
       3.655
       3.481
       3.274
       3.034
       2.729
       2.379
       2.059
       1.810
       1.587
       1.304
       0.935
       0.548
       0.220
      -0.038
      -0.271
      -0.505
      -0.714
      -0.869
      -1.013
      -1.233
      -1.558
      -1.928
      -2.283
      -2.650
      -3.096
      -3.605
      -4.066
      -4.361
      -4.457
      -4.398
      -4.229
      -3.983
      -3.709
      -3.460
      -3.233
      -2.955
      -2.562
      -2.087
      -1.641
      -1.307
      -1.066
      -0.828
      -0.517
      -0.099
       0.404
       0.910
       1.297
       1.490
       1.529
       1.515
       1.491
       1.418
       1.270
       1.113
       1.049
       1.105
       1.197
       1.219
       1.135
       0.977
       0.781
       0.560
       0.351
       0.230
       0.260
       0.444
       0.750
       1.150
       1.610
       2.060
       2.406
       2.597
       2.663
       2.662
       2.575
       2.296
       1.748
       1.018
       0.332
      -0.124
      -0.373
      -0.592
      -0.908
      -1.285
      -1.589
      -1.759
      -1.858
      -2.001
      -2.222
      -2.403
      -2.349
      -1.967
      -1.382
      -0.838
      -0.470
      -0.201
       0.128
       0.528
       0.822
       0.825
       0.529
       0.071
      -0.414
      -0.873
      -1.285
      -1.614
      -1.832
      -1.952
      -2.003
      -1.986
      -1.872
      -1.640
      -1.297
      -0.897
      -0.531
