Origin Time       21/9/2009 8:53:04	 
Lat.              27.3 N	
Long.             91.5 E	
Depth (Km)          8.0
Magnitude         6.2
 Region           BHUTAN                                                           
 Above details taken from IMD 
   
Station Code      GOL
Station Lat.       26.152
Station Long.      90.627
Station Height(m)   56.0
Site Class        C   Vs30 between 200 m/sec to 375 m/sec *  
Record Time       21.09.2009 08:53:18.144
Sampling Rate     200. Hz
 Record Duration  113.830 Sec.
 Direction         Vert. (Up positive)
Max. Acceleration     24.336 cm/sec**2
     
  * For reference see Site Classification link of website 
     
 Base Line Corrected and Low Pass Filtered (Cut Off at 35 Hz) Time History
 Acceleration data in cm/sec**2
    
[...]
       0.778
       0.669
       0.557
       0.378
       0.082
      -0.354
      -0.915
      -1.552
      -2.220
      -2.908
      -3.636
      -4.404
      -5.156
      -5.768
      -6.096
      -6.040
      -5.572
      -4.747
      -3.697
      -2.640
      -1.830
      -1.444
      -1.459
      -1.656
      -1.781
      -1.736
      -1.650
      -1.773
      -2.285
      -3.180
      -4.305
      -5.475
      -6.546
      -7.383
      -7.803
      -7.608
      -6.715
      -5.228
      -3.384
      -1.421
       0.507
       2.287
       3.749
       4.629
       4.658
       3.715
       1.943
      -0.282
      -2.475
      -4.178
      -5.068
      -4.996
      -3.976
      -2.123
       0.422
       3.514
       6.972
      10.512
      13.720
      16.119
      17.326
      17.214
      15.972
      13.998
      11.668
       9.182
       6.582
       3.889
       1.184
      -1.405
      -3.764
      -5.817
      -7.531
      -8.928
     -10.078
     -11.093
     -12.089
     -13.145
     -14.260
     -15.340
     -16.218
     -16.689
     -16.569
     -15.760
     -14.326
     -12.477
     -10.457
      -8.406
      -6.320
      -4.182
      -2.133
      -0.526
       0.199
      -0.255
      -1.897
      -4.483
      -7.677
     -11.190
     -14.791
     -18.215
     -21.097
     -23.009
     -23.607
     -22.783
     -20.673
     -17.525
     -13.547
      -8.935
      -4.016
       0.712
       4.741
       7.754
       9.684
      10.587
      10.531
       9.629
       8.136
       6.423
       4.839
       3.621
       2.931
       2.887
       3.476
       4.427
       5.302
       5.804
       6.009
       6.231
       6.657
       7.130
       7.308
       7.050
       6.571
       6.232
       6.237
       6.581
       7.230
       8.281
       9.895
      12.067
      14.497
      16.724
      18.388
      19.352
      19.620
      19.172
      17.887
      15.641
      12.474
       8.654
       4.639
       0.952
      -1.945
      -3.764
      -4.430
      -4.037
      -2.731
      -0.593
       2.353
       5.972
       9.829
      13.217
      15.455
      16.233
      15.696
      14.186
      11.914
       8.890
       5.143
       0.912
      -3.388
      -7.371
     -10.823
     -13.642
     -15.692
     -16.754
     -16.664
     -15.454
     -13.364
     -10.691
      -7.663
      -4.447
      -1.273
       1.516
       3.606
       4.935
       5.721
       6.261
       6.701
       6.997
       7.054
       6.879
       6.595
       6.292
       5.876
       5.084
       3.669
       1.563
      -1.119
      -4.197
      -7.517
     -10.923
     -14.175
     -16.940
     -18.901
     -19.885
     -19.908
     -19.073
     -17.466
     -15.136
     -12.160
      -8.706
      -5.042
      -1.469
       1.789
       4.625
       6.962
       8.639
       9.470
       9.437
       8.807
       8.012
       7.366
       6.904
       6.498
       6.088
       5.758
       5.590
       5.479
       5.169
       4.480
       3.441
       2.150
       0.538
      -1.632
      -4.483
      -7.750
     -10.833
     -13.163
     -14.492
     -14.838
     -14.221
     -12.537
      -9.707
      -5.933
      -1.768
       2.075
       5.027
       6.876
       7.753
       7.930
       7.589
       6.729
       5.281
       3.347
       1.306
      -0.346
      -1.330
      -1.812
      -2.310
      -3.322
      -4.940
      -6.766
      -8.221
      -8.968
      -9.081
      -8.843
      -8.439
      -7.863
      -7.090
      -6.233
      -5.491
      -4.962
      -4.557
      -4.105
      -3.504
      -2.739
      -1.784
      -0.524
       1.159
       3.244
       5.537
       7.774
       9.780
      11.512
      12.964
      14.009
      14.379
      13.837
      12.390
      10.334
       8.091
       6.027
       4.357
       3.166
       2.435
       2.042
       1.778
       1.406
       0.751
      -0.228
      -1.410
      -2.554
      -3.394
      -3.707
      -3.337
      -2.216
      -0.410
       1.862
       4.273
       6.474
       8.157
       9.122
       9.346
       8.960
       8.125
       6.920
       5.372
       3.598
       1.875
       0.530
      -0.269
      -0.656
      -0.948
      -1.366
      -1.874
      -2.327
      -2.712
      -3.196
      -3.955
      -5.025
      -6.337
      -7.838
      -9.498
     -11.186
     -12.609
     -13.438
     -13.526
     -13.011
     -12.194
     -11.317
     -10.486
      -9.778
      -9.310
      -9.160
      -9.251
      -9.383
      -9.340
      -8.967
      -8.136
      -6.717
      -4.609
      -1.812
       1.542
       5.231
       8.983
      12.520
      15.577
      17.920
      19.366
      19.800
      19.189
      17.596
      15.233
      12.472
       9.750
       7.381
       5.434
       3.799
       2.398
       1.351
       0.883
       1.059
       1.590
       1.973
       1.830
       1.178
       0.371
      -0.180
      -0.236
       0.267
       1.327
       2.904
       4.848
       6.818
       8.358
       9.121
       9.074
       8.414
       7.322
       5.840
       3.977
       1.849
      -0.343
      -2.453
      -4.469
      -6.371
      -7.916
      -8.657
      -8.277
      -6.935
      -5.204
      -3.615
      -2.298
      -1.089
       0.110
       1.167
       1.922
       2.418
       2.858
       3.298
       3.511
       3.246
       2.591
       1.963
       1.712
       1.809
       1.939
       1.859
       1.578
       1.202
       0.716
      -0.016
      -1.073
      -2.373
      -3.729
      -4.923
      -5.758
      -6.124
      -6.083
      -5.893
      -5.894
      -6.284
      -6.944
      -7.511
      -7.673
      -7.406
      -6.914
      -6.345
      -5.630
      -4.610
      -3.306
      -2.003
      -1.059
      -0.647
      -0.694
      -1.073
      -1.828
      -3.136
      -5.013
      -7.044
      -8.466
      -8.637
      -7.489
      -5.539
      -3.452
      -1.584
       0.129
       1.914
       3.807
       5.502
       6.519
       6.515
       5.471
       3.691
       1.684
      -0.009
      -1.032
      -1.359
      -1.211
      -0.785
      -0.035
       1.274
       3.286
       5.790
       8.247
      10.106
      11.124
      11.379
      11.047
      10.247
       9.128
       7.982
       7.136
       6.726
       6.599
       6.428
       5.926
       4.987
       3.698
       2.229
       0.733
      -0.679
      -1.917
      -2.933
      -3.746
      -4.385
      -4.796
      -4.843
      -4.462
      -3.814
      -3.264
      -3.125
      -3.421
      -3.917
      -4.414
      -4.993
      -5.900
      -7.182
      -8.491
      -9.286
      -9.227
      -8.350
      -6.943
      -5.310
      -3.657
      -2.110
      -0.780
       0.228
       0.883
       1.306
       1.710
       2.195
       2.622
       2.730
       2.425
       1.967
       1.839
       2.355
       3.357
       4.304
       4.707
       4.480
       3.905
       3.295
       2.752
       2.192
       1.506
       0.646
      -0.376
      -1.483
      -2.501
      -3.176
      -3.317
      -2.985
      -2.519
      -2.254
      -2.143
      -1.695
      -0.375
       1.913
       4.732
       7.469
       9.739
      11.495
      12.827
      13.747
      14.139
      13.848
      12.744
      10.741
       7.834
       4.195
       0.225
      -3.526
      -6.551
      -8.509
      -9.212
      -8.590
      -6.758
      -4.096
      -1.185
       1.418
       3.406
       4.756
       5.533
       5.671
       4.976
       3.347
       0.968
      -1.743
      -4.406
      -6.889
      -9.238
     -11.402
     -13.079
     -13.858
     -13.497
     -12.135
     -10.241
      -8.362
      -6.869
      -5.871
      -5.277
      -4.891
      -4.490
      -3.899
      -3.038
      -1.923
      -0.618
       0.789
       2.142
       3.177
       3.627
       3.416
       2.774
       2.083
       1.543
       0.998
       0.113
      -1.236
      -2.763
      -3.931
      -4.301
      -3.747
      -2.408
      -0.520
       1.687
       3.950
       5.941
       7.320
       7.880
       7.649
       6.856
       5.782
       4.626
       3.462
       2.300
       1.168
       0.166
      -0.563
      -0.936
      -1.043
      -1.155
      -1.542
      -2.246
      -2.995
      -3.366
      -3.050
      -2.004
      -0.373
       1.665
       3.931
       6.171
       8.054
       9.337
      10.014
      10.267
      10.247
       9.901
       9.027
       7.490
       5.409
       3.129
       1.018
      -0.730
      -2.122
      -3.231
      -4.080
      -4.637
      -4.854
      -4.678
      -4.045
      -2.954
      -1.565
      -0.207
       0.780
       1.261
       1.355
       1.283
       1.160
       0.963
       0.662
       0.321
       0.032
      -0.220
      -0.565
      -1.078
      -1.643
      -2.051
      -2.249
      -2.472
      -3.114
      -4.448
      -6.437
      -8.774
     -11.053
     -12.945
     -14.279
     -15.027
     -15.217
     -14.863
     -13.926
     -12.308
      -9.907
      -6.755
      -3.144
       0.434
       3.501
       5.780
       7.203
       7.831
       7.784
       7.213
       6.281
       5.126
       3.835
       2.446
       0.972
      -0.530
      -1.923
      -3.036
      -3.778
      -4.191
      -4.387
      -4.462
      -4.491
      -4.585
      -4.921
      -5.631
      -6.621
      -7.522
      -7.875
      -7.451
      -6.395
      -5.051
      -3.617
      -1.962
       0.217
       3.069
       6.377
       9.643
      12.403
      14.493
      16.026
      17.143
      17.807
      17.830
      17.035
      15.404
      13.123
      10.559
       8.174
       6.381
       5.373
       5.038
       5.042
       5.046
       4.913
       4.737
       4.684
       4.782
       4.837
       4.544
       3.697
       2.347
       0.793
      -0.613
      -1.648
      -2.226
      -2.312
      -1.880
      -0.999
       0.118
       1.162
       1.868
       2.104
       1.831
       1.041
      -0.207
      -1.702
      -3.117
      -4.200
      -4.962
      -5.655
      -6.490
      -7.377
      -7.986
      -8.055
      -7.629
      -6.989
      -6.403
      -6.010
      -5.922
      -6.326
      -7.373
      -8.947
     -10.620
     -11.897
     -12.579
     -12.877
     -13.116
     -13.318
     -13.071
     -11.831
      -9.372
      -5.985
      -2.287
       1.157
       4.072
       6.408
       8.145
       9.187
       9.441
       8.924
       7.752
       6.030
       3.810
       1.185
      -1.614
      -4.251
      -6.413
      -7.914
      -8.665
      -8.596
      -7.648
      -5.903
      -3.709
      -1.593
       0.003
       0.958
       1.462
       1.783
       2.031
       2.117
       1.922
       1.535
       1.306
       1.619
       2.591
       3.993
       5.464
       6.789
       7.985
       9.169
      10.349
      11.355
      11.957
      12.038
      11.628
      10.801
       9.586
       7.996
       6.129
       4.206
       2.470
       1.056
      -0.062
      -0.978
      -1.719
      -2.143
      -1.967
      -0.916
       1.071
       3.733
       6.561
       9.056
      10.935
      12.147
      12.685
      12.433
      11.241
       9.150
       6.507
       3.813
       1.476
      -0.314
      -1.512
      -2.131
      -2.230
      -1.968
      -1.578
      -1.265
      -1.127
      -1.192
      -1.453
      -1.855
      -2.282
      -2.674
      -3.185
      -4.128
      -5.666
      -7.520
      -9.081
      -9.852
      -9.807
      -9.354
      -8.996
      -8.992
      -9.302
      -9.803
     -10.487
     -11.433
     -12.613
     -13.770
     -14.521
     -14.619
     -14.160
     -13.515
     -13.006
     -12.641
     -12.180
     -11.446
     -10.503
      -9.520
      -8.545
      -7.460
      -6.165
      -4.724
      -3.302
      -1.981
      -0.718
       0.565
       1.865
       3.085
       4.121
       4.912
       5.396
       5.435
       4.889
       3.811
       2.565
       1.678
       1.502
       1.965
       2.664
       3.196
       3.456
       3.657
       4.140
       5.114
       6.570
       8.371
      10.397
      12.565
      14.760
      16.807
      18.514
      19.733
      20.342
      20.165
      18.969
      16.633
      13.346
       9.631
       6.112
       3.190
       0.955
      -0.588
      -1.254
      -0.708
       1.194
       4.108
       7.284
      10.007
      11.963
      13.187
      13.738
      13.503
      12.367
      10.513
       8.430
       6.579
       5.088
       3.786
       2.506
       1.279
       0.225
      -0.684
      -1.641
      -2.741
      -3.754
      -4.254
      -4.017
      -3.278
      -2.572
      -2.327
      -2.610
      -3.275
      -4.264
      -5.713
      -7.750
     -10.233
     -12.721
     -14.747
     -16.100
     -16.846
     -17.146
     -17.111
     -16.835
     -16.483
     -16.268
     -16.311
     -16.528
     -16.691
     -16.609
     -16.256
     -15.740
     -15.155
     -14.495
     -13.697
     -12.759
     -11.778
     -10.856
      -9.981
      -9.022
      -7.889
      -6.699
      -5.757
      -5.304
      -5.260
      -5.245
      -4.921
      -4.308
      -3.727
      -3.406
      -3.197
      -2.706
      -1.712
      -0.411
       0.782
       1.680
       2.560
       3.940
       6.096
       8.796
      11.485
      13.729
      15.494
      17.061
      18.724
      20.547
      22.317
      23.684
      24.336
      24.107
      23.012
      21.234
      19.032
      16.599
      13.979
      11.117
       7.991
       4.748
       1.765
      -0.423
      -1.306
      -0.649
       1.338
       4.057
       6.792
       9.009
      10.500
      11.326
      11.646
      11.573
      11.143
      10.359
       9.214
       7.697
       5.814
       3.648
       1.412
      -0.580
      -2.031
      -2.822
      -3.106
      -3.228
      -3.500
      -3.986
      -4.541
      -5.076
      -5.732
      -6.744
      -8.135
      -9.620
     -10.859
     -11.789
     -12.677
     -13.807
     -15.143
     -16.306
     -16.834
     -16.465
     -15.239
     -13.447
     -11.541
      -9.992
      -9.089
      -8.791
      -8.797
      -8.812
      -8.768
      -8.850
      -9.317
     -10.276
     -11.567
     -12.831
     -13.698
     -13.972
     -13.684
     -12.986
     -11.963
     -10.569
      -8.733
      -6.521
      -4.149
      -1.818
       0.462
       2.864
       5.541
       8.429
      11.247
      13.640
      15.322
      16.133
      16.072
      15.316
      14.163
      12.908
      11.705
      10.512
       9.145
       7.453
       5.512
       3.668
       2.339
       1.747
       1.814
       2.295
       3.006
       3.912
       5.026
       6.259
       7.426
       8.422
       9.386
      10.605
      12.192
      13.869
      15.093
      15.403
      14.649
      12.958
      10.548
       7.605
       4.299
       0.850
      -2.479
      -5.489
      -8.141
     -10.516
     -12.652
     -14.422
     -15.555
     -15.792
     -15.040
     -13.423
     -11.189
      -8.540
      -5.566
      -2.351
       0.854
       3.640
       5.646
       6.742
       6.988
       6.466
       5.209
       3.275
       0.873
      -1.597
      -3.682
      -5.071
      -5.721
      -5.810
      -5.589
      -5.249
      -4.879
      -4.485
      -4.014
      -3.355
      -2.359
      -0.885
       1.092
       3.387
       5.626
       7.440
       8.674
       9.430
       9.891
      10.103
       9.907
       9.100
       7.673
       5.902
       4.201
       2.882
       2.012
       1.442
       0.902
       0.109
      -1.129
      -2.818
      -4.737
      -6.518
      -7.828
      -8.538
      -8.760
      -8.724
      -8.592
      -8.363
      -7.910
      -7.109
      -5.958
      -4.608
      -3.280
      -2.132
      -1.180
      -0.357
       0.337
       0.765
       0.744
       0.219
      -0.669
      -1.691
      -2.696
      -3.676
      -4.683
      -5.674
      -6.498
      -7.018
      -7.258
      -7.389
      -7.564
      -7.752
      -7.747
      -7.324
      -6.374
      -4.941
      -3.149
      -1.133
       0.956
       2.909
       4.468
       5.419
       5.731
       5.607
       5.396
       5.419
       5.841
       6.670
       7.844
       9.289
      10.889
      12.436
      13.643
      14.195
      13.779
      12.155
       9.290
       5.505
       1.422
      -2.301
      -5.258
      -7.380
      -8.756
      -9.426
      -9.332
      -8.444
      -6.908
      -5.024
      -3.073
      -1.183
       0.624
       2.290
       3.652
       4.538
       4.926
       4.986
       4.941
       4.888
       4.735
       4.351
       3.788
       3.370
       3.550
       4.641
       6.588
       8.937
      11.026
      12.322
      12.660
      12.223
      11.328
      10.208
       8.947
       7.547
       5.996
       4.310
       2.530
       0.756
      -0.826
      -1.955
      -2.406
      -2.129
      -1.305
      -0.243
       0.805
       1.739
       2.539
       3.113
       3.235
       2.665
       1.299
      -0.785
      -3.429
      -6.506
      -9.904
     -13.400
     -16.565
     -18.851
     -19.803
     -19.299
     -17.659
     -15.545
     -13.664
     -12.419
     -11.753
     -11.275
     -10.589
      -9.562
      -8.364
      -7.261
      -6.376
      -5.615
      -4.818
      -3.961
      -3.199
      -2.714
      -2.538
      -2.512
      -2.418
      -2.135
      -1.684
      -1.153
      -0.612
      -0.091
       0.400
       0.867
       1.366
       1.997
       2.852
       3.946
       5.207
       6.546
       7.936
       9.412
      11.000
      12.612
      14.023
      14.957
      15.225
      14.797
      13.774
      12.286
      10.411
       8.162
       5.539
       2.632
      -0.333
      -3.022
      -5.133
      -6.529
      -7.282
      -7.596
      -7.651
      -7.518
      -7.160
      -6.510
      -5.550
      -4.331
      -2.958
      -1.556
      -0.245
       0.883
       1.766
       2.363
       2.642
       2.589
       2.244
       1.718
       1.172
       0.766
       0.619
       0.762
       1.103
       1.430
       1.508
       1.201
       0.542
      -0.329
      -1.276
      -2.217
      -3.071
      -3.674
      -3.797
      -3.251
      -1.996
      -0.177
       1.900
       3.842
       5.279
       6.002
       6.028
       5.513
       4.576
       3.215
       1.406
      -0.731
      -2.902
      -4.794
      -6.254
      -7.313
      -8.062
      -8.496
      -8.490
      -7.906
      -6.718
      -5.037
      -3.074
      -1.081
       0.687
       2.011
       2.774
       3.010
       2.855
       2.453
       1.903
       1.275
       0.631
      -0.015
      -0.726
      -1.590
      -2.591
      -3.540
      -4.151
      -4.229
      -3.773
      -2.930
      -1.862
      -0.695
       0.400
       1.141
       1.252
       0.703
      -0.199
      -0.979
      -1.324
      -1.290
      -1.194
      -1.255
      -1.324
      -0.977
       0.143
       2.029
       4.304
       6.429
       7.942
       8.582
       8.272
       7.051
       5.056
       2.571
      -0.011
      -2.345
      -4.260
      -5.723
