Origin Time       24/2/2009 17:46:13 
Lat.              25.9 N 
Long.             94.3 E 
Depth (Km)         10.0
Magnitude         4.8
 Region           INDIA(NAGALAND)-MYANMAR-BORD-REG                                 
 Above details taken from IMD 
   
Station Code      GOL
Station Lat.       26.516
Station Long.      93.972
Station Height(m)   75.0
Site Class        B   Vs30 between 375 m/sec to 700 m/sec *  
Record Time       24.02.2009 17:46:29.554
Sampling Rate     200. Hz
 Record Duration   73.570 Sec.
 Direction         Vert. (Up positive)
Max. Acceleration      5.261 cm/sec**2
     
  * For reference see Site Classification link of website 
     
 Base Line Corrected and Low Pass Filtered (Cut Off at 35 Hz) Time History
 Acceleration data in cm/sec**2
    
[...]
       0.934
       0.501
      -0.021
      -0.409
      -0.547
      -0.472
      -0.324
      -0.236
      -0.244
      -0.272
      -0.200
       0.031
       0.377
       0.713
       0.904
       0.854
       0.541
       0.063
      -0.382
      -0.589
      -0.488
      -0.198
       0.063
       0.137
       0.029
      -0.131
      -0.222
      -0.233
      -0.234
      -0.265
      -0.269
      -0.160
       0.054
       0.241
       0.256
       0.077
      -0.173
      -0.340
      -0.365
      -0.316
      -0.293
      -0.301
      -0.247
      -0.051
       0.228
       0.410
       0.358
       0.108
      -0.165
      -0.310
      -0.323
      -0.298
      -0.309
      -0.339
      -0.320
      -0.204
      -0.011
       0.195
       0.355
       0.450
       0.497
       0.522
       0.534
       0.517
       0.441
       0.290
       0.087
      -0.096
      -0.183
      -0.163
      -0.118
      -0.158
      -0.308
      -0.447
      -0.390
      -0.056
       0.437
       0.840
       0.959
       0.778
       0.429
       0.078
      -0.153
      -0.210
      -0.126
      -0.031
      -0.103
      -0.431
      -0.902
      -1.256
      -1.275
      -0.951
      -0.456
       0.020
       0.401
       0.703
       0.920
       0.977
       0.797
       0.408
      -0.044
      -0.392
      -0.558
      -0.566
      -0.468
      -0.272
       0.046
       0.449
       0.793
       0.896
       0.690
       0.305
      -0.015
      -0.100
       0.010
       0.127
       0.089
      -0.098
      -0.291
      -0.350
      -0.247
      -0.060
       0.100
       0.158
       0.093
      -0.078
      -0.312
      -0.542
      -0.696
      -0.731
      -0.660
      -0.529
      -0.363
      -0.145
       0.136
       0.412
       0.553
       0.491
       0.326
       0.254
       0.364
       0.528
       0.532
       0.317
       0.058
       0.000
       0.213
       0.517
       0.652
       0.490
       0.106
      -0.312
      -0.609
      -0.727
      -0.685
      -0.516
      -0.254
       0.028
       0.208
       0.168
      -0.105
      -0.483
      -0.770
      -0.826
      -0.665
      -0.423
      -0.231
      -0.112
       0.015
       0.215
       0.440
       0.569
       0.542
       0.430
       0.370
       0.419
       0.496
       0.462
       0.260
      -0.036
      -0.289
      -0.403
      -0.363
      -0.207
       0.012
       0.230
       0.374
       0.385
       0.248
       0.015
      -0.205
      -0.311
      -0.275
      -0.178
      -0.141
      -0.221
      -0.367
      -0.478
      -0.490
      -0.397
      -0.206
       0.085
       0.445
       0.761
       0.867
       0.658
       0.182
      -0.361
      -0.730
      -0.794
      -0.602
      -0.333
      -0.149
      -0.081
      -0.031
       0.114
       0.360
       0.583
       0.621
       0.420
       0.101
      -0.118
      -0.082
       0.177
       0.461
       0.554
       0.371
       0.021
      -0.265
      -0.284
       0.000
       0.428
       0.761
       0.850
       0.713
       0.474
       0.229
      -0.012
      -0.273
      -0.526
      -0.688
      -0.706
      -0.617
      -0.521
      -0.483
      -0.470
      -0.377
      -0.129
       0.236
       0.563
       0.674
       0.506
       0.173
      -0.128
      -0.280
      -0.326
      -0.364
      -0.412
      -0.381
      -0.204
       0.050
       0.210
       0.181
       0.058
       0.037
       0.206
       0.414
       0.408
       0.088
      -0.352
      -0.579
      -0.408
       0.043
       0.468
       0.627
       0.483
       0.156
      -0.201
      -0.489
      -0.664
      -0.720
      -0.671
      -0.535
      -0.319
      -0.026
       0.320
       0.652
       0.877
       0.908
       0.703
       0.280
      -0.262
      -0.755
      -1.032
      -1.022
      -0.797
      -0.513
      -0.273
      -0.059
       0.196
       0.476
       0.636
       0.525
       0.160
      -0.237
      -0.415
      -0.307
      -0.071
       0.101
       0.182
       0.297
       0.526
       0.744
       0.716
       0.346
      -0.187
      -0.550
      -0.535
      -0.208
       0.183
       0.430
       0.491
       0.425
       0.265
      -0.014
      -0.402
      -0.758
      -0.844
      -0.509
       0.153
       0.806
       1.091
       0.896
       0.445
       0.103
       0.073
       0.244
       0.325
       0.130
      -0.260
      -0.608
      -0.763
      -0.781
      -0.812
      -0.893
      -0.885
      -0.619
      -0.100
       0.452
       0.774
       0.786
       0.634
       0.517
       0.477
       0.365
       0.022
      -0.515
      -0.989
      -1.106
      -0.769
      -0.162
       0.371
       0.566
       0.404
       0.099
      -0.093
      -0.081
       0.018
       0.031
      -0.074
      -0.159
      -0.088
       0.089
       0.144
      -0.097
      -0.543
      -0.868
      -0.805
      -0.389
       0.078
       0.327
       0.355
       0.370
       0.535
       0.780
       0.871
       0.656
       0.232
      -0.126
      -0.182
       0.068
       0.412
       0.601
       0.517
       0.225
      -0.117
      -0.361
      -0.426
      -0.307
      -0.083
       0.111
       0.167
       0.060
      -0.146
      -0.373
      -0.583
      -0.776
      -0.948
      -1.065
      -1.085
      -0.988
      -0.780
      -0.452
       0.017
       0.587
       1.082
       1.244
       0.924
       0.259
      -0.385
      -0.678
      -0.565
      -0.265
      -0.045
       0.000
      -0.036
      -0.028
       0.042
       0.112
       0.153
       0.225
       0.396
       0.640
       0.846
       0.933
       0.926
       0.927
       1.014
       1.176
       1.335
       1.394
       1.291
       1.033
       0.706
       0.423
       0.245
       0.129
      -0.024
      -0.258
      -0.510
      -0.651
      -0.604
      -0.400
      -0.143
       0.068
       0.185
       0.188
       0.053
      -0.251
      -0.720
      -1.255
      -1.669
      -1.776
      -1.537
      -1.105
      -0.721
      -0.527
      -0.472
      -0.389
      -0.180
       0.082
       0.221
       0.117
      -0.210
      -0.633
      -1.017
      -1.286
      -1.392
      -1.256
      -0.783
       0.019
       0.926
       1.542
       1.545
       0.924
       0.009
      -0.759
      -1.107
      -1.041
      -0.756
      -0.459
      -0.256
      -0.121
       0.055
       0.370
       0.815
       1.243
       1.449
       1.315
       0.910
       0.452
       0.169
       0.153
       0.339
       0.582
       0.758
       0.797
       0.676
       0.432
       0.175
       0.053
       0.152
       0.430
       0.754
       1.011
       1.164
       1.215
       1.153
       0.945
       0.593
       0.147
      -0.326
      -0.790
      -1.229
      -1.598
      -1.811
      -1.792
      -1.547
      -1.188
      -0.871
      -0.693
      -0.641
      -0.608
      -0.487
      -0.246
       0.049
       0.283
       0.380
       0.353
       0.292
       0.301
       0.428
       0.650
       0.885
       1.036
       1.019
       0.811
       0.473
       0.140
      -0.031
       0.034
       0.251
       0.398
       0.280
      -0.115
      -0.578
      -0.848
      -0.819
      -0.605
      -0.416
      -0.361
      -0.367
      -0.280
      -0.037
       0.262
       0.438
       0.380
       0.126
      -0.173
      -0.350
      -0.317
      -0.135
       0.005
      -0.090
      -0.440
      -0.840
      -0.991
      -0.729
      -0.146
       0.479
       0.876
       0.944
       0.770
       0.512
       0.275
       0.080
      -0.097
      -0.261
      -0.388
      -0.438
      -0.372
      -0.169
       0.153
       0.511
       0.770
       0.820
       0.663
       0.434
       0.301
       0.327
       0.403
       0.343
       0.052
      -0.366
      -0.669
      -0.671
      -0.392
      -0.020
       0.254
       0.373
       0.396
       0.384
       0.331
       0.195
      -0.012
      -0.198
      -0.265
      -0.214
      -0.146
      -0.160
      -0.244
      -0.284
      -0.197
      -0.046
      -0.015
      -0.241
      -0.666
      -1.053
      -1.154
      -0.869
      -0.284
       0.414
       1.033
       1.432
       1.527
       1.311
       0.878
       0.394
       0.021
      -0.162
      -0.185
      -0.129
      -0.058
       0.024
       0.140
       0.289
       0.404
       0.379
       0.152
      -0.228
      -0.622
      -0.904
      -1.059
      -1.185
      -1.380
      -1.616
      -1.729
      -1.547
      -1.044
      -0.385
       0.190
       0.514
       0.561
       0.391
       0.084
      -0.268
      -0.522
      -0.518
      -0.197
       0.308
       0.752
       0.974
       1.015
       1.020
       1.050
       0.997
       0.719
       0.224
      -0.301
      -0.645
      -0.743
      -0.677
      -0.535
      -0.323
      -0.014
       0.342
       0.604
       0.673
       0.616
       0.617
       0.784
       1.012
       1.085
       0.911
       0.619
       0.428
       0.439
       0.586
       0.739
       0.805
       0.741
       0.511
       0.109
      -0.395
      -0.841
      -1.068
      -1.007
      -0.705
      -0.277
       0.163
       0.538
       0.805
       0.944
       0.952
       0.869
       0.767
       0.715
       0.742
       0.835
       0.957
       1.053
       1.057
       0.921
       0.673
       0.431
       0.341
       0.445
       0.613
       0.616
       0.287
      -0.350
      -1.093
      -1.697
      -2.000
      -1.999
      -1.841
      -1.755
      -1.925
      -2.359
      -2.850
      -3.112
      -2.975
      -2.502
      -1.907
      -1.386
      -1.017
      -0.808
      -0.782
      -0.981
      -1.378
      -1.801
      -1.981
      -1.711
      -1.011
      -0.152
       0.496
       0.708
       0.546
       0.306
       0.309
       0.690
       1.320
       1.894
       2.135
       1.977
       1.599
       1.291
       1.247
       1.428
       1.598
       1.510
       1.094
       0.503
      -0.001
      -0.232
      -0.180
       0.013
       0.177
       0.221
       0.183
       0.182
       0.312
       0.554
       0.758
       0.743
       0.436
      -0.043
      -0.434
      -0.513
      -0.263
       0.128
       0.424
       0.516
       0.467
       0.422
       0.482
       0.632
       0.746
       0.671
       0.318
      -0.285
      -1.006
      -1.652
      -2.009
      -1.915
      -1.362
      -0.540
       0.272
       0.898
       1.345
       1.662
       1.776
       1.518
       0.831
      -0.091
      -0.893
      -1.288
      -1.202
      -0.759
      -0.175
       0.338
       0.631
       0.660
       0.481
       0.197
      -0.101
      -0.375
      -0.627
      -0.883
      -1.159
      -1.429
      -1.600
      -1.535
      -1.141
      -0.453
       0.341
       0.988
       1.317
       1.344
       1.244
       1.199
       1.239
       1.223
       0.997
       0.553
       0.054
      -0.338
      -0.605
      -0.861
      -1.189
      -1.518
      -1.672
      -1.546
      -1.219
      -0.899
      -0.747
      -0.749
      -0.748
      -0.589
      -0.226
       0.280
       0.818
       1.243
       1.403
       1.218
       0.810
       0.525
       0.754
       1.643
       2.938
       4.087
       4.554
       4.120
       2.990
       1.636
       0.494
      -0.259
      -0.694
      -0.947
      -1.076
      -1.070
      -0.956
      -0.849
      -0.875
      -1.062
      -1.308
      -1.478
      -1.526
      -1.521
      -1.558
      -1.647
      -1.716
      -1.697
      -1.576
      -1.339
      -0.930
      -0.308
       0.423
       0.997
       1.171
       0.932
       0.523
       0.223
       0.124
       0.105
       0.033
      -0.070
      -0.054
       0.172
       0.522
       0.817
       0.952
       0.958
       0.910
       0.809
       0.595
       0.262
      -0.080
      -0.269
      -0.214
       0.049
       0.411
       0.768
       1.029
       1.075
       0.783
       0.139
      -0.664
      -1.309
      -1.575
      -1.492
      -1.291
      -1.191
      -1.243
      -1.340
      -1.340
      -1.189
      -0.945
      -0.716
      -0.571
      -0.510
      -0.494
      -0.494
      -0.505
      -0.515
      -0.494
      -0.408
      -0.259
      -0.098
       0.007
       0.026
       0.002
       0.015
       0.104
       0.215
       0.253
       0.186
       0.131
       0.281
       0.744
       1.407
       1.977
       2.170
       1.909
       1.357
       0.780
       0.377
       0.219
       0.308
       0.610
       1.020
       1.347
       1.401
       1.115
       0.555
      -0.180
      -1.010
      -1.841
      -2.540
      -2.972
      -3.087
      -2.950
      -2.666
      -2.284
      -1.764
      -1.060
      -0.257
       0.400
       0.670
       0.533
       0.228
       0.045
       0.074
       0.177
       0.218
       0.273
       0.547
       1.076
       1.572
       1.627
       1.102
       0.289
      -0.342
      -0.542
      -0.432
      -0.280
      -0.199
      -0.092
       0.168
       0.557
       0.931
       1.149
       1.133
       0.835
       0.249
      -0.515
      -1.206
      -1.566
      -1.529
      -1.271
      -1.040
      -0.937
      -0.876
      -0.717
      -0.390
       0.105
       0.746
       1.475
       2.163
       2.675
       3.031
       3.432
       4.056
       4.797
       5.261
       5.064
       4.163
       2.879
       1.618
       0.588
      -0.251
      -0.990
      -1.593
      -1.918
      -1.909
      -1.718
      -1.615
      -1.769
      -2.118
      -2.431
      -2.512
      -2.363
      -2.178
      -2.154
      -2.282
      -2.308
      -1.945
      -1.160
      -0.292
       0.144
      -0.153
      -1.029
      -1.980
      -2.518
      -2.471
      -1.987
      -1.322
      -0.631
       0.049
       0.710
       1.296
       1.727
       1.975
       2.097
       2.187
       2.306
       2.438
       2.519
       2.488
       2.319
       2.002
       1.551
       1.027
       0.561
       0.308
       0.345
       0.582
       0.757
       0.564
      -0.145
      -1.200
      -2.179
      -2.683
      -2.621
      -2.239
      -1.898
      -1.805
      -1.910
      -2.002
      -1.892
      -1.532
      -1.022
      -0.533
      -0.220
      -0.147
      -0.266
      -0.467
      -0.676
      -0.897
      -1.158
      -1.388
      -1.382
      -0.945
      -0.076
       0.978
       1.885
       2.453
       2.726
       2.877
       3.015
       3.077
       2.892
       2.362
       1.618
       0.976
       0.716
       0.861
       1.179
       1.394
       1.395
       1.245
       1.050
       0.834
       0.515
      -0.012
      -0.775
      -1.655
      -2.424
      -2.889
      -3.042
      -3.065
      -3.152
      -3.318
      -3.394
      -3.206
      -2.736
      -2.115
      -1.492
      -0.953
      -0.535
      -0.285
      -0.249
      -0.379
      -0.482
      -0.315
       0.205
       0.897
       1.430
       1.617
       1.601
       1.730
       2.223
       2.929
       3.429
       3.375
       2.765
       1.912
       1.198
       0.823
       0.779
       0.949
       1.195
       1.367
       1.315
       0.974
       0.431
      -0.112
      -0.497
      -0.716
      -0.867
      -1.023
      -1.149
      -1.168
      -1.085
      -1.023
      -1.116
      -1.376
      -1.677
      -1.865
      -1.886
      -1.774
      -1.528
      -1.042
      -0.194
       0.970
       2.180
       3.089
       3.517
       3.520
       3.243
       2.725
       1.901
       0.775
      -0.448
      -1.450
      -2.009
      -2.123
      -1.947
      -1.649
      -1.361
      -1.217
      -1.370
      -1.885
      -2.615
      -3.222
      -3.384
      -3.029
      -2.362
      -1.662
      -1.034
      -0.355
       0.527
       1.562
       2.485
       3.015
       3.066
       2.770
       2.341
       1.906
       1.464
       0.968
       0.445
       0.033
      -0.110
       0.042
       0.317
       0.458
       0.309
      -0.088
      -0.541
      -0.844
      -0.890
      -0.737
      -0.575
      -0.593
      -0.823
      -1.092
      -1.153
      -0.900
      -0.470
      -0.144
      -0.126
      -0.370
      -0.612
      -0.574
      -0.179
       0.370
       0.731
       0.687
       0.310
      -0.100
      -0.255
      -0.074
       0.303
       0.673
       0.948
       1.189
       1.489
       1.827
       2.053
       2.003
       1.632
       1.021
       0.300
      -0.422
      -1.042
      -1.431
      -1.445
      -1.005
      -0.191
       0.733
       1.413
       1.575
       1.154
       0.307
      -0.654
      -1.388
      -1.654
      -1.419
      -0.897
      -0.456
      -0.430
      -0.919
      -1.709
      -2.394
      -2.644
      -2.416
      -1.942
      -1.542
      -1.403
      -1.494
      -1.615
      -1.536
      -1.116
      -0.368
       0.554
       1.438
       2.117
       2.555
       2.824
       3.021
       3.163
       3.181
       3.002
       2.632
       2.155
       1.649
       1.114
       0.503
      -0.172
      -0.758
      -0.984
      -0.627
       0.275
       1.348
       2.056
       2.038
       1.333
       0.307
      -0.673
      -1.496
      -2.264
      -3.014
      -3.538
      -3.498
      -2.737
      -1.462
      -0.121
       0.894
       1.477
       1.803
       2.128
       2.545
       2.881
       2.816
       2.142
       0.987
      -0.177
      -0.779
      -0.531
       0.313
       1.078
       1.132
       0.343
      -0.865
      -1.885
      -2.380
      -2.415
      -2.268
      -2.145
      -2.058
      -1.896
      -1.560
      -1.047
      -0.445
       0.150
       0.732
       1.371
       2.085
       2.709
       2.964
       2.695
       2.052
       1.407
       1.046
       0.927
       0.748
       0.247
      -0.556
      -1.403
      -2.036
      -2.386
      -2.507
      -2.410
      -2.043
      -1.439
      -0.826
      -0.502
      -0.631
      -1.155
      -1.877
      -2.596
      -3.162
      -3.486
      -3.538
      -3.361
      -3.028
      -2.599
      -2.111
      -1.607
      -1.138
      -0.725
      -0.335
       0.097
       0.613
       1.177
       1.664
       1.894
       1.741
       1.262
       0.747
       0.548
       0.776
       1.149
       1.218
       0.780
       0.097
      -0.306
      -0.068
       0.736
       1.678
       2.293
       2.385
       2.106
       1.811
       1.781
       2.023
       2.296
       2.336
       2.078
       1.649
       1.206
       0.794
       0.384
      -0.022
      -0.360
      -0.565
      -0.613
      -0.493
      -0.196
       0.242
       0.688
       0.940
       0.849
       0.457
      -0.007
      -0.283
      -0.276
      -0.096
       0.073
       0.132
       0.090
      -0.048
      -0.367
      -0.941
      -1.655
      -2.168
      -2.154
      -1.613
      -0.932
      -0.605
      -0.833
      -1.369
      -1.744
      -1.649
      -1.123
      -0.428
       0.204
       0.691
       1.028
       1.167
       1.056
       0.797
       0.694
       1.048
       1.831
       2.598
       2.789
