Origin Time       14/7/2012 19:55:18	
Lat.              25.5 N	
Long.             94.2 E	
Depth (Km)         35.0
Magnitude         5.5
 Region           Kohima-Nagaland                                                  
 Above details taken from IMD 
   
Station Code      GOL
Station Lat.       26.515
Station Long.      93.972
Station Height(m)   93.0
Site Class        B   Vs30 between 375 m/sec to 700 m/sec *  
Record Time       14.07.2012 19:55:39.294
Sampling Rate     200. Hz
 Record Duration   79.475 Sec.
 Direction         Vert. (Up positive)
Max. Acceleration     16.254 cm/sec**2
     
  * For reference see Site Classification link of website 
     
 Base Line Corrected and Low Pass Filtered (Cut Off at 35 Hz) Time History
 Acceleration data in cm/sec**2
    
[...]
       1.498
       1.668
       1.778
       1.687
       1.323
       0.729
       0.052
      -0.505
      -0.779
      -0.739
      -0.492
      -0.190
       0.058
       0.185
       0.127
      -0.138
      -0.489
      -0.673
      -0.490
       0.024
       0.604
       0.964
       0.983
       0.719
       0.290
      -0.218
      -0.733
      -1.131
      -1.266
      -1.092
      -0.735
      -0.418
      -0.295
      -0.338
      -0.402
      -0.363
      -0.209
      -0.006
       0.202
       0.427
       0.673
       0.874
       0.932
       0.831
       0.715
       0.789
       1.108
       1.443
       1.393
       0.704
      -0.467
      -1.603
      -2.199
      -2.145
      -1.734
      -1.310
      -0.954
      -0.544
      -0.089
       0.139
      -0.152
      -0.899
      -1.630
      -1.805
      -1.257
      -0.315
       0.471
       0.738
       0.523
       0.131
      -0.140
      -0.160
       0.061
       0.438
       0.801
       0.905
       0.565
      -0.130
      -0.794
      -1.004
      -0.612
       0.164
       0.941
       1.438
       1.611
       1.580
       1.467
       1.283
       0.980
       0.607
       0.371
       0.477
       0.880
       1.228
       1.122
       0.482
      -0.374
      -0.999
      -1.169
      -0.978
      -0.664
      -0.405
      -0.266
      -0.272
      -0.425
      -0.662
      -0.831
      -0.784
      -0.493
      -0.062
       0.367
       0.721
       0.991
       1.169
       1.191
       0.981
       0.545
       0.002
      -0.485
      -0.813
      -0.998
      -1.099
      -1.130
      -1.037
      -0.789
      -0.473
      -0.266
      -0.291
      -0.483
      -0.616
      -0.493
      -0.107
       0.369
       0.743
       0.925
       0.899
       0.644
       0.158
      -0.426
      -0.823
      -0.795
      -0.380
       0.101
       0.297
       0.120
      -0.203
      -0.354
      -0.214
       0.026
       0.036
      -0.356
      -0.996
      -1.494
      -1.544
      -1.173
      -0.690
      -0.373
      -0.198
       0.105
       0.729
       1.522
       2.061
       2.012
       1.435
       0.743
       0.337
       0.275
       0.290
       0.100
      -0.323
      -0.795
      -1.141
      -1.323
      -1.384
      -1.333
      -1.155
      -0.895
      -0.654
      -0.501
      -0.413
      -0.316
      -0.185
      -0.074
      -0.049
      -0.095
      -0.102
       0.035
       0.285
       0.470
       0.400
       0.083
      -0.223
      -0.202
       0.224
       0.779
       1.051
       0.837
       0.292
      -0.216
      -0.384
      -0.154
       0.310
       0.756
       0.991
       0.946
       0.677
       0.313
       0.008
      -0.105
       0.042
       0.411
       0.855
       1.179
       1.224
       0.949
       0.455
      -0.070
      -0.427
      -0.504
      -0.339
      -0.116
      -0.060
      -0.273
      -0.614
      -0.786
      -0.580
      -0.091
       0.326
       0.366
       0.050
      -0.308
      -0.379
      -0.081
       0.391
       0.752
       0.839
       0.704
       0.527
       0.429
       0.355
       0.160
      -0.180
      -0.466
      -0.434
      -0.025
       0.498
       0.725
       0.445
      -0.154
      -0.628
      -0.628
      -0.144
       0.518
       0.957
       0.890
       0.297
      -0.534
      -1.120
      -1.083
      -0.454
       0.332
       0.789
       0.778
       0.548
       0.405
       0.371
       0.200
      -0.321
      -1.088
      -1.708
      -1.803
      -1.315
      -0.561
       0.037
       0.294
       0.369
       0.518
       0.781
       0.942
       0.796
       0.426
       0.161
       0.258
       0.643
       0.987
       1.033
       0.844
       0.717
       0.836
       1.034
       0.918
       0.273
      -0.666
      -1.371
      -1.467
      -1.055
      -0.624
      -0.647
      -1.194
      -1.865
      -2.092
      -1.578
      -0.531
       0.495
       1.022
       0.965
       0.620
       0.367
       0.380
       0.602
       0.949
       1.442
       2.090
       2.684
       2.852
       2.371
       1.396
       0.343
      -0.423
      -0.796
      -0.891
      -0.891
      -0.912
      -0.953
      -0.924
      -0.743
      -0.464
      -0.313
      -0.522
      -1.079
      -1.656
      -1.857
      -1.549
      -0.958
      -0.427
      -0.118
       0.036
       0.155
       0.243
       0.205
      -0.015
      -0.351
      -0.646
      -0.761
      -0.673
      -0.476
      -0.292
      -0.172
      -0.060
       0.150
       0.518
       0.988
       1.398
       1.580
       1.469
       1.116
       0.640
       0.192
      -0.077
      -0.099
       0.011
      -0.033
      -0.470
      -1.222
      -1.876
      -1.984
      -1.450
      -0.629
      -0.030
       0.117
       0.019
       0.083
       0.495
       1.015
       1.196
       0.819
       0.138
      -0.327
      -0.243
       0.252
       0.688
       0.691
       0.308
      -0.062
      -0.058
       0.290
       0.579
       0.416
      -0.169
      -0.732
      -0.830
      -0.432
       0.112
       0.461
       0.564
       0.562
       0.515
       0.301
      -0.203
      -0.881
      -1.379
      -1.381
      -0.915
      -0.379
      -0.238
      -0.642
      -1.298
      -1.692
      -1.497
      -0.811
      -0.042
       0.438
       0.555
       0.507
       0.538
       0.722
       0.945
       1.049
       0.982
       0.809
       0.598
       0.344
       0.009
      -0.371
      -0.645
      -0.654
      -0.373
       0.021
       0.283
       0.314
       0.261
       0.350
       0.607
       0.788
       0.608
       0.047
      -0.582
      -0.860
      -0.609
      -0.045
       0.368
       0.269
      -0.310
      -0.949
      -1.164
      -0.764
       0.040
       0.826
       1.273
       1.326
       1.160
       1.011
       1.016
       1.141
       1.230
       1.140
       0.840
       0.393
      -0.127
      -0.671
      -1.174
      -1.540
      -1.714
      -1.757
      -1.815
      -1.971
      -2.121
      -2.015
      -1.479
      -0.619
       0.198
       0.616
       0.564
       0.278
       0.068
       0.039
       0.030
      -0.199
      -0.687
      -1.185
      -1.350
      -1.037
      -0.389
       0.340
       0.980
       1.449
       1.628
       1.369
       0.672
      -0.205
      -0.870
      -1.077
      -0.904
      -0.659
      -0.620
      -0.815
      -1.036
      -1.032
      -0.709
      -0.166
       0.419
       0.928
       1.328
       1.593
       1.639
       1.386
       0.880
       0.315
      -0.096
      -0.315
      -0.504
      -0.834
      -1.258
      -1.475
      -1.160
      -0.211
       1.173
       2.606
       3.663
       3.986
       3.389
       2.004
       0.328
      -0.947
      -1.315
      -0.808
      -0.036
       0.229
      -0.341
      -1.339
      -1.941
      -1.587
      -0.453
       0.690
       1.106
       0.679
      -0.012
      -0.192
       0.447
       1.471
       2.078
       1.821
       0.971
       0.212
      -0.028
       0.115
       0.228
       0.121
      -0.036
      -0.004
       0.224
       0.435
       0.444
       0.246
      -0.029
      -0.270
      -0.488
      -0.782
      -1.184
      -1.508
      -1.419
      -0.741
       0.265
       1.007
       1.021
       0.384
      -0.335
      -0.534
      -0.024
       0.881
       1.611
       1.730
       1.210
       0.435
      -0.088
      -0.108
       0.210
       0.454
       0.299
      -0.263
      -0.944
      -1.359
      -1.260
      -0.670
       0.125
       0.739
       0.918
       0.677
       0.220
      -0.256
      -0.655
      -0.907
      -0.912
      -0.636
      -0.241
      -0.051
      -0.297
      -0.887
      -1.419
      -1.469
      -0.906
       0.008
       0.778
       0.954
       0.382
      -0.670
      -1.607
      -1.835
      -1.164
       0.034
       1.050
       1.327
       0.819
      -0.005
      -0.503
      -0.302
       0.460
       1.247
       1.536
       1.212
       0.611
       0.187
       0.148
       0.359
       0.538
       0.484
       0.193
      -0.173
      -0.406
      -0.398
      -0.217
      -0.047
      -0.051
      -0.242
      -0.482
      -0.589
      -0.459
      -0.109
       0.348
       0.766
       1.013
       1.007
       0.762
       0.394
       0.070
      -0.092
      -0.095
      -0.072
      -0.224
      -0.708
      -1.473
      -2.194
      -2.406
      -1.855
      -0.757
       0.330
       0.978
       1.252
       1.571
       2.221
       3.013
       3.451
       3.223
       2.495
       1.720
       1.154
       0.626
      -0.170
      -1.192
      -1.939
      -1.881
      -0.998
       0.151
       0.900
       1.036
       0.918
       1.048
       1.521
       1.912
       1.739
       1.039
       0.407
       0.413
       0.994
       1.478
       1.222
       0.209
      -0.987
      -1.757
      -1.922
      -1.716
      -1.459
      -1.335
      -1.383
      -1.558
      -1.743
      -1.747
      -1.359
      -0.488
       0.703
       1.756
       2.104
       1.434
      -0.037
      -1.611
      -2.541
      -2.520
      -1.830
      -1.042
      -0.581
      -0.524
      -0.721
      -0.991
      -1.237
      -1.471
      -1.790
      -2.309
      -3.029
      -3.775
      -4.317
      -4.579
      -4.659
      -4.641
      -4.427
      -3.835
      -2.878
      -1.854
      -1.146
      -0.918
      -1.034
      -1.209
      -1.199
      -0.874
      -0.205
       0.718
       1.642
       2.190
       2.021
       1.050
      -0.427
      -1.834
      -2.640
      -2.660
      -2.084
      -1.247
      -0.385
       0.366
       0.855
       0.933
       0.682
       0.545
       1.032
       2.197
       3.451
       4.029
       3.691
       2.944
       2.508
       2.609
       2.797
       2.467
       1.545
       0.629
       0.432
       1.048
       1.790
       1.838
       1.064
       0.210
       0.150
       0.985
       1.921
       2.088
       1.441
       0.748
       0.696
       1.140
       1.365
       0.979
       0.391
       0.370
       1.248
       2.602
       3.657
       3.934
       3.560
       3.034
       2.757
       2.741
       2.740
       2.632
       2.588
       2.814
       3.129
       2.943
       1.808
       0.018
      -1.425
      -1.579
      -0.375
       1.270
       2.151
       1.625
      -0.054
      -2.052
      -3.547
      -4.149
      -3.962
      -3.383
      -2.797
      -2.371
      -2.041
      -1.661
      -1.173
      -0.721
      -0.610
      -1.112
      -2.178
      -3.346
      -4.013
      -3.906
      -3.295
      -2.753
      -2.673
      -2.982
      -3.264
      -3.147
      -2.636
      -2.121
      -2.052
      -2.574
      -3.387
      -3.921
      -3.691
      -2.610
      -1.065
       0.300
       0.958
       0.768
       0.023
      -0.671
      -0.698
       0.168
       1.520
       2.524
       2.515
       1.523
       0.291
      -0.248
       0.351
       1.742
       3.098
       3.762
       3.691
       3.361
       3.259
       3.453
       3.590
       3.302
       2.592
       1.822
       1.346
       1.191
       1.100
       0.866
       0.581
       0.528
       0.819
       1.173
       1.124
       0.472
      -0.488
      -1.220
      -1.396
      -1.120
      -0.732
      -0.412
       0.022
       0.928
       2.365
       3.814
       4.431
       3.722
       2.042
       0.408
      -0.269
       0.124
       0.899
       1.253
       1.019
       0.753
       1.079
       1.925
       2.459
       1.797
      -0.165
      -2.580
      -4.284
      -4.645
      -3.929
      -2.949
      -2.386
      -2.366
      -2.558
      -2.579
      -2.277
      -1.709
      -1.013
      -0.341
       0.153
       0.378
       0.372
       0.294
       0.323
       0.553
       0.941
       1.321
       1.471
       1.240
       0.636
      -0.179
      -0.967
      -1.503
      -1.642
      -1.352
      -0.733
      -0.001
       0.594
       0.863
       0.721
       0.150
      -0.792
      -1.881
      -2.693
      -2.805
      -2.085
      -0.781
       0.670
       1.897
       2.715
       3.089
       3.075
       2.784
       2.357
       1.918
       1.529
       1.131
       0.555
      -0.308
      -1.256
      -1.714
      -1.060
       0.829
       3.313
       5.291
       5.906
       5.102
       3.637
       2.535
       2.375
       2.929
       3.403
       3.145
       2.217
       1.312
       1.028
       1.258
       1.338
       0.781
      -0.224
      -1.042
      -1.283
      -1.210
      -1.440
      -2.235
      -3.153
      -3.460
      -2.929
      -2.182
      -2.155
      -3.208
      -4.765
      -5.823
      -5.832
      -5.070
      -4.218
      -3.670
      -3.311
      -2.937
      -2.715
      -3.162
      -4.660
      -7.012
      -9.468
     -11.169
     -11.636
     -10.987
      -9.745
      -8.415
      -7.193
      -6.030
      -4.912
      -4.009
      -3.502
      -3.380
      -3.481
      -3.744
      -4.264
      -5.006
      -5.575
      -5.452
      -4.513
      -3.217
      -2.228
      -1.894
      -2.085
      -2.433
      -2.622
      -2.538
      -2.256
      -1.957
      -1.797
      -1.786
      -1.741
      -1.366
      -0.419
       1.149
       3.189
       5.483
       7.864
      10.234
      12.479
      14.408
      15.754
      16.254
      15.763
      14.367
      12.429
      10.511
       9.172
       8.726
       9.103
       9.889
      10.516
      10.524
       9.793
       8.628
       7.569
       7.015
       6.946
       7.006
       6.886
       6.594
       6.357
       6.305
       6.302
       6.105
       5.618
       4.931
       4.120
       3.093
       1.716
       0.100
      -1.279
      -1.865
      -1.525
      -0.813
      -0.681
      -1.785
      -3.972
      -6.412
      -8.224
      -9.007
      -8.880
      -8.163
      -7.096
      -5.826
      -4.494
      -3.256
      -2.183
      -1.215
      -0.274
       0.549
       0.963
       0.694
      -0.263
      -1.619
      -3.016
      -4.252
      -5.314
      -6.278
      -7.246
      -8.312
      -9.445
     -10.358
     -10.586
      -9.819
      -8.230
      -6.445
      -5.166
      -4.696
      -4.718
      -4.503
      -3.408
      -1.323
       1.268
       3.608
       5.105
       5.533
       4.942
       3.509
       1.549
      -0.392
      -1.657
      -1.892
      -1.363
      -0.760
      -0.572
      -0.646
      -0.415
       0.419
       1.476
       2.058
       1.883
       1.391
       1.261
       1.714
       2.384
       2.818
       2.952
       3.039
       3.219
       3.347
       3.270
       3.102
       3.142
       3.527
       4.068
       4.407
       4.325
       3.918
       3.533
       3.481
       3.726
       3.830
       3.314
       2.156
       0.922
       0.302
       0.483
       0.971
       1.066
       0.578
       0.079
       0.435
       1.964
       3.996
       5.282
       4.925
       3.024
       0.539
      -1.416
      -2.228
      -2.006
      -1.342
      -0.885
      -1.020
      -1.791
      -2.992
      -4.292
      -5.319
      -5.771
      -5.523
      -4.673
      -3.497
      -2.344
      -1.529
      -1.276
      -1.720
      -2.891
      -4.597
      -6.335
      -7.447
      -7.535
      -6.770
      -5.778
      -5.156
      -5.068
      -5.221
      -5.152
      -4.524
      -3.279
      -1.647
      -0.059
       1.041
       1.422
       1.193
       0.734
       0.455
       0.571
       1.019
       1.541
       1.858
       1.861
       1.699
       1.620
       1.679
       1.603
       1.037
      -0.056
      -1.272
      -2.095
      -2.358
      -2.356
      -2.478
      -2.701
      -2.504
      -1.377
       0.567
       2.556
       3.815
       4.254
       4.425
       4.841
       5.424
       5.679
       5.329
       4.660
       4.212
       4.160
       4.119
       3.602
       2.669
       2.004
       2.268
       3.356
       4.366
       4.392
       3.432
       2.459
       2.530
       3.759
       5.160
       5.520
       4.489
       2.842
       1.661
       1.227
       0.776
      -0.609
      -2.915
      -5.084
      -5.979
      -5.407
      -4.205
      -3.368
      -3.162
      -3.027
      -2.317
      -1.057
       0.032
       0.231
      -0.466
      -1.322
      -1.490
      -0.701
       0.585
       1.632
       2.022
       1.896
       1.680
       1.592
       1.388
       0.589
      -1.019
      -3.077
      -4.793
      -5.438
      -4.831
      -3.496
      -2.370
      -2.160
      -2.780
      -3.356
      -2.926
      -1.295
       0.720
       1.928
       1.738
       0.614
      -0.357
      -0.365
       0.544
       1.625
       2.144
       1.964
       1.513
       1.238
       1.159
       0.959
       0.400
      -0.446
      -1.357
      -2.179
      -2.778
      -2.847
      -1.988
      -0.152
       1.980
       3.204
       2.616
       0.418
      -2.038
      -3.151
      -2.244
      -0.059
       1.876
       2.448
       1.693
       0.505
      -0.275
      -0.492
      -0.551
      -0.838
      -1.294
      -1.479
      -0.970
       0.279
       1.870
       3.197
       3.759
       3.367
       2.181
       0.619
      -0.766
      -1.468
      -1.270
      -0.470
       0.189
       0.022
      -1.024
      -2.288
      -2.956
      -2.763
      -2.184
      -1.965
      -2.450
      -3.323
      -3.958
      -3.991
      -3.575
      -3.135
      -2.954
      -2.979
      -2.928
      -2.498
      -1.548
      -0.180
       1.316
       2.601
       3.416
       3.631
       3.295
       2.691
       2.218
       2.071
       2.002
       1.537
       0.519
      -0.619
      -1.225
      -1.090
      -0.703
      -0.803
      -1.690
      -2.965
      -3.925
      -4.182
      -3.905
      -3.505
      -3.151
      -2.584
      -1.413
       0.432
       2.543
       4.338
       5.478
       5.960
       5.887
       5.260
       4.030
       2.308
       0.486
      -0.862
      -1.246
      -0.527
       0.996
       2.733
       4.038
       4.430
       3.807
       2.593
       1.630
       1.725
       3.101
       5.181
       6.881
       7.250
       5.971
       3.401
       0.263
      -2.675
      -4.754
      -5.545
      -4.999
      -3.527
      -1.838
      -0.555
       0.127
       0.407
       0.526
       0.488
       0.217
      -0.102
      -0.016
       0.746
       1.869
       2.612
       2.461
       1.674
       1.111
       1.471
       2.629
       3.720
       3.881
       2.956
       1.567
       0.518
       0.099
      -0.082
      -0.627
      -1.707
      -2.888
      -3.574
      -3.609
      -3.416
      -3.523
      -3.990
      -4.374
      -4.273
      -3.789
      -3.384
      -3.326
      -3.387
      -3.121
      -2.409
      -1.671
      -1.510
      -2.076
      -2.801
      -2.830
      -1.804
      -0.272
       0.744
       0.652
      -0.142
      -0.572
       0.117
       1.632
       2.804
       2.522
       0.627
      -1.984
      -4.031
      -4.740
      -4.254
      -3.348
      -2.779
