Origin Time       29/10/2009 19:56:58 UTC
Lat.              26.6°N	
Long.             90.0°E	
Depth (Km)         10.0
Magnitude         4.2
 Region           KOKRAJHAR-ASSAM                                                  
 Above details taken from IMD 
    
Station Code      GOL
Station Lat.       26.152  N
Station Long.      90.627  E
Station Height(m)   56.0
Site Class        C   Vs30 between 200 m/sec to 375 m/sec *  
Record Time       29.10.2009 19:57:07.054 UTC
Sampling Rate     200. Hz
 Record Duration   68.415 Sec.
 Direction         N-S (N positive)
Max. Acceleration     22.465 cm/sec**2
     
  * For reference see Site Classification link of website 
     
 Base Line Corrected and Low Pass Filtered (Cut Off at 35 Hz) Time History
 Acceleration data in cm/sec**2
    
[...]
       0.189
       0.392
       0.440
       0.356
       0.227
       0.159
       0.222
       0.424
       0.703
       0.946
       1.044
       0.952
       0.725
       0.501
       0.417
       0.501
       0.639
       0.640
       0.381
      -0.106
      -0.656
      -1.086
      -1.275
      -1.183
      -0.847
      -0.392
       0.005
       0.193
       0.132
      -0.096
      -0.340
      -0.457
      -0.371
      -0.099
       0.243
       0.484
       0.487
       0.243
      -0.118
      -0.408
      -0.485
      -0.334
      -0.057
       0.187
       0.288
       0.249
       0.172
       0.173
       0.278
       0.392
       0.375
       0.165
      -0.157
      -0.418
      -0.470
      -0.287
       0.020
       0.269
       0.308
       0.098
      -0.267
      -0.611
      -0.760
      -0.617
      -0.203
       0.343
       0.812
       1.022
       0.905
       0.531
       0.072
      -0.300
      -0.500
      -0.544
      -0.491
      -0.353
      -0.095
       0.288
       0.683
       0.878
       0.686
       0.105
      -0.638
      -1.203
      -1.336
      -1.011
      -0.414
       0.200
       0.657
       0.902
       0.957
       0.864
       0.666
       0.418
       0.191
       0.038
      -0.033
      -0.053
      -0.048
      -0.009
       0.095
       0.263
       0.440
       0.539
       0.488
       0.271
      -0.077
      -0.490
      -0.887
      -1.175
      -1.258
      -1.084
      -0.705
      -0.270
       0.047
       0.143
       0.050
      -0.109
      -0.212
      -0.213
      -0.151
      -0.088
      -0.051
      -0.035
      -0.039
      -0.090
      -0.212
      -0.376
      -0.490
      -0.455
      -0.235
       0.129
       0.542
       0.918
       1.206
       1.383
       1.423
       1.286
       0.969
       0.538
       0.101
      -0.261
      -0.532
      -0.723
      -0.834
      -0.854
      -0.799
      -0.728
      -0.688
      -0.642
      -0.479
      -0.113
       0.418
       0.929
       1.195
       1.096
       0.702
       0.221
      -0.134
      -0.267
      -0.210
      -0.058
       0.103
       0.213
       0.220
       0.085
      -0.194
      -0.539
      -0.812
      -0.878
      -0.676
      -0.269
       0.176
       0.454
       0.432
       0.146
      -0.194
      -0.335
      -0.179
       0.120
       0.261
       0.038
      -0.500
      -1.064
      -1.316
      -1.077
      -0.435
       0.306
       0.797
       0.848
       0.526
       0.100
      -0.150
      -0.099
       0.190
       0.549
       0.827
       0.949
       0.909
       0.733
       0.454
       0.126
      -0.183
      -0.413
      -0.539
      -0.578
      -0.554
      -0.460
      -0.265
       0.032
       0.373
       0.647
       0.745
       0.612
       0.277
      -0.150
      -0.513
      -0.667
      -0.561
      -0.288
      -0.048
      -0.013
      -0.179
      -0.361
      -0.336
      -0.026
       0.444
       0.857
       1.032
       0.899
       0.484
      -0.118
      -0.737
      -1.136
      -1.100
      -0.598
       0.127
       0.667
       0.727
       0.348
      -0.120
      -0.286
      -0.021
       0.454
       0.753
       0.622
       0.106
      -0.535
      -1.044
      -1.310
      -1.351
      -1.208
      -0.912
      -0.531
      -0.201
      -0.077
      -0.225
      -0.536
      -0.758
      -0.636
      -0.085
       0.727
       1.460
       1.802
       1.657
       1.184
       0.677
       0.388
       0.398
       0.598
       0.789
       0.824
       0.686
       0.463
       0.259
       0.110
      -0.010
      -0.127
      -0.222
      -0.250
      -0.194
      -0.090
      -0.014
      -0.023
      -0.127
      -0.294
      -0.479
      -0.654
      -0.811
      -0.947
      -1.038
      -1.043
      -0.927
      -0.690
      -0.376
      -0.033
       0.295
       0.563
       0.703
       0.642
       0.339
      -0.159
      -0.696
      -1.053
      -1.045
      -0.648
      -0.039
       0.517
       0.842
       0.937
       0.912
       0.848
       0.732
       0.511
       0.185
      -0.160
      -0.392
      -0.406
      -0.159
       0.300
       0.834
       1.235
       1.315
       1.013
       0.444
      -0.162
      -0.580
      -0.693
      -0.524
      -0.209
       0.090
       0.263
       0.289
       0.202
       0.035
      -0.195
      -0.452
      -0.663
      -0.730
      -0.594
      -0.282
       0.083
       0.319
       0.273
      -0.101
      -0.706
      -1.326
      -1.695
      -1.598
      -0.976
       0.006
       0.986
       1.556
       1.481
       0.840
      -0.019
      -0.689
      -0.940
      -0.811
      -0.513
      -0.243
      -0.054
       0.123
       0.363
       0.642
       0.839
       0.823
       0.545
       0.069
      -0.467
      -0.889
      -1.041
      -0.841
      -0.341
       0.264
       0.725
       0.870
       0.693
       0.350
       0.061
      -0.010
       0.158
       0.444
       0.676
       0.732
       0.594
       0.328
       0.030
      -0.228
      -0.430
      -0.597
      -0.746
      -0.846
      -0.835
      -0.660
      -0.323
       0.094
       0.462
       0.661
       0.645
       0.461
       0.203
      -0.036
      -0.186
      -0.196
      -0.043
       0.244
       0.568
       0.791
       0.789
       0.537
       0.141
      -0.200
      -0.297
      -0.077
       0.370
       0.832
       1.068
       0.921
       0.392
      -0.370
      -1.132
      -1.670
      -1.841
      -1.618
      -1.097
      -0.467
       0.064
       0.353
       0.360
       0.130
      -0.246
      -0.649
      -0.951
      -1.046
      -0.894
      -0.532
      -0.058
       0.389
       0.652
       0.612
       0.266
      -0.224
      -0.596
      -0.629
      -0.284
       0.292
       0.866
       1.253
       1.368
       1.222
       0.890
       0.509
       0.247
       0.243
       0.515
       0.917
       1.204
       1.177
       0.797
       0.193
      -0.442
      -0.949
      -1.238
      -1.253
      -0.957
      -0.374
       0.351
       0.961
       1.191
       0.902
       0.163
      -0.754
      -1.482
      -1.710
      -1.328
      -0.467
       0.571
       1.438
       1.849
       1.673
       0.992
       0.082
      -0.705
      -1.111
      -1.093
      -0.812
      -0.521
      -0.421
      -0.562
      -0.842
      -1.081
      -1.123
      -0.906
      -0.479
       0.026
       0.452
       0.675
       0.661
       0.485
       0.272
       0.107
      -0.016
      -0.149
      -0.295
      -0.359
      -0.217
       0.159
       0.632
       0.967
       0.977
       0.640
       0.104
      -0.402
      -0.672
      -0.606
      -0.246
       0.230
       0.593
       0.687
       0.503
       0.166
      -0.158
      -0.359
      -0.420
      -0.391
      -0.322
      -0.233
      -0.108
       0.067
       0.284
       0.523
       0.748
       0.897
       0.870
       0.577
       0.041
      -0.531
      -0.837
      -0.685
      -0.164
       0.407
       0.696
       0.589
       0.221
      -0.159
      -0.377
      -0.416
      -0.378
      -0.370
      -0.440
      -0.582
      -0.785
      -1.040
      -1.300
      -1.447
      -1.330
      -0.878
      -0.188
       0.498
       0.914
       0.922
       0.576
       0.068
      -0.378
      -0.599
      -0.529
      -0.186
       0.348
       0.929
       1.364
       1.465
       1.154
       0.543
      -0.098
      -0.487
      -0.475
      -0.098
       0.472
       1.010
       1.284
       1.109
       0.445
      -0.526
      -1.435
      -1.898
      -1.711
      -0.972
      -0.030
       0.697
       0.929
       0.664
       0.152
      -0.255
      -0.311
      -0.007
       0.453
       0.817
       0.948
       0.878
       0.735
       0.624
       0.554
       0.431
       0.146
      -0.302
      -0.748
      -0.940
      -0.728
      -0.196
       0.364
       0.645
       0.510
       0.053
      -0.491
      -0.886
      -1.010
      -0.896
      -0.707
      -0.633
      -0.765
      -1.021
      -1.203
      -1.154
      -0.864
      -0.462
      -0.087
       0.215
       0.499
       0.830
       1.203
       1.536
       1.731
       1.723
       1.484
       1.028
       0.449
      -0.075
      -0.374
      -0.416
      -0.321
      -0.259
      -0.332
      -0.538
      -0.786
      -0.938
      -0.891
      -0.639
      -0.269
       0.097
       0.374
       0.541
       0.619
       0.608
       0.443
       0.029
      -0.617
      -1.286
      -1.651
      -1.474
      -0.769
       0.198
       1.062
       1.548
       1.575
       1.244
       0.749
       0.281
      -0.035
      -0.153
      -0.086
       0.117
       0.356
       0.487
       0.379
       0.008
      -0.504
      -0.948
      -1.147
      -1.052
      -0.769
      -0.494
      -0.377
      -0.418
      -0.477
      -0.392
      -0.127
       0.210
       0.483
       0.664
       0.831
       1.035
       1.197
       1.131
       0.699
      -0.043
      -0.829
      -1.312
      -1.242
      -0.611
       0.318
       1.119
       1.440
       1.203
       0.637
       0.089
      -0.217
      -0.298
      -0.339
      -0.481
      -0.694
      -0.812
      -0.704
      -0.408
      -0.108
       0.016
      -0.082
      -0.286
      -0.387
      -0.218
       0.226
       0.770
       1.182
       1.308
       1.138
       0.755
       0.239
      -0.359
      -0.981
      -1.511
      -1.788
      -1.692
      -1.238
      -0.598
      -0.003
       0.387
       0.548
       0.545
       0.453
       0.321
       0.196
       0.138
       0.187
       0.325
       0.480
       0.569
       0.541
       0.389
       0.134
      -0.186
      -0.505
      -0.722
      -0.734
      -0.505
      -0.111
       0.294
       0.554
       0.581
       0.371
       0.011
      -0.341
      -0.520
      -0.444
      -0.164
       0.176
       0.430
       0.518
       0.423
       0.154
      -0.257
      -0.707
      -0.981
      -0.834
      -0.180
       0.766
       1.540
       1.708
       1.160
       0.203
      -0.637
      -0.945
      -0.663
      -0.092
       0.333
       0.323
      -0.111
      -0.718
      -1.189
      -1.349
      -1.214
      -0.946
      -0.723
      -0.631
      -0.618
      -0.533
      -0.243
       0.255
       0.806
       1.183
       1.224
       0.931
       0.451
      -0.021
      -0.355
      -0.522
      -0.542
      -0.425
      -0.162
       0.221
       0.624
       0.906
       0.969
       0.813
       0.506
       0.132
      -0.220
      -0.436
      -0.401
      -0.095
       0.333
       0.626
       0.596
       0.265
      -0.145
      -0.371
      -0.273
       0.100
       0.560
       0.882
       0.899
       0.548
      -0.105
      -0.862
      -1.457
      -1.664
      -1.402
      -0.762
       0.048
       0.791
       1.274
       1.416
       1.254
       0.895
       0.456
       0.024
      -0.339
      -0.579
      -0.644
      -0.514
      -0.232
       0.078
       0.267
       0.233
      -0.009
      -0.351
      -0.669
      -0.892
      -1.001
      -0.963
      -0.706
      -0.190
       0.471
       0.982
       1.017
       0.450
      -0.525
      -1.476
      -1.956
      -1.709
      -0.788
       0.456
       1.527
       2.017
       1.790
       1.017
       0.053
      -0.753
      -1.209
      -1.298
      -1.107
      -0.755
      -0.357
      -0.026
       0.169
       0.238
       0.265
       0.340
       0.474
       0.574
       0.493
       0.149
      -0.373
      -0.825
      -0.927
      -0.549
       0.187
       0.955
       1.412
       1.391
       0.998
       0.539
       0.319
       0.441
       0.748
       0.962
       0.895
       0.569
       0.159
      -0.169
      -0.382
      -0.558
      -0.784
      -1.056
      -1.267
      -1.257
      -0.933
      -0.361
       0.238
       0.634
       0.732
       0.593
       0.327
      -0.003
      -0.357
      -0.652
      -0.763
      -0.623
      -0.314
      -0.033
       0.047
      -0.110
      -0.393
      -0.626
      -0.674
      -0.501
      -0.157
       0.277
       0.733
       1.147
       1.445
       1.552
       1.442
       1.159
       0.798
       0.457
       0.197
       0.036
      -0.039
      -0.065
      -0.093
      -0.168
      -0.299
      -0.433
      -0.465
      -0.300
       0.078
       0.592
       1.114
       1.527
       1.758
       1.750
       1.449
       0.837
       0.000
      -0.851
      -1.460
      -1.653
      -1.410
      -0.817
       0.003
       0.885
       1.584
       1.821
       1.462
       0.669
      -0.137
      -0.541
      -0.382
       0.181
       0.815
       1.203
       1.183
       0.802
       0.275
      -0.126
      -0.211
       0.039
       0.475
       0.840
       0.857
       0.298
      -0.923
      -2.691
      -4.710
      -6.642
      -8.225
      -9.291
      -9.672
      -9.137
      -7.448
      -4.530
      -0.648
       3.523
       7.061
       9.150
       9.422
       8.077
       5.751
       3.231
       1.195
       0.040
      -0.171
       0.351
       1.246
       2.118
       2.593
       2.340
       1.121
      -1.102
      -4.070
      -7.229
      -9.884
     -11.450
     -11.693
     -10.776
      -9.028
      -6.589
      -3.252
       1.315
       7.104
      13.422
      18.962
      22.289
      22.465
      19.417
      13.814
       6.659
      -0.977
      -7.925
     -12.889
     -14.767
     -13.222
      -9.050
      -3.967
       0.111
       1.893
       1.133
      -1.508
      -4.935
      -8.068
     -10.076
     -10.406
      -8.772
      -5.203
      -0.151
       5.444
      10.292
      13.114
      13.123
      10.353
       5.633
       0.197
      -4.821
      -8.690
     -11.075
     -11.863
     -11.058
      -8.802
      -5.444
      -1.536
       2.281
       5.482
       7.808
       9.268
       9.941
       9.745
       8.360
       5.418
       0.913
      -4.470
      -9.347
     -12.033
     -11.193
      -6.511
       0.933
       8.882
      14.792
      16.980
      15.345
      11.243
       6.684
       3.420
       2.408
       3.733
       6.789
      10.571
      13.952
      15.910
      15.710
      13.071
       8.285
       2.175
      -4.160
      -9.706
     -13.828
     -16.326
     -17.252
     -16.706
     -14.832
     -12.035
      -9.120
      -7.129
      -6.905
      -8.699
     -12.067
     -16.066
     -19.576
     -21.612
     -21.539
     -19.177
     -14.795
      -9.019
      -2.689
       3.319
       8.273
      11.728
      13.593
      14.066
      13.502
      12.316
      10.953
       9.852
       9.326
       9.390
       9.719
       9.832
       9.404
       8.423
       7.070
       5.490
       3.689
       1.646
      -0.543
      -2.641
      -4.381
      -5.576
      -6.177
      -6.296
      -6.183
      -6.099
      -6.112
      -5.980
      -5.276
      -3.700
      -1.353
       1.245
       3.409
       4.652
       4.896
       4.412
       3.611
       2.871
       2.492
       2.689
       3.545
       4.957
       6.620
       8.071
       8.786
       8.397
       6.919
       4.794
       2.644
       0.920
      -0.268
      -1.055
      -1.607
      -1.977
      -2.113
      -1.985
      -1.705
      -1.539
      -1.800
      -2.677
      -4.135
      -5.928
      -7.673
      -8.913
      -9.209
      -8.308
      -6.327
      -3.781
      -1.391
       0.240
       0.869
       0.678
       0.135
      -0.292
      -0.409
      -0.402
      -0.679
      -1.593
      -3.204
      -5.210
      -7.019
      -7.909
      -7.278
      -4.939
      -1.330
       2.530
       5.420
       6.465
       5.546
       3.361
       1.102
      -0.077
       0.464
       2.619
       5.650
       8.553
      10.465
      10.953
      10.062
       8.184
       5.824
       3.373
       0.995
      -1.275
      -3.294
      -4.642
      -4.754
      -3.319
      -0.632
       2.410
       4.701
       5.413
       4.252
       1.432
      -2.484
      -6.720
     -10.386
     -12.614
     -12.770
     -10.692
      -6.814
      -2.071
       2.409
       5.642
       7.038
       6.508
       4.455
       1.651
      -1.001
      -2.763
      -3.295
      -2.733
      -1.616
      -0.663
      -0.499
      -1.403
      -3.183
      -5.245
      -6.857
      -7.523
      -7.196
      -6.174
      -4.752
      -2.961
      -0.626
       2.314
       5.518
       8.263
       9.789
       9.756
       8.437
       6.525
       4.675
       3.170
       1.923
       0.732
      -0.439
      -1.378
      -1.762
      -1.411
      -0.444
       0.751
       1.691
       2.014
       1.643
       0.819
      -0.068
      -0.737
      -1.182
      -1.615
      -2.255
      -3.106
      -3.895
      -4.198
      -3.674
      -2.227
      -0.028
       2.583
       5.187
       7.371
       8.808
       9.336
       8.964
       7.837
       6.226
       4.509
       3.075
       2.145
       1.621
       1.120
       0.213
      -1.239
      -2.950
      -4.409
      -5.272
      -5.607
      -5.777
      -6.103
      -6.608
      -7.049
      -7.181
      -6.973
      -6.629
      -6.417
      -6.444
      -6.526
      -6.216
      -5.054
      -2.929
      -0.301
       1.950
       3.008
       2.620
       1.239
      -0.268
      -1.151
      -1.154
      -0.510
       0.354
       1.115
       1.677
       2.099
       2.449
       2.692
       2.702
       2.376
       1.744
       0.981
       0.313
      -0.102
      -0.210
       0.007
       0.627
       1.752
       3.353
       5.172
       6.792
       7.827
       8.063
       7.525
       6.460
       5.247
       4.231
       3.555
       3.097
       2.588
       1.822
       0.828
      -0.145
      -0.796
      -1.016
      -1.008
      -1.185
      -1.877
      -3.087
      -4.485
      -5.647
      -6.325
      -6.553
      -6.566
      -6.602
      -6.732
      -6.815
      -6.609
      -5.947
      -4.866
      -3.588
      -2.350
      -1.212
      -0.027
       1.332
       2.716
       3.679
       3.765
       2.871
       1.400
       0.100
      -0.309
       0.507
       2.339
       4.551
       6.418
       7.485
       7.721
       7.396
       6.832
       6.195
       5.475
       4.608
       3.604
       2.561
       1.593
       0.765
       0.102
      -0.382
      -0.694
      -0.903
      -1.168
      -1.695
      -2.620
      -3.868
      -5.110
      -5.901
      -5.953
      -5.360
      -4.557
      -4.018
      -3.928
      -4.075
      -4.056
      -3.598
      -2.781
      -1.990
      -1.650
      -1.902
      -2.485
      -2.917
      -2.837
      -2.209
      -1.219
      -0.025
       1.346
       2.872
       4.387
       5.607
       6.288
       6.344
       5.857
       5.016
       4.053
       3.163
       2.436
       1.832
       1.205
       0.405
      -0.609
      -1.715
      -2.705
      -3.434
      -3.904
      -4.204
      -4.382
      -4.407
      -4.261
      -4.043
      -3.965
      -4.207
      -4.766
      -5.402
      -5.719
      -5.352
      -4.189
      -2.465
