Origin Time       31/12/2009 09:57:00
Lat.              27.3°N	
Long.             91.4°E	
Depth (Km)          7.0
Magnitude         5.5
 Region           BHUTAN                                                           
 Above details taken from IMD 
   
Station Code      GOL
Station Lat.       26.152
Station Long.      90.627
Station Height(m)   56.0
Site Class        C   Vs30 between 200 m/sec to 375 m/sec *  
Record Time       31.12.2009 09:57:58.674
Sampling Rate     200. Hz
 Record Duration   82.350 Sec.
 Direction         Vert. (Up positive)
Max. Acceleration     -9.202 cm/sec**2
     
  * For reference see Site Classification link of website 
     
 Base Line Corrected and Low Pass Filtered (Cut Off at 35 Hz) Time History
 Acceleration data in cm/sec**2
    
[...]
      -1.200
      -1.141
      -1.021
      -0.990
      -1.066
      -1.104
      -0.928
      -0.500
       0.026
       0.419
       0.547
       0.440
       0.227
       0.021
      -0.131
      -0.225
      -0.256
      -0.213
      -0.088
       0.113
       0.361
       0.606
       0.784
       0.852
       0.825
       0.771
       0.756
       0.777
       0.753
       0.572
       0.187
      -0.326
      -0.787
      -1.004
      -0.886
      -0.505
      -0.049
       0.288
       0.417
       0.380
       0.292
       0.252
       0.284
       0.342
       0.349
       0.247
       0.039
      -0.207
      -0.393
      -0.456
      -0.412
      -0.331
      -0.276
      -0.255
      -0.226
      -0.153
      -0.052
       0.017
       0.003
      -0.092
      -0.217
      -0.328
      -0.427
      -0.539
      -0.656
      -0.713
      -0.637
      -0.410
      -0.099
       0.190
       0.390
       0.504
       0.584
       0.682
       0.812
       0.951
       1.073
       1.177
       1.288
       1.407
       1.473
       1.371
       1.024
       0.483
      -0.084
      -0.500
      -0.696
      -0.725
      -0.666
      -0.551
      -0.367
      -0.110
       0.197
       0.522
       0.850
       1.159
       1.385
       1.434
       1.237
       0.809
       0.243
      -0.338
      -0.837
      -1.209
      -1.452
      -1.585
      -1.622
      -1.551
      -1.335
      -0.945
      -0.415
       0.133
       0.525
       0.633
       0.479
       0.222
       0.035
      -0.050
      -0.164
      -0.446
      -0.851
      -1.125
      -1.006
      -0.469
       0.232
       0.771
       1.005
       1.019
       0.968
       0.918
       0.846
       0.737
       0.646
       0.618
       0.612
       0.545
       0.398
       0.258
       0.239
       0.390
       0.681
       1.039
       1.392
       1.671
       1.820
       1.823
       1.706
       1.482
       1.106
       0.549
      -0.117
      -0.732
      -1.181
      -1.489
      -1.765
      -2.049
      -2.247
      -2.227
      -1.961
      -1.534
      -1.055
      -0.589
      -0.186
       0.076
       0.123
      -0.032
      -0.277
      -0.487
      -0.624
      -0.724
      -0.805
      -0.834
      -0.774
      -0.632
      -0.446
      -0.257
      -0.093
       0.035
       0.146
       0.275
       0.444
       0.631
       0.767
       0.775
       0.625
       0.364
       0.097
      -0.076
      -0.108
      -0.018
       0.141
       0.331
       0.528
       0.659
       0.594
       0.244
      -0.316
      -0.857
      -1.151
      -1.129
      -0.908
      -0.662
      -0.461
      -0.238
       0.111
       0.577
       1.003
       1.210
       1.158
       0.994
       0.921
       1.019
       1.183
       1.245
       1.138
       0.938
       0.751
       0.602
       0.416
       0.121
      -0.261
      -0.625
      -0.869
      -0.978
      -1.026
      -1.101
      -1.221
      -1.302
      -1.215
      -0.885
      -0.371
       0.151
       0.496
       0.589
       0.494
       0.337
       0.188
       0.020
      -0.233
      -0.592
      -1.000
      -1.356
      -1.578
      -1.624
      -1.486
      -1.172
      -0.712
      -0.167
       0.383
       0.877
       1.291
       1.611
       1.803
       1.836
       1.725
       1.543
       1.368
       1.209
       1.012
       0.721
       0.352
      -0.014
      -0.290
      -0.448
      -0.504
      -0.487
      -0.401
      -0.250
      -0.062
       0.110
       0.215
       0.237
       0.208
       0.194
       0.268
       0.468
       0.765
       1.073
       1.288
       1.342
       1.223
       0.973
       0.655
       0.316
      -0.039
      -0.435
      -0.885
      -1.341
      -1.695
      -1.822
      -1.651
      -1.202
      -0.582
       0.058
       0.594
       0.975
       1.233
       1.426
       1.578
       1.665
       1.638
       1.453
       1.091
       0.581
       0.015
      -0.484
      -0.837
      -1.056
      -1.207
      -1.314
      -1.308
      -1.094
      -0.671
      -0.151
       0.333
       0.721
       1.027
       1.245
       1.305
       1.134
       0.742
       0.219
      -0.325
      -0.810
      -1.177
      -1.388
      -1.450
      -1.417
      -1.356
      -1.284
      -1.163
      -0.950
      -0.658
      -0.337
      -0.040
       0.184
       0.280
       0.243
       0.147
       0.095
       0.135
       0.251
       0.410
       0.588
       0.767
       0.941
       1.134
       1.366
       1.599
       1.742
       1.731
       1.590
       1.402
       1.211
       0.987
       0.683
       0.297
      -0.124
      -0.531
      -0.880
      -1.135
      -1.294
      -1.396
      -1.479
      -1.538
      -1.543
      -1.488
      -1.388
      -1.241
      -1.043
      -0.829
      -0.673
      -0.644
      -0.753
      -0.922
      -0.996
      -0.829
      -0.396
       0.193
       0.803
       1.383
       1.929
       2.390
       2.665
       2.678
       2.425
       1.963
       1.386
       0.802
       0.299
      -0.092
      -0.372
      -0.537
      -0.590
      -0.583
      -0.617
      -0.786
      -1.121
      -1.588
      -2.093
      -2.511
      -2.732
      -2.706
      -2.448
      -2.017
      -1.489
      -0.939
      -0.435
      -0.030
       0.245
       0.380
       0.379
       0.253
       0.012
      -0.317
      -0.631
      -0.757
      -0.535
       0.075
       0.991
       2.078
       3.210
       4.276
       5.167
       5.793
       6.129
       6.214
       6.092
       5.737
       5.070
       4.044
       2.719
       1.260
      -0.158
      -1.440
      -2.585
      -3.635
      -4.604
      -5.445
      -6.079
      -6.435
      -6.451
      -6.082
      -5.326
      -4.267
      -3.082
      -1.966
      -1.033
      -0.277
       0.375
       0.970
       1.499
       1.942
       2.303
       2.603
       2.835
       2.943
       2.862
       2.588
       2.202
       1.818
       1.481
       1.114
       0.585
      -0.156
      -0.985
      -1.662
      -1.994
      -1.966
      -1.717
      -1.417
      -1.163
      -0.974
      -0.844
      -0.767
      -0.710
      -0.601
      -0.385
      -0.079
       0.222
       0.430
       0.537
       0.631
       0.816
       1.121
       1.483
       1.780
       1.899
       1.785
       1.467
       1.033
       0.573
       0.105
      -0.402
      -0.954
      -1.457
      -1.762
      -1.786
      -1.585
      -1.276
      -0.898
      -0.362
       0.445
       1.502
       2.594
       3.420
       3.761
       3.567
       2.917
       1.939
       0.764
      -0.461
      -1.544
      -2.283
      -2.550
      -2.347
      -1.801
      -1.094
      -0.369
       0.321
       1.010
       1.758
       2.563
       3.318
       3.866
       4.118
       4.100
       3.877
       3.438
       2.704
       1.654
       0.418
      -0.780
      -1.795
      -2.652
      -3.456
      -4.203
      -4.715
      -4.780
      -4.360
      -3.644
      -2.887
      -2.209
      -1.574
      -0.924
      -0.298
       0.197
       0.513
       0.717
       0.922
       1.174
       1.412
       1.537
       1.500
       1.333
       1.092
       0.796
       0.413
      -0.085
      -0.651
      -1.193
      -1.664
      -2.093
      -2.511
      -2.896
      -3.209
      -3.451
      -3.631
      -3.681
      -3.464
      -2.895
      -2.051
      -1.149
      -0.421
      -0.026
      -0.038
      -0.462
      -1.192
      -1.998
      -2.616
      -2.904
      -2.892
      -2.689
      -2.341
      -1.810
      -1.062
      -0.139
       0.895
       2.022
       3.201
       4.255
       4.881
       4.864
       4.275
       3.439
       2.694
       2.171
       1.811
       1.509
       1.221
       0.946
       0.686
       0.425
       0.154
      -0.096
      -0.241
      -0.211
      -0.064
       0.023
      -0.082
      -0.310
      -0.434
      -0.273
       0.167
       0.730
       1.242
       1.582
       1.662
       1.410
       0.840
       0.096
      -0.596
      -1.053
      -1.214
      -1.141
      -0.955
      -0.741
      -0.513
      -0.264
      -0.049
       0.023
      -0.094
      -0.330
      -0.572
      -0.753
      -0.823
      -0.687
      -0.259
       0.438
       1.242
       1.945
       2.420
       2.665
       2.759
       2.753
       2.596
       2.205
       1.609
       0.959
       0.382
      -0.148
      -0.737
      -1.389
      -1.965
      -2.324
      -2.484
      -2.610
      -2.825
      -3.061
      -3.109
      -2.788
      -2.057
      -1.004
       0.204
       1.394
       2.430
       3.222
       3.691
       3.787
       3.558
       3.156
       2.726
       2.291
       1.751
       0.990
       0.004
      -1.037
      -1.823
      -2.049
      -1.607
      -0.663
       0.484
       1.596
       2.583
       3.414
       4.024
       4.312
       4.226
       3.827
       3.238
       2.559
       1.821
       1.022
       0.147
      -0.830
      -1.931
      -3.113
      -4.226
      -5.064
      -5.475
      -5.438
      -5.024
      -4.313
      -3.360
      -2.261
      -1.183
      -0.318
       0.248
       0.592
       0.870
       1.165
       1.416
       1.487
       1.322
       1.013
       0.729
       0.568
       0.456
       0.201
      -0.366
      -1.260
      -2.324
      -3.315
      -4.001
      -4.220
      -3.904
      -3.114
      -2.037
      -0.933
      -0.008
       0.689
       1.240
       1.721
       2.083
       2.177
       1.895
       1.282
       0.519
      -0.198
      -0.763
      -1.153
      -1.379
      -1.430
      -1.269
      -0.875
      -0.292
       0.339
       0.799
       0.886
       0.544
      -0.076
      -0.701
      -1.125
      -1.327
      -1.420
      -1.467
      -1.356
      -0.873
       0.076
       1.306
       2.404
       2.996
       2.981
       2.540
       1.900
       1.117
       0.119
      -1.047
      -2.093
      -2.660
      -2.617
      -2.143
      -1.511
      -0.841
      -0.090
       0.757
       1.576
       2.216
       2.654
       2.990
       3.310
       3.583
       3.743
       3.784
       3.737
       3.558
       3.124
       2.390
       1.497
       0.672
       0.019
      -0.552
      -1.177
      -1.838
      -2.369
      -2.648
      -2.763
      -2.952
      -3.386
      -3.996
      -4.520
      -4.720
      -4.574
      -4.262
      -3.948
      -3.572
      -2.857
      -1.566
       0.233
       2.133
       3.626
       4.427
       4.606
       4.436
       4.143
       3.774
       3.272
       2.616
       1.894
       1.260
       0.849
       0.719
       0.844
       1.141
       1.504
       1.825
       2.016
       2.038
       1.901
       1.631
       1.268
       0.886
       0.555
       0.245
      -0.191
      -0.892
      -1.837
      -2.844
      -3.711
      -4.356
      -4.834
      -5.227
      -5.538
      -5.712
      -5.708
      -5.530
      -5.184
      -4.631
      -3.822
      -2.767
      -1.566
      -0.387
       0.598
       1.284
       1.679
       1.916
       2.178
       2.591
       3.151
       3.754
       4.258
       4.502
       4.308
       3.564
       2.371
       1.075
       0.104
      -0.272
      -0.042
       0.654
       1.679
       2.940
       4.290
       5.463
       6.140
       6.100
       5.319
       3.944
       2.226
       0.455
      -1.096
      -2.247
      -2.934
      -3.169
      -2.989
      -2.457
      -1.683
      -0.817
      -0.025
       0.533
       0.763
       0.681
       0.390
      -0.021
      -0.509
      -0.993
      -1.321
      -1.376
      -1.226
      -1.113
      -1.242
      -1.593
      -1.947
      -2.122
      -2.159
      -2.271
      -2.601
      -3.057
      -3.372
      -3.331
      -2.928
      -2.357
      -1.838
      -1.454
      -1.098
      -0.562
       0.318
       1.547
       2.965
       4.338
       5.460
       6.215
       6.565
       6.524
       6.130
       5.445
       4.558
       3.561
       2.521
       1.447
       0.302
      -0.926
      -2.180
      -3.353
      -4.352
      -5.154
      -5.783
      -6.245
      -6.474
      -6.352
      -5.794
      -4.847
      -3.723
      -2.733
      -2.126
      -1.962
      -2.101
      -2.295
      -2.316
      -2.024
      -1.372
      -0.380
       0.876
       2.267
       3.620
       4.742
       5.453
       5.625
       5.202
       4.216
       2.786
       1.101
      -0.572
      -1.902
      -2.559
      -2.375
      -1.468
      -0.220
       0.925
       1.705
       2.121
       2.300
       2.296
       2.014
       1.347
       0.382
      -0.528
      -0.943
      -0.669
       0.059
       0.723
       0.915
       0.612
       0.114
      -0.267
      -0.470
      -0.659
      -1.003
      -1.499
      -1.999
      -2.334
      -2.417
      -2.266
      -1.993
      -1.766
      -1.737
      -1.926
      -2.178
      -2.242
      -1.938
      -1.259
      -0.329
       0.733
       1.869
       3.041
       4.148
       5.046
       5.634
       5.907
       5.919
       5.710
       5.281
       4.633
       3.812
       2.921
       2.115
       1.572
       1.424
       1.656
       2.065
       2.336
       2.225
       1.670
       0.758
      -0.387
      -1.674
      -3.010
      -4.263
      -5.308
      -6.131
      -6.843
      -7.584
      -8.362
      -8.996
      -9.202
      -8.757
      -7.633
      -6.015
      -4.212
      -2.504
      -1.020
       0.281
       1.478
       2.535
       3.284
       3.577
       3.468
       3.216
       3.088
       3.170
       3.358
       3.513
       3.603
       3.671
       3.708
       3.586
       3.137
       2.292
       1.137
      -0.151
      -1.422
      -2.607
      -3.695
      -4.665
      -5.457
      -5.979
      -6.140
      -5.892
      -5.248
      -4.288
      -3.143
      -1.947
      -0.787
       0.317
       1.368
       2.320
       3.048
       3.400
       3.321
       2.922
       2.448
       2.125
       2.019
       2.029
       2.006
       1.914
       1.862
       1.997
       2.337
       2.710
       2.866
       2.669
       2.212
       1.752
       1.550
       1.750
       2.350
       3.236
       4.215
       5.053
       5.531
       5.540
       5.142
       4.542
       3.964
       3.520
       3.175
       2.800
       2.262
       1.475
       0.434
      -0.775
      -1.985
      -3.010
      -3.739
      -4.180
      -4.438
      -4.622
      -4.754
      -4.752
      -4.502
      -3.969
      -3.272
      -2.646
      -2.315
      -2.366
      -2.699
      -3.080
      -3.278
      -3.157
      -2.692
      -1.905
      -0.855
       0.324
       1.418
       2.217
       2.626
       2.703
       2.568
       2.295
       1.894
       1.389
       0.898
       0.594
       0.593
       0.884
       1.350
       1.857
       2.301
       2.602
       2.680
       2.459
       1.905
       1.041
      -0.053
      -1.264
      -2.479
      -3.629
      -4.699
      -5.703
      -6.619
      -7.340
      -7.704
      -7.592
      -6.999
      -6.029
      -4.826
      -3.510
      -2.180
      -0.933
       0.147
       1.022
       1.709
       2.247
       2.661
       2.974
       3.255
       3.614
       4.118
       4.707
       5.202
       5.421
       5.297
       4.885
       4.298
       3.644
       3.029
       2.553
       2.267
       2.098
       1.866
       1.403
       0.687
      -0.135
      -0.853
      -1.340
      -1.616
      -1.783
      -1.916
      -1.991
      -1.907
      -1.572
      -0.991
      -0.295
       0.309
       0.624
       0.536
       0.050
      -0.730
      -1.649
      -2.547
      -3.290
      -3.785
      -3.996
      -3.954
      -3.748
      -3.477
      -3.175
      -2.768
      -2.129
      -1.197
      -0.074
       1.008
       1.821
       2.268
       2.392
       2.284
       1.992
       1.521
       0.892
       0.182
      -0.486
      -1.002
      -1.312
      -1.428
      -1.388
      -1.219
      -0.929
      -0.535
      -0.105
       0.252
       0.455
       0.519
       0.537
       0.608
       0.752
       0.925
       1.073
       1.180
       1.257
       1.300
       1.283
       1.187
       1.036
       0.896
       0.830
       0.850
       0.907
       0.926
       0.851
       0.660
       0.343
      -0.119
      -0.728
      -1.417
      -2.036
      -2.403
      -2.393
      -1.993
      -1.298
      -0.472
       0.308
       0.906
       1.276
       1.491
       1.716
       2.114
       2.730
       3.443
       4.047
       4.397
       4.506
       4.519
       4.570
       4.658
       4.639
       4.338
       3.702
       2.849
       1.987
       1.269
       0.709
       0.209
      -0.337
      -0.962
      -1.604
      -2.151
      -2.504
      -2.625
      -2.544
      -2.349
      -2.145
      -2.008
      -1.938
      -1.870
      -1.722
      -1.458
      -1.099
      -0.704
      -0.323
       0.025
       0.338
       0.601
       0.758
       0.723
       0.436
      -0.101
      -0.820
      -1.605
      -2.308
      -2.768
      -2.857
      -2.550
      -1.962
      -1.319
      -0.856
      -0.702
      -0.835
      -1.121
      -1.419
      -1.655
      -1.822
      -1.935
      -1.988
      -1.948
      -1.784
      -1.497
      -1.133
      -0.775
      -0.504
      -0.363
      -0.352
      -0.440
      -0.603
      -0.819
      -1.047
      -1.195
      -1.157
      -0.891
      -0.468
      -0.031
       0.316
       0.577
       0.830
       1.144
       1.534
       1.997
       2.537
       3.137
       3.681
       3.951
       3.744
       3.015
       1.924
       0.739
      -0.302
      -1.060
      -1.475
      -1.530
      -1.260
      -0.770
      -0.216
       0.242
       0.499
       0.536
       0.416
       0.247
       0.121
       0.073
       0.079
       0.099
       0.132
       0.223
       0.413
       0.670
       0.875
       0.881
       0.622
       0.163
      -0.314
      -0.602
      -0.573
      -0.254
       0.180
       0.503
       0.556
       0.312
      -0.158
      -0.745
      -1.344
      -1.843
      -2.122
      -2.098
      -1.795
      -1.351
      -0.932
      -0.612
      -0.317
       0.116
       0.827
       1.829
       2.971
       3.948
       4.404
       4.090
       3.028
       1.545
       0.105
      -0.952
      -1.570
      -1.930
      -2.245
      -2.591
      -2.885
      -3.002
      -2.881
      -2.554
      -2.103
      -1.621
      -1.203
      -0.938
      -0.870
      -0.987
      -1.220
      -1.474
      -1.637
      -1.612
      -1.365
      -0.959
      -0.508
      -0.087
       0.345
       0.899
       1.621
       2.403
       3.028
       3.323
       3.290
       3.095
       2.932
       2.882
       2.847
       2.632
       2.103
       1.322
       0.539
       0.042
      -0.042
       0.180
       0.482
       0.702
       0.851
       1.054
       1.405
       1.861
       2.263
       2.439
       2.328
       2.014
       1.669
       1.423
       1.263
       1.029
       0.546
      -0.208
      -1.035
      -1.651
      -1.916
