Origin Time       14/7/2012 19:55:18	
Lat.              25.5 N	
Long.             94.2 E	
Depth (Km)         35.0
Magnitude         5.5
 Region           Kohima-Nagaland                                                  
 Above details taken from IMD 
     
Station Code      GOL
Station Lat.       26.515  N
Station Long.      93.972  E
Station Height(m)   93.0
Site Class        B   Vs30 between 375 m/sec to 700 m/sec *  
Record Time       14.07.2012 19:55:39.294
Sampling Rate     200. Hz
 Record Duration   79.475 Sec.
 Direction         E-W (E positive)
Max. Acceleration     37.142 cm/sec**2
     
  * For reference see Site Classification link of website 
     
 Base Line Corrected and Low Pass Filtered (Cut Off at 35 Hz) Time History
 Acceleration data in cm/sec**2
    
[...]
      -0.067
       0.024
       0.113
       0.224
       0.362
       0.493
       0.548
       0.468
       0.240
      -0.091
      -0.443
      -0.744
      -0.957
      -1.069
      -1.072
      -0.953
      -0.709
      -0.367
       0.017
       0.377
       0.672
       0.906
       1.113
       1.328
       1.540
       1.688
       1.689
       1.505
       1.194
       0.887
       0.700
       0.647
       0.639
       0.563
       0.373
       0.110
      -0.149
      -0.351
      -0.492
      -0.593
      -0.661
      -0.669
      -0.568
      -0.336
      -0.008
       0.340
       0.637
       0.847
       0.966
       1.002
       0.952
       0.810
       0.586
       0.322
       0.083
      -0.080
      -0.159
      -0.196
      -0.233
      -0.282
      -0.319
      -0.322
      -0.294
      -0.263
      -0.246
      -0.224
      -0.164
      -0.049
       0.088
       0.186
       0.211
       0.186
       0.171
       0.214
       0.311
       0.404
       0.423
       0.342
       0.185
       0.004
      -0.178
      -0.380
      -0.621
      -0.887
      -1.113
      -1.215
      -1.134
      -0.879
      -0.536
      -0.220
      -0.011
       0.095
       0.156
       0.220
       0.288
       0.321
       0.300
       0.257
       0.244
       0.276
       0.313
       0.297
       0.211
       0.091
      -0.008
      -0.055
      -0.056
      -0.045
      -0.062
      -0.130
      -0.237
      -0.339
      -0.381
      -0.319
      -0.143
       0.109
       0.354
       0.505
       0.508
       0.370
       0.146
      -0.083
      -0.246
      -0.304
      -0.262
      -0.149
      -0.004
       0.135
       0.241
       0.302
       0.327
       0.326
       0.301
       0.231
       0.099
      -0.090
      -0.286
      -0.417
      -0.431
      -0.346
      -0.258
      -0.287
      -0.478
      -0.755
      -0.966
      -0.986
      -0.798
      -0.493
      -0.190
       0.042
       0.211
       0.355
       0.482
       0.553
       0.525
       0.403
       0.247
       0.137
       0.114
       0.173
       0.287
       0.450
       0.671
       0.937
       1.183
       1.312
       1.256
       1.016
       0.674
       0.341
       0.104
      -0.009
      -0.035
      -0.041
      -0.090
      -0.208
      -0.393
      -0.615
      -0.824
      -0.966
      -1.004
      -0.932
      -0.770
      -0.556
      -0.334
      -0.139
       0.009
       0.113
       0.195
       0.281
       0.384
       0.490
       0.560
       0.555
       0.455
       0.270
       0.033
      -0.209
      -0.418
      -0.588
      -0.738
      -0.889
      -1.027
      -1.113
      -1.108
      -1.007
      -0.840
      -0.652
      -0.472
      -0.289
      -0.063
       0.231
       0.562
       0.832
       0.932
       0.794
       0.432
      -0.059
      -0.535
      -0.860
      -0.967
      -0.881
      -0.688
      -0.473
      -0.282
      -0.118
       0.031
       0.170
       0.296
       0.412
       0.524
       0.629
       0.695
       0.674
       0.549
       0.354
       0.165
       0.049
       0.015
       0.011
      -0.037
      -0.171
      -0.362
      -0.533
      -0.610
      -0.574
      -0.455
      -0.316
      -0.219
      -0.200
      -0.244
      -0.287
      -0.260
      -0.143
       0.027
       0.190
       0.308
       0.384
       0.440
       0.491
       0.529
       0.538
       0.514
       0.474
       0.440
       0.422
       0.422
       0.436
       0.461
       0.489
       0.492
       0.424
       0.236
      -0.087
      -0.490
      -0.856
      -1.053
      -0.993
      -0.669
      -0.146
       0.450
       0.979
       1.318
       1.414
       1.288
       1.013
       0.663
       0.283
      -0.101
      -0.459
      -0.745
      -0.917
      -0.975
      -0.968
      -0.962
      -0.988
      -1.024
      -1.024
      -0.966
      -0.873
      -0.795
      -0.758
      -0.725
      -0.612
      -0.363
      -0.009
       0.346
       0.591
       0.690
       0.689
       0.653
       0.596
       0.468
       0.223
      -0.107
      -0.406
      -0.550
      -0.492
      -0.281
      -0.013
       0.219
       0.370
       0.438
       0.448
       0.423
       0.375
       0.322
       0.283
       0.255
       0.199
       0.067
      -0.143
      -0.353
      -0.443
      -0.337
      -0.052
       0.309
       0.626
       0.823
       0.876
       0.800
       0.618
       0.360
       0.069
      -0.199
      -0.395
      -0.494
      -0.508
      -0.474
      -0.432
      -0.402
      -0.381
      -0.341
      -0.246
      -0.065
       0.195
       0.474
       0.681
       0.755
       0.708
       0.602
       0.485
       0.353
       0.175
      -0.054
      -0.296
      -0.496
      -0.622
      -0.677
      -0.675
      -0.617
      -0.496
      -0.321
      -0.124
       0.056
       0.190
       0.269
       0.306
       0.337
       0.402
       0.513
       0.634
       0.686
       0.598
       0.348
      -0.006
      -0.338
      -0.505
      -0.431
      -0.160
       0.155
       0.339
       0.283
       0.006
      -0.363
      -0.658
      -0.767
      -0.671
      -0.424
      -0.109
       0.197
       0.431
       0.559
       0.575
       0.518
       0.450
       0.428
       0.464
       0.508
       0.482
       0.343
       0.117
      -0.115
      -0.288
      -0.394
      -0.482
      -0.608
      -0.781
      -0.923
      -0.912
      -0.668
      -0.233
       0.245
       0.605
       0.769
       0.760
       0.651
       0.495
       0.309
       0.105
      -0.085
      -0.210
      -0.243
      -0.212
      -0.174
      -0.176
      -0.235
      -0.348
      -0.513
      -0.725
      -0.967
      -1.197
      -1.352
      -1.376
      -1.249
      -1.007
      -0.729
      -0.500
      -0.380
      -0.393
      -0.532
      -0.746
      -0.953
      -1.066
      -1.029
      -0.849
      -0.581
      -0.296
      -0.052
       0.110
       0.157
       0.073
      -0.117
      -0.345
      -0.536
      -0.651
      -0.689
      -0.664
      -0.574
      -0.399
      -0.130
       0.214
       0.582
       0.910
       1.155
       1.318
       1.433
       1.525
       1.584
       1.576
       1.477
       1.295
       1.073
       0.862
       0.690
       0.551
       0.415
       0.246
       0.028
      -0.213
      -0.414
      -0.514
      -0.511
      -0.457
      -0.412
      -0.381
      -0.308
      -0.129
       0.171
       0.530
       0.836
       0.986
       0.954
       0.807
       0.656
       0.579
       0.571
       0.572
       0.529
       0.440
       0.343
       0.272
       0.215
       0.114
      -0.086
      -0.394
      -0.759
      -1.098
      -1.346
      -1.486
      -1.535
      -1.497
      -1.323
      -0.942
      -0.352
       0.324
       0.881
       1.155
       1.118
       0.888
       0.639
       0.497
       0.489
       0.569
       0.691
       0.852
       1.060
       1.277
       1.406
       1.359
       1.137
       0.837
       0.566
       0.359
       0.176
      -0.020
      -0.212
      -0.357
      -0.443
      -0.509
      -0.590
      -0.664
      -0.663
      -0.532
      -0.295
      -0.044
       0.111
       0.119
       0.014
      -0.119
      -0.217
      -0.271
      -0.289
      -0.247
      -0.084
       0.227
       0.621
       0.959
       1.112
       1.037
       0.788
       0.454
       0.104
      -0.245
      -0.599
      -0.959
      -1.299
      -1.567
      -1.721
      -1.751
      -1.688
      -1.588
      -1.493
      -1.389
      -1.195
      -0.814
      -0.212
       0.520
       1.178
       1.546
       1.522
       1.178
       0.718
       0.343
       0.141
       0.053
      -0.059
      -0.307
      -0.708
      -1.174
      -1.558
      -1.723
      -1.598
      -1.193
      -0.584
       0.117
       0.789
       1.342
       1.741
       1.996
       2.125
       2.110
       1.908
       1.486
       0.884
       0.235
      -0.290
      -0.568
      -0.583
      -0.410
      -0.157
       0.085
       0.259
       0.341
       0.349
       0.343
       0.401
       0.568
       0.798
       0.957
       0.888
       0.513
      -0.103
      -0.776
      -1.287
      -1.482
      -1.326
      -0.893
      -0.334
       0.184
       0.532
       0.650
       0.564
       0.350
       0.102
      -0.105
      -0.236
      -0.304
      -0.362
      -0.479
      -0.701
      -1.025
      -1.412
      -1.818
      -2.204
      -2.522
      -2.706
      -2.694
      -2.476
      -2.111
      -1.677
      -1.213
      -0.690
      -0.071
       0.598
       1.164
       1.449
       1.379
       1.053
       0.683
       0.458
       0.434
       0.532
       0.623
       0.631
       0.567
       0.502
       0.502
       0.582
       0.697
       0.776
       0.761
       0.644
       0.469
       0.307
       0.217
       0.219
       0.280
       0.340
       0.333
       0.221
       0.014
      -0.237
      -0.461
      -0.608
      -0.662
      -0.648
      -0.626
      -0.679
      -0.878
      -1.258
      -1.802
      -2.456
      -3.136
      -3.750
      -4.223
      -4.520
      -4.654
      -4.673
      -4.631
      -4.560
      -4.467
      -4.333
      -4.146
      -3.907
      -3.622
      -3.274
      -2.818
      -2.208
      -1.456
      -0.645
       0.106
       0.710
       1.149
       1.456
       1.650
       1.714
       1.629
       1.430
       1.237
       1.213
       1.481
       2.036
       2.744
       3.419
       3.943
       4.294
       4.490
       4.510
       4.293
       3.811
       3.145
       2.473
       1.977
       1.743
       1.743
       1.895
       2.149
       2.521
       3.047
       3.726
       4.483
       5.210
       5.820
       6.288
       6.649
       6.945
       7.179
       7.317
       7.332
       7.232
       7.034
       6.721
       6.225
       5.474
       4.471
       3.331
       2.244
       1.375
       0.778
       0.390
       0.102
      -0.151
      -0.365
      -0.483
      -0.424
      -0.113
       0.460
       1.198
       1.903
       2.369
       2.469
       2.192
       1.597
       0.770
      -0.189
      -1.153
      -1.958
      -2.441
      -2.518
      -2.243
      -1.805
      -1.449
      -1.372
      -1.664
      -2.320
      -3.298
      -4.539
      -5.935
      -7.288
      -8.337
      -8.858
      -8.761
      -8.107
      -7.044
      -5.735
      -4.319
      -2.907
      -1.604
      -0.522
       0.223
       0.546
       0.446
       0.034
      -0.517
      -1.050
      -1.498
      -1.883
      -2.263
      -2.661
      -3.031
      -3.281
      -3.315
      -3.066
      -2.516
      -1.708
      -0.744
       0.241
       1.127
       1.853
       2.429
       2.895
       3.259
       3.477
       3.489
       3.285
       2.920
       2.446
       1.842
       1.025
      -0.047
      -1.255
      -2.314
      -2.869
      -2.656
      -1.608
       0.132
       2.272
       4.458
       6.325
       7.538
       7.842
       7.110
       5.353
       2.710
      -0.558
      -4.056
      -7.282
      -9.717
     -10.956
     -10.818
      -9.388
      -6.996
      -4.113
      -1.219
       1.327
       3.349
       4.841
       5.887
       6.547
       6.793
       6.527
       5.680
       4.313
       2.633
       0.927
      -0.549
      -1.651
      -2.358
      -2.733
      -2.888
      -2.978
      -3.169
      -3.584
      -4.220
      -4.946
      -5.570
      -5.943
      -6.003
      -5.742
      -5.147
      -4.182
      -2.834
      -1.174
       0.651
       2.490
       4.244
       5.838
       7.134
       7.922
       8.001
       7.298
       5.906
       4.051
       2.012
       0.048
      -1.661
      -3.033
      -4.047
      -4.706
      -5.028
      -5.067
      -4.905
      -4.600
      -4.127
      -3.391
      -2.307
      -0.888
       0.737
       2.374
       3.828
       4.912
       5.432
       5.198
       4.121
       2.303
       0.056
      -2.196
      -4.053
      -5.246
      -5.668
      -5.325
      -4.291
      -2.704
      -0.803
       1.072
       2.544
       3.321
       3.300
       2.593
       1.480
       0.311
      -0.614
      -1.127
      -1.244
      -1.145
      -1.096
      -1.309
      -1.831
      -2.525
      -3.159
      -3.505
      -3.388
      -2.685
      -1.362
       0.449
       2.410
       4.043
       4.890
       4.682
       3.430
       1.384
      -1.071
      -3.540
      -5.713
      -7.411
      -8.576
      -9.228
      -9.398
      -9.098
      -8.324
      -7.115
      -5.608
      -4.053
      -2.732
      -1.838
      -1.396
      -1.298
      -1.424
      -1.740
      -2.301
      -3.182
      -4.393
      -5.853
      -7.414
      -8.925
     -10.260
     -11.318
     -12.004
     -12.263
     -12.136
     -11.781
     -11.395
     -11.116
     -10.970
     -10.905
     -10.840
     -10.700
     -10.385
      -9.759
      -8.686
      -7.131
      -5.231
      -3.256
      -1.475
      -0.011
       1.185
       2.218
       3.118
       3.787
       4.089
       3.997
       3.681
       3.457
       3.649
       4.463
       5.968
       8.116
      10.752
      13.598
      16.301
      18.549
      20.224
      21.457
      22.571
      23.907
      25.657
      27.783
      30.074
      32.273
      34.181
      35.677
      36.681
      37.142
      37.078
      36.624
      36.003
      35.404
      34.865
      34.264
      33.427
      32.274
      30.878
      29.402
      27.984
      26.648
      25.296
      23.786
      22.023
      20.026
      17.913
      15.851
      13.995
      12.447
      11.235
      10.288
       9.440
       8.472
       7.180
       5.421
       3.126
       0.301
      -2.954
      -6.433
      -9.857
     -12.971
     -15.617
     -17.762
     -19.455
     -20.764
     -21.721
     -22.282
     -22.328
     -21.718
     -20.404
     -18.542
     -16.503
     -14.781
     -13.831
     -13.914
     -15.023
     -16.924
     -19.270
     -21.734
     -24.099
     -26.261
     -28.196
     -29.896
     -31.331
     -32.443
     -33.176
     -33.494
     -33.393
     -32.897
     -32.060
     -30.948
     -29.579
     -27.910
     -25.862
     -23.418
     -20.704
     -18.000
     -15.659
     -13.964
     -13.012
     -12.677
     -12.698
     -12.803
     -12.834
     -12.785
     -12.761
     -12.870
     -13.110
     -13.321
     -13.248
     -12.647
     -11.386
      -9.487
      -7.136
      -4.657
      -2.446
      -0.843
       0.008
       0.216
       0.075
      -0.081
      -0.016
       0.361
       1.032
       1.936
       3.013
       4.218
       5.509
       6.825
       8.089
       9.239
      10.271
      11.241
      12.226
      13.252
      14.251
      15.077
      15.554
      15.526
      14.890
      13.624
      11.828
       9.763
       7.818
       6.381
       5.681
       5.691
       6.204
       6.989
       7.917
       8.966
      10.147
      11.419
      12.661
      13.706
      14.423
      14.766
      14.769
      14.474
      13.901
      13.058
      11.990
      10.796
       9.612
       8.537
       7.565
       6.554
       5.290
       3.608
       1.496
      -0.880
      -3.239
      -5.288
      -6.788
      -7.573
      -7.536
      -6.648
      -4.999
      -2.817
      -0.436
       1.794
       3.592
       4.788
       5.327
       5.254
       4.701
       3.854
       2.895
       1.968
       1.200
       0.749
       0.795
       1.425
       2.498
       3.615
       4.265
       4.057
       2.892
       0.988
      -1.226
      -3.274
      -4.770
      -5.508
      -5.494
      -4.942
      -4.207
      -3.677
      -3.631
      -4.129
      -5.013
      -6.026
      -6.962
      -7.744
      -8.395
      -8.962
      -9.463
      -9.889
     -10.223
     -10.440
     -10.481
     -10.257
      -9.702
      -8.857
      -7.911
      -7.108
      -6.603
      -6.344
      -6.102
      -5.621
      -4.802
      -3.767
      -2.786
      -2.107
      -1.849
      -2.004
      -2.532
      -3.428
      -4.704
      -6.297
      -7.994
      -9.425
     -10.171
      -9.923
      -8.627
      -6.507
      -3.967
      -1.424
       0.812
       2.570
       3.781
       4.442
       4.600
       4.371
       3.938
       3.524
       3.334
       3.483
       3.950
       4.589
       5.229
       5.802
       6.405
       7.243
       8.483
      10.118
      11.932
      13.589
      14.767
      15.279
      15.106
      14.392
      13.419
      12.539
      12.050
      12.054
      12.422
      12.889
      13.224
      13.307
      13.113
      12.634
      11.867
      10.859
       9.745
       8.712
       7.888
       7.224
       6.481
       5.334
       3.548
       1.102
      -1.785
      -4.743
      -7.396
      -9.452
     -10.738
     -11.177
     -10.795
      -9.753
      -8.354
      -6.979
      -5.964
      -5.483
      -5.518
      -5.898
      -6.385
      -6.751
      -6.827
      -6.537
      -5.891
      -4.950
      -3.805
      -2.573
      -1.399
      -0.435
       0.221
       0.579
       0.754
       0.910
       1.161
       1.493
       1.753
       1.702
       1.125
      -0.066
      -1.769
      -3.721
      -5.588
      -7.093
      -8.100
      -8.616
      -8.705
      -8.385
      -7.578
      -6.139
      -3.965
      -1.112
       2.121
       5.236
       7.694
       9.114
       9.395
       8.710
       7.382
       5.757
       4.106
       2.606
       1.358
       0.427
      -0.131
      -0.275
       0.022
       0.767
       1.935
       3.428
       5.043
       6.503
       7.557
       8.087
       8.142
       7.869
       7.389
       6.715
       5.792
       4.597
       3.225
       1.871
       0.739
      -0.069
      -0.602
      -1.027
      -1.515
      -2.121
      -2.733
      -3.146
      -3.211
      -2.974
      -2.699
      -2.764
      -3.480
      -4.942
      -6.975
      -9.204
     -11.194
     -12.610
     -13.310
     -13.349
     -12.898
     -12.145
     -11.245
     -10.330
      -9.514
      -8.859
      -8.324
      -7.770
      -7.034
      -6.051
      -4.905
      -3.793
      -2.926
      -2.448
      -2.397
      -2.708
      -3.245
      -3.867
      -4.482
      -5.055
      -5.545
      -5.847
      -5.816
      -5.370
      -4.607
      -3.805
      -3.293
      -3.263
      -3.666
      -4.255
      -4.735
      -4.909
      -4.720
      -4.206
      -3.428
      -2.450
      -1.344
      -0.182
       0.988
       2.154
       3.317
       4.449
       5.479
       6.310
       6.866
       7.146
       7.237
       7.271
       7.343
       7.449
       7.482
       7.289
       6.772
       5.976
       5.107
       4.451
       4.252
       4.612
       5.473
       6.656
       7.933
       9.092
       9.972
      10.499
      10.716
      10.766
      10.820
      10.960
      11.114
      11.095
      10.701
       9.804
       8.388
       6.554
       4.500
       2.502
       0.872
      -0.135
      -0.439
      -0.183
       0.328
       0.803
       1.103
       1.255
       1.329
