Origin Time       11/8/2009 21:43:39 
Lat.              24.4 N 
Long.             94.8 E 
Depth (Km)         22.0
Magnitude         5.6
 Region           MYANMAR-INDIA(MANIPUR)BORDER                                     
 Above details taken from IMD 
     
Station Code      GOL
Station Lat.       26.152  N
Station Long.      90.627  E
Station Height(m)   56.0
Site Class        C   Vs30 between 200 m/sec to 375 m/sec *  
Record Time       11.08.2009 21:45:15.229
Sampling Rate     200. Hz
 Record Duration   73.965 Sec.
 Direction         E-W (E positive)
Max. Acceleration     15.549 cm/sec**2
     
  * For reference see Site Classification link of website 
     
 Base Line Corrected and Low Pass Filtered (Cut Off at 35 Hz) Time History
 Acceleration data in cm/sec**2
    
[...]
       1.814
       1.875
       1.853
       1.717
       1.474
       1.163
       0.823
       0.491
       0.206
       0.006
      -0.102
      -0.170
      -0.300
      -0.581
      -1.020
      -1.520
      -1.944
      -2.186
      -2.212
      -2.053
      -1.769
      -1.423
      -1.074
      -0.763
      -0.515
      -0.327
      -0.173
      -0.020
       0.154
       0.338
       0.493
       0.581
       0.596
       0.571
       0.560
       0.610
       0.743
       0.957
       1.228
       1.540
       1.886
       2.258
       2.621
       2.904
       3.028
       2.941
       2.631
       2.106
       1.383
       0.505
      -0.440
      -1.325
      -2.029
      -2.484
      -2.693
      -2.700
      -2.557
      -2.310
      -2.003
      -1.686
      -1.389
      -1.101
      -0.779
      -0.389
       0.056
       0.491
       0.830
       0.995
       0.948
       0.701
       0.309
      -0.152
      -0.617
      -1.053
      -1.468
      -1.885
      -2.310
      -2.714
      -3.036
      -3.200
      -3.146
      -2.863
      -2.407
      -1.880
      -1.377
      -0.935
      -0.517
      -0.037
       0.570
       1.300
       2.061
       2.711
       3.128
       3.250
       3.096
       2.732
       2.238
       1.684
       1.131
       0.632
       0.229
      -0.076
      -0.320
      -0.549
      -0.769
      -0.926
      -0.936
      -0.736
      -0.330
       0.206
       0.744
       1.157
       1.382
       1.433
       1.382
       1.290
       1.169
       0.984
       0.682
       0.235
      -0.344
      -0.996
      -1.615
      -2.067
      -2.224
      -2.021
      -1.487
      -0.740
       0.068
       0.814
       1.452
       2.001
       2.495
       2.927
       3.226
       3.283
       3.007
       2.356
       1.359
       0.102
      -1.277
      -2.612
      -3.739
      -4.532
      -4.924
      -4.902
      -4.494
      -3.761
      -2.797
      -1.735
      -0.714
       0.151
       0.798
       1.196
       1.325
       1.164
       0.731
       0.109
      -0.564
      -1.141
      -1.527
      -1.703
      -1.704
      -1.572
      -1.320
      -0.946
      -0.456
       0.113
       0.697
       1.212
       1.581
       1.765
       1.787
       1.713
       1.604
       1.450
       1.167
       0.662
      -0.080
      -0.948
      -1.737
      -2.241
      -2.344
      -2.060
      -1.513
      -0.876
      -0.314
       0.087
       0.344
       0.566
       0.880
       1.334
       1.851
       2.276
       2.476
       2.422
       2.195
       1.923
       1.719
       1.659
       1.777
       2.059
       2.435
       2.797
       3.040
       3.092
       2.918
       2.511
       1.903
       1.177
       0.466
      -0.089
      -0.396
      -0.446
      -0.302
      -0.046
       0.260
       0.579
       0.883
       1.128
       1.245
       1.162
       0.835
       0.271
      -0.469
      -1.300
      -2.134
      -2.915
      -3.619
      -4.239
      -4.745
      -5.057
      -5.071
      -4.716
      -4.010
      -3.058
      -2.006
      -0.981
      -0.076
       0.641
       1.127
       1.373
       1.420
       1.357
       1.275
       1.217
       1.148
       0.975
       0.609
       0.045
      -0.595
      -1.082
      -1.182
      -0.776
       0.075
       1.167
       2.260
       3.189
       3.893
       4.369
       4.604
       4.556
       4.183
       3.484
       2.504
       1.331
       0.092
      -1.047
      -1.910
      -2.380
      -2.481
      -2.380
      -2.300
      -2.386
      -2.617
      -2.822
      -2.767
      -2.288
      -1.386
      -0.248
       0.838
       1.613
       1.940
       1.819
       1.347
       0.660
      -0.102
      -0.833
      -1.485
      -2.063
      -2.584
      -3.026
      -3.309
      -3.331
      -3.031
      -2.430
      -1.616
      -0.699
       0.231
       1.103
       1.859
       2.445
       2.837
       3.066
       3.223
       3.407
       3.679
       4.027
       4.358
       4.531
       4.395
       3.864
       2.955
       1.775
       0.473
      -0.807
      -1.952
      -2.881
      -3.544
      -3.930
      -4.075
      -4.051
      -3.951
      -3.846
      -3.764
      -3.682
      -3.535
      -3.242
      -2.757
      -2.118
      -1.441
      -0.863
      -0.466
      -0.242
      -0.124
      -0.038
       0.049
       0.135
       0.212
       0.293
       0.414
       0.626
       0.973
       1.456
       2.008
       2.496
       2.763
       2.690
       2.239
       1.480
       0.582
      -0.234
      -0.781
      -0.999
      -0.982
      -0.911
      -0.913
      -0.980
      -1.001
      -0.877
      -0.615
      -0.322
      -0.119
      -0.054
      -0.071
      -0.057
       0.090
       0.423
       0.943
       1.600
       2.293
       2.875
       3.198
       3.167
       2.780
       2.122
       1.311
       0.442
      -0.430
      -1.254
      -1.942
      -2.378
      -2.477
      -2.272
      -1.940
      -1.736
      -1.865
      -2.366
      -3.091
      -3.787
      -4.225
      -4.289
      -3.966
      -3.298
      -2.329
      -1.104
       0.298
       1.744
       3.064
       4.108
       4.799
       5.127
       5.117
       4.806
       4.253
       3.554
       2.828
       2.167
       1.598
       1.061
       0.456
      -0.277
      -1.109
      -1.923
      -2.594
      -3.064
      -3.358
      -3.526
      -3.577
      -3.445
      -3.013
      -2.183
      -0.959
       0.491
       1.860
       2.816
       3.166
       2.949
       2.388
       1.739
       1.169
       0.726
       0.405
       0.203
       0.120
       0.115
       0.098
      -0.047
      -0.380
      -0.863
      -1.379
      -1.803
      -2.088
      -2.278
      -2.470
      -2.735
      -3.057
      -3.328
      -3.389
      -3.122
      -2.526
      -1.715
      -0.858
      -0.081
       0.587
       1.217
       1.918
       2.764
       3.727
       4.657
       5.328
       5.541
       5.228
       4.497
       3.583
       2.732
       2.089
       1.663
       1.369
       1.115
       0.870
       0.671
       0.584
       0.630
       0.733
       0.739
       0.493
      -0.072
      -0.895
      -1.807
      -2.588
      -3.031
      -2.988
      -2.387
      -1.257
       0.278
       2.025
       3.765
       5.283
       6.387
       6.912
       6.730
       5.780
       4.099
       1.837
      -0.723
      -3.200
      -5.205
      -6.466
      -6.936
      -6.769
      -6.216
      -5.483
      -4.653
      -3.708
      -2.605
      -1.351
      -0.031
       1.193
       2.131
       2.612
       2.557
       2.023
       1.197
       0.309
      -0.471
      -1.094
      -1.601
      -2.044
      -2.422
      -2.700
      -2.864
      -2.955
      -3.032
      -3.085
      -2.997
      -2.577
      -1.684
      -0.351
       1.160
       2.451
       3.193
       3.321
       3.069
       2.794
       2.741
       2.884
       2.978
       2.724
       1.959
       0.735
      -0.720
      -2.102
      -3.119
      -3.565
      -3.363
      -2.577
      -1.380
       0.024
       1.481
       2.906
       4.247
       5.419
       6.291
       6.730
       6.669
       6.132
       5.184
       3.872
       2.212
       0.215
      -2.058
      -4.468
      -6.813
      -8.870
     -10.461
     -11.482
     -11.897
     -11.725
     -11.007
      -9.788
      -8.108
      -6.018
      -3.627
      -1.128
       1.216
       3.145
       4.475
       5.144
       5.217
       4.860
       4.296
       3.741
       3.323
       3.053
       2.865
       2.693
       2.523
       2.368
       2.215
       2.003
       1.669
       1.190
       0.610
       0.022
      -0.461
      -0.741
      -0.759
      -0.516
      -0.073
       0.478
       1.063
       1.645
       2.196
       2.639
       2.842
       2.698
       2.210
       1.504
       0.756
       0.099
      -0.414
      -0.798
      -1.094
      -1.332
      -1.513
      -1.613
      -1.617
      -1.548
      -1.480
      -1.533
      -1.834
      -2.458
      -3.345
      -4.275
      -4.937
      -5.071
      -4.597
      -3.648
      -2.493
      -1.399
      -0.500
       0.236
       0.952
       1.772
       2.691
       3.561
       4.162
       4.348
       4.176
       3.948
       4.095
       4.944
       6.498
       8.389
      10.030
      10.880
      10.656
       9.400
       7.402
       5.047
       2.658
       0.413
      -1.650
      -3.532
      -5.161
      -6.365
      -6.962
      -6.904
      -6.346
      -5.578
      -4.866
      -4.334
      -3.946
      -3.591
      -3.168
      -2.615
      -1.916
      -1.114
      -0.325
       0.291
       0.625
       0.734
       0.860
       1.313
       2.262
       3.588
       4.904
       5.751
       5.827
       5.120
       3.861
       2.392
       1.022
      -0.063
      -0.851
      -1.487
      -2.189
      -3.128
      -4.333
      -5.695
      -7.041
      -8.208
      -9.073
      -9.548
      -9.587
      -9.223
      -8.572
      -7.757
      -6.787
      -5.515
      -3.742
      -1.415
       1.242
       3.772
       5.701
       6.791
       7.149
       7.126
       7.055
       7.032
       6.871
       6.279
       5.086
       3.405
       1.594
       0.085
      -0.832
      -1.141
      -1.068
      -0.901
      -0.796
      -0.694
      -0.404
       0.240
       1.263
       2.534
       3.819
       4.852
       5.389
       5.278
       4.533
       3.359
       2.084
       1.017
       0.305
      -0.128
      -0.511
      -1.068
      -1.856
      -2.729
      -3.464
      -3.960
      -4.357
      -4.945
      -5.947
      -7.306
      -8.660
      -9.523
      -9.571
      -8.843
      -7.702
      -6.571
      -5.642
      -4.762
      -3.578
      -1.810
       0.526
       3.093
       5.379
       6.943
       7.596
       7.455
       6.857
       6.209
       5.824
       5.793
       5.977
       6.126
       6.057
       5.763
       5.374
       5.025
       4.763
       4.526
       4.204
       3.699
       2.965
       2.016
       0.926
      -0.183
      -1.160
      -1.877
      -2.276
      -2.396
      -2.363
      -2.326
      -2.374
      -2.478
      -2.517
      -2.395
      -2.145
      -1.930
      -1.939
      -2.264
      -2.873
      -3.671
      -4.550
      -5.381
      -5.983
      -6.155
      -5.767
      -4.843
      -3.555
      -2.150
      -0.848
       0.218
       1.001
       1.518
       1.862
       2.213
       2.766
       3.594
       4.530
       5.228
       5.369
       4.886
       4.028
       3.208
       2.743
       2.669
       2.769
       2.784
       2.634
       2.472
       2.541
       2.947
       3.563
       4.126
       4.437
       4.472
       4.317
       3.991
       3.351
       2.159
       0.263
      -2.242
      -4.983
      -7.424
      -9.074
      -9.678
      -9.310
      -8.312
      -7.119
      -6.075
      -5.341
      -4.920
      -4.735
      -4.662
      -4.539
      -4.173
      -3.403
      -2.178
      -0.593
       1.129
       2.723
       3.953
       4.662
       4.786
       4.350
       3.435
       2.146
       0.610
      -0.995
      -2.413
      -3.348
      -3.550
      -2.942
      -1.700
      -0.226
       0.994
       1.608
       1.538
       0.985
       0.279
      -0.306
      -0.674
      -0.897
      -1.101
      -1.336
      -1.527
      -1.535
      -1.273
      -0.781
      -0.228
       0.187
       0.349
       0.316
       0.306
       0.570
       1.243
       2.275
       3.480
       4.649
       5.647
       6.421
       6.947
       7.190
       7.112
       6.685
       5.890
       4.707
       3.136
       1.249
      -0.777
      -2.696
      -4.259
      -5.283
      -5.689
      -5.530
      -4.999
      -4.367
      -3.870
      -3.592
      -3.430
      -3.166
      -2.594
      -1.646
      -0.446
       0.725
       1.569
       1.925
       1.845
       1.545
       1.265
       1.146
       1.178
       1.245
       1.214
       1.039
       0.801
       0.672
       0.803
       1.225
       1.828
       2.425
       2.849
       3.027
       2.981
       2.775
       2.439
       1.950
       1.275
       0.426
      -0.519
      -1.455
      -2.290
      -2.954
      -3.377
      -3.491
      -3.271
      -2.796
      -2.257
      -1.876
      -1.785
      -1.949
      -2.199
      -2.342
      -2.275
      -2.033
      -1.727
      -1.453
      -1.215
      -0.916
      -0.426
       0.324
       1.267
       2.222
       2.999
       3.522
       3.871
       4.215
       4.674
       5.215
       5.643
       5.718
       5.312
       4.507
       3.543
       2.635
       1.816
       0.916
      -0.273
      -1.779
      -3.347
      -4.537
      -4.964
      -4.533
      -3.509
      -2.382
      -1.609
      -1.402
      -1.670
      -2.125
      -2.455
      -2.441
      -2.002
      -1.189
      -0.136
       0.992
       2.041
       2.875
       3.367
       3.393
       2.881
       1.880
       0.588
      -0.694
      -1.672
      -2.188
      -2.311
      -2.326
      -2.631
      -3.560
      -5.208
      -7.344
      -9.487
     -11.116
     -11.881
     -11.709
     -10.750
      -9.262
      -7.505
      -5.673
      -3.833
      -1.898
       0.325
       2.988
       6.051
       9.235
      12.119
      14.293
      15.473
      15.549
      14.606
      12.899
      10.778
       8.549
       6.379
       4.314
       2.403
       0.808
      -0.235
      -0.583
      -0.357
       0.048
       0.139
      -0.408
      -1.578
      -3.038
      -4.348
      -5.193
      -5.505
      -5.414
      -5.111
      -4.730
      -4.320
      -3.880
      -3.396
      -2.848
      -2.202
      -1.429
      -0.554
       0.308
       0.959
       1.193
       0.907
       0.171
      -0.787
      -1.677
      -2.266
      -2.455
      -2.315
      -2.056
      -1.935
      -2.138
      -2.676
      -3.364
      -3.916
      -4.093
      -3.836
      -3.279
      -2.650
      -2.138
      -1.794
      -1.539
      -1.214
      -0.664
       0.202
       1.354
       2.633
       3.810
       4.712
       5.305
       5.677
       5.931
       6.092
       6.111
       5.949
       5.640
       5.270
       4.897
       4.489
       3.930
       3.093
       1.942
       0.603
      -0.638
      -1.459
      -1.676
      -1.372
      -0.875
      -0.563
      -0.635
      -1.001
      -1.378
      -1.517
      -1.375
      -1.121
      -0.956
      -0.939
      -0.948
      -0.793
      -0.368
       0.295
       1.078
       1.871
       2.589
       3.151
       3.445
       3.359
       2.860
       2.052
       1.151
       0.375
      -0.195
      -0.662
      -1.217
      -1.970
      -2.849
      -3.656
      -4.257
      -4.709
      -5.221
      -5.945
      -6.787
      -7.390
      -7.317
      -6.321
      -4.506
      -2.303
      -0.279
       1.105
       1.670
       1.575
       1.241
       1.181
       1.783
       3.117
       4.878
       6.517
       7.516
       7.634
       6.994
       5.964
       4.944
       4.178
       3.672
       3.243
       2.654
       1.764
       0.624
      -0.552
      -1.509
      -2.067
      -2.186
      -1.937
      -1.441
      -0.821
      -0.177
       0.411
       0.884
       1.217
       1.423
       1.544
       1.606
       1.578
       1.365
       0.846
      -0.048
      -1.275
      -2.680
      -4.056
      -5.200
      -5.948
      -6.190
      -5.895
      -5.159
      -4.211
      -3.350
      -2.801
      -2.603
      -2.594
      -2.517
      -2.181
      -1.570
      -0.840
      -0.214
       0.145
       0.226
       0.170
       0.188
       0.458
       1.034
       1.814
       2.587
       3.144
       3.374
       3.304
       3.063
       2.815
       2.698
       2.775
       3.010
       3.257
       3.324
       3.064
       2.464
       1.634
       0.731
      -0.140
      -0.967
      -1.795
      -2.655
      -3.517
      -4.293
      -4.892
      -5.270
      -5.447
      -5.464
      -5.346
      -5.096
      -4.725
      -4.280
      -3.821
      -3.373
      -2.897
      -2.318
      -1.600
      -0.808
      -0.076
       0.478
       0.847
       1.143
       1.530
       2.109
       2.830
       3.488
       3.813
       3.619
       2.917
       1.921
       0.931
       0.204
      -0.139
      -0.132
       0.060
       0.206
       0.126
      -0.190
      -0.549
      -0.658
      -0.317
       0.446
       1.416
       2.357
       3.157
       3.823
       4.382
       4.790
       4.937
       4.732
       4.188
       3.434
       2.673
       2.079
       1.712
       1.473
       1.162
       0.589
      -0.301
      -1.370
      -2.340
      -2.934
      -3.043
      -2.803
      -2.517
      -2.461
      -2.716
      -3.127
      -3.404
      -3.289
      -2.693
      -1.729
      -0.642
       0.305
       0.946
       1.258
       1.336
       1.312
       1.278
       1.257
       1.212
       1.097
       0.887
       0.594
       0.255
      -0.082
      -0.375
      -0.599
      -0.739
      -0.769
      -0.634
      -0.268
       0.338
       1.067
       1.692
       1.997
       1.922
       1.592
       1.210
       0.904
       0.673
       0.463
       0.279
       0.204
       0.318
       0.605
       0.952
       1.217
       1.309
       1.202
       0.903
       0.414
      -0.261
      -1.082
      -1.935
      -2.634
      -3.000
      -2.956
      -2.576
      -2.044
      -1.540
      -1.146
      -0.834
      -0.529
      -0.181
       0.200
       0.555
       0.820
       0.962
       1.006
       1.039
       1.183
       1.523
       2.030
       2.537
       2.827
       2.761
       2.356
       1.750
       1.120
       0.611
       0.303
       0.184
       0.136
      -0.031
      -0.466
      -1.159
      -1.929
      -2.536
      -2.838
      -2.884
      -2.857
      -2.943
      -3.195
      -3.497
      -3.637
      -3.437
      -2.868
      -2.054
      -1.196
      -0.456
       0.115
       0.568
       0.994
       1.460
       1.975
       2.482
       2.882
       3.074
       3.017
       2.749
       2.359
       1.901
       1.354
       0.658
      -0.190
      -1.099
      -1.931
      -2.598
      -3.112
      -3.549
      -3.968
      -4.352
      -4.612
      -4.637
      -4.358
      -3.786
      -3.003
      -2.121
      -1.238
      -0.410
       0.362
       1.123
       1.935
       2.832
       3.778
       4.664
       5.357
       5.760
       5.850
       5.668
       5.274
       4.712
       4.021
       3.267
       2.555
       1.989
       1.613
       1.375
       1.150
       0.812
       0.312
      -0.277
      -0.792
      -1.084
      -1.148
      -1.159
      -1.385
      -1.987
      -2.878
      -3.741
      -4.229
      -4.184
      -3.739
      -3.216
      -2.903
      -2.879
      -2.995
      -3.015
      -2.790
      -2.343
      -1.814
      -1.343
      -0.984
      -0.692
      -0.387
      -0.007
       0.469
       1.037
       1.665
       2.267
       2.699
       2.822
       2.570
       2.001
