Origin Time       29/10/2009 19:56:58
Lat.              26.6°N	
Long.             90.0°E	
Depth (Km)         10.0
Magnitude         4.2
 Region           KOKRAJHAR-ASSAM                                                  
 Above details taken from IMD 
     
Station Code      GOL
Station Lat.       26.152  N
Station Long.      90.627  E
Station Height(m)   56.0
Site Class        C   Vs30 between 200 m/sec to 375 m/sec *  
Record Time       29.10.2009 19:57:07.054
Sampling Rate     200. Hz
 Record Duration   68.415 Sec.
 Direction         E-W (E positive)
Max. Acceleration    -15.148 cm/sec**2
     
  * For reference see Site Classification link of website 
     
 Base Line Corrected and Low Pass Filtered (Cut Off at 35 Hz) Time History
 Acceleration data in cm/sec**2
    
[...]
       0.178
      -0.026
      -0.038
       0.057
       0.111
       0.014
      -0.235
      -0.543
      -0.816
      -1.007
      -1.111
      -1.122
      -1.024
      -0.823
      -0.572
      -0.347
      -0.206
      -0.169
      -0.234
      -0.392
      -0.605
      -0.797
      -0.863
      -0.738
      -0.437
      -0.055
       0.313
       0.631
       0.921
       1.198
       1.419
       1.489
       1.340
       1.006
       0.630
       0.382
       0.339
       0.419
       0.436
       0.244
      -0.151
      -0.590
      -0.874
      -0.890
      -0.658
      -0.299
       0.037
       0.233
       0.229
       0.039
      -0.247
      -0.503
      -0.616
      -0.544
      -0.336
      -0.090
       0.100
       0.180
       0.143
       0.016
      -0.150
      -0.298
      -0.396
      -0.452
      -0.502
      -0.559
      -0.581
      -0.490
      -0.234
       0.160
       0.587
       0.914
       1.051
       1.001
       0.861
       0.768
       0.803
       0.936
       1.045
       1.005
       0.788
       0.485
       0.218
       0.036
      -0.127
      -0.384
      -0.772
      -1.193
      -1.472
      -1.484
      -1.254
      -0.927
      -0.667
      -0.563
      -0.610
      -0.743
      -0.879
      -0.928
      -0.806
      -0.460
       0.088
       0.717
       1.258
       1.565
       1.581
       1.349
       0.970
       0.555
       0.210
       0.033
       0.090
       0.367
       0.725
       0.936
       0.792
       0.235
      -0.586
      -1.372
      -1.818
      -1.766
      -1.275
      -0.577
       0.046
       0.395
       0.429
       0.255
       0.048
      -0.044
       0.029
       0.199
       0.341
       0.374
       0.320
       0.279
       0.328
       0.446
       0.524
       0.451
       0.194
      -0.174
      -0.512
      -0.665
      -0.538
      -0.143
       0.377
       0.804
       0.946
       0.729
       0.232
      -0.370
      -0.885
      -1.178
      -1.197
      -0.967
      -0.563
      -0.083
       0.366
       0.681
       0.775
       0.599
       0.176
      -0.381
      -0.877
      -1.097
      -0.901
      -0.307
       0.480
       1.147
       1.414
       1.176
       0.556
      -0.168
      -0.702
      -0.874
      -0.684
      -0.266
       0.191
       0.507
       0.564
       0.340
      -0.064
      -0.455
      -0.635
      -0.504
      -0.121
       0.320
       0.586
       0.532
       0.185
      -0.280
      -0.644
      -0.772
      -0.659
      -0.373
       0.017
       0.460
       0.885
       1.179
       1.243
       1.070
       0.769
       0.489
       0.302
       0.151
      -0.078
      -0.418
      -0.758
      -0.910
      -0.757
      -0.362
       0.076
       0.362
       0.419
       0.303
       0.115
      -0.081
      -0.278
      -0.487
      -0.694
      -0.839
      -0.855
      -0.711
      -0.443
      -0.150
       0.041
       0.026
      -0.216
      -0.595
      -0.921
      -0.988
      -0.684
      -0.069
       0.634
       1.137
       1.235
       0.911
       0.345
      -0.178
      -0.422
      -0.309
       0.059
       0.474
       0.741
       0.772
       0.610
       0.379
       0.203
       0.145
       0.189
       0.267
       0.316
       0.308
       0.255
       0.172
       0.057
      -0.119
      -0.385
      -0.735
      -1.098
      -1.350
      -1.369
      -1.109
      -0.628
      -0.066
       0.421
       0.717
       0.780
       0.654
       0.462
       0.356
       0.433
       0.674
       0.948
       1.089
       1.005
       0.720
       0.341
      -0.025
      -0.342
      -0.637
      -0.957
      -1.306
      -1.617
      -1.762
      -1.619
      -1.158
      -0.493
       0.163
       0.603
       0.737
       0.620
       0.392
       0.186
       0.070
       0.055
       0.124
       0.257
       0.427
       0.595
       0.715
       0.763
       0.742
       0.676
       0.589
       0.489
       0.371
       0.220
       0.019
      -0.244
      -0.550
      -0.848
      -1.063
      -1.127
      -1.013
      -0.753
      -0.429
      -0.140
       0.040
       0.093
       0.060
       0.012
       0.014
       0.102
       0.270
       0.473
       0.638
       0.706
       0.669
       0.579
       0.507
       0.477
       0.438
       0.295
      -0.012
      -0.445
      -0.862
      -1.090
      -1.028
      -0.708
      -0.270
       0.119
       0.342
       0.380
       0.297
       0.192
       0.134
       0.124
       0.110
       0.038
      -0.102
      -0.257
      -0.337
      -0.272
      -0.057
       0.219
       0.419
       0.430
       0.236
      -0.068
      -0.329
      -0.423
      -0.319
      -0.077
       0.195
       0.393
       0.448
       0.335
       0.070
      -0.299
      -0.678
      -0.938
      -0.954
      -0.666
      -0.139
       0.450
       0.901
       1.099
       1.056
       0.872
       0.660
       0.478
       0.332
       0.212
       0.123
       0.084
       0.087
       0.066
      -0.066
      -0.347
      -0.706
      -0.996
      -1.077
      -0.897
      -0.519
      -0.081
       0.261
       0.390
       0.257
      -0.106
      -0.594
      -1.062
      -1.367
      -1.404
      -1.133
      -0.584
       0.133
       0.846
       1.359
       1.528
       1.338
       0.924
       0.508
       0.277
       0.288
       0.452
       0.596
       0.567
       0.306
      -0.113
      -0.527
      -0.768
      -0.758
      -0.550
      -0.275
      -0.061
       0.020
      -0.049
      -0.252
      -0.539
      -0.804
      -0.905
      -0.729
      -0.268
       0.370
       1.013
       1.500
       1.719
       1.610
       1.169
       0.477
      -0.281
      -0.849
      -1.008
      -0.704
      -0.107
       0.466
       0.732
       0.592
       0.155
      -0.375
      -0.823
      -1.095
      -1.150
      -0.983
      -0.649
      -0.288
      -0.086
      -0.163
      -0.479
      -0.839
      -0.998
      -0.786
      -0.187
       0.643
       1.425
       1.864
       1.793
       1.282
       0.600
       0.062
      -0.155
      -0.081
       0.113
       0.248
       0.222
       0.036
      -0.249
      -0.536
      -0.731
      -0.766
      -0.636
      -0.406
      -0.192
      -0.090
      -0.102
      -0.122
      -0.001
       0.334
       0.794
       1.152
       1.177
       0.780
       0.089
      -0.614
      -1.052
      -1.100
      -0.827
      -0.410
      -0.015
       0.272
       0.435
       0.492
       0.463
       0.367
       0.226
       0.063
      -0.093
      -0.214
      -0.287
      -0.306
      -0.272
      -0.187
      -0.074
       0.017
       0.028
      -0.062
      -0.216
      -0.350
      -0.389
      -0.317
      -0.172
      -0.015
       0.108
       0.172
       0.166
       0.098
       0.004
      -0.060
      -0.064
      -0.035
      -0.043
      -0.143
      -0.324
      -0.509
      -0.606
      -0.563
      -0.382
      -0.115
       0.152
       0.332
       0.379
       0.327
       0.276
       0.330
       0.520
       0.782
       0.997
       1.067
       0.964
       0.741
       0.487
       0.286
       0.182
       0.176
       0.226
       0.268
       0.248
       0.143
      -0.039
      -0.284
      -0.566
      -0.837
      -1.019
      -1.047
      -0.905
      -0.647
      -0.375
      -0.190
      -0.147
      -0.232
      -0.364
      -0.445
      -0.413
      -0.272
      -0.074
       0.140
       0.361
       0.581
       0.739
       0.739
       0.533
       0.182
      -0.180
      -0.435
      -0.547
      -0.541
      -0.444
      -0.268
      -0.036
       0.189
       0.322
       0.302
       0.148
      -0.042
      -0.159
      -0.170
      -0.140
      -0.168
      -0.293
      -0.467
      -0.590
      -0.566
      -0.355
      -0.003
       0.364
       0.592
       0.587
       0.386
       0.148
       0.063
       0.231
       0.593
       0.982
       1.239
       1.301
       1.204
       1.012
       0.740
       0.359
      -0.140
      -0.688
      -1.160
      -1.437
      -1.459
      -1.250
      -0.899
      -0.529
      -0.234
      -0.031
       0.123
       0.291
       0.493
       0.704
       0.863
       0.908
       0.798
       0.541
       0.205
      -0.115
      -0.352
      -0.507
      -0.632
      -0.780
      -0.959
      -1.128
      -1.206
      -1.116
      -0.841
      -0.454
      -0.091
       0.130
       0.190
       0.162
       0.146
       0.189
       0.277
       0.380
       0.490
       0.626
       0.785
       0.921
       0.966
       0.901
       0.779
       0.683
       0.653
       0.656
       0.628
       0.531
       0.378
       0.197
       0.007
      -0.197
      -0.430
      -0.712
      -1.057
      -1.434
      -1.725
      -1.752
      -1.399
      -0.739
      -0.038
       0.413
       0.501
       0.375
       0.301
       0.449
       0.760
       1.017
       1.017
       0.722
       0.265
      -0.148
      -0.371
      -0.375
      -0.229
      -0.046
       0.072
       0.075
      -0.019
      -0.128
      -0.162
      -0.094
       0.024
       0.098
       0.060
      -0.089
      -0.306
      -0.542
      -0.762
      -0.936
      -1.028
      -1.018
      -0.899
      -0.662
      -0.294
       0.195
       0.716
       1.124
       1.316
       1.330
       1.306
       1.348
       1.409
       1.327
       0.959
       0.318
      -0.410
      -0.965
      -1.163
      -0.996
      -0.634
      -0.306
      -0.173
      -0.240
      -0.395
      -0.505
      -0.511
      -0.438
      -0.346
      -0.266
      -0.170
      -0.005
       0.250
       0.544
       0.760
       0.777
       0.552
       0.170
      -0.195
      -0.367
      -0.285
      -0.037
       0.203
       0.297
       0.233
       0.101
       0.016
       0.031
       0.118
       0.199
       0.200
       0.091
      -0.099
      -0.297
      -0.412
      -0.377
      -0.187
       0.066
       0.218
       0.128
      -0.214
      -0.650
      -0.956
      -0.984
      -0.744
      -0.346
       0.088
       0.481
       0.770
       0.886
       0.772
       0.455
       0.069
      -0.201
      -0.239
      -0.085
       0.103
       0.164
       0.047
      -0.177
      -0.393
      -0.510
      -0.492
      -0.341
      -0.087
       0.203
       0.421
       0.462
       0.282
      -0.053
      -0.385
      -0.547
      -0.450
      -0.130
       0.281
       0.637
       0.862
       0.959
       0.959
       0.869
       0.675
       0.405
       0.144
      -0.023
      -0.100
      -0.192
      -0.421
      -0.800
      -1.202
      -1.443
      -1.425
      -1.190
      -0.853
      -0.505
      -0.186
       0.085
       0.281
       0.393
       0.460
       0.559
       0.749
       1.023
       1.291
       1.434
       1.377
       1.139
       0.818
       0.509
       0.241
      -0.022
      -0.325
      -0.657
      -0.946
      -1.127
      -1.205
      -1.236
      -1.243
      -1.161
      -0.895
      -0.427
       0.125
       0.574
       0.785
       0.746
       0.539
       0.270
       0.019
      -0.167
      -0.271
      -0.311
      -0.329
      -0.346
      -0.326
      -0.185
       0.133
       0.594
       1.073
       1.416
       1.511
       1.329
       0.934
       0.464
       0.063
      -0.192
      -0.337
      -0.493
      -0.762
      -1.144
      -1.530
      -1.772
      -1.756
      -1.424
      -0.770
       0.137
       1.100
       1.813
       1.981
       1.517
       0.626
      -0.283
      -0.815
      -0.806
      -0.383
       0.131
       0.418
       0.346
       0.014
      -0.357
      -0.587
      -0.628
      -0.539
      -0.398
      -0.233
      -0.013
       0.316
       0.767
       1.274
       1.678
       1.800
       1.558
       1.049
       0.531
       0.264
       0.349
       0.679
       1.060
       1.369
       1.601
       1.768
       1.788
       1.493
       0.775
      -0.270
      -1.330
      -2.035
      -2.166
      -1.790
      -1.205
      -0.746
      -0.574
      -0.599
      -0.584
      -0.347
       0.087
       0.509
       0.680
       0.515
       0.148
      -0.141
      -0.106
       0.310
       0.927
       1.412
       1.450
       0.892
      -0.185
      -1.524
      -2.786
      -3.657
      -3.953
      -3.699
      -3.117
      -2.491
      -2.020
      -1.747
      -1.596
      -1.451
      -1.216
      -0.839
      -0.326
       0.269
       0.866
       1.399
       1.845
       2.209
       2.488
       2.650
       2.645
       2.434
       1.972
       1.181
      -0.077
      -1.947
      -4.469
      -7.453
     -10.425
     -12.699
     -13.530
     -12.341
      -8.959
      -3.800
       2.120
       7.448
      10.973
      12.083
      10.956
       8.397
       5.468
       3.112
       1.900
       1.921
       2.843
       4.113
       5.190
       5.693
       5.420
       4.324
       2.480
       0.091
      -2.508
      -4.886
      -6.623
      -7.441
      -7.262
      -6.174
      -4.341
      -1.944
       0.821
       3.717
       6.431
       8.583
       9.802
       9.877
       8.862
       7.069
       4.944
       2.901
       1.171
      -0.230
      -1.379
      -2.250
      -2.642
      -2.329
      -1.336
      -0.103
       0.634
       0.166
      -1.856
      -5.247
      -9.297
     -12.953
     -15.142
     -15.148
     -12.838
      -8.656
      -3.400
       2.042
       6.869
      10.445
      12.324
      12.308
      10.500
       7.323
       3.433
      -0.417
      -3.549
      -5.517
      -6.213
      -5.864
      -4.925
      -3.917
      -3.277
      -3.212
      -3.607
      -4.062
      -4.104
      -3.455
      -2.206
      -0.755
       0.433
       1.103
       1.359
       1.572
       2.118
       3.092
       4.225
       5.056
       5.256
       4.847
       4.206
       3.880
       4.309
       5.596
       7.391
       8.981
       9.599
       8.812
       6.762
       4.084
       1.556
      -0.289
      -1.368
      -2.001
      -2.679
      -3.816
      -5.586
      -7.869
     -10.279
     -12.265
     -13.261
     -12.865
     -10.980
      -7.847
      -3.994
      -0.110
       3.119
       5.206
       6.016
       5.801
       5.082
       4.432
       4.260
       4.697
       5.588
       6.568
       7.202
       7.133
       6.183
       4.358
       1.817
      -1.143
      -4.086
      -6.494
      -7.915
      -8.143
      -7.316
      -5.859
      -4.314
      -3.126
      -2.496
      -2.348
      -2.408
      -2.340
      -1.885
      -0.935
       0.473
       2.190
       3.969
       5.462
       6.301
       6.257
       5.375
       3.967
       2.482
       1.334
       0.764
       0.751
       1.025
       1.226
       1.134
       0.815
       0.592
       0.855
       1.826
       3.408
       5.192
       6.618
       7.185
       6.604
       4.823
       1.979
      -1.611
      -5.451
      -8.904
     -11.337
     -12.310
     -11.694
      -9.687
      -6.734
      -3.423
      -0.383
       1.818
       2.813
       2.562
       1.393
      -0.084
      -1.199
      -1.474
      -0.814
       0.479
       1.865
       2.822
       3.046
       2.519
       1.434
       0.058
      -1.380
      -2.718
      -3.809
      -4.496
      -4.669
      -4.334
      -3.623
      -2.720
      -1.779
      -0.907
      -0.197
       0.272
       0.466
       0.422
       0.191
      -0.252
      -1.024
      -2.182
      -3.536
      -4.612
      -4.850
      -3.920
      -1.916
       0.714
       3.430
       5.833
       7.705
       8.889
       9.197
       8.484
       6.844
       4.710
       2.727
       1.440
       1.032
       1.263
       1.620
       1.585
       0.917
      -0.228
      -1.392
      -2.117
      -2.234
      -1.942
      -1.627
      -1.573
      -1.786
      -2.009
      -1.934
      -1.435
      -0.679
      -0.022
       0.209
      -0.080
      -0.714
      -1.385
      -1.867
      -2.136
      -2.316
      -2.508
      -2.664
      -2.595
      -2.083
      -1.049
       0.328
       1.613
       2.299
       2.097
       1.149
      -0.016
      -0.753
      -0.647
       0.296
       1.685
       2.950
       3.572
       3.260
       2.011
       0.096
      -2.041
      -3.928
      -5.223
      -5.803
      -5.756
      -5.293
      -4.647
      -3.999
      -3.423
      -2.861
      -2.168
      -1.217
       0.003
       1.367
       2.681
       3.771
       4.527
       4.911
       4.933
       4.628
       4.049
       3.287
       2.504
       1.938
       1.821
       2.238
       3.044
       3.905
       4.459
       4.479
       3.997
       3.289
       2.744
       2.638
       2.983
       3.535
       3.956
       4.003
       3.639
       2.994
       2.239
       1.423
       0.407
      -1.060
      -3.115
      -5.584
      -7.964
      -9.631
     -10.139
      -9.445
      -7.939
      -6.270
      -5.033
      -4.490
      -4.462
      -4.475
      -4.048
      -2.941
      -1.248
       0.702
       2.517
       3.896
       4.706
       5.021
       5.072
       5.140
       5.392
       5.784
       6.089
       6.019
       5.386
       4.184
       2.595
       0.905
      -0.582
      -1.634
      -2.160
      -2.256
      -2.169
      -2.205
      -2.604
      -3.455
      -4.667
      -5.996
      -7.085
      -7.518
      -6.908
      -5.033
      -1.969
       1.831
       5.608
       8.546
      10.121
      10.320
       9.575
       8.449
       7.317
       6.251
       5.116
       3.777
       2.237
       0.640
      -0.821
      -2.000
      -2.849
      -3.415
      -3.803
      -4.116
      -4.411
      -4.705
      -5.024
      -5.419
      -5.909
      -6.396
      -6.667
      -6.508
      -5.853
      -4.835
      -3.714
      -2.738
      -2.034
      -1.578
      -1.239
      -0.859
      -0.305
       0.485
       1.491
       2.618
       3.753
       4.807
       5.728
       6.440
       6.781
       6.499
       5.384
       3.437
       0.973
      -1.442
      -3.207
      -3.933
      -3.624
      -2.669
      -1.648
      -1.027
      -0.943
      -1.177
      -1.358
      -1.217
      -0.762
      -0.266
      -0.098
      -0.502
      -1.406
      -2.412
      -2.990
      -2.787
      -1.813
      -0.362
       1.241
       2.834
       4.383
       5.798
       6.804
       7.022
       6.226
       4.573
       2.595
       0.961
       0.150
       0.235
       0.844
       1.357
       1.233
       0.317
      -1.117
      -2.583
      -3.688
      -4.299
      -4.515
      -4.531
      -4.512
      -4.547
      -4.649
      -4.798
      -4.971
      -5.151
      -5.299
      -5.323
      -5.080
      -4.440
      -3.372
      -1.996
      -0.553
       0.692
       1.548
       1.967
       2.051
       2.010
       2.055
       2.300
       2.697
       3.064
       3.184
       2.920
       2.294
       1.505
       0.864
       0.646
       0.920
       1.480
       1.967
       2.131
       2.037
       2.048
       2.552
       3.653
       5.070
       6.296
       6.869
       6.580
       5.499
