Origin Time       11/8/2009 21:43:39 
Lat.              24.4 N 
Long.             94.8 E 
Depth (Km)         22.0
Magnitude         5.6
 Region           MYANMAR-INDIA(MANIPUR)BORDER                                     
 Above details taken from IMD 
   
Station Code      GOL
Station Lat.       26.152
Station Long.      90.627
Station Height(m)   56.0
Site Class        C   Vs30 between 200 m/sec to 375 m/sec *  
Record Time       11.08.2009 21:45:15.229
Sampling Rate     200. Hz
 Record Duration   73.965 Sec.
 Direction         Vert. (Up positive)
Max. Acceleration      7.925 cm/sec**2
     
  * For reference see Site Classification link of website 
     
 Base Line Corrected and Low Pass Filtered (Cut Off at 35 Hz) Time History
 Acceleration data in cm/sec**2
    
[...]
       0.697
       0.408
       0.120
      -0.087
      -0.214
      -0.316
      -0.439
      -0.567
      -0.647
      -0.636
      -0.525
      -0.329
      -0.081
       0.168
       0.353
       0.412
       0.323
       0.120
      -0.118
      -0.305
      -0.385
      -0.350
      -0.234
      -0.078
       0.090
       0.243
       0.342
       0.338
       0.211
      -0.002
      -0.219
      -0.356
      -0.383
      -0.333
      -0.272
      -0.244
      -0.237
      -0.200
      -0.090
       0.096
       0.316
       0.513
       0.632
       0.644
       0.535
       0.303
      -0.046
      -0.472
      -0.881
      -1.158
      -1.232
      -1.117
      -0.891
      -0.633
      -0.391
      -0.179
      -0.002
       0.144
       0.271
       0.390
       0.499
       0.558
       0.506
       0.303
      -0.009
      -0.307
      -0.450
      -0.357
      -0.056
       0.343
       0.700
       0.910
       0.942
       0.845
       0.711
       0.619
       0.587
       0.568
       0.495
       0.324
       0.060
      -0.250
      -0.529
      -0.695
      -0.695
      -0.550
      -0.352
      -0.206
      -0.157
      -0.166
      -0.169
      -0.136
      -0.070
       0.024
       0.140
       0.222
       0.155
      -0.141
      -0.608
      -1.045
      -1.242
      -1.122
      -0.773
      -0.355
       0.011
       0.292
       0.519
       0.730
       0.935
       1.110
       1.196
       1.120
       0.835
       0.378
      -0.110
      -0.452
      -0.550
      -0.453
      -0.305
      -0.221
      -0.206
      -0.198
      -0.150
      -0.067
       0.025
       0.124
       0.241
       0.356
       0.407
       0.323
       0.092
      -0.221
      -0.509
      -0.691
      -0.744
      -0.695
      -0.587
      -0.448
      -0.283
      -0.093
       0.111
       0.307
       0.471
       0.584
       0.620
       0.559
       0.407
       0.208
       0.027
      -0.093
      -0.152
      -0.172
      -0.153
      -0.074
       0.063
       0.199
       0.245
       0.154
      -0.033
      -0.215
      -0.304
      -0.289
      -0.233
      -0.211
      -0.249
      -0.302
      -0.291
      -0.162
       0.084
       0.392
       0.679
       0.860
       0.883
       0.754
       0.546
       0.368
       0.285
       0.264
       0.203
       0.038
      -0.164
      -0.246
      -0.091
       0.263
       0.638
       0.856
       0.844
       0.642
       0.323
      -0.066
      -0.502
      -0.950
      -1.353
      -1.648
      -1.792
      -1.774
      -1.608
      -1.324
      -0.954
      -0.533
      -0.098
       0.305
       0.633
       0.866
       1.002
       1.042
       0.974
       0.788
       0.506
       0.170
      -0.185
      -0.542
      -0.870
      -1.089
      -1.097
      -0.839
      -0.373
       0.138
       0.520
       0.690
       0.690
       0.632
       0.605
       0.613
       0.585
       0.445
       0.180
      -0.151
      -0.439
      -0.583
      -0.523
      -0.267
       0.110
       0.488
       0.761
       0.902
       0.965
       1.025
       1.084
       1.063
       0.879
       0.530
       0.117
      -0.223
      -0.407
      -0.444
      -0.398
      -0.334
      -0.294
      -0.308
      -0.402
      -0.564
      -0.721
      -0.777
      -0.696
      -0.533
      -0.387
      -0.329
      -0.364
      -0.459
      -0.573
      -0.672
      -0.720
      -0.686
      -0.574
      -0.432
      -0.330
      -0.300
      -0.313
      -0.302
      -0.224
      -0.091
       0.060
       0.209
       0.358
       0.484
       0.542
       0.508
       0.430
       0.402
       0.483
       0.644
       0.792
       0.852
       0.814
       0.716
       0.578
       0.388
       0.137
      -0.137
      -0.348
      -0.407
      -0.285
      -0.042
       0.192
       0.304
       0.263
       0.134
       0.011
      -0.046
      -0.031
       0.040
       0.163
       0.340
       0.543
       0.705
       0.762
       0.707
       0.605
       0.539
       0.540
       0.563
       0.526
       0.364
       0.067
      -0.326
      -0.749
      -1.130
      -1.419
      -1.604
      -1.723
      -1.835
      -1.964
      -2.050
      -1.981
      -1.686
      -1.202
      -0.661
      -0.194
       0.130
       0.319
       0.406
       0.413
       0.346
       0.222
       0.083
      -0.020
      -0.044
       0.038
       0.249
       0.596
       1.041
       1.486
       1.814
       1.972
       2.010
       2.034
       2.099
       2.154
       2.075
       1.766
       1.241
       0.625
       0.069
      -0.347
      -0.656
      -0.938
      -1.233
      -1.511
      -1.719
      -1.836
      -1.866
      -1.789
      -1.559
      -1.148
      -0.602
      -0.030
       0.460
       0.820
       1.061
       1.208
       1.273
       1.258
       1.171
       1.017
       0.772
       0.394
      -0.121
      -0.699
      -1.208
      -1.556
      -1.764
      -1.938
      -2.150
      -2.346
      -2.385
      -2.170
      -1.738
      -1.235
      -0.793
      -0.435
      -0.073
       0.387
       0.953
       1.528
       1.977
       2.221
       2.269
       2.191
       2.056
       1.899
       1.731
       1.548
       1.330
       1.042
       0.658
       0.195
      -0.282
      -0.681
      -0.921
      -0.948
      -0.736
      -0.312
       0.223
       0.687
       0.890
       0.748
       0.358
      -0.056
      -0.295
      -0.300
      -0.159
      -0.022
      -0.010
      -0.168
      -0.457
      -0.764
      -0.946
      -0.898
      -0.634
      -0.307
      -0.137
      -0.267
      -0.664
      -1.141
      -1.473
      -1.520
      -1.261
      -0.777
      -0.210
       0.267
       0.498
       0.411
       0.071
      -0.350
      -0.677
      -0.831
      -0.834
      -0.744
      -0.575
      -0.296
       0.115
       0.626
       1.154
       1.612
       1.946
       2.140
       2.180
       2.047
       1.741
       1.312
       0.853
       0.425
       0.009
      -0.462
      -0.992
      -1.460
      -1.674
      -1.519
      -1.066
      -0.518
      -0.060
       0.252
       0.464
       0.625
       0.735
       0.781
       0.781
       0.761
       0.704
       0.551
       0.273
      -0.054
      -0.269
      -0.246
      -0.001
       0.308
       0.490
       0.444
       0.186
      -0.202
      -0.644
      -1.083
      -1.452
      -1.675
      -1.714
      -1.636
      -1.589
      -1.692
      -1.933
      -2.160
      -2.187
      -1.908
      -1.352
      -0.641
       0.105
       0.839
       1.581
       2.360
       3.154
       3.883
       4.427
       4.675
       4.561
       4.089
       3.331
       2.390
       1.356
       0.312
      -0.640
      -1.381
      -1.840
      -2.052
      -2.115
      -2.099
      -1.989
      -1.748
      -1.410
      -1.101
      -0.962
      -1.043
      -1.271
      -1.513
      -1.674
      -1.738
      -1.725
      -1.618
      -1.343
      -0.840
      -0.135
       0.655
       1.384
       1.947
       2.320
       2.551
       2.715
       2.854
       2.943
       2.902
       2.646
       2.147
       1.460
       0.699
      -0.016
      -0.615
      -1.098
      -1.508
      -1.901
      -2.306
      -2.723
      -3.124
      -3.461
      -3.685
      -3.744
      -3.586
      -3.173
      -2.498
      -1.609
      -0.601
       0.410
       1.324
       2.098
       2.739
       3.274
       3.699
       3.966
       4.007
       3.790
       3.345
       2.745
       2.042
       1.233
       0.290
      -0.762
      -1.810
      -2.705
      -3.356
      -3.754
      -3.924
      -3.849
      -3.473
      -2.759
      -1.753
      -0.582
       0.574
       1.537
       2.172
       2.419
       2.295
       1.865
       1.229
       0.515
      -0.137
      -0.623
      -0.915
      -1.043
      -1.026
      -0.826
      -0.380
       0.323
       1.182
       2.009
       2.618
       2.921
       2.946
       2.792
       2.533
       2.163
       1.619
       0.857
      -0.072
      -1.022
      -1.822
      -2.368
      -2.666
      -2.808
      -2.908
      -3.025
      -3.139
      -3.169
      -3.047
      -2.768
      -2.403
      -2.045
      -1.740
      -1.436
      -1.015
      -0.388
       0.425
       1.295
       2.066
       2.659
       3.090
       3.407
       3.602
       3.588
       3.271
       2.646
       1.808
       0.877
      -0.086
      -1.062
      -1.980
      -2.692
      -3.054
      -3.037
      -2.733
      -2.246
      -1.603
      -0.788
       0.143
       1.011
       1.604
       1.819
       1.710
       1.403
       0.974
       0.441
      -0.132
      -0.575
      -0.686
      -0.396
       0.162
       0.767
       1.279
       1.687
       1.999
       2.138
       1.981
       1.508
       0.872
       0.283
      -0.163
      -0.520
      -0.857
      -1.134
      -1.236
      -1.120
      -0.898
      -0.746
      -0.760
      -0.886
      -0.989
      -0.965
      -0.784
      -0.458
      -0.024
       0.437
       0.786
       0.900
       0.780
       0.567
       0.440
       0.472
       0.583
       0.620
       0.500
       0.282
       0.108
       0.096
       0.264
       0.534
       0.789
       0.927
       0.891
       0.674
       0.317
      -0.115
      -0.539
      -0.859
      -0.978
      -0.850
      -0.526
      -0.150
       0.116
       0.171
       0.000
      -0.369
      -0.902
      -1.557
      -2.256
      -2.888
      -3.344
      -3.552
      -3.481
      -3.119
      -2.471
      -1.578
      -0.544
       0.483
       1.367
       2.031
       2.460
       2.677
       2.706
       2.577
       2.344
       2.095
       1.908
       1.794
       1.691
       1.543
       1.367
       1.220
       1.107
       0.946
       0.647
       0.204
      -0.301
      -0.767
      -1.120
      -1.318
      -1.337
      -1.188
      -0.944
      -0.726
      -0.629
      -0.670
      -0.783
      -0.872
      -0.862
      -0.718
      -0.448
      -0.089
       0.277
       0.547
       0.648
       0.620
       0.610
       0.767
       1.119
       1.542
       1.863
       1.994
       1.977
       1.928
       1.932
       1.994
       2.058
       2.071
       2.011
       1.866
       1.603
       1.144
       0.413
      -0.595
      -1.772
      -2.912
      -3.785
      -4.220
      -4.184
      -3.811
      -3.347
      -3.001
      -2.800
      -2.578
      -2.132
      -1.417
      -0.610
       0.017
       0.300
       0.285
       0.172
       0.149
       0.293
       0.595
       1.036
       1.593
       2.167
       2.550
       2.520
       1.998
       1.116
       0.139
      -0.674
      -1.139
      -1.164
      -0.768
      -0.119
       0.493
       0.807
       0.765
       0.545
       0.385
       0.369
       0.362
       0.156
      -0.338
      -1.013
      -1.649
      -2.035
      -2.050
      -1.693
      -1.085
      -0.455
      -0.061
      -0.053
      -0.367
      -0.738
      -0.879
      -0.678
      -0.271
       0.107
       0.322
       0.450
       0.695
       1.212
       1.983
       2.840
       3.561
       3.959
       3.913
       3.394
       2.500
       1.461
       0.541
      -0.126
      -0.619
      -1.155
      -1.912
      -2.881
      -3.874
      -4.647
      -5.032
      -4.984
      -4.525
      -3.705
      -2.615
      -1.413
      -0.300
       0.550
       1.075
       1.337
       1.474
       1.583
       1.650
       1.591
       1.382
       1.133
       1.013
       1.100
       1.307
       1.444
       1.363
       1.058
       0.685
       0.455
       0.491
       0.732
       0.985
       1.085
       1.025
       0.927
       0.896
       0.909
       0.869
       0.720
       0.483
       0.183
      -0.219
      -0.756
      -1.330
      -1.717
      -1.757
      -1.543
      -1.408
      -1.691
      -2.457
      -3.439
      -4.226
      -4.529
      -4.295
      -3.618
      -2.603
      -1.323
       0.130
       1.614
       2.995
       4.213
       5.263
       6.125
       6.718
       6.920
       6.620
       5.759
       4.367
       2.578
       0.610
      -1.289
      -2.897
      -4.058
      -4.711
      -4.927
      -4.898
      -4.834
      -4.806
      -4.675
      -4.200
      -3.248
      -1.925
      -0.492
       0.823
       1.931
       2.827
       3.484
       3.851
       3.939
       3.848
       3.682
       3.454
       3.101
       2.594
       2.011
       1.478
       1.058
       0.718
       0.391
       0.055
      -0.273
      -0.599
      -0.969
      -1.408
      -1.847
      -2.137
      -2.141
      -1.815
      -1.222
      -0.483
       0.275
       0.954
       1.495
       1.878
       2.087
       2.063
       1.691
       0.871
      -0.347
      -1.707
      -2.832
      -3.435
      -3.475
      -3.152
      -2.742
      -2.434
      -2.272
      -2.221
      -2.244
      -2.299
      -2.269
      -1.929
      -1.053
       0.379
       2.072
       3.530
       4.332
       4.363
       3.845
       3.151
       2.547
       2.037
       1.432
       0.559
      -0.586
      -1.870
      -3.165
      -4.417
      -5.560
      -6.421
      -6.766
      -6.477
      -5.704
      -4.797
      -4.045
      -3.451
      -2.759
      -1.700
      -0.229
       1.459
       3.100
       4.532
       5.724
       6.688
       7.403
       7.826
       7.925
       7.662
       6.951
       5.684
       3.841
       1.578
      -0.811
      -3.038
      -4.936
      -6.436
      -7.454
      -7.842
      -7.454
      -6.304
      -4.623
      -2.750
      -0.949
       0.679
       2.135
       3.421
       4.507
       5.361
       5.958
       6.246
       6.118
       5.475
       4.341
       2.896
       1.383
      -0.006
      -1.123
      -1.785
      -1.812
      -1.212
      -0.341
       0.212
      -0.016
      -1.055
      -2.548
      -4.071
      -5.419
      -6.554
      -7.357
      -7.494
      -6.579
      -4.494
      -1.529
       1.735
       4.670
       6.791
       7.843
       7.834
       7.026
       5.832
       4.619
       3.558
       2.615
       1.684
       0.733
      -0.148
      -0.802
      -1.109
      -1.053
      -0.726
      -0.284
       0.095
       0.257
       0.125
      -0.280
      -0.865
      -1.548
      -2.302
      -3.113
      -3.902
      -4.525
      -4.856
      -4.865
      -4.598
      -4.070
      -3.218
      -1.959
      -0.323
       1.500
       3.219
       4.583
       5.463
       5.818
       5.614
       4.811
       3.456
       1.790
       0.191
      -1.031
      -1.828
      -2.376
      -2.864
      -3.316
      -3.607
      -3.634
      -3.429
      -3.128
      -2.819
      -2.425
      -1.745
      -0.634
       0.812
       2.240
       3.222
       3.500
       3.140
       2.497
       2.025
       2.050
       2.612
       3.450
       4.127
       4.253
       3.667
       2.487
       1.007
      -0.447
      -1.622
      -2.395
      -2.779
      -2.872
      -2.790
      -2.630
      -2.480
      -2.374
      -2.215
      -1.781
      -0.878
       0.435
       1.780
       2.647
       2.719
       2.049
       0.946
      -0.265
      -1.380
      -2.253
      -2.744
      -2.780
      -2.480
      -2.146
      -2.100
      -2.475
      -3.136
      -3.754
      -3.992
      -3.643
      -2.686
      -1.268
       0.348
       1.861
       3.043
       3.824
       4.283
       4.558
       4.714
       4.683
       4.306
       3.464
       2.186
       0.668
      -0.800
      -1.960
      -2.690
      -3.037
      -3.132
      -3.065
      -2.798
      -2.208
      -1.221
       0.070
       1.413
       2.510
       3.137
       3.201
       2.738
       1.909
       0.965
       0.151
      -0.433
      -0.910
      -1.513
      -2.359
      -3.285
      -3.910
      -3.889
      -3.154
      -1.973
      -0.781
       0.079
       0.524
       0.712
       0.880
       1.183
       1.631
       2.115
       2.480
       2.596
       2.403
       1.946
       1.369
       0.884
       0.673
       0.770
       1.019
       1.190
       1.149
       0.929
       0.659
       0.466
       0.421
       0.552
       0.856
       1.299
       1.791
       2.176
       2.275
       1.982
       1.308
       0.357
      -0.739
      -1.861
      -2.931
      -3.921
      -4.821
      -5.567
      -5.987
      -5.846
      -4.966
      -3.379
      -1.364
       0.677
       2.431
       3.803
       4.868
       5.695
       6.195
       6.153
       5.426
       4.151
       2.746
       1.648
       0.994
       0.539
      -0.080
      -0.993
      -1.991
      -2.727
      -2.997
      -2.867
      -2.577
      -2.335
      -2.198
      -2.107
      -1.986
      -1.785
      -1.448
      -0.899
      -0.140
       0.637
       1.093
       0.963
       0.261
      -0.701
      -1.512
      -1.919
      -1.964
      -1.904
      -1.996
      -2.341
      -2.874
      -3.454
      -3.959
      -4.302
      -4.407
      -4.217
      -3.737
      -3.078
      -2.424
      -1.895
      -1.426
      -0.804
       0.150
       1.433
       2.880
       4.317
       5.651
       6.805
       7.593
       7.743
       7.073
       5.638
       3.686
       1.532
      -0.498
      -2.064
      -2.838
      -2.649
      -1.636
      -0.226
       1.111
       2.134
       2.900
       3.578
       4.202
       4.602
       4.568
       4.061
       3.223
       2.215
       1.080
      -0.169
      -1.354
      -2.121
      -2.210
      -1.757
      -1.257
      -1.171
      -1.554
      -2.054
      -2.291
      -2.228
      -2.152
      -2.328
      -2.695
      -2.943
      -2.859
      -2.554
      -2.316
      -2.279
      -2.301
      -2.152
      -1.750
      -1.183
      -0.556
       0.088
       0.689
       1.072
       1.013
       0.481
      -0.220
      -0.614
      -0.419
       0.244
       0.989
       1.496
       1.711
       1.770
       1.806
       1.843
       1.839
       1.805
       1.860
       2.172
       2.806
       3.617
       4.274
       4.461
       4.106
       3.470
       2.936
       2.684
       2.545
       2.172
       1.328
       0.031
      -1.515
      -3.071
      -4.458
      -5.559
      -6.300
      -6.655
      -6.670
      -6.431
      -5.972
      -5.234
      -4.148
      -2.762
      -1.253
       0.205
       1.530
       2.657
       3.421
       3.586
       3.043
       1.977
       0.813
      -0.051
      -0.465
      -0.538
      -0.436
      -0.208
       0.223
       0.927
       1.872
       2.918
       3.855
       4.411
       4.292
       3.343
       1.738
      -0.005
      -1.306
      -1.880
      -1.894
      -1.755
      -1.742
      -1.792
      -1.627
      -1.038
      -0.045
       1.149
       2.318
       3.306
       4.045
       4.506
       4.642
       4.356
       3.547
       2.218
       0.559
      -1.082
      -2.353
      -3.085
      -3.357
      -3.401
      -3.417
      -3.474
      -3.544
      -3.583
      -3.562
      -3.453
      -3.255
      -3.040
      -2.946
      -3.029
      -3.125
      -2.902
      -2.132
      -0.928
