Origin Time       1/5/2013 06:57:12	 
Lat.              33.1 N	
Long.             75.8 E	
Depth (Km)         15.0
Magnitude         5.8
 Region           JK-HP-Border                                                     
 Above details taken from IMD 
     
Station Code      GRD
Station Lat.       32.043  N
Station Long.      75.408  E
Station Height(m)    0.0
Site Class        C   Vs30 between 200 m/sec to 375 m/sec *  
Record Time       01.05.2013 06:57:42.799
Sampling Rate     200. Hz
 Record Duration   69.380 Sec.
 Direction         E-W (E positive)
Max. Acceleration    -14.698 cm/sec**2
     
  * For reference see Site Classification link of website 
     
 Base Line Corrected and Low Pass Filtered (Cut Off at 35 Hz) Time History
 Acceleration data in cm/sec**2
    
[...]
       0.264
       0.651
       1.034
       1.370
       1.605
       1.695
       1.616
       1.384
       1.042
       0.654
       0.287
      -0.002
      -0.180
      -0.245
      -0.210
      -0.092
       0.101
       0.344
       0.591
       0.787
       0.902
       0.946
       0.946
       0.923
       0.873
       0.778
       0.626
       0.424
       0.200
      -0.023
      -0.232
      -0.428
      -0.600
      -0.725
      -0.783
      -0.777
      -0.728
      -0.657
      -0.558
      -0.400
      -0.156
       0.165
       0.510
       0.808
       1.006
       1.083
       1.051
       0.942
       0.793
       0.629
       0.455
       0.248
      -0.025
      -0.376
      -0.774
      -1.154
      -1.446
      -1.613
      -1.661
      -1.620
      -1.509
      -1.327
      -1.067
      -0.748
      -0.424
      -0.157
       0.019
       0.108
       0.134
       0.110
       0.046
      -0.050
      -0.165
      -0.291
      -0.433
      -0.602
      -0.805
      -1.024
      -1.215
      -1.325
      -1.316
      -1.186
      -0.966
      -0.703
      -0.440
      -0.198
       0.023
       0.244
       0.484
       0.746
       1.004
       1.190
       1.223
       1.054
       0.698
       0.228
      -0.275
      -0.759
      -1.207
      -1.617
      -1.969
      -2.222
      -2.330
      -2.265
      -2.027
      -1.647
      -1.177
      -0.674
      -0.187
       0.254
       0.638
       0.966
       1.241
       1.458
       1.595
       1.620
       1.522
       1.320
       1.054
       0.756
       0.439
       0.119
      -0.169
      -0.369
      -0.437
      -0.366
      -0.193
       0.029
       0.258
       0.474
       0.667
       0.824
       0.927
       0.964
       0.931
       0.841
       0.709
       0.550
       0.378
       0.203
       0.037
      -0.112
      -0.244
      -0.359
      -0.443
      -0.468
      -0.413
      -0.280
      -0.089
       0.125
       0.337
       0.530
       0.700
       0.832
       0.907
       0.900
       0.793
       0.587
       0.295
      -0.063
      -0.458
      -0.853
      -1.204
      -1.480
      -1.678
      -1.817
      -1.909
      -1.931
      -1.838
      -1.603
      -1.251
      -0.839
      -0.418
      -0.009
       0.388
       0.771
       1.119
       1.397
       1.571
       1.627
       1.577
       1.453
       1.302
       1.166
       1.073
       1.031
       1.033
       1.061
       1.091
       1.111
       1.120
       1.126
       1.122
       1.084
       0.988
       0.823
       0.593
       0.319
       0.024
      -0.269
      -0.547
      -0.812
      -1.073
      -1.338
      -1.596
      -1.811
      -1.942
      -1.961
      -1.878
      -1.725
      -1.539
      -1.328
      -1.077
      -0.766
      -0.405
      -0.048
       0.239
       0.413
       0.484
       0.491
       0.469
       0.429
       0.377
       0.329
       0.308
       0.331
       0.386
       0.429
       0.406
       0.286
       0.076
      -0.178
      -0.422
      -0.614
      -0.733
      -0.783
      -0.778
      -0.740
      -0.690
      -0.636
      -0.569
      -0.467
      -0.320
      -0.141
       0.040
       0.198
       0.330
       0.446
       0.555
       0.653
       0.722
       0.745
       0.715
       0.637
       0.530
       0.424
       0.346
       0.306
       0.293
       0.275
       0.214
       0.080
      -0.143
      -0.452
      -0.826
      -1.235
      -1.648
      -2.016
      -2.269
      -2.322
      -2.129
      -1.709
      -1.146
      -0.549
      -0.005
       0.434
       0.758
       0.979
       1.113
       1.172
       1.162
       1.089
       0.970
       0.844
       0.764
       0.772
       0.865
       0.979
       1.022
       0.923
       0.684
       0.384
       0.133
      -0.001
      -0.022
       0.012
       0.045
       0.055
       0.051
       0.047
       0.051
       0.054
       0.035
      -0.022
      -0.126
      -0.272
      -0.444
      -0.620
      -0.784
      -0.932
      -1.068
      -1.195
      -1.303
      -1.354
      -1.301
      -1.115
      -0.810
      -0.431
      -0.028
       0.378
       0.783
       1.164
       1.472
       1.658
       1.710
       1.654
       1.537
       1.385
       1.185
       0.909
       0.548
       0.139
      -0.248
      -0.538
      -0.682
      -0.665
      -0.504
      -0.239
       0.084
       0.413
       0.708
       0.939
       1.086
       1.121
       1.008
       0.725
       0.296
      -0.207
      -0.696
      -1.114
      -1.455
      -1.753
      -2.036
      -2.305
      -2.525
      -2.654
      -2.676
      -2.605
      -2.461
      -2.239
      -1.906
      -1.419
      -0.770
      -0.005
       0.787
       1.506
       2.081
       2.474
       2.679
       2.711
       2.591
       2.328
       1.907
       1.312
       0.567
      -0.251
      -1.030
      -1.675
      -2.141
      -2.429
      -2.550
      -2.496
      -2.246
      -1.795
      -1.183
      -0.492
       0.180
       0.751
       1.183
       1.483
       1.687
       1.831
       1.934
       1.979
       1.927
       1.733
       1.389
       0.947
       0.496
       0.123
      -0.131
      -0.276
      -0.346
      -0.360
      -0.311
      -0.175
       0.048
       0.324
       0.591
       0.784
       0.867
       0.839
       0.723
       0.551
       0.344
       0.116
      -0.131
      -0.394
      -0.669
      -0.941
      -1.185
      -1.381
      -1.536
      -1.676
      -1.807
      -1.893
      -1.875
      -1.711
      -1.402
      -0.998
      -0.565
      -0.151
       0.231
       0.594
       0.953
       1.302
       1.614
       1.852
       1.985
       1.993
       1.865
       1.592
       1.178
       0.644
       0.035
      -0.588
      -1.165
      -1.632
      -1.937
      -2.045
      -1.952
      -1.683
      -1.282
      -0.793
      -0.258
       0.277
       0.761
       1.154
       1.456
       1.702
       1.931
       2.153
       2.328
       2.389
       2.273
       1.965
       1.499
       0.945
       0.371
      -0.166
      -0.619
      -0.936
      -1.083
      -1.064
      -0.920
      -0.701
      -0.444
      -0.168
       0.120
       0.403
       0.653
       0.835
       0.923
       0.909
       0.802
       0.625
       0.414
       0.219
       0.081
       0.015
       0.002
       0.007
       0.009
       0.019
       0.074
       0.200
       0.388
       0.591
       0.750
       0.826
       0.804
       0.693
       0.516
       0.289
       0.020
      -0.292
      -0.634
      -0.973
      -1.255
      -1.428
      -1.462
      -1.356
      -1.135
      -0.829
      -0.468
      -0.071
       0.350
       0.773
       1.162
       1.477
       1.708
       1.882
       2.041
       2.199
       2.324
       2.368
       2.297
       2.109
       1.819
       1.448
       1.020
       0.565
       0.128
      -0.247
      -0.541
      -0.774
      -0.990
      -1.223
      -1.468
      -1.695
      -1.872
      -1.996
      -2.086
      -2.158
      -2.203
      -2.198
      -2.134
      -2.034
      -1.943
      -1.906
      -1.946
      -2.066
      -2.235
      -2.395
      -2.481
      -2.439
      -2.253
      -1.948
      -1.569
      -1.154
      -0.720
      -0.273
       0.168
       0.553
       0.821
       0.937
       0.919
       0.829
       0.727
       0.633
       0.523
       0.369
       0.182
       0.008
      -0.111
      -0.164
      -0.158
      -0.099
       0.020
       0.213
       0.482
       0.809
       1.157
       1.484
       1.737
       1.867
       1.835
       1.642
       1.335
       0.990
       0.675
       0.418
       0.204
       0.014
      -0.144
      -0.228
      -0.190
      -0.019
       0.254
       0.577
       0.911
       1.234
       1.534
       1.797
       1.989
       2.063
       1.975
       1.701
       1.253
       0.691
       0.102
      -0.423
      -0.830
      -1.119
      -1.329
      -1.507
      -1.671
      -1.802
      -1.860
      -1.819
      -1.686
      -1.482
      -1.221
      -0.895
      -0.506
      -0.083
       0.316
       0.636
       0.854
       0.984
       1.056
       1.085
       1.059
       0.948
       0.734
       0.437
       0.107
      -0.198
      -0.444
      -0.629
      -0.784
      -0.951
      -1.153
      -1.376
      -1.569
      -1.662
      -1.600
      -1.387
      -1.083
      -0.773
      -0.516
      -0.322
      -0.163
      -0.008
       0.147
       0.279
       0.359
       0.381
       0.375
       0.399
       0.514
       0.755
       1.114
       1.539
       1.966
       2.335
       2.625
       2.843
       3.012
       3.129
       3.157
       3.045
       2.774
       2.393
       1.991
       1.639
       1.358
       1.128
       0.927
       0.743
       0.571
       0.393
       0.174
      -0.120
      -0.500
      -0.941
      -1.397
      -1.826
      -2.202
      -2.509
      -2.730
      -2.857
      -2.904
      -2.908
      -2.903
      -2.897
      -2.853
      -2.718
      -2.465
      -2.109
      -1.693
      -1.247
      -0.774
      -0.257
       0.303
       0.877
       1.418
       1.890
       2.289
       2.625
       2.896
       3.069
       3.091
       2.932
       2.609
       2.181
       1.712
       1.243
       0.790
       0.351
      -0.074
      -0.479
      -0.834
      -1.082
      -1.171
      -1.089
      -0.887
      -0.647
      -0.430
      -0.251
      -0.096
       0.045
       0.159
       0.214
       0.195
       0.115
       0.000
      -0.131
      -0.284
      -0.467
      -0.667
      -0.840
      -0.936
      -0.938
      -0.876
      -0.819
      -0.825
      -0.913
      -1.054
      -1.198
      -1.297
      -1.321
      -1.265
      -1.141
      -0.963
      -0.735
      -0.453
      -0.120
       0.242
       0.582
       0.846
       1.003
       1.067
       1.092
       1.139
       1.231
       1.336
       1.378
       1.287
       1.046
       0.700
       0.325
      -0.008
      -0.264
      -0.433
      -0.527
      -0.568
      -0.574
      -0.541
      -0.437
      -0.224
       0.121
       0.578
       1.080
       1.537
       1.871
       2.028
       1.979
       1.705
       1.198
       0.480
      -0.386
      -1.296
      -2.136
      -2.821
      -3.311
      -3.602
      -3.707
      -3.652
      -3.482
      -3.260
      -3.049
      -2.885
      -2.758
      -2.628
      -2.440
      -2.159
      -1.775
      -1.302
      -0.760
      -0.168
       0.462
       1.131
       1.837
       2.567
       3.278
       3.896
       4.331
       4.513
       4.421
       4.100
       3.638
       3.134
       2.654
       2.235
       1.884
       1.594
       1.358
       1.186
       1.111
       1.156
       1.300
       1.464
       1.541
       1.444
       1.152
       0.718
       0.235
      -0.216
      -0.593
      -0.895
      -1.121
      -1.262
      -1.311
      -1.285
      -1.237
      -1.220
      -1.252
      -1.292
      -1.259
      -1.086
      -0.754
      -0.308
       0.173
       0.611
       0.970
       1.260
       1.504
       1.712
       1.866
       1.937
       1.899
       1.758
       1.543
       1.300
       1.070
       0.865
       0.670
       0.450
       0.183
      -0.120
      -0.418
      -0.676
      -0.889
      -1.087
      -1.309
      -1.583
      -1.918
      -2.295
      -2.664
      -2.955
      -3.109
      -3.107
      -2.969
      -2.731
      -2.415
      -2.022
      -1.555
      -1.049
      -0.584
      -0.253
      -0.105
      -0.120
      -0.215
      -0.291
      -0.284
      -0.184
      -0.020
       0.160
       0.319
       0.430
       0.476
       0.449
       0.349
       0.183
      -0.035
      -0.279
      -0.519
      -0.740
      -0.954
      -1.201
      -1.522
      -1.934
      -2.413
      -2.904
      -3.346
      -3.691
      -3.921
      -4.037
      -4.054
      -3.974
      -3.786
      -3.466
      -3.007
      -2.424
      -1.748
      -1.008
      -0.236
       0.514
       1.163
       1.632
       1.872
       1.888
       1.732
       1.483
       1.203
       0.915
       0.602
       0.240
      -0.161
      -0.532
      -0.756
      -0.725
      -0.403
       0.145
       0.777
       1.343
       1.740
       1.945
       1.990
       1.914
       1.733
       1.448
       1.070
       0.643
       0.240
      -0.066
      -0.231
      -0.260
      -0.205
      -0.129
      -0.078
      -0.053
      -0.008
       0.120
       0.375
       0.756
       1.217
       1.695
       2.144
       2.555
       2.946
       3.328
       3.683
       3.966
       4.126
       4.135
       3.986
       3.667
       3.147
       2.391
       1.390
       0.191
      -1.105
      -2.367
      -3.480
      -4.362
      -4.972
      -5.305
      -5.397
      -5.303
      -5.077
      -4.744
      -4.302
      -3.743
      -3.072
      -2.303
      -1.444
      -0.489
       0.573
       1.737
       2.962
       4.171
       5.287
       6.254
       7.041
       7.633
       8.026
       8.222
       8.236
       8.089
       7.799
       7.374
       6.819
       6.156
       5.426
       4.674
       3.920
       3.138
       2.276
       1.282
       0.130
      -1.174
      -2.606
      -4.130
      -5.710
      -7.298
      -8.842
     -10.295
     -11.625
     -12.796
     -13.750
     -14.409
     -14.698
     -14.573
     -14.016
     -13.029
     -11.609
      -9.752
      -7.483
      -4.891
      -2.126
       0.628
       3.191
       5.418
       7.209
       8.504
       9.278
       9.534
       9.302
       8.634
       7.606
       6.314
       4.884
       3.478
       2.273
       1.417
       0.996
       1.015
       1.409
       2.074
       2.875
       3.653
       4.237
       4.477
       4.286
       3.667
       2.704
       1.543
       0.334
      -0.796
      -1.759
      -2.503
      -2.992
      -3.188
      -3.042
      -2.484
      -1.455
       0.033
       1.843
       3.728
       5.422
       6.746
       7.644
       8.149
       8.303
       8.104
       7.516
       6.517
       5.154
       3.552
       1.879
       0.290
      -1.116
      -2.319
      -3.361
      -4.311
      -5.219
      -6.094
      -6.903
      -7.596
      -8.139
      -8.537
      -8.815
      -8.996
      -9.073
      -9.022
      -8.827
      -8.491
      -8.031
      -7.457
      -6.753
      -5.895
      -4.874
      -3.734
      -2.562
      -1.471
      -0.552
       0.150
       0.644
       0.977
       1.206
       1.382
       1.542
       1.699
       1.849
       1.985
       2.114
       2.250
       2.385
       2.467
       2.421
       2.196
       1.795
       1.270
       0.695
       0.143
      -0.320
      -0.638
      -0.758
      -0.647
      -0.303
       0.244
       0.943
       1.747
       2.616
       3.518
       4.414
       5.256
       5.984
       6.539
       6.873
       6.972
       6.855
       6.568
       6.167
       5.688
       5.146
       4.547
       3.908
       3.259
       2.632
       2.034
       1.425
       0.733
      -0.099
      -1.060
      -2.059
      -2.967
      -3.674
      -4.130
      -4.356
      -4.401
      -4.303
      -4.074
      -3.718
      -3.254
      -2.730
      -2.216
      -1.793
      -1.531
      -1.472
      -1.604
      -1.871
      -2.191
      -2.487
      -2.702
      -2.805
      -2.796
      -2.690
      -2.511
      -2.284
      -2.031
      -1.762
      -1.467
      -1.113
      -0.659
      -0.072
       0.662
       1.522
       2.451
       3.365
       4.170
       4.784
       5.138
       5.184
       4.904
       4.324
       3.509
       2.543
       1.528
       0.561
      -0.276
      -0.932
      -1.404
      -1.737
      -2.011
      -2.297
      -2.624
      -2.952
      -3.190
      -3.232
      -3.008
      -2.529
      -1.885
      -1.200
      -0.568
      -0.020
       0.463
       0.898
       1.272
       1.554
       1.724
       1.784
       1.747
       1.617
       1.398
       1.097
       0.737
       0.351
      -0.018
      -0.326
      -0.533
      -0.613
      -0.561
      -0.420
      -0.275
      -0.237
      -0.389
      -0.736
      -1.204
      -1.678
      -2.069
      -2.352
      -2.550
      -2.692
      -2.779
      -2.788
      -2.701
      -2.514
      -2.239
      -1.891
      -1.482
      -1.023
      -0.520
       0.017
       0.581
       1.159
       1.730
       2.260
       2.714
       3.072
       3.332
       3.498
       3.575
       3.567
       3.484
       3.344
       3.156
       2.895
       2.504
       1.926
       1.163
       0.308
      -0.478
      -1.055
      -1.374
      -1.490
      -1.503
      -1.496
      -1.491
      -1.463
      -1.380
      -1.246
      -1.103
      -0.997
      -0.947
      -0.930
      -0.898
      -0.814
      -0.669
      -0.488
      -0.314
      -0.178
      -0.074
       0.047
       0.249
       0.571
       0.984
       1.389
       1.666
       1.734
       1.599
       1.332
       1.024
       0.742
       0.516
       0.363
       0.312
       0.397
       0.623
       0.941
       1.257
       1.474
       1.537
       1.437
       1.192
       0.823
       0.343
      -0.231
      -0.877
      -1.567
      -2.283
      -3.021
      -3.781
      -4.558
      -5.332
      -6.070
      -6.721
      -7.223
      -7.497
      -7.449
      -6.984
      -6.039
      -4.621
      -2.826
      -0.826
       1.162
       2.927
       4.313
       5.245
       5.723
       5.788
       5.475
       4.814
       3.855
       2.711
       1.557
       0.578
      -0.097
      -0.437
      -0.485
      -0.300
       0.069
       0.583
       1.197
       1.851
       2.485
       3.061
       3.578
       4.060
       4.526
       4.954
       5.288
       5.454
       5.397
       5.100
       4.578
       3.858
       2.982
       1.997
       0.966
      -0.049
      -0.987
      -1.780
      -2.346
      -2.611
      -2.553
      -2.233
      -1.759
      -1.221
      -0.646
      -0.006
       0.729
       1.546
       2.373
       3.116
       3.692
       4.047
       4.142
       3.939
       3.413
       2.570
       1.466
       0.191
      -1.157
      -2.510
      -3.832
      -5.092
      -6.243
      -7.218
      -7.955
      -8.418
      -8.604
      -8.544
      -8.290
      -7.899
      -7.412
      -6.849
      -6.217
      -5.537
      -4.855
      -4.231
      -3.694
      -3.226
      -2.771
      -2.277
      -1.718
      -1.086
      -0.367
       0.474
       1.494
       2.737
       4.196
       5.786
       7.352
       8.718
       9.739
      10.338
      10.509
      10.313
       9.859
       9.261
       8.600
       7.904
       7.154
       6.311
       5.355
       4.304
       3.209
       2.127
       1.102
       0.152
      -0.714
      -1.476
      -2.098
      -2.536
      -2.756
      -2.752
      -2.558
      -2.247
      -1.917
      -1.655
      -1.509
      -1.464
      -1.461
      -1.431
      -1.333
      -1.177
      -1.016
      -0.917
      -0.925
      -1.040
      -1.228
      -1.441
      -1.636
      -1.781
