Origin Time       1/5/2013 06:57:12	  UTC
Lat.              33.1 N	
Long.             75.8 E	
Depth (Km)         15.0
Magnitude         5.8
 Region           JK-HP-Border                                                     
 Above details taken from IMD 
    
Station Code      GRD
Station Lat.       32.043  N
Station Long.      75.408  E
Station Height(m)    0.0
Site Class        C   Vs30 between 200 m/sec to 375 m/sec *  
Record Time       01.05.2013 06:57:42.799 UTC
Sampling Rate     200. Hz
 Record Duration   69.380 Sec.
 Direction         N-S (N positive)
Max. Acceleration      9.585 cm/sec**2
     
  * For reference see Site Classification link of website 
     
 Base Line Corrected and Low Pass Filtered (Cut Off at 35 Hz) Time History
 Acceleration data in cm/sec**2
    
[...]
       0.117
       0.029
      -0.092
      -0.245
      -0.411
      -0.556
      -0.657
      -0.710
      -0.736
      -0.756
      -0.771
      -0.769
      -0.748
      -0.734
      -0.763
      -0.847
      -0.953
      -1.012
      -0.950
      -0.732
      -0.380
       0.049
       0.488
       0.894
       1.248
       1.554
       1.814
       2.015
       2.132
       2.137
       2.014
       1.772
       1.445
       1.091
       0.756
       0.449
       0.144
      -0.183
      -0.520
      -0.828
      -1.073
      -1.250
      -1.378
      -1.478
      -1.554
      -1.597
      -1.602
      -1.577
      -1.540
      -1.503
      -1.461
      -1.401
      -1.322
      -1.235
      -1.163
      -1.115
      -1.085
      -1.042
      -0.949
      -0.771
      -0.477
      -0.051
       0.497
       1.108
       1.690
       2.148
       2.413
       2.458
       2.305
       2.007
       1.630
       1.237
       0.876
       0.575
       0.344
       0.186
       0.091
       0.043
       0.028
       0.035
       0.056
       0.077
       0.087
       0.098
       0.142
       0.244
       0.383
       0.494
       0.514
       0.428
       0.264
       0.056
      -0.175
      -0.415
      -0.648
      -0.847
      -0.994
      -1.089
      -1.147
      -1.183
      -1.196
      -1.174
      -1.106
      -0.998
      -0.859
      -0.686
      -0.468
      -0.200
       0.096
       0.370
       0.573
       0.693
       0.764
       0.833
       0.917
       0.992
       1.018
       0.971
       0.858
       0.715
       0.580
       0.474
       0.389
       0.300
       0.181
       0.021
      -0.171
      -0.374
      -0.560
      -0.704
      -0.793
      -0.829
      -0.822
      -0.775
      -0.674
      -0.504
      -0.288
      -0.095
      -0.004
      -0.045
      -0.181
      -0.343
      -0.473
      -0.551
      -0.582
      -0.573
      -0.530
      -0.451
      -0.338
      -0.195
      -0.022
       0.177
       0.384
       0.566
       0.689
       0.742
       0.756
       0.793
       0.915
       1.146
       1.463
       1.817
       2.164
       2.473
       2.704
       2.804
       2.727
       2.454
       2.006
       1.437
       0.816
       0.214
      -0.311
      -0.727
      -1.029
      -1.234
      -1.365
      -1.434
      -1.436
      -1.358
      -1.199
      -0.980
      -0.745
      -0.548
      -0.419
      -0.354
      -0.328
      -0.330
      -0.381
      -0.496
      -0.660
      -0.822
      -0.934
      -0.973
      -0.953
      -0.904
      -0.861
      -0.855
      -0.908
      -1.018
      -1.143
      -1.216
      -1.173
      -0.993
      -0.717
      -0.417
      -0.160
       0.029
       0.163
       0.262
       0.329
       0.357
       0.359
       0.382
       0.474
       0.649
       0.872
       1.093
       1.280
       1.431
       1.565
       1.701
       1.844
       1.982
       2.089
       2.136
       2.097
       1.967
       1.769
       1.539
       1.322
       1.138
       0.973
       0.786
       0.535
       0.214
      -0.149
      -0.515
      -0.862
      -1.183
      -1.452
      -1.617
      -1.628
      -1.470
      -1.173
      -0.793
      -0.383
       0.029
       0.434
       0.826
       1.188
       1.490
       1.695
       1.768
       1.688
       1.454
       1.102
       0.709
       0.360
       0.114
      -0.034
      -0.140
      -0.268
      -0.455
      -0.699
      -0.978
      -1.262
      -1.514
      -1.691
      -1.763
      -1.718
      -1.569
      -1.338
      -1.044
      -0.700
      -0.326
       0.044
       0.364
       0.595
       0.725
       0.767
       0.755
       0.721
       0.678
       0.633
       0.593
       0.580
       0.613
       0.674
       0.711
       0.680
       0.578
       0.445
       0.323
       0.226
       0.143
       0.061
      -0.020
      -0.080
      -0.094
      -0.048
       0.066
       0.241
       0.463
       0.700
       0.909
       1.055
       1.135
       1.182
       1.239
       1.328
       1.421
       1.464
       1.428
       1.332
       1.230
       1.160
       1.120
       1.068
       0.955
       0.752
       0.473
       0.165
      -0.104
      -0.286
      -0.374
      -0.406
      -0.438
      -0.515
      -0.644
      -0.805
      -0.965
      -1.104
      -1.221
      -1.327
      -1.429
      -1.512
      -1.558
      -1.568
      -1.576
      -1.615
      -1.675
      -1.700
      -1.631
      -1.450
      -1.188
      -0.897
      -0.619
      -0.369
      -0.142
       0.073
       0.282
       0.486
       0.686
       0.882
       1.069
       1.233
       1.366
       1.472
       1.574
       1.699
       1.859
       2.043
       2.232
       2.410
       2.565
       2.666
       2.655
       2.465
       2.060
       1.460
       0.748
       0.046
      -0.534
      -0.923
      -1.113
      -1.141
      -1.058
      -0.905
      -0.697
      -0.434
      -0.107
       0.280
       0.699
       1.094
       1.406
       1.606
       1.712
       1.762
       1.772
       1.713
       1.544
       1.256
       0.890
       0.505
       0.154
      -0.133
      -0.350
      -0.508
      -0.643
      -0.810
      -1.068
      -1.457
      -1.967
      -2.532
      -3.053
      -3.438
      -3.636
      -3.640
      -3.470
      -3.158
      -2.737
      -2.252
      -1.747
      -1.255
      -0.777
      -0.310
       0.140
       0.547
       0.891
       1.168
       1.391
       1.580
       1.743
       1.870
       1.942
       1.943
       1.862
       1.694
       1.441
       1.117
       0.748
       0.373
       0.026
      -0.288
      -0.591
      -0.902
      -1.210
      -1.463
      -1.616
      -1.671
      -1.667
      -1.629
      -1.529
      -1.313
      -0.960
      -0.517
      -0.084
       0.232
       0.355
       0.259
      -0.038
      -0.477
      -0.964
      -1.386
      -1.650
      -1.728
      -1.667
      -1.557
      -1.483
      -1.493
      -1.593
      -1.768
      -1.988
      -2.210
      -2.370
      -2.396
      -2.240
      -1.904
      -1.440
      -0.927
      -0.438
      -0.021
       0.311
       0.560
       0.730
       0.817
       0.810
       0.701
       0.489
       0.190
      -0.157
      -0.487
      -0.724
      -0.816
      -0.757
      -0.588
      -0.356
      -0.084
       0.229
       0.569
       0.884
       1.111
       1.230
       1.269
       1.264
       1.219
       1.097
       0.864
       0.529
       0.148
      -0.212
      -0.515
      -0.766
      -0.983
      -1.169
      -1.297
      -1.330
      -1.242
      -1.026
      -0.697
      -0.292
       0.133
       0.518
       0.832
       1.106
       1.425
       1.874
       2.469
       3.140
       3.770
       4.257
       4.553
       4.667
       4.636
       4.491
       4.246
       3.900
       3.444
       2.883
       2.254
       1.632
       1.118
       0.801
       0.714
       0.809
       0.981
       1.130
       1.221
       1.290
       1.389
       1.521
       1.629
       1.647
       1.540
       1.309
       0.980
       0.584
       0.161
      -0.242
      -0.575
      -0.799
      -0.901
      -0.895
      -0.807
      -0.669
      -0.518
      -0.409
      -0.417
      -0.600
      -0.963
      -1.447
      -1.961
      -2.431
      -2.838
      -3.200
      -3.523
      -3.787
      -3.963
      -4.031
      -3.985
      -3.821
      -3.541
      -3.159
      -2.709
      -2.234
      -1.754
      -1.255
      -0.698
      -0.046
       0.703
       1.507
       2.294
       2.985
       3.517
       3.840
       3.931
       3.805
       3.527
       3.201
       2.925
       2.734
       2.593
       2.430
       2.189
       1.851
       1.418
       0.891
       0.280
      -0.391
      -1.071
      -1.695
      -2.193
      -2.509
      -2.608
      -2.479
      -2.137
      -1.622
      -1.007
      -0.388
       0.148
       0.554
       0.824
       0.964
       0.968
       0.830
       0.578
       0.287
       0.038
      -0.138
      -0.274
      -0.434
      -0.663
      -0.964
      -1.311
      -1.667
      -2.001
      -2.290
      -2.518
      -2.678
      -2.774
      -2.824
      -2.848
      -2.865
      -2.887
      -2.920
      -2.968
      -3.031
      -3.096
      -3.116
      -3.017
      -2.736
      -2.254
      -1.598
      -0.819
       0.026
       0.866
       1.602
       2.142
       2.439
       2.528
       2.504
       2.465
       2.450
       2.416
       2.280
       1.981
       1.531
       1.007
       0.505
       0.093
      -0.211
      -0.425
      -0.588
      -0.746
      -0.951
      -1.240
      -1.621
      -2.067
      -2.539
      -3.006
      -3.439
      -3.799
      -4.034
      -4.095
      -3.943
      -3.566
      -2.978
      -2.229
      -1.411
      -0.636
      -0.009
       0.412
       0.623
       0.668
       0.610
       0.505
       0.384
       0.250
       0.080
      -0.160
      -0.508
      -1.004
      -1.670
      -2.475
      -3.315
      -4.041
      -4.531
      -4.746
      -4.726
      -4.559
      -4.324
      -4.057
      -3.754
      -3.389
      -2.938
      -2.388
      -1.740
      -1.015
      -0.253
       0.491
       1.175
       1.797
       2.381
       2.944
       3.460
       3.871
       4.132
       4.261
       4.336
       4.457
       4.696
       5.071
       5.543
       6.025
       6.409
       6.595
       6.524
       6.191
       5.633
       4.915
       4.119
       3.331
       2.633
       2.092
       1.751
       1.625
       1.674
       1.798
       1.870
       1.792
       1.543
       1.155
       0.671
       0.122
      -0.449
      -0.960
      -1.317
      -1.459
      -1.395
      -1.198
      -0.961
      -0.750
      -0.594
      -0.486
      -0.412
      -0.351
      -0.278
      -0.178
      -0.054
       0.062
       0.122
       0.068
      -0.155
      -0.585
      -1.224
      -2.024
      -2.890
      -3.708
      -4.375
      -4.833
      -5.084
      -5.177
      -5.169
      -5.098
      -4.972
      -4.774
      -4.481
      -4.099
      -3.681
      -3.295
      -2.985
      -2.730
      -2.451
      -2.059
      -1.513
      -0.837
      -0.087
       0.686
       1.462
       2.219
       2.902
       3.422
       3.699
       3.716
       3.518
       3.172
       2.719
       2.168
       1.529
       0.839
       0.172
      -0.383
      -0.746
      -0.878
      -0.793
      -0.543
      -0.179
       0.263
       0.760
       1.273
       1.729
       2.034
       2.114
       1.942
       1.558
       1.041
       0.483
      -0.044
      -0.502
      -0.880
      -1.180
      -1.390
      -1.474
      -1.390
      -1.118
      -0.678
      -0.104
       0.565
       1.291
       2.018
       2.661
       3.121
       3.321
       3.247
       2.957
       2.556
       2.159
       1.867
       1.746
       1.827
       2.097
       2.502
       2.948
       3.327
       3.536
       3.503
       3.184
       2.562
       1.664
       0.593
      -0.478
      -1.364
      -1.945
      -2.203
      -2.203
      -2.032
      -1.749
      -1.371
      -0.889
      -0.302
       0.364
       1.069
       1.777
       2.464
       3.110
       3.688
       4.157
       4.481
       4.642
       4.644
       4.491
       4.181
       3.724
       3.167
       2.585
       2.016
       1.424
       0.723
      -0.163
      -1.242
      -2.438
      -3.616
      -4.628
      -5.363
      -5.778
      -5.904
      -5.824
      -5.640
      -5.426
      -5.212
      -4.983
      -4.715
      -4.414
      -4.114
      -3.847
      -3.600
      -3.313
      -2.937
      -2.485
      -2.040
      -1.688
      -1.447
      -1.264
      -1.070
      -0.839
      -0.598
      -0.400
      -0.283
      -0.254
      -0.291
      -0.357
      -0.424
      -0.470
      -0.478
      -0.423
      -0.274
      -0.007
       0.382
       0.860
       1.361
       1.787
       2.036
       2.047
       1.845
       1.543
       1.285
       1.160
       1.174
       1.279
       1.434
       1.633
       1.891
       2.196
       2.487
       2.695
       2.796
       2.838
       2.904
       3.050
       3.275
       3.531
       3.764
       3.940
       4.034
       4.006
       3.794
       3.343
       2.652
       1.779
       0.816
      -0.150
      -1.034
      -1.754
      -2.243
      -2.482
      -2.511
      -2.398
      -2.201
      -1.945
      -1.630
      -1.263
      -0.883
      -0.548
      -0.309
      -0.187
      -0.162
      -0.194
      -0.250
      -0.321
      -0.430
      -0.608
      -0.873
      -1.211
      -1.577
      -1.905
      -2.135
      -2.239
      -2.237
      -2.172
      -2.083
      -1.983
      -1.859
      -1.676
      -1.404
      -1.034
      -0.589
      -0.106
       0.391
       0.902
       1.432
       1.954
       2.391
       2.637
       2.588
       2.185
       1.423
       0.356
      -0.902
      -2.202
      -3.400
      -4.401
      -5.178
      -5.732
      -6.036
      -6.030
      -5.679
      -5.030
      -4.228
      -3.461
      -2.880
      -2.553
      -2.474
      -2.594
      -2.834
      -3.095
      -3.265
      -3.250
      -3.001
      -2.518
      -1.832
      -0.978
       0.012
       1.099
       2.224
       3.324
       4.361
       5.343
       6.298
       7.226
       8.084
       8.805
       9.324
       9.585
       9.533
       9.109
       8.275
       7.052
       5.532
       3.868
       2.223
       0.734
      -0.514
      -1.485
      -2.181
      -2.623
      -2.829
      -2.812
      -2.572
      -2.102
      -1.408
      -0.537
       0.408
       1.283
       1.966
       2.417
       2.682
       2.847
       2.983
       3.120
       3.257
       3.384
       3.480
       3.506
       3.407
       3.138
       2.695
       2.123
       1.485
       0.832
       0.182
      -0.464
      -1.094
      -1.680
      -2.192
      -2.627
      -3.017
      -3.401
      -3.783
      -4.136
      -4.438
      -4.693
      -4.918
      -5.121
      -5.305
      -5.472
      -5.616
      -5.709
      -5.672
      -5.390
      -4.749
      -3.682
      -2.200
      -0.399
       1.559
       3.457
       5.061
       6.160
       6.616
       6.392
       5.567
       4.303
       2.815
       1.312
      -0.051
      -1.185
      -2.045
      -2.610
      -2.899
      -2.975
      -2.934
      -2.867
      -2.835
      -2.857
      -2.923
      -3.015
      -3.128
      -3.277
      -3.484
      -3.760
      -4.079
      -4.378
      -4.579
      -4.616
      -4.451
      -4.071
      -3.467
      -2.628
      -1.549
      -0.248
       1.194
       2.639
       3.918
       4.909
       5.580
       5.988
       6.235
       6.414
       6.571
       6.702
       6.776
       6.758
       6.627
       6.368
       5.967
       5.420
       4.742
       3.978
       3.195
       2.441
       1.720
       1.000
       0.252
      -0.522
      -1.295
      -2.037
      -2.718
      -3.289
      -3.687
      -3.871
      -3.845
      -3.662
      -3.389
      -3.075
      -2.729
      -2.340
      -1.913
      -1.483
      -1.088
      -0.742
      -0.424
      -0.110
       0.201
       0.486
       0.731
       0.948
       1.168
       1.405
       1.636
       1.822
       1.955
       2.070
       2.201
       2.339
       2.424
       2.396
       2.244
       2.012
       1.769
       1.569
       1.436
       1.354
       1.269
       1.100
       0.772
       0.264
      -0.369
      -1.017
      -1.576
      -2.001
      -2.321
      -2.607
      -2.913
      -3.240
      -3.550
      -3.803
      -3.991
      -4.109
      -4.116
      -3.936
      -3.532
      -2.967
      -2.405
      -2.029
      -1.949
      -2.147
      -2.503
      -2.873
      -3.157
      -3.328
      -3.396
      -3.367
      -3.217
      -2.909
      -2.413
      -1.724
      -0.863
       0.113
       1.106
       1.999
       2.703
       3.210
       3.594
       3.952
       4.336
       4.725
       5.055
       5.273
       5.388
       5.464
       5.568
       5.721
       5.884
       5.978
       5.930
       5.700
       5.297
       4.770
       4.188
       3.621
       3.112
       2.660
       2.223
       1.740
       1.170
       0.497
      -0.271
      -1.117
      -2.010
      -2.909
      -3.784
      -4.624
      -5.425
      -6.170
      -6.806
      -7.239
      -7.357
      -7.074
      -6.378
      -5.365
      -4.202
      -3.059
      -2.043
      -1.186
      -0.477
       0.099
       0.554
       0.895
       1.123
       1.220
       1.164
       0.970
       0.738
       0.633
       0.795
       1.245
       1.871
       2.495
       2.973
       3.263
       3.430
       3.580
       3.795
       4.082
       4.365
       4.530
       4.484
       4.203
       3.724
       3.121
       2.469
       1.818
       1.175
       0.521
      -0.165
      -0.885
      -1.633
      -2.410
      -3.228
      -4.072
      -4.878
      -5.559
      -6.046
      -6.318
      -6.393
      -6.295
      -6.045
      -5.656
      -5.142
      -4.524
      -3.822
      -3.058
      -2.270
      -1.518
      -0.862
      -0.334
       0.076
       0.398
       0.658
       0.851
       0.945
       0.893
       0.669
       0.294
      -0.150
      -0.560
      -0.856
      -1.008
      -1.019
      -0.873
      -0.504
       0.179
       1.228
       2.574
       4.026
       5.334
       6.293
       6.796
       6.819
       6.382
       5.550
       4.442
       3.213
       1.988
       0.824
      -0.270
      -1.272
      -2.117
      -2.729
      -3.074
      -3.182
      -3.102
      -2.864
      -2.490
      -2.034
      -1.590
      -1.239
      -1.013
      -0.887
      -0.828
      -0.813
      -0.818
      -0.803
      -0.726
      -0.574
      -0.381
      -0.206
      -0.098
      -0.068
      -0.098
      -0.168
      -0.260
      -0.365
      -0.475
      -0.579
      -0.649
      -0.645
      -0.537
      -0.335
      -0.096
       0.109
       0.230
       0.265
       0.247
       0.212
       0.180
       0.164
       0.177
       0.251
       0.423
       0.714
       1.115
       1.589
       2.087
       2.546
       2.900
       3.096
       3.126
       3.029
       2.857
       2.637
       2.365
       2.040
       1.688
       1.347
       1.044
       0.781
       0.539
       0.299
       0.053
      -0.196
      -0.464
      -0.786
      -1.205
      -1.735
      -2.347
      -2.980
      -3.570
      -4.057
      -4.379
      -4.462
      -4.253
      -3.772
      -3.127
      -2.470
      -1.924
      -1.525
      -1.253
      -1.080
      -0.992
      -0.972
      -0.972
      -0.914
      -0.735
      -0.418
      -0.005
       0.445
       0.890
       1.323
       1.753
       2.189
       2.613
       2.995
       3.300
       3.507
       3.596
       3.549
       3.359
       3.040
       2.623
       2.133
       1.556
       0.858
       0.008
      -0.988
      -2.094
      -3.243
      -4.343
      -5.281
      -5.933
      -6.189
      -5.993
      -5.378
      -4.472
      -3.471
      -2.588
      -1.992
