Origin Time       1/5/2013 06:57:12	 
Lat.              33.1 N	
Long.             75.8 E	
Depth (Km)         15.0
Magnitude         5.8
 Region           JK-HP-Border                                                     
 Above details taken from IMD 
   
Station Code      GRD
Station Lat.       32.043
Station Long.      75.408
Station Height(m)    0.0
Site Class        C   Vs30 between 200 m/sec to 375 m/sec *  
Record Time       01.05.2013 06:57:42.799
Sampling Rate     200. Hz
 Record Duration   69.380 Sec.
 Direction         Vert. (Up positive)
Max. Acceleration      6.597 cm/sec**2
     
  * For reference see Site Classification link of website 
     
 Base Line Corrected and Low Pass Filtered (Cut Off at 35 Hz) Time History
 Acceleration data in cm/sec**2
    
[...]
      -0.790
      -0.380
       0.107
       0.574
       0.865
       0.888
       0.683
       0.399
       0.206
       0.190
       0.302
       0.377
       0.234
      -0.207
      -0.850
      -1.473
      -1.871
      -1.999
      -2.009
      -2.114
      -2.417
      -2.811
      -3.027
      -2.797
      -2.004
      -0.752
       0.686
       2.000
       2.976
       3.554
       3.807
       3.853
       3.774
       3.571
       3.173
       2.500
       1.554
       0.476
      -0.498
      -1.153
      -1.399
      -1.309
      -1.064
      -0.855
      -0.808
      -0.941
      -1.163
      -1.310
      -1.243
      -0.925
      -0.427
       0.155
       0.777
       1.426
       2.041
       2.478
       2.571
       2.224
       1.458
       0.394
      -0.805
      -1.995
      -3.090
      -4.068
      -4.908
      -5.510
      -5.662
      -5.125
      -3.794
      -1.816
       0.414
       2.373
       3.610
       3.941
       3.544
       2.880
       2.435
       2.433
       2.701
       2.813
       2.405
       1.458
       0.342
      -0.396
      -0.377
       0.373
       1.447
       2.317
       2.652
       2.463
       2.020
       1.610
       1.341
       1.097
       0.654
      -0.144
      -1.278
      -2.553
      -3.680
      -4.407
      -4.623
      -4.385
      -3.863
      -3.221
      -2.532
      -1.777
      -0.907
       0.057
       0.995
       1.726
       2.110
       2.125
       1.864
       1.463
       1.016
       0.536
      -0.017
      -0.677
      -1.428
      -2.190
      -2.835
      -3.216
      -3.202
      -2.723
      -1.798
      -0.538
       0.870
       2.203
       3.258
       3.891
       4.045
       3.734
       3.019
       1.969
       0.672
      -0.737
      -2.038
      -2.960
      -3.290
      -3.015
      -2.375
      -1.744
      -1.408
      -1.389
      -1.439
      -1.216
      -0.521
       0.565
       1.717
       2.558
       2.876
       2.743
       2.454
       2.314
       2.409
       2.532
       2.331
       1.593
       0.436
      -0.728
      -1.448
      -1.516
      -1.086
      -0.559
      -0.320
      -0.526
      -1.050
      -1.603
      -1.907
      -1.845
      -1.482
      -1.008
      -0.630
      -0.466
      -0.483
      -0.509
      -0.335
       0.149
       0.865
       1.581
       2.067
       2.250
       2.251
       2.280
       2.486
       2.859
       3.231
       3.386
       3.166
       2.530
       1.560
       0.416
      -0.704
      -1.613
      -2.170
      -2.324
      -2.124
      -1.703
      -1.217
      -0.782
      -0.458
      -0.260
      -0.201
      -0.308
      -0.598
      -1.033
      -1.498
      -1.837
      -1.935
      -1.786
      -1.507
      -1.252
      -1.095
      -0.984
      -0.820
      -0.559
      -0.249
       0.023
       0.190
       0.230
       0.150
      -0.034
      -0.280
      -0.504
      -0.613
      -0.553
      -0.309
       0.142
       0.838
       1.759
       2.716
       3.371
       3.414
       2.805
       1.855
       1.058
       0.761
       0.913
       1.099
       0.828
      -0.118
      -1.522
      -2.871
      -3.680
      -3.785
      -3.397
      -2.907
      -2.610
      -2.526
      -2.423
      -2.002
      -1.109
       0.138
       1.407
       2.332
       2.706
       2.572
       2.147
       1.659
       1.207
       0.748
       0.184
      -0.516
      -1.256
      -1.837
      -2.049
      -1.762
      -0.992
       0.095
       1.236
       2.160
       2.675
       2.745
       2.505
       2.196
       2.040
       2.108
       2.275
       2.285
       1.917
       1.147
       0.192
      -0.603
      -0.971
      -0.892
      -0.594
      -0.403
      -0.539
      -0.985
      -1.488
      -1.702
      -1.404
      -0.659
       0.195
       0.742
       0.765
       0.389
       0.011
       0.024
       0.556
       1.399
       2.158
       2.503
       2.347
       1.848
       1.267
       0.803
       0.503
       0.307
       0.137
      -0.050
      -0.265
      -0.526
      -0.839
      -1.164
      -1.413
      -1.506
      -1.435
      -1.264
      -1.072
      -0.900
      -0.769
      -0.719
      -0.829
      -1.153
      -1.643
      -2.138
      -2.422
      -2.316
      -1.764
      -0.872
       0.125
       0.965
       1.485
       1.701
       1.770
       1.844
       1.922
       1.830
       1.362
       0.481
      -0.592
      -1.477
      -1.867
      -1.707
      -1.198
      -0.645
      -0.281
      -0.184
      -0.301
      -0.503
      -0.630
      -0.527
      -0.122
       0.497
       1.094
       1.397
       1.266
       0.782
       0.204
      -0.201
      -0.329
      -0.282
      -0.287
      -0.540
      -1.111
      -1.910
      -2.719
      -3.245
      -3.244
      -2.652
      -1.652
      -0.598
       0.181
       0.571
       0.736
       0.993
       1.575
       2.463
       3.398
       4.083
       4.396
       4.436
       4.382
       4.321
       4.177
       3.786
       3.008
       1.807
       0.259
      -1.460
      -3.092
      -4.364
      -5.107
      -5.336
      -5.207
      -4.869
      -4.342
      -3.521
      -2.306
      -0.759
       0.863
       2.222
       3.085
       3.422
       3.376
       3.137
       2.833
       2.501
       2.116
       1.643
       1.050
       0.330
      -0.490
      -1.342
      -2.137
      -2.801
      -3.294
      -3.591
      -3.660
      -3.478
      -3.048
      -2.399
      -1.554
      -0.527
       0.628
       1.736
       2.507
       2.685
       2.247
       1.487
       0.863
       0.725
       1.093
       1.650
       1.925
       1.576
       0.586
      -0.731
      -1.904
      -2.564
      -2.626
      -2.295
      -1.910
      -1.734
      -1.792
      -1.865
      -1.625
      -0.859
       0.368
       1.719
       2.752
       3.157
       2.928
       2.377
       1.944
       1.924
       2.270
       2.617
       2.533
       1.805
       0.575
      -0.751
      -1.746
      -2.182
      -2.077
      -1.601
      -0.921
      -0.156
       0.587
       1.143
       1.303
       0.935
       0.102
      -0.919
      -1.761
      -2.158
      -2.082
      -1.748
      -1.464
      -1.427
      -1.589
      -1.687
      -1.445
      -0.801
       0.015
       0.616
       0.733
       0.391
      -0.123
      -0.480
      -0.512
      -0.261
       0.118
       0.471
       0.689
       0.731
       0.637
       0.518
       0.488
       0.550
       0.569
       0.356
      -0.183
      -0.955
      -1.707
      -2.174
      -2.225
      -1.925
      -1.479
      -1.095
      -0.870
      -0.751
      -0.589
      -0.252
       0.298
       0.962
       1.548
       1.866
       1.833
       1.535
       1.179
       0.972
       0.996
       1.189
       1.419
       1.582
       1.635
       1.546
       1.252
       0.700
      -0.058
      -0.834
      -1.387
      -1.567
      -1.425
      -1.159
      -0.942
      -0.755
      -0.401
       0.295
       1.272
       2.214
       2.741
       2.651
       2.029
       1.161
       0.343
      -0.271
      -0.691
      -1.033
      -1.397
      -1.762
      -1.965
      -1.810
      -1.249
      -0.496
       0.045
       0.022
      -0.618
      -1.585
      -2.437
      -2.864
      -2.834
      -2.506
      -2.011
      -1.310
      -0.265
       1.152
       2.707
       3.968
       4.547
       4.367
       3.716
       3.059
       2.734
       2.738
       2.749
       2.361
       1.375
      -0.049
      -1.466
      -2.372
      -2.475
      -1.840
      -0.857
      -0.031
       0.271
       0.002
      -0.575
      -1.074
      -1.226
      -1.037
      -0.749
      -0.657
      -0.908
      -1.408
      -1.904
      -2.150
      -2.047
      -1.643
      -1.050
      -0.370
       0.337
       1.029
       1.652
       2.128
       2.366
       2.298
       1.920
       1.312
       0.612
      -0.044
      -0.578
      -0.986
      -1.288
      -1.459
      -1.388
      -0.936
      -0.057
       1.110
       2.250
       3.010
       3.184
       2.807
       2.101
       1.337
       0.696
       0.211
      -0.187
      -0.583
      -1.011
      -1.432
      -1.744
      -1.823
      -1.583
      -1.050
      -0.401
       0.067
       0.091
      -0.347
      -0.942
      -1.226
      -0.913
      -0.136
       0.632
       0.920
       0.608
      -0.014
      -0.466
      -0.418
       0.115
       0.813
       1.275
       1.253
       0.768
       0.053
      -0.580
      -0.892
      -0.830
      -0.573
      -0.456
      -0.787
      -1.641
      -2.771
      -3.726
      -4.101
      -3.754
      -2.843
      -1.698
      -0.646
       0.094
       0.454
       0.509
       0.460
       0.563
       0.996
       1.748
       2.608
       3.273
       3.533
       3.404
       3.116
       2.956
       3.071
       3.346
       3.447
       3.011
       1.861
       0.114
      -1.867
      -3.625
      -4.800
      -5.277
      -5.240
      -5.059
      -5.056
      -5.280
      -5.462
      -5.225
      -4.374
      -3.046
      -1.626
      -0.525
       0.027
       0.045
      -0.256
      -0.566
      -0.588
      -0.151
       0.705
       1.726
       2.572
       3.010
       3.064
       3.001
       3.148
       3.675
       4.464
       5.156
       5.349
       4.838
       3.738
       2.401
       1.197
       0.300
      -0.372
      -1.042
      -1.873
      -2.812
      -3.599
      -3.926
      -3.659
      -2.954
      -2.165
      -1.595
      -1.273
      -0.962
      -0.412
       0.380
       1.132
       1.481
       1.257
       0.588
      -0.192
      -0.771
      -1.041
      -1.118
      -1.206
      -1.403
      -1.600
      -1.540
      -1.006
      -0.011
       1.144
       2.000
       2.196
       1.696
       0.806
      -0.026
      -0.499
      -0.640
      -0.729
      -1.056
      -1.667
      -2.303
      -2.557
      -2.141
      -1.066
       0.368
       1.719
       2.622
       2.948
       2.842
       2.588
       2.371
       2.121
       1.591
       0.620
      -0.621
      -1.648
      -1.962
      -1.420
      -0.355
       0.638
       1.091
       0.936
       0.480
       0.126
       0.102
       0.373
       0.751
       1.056
       1.205
       1.207
       1.128
       1.063
       1.089
       1.191
       1.215
       0.941
       0.228
      -0.853
      -2.032
      -2.975
      -3.445
      -3.370
      -2.817
      -1.950
      -0.991
      -0.170
       0.376
       0.678
       0.902
       1.204
       1.569
       1.787
       1.611
       0.969
       0.068
      -0.700
      -0.981
      -0.665
       0.044
       0.760
       1.160
       1.175
       0.992
       0.861
       0.877
       0.922
       0.804
       0.440
      -0.049
      -0.406
      -0.382
       0.131
       1.034
       2.029
       2.722
       2.812
       2.268
       1.370
       0.560
       0.160
       0.161
       0.236
      -0.020
      -0.799
      -1.936
      -2.997
      -3.524
      -3.302
      -2.501
      -1.602
      -1.116
      -1.274
      -1.864
      -2.357
      -2.269
      -1.504
      -0.421
       0.435
       0.723
       0.527
       0.246
       0.268
       0.694
       1.292
       1.677
       1.568
       0.950
       0.048
      -0.825
      -1.459
      -1.842
      -2.127
      -2.479
      -2.921
      -3.279
      -3.281
      -2.747
      -1.729
      -0.494
       0.620
       1.399
       1.842
       2.105
       2.370
       2.724
       3.115
       3.401
       3.444
       3.200
       2.739
       2.185
       1.629
       1.066
       0.414
      -0.408
      -1.385
      -2.374
      -3.156
      -3.575
      -3.632
      -3.463
      -3.212
      -2.912
      -2.467
      -1.733
      -0.640
       0.718
       2.071
       3.057
       3.381
       2.982
       2.098
       1.165
       0.604
       0.611
       1.071
       1.620
       1.813
       1.322
       0.101
      -1.570
      -3.191
      -4.274
      -4.566
      -4.120
      -3.198
      -2.079
      -0.903
       0.375
       1.859
       3.527
       5.116
       6.198
       6.421
       5.748
       4.503
       3.178
       2.130
       1.388
       0.714
      -0.154
      -1.250
      -2.302
      -2.900
      -2.788
      -2.096
      -1.309
      -0.990
      -1.404
      -2.309
      -3.080
      -3.104
      -2.179
      -0.657
       0.752
       1.412
       1.133
       0.272
      -0.513
      -0.694
      -0.232
       0.378
       0.432
      -0.502
      -2.250
      -4.090
      -5.187
      -5.095
      -4.004
      -2.569
      -1.471
      -1.008
      -0.970
      -0.826
      -0.097
       1.324
       3.080
       4.539
       5.181
       4.925
       4.167
       3.508
       3.352
       3.665
       4.030
       3.946
       3.161
       1.831
       0.419
      -0.583
      -0.919
      -0.693
      -0.275
      -0.084
      -0.365
      -1.068
      -1.885
      -2.424
      -2.439
      -1.978
      -1.347
      -0.907
      -0.809
      -0.900
      -0.854
      -0.452
       0.236
       0.889
       1.137
       0.787
      -0.076
      -1.155
      -2.118
      -2.757
      -3.052
      -3.112
      -3.042
      -2.852
      -2.457
      -1.763
      -0.768
       0.405
       1.557
       2.535
       3.324
       4.045
       4.831
       5.677
       6.378
       6.597
       6.076
       4.813
       3.118
       1.463
       0.232
      -0.481
      -0.876
      -1.275
      -1.885
      -2.661
      -3.333
      -3.570
      -3.169
      -2.160
      -0.802
       0.516
       1.404
       1.613
       1.135
       0.235
      -0.648
      -1.114
      -1.020
      -0.561
      -0.120
       0.004
      -0.192
      -0.425
      -0.364
       0.084
       0.687
       1.063
       0.958
       0.403
      -0.333
      -0.941
      -1.260
      -1.348
      -1.401
      -1.600
      -1.969
      -2.340
      -2.456
      -2.134
      -1.404
      -0.502
       0.263
       0.693
       0.778
       0.626
       0.337
      -0.054
      -0.535
      -1.051
      -1.486
      -1.722
      -1.687
      -1.382
      -0.863
      -0.212
       0.486
       1.163
       1.768
       2.221
       2.368
       2.018
       1.064
      -0.359
      -1.838
      -2.839
      -2.997
      -2.343
      -1.293
      -0.402
      -0.019
      -0.093
      -0.242
      -0.027
       0.748
       1.905
       2.995
       3.565
       3.420
       2.712
       1.828
       1.158
       0.879
       0.883
       0.861
       0.517
      -0.242
      -1.235
      -2.104
      -2.519
      -2.354
      -1.758
      -1.072
      -0.638
      -0.603
      -0.846
      -1.081
      -1.056
      -0.702
      -0.153
       0.348
       0.579
       0.427
      -0.069
      -0.723
      -1.252
      -1.388
      -1.014
      -0.250
       0.585
       1.115
       1.102
       0.565
      -0.230
      -0.892
      -1.093
      -0.713
       0.095
       0.978
       1.536
       1.526
       0.983
       0.222
      -0.308
      -0.231
       0.579
       1.909
       3.265
       4.078
       4.011
       3.178
       2.100
       1.384
       1.331
       1.742
       2.061
       1.742
       0.586
      -1.152
      -2.927
      -4.197
      -4.678
      -4.419
      -3.720
      -2.943
      -2.327
      -1.895
      -1.497
      -0.955
      -0.208
       0.617
       1.272
       1.536
       1.342
       0.831
       0.284
      -0.018
       0.078
       0.509
       1.019
       1.266
       1.026
       0.361
      -0.379
      -0.771
      -0.620
      -0.127
       0.244
       0.109
      -0.535
      -1.302
      -1.679
      -1.382
      -0.520
       0.508
       1.280
       1.594
       1.536
       1.370
       1.370
       1.668
       2.176
       2.602
       2.583
       1.894
       0.599
      -0.960
      -2.355
      -3.296
      -3.716
      -3.671
      -3.187
      -2.245
      -0.913
       0.533
       1.684
       2.246
       2.251
       2.026
       1.946
       2.156
       2.488
       2.599
       2.231
       1.400
       0.403
      -0.364
      -0.641
      -0.457
      -0.110
       0.007
      -0.365
      -1.181
      -2.094
      -2.653
      -2.597
      -2.035
      -1.365
      -0.960
      -0.861
      -0.729
      -0.117
       1.154
       2.806
       4.259
       4.980
       4.779
       3.849
       2.573
       1.253
      -0.017
      -1.271
      -2.501
      -3.554
      -4.195
      -4.274
      -3.833
      -3.066
      -2.181
      -1.288
      -0.407
       0.463
       1.263
       1.871
       2.173
       2.147
       1.928
       1.784
       1.950
       2.422
       2.860
       2.753
       1.768
       0.036
      -1.837
      -3.112
      -3.385
      -2.840
      -2.106
      -1.811
      -2.143
      -2.740
      -2.973
      -2.392
      -1.032
       0.636
       2.016
       2.717
       2.699
       2.203
       1.565
       1.052
       0.776
       0.708
       0.750
       0.822
       0.900
       0.983
       1.025
       0.907
       0.477
      -0.335
      -1.431
      -2.561
      -3.444
      -3.909
      -3.944
      -3.637
      -3.067
      -2.252
      -1.204
      -0.014
       1.128
       2.032
       2.615
       2.934
       3.103
       3.198
       3.210
       3.080
       2.757
       2.241
       1.606
       0.971
       0.428
      -0.023
      -0.470
      -1.014
      -1.663
      -2.298
      -2.750
      -2.910
      -2.800
      -2.513
      -2.096
      -1.481
      -0.563
       0.627
       1.822
       2.627
       2.758
       2.230
       1.341
       0.457
      -0.218
      -0.718
      -1.173
      -1.624
      -1.964
      -2.041
      -1.805
      -1.344
      -0.802
      -0.304
       0.052
       0.196
       0.105
      -0.163
      -0.464
      -0.605
      -0.380
       0.368
       1.662
       3.317
       4.937
       6.058
       6.368
       5.866
       4.835
       3.666
       2.655
       1.861
       1.116
       0.169
      -1.104
      -2.590
      -3.982
      -4.956
      -5.330
      -5.141
      -4.591
      -3.934
      -3.364
      -2.954
      -2.672
      -2.427
      -2.118
      -1.666
      -1.033
      -0.232
       0.696
       1.711
       2.764
       3.756
       4.514
       4.825
       4.554
       3.761
       2.704
       1.721
       1.047
       0.707
       0.546
       0.378
       0.130
      -0.137
      -0.338
      -0.479
      -0.647
      -0.907
      -1.194
      -1.348
      -1.232
      -0.870
      -0.476
      -0.345
      -0.656
      -1.320
      -2.005
      -2.329
      -2.099
      -1.425
      -0.639
      -0.069
       0.152
       0.133
       0.116
       0.300
       0.711
       1.164
       1.381
       1.189
       0.673
       0.128
      -0.157
      -0.113
       0.072
       0.132
      -0.045
      -0.322
      -0.437
      -0.234
       0.187
       0.531
       0.521
       0.105
      -0.513
      -1.019
      -1.190
      -1.018
      -0.678
      -0.401
      -0.338
      -0.504
      -0.796
      -1.048
      -1.118
      -0.958
      -0.648
