Origin Time       05/3/2012 07:41:05	
Lat.              28.7 N	
Long.             76.6 E	
Depth (Km)         14.0
Magnitude         4.9
 Region           Haryana-Delhi-Border-Region                                      
 Above details taken from IMD 
     
Station Code      GRG
Station Lat.       28.449  N
Station Long.      77.029  E
Station Height(m)  216.0
Site Class        C   Vs30 between 200 m/sec to 375 m/sec *  
Record Time       20.07.2092 07:40:51.829
Sampling Rate     200. Hz
 Record Duration   80.105 Sec.
 Direction         E-W (E positive)
Max. Acceleration     -8.050 cm/sec**2
     
  * For reference see Site Classification link of website 
     
 Base Line Corrected and Low Pass Filtered (Cut Off at 35 Hz) Time History
 Acceleration data in cm/sec**2
    
[...]
      -0.369
      -0.116
       0.124
       0.333
       0.508
       0.665
       0.826
       1.002
       1.182
       1.330
       1.407
       1.385
       1.255
       1.032
       0.740
       0.408
       0.065
      -0.258
      -0.531
      -0.725
      -0.822
      -0.815
      -0.725
      -0.588
      -0.449
      -0.333
      -0.239
      -0.148
      -0.043
       0.071
       0.182
       0.283
       0.384
       0.494
       0.610
       0.708
       0.766
       0.773
       0.748
       0.728
       0.753
       0.843
       0.988
       1.158
       1.320
       1.456
       1.564
       1.647
       1.711
       1.752
       1.752
       1.691
       1.558
       1.362
       1.139
       0.929
       0.754
       0.606
       0.462
       0.304
       0.133
      -0.040
      -0.207
      -0.357
      -0.475
      -0.534
      -0.518
      -0.437
      -0.332
      -0.259
      -0.259
      -0.336
      -0.463
      -0.597
      -0.704
      -0.766
      -0.777
      -0.739
      -0.662
      -0.559
      -0.452
      -0.357
      -0.281
      -0.218
      -0.160
      -0.103
      -0.054
      -0.018
       0.005
       0.026
       0.060
       0.117
       0.196
       0.286
       0.361
       0.391
       0.344
       0.199
      -0.045
      -0.371
      -0.742
      -1.120
      -1.469
      -1.768
      -2.003
      -2.165
      -2.242
      -2.219
      -2.088
      -1.858
      -1.556
      -1.224
      -0.895
      -0.584
      -0.289
      -0.011
       0.236
       0.428
       0.553
       0.628
       0.699
       0.809
       0.971
       1.148
       1.283
       1.330
       1.285
       1.177
       1.038
       0.880
       0.697
       0.493
       0.292
       0.127
       0.021
      -0.022
      -0.009
       0.055
       0.155
       0.262
       0.332
       0.329
       0.254
       0.134
       0.001
      -0.136
      -0.288
      -0.454
      -0.603
      -0.688
      -0.682
      -0.596
      -0.467
      -0.322
      -0.160
       0.049
       0.330
       0.685
       1.085
       1.482
       1.821
       2.057
       2.166
       2.154
       2.050
       1.883
       1.655
       1.346
       0.944
       0.471
      -0.006
      -0.418
      -0.729
      -0.948
      -1.108
      -1.216
      -1.241
      -1.139
      -0.896
      -0.558
      -0.215
       0.041
       0.153
       0.120
      -0.020
      -0.212
      -0.409
      -0.580
      -0.702
      -0.752
      -0.711
      -0.567
      -0.335
      -0.060
       0.193
       0.365
       0.427
       0.390
       0.293
       0.175
       0.062
      -0.041
      -0.130
      -0.189
      -0.195
      -0.138
      -0.030
       0.094
       0.193
       0.228
       0.173
       0.021
      -0.219
      -0.522
      -0.858
      -1.202
      -1.530
      -1.812
      -2.003
      -2.061
      -1.961
      -1.713
      -1.355
      -0.938
      -0.515
      -0.131
       0.182
       0.412
       0.570
       0.685
       0.789
       0.896
       0.988
       1.024
       0.967
       0.812
       0.591
       0.359
       0.153
      -0.018
      -0.161
      -0.268
      -0.312
      -0.275
      -0.169
      -0.041
       0.055
       0.090
       0.071
       0.034
       0.010
       0.012
       0.031
       0.055
       0.085
       0.135
       0.211
       0.289
       0.320
       0.258
       0.096
      -0.124
      -0.333
      -0.470
      -0.504
      -0.431
      -0.272
      -0.063
       0.156
       0.346
       0.485
       0.566
       0.605
       0.626
       0.658
       0.714
       0.788
       0.858
       0.902
       0.902
       0.853
       0.750
       0.583
       0.341
       0.026
      -0.332
      -0.680
      -0.961
      -1.141
      -1.217
      -1.207
      -1.135
      -1.010
      -0.825
      -0.580
      -0.304
      -0.054
       0.113
       0.176
       0.175
       0.183
       0.261
       0.415
       0.592
       0.724
       0.772
       0.746
       0.678
       0.588
       0.471
       0.325
       0.180
       0.095
       0.117
       0.228
       0.350
       0.391
       0.316
       0.159
      -0.008
      -0.129
      -0.195
      -0.224
      -0.232
      -0.217
      -0.163
      -0.063
       0.062
       0.167
       0.204
       0.146
      -0.006
      -0.216
      -0.434
      -0.615
      -0.740
      -0.821
      -0.885
      -0.942
      -0.985
      -0.995
      -0.962
      -0.884
      -0.768
      -0.615
      -0.434
      -0.239
      -0.039
       0.171
       0.403
       0.649
       0.862
       0.972
       0.940
       0.789
       0.590
       0.413
       0.280
       0.165
       0.036
      -0.096
      -0.186
      -0.193
      -0.125
      -0.031
       0.043
       0.089
       0.143
       0.246
       0.417
       0.641
       0.876
       1.078
       1.219
       1.300
       1.344
       1.375
       1.391
       1.367
       1.272
       1.104
       0.892
       0.672
       0.462
       0.247
       0.004
      -0.265
      -0.534
      -0.763
      -0.928
      -1.030
      -1.088
      -1.130
      -1.171
      -1.224
      -1.292
      -1.373
      -1.458
      -1.524
      -1.557
      -1.553
      -1.525
      -1.475
      -1.387
      -1.227
      -0.981
      -0.669
      -0.341
      -0.037
       0.236
       0.500
       0.769
       1.029
       1.241
       1.362
       1.380
       1.317
       1.227
       1.162
       1.138
       1.126
       1.062
       0.887
       0.591
       0.220
      -0.157
      -0.479
      -0.718
      -0.872
      -0.947
      -0.953
      -0.900
      -0.795
      -0.647
      -0.467
      -0.281
      -0.125
      -0.035
      -0.029
      -0.106
      -0.250
      -0.435
      -0.629
      -0.788
      -0.872
      -0.850
      -0.725
      -0.529
      -0.305
      -0.087
       0.112
       0.282
       0.408
       0.477
       0.493
       0.482
       0.476
       0.493
       0.538
       0.612
       0.731
       0.911
       1.146
       1.395
       1.589
       1.664
       1.592
       1.383
       1.069
       0.689
       0.281
      -0.117
      -0.461
      -0.710
      -0.848
      -0.888
      -0.867
      -0.829
      -0.801
      -0.797
      -0.812
      -0.828
      -0.818
      -0.753
      -0.616
      -0.410
      -0.160
       0.107
       0.365
       0.586
       0.740
       0.796
       0.751
       0.636
       0.501
       0.386
       0.298
       0.213
       0.106
      -0.028
      -0.170
      -0.292
      -0.376
      -0.427
      -0.471
      -0.538
      -0.641
      -0.751
      -0.815
      -0.785
      -0.656
      -0.464
      -0.258
      -0.073
       0.081
       0.204
       0.286
       0.310
       0.267
       0.170
       0.044
      -0.086
      -0.206
      -0.310
      -0.385
      -0.409
      -0.363
      -0.252
      -0.106
       0.028
       0.113
       0.137
       0.103
       0.006
      -0.168
      -0.428
      -0.746
      -1.048
      -1.249
      -1.290
      -1.169
      -0.934
      -0.649
      -0.366
      -0.111
       0.117
       0.324
       0.517
       0.691
       0.839
       0.956
       1.042
       1.107
       1.169
       1.252
       1.376
       1.542
       1.726
       1.879
       1.948
       1.897
       1.706
       1.382
       0.955
       0.477
       0.017
      -0.356
      -0.595
      -0.686
      -0.652
      -0.537
      -0.388
      -0.241
      -0.105
       0.026
       0.161
       0.294
       0.399
       0.447
       0.432
       0.389
       0.376
       0.441
       0.583
       0.755
       0.895
       0.969
       0.988
       0.990
       0.997
       0.992
       0.935
       0.803
       0.604
       0.372
       0.124
      -0.154
      -0.494
      -0.897
      -1.317
      -1.680
      -1.924
      -2.032
      -2.026
      -1.946
      -1.823
      -1.668
      -1.473
      -1.230
      -0.945
      -0.643
      -0.363
      -0.157
      -0.077
      -0.149
      -0.340
      -0.564
      -0.729
      -0.793
      -0.796
      -0.816
      -0.898
      -1.021
      -1.111
      -1.109
      -1.005
      -0.836
      -0.644
      -0.437
      -0.190
       0.129
       0.519
       0.924
       1.255
       1.432
       1.424
       1.258
       1.002
       0.726
       0.484
       0.306
       0.197
       0.140
       0.093
       0.006
      -0.150
      -0.364
      -0.590
      -0.768
      -0.863
      -0.863
      -0.772
      -0.599
      -0.355
      -0.069
       0.216
       0.468
       0.679
       0.859
       1.010
       1.104
       1.101
       0.991
       0.821
       0.679
       0.645
       0.742
       0.924
       1.115
       1.252
       1.307
       1.284
       1.188
       1.028
       0.820
       0.591
       0.380
       0.219
       0.121
       0.090
       0.115
       0.168
       0.197
       0.141
      -0.034
      -0.315
      -0.637
      -0.913
      -1.070
      -1.076
      -0.944
      -0.720
      -0.458
      -0.197
       0.051
       0.286
       0.500
       0.676
       0.799
       0.878
       0.940
       0.995
       1.005
       0.894
       0.606
       0.160
      -0.343
      -0.776
      -1.061
      -1.199
      -1.246
      -1.264
      -1.274
      -1.265
      -1.218
      -1.139
      -1.053
      -0.989
      -0.951
      -0.922
      -0.881
      -0.816
      -0.734
      -0.645
      -0.567
      -0.510
      -0.475
      -0.447
      -0.403
      -0.337
      -0.271
      -0.242
      -0.282
      -0.392
      -0.548
      -0.713
      -0.854
      -0.940
      -0.937
      -0.814
      -0.557
      -0.186
       0.237
       0.640
       0.976
       1.243
       1.472
       1.694
       1.899
       2.037
       2.047
       1.898
       1.615
       1.263
       0.908
       0.582
       0.281
      -0.006
      -0.270
      -0.474
      -0.583
      -0.590
      -0.519
      -0.408
      -0.287
      -0.168
      -0.054
       0.046
       0.118
       0.145
       0.126
       0.071
      -0.007
      -0.100
      -0.201
      -0.289
      -0.328
      -0.278
      -0.122
       0.127
       0.432
       0.751
       1.054
       1.333
       1.598
       1.857
       2.100
       2.291
       2.370
       2.281
       2.002
       1.560
       1.027
       0.479
      -0.033
      -0.509
      -0.973
      -1.433
      -1.851
      -2.151
      -2.267
      -2.190
      -1.972
      -1.680
      -1.352
      -0.992
      -0.603
      -0.211
       0.146
       0.446
       0.695
       0.909
       1.083
       1.185
       1.176
       1.049
       0.839
       0.607
       0.400
       0.235
       0.095
      -0.045
      -0.194
      -0.330
      -0.406
      -0.372
      -0.207
       0.072
       0.415
       0.769
       1.097
       1.379
       1.595
       1.712
       1.692
       1.532
       1.291
       1.065
       0.934
       0.909
       0.934
       0.940
       0.904
       0.851
       0.808
       0.757
       0.631
       0.367
      -0.037
      -0.511
      -0.949
      -1.271
      -1.465
      -1.587
      -1.704
      -1.848
      -1.997
      -2.103
      -2.121
      -2.018
      -1.772
      -1.374
      -0.851
      -0.272
       0.258
       0.651
       0.880
       0.985
       1.022
       1.008
       0.895
       0.618
       0.151
      -0.443
      -1.042
      -1.527
      -1.845
      -2.030
      -2.158
      -2.287
      -2.435
      -2.607
      -2.825
      -3.128
      -3.532
      -3.983
      -4.366
      -4.565
      -4.526
      -4.269
      -3.870
      -3.409
      -2.950
      -2.537
      -2.186
      -1.880
      -1.574
      -1.207
      -0.713
      -0.039
       0.832
       1.849
       2.872
       3.698
       4.128
       4.061
       3.534
       2.711
       1.814
       1.032
       0.471
       0.133
      -0.051
      -0.160
      -0.240
      -0.291
      -0.293
      -0.230
      -0.097
       0.113
       0.426
       0.873
       1.463
       2.160
       2.875
       3.478
       3.833
       3.831
       3.421
       2.620
       1.507
       0.210
      -1.118
      -2.332
      -3.319
      -4.014
      -4.387
      -4.431
      -4.168
      -3.664
      -3.022
      -2.342
      -1.669
      -0.969
      -0.172
       0.765
       1.816
       2.888
       3.861
       4.639
       5.161
       5.376
       5.222
       4.628
       3.572
       2.131
       0.487
      -1.125
      -2.502
      -3.519
      -4.122
      -4.289
      -4.009
      -3.309
      -2.286
      -1.133
      -0.089
       0.647
       0.988
       0.958
       0.632
       0.085
      -0.622
      -1.401
      -2.106
      -2.540
      -2.516
      -1.917
      -0.752
       0.844
       2.635
       4.348
       5.738
       6.644
       7.013
       6.893
       6.410
       5.735
       5.038
       4.441
       3.984
       3.622
       3.260
       2.805
       2.213
       1.497
       0.710
      -0.080
      -0.820
      -1.464
      -1.966
      -2.272
      -2.345
      -2.191
      -1.871
      -1.473
      -1.071
      -0.703
      -0.388
      -0.155
      -0.052
      -0.105
      -0.282
      -0.490
      -0.622
      -0.613
      -0.448
      -0.126
       0.367
       1.053
       1.918
       2.878
       3.775
       4.399
       4.526
       3.980
       2.705
       0.811
      -1.440
      -3.720
      -5.724
      -7.225
      -8.049
      -8.050
      -7.132
      -5.337
      -2.924
      -0.335
       1.958
       3.637
       4.607
       4.941
       4.757
       4.148
       3.192
       2.010
       0.774
      -0.335
      -1.175
      -1.666
      -1.783
      -1.558
      -1.094
      -0.563
      -0.169
      -0.082
      -0.365
      -0.962
      -1.729
      -2.498
      -3.124
      -3.506
      -3.593
      -3.388
      -2.948
      -2.366
      -1.736
      -1.125
      -0.569
      -0.087
       0.312
       0.628
       0.864
       1.007
       1.010
       0.804
       0.366
      -0.241
      -0.869
      -1.352
      -1.577
      -1.515
      -1.207
      -0.735
      -0.219
       0.190
       0.336
       0.125
      -0.404
      -1.075
      -1.650
      -1.939
      -1.882
      -1.539
      -1.042
      -0.532
      -0.139
       0.026
      -0.119
      -0.596
      -1.367
      -2.357
      -3.474
      -4.602
      -5.560
      -6.098
      -5.972
      -5.069
      -3.487
      -1.488
       0.630
       2.653
       4.450
       5.894
       6.807
       7.033
       6.558
       5.566
       4.345
       3.141
       2.076
       1.181
       0.478
       0.014
      -0.198
      -0.246
      -0.306
      -0.528
      -0.903
      -1.243
      -1.293
      -0.901
      -0.114
       0.872
       1.840
       2.654
       3.255
       3.585
       3.532
       2.976
       1.883
       0.390
      -1.197
      -2.512
      -3.282
      -3.443
      -3.144
      -2.640
      -2.146
      -1.750
      -1.438
      -1.177
      -0.973
      -0.869
      -0.880
      -0.949
      -0.956
      -0.796
      -0.448
      -0.005
       0.387
       0.605
       0.621
       0.512
       0.403
       0.384
       0.443
       0.481
       0.404
       0.210
       0.011
      -0.053
       0.083
       0.359
       0.650
       0.877
       1.066
       1.319
       1.724
       2.280
       2.891
       3.406
       3.676
       3.602
       3.168
       2.455
       1.607
       0.771
       0.053
      -0.486
      -0.787
      -0.763
      -0.326
       0.561
       1.807
       3.177
       4.332
       4.932
       4.765
       3.836
       2.359
       0.671
      -0.889
      -2.074
      -2.755
      -2.917
      -2.628
      -2.023
      -1.288
      -0.629
      -0.228
      -0.184
      -0.480
      -0.979
      -1.477
      -1.776
      -1.744
      -1.342
      -0.621
       0.293
       1.222
       1.978
       2.412
       2.479
       2.252
       1.876
       1.488
       1.174
       0.972
       0.890
       0.911
       0.968
       0.951
       0.759
       0.382
      -0.073
      -0.443
      -0.621
      -0.645
      -0.672
      -0.883
      -1.375
      -2.116
      -2.968
      -3.751
      -4.294
      -4.480
      -4.265
      -3.683
      -2.830
      -1.825
      -0.773
       0.252
       1.189
       1.967
       2.488
       2.650
       2.377
       1.664
       0.607
      -0.585
      -1.634
      -2.283
      -2.413
      -2.087
      -1.516
      -0.946
      -0.574
      -0.523
      -0.863
      -1.618
      -2.720
      -3.959
      -4.997
      -5.485
      -5.221
      -4.239
      -2.784
      -1.190
       0.262
       1.417
       2.232
       2.725
       2.918
       2.828
       2.477
       1.908
       1.183
       0.370
      -0.465
      -1.250
      -1.895
      -2.302
      -2.392
      -2.139
      -1.589
      -0.857
      -0.109
       0.479
       0.777
       0.757
       0.514
       0.219
       0.061
       0.168
       0.582
       1.247
       2.029
       2.748
       3.226
       3.337
       3.040
       2.390
       1.525
       0.621
      -0.157
      -0.695
      -0.950
      -0.950
      -0.791
      -0.605
      -0.503
      -0.522
      -0.604
      -0.642
      -0.542
      -0.264
       0.182
       0.764
       1.439
       2.131
       2.725
       3.092
       3.151
       2.904
       2.422
       1.786
       1.054
       0.275
      -0.477
      -1.078
      -1.401
      -1.379
      -1.058
      -0.571
      -0.063
       0.364
       0.669
       0.832
       0.836
       0.669
       0.350
      -0.062
      -0.488
      -0.872
      -1.209
      -1.536
      -1.880
      -2.213
      -2.444
      -2.466
      -2.219
      -1.716
      -1.024
      -0.218
       0.637
       1.464
       2.142
       2.510
       2.432
       1.892
       1.046
       0.179
      -0.416
      -0.572
      -0.292
       0.314
       1.121
       2.037
       2.978
       3.821
       4.418
       4.647
       4.467
       3.908
       3.030
       1.899
       0.602
      -0.731
      -1.937
      -2.863
      -3.404
      -3.518
      -3.226
      -2.635
      -1.941
      -1.391
      -1.173
      -1.299
      -1.582
      -1.738
      -1.556
      -1.019
      -0.282
       0.448
       1.025
       1.383
       1.497
       1.330
       0.854
       0.105
      -0.779
      -1.593
      -2.133
      -2.276
      -2.019
      -1.479
      -0.869
      -0.429
      -0.321
      -0.541
      -0.909
      -1.175
      -1.169
      -0.885
      -0.437
       0.053
       0.541
       1.051
       1.586
       2.079
       2.407
       2.478
       2.282
       1.870
       1.306
       0.634
      -0.089
      -0.743
      -1.166
      -1.243
      -1.000
      -0.607
      -0.253
      -0.008
       0.221
       0.599
       1.212
       1.983
       2.722
       3.226
       3.372
       3.123
       2.504
       1.569
       0.410
      -0.843
      -2.050
      -3.090
      -3.883
      -4.378
      -4.539
      -4.341
      -3.795
      -2.973
      -2.012
      -1.098
      -0.405
      -0.026
       0.089
       0.108
       0.227
       0.548
       1.028
       1.515
       1.847
       1.928
