Origin Time       05/3/2012 07:41:05	
Lat.              28.7 N	
Long.             76.6 E	
Depth (Km)         14.0
Magnitude         4.9
 Region           Haryana-Delhi-Border-Region                                      
 Above details taken from IMD 
   
Station Code      GRG
Station Lat.       28.449
Station Long.      77.029
Station Height(m)  216.0
Site Class        C   Vs30 between 200 m/sec to 375 m/sec *  
Record Time       20.07.2092 07:40:51.829
Sampling Rate     200. Hz
 Record Duration   80.105 Sec.
 Direction         Vert. (Up positive)
Max. Acceleration      6.016 cm/sec**2
     
  * For reference see Site Classification link of website 
     
 Base Line Corrected and Low Pass Filtered (Cut Off at 35 Hz) Time History
 Acceleration data in cm/sec**2
    
[...]
      -0.023
      -0.243
      -0.341
      -0.318
      -0.199
      -0.007
       0.256
       0.578
       0.910
       1.165
       1.260
       1.160
       0.901
       0.557
       0.194
      -0.166
      -0.538
      -0.922
      -1.273
      -1.525
      -1.648
      -1.666
      -1.626
      -1.535
      -1.348
      -1.017
      -0.557
      -0.063
       0.331
       0.515
       0.442
       0.136
      -0.323
      -0.832
      -1.299
      -1.654
      -1.840
      -1.816
      -1.582
      -1.202
      -0.791
      -0.446
      -0.180
       0.073
       0.390
       0.758
       1.057
       1.137
       0.934
       0.532
       0.118
      -0.123
      -0.123
       0.039
       0.200
       0.237
       0.153
       0.059
       0.076
       0.252
       0.543
       0.840
       1.017
       0.977
       0.711
       0.316
      -0.051
      -0.249
      -0.219
      -0.006
       0.289
       0.570
       0.795
       0.961
       1.061
       1.052
       0.875
       0.518
       0.053
      -0.387
      -0.675
      -0.760
      -0.681
      -0.520
      -0.348
      -0.191
      -0.044
       0.102
       0.243
       0.372
       0.500
       0.649
       0.816
       0.949
       0.963
       0.802
       0.502
       0.184
      -0.011
      -0.024
       0.086
       0.185
       0.180
       0.101
       0.062
       0.135
       0.266
       0.314
       0.182
      -0.088
      -0.329
      -0.375
      -0.184
       0.109
       0.277
       0.144
      -0.296
      -0.864
      -1.314
      -1.472
      -1.330
      -1.012
      -0.656
      -0.308
       0.079
       0.551
       1.047
       1.391
       1.387
       0.941
       0.129
      -0.838
      -1.703
      -2.254
      -2.377
      -2.079
      -1.454
      -0.637
       0.243
       1.068
       1.718
       2.076
       2.073
       1.730
       1.163
       0.518
      -0.082
      -0.571
      -0.921
      -1.114
      -1.138
      -1.011
      -0.779
      -0.493
      -0.187
       0.125
       0.429
       0.673
       0.767
       0.622
       0.208
      -0.401
      -1.036
      -1.507
      -1.689
      -1.581
      -1.297
      -0.992
      -0.778
      -0.671
      -0.598
      -0.457
      -0.196
       0.157
       0.512
       0.783
       0.944
       1.043
       1.163
       1.356
       1.593
       1.787
       1.842
       1.701
       1.371
       0.915
       0.446
       0.101
      -0.008
       0.141
       0.443
       0.700
       0.721
       0.430
      -0.087
      -0.641
      -1.059
      -1.291
      -1.403
      -1.479
      -1.522
      -1.448
      -1.173
      -0.723
      -0.248
       0.067
       0.129
      -0.001
      -0.149
      -0.151
       0.042
       0.353
       0.658
       0.872
       0.974
       0.969
       0.843
       0.570
       0.165
      -0.276
      -0.606
      -0.705
      -0.557
      -0.255
       0.058
       0.273
       0.362
       0.351
       0.275
       0.161
       0.046
      -0.020
      -0.001
       0.096
       0.205
       0.222
       0.067
      -0.259
      -0.653
      -0.968
      -1.104
      -1.057
      -0.897
      -0.706
      -0.530
      -0.374
      -0.233
      -0.119
      -0.070
      -0.130
      -0.319
      -0.608
      -0.901
      -1.069
      -1.011
      -0.705
      -0.226
       0.286
       0.686
       0.876
       0.849
       0.689
       0.518
       0.416
       0.368
       0.284
       0.079
      -0.242
      -0.582
      -0.816
      -0.870
      -0.748
      -0.501
      -0.177
       0.207
       0.649
       1.123
       1.543
       1.778
       1.726
       1.396
       0.919
       0.461
       0.118
      -0.121
      -0.319
      -0.509
      -0.660
      -0.724
      -0.694
      -0.600
      -0.455
      -0.224
       0.140
       0.623
       1.110
       1.417
       1.404
       1.070
       0.561
       0.082
      -0.218
      -0.282
      -0.111
       0.271
       0.797
       1.317
       1.635
       1.609
       1.232
       0.651
       0.101
      -0.196
      -0.141
       0.186
       0.563
       0.757
       0.648
       0.274
      -0.229
      -0.735
      -1.166
      -1.478
      -1.623
      -1.550
      -1.265
      -0.878
      -0.566
      -0.451
      -0.499
      -0.545
      -0.442
      -0.186
       0.099
       0.293
       0.398
       0.520
       0.741
       1.006
       1.136
       0.956
       0.436
      -0.266
      -0.892
      -1.244
      -1.285
      -1.133
      -0.948
      -0.831
      -0.788
      -0.761
      -0.696
      -0.589
      -0.493
      -0.458
      -0.483
      -0.522
      -0.555
      -0.633
      -0.827
      -1.127
      -1.414
      -1.540
      -1.436
      -1.135
      -0.709
      -0.211
       0.323
       0.816
       1.137
       1.173
       0.920
       0.523
       0.183
       0.032
       0.044
       0.083
       0.029
      -0.117
      -0.238
      -0.198
       0.043
       0.401
       0.735
       0.944
       1.031
       1.102
       1.269
       1.549
       1.817
       1.869
       1.553
       0.880
       0.029
      -0.748
      -1.239
      -1.347
      -1.101
      -0.623
      -0.078
       0.390
       0.707
       0.863
       0.881
       0.780
       0.570
       0.272
      -0.052
      -0.292
      -0.321
      -0.055
       0.466
       1.051
       1.420
       1.367
       0.901
       0.255
      -0.261
      -0.447
      -0.310
      -0.021
       0.221
       0.309
       0.247
       0.084
      -0.145
      -0.427
      -0.737
      -1.006
      -1.150
      -1.140
      -1.047
      -0.994
      -1.074
      -1.269
      -1.458
      -1.506
      -1.351
      -1.038
      -0.680
      -0.371
      -0.140
       0.037
       0.170
       0.218
       0.122
      -0.117
      -0.402
      -0.593
      -0.602
      -0.441
      -0.191
       0.070
       0.306
       0.509
       0.653
       0.674
       0.516
       0.197
      -0.179
      -0.474
      -0.588
      -0.519
      -0.365
      -0.277
      -0.385
      -0.719
      -1.189
      -1.616
      -1.825
      -1.724
      -1.330
      -0.721
      -0.002
       0.721
       1.345
       1.796
       2.039
       2.070
       1.900
       1.555
       1.094
       0.617
       0.254
       0.117
       0.254
       0.610
       1.035
       1.358
       1.468
       1.367
       1.132
       0.840
       0.522
       0.167
      -0.232
      -0.653
      -1.043
      -1.355
      -1.542
      -1.552
      -1.336
      -0.879
      -0.229
       0.517
       1.233
       1.796
       2.114
       2.150
       1.941
       1.572
       1.134
       0.689
       0.275
      -0.070
      -0.290
      -0.335
      -0.200
       0.065
       0.364
       0.592
       0.658
       0.494
       0.072
      -0.582
      -1.346
      -2.022
      -2.416
      -2.436
      -2.143
      -1.697
      -1.267
      -0.943
      -0.718
      -0.514
      -0.248
       0.114
       0.534
       0.926
       1.202
       1.314
       1.262
       1.079
       0.812
       0.518
       0.261
       0.107
       0.100
       0.243
       0.467
       0.640
       0.610
       0.282
      -0.326
      -1.079
      -1.779
      -2.241
      -2.361
      -2.143
      -1.706
      -1.247
      -0.947
      -0.873
      -0.944
      -1.001
      -0.897
      -0.573
      -0.075
       0.474
       0.930
       1.196
       1.244
       1.096
       0.795
       0.406
       0.042
      -0.136
       0.032
       0.599
       1.441
       2.266
       2.735
       2.615
       1.895
       0.790
      -0.359
      -1.263
      -1.812
      -2.093
      -2.269
      -2.431
      -2.519
      -2.376
      -1.889
      -1.117
      -0.291
       0.327
       0.626
       0.707
       0.779
       0.980
       1.270
       1.475
       1.464
       1.279
       1.135
       1.277
       1.799
       2.542
       3.170
       3.370
       3.040
       2.295
       1.351
       0.399
      -0.418
      -0.991
      -1.240
      -1.152
      -0.826
      -0.470
      -0.322
      -0.523
      -1.053
      -1.776
      -2.538
      -3.224
      -3.732
      -3.937
      -3.709
      -3.017
      -1.995
      -0.903
       0.020
       0.690
       1.197
       1.708
       2.318
       2.960
       3.419
       3.468
       3.021
       2.194
       1.215
       0.281
      -0.504
      -1.097
      -1.446
      -1.475
      -1.139
      -0.515
       0.180
       0.659
       0.708
       0.287
      -0.468
      -1.317
      -2.013
      -2.350
      -2.209
      -1.619
      -0.797
      -0.092
       0.198
       0.007
      -0.454
      -0.825
      -0.806
      -0.314
       0.490
       1.314
       1.892
       2.095
       1.949
       1.579
       1.128
       0.704
       0.368
       0.163
       0.131
       0.285
       0.571
       0.841
       0.910
       0.639
       0.018
      -0.821
      -1.649
      -2.227
      -2.408
      -2.191
      -1.708
      -1.156
      -0.725
      -0.530
      -0.578
      -0.765
      -0.924
      -0.916
      -0.699
      -0.341
       0.044
       0.381
       0.668
       0.942
       1.215
       1.445
       1.566
       1.542
       1.399
       1.214
       1.056
       0.945
       0.860
       0.776
       0.691
       0.610
       0.542
       0.504
       0.519
       0.592
       0.690
       0.741
       0.682
       0.480
       0.120
      -0.418
      -1.145
      -2.002
      -2.812
      -3.315
      -3.273
      -2.605
      -1.442
      -0.088
       1.102
       1.854
       2.061
       1.788
       1.220
       0.572
       0.017
      -0.349
      -0.502
      -0.466
      -0.304
      -0.122
      -0.037
      -0.099
      -0.238
      -0.303
      -0.179
       0.118
       0.441
       0.618
       0.560
       0.295
      -0.087
      -0.505
      -0.915
      -1.278
      -1.522
      -1.554
      -1.308
      -0.806
      -0.179
       0.356
       0.599
       0.473
       0.084
      -0.341
      -0.589
      -0.583
      -0.391
      -0.133
       0.137
       0.452
       0.872
       1.380
       1.854
       2.128
       2.114
       1.854
       1.463
       1.020
       0.504
      -0.139
      -0.890
      -1.591
      -1.998
      -1.921
      -1.363
      -0.537
       0.245
       0.747
       0.913
       0.830
       0.612
       0.317
      -0.036
      -0.404
      -0.685
      -0.754
      -0.529
      -0.038
       0.560
       1.015
       1.122
       0.843
       0.342
      -0.108
      -0.278
      -0.090
       0.362
       0.880
       1.268
       1.410
       1.291
       0.959
       0.495
       0.014
      -0.339
      -0.431
      -0.211
       0.253
       0.810
       1.309
       1.661
       1.845
       1.859
       1.667
       1.207
       0.481
      -0.330
      -0.900
      -0.945
      -0.449
       0.286
       0.834
       0.908
       0.500
      -0.182
      -0.872
      -1.368
      -1.586
      -1.562
      -1.396
      -1.179
      -0.949
      -0.723
      -0.535
      -0.444
      -0.488
      -0.633
      -0.786
      -0.876
      -0.925
      -1.036
      -1.294
      -1.654
      -1.940
      -1.953
      -1.612
      -1.005
      -0.321
       0.275
       0.750
       1.169
       1.578
       1.906
       1.981
       1.651
       0.923
       0.018
      -0.726
      -1.056
      -0.943
      -0.557
      -0.134
       0.158
       0.234
       0.038
      -0.488
      -1.336
      -2.337
      -3.162
      -3.482
      -3.198
      -2.548
      -1.949
      -1.708
      -1.803
      -1.934
      -1.793
      -1.326
      -0.761
      -0.377
      -0.250
      -0.189
       0.086
       0.705
       1.541
       2.304
       2.716
       2.655
       2.195
       1.532
       0.866
       0.335
       0.037
       0.073
       0.526
       1.365
       2.386
       3.257
       3.674
       3.507
       2.850
       1.932
       0.984
       0.154
      -0.472
      -0.838
      -0.907
      -0.685
      -0.248
       0.248
       0.589
       0.579
       0.155
      -0.547
      -1.230
      -1.577
      -1.421
      -0.851
      -0.184
       0.189
      -0.002
      -0.779
      -1.911
      -3.004
      -3.671
      -3.680
      -3.027
      -1.887
      -0.495
       0.949
       2.280
       3.333
       3.947
       4.012
       3.519
       2.580
       1.418
       0.320
      -0.457
      -0.799
      -0.773
      -0.578
      -0.406
      -0.329
      -0.265
      -0.068
       0.333
       0.850
       1.276
       1.423
       1.222
       0.709
      -0.044
      -0.953
      -1.889
      -2.643
      -2.988
      -2.804
      -2.151
      -1.233
      -0.304
       0.417
       0.822
       0.946
       0.929
       0.926
       1.008
       1.142
       1.241
       1.226
       1.047
       0.682
       0.139
      -0.516
      -1.153
      -1.600
      -1.693
      -1.333
      -0.548
       0.481
       1.454
       2.056
       2.092
       1.569
       0.680
      -0.300
      -1.107
      -1.519
      -1.362
      -0.556
       0.786
       2.314
       3.519
       3.933
       3.352
       1.951
       0.208
      -1.333
      -2.341
      -2.816
      -3.002
      -3.172
      -3.431
      -3.666
      -3.684
      -3.396
      -2.886
      -2.300
      -1.706
      -1.051
      -0.252
       0.695
       1.716
       2.748
       3.781
       4.784
       5.614
       6.016
       5.760
       4.802
       3.366
       1.838
       0.578
      -0.238
      -0.660
      -0.881
      -1.089
      -1.333
      -1.502
      -1.450
      -1.180
      -0.928
      -1.046
      -1.737
      -2.848
      -3.916
      -4.452
      -4.260
      -3.511
      -2.551
      -1.643
      -0.875
      -0.239
       0.251
       0.515
       0.468
       0.126
      -0.320
      -0.585
      -0.475
      -0.020
       0.580
       1.148
       1.686
       2.349
       3.258
       4.308
       5.167
       5.449
       4.907
       3.533
       1.540
      -0.702
      -2.765
      -4.290
      -5.081
      -5.130
      -4.592
      -3.738
      -2.880
      -2.258
      -1.927
      -1.754
      -1.552
      -1.251
      -0.940
      -0.729
      -0.588
      -0.333
       0.196
       0.950
       1.658
       2.035
       2.012
       1.796
       1.697
       1.893
       2.335
       2.830
       3.198
       3.334
       3.171
       2.640
       1.740
       0.629
      -0.386
      -1.009
      -1.142
      -0.933
      -0.661
      -0.566
      -0.724
      -1.044
      -1.354
      -1.507
      -1.444
      -1.185
      -0.784
      -0.292
       0.243
       0.752
       1.155
       1.407
       1.568
       1.786
       2.190
       2.768
       3.336
       3.611
       3.337
       2.406
       0.934
      -0.749
      -2.195
      -3.003
      -2.972
      -2.184
      -0.977
       0.201
       0.972
       1.115
       0.542
      -0.701
      -2.393
      -4.127
      -5.401
      -5.815
      -5.245
      -3.895
      -2.191
      -0.571
       0.688
       1.540
       2.106
       2.537
       2.867
       2.979
       2.726
       2.113
       1.367
       0.841
       0.785
       1.162
       1.627
       1.710
       1.115
      -0.073
      -1.423
      -2.434
      -2.839
      -2.733
      -2.444
      -2.287
      -2.387
      -2.673
      -2.984
      -3.189
      -3.250
      -3.185
      -2.958
      -2.449
      -1.549
      -0.327
       0.924
       1.827
       2.166
       2.032
       1.754
       1.662
       1.861
       2.190
       2.374
       2.225
       1.761
       1.176
       0.705
       0.501
       0.602
       0.972
       1.542
       2.202
       2.760
       2.968
       2.643
       1.790
       0.606
      -0.617
      -1.618
      -2.221
      -2.338
      -1.960
      -1.154
      -0.055
       1.137
       2.159
       2.700
       2.506
       1.556
       0.165
      -1.124
      -1.814
      -1.715
      -1.010
      -0.123
       0.510
       0.640
       0.281
      -0.341
      -0.943
      -1.327
      -1.459
      -1.411
      -1.244
      -0.936
      -0.443
       0.205
       0.859
       1.308
       1.401
       1.144
       0.667
       0.075
      -0.655
      -1.590
      -2.643
      -3.486
      -3.697
      -3.036
      -1.637
       0.025
       1.390
       2.111
       2.168
       1.749
       1.048
       0.187
      -0.718
      -1.461
      -1.771
      -1.476
      -0.676
       0.255
       0.866
       0.890
       0.369
      -0.387
      -0.963
      -1.019
      -0.411
       0.766
       2.221
       3.553
       4.382
       4.476
       3.812
       2.563
       1.006
      -0.552
      -1.821
      -2.557
      -2.595
      -1.904
      -0.631
       0.912
       2.315
       3.181
       3.227
       2.373
       0.783
      -1.157
      -2.962
      -4.204
      -4.662
      -4.382
      -3.612
      -2.654
      -1.741
      -1.014
      -0.552
      -0.361
      -0.338
      -0.308
      -0.128
       0.214
       0.603
       0.883
       0.973
       0.906
       0.782
       0.693
       0.677
       0.713
       0.747
       0.753
       0.769
       0.874
       1.099
       1.348
       1.436
       1.216
       0.689
       0.017
      -0.594
      -1.030
      -1.321
      -1.575
      -1.863
      -2.154
      -2.358
      -2.414
      -2.333
      -2.158
      -1.882
      -1.404
      -0.614
       0.471
       1.647
       2.614
       3.138
       3.176
       2.865
       2.413
       1.983
       1.648
       1.438
       1.388
       1.533
       1.814
       2.027
       1.882
       1.165
      -0.092
      -1.573
      -2.817
      -3.471
      -3.462
      -2.992
      -2.369
      -1.819
      -1.407
      -1.074
      -0.740
      -0.364
       0.066
       0.573
       1.186
       1.879
       2.522
       2.934
       3.012
       2.799
       2.440
       2.060
       1.670
       1.163
       0.409
      -0.605
      -1.692
      -2.542
      -2.932
      -2.888
      -2.644
      -2.451
      -2.411
      -2.464
      -2.486
      -2.388
      -2.139
      -1.735
      -1.183
      -0.530
       0.129
       0.723
       1.270
       1.853
       2.522
       3.194
       3.638
       3.606
       3.015
       2.054
       1.106
       0.516
       0.394
       0.585
       0.824
       0.911
       0.794
       0.506
       0.072
      -0.516
      -1.216
      -1.873
      -2.236
      -2.068
      -1.289
      -0.067
       1.209
       2.091
       2.295
       1.834
       0.989
       0.119
      -0.526
      -0.877
      -0.997
      -0.984
      -0.909
      -0.814
      -0.750
      -0.762
      -0.827
      -0.824
      -0.607
      -0.140
       0.455
       0.996
       1.379
       1.612
       1.724
       1.655
       1.264
       0.467
      -0.617
      -1.694
      -2.490
      -2.902
      -2.968
      -2.729
      -2.197
      -1.429
      -0.602
       0.037
       0.303
       0.190
      -0.136
      -0.454
      -0.621
      -0.631
      -0.563
      -0.487
      -0.404
      -0.272
      -0.070
       0.136
       0.202
       0.006
      -0.428
      -0.883
      -1.064
      -0.801
