Origin Time       05/3/2012 07:41:05	 UTC
Lat.              28.7 N	
Long.             76.6 E	
Depth (Km)         14.0
Magnitude         4.9
 Region           Haryana-Delhi-Border-Region                                      
 Above details taken from IMD 
    
Station Code      GRG
Station Lat.       28.449  N
Station Long.      77.029  E
Station Height(m)  216.0
Site Class        C   Vs30 between 200 m/sec to 375 m/sec *  
Record Time       20.07.2092 07:40:51.829 UTC
Sampling Rate     200. Hz
 Record Duration   80.105 Sec.
 Direction         N-S (N positive)
Max. Acceleration      7.076 cm/sec**2
     
  * For reference see Site Classification link of website 
     
 Base Line Corrected and Low Pass Filtered (Cut Off at 35 Hz) Time History
 Acceleration data in cm/sec**2
    
[...]
       0.070
       0.206
       0.277
       0.342
       0.480
       0.725
       1.043
       1.362
       1.619
       1.786
       1.857
       1.833
       1.714
       1.499
       1.193
       0.810
       0.379
      -0.059
      -0.456
      -0.788
      -1.060
      -1.285
      -1.458
      -1.561
      -1.592
      -1.585
      -1.586
      -1.616
      -1.652
      -1.639
      -1.535
      -1.339
      -1.095
      -0.868
      -0.698
      -0.581
      -0.471
      -0.323
      -0.128
       0.064
       0.183
       0.191
       0.118
       0.037
       0.013
       0.063
       0.151
       0.219
       0.224
       0.152
       0.016
      -0.161
      -0.352
      -0.541
      -0.714
      -0.865
      -0.987
      -1.067
      -1.079
      -0.992
      -0.782
      -0.457
      -0.064
       0.330
       0.648
       0.825
       0.820
       0.637
       0.337
       0.024
      -0.178
      -0.183
       0.014
       0.340
       0.685
       0.964
       1.159
       1.286
       1.349
       1.308
       1.107
       0.737
       0.266
      -0.182
      -0.502
      -0.661
      -0.697
      -0.658
      -0.558
      -0.370
      -0.065
       0.342
       0.776
       1.129
       1.310
       1.285
       1.089
       0.804
       0.522
       0.305
       0.165
       0.082
       0.031
       0.004
       0.005
       0.037
       0.096
       0.180
       0.281
       0.381
       0.446
       0.442
       0.357
       0.212
       0.049
      -0.087
      -0.158
      -0.132
       0.005
       0.229
       0.479
       0.682
       0.799
       0.836
       0.821
       0.758
       0.626
       0.402
       0.102
      -0.218
      -0.496
      -0.700
      -0.834
      -0.916
      -0.955
      -0.941
      -0.859
      -0.711
      -0.521
      -0.333
      -0.188
      -0.099
      -0.060
      -0.051
      -0.070
      -0.135
      -0.275
      -0.503
      -0.803
      -1.137
      -1.443
      -1.650
      -1.703
      -1.592
      -1.366
      -1.101
      -0.850
      -0.613
      -0.368
      -0.115
       0.090
       0.165
       0.072
      -0.145
      -0.374
      -0.491
      -0.427
      -0.192
       0.129
       0.406
       0.525
       0.428
       0.157
      -0.167
      -0.398
      -0.443
      -0.308
      -0.085
       0.121
       0.255
       0.329
       0.394
       0.478
       0.566
       0.611
       0.577
       0.469
       0.323
       0.180
       0.059
      -0.038
      -0.106
      -0.126
      -0.075
       0.035
       0.145
       0.172
       0.066
      -0.151
      -0.403
      -0.614
      -0.764
      -0.874
      -0.949
      -0.937
      -0.744
      -0.309
       0.322
       1.011
       1.595
       1.974
       2.138
       2.137
       2.018
       1.796
       1.466
       1.044
       0.596
       0.223
       0.011
      -0.016
       0.095
       0.263
       0.431
       0.583
       0.734
       0.893
       1.045
       1.143
       1.120
       0.927
       0.572
       0.141
      -0.236
      -0.457
      -0.502
      -0.437
      -0.353
      -0.310
      -0.311
      -0.324
      -0.314
      -0.271
      -0.207
      -0.153
      -0.126
      -0.112
      -0.075
       0.021
       0.167
       0.304
       0.358
       0.287
       0.103
      -0.147
      -0.412
      -0.661
      -0.870
      -1.005
      -1.033
      -0.944
      -0.775
      -0.609
      -0.533
      -0.586
      -0.718
      -0.825
      -0.810
      -0.652
      -0.415
      -0.184
      -0.003
       0.151
       0.322
       0.518
       0.688
       0.760
       0.697
       0.519
       0.282
       0.047
      -0.144
      -0.262
      -0.289
      -0.227
      -0.108
       0.015
       0.097
       0.130
       0.148
       0.202
       0.329
       0.529
       0.761
       0.950
       1.026
       0.956
       0.769
       0.534
       0.314
       0.118
      -0.089
      -0.337
      -0.603
      -0.819
      -0.919
      -0.886
      -0.753
      -0.557
      -0.316
      -0.047
       0.214
       0.410
       0.492
       0.461
       0.370
       0.284
       0.231
       0.178
       0.064
      -0.143
      -0.406
      -0.641
      -0.771
      -0.780
      -0.716
      -0.649
      -0.611
      -0.570
      -0.466
      -0.280
      -0.063
       0.102
       0.170
       0.157
       0.114
       0.066
      -0.005
      -0.128
      -0.297
      -0.450
      -0.521
      -0.495
      -0.424
      -0.386
      -0.415
      -0.473
      -0.487
      -0.416
      -0.280
      -0.140
      -0.050
      -0.032
      -0.078
      -0.170
      -0.286
      -0.403
      -0.500
      -0.560
      -0.574
      -0.545
      -0.483
      -0.409
      -0.334
      -0.251
      -0.147
      -0.023
       0.078
       0.094
       0.000
      -0.156
      -0.279
      -0.293
      -0.190
      -0.026
       0.128
       0.225
       0.250
       0.208
       0.122
       0.039
       0.020
       0.118
       0.346
       0.671
       1.027
       1.345
       1.573
       1.699
       1.756
       1.796
       1.840
       1.840
       1.708
       1.392
       0.954
       0.541
       0.284
       0.209
       0.233
       0.246
       0.186
       0.050
      -0.134
      -0.340
      -0.536
      -0.688
      -0.767
      -0.766
      -0.704
      -0.614
      -0.517
      -0.424
      -0.341
      -0.267
      -0.194
      -0.109
      -0.006
       0.111
       0.242
       0.400
       0.591
       0.772
       0.843
       0.715
       0.391
       0.002
      -0.279
      -0.355
      -0.275
      -0.185
      -0.209
      -0.354
      -0.534
      -0.647
      -0.657
      -0.603
      -0.552
      -0.552
      -0.602
      -0.657
      -0.653
      -0.537
      -0.300
       0.016
       0.337
       0.583
       0.701
       0.662
       0.450
       0.068
      -0.449
      -1.019
      -1.523
      -1.851
      -1.944
      -1.811
      -1.509
      -1.123
      -0.732
      -0.401
      -0.156
       0.028
       0.208
       0.440
       0.719
       0.970
       1.094
       1.045
       0.877
       0.715
       0.672
       0.787
       1.014
       1.266
       1.459
       1.533
       1.465
       1.279
       1.042
       0.826
       0.670
       0.551
       0.414
       0.226
      -0.002
      -0.219
      -0.368
      -0.406
      -0.311
      -0.089
       0.210
       0.500
       0.694
       0.749
       0.677
       0.521
       0.321
       0.105
      -0.101
      -0.265
      -0.353
      -0.352
      -0.265
      -0.102
       0.126
       0.385
       0.608
       0.720
       0.681
       0.519
       0.314
       0.146
       0.045
      -0.021
      -0.109
      -0.257
      -0.445
      -0.610
      -0.684
      -0.632
      -0.482
      -0.301
      -0.164
      -0.105
      -0.114
      -0.155
      -0.198
      -0.220
      -0.198
      -0.107
       0.050
       0.208
       0.258
       0.100
      -0.276
      -0.778
      -1.252
      -1.572
      -1.702
      -1.701
      -1.659
      -1.636
      -1.628
      -1.590
      -1.478
      -1.290
      -1.055
      -0.816
      -0.591
      -0.370
      -0.133
       0.121
       0.369
       0.576
       0.718
       0.798
       0.838
       0.861
       0.873
       0.863
       0.813
       0.711
       0.562
       0.377
       0.173
      -0.032
      -0.223
      -0.385
      -0.499
      -0.546
      -0.513
      -0.402
      -0.232
      -0.029
       0.175
       0.341
       0.423
       0.379
       0.200
      -0.078
      -0.394
      -0.691
      -0.936
      -1.095
      -1.116
      -0.936
      -0.542
      -0.023
       0.454
       0.741
       0.787
       0.649
       0.417
       0.162
      -0.067
      -0.213
      -0.206
      -0.009
       0.332
       0.710
       1.019
       1.221
       1.332
       1.372
       1.323
       1.155
       0.884
       0.584
       0.347
       0.215
       0.166
       0.146
       0.118
       0.082
       0.057
       0.053
       0.041
      -0.045
      -0.276
      -0.671
      -1.158
      -1.604
      -1.878
      -1.929
      -1.793
      -1.552
      -1.263
      -0.939
      -0.577
      -0.198
       0.146
       0.413
       0.603
       0.751
       0.887
       1.013
       1.120
       1.209
       1.289
       1.354
       1.362
       1.266
       1.064
       0.828
       0.665
       0.635
       0.695
       0.728
       0.631
       0.383
       0.044
      -0.322
      -0.699
      -1.123
      -1.610
      -2.101
      -2.464
      -2.571
      -2.373
      -1.924
      -1.329
      -0.687
      -0.066
       0.478
       0.892
       1.133
       1.204
       1.164
       1.097
       1.063
       1.064
       1.051
       0.966
       0.793
       0.581
       0.423
       0.397
       0.498
       0.621
       0.612
       0.366
      -0.099
      -0.641
      -1.086
      -1.322
      -1.349
      -1.236
      -1.062
      -0.883
      -0.736
      -0.653
      -0.641
      -0.665
      -0.662
      -0.584
      -0.424
      -0.195
       0.093
       0.440
       0.823
       1.171
       1.374
       1.341
       1.055
       0.596
       0.115
      -0.238
      -0.372
      -0.289
      -0.063
       0.209
       0.454
       0.639
       0.751
       0.772
       0.686
       0.501
       0.260
       0.008
      -0.239
      -0.482
      -0.700
      -0.821
      -0.774
      -0.555
      -0.259
      -0.013
       0.117
       0.161
       0.196
       0.250
       0.261
       0.129
      -0.191
      -0.631
      -1.033
      -1.212
      -1.047
      -0.532
       0.207
       0.971
       1.580
       1.950
       2.095
       2.060
       1.860
       1.485
       0.967
       0.416
      -0.006
      -0.188
      -0.136
       0.038
       0.206
       0.304
       0.348
       0.394
       0.479
       0.584
       0.649
       0.620
       0.496
       0.325
       0.151
      -0.038
      -0.297
      -0.657
      -1.057
      -1.372
      -1.507
      -1.487
      -1.431
      -1.448
      -1.535
      -1.603
      -1.584
      -1.512
      -1.487
      -1.559
      -1.659
      -1.637
      -1.381
      -0.906
      -0.349
       0.107
       0.333
       0.302
       0.090
      -0.162
      -0.313
      -0.282
      -0.082
       0.201
       0.465
       0.655
       0.785
       0.910
       1.075
       1.260
       1.378
       1.311
       0.995
       0.478
      -0.093
      -0.552
      -0.797
      -0.826
      -0.705
      -0.528
      -0.394
      -0.384
      -0.528
      -0.776
      -1.013
      -1.135
      -1.130
      -1.073
      -1.056
      -1.092
      -1.095
      -0.956
      -0.635
      -0.196
       0.241
       0.580
       0.796
       0.935
       1.084
       1.320
       1.670
       2.094
       2.501
       2.797
       2.920
       2.867
       2.704
       2.559
       2.568
       2.787
       3.130
       3.388
       3.351
       2.935
       2.235
       1.472
       0.862
       0.499
       0.304
       0.090
      -0.312
      -0.927
      -1.592
      -2.039
      -2.066
      -1.684
      -1.117
      -0.649
      -0.420
      -0.359
      -0.298
      -0.155
      -0.004
       0.026
      -0.081
      -0.170
      -0.032
       0.423
       1.084
       1.732
       2.203
       2.465
       2.572
       2.550
       2.345
       1.869
       1.103
       0.159
      -0.752
      -1.438
      -1.838
      -2.049
      -2.229
      -2.468
      -2.732
      -2.931
      -3.032
      -3.106
      -3.252
      -3.481
      -3.692
      -3.772
      -3.716
      -3.630
      -3.599
      -3.579
      -3.425
      -3.029
      -2.433
      -1.800
      -1.283
      -0.906
      -0.573
      -0.157
       0.397
       1.030
       1.605
       1.967
       2.029
       1.814
       1.449
       1.077
       0.765
       0.486
       0.176
      -0.177
      -0.525
      -0.809
      -1.008
      -1.148
      -1.280
      -1.458
      -1.719
      -2.050
      -2.362
      -2.498
      -2.298
      -1.682
      -0.704
       0.473
       1.634
       2.576
       3.150
       3.308
       3.130
       2.817
       2.593
       2.567
       2.678
       2.752
       2.644
       2.332
       1.909
       1.484
       1.095
       0.698
       0.208
      -0.442
      -1.258
      -2.171
      -3.036
      -3.678
      -3.951
      -3.799
      -3.277
      -2.526
      -1.716
      -0.971
      -0.321
       0.294
       0.955
       1.668
       2.333
       2.796
       2.968
       2.917
       2.834
       2.901
       3.151
       3.434
       3.516
       3.228
       2.568
       1.696
       0.839
       0.152
      -0.351
      -0.791
      -1.329
      -2.064
      -2.980
      -3.962
      -4.842
      -5.465
      -5.733
      -5.629
      -5.212
      -4.584
      -3.856
      -3.119
      -2.425
      -1.762
      -1.051
      -0.175
       0.949
       2.298
       3.720
       5.007
       5.998
       6.630
       6.902
       6.806
       6.308
       5.413
       4.231
       2.966
       1.824
       0.911
       0.218
      -0.316
      -0.723
      -1.000
      -1.141
      -1.181
      -1.179
      -1.183
      -1.203
      -1.228
      -1.260
      -1.327
      -1.478
      -1.730
      -2.029
      -2.230
      -2.118
      -1.504
      -0.325
       1.282
       3.024
       4.589
       5.784
       6.575
       7.005
       7.076
       6.694
       5.732
       4.179
       2.238
       0.303
      -1.226
      -2.141
      -2.506
      -2.549
      -2.477
      -2.357
      -2.136
      -1.774
      -1.332
      -0.960
      -0.789
      -0.846
      -1.059
      -1.328
      -1.584
      -1.791
      -1.917
      -1.923
      -1.783
      -1.509
      -1.143
      -0.736
      -0.315
       0.134
       0.642
       1.210
       1.774
       2.215
       2.423
       2.368
       2.122
       1.785
       1.390
       0.868
       0.121
      -0.853
      -1.927
      -2.913
      -3.660
      -4.109
      -4.253
      -4.091
      -3.619
      -2.864
      -1.902
      -0.839
       0.220
       1.193
       2.009
       2.593
       2.887
       2.894
       2.700
       2.438
       2.200
       1.957
       1.566
       0.886
      -0.096
      -1.207
      -2.179
      -2.817
      -3.101
      -3.138
      -3.029
      -2.802
      -2.453
      -2.043
      -1.724
      -1.659
      -1.944
      -2.584
      -3.526
      -4.665
      -5.812
      -6.683
      -6.976
      -6.507
      -5.326
      -3.688
      -1.902
      -0.171
       1.456
       2.994
       4.382
       5.421
       5.854
       5.525
       4.520
       3.173
       1.940
       1.195
       1.047
       1.297
       1.562
       1.489
       0.924
      -0.053
      -1.204
      -2.228
      -2.865
      -2.969
      -2.569
      -1.853
      -1.069
      -0.409
       0.042
       0.270
       0.272
       0.052
      -0.320
      -0.668
      -0.781
      -0.551
      -0.060
       0.472
       0.838
       0.967
       0.935
       0.879
       0.913
       1.098
       1.456
       1.974
       2.588
       3.167
       3.545
       3.590
       3.263
       2.616
       1.749
       0.756
      -0.268
      -1.218
      -2.004
      -2.599
      -3.066
      -3.493
      -3.900
      -4.190
      -4.198
      -3.800
      -2.994
      -1.905
      -0.709
       0.451
       1.502
       2.431
       3.233
       3.883
       4.326
       4.493
       4.326
       3.808
       3.004
       2.074
       1.243
       0.710
       0.558
       0.738
       1.118
       1.559
       1.949
       2.197
       2.218
       1.947
       1.369
       0.527
      -0.495
      -1.590
      -2.636
      -3.486
      -3.990
      -4.054
      -3.700
      -3.076
      -2.396
      -1.852
      -1.536
      -1.410
      -1.327
      -1.092
      -0.549
       0.342
       1.492
       2.721
       3.848
       4.739
       5.325
       5.594
       5.588
       5.389
       5.086
       4.718
       4.257
       3.640
       2.828
       1.843
       0.777
      -0.235
      -1.054
      -1.592
      -1.837
      -1.833
      -1.623
      -1.217
      -0.640
      -0.009
       0.453
       0.512
       0.078
      -0.730
      -1.638
      -2.367
      -2.744
      -2.718
      -2.322
      -1.652
      -0.874
      -0.193
       0.242
       0.411
       0.411
       0.347
       0.251
       0.080
      -0.205
      -0.595
      -1.054
      -1.577
      -2.186
      -2.861
      -3.453
      -3.716
      -3.443
      -2.604
      -1.377
      -0.048
       1.123
       1.974
       2.450
       2.577
       2.453
       2.221
       2.004
       1.820
       1.548
       0.997
       0.069
      -1.125
      -2.292
      -3.111
      -3.419
      -3.283
      -2.944
      -2.669
      -2.618
      -2.804
      -3.148
      -3.557
      -3.952
      -4.209
      -4.124
      -3.470
      -2.154
      -0.340
       1.588
       3.224
       4.340
       4.926
       5.077
       4.841
       4.208
       3.207
       1.994
       0.808
      -0.147
      -0.782
      -1.105
      -1.157
      -0.982
      -0.650
      -0.282
      -0.034
      -0.054
      -0.434
      -1.179
      -2.190
      -3.271
      -4.183
      -4.718
      -4.771
      -4.349
      -3.518
      -2.352
      -0.944
       0.552
       1.927
       2.979
       3.600
       3.802
       3.673
       3.319
       2.846
       2.384
       2.090
       2.113
       2.511
       3.198
       3.964
       4.553
       4.757
       4.468
       3.676
       2.438
       0.862
      -0.869
      -2.479
      -3.640
      -4.103
      -3.839
      -3.068
      -2.143
      -1.353
      -0.806
      -0.466
      -0.285
      -0.289
      -0.548
      -1.064
      -1.707
      -2.290
      -2.685
      -2.881
      -2.929
      -2.860
      -2.664
      -2.344
      -1.943
      -1.515
      -1.070
      -0.559
       0.088
       0.901
       1.832
       2.761
       3.536
       4.039
       4.251
       4.261
       4.207
       4.191
       4.216
       4.193
       4.004
       3.567
       2.857
       1.906
       0.783
      -0.399
      -1.479
      -2.265
      -2.587
      -2.391
      -1.789
      -1.044
      -0.456
      -0.216
      -0.329
      -0.663
      -1.072
      -1.490
      -1.928
      -2.402
      -2.882
      -3.298
      -3.591
      -3.741
      -3.750
      -3.602
      -3.234
      -2.570
      -1.590
      -0.381
       0.885
       2.036
       2.981
       3.735
       4.366
       4.907
       5.291
       5.370
       5.013
       4.213
       3.113
       1.939
       0.885
       0.047
      -0.572
      -1.029
      -1.398
      -1.744
      -2.093
      -2.413
      -2.602
      -2.530
      -2.127
      -1.453
      -0.676
       0.031
       0.588
       0.986
       1.214
       1.219
       0.956
       0.487
       0.002
      -0.284
      -0.268
      -0.027
       0.245
       0.373
       0.280
      -0.018
      -0.478
      -1.058
      -1.693
      -2.246
      -2.513
      -2.291
      -1.503
      -0.309
       0.917
       1.740
       1.882
       1.346
       0.343
      -0.897
