Origin Time       29/08/2013 10:13:21 UTC
Lat.              31.4 N	
Long.             76.1 E	
Depth (Km)         10.0
Magnitude         4.7
 Region           HIMACHAL-PUNJAB-(HOSHIARPUR)-BORDER                              
 Above details taken from IMD 
    
Station Code      GSK
Station Lat.       31.228  N
Station Long.      76.135  E
Station Height(m)  261.0
Site Class        C   Vs30 between 200 m/sec to 375 m/sec *  
Record Time       29.08.2013 10:12:39.804 UTC
Sampling Rate     200. Hz
 Record Duration   90.090 Sec.
 Direction         N-S (N positive)
Max. Acceleration     16.173 cm/sec**2
     
  * For reference see Site Classification link of website 
     
 Base Line Corrected and Low Pass Filtered (Cut Off at 35 Hz) Time History
 Acceleration data in cm/sec**2
    
[...]
       0.050
       0.044
       0.037
       0.025
       0.017
       0.029
       0.078
       0.159
       0.247
       0.308
       0.326
       0.317
       0.320
       0.359
       0.421
       0.456
       0.425
       0.335
       0.233
       0.168
       0.144
       0.119
       0.043
      -0.096
      -0.266
      -0.417
      -0.524
      -0.600
      -0.677
      -0.770
      -0.857
      -0.897
      -0.862
      -0.764
      -0.643
      -0.537
      -0.463
      -0.421
      -0.411
      -0.441
      -0.510
      -0.572
      -0.542
      -0.354
      -0.041
       0.248
       0.339
       0.177
      -0.096
      -0.219
      -0.004
       0.507
       1.066
       1.406
       1.425
       1.227
       0.998
       0.858
       0.824
       0.879
       1.008
       1.146
       1.108
       0.659
      -0.281
      -1.449
      -2.319
      -2.430
      -1.746
      -0.707
       0.069
       0.228
      -0.110
      -0.495
      -0.526
      -0.122
       0.486
       0.990
       1.211
       1.141
       0.836
       0.346
      -0.238
      -0.725
      -0.876
      -0.571
       0.059
       0.683
       0.975
       0.799
       0.268
      -0.349
      -0.778
      -0.861
      -0.617
      -0.223
       0.088
       0.150
      -0.051
      -0.380
      -0.646
      -0.710
      -0.536
      -0.186
       0.222
       0.553
       0.692
       0.585
       0.274
      -0.102
      -0.360
      -0.379
      -0.179
       0.082
       0.211
       0.110
      -0.141
      -0.336
      -0.283
       0.057
       0.540
       0.941
       1.113
       1.066
       0.912
       0.736
       0.528
       0.227
      -0.181
      -0.603
      -0.903
      -1.010
      -0.970
      -0.897
      -0.861
      -0.840
      -0.768
      -0.623
      -0.450
      -0.303
      -0.183
      -0.048
       0.122
       0.284
       0.380
       0.401
       0.407
       0.460
       0.564
       0.670
       0.752
       0.844
       0.989
       1.152
       1.210
       1.044
       0.654
       0.190
      -0.140
      -0.215
      -0.088
       0.048
      -0.014
      -0.352
      -0.865
      -1.330
      -1.531
      -1.382
      -0.971
      -0.505
      -0.188
      -0.109
      -0.201
      -0.303
      -0.269
      -0.057
       0.258
       0.541
       0.685
       0.662
       0.518
       0.335
       0.186
       0.121
       0.160
       0.292
       0.457
       0.558
       0.488
       0.197
      -0.250
      -0.676
      -0.880
      -0.767
      -0.431
      -0.101
       0.017
      -0.109
      -0.323
      -0.418
      -0.313
      -0.114
      -0.014
      -0.109
      -0.322
      -0.472
      -0.432
      -0.214
       0.071
       0.337
       0.583
       0.860
       1.168
       1.410
       1.438
       1.168
       0.673
       0.168
      -0.113
      -0.064
       0.218
       0.491
       0.517
       0.210
      -0.317
      -0.829
      -1.106
      -1.054
      -0.736
      -0.325
      -0.016
       0.066
      -0.083
      -0.343
      -0.539
      -0.526
      -0.274
       0.123
       0.486
       0.643
       0.512
       0.145
      -0.295
      -0.609
      -0.652
      -0.403
       0.033
       0.479
       0.771
       0.820
       0.630
       0.273
      -0.136
      -0.463
      -0.590
      -0.473
      -0.194
       0.062
       0.106
      -0.125
      -0.510
      -0.814
      -0.849
      -0.595
      -0.217
       0.050
       0.059
      -0.145
      -0.354
      -0.338
      -0.011
       0.516
       1.007
       1.263
       1.231
       1.003
       0.713
       0.460
       0.299
       0.280
       0.462
       0.858
       1.363
       1.761
       1.843
       1.570
       1.126
       0.802
       0.760
       0.903
       0.957
       0.705
       0.183
      -0.357
      -0.656
      -0.653
      -0.505
      -0.435
      -0.561
      -0.854
      -1.215
      -1.576
      -1.903
      -2.140
      -2.182
      -1.931
      -1.409
      -0.802
      -0.374
      -0.291
      -0.511
      -0.821
      -1.004
      -0.961
      -0.717
      -0.338
       0.137
       0.659
       1.116
       1.333
       1.181
       0.708
       0.137
      -0.275
      -0.420
      -0.386
      -0.339
      -0.372
      -0.454
      -0.514
      -0.572
      -0.743
      -1.112
      -1.588
      -1.916
      -1.855
      -1.371
      -0.689
      -0.126
       0.126
       0.121
       0.080
       0.208
       0.543
       0.945
       1.217
       1.265
       1.162
       1.084
       1.161
       1.375
       1.588
       1.677
       1.630
       1.522
       1.429
       1.376
       1.352
       1.337
       1.303
       1.191
       0.922
       0.473
      -0.072
      -0.557
      -0.859
      -0.952
      -0.901
      -0.790
      -0.684
      -0.627
      -0.653
      -0.782
      -1.012
      -1.310
      -1.613
      -1.848
      -1.955
      -1.892
      -1.648
      -1.238
      -0.705
      -0.146
       0.299
       0.507
       0.467
       0.323
       0.292
       0.493
       0.840
       1.100
       1.078
       0.773
       0.363
       0.046
      -0.099
      -0.141
      -0.186
      -0.277
      -0.350
      -0.310
      -0.126
       0.119
       0.274
       0.226
      -0.003
      -0.266
      -0.399
      -0.341
      -0.159
       0.032
       0.160
       0.225
       0.253
       0.257
       0.242
       0.236
       0.267
       0.330
       0.370
       0.340
       0.260
       0.219
       0.300
       0.500
       0.724
       0.873
       0.935
       0.997
       1.138
       1.324
       1.388
       1.144
       0.543
      -0.259
      -0.980
      -1.376
      -1.380
      -1.101
      -0.725
      -0.406
      -0.239
      -0.278
      -0.552
      -1.024
      -1.551
      -1.912
      -1.917
      -1.524
      -0.881
      -0.231
       0.249
       0.554
       0.807
       1.121
       1.493
       1.821
       2.004
       2.006
       1.851
       1.572
       1.184
       0.720
       0.252
      -0.124
      -0.351
      -0.453
      -0.504
      -0.564
      -0.638
      -0.698
      -0.733
      -0.768
      -0.840
      -0.955
      -1.078
      -1.160
      -1.165
      -1.079
      -0.910
      -0.681
      -0.448
      -0.274
      -0.189
      -0.153
      -0.062
       0.184
       0.601
       1.079
       1.444
       1.565
       1.432
       1.140
       0.805
       0.491
       0.201
      -0.062
      -0.253
      -0.320
      -0.275
      -0.223
      -0.303
      -0.577
      -0.958
      -1.268
      -1.366
      -1.238
      -0.983
      -0.718
      -0.496
      -0.314
      -0.168
      -0.095
      -0.132
      -0.246
      -0.307
      -0.159
       0.260
       0.850
       1.394
       1.701
       1.729
       1.595
       1.469
       1.428
       1.406
       1.287
       1.048
       0.798
       0.681
       0.731
       0.827
       0.802
       0.590
       0.281
       0.023
      -0.123
      -0.238
      -0.459
      -0.843
      -1.299
      -1.652
      -1.780
      -1.715
      -1.618
      -1.657
      -1.856
      -2.067
      -2.071
      -1.746
      -1.171
      -0.577
      -0.191
      -0.089
      -0.172
      -0.279
      -0.310
      -0.265
      -0.174
      -0.015
       0.290
       0.779
       1.362
       1.830
       1.983
       1.774
       1.349
       0.954
       0.758
       0.759
       0.822
       0.816
       0.711
       0.559
       0.408
       0.252
       0.070
      -0.106
      -0.198
      -0.159
      -0.046
       0.003
      -0.131
      -0.454
      -0.848
      -1.139
      -1.188
      -0.961
      -0.541
      -0.081
       0.278
       0.479
       0.547
       0.524
       0.409
       0.175
      -0.149
      -0.433
      -0.509
      -0.301
       0.098
       0.453
       0.533
       0.260
      -0.243
      -0.724
      -0.968
      -0.924
      -0.699
      -0.446
      -0.222
       0.023
       0.338
       0.658
       0.824
       0.718
       0.401
       0.093
       0.005
       0.162
       0.379
       0.423
       0.214
      -0.105
      -0.313
      -0.305
      -0.179
      -0.125
      -0.238
      -0.442
      -0.588
      -0.611
      -0.571
      -0.538
      -0.484
      -0.298
       0.073
       0.516
       0.816
       0.823
       0.582
       0.289
       0.114
       0.072
       0.054
      -0.020
      -0.111
      -0.125
      -0.063
      -0.073
      -0.313
      -0.765
      -1.201
      -1.368
      -1.199
      -0.856
      -0.552
      -0.360
      -0.179
       0.110
       0.500
       0.853
       1.032
       1.026
       0.931
       0.848
       0.780
       0.668
       0.502
       0.371
       0.392
       0.583
       0.812
       0.894
       0.736
       0.410
       0.078
      -0.145
      -0.261
      -0.331
      -0.380
      -0.371
      -0.262
      -0.076
       0.110
       0.245
       0.350
       0.463
       0.558
       0.535
       0.336
       0.063
      -0.055
       0.158
       0.639
       1.102
       1.232
       0.915
       0.295
      -0.359
      -0.851
      -1.143
      -1.289
      -1.318
      -1.188
      -0.853
      -0.361
       0.122
       0.417
       0.455
       0.330
       0.221
       0.244
       0.369
       0.466
       0.429
       0.267
       0.080
      -0.046
      -0.133
      -0.301
      -0.659
      -1.202
      -1.767
      -2.118
      -2.082
      -1.662
      -1.050
      -0.521
      -0.283
      -0.365
      -0.629
      -0.865
      -0.907
      -0.688
      -0.244
       0.318
       0.850
       1.207
       1.316
       1.219
       1.060
       1.007
       1.149
       1.452
       1.784
       1.995
       1.975
       1.669
       1.080
       0.275
      -0.609
      -1.400
      -1.962
      -2.251
      -2.312
      -2.232
      -2.095
      -1.969
      -1.881
      -1.788
      -1.573
      -1.131
      -0.502
       0.089
       0.348
       0.149
      -0.335
      -0.725
      -0.684
      -0.144
       0.683
       1.478
       2.029
       2.318
       2.443
       2.494
       2.501
       2.464
       2.407
       2.344
       2.227
       1.936
       1.386
       0.652
      -0.027
      -0.407
      -0.436
      -0.313
      -0.342
      -0.699
      -1.315
      -1.957
      -2.421
      -2.648
      -2.684
      -2.562
      -2.257
      -1.752
      -1.141
      -0.615
      -0.332
      -0.256
      -0.138
       0.324
       1.235
       2.365
       3.252
       3.508
       3.100
       2.376
       1.801
       1.612
       1.668
       1.626
       1.261
       0.632
      -0.037
      -0.600
      -1.097
      -1.627
      -2.186
      -2.649
      -2.916
      -3.024
      -3.104
      -3.223
      -3.309
      -3.217
      -2.882
      -2.374
      -1.813
      -1.241
      -0.593
       0.205
       1.119
       1.968
       2.529
       2.683
       2.500
       2.187
       1.939
       1.829
       1.816
       1.841
       1.887
       1.951
       1.982
       1.867
       1.496
       0.843
      -0.020
      -0.971
      -1.876
      -2.617
      -3.112
      -3.343
      -3.345
      -3.144
      -2.714
      -2.014
      -1.090
      -0.122
       0.670
       1.178
       1.466
       1.683
       1.922
       2.151
       2.283
       2.274
       2.148
       1.936
       1.622
       1.163
       0.581
       0.006
      -0.368
      -0.421
      -0.213
       0.022
       0.021
      -0.323
      -0.888
      -1.421
      -1.723
      -1.749
      -1.555
      -1.195
      -0.681
      -0.045
       0.595
       1.074
       1.280
       1.223
       1.005
       0.718
       0.391
       0.006
      -0.446
      -0.925
      -1.346
      -1.610
      -1.633
      -1.380
      -0.893
      -0.305
       0.199
       0.473
       0.485
       0.321
       0.119
      -0.008
      -0.001
       0.157
       0.459
       0.844
       1.194
       1.377
       1.320
       1.063
       0.729
       0.440
       0.231
       0.053
      -0.140
      -0.326
      -0.445
      -0.487
      -0.541
      -0.724
      -1.060
      -1.415
      -1.579
      -1.436
      -1.073
      -0.710
      -0.490
      -0.344
      -0.070
       0.442
       1.042
       1.393
       1.233
       0.595
      -0.197
      -0.750
      -0.841
      -0.501
       0.044
       0.516
       0.713
       0.586
       0.251
      -0.075
      -0.182
       0.005
       0.396
       0.803
       1.081
       1.214
       1.303
       1.497
       1.900
       2.540
       3.397
       4.436
       5.601
       6.753
       7.648
       8.026
       7.778
       7.058
       6.213
       5.560
       5.179
       4.899
       4.459
       3.702
       2.643
       1.394
       0.058
      -1.308
      -2.657
      -3.888
      -4.851
      -5.446
      -5.743
      -5.966
      -6.329
      -6.826
      -7.174
      -6.984
      -6.041
      -4.475
      -2.698
      -1.159
      -0.117
       0.414
       0.576
       0.518
       0.317
      -0.004
      -0.395
      -0.742
      -0.948
      -1.071
      -1.366
      -2.153
      -3.575
      -5.458
      -7.402
      -9.043
     -10.260
     -11.158
     -11.895
     -12.520
     -12.945
     -13.025
     -12.627
     -11.633
      -9.924
      -7.438
      -4.280
      -0.770
       2.647
       5.609
       8.012
      10.009
      11.835
      13.576
      15.072
      16.016
      16.173
      15.522
      14.218
      12.434
      10.253
       7.715
       4.956
       2.262
      -0.036
      -1.762
      -3.022
      -4.135
      -5.408
      -6.930
      -8.525
      -9.874
     -10.714
     -10.972
     -10.756
     -10.213
      -9.363
      -8.056
      -6.095
      -3.451
      -0.385
       2.626
       5.122
       6.877
       7.981
       8.741
       9.481
      10.365
      11.304
      12.007
      12.151
      11.581
      10.396
       8.845
       7.119
       5.200
       2.907
       0.108
      -3.067
      -6.179
      -8.668
     -10.145
     -10.588
     -10.303
      -9.679
      -8.916
      -7.929
      -6.513
      -4.610
      -2.454
      -0.434
       1.171
       2.357
       3.308
       4.171
       4.908
       5.353
       5.366
       4.942
       4.199
       3.320
       2.502
       1.907
       1.600
       1.495
       1.384
       1.079
       0.568
       0.029
      -0.340
      -0.555
      -0.903
      -1.738
      -3.152
      -4.813
      -6.130
      -6.644
      -6.306
      -5.439
      -4.440
      -3.503
      -2.578
      -1.528
      -0.310
       0.988
       2.251
       3.421
       4.487
       5.391
       5.973
       6.036
       5.493
       4.480
       3.314
       2.300
       1.544
       0.920
       0.230
      -0.591
      -1.414
      -2.008
      -2.229
      -2.134
      -1.936
      -1.839
      -1.898
      -2.021
      -2.094
      -2.111
      -2.184
      -2.456
      -2.968
      -3.599
      -4.113
      -4.273
      -3.930
      -3.057
      -1.735
      -0.113
       1.617
       3.249
       4.598
       5.542
       6.060
       6.211
       6.082
       5.737
       5.207
       4.522
       3.732
       2.905
       2.074
       1.214
       0.266
      -0.796
      -1.902
      -2.896
      -3.645
      -4.133
      -4.449
      -4.684
      -4.841
      -4.847
      -4.653
      -4.297
      -3.871
      -3.453
      -3.058
      -2.667
      -2.261
      -1.809
      -1.224
      -0.372
       0.830
       2.290
       3.703
       4.695
       5.041
       4.802
       4.256
       3.685
       3.200
       2.733
       2.176
       1.554
       1.044
       0.842
       0.969
       1.233
       1.368
       1.231
       0.884
       0.498
       0.159
      -0.209
      -0.748
      -1.451
      -2.089
      -2.348
      -2.076
      -1.403
      -0.657
      -0.155
      -0.027
      -0.203
      -0.531
      -0.896
      -1.249
      -1.564
      -1.795
      -1.881
      -1.781
      -1.501
      -1.103
      -0.666
      -0.268
       0.031
       0.184
       0.183
       0.075
      -0.083
      -0.286
      -0.614
      -1.170
      -1.951
      -2.754
      -3.238
      -3.120
      -2.361
      -1.189
       0.064
       1.173
       2.119
       3.010
       3.891
       4.627
       4.973
       4.744
       3.966
       2.897
       1.893
       1.216
       0.937
       0.960
       1.112
       1.210
       1.095
       0.659
      -0.124
      -1.175
      -2.330
      -3.397
      -4.208
      -4.620
      -4.519
      -3.874
      -2.808
      -1.610
      -0.624
      -0.080
       0.028
      -0.085
      -0.142
       0.039
       0.475
       1.050
       1.602
       2.015
       2.255
       2.348
       2.350
       2.314
       2.268
       2.187
       1.993
       1.610
       1.032
       0.353
      -0.293
      -0.835
      -1.322
      -1.852
      -2.450
      -2.999
      -3.303
      -3.239
      -2.852
      -2.315
      -1.781
      -1.273
      -0.705
      -0.010
       0.741
       1.343
       1.596
       1.469
       1.140
       0.875
       0.847
       1.032
       1.255
       1.347
       1.273
       1.122
       1.003
       0.926
       0.773
       0.393
      -0.256
      -1.040
      -1.709
      -2.039
      -1.939
      -1.472
      -0.803
      -0.128
       0.374
       0.568
       0.413
       0.025
      -0.349
      -0.440
      -0.121
       0.510
       1.178
       1.596
       1.632
       1.368
       1.014
       0.753
       0.635
       0.584
       0.507
       0.383
       0.290
       0.326
       0.528
       0.835
       1.131
       1.293
       1.235
       0.923
       0.392
      -0.252
      -0.861
      -1.307
      -1.542
      -1.587
      -1.474
      -1.194
      -0.724
      -0.107
       0.491
       0.852
       0.840
       0.499
       0.012
      -0.416
      -0.670
      -0.769
      -0.820
      -0.943
      -1.192
      -1.514
      -1.771
      -1.810
      -1.560
      -1.066
      -0.453
       0.140
       0.605
       0.881
       0.968
       0.927
       0.856
       0.824
       0.806
       0.694
       0.391
      -0.091
      -0.628
      -1.071
      -1.338
      -1.429
      -1.369
      -1.152
      -0.750
      -0.179
       0.455
       0.967
       1.171
       0.983
       0.484
      -0.090
      -0.452
      -0.410
       0.042
       0.742
       1.472
       2.075
       2.474
       2.637
       2.539
       2.193
       1.678
       1.113
       0.585
       0.100
      -0.378
      -0.853
      -1.253
      -1.463
      -1.391
      -1.034
      -0.490
       0.075
       0.503
       0.719
       0.737
       0.615
       0.394
       0.099
      -0.212
      -0.428
      -0.442
      -0.257
      -0.031
      -0.007
      -0.364
      -1.088
      -1.955
      -2.658
      -2.990
      -2.978
      -2.844
      -2.817
      -2.935
      -3.020
      -2.825
      -2.246
      -1.391
      -0.482
       0.304
       0.902
       1.316
       1.585
       1.775
       2.001
       2.386
       2.983
       3.734
       4.497
       5.116
       5.479
       5.535
       5.281
       4.738
       3.945
       2.970
       1.908
