Origin Time       29/08/2013 10:13:21
Lat.              31.4 N	
Long.             76.1 E	
Depth (Km)         10.0
Magnitude         4.7
 Region           HIMACHAL-PUNJAB-(HOSHIARPUR)-BORDER                              
 Above details taken from IMD 
     
Station Code      GSK
Station Lat.       31.228  N
Station Long.      76.135  E
Station Height(m)  261.0
Site Class        C   Vs30 between 200 m/sec to 375 m/sec *  
Record Time       29.08.2013 10:12:39.804
Sampling Rate     200. Hz
 Record Duration   90.090 Sec.
 Direction         E-W (E positive)
Max. Acceleration    -21.273 cm/sec**2
     
  * For reference see Site Classification link of website 
     
 Base Line Corrected and Low Pass Filtered (Cut Off at 35 Hz) Time History
 Acceleration data in cm/sec**2
    
[...]
       0.033
       0.028
       0.022
       0.023
       0.030
       0.036
       0.031
       0.013
      -0.011
      -0.031
      -0.041
      -0.039
      -0.029
      -0.014
       0.005
       0.024
       0.037
       0.041
       0.033
       0.017
       0.000
      -0.015
      -0.027
      -0.034
      -0.033
      -0.026
      -0.015
      -0.004
       0.005
       0.012
       0.020
       0.034
       0.057
       0.087
       0.117
       0.134
       0.130
       0.104
       0.065
       0.028
       0.003
      -0.011
      -0.025
      -0.047
      -0.073
      -0.078
      -0.045
       0.022
       0.088
       0.112
       0.087
       0.052
       0.062
       0.149
       0.283
       0.389
       0.399
       0.312
       0.191
       0.119
       0.120
       0.136
       0.074
      -0.116
      -0.382
      -0.608
      -0.694
      -0.636
      -0.525
      -0.483
      -0.567
      -0.725
      -0.829
      -0.765
      -0.516
      -0.182
       0.089
       0.199
       0.167
       0.106
       0.142
       0.330
       0.619
       0.883
       0.975
       0.809
       0.417
      -0.033
      -0.297
      -0.213
       0.164
       0.547
       0.606
       0.240
      -0.291
      -0.533
      -0.203
       0.563
       1.284
       1.501
       1.122
       0.454
      -0.073
      -0.242
      -0.157
      -0.075
      -0.168
      -0.434
      -0.775
      -1.111
      -1.401
      -1.599
      -1.639
      -1.485
      -1.179
      -0.834
      -0.547
      -0.331
      -0.109
       0.213
       0.651
       1.118
       1.479
       1.640
       1.609
       1.457
       1.244
       0.965
       0.582
       0.103
      -0.368
      -0.673
      -0.711
      -0.529
      -0.309
      -0.239
      -0.375
      -0.586
      -0.644
      -0.402
       0.076
       0.531
       0.684
       0.432
      -0.076
      -0.541
      -0.716
      -0.554
      -0.227
       0.007
      -0.026
      -0.302
      -0.629
      -0.776
      -0.621
      -0.208
       0.302
       0.738
       1.000
       1.081
       1.029
       0.914
       0.799
       0.720
       0.674
       0.606
       0.439
       0.123
      -0.319
      -0.807
      -1.234
      -1.502
      -1.541
      -1.331
      -0.937
      -0.512
      -0.221
      -0.135
      -0.174
      -0.168
       0.011
       0.360
       0.755
       1.040
       1.137
       1.089
       0.999
       0.938
       0.884
       0.772
       0.580
       0.368
       0.220
       0.164
       0.150
       0.099
      -0.020
      -0.168
      -0.272
      -0.291
      -0.249
      -0.216
      -0.266
      -0.426
      -0.662
      -0.891
      -1.028
      -1.031
      -0.931
      -0.809
      -0.731
      -0.697
      -0.647
      -0.526
      -0.336
      -0.137
       0.011
       0.100
       0.182
       0.328
       0.572
       0.880
       1.155
       1.289
       1.232
       1.047
       0.879
       0.842
       0.904
       0.893
       0.649
       0.177
      -0.315
      -0.572
      -0.497
      -0.238
      -0.076
      -0.208
      -0.603
      -1.022
      -1.201
      -1.031
      -0.635
      -0.274
      -0.163
      -0.320
      -0.575
      -0.693
      -0.544
      -0.180
       0.220
       0.473
       0.502
       0.365
       0.199
       0.132
       0.216
       0.415
       0.644
       0.814
       0.867
       0.779
       0.563
       0.273
       0.005
      -0.141
      -0.112
       0.060
       0.262
       0.370
       0.328
       0.180
       0.030
      -0.047
      -0.067
      -0.114
      -0.262
      -0.504
      -0.748
      -0.894
      -0.894
      -0.778
      -0.608
      -0.430
      -0.264
      -0.132
      -0.086
      -0.170
      -0.355
      -0.517
      -0.512
      -0.298
       0.019
       0.262
       0.328
       0.256
       0.175
       0.178
       0.251
       0.315
       0.316
       0.275
       0.253
       0.281
       0.324
       0.318
       0.243
       0.160
       0.177
       0.355
       0.629
       0.820
       0.758
       0.428
       0.029
      -0.147
       0.072
       0.598
       1.147
       1.443
       1.402
       1.155
       0.897
       0.738
       0.648
       0.540
       0.377
       0.207
       0.098
       0.065
       0.052
      -0.010
      -0.124
      -0.223
      -0.233
      -0.151
      -0.059
      -0.059
      -0.201
      -0.455
      -0.758
      -1.067
      -1.375
      -1.669
      -1.900
      -2.017
      -2.048
      -2.100
      -2.277
      -2.554
      -2.771
      -2.756
      -2.479
      -2.068
      -1.685
      -1.363
      -0.988
      -0.448
       0.212
       0.786
       1.070
       1.040
       0.864
       0.765
       0.856
       1.093
       1.342
       1.494
       1.527
       1.490
       1.431
       1.345
       1.181
       0.913
       0.608
       0.416
       0.486
       0.849
       1.383
       1.897
       2.258
       2.448
       2.519
       2.499
       2.370
       2.112
       1.754
       1.363
       0.992
       0.635
       0.237
      -0.255
      -0.830
      -1.399
      -1.841
      -2.090
      -2.187
      -2.233
      -2.298
      -2.347
      -2.292
      -2.084
      -1.763
      -1.420
      -1.122
      -0.885
      -0.694
      -0.517
      -0.291
       0.059
       0.555
       1.102
       1.519
       1.670
       1.586
       1.451
       1.450
       1.620
       1.821
       1.856
       1.613
       1.136
       0.583
       0.120
      -0.188
      -0.406
      -0.664
      -1.015
      -1.365
      -1.534
      -1.415
      -1.086
      -0.760
      -0.632
      -0.739
      -0.955
      -1.104
      -1.082
      -0.905
      -0.674
      -0.493
      -0.405
      -0.379
      -0.341
      -0.236
      -0.069
       0.083
       0.127
       0.020
      -0.186
      -0.362
      -0.383
      -0.201
       0.112
       0.405
       0.531
       0.433
       0.168
      -0.138
      -0.362
      -0.441
      -0.372
      -0.191
       0.043
       0.263
       0.418
       0.495
       0.522
       0.547
       0.606
       0.704
       0.814
       0.905
       0.966
       1.007
       1.039
       1.046
       0.985
       0.817
       0.552
       0.249
      -0.019
      -0.227
      -0.414
      -0.640
      -0.914
      -1.156
      -1.249
      -1.128
      -0.823
      -0.426
      -0.022
       0.344
       0.655
       0.869
       0.920
       0.769
       0.467
       0.158
      -0.021
      -0.048
      -0.027
      -0.093
      -0.291
      -0.553
      -0.760
      -0.811
      -0.667
      -0.348
       0.068
       0.463
       0.715
       0.760
       0.632
       0.439
       0.300
       0.273
       0.335
       0.432
       0.532
       0.630
       0.709
       0.710
       0.569
       0.291
      -0.018
      -0.212
      -0.214
      -0.083
       0.024
      -0.039
      -0.310
      -0.697
      -1.057
      -1.292
      -1.394
      -1.412
      -1.385
      -1.319
      -1.206
      -1.067
      -0.947
      -0.881
      -0.865
      -0.856
      -0.810
      -0.713
      -0.579
      -0.422
      -0.225
       0.049
       0.414
       0.820
       1.181
       1.430
       1.571
       1.656
       1.709
       1.690
       1.530
       1.215
       0.825
       0.492
       0.305
       0.245
       0.207
       0.096
      -0.091
      -0.263
      -0.309
      -0.190
       0.027
       0.220
       0.294
       0.233
       0.099
      -0.025
      -0.082
      -0.068
      -0.016
       0.035
       0.060
       0.052
       0.003
      -0.108
      -0.315
      -0.639
      -1.032
      -1.366
      -1.484
      -1.315
      -0.936
      -0.525
      -0.237
      -0.100
      -0.022
       0.109
       0.323
       0.563
       0.748
       0.851
       0.888
       0.867
       0.757
       0.531
       0.223
      -0.065
      -0.230
      -0.246
      -0.185
      -0.160
      -0.235
      -0.365
      -0.433
      -0.368
      -0.239
      -0.223
      -0.436
      -0.801
      -1.063
      -0.979
      -0.505
       0.175
       0.775
       1.091
       1.106
       0.973
       0.900
       0.999
       1.215
       1.353
       1.242
       0.874
       0.432
       0.132
       0.037
       0.012
      -0.138
      -0.463
      -0.813
      -0.964
      -0.813
      -0.466
      -0.148
      -0.026
      -0.095
      -0.216
      -0.269
      -0.268
      -0.332
      -0.556
      -0.891
      -1.169
      -1.236
      -1.076
      -0.807
      -0.546
      -0.312
      -0.036
       0.318
       0.687
       0.953
       1.054
       1.044
       1.027
       1.048
       1.055
       0.966
       0.768
       0.528
       0.304
       0.058
      -0.309
      -0.831
      -1.390
      -1.787
      -1.895
      -1.757
      -1.515
      -1.264
      -0.994
      -0.651
      -0.261
       0.049
       0.154
       0.069
      -0.022
       0.102
       0.513
       1.053
       1.447
       1.509
       1.262
       0.879
       0.533
       0.294
       0.147
       0.082
       0.116
       0.248
       0.396
       0.444
       0.347
       0.192
       0.125
       0.216
       0.401
       0.553
       0.600
       0.580
       0.574
       0.607
       0.610
       0.500
       0.281
       0.054
      -0.057
      -0.006
       0.156
       0.323
       0.399
       0.336
       0.143
      -0.130
      -0.421
      -0.682
      -0.889
      -1.042
      -1.164
      -1.282
      -1.392
      -1.422
      -1.244
      -0.778
      -0.094
       0.566
       0.923
       0.840
       0.422
      -0.056
      -0.327
      -0.291
      -0.044
       0.224
       0.371
       0.377
       0.311
       0.232
       0.122
      -0.102
      -0.504
      -1.026
      -1.464
      -1.546
      -1.111
      -0.251
       0.697
       1.343
       1.468
       1.139
       0.624
       0.203
       0.014
       0.008
       0.030
      -0.064
      -0.317
      -0.653
      -0.928
      -1.028
      -0.955
      -0.839
      -0.854
      -1.070
      -1.373
      -1.517
      -1.296
      -0.711
       0.020
       0.600
       0.846
       0.799
       0.669
       0.673
       0.892
       1.221
       1.462
       1.473
       1.279
       1.072
       1.067
       1.340
       1.758
       2.055
       2.012
       1.610
       1.032
       0.510
       0.146
      -0.150
      -0.544
      -1.094
      -1.689
      -2.147
      -2.379
      -2.436
      -2.407
      -2.292
      -2.004
      -1.492
      -0.846
      -0.248
       0.171
       0.438
       0.708
       1.125
       1.685
       2.229
       2.546
       2.512
       2.162
       1.657
       1.172
       0.808
       0.554
       0.328
       0.056
      -0.289
      -0.690
      -1.128
      -1.579
      -1.979
      -2.226
      -2.263
      -2.165
      -2.106
      -2.183
      -2.256
      -2.018
      -1.274
      -0.188
       0.775
       1.206
       1.077
       0.760
       0.711
       1.115
       1.787
       2.374
       2.646
       2.630
       2.498
       2.365
       2.188
       1.828
       1.205
       0.383
      -0.457
      -1.144
      -1.608
      -1.870
      -1.963
      -1.893
      -1.692
      -1.480
      -1.410
      -1.531
      -1.701
      -1.693
      -1.392
      -0.917
      -0.522
      -0.387
      -0.476
      -0.588
      -0.519
      -0.224
       0.167
       0.455
       0.531
       0.462
       0.453
       0.702
       1.255
       1.960
       2.554
       2.808
       2.627
       2.072
       1.323
       0.608
       0.099
      -0.174
      -0.327
      -0.517
      -0.817
      -1.159
      -1.400
      -1.432
      -1.244
      -0.913
      -0.566
      -0.330
      -0.267
      -0.316
      -0.289
      -0.001
       0.561
       1.190
       1.595
       1.623
       1.342
       0.946
       0.580
       0.281
       0.047
      -0.089
      -0.071
       0.094
       0.298
       0.381
       0.237
      -0.121
      -0.574
      -0.978
      -1.241
      -1.356
      -1.367
      -1.309
      -1.174
      -0.950
      -0.674
      -0.432
      -0.309
      -0.326
      -0.433
      -0.544
      -0.578
      -0.482
      -0.244
       0.086
       0.401
       0.591
       0.614
       0.518
       0.392
       0.292
       0.219
       0.152
       0.110
       0.159
       0.347
       0.639
       0.929
       1.118
       1.188
       1.165
       1.036
       0.731
       0.222
      -0.382
      -0.874
      -1.115
      -1.149
      -1.136
      -1.182
      -1.236
      -1.169
      -0.935
      -0.652
      -0.507
      -0.582
      -0.755
      -0.784
      -0.494
       0.092
       0.787
       1.391
       1.818
       2.101
       2.297
       2.410
       2.395
       2.218
       1.896
       1.484
       1.050
       0.659
       0.369
       0.216
       0.171
       0.118
      -0.073
      -0.430
      -0.810
      -0.998
      -0.888
      -0.583
      -0.308
      -0.205
      -0.201
      -0.064
       0.410
       1.211
       2.115
       2.863
       3.374
       3.822
       4.482
       5.489
       6.705
       7.820
       8.604
       9.061
       9.351
       9.560
       9.569
       9.129
       8.079
       6.465
       4.474
       2.283
      -0.029
      -2.435
      -4.876
      -7.247
      -9.467
     -11.547
     -13.575
     -15.620
     -17.635
     -19.421
     -20.701
     -21.273
     -21.144
     -20.534
     -19.732
     -18.891
     -17.918
     -16.535
     -14.459
     -11.568
      -7.952
      -3.852
       0.430
       4.587
       8.311
      11.325
      13.453
      14.716
      15.338
      15.625
      15.807
      15.958
      16.053
      16.045
      15.872
      15.381
      14.299
      12.367
       9.566
       6.240
       2.978
       0.317
      -1.542
      -2.787
      -3.811
      -4.921
      -6.142
      -7.245
      -7.937
      -8.082
      -7.775
      -7.230
      -6.591
      -5.796
      -4.636
      -2.959
      -0.862
       1.287
       3.037
       4.089
       4.430
       4.275
       3.906
       3.525
       3.179
       2.798
       2.306
       1.718
       1.156
       0.759
       0.547
       0.384
       0.089
      -0.392
      -0.917
      -1.239
      -1.189
      -0.779
      -0.172
       0.439
       0.928
       1.279
       1.556
       1.842
       2.184
       2.559
       2.890
       3.100
       3.148
       3.026
       2.713
       2.177
       1.420
       0.536
      -0.323
      -1.048
      -1.671
      -2.361
      -3.292
      -4.498
      -5.825
      -7.012
      -7.822
      -8.130
      -7.923
      -7.263
      -6.263
      -5.076
      -3.887
      -2.863
      -2.077
      -1.471
      -0.891
      -0.184
       0.718
       1.808
       3.055
       4.420
       5.811
       7.033
       7.856
       8.171
       8.101
       7.916
       7.795
       7.635
       7.088
       5.837
       3.884
       1.618
      -0.421
      -1.884
      -2.809
      -3.513
      -4.291
      -5.181
      -5.971
      -6.425
      -6.497
      -6.346
      -6.171
      -6.031
      -5.832
      -5.440
      -4.817
      -4.029
      -3.176
      -2.294
      -1.343
      -0.251
       1.014
       2.416
       3.869
       5.282
       6.557
       7.574
       8.205
       8.375
       8.113
       7.521
       6.679
       5.564
       4.068
       2.126
      -0.134
      -2.344
      -4.020
      -4.813
      -4.724
      -4.114
      -3.482
      -3.179
      -3.258
      -3.543
      -3.815
      -3.959
      -3.960
      -3.800
      -3.387
      -2.582
      -1.319
       0.313
       2.070
       3.653
       4.830
       5.528
       5.814
       5.799
       5.524
       4.946
       4.020
       2.816
       1.557
       0.508
      -0.204
      -0.679
      -1.155
      -1.844
      -2.770
      -3.730
      -4.399
      -4.515
      -4.026
      -3.146
      -2.255
      -1.678
      -1.496
      -1.495
      -1.338
      -0.849
      -0.194
       0.216
       0.065
      -0.584
      -1.309
      -1.628
      -1.348
      -0.672
      -0.015
       0.298
       0.200
      -0.170
      -0.655
      -1.218
      -1.909
      -2.715
      -3.424
      -3.650
      -3.051
      -1.576
       0.443
       2.453
       3.980
       4.861
       5.234
       5.341
       5.318
       5.141
       4.726
       4.057
       3.242
       2.487
       1.992
       1.851
       1.988
       2.178
       2.162
       1.798
       1.150
       0.440
      -0.130
      -0.545
      -0.998
      -1.721
      -2.748
      -3.813
      -4.475
      -4.426
      -3.712
      -2.712
      -1.875
      -1.441
      -1.355
      -1.399
      -1.407
      -1.369
      -1.370
      -1.456
      -1.568
      -1.580
      -1.393
      -1.012
      -0.547
      -0.142
       0.106
       0.192
       0.190
       0.187
       0.219
       0.258
       0.258
       0.206
       0.140
       0.144
       0.329
       0.783
       1.507
       2.369
       3.146
       3.635
       3.769
       3.650
       3.461
       3.339
       3.304
       3.257
       3.062
       2.620
       1.916
       1.011
      -0.018
      -1.123
      -2.297
      -3.538
      -4.790
      -5.915
      -6.738
      -7.140
      -7.133
      -6.851
      -6.439
      -5.914
      -5.122
      -3.864
      -2.104
      -0.086
       1.768
       3.116
       3.898
       4.322
       4.651
       4.988
       5.213
       5.113
       4.583
       3.740
       2.853
       2.179
       1.824
       1.743
       1.826
       1.986
       2.166
       2.289
       2.238
       1.904
       1.286
       0.531
      -0.113
      -0.438
      -0.396
      -0.114
       0.182
       0.296
       0.142
      -0.263
      -0.851
      -1.560
      -2.316
      -2.994
      -3.423
      -3.487
      -3.222
      -2.825
      -2.515
      -2.390
      -2.382
      -2.365
      -2.284
      -2.184
      -2.123
      -2.087
      -1.995
      -1.776
      -1.417
      -0.934
      -0.320
       0.465
       1.419
       2.430
       3.297
       3.843
       4.022
       3.937
       3.753
       3.580
       3.387
       3.030
       2.345
       1.290
       0.017
      -1.179
      -2.024
      -2.413
      -2.440
      -2.304
      -2.172
      -2.116
      -2.116
      -2.098
      -1.981
      -1.724
      -1.382
      -1.093
      -0.994
      -1.091
      -1.227
      -1.179
      -0.814
      -0.184
       0.521
       1.106
       1.494
       1.753
       2.030
       2.443
       2.988
       3.527
       3.862
       3.844
       3.439
       2.735
       1.872
       0.982
       0.168
      -0.502
      -1.003
      -1.370
      -1.681
      -2.004
      -2.332
      -2.587
      -2.693
      -2.637
      -2.461
      -2.192
      -1.803
      -1.254
      -0.571
       0.125
       0.666
       0.942
       0.954
       0.806
       0.616
       0.435
       0.219
      -0.118
      -0.598
      -1.121
      -1.502
      -1.607
      -1.459
      -1.195
      -0.905
      -0.525
       0.111
       1.070
       2.181
       3.095
       3.499
       3.322
       2.791
       2.284
       2.083
