Origin Time       29/08/2013 10:13:21
Lat.              31.4 N	
Long.             76.1 E	
Depth (Km)         10.0
Magnitude         4.7
 Region           HIMACHAL-PUNJAB-(HOSHIARPUR)-BORDER                              
 Above details taken from IMD 
   
Station Code      GSK
Station Lat.       31.228
Station Long.      76.135
Station Height(m)  261.0
Site Class        C   Vs30 between 200 m/sec to 375 m/sec *  
Record Time       29.08.2013 10:12:39.804
Sampling Rate     200. Hz
 Record Duration   90.090 Sec.
 Direction         Vert. (Up positive)
Max. Acceleration     14.395 cm/sec**2
     
  * For reference see Site Classification link of website 
     
 Base Line Corrected and Low Pass Filtered (Cut Off at 35 Hz) Time History
 Acceleration data in cm/sec**2
    
[...]
       0.009
       0.039
       0.054
       0.051
       0.035
       0.016
      -0.002
      -0.014
      -0.021
      -0.026
      -0.030
      -0.031
      -0.024
      -0.006
       0.019
       0.038
       0.042
       0.032
       0.020
       0.012
       0.009
       0.006
      -0.004
      -0.020
      -0.033
      -0.037
      -0.032
      -0.023
      -0.016
      -0.011
      -0.007
      -0.004
       0.001
       0.008
       0.014
       0.017
       0.014
       0.004
      -0.011
      -0.023
      -0.027
      -0.023
      -0.020
      -0.024
      -0.033
      -0.041
      -0.040
      -0.029
      -0.008
       0.016
       0.033
       0.037
       0.027
       0.013
       0.004
      -0.004
      -0.016
      -0.031
      -0.038
      -0.028
      -0.003
       0.020
       0.025
       0.016
       0.014
       0.035
       0.076
       0.108
       0.103
       0.053
      -0.025
      -0.098
      -0.136
      -0.129
      -0.091
      -0.047
      -0.020
      -0.012
      -0.010
      -0.003
       0.015
       0.037
       0.058
       0.074
       0.079
       0.066
       0.031
      -0.020
      -0.067
      -0.094
      -0.098
      -0.083
      -0.055
      -0.016
       0.027
       0.063
       0.081
       0.073
       0.046
       0.018
       0.005
       0.007
       0.011
       0.004
      -0.013
      -0.029
      -0.036
      -0.034
      -0.031
      -0.038
      -0.055
      -0.072
      -0.075
      -0.055
      -0.016
       0.027
       0.059
       0.075
       0.077
       0.070
       0.063
       0.054
       0.038
       0.008
      -0.030
      -0.060
      -0.074
      -0.072
      -0.062
      -0.045
      -0.019
       0.015
       0.047
       0.060
       0.046
       0.014
      -0.014
      -0.024
      -0.012
       0.008
       0.021
       0.018
       0.008
       0.001
       0.005
       0.014
       0.015
       0.001
      -0.025
      -0.046
      -0.055
      -0.057
      -0.058
      -0.056
      -0.044
      -0.019
       0.013
       0.039
       0.049
       0.046
       0.038
       0.035
       0.038
       0.038
       0.026
      -0.003
      -0.040
      -0.071
      -0.085
      -0.079
      -0.058
      -0.029
       0.003
       0.030
       0.048
       0.050
       0.034
       0.003
      -0.029
      -0.049
      -0.046
      -0.028
      -0.008
      -0.002
      -0.014
      -0.038
      -0.061
      -0.073
      -0.066
      -0.043
      -0.012
       0.018
       0.046
       0.070
       0.087
       0.089
       0.068
       0.035
       0.006
      -0.006
      -0.006
      -0.001
       0.005
       0.009
       0.009
      -0.002
      -0.026
      -0.058
      -0.080
      -0.079
      -0.053
      -0.017
       0.012
       0.025
       0.024
       0.017
       0.013
       0.016
       0.023
       0.034
       0.045
       0.051
       0.045
       0.018
      -0.026
      -0.066
      -0.079
      -0.064
      -0.036
      -0.017
      -0.017
      -0.035
      -0.058
      -0.066
      -0.045
       0.002
       0.052
       0.079
       0.073
       0.046
       0.019
       0.001
      -0.005
       0.000
       0.007
       0.008
      -0.001
      -0.019
      -0.036
      -0.043
      -0.037
      -0.029
      -0.030
      -0.042
      -0.054
      -0.053
      -0.032
       0.002
       0.039
       0.070
       0.088
       0.090
       0.077
       0.058
       0.036
       0.010
      -0.017
      -0.041
      -0.057
      -0.067
      -0.068
      -0.059
      -0.041
      -0.018
       0.005
       0.021
       0.021
       0.005
      -0.017
      -0.027
      -0.014
       0.016
       0.040
       0.037
       0.003
      -0.050
      -0.095
      -0.115
      -0.108
      -0.089
      -0.073
      -0.060
      -0.037
       0.005
       0.057
       0.097
       0.108
       0.093
       0.071
       0.059
       0.057
       0.052
       0.039
       0.021
      -0.001
      -0.033
      -0.079
      -0.127
      -0.155
      -0.148
      -0.111
      -0.058
      -0.003
       0.041
       0.071
       0.087
       0.095
       0.096
       0.089
       0.073
       0.051
       0.026
      -0.004
      -0.039
      -0.074
      -0.099
      -0.109
      -0.103
      -0.088
      -0.067
      -0.046
      -0.028
      -0.021
      -0.045
      -0.120
      -0.252
      -0.428
      -0.620
      -0.812
      -1.009
      -1.228
      -1.455
      -1.622
      -1.632
      -1.432
      -1.081
      -0.727
      -0.506
      -0.426
      -0.361
      -0.169
       0.142
       0.363
       0.211
      -0.438
      -1.402
      -2.284
      -2.762
      -2.853
      -2.914
      -3.354
      -4.260
      -5.271
      -5.812
      -5.520
      -4.507
      -3.230
      -2.088
      -1.094
       0.111
       1.947
       4.511
       7.427
      10.017
      11.693
      12.325
      12.319
      12.328
      12.756
      13.393
      13.480
      12.198
       9.255
       5.174
       1.104
      -1.741
      -2.724
      -2.193
      -1.423
      -1.970
      -4.648
      -8.741
     -12.109
     -12.425
      -8.852
      -2.958
       2.048
       3.429
       0.840
      -3.480
      -6.429
      -6.297
      -3.757
      -1.004
       0.009
      -1.257
      -4.026
      -7.014
      -9.037
      -9.173
      -6.898
      -2.508
       2.600
       6.427
       7.584
       6.247
       3.939
       2.332
       2.113
       2.806
       3.441
       3.365
       2.571
       1.485
       0.565
       0.039
      -0.087
       0.120
       0.630
       1.400
       2.276
       2.936
       2.936
       1.869
      -0.321
      -3.066
      -5.269
      -5.929
      -4.938
      -3.325
      -2.561
      -3.407
      -5.286
      -6.755
      -6.629
      -4.785
      -2.065
       0.467
       2.216
       3.193
       3.710
       4.001
       4.066
       3.767
       3.065
       2.198
       1.629
       1.735
       2.446
       3.189
       3.288
       2.549
       1.497
       0.973
       1.408
       2.427
       3.125
       2.746
       1.157
      -1.196
      -3.648
      -5.599
      -6.604
      -6.443
      -5.263
      -3.612
      -2.155
      -1.212
      -0.570
       0.218
       1.302
       2.343
       2.831
       2.591
       1.976
       1.557
       1.616
       1.906
       1.915
       1.388
       0.594
       0.085
       0.180
       0.681
       1.078
       0.967
       0.277
      -0.812
      -2.018
      -3.012
      -3.465
      -3.192
      -2.314
      -1.228
      -0.375
       0.000
      -0.080
      -0.403
      -0.659
      -0.528
       0.177
       1.325
       2.410
       2.799
       2.185
       0.891
      -0.300
      -0.696
      -0.183
       0.734
       1.361
       1.329
       0.841
       0.481
       0.757
       1.690
       2.712
       2.992
       1.995
      -0.074
      -2.311
      -3.695
      -3.820
      -3.197
      -2.821
      -3.304
      -4.309
      -4.793
      -3.866
      -1.569
       1.085
       2.816
       2.969
       1.929
       0.790
       0.567
       1.521
       3.031
       4.045
       3.754
       2.058
      -0.408
      -2.635
      -3.733
      -3.317
      -1.654
       0.469
       2.096
       2.560
       1.814
       0.443
      -0.680
      -0.894
      -0.126
       1.075
       1.894
       1.760
       0.711
      -0.657
      -1.607
      -1.727
      -1.108
      -0.157
       0.705
       1.231
       1.357
       1.128
       0.620
      -0.088
      -0.879
      -1.544
      -1.822
      -1.554
      -0.857
      -0.115
       0.240
       0.047
      -0.454
      -0.796
      -0.625
       0.048
       0.879
       1.463
       1.583
       1.277
       0.715
       0.078
      -0.446
      -0.646
      -0.381
       0.223
       0.708
       0.531
      -0.513
      -2.043
      -3.255
      -3.407
      -2.294
      -0.408
       1.318
       2.034
       1.514
       0.360
      -0.356
       0.101
       1.487
       2.696
       2.673
       1.353
      -0.253
      -0.944
      -0.360
       0.798
       1.499
       1.275
       0.445
      -0.405
      -1.047
      -1.710
      -2.632
      -3.591
      -3.931
      -3.089
      -1.153
       1.069
       2.556
       2.749
       1.846
       0.537
      -0.514
      -0.984
      -0.823
      -0.061
       1.224
       2.733
       3.850
       3.895
       2.621
       0.536
      -1.343
      -2.210
      -2.037
      -1.463
      -1.070
      -0.804
      -0.161
       1.033
       2.138
       2.147
       0.689
      -1.451
      -2.900
      -2.841
      -1.631
      -0.367
       0.109
      -0.206
      -0.703
      -0.840
      -0.585
      -0.340
      -0.544
      -1.300
      -2.256
      -2.809
      -2.518
      -1.432
      -0.067
       0.963
       1.336
       1.142
       0.700
       0.345
       0.338
       0.857
       1.899
       3.147
       4.005
       3.932
       2.843
       1.246
      -0.056
      -0.455
       0.119
       1.189
       2.010
       2.004
       1.129
      -0.093
      -0.983
      -1.258
      -1.222
      -1.406
      -2.053
      -2.911
      -3.459
      -3.271
      -2.232
      -0.605
       0.985
       1.748
       1.229
      -0.195
      -1.406
      -1.369
       0.010
       1.794
       2.807
       2.571
       1.565
       0.671
       0.391
       0.534
       0.527
      -0.015
      -0.959
      -1.752
      -1.811
      -0.957
       0.425
       1.588
       1.908
       1.283
       0.175
      -0.737
      -0.999
      -0.625
      -0.022
       0.277
      -0.109
      -1.200
      -2.609
      -3.689
      -3.863
      -2.986
      -1.496
      -0.188
       0.309
      -0.028
      -0.621
      -0.776
      -0.251
       0.583
       1.128
       1.139
       0.925
       1.009
       1.604
       2.399
       2.837
       2.596
       1.845
       1.099
       0.850
       1.291
       2.249
       3.277
       3.842
       3.556
       2.370
       0.641
      -1.033
      -2.126
      -2.441
      -2.174
      -1.789
      -1.742
      -2.208
      -2.934
      -3.395
      -3.185
      -2.357
      -1.394
      -0.809
      -0.727
      -0.838
      -0.746
      -0.339
       0.159
       0.487
       0.681
       1.066
       1.891
       2.945
       3.600
       3.295
       2.080
       0.666
      -0.116
      -0.015
       0.426
       0.375
      -0.558
      -2.010
      -3.197
      -3.502
      -2.794
      -1.408
       0.045
       0.902
       0.751
      -0.264
      -1.447
      -2.009
      -1.647
      -0.703
       0.203
       0.697
       0.836
       0.885
       0.966
       0.932
       0.546
      -0.223
      -1.082
      -1.593
      -1.525
      -1.034
      -0.522
      -0.325
      -0.514
      -0.914
      -1.215
      -1.069
      -0.198
       1.418
       3.383
       4.971
       5.500
       4.751
       3.114
       1.361
       0.217
       0.001
       0.520
       1.270
       1.780
       1.861
       1.580
       1.027
       0.153
      -1.130
      -2.677
      -3.989
      -4.453
      -3.801
      -2.399
      -1.034
      -0.316
      -0.205
      -0.101
       0.530
       1.582
       2.321
       2.009
       0.632
      -0.966
      -1.681
      -1.052
       0.301
       1.084
       0.324
      -1.848
      -4.272
      -5.621
      -5.336
      -3.901
      -2.318
      -1.315
      -0.919
      -0.668
      -0.176
       0.496
       0.954
       0.947
       0.717
       0.906
       2.044
       4.042
       6.111
       7.208
       6.739
       4.998
       2.972
       1.633
       1.284
       1.478
       1.536
       1.129
       0.403
      -0.351
      -1.009
      -1.581
      -1.976
      -1.989
      -1.596
      -1.199
      -1.421
      -2.548
      -4.147
      -5.289
      -5.213
      -3.860
      -1.891
      -0.200
       0.657
       0.759
       0.650
       0.847
       1.380
       1.755
       1.414
       0.305
      -0.974
      -1.618
      -1.247
      -0.187
       0.798
       1.047
       0.416
      -0.673
      -1.516
      -1.598
      -0.976
      -0.265
      -0.146
      -0.767
      -1.556
      -1.694
      -0.823
       0.663
       1.999
       2.704
       2.879
       2.948
       3.163
       3.357
       3.140
       2.347
       1.278
       0.490
       0.299
       0.497
       0.574
       0.246
      -0.278
      -0.601
      -0.652
      -0.817
      -1.497
      -2.565
      -3.360
      -3.275
      -2.360
      -1.338
      -0.978
      -1.409
      -1.994
      -1.912
      -0.893
       0.547
       1.604
       1.930
       1.882
       2.029
       2.471
       2.746
       2.475
       1.968
       2.036
       3.109
       4.629
       5.418
       4.687
       2.717
       0.604
      -0.635
      -0.781
      -0.412
      -0.310
      -0.846
      -1.837
      -2.855
      -3.615
      -4.045
      -4.110
      -3.718
      -2.916
      -2.087
      -1.727
      -1.916
      -2.047
      -1.283
       0.623
       2.979
       4.705
       5.292
       5.200
       5.313
       6.017
       6.792
       6.656
       5.019
       2.181
      -0.938
      -3.531
      -5.404
      -6.850
      -8.125
      -9.141
      -9.647
      -9.602
      -9.260
      -8.901
      -8.590
      -8.242
      -7.810
      -7.270
      -6.395
      -4.677
      -1.610
       2.815
       7.830
      12.101
      14.395
      14.317
      12.579
      10.505
       9.056
       8.174
       7.017
       4.895
       2.011
      -0.664
      -2.225
      -2.603
      -2.617
      -3.325
      -5.212
      -7.814
      -9.985
     -10.602
      -9.245
      -6.441
      -3.361
      -1.175
      -0.436
      -0.826
      -1.420
      -1.285
      -0.053
       1.931
       3.929
       5.345
       6.057
       6.373
       6.734
       7.379
       8.161
       8.576
       8.020
       6.192
       3.419
       0.592
      -1.364
      -2.187
      -2.525
      -3.408
      -5.325
      -7.710
      -9.313
      -9.140
      -7.183
      -4.384
      -1.970
      -0.698
      -0.484
      -0.564
      -0.055
       1.398
       3.287
       4.537
       4.268
       2.522
       0.355
      -0.827
      -0.215
       1.856
       4.184
       5.564
       5.554
       4.563
       3.273
       2.003
       0.647
      -0.859
      -2.223
      -3.078
      -3.542
      -4.242
      -5.581
      -7.014
      -7.266
      -5.431
      -1.900
       1.785
       4.005
       4.091
       2.539
       0.490
      -0.981
      -1.294
      -0.472
       0.948
       2.153
       2.420
       1.499
      -0.206
      -1.824
      -2.508
      -1.952
      -0.624
       0.477
       0.427
      -0.968
      -2.902
      -3.961
      -3.091
      -0.498
       2.323
       3.684
       3.119
       1.824
       1.584
       3.095
       5.279
       6.295
       5.257
       2.970
       1.045
       0.379
       0.521
       0.367
      -0.692
      -2.290
      -3.569
      -3.977
      -3.632
      -3.060
      -2.659
      -2.387
      -1.937
      -1.198
      -0.511
      -0.399
      -1.015
      -1.884
      -2.267
      -1.811
      -0.793
       0.270
       1.145
       1.974
       2.892
       3.730
       4.120
       3.834
       2.932
       1.654
       0.299
      -0.805
      -1.371
      -1.341
      -0.962
      -0.596
      -0.431
      -0.438
      -0.541
      -0.735
      -0.984
      -1.108
      -0.878
      -0.261
       0.486
       1.009
       1.108
       0.813
       0.295
      -0.247
      -0.694
      -1.095
      -1.600
      -2.190
      -2.465
      -1.845
      -0.153
       1.974
       3.388
       3.314
       1.999
       0.470
      -0.343
      -0.245
       0.341
       0.983
       1.610
       2.306
       2.892
       2.889
       1.928
       0.160
      -1.784
      -3.251
      -4.023
      -4.362
      -4.634
      -4.891
      -4.787
      -3.882
      -2.084
       0.150
       2.046
       3.018
       3.014
       2.450
       1.830
       1.419
       1.171
       0.893
       0.437
      -0.193
      -0.837
      -1.231
      -1.178
      -0.713
      -0.099
       0.390
       0.703
       1.039
       1.612
       2.391
       3.034
       3.094
       2.333
       0.869
      -0.897
      -2.487
      -3.508
      -3.691
      -2.925
      -1.430
       0.110
       0.792
       0.195
      -1.073
      -1.681
      -0.682
       1.552
       3.510
       3.769
       2.177
      -0.078
      -1.460
      -1.211
       0.274
       1.924
       2.781
       2.526
       1.480
       0.222
      -0.775
      -1.235
      -0.994
      -0.027
       1.385
       2.613
       2.954
       2.040
       0.063
      -2.340
      -4.404
      -5.485
      -5.185
      -3.488
      -0.943
       1.356
       2.251
       1.265
      -0.971
      -3.091
      -3.932
      -3.284
      -1.842
      -0.516
       0.240
       0.554
       0.791
       1.127
       1.396
       1.299
       0.812
       0.392
       0.685
       1.885
       3.376
       4.150
       3.724
       2.667
       2.093
       2.558
       3.479
       3.678
       2.519
       0.491
      -1.218
      -1.691
      -0.904
       0.399
       1.343
       1.522
       1.160
       0.752
       0.493
       0.019
      -1.263
      -3.517
      -6.080
      -7.764
      -7.661
      -5.822
      -3.242
      -1.178
      -0.360
      -0.640
      -1.256
      -1.443
      -0.960
      -0.148
       0.485
       0.722
       0.701
       0.635
       0.601
       0.667
       1.059
       1.985
       3.184
       3.824
       3.122
       1.221
      -0.680
      -1.261
      -0.287
       1.111
       1.361
      -0.226
      -2.860
      -4.865
      -4.898
      -2.867
       0.063
       2.289
       2.821
       1.863
       0.528
      -0.094
       0.224
       0.765
       0.603
      -0.458
      -1.570
      -1.482
       0.400
       3.429
       6.111
       7.137
       6.191
       3.987
       1.658
       0.073
      -0.462
      -0.138
       0.561
       1.089
       1.066
       0.413
      -0.684
      -1.909
      -2.940
      -3.506
      -3.459
      -2.915
      -2.295
      -2.095
      -2.491
      -3.175
      -3.619
      -3.510
      -2.911
      -2.104
      -1.358
      -0.853
      -0.660
      -0.665
      -0.538
       0.062
       1.134
       2.206
       2.662
       2.280
       1.485
       1.005
       1.216
       1.785
       1.977
       1.368
       0.333
      -0.182
       0.582
       2.535
       4.746
       6.094
       5.981
       4.534
       2.269
      -0.325
      -2.889
      -5.060
      -6.461
      -6.954
      -6.830
      -6.549
      -6.200
      -5.342
      -3.530
      -1.040
       1.057
       1.722
       0.947
      -0.090
       0.062
       1.904
       4.554
       6.468
       6.692
       5.581
       4.408
       4.221
       4.943
       5.496
       4.835
       2.907
       0.674
      -0.801
      -1.314
      -1.666
      -2.908
      -5.368
      -8.276
     -10.245
     -10.171
      -7.933
      -4.438
      -1.077
       1.037
       1.576
       0.988
       0.084
