Origin Time       18/9/2011 21:51:52	
Lat.              27.6 N	
Long.             88.4 E	
Depth (Km)         28.0
Magnitude         4.2
 Region           India(Sikkim)-Nepar-Border                                       
 Above details taken from IMD 
   
Station Code      GTK
Station Lat.       27.352
Station Long.      88.627
Station Height(m) 1536.0
Site Class        A   Vs30 between 700 m/sec to 1400 m/sec * 
Record Time       18.09.2011 21:52:26.429
Sampling Rate     200. Hz
 Record Duration   80.295 Sec.
 Direction         Vert. (Up positive)
Max. Acceleration     -3.145 cm/sec**2
     
  * For reference see Site Classification link of website 
     
 Base Line Corrected and Low Pass Filtered (Cut Off at 35 Hz) Time History
 Acceleration data in cm/sec**2
    
[...]
       0.251
       0.388
       0.491
       0.475
       0.333
       0.133
      -0.034
      -0.112
      -0.107
      -0.070
      -0.062
      -0.115
      -0.211
      -0.287
      -0.285
      -0.199
      -0.099
      -0.077
      -0.177
      -0.347
      -0.469
      -0.435
      -0.234
       0.044
       0.278
       0.416
       0.510
       0.642
       0.823
       0.964
       0.958
       0.770
       0.432
      -0.028
      -0.604
      -1.212
      -1.619
      -1.544
      -0.911
       0.009
       0.745
       0.974
       0.754
       0.419
       0.242
       0.192
       0.040
      -0.339
      -0.769
      -0.906
      -0.563
       0.105
       0.729
       1.021
       0.948
       0.647
       0.235
      -0.263
      -0.795
      -1.182
      -1.185
      -0.722
       0.011
       0.666
       0.989
       0.957
       0.701
       0.337
      -0.093
      -0.547
      -0.898
      -0.991
      -0.773
      -0.365
       0.030
       0.290
       0.447
       0.607
       0.810
       0.973
       0.964
       0.714
       0.260
      -0.296
      -0.839
      -1.240
      -1.361
      -1.116
      -0.568
       0.060
       0.520
       0.702
       0.679
       0.593
       0.500
       0.354
       0.102
      -0.216
      -0.466
      -0.524
      -0.361
      -0.055
       0.269
       0.502
       0.580
       0.468
       0.153
      -0.342
      -0.914
      -1.357
      -1.420
      -0.959
      -0.064
       0.966
       1.780
       2.132
       1.937
       1.224
       0.119
      -1.135
      -2.172
      -2.609
      -2.241
      -1.170
       0.229
       1.479
       2.192
       2.199
       1.588
       0.651
      -0.259
      -0.886
      -1.147
      -1.103
      -0.854
      -0.490
      -0.103
       0.193
       0.303
       0.242
       0.130
       0.079
       0.076
       0.000
      -0.223
      -0.496
      -0.593
      -0.340
       0.201
       0.745
       0.971
       0.770
       0.314
      -0.092
      -0.247
      -0.178
      -0.061
      -0.043
      -0.136
      -0.264
      -0.356
      -0.389
      -0.338
      -0.142
       0.226
       0.654
       0.891
       0.718
       0.161
      -0.478
      -0.829
      -0.739
      -0.367
      -0.016
       0.143
       0.157
       0.146
       0.138
       0.067
      -0.086
      -0.225
      -0.239
      -0.139
      -0.045
      -0.025
      -0.006
       0.125
       0.330
       0.406
       0.193
      -0.203
      -0.453
      -0.285
       0.251
       0.804
       1.003
       0.726
       0.149
      -0.427
      -0.762
      -0.769
      -0.497
      -0.092
       0.261
       0.412
       0.315
       0.067
      -0.166
      -0.264
      -0.234
      -0.183
      -0.222
      -0.349
      -0.439
      -0.324
       0.053
       0.560
       0.942
       0.998
       0.715
       0.252
      -0.186
      -0.474
      -0.583
      -0.534
      -0.362
      -0.143
       0.014
       0.029
      -0.062
      -0.134
      -0.102
      -0.003
       0.049
       0.001
      -0.095
      -0.157
      -0.173
      -0.203
      -0.274
      -0.312
      -0.196
       0.114
       0.506
       0.790
       0.833
       0.641
       0.320
      -0.008
      -0.268
      -0.420
      -0.444
      -0.346
      -0.185
      -0.049
      -0.004
      -0.050
      -0.140
      -0.231
      -0.302
      -0.336
      -0.307
      -0.200
      -0.049
       0.080
       0.138
       0.134
       0.120
       0.132
       0.164
       0.186
       0.190
       0.213
       0.295
       0.435
       0.581
       0.671
       0.658
       0.510
       0.198
      -0.275
      -0.815
      -1.236
      -1.349
      -1.099
      -0.612
      -0.100
       0.277
       0.476
       0.537
       0.514
       0.445
       0.340
       0.190
      -0.029
      -0.302
      -0.532
      -0.574
      -0.354
       0.038
       0.401
       0.583
       0.579
       0.468
       0.295
       0.044
      -0.261
      -0.496
      -0.516
      -0.308
      -0.024
       0.169
       0.254
       0.351
       0.531
       0.678
       0.558
       0.056
      -0.653
      -1.186
      -1.233
      -0.792
      -0.144
       0.379
       0.616
       0.608
       0.459
       0.228
      -0.057
      -0.313
      -0.406
      -0.264
       0.024
       0.258
       0.305
       0.206
       0.116
       0.122
       0.155
       0.073
      -0.175
      -0.463
      -0.589
      -0.437
      -0.061
       0.373
       0.701
       0.812
       0.648
       0.215
      -0.367
      -0.862
      -1.039
      -0.827
      -0.382
       0.041
       0.274
       0.328
       0.314
       0.316
       0.340
       0.345
       0.292
       0.152
      -0.086
      -0.382
      -0.612
      -0.619
      -0.345
       0.078
       0.393
       0.415
       0.172
      -0.133
      -0.291
      -0.226
       0.015
       0.328
       0.583
       0.626
       0.340
      -0.228
      -0.822
      -1.108
      -0.913
      -0.347
       0.290
       0.729
       0.865
       0.742
       0.465
       0.147
      -0.115
      -0.267
      -0.329
      -0.354
      -0.350
      -0.251
      -0.002
       0.324
       0.533
       0.472
       0.171
      -0.178
      -0.402
      -0.467
      -0.435
      -0.345
      -0.178
       0.048
       0.210
       0.164
      -0.090
      -0.372
      -0.466
      -0.296
       0.054
       0.453
       0.808
       1.036
       1.015
       0.632
      -0.072
      -0.854
      -1.387
      -1.463
      -1.104
      -0.506
       0.100
       0.559
       0.804
       0.819
       0.608
       0.216
      -0.243
      -0.587
      -0.640
      -0.354
       0.146
       0.614
       0.826
       0.702
       0.333
      -0.092
      -0.391
      -0.464
      -0.308
      -0.005
       0.312
       0.494
       0.435
       0.122
      -0.345
      -0.797
      -1.084
      -1.143
      -1.000
      -0.703
      -0.262
       0.341
       1.057
       1.682
       1.904
       1.518
       0.629
      -0.342
      -0.919
      -0.891
      -0.429
       0.083
       0.344
       0.308
       0.116
      -0.073
      -0.192
      -0.234
      -0.197
      -0.074
       0.096
       0.218
       0.200
       0.024
      -0.259
      -0.574
      -0.864
      -1.050
      -1.011
      -0.636
       0.058
       0.863
       1.471
       1.657
       1.412
       0.906
       0.338
      -0.190
      -0.667
      -1.062
      -1.256
      -1.109
      -0.606
       0.070
       0.635
       0.883
       0.782
       0.421
      -0.085
      -0.616
      -0.985
      -0.951
      -0.398
       0.467
       1.128
       1.097
       0.326
      -0.713
      -1.376
      -1.340
      -0.791
      -0.178
       0.195
       0.347
       0.457
       0.606
       0.692
       0.577
       0.263
      -0.088
      -0.282
      -0.258
      -0.131
      -0.084
      -0.208
      -0.425
      -0.562
      -0.489
      -0.207
       0.199
       0.632
       1.015
       1.259
       1.242
       0.881
       0.224
      -0.513
      -1.044
      -1.190
      -0.983
      -0.620
      -0.304
      -0.128
      -0.085
      -0.152
      -0.312
      -0.503
      -0.588
      -0.439
      -0.064
       0.366
       0.641
       0.671
       0.526
       0.339
       0.190
       0.065
      -0.077
      -0.224
      -0.288
      -0.183
       0.090
       0.431
       0.717
       0.900
       1.004
       1.046
       0.967
       0.677
       0.163
      -0.453
      -0.977
      -1.262
      -1.271
      -1.052
      -0.673
      -0.199
       0.283
       0.639
       0.723
       0.458
      -0.081
      -0.676
      -1.066
      -1.097
      -0.802
      -0.336
       0.154
       0.605
       0.990
       1.236
       1.230
       0.930
       0.445
      -0.010
      -0.279
      -0.363
      -0.378
      -0.406
      -0.412
      -0.294
      -0.008
       0.362
       0.644
       0.687
       0.432
      -0.076
      -0.703
      -1.230
      -1.405
      -1.073
      -0.341
       0.418
       0.780
       0.565
      -0.026
      -0.567
      -0.706
      -0.375
       0.214
       0.751
       0.994
       0.866
       0.448
      -0.072
      -0.509
      -0.756
      -0.802
      -0.682
      -0.425
      -0.061
       0.351
       0.704
       0.869
       0.770
       0.446
       0.043
      -0.278
      -0.439
      -0.454
      -0.357
      -0.156
       0.132
       0.399
       0.466
       0.210
      -0.277
      -0.705
      -0.790
      -0.475
       0.038
       0.475
       0.676
       0.631
       0.390
       0.011
      -0.388
      -0.595
      -0.429
       0.048
       0.481
       0.467
      -0.067
      -0.742
      -1.010
      -0.622
       0.163
       0.808
       0.949
       0.629
       0.155
      -0.211
      -0.396
      -0.412
      -0.235
       0.142
       0.565
       0.738
       0.478
      -0.065
      -0.480
      -0.444
       0.006
       0.541
       0.846
       0.827
       0.582
       0.225
      -0.191
      -0.621
      -0.970
      -1.134
      -1.071
      -0.826
      -0.477
      -0.099
       0.228
       0.410
       0.390
       0.211
      -0.010
      -0.169
      -0.261
      -0.342
      -0.433
      -0.469
      -0.348
      -0.037
       0.379
       0.750
       0.941
       0.894
       0.628
       0.238
      -0.114
      -0.244
      -0.057
       0.348
       0.693
       0.700
       0.291
      -0.366
      -0.993
      -1.372
      -1.413
      -1.100
      -0.470
       0.341
       1.075
       1.451
       1.338
       0.840
       0.199
      -0.391
      -0.873
      -1.235
      -1.393
      -1.186
      -0.551
       0.325
       1.051
       1.299
       1.044
       0.565
       0.189
       0.036
      -0.006
      -0.087
      -0.219
      -0.297
      -0.258
      -0.169
      -0.129
      -0.127
      -0.044
       0.190
       0.462
       0.567
       0.419
       0.162
       0.019
       0.055
       0.102
      -0.047
      -0.383
      -0.647
      -0.563
      -0.095
       0.506
       0.907
       0.930
       0.621
       0.145
      -0.351
      -0.773
      -1.043
      -1.087
      -0.889
      -0.534
      -0.168
       0.114
       0.328
       0.533
       0.710
       0.731
       0.461
      -0.081
      -0.676
      -1.028
      -0.954
      -0.498
       0.104
       0.571
       0.728
       0.573
       0.248
      -0.054
      -0.190
      -0.121
       0.089
       0.322
       0.465
       0.442
       0.228
      -0.151
      -0.609
      -1.001
      -1.153
      -0.962
      -0.483
       0.084
       0.506
       0.643
       0.490
       0.143
      -0.241
      -0.479
      -0.433
      -0.110
       0.313
       0.601
       0.637
       0.491
       0.306
       0.146
      -0.042
      -0.287
      -0.463
      -0.351
       0.134
       0.783
       1.208
       1.148
       0.659
       0.016
      -0.556
      -1.012
      -1.372
      -1.538
      -1.302
      -0.562
       0.472
       1.344
       1.650
       1.318
       0.628
      -0.031
      -0.456
      -0.710
      -0.956
      -1.201
      -1.218
      -0.741
       0.230
       1.318
       1.991
       1.939
       1.270
       0.357
      -0.462
      -1.046
      -1.360
      -1.333
      -0.894
      -0.161
       0.487
       0.634
       0.185
      -0.509
      -0.910
      -0.714
      -0.059
       0.642
       1.039
       1.037
       0.728
       0.234
      -0.340
      -0.836
      -1.046
      -0.846
      -0.341
       0.176
       0.432
       0.373
       0.145
      -0.075
      -0.217
      -0.293
      -0.293
      -0.164
       0.101
       0.386
       0.513
       0.397
       0.134
      -0.075
      -0.085
       0.083
       0.291
       0.407
       0.386
       0.258
       0.066
      -0.157
      -0.388
      -0.603
      -0.776
      -0.881
      -0.882
      -0.753
      -0.505
      -0.203
       0.067
       0.263
       0.408
       0.551
       0.702
       0.815
       0.830
       0.709
       0.455
       0.121
      -0.179
      -0.285
      -0.063
       0.473
       1.101
       1.470
       1.322
       0.724
       0.083
      -0.152
       0.117
       0.510
       0.470
      -0.259
      -1.392
      -2.338
      -2.675
      -2.441
      -2.004
      -1.697
      -1.555
      -1.366
      -0.925
      -0.236
       0.510
       1.108
       1.498
       1.740
       1.863
       1.763
       1.300
       0.508
      -0.305
      -0.716
      -0.516
       0.107
       0.717
       0.979
       0.889
       0.681
       0.555
       0.494
       0.348
       0.052
      -0.300
      -0.569
      -0.736
      -0.873
      -0.983
      -0.930
      -0.608
      -0.149
       0.101
      -0.101
      -0.609
      -0.952
      -0.727
       0.056
       0.998
       1.646
       1.790
       1.482
       0.876
       0.124
      -0.583
      -0.971
      -0.795
      -0.059
       0.874
       1.444
       1.244
       0.298
      -0.927
      -1.790
      -1.844
      -1.086
       0.059
       0.997
       1.322
       1.037
       0.470
      -0.034
      -0.385
      -0.733
      -1.195
      -1.589
      -1.486
      -0.578
       0.951
       2.409
       3.004
       2.379
       0.860
      -0.741
      -1.610
      -1.375
      -0.262
       1.085
       1.960
       1.915
       0.919
      -0.663
      -2.220
      -3.145
      -3.119
      -2.283
      -1.153
      -0.269
       0.148
       0.266
       0.379
       0.581
       0.702
       0.557
       0.204
      -0.054
       0.044
       0.458
       0.866
       0.932
       0.577
       0.015
      -0.435
      -0.543
      -0.254
       0.313
       0.897
       1.167
       0.877
       0.056
      -0.956
      -1.710
      -1.940
      -1.705
      -1.248
      -0.727
      -0.108
       0.693
       1.551
       2.086
       1.916
       1.024
      -0.120
      -0.862
      -0.861
      -0.361
       0.035
      -0.110
      -0.714
      -1.274
      -1.314
      -0.782
      -0.073
       0.295
       0.088
      -0.481
      -0.915
      -0.797
      -0.080
       0.875
       1.528
       1.495
       0.790
      -0.202
      -0.979
      -1.202
      -0.833
      -0.075
       0.777
       1.462
       1.830
       1.847
       1.553
       0.996
       0.204
      -0.758
      -1.676
      -2.191
      -1.991
      -1.067
       0.201
       1.263
       1.750
       1.662
       1.271
       0.868
       0.603
       0.481
       0.459
       0.487
       0.497
       0.412
       0.203
      -0.056
      -0.242
      -0.290
      -0.250
      -0.226
      -0.262
      -0.291
      -0.205
       0.011
       0.216
       0.208
      -0.085
      -0.491
      -0.703
      -0.530
      -0.070
       0.357
       0.478
       0.265
      -0.091
      -0.386
      -0.546
      -0.591
      -0.530
      -0.352
      -0.113
       0.033
      -0.058
      -0.376
      -0.747
      -0.963
      -0.923
      -0.654
      -0.254
       0.159
       0.451
       0.497
       0.254
      -0.178
      -0.577
      -0.725
      -0.537
      -0.107
       0.357
       0.640
       0.602
       0.227
      -0.364
      -0.950
      -1.306
      -1.312
      -1.003
      -0.528
      -0.073
       0.213
       0.250
       0.055
      -0.251
      -0.480
      -0.475
      -0.222
       0.144
       0.434
       0.548
       0.520
       0.446
       0.381
       0.308
       0.195
       0.059
      -0.030
      -0.012
       0.106
       0.278
       0.487
       0.757
       1.068
       1.290
       1.248
       0.873
       0.287
      -0.286
      -0.679
      -0.840
      -0.781
      -0.505
      -0.023
       0.570
       1.053
       1.157
       0.734
      -0.088
      -0.896
      -1.208
      -0.784
       0.177
       1.153
       1.653
       1.539
       1.044
       0.525
       0.185
       0.005
      -0.115
      -0.229
      -0.318
      -0.375
      -0.439
      -0.554
      -0.693
      -0.748
      -0.604
      -0.233
       0.272
       0.735
       0.984
       0.938
       0.634
       0.191
      -0.271
      -0.665
      -0.925
      -0.993
      -0.858
      -0.611
      -0.415
      -0.372
      -0.420
      -0.375
      -0.113
       0.290
       0.593
       0.564
       0.161
      -0.426
      -0.882
      -0.952
      -0.589
       0.020
       0.573
       0.832
       0.734
       0.375
      -0.088
      -0.502
      -0.731
      -0.650
      -0.197
       0.545
       1.318
       1.780
       1.696
       1.101
       0.297
      -0.346
      -0.644
      -0.690
      -0.706
      -0.799
      -0.856
      -0.677
      -0.220
       0.298
       0.536
       0.293
      -0.341
      -1.036
      -1.430
      -1.328
      -0.780
      -0.028
       0.623
       0.966
       0.971
       0.759
       0.464
       0.138
      -0.219
      -0.540
      -0.655
      -0.412
       0.146
       0.752
       1.093
       1.040
       0.714
       0.331
       0.000
      -0.327
      -0.701
      -1.019
      -1.053
      -0.640
       0.124
       0.911
       1.359
       1.298
       0.813
       0.141
      -0.471
      -0.841
      -0.880
      -0.615
      -0.221
       0.043
      -0.026
      -0.423
      -0.921
      -1.212
      -1.096
      -0.598
       0.064
       0.618
       0.896
       0.908
       0.799
       0.722
       0.723
       0.730
       0.638
       0.393
       0.026
      -0.368
      -0.654
      -0.685
      -0.384
       0.172
       0.740
       1.035
       0.913
       0.470
      -0.055
      -0.467
      -0.734
      -0.923
      -1.056
      -1.052
      -0.820
      -0.388
       0.083
       0.427
       0.595
       0.646
       0.642
       0.578
       0.424
       0.189
      -0.066
      -0.288
      -0.450
      -0.506
      -0.365
       0.041
       0.621
       1.084
       1.089
       0.494
      -0.506
      -1.479
      -2.009
      -1.920
      -1.307
      -0.440
       0.381
       0.913
       1.033
       0.781
       0.352
      -0.016
      -0.205
      -0.293
      -0.426
      -0.610
      -0.648
      -0.310
       0.406
       1.196
       1.636
       1.496
       0.889
       0.155
      -0.411
      -0.717
      -0.823
      -0.779
      -0.562
      -0.168
       0.279
       0.554
       0.508
       0.222
      -0.042
      -0.066
       0.140
       0.358
       0.355
       0.063
      -0.411
      -0.869
      -1.109
      -0.974
      -0.434
       0.354
       1.058
       1.365
       1.192
       0.744
       0.329
       0.119
       0.070
       0.051
       0.004
      -0.036
      -0.027
       0.024
       0.071
       0.080
       0.024
      -0.118
      -0.345
      -0.602
      -0.794
      -0.849
      -0.764
      -0.586
      -0.359
      -0.098
       0.184
       0.434
       0.572
       0.546
       0.376
       0.129
      -0.137
      -0.379
      -0.534
      -0.517
      -0.295
       0.043
       0.311
       0.355
       0.170
      -0.102
      -0.282
      -0.269
      -0.079
       0.188
       0.406
       0.483
       0.393
       0.180
      -0.068
      -0.254
      -0.305
