Origin Time       22/9/2011 16:44:43	 UTC
Lat.              27.6 N	
Long.             88.4 E	
Depth (Km)         30.0
Magnitude         3.9
 Region           Sikkim                                                           
 Above details taken from IMD 
    
Station Code      GTK
Station Lat.       27.352  N
Station Long.      88.627  E
Station Height(m) 1536.0
Site Class        A   Vs30 between 700 m/sec to 1400 m/sec * 
Record Time       22.09.2011 16:45:18.214 UTC
Sampling Rate     200. Hz
 Record Duration   80.150 Sec.
 Direction         N-S (N positive)
Max. Acceleration     -4.592 cm/sec**2
     
  * For reference see Site Classification link of website 
     
 Base Line Corrected and Low Pass Filtered (Cut Off at 35 Hz) Time History
 Acceleration data in cm/sec**2
    
[...]
       0.000
      -0.003
      -0.007
      -0.008
      -0.005
      -0.001
      -0.001
      -0.004
      -0.007
      -0.007
      -0.004
      -0.002
      -0.005
      -0.017
      -0.033
      -0.047
      -0.052
      -0.049
      -0.040
      -0.029
      -0.018
      -0.004
       0.011
       0.019
       0.010
      -0.020
      -0.064
      -0.107
      -0.134
      -0.133
      -0.099
      -0.032
       0.060
       0.167
       0.269
       0.346
       0.376
       0.342
       0.240
       0.083
      -0.102
      -0.286
      -0.444
      -0.560
      -0.618
      -0.594
      -0.468
      -0.237
       0.062
       0.359
       0.574
       0.657
       0.604
       0.448
       0.237
       0.006
      -0.220
      -0.413
      -0.538
      -0.556
      -0.453
      -0.249
       0.001
       0.232
       0.396
       0.482
       0.511
       0.516
       0.512
       0.483
       0.402
       0.255
       0.063
      -0.128
      -0.265
      -0.310
      -0.255
      -0.123
       0.047
       0.214
       0.341
       0.399
       0.378
       0.288
       0.161
       0.030
      -0.084
      -0.171
      -0.234
      -0.279
      -0.312
      -0.333
      -0.340
      -0.329
      -0.306
      -0.278
      -0.240
      -0.180
      -0.094
      -0.007
       0.037
       0.006
      -0.090
      -0.201
      -0.265
      -0.242
      -0.134
       0.022
       0.174
       0.282
       0.336
       0.342
       0.311
       0.250
       0.168
       0.090
       0.044
       0.040
       0.057
       0.070
       0.076
       0.100
       0.169
       0.273
       0.364
       0.380
       0.292
       0.125
      -0.057
      -0.193
      -0.257
      -0.264
      -0.240
      -0.197
      -0.134
      -0.055
       0.018
       0.053
       0.033
      -0.023
      -0.076
      -0.086
      -0.043
       0.026
       0.081
       0.096
       0.077
       0.059
       0.072
       0.124
       0.191
       0.231
       0.211
       0.119
      -0.030
      -0.206
      -0.373
      -0.505
      -0.584
      -0.596
      -0.537
      -0.412
      -0.246
      -0.082
       0.031
       0.058
      -0.002
      -0.109
      -0.196
      -0.208
      -0.131
       0.005
       0.141
       0.230
       0.256
       0.229
       0.171
       0.104
       0.049
       0.034
       0.082
       0.194
       0.339
       0.459
       0.500
       0.443
       0.317
       0.174
       0.066
       0.015
       0.021
       0.063
       0.117
       0.154
       0.149
       0.088
      -0.018
      -0.137
      -0.224
      -0.247
      -0.203
      -0.126
      -0.063
      -0.045
      -0.071
      -0.107
      -0.118
      -0.091
      -0.046
      -0.014
      -0.019
      -0.059
      -0.114
      -0.163
      -0.193
      -0.200
      -0.175
      -0.103
       0.030
       0.218
       0.415
       0.555
       0.576
       0.459
       0.238
      -0.024
      -0.266
      -0.452
      -0.565
      -0.600
      -0.561
      -0.462
      -0.327
      -0.177
      -0.027
       0.113
       0.235
       0.329
       0.385
       0.400
       0.371
       0.295
       0.170
       0.007
      -0.156
      -0.259
      -0.249
      -0.111
       0.120
       0.375
       0.584
       0.703
       0.729
       0.684
       0.595
       0.473
       0.309
       0.096
      -0.151
      -0.384
      -0.542
      -0.578
      -0.492
      -0.325
      -0.133
       0.033
       0.139
       0.160
       0.079
      -0.097
      -0.325
      -0.539
      -0.676
      -0.708
      -0.643
      -0.512
      -0.345
      -0.163
       0.009
       0.142
       0.210
       0.214
       0.186
       0.174
       0.211
       0.284
       0.342
       0.327
       0.222
       0.064
      -0.067
      -0.101
      -0.020
       0.137
       0.299
       0.410
       0.446
       0.414
       0.325
       0.190
       0.027
      -0.130
      -0.241
      -0.278
      -0.245
      -0.183
      -0.139
      -0.146
      -0.205
      -0.285
      -0.346
      -0.354
      -0.294
      -0.169
      -0.004
       0.163
       0.280
       0.307
       0.238
       0.107
      -0.021
      -0.089
      -0.074
       0.000
       0.078
       0.108
       0.069
      -0.018
      -0.104
      -0.139
      -0.094
       0.027
       0.197
       0.369
       0.493
       0.532
       0.474
       0.335
       0.144
      -0.063
      -0.253
      -0.390
      -0.452
      -0.434
      -0.354
      -0.245
      -0.133
      -0.030
       0.065
       0.157
       0.237
       0.287
       0.285
       0.228
       0.132
       0.025
      -0.068
      -0.135
      -0.168
      -0.164
      -0.123
      -0.049
       0.051
       0.159
       0.246
       0.271
       0.205
       0.045
      -0.168
      -0.369
      -0.493
      -0.499
      -0.387
      -0.188
       0.045
       0.262
       0.422
       0.501
       0.494
       0.410
       0.274
       0.114
      -0.041
      -0.172
      -0.272
      -0.347
      -0.402
      -0.432
      -0.427
      -0.375
      -0.274
      -0.131
       0.040
       0.220
       0.378
       0.474
       0.473
       0.362
       0.171
      -0.043
      -0.212
      -0.292
      -0.281
      -0.210
      -0.127
      -0.063
      -0.022
       0.014
       0.067
       0.138
       0.207
       0.243
       0.226
       0.164
       0.090
       0.033
       0.005
      -0.004
      -0.015
      -0.039
      -0.074
      -0.106
      -0.126
      -0.133
      -0.133
      -0.129
      -0.116
      -0.081
      -0.017
       0.065
       0.142
       0.190
       0.198
       0.176
       0.142
       0.110
       0.079
       0.033
      -0.037
      -0.123
      -0.193
      -0.217
      -0.183
      -0.104
      -0.007
       0.085
       0.156
       0.196
       0.197
       0.159
       0.084
      -0.014
      -0.117
      -0.200
      -0.249
      -0.263
      -0.254
      -0.232
      -0.195
      -0.135
      -0.059
       0.012
       0.057
       0.067
       0.058
       0.053
       0.066
       0.092
       0.118
       0.129
       0.129
       0.131
       0.149
       0.185
       0.222
       0.241
       0.227
       0.182
       0.112
       0.027
      -0.067
      -0.160
      -0.237
      -0.276
      -0.260
      -0.188
      -0.081
       0.025
       0.099
       0.133
       0.147
       0.158
       0.164
       0.144
       0.079
      -0.023
      -0.131
      -0.207
      -0.229
      -0.199
      -0.140
      -0.074
      -0.017
       0.026
       0.061
       0.091
       0.113
       0.119
       0.104
       0.077
       0.059
       0.063
       0.086
       0.101
       0.085
       0.031
      -0.044
      -0.112
      -0.153
      -0.169
      -0.172
      -0.170
      -0.167
      -0.155
      -0.131
      -0.097
      -0.061
      -0.029
      -0.001
       0.024
       0.048
       0.071
       0.089
       0.101
       0.109
       0.115
       0.116
       0.101
       0.058
      -0.013
      -0.088
      -0.129
      -0.112
      -0.044
       0.040
       0.099
       0.113
       0.092
       0.068
       0.066
       0.086
       0.103
       0.085
       0.025
      -0.055
      -0.121
      -0.151
      -0.149
      -0.126
      -0.086
      -0.023
       0.058
       0.136
       0.169
       0.132
       0.031
      -0.094
      -0.195
      -0.243
      -0.239
      -0.200
      -0.147
      -0.092
      -0.038
       0.014
       0.057
       0.078
       0.070
       0.041
       0.014
       0.014
       0.043
       0.082
       0.102
       0.092
       0.061
       0.026
       0.001
      -0.010
      -0.002
       0.027
       0.074
       0.119
       0.136
       0.109
       0.049
      -0.013
      -0.044
      -0.036
      -0.002
       0.041
       0.080
       0.112
       0.128
       0.118
       0.082
       0.038
       0.016
       0.037
       0.090
       0.145
       0.168
       0.147
       0.088
       0.006
      -0.082
      -0.160
      -0.212
      -0.224
      -0.189
      -0.119
      -0.038
       0.020
       0.030
      -0.010
      -0.075
      -0.123
      -0.123
      -0.072
       0.006
       0.079
       0.126
       0.139
       0.120
       0.073
       0.005
      -0.060
      -0.096
      -0.091
      -0.061
      -0.034
      -0.028
      -0.029
      -0.008
       0.049
       0.122
       0.170
       0.163
       0.112
       0.057
       0.036
       0.055
       0.082
       0.073
       0.005
      -0.104
      -0.210
      -0.271
      -0.273
      -0.232
      -0.179
      -0.131
      -0.084
      -0.020
       0.062
       0.138
       0.166
       0.120
       0.015
      -0.099
      -0.164
      -0.149
      -0.065
       0.044
       0.130
       0.162
       0.140
       0.084
       0.020
      -0.035
      -0.075
      -0.096
      -0.092
      -0.059
      -0.004
       0.052
       0.078
       0.054
      -0.008
      -0.064
      -0.070
      -0.012
       0.075
       0.137
       0.136
       0.074
      -0.021
      -0.117
      -0.197
      -0.252
      -0.270
      -0.228
      -0.118
       0.044
       0.212
       0.325
       0.343
       0.267
       0.140
       0.017
      -0.074
      -0.138
      -0.190
      -0.224
      -0.207
      -0.111
       0.047
       0.202
       0.285
       0.270
       0.188
       0.102
       0.056
       0.048
       0.048
       0.033
       0.012
       0.012
       0.047
       0.100
       0.132
       0.113
       0.043
      -0.052
      -0.134
      -0.177
      -0.181
      -0.170
      -0.168
      -0.182
      -0.192
      -0.170
      -0.099
       0.010
       0.122
       0.199
       0.221
       0.194
       0.135
       0.060
      -0.026
      -0.113
      -0.178
      -0.190
      -0.132
      -0.021
       0.101
       0.191
       0.227
       0.204
       0.132
       0.030
      -0.065
      -0.113
      -0.096
      -0.031
       0.042
       0.094
       0.120
       0.129
       0.122
       0.085
       0.006
      -0.108
      -0.217
      -0.271
      -0.241
      -0.141
      -0.022
       0.066
       0.101
       0.101
       0.093
       0.096
       0.104
       0.098
       0.065
       0.011
      -0.047
      -0.093
      -0.125
      -0.153
      -0.181
      -0.194
      -0.171
      -0.103
      -0.005
       0.088
       0.147
       0.159
       0.119
       0.030
      -0.094
      -0.219
      -0.294
      -0.270
      -0.144
       0.030
       0.164
       0.191
       0.107
      -0.031
      -0.140
      -0.157
      -0.071
       0.072
       0.200
       0.252
       0.214
       0.118
       0.016
      -0.054
      -0.085
      -0.086
      -0.073
      -0.059
      -0.057
      -0.080
      -0.133
      -0.206
      -0.271
      -0.292
      -0.239
      -0.108
       0.071
       0.239
       0.334
       0.319
       0.212
       0.076
      -0.014
      -0.017
       0.051
       0.138
       0.189
       0.182
       0.132
       0.067
       0.002
      -0.062
      -0.124
      -0.173
      -0.187
      -0.153
      -0.079
       0.002
       0.045
       0.027
      -0.034
      -0.092
      -0.106
      -0.066
       0.003
       0.064
       0.089
       0.075
       0.039
       0.003
      -0.008
       0.015
       0.069
       0.131
       0.165
       0.141
       0.052
      -0.074
      -0.188
      -0.242
      -0.219
      -0.137
      -0.039
       0.034
       0.058
       0.035
      -0.015
      -0.062
      -0.077
      -0.039
       0.063
       0.215
       0.381
       0.500
       0.515
       0.398
       0.179
      -0.069
      -0.266
      -0.366
      -0.371
      -0.315
      -0.232
      -0.147
      -0.078
      -0.051
      -0.079
      -0.143
      -0.190
      -0.165
      -0.056
       0.087
       0.192
       0.216
       0.173
       0.115
       0.088
       0.100
       0.130
       0.148
       0.142
       0.118
       0.081
       0.027
      -0.055
      -0.165
      -0.271
      -0.320
      -0.270
      -0.118
       0.086
       0.264
       0.356
       0.344
       0.252
       0.122
      -0.015
      -0.140
      -0.245
      -0.325
      -0.372
      -0.382
      -0.357
      -0.305
      -0.234
      -0.149
      -0.050
       0.064
       0.177
       0.264
       0.293
       0.250
       0.136
      -0.031
      -0.225
      -0.409
      -0.541
      -0.583
      -0.521
      -0.369
      -0.167
       0.043
       0.226
       0.369
       0.467
       0.524
       0.535
       0.484
       0.357
       0.157
      -0.078
      -0.281
      -0.383
      -0.352
      -0.208
      -0.011
       0.168
       0.285
       0.326
       0.302
       0.225
       0.113
      -0.006
      -0.103
      -0.156
      -0.172
      -0.178
      -0.197
      -0.218
      -0.217
      -0.181
      -0.132
      -0.096
      -0.065
       0.004
       0.152
       0.362
       0.554
       0.640
       0.585
       0.422
       0.225
       0.058
      -0.064
      -0.170
      -0.307
      -0.498
      -0.709
      -0.855
      -0.834
      -0.579
      -0.093
       0.556
       1.266
       1.941
       2.514
       2.956
       3.256
       3.415
       3.435
       3.325
       3.088
       2.723
       2.213
       1.551
       0.757
      -0.100
      -0.924
      -1.637
      -2.229
      -2.750
      -3.261
      -3.771
      -4.220
      -4.515
      -4.592
      -4.464
      -4.207
      -3.913
      -3.631
      -3.329
      -2.914
      -2.281
      -1.377
      -0.234
       1.039
       2.282
       3.314
       3.953
       4.055
       3.565
       2.568
       1.290
       0.023
      -0.972
      -1.556
      -1.726
      -1.590
      -1.307
      -1.011
      -0.745
      -0.439
       0.025
       0.727
       1.632
       2.579
       3.337
       3.686
       3.497
       2.759
       1.590
       0.201
      -1.158
      -2.253
      -2.910
      -3.029
      -2.584
      -1.644
      -0.407
       0.817
       1.676
       1.914
       1.474
       0.531
      -0.596
      -1.582
      -2.223
      -2.475
      -2.411
      -2.135
      -1.724
      -1.222
      -0.676
      -0.164
       0.222
       0.417
       0.426
       0.331
       0.256
       0.311
       0.539
       0.904
       1.327
       1.726
       2.057
       2.313
       2.504
       2.641
       2.729
       2.760
       2.694
       2.441
       1.886
       0.954
      -0.306
      -1.681
      -2.857
      -3.531
      -3.542
      -2.940
      -1.961
      -0.918
      -0.081
       0.425
       0.633
       0.680
       0.716
       0.824
       0.992
       1.157
       1.253
       1.239
       1.095
       0.800
       0.345
      -0.237
      -0.859
      -1.401
      -1.771
      -1.946
      -1.969
      -1.903
      -1.776
      -1.572
      -1.270
      -0.888
      -0.490
      -0.147
       0.107
       0.283
       0.413
       0.507
       0.550
       0.516
       0.396
       0.214
       0.013
      -0.162
      -0.276
      -0.312
      -0.262
      -0.131
       0.072
       0.328
       0.606
       0.857
       1.026
       1.080
       1.038
       0.974
       0.979
       1.110
       1.343
       1.582
       1.687
       1.539
       1.080
       0.356
      -0.485
      -1.231
      -1.678
      -1.722
      -1.405
      -0.894
      -0.397
      -0.058
       0.093
       0.130
       0.165
       0.280
       0.494
       0.764
       1.011
       1.134
       1.035
       0.657
       0.032
      -0.699
      -1.329
      -1.676
      -1.684
      -1.446
      -1.146
      -0.942
      -0.878
      -0.875
      -0.800
      -0.563
      -0.171
       0.281
       0.671
       0.905
       0.944
       0.799
       0.508
       0.136
      -0.224
      -0.462
      -0.493
      -0.312
       0.003
       0.338
       0.616
       0.827
       1.000
       1.134
       1.178
       1.048
       0.694
       0.149
      -0.473
      -1.020
      -1.374
      -1.489
      -1.388
      -1.129
      -0.767
      -0.356
       0.044
       0.363
       0.535
       0.528
       0.361
       0.096
      -0.190
      -0.441
      -0.627
      -0.732
      -0.732
      -0.590
      -0.283
       0.174
       0.705
       1.191
       1.506
       1.563
       1.349
       0.921
       0.377
      -0.189
      -0.712
      -1.161
      -1.505
      -1.695
      -1.672
      -1.403
      -0.914
      -0.293
       0.340
       0.872
       1.215
       1.324
       1.201
       0.901
       0.520
       0.165
      -0.097
      -0.250
      -0.320
      -0.329
      -0.269
      -0.116
       0.132
       0.418
       0.645
       0.731
       0.660
       0.486
       0.276
       0.060
      -0.180
      -0.467
      -0.785
      -1.069
      -1.238
      -1.246
      -1.103
      -0.849
      -0.520
      -0.140
       0.263
       0.629
       0.869
       0.901
       0.704
       0.337
      -0.077
      -0.415
      -0.619
      -0.703
      -0.717
      -0.691
      -0.607
      -0.435
      -0.179
       0.106
       0.346
       0.490
       0.542
       0.539
       0.520
       0.500
       0.476
       0.441
       0.384
       0.288
       0.123
      -0.125
      -0.426
      -0.700
      -0.849
      -0.814
      -0.614
      -0.339
      -0.107
       0.007
       0.004
      -0.038
      -0.023
       0.104
       0.336
       0.617
       0.888
       1.110
       1.269
       1.357
       1.367
       1.289
       1.122
       0.869
       0.538
       0.153
      -0.248
      -0.614
      -0.901
      -1.083
      -1.152
      -1.117
      -0.995
      -0.813
      -0.602
      -0.388
      -0.182
       0.016
       0.198
       0.335
       0.375
       0.270
       0.022
      -0.295
      -0.557
      -0.658
      -0.566
      -0.342
      -0.103
       0.048
       0.061
      -0.044
      -0.212
      -0.377
      -0.491
      -0.527
      -0.483
      -0.371
      -0.213
      -0.048
       0.080
       0.135
       0.107
       0.032
      -0.027
      -0.015
       0.082
       0.227
       0.355
       0.411
       0.375
       0.271
       0.144
       0.047
       0.037
       0.165
       0.447
       0.835
       1.205
       1.405
       1.324
       0.946
       0.356
      -0.303
      -0.889
      -1.284
      -1.414
      -1.260
      -0.869
      -0.353
       0.145
       0.506
       0.686
       0.717
       0.667
       0.588
       0.488
       0.340
       0.129
      -0.131
      -0.387
      -0.578
      -0.658
      -0.614
      -0.468
      -0.263
      -0.046
       0.149
       0.301
       0.397
       0.429
       0.389
       0.277
       0.106
      -0.091
      -0.262
      -0.355
      -0.326
      -0.165
       0.089
       0.353
       0.531
       0.563
       0.452
       0.261
       0.071
      -0.060
      -0.121
      -0.132
      -0.118
      -0.092
      -0.065
      -0.050
      -0.074
      -0.153
      -0.279
      -0.421
      -0.550
      -0.653
      -0.732
      -0.785
      -0.794
      -0.736
      -0.602
      -0.406
      -0.170
       0.084
       0.329
       0.530
       0.645
       0.652
       0.575
       0.475
