Origin Time       03/06/2011 00:53:21
Lat.              27.5 N	
Long.             88.0 E	
Depth (Km)         26.0
Magnitude         4.9
Region            India(Sikkim)-Nepar-Border                                       
 Above details taken from IMD 
   
Station Code      GTK
Station Lat.       27.352
Station Long.      88.627
Station Height(m) 1536.0
Site Class        A   Vs30 between 700 m/sec to 1620 m/sec * 
Record Time       03.06.2011 00:53:55.534
Sampling Rate     200. Hz
Record Duration   101.160 Sec.
Direction         Vert. (Up positi
Max. Acceleration      6.365 cm/sec**2
     
  * For reference see Site Classification link of website 
     
 Base Line Corrected and Low Pass Filtered (Cut Off at 35 Hz) Time History
 Acceleration data in cm/sec**2
    
[...]
       0.006
       0.010
       0.012
       0.009
       0.002
      -0.006
      -0.013
      -0.016
      -0.014
      -0.009
      -0.006
      -0.007
      -0.010
      -0.010
      -0.004
       0.004
       0.011
       0.013
       0.010
       0.005
       0.001
       0.000
       0.001
       0.003
       0.003
       0.002
      -0.001
      -0.002
       0.000
       0.005
       0.009
       0.009
       0.005
      -0.001
      -0.004
      -0.002
       0.005
       0.011
       0.013
       0.011
       0.005
      -0.001
      -0.005
      -0.005
      -0.002
       0.002
       0.006
       0.007
       0.005
      -0.001
      -0.007
      -0.009
      -0.005
       0.002
       0.010
       0.015
       0.014
       0.010
       0.005
       0.001
      -0.001
      -0.002
      -0.002
      -0.002
      -0.001
       0.001
       0.005
       0.008
       0.008
       0.006
       0.003
       0.003
       0.006
       0.009
       0.010
       0.007
       0.003
       0.000
      -0.001
      -0.001
       0.000
       0.001
       0.001
      -0.001
      -0.005
      -0.008
      -0.008
      -0.004
       0.002
       0.007
       0.007
       0.002
      -0.005
      -0.011
      -0.013
      -0.011
      -0.007
      -0.003
       0.001
       0.004
       0.007
       0.009
       0.012
       0.013
       0.011
       0.008
       0.006
       0.006
       0.007
       0.008
       0.008
       0.010
       0.014
       0.018
       0.018
       0.014
       0.007
       0.004
       0.005
       0.011
       0.015
       0.015
       0.009
       0.002
      -0.003
      -0.003
       0.000
       0.004
       0.008
       0.011
       0.012
       0.012
       0.009
       0.004
       0.000
      -0.005
      -0.009
      -0.013
      -0.015
      -0.012
      -0.004
       0.004
       0.009
       0.009
       0.006
       0.005
       0.006
       0.006
       0.003
      -0.002
      -0.004
      -0.001
       0.004
       0.008
       0.009
       0.005
       0.001
      -0.001
       0.001
       0.004
       0.006
       0.005
       0.002
       0.000
       0.001
       0.005
       0.008
       0.006
       0.000
      -0.005
      -0.005
      -0.001
       0.007
       0.014
       0.018
       0.018
       0.015
       0.012
       0.009
       0.007
       0.006
       0.006
       0.006
       0.007
       0.010
       0.012
       0.013
       0.011
       0.007
       0.004
       0.002
       0.005
       0.009
       0.013
       0.011
       0.004
      -0.005
      -0.007
      -0.002
       0.006
       0.010
       0.005
      -0.004
      -0.011
      -0.011
      -0.005
       0.003
       0.010
       0.015
       0.016
       0.015
       0.013
       0.009
       0.007
       0.009
       0.014
       0.017
       0.015
       0.010
       0.004
       0.002
       0.002
       0.002
      -0.001
      -0.003
      -0.004
      -0.002
       0.002
       0.006
       0.008
       0.008
       0.009
       0.009
       0.009
       0.008
       0.007
       0.006
       0.004
       0.001
      -0.002
      -0.006
      -0.008
      -0.006
      -0.002
       0.001
       0.003
       0.002
       0.001
       0.001
       0.002
       0.003
       0.002
      -0.002
      -0.006
      -0.008
      -0.007
      -0.004
       0.000
       0.003
       0.004
       0.003
       0.003
       0.004
       0.005
       0.003
      -0.002
      -0.008
      -0.014
      -0.015
      -0.012
      -0.008
      -0.006
      -0.005
      -0.006
      -0.006
      -0.002
       0.003
       0.008
       0.008
       0.005
       0.000
      -0.004
      -0.005
      -0.003
      -0.002
      -0.002
      -0.003
      -0.004
      -0.002
       0.001
       0.003
       0.001
      -0.004
      -0.008
      -0.009
      -0.007
      -0.006
      -0.008
      -0.010
      -0.010
      -0.006
       0.000
       0.004
       0.005
       0.005
       0.005
       0.006
       0.007
       0.008
       0.007
       0.004
      -0.001
      -0.006
      -0.011
      -0.015
      -0.017
      -0.017
      -0.013
      -0.008
      -0.005
      -0.005
      -0.006
      -0.003
       0.003
       0.009
       0.012
       0.011
       0.008
       0.004
       0.001
      -0.001
      -0.001
       0.001
       0.004
       0.007
       0.009
       0.010
       0.008
       0.004
       0.001
      -0.002
      -0.004
      -0.004
      -0.001
       0.004
       0.007
       0.006
      -0.001
      -0.012
      -0.019
      -0.019
      -0.011
       0.000
       0.008
       0.011
       0.009
       0.003
      -0.002
      -0.007
      -0.010
      -0.010
      -0.007
      -0.005
      -0.006
      -0.008
      -0.008
      -0.003
       0.005
       0.013
       0.015
       0.011
       0.006
       0.003
       0.004
       0.008
       0.012
       0.014
       0.014
       0.012
       0.010
       0.006
       0.002
      -0.005
      -0.010
      -0.009
      -0.003
       0.006
       0.013
       0.013
       0.009
       0.005
       0.000
      -0.005
      -0.010
      -0.011
      -0.007
       0.001
       0.007
       0.006
       0.001
      -0.004
      -0.006
      -0.004
      -0.002
      -0.001
      -0.001
       0.000
       0.003
       0.005
       0.004
       0.003
       0.002
       0.002
       0.004
       0.004
       0.002
       0.000
       0.001
       0.005
       0.009
       0.009
       0.004
      -0.001
      -0.003
       0.000
       0.006
       0.009
       0.007
       0.001
      -0.003
      -0.002
       0.003
       0.007
       0.008
       0.005
       0.004
       0.005
       0.009
       0.011
       0.009
       0.007
       0.007
       0.009
       0.010
       0.009
       0.005
       0.004
       0.006
       0.008
       0.007
       0.002
      -0.005
      -0.010
      -0.010
      -0.003
       0.007
       0.016
       0.020
       0.016
       0.006
      -0.004
      -0.012
      -0.012
      -0.006
       0.005
       0.017
       0.027
       0.034
       0.034
       0.026
       0.012
       0.001
      -0.003
       0.002
       0.008
       0.011
       0.011
       0.009
       0.009
       0.010
       0.009
       0.008
       0.008
       0.009
       0.009
       0.008
       0.005
       0.004
       0.007
       0.011
       0.015
       0.017
       0.018
       0.018
       0.017
       0.013
       0.007
       0.000
      -0.004
      -0.003
       0.003
       0.012
       0.016
       0.014
       0.005
      -0.004
      -0.006
       0.000
       0.009
       0.017
       0.017
       0.011
       0.003
       0.000
       0.002
       0.007
       0.011
       0.012
       0.006
      -0.004
      -0.013
      -0.017
      -0.012
       0.000
       0.014
       0.023
       0.025
       0.021
       0.012
       0.005
       0.002
       0.007
       0.014
       0.018
       0.015
       0.007
      -0.002
      -0.006
      -0.003
       0.004
       0.010
       0.010
       0.005
      -0.001
      -0.002
       0.001
       0.005
       0.006
       0.004
       0.002
       0.000
       0.001
       0.003
       0.004
       0.003
       0.002
       0.001
       0.003
       0.006
       0.010
       0.012
       0.011
       0.006
      -0.001
      -0.005
      -0.005
      -0.001
       0.003
       0.004
       0.002
       0.000
       0.000
       0.000
      -0.002
      -0.005
      -0.007
      -0.007
      -0.006
      -0.006
      -0.007
      -0.006
      -0.001
       0.006
       0.013
       0.017
       0.018
       0.016
       0.013
       0.008
       0.000
      -0.008
      -0.012
      -0.010
      -0.004
       0.003
       0.005
       0.002
      -0.003
      -0.005
      -0.001
       0.007
       0.013
       0.014
       0.007
      -0.002
      -0.008
      -0.006
       0.001
       0.007
       0.008
       0.005
       0.001
      -0.001
       0.000
       0.001
       0.002
       0.003
       0.006
       0.010
       0.013
       0.014
       0.013
       0.011
       0.008
       0.008
       0.010
       0.012
       0.014
       0.014
       0.014
       0.013
       0.011
       0.008
       0.005
       0.004
       0.004
       0.004
       0.001
      -0.004
      -0.009
      -0.012
      -0.012
      -0.008
       0.000
       0.012
       0.021
       0.025
       0.019
       0.009
      -0.001
      -0.007
      -0.009
      -0.008
      -0.006
      -0.002
       0.003
       0.006
       0.006
       0.003
       0.000
       0.002
       0.007
       0.014
       0.017
       0.016
       0.012
       0.007
       0.002
       0.000
       0.001
       0.003
       0.004
       0.004
       0.002
      -0.002
      -0.007
      -0.008
      -0.006
      -0.001
       0.003
       0.004
       0.003
       0.003
       0.005
       0.007
       0.008
       0.010
       0.012
       0.015
       0.016
       0.012
       0.003
      -0.008
      -0.015
      -0.017
      -0.011
      -0.003
       0.005
       0.006
       0.002
      -0.004
      -0.007
      -0.004
       0.002
       0.007
       0.011
       0.011
       0.008
       0.003
      -0.002
      -0.003
      -0.002
       0.000
       0.002
       0.001
      -0.001
      -0.002
      -0.001
       0.000
       0.000
      -0.002
      -0.004
      -0.003
       0.000
       0.003
       0.004
       0.002
       0.001
       0.003
       0.007
       0.010
       0.010
       0.009
       0.009
       0.008
       0.008
       0.006
       0.004
       0.002
       0.000
      -0.001
      -0.001
      -0.001
      -0.001
       0.001
       0.005
       0.011
       0.016
       0.016
       0.012
       0.003
      -0.006
      -0.011
      -0.010
      -0.003
       0.005
       0.009
       0.006
      -0.001
      -0.008
      -0.010
      -0.005
       0.004
       0.013
       0.017
       0.014
       0.008
       0.001
      -0.003
      -0.004
      -0.005
      -0.006
      -0.006
      -0.006
      -0.002
       0.004
       0.009
       0.011
       0.009
       0.005
       0.001
       0.000
       0.001
       0.003
       0.005
       0.009
       0.012
       0.012
       0.009
       0.004
       0.001
       0.002
       0.003
       0.003
       0.000
      -0.003
      -0.003
      -0.001
       0.001
       0.002
       0.002
       0.002
       0.002
       0.002
       0.001
       0.002
       0.005
       0.009
       0.013
       0.012
       0.007
       0.001
      -0.002
      -0.001
       0.003
       0.008
       0.012
       0.014
       0.015
       0.013
       0.009
       0.004
       0.004
       0.008
       0.015
       0.018
       0.016
       0.010
       0.001
      -0.006
      -0.008
      -0.004
       0.006
       0.016
       0.022
       0.020
       0.014
       0.007
       0.003
       0.002
       0.003
       0.004
       0.005
       0.003
       0.000
      -0.004
      -0.005
      -0.003
       0.001
       0.005
       0.008
       0.009
       0.009
       0.008
       0.006
       0.003
       0.000
       0.000
       0.002
       0.005
       0.006
       0.008
       0.009
       0.010
       0.012
       0.014
       0.020
       0.028
       0.036
       0.042
       0.047
       0.053
       0.062
       0.072
       0.084
       0.097
       0.114
       0.134
       0.155
       0.177
       0.201
       0.230
       0.266
       0.305
       0.340
       0.364
       0.372
       0.363
       0.339
       0.302
       0.257
       0.208
       0.159
       0.112
       0.063
       0.007
      -0.057
      -0.127
      -0.195
      -0.245
      -0.261
      -0.228
      -0.143
      -0.015
       0.141
       0.306
       0.466
       0.607
       0.714
       0.768
       0.753
       0.662
       0.502
       0.287
       0.034
      -0.243
      -0.531
      -0.818
      -1.092
      -1.345
      -1.573
      -1.766
      -1.911
      -1.988
      -1.976
      -1.864
      -1.651
      -1.336
      -0.917
      -0.383
       0.272
       1.032
       1.850
       2.647
       3.328
       3.802
       4.013
       3.952
       3.660
       3.218
       2.705
       2.167
       1.594
       0.929
       0.104
      -0.917
      -2.104
      -3.354
      -4.509
      -5.385
      -5.823
      -5.743
      -5.183
      -4.297
      -3.309
      -2.431
      -1.795
      -1.414
      -1.189
      -0.947
      -0.500
       0.287
       1.426
       2.774
       4.060
       4.987
       5.347
       5.111
       4.430
       3.547
       2.674
       1.915
       1.250
       0.608
      -0.064
      -0.747
      -1.366
      -1.829
      -2.074
      -2.101
      -1.976
      -1.797
      -1.657
      -1.595
      -1.577
      -1.522
      -1.351
      -1.049
      -0.691
      -0.413
      -0.344
      -0.522
      -0.871
      -1.231
      -1.438
      -1.386
      -1.055
      -0.489
       0.228
       1.007
       1.753
       2.376
       2.805
       3.008
       3.006
       2.867
       2.675
       2.502
       2.380
       2.296
       2.185
       1.946
       1.468
       0.680
      -0.406
      -1.685
      -2.974
      -4.079
      -4.845
      -5.194
      -5.133
      -4.734
      -4.110
      -3.396
      -2.713
      -2.127
      -1.619
      -1.078
      -0.354
       0.664
       1.979
       3.462
       4.874
       5.925
       6.365
       6.083
       5.171
       3.918
       2.688
       1.760
       1.212
       0.925
       0.676
       0.254
      -0.458
      -1.451
      -2.592
      -3.651
      -4.362
      -4.525
      -4.098
      -3.208
      -2.085
      -0.949
       0.063
       0.900
       1.552
       2.011
       2.258
       2.273
       2.050
       1.615
       1.044
       0.466
       0.026
      -0.182
      -0.177
      -0.096
      -0.116
      -0.361
      -0.825
      -1.386
      -1.863
      -2.101
      -2.017
      -1.606
      -0.937
      -0.139
       0.635
       1.254
       1.656
       1.842
       1.840
       1.671
       1.358
       0.966
       0.604
       0.363
       0.244
       0.143
      -0.086
      -0.519
      -1.111
      -1.713
      -2.143
      -2.264
      -2.029
      -1.495
      -0.792
      -0.079
       0.516
       0.926
       1.153
       1.244
       1.266
       1.269
       1.269
       1.250
       1.178
       1.036
       0.832
       0.588
       0.318
       0.016
      -0.333
      -0.729
      -1.143
      -1.522
      -1.812
      -1.976
      -2.013
      -1.948
      -1.818
      -1.652
      -1.464
      -1.262
      -1.055
      -0.833
      -0.560
      -0.189
       0.288
       0.808
       1.261
       1.566
       1.721
       1.776
       1.753
       1.622
       1.352
       0.984
       0.634
       0.410
       0.335
       0.352
       0.381
       0.373
       0.301
       0.143
      -0.091
      -0.337
      -0.491
      -0.484
      -0.334
      -0.137
       0.007
       0.053
       0.006
      -0.113
      -0.275
      -0.435
      -0.520
      -0.457
      -0.223
       0.116
       0.415
       0.513
       0.328
      -0.079
      -0.518
      -0.758
      -0.650
      -0.213
       0.376
       0.869
       1.069
       0.932
       0.576
       0.216
       0.026
       0.049
       0.185
       0.277
       0.221
       0.031
      -0.188
      -0.317
      -0.294
      -0.144
       0.050
       0.194
       0.237
       0.195
       0.119
       0.030
      -0.118
      -0.388
      -0.762
      -1.071
      -1.075
      -0.627
       0.194
       1.110
       1.798
       2.067
       1.919
       1.498
       0.988
       0.533
       0.207
       0.016
      -0.087
      -0.164
      -0.249
      -0.328
      -0.365
      -0.357
      -0.365
      -0.485
      -0.767
      -1.157
      -1.503
      -1.639
      -1.483
      -1.089
      -0.617
      -0.245
      -0.079
      -0.111
      -0.239
      -0.327
      -0.262
       0.003
       0.431
       0.902
       1.242
       1.298
       1.013
       0.470
      -0.131
      -0.552
      -0.623
      -0.319
       0.233
       0.796
       1.125
       1.071
       0.651
       0.046
      -0.485
      -0.725
      -0.603
      -0.209
       0.247
       0.537
       0.505
       0.121
      -0.510
      -1.196
      -1.726
      -1.957
      -1.853
      -1.490
      -1.005
      -0.533
      -0.163
       0.076
       0.190
       0.203
       0.146
       0.067
       0.032
       0.095
       0.262
       0.475
       0.649
       0.733
       0.740
       0.728
       0.734
       0.726
       0.627
       0.376
      -0.012
      -0.446
      -0.797
      -0.966
      -0.920
      -0.712
      -0.446
      -0.227
      -0.111
      -0.095
      -0.156
      -0.272
      -0.427
      -0.561
      -0.563
      -0.308
       0.245
       0.988
       1.687
       2.098
       2.100
       1.746
       1.218
       0.721
       0.389
       0.248
       0.240
       0.262
       0.228
       0.102
      -0.097
      -0.336
      -0.604
      -0.915
      -1.266
      -1.607
      -1.851
      -1.915
      -1.757
      -1.375
      -0.809
      -0.151
       0.455
       0.866
       1.029
       1.023
       0.983
       0.976
       0.947
       0.804
       0.548
       0.313
       0.247
       0.365
       0.520
       0.532
       0.341
       0.038
      -0.239
      -0.429
      -0.573
      -0.725
      -0.873
      -0.944
      -0.879
      -0.692
      -0.451
      -0.210
       0.032
       0.304
       0.601
       0.873
       1.066
       1.193
       1.322
       1.508
       1.703
       1.755
       1.509
       0.941
       0.209
      -0.420
      -0.733
      -0.686
      -0.417
      -0.147
      -0.066
      -0.263
      -0.712
      -1.292
      -1.822
      -2.128
      -2.113
      -1.804
      -1.333
      -0.865
      -0.513
      -0.296
      -0.161
      -0.039
       0.109
       0.286
       0.474
       0.666
       0.860
       1.038
       1.153
       1.156
       1.042
       0.882
       0.785
       0.818
       0.947
       1.063
       1.065
       0.931
       0.720
       0.503
       0.294
       0.051
      -0.272
      -0.666
      -1.047
      -1.317
      -1.427
      -1.408
      -1.330
      -1.235
      -1.110
      -0.913
      -0.636
      -0.324
      -0.052
       0.132
       0.225
       0.248
       0.198
       0.054
      -0.186
      -0.448
      -0.597
      -0.507
      -0.157
       0.350
       0.849
       1.215
       1.403
       1.430
       1.314
       1.061
       0.690
       0.253
      -0.168
      -0.499
      -0.709
      -0.811
      -0.846
      -0.857
      -0.879
      -0.930
      -0.998
      -1.032
      -0.948
      -0.677
      -0.217
       0.339
       0.850
       1.199
       1.340
       1.301
       1.149
       0.957
       0.781
       0.655
       0.585
       0.568
       0.602
       0.681
       0.763
       0.764
       0.590
       0.216
      -0.275
      -0.728
      -1.014
      -1.106
      -1.069
      -0.987
      -0.906
      -0.833
      -0.784
      -0.804
      -0.928
      -1.123
      -1.290
      -1.321
