Origin Time       18/9/2011 12:40:47	
Lat.              27.6 N	
Long.             88.2 E	
Depth (Km)         10.0
Magnitude         6.8
 Region           India(Sikkim)-Nepar-Border                                       
 Above details taken from IMD 
     
Station Code      GTK
Station Lat.       27.352  N
Station Long.      88.627  E
Station Height(m) 1536.0
Site Class        A   Vs30 between 700 m/sec to 1400 m/sec * 
Record Time       18.09.2011 12:41:25.739
Sampling Rate     200. Hz
 Record Duration  194.295 Sec.
 Direction         E-W (E positive)
Max. Acceleration   -149.159 cm/sec**2
     
  * For reference see Site Classification link of website 
     
 Base Line Corrected and Low Pass Filtered (Cut Off at 35 Hz) Time History
 Acceleration data in cm/sec**2
    
[...]
     -40.775
     -48.107
     -49.846
     -47.032
     -40.427
     -30.482
     -18.338
      -6.491
       1.958
       5.039
       3.212
      -0.877
      -3.982
      -3.921
      -0.217
       6.365
      14.644
      23.473
      31.727
      38.208
      41.721
      41.311
      36.536
      27.710
      16.008
       3.198
      -9.011
     -19.596
     -28.328
     -35.379
     -40.981
     -45.439
     -49.257
     -52.998
     -56.897
     -60.571
     -63.101
     -63.354
     -60.256
     -52.878
     -40.557
     -23.199
      -1.654
      22.185
      45.702
      66.154
      81.193
      89.140
      89.046
      80.807
      65.488
      45.555
      24.526
       5.990
      -7.390
     -14.256
     -14.396
      -8.586
       1.258
      11.905
      19.250
      19.615
      11.343
      -4.335
     -23.724
     -42.028
     -54.736
     -58.501
     -51.621
     -34.538
     -10.271
      15.815
      37.348
      49.036
      48.577
      37.507
      20.583
       3.935
      -7.191
      -9.988
      -4.218
       8.690
      26.470
      46.127
      63.893
      75.814
      78.990
      72.680
      58.540
      39.955
      20.884
       4.649
      -7.016
     -14.250
     -18.476
     -21.306
     -23.720
     -26.018
     -28.396
     -31.459
     -36.048
     -42.482
     -49.948
     -56.719
     -61.129
     -62.488
     -61.109
     -57.540
     -51.874
     -43.832
     -33.464
     -21.675
     -10.039
       0.017
       7.929
      14.022
      18.855
      22.528
      24.563
      24.469
      22.483
      19.797
      18.039
      18.348
      20.705
      23.906
      26.188
      26.093
      23.069
      17.495
      10.188
       1.875
      -6.867
     -15.241
     -21.977
     -25.703
     -25.776
     -22.854
     -18.647
     -15.006
     -13.034
     -12.874
     -14.107
     -16.137
     -18.148
     -18.945
     -17.231
     -12.371
      -5.050
       2.909
       9.601
      14.112
      16.654
      17.749
      17.520
      15.898
      13.400
      11.387
      11.290
      13.406
      16.380
      17.876
      15.987
      10.380
       2.433
      -5.592
     -11.611
     -14.318
     -13.149
      -8.042
       0.570
      11.505
      22.740
      31.863
      36.884
      36.907
      32.238
      24.003
      13.695
       2.948
      -6.635
     -13.907
     -18.736
     -22.109
     -25.397
     -29.207
     -32.813
     -34.751
     -34.063
     -31.087
     -27.171
     -23.731
     -21.535
     -20.625
     -20.559
     -20.536
     -19.442
     -16.078
      -9.687
      -0.429
      10.604
      21.917
      32.205
      40.541
      46.148
      48.263
      46.407
      40.834
      32.658
      23.467
      14.711
       7.280
       1.444
      -2.964
      -6.357
      -9.288
     -12.395
     -16.257
     -21.136
     -26.696
     -31.924
     -35.433
     -36.035
     -33.275
     -27.638
     -20.373
     -13.087
      -7.325
      -4.172
      -3.850
      -5.437
      -7.078
      -6.796
      -3.497
       2.536
       9.978
      17.304
      23.455
      27.977
      30.814
      32.140
      32.374
      32.141
      31.969
      31.869
      31.168
      28.844
      24.116
      16.834
       7.411
      -3.489
     -15.165
     -26.881
     -37.796
     -46.971
     -53.491
     -56.628
     -55.991
     -51.598
     -43.786
     -32.958
     -19.340
      -3.061
      15.409
      34.798
      52.994
      67.585
      76.629
      79.067
      74.597
      63.464
      46.655
      26.283
       5.415
     -12.921
     -26.853
     -35.999
     -40.852
     -41.907
     -39.319
     -33.335
     -24.952
     -16.149
      -9.385
      -6.679
      -8.784
     -14.866
     -22.757
     -29.552
     -32.287
     -28.654
     -17.800
      -0.981
      18.484
      36.270
      48.631
      53.558
      50.928
      41.957
      28.689
      13.760
       0.102
      -9.725
     -14.314
     -13.818
      -9.724
      -4.190
       0.730
       3.716
       4.473
       3.584
       2.021
       0.655
       0.058
       0.560
       2.237
       4.697
       6.952
       7.747
       6.322
       3.039
      -0.669
      -3.017
      -2.733
       0.397
       5.550
      11.346
      16.467
      20.049
      21.792
      21.904
      21.029
      20.010
      19.440
      19.289
      18.971
      17.902
      16.110
      14.385
      13.782
      14.817
      16.899
      18.446
      17.684
      13.687
       6.971
      -0.868
      -8.159
     -13.847
     -17.239
     -17.319
     -12.852
      -3.617
       8.325
      18.815
      23.502
      20.190
       9.909
      -3.898
     -17.209
     -26.792
     -30.441
     -26.682
     -14.971
       3.533
      25.552
      46.463
      62.013
      69.916
      70.408
      65.608
      58.262
      50.661
      44.123
      38.984
      34.732
      30.165
      23.705
      14.041
       0.895
     -14.581
     -30.131
     -43.212
     -51.693
     -54.044
     -49.197
     -36.708
     -17.409
       6.030
      29.412
      48.345
      59.838
      63.177
      59.614
      51.304
      40.278
      28.052
      15.776
       4.484
      -4.909
     -11.865
     -16.455
     -19.273
     -20.977
     -21.808
     -21.524
     -19.852
     -17.086
     -14.276
     -12.806
     -13.621
     -16.602
     -20.590
     -24.068
     -25.951
     -25.792
     -23.301
     -17.842
      -8.674
       4.094
      18.699
      32.053
      41.219
      44.884
      43.540
      38.355
      30.006
      18.711
       5.144
      -9.161
     -22.527
     -33.981
     -43.121
     -49.268
     -51.224
     -48.200
     -41.029
     -32.312
     -25.188
     -21.714
     -22.066
     -24.865
     -28.079
     -29.793
     -28.609
     -23.734
     -14.925
      -2.360
      13.381
      31.171
      49.202
      65.194
      77.000
      83.301
      84.013
      80.229
      73.812
      66.807
      60.845
      56.784
      54.736
      54.413
      55.420
      57.250
      59.055
      59.597
      57.645
      52.689
      45.426
      37.577
      31.054
      27.018
      25.448
      25.396
      25.589
      24.878
      22.401
      17.644
      10.574
       1.780
      -7.565
     -15.959
     -22.013
     -24.885
     -24.406
     -20.750
     -14.019
      -4.255
       7.953
      20.898
      31.979
      38.845
      40.625
      38.282
      33.897
      29.571
      26.693
      25.891
      27.350
      30.956
      36.097
      41.455
      45.266
      45.975
      42.807
      35.913
      26.157
      14.799
       3.159
      -7.724
     -17.356
     -25.738
     -32.957
     -38.754
     -42.582
     -44.198
     -44.262
     -44.331
     -46.209
     -51.153
     -59.476
     -70.610
     -83.325
     -95.867
    -106.247
    -112.936
    -115.671
    -115.619
    -114.559
    -113.707
    -113.181
    -112.364
    -110.527
    -107.062
    -101.400
     -93.174
     -82.784
     -71.710
     -62.011
     -55.258
     -51.751
     -50.539
     -50.041
     -48.708
     -45.372
     -39.293
     -30.117
     -17.849
      -2.864
      13.999
      31.270
      46.800
      58.082
      62.931
      60.180
      50.041
      34.025
      14.564
      -5.596
     -24.103
     -39.471
     -51.031
     -58.478
     -61.608
     -60.540
     -56.190
     -50.417
     -45.519
     -43.326
     -44.470
     -48.278
     -53.293
     -58.000
     -61.268
     -62.348
     -60.738
     -56.200
     -48.918
     -39.581
     -29.274
     -19.299
     -10.993
      -5.424
      -2.951
      -2.948
      -4.033
      -4.757
      -4.309
      -2.843
      -1.321
      -1.022
      -2.882
      -6.866
     -11.676
     -15.105
     -14.990
     -10.173
      -0.849
      11.872
      26.745
      42.883
      59.703
      76.481
      91.970
     104.411
     112.028
     113.754
     109.726
     101.238
      90.203
      78.553
      67.870
      59.267
      53.297
      49.824
      48.028
      46.675
      44.577
      41.008
      35.859
      29.536
      22.632
      15.436
       7.581
      -1.783
     -13.236
     -26.396
     -40.017
     -52.827
     -64.243
     -74.153
     -81.963
     -85.979
     -83.925
     -74.332
     -57.678
     -36.428
     -13.965
       6.788
      24.175
      37.694
      47.314
      52.906
      54.186
      51.027
      43.838
      33.820
      22.982
      13.750
       8.076
       6.452
       7.580
       9.203
       9.573
       8.493
       7.169
       7.115
       8.983
      12.058
      14.562
      14.498
      10.587
       2.901
      -7.078
     -16.955
     -24.176
     -26.750
     -23.725
     -15.290
      -2.427
      13.705
      32.230
      52.405
      72.962
      91.594
     105.144
     110.461
     105.421
      89.631
      64.693
      34.037
       2.299
     -25.877
     -47.322
     -61.306
     -69.158
     -72.783
     -73.163
     -69.840
     -61.497
     -47.173
     -27.465
      -5.022
      16.141
      32.250
      41.295
      43.481
      40.472
      34.252
      26.446
      18.262
      10.671
       4.492
       0.267
      -1.989
      -2.976
      -4.049
      -6.749
     -12.019
     -19.531
     -27.690
     -34.410
     -38.114
     -38.188
     -34.669
     -27.657
     -17.163
      -3.589
      11.627
      25.905
      36.293
      40.739
      39.104
      33.255
      26.153
      20.508
      17.743
      17.753
      19.417
      21.449
      22.962
      23.439
      22.311
      18.734
      11.884
       1.491
     -11.937
     -27.374
     -43.665
     -59.665
     -74.141
     -85.728
     -93.128
     -95.428
     -92.274
     -83.829
     -70.638
     -53.637
     -34.303
     -14.698
       2.847
      16.332
      24.637
      27.818
      27.190
      25.148
      24.503
      27.273
      33.448
      40.629
      44.973
      42.918
      32.642
      14.636
      -8.554
     -33.227
     -55.907
     -74.571
     -88.843
     -99.081
    -105.366
    -107.342
    -104.849
     -98.464
     -89.374
     -78.864
     -67.958
     -57.355
     -47.391
     -37.870
     -28.017
     -16.865
      -3.981
      10.029
      23.589
      34.626
      41.034
      41.107
      34.068
      20.557
       2.712
     -16.324
     -33.255
     -45.486
     -51.683
     -51.905
     -47.331
     -39.661
     -30.442
     -20.683
     -11.102
      -2.848
       1.982
       0.925
      -7.236
     -21.138
     -37.183
     -51.426
     -61.466
     -66.897
     -68.323
     -66.138
     -60.132
     -50.000
     -35.988
     -19.012
      -0.235
      19.387
      39.145
      58.294
      75.832
      90.595
     101.563
     108.105
     109.989
     107.114
      99.133
      85.288
      64.921
      38.573
       8.905
     -19.542
     -41.878
     -54.820
     -57.800
     -52.622
     -42.080
     -28.556
     -13.450
       2.405
      17.906
      31.267
      40.517
      44.512
      43.472
      38.468
      30.347
      19.355
       6.021
      -7.627
     -18.130
     -22.234
     -18.571
      -7.870
       8.160
      27.872
      49.835
      72.548
      94.327
     113.228
     126.873
     132.655
     128.771
     115.409
      94.824
      70.043
      43.573
      17.341
      -6.539
     -25.619
     -38.168
     -44.367
     -46.166
     -45.597
     -42.889
     -36.046
     -22.513
      -1.984
      21.767
      41.805
      51.419
      47.607
      32.285
      10.871
     -10.289
     -26.164
     -34.350
     -35.296
     -31.311
     -24.730
     -16.417
      -5.819
       7.418
      21.683
      33.145
      37.472
      32.251
      18.262
      -1.176
     -21.971
     -40.824
     -55.941
     -66.959
     -74.423
     -79.176
     -81.908
     -82.979
     -82.416
     -80.005
     -75.582
     -69.560
     -63.295
     -58.708
     -57.142
     -58.311
     -60.251
     -60.378
     -56.816
     -49.072
     -37.803
     -24.081
      -8.742
       7.823
      25.388
      43.365
      60.508
      75.235
      86.392
      93.859
      98.497
     101.498
     103.640
     104.963
     105.001
     103.205
      99.126
      92.283
      82.042
      67.915
      50.238
      30.654
      11.758
      -4.097
     -16.012
     -24.846
     -32.414
     -40.242
     -48.746
     -57.243
     -64.548
     -69.600
     -71.724
     -70.524
     -65.664
     -56.855
     -44.072
     -27.782
      -8.927
      11.220
      31.045
      48.503
      61.385
      68.078
      68.281
      62.972
      53.662
      41.747
      28.585
      15.892
       5.575
      -1.257
      -5.198
      -8.314
     -12.766
     -19.442
     -27.687
     -35.963
     -42.403
     -44.660
     -39.776
     -25.201
      -0.776
      30.000
      60.940
      85.964
     101.654
     107.855
     106.370
      99.147
      87.338
      71.582
      52.871
      33.040
      14.391
      -1.243
     -13.334
     -22.788
     -31.191
     -39.628
     -47.887
     -54.631
     -58.370
     -58.479
     -55.546
     -50.969
     -46.204
     -42.068
     -38.296
     -33.549
     -26.052
     -14.705
      -0.017
      15.841
      29.968
      40.116
      45.698
      47.854
      48.540
      49.177
      49.720
      48.725
      44.298
      35.208
      21.400
       3.687
     -16.899
     -39.418
     -62.848
     -85.894
    -107.113
    -125.154
    -138.839
    -147.129
    -149.159
    -144.310
    -132.273
    -113.270
     -88.473
     -60.337
     -32.423
      -8.536
       8.512
      17.980
      21.512
      22.371
      23.875
      27.869
      34.079
      40.575
      44.832
      44.672
      38.762
      26.819
       9.691
     -10.723
     -31.920
     -51.549
     -68.078
     -80.969
     -90.317
     -96.281
     -98.717
     -97.137
     -90.920
     -79.650
     -63.607
     -44.312
     -24.651
      -8.182
       2.248
       5.804
       4.046
       0.106
      -2.824
      -2.720
       0.970
       7.824
      17.104
      28.026
      39.688
      51.013
      60.957
      68.852
      74.625
      78.743
      81.928
      84.818
      87.750
      90.781
      93.864
      96.999
     100.233
     103.578
     106.908
     109.769
     111.011
     108.453
      99.139
      80.617
      52.761
      18.808
     -15.602
     -45.123
     -67.222
     -82.545
     -93.057
     -99.927
    -103.007
    -101.802
     -96.473
     -87.883
     -76.970
     -64.312
     -50.130
     -34.449
     -17.202
       1.567
      21.364
      41.051
      59.105
      74.077
      84.836
      90.552
      90.680
      85.016
      73.656
      56.946
      35.714
      11.749
     -12.127
     -32.870
     -48.522
     -58.976
     -65.469
     -69.218
     -70.397
     -68.240
     -62.017
     -52.017
     -39.856
     -28.016
     -18.861
     -13.599
     -11.758
     -11.505
     -10.645
      -7.603
      -1.801
       6.582
      17.020
      28.784
      40.877
      52.105
      61.469
      68.645
      74.110
      78.721
      82.976
      86.523
      88.322
      87.327
      83.130
      76.038
      66.623
      55.267
      42.160
      27.713
      12.867
      -1.051
     -12.826
     -21.759
     -27.692
     -30.741
     -31.078
     -28.878
     -24.377
     -17.863
      -9.576
       0.330
      11.612
      23.645
      35.347
      45.513
      53.209
      57.808
      58.667
      54.968
      46.121
      32.508
      15.941
      -0.682
     -14.363
     -22.979
     -25.683
     -22.691
     -14.911
      -3.784
       8.707
      20.251
      28.798
      33.246
      33.773
      31.549
      28.012
      24.194
      20.605
      17.647
      15.902
      15.752
      16.621
      16.721
      13.833
       6.636
      -4.386
     -17.126
     -28.980
     -38.124
     -44.191
     -48.124
     -51.470
     -55.541
     -60.804
     -66.735
     -72.219
     -76.263
     -78.553
     -79.361
     -78.902
     -76.725
     -71.795
     -63.268
     -51.329
     -37.444
     -23.810
     -12.418
      -4.316
       0.465
       2.383
       1.717
      -1.726
      -8.310
     -17.966
     -29.754
     -41.900
     -52.296
     -59.114
     -61.236
     -58.424
     -51.273
     -40.920
     -28.528
     -14.807
       0.049
      15.841
      31.611
      45.338
      54.499
      57.133
      52.565
      41.314
      24.619
       4.281
     -17.132
     -36.413
     -50.587
     -57.976
     -58.503
     -53.102
     -42.980
     -29.380
     -13.679
       2.745
      18.955
      34.751
      50.449
      66.259
      81.746
      95.761
     106.917
     114.284
     117.766
     117.760
     114.288
     106.362
      92.325
      71.208
      44.167
      14.782
     -12.314
     -33.634
     -48.290
     -57.683
     -63.828
     -67.706
     -68.761
     -65.631
     -57.360
     -44.285
     -28.178
     -11.650
       2.824
      13.762
      21.105
      26.159
      31.048
      37.802
      47.391
      59.273
      71.798
      83.131
      91.913
      97.277
      98.643
      95.897
      89.847
      82.278
      75.162
      69.437
      64.338
      57.905
      48.320
      35.155
      19.782
       4.765
      -7.362
     -15.209
     -18.950
     -19.938
     -19.849
     -19.867
     -20.375
     -21.218
     -22.245
     -23.749
     -26.587
     -31.838
     -40.125
     -51.020
     -63.070
     -74.459
     -83.795
     -90.471
     -94.474
     -95.963
     -95.023
     -91.772
     -86.648
     -80.483
     -74.167
     -68.142
     -62.229
     -56.033
     -49.591
     -43.628
     -39.121
     -36.552
     -35.554
     -35.192
     -34.512
     -32.899
     -30.155
     -26.453
     -22.336
     -18.750
     -16.926
     -17.945
     -22.090
     -28.413
     -34.945
     -39.534
     -40.759
     -38.316
     -32.760
     -24.957
     -15.729
      -5.800
       4.159
      13.560
      21.993
      29.294
      35.488
      40.678
      44.965
      48.442
      51.197
      53.244
      54.363
      53.959
      51.134
      45.135
      35.962
      24.652
      12.794
       1.555
      -9.036
     -19.905
     -32.050
     -45.711
     -60.223
     -74.445
     -87.250
     -97.720
    -105.167
    -109.185
    -109.751
    -107.240
    -102.222
     -95.156
     -86.154
     -74.990
     -61.425
     -45.683
     -28.733
     -12.132
       2.534
      14.211
      22.547
      27.637
      29.649
      28.793
      25.681
      21.618
      18.354
      17.308
      18.853
      22.261
      26.306
      29.995
      32.916
      35.110
      36.690
      37.565
      37.403
      35.825
      32.594
      27.636
      20.945
      12.671
       3.493
      -5.127
     -11.261
     -13.413
     -11.341
      -6.088
       0.831
       8.381
      16.323
      24.739
      33.361
      41.369
      47.803
      52.119
      54.296
      54.406
      52.086
      46.481
      36.864
      23.531
       8.205
      -6.516
     -18.375
     -26.387
     -30.774
     -32.024
     -29.969
     -23.671
     -12.279
       3.820
      22.443
      40.183
      53.828
      61.734
      64.324
      63.510
      61.520
      59.842
      58.754
