Origin Time       18/9/2011 13:54:17	 UTC
Lat.              27.5 N	
Long.             88.4 E	
Depth (Km)          9.0
Magnitude         4.5
 Region           India(Sikkim)-Nepar-Border                                       
 Above details taken from IMD 
    
Station Code      GTK
Station Lat.       27.352  N
Station Long.      88.627  E
Station Height(m) 1536.0
Site Class        A   Vs30 between 700 m/sec to 1400 m/sec * 
Record Time       18.09.2011 13:54:43.729 UTC
Sampling Rate     200. Hz
 Record Duration   86.335 Sec.
 Direction         N-S (N positive)
Max. Acceleration    -30.624 cm/sec**2
     
  * For reference see Site Classification link of website 
     
 Base Line Corrected and Low Pass Filtered (Cut Off at 35 Hz) Time History
 Acceleration data in cm/sec**2
    
[...]
       0.004
       0.003
       0.005
       0.009
       0.011
       0.010
       0.006
       0.000
      -0.006
      -0.010
      -0.009
      -0.002
       0.009
       0.020
       0.027
       0.030
       0.032
       0.030
       0.023
       0.010
      -0.004
      -0.014
      -0.015
      -0.010
      -0.005
      -0.004
      -0.004
      -0.001
       0.006
       0.015
       0.021
       0.021
       0.016
       0.010
       0.005
       0.001
      -0.003
      -0.009
      -0.012
      -0.011
      -0.005
       0.002
       0.006
       0.003
      -0.001
      -0.002
       0.005
       0.014
       0.019
       0.016
       0.006
      -0.004
      -0.011
      -0.012
      -0.010
      -0.007
      -0.004
      -0.001
       0.004
       0.011
       0.019
       0.025
       0.025
       0.020
       0.010
       0.001
      -0.005
      -0.007
      -0.006
      -0.004
      -0.003
      -0.001
       0.003
       0.011
       0.017
       0.018
       0.012
       0.004
      -0.003
      -0.005
      -0.003
      -0.001
      -0.002
      -0.005
      -0.008
      -0.007
      -0.003
       0.004
       0.011
       0.018
       0.025
       0.030
       0.030
       0.026
       0.017
       0.008
       0.001
      -0.005
      -0.008
      -0.010
      -0.009
      -0.004
       0.003
       0.010
       0.016
       0.018
       0.018
       0.019
       0.020
       0.021
       0.019
       0.014
       0.008
       0.005
       0.005
       0.008
       0.010
       0.010
       0.005
      -0.004
      -0.014
      -0.020
      -0.018
      -0.010
      -0.002
       0.002
       0.000
      -0.003
      -0.003
       0.001
       0.007
       0.013
       0.018
       0.020
       0.021
       0.022
       0.020
       0.013
       0.004
      -0.004
      -0.007
      -0.006
      -0.002
       0.001
       0.001
       0.000
       0.001
       0.006
       0.015
       0.024
       0.030
       0.033
       0.032
       0.029
       0.026
       0.022
       0.017
       0.010
       0.003
      -0.002
      -0.008
      -0.015
      -0.022
      -0.023
      -0.017
      -0.005
       0.007
       0.016
       0.022
       0.027
       0.029
       0.027
       0.021
       0.016
       0.014
       0.014
       0.015
       0.013
       0.010
       0.004
      -0.003
      -0.012
      -0.019
      -0.021
      -0.015
      -0.004
       0.007
       0.012
       0.013
       0.012
       0.014
       0.019
       0.025
       0.029
       0.027
       0.020
       0.011
       0.004
       0.000
       0.000
       0.001
       0.002
       0.001
      -0.001
       0.000
       0.004
       0.010
       0.015
       0.013
       0.007
       0.000
      -0.002
       0.001
       0.006
       0.008
       0.007
       0.005
       0.004
       0.005
       0.005
       0.006
       0.007
       0.010
       0.015
       0.019
       0.020
       0.017
       0.012
       0.009
       0.009
       0.009
       0.006
       0.000
      -0.005
      -0.004
       0.006
       0.018
       0.024
       0.020
       0.010
       0.000
      -0.002
       0.001
       0.005
       0.006
       0.004
       0.001
      -0.002
      -0.003
      -0.003
       0.001
       0.007
       0.016
       0.025
       0.030
       0.027
       0.018
       0.006
      -0.005
      -0.011
      -0.014
      -0.015
      -0.017
      -0.018
      -0.017
      -0.012
      -0.002
       0.009
       0.016
       0.019
       0.018
       0.018
       0.019
       0.019
       0.017
       0.016
       0.016
       0.016
       0.013
       0.007
       0.001
      -0.003
       0.000
       0.005
       0.010
       0.011
       0.009
       0.007
       0.007
       0.009
       0.009
       0.008
       0.005
       0.005
       0.008
       0.012
       0.014
       0.013
       0.012
       0.012
       0.013
       0.011
       0.005
      -0.004
      -0.008
      -0.006
      -0.001
       0.001
      -0.002
      -0.008
      -0.011
      -0.007
       0.002
       0.012
       0.020
       0.022
       0.021
       0.016
       0.008
       0.001
      -0.004
      -0.002
       0.002
       0.007
       0.008
       0.005
       0.000
      -0.002
      -0.003
      -0.002
      -0.004
      -0.006
      -0.006
      -0.004
      -0.001
       0.002
       0.006
       0.010
       0.015
       0.020
       0.022
       0.018
       0.008
      -0.002
      -0.007
      -0.005
       0.000
       0.004
       0.005
       0.002
       0.001
       0.004
       0.011
       0.018
       0.020
       0.017
       0.011
       0.004
      -0.001
      -0.003
      -0.004
      -0.003
      -0.001
       0.002
       0.002
       0.001
      -0.001
      -0.003
      -0.005
      -0.006
      -0.006
      -0.004
       0.000
       0.002
       0.003
       0.002
       0.001
      -0.001
      -0.002
      -0.003
      -0.002
       0.002
       0.010
       0.017
       0.020
       0.017
       0.009
       0.001
      -0.002
       0.000
       0.004
       0.007
       0.007
       0.004
       0.000
      -0.002
      -0.001
       0.001
       0.002
      -0.001
      -0.005
      -0.006
      -0.003
       0.003
       0.008
       0.009
       0.006
       0.002
       0.000
      -0.002
      -0.003
      -0.004
      -0.005
      -0.007
      -0.008
      -0.009
      -0.006
      -0.002
       0.004
       0.006
       0.006
       0.005
       0.005
       0.004
       0.001
      -0.005
      -0.013
      -0.019
      -0.024
      -0.032
      -0.046
      -0.069
      -0.094
      -0.113
      -0.119
      -0.114
      -0.102
      -0.083
      -0.050
       0.005
       0.081
       0.158
       0.212
       0.230
       0.220
       0.203
       0.198
       0.202
       0.198
       0.163
       0.088
      -0.024
      -0.167
      -0.343
      -0.561
      -0.814
      -1.050
      -1.172
      -1.077
      -0.712
      -0.118
       0.584
       1.245
       1.738
       1.981
       1.918
       1.514
       0.785
      -0.160
      -1.109
      -1.818
      -2.111
      -1.965
      -1.495
      -0.886
      -0.299
       0.175
       0.510
       0.712
       0.799
       0.809
       0.811
       0.898
       1.134
       1.495
       1.836
       1.945
       1.631
       0.830
      -0.329
      -1.541
      -2.431
      -2.718
      -2.345
      -1.505
      -0.542
       0.228
       0.659
       0.805
       0.826
       0.849
       0.889
       0.882
       0.777
       0.591
       0.410
       0.312
       0.299
       0.272
       0.084
      -0.365
      -1.045
      -1.780
      -2.319
      -2.450
      -2.098
      -1.359
      -0.445
       0.416
       1.077
       1.513
       1.793
       1.999
       2.139
       2.108
       1.737
       0.901
      -0.368
      -1.833
      -3.109
      -3.792
      -3.615
      -2.569
      -0.940
       0.780
       2.073
       2.594
       2.298
       1.439
       0.443
      -0.264
      -0.408
       0.042
       0.883
       1.768
       2.337
       2.344
       1.726
       0.612
      -0.708
      -1.846
      -2.420
      -2.203
      -1.254
       0.050
       1.138
       1.507
       0.968
      -0.239
      -1.547
      -2.337
      -2.226
      -1.224
       0.286
       1.729
       2.574
       2.542
       1.687
       0.355
      -0.976
      -1.894
      -2.212
      -2.004
      -1.509
      -0.977
      -0.565
      -0.332
      -0.283
      -0.393
      -0.598
      -0.780
      -0.789
      -0.502
       0.104
       0.926
       1.754
       2.336
       2.477
       2.116
       1.363
       0.467
      -0.290
      -0.698
      -0.702
      -0.407
      -0.020
       0.245
       0.249
      -0.030
      -0.504
      -1.009
      -1.351
      -1.367
      -0.994
      -0.311
       0.480
       1.140
       1.490
       1.476
       1.164
       0.687
       0.193
      -0.203
      -0.440
      -0.530
      -0.548
      -0.600
      -0.753
      -0.981
      -1.158
      -1.113
      -0.733
      -0.036
       0.832
       1.657
       2.241
       2.461
       2.293
       1.796
       1.074
       0.237
      -0.615
      -1.397
      -2.036
      -2.493
      -2.765
      -2.865
      -2.770
      -2.398
      -1.661
      -0.568
       0.717
       1.925
       2.804
       3.244
       3.314
       3.192
       3.027
       2.826
       2.441
       1.678
       0.453
      -1.105
      -2.668
      -3.841
      -4.323
      -4.028
      -3.099
      -1.843
      -0.603
       0.350
       0.883
       1.003
       0.813
       0.483
       0.212
       0.197
       0.566
       1.295
       2.155
       2.762
       2.737
       1.912
       0.447
      -1.220
      -2.568
      -3.214
      -3.055
      -2.271
      -1.210
      -0.230
       0.425
       0.683
       0.628
       0.449
       0.347
       0.462
       0.813
       1.302
       1.760
       2.005
       1.887
       1.332
       0.385
      -0.773
      -1.850
      -2.536
      -2.614
      -2.028
      -0.895
       0.513
       1.830
       2.684
       2.836
       2.293
       1.309
       0.262
      -0.529
      -0.934
      -1.009
      -0.918
      -0.836
      -0.886
      -1.103
      -1.425
      -1.714
      -1.810
      -1.605
      -1.086
      -0.342
       0.475
       1.200
       1.688
       1.846
       1.654
       1.180
       0.569
       0.000
      -0.389
      -0.545
      -0.509
      -0.370
      -0.215
      -0.096
      -0.029
      -0.015
      -0.047
      -0.127
      -0.262
      -0.456
      -0.685
      -0.882
      -0.948
      -0.800
      -0.429
       0.082
       0.599
       1.009
       1.264
       1.375
       1.392
       1.362
       1.308
       1.208
       1.013
       0.673
       0.191
      -0.369
      -0.899
      -1.290
      -1.468
      -1.403
      -1.107
      -0.635
      -0.092
       0.384
       0.650
       0.615
       0.292
      -0.200
      -0.681
      -0.996
      -1.076
      -0.955
      -0.724
      -0.483
      -0.291
      -0.152
      -0.022
       0.153
       0.391
       0.652
       0.850
       0.908
       0.804
       0.583
       0.320
       0.070
      -0.146
      -0.317
      -0.429
      -0.474
      -0.469
      -0.453
      -0.461
      -0.494
      -0.518
      -0.492
      -0.399
      -0.255
      -0.085
       0.095
       0.297
       0.542
       0.844
       1.179
       1.465
       1.576
       1.407
       0.953
       0.343
      -0.216
      -0.554
      -0.619
      -0.477
      -0.253
      -0.067
      -0.014
      -0.158
      -0.497
      -0.928
      -1.248
      -1.258
      -0.895
      -0.315
       0.196
       0.409
       0.313
       0.113
       0.075
       0.325
       0.761
       1.125
       1.178
       0.846
       0.261
      -0.327
      -0.691
      -0.735
      -0.518
      -0.203
       0.040
       0.101
      -0.044
      -0.352
      -0.751
      -1.159
      -1.482
      -1.604
      -1.400
      -0.786
       0.195
       1.339
       2.317
       2.793
       2.578
       1.733
       0.555
      -0.551
      -1.259
      -1.437
      -1.156
      -0.609
      -0.014
       0.453
       0.679
       0.617
       0.305
      -0.131
      -0.496
      -0.603
      -0.372
       0.123
       0.678
       1.055
       1.078
       0.703
       0.041
      -0.671
      -1.164
      -1.260
      -0.957
      -0.427
       0.081
       0.360
       0.324
       0.017
      -0.417
      -0.792
      -0.934
      -0.739
      -0.221
       0.474
       1.114
       1.472
       1.426
       1.023
       0.457
      -0.021
      -0.226
      -0.136
       0.097
       0.245
       0.134
      -0.244
      -0.739
      -1.141
      -1.306
      -1.214
      -0.936
      -0.563
      -0.154
       0.271
       0.704
       1.119
       1.459
       1.644
       1.613
       1.360
       0.949
       0.495
       0.108
      -0.161
      -0.341
      -0.505
      -0.702
      -0.913
      -1.057
      -1.060
      -0.922
      -0.723
      -0.553
      -0.432
      -0.281
       0.023
       0.554
       1.247
       1.894
       2.216
       1.996
       1.205
       0.044
      -1.117
      -1.907
      -2.129
      -1.867
      -1.427
      -1.137
      -1.131
      -1.252
      -1.168
      -0.627
       0.335
       1.381
       2.078
       2.171
       1.714
       1.005
       0.372
      -0.011
      -0.178
      -0.275
      -0.427
      -0.653
      -0.880
      -1.013
      -1.015
      -0.930
      -0.849
      -0.836
      -0.880
      -0.890
      -0.764
      -0.485
      -0.186
      -0.117
      -0.549
      -1.655
      -3.437
      -5.707
      -8.118
     -10.227
     -11.591
     -11.856
     -10.838
      -8.528
      -5.067
      -0.721
       4.133
       9.023
      13.449
      17.002
      19.474
      20.836
      21.082
      20.054
      17.466
      13.180
       7.510
       1.243
      -4.657
      -9.451
     -12.836
     -14.877
     -15.789
     -15.750
     -14.903
     -13.444
     -11.667
      -9.836
      -8.010
      -5.969
      -3.356
       0.035
       4.067
       8.317
      12.329
      15.839
      18.811
      21.278
      23.146
      24.093
      23.627
      21.295
      16.945
      10.914
       3.983
      -2.940
      -9.243
     -14.826
     -19.907
     -24.562
     -28.394
     -30.624
     -30.488
     -27.605
     -22.067
     -14.331
      -5.152
       4.366
      12.758
      18.470
      20.415
      18.511
      13.816
       8.130
       3.264
       0.444
       0.084
       1.912
       5.164
       8.739
      11.365
      11.917
       9.780
       5.060
      -1.475
      -8.672
     -15.297
     -20.257
     -22.727
     -22.248
     -18.844
     -13.098
      -6.079
       0.913
       6.721
      10.671
      12.760
      13.533
      13.694
      13.646
      13.298
      12.269
      10.306
       7.565
       4.522
       1.651
      -0.848
      -3.025
      -4.951
      -6.554
      -7.690
      -8.353
      -8.796
      -9.392
     -10.318
     -11.326
     -11.812
     -11.157
      -9.123
      -5.995
      -2.398
       1.055
       4.045
       6.561
       8.713
      10.498
      11.688
      11.905
      10.796
       8.228
       4.408
      -0.123
      -4.618
      -8.300
     -10.541
     -10.984
      -9.624
      -6.823
      -3.277
       0.131
       2.549
       3.430
       2.730
       0.955
      -1.007
      -2.231
      -2.132
      -0.702
       1.517
       3.718
       5.212
       5.678
       5.170
       3.964
       2.396
       0.781
      -0.613
      -1.583
      -2.027
      -1.953
      -1.475
      -0.766
      -0.011
       0.641
       1.103
       1.337
       1.307
       0.955
       0.235
      -0.815
      -2.035
      -3.201
      -4.139
      -4.775
      -5.086
      -4.990
      -4.317
      -2.926
      -0.883
       1.473
       3.663
       5.301
       6.252
       6.590
       6.455
       5.922
       4.973
       3.572
       1.756
      -0.313
      -2.391
      -4.245
      -5.729
      -6.781
      -7.351
      -7.337
      -6.581
      -4.979
      -2.608
       0.205
       2.952
       5.120
       6.378
       6.660
       6.127
       5.070
       3.800
       2.583
       1.620
       1.046
       0.915
       1.180
       1.683
       2.210
       2.573
       2.705
       2.681
       2.646
       2.695
       2.782
       2.732
       2.342
       1.505
       0.263
      -1.223
      -2.750
      -4.128
      -5.177
      -5.720
      -5.610
      -4.810
      -3.445
      -1.778
      -0.102
       1.355
       2.458
       3.134
       3.345
       3.103
       2.493
       1.671
       0.803
       0.000
      -0.711
      -1.351
      -1.932
      -2.426
      -2.784
      -2.968
      -2.982
      -2.857
      -2.611
      -2.207
      -1.568
      -0.632
       0.567
       1.863
       2.994
       3.705
       3.861
       3.495
       2.765
       1.858
       0.912
       0.011
      -0.774
      -1.370
      -1.731
      -1.882
      -1.921
      -1.951
      -2.003
      -2.015
      -1.873
      -1.492
      -0.858
      -0.037
       0.862
       1.708
       2.374
       2.745
       2.718
       2.224
       1.271
      -0.010
      -1.351
      -2.403
      -2.858
      -2.588
      -1.700
      -0.488
       0.689
       1.538
       1.906
       1.786
       1.271
       0.501
      -0.373
      -1.197
      -1.815
      -2.111
      -2.063
      -1.766
      -1.391
      -1.083
      -0.882
      -0.713
      -0.452
      -0.022
       0.551
       1.150
       1.635
       1.924
       2.019
       1.983
       1.892
       1.790
       1.669
       1.477
       1.145
       0.631
      -0.046
      -0.790
      -1.463
      -1.958
      -2.246
      -2.373
      -2.386
      -2.275
      -1.976
      -1.444
      -0.730
       0.013
       0.594
       0.879
       0.828
       0.486
      -0.068
      -0.743
      -1.444
      -2.051
      -2.427
      -2.448
      -2.049
      -1.261
      -0.216
       0.877
       1.782
       2.311
       2.379
       2.015
       1.326
       0.449
      -0.483
      -1.348
      -2.048
      -2.541
      -2.856
      -3.077
      -3.268
      -3.421
      -3.455
      -3.271
      -2.807
      -2.056
      -1.043
       0.183
       1.523
       2.803
       3.783
       4.222
       3.974
       3.072
       1.752
       0.391
      -0.624
      -1.039
      -0.812
      -0.097
       0.840
       1.712
       2.286
       2.416
       2.061
       1.278
       0.228
      -0.850
      -1.694
      -2.096
      -1.972
      -1.394
      -0.552
       0.326
       1.065
       1.601
       1.978
       2.289
       2.612
       2.969
       3.319
       3.584
       3.678
       3.529
       3.101
       2.404
       1.507
       0.527
      -0.381
      -1.049
      -1.337
      -1.175
      -0.603
       0.226
       1.074
       1.698
       1.946
       1.822
       1.489
       1.181
       1.086
       1.258
       1.617
       2.004
       2.272
       2.333
       2.161
       1.748
       1.073
       0.104
      -1.159
      -2.626
      -4.090
      -5.264
      -5.871
      -5.751
      -4.929
      -3.607
      -2.086
      -0.657
       0.476
       1.242
       1.691
       1.944
       2.105
       2.197
       2.149
       1.866
       1.310
       0.528
      -0.373
      -1.289
      -2.147
      -2.880
      -3.401
      -3.596
      -3.378
      -2.747
      -1.819
      -0.813
       0.022
       0.492
       0.523
       0.184
      -0.354
      -0.872
      -1.171
      -1.117
      -0.676
       0.062
       0.894
       1.566
       1.865
       1.702
       1.123
       0.261
      -0.724
      -1.676
      -2.452
      -2.931
      -3.035
      -2.760
      -2.193
      -1.478
      -0.758
      -0.133
       0.357
       0.716
       0.964
       1.126
       1.219
       1.250
       1.217
       1.114
       0.951
       0.760
       0.583
       0.442
       0.314
       0.135
      -0.149
      -0.535
      -0.931
      -1.199
      -1.229
      -0.991
