Origin Time       18/9/2011 21:51:52	
Lat.              27.6 N	
Long.             88.4 E	
Depth (Km)         28.0
Magnitude         4.2
 Region           India(Sikkim)-Nepar-Border                                       
 Above details taken from IMD 
     
Station Code      GTK
Station Lat.       27.352  N
Station Long.      88.627  E
Station Height(m) 1536.0
Site Class        A   Vs30 between 700 m/sec to 1400 m/sec * 
Record Time       18.09.2011 21:52:26.429
Sampling Rate     200. Hz
 Record Duration   80.295 Sec.
 Direction         E-W (E positive)
Max. Acceleration      6.138 cm/sec**2
     
  * For reference see Site Classification link of website 
     
 Base Line Corrected and Low Pass Filtered (Cut Off at 35 Hz) Time History
 Acceleration data in cm/sec**2
    
[...]
       0.642
       0.491
       0.355
       0.286
       0.310
       0.422
       0.582
       0.729
       0.796
       0.739
       0.548
       0.251
      -0.093
      -0.409
      -0.637
      -0.751
      -0.756
      -0.664
      -0.488
      -0.255
      -0.027
       0.121
       0.148
       0.076
      -0.031
      -0.115
      -0.151
      -0.145
      -0.112
      -0.066
      -0.015
       0.038
       0.103
       0.184
       0.268
       0.322
       0.318
       0.254
       0.151
       0.031
      -0.092
      -0.197
      -0.263
      -0.276
      -0.240
      -0.170
      -0.071
       0.062
       0.224
       0.384
       0.498
       0.535
       0.481
       0.332
       0.095
      -0.192
      -0.453
      -0.605
      -0.600
      -0.451
      -0.216
       0.034
       0.242
       0.371
       0.402
       0.333
       0.170
      -0.077
      -0.384
      -0.695
      -0.921
      -0.968
      -0.777
      -0.361
       0.198
       0.767
       1.204
       1.397
       1.304
       0.966
       0.488
      -0.007
      -0.423
      -0.704
      -0.830
      -0.803
      -0.641
      -0.379
      -0.064
       0.236
       0.451
       0.524
       0.438
       0.229
      -0.040
      -0.303
      -0.516
      -0.656
      -0.703
      -0.641
      -0.467
      -0.200
       0.109
       0.396
       0.600
       0.678
       0.618
       0.443
       0.212
       0.002
      -0.123
      -0.142
      -0.079
       0.012
       0.084
       0.113
       0.093
       0.029
      -0.075
      -0.201
      -0.316
      -0.373
      -0.332
      -0.186
       0.029
       0.240
       0.372
       0.379
       0.257
       0.031
      -0.248
      -0.514
      -0.680
      -0.667
      -0.443
      -0.054
       0.386
       0.744
       0.922
       0.890
       0.682
       0.370
       0.040
      -0.233
      -0.410
      -0.484
      -0.466
      -0.362
      -0.180
       0.051
       0.274
       0.417
       0.429
       0.304
       0.080
      -0.186
      -0.439
      -0.639
      -0.752
      -0.739
      -0.574
      -0.264
       0.131
       0.520
       0.819
       0.976
       0.971
       0.802
       0.491
       0.091
      -0.303
      -0.593
      -0.705
      -0.623
      -0.382
      -0.057
       0.261
       0.481
       0.535
       0.390
       0.058
      -0.397
      -0.863
      -1.203
      -1.307
      -1.130
      -0.711
      -0.149
       0.429
       0.899
       1.156
       1.150
       0.911
       0.541
       0.181
      -0.052
      -0.102
       0.022
       0.250
       0.482
       0.612
       0.572
       0.347
      -0.016
      -0.428
      -0.783
      -0.994
      -1.018
      -0.868
      -0.597
      -0.266
       0.075
       0.387
       0.628
       0.753
       0.728
       0.558
       0.289
      -0.003
      -0.242
      -0.378
      -0.405
      -0.359
      -0.286
      -0.214
      -0.135
      -0.034
       0.077
       0.154
       0.159
       0.093
       0.006
      -0.044
      -0.028
       0.043
       0.147
       0.263
       0.372
       0.437
       0.409
       0.259
       0.001
      -0.306
      -0.579
      -0.749
      -0.790
      -0.725
      -0.603
      -0.470
      -0.343
      -0.213
      -0.059
       0.131
       0.343
       0.550
       0.720
       0.833
       0.883
       0.855
       0.721
       0.453
       0.069
      -0.344
      -0.648
      -0.725
      -0.537
      -0.152
       0.296
       0.661
       0.833
       0.760
       0.463
       0.028
      -0.425
      -0.776
      -0.941
      -0.897
      -0.682
      -0.376
      -0.073
       0.158
       0.290
       0.329
       0.293
       0.201
       0.080
      -0.025
      -0.059
       0.013
       0.185
       0.400
       0.572
       0.626
       0.529
       0.300
       0.009
      -0.257
      -0.437
      -0.524
      -0.551
      -0.553
      -0.532
      -0.463
      -0.334
      -0.172
      -0.032
       0.044
       0.045
      -0.014
      -0.115
      -0.229
      -0.313
      -0.309
      -0.170
       0.099
       0.435
       0.740
       0.921
       0.930
       0.774
       0.502
       0.186
      -0.114
      -0.365
      -0.550
      -0.651
      -0.651
      -0.550
      -0.386
      -0.219
      -0.097
      -0.024
       0.038
       0.138
       0.300
       0.498
       0.665
       0.729
       0.660
       0.482
       0.250
       0.013
      -0.209
      -0.404
      -0.553
      -0.619
      -0.574
      -0.422
      -0.211
      -0.009
       0.127
       0.175
       0.150
       0.088
       0.029
       0.003
       0.024
       0.093
       0.196
       0.308
       0.392
       0.415
       0.348
       0.179
      -0.082
      -0.396
      -0.697
      -0.913
      -0.986
      -0.892
      -0.646
      -0.283
       0.145
       0.577
       0.936
       1.139
       1.114
       0.842
       0.386
      -0.121
      -0.534
      -0.762
      -0.790
      -0.657
      -0.412
      -0.101
       0.216
       0.463
       0.561
       0.464
       0.189
      -0.179
      -0.509
      -0.676
      -0.610
      -0.326
       0.087
       0.507
       0.826
       0.972
       0.914
       0.674
       0.315
      -0.068
      -0.384
      -0.574
      -0.623
      -0.548
      -0.392
      -0.209
      -0.050
       0.049
       0.081
       0.060
       0.007
      -0.049
      -0.073
      -0.035
       0.071
       0.211
       0.326
       0.359
       0.289
       0.144
      -0.012
      -0.113
      -0.126
      -0.066
       0.014
       0.060
       0.051
       0.004
      -0.050
      -0.096
      -0.141
      -0.203
      -0.283
      -0.357
      -0.382
      -0.324
      -0.178
       0.023
       0.217
       0.342
       0.357
       0.259
       0.083
      -0.106
      -0.232
      -0.242
      -0.131
       0.052
       0.224
       0.314
       0.294
       0.188
       0.044
      -0.090
      -0.186
      -0.239
      -0.258
      -0.250
      -0.213
      -0.139
      -0.023
       0.121
       0.249
       0.311
       0.277
       0.162
       0.018
      -0.107
      -0.187
      -0.226
      -0.235
      -0.228
      -0.207
      -0.165
      -0.077
       0.075
       0.284
       0.505
       0.669
       0.715
       0.621
       0.410
       0.133
      -0.140
      -0.346
      -0.446
      -0.446
      -0.388
      -0.326
      -0.291
      -0.282
      -0.282
      -0.274
      -0.242
      -0.162
      -0.005
       0.231
       0.499
       0.708
       0.767
       0.631
       0.319
      -0.098
      -0.519
      -0.831
      -0.938
      -0.796
      -0.434
       0.046
       0.506
       0.814
       0.894
       0.748
       0.456
       0.137
      -0.114
      -0.259
      -0.325
      -0.357
      -0.384
      -0.411
      -0.437
      -0.459
      -0.470
      -0.445
      -0.355
      -0.183
       0.054
       0.310
       0.519
       0.617
       0.572
       0.400
       0.162
      -0.060
      -0.193
      -0.197
      -0.079
       0.114
       0.313
       0.444
       0.464
       0.367
       0.191
      -0.011
      -0.192
      -0.325
      -0.401
      -0.426
      -0.416
      -0.392
      -0.371
      -0.352
      -0.314
      -0.222
      -0.057
       0.171
       0.414
       0.609
       0.703
       0.675
       0.537
       0.322
       0.070
      -0.171
      -0.342
      -0.386
      -0.277
      -0.042
       0.239
       0.467
       0.562
       0.490
       0.270
      -0.046
      -0.387
      -0.683
      -0.866
      -0.892
      -0.751
      -0.481
      -0.160
       0.125
       0.317
       0.402
       0.406
       0.362
       0.300
       0.243
       0.200
       0.170
       0.131
       0.064
      -0.037
      -0.150
      -0.235
      -0.263
      -0.226
      -0.145
      -0.060
      -0.007
       0.002
      -0.020
      -0.049
      -0.067
      -0.067
      -0.044
       0.016
       0.112
       0.213
       0.260
       0.204
       0.048
      -0.151
      -0.301
      -0.319
      -0.166
       0.133
       0.489
       0.776
       0.886
       0.778
       0.486
       0.096
      -0.293
      -0.604
      -0.799
      -0.877
      -0.865
      -0.798
      -0.710
      -0.632
      -0.582
      -0.557
      -0.524
      -0.430
      -0.230
       0.083
       0.472
       0.871
       1.211
       1.442
       1.537
       1.485
       1.284
       0.945
       0.504
       0.019
      -0.437
      -0.801
      -1.026
      -1.091
      -0.996
      -0.770
      -0.471
      -0.182
       0.014
       0.056
      -0.065
      -0.288
      -0.504
      -0.603
      -0.525
      -0.276
       0.086
       0.492
       0.864
       1.123
       1.193
       1.031
       0.664
       0.183
      -0.286
      -0.630
      -0.781
      -0.733
      -0.531
      -0.246
       0.057
       0.331
       0.530
       0.600
       0.501
       0.248
      -0.061
      -0.285
      -0.317
      -0.148
       0.133
       0.395
       0.536
       0.520
       0.379
       0.170
      -0.055
      -0.268
      -0.458
      -0.611
      -0.705
      -0.724
      -0.670
      -0.565
      -0.437
      -0.302
      -0.153
       0.036
       0.274
       0.535
       0.757
       0.872
       0.843
       0.680
       0.424
       0.129
      -0.155
      -0.386
      -0.526
      -0.547
      -0.438
      -0.224
       0.033
       0.246
       0.336
       0.285
       0.142
      -0.017
      -0.137
      -0.220
      -0.296
      -0.388
      -0.481
      -0.533
      -0.496
      -0.349
      -0.107
       0.172
       0.409
       0.531
       0.503
       0.335
       0.082
      -0.173
      -0.348
      -0.382
      -0.262
      -0.040
       0.194
       0.342
       0.354
       0.243
       0.072
      -0.085
      -0.185
      -0.219
      -0.199
      -0.121
       0.035
       0.273
       0.557
       0.818
       0.995
       1.060
       1.013
       0.854
       0.578
       0.197
      -0.241
      -0.656
      -0.975
      -1.150
      -1.171
      -1.057
      -0.854
      -0.616
      -0.390
      -0.196
      -0.040
       0.073
       0.131
       0.137
       0.115
       0.103
       0.130
       0.204
       0.315
       0.444
       0.556
       0.606
       0.555
       0.395
       0.166
      -0.063
      -0.221
      -0.268
      -0.214
      -0.103
       0.009
       0.074
       0.069
      -0.005
      -0.128
      -0.261
      -0.350
      -0.350
      -0.248
      -0.088
       0.049
       0.093
       0.023
      -0.125
      -0.282
      -0.377
      -0.365
      -0.235
       0.002
       0.307
       0.624
       0.878
       0.988
       0.901
       0.615
       0.192
      -0.265
      -0.648
      -0.881
      -0.941
      -0.850
      -0.659
      -0.419
      -0.159
       0.106
       0.354
       0.536
       0.589
       0.489
       0.272
       0.023
      -0.179
      -0.296
      -0.323
      -0.262
      -0.109
       0.135
       0.438
       0.732
       0.930
       0.956
       0.776
       0.411
      -0.059
      -0.530
      -0.907
      -1.129
      -1.168
      -1.022
      -0.719
      -0.318
       0.086
       0.401
       0.572
       0.602
       0.533
       0.416
       0.283
       0.150
       0.027
      -0.056
      -0.063
       0.031
       0.201
       0.377
       0.477
       0.451
       0.308
       0.101
      -0.109
      -0.282
      -0.409
      -0.505
      -0.586
      -0.653
      -0.680
      -0.621
      -0.435
      -0.122
       0.259
       0.612
       0.834
       0.856
       0.661
       0.287
      -0.179
      -0.625
      -0.941
      -1.044
      -0.909
      -0.572
      -0.115
       0.358
       0.753
       0.996
       1.050
       0.915
       0.642
       0.322
       0.048
      -0.118
      -0.171
      -0.153
      -0.118
      -0.110
      -0.144
      -0.213
      -0.292
      -0.348
      -0.353
      -0.287
      -0.158
      -0.004
       0.126
       0.189
       0.174
       0.090
      -0.043
      -0.203
      -0.359
      -0.467
      -0.480
      -0.371
      -0.147
       0.142
       0.421
       0.615
       0.664
       0.546
       0.283
      -0.054
      -0.355
      -0.507
      -0.442
      -0.177
       0.193
       0.546
       0.786
       0.868
       0.790
       0.572
       0.253
      -0.101
      -0.411
      -0.615
      -0.699
      -0.688
      -0.622
      -0.520
      -0.378
      -0.195
       0.013
       0.201
       0.307
       0.279
       0.106
      -0.155
      -0.401
      -0.527
      -0.478
      -0.267
       0.033
       0.325
       0.515
       0.555
       0.447
       0.248
       0.038
      -0.108
      -0.149
      -0.082
       0.060
       0.207
       0.267
       0.147
      -0.212
      -0.800
      -1.514
      -2.176
      -2.599
      -2.659
      -2.352
      -1.774
      -1.060
      -0.318
       0.400
       1.076
       1.693
       2.219
       2.605
       2.818
       2.855
       2.753
       2.561
       2.312
       1.990
       1.543
       0.926
       0.158
      -0.661
      -1.387
      -1.900
      -2.173
      -2.272
      -2.299
      -2.312
      -2.305
      -2.253
      -2.173
      -2.121
      -2.138
      -2.185
      -2.143
      -1.884
      -1.355
      -0.596
       0.303
       1.271
       2.290
       3.358
       4.429
       5.376
       6.008
       6.138
       5.670
       4.633
       3.179
       1.539
      -0.024
      -1.263
      -1.989
      -2.130
      -1.780
      -1.192
      -0.694
      -0.564
      -0.921
      -1.704
      -2.725
      -3.749
      -4.551
      -4.942
      -4.792
      -4.049
      -2.766
      -1.113
       0.635
       2.156
       3.170
       3.554
       3.390
       2.921
       2.423
       2.088
       1.976
       2.045
       2.205
       2.337
       2.297
       1.959
       1.285
       0.379
      -0.529
      -1.187
      -1.450
      -1.352
      -1.063
      -0.774
      -0.568
      -0.385
      -0.087
       0.402
       0.997
       1.469
       1.585
       1.274
       0.688
       0.101
      -0.279
      -0.434
      -0.505
      -0.649
      -0.915
      -1.225
      -1.465
      -1.588
      -1.640
      -1.687
      -1.742
      -1.741
      -1.625
      -1.428
      -1.281
      -1.309
      -1.492
      -1.634
      -1.494
      -0.972
      -0.185
       0.626
       1.282
       1.765
       2.149
       2.448
       2.530
       2.195
       1.353
       0.169
      -0.984
      -1.728
      -1.895
      -1.609
      -1.180
      -0.906
      -0.933
      -1.215
      -1.589
      -1.865
      -1.898
      -1.619
      -1.043
      -0.259
       0.583
       1.315
       1.803
       1.987
       1.907
       1.669
       1.393
       1.135
       0.871
       0.536
       0.108
      -0.347
      -0.696
      -0.828
      -0.732
      -0.507
      -0.304
      -0.221
      -0.246
      -0.282
      -0.227
      -0.059
       0.149
       0.285
       0.266
       0.095
      -0.152
      -0.376
      -0.512
      -0.551
      -0.519
      -0.439
      -0.313
      -0.128
       0.114
       0.383
       0.634
       0.841
       0.999
       1.120
       1.196
       1.206
       1.132
       0.991
       0.820
       0.647
       0.466
       0.251
       0.006
      -0.203
      -0.265
      -0.104
       0.256
       0.673
       0.952
       0.946
       0.629
       0.097
      -0.489
      -0.985
      -1.316
      -1.475
      -1.471
      -1.278
      -0.833
      -0.100
       0.859
       1.855
       2.629
       2.964
       2.782
       2.169
       1.317
       0.423
      -0.378
      -1.030
      -1.508
      -1.780
      -1.808
      -1.601
      -1.253
      -0.919
      -0.747
      -0.801
      -1.048
      -1.391
      -1.731
      -1.988
      -2.102
      -2.030
      -1.744
      -1.248
      -0.586
       0.159
       0.886
       1.509
       1.989
       2.333
       2.561
       2.672
       2.622
       2.357
       1.850
       1.142
       0.345
      -0.388
      -0.915
      -1.159
      -1.129
      -0.916
      -0.644
      -0.425
      -0.330
      -0.378
      -0.561
      -0.844
      -1.182
      -1.519
      -1.806
      -2.004
      -2.078
      -1.992
      -1.707
      -1.197
      -0.477
       0.374
       1.224
       1.931
       2.390
       2.566
       2.494
       2.248
       1.911
       1.559
       1.245
       0.985
       0.759
       0.514
       0.191
      -0.236
      -0.741
      -1.238
      -1.616
      -1.785
      -1.717
      -1.447
      -1.032
      -0.509
       0.109
       0.800
       1.496
       2.085
       2.442
       2.469
       2.123
       1.437
       0.528
      -0.406
      -1.147
      -1.541
      -1.567
      -1.342
      -1.050
      -0.844
      -0.787
      -0.857
      -0.982
      -1.079
      -1.090
      -0.999
      -0.837
      -0.653
      -0.484
      -0.323
      -0.130
       0.135
       0.480
       0.872
       1.250
       1.554
       1.743
       1.803
       1.736
       1.557
       1.288
       0.971
       0.663
       0.409
       0.205
      -0.014
      -0.333
      -0.786
      -1.320
      -1.824
      -2.190
      -2.363
      -2.341
      -2.150
      -1.813
      -1.342
      -0.739
      -0.012
       0.810
       1.654
       2.405
       2.932
       3.127
       2.936
       2.374
       1.532
       0.551
      -0.404
      -1.199
      -1.756
      -2.055
      -2.116
      -1.978
      -1.697
      -1.333
      -0.954
      -0.617
      -0.370
      -0.228
      -0.163
      -0.113
      -0.017
       0.133
       0.288
       0.381
       0.378
       0.301
       0.207
       0.149
       0.161
       0.264
       0.464
       0.740
       1.035
       1.266
       1.352
       1.245
       0.942
       0.494
      -0.009
      -0.457
      -0.754
      -0.844
      -0.722
      -0.421
       0.009
       0.518
       1.044
       1.500
       1.772
       1.758
       1.414
       0.790
       0.014
      -0.758
      -1.398
      -1.836
      -2.059
      -2.086
      -1.956
      -1.709
      -1.386
      -1.024
      -0.664
      -0.348
      -0.117
       0.004
       0.028
       0.001
      -0.009
       0.050
       0.196
       0.410
       0.648
       0.862
       1.011
       1.076
       1.049
       0.928
       0.717
       0.442
       0.149
      -0.108
      -0.292
      -0.400
      -0.455
      -0.495
      -0.557
      -0.670
      -0.830
      -1.004
      -1.141
      -1.200
      -1.154
      -0.984
      -0.661
      -0.163
       0.493
       1.228
       1.916
       2.420
       2.633
       2.492
       1.987
       1.175
       0.188
      -0.783
      -1.543
      -1.965
      -2.027
      -1.790
      -1.353
      -0.812
      -0.255
       0.224
       0.530
       0.592
       0.400
       0.029
      -0.386
      -0.697
      -0.794
      -0.644
      -0.281
       0.217
       0.755
       1.228
       1.534
       1.595
       1.396
       1.002
       0.541
       0.146
      -0.103
      -0.199
      -0.186
      -0.127
      -0.072
      -0.054
      -0.083
      -0.152
