Origin Time       18/9/2011 12:40:47	
Lat.              27.6 N	
Long.             88.2 E	
Depth (Km)         10.0
Magnitude         6.8
 Region           India(Sikkim)-Nepar-Border                                       
 Above details taken from IMD 
   
Station Code      GTK
Station Lat.       27.352
Station Long.      88.627
Station Height(m) 1536.0
Site Class        A   Vs30 between 700 m/sec to 1400 m/sec * 
Record Time       18.09.2011 12:41:25.739
Sampling Rate     200. Hz
 Record Duration  194.295 Sec.
 Direction         Vert. (Up positive)
Max. Acceleration    132.249 cm/sec**2
     
  * For reference see Site Classification link of website 
     
 Base Line Corrected and Low Pass Filtered (Cut Off at 35 Hz) Time History
 Acceleration data in cm/sec**2
    
[...]
      46.105
      36.228
      15.254
     -10.451
     -32.204
     -42.295
     -37.688
     -21.580
      -1.575
      14.386
      21.658
      20.069
      12.634
       3.382
      -4.055
      -6.787
      -2.770
       8.521
      25.146
      42.633
      55.583
      60.204
      55.938
      45.008
      30.632
      15.553
       1.712
      -9.547
     -17.657
     -23.423
     -29.052
     -36.883
     -47.413
     -58.368
     -65.994
     -67.652
     -63.388
     -55.049
     -44.021
     -30.089
     -12.632
       7.251
      26.134
      39.917
      46.099
      44.647
      37.271
      26.482
      15.377
       7.543
       5.985
      11.281
      20.612
      29.003
      32.059
      28.023
      17.866
       4.107
     -10.162
     -21.769
     -28.351
     -29.888
     -29.415
     -31.340
     -37.940
     -46.920
     -52.533
     -49.685
     -37.627
     -20.162
      -2.489
      12.249
      23.718
      32.436
      37.696
      37.727
      31.842
      22.276
      13.718
      10.710
      14.982
      24.754
      36.257
      45.793
      50.639
      48.784
      38.767
      20.401
      -4.177
     -30.263
     -51.728
     -63.201
     -62.296
     -50.662
     -33.180
     -15.741
      -3.019
       2.608
       0.953
      -6.452
     -16.660
     -25.642
     -29.203
     -24.551
     -11.739
       6.184
      24.806
      40.674
      52.349
      59.371
      60.480
      53.368
      36.714
      12.822
     -11.851
     -29.404
     -34.722
     -28.092
     -14.475
      -0.566
       7.900
       7.253
      -3.880
     -24.060
     -48.320
     -68.666
     -76.797
     -68.206
     -45.100
     -15.715
      10.036
      25.825
      31.518
      31.766
      32.251
      36.394
      44.196
      53.148
      60.128
      63.056
      61.499
      56.156
      47.910
      37.413
      25.548
      14.158
       5.874
       2.705
       4.317
       7.570
       8.050
       2.792
      -7.790
     -20.384
     -31.354
     -39.273
     -45.170
     -50.399
     -54.263
     -53.832
     -46.364
     -32.228
     -15.573
      -1.830
       5.980
       9.020
      10.931
      14.151
      17.559
      17.581
      11.797
       1.764
      -7.647
     -11.913
     -10.233
      -5.615
      -1.830
      -0.265
       0.467
       2.137
       4.346
       4.283
      -0.997
     -11.913
     -25.587
     -37.380
     -43.171
     -40.677
     -29.585
     -11.452
      10.123
      29.692
      41.470
      41.888
      31.607
      15.369
      -0.381
     -10.545
     -13.246
      -9.798
      -3.393
       2.529
       5.598
       5.245
       2.655
      -0.160
      -1.791
      -2.438
      -3.670
      -7.099
     -13.065
     -20.347
     -26.827
     -30.327
     -29.209
     -23.037
     -13.230
      -2.884
       4.897
       9.139
      11.451
      13.882
      16.156
      15.486
       9.767
       1.009
      -4.979
      -3.023
       6.949
      19.750
      29.103
      31.966
      29.182
      22.832
      13.819
       2.251
     -10.443
     -20.734
     -24.971
     -22.267
     -15.223
      -7.651
      -1.583
       3.404
       8.004
      10.769
       8.539
      -0.149
     -12.047
     -20.105
     -18.099
      -5.064
      14.194
      32.545
      44.663
      48.803
      45.870
      37.638
      25.907
      12.687
       0.368
      -8.861
     -13.859
     -14.699
     -11.969
      -6.221
       1.467
       8.333
      10.008
       2.914
     -12.419
     -30.175
     -41.999
     -42.084
     -30.683
     -13.394
       2.775
      12.972
      15.271
       9.546
      -2.944
     -18.411
     -29.971
     -30.069
     -15.253
      10.513
      37.356
      55.121
      58.750
      49.437
      31.650
       9.605
     -13.661
     -34.776
     -48.783
     -50.269
     -36.451
      -9.735
      22.390
      50.168
      65.349
      63.961
      47.259
      20.934
      -6.983
     -28.897
     -40.083
     -39.669
     -29.883
     -14.440
       2.564
      16.839
      24.155
      21.715
      10.092
      -6.327
     -21.555
     -31.478
     -35.724
     -36.466
     -35.544
     -32.662
     -26.145
     -15.277
      -1.882
      10.387
      18.454
      21.869
      22.776
      23.881
      26.110
      27.929
      26.806
      21.396
      12.499
       2.288
      -7.031
     -13.835
     -17.070
     -16.492
     -13.305
     -10.300
     -10.750
     -16.554
     -27.008
     -39.145
     -49.329
     -54.901
     -54.815
     -49.104
     -37.964
     -21.574
      -1.139
      19.747
      35.230
      39.662
      31.038
      12.641
      -8.658
     -26.197
     -36.429
     -38.902
     -34.061
     -21.614
      -1.413
      23.991
      48.062
      62.361
      61.082
      44.651
      19.560
      -5.412
     -23.620
     -32.569
     -33.001
     -26.959
     -16.782
      -5.149
       5.032
      11.608
      14.247
      14.264
      13.092
      10.851
       6.576
       0.054
      -6.535
      -9.092
      -4.271
       7.807
      23.388
      37.765
      48.130
      53.771
      53.970
      46.841
      31.297
      10.360
      -8.242
     -16.043
      -9.515
       7.539
      27.035
      42.275
      51.205
      55.060
      54.737
      48.949
      35.761
      15.514
      -7.983
     -29.085
     -43.136
     -48.180
     -44.803
     -35.163
     -22.345
      -9.914
      -0.852
       3.936
       6.088
       8.260
      11.745
      15.510
      17.522
      16.720
      13.353
       7.580
      -1.345
     -13.360
     -24.781
     -28.325
     -17.928
       5.029
      30.360
      45.121
      42.407
      25.118
       1.663
     -21.585
     -43.617
     -65.435
     -84.656
     -94.540
     -88.808
     -67.493
     -38.159
     -11.434
       5.201
      10.674
       9.080
       5.806
       4.149
       4.524
       5.956
       7.740
       9.549
      10.415
       8.433
       2.073
      -8.007
     -18.575
     -25.523
     -26.462
     -22.241
     -16.290
     -12.324
     -12.143
     -15.082
     -19.269
     -23.408
     -27.500
     -31.946
     -35.946
     -36.690
     -30.202
     -13.575
      12.537
      42.670
      67.727
      78.630
      70.796
      46.760
      15.035
     -14.168
     -33.380
     -39.657
     -33.502
     -17.256
       5.036
      26.900
      40.287
      38.988
      22.411
      -3.733
     -30.799
     -51.804
     -63.388
     -64.369
     -53.750
     -31.127
       0.890
      35.362
      63.014
      76.497
      73.829
      58.531
      36.675
      13.353
      -8.774
     -28.247
     -42.662
     -48.044
     -40.681
     -20.053
       9.692
      41.186
      67.137
      82.693
      85.291
      73.387
      46.712
       8.473
     -33.182
     -67.322
     -85.473
     -86.003
     -73.948
     -56.495
     -38.215
     -20.052
      -2.101
      13.515
      23.009
      24.164
      19.070
      13.483
      13.016
      19.126
      28.110
      33.909
      32.548
      24.825
      15.390
       9.239
       8.560
      12.176
      17.385
      22.091
      25.524
      27.635
      28.262
      26.672
      21.443
      10.836
      -6.163
     -28.442
     -51.800
     -69.263
     -73.185
     -58.837
     -27.818
      11.165
      45.584
      65.125
      66.767
      55.515
      40.481
      29.304
      24.651
      24.550
      25.396
      24.829
      22.343
      17.928
      11.030
       1.399
      -9.230
     -17.014
     -18.279
     -12.673
      -4.553
      -0.959
      -7.010
     -21.867
     -38.670
     -49.137
     -49.487
     -42.752
     -35.187
     -29.849
     -23.401
      -9.595
      13.551
      39.670
      57.235
      57.528
      40.722
      15.272
      -8.411
     -24.562
     -33.872
     -39.911
     -44.140
     -44.106
     -36.208
     -20.381
      -2.506
       7.904
       3.629
     -14.846
     -38.911
     -57.367
     -63.813
     -59.658
     -50.344
     -38.706
     -22.193
       3.232
      36.404
      68.324
      86.667
      83.864
      62.099
      31.412
       2.973
     -17.019
     -28.530
     -34.120
     -34.680
     -28.814
     -16.299
      -1.448
       8.161
       7.294
      -2.386
     -13.689
     -20.189
     -21.446
     -22.485
     -28.740
     -41.655
     -58.340
     -73.902
     -83.049
     -80.118
     -60.089
     -22.460
      24.626
      65.385
      84.281
      75.482
      46.019
      10.365
     -18.061
     -31.629
     -28.156
      -9.266
      19.651
      49.224
      68.734
      71.795
      61.125
      47.509
      42.160
      47.726
      55.567
      52.354
      30.885
      -4.042
     -39.448
     -63.612
     -72.494
     -68.551
     -55.376
     -34.923
      -9.896
      12.704
      22.476
      11.929
     -16.881
     -51.681
     -76.487
     -80.091
     -60.179
     -21.770
      26.340
      73.782
     109.881
     126.110
     119.611
      94.951
      61.814
      29.736
       3.927
     -14.579
     -25.142
     -24.287
      -6.985
      27.670
      71.166
     106.459
     116.314
      93.687
      46.079
      -9.712
     -58.022
     -91.396
    -109.333
    -111.830
     -95.739
     -58.604
      -6.215
      45.044
      76.022
      77.892
      59.212
      39.529
      33.971
      42.091
      50.639
      46.833
      29.459
       8.544
      -4.245
      -4.458
       4.539
      17.453
      31.436
      44.226
      50.134
      41.287
      14.963
     -20.805
     -50.834
     -63.545
     -58.898
     -46.004
     -33.072
     -19.920
      -0.766
      25.571
      49.118
      53.986
      31.868
      -8.698
     -46.644
     -63.155
     -54.121
     -30.093
      -5.515
      11.895
      22.788
      29.866
      31.814
      23.843
       3.662
     -23.565
     -46.480
     -54.639
     -45.928
     -28.128
     -13.162
      -8.962
     -15.817
     -29.386
     -46.032
     -64.737
     -84.199
     -99.039
    -100.156
     -80.378
     -41.165
       5.844
      44.779
      64.689
      64.786
      52.518
      37.353
      25.520
      18.445
      14.166
       9.746
       3.340
      -4.823
     -12.882
     -18.798
     -21.510
     -20.875
     -16.890
      -9.602
      -0.059
       8.993
      14.081
      13.192
       7.106
      -1.544
     -10.662
     -20.100
     -30.631
     -41.620
     -49.949
     -51.295
     -42.516
     -23.217
       4.072
      34.544
      62.169
      81.182
      87.766
      81.075
      62.920
      36.478
       5.364
     -25.966
     -51.410
     -64.064
     -59.270
     -37.809
      -6.487
      24.486
      45.448
      50.420
      38.631
      14.493
     -14.102
     -39.041
     -55.382
     -62.525
     -62.061
     -54.182
     -36.533
      -7.521
      28.639
      60.799
      76.299
      69.324
      45.195
      16.816
      -3.861
     -12.576
     -13.117
     -12.255
     -14.235
     -19.016
     -24.362
     -28.538
     -30.736
     -29.651
     -23.018
      -9.815
       6.805
      19.665
      22.073
      13.263
      -0.499
     -10.730
     -13.235
     -10.326
      -7.098
      -5.985
      -5.068
      -1.354
       4.725
       8.463
       4.982
      -5.348
     -15.607
     -17.068
      -6.081
      13.138
      32.164
      44.557
      48.681
      45.485
      35.170
      17.222
      -6.460
     -29.791
     -45.120
     -48.139
     -40.312
     -26.832
     -12.664
      -0.466
       8.854
      15.114
      18.861
      21.363
      23.300
      23.392
      19.263
      10.408
      -0.044
      -7.285
      -8.828
      -6.124
      -1.962
       3.208
      11.479
      23.836
      36.919
      44.171
      40.500
      25.860
       4.635
     -17.659
     -36.509
     -47.970
     -48.096
     -34.874
     -11.342
      14.129
      31.988
      36.791
      29.073
      13.123
      -5.975
     -23.092
     -32.588
     -29.487
     -12.693
      12.907
      38.245
      54.715
      57.927
      48.432
      30.394
      10.003
      -6.116
     -13.204
     -10.847
      -3.609
       1.441
      -1.133
     -12.353
     -28.975
     -45.306
     -54.845
     -51.907
     -34.410
      -6.871
      19.957
      34.650
      32.427
      17.831
       0.032
     -14.849
     -26.861
     -37.980
     -45.782
     -42.956
     -24.388
       5.288
      32.381
      43.937
      37.746
      22.697
       9.039
      -1.440
     -15.202
     -37.273
     -62.714
     -78.501
     -74.071
     -50.149
     -17.813
      10.157
      26.916
      32.320
      28.844
      18.570
       3.980
     -10.042
     -16.886
     -12.014
       3.511
      23.297
      39.892
      49.550
      53.453
      54.489
      52.908
      45.409
      28.817
       4.647
     -20.346
     -38.635
     -47.269
     -48.922
     -47.739
     -44.422
     -35.861
     -19.886
      -0.104
      14.716
      16.903
       6.252
      -9.340
     -19.466
     -18.111
      -6.388
      10.191
      26.672
      41.569
      55.995
      70.626
      83.392
      89.624
      84.329
      65.094
      33.905
      -3.163
     -38.249
     -64.640
     -78.616
     -79.439
     -68.088
     -46.124
     -15.839
      18.304
      48.378
      64.034
      56.758
      25.218
     -22.297
     -70.615
    -103.921
    -111.577
     -90.759
     -46.059
      12.324
      70.697
     114.519
     132.249
     119.697
      82.356
      33.354
     -12.384
     -44.140
     -57.970
     -55.113
     -38.608
     -11.545
      21.542
      52.390
      70.028
      66.524
      43.265
      11.412
     -15.124
     -28.578
     -30.538
     -27.572
     -24.475
     -21.711
     -18.339
     -15.696
     -16.888
     -22.634
     -28.916
     -30.256
     -25.776
     -21.260
     -24.086
     -35.678
     -49.205
     -55.009
     -48.544
     -33.468
     -17.542
      -5.715
       3.054
      12.814
      25.207
      37.330
      44.590
      45.061
      40.732
      34.686
      27.427
      16.235
      -1.527
     -23.947
     -43.133
     -48.830
     -34.948
      -4.377
      31.372
      57.668
      64.265
      50.416
      24.327
      -2.717
     -23.142
     -35.540
     -41.646
     -42.010
     -35.344
     -21.958
      -6.665
       3.231
       3.715
      -2.348
      -8.135
      -9.645
      -9.036
     -10.733
     -14.715
     -14.924
      -5.304
      12.598
      28.710
      31.881
      18.904
      -3.208
     -23.416
     -35.056
     -38.785
     -38.405
     -34.891
     -25.172
      -6.769
      16.826
      36.086
      41.601
      31.265
      12.110
      -4.986
     -13.203
     -13.597
     -11.992
     -12.484
     -14.006
     -12.891
      -8.081
      -3.000
      -2.024
      -5.568
      -9.312
      -8.478
      -2.602
       4.023
       6.284
       2.346
      -5.745
     -14.670
     -22.416
     -28.328
     -31.323
     -29.073
     -19.631
      -3.903
      13.792
      27.820
      34.202
      32.391
      25.320
      18.162
      16.158
      21.980
      33.899
      46.414
      53.622
      53.104
      46.962
      38.945
      30.429
      19.485
       4.072
     -14.116
     -29.485
     -36.584
     -34.490
     -27.185
     -19.440
     -12.246
      -2.672
      11.103
      24.553
      27.806
      13.800
     -13.252
     -37.874
     -43.529
     -25.004
       7.726
      37.467
      52.305
      51.817
      43.118
      32.833
      23.609
      16.814
      15.572
      23.081
      38.144
      53.726
      60.851
      54.403
      35.950
      12.020
     -10.034
     -25.552
     -33.894
     -37.670
     -40.609
     -44.951
     -49.716
     -51.267
     -46.108
     -33.756
     -17.156
      -0.371
      13.996
      25.030
      31.632
      31.427
      22.536
       6.737
      -9.697
     -19.319
     -18.590
     -10.101
       0.295
       8.770
      16.061
      24.891
      35.252
      42.725
      41.654
      29.879
      10.283
     -11.993
     -33.378
     -52.822
     -69.444
     -80.114
     -80.247
     -67.547
     -45.023
     -20.007
       0.336
      13.090
      19.835
      23.379
      24.428
      21.145
      11.486
      -4.000
     -20.913
     -31.811
     -28.839
      -7.607
      29.168
      70.582
     100.755
     105.711
      80.674
      33.310
     -19.680
     -60.910
     -80.239
     -77.451
     -59.175
     -33.691
      -7.774
      13.326
      24.984
      24.055
      11.491
      -6.261
     -19.912
     -23.236
     -17.662
     -11.211
     -11.932
     -20.997
     -31.431
     -33.848
     -24.313
      -7.378
       8.171
      16.560
      18.532
      18.631
      19.951
      21.847
      22.131
      20.305
      17.800
      15.353
      11.305
       3.430
      -7.577
     -17.071
     -19.504
     -13.002
      -1.585
       6.940
       6.215
      -3.670
     -15.267
     -18.641
      -9.228
       7.692
      20.449
      20.045
       6.822
     -11.279
     -26.526
     -36.917
     -44.158
     -47.711
     -43.037
     -27.144
      -5.501
       8.399
       2.680
     -22.119
     -51.483
     -66.874
     -58.653
     -31.058
       3.603
      34.460
      56.412
      67.398
      64.279
      43.545
       6.779
     -35.408
     -66.742
     -74.820
     -59.214
     -31.078
      -4.457
      13.296
      24.099
      33.483
      42.761
      46.444
      37.065
      12.772
     -19.095
     -45.474
     -55.233
     -45.225
     -20.945
       7.605
      31.236
      44.751
      47.043
      39.587
      25.344
       8.716
      -4.578
      -9.017
      -2.068
      13.389
      29.216
      35.969
      28.956
      11.661
      -7.075
     -19.935
     -25.449
     -25.995
     -22.841
     -14.431
       0.362
      18.263
      31.897
      34.620
      25.439
       9.465
      -6.268
     -17.514
     -23.724
     -24.945
     -18.900
      -2.436
      23.469
      50.773
      68.171
      69.355
      57.915
      43.577
      33.121
      24.781
      11.416
     -11.049
     -38.371
     -60.676
     -69.807
     -64.053
     -46.881
     -22.905
       3.804
      28.280
      43.830
      44.634
      29.829
       4.767
     -22.066
     -43.695
     -56.972
     -61.542
     -57.553
     -44.772
     -23.757
       2.344
      27.463
      44.801
      50.454
      45.818
      36.557
      28.651
      24.667
      23.330
      22.389
      21.602
      22.734
      26.785
      31.722
      33.474
      29.411
      20.780
      11.653
       5.569
       3.209
       3.118
       4.327
       7.776
      14.773
      23.950
      30.288
      28.019
      15.084
      -5.160
     -26.598
     -44.728
     -58.649
     -69.265
     -75.919
     -74.916
     -61.513
     -33.884
       4.124
      43.664
      74.576
      89.537
      86.193
      66.671
      35.898
       0.442
     -32.088
     -54.453
     -62.429
     -56.743
     -41.952
     -22.802
      -1.377
      22.513
      48.833
      75.596
      99.175
     115.672
     122.119
     117.271
     102.219
      80.626
      57.898
      38.999
      26.089
      18.052
      12.619
       9.091
