Origin Time       18/9/2011 13:54:17	
Lat.              27.5 N	
Long.             88.4 E	
Depth (Km)          9.0
Magnitude         4.5
 Region           India(Sikkim)-Nepar-Border                                       
 Above details taken from IMD 
     
Station Code      GTK
Station Lat.       27.352  N
Station Long.      88.627  E
Station Height(m) 1536.0
Site Class        A   Vs30 between 700 m/sec to 1400 m/sec * 
Record Time       18.09.2011 13:54:43.729
Sampling Rate     200. Hz
 Record Duration   86.335 Sec.
 Direction         E-W (E positive)
Max. Acceleration     26.447 cm/sec**2
     
  * For reference see Site Classification link of website 
     
 Base Line Corrected and Low Pass Filtered (Cut Off at 35 Hz) Time History
 Acceleration data in cm/sec**2
    
[...]
       0.011
       0.011
       0.006
       0.001
      -0.003
      -0.008
      -0.016
      -0.024
      -0.027
      -0.021
      -0.009
       0.002
       0.007
       0.007
       0.006
       0.005
       0.003
      -0.001
      -0.006
      -0.007
      -0.004
       0.000
       0.001
      -0.004
      -0.011
      -0.018
      -0.021
      -0.021
      -0.019
      -0.015
      -0.011
      -0.007
      -0.003
       0.001
       0.004
       0.005
       0.004
       0.001
      -0.002
      -0.005
      -0.008
      -0.014
      -0.019
      -0.019
      -0.012
      -0.001
       0.007
       0.009
       0.005
      -0.001
      -0.007
      -0.014
      -0.022
      -0.031
      -0.036
      -0.032
      -0.020
      -0.004
       0.009
       0.016
       0.014
       0.007
       0.000
      -0.004
      -0.007
      -0.009
      -0.013
      -0.017
      -0.019
      -0.016
      -0.008
       0.002
       0.011
       0.016
       0.013
       0.004
      -0.007
      -0.017
      -0.019
      -0.015
      -0.008
      -0.003
      -0.004
      -0.008
      -0.013
      -0.014
      -0.011
      -0.005
      -0.001
      -0.001
      -0.004
      -0.009
      -0.013
      -0.014
      -0.012
      -0.008
      -0.004
      -0.002
      -0.004
      -0.008
      -0.007
       0.000
       0.013
       0.025
       0.031
       0.028
       0.018
       0.005
      -0.009
      -0.024
      -0.039
      -0.049
      -0.050
      -0.042
      -0.026
      -0.008
       0.009
       0.022
       0.032
       0.040
       0.041
       0.033
       0.015
      -0.003
      -0.016
      -0.019
      -0.017
      -0.015
      -0.015
      -0.011
      -0.002
       0.009
       0.014
       0.008
      -0.002
      -0.010
      -0.010
      -0.006
      -0.003
      -0.002
      -0.001
       0.004
       0.013
       0.019
       0.019
       0.013
       0.005
       0.000
       0.000
       0.000
      -0.001
      -0.006
      -0.013
      -0.020
      -0.024
      -0.023
      -0.017
      -0.008
       0.004
       0.015
       0.024
       0.029
       0.030
       0.028
       0.025
       0.022
       0.018
       0.007
      -0.009
      -0.026
      -0.035
      -0.034
      -0.026
      -0.020
      -0.019
      -0.017
      -0.009
       0.008
       0.028
       0.042
       0.045
       0.040
       0.030
       0.019
       0.009
      -0.001
      -0.009
      -0.012
      -0.013
      -0.015
      -0.020
      -0.027
      -0.031
      -0.028
      -0.018
      -0.006
       0.002
       0.003
       0.001
       0.004
       0.013
       0.025
       0.033
       0.032
       0.022
       0.007
      -0.008
      -0.021
      -0.027
      -0.026
      -0.020
      -0.014
      -0.011
      -0.013
      -0.016
      -0.012
      -0.001
       0.014
       0.025
       0.027
       0.022
       0.014
       0.007
       0.006
       0.008
       0.008
       0.003
      -0.005
      -0.011
      -0.011
      -0.002
       0.010
       0.018
       0.016
       0.006
      -0.009
      -0.021
      -0.027
      -0.027
      -0.024
      -0.020
      -0.016
      -0.011
      -0.004
       0.005
       0.014
       0.021
       0.028
       0.032
       0.034
       0.031
       0.021
       0.008
      -0.005
      -0.014
      -0.018
      -0.019
      -0.019
      -0.021
      -0.022
      -0.019
      -0.011
       0.000
       0.009
       0.014
       0.015
       0.017
       0.018
       0.015
       0.007
      -0.005
      -0.014
      -0.015
      -0.011
      -0.008
      -0.008
      -0.011
      -0.010
      -0.003
       0.009
       0.018
       0.019
       0.012
       0.003
      -0.004
      -0.006
      -0.005
      -0.001
       0.004
       0.009
       0.014
       0.018
       0.017
       0.013
       0.008
       0.006
       0.007
       0.009
       0.007
      -0.001
      -0.013
      -0.026
      -0.033
      -0.033
      -0.027
      -0.019
      -0.010
      -0.001
       0.009
       0.019
       0.025
       0.028
       0.029
       0.029
       0.031
       0.030
       0.024
       0.013
       0.001
      -0.009
      -0.013
      -0.015
      -0.016
      -0.019
      -0.020
      -0.017
      -0.009
      -0.001
       0.003
       0.003
       0.001
       0.002
       0.007
       0.010
       0.010
       0.004
      -0.003
      -0.008
      -0.011
      -0.010
      -0.009
      -0.007
      -0.005
      -0.004
      -0.004
      -0.007
      -0.011
      -0.013
      -0.013
      -0.012
      -0.013
      -0.013
      -0.013
      -0.012
      -0.010
      -0.007
      -0.003
       0.001
       0.004
       0.005
       0.005
       0.006
       0.008
       0.010
       0.008
       0.000
      -0.011
      -0.019
      -0.020
      -0.016
      -0.011
      -0.007
      -0.006
      -0.008
      -0.012
      -0.014
      -0.013
      -0.006
       0.004
       0.013
       0.017
       0.016
       0.010
       0.004
      -0.002
      -0.007
      -0.010
      -0.012
      -0.013
      -0.014
      -0.015
      -0.015
      -0.014
      -0.011
      -0.008
      -0.007
      -0.006
      -0.006
      -0.003
       0.002
       0.006
       0.006
       0.003
      -0.003
      -0.008
      -0.009
      -0.008
      -0.006
      -0.006
      -0.008
      -0.011
      -0.013
      -0.014
      -0.015
      -0.016
      -0.017
      -0.016
      -0.013
      -0.009
      -0.007
      -0.010
      -0.014
      -0.016
      -0.012
      -0.004
       0.004
       0.008
       0.008
       0.006
       0.003
      -0.002
      -0.008
      -0.014
      -0.017
      -0.017
      -0.014
      -0.009
      -0.004
       0.000
       0.003
       0.004
       0.002
      -0.001
      -0.005
      -0.006
      -0.005
      -0.003
      -0.002
      -0.002
      -0.004
      -0.007
      -0.012
      -0.018
      -0.026
      -0.032
      -0.035
      -0.037
      -0.042
      -0.054
      -0.073
      -0.093
      -0.108
      -0.112
      -0.104
      -0.085
      -0.057
      -0.012
       0.058
       0.157
       0.276
       0.396
       0.495
       0.561
       0.591
       0.600
       0.603
       0.605
       0.593
       0.541
       0.418
       0.208
      -0.094
      -0.477
      -0.921
      -1.383
      -1.790
      -2.032
      -1.992
      -1.594
      -0.850
       0.120
       1.123
       1.954
       2.457
       2.555
       2.242
       1.580
       0.701
      -0.195
      -0.873
      -1.154
      -1.004
      -0.575
      -0.145
       0.002
      -0.296
      -1.012
      -1.953
      -2.851
      -3.447
      -3.537
      -2.984
      -1.730
       0.137
       2.326
       4.344
       5.644
       5.853
       4.955
       3.296
       1.410
      -0.226
      -1.360
      -1.980
      -2.217
      -2.241
      -2.212
      -2.268
      -2.511
      -2.951
      -3.450
      -3.735
      -3.494
      -2.533
      -0.889
       1.167
       3.233
       4.923
       5.968
       6.247
       5.757
       4.589
       2.934
       1.081
      -0.641
      -1.964
      -2.781
      -3.157
      -3.259
      -3.257
      -3.244
      -3.219
      -3.121
      -2.894
      -2.541
      -2.121
      -1.686
      -1.198
      -0.514
       0.526
       1.967
       3.645
       5.194
       6.158
       6.145
       4.973
       2.759
      -0.074
      -2.902
      -5.071
      -6.075
      -5.674
      -3.948
      -1.317
       1.509
       3.710
       4.642
       4.111
       2.464
       0.415
      -1.271
      -2.066
      -1.829
      -0.792
       0.556
       1.645
       2.015
       1.474
       0.184
      -1.383
      -2.623
      -3.058
      -2.537
      -1.297
       0.163
       1.325
       1.875
       1.798
       1.318
       0.772
       0.459
       0.539
       0.975
       1.546
       1.926
       1.815
       1.062
      -0.266
      -1.901
      -3.452
      -4.528
      -4.850
      -4.341
      -3.133
      -1.507
       0.215
       1.744
       2.855
       3.415
       3.415
       2.984
       2.343
       1.719
       1.261
       0.999
       0.846
       0.646
       0.222
      -0.548
      -1.664
      -2.964
      -4.152
      -4.886
      -4.903
      -4.098
      -2.562
      -0.548
       1.582
       3.451
       4.747
       5.302
       5.139
       4.461
       3.574
       2.766
       2.179
       1.746
       1.237
       0.406
      -0.850
      -2.414
      -3.994
      -5.253
      -5.931
      -5.917
      -5.249
      -4.083
      -2.627
      -1.083
       0.400
       1.737
       2.889
       3.825
       4.495
       4.827
       4.748
       4.202
       3.191
       1.825
       0.324
      -1.053
      -2.121
      -2.819
      -3.173
      -3.200
      -2.879
      -2.221
      -1.357
      -0.537
      -0.012
       0.119
      -0.022
      -0.164
      -0.055
       0.400
       1.101
       1.826
       2.348
       2.502
       2.188
       1.365
       0.077
      -1.488
      -2.970
      -3.926
      -3.992
      -3.043
      -1.267
       0.893
       2.879
       4.188
       4.510
       3.798
       2.264
       0.321
      -1.525
      -2.794
      -3.174
      -2.638
      -1.483
      -0.229
       0.588
       0.655
       0.018
      -0.974
      -1.853
      -2.240
      -1.970
      -1.107
       0.117
       1.393
       2.443
       3.077
       3.221
       2.906
       2.256
       1.466
       0.749
       0.247
      -0.031
      -0.213
      -0.479
      -0.947
      -1.586
      -2.220
      -2.616
      -2.591
      -2.069
      -1.090
       0.204
       1.575
       2.721
       3.343
       3.262
       2.501
       1.284
      -0.044
      -1.146
      -1.795
      -1.921
      -1.616
      -1.096
      -0.625
      -0.409
      -0.518
      -0.872
      -1.299
      -1.610
      -1.658
      -1.364
      -0.727
       0.153
       1.085
       1.830
       2.183
       2.064
       1.549
       0.828
       0.105
      -0.472
      -0.831
      -0.941
      -0.798
      -0.433
       0.049
       0.473
       0.671
       0.571
       0.240
      -0.156
      -0.446
      -0.512
      -0.317
       0.102
       0.644
       1.154
       1.457
       1.412
       0.970
       0.212
      -0.659
      -1.371
      -1.690
      -1.533
      -1.026
      -0.429
       0.017
       0.225
       0.282
       0.343
       0.510
       0.772
       1.041
       1.213
       1.214
       1.010
       0.601
       0.038
      -0.579
      -1.124
      -1.493
      -1.647
      -1.630
      -1.527
      -1.422
      -1.353
      -1.304
      -1.229
      -1.077
      -0.816
      -0.436
       0.040
       0.565
       1.068
       1.476
       1.736
       1.816
       1.716
       1.467
       1.124
       0.748
       0.371
      -0.010
      -0.400
      -0.768
      -1.042
      -1.156
      -1.108
      -0.962
      -0.800
      -0.665
      -0.542
      -0.395
      -0.196
       0.063
       0.380
       0.750
       1.143
       1.494
       1.708
       1.700
       1.431
       0.924
       0.250
      -0.501
      -1.222
      -1.781
      -2.041
      -1.912
      -1.422
      -0.733
      -0.088
       0.310
       0.390
       0.244
       0.069
       0.073
       0.384
       0.995
       1.756
       2.421
       2.749
       2.590
       1.938
       0.908
      -0.308
      -1.468
      -2.307
      -2.608
      -2.305
      -1.558
      -0.705
      -0.106
       0.029
      -0.288
      -0.857
      -1.396
      -1.648
      -1.432
      -0.679
       0.554
       2.067
       3.527
       4.536
       4.753
       4.020
       2.448
       0.393
      -1.668
      -3.307
      -4.286
      -4.579
      -4.297
      -3.591
      -2.603
      -1.468
      -0.325
       0.702
       1.539
       2.169
       2.605
       2.862
       2.941
       2.817
       2.437
       1.744
       0.749
      -0.414
      -1.491
      -2.202
      -2.370
      -2.010
      -1.300
      -0.487
       0.224
       0.730
       1.025
       1.158
       1.188
       1.155
       1.068
       0.916
       0.687
       0.377
      -0.001
      -0.430
      -0.892
      -1.362
      -1.785
      -2.079
      -2.170
      -2.044
      -1.759
      -1.397
      -1.003
      -0.561
      -0.029
       0.607
       1.314
       2.026
       2.687
       3.246
       3.636
       3.756
       3.494
       2.773
       1.582
      -0.006
      -1.850
      -3.740
      -5.413
      -6.571
      -6.941
      -6.346
      -4.798
      -2.533
       0.007
       2.298
       3.897
       4.593
       4.469
       3.840
       3.108
       2.591
       2.420
       2.518
       2.657
       2.554
       1.983
       0.861
      -0.692
      -2.389
      -3.878
      -4.871
      -5.231
      -4.963
      -4.168
      -2.982
      -1.562
      -0.067
       1.347
       2.547
       3.431
       3.910
       3.903
       3.358
       2.295
       0.854
      -0.703
      -2.032
      -2.791
      -2.741
      -1.846
      -0.308
       1.474
       3.054
       4.102
       4.500
       4.337
       3.832
       3.247
       2.831
       2.741
       2.942
       3.118
       2.712
       1.145
      -1.866
      -6.107
     -10.915
     -15.461
     -19.038
     -21.178
     -21.562
     -19.919
     -16.078
     -10.162
      -2.746
       5.235
      12.759
      19.003
      23.458
      25.922
      26.447
      25.212
      22.381
      18.065
      12.488
       6.152
      -0.206
      -5.899
     -10.548
     -14.122
     -16.772
     -18.667
     -19.935
     -20.647
     -20.773
     -20.113
     -18.315
     -15.030
     -10.123
      -3.791
       3.458
      10.917
      17.768
      23.124
      26.113
      26.042
      22.627
      16.194
       7.758
      -1.107
      -8.671
     -13.638
     -15.621
     -15.122
     -12.956
      -9.604
      -5.051
       0.715
       7.054
      12.570
      15.751
      15.855
      13.270
       9.110
       4.471
      -0.004
      -4.015
      -7.248
      -9.238
      -9.570
      -8.229
      -5.728
      -2.923
      -0.631
       0.668
       0.936
       0.493
      -0.156
      -0.530
      -0.349
       0.388
       1.482
       2.704
       3.934
       5.151
       6.303
       7.206
       7.587
       7.254
       6.229
       4.723
       2.981
       1.154
      -0.686
      -2.439
      -3.931
      -4.989
      -5.579
      -5.832
      -5.930
      -5.964
      -5.915
      -5.773
      -5.628
      -5.624
      -5.808
      -6.076
      -6.270
      -6.305
      -6.168
      -5.795
      -4.955
      -3.291
      -0.515
       3.344
       7.790
      11.929
      14.738
      15.455
      13.868
      10.355
       5.673
       0.661
      -3.972
      -7.730
     -10.314
     -11.604
     -11.687
     -10.871
      -9.630
      -8.426
      -7.460
      -6.525
      -5.085
      -2.614
       1.035
       5.462
       9.877
      13.451
      15.609
      16.134
      15.075
      12.635
       9.102
       4.858
       0.373
      -3.853
      -7.374
      -9.855
     -11.106
     -11.078
      -9.840
      -7.559
      -4.519
      -1.154
       1.958
       4.185
       5.034
       4.343
       2.406
      -0.101
      -2.361
      -3.746
      -4.044
      -3.474
      -2.460
      -1.367
      -0.373
       0.482
       1.167
       1.616
       1.797
       1.797
       1.819
       2.060
       2.566
       3.182
       3.638
       3.699
       3.296
       2.540
       1.626
       0.701
      -0.215
      -1.181
      -2.215
      -3.214
      -3.974
      -4.302
      -4.132
      -3.546
      -2.717
      -1.813
      -0.921
      -0.028
       0.928
       1.976
       3.043
       3.992
       4.714
       5.212
       5.570
       5.845
       5.984
       5.839
       5.272
       4.240
       2.802
       1.072
      -0.828
      -2.775
      -4.607
      -6.110
      -7.055
      -7.295
      -6.857
      -5.956
      -4.909
      -3.987
      -3.301
      -2.783
      -2.255
      -1.532
      -0.507
       0.817
       2.316
       3.787
       4.993
       5.735
       5.900
       5.482
       4.568
       3.310
       1.881
       0.426
      -0.971
      -2.266
      -3.413
      -4.336
      -4.935
      -5.128
      -4.849
      -4.060
      -2.775
      -1.119
       0.640
       2.151
       3.112
       3.405
       3.138
       2.585
       2.057
       1.779
       1.823
       2.109
       2.466
       2.707
       2.692
       2.342
       1.638
       0.626
      -0.582
      -1.815
      -2.879
      -3.617
      -3.938
      -3.817
      -3.282
      -2.405
      -1.306
      -0.150
       0.885
       1.657
       2.085
       2.164
       1.946
       1.535
       1.056
       0.624
       0.310
       0.130
       0.063
       0.062
       0.067
       0.024
      -0.079
      -0.176
      -0.142
       0.138
       0.671
       1.326
       1.870
       2.069
       1.786
       1.030
      -0.066
      -1.304
      -2.503
      -3.549
      -4.391
      -4.992
      -5.270
      -5.102
      -4.371
      -3.047
      -1.249
       0.768
       2.671
       4.158
       5.040
       5.277
       4.951
       4.219
       3.264
       2.282
       1.449
       0.887
       0.617
       0.556
       0.556
       0.460
       0.151
      -0.428
      -1.259
      -2.261
      -3.305
      -4.242
      -4.921
      -5.194
      -4.926
      -4.049
      -2.632
      -0.910
       0.764
       2.048
       2.729
       2.786
       2.380
       1.779
       1.260
       1.019
       1.104
       1.412
       1.741
       1.881
       1.693
       1.147
       0.315
      -0.675
      -1.678
      -2.546
      -3.137
      -3.329
      -3.032
      -2.218
      -0.937
       0.655
       2.278
       3.560
       4.136
       3.785
       2.530
       0.650
      -1.421
      -3.248
      -4.511
      -5.043
      -4.814
      -3.906
      -2.504
      -0.878
       0.676
       1.925
       2.751
       3.152
       3.201
       3.003
       2.654
       2.226
       1.752
       1.229
       0.653
       0.052
      -0.497
      -0.899
      -1.085
      -1.036
      -0.776
      -0.336
       0.256
       0.946
       1.624
       2.128
       2.293
       2.008
       1.254
       0.098
      -1.322
      -2.808
      -4.127
      -5.051
      -5.401
      -5.091
      -4.140
      -2.662
      -0.836
       1.120
       2.974
       4.496
       5.495
       5.855
       5.569
       4.734
       3.514
       2.097
       0.660
      -0.643
      -1.687
      -2.387
      -2.711
      -2.692
      -2.416
      -2.009
      -1.593
      -1.246
      -0.975
      -0.735
      -0.481
      -0.217
       0.004
       0.130
       0.160
       0.165
       0.246
       0.470
       0.838
       1.277
       1.684
       1.965
       2.065
       1.976
       1.729
       1.386
       1.032
       0.769
       0.684
       0.789
       0.976
       1.038
       0.759
       0.045
      -1.013
      -2.172
      -3.156
      -3.770
      -3.945
      -3.713
      -3.144
      -2.309
      -1.279
      -0.144
       0.975
       1.940
       2.634
