Origin Time       22/9/2011 16:44:43	
Lat.              27.6 N	
Long.             88.4 E	
Depth (Km)         30.0
Magnitude         3.9
 Region           Sikkim                                                           
 Above details taken from IMD 
     
Station Code      GTK
Station Lat.       27.352  N
Station Long.      88.627  E
Station Height(m) 1536.0
Site Class        A   Vs30 between 700 m/sec to 1400 m/sec * 
Record Time       22.09.2011 16:45:18.214
Sampling Rate     200. Hz
 Record Duration   80.150 Sec.
 Direction         E-W (E positive)
Max. Acceleration      5.583 cm/sec**2
     
  * For reference see Site Classification link of website 
     
 Base Line Corrected and Low Pass Filtered (Cut Off at 35 Hz) Time History
 Acceleration data in cm/sec**2
    
[...]
       0.082
       0.178
       0.275
       0.359
       0.415
       0.431
       0.395
       0.306
       0.173
       0.020
      -0.126
      -0.246
      -0.329
      -0.374
      -0.382
      -0.358
      -0.304
      -0.233
      -0.167
      -0.129
      -0.126
      -0.142
      -0.145
      -0.106
      -0.012
       0.126
       0.282
       0.418
       0.494
       0.482
       0.371
       0.172
      -0.086
      -0.362
      -0.602
      -0.754
      -0.777
      -0.654
      -0.399
      -0.059
       0.284
       0.542
       0.649
       0.596
       0.427
       0.219
       0.047
      -0.047
      -0.062
      -0.028
       0.017
       0.056
       0.089
       0.129
       0.183
       0.240
       0.279
       0.273
       0.201
       0.063
      -0.117
      -0.299
      -0.449
      -0.552
      -0.612
      -0.639
      -0.637
      -0.593
      -0.494
      -0.338
      -0.141
       0.054
       0.199
       0.265
       0.260
       0.230
       0.232
       0.295
       0.405
       0.509
       0.550
       0.508
       0.411
       0.307
       0.220
       0.133
       0.006
      -0.180
      -0.398
      -0.588
      -0.686
      -0.657
      -0.508
      -0.283
      -0.042
       0.169
       0.327
       0.430
       0.487
       0.507
       0.499
       0.464
       0.394
       0.280
       0.125
      -0.040
      -0.173
      -0.239
      -0.236
      -0.188
      -0.127
      -0.067
      -0.007
       0.057
       0.120
       0.165
       0.173
       0.138
       0.068
      -0.009
      -0.063
      -0.067
      -0.016
       0.073
       0.171
       0.242
       0.261
       0.220
       0.126
      -0.006
      -0.160
      -0.325
      -0.500
      -0.682
      -0.855
      -0.986
      -1.037
      -0.982
      -0.819
      -0.565
      -0.244
       0.104
       0.433
       0.685
       0.812
       0.793
       0.644
       0.420
       0.195
       0.040
      -0.007
       0.044
       0.143
       0.233
       0.278
       0.277
       0.250
       0.214
       0.177
       0.139
       0.102
       0.059
      -0.004
      -0.099
      -0.216
      -0.322
      -0.383
      -0.379
      -0.313
      -0.206
      -0.083
       0.030
       0.107
       0.134
       0.115
       0.072
       0.044
       0.067
       0.157
       0.296
       0.427
       0.483
       0.420
       0.250
       0.035
      -0.153
      -0.266
      -0.297
      -0.256
      -0.162
      -0.038
       0.081
       0.153
       0.147
       0.065
      -0.062
      -0.187
      -0.276
      -0.315
      -0.312
      -0.285
      -0.255
      -0.236
      -0.242
      -0.274
      -0.320
      -0.362
      -0.377
      -0.352
      -0.286
      -0.186
      -0.062
       0.075
       0.206
       0.310
       0.376
       0.406
       0.417
       0.424
       0.435
       0.445
       0.451
       0.449
       0.442
       0.433
       0.420
       0.398
       0.364
       0.315
       0.253
       0.181
       0.103
       0.021
      -0.069
      -0.175
      -0.303
      -0.446
      -0.580
      -0.671
      -0.685
      -0.608
      -0.448
      -0.243
      -0.045
       0.095
       0.144
       0.103
      -0.007
      -0.144
      -0.265
      -0.330
      -0.310
      -0.195
       0.005
       0.255
       0.499
       0.665
       0.692
       0.548
       0.262
      -0.086
      -0.392
      -0.566
      -0.568
      -0.417
      -0.176
       0.075
       0.265
       0.358
       0.364
       0.319
       0.262
       0.204
       0.127
       0.008
      -0.156
      -0.335
      -0.486
      -0.573
      -0.584
      -0.523
      -0.400
      -0.223
      -0.003
       0.237
       0.464
       0.634
       0.707
       0.656
       0.490
       0.264
       0.060
      -0.051
      -0.053
       0.015
       0.086
       0.104
       0.049
      -0.056
      -0.160
      -0.207
      -0.169
      -0.068
       0.035
       0.080
       0.044
      -0.042
      -0.126
      -0.169
      -0.154
      -0.087
       0.014
       0.123
       0.198
       0.199
       0.107
      -0.063
      -0.271
      -0.475
      -0.636
      -0.718
      -0.681
      -0.496
      -0.176
       0.218
       0.587
       0.835
       0.910
       0.822
       0.628
       0.399
       0.186
       0.005
      -0.145
      -0.268
      -0.356
      -0.401
      -0.400
      -0.359
      -0.290
      -0.204
      -0.115
      -0.039
       0.011
       0.028
       0.016
      -0.020
      -0.077
      -0.146
      -0.214
      -0.252
      -0.231
      -0.136
       0.015
       0.177
       0.297
       0.332
       0.273
       0.141
      -0.016
      -0.144
      -0.200
      -0.175
      -0.090
       0.017
       0.114
       0.178
       0.203
       0.192
       0.157
       0.116
       0.089
       0.090
       0.114
       0.138
       0.135
       0.095
       0.034
      -0.015
      -0.029
      -0.003
       0.049
       0.105
       0.141
       0.137
       0.086
       0.006
      -0.075
      -0.125
      -0.133
      -0.104
      -0.058
      -0.009
       0.038
       0.077
       0.102
       0.099
       0.059
      -0.016
      -0.107
      -0.187
      -0.232
      -0.236
      -0.198
      -0.123
      -0.017
       0.102
       0.210
       0.283
       0.305
       0.271
       0.182
       0.052
      -0.099
      -0.242
      -0.356
      -0.432
      -0.474
      -0.485
      -0.462
      -0.397
      -0.282
      -0.122
       0.062
       0.232
       0.349
       0.382
       0.329
       0.222
       0.112
       0.044
       0.032
       0.059
       0.100
       0.133
       0.152
       0.166
       0.186
       0.213
       0.226
       0.200
       0.119
      -0.001
      -0.119
      -0.194
      -0.212
      -0.183
      -0.131
      -0.077
      -0.028
       0.015
       0.054
       0.089
       0.118
       0.139
       0.148
       0.138
       0.097
       0.018
      -0.091
      -0.198
      -0.264
      -0.268
      -0.222
      -0.159
      -0.104
      -0.065
      -0.036
      -0.015
      -0.004
      -0.006
      -0.016
      -0.028
      -0.038
      -0.048
      -0.055
      -0.051
      -0.029
       0.011
       0.063
       0.118
       0.169
       0.216
       0.256
       0.282
       0.282
       0.238
       0.144
       0.013
      -0.125
      -0.232
      -0.290
      -0.303
      -0.290
      -0.267
      -0.241
      -0.210
      -0.173
      -0.135
      -0.094
      -0.047
       0.014
       0.094
       0.190
       0.296
       0.399
       0.478
       0.508
       0.467
       0.352
       0.181
      -0.004
      -0.152
      -0.222
      -0.204
      -0.125
      -0.031
       0.036
       0.061
       0.046
      -0.002
      -0.080
      -0.187
      -0.311
      -0.422
      -0.487
      -0.482
      -0.408
      -0.286
      -0.143
      -0.004
       0.109
       0.186
       0.219
       0.214
       0.189
       0.169
       0.171
       0.200
       0.241
       0.276
       0.288
       0.266
       0.206
       0.113
       0.001
      -0.111
      -0.204
      -0.267
      -0.288
      -0.262
      -0.186
      -0.067
       0.073
       0.194
       0.258
       0.246
       0.172
       0.080
       0.015
       0.001
       0.030
       0.075
       0.110
       0.122
       0.111
       0.080
       0.031
      -0.029
      -0.087
      -0.131
      -0.156
      -0.165
      -0.164
      -0.154
      -0.129
      -0.082
      -0.016
       0.052
       0.106
       0.135
       0.141
       0.136
       0.130
       0.135
       0.154
       0.178
       0.180
       0.129
       0.009
      -0.158
      -0.322
      -0.428
      -0.452
      -0.406
      -0.316
      -0.201
      -0.056
       0.122
       0.317
       0.479
       0.543
       0.465
       0.254
      -0.023
      -0.268
      -0.401
      -0.392
      -0.272
      -0.098
       0.073
       0.203
       0.275
       0.284
       0.230
       0.124
      -0.012
      -0.145
      -0.235
      -0.258
      -0.209
      -0.108
       0.013
       0.113
       0.152
       0.104
      -0.030
      -0.208
      -0.362
      -0.420
      -0.350
      -0.180
       0.021
       0.183
       0.264
       0.266
       0.217
       0.145
       0.075
       0.021
      -0.001
       0.022
       0.090
       0.185
       0.266
       0.293
       0.246
       0.143
       0.016
      -0.098
      -0.173
      -0.193
      -0.151
      -0.061
       0.044
       0.117
       0.127
       0.071
      -0.020
      -0.105
      -0.151
      -0.149
      -0.110
      -0.048
       0.028
       0.114
       0.199
       0.261
       0.270
       0.203
       0.060
      -0.129
      -0.305
      -0.402
      -0.380
      -0.250
      -0.067
       0.096
       0.197
       0.236
       0.246
       0.251
       0.248
       0.210
       0.120
      -0.012
      -0.146
      -0.237
      -0.260
      -0.219
      -0.136
      -0.040
       0.050
       0.124
       0.176
       0.200
       0.187
       0.131
       0.036
      -0.076
      -0.172
      -0.220
      -0.202
      -0.126
      -0.020
       0.076
       0.126
       0.114
       0.039
      -0.080
      -0.212
      -0.309
      -0.321
      -0.226
      -0.043
       0.179
       0.384
       0.529
       0.585
       0.538
       0.396
       0.189
      -0.033
      -0.216
      -0.327
      -0.361
      -0.336
      -0.275
      -0.200
      -0.124
      -0.061
      -0.015
       0.020
       0.063
       0.129
       0.221
       0.311
       0.360
       0.339
       0.251
       0.124
       0.000
      -0.087
      -0.119
      -0.099
      -0.037
       0.050
       0.143
       0.220
       0.253
       0.224
       0.134
       0.006
      -0.117
      -0.192
      -0.195
      -0.133
      -0.044
       0.025
       0.046
       0.028
      -0.001
      -0.024
      -0.053
      -0.112
      -0.210
      -0.315
      -0.374
      -0.340
      -0.211
      -0.030
       0.143
       0.261
       0.309
       0.292
       0.224
       0.113
      -0.025
      -0.162
      -0.265
      -0.306
      -0.281
      -0.199
      -0.077
       0.064
       0.202
       0.303
       0.327
       0.251
       0.084
      -0.117
      -0.278
      -0.339
      -0.291
      -0.171
      -0.036
       0.069
       0.123
       0.131
       0.103
       0.047
      -0.027
      -0.106
      -0.168
      -0.205
      -0.221
      -0.224
      -0.213
      -0.176
      -0.102
       0.001
       0.112
       0.216
       0.312
       0.405
       0.489
       0.542
       0.540
       0.473
       0.348
       0.186
       0.017
      -0.131
      -0.233
      -0.271
      -0.238
      -0.146
      -0.024
       0.082
       0.131
       0.108
       0.033
      -0.051
      -0.105
      -0.119
      -0.116
      -0.132
      -0.184
      -0.250
      -0.284
      -0.256
      -0.177
      -0.091
      -0.039
      -0.036
      -0.062
      -0.073
      -0.019
       0.127
       0.347
       0.560
       0.664
       0.589
       0.345
       0.014
      -0.291
      -0.486
      -0.538
      -0.462
      -0.304
      -0.115
       0.058
       0.182
       0.244
       0.251
       0.216
       0.151
       0.059
      -0.056
      -0.171
      -0.248
      -0.258
      -0.197
      -0.089
       0.027
       0.116
       0.157
       0.146
       0.099
       0.041
       0.001
      -0.005
       0.024
       0.080
       0.149
       0.216
       0.267
       0.286
       0.260
       0.186
       0.069
      -0.067
      -0.190
      -0.264
      -0.264
      -0.194
      -0.072
       0.076
       0.231
       0.371
       0.462
       0.466
       0.367
       0.185
      -0.030
      -0.229
      -0.385
      -0.486
      -0.531
      -0.525
      -0.478
      -0.405
      -0.318
      -0.222
      -0.118
      -0.004
       0.119
       0.255
       0.402
       0.542
       0.646
       0.671
       0.584
       0.373
       0.060
      -0.296
      -0.614
      -0.816
      -0.856
      -0.742
      -0.524
      -0.271
      -0.034
       0.168
       0.339
       0.482
       0.584
       0.615
       0.551
       0.392
       0.171
      -0.056
      -0.235
      -0.330
      -0.345
      -0.315
      -0.286
      -0.282
      -0.291
      -0.271
      -0.186
      -0.030
       0.162
       0.332
       0.423
       0.411
       0.308
       0.159
       0.014
      -0.086
      -0.120
      -0.085
       0.005
       0.121
       0.219
       0.263
       0.227
       0.105
      -0.091
      -0.326
      -0.537
      -0.653
      -0.635
      -0.500
      -0.304
      -0.094
       0.134
       0.412
       0.754
       1.112
       1.376
       1.429
       1.189
       0.656
      -0.078
      -0.842
      -1.443
      -1.748
      -1.733
      -1.478
      -1.097
      -0.677
      -0.252
       0.198
       0.727
       1.396
       2.236
       3.204
       4.160
       4.892
       5.173
       4.835
       3.823
       2.232
       0.301
      -1.638
      -3.240
      -4.242
      -4.526
      -4.130
      -3.221
      -2.059
      -0.948
      -0.169
       0.101
      -0.161
      -0.847
      -1.779
      -2.779
      -3.683
      -4.321
      -4.525
      -4.185
      -3.309
      -2.049
      -0.630
       0.749
       1.978
       3.034
       3.926
       4.652
       5.186
       5.501
       5.583
       5.420
       4.966
       4.150
       2.916
       1.302
      -0.505
      -2.210
      -3.500
      -4.170
      -4.189
      -3.703
      -2.957
      -2.196
      -1.586
      -1.174
      -0.907
      -0.682
      -0.421
      -0.138
       0.049
      -0.005
      -0.362
      -0.930
      -1.503
      -1.882
      -1.988
      -1.880
      -1.689
      -1.514
      -1.380
      -1.263
      -1.119
      -0.902
      -0.558
      -0.038
       0.649
       1.391
       1.996
       2.275
       2.165
       1.788
       1.406
       1.290
       1.572
       2.189
       2.919
       3.481
       3.645
       3.291
       2.433
       1.218
      -0.098
      -1.209
      -1.852
      -1.913
      -1.486
      -0.840
      -0.298
      -0.086
      -0.235
      -0.594
      -0.933
      -1.077
      -0.965
      -0.637
      -0.165
       0.378
       0.922
       1.381
       1.669
       1.736
       1.597
       1.318
       0.968
       0.575
       0.127
      -0.379
      -0.890
      -1.286
      -1.443
      -1.324
      -1.013
      -0.673
      -0.443
      -0.362
      -0.378
      -0.405
      -0.393
      -0.331
      -0.231
      -0.101
       0.051
       0.203
       0.308
       0.313
       0.172
      -0.132
      -0.579
      -1.109
      -1.620
      -1.977
      -2.052
      -1.758
      -1.098
      -0.185
       0.781
       1.594
       2.128
       2.379
       2.413
       2.285
       1.993
       1.499
       0.792
      -0.066
      -0.942
      -1.675
      -2.133
      -2.258
      -2.084
      -1.704
      -1.224
      -0.706
      -0.160
       0.419
       1.005
       1.511
       1.811
       1.795
       1.425
       0.766
      -0.021
      -0.747
      -1.259
      -1.490
      -1.456
      -1.222
      -0.852
      -0.383
       0.162
       0.734
       1.226
       1.497
       1.438
       1.040
       0.408
      -0.285
      -0.880
      -1.286
      -1.485
      -1.485
      -1.280
      -0.848
      -0.201
       0.570
       1.293
       1.792
       1.964
       1.825
       1.478
       1.043
       0.608
       0.225
      -0.076
      -0.271
      -0.337
      -0.268
      -0.085
       0.157
       0.378
       0.494
       0.446
       0.209
      -0.218
      -0.806
      -1.485
      -2.125
      -2.548
      -2.593
      -2.191
      -1.417
      -0.457
       0.459
       1.148
       1.526
       1.604
       1.454
       1.170
       0.852
       0.587
       0.434
       0.410
       0.482
       0.588
       0.670
       0.700
       0.686
       0.655
       0.625
       0.573
       0.438
       0.165
      -0.239
      -0.683
      -1.028
      -1.173
      -1.115
      -0.946
      -0.780
      -0.677
      -0.622
      -0.553
      -0.413
      -0.194
       0.060
       0.277
       0.402
       0.433
       0.420
       0.424
       0.469
       0.522
       0.519
       0.406
       0.168
      -0.171
      -0.552
      -0.900
      -1.140
      -1.220
      -1.128
      -0.892
      -0.566
      -0.203
       0.157
       0.487
       0.770
       0.982
       1.095
       1.088
       0.968
       0.772
       0.557
       0.372
       0.249
       0.192
       0.189
       0.205
       0.190
       0.088
      -0.132
      -0.451
      -0.798
      -1.085
      -1.239
      -1.233
      -1.083
      -0.845
      -0.590
      -0.387
      -0.272
      -0.247
      -0.298
      -0.409
      -0.561
      -0.705
      -0.763
      -0.664
      -0.383
       0.038
       0.503
       0.905
       1.151
       1.188
       1.009
       0.663
       0.245
      -0.134
      -0.382
      -0.451
      -0.343
      -0.104
       0.190
       0.447
       0.581
       0.541
       0.322
      -0.024
      -0.409
      -0.737
      -0.920
      -0.908
      -0.691
      -0.306
       0.171
       0.649
       1.048
       1.329
       1.485
       1.528
       1.465
       1.309
       1.088
       0.861
       0.696
       0.638
       0.676
       0.740
       0.740
       0.615
       0.356
       0.005
      -0.375
      -0.718
      -0.972
      -1.100
      -1.097
      -0.992
      -0.837
      -0.676
      -0.533
      -0.408
      -0.287
      -0.155
      -0.002
       0.164
       0.310
       0.384
       0.340
       0.170
      -0.083
      -0.339
      -0.512
      -0.549
      -0.451
      -0.260
      -0.040
       0.162
       0.318
       0.409
       0.408
       0.279
       0.010
      -0.356
      -0.729
      -1.010
      -1.133
      -1.085
      -0.893
      -0.606
      -0.282
       0.016
       0.237
       0.352
       0.364
       0.299
       0.180
       0.024
      -0.153
      -0.321
      -0.442
      -0.481
      -0.425
      -0.293
      -0.119
       0.055
       0.194
       0.279
       0.302
       0.268
       0.191
       0.096
       0.006
      -0.058
      -0.080
      -0.046
       0.055
       0.227
       0.457
       0.709
       0.925
       1.045
       1.043
       0.941
       0.798
       0.680
       0.618
       0.592
       0.549
       0.447
       0.292
       0.122
      -0.027
      -0.152
      -0.282
      -0.441
      -0.620
      -0.776
      -0.853
      -0.825
      -0.709
      -0.550
      -0.392
      -0.247
      -0.108
       0.025
       0.134
       0.182
       0.143
       0.020
      -0.153
      -0.325
      -0.444
      -0.471
      -0.386
      -0.197
       0.062
       0.336
       0.574
       0.741
       0.823
       0.823
       0.747
       0.602
       0.403
       0.183
      -0.010
      -0.127
      -0.139
      -0.048
       0.110
       0.279
       0.401
       0.430
       0.332
       0.096
      -0.256
      -0.668
      -1.050
      -1.315
      -1.402
      -1.296
      -1.018
