Origin Time       18/9/2011 12:40:47	 UTC
Lat.              27.6 N	
Long.             88.2 E	
Depth (Km)         10.0
Magnitude         6.8
 Region           India(Sikkim)-Nepar-Border                                       
 Above details taken from IMD 
    
Station Code      GTK
Station Lat.       27.352  N
Station Long.      88.627  E
Station Height(m) 1536.0
Site Class        A   Vs30 between 700 m/sec to 1400 m/sec * 
Record Time       18.09.2011 12:41:25.739 UTC
Sampling Rate     200. Hz
 Record Duration  194.295 Sec.
 Direction         N-S (N positive)
Max. Acceleration   -158.326 cm/sec**2
     
  * For reference see Site Classification link of website 
     
 Base Line Corrected and Low Pass Filtered (Cut Off at 35 Hz) Time History
 Acceleration data in cm/sec**2
    
[...]
       9.585
      24.957
      37.961
      46.514
      49.520
      46.528
      37.421
      22.681
       3.960
     -15.821
     -33.327
     -46.089
     -53.243
     -55.303
     -53.369
     -48.408
     -40.928
     -31.095
     -19.113
      -5.674
       7.769
      19.115
      26.237
      27.884
      24.309
      17.105
       8.305
      -0.530
      -8.516
     -14.981
     -19.072
     -19.941
     -17.279
     -11.657
      -4.495
       2.241
       6.542
       7.038
       3.656
      -2.244
      -8.555
     -13.625
     -17.109
     -19.781
     -22.550
     -25.589
     -28.215
     -29.377
     -28.248
     -24.627
     -19.082
     -12.816
      -7.233
      -3.392
      -1.700
      -2.022
      -3.932
      -6.783
      -9.687
     -11.687
     -12.161
     -11.114
      -9.124
      -6.978
      -5.228
      -3.967
      -2.967
      -2.008
      -1.065
      -0.160
       0.920
       2.693
       5.722
      10.255
      16.070
      22.585
      29.109
      35.011
      39.721
      42.615
      42.956
      40.061
      33.697
      24.489
      13.995
       4.294
      -2.800
      -6.530
      -7.486
      -7.145
      -6.923
      -7.419
      -8.419
      -9.511
     -10.616
     -11.864
     -12.968
     -12.844
      -9.987
      -3.416
       6.549
      18.203
      29.123
      37.113
      40.894
      40.250
      35.707
      28.125
      18.497
       7.967
      -2.189
     -10.767
     -16.967
     -20.565
     -21.780
     -20.936
     -18.152
     -13.254
      -5.998
       3.409
      13.776
      22.846
      27.887
      26.791
      19.128
       6.552
      -7.674
     -19.796
     -26.822
     -27.420
     -22.214
     -13.438
      -4.077
       3.189
       6.904
       7.288
       5.949
       4.853
       5.086
       6.299
       7.299
       7.306
       6.776
       7.164
       9.972
      15.863
      24.398
      34.298
      43.816
      50.952
      53.708
      50.734
      42.129
      29.733
      16.527
       5.497
      -1.441
      -4.047
      -3.691
      -2.631
      -2.977
      -5.906
     -11.451
     -18.715
     -26.173
     -31.949
     -34.233
     -31.939
     -25.292
     -15.889
      -6.131
       1.548
       5.193
       3.556
      -3.634
     -15.279
     -28.911
     -41.475
     -50.515
     -54.875
     -54.530
     -50.021
     -42.130
     -31.944
     -20.988
     -11.127
      -4.137
      -1.124
      -2.126
      -6.156
     -11.641
     -17.037
     -21.354
     -24.336
     -26.200
     -27.108
     -26.811
     -24.706
     -20.251
     -13.468
      -5.239
       2.798
       8.772
      11.313
      10.117
       6.024
       0.607
      -4.498
      -8.177
     -10.169
     -11.054
     -11.856
     -13.436
     -16.049
     -19.372
     -22.838
     -25.880
     -27.837
     -27.714
     -24.255
     -16.506
      -4.571
       9.998
      24.496
      35.974
      42.272
      42.669
      37.931
      29.855
      20.596
      12.022
       5.256
       0.489
      -2.900
      -6.012
      -9.970
     -15.405
     -22.043
     -28.615
     -33.227
     -34.048
     -30.060
     -21.618
     -10.579
       0.149
       7.580
       9.720
       6.228
      -1.599
     -11.391
     -20.487
     -26.572
     -28.034
     -24.146
     -15.210
      -2.567
      11.751
      25.686
      37.791
      47.430
      54.521
      59.138
      61.316
      61.065
      58.321
      52.804
      44.155
      32.485
      18.946
       5.711
      -4.760
     -10.711
     -11.696
      -8.475
      -2.399
       5.239
      13.455
      21.406
      28.096
      32.331
      33.037
      29.756
      22.938
      13.792
       3.815
      -5.554
     -12.906
     -16.668
     -15.258
      -7.849
       4.665
      19.344
      32.053
      39.160
      39.087
      32.715
      22.505
      11.148
       0.733
      -7.311
     -12.001
     -12.896
     -10.360
      -5.536
       0.144
       5.492
       9.785
      12.696
      14.184
      14.382
      13.408
      11.202
       7.645
       2.922
      -2.255
      -6.897
     -10.276
     -12.257
     -13.140
     -13.238
     -12.645
     -11.427
     -10.043
      -9.535
     -11.138
     -15.500
     -22.103
     -29.353
     -35.260
     -38.192
     -37.295
     -32.555
     -24.723
     -15.145
      -5.436
       3.003
       9.448
      13.958
      17.057
      19.230
      20.609
      20.986
      20.003
      17.349
      12.878
       6.653
      -1.053
      -9.730
     -18.587
     -26.544
     -32.328
     -34.701
     -32.874
     -26.991
     -18.400
      -9.407
      -2.473
       0.782
       0.183
      -3.088
      -7.166
     -10.336
     -11.633
     -11.001
      -9.032
      -6.442
      -3.653
      -0.679
       2.707
       6.726
      11.402
      16.461
      21.303
      25.049
      26.727
      25.593
      21.500
      15.062
       7.471
       0.051
      -6.127
     -10.410
     -12.604
     -13.073
     -12.804
     -13.128
     -15.018
     -18.357
     -21.764
     -23.195
     -20.978
     -14.678
      -5.320
       5.105
      14.464
      21.140
      24.300
      23.895
      20.578
      15.581
      10.463
       6.687
       5.088
       5.456
       6.557
       6.731
       4.846
       0.997
      -3.543
      -7.055
      -8.294
      -7.051
      -4.161
      -1.085
       0.625
      -0.203
      -3.977
     -10.118
     -17.165
     -23.304
     -27.081
     -27.835
     -25.617
     -20.818
     -13.934
      -5.658
       2.894
      10.221
      14.904
      16.247
      14.612
      11.168
       7.242
       3.797
       1.321
       0.034
       0.029
       1.214
       3.150
       5.006
       5.771
       4.686
       1.641
      -2.693
      -7.053
      -9.987
     -10.310
      -7.499
      -1.977
       4.860
      11.079
      15.025
      16.104
      15.019
      13.293
      12.355
      12.791
      14.210
      15.736
      16.676
      16.852
      16.483
      15.860
      15.149
      14.347
      13.301
      11.722
       9.274
       5.705
       0.936
      -4.930
     -11.560
     -18.265
     -23.995
     -27.656
     -28.609
     -27.011
     -23.736
     -19.895
     -16.284
     -13.084
     -10.048
      -6.979
      -4.047
      -1.642
       0.110
       1.660
       3.840
       7.302
      12.048
      17.305
      21.696
      23.570
      21.515
      15.050
       5.116
      -6.070
     -15.818
     -21.852
     -22.746
     -17.889
      -7.469
       7.248
      23.697
      38.402
      48.046
      50.656
      46.182
      36.239
      23.360
      10.278
      -0.573
      -7.500
      -9.975
      -8.744
      -5.398
      -1.581
       1.648
       3.962
       5.547
       6.785
       8.002
       9.275
      10.399
      11.030
      10.882
       9.906
       8.406
       7.006
       6.397
       6.994
       8.779
      11.459
      14.712
      18.140
      20.950
      21.804
      19.242
      12.613
       2.864
      -7.590
     -16.008
     -20.777
     -22.183
     -22.036
     -22.470
     -24.744
     -28.758
     -33.391
     -37.229
     -39.217
     -38.992
     -36.873
     -33.533
     -29.497
     -24.842
     -19.271
     -12.473
      -4.423
       4.505
      13.512
      21.359
      26.561
      27.992
      25.695
      21.299
      17.543
      17.012
      20.836
      28.155
      36.626
      43.596
      47.278
      47.297
      44.412
      39.760
      34.186
      27.959
      20.801
      12.084
       1.218
     -11.830
     -26.196
     -40.301
     -52.475
     -61.519
     -66.881
     -68.459
     -66.324
     -60.619
     -51.733
     -40.613
     -28.873
     -18.390
     -10.514
      -5.483
      -2.519
      -0.473
       1.518
       3.719
       5.836
       7.271
       7.500
       6.465
       4.733
       3.286
       3.054
       4.499
       7.505
      11.576
      16.077
      20.271
      23.248
      24.022
      21.913
      16.989
      10.180
       2.902
      -3.598
      -8.620
     -11.824
     -12.798
     -11.035
      -6.531
      -0.411
       5.202
       8.201
       7.643
       4.130
      -0.787
      -5.585
      -9.339
     -11.682
     -12.563
     -12.241
     -11.451
     -11.333
     -12.861
     -16.051
     -19.626
     -21.588
     -20.387
     -15.824
      -9.047
      -1.760
       4.671
       9.642
      13.195
      15.612
      16.991
      16.990
      14.925
      10.262
       3.247
      -4.802
     -11.877
     -16.150
     -16.819
     -14.421
     -10.484
      -6.762
      -4.464
      -3.837
      -4.207
      -4.441
      -3.640
      -1.821
      -0.180
      -0.654
      -4.851
     -12.947
     -23.284
     -33.016
     -39.365
     -40.578
     -36.070
     -26.035
     -11.196
       7.045
      26.413
      44.005
      57.141
      64.411
      66.227
      64.381
      60.797
      56.340
      50.542
      42.386
      31.466
      18.582
       5.457
      -6.039
     -14.461
     -18.900
     -18.899
     -14.583
      -6.954
       2.101
      10.367
      16.107
      18.454
      17.164
      12.240
       4.047
      -6.187
     -16.270
     -23.839
     -27.491
     -27.236
     -23.986
     -18.761
     -12.457
      -6.167
      -1.333
       0.771
      -0.173
      -3.227
      -6.721
      -9.177
      -9.946
      -9.171
      -7.241
      -4.269
      -0.045
       5.598
      12.400
      19.536
      25.658
      29.065
      28.178
      22.370
      12.673
       1.714
      -7.260
     -11.684
     -10.569
      -4.639
       4.152
      13.395
      21.005
      25.742
      27.335
      26.207
      22.994
      18.204
      12.148
       5.062
      -2.779
     -10.920
     -18.499
     -24.114
     -26.132
     -23.450
     -16.264
      -6.264
       3.872
      11.383
      14.404
      12.679
       7.703
       2.045
      -1.853
      -2.703
      -0.645
       3.274
       7.938
      12.741
      17.583
      22.419
      26.808
      29.858
      30.595
      28.418
      23.340
      15.924
       7.043
      -2.385
     -11.619
     -20.161
     -27.607
     -33.402
     -36.711
     -36.561
     -32.257
     -23.910
     -12.770
      -1.120
       8.408
      13.887
      14.970
      13.044
      10.506
       9.624
      11.625
      16.374
      22.548
      28.102
      30.908
      29.455
      23.445
      14.068
       3.797
      -4.324
      -7.727
      -5.366
       1.747
      10.853
      18.569
      22.236
      20.808
      14.968
       6.648
      -1.728
      -7.996
     -10.804
      -9.857
      -5.874
      -0.246
       5.523
      10.370
      13.927
      16.365
      18.023
      19.150
      19.885
      20.344
      20.681
      21.135
      22.057
      23.804
      26.401
      29.285
      31.478
      32.150
      31.074
      28.627
      25.444
      22.024
      18.443
      14.239
       8.579
       0.763
      -9.147
     -20.069
     -30.276
     -38.155
     -42.724
     -43.617
     -40.744
     -34.072
     -23.708
     -10.155
       5.454
      21.313
      35.262
      45.407
      50.664
      50.791
      45.991
      36.642
      23.630
       8.935
      -4.502
     -13.931
     -18.083
     -17.427
     -13.367
      -7.345
      -0.643
       5.278
       8.644
       7.856
       2.305
      -7.169
     -18.634
     -30.015
     -39.930
     -47.826
     -53.546
     -56.929
     -57.866
     -56.609
     -53.886
     -50.586
     -47.248
     -43.760
     -39.488
     -33.763
     -26.419
     -17.966
      -9.149
      -0.248
       9.190
      19.827
      31.683
      43.795
      54.717
      63.366
      69.488
      73.449
      75.726
      76.632
      76.431
      75.551
      74.504
      73.497
      72.137
      69.637
      65.428
      59.604
      52.812
      45.738
      38.679
      31.497
      23.875
      15.596
       6.693
      -2.545
     -11.672
     -20.310
     -28.337
     -35.900
     -43.181
     -50.136
     -56.369
     -61.076
     -62.907
     -59.921
     -50.051
     -32.154
      -6.993
      22.618
      52.700
      79.472
     100.428
     114.677
     122.579
     125.108
     123.354
     118.215
     110.210
      99.502
      86.258
      71.109
      55.271
      40.144
      26.576
      14.315
       2.100
     -11.579
     -27.556
     -45.492
     -64.044
     -81.502
     -96.495
    -108.466
    -117.743
    -125.254
    -131.960
    -138.260
    -143.667
    -146.904
    -146.322
    -140.438
    -128.419
    -110.447
     -87.846
     -62.842
     -37.945
     -15.233
       4.081
      19.591
      31.299
      39.239
      43.359
      43.619
      40.147
      33.348
      23.912
      12.712
       0.551
     -12.105
     -25.217
     -38.910
     -53.014
     -66.769
     -78.904
     -88.010
     -93.022
     -93.524
     -89.694
     -81.847
     -69.944
     -53.599
     -32.743
      -8.462
      16.849
      40.325
      59.921
      75.099
      86.372
      94.139
      97.983
      97.212
      92.111
      84.518
      76.935
      70.843
      65.697
      59.482
      50.331
      37.861
      23.174
       7.758
      -7.591
     -22.864
     -38.093
     -52.712
     -65.736
     -76.539
     -85.426
     -93.450
    -101.663
    -110.476
    -119.582
    -128.341
    -136.212
    -142.938
    -148.477
    -152.861
    -156.095
    -158.064
    -158.326
    -155.947
    -149.704
    -138.762
    -123.376
    -105.009
     -85.657
     -66.879
     -49.258
     -32.665
     -16.950
      -2.410
      10.312
      20.616
      28.179
      32.862
      34.555
      33.283
      29.578
      24.689
      20.257
      17.623
      17.352
      19.315
      23.106
      28.323
      34.537
      41.122
      47.269
      52.299
      56.017
      58.672
      60.366
      60.319
      56.737
      47.680
      32.452
      12.500
      -8.813
     -27.277
     -39.060
     -41.593
     -34.096
     -17.743
       4.643
      29.435
      53.297
      73.991
      90.613
     103.302
     112.739
     119.682
     124.556
     127.176
     126.733
     122.102
     112.324
      97.149
      77.509
      55.649
      34.561
      16.831
       3.571
      -5.791
     -12.820
     -19.076
     -25.456
     -32.036
     -38.200
     -42.838
     -44.581
     -42.156
     -34.860
     -23.003
      -8.033
       7.868
      22.656
      35.310
      46.090
      55.804
      64.527
      70.819
      72.202
      66.669
      54.222
      37.403
      20.303
       6.495
      -2.774
      -8.782
     -13.919
     -19.997
     -27.726
     -37.298
     -48.904
     -62.327
     -76.230
     -88.405
     -97.280
    -103.368
    -109.056
    -116.707
    -126.664
    -136.755
    -143.506
    -144.037
    -137.450
    -125.109
    -109.911
     -95.022
     -82.626
     -73.205
     -65.635
     -58.063
     -48.963
     -37.710
     -24.448
      -9.691
       5.899
      21.521
      36.322
      49.684
      61.493
      72.159
      82.323
      92.436
     102.452
     111.837
     119.890
     126.109
     130.273
     132.228
     131.674
     128.242
     121.878
     113.254
     103.802
      95.142
      88.218
      82.732
      77.360
      70.605
      61.686
      50.884
      39.245
      27.983
      17.962
       9.444
       2.060
      -5.038
     -12.873
     -22.200
     -33.125
     -45.053
     -57.089
     -68.615
     -79.515
     -89.763
     -98.671
    -104.491
    -104.867
     -97.980
     -83.649
     -63.665
     -41.236
     -19.950
      -2.699
       9.065
      15.393
      17.118
      14.853
       8.501
      -2.308
     -17.260
     -34.723
     -52.071
     -66.745
     -77.137
     -82.634
     -83.046
     -78.192
     -67.958
     -52.593
     -32.966
     -10.740
      11.512
      30.442
      42.503
      44.902
      36.573
      18.726
      -5.248
     -30.619
     -52.879
     -69.436
     -80.212
     -86.472
     -88.851
     -86.347
     -77.144
     -60.389
     -37.390
     -11.267
      14.664
      38.506
      60.145
      80.247
      98.903
     115.013
     126.651
     131.884
     129.482
     119.315
     102.534
      81.525
      59.521
      39.745
      24.389
      13.984
       7.595
       3.780
       1.683
       1.483
       3.820
       8.614
      14.240
      17.792
      16.392
       8.692
      -4.488
     -20.823
     -37.830
     -53.714
     -67.098
     -76.285
     -79.294
     -74.898
     -63.694
     -48.075
     -31.176
     -15.700
      -3.296
       5.574
      11.543
      16.071
      20.874
      27.131
      34.841
      42.796
      49.328
      53.402
      55.304
      56.490
      58.747
      63.267
      70.012
      77.499
      83.057
      83.686
      77.400
      64.385
      47.140
      29.432
      14.722
       5.044
       0.719
       0.588
       2.437
       3.752
       2.858
      -0.106
      -3.242
      -4.145
      -1.443
       4.650
      12.985
      22.305
      31.385
      38.766
      42.936
      43.095
      39.849
      35.087
      30.919
      28.317
      26.526
      23.876
      19.431
      13.947
       9.124
       5.830
       3.047
      -1.451
      -9.360
     -20.629
     -33.653
     -46.360
     -57.144
     -65.155
     -70.295
     -73.312
     -75.760
     -79.372
     -84.978
     -91.687
     -97.023
     -97.999
     -92.434
     -79.773
     -61.156
     -38.962
     -16.043
       5.153
      23.234
      37.940
      49.615
      58.518
      64.582
      67.752
      68.451
      67.518
      65.439
      61.484
      53.694
      40.064
      20.136
      -4.326
     -30.187
     -54.526
     -75.618
     -92.780
    -105.722
    -114.247
    -118.508
    -119.317
    -118.009
    -115.869
    -113.613
    -111.347
    -108.927
    -106.289
    -103.421
    -100.056
     -95.466
     -88.620
     -78.666
     -65.417
     -49.530
     -32.277
     -15.016
       1.361
      16.694
      31.370
      45.828
      60.159
      74.034
      86.795
      97.427
     104.411
     105.794
      99.760
      85.559
      64.261
      38.833
      13.423
      -7.801
     -21.809
     -27.388
     -25.138
     -16.930
      -5.263
       7.149
      17.627
      23.957
      25.088
      21.672
      15.906
      10.580
       7.943
       9.106
      14.083
      22.095
      31.798
      41.469
      49.215
      53.374
      53.134
      49.055
      42.848
      36.300
      30.088
      23.508
      15.276
       4.616
      -8.187
     -21.882
     -34.753
     -45.305
     -52.902
     -57.963
     -61.552
     -64.764
     -68.418
     -73.120
     -79.193
     -86.147
     -92.113
     -94.052
     -89.039
     -75.877
     -55.945
     -32.612
      -9.587
      10.623
      27.219
      40.554
      51.262
      59.753
      66.197
      70.728
      73.539
      74.881
      75.067
      74.438
      73.169
      70.916
      66.585
      58.545
      45.412
      27.051
       5.180
     -17.001
     -36.083
     -49.868
     -58.068
     -62.040
     -63.944
     -65.872
     -69.157
     -73.938
     -79.140
     -82.967
     -83.677
     -80.073
