Origin Time       22/9/2011 16:44:43	
Lat.              27.6 N	
Long.             88.4 E	
Depth (Km)         30.0
Magnitude         3.9
 Region           Sikkim                                                           
 Above details taken from IMD 
   
Station Code      GTK
Station Lat.       27.352
Station Long.      88.627
Station Height(m) 1536.0
Site Class        A   Vs30 between 700 m/sec to 1400 m/sec * 
Record Time       22.09.2011 16:45:18.214
Sampling Rate     200. Hz
 Record Duration   80.150 Sec.
 Direction         Vert. (Up positive)
Max. Acceleration     -3.036 cm/sec**2
     
  * For reference see Site Classification link of website 
     
 Base Line Corrected and Low Pass Filtered (Cut Off at 35 Hz) Time History
 Acceleration data in cm/sec**2
    
[...]
      -0.224
       0.089
       0.357
       0.568
       0.710
       0.729
       0.535
       0.089
      -0.518
      -1.072
      -1.349
      -1.255
      -0.865
      -0.358
       0.108
       0.464
       0.699
       0.796
       0.723
       0.481
       0.132
      -0.228
      -0.527
      -0.716
      -0.747
      -0.566
      -0.184
       0.261
       0.548
       0.520
       0.221
      -0.109
      -0.194
       0.078
       0.565
       0.972
       1.054
       0.767
       0.251
      -0.278
      -0.649
      -0.779
      -0.679
      -0.454
      -0.253
      -0.179
      -0.202
      -0.181
      -0.008
       0.278
       0.504
       0.511
       0.276
      -0.071
      -0.346
      -0.431
      -0.321
      -0.108
       0.095
       0.228
       0.299
       0.342
       0.367
       0.361
       0.331
       0.312
       0.313
       0.277
       0.121
      -0.162
      -0.453
      -0.582
      -0.478
      -0.242
      -0.059
      -0.037
      -0.112
      -0.120
       0.045
       0.319
       0.507
       0.435
       0.088
      -0.375
      -0.721
      -0.782
      -0.535
      -0.097
       0.348
       0.646
       0.723
       0.589
       0.307
      -0.024
      -0.282
      -0.379
      -0.313
      -0.168
      -0.037
       0.060
       0.175
       0.356
       0.562
       0.674
       0.589
       0.313
      -0.028
      -0.277
      -0.352
      -0.300
      -0.242
      -0.264
      -0.347
      -0.391
      -0.331
      -0.206
      -0.123
      -0.145
      -0.216
      -0.219
      -0.092
       0.098
       0.216
       0.184
       0.041
      -0.100
      -0.140
      -0.056
       0.103
       0.254
       0.325
       0.293
       0.200
       0.129
       0.137
       0.224
       0.337
       0.412
       0.401
       0.274
       0.028
      -0.295
      -0.593
      -0.740
      -0.666
      -0.409
      -0.096
       0.155
       0.299
       0.354
       0.326
       0.192
      -0.047
      -0.295
      -0.400
      -0.272
       0.013
       0.263
       0.326
       0.201
       0.011
      -0.127
      -0.186
      -0.198
      -0.164
      -0.035
       0.215
       0.505
       0.667
       0.582
       0.289
      -0.054
      -0.293
      -0.378
      -0.336
      -0.205
      -0.003
       0.220
       0.369
       0.333
       0.072
      -0.344
      -0.752
      -0.983
      -0.943
      -0.667
      -0.289
       0.034
       0.209
       0.246
       0.219
       0.198
       0.194
       0.161
       0.046
      -0.145
      -0.331
      -0.397
      -0.270
       0.025
       0.376
       0.648
       0.751
       0.690
       0.542
       0.396
       0.290
       0.197
       0.068
      -0.098
      -0.248
      -0.318
      -0.291
      -0.207
      -0.123
      -0.054
       0.034
       0.186
       0.403
       0.615
       0.717
       0.617
       0.291
      -0.207
      -0.761
      -1.214
      -1.398
      -1.203
      -0.655
       0.055
       0.649
       0.910
       0.810
       0.505
       0.198
      -0.012
      -0.156
      -0.301
      -0.426
      -0.420
      -0.200
       0.178
       0.531
       0.681
       0.579
       0.298
      -0.053
      -0.377
      -0.560
      -0.468
      -0.048
       0.546
       0.973
       0.931
       0.404
      -0.315
      -0.845
      -0.985
      -0.783
      -0.415
      -0.038
       0.260
       0.433
       0.477
       0.442
       0.394
       0.334
       0.188
      -0.096
      -0.439
      -0.651
      -0.587
      -0.285
       0.064
       0.258
       0.233
       0.066
      -0.110
      -0.194
      -0.151
       0.008
       0.224
       0.401
       0.432
       0.267
      -0.039
      -0.335
      -0.456
      -0.317
       0.015
       0.345
       0.459
       0.276
      -0.084
      -0.388
      -0.484
      -0.408
      -0.301
      -0.236
      -0.143
       0.075
       0.390
       0.642
       0.674
       0.469
       0.137
      -0.191
      -0.439
      -0.574
      -0.558
      -0.357
      -0.004
       0.363
       0.568
       0.526
       0.315
       0.102
      -0.002
      -0.023
      -0.058
      -0.148
      -0.237
      -0.246
      -0.167
      -0.069
      -0.012
       0.017
       0.084
       0.224
       0.387
       0.465
       0.383
       0.163
      -0.093
      -0.289
      -0.390
      -0.421
      -0.411
      -0.369
      -0.286
      -0.156
       0.006
       0.172
       0.301
       0.355
       0.308
       0.156
      -0.064
      -0.266
      -0.342
      -0.229
       0.022
       0.248
       0.288
       0.103
      -0.184
      -0.390
      -0.401
      -0.221
       0.076
       0.399
       0.651
       0.733
       0.588
       0.262
      -0.083
      -0.270
      -0.231
      -0.053
       0.102
       0.134
       0.073
       0.025
       0.054
       0.129
       0.169
       0.123
       0.017
      -0.089
      -0.153
      -0.171
      -0.153
      -0.095
       0.007
       0.127
       0.204
       0.178
       0.042
      -0.133
      -0.242
      -0.224
      -0.103
       0.038
       0.130
       0.155
       0.129
       0.067
      -0.026
      -0.135
      -0.220
      -0.223
      -0.119
       0.053
       0.191
       0.196
       0.049
      -0.157
      -0.278
      -0.238
      -0.083
       0.074
       0.149
       0.139
       0.080
       0.003
      -0.070
      -0.111
      -0.095
      -0.035
       0.014
       0.006
      -0.047
      -0.092
      -0.096
      -0.066
      -0.021
       0.043
       0.130
       0.210
       0.218
       0.117
      -0.040
      -0.128
      -0.061
       0.115
       0.248
       0.215
       0.041
      -0.124
      -0.146
      -0.022
       0.132
       0.196
       0.145
       0.035
      -0.073
      -0.162
      -0.231
      -0.254
      -0.191
      -0.053
       0.071
       0.078
      -0.047
      -0.205
      -0.268
      -0.196
      -0.065
       0.015
      -0.002
      -0.073
      -0.110
      -0.055
       0.086
       0.248
       0.337
       0.282
       0.087
      -0.152
      -0.299
      -0.267
      -0.080
       0.149
       0.287
       0.265
       0.109
      -0.078
      -0.174
      -0.122
       0.030
       0.160
       0.167
       0.054
      -0.085
      -0.149
      -0.117
      -0.044
      -0.001
      -0.013
      -0.052
      -0.075
      -0.051
       0.032
       0.157
       0.271
       0.304
       0.220
       0.062
      -0.074
      -0.112
      -0.061
       0.007
       0.029
       0.005
      -0.020
      -0.014
       0.015
       0.040
       0.038
       0.006
      -0.051
      -0.110
      -0.130
      -0.079
       0.027
       0.122
       0.144
       0.088
       0.011
      -0.028
      -0.013
       0.022
       0.043
       0.050
       0.056
       0.058
       0.038
       0.005
       0.004
       0.061
       0.123
       0.100
      -0.043
      -0.230
      -0.340
      -0.321
      -0.227
      -0.140
      -0.082
      -0.003
       0.130
       0.264
       0.291
       0.142
      -0.124
      -0.342
      -0.354
      -0.125
       0.219
       0.473
       0.489
       0.278
      -0.012
      -0.205
      -0.218
      -0.102
       0.020
       0.058
       0.015
      -0.048
      -0.072
      -0.045
       0.016
       0.095
       0.173
       0.203
       0.116
      -0.109
      -0.384
      -0.546
      -0.478
      -0.205
       0.122
       0.348
       0.415
       0.368
       0.276
       0.175
       0.073
      -0.016
      -0.068
      -0.085
      -0.107
      -0.173
      -0.260
      -0.279
      -0.138
       0.163
       0.489
       0.642
       0.487
       0.062
      -0.429
      -0.725
      -0.669
      -0.298
       0.178
       0.516
       0.582
       0.424
       0.198
       0.039
      -0.033
      -0.105
      -0.264
      -0.485
      -0.625
      -0.530
      -0.175
       0.297
       0.655
       0.734
       0.521
       0.142
      -0.226
      -0.433
      -0.419
      -0.224
       0.033
       0.218
       0.265
       0.209
       0.151
       0.157
       0.199
       0.177
       0.022
      -0.212
      -0.365
      -0.292
      -0.003
       0.311
       0.417
       0.212
      -0.194
      -0.563
      -0.694
      -0.557
      -0.273
      -0.006
       0.155
       0.211
       0.204
       0.178
       0.162
       0.165
       0.162
       0.107
      -0.018
      -0.170
      -0.255
      -0.216
      -0.084
       0.055
       0.133
       0.147
       0.128
       0.088
       0.020
      -0.074
      -0.155
      -0.166
      -0.095
      -0.001
       0.024
      -0.062
      -0.203
      -0.277
      -0.198
       0.027
       0.303
       0.519
       0.603
       0.536
       0.347
       0.095
      -0.140
      -0.287
      -0.295
      -0.159
       0.071
       0.294
       0.404
       0.346
       0.147
      -0.118
      -0.382
      -0.599
      -0.713
      -0.655
      -0.396
      -0.006
       0.375
       0.627
       0.716
       0.671
       0.508
       0.216
      -0.176
      -0.536
      -0.679
      -0.505
      -0.104
       0.291
       0.468
       0.376
       0.127
      -0.127
      -0.301
      -0.390
      -0.406
      -0.340
      -0.187
       0.011
       0.178
       0.249
       0.207
       0.076
      -0.082
      -0.185
      -0.168
      -0.026
       0.153
       0.251
       0.219
       0.129
       0.099
       0.161
       0.206
       0.093
      -0.191
      -0.472
      -0.517
      -0.238
       0.216
       0.557
       0.570
       0.257
      -0.195
      -0.561
      -0.707
      -0.621
      -0.362
      -0.023
       0.287
       0.459
       0.439
       0.274
       0.102
       0.053
       0.131
       0.200
       0.101
      -0.182
      -0.471
      -0.532
      -0.288
       0.107
       0.398
       0.446
       0.319
       0.181
       0.120
       0.083
      -0.021
      -0.196
      -0.344
      -0.360
      -0.229
      -0.027
       0.155
       0.273
       0.326
       0.297
       0.153
      -0.100
      -0.358
      -0.465
      -0.335
      -0.043
       0.227
       0.336
       0.281
       0.153
       0.024
      -0.094
      -0.202
      -0.266
      -0.239
      -0.125
       0.004
       0.070
       0.070
       0.065
       0.102
       0.152
       0.157
       0.113
       0.068
       0.052
       0.016
      -0.101
      -0.261
      -0.308
      -0.122
       0.241
       0.557
       0.617
       0.389
       0.020
      -0.293
      -0.408
      -0.280
       0.020
       0.319
       0.409
       0.180
      -0.275
      -0.709
      -0.885
      -0.717
      -0.302
       0.169
       0.507
       0.601
       0.456
       0.195
       0.002
       0.001
       0.147
       0.244
       0.117
      -0.215
      -0.537
      -0.609
      -0.369
       0.042
       0.417
       0.614
       0.591
       0.363
      -0.011
      -0.396
      -0.597
      -0.484
      -0.103
       0.338
       0.600
       0.561
       0.259
      -0.153
      -0.492
      -0.621
      -0.513
      -0.260
      -0.011
       0.136
       0.192
       0.230
       0.276
       0.268
       0.147
      -0.051
      -0.199
      -0.207
      -0.117
      -0.047
      -0.053
      -0.068
       0.009
       0.189
       0.366
       0.415
       0.294
       0.068
      -0.154
      -0.287
      -0.300
      -0.205
      -0.040
       0.151
       0.327
       0.442
       0.443
       0.298
       0.036
      -0.236
      -0.389
      -0.371
      -0.238
      -0.100
      -0.020
       0.018
       0.054
       0.081
       0.063
       0.011
       0.015
       0.163
       0.419
       0.611
       0.561
       0.233
      -0.244
      -0.681
      -0.937
      -0.941
      -0.680
      -0.220
       0.275
       0.597
       0.631
       0.455
       0.278
       0.257
       0.357
       0.398
       0.222
      -0.171
      -0.631
      -0.970
      -1.067
      -0.896
      -0.502
       0.015
       0.504
       0.797
       0.785
       0.514
       0.176
      -0.008
       0.059
       0.288
       0.481
       0.483
       0.284
       0.013
      -0.172
      -0.183
      -0.043
       0.150
       0.283
       0.281
       0.154
      -0.002
      -0.077
      -0.047
       0.002
      -0.028
      -0.111
      -0.108
       0.071
       0.329
       0.443
       0.285
      -0.046
      -0.324
      -0.394
      -0.265
      -0.051
       0.127
       0.178
       0.047
      -0.230
      -0.489
      -0.514
      -0.223
       0.206
       0.419
       0.140
      -0.629
      -1.601
      -2.356
      -2.535
      -1.981
      -0.826
       0.498
       1.422
       1.530
       0.818
      -0.295
      -1.236
      -1.612
      -1.366
      -0.684
       0.191
       1.065
       1.801
       2.307
       2.536
       2.501
       2.251
       1.850
       1.372
       0.897
       0.488
       0.168
      -0.074
      -0.254
      -0.376
      -0.460
      -0.567
      -0.766
      -1.057
      -1.344
      -1.499
      -1.471
      -1.329
      -1.188
      -1.089
      -0.957
      -0.665
      -0.162
       0.436
       0.874
       0.910
       0.501
      -0.148
      -0.700
      -0.912
      -0.791
      -0.548
      -0.371
      -0.225
       0.121
       0.838
       1.795
       2.582
       2.779
       2.215
       1.022
      -0.475
      -1.881
      -2.824
      -3.036
      -2.461
      -1.309
      -0.005
       0.987
       1.386
       1.204
       0.655
      -0.023
      -0.661
      -1.112
      -1.188
      -0.724
       0.249
       1.386
       2.132
       2.047
       1.119
      -0.189
      -1.217
      -1.506
      -1.018
      -0.074
       0.882
       1.477
       1.474
       0.812
      -0.335
      -1.538
      -2.275
      -2.222
      -1.443
      -0.310
       0.778
       1.625
       2.220
       2.567
       2.581
       2.179
       1.438
       0.620
       0.010
      -0.278
      -0.343
      -0.376
      -0.479
      -0.600
      -0.619
      -0.501
      -0.364
      -0.397
      -0.706
      -1.213
      -1.687
      -1.873
      -1.627
      -0.991
      -0.154
       0.665
       1.315
       1.730
       1.870
       1.674
       1.097
       0.208
      -0.752
      -1.442
      -1.608
      -1.239
      -0.577
       0.058
       0.463
       0.625
       0.638
       0.552
       0.333
      -0.051
      -0.506
      -0.796
      -0.681
      -0.099
       0.758
       1.524
       1.857
       1.615
       0.922
       0.085
      -0.568
      -0.841
      -0.731
      -0.404
      -0.092
       0.036
      -0.047
      -0.233
      -0.362
      -0.312
      -0.067
       0.276
       0.543
       0.576
       0.335
      -0.054
      -0.358
      -0.397
      -0.170
       0.162
       0.406
       0.466
       0.354
       0.110
      -0.256
      -0.743
      -1.284
      -1.733
      -1.925
      -1.764
      -1.266
      -0.542
       0.243
       0.898
       1.256
       1.221
       0.820
       0.211
      -0.364
      -0.675
      -0.617
      -0.274
       0.120
       0.316
       0.205
      -0.122
      -0.455
      -0.610
      -0.531
      -0.299
      -0.081
      -0.038
      -0.235
      -0.583
      -0.855
      -0.799
      -0.313
       0.441
       1.097
       1.320
       1.042
       0.501
       0.049
      -0.107
      -0.012
       0.142
       0.215
       0.219
       0.251
       0.348
       0.446
       0.441
       0.301
       0.102
      -0.047
      -0.093
      -0.071
      -0.056
      -0.060
      -0.004
       0.220
       0.629
       1.074
       1.300
       1.099
       0.468
      -0.354
      -1.003
      -1.191
      -0.872
      -0.262
       0.296
       0.540
       0.445
       0.222
       0.149
       0.356
       0.737
       1.045
       1.079
       0.802
       0.320
      -0.224
      -0.725
      -1.114
      -1.318
      -1.265
      -0.928
      -0.378
       0.212
       0.620
       0.680
       0.371
      -0.153
      -0.639
      -0.878
      -0.829
      -0.625
      -0.462
      -0.435
      -0.482
      -0.450
      -0.249
       0.069
       0.342
       0.423
       0.285
       0.030
      -0.183
      -0.231
      -0.093
       0.146
       0.339
       0.350
       0.133
      -0.227
      -0.547
      -0.641
      -0.454
      -0.108
       0.174
       0.236
       0.083
      -0.145
      -0.294
      -0.264
      -0.013
       0.441
       0.989
       1.418
       1.507
       1.177
       0.561
      -0.082
      -0.538
      -0.726
      -0.679
      -0.475
      -0.204
       0.042
       0.198
       0.268
       0.326
       0.429
       0.536
       0.513
       0.262
      -0.164
      -0.555
      -0.694
      -0.517
      -0.138
       0.255
       0.528
       0.639
       0.600
       0.444
       0.227
       0.033
      -0.070
      -0.075
      -0.033
       0.000
       0.005
      -0.017
      -0.091
      -0.254
      -0.482
      -0.662
      -0.673
      -0.511
      -0.306
      -0.203
      -0.232
      -0.295
      -0.296
      -0.239
      -0.204
      -0.238
      -0.290
      -0.272
      -0.169
      -0.071
      -0.077
      -0.170
      -0.202
      -0.033
       0.319
       0.660
       0.772
       0.584
       0.218
      -0.117
      -0.272
      -0.226
      -0.043
       0.184
       0.369
       0.442
       0.378
       0.218
       0.040
      -0.101
      -0.212
      -0.345
      -0.526
      -0.713
      -0.804
      -0.706
      -0.400
       0.046
       0.512
       0.891
       1.127
       1.215
       1.167
       0.965
       0.576
       0.008
      -0.614
      -1.059
      -1.117
      -0.745
      -0.122
       0.469
       0.811
       0.857
       0.689
       0.406
       0.072
      -0.273
      -0.571
      -0.756
      -0.785
      -0.662
      -0.420
      -0.114
       0.181
       0.368
       0.367
       0.172
      -0.122
      -0.361
      -0.424
      -0.296
      -0.061
       0.163
       0.303
       0.341
       0.302
       0.219
       0.123
       0.027
      -0.078
      -0.205
      -0.330
      -0.366
      -0.220
       0.098
       0.426
       0.534
       0.293
      -0.220
      -0.770
      -1.119
      -1.157
      -0.923
      -0.535
      -0.116
       0.239
       0.471
       0.570
       0.568
       0.518
       0.451
       0.343
       0.144
      -0.144
      -0.426
      -0.567
      -0.494
      -0.264
      -0.012
       0.153
       0.218
       0.238
       0.264
       0.287
       0.251
       0.111
      -0.117
      -0.350
      -0.489
      -0.462
      -0.262
       0.053
       0.374
       0.573
       0.556
       0.334
       0.042
      -0.125
      -0.048
       0.228
       0.524
       0.661
       0.581
       0.369
       0.166
       0.062
       0.053
       0.084
       0.112
       0.128
       0.138
       0.140
       0.130
       0.126
       0.158
       0.232
       0.295
       0.266
       0.105
      -0.136
      -0.337
      -0.400
      -0.316
      -0.158
      -0.014
       0.079
       0.133
       0.157
       0.130
       0.039
      -0.064
      -0.071
       0.093
