Origin Time       03/06/2011 00:53:21 UTC
Lat.              27.5 N	
Long.             88.0 E	
Depth (Km)         26.0
Magnitude         4.9
Region            India(Sikkim)-Nepar-Border                                       
 Above details taken from IMD 
    
Station Code      GTK
Station Lat.       27.352  N
Station Long.      88.627  E
Station Height(m) 1536.0
Site Class        A   Vs30 between 700 m/sec to 1620 m/sec * 
Record Time       03.06.2011 00:53:55.534 UTC
Sampling Rate     200. Hz
Record Duration   101.160 Sec.
Direction         N-S (N positive)
Max. Acceleration     -5.320 cm/sec**2
     
  * For reference see Site Classification link of website 
     
 Base Line Corrected and Low Pass Filtered (Cut Off at 35 Hz) Time History
 Acceleration data in cm/sec**2
    
[...]
       0.150
       0.390
       0.704
       0.999
       1.160
       1.103
       0.820
       0.373
      -0.130
      -0.589
      -0.942
      -1.159
      -1.229
      -1.148
      -0.930
      -0.614
      -0.268
       0.046
       0.287
       0.454
       0.567
       0.643
       0.685
       0.677
       0.600
       0.448
       0.242
       0.029
      -0.140
      -0.243
      -0.291
      -0.321
      -0.358
      -0.394
      -0.387
      -0.294
      -0.109
       0.119
       0.297
       0.335
       0.194
      -0.091
      -0.427
      -0.707
      -0.858
      -0.871
      -0.796
      -0.702
      -0.638
      -0.600
      -0.548
      -0.439
      -0.260
      -0.036
       0.187
       0.376
       0.517
       0.616
       0.677
       0.690
       0.648
       0.556
       0.451
       0.386
       0.409
       0.538
       0.742
       0.947
       1.069
       1.050
       0.885
       0.625
       0.342
       0.090
      -0.120
      -0.321
      -0.553
      -0.829
      -1.110
      -1.321
      -1.385
      -1.258
      -0.947
      -0.501
       0.011
       0.514
       0.931
       1.190
       1.237
       1.060
       0.706
       0.279
      -0.100
      -0.338
      -0.412
      -0.370
      -0.308
      -0.306
      -0.391
      -0.521
      -0.622
      -0.633
      -0.538
      -0.365
      -0.161
       0.039
       0.221
       0.380
       0.499
       0.547
       0.492
       0.328
       0.096
      -0.129
      -0.267
      -0.273
      -0.153
       0.043
       0.248
       0.406
       0.495
       0.525
       0.522
       0.509
       0.495
       0.478
       0.453
       0.417
       0.363
       0.280
       0.150
      -0.027
      -0.224
      -0.383
      -0.437
      -0.351
      -0.151
       0.080
       0.236
       0.241
       0.084
      -0.185
      -0.480
      -0.720
      -0.846
      -0.834
      -0.696
      -0.482
      -0.271
      -0.141
      -0.135
      -0.231
      -0.351
      -0.396
      -0.290
      -0.019
       0.365
       0.764
       1.074
       1.216
       1.147
       0.868
       0.423
      -0.104
      -0.602
      -0.965
      -1.132
      -1.105
      -0.939
      -0.708
      -0.466
      -0.226
       0.035
       0.354
       0.755
       1.220
       1.679
       2.026
       2.161
       2.031
       1.661
       1.139
       0.575
       0.050
      -0.399
      -0.771
      -1.064
      -1.263
      -1.340
      -1.280
      -1.097
      -0.834
      -0.547
      -0.288
      -0.096
       0.005
       0.011
      -0.067
      -0.213
      -0.407
      -0.623
      -0.819
      -0.944
      -0.950
      -0.813
      -0.547
      -0.205
       0.150
       0.473
       0.755
       1.003
       1.211
       1.346
       1.352
       1.191
       0.866
       0.424
      -0.064
      -0.527
      -0.914
      -1.193
      -1.353
      -1.393
      -1.318
      -1.137
      -0.868
      -0.543
      -0.208
       0.096
       0.349
       0.566
       0.777
       0.999
       1.212
       1.361
       1.393
       1.292
       1.084
       0.816
       0.519
       0.209
      -0.108
      -0.417
      -0.691
      -0.909
      -1.061
      -1.148
      -1.165
      -1.098
      -0.931
      -0.665
      -0.328
       0.013
       0.276
       0.387
       0.321
       0.126
      -0.091
      -0.218
      -0.195
      -0.039
       0.175
       0.365
       0.471
       0.474
       0.383
       0.220
       0.020
      -0.168
      -0.289
      -0.301
      -0.200
      -0.029
       0.143
       0.260
       0.307
       0.313
       0.317
       0.342
       0.387
       0.442
       0.501
       0.563
       0.619
       0.645
       0.606
       0.478
       0.263
      -0.013
      -0.307
      -0.585
      -0.825
      -1.017
      -1.146
      -1.179
      -1.078
      -0.824
      -0.451
      -0.039
       0.309
       0.519
       0.574
       0.514
       0.401
       0.284
       0.181
       0.085
      -0.006
      -0.071
      -0.073
       0.013
       0.160
       0.289
       0.318
       0.210
       0.005
      -0.213
      -0.372
      -0.460
      -0.510
      -0.559
      -0.607
      -0.606
      -0.506
      -0.297
      -0.037
       0.180
       0.277
       0.251
       0.179
       0.171
       0.300
       0.550
       0.824
       0.997
       0.990
       0.805
       0.501
       0.143
      -0.230
      -0.594
      -0.914
      -1.124
      -1.161
      -1.008
      -0.719
      -0.400
      -0.154
      -0.026
       0.015
       0.045
       0.132
       0.293
       0.485
       0.637
       0.703
       0.686
       0.632
       0.587
       0.565
       0.536
       0.458
       0.313
       0.127
      -0.040
      -0.137
      -0.143
      -0.084
      -0.002
       0.064
       0.094
       0.079
       0.016
      -0.094
      -0.231
      -0.349
      -0.391
      -0.326
      -0.172
       0.003
       0.117
       0.120
       0.026
      -0.106
      -0.210
      -0.249
      -0.233
      -0.205
      -0.207
      -0.259
      -0.348
      -0.446
      -0.526
      -0.569
      -0.563
      -0.491
      -0.327
      -0.055
       0.294
       0.632
       0.834
       0.802
       0.528
       0.113
      -0.284
      -0.537
      -0.621
      -0.608
      -0.600
      -0.645
      -0.704
      -0.689
      -0.530
      -0.230
       0.145
       0.502
       0.769
       0.914
       0.935
       0.847
       0.679
       0.475
       0.287
       0.159
       0.108
       0.123
       0.167
       0.201
       0.190
       0.119
      -0.006
      -0.160
      -0.312
      -0.437
      -0.520
      -0.558
      -0.549
      -0.492
      -0.392
      -0.259
      -0.112
       0.026
       0.128
       0.162
       0.109
      -0.027
      -0.199
      -0.337
      -0.383
      -0.323
      -0.187
      -0.020
       0.160
       0.356
       0.573
       0.786
       0.939
       0.977
       0.881
       0.688
       0.470
       0.285
       0.141
       0.006
      -0.152
      -0.315
      -0.409
      -0.354
      -0.127
       0.209
       0.519
       0.666
       0.567
       0.228
      -0.257
      -0.751
      -1.120
      -1.280
      -1.211
      -0.952
      -0.581
      -0.182
       0.179
       0.464
       0.671
       0.819
       0.946
       1.087
       1.251
       1.404
       1.466
       1.347
       0.998
       0.454
      -0.164
      -0.703
      -1.050
      -1.184
      -1.163
      -1.070
      -0.956
      -0.823
      -0.648
      -0.429
      -0.206
      -0.042
       0.020
      -0.008
      -0.063
      -0.061
       0.051
       0.259
       0.494
       0.668
       0.729
       0.693
       0.624
       0.591
       0.618
       0.674
       0.703
       0.665
       0.560
       0.410
       0.228
       0.003
      -0.288
      -0.648
      -1.043
      -1.405
      -1.658
      -1.744
      -1.644
      -1.373
      -0.970
      -0.477
       0.061
       0.587
       1.031
       1.319
       1.405
       1.288
       1.013
       0.655
       0.295
       0.004
      -0.179
      -0.262
      -0.291
      -0.320
      -0.374
      -0.429
      -0.430
      -0.343
      -0.187
      -0.032
       0.047
       0.022
      -0.076
      -0.182
      -0.238
      -0.219
      -0.132
       0.000
       0.150
       0.287
       0.370
       0.359
       0.239
       0.040
      -0.170
      -0.327
      -0.412
      -0.458
      -0.522
      -0.635
      -0.781
      -0.902
      -0.936
      -0.851
      -0.659
      -0.402
      -0.128
       0.129
       0.362
       0.576
       0.775
       0.946
       1.071
       1.130
       1.115
       1.029
       0.885
       0.700
       0.493
       0.288
       0.101
      -0.063
      -0.220
      -0.385
      -0.551
      -0.681
      -0.719
      -0.632
      -0.431
      -0.173
       0.073
       0.255
       0.356
       0.383
       0.351
       0.277
       0.179
       0.085
       0.032
       0.043
       0.120
       0.223
       0.288
       0.256
       0.105
      -0.127
      -0.356
      -0.490
      -0.478
      -0.333
      -0.120
       0.083
       0.230
       0.317
       0.372
       0.421
       0.464
       0.486
       0.479
       0.456
       0.449
       0.474
       0.512
       0.525
       0.479
       0.379
       0.252
       0.126
       0.000
      -0.146
      -0.325
      -0.515
      -0.663
      -0.714
      -0.631
      -0.406
      -0.056
       0.374
       0.815
       1.177
       1.373
       1.343
       1.073
       0.606
       0.015
      -0.607
      -1.183
      -1.652
      -1.970
      -2.101
      -2.012
      -1.690
      -1.160
      -0.495
       0.197
       0.814
       1.292
       1.622
       1.822
       1.916
       1.911
       1.808
       1.618
       1.379
       1.146
       0.978
       0.904
       0.907
       0.927
       0.891
       0.754
       0.526
       0.262
       0.028
      -0.135
      -0.227
      -0.277
      -0.313
      -0.346
      -0.370
      -0.381
      -0.385
      -0.408
      -0.480
      -0.616
      -0.805
      -1.016
      -1.218
      -1.398
      -1.563
      -1.720
      -1.854
      -1.920
      -1.870
      -1.690
      -1.429
      -1.182
      -1.037
      -1.021
      -1.075
      -1.084
      -0.943
      -0.616
      -0.165
       0.289
       0.627
       0.792
       0.806
       0.735
       0.632
       0.508
       0.342
       0.115
      -0.160
      -0.439
      -0.671
      -0.832
      -0.930
      -0.992
      -1.038
      -1.071
      -1.083
      -1.068
      -1.036
      -1.010
      -1.008
      -1.013
      -0.970
      -0.809
      -0.494
      -0.072
       0.335
       0.587
       0.605
       0.418
       0.133
      -0.121
      -0.254
      -0.241
      -0.104
       0.107
       0.350
       0.604
       0.866
       1.135
       1.399
       1.628
       1.781
       1.821
       1.718
       1.456
       1.038
       0.498
      -0.092
      -0.620
      -0.970
      -1.056
      -0.865
      -0.458
       0.041
       0.483
       0.736
       0.724
       0.465
       0.067
      -0.321
      -0.577
      -0.647
      -0.543
      -0.300
       0.065
       0.554
       1.164
       1.856
       2.545
       3.113
       3.445
       3.460
       3.142
       2.541
       1.763
       0.938
       0.185
      -0.412
      -0.806
      -0.994
      -1.011
      -0.932
      -0.849
      -0.838
      -0.921
      -1.060
      -1.180
      -1.221
      -1.173
      -1.083
      -1.024
      -1.049
      -1.150
      -1.268
      -1.319
      -1.238
      -0.995
      -0.594
      -0.057
       0.569
       1.218
       1.807
       2.265
       2.566
       2.737
       2.819
       2.815
       2.668
       2.286
       1.622
       0.725
      -0.253
      -1.127
      -1.762
      -2.127
      -2.288
      -2.346
      -2.374
      -2.386
      -2.350
      -2.211
      -1.920
      -1.451
      -0.811
      -0.050
       0.748
       1.490
       2.104
       2.560
       2.858
       3.011
       3.027
       2.904
       2.645
       2.264
       1.788
       1.237
       0.621
      -0.051
      -0.751
      -1.408
      -1.924
      -2.209
      -2.236
      -2.061
      -1.798
      -1.560
      -1.399
      -1.300
      -1.206
      -1.077
      -0.922
      -0.809
      -0.824
      -1.027
      -1.409
      -1.887
      -2.334
      -2.629
      -2.709
      -2.583
      -2.303
      -1.921
      -1.444
      -0.850
      -0.134
       0.636
       1.322
       1.774
       1.904
       1.735
       1.395
       1.049
       0.830
       0.789
       0.891
       1.061
       1.233
       1.395
       1.582
       1.826
       2.111
       2.354
       2.430
       2.230
       1.714
       0.916
      -0.070
      -1.113
      -2.059
      -2.744
      -3.022
      -2.823
      -2.202
      -1.338
      -0.474
       0.175
       0.507
       0.547
       0.408
       0.201
      -0.016
      -0.248
      -0.515
      -0.811
      -1.087
      -1.281
      -1.343
      -1.267
      -1.090
      -0.883
      -0.731
      -0.705
      -0.826
      -1.061
      -1.329
      -1.524
      -1.546
      -1.339
      -0.911
      -0.338
       0.261
       0.771
       1.135
       1.370
       1.544
       1.727
       1.947
       2.184
       2.392
       2.516
       2.517
       2.370
       2.080
       1.689
       1.274
       0.922
       0.679
       0.524
       0.376
       0.139
      -0.250
      -0.799
      -1.471
      -2.193
      -2.865
      -3.359
      -3.549
      -3.352
      -2.776
      -1.937
      -1.024
      -0.244
       0.252
       0.414
       0.303
       0.055
      -0.184
      -0.320
      -0.335
      -0.260
      -0.131
       0.047
       0.290
       0.607
       0.981
       1.376
       1.753
       2.069
       2.268
       2.276
       2.023
       1.486
       0.720
      -0.142
      -0.929
      -1.488
      -1.728
      -1.639
      -1.272
      -0.711
      -0.041
       0.661
       1.332
       1.923
       2.393
       2.715
       2.881
       2.911
       2.849
       2.749
       2.652
       2.565
       2.463
       2.305
       2.063
       1.734
       1.341
       0.920
       0.522
       0.202
       0.006
      -0.073
      -0.120
      -0.280
      -0.694
      -1.428
      -2.428
      -3.526
      -4.498
      -5.134
      -5.320
      -5.071
      -4.527
      -3.889
      -3.320
      -2.869
      -2.448
      -1.890
      -1.055
       0.080
       1.396
       2.684
       3.730
       4.388
       4.618
       4.473
       4.075
       3.580
       3.124
       2.774
       2.495
       2.171
       1.683
       0.980
       0.117
      -0.771
      -1.533
      -2.055
      -2.276
      -2.192
      -1.847
      -1.333
      -0.774
      -0.308
      -0.037
      -0.001
      -0.159
      -0.420
      -0.682
      -0.873
      -0.986
      -1.058
      -1.145
      -1.278
      -1.436
      -1.560
      -1.588
      -1.500
      -1.346
      -1.222
      -1.219
      -1.367
      -1.615
      -1.860
      -2.012
      -2.033
      -1.941
      -1.774
      -1.547
      -1.251
      -0.885
      -0.482
      -0.105
       0.200
       0.438
       0.658
       0.914
       1.212
       1.506
       1.727
       1.830
       1.815
       1.725
       1.622
       1.575
       1.631
       1.810
       2.086
       2.388
       2.621
       2.692
       2.548
       2.193
       1.691
       1.143
       0.653
       0.301
       0.129
       0.140
       0.311
       0.583
       0.863
       1.043
       1.040
       0.836
       0.489
       0.108
      -0.194
      -0.344
      -0.329
      -0.200
      -0.047
       0.034
      -0.034
      -0.290
      -0.739
      -1.355
      -2.073
      -2.796
      -3.395
      -3.740
      -3.741
      -3.383
      -2.744
      -1.958
      -1.159
      -0.412
       0.304
       1.061
       1.907
       2.799
       3.602
       4.142
       4.295
       4.030
       3.417
       2.578
       1.645
       0.742
      -0.014
      -0.526
      -0.743
      -0.708
      -0.559
      -0.483
      -0.626
      -1.015
      -1.543
      -2.035
      -2.351
      -2.461
      -2.433
      -2.360
      -2.282
      -2.158
      -1.913
      -1.496
      -0.924
      -0.267
       0.376
       0.905
       1.230
       1.292
       1.089
       0.692
       0.230
      -0.167
      -0.411
      -0.479
      -0.400
      -0.231
      -0.044
       0.078
       0.068
      -0.106
      -0.424
      -0.825
      -1.232
      -1.579
      -1.830
      -1.978
      -2.046
      -2.068
      -2.075
      -2.059
      -1.961
      -1.683
      -1.137
      -0.308
       0.731
       1.839
       2.875
       3.738
       4.366
       4.707
       4.713
       4.361
       3.688
       2.801
       1.849
       0.966
       0.226
      -0.365
      -0.842
      -1.243
      -1.576
      -1.814
      -1.911
      -1.830
      -1.577
      -1.200
      -0.782
      -0.400
      -0.092
       0.154
       0.375
       0.590
       0.775
       0.884
       0.892
       0.827
       0.757
       0.756
       0.853
       1.010
       1.136
       1.123
       0.903
       0.494
       0.008
      -0.399
      -0.601
      -0.565
      -0.373
      -0.166
      -0.079
      -0.180
      -0.461
      -0.880
      -1.401
      -1.998
      -2.619
      -3.150
      -3.430
      -3.320
      -2.782
      -1.897
      -0.818
       0.300
       1.340
       2.220
       2.867
       3.217
       3.237
       2.940
       2.382
       1.632
       0.760
      -0.150
      -0.982
      -1.589
      -1.827
      -1.622
      -1.004
      -0.114
       0.846
       1.673
       2.211
       2.372
       2.142
       1.575
       0.801
       0.006
      -0.611
      -0.904
      -0.836
      -0.492
      -0.019
       0.446
       0.837
       1.141
       1.351
       1.410
       1.221
       0.717
      -0.070
      -0.991
      -1.849
      -2.485
      -2.838
      -2.916
      -2.756
      -2.386
      -1.841
      -1.196
      -0.575
      -0.114
       0.097
       0.052
      -0.170
      -0.444
      -0.648
      -0.705
      -0.590
      -0.327
       0.024
       0.384
       0.671
       0.830
       0.850
       0.773
       0.675
       0.613
       0.586
       0.535
       0.395
       0.140
      -0.190
      -0.512
      -0.752
      -0.864
      -0.825
      -0.626
      -0.270
       0.202
       0.701
       1.124
       1.399
       1.522
       1.541
       1.504
       1.422
       1.266
       1.002
       0.629
       0.190
      -0.245
      -0.605
      -0.839
      -0.918
      -0.836
      -0.619
      -0.327
      -0.045
       0.148
       0.206
       0.128
      -0.051
      -0.285
      -0.538
      -0.791
      -1.034
      -1.256
      -1.435
      -1.540
      -1.539
      -1.416
      -1.175
      -0.849
      -0.490
      -0.162
       0.078
       0.195
       0.198
       0.134
       0.074
       0.077
       0.164
       0.308
       0.455
       0.557
       0.599
       0.608
       0.623
       0.669
       0.737
       0.792
       0.804
       0.776
       0.751
       0.787
       0.932
       1.198
       1.552
       1.915
       2.181
       2.243
       2.035
       1.561
       0.902
       0.199
      -0.402
      -0.802
      -0.976
      -0.964
      -0.836
      -0.652
      -0.452
      -0.250
      -0.041
       0.191
       0.447
       0.688
       0.818
       0.724
       0.336
      -0.313
      -1.084
      -1.794
      -2.296
      -2.530
      -2.513
      -2.296
      -1.932
      -1.478
      -1.019
      -0.659
      -0.488
      -0.534
      -0.734
      -0.958
      -1.065
      -0.968
      -0.662
      -0.208
       0.320
       0.880
       1.468
       2.084
       2.686
       3.179
       3.443
       3.389
       3.015
       2.411
       1.712
       1.035
       0.428
      -0.118
      -0.633
      -1.117
      -1.520
      -1.759
      -1.757
      -1.492
      -1.006
      -0.386
       0.287
       0.958
       1.594
       2.153
       2.571
       2.784
       2.767
