Origin Time       18/9/2011 13:54:17	
Lat.              27.5 N	
Long.             88.4 E	
Depth (Km)          9.0
Magnitude         4.5
 Region           India(Sikkim)-Nepar-Border                                       
 Above details taken from IMD 
   
Station Code      GTK
Station Lat.       27.352
Station Long.      88.627
Station Height(m) 1536.0
Site Class        A   Vs30 between 700 m/sec to 1400 m/sec * 
Record Time       18.09.2011 13:54:43.729
Sampling Rate     200. Hz
 Record Duration   86.335 Sec.
 Direction         Vert. (Up positive)
Max. Acceleration    -17.510 cm/sec**2
     
  * For reference see Site Classification link of website 
     
 Base Line Corrected and Low Pass Filtered (Cut Off at 35 Hz) Time History
 Acceleration data in cm/sec**2
    
[...]
      -0.019
      -0.011
       0.000
       0.012
       0.022
       0.025
       0.020
       0.013
       0.010
       0.012
       0.016
       0.015
       0.010
       0.005
       0.003
       0.004
       0.002
      -0.005
      -0.015
      -0.021
      -0.015
      -0.002
       0.011
       0.016
       0.011
       0.003
       0.002
       0.011
       0.023
       0.033
       0.032
       0.020
       0.003
      -0.011
      -0.018
      -0.015
      -0.004
       0.010
       0.023
       0.030
       0.026
       0.013
      -0.005
      -0.018
      -0.021
      -0.015
      -0.009
      -0.005
      -0.004
      -0.001
       0.008
       0.018
       0.024
       0.026
       0.023
       0.018
       0.014
       0.011
       0.008
       0.004
       0.000
      -0.004
      -0.005
      -0.004
      -0.001
       0.003
       0.005
       0.005
       0.003
       0.001
       0.000
       0.003
       0.011
       0.022
       0.030
       0.032
       0.027
       0.020
       0.013
       0.007
       0.002
      -0.002
      -0.003
      -0.001
       0.003
       0.005
       0.002
      -0.006
      -0.013
      -0.013
      -0.005
       0.004
       0.010
       0.012
       0.011
       0.014
       0.019
       0.024
       0.026
       0.023
       0.017
       0.006
      -0.007
      -0.020
      -0.024
      -0.017
       0.000
       0.016
       0.023
       0.017
       0.005
      -0.006
      -0.009
      -0.003
       0.004
       0.009
       0.007
       0.000
      -0.005
      -0.005
       0.001
       0.010
       0.015
       0.015
       0.011
       0.006
       0.001
      -0.002
      -0.002
      -0.002
      -0.003
      -0.004
      -0.003
      -0.002
       0.000
       0.001
       0.003
       0.006
       0.008
       0.009
       0.009
       0.007
       0.005
       0.004
       0.005
       0.007
       0.012
       0.016
       0.016
       0.011
       0.003
      -0.004
      -0.007
      -0.006
      -0.002
       0.004
       0.009
       0.012
       0.012
       0.011
       0.010
       0.012
       0.015
       0.015
       0.011
       0.003
      -0.005
      -0.007
      -0.002
       0.010
       0.023
       0.029
       0.029
       0.025
       0.021
       0.018
       0.013
       0.004
      -0.005
      -0.008
      -0.004
       0.005
       0.013
       0.017
       0.016
       0.013
       0.011
       0.013
       0.018
       0.023
       0.024
       0.018
       0.009
       0.000
      -0.004
      -0.005
      -0.002
       0.001
       0.003
       0.004
       0.001
      -0.004
      -0.006
      -0.002
       0.006
       0.014
       0.015
       0.010
       0.004
       0.002
       0.006
       0.011
       0.013
       0.011
       0.010
       0.009
       0.008
       0.004
      -0.003
      -0.008
      -0.008
      -0.003
       0.003
       0.006
       0.004
      -0.001
      -0.004
      -0.003
       0.000
       0.003
       0.003
       0.001
      -0.001
      -0.001
       0.001
       0.003
       0.002
      -0.001
      -0.003
       0.000
       0.008
       0.017
       0.022
       0.019
       0.010
       0.000
      -0.006
      -0.005
       0.002
       0.010
       0.016
       0.016
       0.013
       0.008
       0.006
       0.006
       0.007
       0.007
       0.004
       0.001
      -0.001
       0.000
       0.003
       0.003
       0.000
      -0.003
      -0.005
      -0.004
       0.000
       0.004
       0.007
       0.008
       0.007
       0.006
       0.005
       0.004
       0.003
       0.002
       0.002
       0.003
       0.004
       0.006
       0.006
       0.005
       0.003
       0.002
       0.006
       0.012
       0.020
       0.023
       0.022
       0.014
       0.003
      -0.006
      -0.012
      -0.012
      -0.007
      -0.003
       0.000
       0.000
       0.000
       0.000
       0.002
       0.005
       0.010
       0.015
       0.017
       0.013
       0.005
      -0.003
      -0.005
       0.000
       0.006
       0.008
       0.004
       0.000
      -0.002
      -0.002
      -0.001
      -0.001
       0.000
       0.002
       0.004
       0.005
       0.005
       0.006
       0.010
       0.013
       0.015
       0.014
       0.011
       0.007
       0.005
       0.002
      -0.001
      -0.003
      -0.004
      -0.003
       0.001
       0.005
       0.009
       0.012
       0.012
       0.012
       0.011
       0.010
       0.008
       0.007
       0.006
       0.006
       0.008
       0.013
       0.017
       0.018
       0.014
       0.006
      -0.001
      -0.004
      -0.004
      -0.004
      -0.005
      -0.007
      -0.007
      -0.003
       0.004
       0.010
       0.012
       0.010
       0.005
       0.000
      -0.002
      -0.001
       0.000
       0.001
       0.002
       0.003
       0.002
       0.000
      -0.003
      -0.005
      -0.002
       0.003
       0.007
       0.008
       0.006
       0.003
       0.004
       0.009
       0.015
       0.016
       0.012
       0.009
       0.009
       0.012
       0.012
       0.005
      -0.005
      -0.010
      -0.006
       0.004
       0.012
       0.014
       0.011
       0.008
       0.006
       0.004
       0.001
      -0.004
      -0.008
      -0.009
      -0.006
       0.001
       0.010
       0.020
       0.036
       0.063
       0.107
       0.169
       0.242
       0.321
       0.406
       0.506
       0.625
       0.734
       0.777
       0.701
       0.506
       0.263
       0.076
      -0.001
      -0.017
      -0.091
      -0.309
      -0.638
      -0.958
      -1.184
      -1.350
      -1.562
      -1.823
      -1.920
      -1.525
      -0.469
       1.039
       2.471
       3.306
       3.343
       2.741
       1.771
       0.562
      -0.902
      -2.504
      -3.789
      -4.116
      -3.139
      -1.184
       0.860
       2.095
       2.148
       1.284
       0.060
      -1.095
      -2.018
      -2.626
      -2.697
      -1.911
      -0.154
       2.200
       4.341
       5.397
       4.872
       2.875
       0.067
      -2.619
      -4.304
      -4.447
      -3.013
      -0.539
       1.982
       3.454
       3.191
       1.310
      -1.288
      -3.407
      -4.205
      -3.586
      -2.079
      -0.368
       1.118
       2.292
       3.209
       3.839
       3.995
       3.456
       2.158
       0.313
      -1.602
      -2.961
      -3.185
      -2.016
       0.237
       2.663
       4.094
       3.710
       1.570
      -1.353
      -3.717
      -4.623
      -4.162
      -3.261
      -2.932
      -3.458
      -4.149
      -3.855
      -1.833
       1.668
       5.488
       8.149
       8.574
       6.534
       2.719
      -1.507
      -4.573
      -5.263
      -3.234
       0.756
       5.092
       7.968
       8.144
       5.441
       0.763
      -4.306
      -8.141
      -9.678
      -8.725
      -5.898
      -2.277
       0.966
       2.856
       2.859
       1.084
      -1.638
      -3.966
      -4.579
      -2.825
       0.888
       5.227
       8.562
       9.702
       8.345
       5.079
       1.063
      -2.415
      -4.378
      -4.485
      -3.148
      -1.321
      -0.015
       0.237
      -0.420
      -1.418
      -2.236
      -2.705
      -2.918
      -2.961
      -2.726
      -2.000
      -0.693
       1.033
       2.822
       4.293
       5.124
       5.061
       3.983
       2.059
      -0.170
      -1.952
      -2.655
      -2.076
      -0.543
       1.211
       2.338
       2.226
       0.750
      -1.648
      -4.108
      -5.678
      -5.686
      -4.013
      -1.134
       2.064
       4.585
       5.644
       4.921
       2.706
      -0.149
      -2.526
      -3.517
      -2.828
      -0.900
       1.329
       2.887
       3.214
       2.370
       0.902
      -0.529
      -1.499
      -1.913
      -1.853
      -1.444
      -0.881
      -0.520
      -0.742
      -1.614
      -2.677
      -3.170
      -2.582
      -1.070
       0.640
       1.777
       2.044
       1.734
       1.430
       1.550
       2.097
       2.729
       3.037
       2.830
       2.232
       1.550
       1.006
       0.549
      -0.107
      -1.210
      -2.687
      -4.108
      -4.941
      -4.875
      -3.944
      -2.407
      -0.604
       1.070
       2.167
       2.320
       1.481
       0.056
      -1.249
      -1.786
      -1.273
       0.134
       2.020
       3.930
       5.455
       6.205
       5.811
       4.075
       1.197
      -2.169
      -5.107
      -6.784
      -6.735
      -5.001
      -2.156
       0.803
       2.756
       2.961
       1.500
      -0.705
      -2.415
      -2.805
      -1.871
      -0.255
       1.290
       2.304
       2.671
       2.444
       1.710
       0.631
      -0.496
      -1.286
      -1.426
      -0.817
       0.378
       1.788
       2.904
       3.204
       2.368
       0.528
      -1.682
      -3.408
      -4.041
      -3.475
      -2.029
      -0.172
       1.616
       2.858
       3.127
       2.278
       0.633
      -1.110
      -2.275
      -2.586
      -2.197
      -1.423
      -0.468
       0.573
       1.530
       2.060
       1.814
       0.741
      -0.770
      -2.057
      -2.544
      -2.019
      -0.692
       0.948
       2.355
       3.107
       3.012
       2.127
       0.705
      -0.900
      -2.331
      -3.266
      -3.445
      -2.724
      -1.177
       0.821
       2.647
       3.660
       3.499
       2.258
       0.409
      -1.434
      -2.746
      -3.175
      -2.585
      -1.133
       0.672
       2.107
       2.581
       1.965
       0.659
      -0.664
      -1.432
      -1.407
      -0.699
       0.357
       1.334
       1.835
       1.624
       0.754
      -0.421
      -1.400
      -1.783
      -1.474
      -0.696
       0.149
       0.696
       0.765
       0.396
      -0.193
      -0.711
      -0.919
      -0.762
      -0.413
      -0.163
      -0.205
      -0.494
      -0.769
      -0.728
      -0.223
       0.655
       1.606
       2.238
       2.221
       1.446
       0.147
      -1.148
      -1.880
      -1.813
      -1.178
      -0.482
      -0.125
      -0.189
      -0.517
      -0.931
      -1.318
      -1.530
      -1.307
      -0.445
       0.914
       2.220
       2.849
       2.572
       1.699
       0.784
       0.208
       0.024
       0.123
       0.424
       0.871
       1.308
       1.478
       1.213
       0.612
      -0.043
      -0.570
      -1.092
      -1.869
      -2.884
      -3.617
      -3.339
      -1.763
       0.533
       2.360
       2.710
       1.458
      -0.562
      -2.123
      -2.340
      -1.076
       1.116
       3.346
       4.754
       4.774
       3.312
       0.817
      -1.836
      -3.684
      -4.097
      -3.056
      -1.097
       0.989
       2.512
       3.100
       2.724
       1.597
       0.030
      -1.658
      -3.160
      -4.150
      -4.326
      -3.547
      -1.977
      -0.075
       1.597
       2.600
       2.746
       2.100
       0.952
      -0.240
      -0.972
      -0.916
      -0.111
       1.034
       1.976
       2.339
       2.059
       1.268
       0.127
      -1.192
      -2.402
      -3.097
      -2.968
      -2.043
      -0.712
       0.503
       1.216
       1.288
       0.786
      -0.048
      -0.803
      -1.010
      -0.395
       0.858
       2.158
       2.882
       2.787
       2.104
       1.254
       0.513
      -0.088
      -0.607
      -1.051
      -1.417
      -1.774
      -2.193
      -2.568
      -2.593
      -2.029
      -0.999
       0.031
       0.632
       0.789
       0.873
       1.275
       2.052
       2.895
       3.360
       3.127
       2.123
       0.551
      -1.119
      -2.267
      -2.401
      -1.475
       0.020
       1.337
       1.911
       1.613
       0.652
      -0.694
      -2.218
      -3.690
      -4.717
      -4.781
      -3.499
      -0.945
       2.229
       4.989
       6.331
       5.705
       3.253
      -0.210
      -3.438
      -5.177
      -4.660
      -2.023
       1.624
       4.602
       5.492
       3.932
       0.836
      -2.172
      -3.787
      -3.778
      -2.938
      -2.310
      -2.329
      -2.571
      -2.264
      -1.041
       0.735
       2.300
       3.089
       3.010
       2.260
       1.021
      -0.562
      -2.170
      -3.231
      -3.206
      -1.981
       0.035
       2.218
       4.120
       5.575
       6.486
       6.628
       5.740
       3.808
       1.229
      -1.342
      -3.255
      -4.034
      -3.447
      -1.663
       0.589
       2.149
       2.017
       0.038
      -2.934
      -5.623
      -7.187
      -7.575
      -7.154
      -6.103
      -4.281
      -1.609
       1.545
       4.465
       6.515
       7.434
       7.285
       6.291
       4.797
       3.246
       1.961
       0.860
      -0.479
      -2.302
      -4.160
      -5.019
      -4.091
      -1.690
       0.804
       1.983
       1.529
       0.303
      -0.610
      -0.884
      -1.033
      -1.677
      -2.883
      -4.165
      -4.989
      -5.138
      -4.677
      -3.703
      -2.258
      -0.395
       1.792
       4.220
       6.793
       9.188
      10.718
      10.535
       8.158
       3.913
      -1.119
      -5.604
      -8.512
      -9.334
      -7.992
      -4.721
      -0.069
       5.083
       9.564
      12.027
      11.187
       6.371
      -1.713
     -10.602
     -16.792
     -17.510
     -12.429
      -3.916
       4.472
      10.010
      11.774
      10.209
       6.245
       0.962
      -4.234
      -7.647
      -7.990
      -5.274
      -1.006
       2.669
       4.247
       3.529
       1.290
      -1.511
      -4.172
      -6.154
      -6.867
      -5.752
      -2.655
       1.842
       6.496
       9.890
      11.012
       9.546
       5.799
       0.565
      -4.914
      -9.069
     -10.515
      -8.751
      -4.485
       0.729
       5.198
       7.630
       7.338
       4.344
      -0.536
      -5.809
      -9.753
     -11.055
      -9.268
      -4.902
       0.822
       6.343
      10.147
      11.186
       9.291
       5.371
       1.116
      -1.784
      -2.463
      -1.204
       0.900
       2.671
       3.415
       3.052
       1.883
       0.309
      -1.320
      -2.698
      -3.569
      -3.799
      -3.470
      -2.856
      -2.259
      -1.794
      -1.323
      -0.566
       0.650
       2.211
       3.718
       4.668
       4.673
       3.615
       1.707
      -0.522
      -2.351
      -3.144
      -2.680
      -1.352
      -0.043
       0.334
      -0.600
      -2.393
      -4.000
      -4.476
      -3.609
      -2.014
      -0.621
      -0.012
      -0.123
      -0.506
      -0.806
      -1.012
      -1.268
      -1.545
      -1.543
      -0.955
       0.202
       1.527
       2.478
       2.697
       2.183
       1.270
       0.468
       0.266
       0.927
       2.356
       4.099
       5.524
       6.104
       5.641
       4.269
       2.295
       0.023
      -2.248
      -4.117
      -5.071
      -4.711
      -3.057
      -0.651
       1.691
       3.273
       3.758
       3.146
       1.652
      -0.350
      -2.326
      -3.638
      -3.760
      -2.543
      -0.385
       1.896
       3.451
       3.849
       3.274
       2.338
       1.649
       1.467
       1.639
       1.817
       1.722
       1.280
       0.557
      -0.390
      -1.571
      -2.944
      -4.236
      -4.953
      -4.661
      -3.346
      -1.549
      -0.110
       0.324
      -0.346
      -1.682
      -3.039
      -3.905
      -4.031
      -3.365
      -1.983
      -0.121
       1.748
       2.989
       3.070
       1.887
      -0.108
      -2.091
      -3.261
      -3.195
      -1.977
      -0.070
       1.923
       3.464
       4.162
       3.797
       2.383
       0.259
      -1.922
      -3.403
      -3.670
      -2.723
      -1.052
       0.678
       2.011
       2.873
       3.423
       3.766
       3.797
       3.302
       2.196
       0.663
      -0.902
      -2.088
      -2.626
      -2.440
      -1.644
      -0.516
       0.538
       1.119
       1.013
       0.308
      -0.653
      -1.447
      -1.773
      -1.559
      -0.949
      -0.194
       0.464
       0.864
       0.924
       0.637
       0.081
      -0.569
      -1.066
      -1.181
      -0.818
      -0.082
       0.754
       1.372
       1.540
       1.166
       0.288
      -0.918
      -2.125
      -2.914
      -2.975
      -2.312
      -1.279
      -0.362
       0.138
       0.288
       0.410
       0.764
       1.293
       1.681
       1.655
       1.220
       0.613
       0.060
      -0.396
      -0.816
      -1.204
      -1.458
      -1.461
      -1.169
      -0.603
       0.204
       1.198
       2.228
       3.032
       3.353
       3.101
       2.438
       1.669
       1.048
       0.638
       0.354
       0.121
      -0.028
      -0.019
       0.121
       0.212
       0.035
      -0.490
      -1.241
      -1.973
      -2.477
      -2.664
      -2.538
      -2.116
      -1.389
      -0.365
       0.845
       1.993
       2.774
       2.959
       2.489
       1.472
       0.121
      -1.289
      -2.438
      -3.003
      -2.752
      -1.679
      -0.074
       1.527
       2.554
       2.663
       1.894
       0.605
      -0.752
      -1.816
      -2.379
      -2.350
      -1.750
      -0.750
       0.344
       1.203
       1.620
       1.563
       1.123
       0.433
      -0.349
      -1.017
      -1.337
      -1.135
      -0.389
       0.743
       1.964
       2.933
       3.373
       3.171
       2.418
       1.354
       0.252
      -0.676
      -1.282
      -1.434
      -1.030
      -0.104
       1.081
       2.084
       2.497
       2.165
       1.246
       0.095
      -0.932
      -1.625
      -1.949
      -1.975
      -1.783
      -1.416
      -0.909
      -0.358
       0.067
       0.187
      -0.059
      -0.547
      -1.020
      -1.244
      -1.137
      -0.780
      -0.312
       0.162
       0.573
       0.825
       0.809
       0.518
       0.141
      -0.037
       0.110
       0.392
       0.434
       0.002
      -0.785
      -1.548
      -1.961
      -1.986
      -1.837
      -1.743
      -1.749
      -1.701
      -1.393
      -0.744
       0.125
       0.935
       1.381
       1.271
       0.628
      -0.277
      -1.015
      -1.196
      -0.695
       0.268
       1.268
       1.936
       2.134
       1.942
       1.526
       1.026
       0.537
       0.148
      -0.060
      -0.082
      -0.021
      -0.028
      -0.164
      -0.319
      -0.315
      -0.080
       0.263
       0.521
       0.606
       0.584
       0.561
       0.558
       0.515
       0.406
       0.291
       0.241
       0.236
       0.158
      -0.094
      -0.488
      -0.863
      -1.052
      -1.001
      -0.785
      -0.552
      -0.443
      -0.534
      -0.809
      -1.179
      -1.536
      -1.785
      -1.845
      -1.634
      -1.120
      -0.401
       0.292
       0.724
       0.802
       0.611
       0.304
      -0.010
      -0.266
      -0.365
      -0.191
       0.259
       0.761
       0.971
       0.707
       0.133
      -0.358
      -0.481
      -0.283
      -0.054
      -0.026
