Origin Time       18/9/2011 21:51:52	 UTC
Lat.              27.6 N	
Long.             88.4 E	
Depth (Km)         28.0
Magnitude         4.2
 Region           India(Sikkim)-Nepar-Border                                       
 Above details taken from IMD 
    
Station Code      GTK
Station Lat.       27.352  N
Station Long.      88.627  E
Station Height(m) 1536.0
Site Class        A   Vs30 between 700 m/sec to 1400 m/sec * 
Record Time       18.09.2011 21:52:26.429 UTC
Sampling Rate     200. Hz
 Record Duration   80.295 Sec.
 Direction         N-S (N positive)
Max. Acceleration      5.525 cm/sec**2
     
  * For reference see Site Classification link of website 
     
 Base Line Corrected and Low Pass Filtered (Cut Off at 35 Hz) Time History
 Acceleration data in cm/sec**2
    
[...]
       0.069
       0.065
       0.076
       0.143
       0.268
       0.405
       0.487
       0.472
       0.370
       0.233
       0.118
       0.055
       0.028
      -0.003
      -0.064
      -0.149
      -0.223
      -0.256
      -0.241
      -0.200
      -0.158
      -0.128
      -0.105
      -0.073
      -0.019
       0.050
       0.102
       0.101
       0.032
      -0.088
      -0.209
      -0.280
      -0.268
      -0.170
      -0.004
       0.192
       0.369
       0.472
       0.466
       0.347
       0.154
      -0.052
      -0.210
      -0.290
      -0.300
      -0.264
      -0.203
      -0.122
      -0.018
       0.101
       0.214
       0.291
       0.317
       0.291
       0.226
       0.133
       0.017
      -0.123
      -0.287
      -0.454
      -0.587
      -0.633
      -0.552
      -0.345
      -0.054
       0.239
       0.449
       0.516
       0.436
       0.265
       0.087
      -0.033
      -0.077
      -0.069
      -0.046
      -0.023
       0.003
       0.033
       0.053
       0.036
      -0.037
      -0.153
      -0.275
      -0.352
      -0.348
      -0.258
      -0.108
       0.053
       0.167
       0.192
       0.120
      -0.009
      -0.129
      -0.185
      -0.156
      -0.055
       0.095
       0.273
       0.450
       0.586
       0.640
       0.595
       0.470
       0.311
       0.155
       0.013
      -0.123
      -0.260
      -0.401
      -0.541
      -0.675
      -0.785
      -0.829
      -0.756
      -0.533
      -0.187
       0.190
       0.485
       0.621
       0.598
       0.476
       0.325
       0.188
       0.076
      -0.010
      -0.066
      -0.094
      -0.105
      -0.116
      -0.143
      -0.191
      -0.245
      -0.278
      -0.255
      -0.153
       0.019
       0.208
       0.346
       0.380
       0.301
       0.129
      -0.101
      -0.355
      -0.598
      -0.780
      -0.841
      -0.733
      -0.442
      -0.011
       0.469
       0.894
       1.178
       1.263
       1.125
       0.768
       0.249
      -0.316
      -0.789
      -1.057
      -1.090
      -0.930
      -0.652
      -0.312
       0.055
       0.419
       0.731
       0.932
       0.985
       0.891
       0.684
       0.407
       0.096
      -0.221
      -0.507
      -0.712
      -0.794
      -0.743
      -0.597
      -0.430
      -0.306
      -0.239
      -0.196
      -0.131
      -0.030
       0.077
       0.150
       0.186
       0.230
       0.333
       0.501
       0.670
       0.741
       0.641
       0.370
       0.002
      -0.355
      -0.612
      -0.727
      -0.703
      -0.573
      -0.384
      -0.193
      -0.043
       0.047
       0.084
       0.096
       0.111
       0.149
       0.209
       0.271
       0.303
       0.283
       0.210
       0.105
      -0.005
      -0.095
      -0.141
      -0.123
      -0.039
       0.073
       0.144
       0.101
      -0.076
      -0.327
      -0.535
      -0.582
      -0.413
      -0.064
       0.356
       0.701
       0.856
       0.772
       0.489
       0.118
      -0.208
      -0.387
      -0.394
      -0.274
      -0.103
       0.054
       0.159
       0.185
       0.111
      -0.062
      -0.295
      -0.512
      -0.638
      -0.632
      -0.505
      -0.304
      -0.087
       0.096
       0.220
       0.287
       0.323
       0.357
       0.392
       0.402
       0.355
       0.240
       0.071
      -0.114
      -0.278
      -0.389
      -0.418
      -0.344
      -0.175
       0.044
       0.233
       0.310
       0.233
       0.033
      -0.201
      -0.369
      -0.410
      -0.326
      -0.161
       0.024
       0.184
       0.288
       0.320
       0.275
       0.167
       0.033
      -0.074
      -0.104
      -0.041
       0.083
       0.202
       0.255
       0.214
       0.102
      -0.026
      -0.110
      -0.115
      -0.050
       0.045
       0.122
       0.149
       0.125
       0.062
      -0.025
      -0.127
      -0.239
      -0.346
      -0.426
      -0.455
      -0.417
      -0.312
      -0.149
       0.054
       0.270
       0.463
       0.591
       0.628
       0.563
       0.406
       0.182
      -0.073
      -0.317
      -0.510
      -0.627
      -0.654
      -0.584
      -0.414
      -0.158
       0.136
       0.384
       0.505
       0.469
       0.322
       0.153
       0.034
      -0.017
      -0.031
      -0.049
      -0.082
      -0.111
      -0.115
      -0.089
      -0.055
      -0.038
      -0.055
      -0.098
      -0.143
      -0.166
      -0.151
      -0.097
      -0.015
       0.074
       0.143
       0.168
       0.141
       0.077
       0.008
      -0.033
      -0.031
       0.007
       0.060
       0.100
       0.108
       0.079
       0.023
      -0.043
      -0.108
      -0.163
      -0.194
      -0.185
      -0.121
      -0.007
       0.124
       0.224
       0.247
       0.172
       0.013
      -0.179
      -0.336
      -0.398
      -0.341
      -0.185
       0.016
       0.195
       0.304
       0.323
       0.271
       0.186
       0.105
       0.046
       0.006
      -0.034
      -0.095
      -0.194
      -0.322
      -0.439
      -0.482
      -0.402
      -0.202
       0.055
       0.276
       0.389
       0.377
       0.280
       0.155
       0.049
      -0.024
      -0.073
      -0.113
      -0.153
      -0.178
      -0.169
      -0.107
      -0.002
       0.116
       0.205
       0.234
       0.202
       0.124
       0.020
      -0.102
      -0.235
      -0.359
      -0.438
      -0.437
      -0.339
      -0.158
       0.070
       0.298
       0.478
       0.575
       0.574
       0.490
       0.362
       0.230
       0.113
       0.008
      -0.097
      -0.202
      -0.298
      -0.371
      -0.413
      -0.415
      -0.368
      -0.265
      -0.119
       0.037
       0.156
       0.198
       0.151
       0.036
      -0.096
      -0.180
      -0.171
      -0.059
       0.123
       0.312
       0.448
       0.488
       0.419
       0.260
       0.057
      -0.129
      -0.241
      -0.253
      -0.179
      -0.068
       0.013
       0.004
      -0.123
      -0.342
      -0.568
      -0.683
      -0.596
      -0.299
       0.116
       0.485
       0.657
       0.574
       0.297
      -0.032
      -0.271
      -0.333
      -0.209
       0.048
       0.343
       0.575
       0.659
       0.561
       0.303
      -0.049
      -0.404
      -0.676
      -0.800
      -0.751
      -0.556
      -0.284
      -0.028
       0.135
       0.184
       0.163
       0.149
       0.207
       0.338
       0.476
       0.524
       0.411
       0.131
      -0.256
      -0.647
      -0.935
      -1.035
      -0.897
      -0.525
       0.012
       0.587
       1.048
       1.270
       1.198
       0.870
       0.391
      -0.104
      -0.495
      -0.708
      -0.730
      -0.607
      -0.420
      -0.248
      -0.132
      -0.057
       0.027
       0.163
       0.344
       0.511
       0.578
       0.491
       0.259
      -0.048
      -0.339
      -0.550
      -0.667
      -0.707
      -0.684
      -0.586
      -0.389
      -0.095
       0.246
       0.546
       0.720
       0.732
       0.610
       0.420
       0.232
       0.083
      -0.034
      -0.151
      -0.292
      -0.436
      -0.527
      -0.515
      -0.402
      -0.250
      -0.132
      -0.071
      -0.016
       0.107
       0.318
       0.556
       0.709
       0.692
       0.498
       0.203
      -0.092
      -0.303
      -0.395
      -0.372
      -0.256
      -0.082
       0.103
       0.251
       0.327
       0.337
       0.316
       0.296
       0.280
       0.245
       0.161
       0.018
      -0.173
      -0.383
      -0.571
      -0.696
      -0.719
      -0.615
      -0.385
      -0.069
       0.265
       0.536
       0.682
       0.671
       0.515
       0.260
      -0.028
      -0.279
      -0.440
      -0.496
      -0.468
      -0.401
      -0.324
      -0.243
      -0.135
       0.024
       0.239
       0.477
       0.672
       0.754
       0.677
       0.446
       0.112
      -0.238
      -0.505
      -0.610
      -0.522
      -0.274
       0.050
       0.338
       0.500
       0.491
       0.319
       0.046
      -0.236
      -0.431
      -0.481
      -0.397
      -0.261
      -0.173
      -0.194
      -0.310
      -0.441
      -0.497
      -0.435
      -0.286
      -0.118
       0.010
       0.095
       0.175
       0.276
       0.387
       0.464
       0.481
       0.455
       0.438
       0.464
       0.516
       0.531
       0.441
       0.223
      -0.085
      -0.408
      -0.668
      -0.812
      -0.810
      -0.657
      -0.378
      -0.042
       0.255
       0.433
       0.466
       0.389
       0.257
       0.117
      -0.015
      -0.131
      -0.226
      -0.295
      -0.341
      -0.373
      -0.392
      -0.381
      -0.313
      -0.174
       0.013
       0.199
       0.339
       0.422
       0.463
       0.476
       0.446
       0.345
       0.161
      -0.076
      -0.306
      -0.471
      -0.534
      -0.479
      -0.316
      -0.081
       0.160
       0.330
       0.383
       0.338
       0.281
       0.297
       0.402
       0.515
       0.514
       0.321
      -0.039
      -0.450
      -0.776
      -0.927
      -0.889
      -0.697
      -0.407
      -0.076
       0.242
       0.493
       0.638
       0.661
       0.573
       0.410
       0.226
       0.074
      -0.012
      -0.041
      -0.045
      -0.052
      -0.060
      -0.047
      -0.001
       0.072
       0.145
       0.198
       0.217
       0.192
       0.106
      -0.053
      -0.270
      -0.489
      -0.637
      -0.657
      -0.544
      -0.343
      -0.122
       0.062
       0.185
       0.258
       0.300
       0.324
       0.321
       0.269
       0.160
       0.005
      -0.164
      -0.316
      -0.442
      -0.545
      -0.610
      -0.589
      -0.418
      -0.078
       0.369
       0.786
       1.034
       1.047
       0.849
       0.519
       0.148
      -0.190
      -0.437
      -0.556
      -0.538
      -0.407
      -0.208
       0.007
       0.195
       0.321
       0.360
       0.295
       0.141
      -0.061
      -0.252
      -0.386
      -0.457
      -0.495
      -0.533
      -0.575
      -0.583
      -0.506
      -0.317
      -0.041
       0.249
       0.473
       0.569
       0.523
       0.365
       0.157
      -0.035
      -0.162
      -0.199
      -0.144
      -0.009
       0.174
       0.356
       0.474
       0.474
       0.336
       0.091
      -0.178
      -0.370
      -0.409
      -0.283
      -0.047
       0.200
       0.368
       0.413
       0.346
       0.212
       0.062
      -0.073
      -0.188
      -0.295
      -0.399
      -0.493
      -0.558
      -0.583
      -0.567
      -0.513
      -0.416
      -0.268
      -0.075
       0.133
       0.309
       0.414
       0.437
       0.396
       0.317
       0.220
       0.114
       0.012
      -0.061
      -0.076
      -0.019
       0.091
       0.212
       0.304
       0.346
       0.337
       0.286
       0.204
       0.102
      -0.007
      -0.109
      -0.190
      -0.236
      -0.233
      -0.182
      -0.106
      -0.046
      -0.026
      -0.039
      -0.057
      -0.061
      -0.054
      -0.051
      -0.058
      -0.070
      -0.093
      -0.157
      -0.293
      -0.490
      -0.675
      -0.738
      -0.599
      -0.259
       0.197
       0.649
       0.993
       1.177
       1.189
       1.040
       0.759
       0.393
       0.007
      -0.325
      -0.545
      -0.633
      -0.614
      -0.530
      -0.414
      -0.272
      -0.101
       0.076
       0.207
       0.239
       0.162
       0.015
      -0.139
      -0.250
      -0.305
      -0.308
      -0.255
      -0.128
       0.071
       0.302
       0.496
       0.589
       0.567
       0.455
       0.294
       0.109
      -0.091
      -0.288
      -0.442
      -0.501
      -0.432
      -0.249
      -0.015
       0.186
       0.295
       0.307
       0.263
       0.209
       0.158
       0.091
       0.002
      -0.087
      -0.138
      -0.152
      -0.176
      -0.270
      -0.434
      -0.585
      -0.606
      -0.433
      -0.108
       0.237
       0.454
       0.456
       0.239
      -0.148
      -0.644
      -1.194
      -1.723
      -2.128
      -2.289
      -2.122
      -1.623
      -0.883
      -0.054
       0.721
       1.363
       1.873
       2.296
       2.650
       2.879
       2.877
       2.559
       1.926
       1.065
       0.095
      -0.877
      -1.766
      -2.480
      -2.917
      -3.000
      -2.733
      -2.224
      -1.646
      -1.169
      -0.896
      -0.855
      -1.007
      -1.267
      -1.517
      -1.619
      -1.445
      -0.933
      -0.113
       0.891
       1.913
       2.800
       3.465
       3.899
       4.139
       4.222
       4.148
       3.884
       3.397
       2.693
       1.818
       0.832
      -0.216
      -1.281
      -2.295
      -3.157
      -3.753
      -3.989
      -3.812
      -3.215
      -2.254
      -1.061
       0.153
       1.154
       1.780
       2.021
       2.025
       2.006
       2.104
       2.307
       2.476
       2.448
       2.124
       1.504
       0.658
      -0.293
      -1.186
      -1.842
      -2.135
      -2.076
      -1.839
      -1.695
      -1.874
      -2.442
      -3.248
      -3.975
      -4.279
      -3.934
      -2.931
      -1.456
       0.227
       1.896
       3.404
       4.628
       5.395
       5.525
       4.968
       3.933
       2.852
       2.170
       2.096
       2.463
       2.823
       2.696
       1.835
       0.349
      -1.382
      -2.918
      -3.957
      -4.420
      -4.402
      -4.073
      -3.584
      -3.035
      -2.478
      -1.927
      -1.374
      -0.806
      -0.224
       0.339
       0.833
       1.198
       1.384
       1.368
       1.175
       0.868
       0.535
       0.257
       0.089
       0.039
       0.058
       0.050
      -0.068
      -0.316
      -0.632
      -0.926
      -1.150
      -1.329
      -1.498
      -1.622
      -1.580
      -1.239
      -0.570
       0.292
       1.088
       1.561
       1.583
       1.220
       0.686
       0.219
      -0.036
      -0.062
       0.109
       0.485
       1.116
       1.986
       2.900
       3.504
       3.472
       2.708
       1.431
       0.033
      -1.154
      -2.023
      -2.665
      -3.211
      -3.678
      -3.939
      -3.817
      -3.218
      -2.208
      -0.984
       0.218
       1.213
       1.904
       2.267
       2.316
       2.080
       1.604
       0.956
       0.237
      -0.430
      -0.916
      -1.125
      -1.030
      -0.700
      -0.288
       0.038
       0.169
       0.106
      -0.071
      -0.266
      -0.433
      -0.585
      -0.758
      -0.963
      -1.170
      -1.325
      -1.362
      -1.209
      -0.802
      -0.116
       0.806
       1.837
       2.794
       3.489
       3.789
       3.653
       3.146
       2.415
       1.633
       0.933
       0.346
      -0.204
      -0.832
      -1.586
      -2.380
      -2.999
      -3.212
      -2.895
      -2.108
      -1.073
      -0.075
       0.656
       1.011
       1.013
       0.772
       0.427
       0.101
      -0.130
      -0.254
      -0.310
      -0.352
      -0.411
      -0.475
      -0.494
      -0.416
      -0.221
       0.058
       0.344
       0.553
       0.633
       0.586
       0.464
       0.332
       0.231
       0.173
       0.149
       0.150
       0.175
       0.222
       0.280
       0.333
       0.378
       0.417
       0.441
       0.418
       0.309
       0.100
      -0.171
      -0.429
      -0.601
      -0.642
      -0.544
      -0.328
      -0.040
       0.240
       0.424
       0.453
       0.336
       0.157
       0.020
      -0.014
       0.032
       0.058
      -0.041
      -0.299
      -0.638
      -0.901
      -0.941
      -0.708
      -0.271
       0.229
       0.664
       0.960
       1.095
       1.058
       0.842
       0.463
       0.005
      -0.389
      -0.578
      -0.519
      -0.305
      -0.109
      -0.066
      -0.193
      -0.391
      -0.530
      -0.545
      -0.471
      -0.397
      -0.385
      -0.419
      -0.419
      -0.311
      -0.078
       0.224
       0.500
       0.665
       0.676
       0.547
       0.339
       0.132
      -0.010
      -0.073
      -0.091
      -0.107
      -0.143
      -0.183
      -0.195
      -0.153
      -0.048
       0.125
       0.367
       0.669
       0.971
       1.167
       1.135
       0.811
       0.232
      -0.468
      -1.120
      -1.593
      -1.824
      -1.812
      -1.588
      -1.203
      -0.731
      -0.268
       0.099
       0.327
       0.434
       0.477
       0.507
       0.539
       0.556
       0.538
       0.490
       0.439
       0.417
       0.440
       0.497
       0.551
       0.549
       0.451
       0.260
       0.025
      -0.180
      -0.306
      -0.364
      -0.415
      -0.511
      -0.651
      -0.763
      -0.752
      -0.551
      -0.166
       0.344
       0.891
       1.387
       1.745
       1.885
       1.739
       1.287
       0.584
      -0.236
      -0.989
      -1.503
      -1.687
      -1.555
      -1.211
      -0.785
      -0.389
      -0.086
       0.103
       0.191
       0.206
       0.183
       0.150
       0.120
       0.093
       0.065
       0.038
       0.028
       0.056
       0.132
       0.247
       0.361
       0.426
       0.404
       0.285
       0.088
      -0.143
      -0.347
      -0.458
      -0.436
      -0.289
      -0.083
       0.082
       0.127
       0.035
      -0.141
      -0.316
      -0.425
      -0.453
      -0.431
      -0.410
      -0.421
      -0.456
      -0.470
      -0.414
      -0.271
      -0.075
       0.110
       0.227
       0.258
       0.235
       0.219
       0.261
       0.379
       0.543
       0.682
       0.721
       0.613
       0.372
       0.063
      -0.224
      -0.407
      -0.449
      -0.361
      -0.202
      -0.044
       0.051
       0.053
      -0.033
      -0.180
      -0.345
      -0.475
      -0.515
      -0.431
      -0.230
       0.035
       0.279
       0.436
       0.496
       0.513
       0.567
       0.689
       0.826
       0.864
       0.709
       0.351
      -0.117
      -0.563
      -0.895
      -1.101
      -1.218
      -1.270
      -1.209
      -0.948
      -0.438
       0.258
       0.961
       1.466
       1.645
       1.508
       1.172
       0.770
       0.378
       0.011
      -0.330
      -0.608
      -0.753
      -0.715
      -0.518
      -0.264
      -0.069
       0.003
      -0.025
      -0.083
      -0.105
      -0.074
      -0.010
       0.052
       0.084
       0.068
       0.000
      -0.112
      -0.242
      -0.361
      -0.440
      -0.454
      -0.375
      -0.183
       0.108
       0.420
       0.621
       0.587
       0.279
      -0.219
      -0.741
      -1.113
      -1.230
      -1.076
      -0.713
      -0.242
       0.236
       0.645
       0.959
       1.188
       1.359
       1.477
       1.512
       1.413
       1.141
       0.696
       0.127
      -0.486
      -1.047
      -1.468
      -1.684
      -1.667
      -1.441
      -1.072
      -0.648
      -0.247
       0.087
       0.353
