Origin Time       03/06/2011 00:53:21
Lat.              27.5 N	
Long.             88.0 E	
Depth (Km)         26.0
Magnitude         4.9
Region            India(Sikkim)-Nepar-Border                                       
 Above details taken from IMD 
     
Station Code      GTK
Station Lat.       27.352  N
Station Long.      88.627  E
Station Height(m) 1536.0
Site Class        A   Vs30 between 700 m/sec to 1620 m/sec * 
Record Time       03.06.2011 00:53:55.534
Sampling Rate     200. Hz
Record Duration   101.160 Sec.
Direction         E-W (E positive)
Max. Acceleration      6.845 cm/sec**2
     
  * For reference see Site Classification link of website 
     
 Base Line Corrected and Low Pass Filtered (Cut Off at 35 Hz) Time History
 Acceleration data in cm/sec**2
    
[...]
       0.529
       0.264
      -0.145
      -0.580
      -0.917
      -1.075
      -1.044
      -0.879
      -0.659
      -0.428
      -0.179
       0.131
       0.529
       0.990
       1.436
       1.764
       1.895
       1.799
       1.501
       1.071
       0.592
       0.142
      -0.231
      -0.516
      -0.728
      -0.900
      -1.057
      -1.209
      -1.345
      -1.435
      -1.441
      -1.323
      -1.056
      -0.628
      -0.053
       0.627
       1.345
       2.008
       2.517
       2.776
       2.719
       2.322
       1.628
       0.738
      -0.210
      -1.077
      -1.748
      -2.151
      -2.266
      -2.121
      -1.783
      -1.341
      -0.882
      -0.479
      -0.178
       0.008
       0.104
       0.168
       0.276
       0.485
       0.809
       1.207
       1.595
       1.871
       1.948
       1.785
       1.395
       0.838
       0.199
      -0.432
      -0.976
      -1.370
      -1.561
      -1.518
      -1.248
      -0.813
      -0.334
       0.052
       0.239
       0.201
      -0.006
      -0.277
      -0.502
      -0.601
      -0.540
      -0.331
      -0.032
       0.276
       0.508
       0.604
       0.545
       0.341
       0.027
      -0.353
      -0.742
      -1.067
      -1.252
      -1.247
      -1.042
      -0.680
      -0.244
       0.175
       0.502
       0.698
       0.756
       0.699
       0.568
       0.412
       0.274
       0.173
       0.098
       0.014
      -0.111
      -0.286
      -0.488
      -0.674
      -0.793
      -0.808
      -0.704
      -0.491
      -0.206
       0.100
       0.371
       0.563
       0.649
       0.631
       0.535
       0.401
       0.274
       0.182
       0.138
       0.129
       0.121
       0.075
      -0.028
      -0.168
      -0.281
      -0.297
      -0.187
       0.006
       0.183
       0.244
       0.138
      -0.119
      -0.466
      -0.828
      -1.137
      -1.343
      -1.412
      -1.336
      -1.146
      -0.901
      -0.657
      -0.443
      -0.245
      -0.021
       0.271
       0.644
       1.067
       1.476
       1.792
       1.943
       1.885
       1.608
       1.141
       0.546
      -0.086
      -0.652
      -1.054
      -1.229
      -1.165
      -0.904
      -0.529
      -0.134
       0.206
       0.446
       0.581
       0.627
       0.614
       0.576
       0.541
       0.523
       0.515
       0.480
       0.360
       0.099
      -0.327
      -0.878
      -1.452
      -1.903
      -2.102
      -1.983
      -1.564
      -0.928
      -0.185
       0.559
       1.211
       1.698
       1.971
       2.009
       1.827
       1.472
       1.006
       0.499
       0.005
      -0.436
      -0.804
      -1.081
      -1.245
      -1.266
      -1.122
      -0.821
      -0.405
       0.049
       0.454
       0.736
       0.861
       0.847
       0.746
       0.615
       0.477
       0.319
       0.111
      -0.156
      -0.438
      -0.650
      -0.703
      -0.553
      -0.229
       0.175
       0.544
       0.783
       0.844
       0.724
       0.459
       0.111
      -0.240
      -0.501
      -0.599
      -0.501
      -0.246
       0.065
       0.309
       0.391
       0.287
       0.042
      -0.247
      -0.484
      -0.603
      -0.585
      -0.443
      -0.208
       0.089
       0.412
       0.714
       0.933
       1.009
       0.907
       0.642
       0.287
      -0.043
      -0.246
      -0.275
      -0.167
      -0.012
       0.099
       0.127
       0.101
       0.088
       0.145
       0.289
       0.489
       0.681
       0.801
       0.800
       0.661
       0.396
       0.043
      -0.344
      -0.701
      -0.976
      -1.134
      -1.176
      -1.128
      -1.034
      -0.930
      -0.835
      -0.741
      -0.619
      -0.431
      -0.153
       0.201
       0.569
       0.853
       0.960
       0.838
       0.496
       0.006
      -0.523
      -0.970
      -1.221
      -1.205
      -0.919
      -0.431
       0.125
       0.598
       0.866
       0.882
       0.692
       0.405
       0.143
      -0.009
      -0.042
      -0.016
      -0.025
      -0.139
      -0.368
      -0.655
      -0.909
      -1.043
      -0.994
      -0.739
      -0.295
       0.273
       0.855
       1.323
       1.568
       1.533
       1.224
       0.690
       0.009
      -0.724
      -1.404
      -1.932
      -2.223
      -2.230
      -1.957
      -1.460
      -0.831
      -0.172
       0.436
       0.949
       1.357
       1.670
       1.902
       2.061
       2.148
       2.160
       2.079
       1.875
       1.511
       0.976
       0.302
      -0.422
      -1.079
      -1.559
      -1.796
      -1.779
      -1.551
      -1.178
      -0.738
      -0.303
       0.068
       0.342
       0.525
       0.659
       0.796
       0.959
       1.123
       1.218
       1.168
       0.929
       0.509
      -0.037
      -0.625
      -1.162
      -1.542
      -1.668
      -1.477
      -0.976
      -0.256
       0.527
       1.203
       1.648
       1.809
       1.703
       1.389
       0.945
       0.455
      -0.007
      -0.379
      -0.632
      -0.774
      -0.849
      -0.909
      -0.995
      -1.111
      -1.224
      -1.275
      -1.203
      -0.975
      -0.592
      -0.096
       0.447
       0.961
       1.368
       1.603
       1.622
       1.411
       0.995
       0.450
      -0.116
      -0.585
      -0.868
      -0.936
      -0.813
      -0.563
      -0.264
       0.012
       0.205
       0.281
       0.246
       0.133
      -0.009
      -0.140
      -0.237
      -0.290
      -0.304
      -0.305
      -0.334
      -0.437
      -0.634
      -0.904
      -1.186
      -1.401
      -1.480
      -1.384
      -1.106
      -0.669
      -0.117
       0.490
       1.076
       1.559
       1.866
       1.954
       1.828
       1.541
       1.165
       0.771
       0.407
       0.092
      -0.179
      -0.421
      -0.641
      -0.834
      -0.977
      -1.052
      -1.058
      -1.020
      -0.980
      -0.970
      -0.995
      -1.023
      -1.001
      -0.875
      -0.615
      -0.235
       0.208
       0.631
       0.959
       1.144
       1.177
       1.073
       0.859
       0.565
       0.241
      -0.044
      -0.204
      -0.177
       0.033
       0.345
       0.623
       0.744
       0.652
       0.380
       0.019
      -0.326
      -0.581
      -0.718
      -0.744
      -0.685
      -0.571
      -0.443
      -0.348
      -0.332
      -0.421
      -0.598
      -0.792
      -0.901
      -0.839
      -0.578
      -0.167
       0.300
       0.730
       1.071
       1.314
       1.461
       1.499
       1.394
       1.124
       0.715
       0.251
      -0.152
      -0.407
      -0.495
      -0.467
      -0.412
      -0.401
      -0.454
      -0.533
      -0.567
      -0.504
      -0.348
      -0.163
      -0.035
      -0.024
      -0.124
      -0.279
      -0.414
      -0.480
      -0.465
      -0.389
      -0.275
      -0.147
      -0.022
       0.077
       0.123
       0.094
      -0.009
      -0.156
      -0.282
      -0.314
      -0.193
       0.089
       0.471
       0.837
       1.059
       1.055
       0.828
       0.466
       0.095
      -0.177
      -0.303
      -0.306
      -0.253
      -0.215
      -0.232
      -0.300
      -0.382
      -0.434
      -0.427
      -0.365
      -0.274
      -0.183
      -0.105
      -0.018
       0.116
       0.323
       0.590
       0.866
       1.086
       1.207
       1.222
       1.155
       1.029
       0.849
       0.601
       0.277
      -0.105
      -0.492
      -0.805
      -0.979
      -0.977
      -0.815
      -0.545
      -0.239
       0.041
       0.256
       0.390
       0.452
       0.466
       0.458
       0.448
       0.440
       0.430
       0.410
       0.380
       0.345
       0.313
       0.290
       0.283
       0.288
       0.302
       0.314
       0.309
       0.273
       0.197
       0.075
      -0.091
      -0.297
      -0.528
      -0.748
      -0.899
      -0.918
      -0.776
      -0.507
      -0.205
       0.016
       0.072
      -0.036
      -0.225
      -0.367
      -0.349
      -0.132
       0.230
       0.613
       0.878
       0.927
       0.739
       0.376
      -0.045
      -0.402
      -0.608
      -0.632
      -0.492
      -0.238
       0.063
       0.326
       0.470
       0.440
       0.241
      -0.053
      -0.325
      -0.466
      -0.421
      -0.216
       0.058
       0.279
       0.341
       0.181
      -0.187
      -0.681
      -1.163
      -1.476
      -1.495
      -1.171
      -0.568
       0.155
       0.794
       1.181
       1.250
       1.053
       0.715
       0.374
       0.116
      -0.042
      -0.139
      -0.222
      -0.316
      -0.405
      -0.451
      -0.432
      -0.364
      -0.300
      -0.292
      -0.355
      -0.456
      -0.534
      -0.542
      -0.479
      -0.395
      -0.358
      -0.411
      -0.548
      -0.713
      -0.833
      -0.847
      -0.721
      -0.443
      -0.028
       0.484
       1.015
       1.458
       1.712
       1.720
       1.508
       1.176
       0.848
       0.605
       0.449
       0.310
       0.106
      -0.209
      -0.618
      -1.054
      -1.428
      -1.663
      -1.717
      -1.589
      -1.317
      -0.956
      -0.564
      -0.183
       0.159
       0.453
       0.697
       0.893
       1.046
       1.154
       1.222
       1.256
       1.262
       1.225
       1.102
       0.845
       0.433
      -0.091
      -0.629
      -1.068
      -1.328
      -1.386
      -1.269
      -1.030
      -0.727
      -0.416
      -0.151
       0.027
       0.101
       0.088
       0.043
       0.028
       0.084
       0.205
       0.338
       0.414
       0.382
       0.232
      -0.006
      -0.283
      -0.547
      -0.758
      -0.886
      -0.907
      -0.800
      -0.563
      -0.217
       0.195
       0.623
       1.019
       1.345
       1.569
       1.672
       1.652
       1.516
       1.267
       0.902
       0.421
      -0.144
      -0.718
      -1.197
      -1.492
      -1.566
      -1.443
      -1.194
      -0.897
      -0.608
      -0.336
      -0.049
       0.305
       0.759
       1.295
       1.841
       2.294
       2.553
       2.553
       2.276
       1.755
       1.057
       0.266
      -0.531
      -1.253
      -1.826
      -2.185
      -2.289
      -2.134
      -1.758
      -1.232
      -0.635
      -0.042
       0.483
       0.890
       1.142
       1.233
       1.197
       1.101
       1.013
       0.970
       0.954
       0.906
       0.758
       0.469
       0.054
      -0.418
      -0.849
      -1.153
      -1.285
      -1.245
      -1.064
      -0.773
      -0.392
       0.072
       0.595
       1.124
       1.579
       1.868
       1.923
       1.725
       1.314
       0.774
       0.204
      -0.322
      -0.759
      -1.089
      -1.304
      -1.401
      -1.383
      -1.269
      -1.089
      -0.882
      -0.676
      -0.490
      -0.329
      -0.185
      -0.046
       0.099
       0.262
       0.447
       0.650
       0.859
       1.056
       1.224
       1.349
       1.414
       1.387
       1.220
       0.869
       0.332
      -0.330
      -1.005
      -1.570
      -1.941
      -2.084
      -2.003
      -1.722
      -1.290
      -0.793
      -0.359
      -0.113
      -0.127
      -0.386
      -0.798
      -1.233
      -1.565
      -1.702
      -1.600
      -1.267
      -0.749
      -0.110
       0.580
       1.259
       1.860
       2.311
       2.546
       2.534
       2.307
       1.953
       1.575
       1.232
       0.913
       0.558
       0.114
      -0.416
      -0.968
      -1.464
      -1.858
      -2.154
      -2.380
      -2.547
      -2.626
      -2.564
      -2.321
      -1.909
      -1.391
      -0.858
      -0.387
      -0.027
       0.210
       0.337
       0.378
       0.355
       0.285
       0.179
       0.048
      -0.088
      -0.202
      -0.255
      -0.211
      -0.044
       0.252
       0.655
       1.114
       1.547
       1.862
       1.984
       1.883
       1.588
       1.170
       0.709
       0.262
      -0.146
      -0.502
      -0.785
      -0.955
      -0.972
      -0.828
      -0.554
      -0.217
       0.113
       0.385
       0.581
       0.706
       0.783
       0.848
       0.936
       1.080
       1.290
       1.543
       1.787
       1.963
       2.028
       1.964
       1.785
       1.534
       1.274
       1.078
       1.000
       1.042
       1.139
       1.176
       1.033
       0.647
       0.035
      -0.721
      -1.519
      -2.271
      -2.921
      -3.440
      -3.815
      -4.040
      -4.096
      -3.947
      -3.538
      -2.833
      -1.854
      -0.690
       0.519
       1.636
       2.564
       3.261
       3.722
       3.954
       3.954
       3.709
       3.209
       2.458
       1.499
       0.414
      -0.677
      -1.641
      -2.368
      -2.807
      -2.979
      -2.960
      -2.843
      -2.699
      -2.558
      -2.409
      -2.221
      -1.961
      -1.607
      -1.155
      -0.628
      -0.077
       0.433
       0.850
       1.158
       1.379
       1.559
       1.734
       1.908
       2.049
       2.102
       2.003
       1.695
       1.135
       0.303
      -0.768
      -1.984
      -3.190
      -4.214
      -4.931
      -5.298
      -5.345
      -5.120
      -4.635
      -3.860
      -2.766
      -1.374
       0.218
       1.863
       3.413
       4.753
       5.806
       6.519
       6.845
       6.750
       6.234
       5.346
       4.191
       2.916
       1.683
       0.641
      -0.105
      -0.515
      -0.636
      -0.584
      -0.498
      -0.489
      -0.604
      -0.831
      -1.131
      -1.472
      -1.833
      -2.185
      -2.464
      -2.566
      -2.392
      -1.888
      -1.084
      -0.081
       0.976
       1.934
       2.646
       2.990
       2.889
       2.327
       1.354
       0.073
      -1.370
      -2.796
      -4.016
      -4.862
      -5.234
      -5.122
      -4.590
      -3.734
      -2.647
      -1.403
      -0.070
       1.274
       2.531
       3.591
       4.351
       4.749
       4.781
       4.504
       4.004
       3.366
       2.632
       1.797
       0.838
      -0.250
      -1.403
      -2.485
      -3.325
      -3.782
      -3.804
      -3.439
      -2.799
      -1.999
      -1.123
      -0.216
       0.683
       1.521
       2.225
       2.724
       2.963
       2.913
       2.575
       1.973
       1.154
       0.181
      -0.866
      -1.893
      -2.787
      -3.419
      -3.676
      -3.507
      -2.971
      -2.243
      -1.559
      -1.135
      -1.082
      -1.367
      -1.841
      -2.304
      -2.582
      -2.569
      -2.233
      -1.592
      -0.695
       0.396
       1.619
       2.905
       4.173
       5.312
       6.176
       6.601
       6.450
       5.655
       4.263
       2.427
       0.382
      -1.609
      -3.310
      -4.554
      -5.254
      -5.399
      -5.039
      -4.262
      -3.175
      -1.898
      -0.550
       0.761
       1.944
       2.930
       3.678
       4.175
       4.427
       4.453
       4.259
       3.846
       3.215
       2.398
       1.473
       0.568
      -0.164
      -0.578
      -0.593
      -0.232
       0.366
       0.979
       1.379
       1.421
       1.091
       0.495
      -0.206
      -0.869
      -1.413
      -1.815
      -2.081
      -2.224
      -2.267
      -2.246
      -2.200
      -2.147
      -2.060
      -1.875
      -1.522
      -0.961
      -0.205
       0.678
       1.573
       2.339
       2.843
       3.008
       2.850
       2.476
       2.026
       1.585
       1.134
       0.566
      -0.217
      -1.219
      -2.310
      -3.281
      -3.940
      -4.183
      -4.009
      -3.483
      -2.685
      -1.698
      -0.614
       0.462
       1.418
       2.165
       2.656
       2.876
       2.823
       2.500
       1.925
       1.143
       0.229
      -0.734
      -1.677
      -2.556
      -3.338
      -3.994
      -4.494
      -4.807
      -4.909
      -4.769
      -4.353
      -3.647
      -2.680
      -1.538
      -0.344
       0.784
       1.765
       2.563
       3.162
       3.540
       3.666
       3.510
       3.075
       2.417
       1.635
       0.845
       0.145
      -0.410
      -0.805
      -1.037
      -1.091
      -0.937
      -0.551
       0.048
       0.785
       1.536
       2.167
       2.582
       2.748
       2.700
       2.498
       2.191
       1.793
       1.303
       0.744
       0.174
      -0.327
      -0.716
      -1.017
      -1.307
      -1.662
      -2.089
      -2.515
      -2.822
      -2.910
      -2.740
      -2.341
      -1.783
      -1.142
      -0.483
       0.150
       0.714
       1.160
       1.440
       1.529
       1.450
       1.289
       1.176
       1.249
       1.590
       2.174
       2.861
       3.452
       3.777
       3.773
       3.495
       3.063
       2.582
       2.085
       1.536
       0.881
       0.108
      -0.723
      -1.503
      -2.114
      -2.478
      -2.580
      -2.459
      -2.190
      -1.858
      -1.547
      -1.338
      -1.293
      -1.444
      -1.762
      -2.142
      -2.434
      -2.495
      -2.258
      -1.779
      -1.228
      -0.825
      -0.740
      -1.009
      -1.510
      -2.019
      -2.317
      -2.291
      -1.963
      -1.437
      -0.818
      -0.150
       0.575
       1.374
       2.220
       3.026
       3.653
       3.957
       3.832
       3.261
       2.341
       1.256
       0.222
      -0.582
      -1.066
      -1.229
      -1.137
      -0.887
      -0.583
      -0.311
      -0.129
      -0.045
      -0.022
      -0.013
       0.008
       0.021
      -0.023
      -0.155
      -0.354
      -0.551
      -0.672
      -0.681
      -0.586
      -0.411
      -0.164
       0.182
       0.663
       1.278
       1.959
       2.564
       2.922
       2.885
       2.378
       1.436
       0.213
      -1.044
      -2.062
      -2.639
      -2.712
      -2.366
      -1.768
      -1.075
      -0.383
       0.275
       0.896
       1.470
       1.973
       2.370
       2.607
       2.609
       2.299
       1.637
       0.665
      -0.480
      -1.603
      -2.517
      -3.090
      -3.256
      -2.994
      -2.318
      -1.303
      -0.095
       1.092
       2.042
       2.600
       2.714
       2.416
       1.791
       0.942
       0.007
      -0.839
      -1.398
      -1.511
      -1.129
      -0.346
       0.617
       1.484
       2.026
       2.126
       1.805
       1.183
       0.414
      -0.355
      -0.994
      -1.395
      -1.485
      -1.264
      -0.833
      -0.357
      -0.003
       0.133
       0.047
      -0.193
      -0.487
      -0.735
      -0.857
      -0.807
      -0.580
      -0.215
       0.231
       0.701
       1.160
       1.576
       1.900
       2.044
       1.900
       1.396
       0.544
      -0.543
      -1.692
      -2.734
      -3.547
      -4.069
      -4.282
      -4.187
      -3.798
      -3.150
      -2.311
      -1.378
      -0.464
       0.331
       0.928
       1.276
       1.359
       1.214
       0.947
       0.717
       0.678
       0.907
       1.359
       1.889
       2.334
       2.587
       2.626
       2.485
       2.209
