Origin Time       26/2/2010 4:42:33	 
Lat.              28.5 N	
Long.             86.7 E	
Depth (Km)         28.0
Magnitude         5.4
 Region           Tibet                                                            
 Above details taken from IMD 
   
Station Code      GUA
Station Lat.       26.190
Station Long.      91.746
Station Height(m)   55.2
Site Class        C   Vs30 between 200 m/sec to 375 m/sec *  
Record Time       26.02.2010 04:44:19.814
Sampling Rate     200. Hz
 Record Duration   82.785 Sec.
 Direction         Vert. (Up positive)
Max. Acceleration      1.312 cm/sec**2
     
  * For reference see Site Classification link of website 
     
 Base Line Corrected and Low Pass Filtered (Cut Off at 35 Hz) Time History
 Acceleration data in cm/sec**2
    
[...]
       0.068
       0.054
       0.045
       0.055
       0.079
       0.089
       0.060
      -0.004
      -0.067
      -0.094
      -0.075
      -0.033
       0.003
       0.016
       0.010
       0.000
      -0.007
      -0.010
      -0.009
       0.001
       0.031
       0.079
       0.124
       0.128
       0.072
      -0.026
      -0.117
      -0.158
      -0.137
      -0.078
      -0.023
      -0.002
      -0.021
      -0.067
      -0.114
      -0.133
      -0.099
      -0.017
       0.083
       0.152
       0.162
       0.122
       0.070
       0.045
       0.060
       0.093
       0.111
       0.095
       0.052
       0.008
      -0.011
       0.001
       0.028
       0.045
       0.039
       0.023
       0.017
       0.030
       0.054
       0.069
       0.057
       0.017
      -0.039
      -0.090
      -0.127
      -0.157
      -0.190
      -0.220
      -0.229
      -0.198
      -0.136
      -0.076
      -0.046
      -0.041
      -0.030
       0.013
       0.083
       0.149
       0.176
       0.151
       0.093
       0.043
       0.029
       0.045
       0.064
       0.071
       0.068
       0.058
       0.042
       0.029
       0.024
       0.024
       0.024
       0.018
       0.002
      -0.023
      -0.047
      -0.061
      -0.065
      -0.070
      -0.084
      -0.111
      -0.144
      -0.167
      -0.162
      -0.118
      -0.051
       0.007
       0.035
       0.041
       0.052
       0.092
       0.153
       0.211
       0.246
       0.250
       0.222
       0.164
       0.086
       0.007
      -0.051
      -0.079
      -0.088
      -0.097
      -0.110
      -0.111
      -0.085
      -0.037
       0.003
       0.007
      -0.026
      -0.066
      -0.074
      -0.037
       0.025
       0.074
       0.084
       0.062
       0.036
       0.027
       0.027
       0.017
      -0.002
      -0.005
       0.024
       0.068
       0.084
       0.044
      -0.035
      -0.106
      -0.136
      -0.129
      -0.114
      -0.112
      -0.122
      -0.132
      -0.134
      -0.129
      -0.115
      -0.086
      -0.043
       0.007
       0.049
       0.080
       0.110
       0.151
       0.201
       0.242
       0.253
       0.231
       0.193
       0.163
       0.156
       0.164
       0.167
       0.148
       0.107
       0.056
       0.011
      -0.022
      -0.048
      -0.075
      -0.103
      -0.119
      -0.118
      -0.103
      -0.089
      -0.085
      -0.092
      -0.103
      -0.106
      -0.095
      -0.070
      -0.043
      -0.030
      -0.039
      -0.060
      -0.071
      -0.059
      -0.039
      -0.035
      -0.049
      -0.047
       0.011
       0.116
       0.203
       0.205
       0.117
      -0.002
      -0.083
      -0.105
      -0.093
      -0.083
      -0.084
      -0.083
      -0.070
      -0.052
      -0.037
      -0.029
      -0.026
      -0.026
      -0.028
      -0.026
      -0.008
       0.030
       0.075
       0.103
       0.096
       0.058
       0.014
      -0.004
       0.012
       0.044
       0.059
       0.044
       0.014
       0.000
       0.014
       0.041
       0.061
       0.067
       0.070
       0.082
       0.098
       0.102
       0.081
       0.032
      -0.031
      -0.085
      -0.107
      -0.090
      -0.048
      -0.008
       0.011
       0.010
       0.004
       0.010
       0.033
       0.062
       0.086
       0.102
       0.113
       0.120
       0.116
       0.093
       0.053
       0.009
      -0.025
      -0.046
      -0.068
      -0.104
      -0.149
      -0.182
      -0.185
      -0.165
      -0.141
      -0.132
      -0.136
      -0.137
      -0.121
      -0.083
      -0.030
       0.023
       0.062
       0.076
       0.072
       0.063
       0.065
       0.080
       0.096
       0.100
       0.092
       0.082
       0.078
       0.074
       0.062
       0.043
       0.030
       0.038
       0.061
       0.073
       0.058
       0.026
       0.009
       0.023
       0.062
       0.098
       0.110
       0.098
       0.075
       0.057
       0.049
       0.047
       0.048
       0.049
       0.047
       0.040
       0.026
       0.010
      -0.009
      -0.033
      -0.058
      -0.072
      -0.074
      -0.083
      -0.125
      -0.203
      -0.280
      -0.309
      -0.271
      -0.193
      -0.121
      -0.087
      -0.089
      -0.101
      -0.105
      -0.096
      -0.082
      -0.066
      -0.045
      -0.022
      -0.002
       0.012
       0.032
       0.069
       0.118
       0.156
       0.163
       0.143
       0.119
       0.114
       0.123
       0.122
       0.089
       0.032
      -0.023
      -0.050
      -0.044
      -0.020
       0.001
       0.008
       0.003
      -0.005
      -0.013
      -0.021
      -0.027
      -0.026
      -0.007
       0.029
       0.068
       0.092
       0.092
       0.074
       0.050
       0.037
       0.047
       0.078
       0.120
       0.156
       0.182
       0.200
       0.211
       0.210
       0.194
       0.163
       0.122
       0.073
       0.021
      -0.025
      -0.057
      -0.071
      -0.074
      -0.077
      -0.092
      -0.127
      -0.182
      -0.246
      -0.302
      -0.333
      -0.329
      -0.304
      -0.281
      -0.280
      -0.289
      -0.277
      -0.218
      -0.126
      -0.046
      -0.016
      -0.029
      -0.049
      -0.038
       0.006
       0.058
       0.085
       0.072
       0.029
      -0.012
      -0.017
       0.029
       0.107
       0.179
       0.217
       0.234
       0.266
       0.325
       0.385
       0.418
       0.416
       0.384
       0.325
       0.244
       0.164
       0.113
       0.092
       0.068
       0.009
      -0.076
      -0.148
      -0.189
      -0.220
      -0.266
      -0.324
      -0.352
      -0.320
      -0.236
      -0.138
      -0.054
       0.016
       0.073
       0.104
       0.095
       0.062
       0.044
       0.071
       0.125
       0.147
       0.088
      -0.048
      -0.199
      -0.281
      -0.252
      -0.141
      -0.034
      -0.004
      -0.051
      -0.112
      -0.112
      -0.030
       0.093
       0.192
       0.227
       0.205
       0.163
       0.131
       0.116
       0.108
       0.088
       0.037
      -0.050
      -0.152
      -0.227
      -0.238
      -0.186
      -0.112
      -0.065
      -0.065
      -0.095
      -0.124
      -0.133
      -0.122
      -0.103
      -0.082
      -0.059
      -0.033
      -0.008
       0.016
       0.047
       0.092
       0.151
       0.216
       0.279
       0.332
       0.370
       0.395
       0.413
       0.425
       0.417
       0.374
       0.292
       0.195
       0.118
       0.078
       0.059
       0.027
      -0.040
      -0.131
      -0.209
      -0.249
      -0.253
      -0.243
      -0.239
      -0.242
      -0.245
      -0.242
      -0.229
      -0.202
      -0.167
      -0.143
      -0.147
      -0.174
      -0.200
      -0.204
      -0.186
      -0.165
      -0.157
      -0.156
      -0.143
      -0.105
      -0.052
      -0.003
       0.030
       0.052
       0.084
       0.130
       0.174
       0.196
       0.191
       0.176
       0.165
       0.151
       0.111
       0.033
      -0.057
      -0.109
      -0.093
      -0.029
       0.029
       0.039
       0.015
       0.010
       0.063
       0.164
       0.265
       0.323
       0.328
       0.301
       0.264
       0.219
       0.153
       0.063
      -0.031
      -0.099
      -0.133
      -0.155
      -0.196
      -0.261
      -0.323
      -0.344
      -0.306
      -0.225
      -0.135
      -0.067
      -0.022
       0.025
       0.103
       0.226
       0.378
       0.516
       0.595
       0.595
       0.527
       0.428
       0.334
       0.264
       0.216
       0.173
       0.116
       0.036
      -0.066
      -0.181
      -0.302
      -0.414
      -0.497
      -0.534
      -0.525
      -0.495
      -0.475
      -0.478
      -0.490
      -0.478
      -0.414
      -0.297
      -0.157
      -0.027
       0.079
       0.177
       0.286
       0.389
       0.441
       0.402
       0.284
       0.146
       0.049
       0.021
       0.038
       0.052
       0.040
       0.011
      -0.020
      -0.046
      -0.059
      -0.047
      -0.012
       0.019
       0.020
      -0.008
      -0.041
      -0.058
      -0.066
      -0.090
      -0.149
      -0.233
      -0.310
      -0.351
      -0.352
      -0.326
      -0.291
      -0.253
      -0.209
      -0.158
      -0.105
      -0.064
      -0.045
      -0.046
      -0.049
      -0.027
       0.029
       0.097
       0.142
       0.148
       0.133
       0.135
       0.178
       0.258
       0.353
       0.441
       0.508
       0.549
       0.568
       0.574
       0.571
       0.555
       0.515
       0.444
       0.360
       0.296
       0.277
       0.291
       0.290
       0.231
       0.116
      -0.014
      -0.114
      -0.171
      -0.202
      -0.232
      -0.276
      -0.338
      -0.410
      -0.476
      -0.523
      -0.552
      -0.565
      -0.562
      -0.530
      -0.465
      -0.384
      -0.327
      -0.310
      -0.305
      -0.256
      -0.139
       0.010
       0.129
       0.185
       0.206
       0.235
       0.283
       0.319
       0.309
       0.247
       0.152
       0.040
      -0.086
      -0.219
      -0.333
      -0.388
      -0.370
      -0.315
      -0.287
      -0.324
      -0.394
      -0.424
      -0.369
      -0.245
      -0.113
      -0.029
       0.003
       0.016
       0.044
       0.090
       0.138
       0.177
       0.211
       0.244
       0.277
       0.303
       0.315
       0.308
       0.289
       0.272
       0.263
       0.255
       0.235
       0.200
       0.167
       0.163
       0.198
       0.253
       0.302
       0.330
       0.346
       0.370
       0.408
       0.449
       0.463
       0.430
       0.349
       0.244
       0.136
       0.025
      -0.106
      -0.260
      -0.417
      -0.542
      -0.613
      -0.631
      -0.607
      -0.549
      -0.455
      -0.330
      -0.194
      -0.076
       0.004
       0.048
       0.070
       0.082
       0.087
       0.085
       0.079
       0.070
       0.055
       0.032
       0.007
      -0.004
       0.012
       0.054
       0.102
       0.136
       0.157
       0.185
       0.237
       0.299
       0.332
       0.306
       0.225
       0.128
       0.052
       0.006
      -0.027
      -0.067
      -0.117
      -0.176
      -0.243
      -0.327
      -0.428
      -0.527
      -0.596
      -0.609
      -0.572
      -0.511
      -0.453
      -0.412
      -0.388
      -0.374
      -0.364
      -0.358
      -0.360
      -0.366
      -0.360
      -0.323
      -0.238
      -0.100
       0.087
       0.306
       0.515
       0.659
       0.697
       0.633
       0.509
       0.371
       0.243
       0.130
       0.039
      -0.012
      -0.013
       0.020
       0.056
       0.073
       0.079
       0.103
       0.178
       0.307
       0.461
       0.594
       0.673
       0.695
       0.684
       0.666
       0.649
       0.622
       0.572
       0.502
       0.427
       0.354
       0.276
       0.179
       0.063
      -0.049
      -0.124
      -0.140
      -0.100
      -0.036
       0.007
       0.001
      -0.041
      -0.083
      -0.098
      -0.091
      -0.092
      -0.127
      -0.204
      -0.315
      -0.448
      -0.587
      -0.717
      -0.821
      -0.883
      -0.898
      -0.870
      -0.809
      -0.727
      -0.630
      -0.520
      -0.385
      -0.212
      -0.004
       0.207
       0.372
       0.456
       0.464
       0.433
       0.399
       0.370
       0.330
       0.261
       0.164
       0.051
      -0.064
      -0.175
      -0.274
      -0.352
      -0.393
      -0.391
      -0.348
      -0.274
      -0.171
      -0.034
       0.140
       0.337
       0.532
       0.700
       0.829
       0.923
       0.982
       0.989
       0.925
       0.786
       0.599
       0.405
       0.238
       0.100
      -0.028
      -0.164
      -0.301
      -0.410
      -0.474
      -0.500
      -0.517
      -0.547
      -0.591
      -0.628
      -0.630
      -0.585
      -0.500
      -0.397
      -0.291
      -0.187
      -0.079
       0.033
       0.137
       0.218
       0.276
       0.314
       0.331
       0.313
       0.244
       0.126
      -0.008
      -0.107
      -0.125
      -0.066
       0.021
       0.070
       0.060
       0.024
       0.023
       0.081
       0.168
       0.226
       0.220
       0.157
       0.074
       0.004
      -0.035
      -0.047
      -0.045
      -0.047
      -0.061
      -0.084
      -0.103
      -0.118
      -0.143
      -0.195
      -0.269
      -0.334
      -0.351
      -0.300
      -0.186
      -0.041
       0.095
       0.181
       0.194
       0.142
       0.065
       0.014
       0.018
       0.062
       0.095
       0.059
      -0.069
      -0.243
      -0.363
      -0.337
      -0.154
       0.089
       0.250
       0.243
       0.098
      -0.062
      -0.125
      -0.058
       0.083
       0.215
       0.279
       0.275
       0.239
       0.205
       0.174
       0.123
       0.031
      -0.100
      -0.243
      -0.373
      -0.483
      -0.578
      -0.657
      -0.711
      -0.732
      -0.716
      -0.655
      -0.549
      -0.399
      -0.208
       0.021
       0.277
       0.537
       0.771
       0.952
       1.074
       1.156
       1.222
       1.282
       1.312
       1.274
       1.136
       0.901
       0.607
       0.306
       0.035
      -0.199
      -0.408
      -0.600
      -0.765
      -0.881
      -0.942
      -0.966
      -0.976
      -0.971
      -0.922
      -0.802
      -0.612
      -0.381
      -0.140
       0.086
       0.274
       0.403
       0.466
       0.467
       0.417
       0.329
       0.205
       0.052
      -0.116
      -0.265
      -0.364
      -0.403
      -0.399
      -0.376
      -0.344
      -0.292
      -0.203
      -0.081
       0.056
       0.179
       0.264
       0.298
       0.274
       0.201
       0.107
       0.029
      -0.011
      -0.023
      -0.035
      -0.066
      -0.113
      -0.151
      -0.162
      -0.144
      -0.103
      -0.039
       0.054
       0.181
       0.328
       0.470
       0.581
       0.650
       0.686
       0.696
       0.680
       0.630
       0.543
       0.428
       0.299
       0.171
       0.049
      -0.071
      -0.198
      -0.334
      -0.470
      -0.575
      -0.621
      -0.595
      -0.508
      -0.388
      -0.263
      -0.150
      -0.056
       0.022
       0.089
       0.139
       0.166
       0.167
       0.152
       0.133
       0.113
       0.085
       0.038
      -0.027
      -0.095
      -0.144
      -0.165
      -0.156
      -0.119
      -0.052
       0.041
       0.157
       0.286
       0.417
       0.533
       0.613
       0.650
       0.655
       0.650
       0.643
       0.622
       0.575
       0.504
       0.430
       0.358
       0.267
       0.131
      -0.054
      -0.250
      -0.414
      -0.536
      -0.645
      -0.774
      -0.924
      -1.054
      -1.121
      -1.112
      -1.051
      -0.968
      -0.871
      -0.751
      -0.598
      -0.426
      -0.255
      -0.094
       0.069
       0.246
       0.431
       0.607
       0.759
       0.873
       0.936
       0.936
       0.876
       0.771
       0.646
       0.519
       0.395
       0.271
       0.138
      -0.003
      -0.147
      -0.284
      -0.403
      -0.499
      -0.570
      -0.608
      -0.610
      -0.575
      -0.506
      -0.407
      -0.284
      -0.149
      -0.024
       0.072
       0.129
       0.144
       0.131
       0.120
       0.135
       0.179
       0.220
       0.223
       0.174
       0.094
       0.020
      -0.032
      -0.073
      -0.123
      -0.187
      -0.242
      -0.261
      -0.233
      -0.171
      -0.096
      -0.016
       0.076
       0.189
       0.317
       0.435
       0.511
       0.523
       0.473
       0.385
       0.287
       0.198
       0.119
       0.051
       0.004
      -0.018
      -0.030
      -0.058
      -0.119
      -0.203
      -0.274
      -0.297
      -0.267
      -0.211
      -0.164
      -0.153
      -0.188
      -0.265
      -0.381
      -0.520
      -0.654
      -0.751
      -0.792
      -0.781
      -0.737
      -0.679
      -0.620
      -0.556
      -0.479
      -0.382
      -0.270
      -0.154
      -0.037
       0.090
       0.242
       0.414
       0.586
       0.737
       0.865
       0.980
       1.087
       1.167
       1.193
       1.156
       1.072
       0.961
       0.826
       0.666
       0.489
       0.321
       0.180
       0.073
      -0.012
      -0.088
      -0.156
      -0.201
      -0.206
      -0.173
      -0.125
      -0.099
      -0.120
      -0.181
      -0.238
      -0.254
      -0.227
      -0.195
      -0.192
      -0.219
      -0.260
      -0.302
      -0.340
      -0.378
      -0.416
      -0.455
      -0.486
      -0.497
      -0.484
      -0.456
      -0.431
      -0.409
      -0.380
      -0.336
      -0.285
      -0.244
      -0.210
      -0.157
      -0.057
       0.092
       0.268
       0.440
       0.590
       0.712
       0.806
       0.865
       0.884
       0.856
       0.791
       0.711
       0.641
       0.584
       0.516
       0.401
       0.230
       0.034
      -0.143
      -0.272
      -0.361
      -0.431
      -0.484
      -0.500
      -0.461
      -0.382
      -0.297
      -0.234
      -0.185
      -0.127
      -0.049
       0.035
       0.099
       0.128
       0.135
       0.147
       0.172
       0.191
       0.179
       0.132
       0.067
       0.006
      -0.044
      -0.093
      -0.152
      -0.221
      -0.292
      -0.350
      -0.382
      -0.387
      -0.373
      -0.359
      -0.357
      -0.370
      -0.393
      -0.416
      -0.432
      -0.432
      -0.412
      -0.370
      -0.302
      -0.205
      -0.094
       0.007
       0.079
       0.125
       0.172
       0.243
       0.330
       0.401
       0.425
       0.406
       0.377
       0.372
       0.395
       0.420
       0.430
       0.432
       0.450
       0.488
       0.522
       0.519
       0.466
       0.379
       0.291
       0.223
       0.177
       0.145
       0.121
       0.117
       0.141
       0.186
       0.223
       0.229
       0.211
       0.192
       0.177
       0.150
       0.083
      -0.028
      -0.169
      -0.310
      -0.433
      -0.543
      -0.653
      -0.771
      -0.881
      -0.953
      -0.976
      -0.965
      -0.951
      -0.944
      -0.925
      -0.865
      -0.753
      -0.602
      -0.435
      -0.268
      -0.104
       0.063
       0.237
       0.418
       0.598
       0.760
       0.882
       0.946
       0.948
       0.901
       0.827
       0.746
       0.661
       0.566
       0.460
       0.352
       0.266
       0.212
       0.184
       0.159
       0.116
       0.045
      -0.047
      -0.145
      -0.239
      -0.334
      -0.437
      -0.546
      -0.636
      -0.674
      -0.638
      -0.532
      -0.379
      -0.206
      -0.032
       0.145
       0.334
       0.537
       0.730
       0.875
       0.943
       0.938
       0.894
       0.844
