Origin Time       26/2/2010 4:42:33	  UTC
Lat.              28.5 N	
Long.             86.7 E	
Depth (Km)         28.0
Magnitude         5.4
 Region           Tibet                                                            
 Above details taken from IMD 
    
Station Code      GUA
Station Lat.       26.190  N
Station Long.      91.746  E
Station Height(m)   55.2
Site Class        C   Vs30 between 200 m/sec to 375 m/sec *  
Record Time       26.02.2010 04:44:19.814 UTC
Sampling Rate     200. Hz
 Record Duration   82.785 Sec.
 Direction         N-S (N positive)
Max. Acceleration      2.245 cm/sec**2
     
  * For reference see Site Classification link of website 
     
 Base Line Corrected and Low Pass Filtered (Cut Off at 35 Hz) Time History
 Acceleration data in cm/sec**2
    
[...]
       0.402
       0.392
       0.381
       0.372
       0.360
       0.336
       0.291
       0.221
       0.133
       0.034
      -0.069
      -0.165
      -0.246
      -0.310
      -0.360
      -0.410
      -0.469
      -0.538
      -0.606
      -0.658
      -0.684
      -0.683
      -0.663
      -0.633
      -0.598
      -0.556
      -0.503
      -0.440
      -0.372
      -0.301
      -0.228
      -0.148
      -0.059
       0.033
       0.117
       0.178
       0.211
       0.220
       0.217
       0.214
       0.218
       0.230
       0.241
       0.242
       0.228
       0.206
       0.181
       0.158
       0.141
       0.131
       0.126
       0.130
       0.144
       0.169
       0.204
       0.242
       0.283
       0.324
       0.363
       0.400
       0.435
       0.465
       0.478
       0.465
       0.430
       0.384
       0.343
       0.314
       0.292
       0.267
       0.231
       0.191
       0.157
       0.136
       0.124
       0.106
       0.073
       0.026
      -0.025
      -0.071
      -0.106
      -0.139
      -0.185
      -0.253
      -0.339
      -0.429
      -0.510
      -0.576
      -0.632
      -0.688
      -0.745
      -0.795
      -0.823
      -0.822
      -0.794
      -0.744
      -0.669
      -0.572
      -0.461
      -0.350
      -0.241
      -0.125
       0.010
       0.163
       0.322
       0.463
       0.570
       0.642
       0.691
       0.730
       0.760
       0.771
       0.753
       0.702
       0.624
       0.525
       0.412
       0.297
       0.188
       0.090
       0.004
      -0.069
      -0.130
      -0.178
      -0.217
      -0.252
      -0.292
      -0.338
      -0.385
      -0.417
      -0.425
      -0.409
      -0.377
      -0.332
      -0.273
      -0.198
      -0.109
      -0.015
       0.065
       0.118
       0.144
       0.158
       0.178
       0.211
       0.247
       0.269
       0.267
       0.246
       0.219
       0.201
       0.189
       0.169
       0.125
       0.058
      -0.013
      -0.070
      -0.106
      -0.127
      -0.150
      -0.190
      -0.245
      -0.300
      -0.337
      -0.351
      -0.352
      -0.350
      -0.348
      -0.342
      -0.325
      -0.292
      -0.241
      -0.177
      -0.107
      -0.038
       0.034
       0.119
       0.225
       0.347
       0.465
       0.556
       0.607
       0.628
       0.639
       0.657
       0.679
       0.693
       0.690
       0.667
       0.630
       0.582
       0.522
       0.443
       0.347
       0.241
       0.137
       0.038
      -0.057
      -0.141
      -0.206
      -0.246
      -0.270
      -0.296
      -0.333
      -0.379
      -0.424
      -0.465
      -0.498
      -0.521
      -0.527
      -0.508
      -0.456
      -0.378
      -0.288
      -0.201
      -0.128
      -0.071
      -0.027
       0.008
       0.039
       0.064
       0.076
       0.068
       0.043
       0.009
      -0.023
      -0.048
      -0.066
      -0.085
      -0.113
      -0.157
      -0.211
      -0.264
      -0.308
      -0.341
      -0.367
      -0.388
      -0.400
      -0.401
      -0.388
      -0.365
      -0.338
      -0.313
      -0.285
      -0.248
      -0.198
      -0.140
      -0.081
      -0.028
       0.014
       0.045
       0.064
       0.072
       0.072
       0.068
       0.066
       0.075
       0.099
       0.138
       0.188
       0.240
       0.289
       0.333
       0.374
       0.409
       0.430
       0.432
       0.417
       0.400
       0.392
       0.396
       0.405
       0.414
       0.411
       0.387
       0.339
       0.280
       0.230
       0.204
       0.204
       0.216
       0.218
       0.201
       0.170
       0.142
       0.124
       0.113
       0.097
       0.068
       0.024
      -0.031
      -0.095
      -0.161
      -0.224
      -0.275
      -0.309
      -0.326
      -0.330
      -0.324
      -0.301
      -0.254
      -0.184
      -0.108
      -0.051
      -0.026
      -0.034
      -0.063
      -0.104
      -0.150
      -0.197
      -0.242
      -0.286
      -0.326
      -0.361
      -0.388
      -0.399
      -0.396
      -0.382
      -0.368
      -0.356
      -0.340
      -0.315
      -0.282
      -0.243
      -0.200
      -0.149
      -0.084
       0.000
       0.102
       0.217
       0.340
       0.467
       0.599
       0.729
       0.842
       0.921
       0.960
       0.969
       0.965
       0.964
       0.974
       0.993
       1.012
       1.014
       0.977
       0.886
       0.731
       0.524
       0.293
       0.070
      -0.131
      -0.312
      -0.484
      -0.655
      -0.822
      -0.974
      -1.097
      -1.179
      -1.211
      -1.193
      -1.133
      -1.048
      -0.958
      -0.879
      -0.814
      -0.759
      -0.701
      -0.629
      -0.539
      -0.433
      -0.318
      -0.201
      -0.084
       0.033
       0.148
       0.247
       0.316
       0.345
       0.337
       0.308
       0.276
       0.258
       0.257
       0.272
       0.301
       0.343
       0.398
       0.459
       0.512
       0.542
       0.533
       0.478
       0.391
       0.298
       0.229
       0.200
       0.209
       0.239
       0.266
       0.271
       0.238
       0.165
       0.060
      -0.058
      -0.171
      -0.265
      -0.336
      -0.380
      -0.389
      -0.354
      -0.272
      -0.153
      -0.012
       0.135
       0.277
       0.400
       0.493
       0.549
       0.560
       0.528
       0.452
       0.335
       0.182
       0.003
      -0.179
      -0.328
      -0.416
      -0.435
      -0.404
      -0.363
      -0.350
      -0.387
      -0.468
      -0.565
      -0.644
      -0.684
      -0.686
      -0.671
      -0.664
      -0.682
      -0.721
      -0.761
      -0.783
      -0.783
      -0.775
      -0.769
      -0.754
      -0.704
      -0.595
      -0.425
      -0.220
      -0.021
       0.144
       0.273
       0.387
       0.511
       0.658
       0.812
       0.942
       1.015
       1.008
       0.928
       0.803
       0.671
       0.564
       0.497
       0.468
       0.469
       0.492
       0.532
       0.580
       0.616
       0.620
       0.581
       0.507
       0.416
       0.329
       0.253
       0.187
       0.118
       0.035
      -0.062
      -0.166
      -0.263
      -0.341
      -0.399
      -0.433
      -0.444
      -0.431
      -0.395
      -0.339
      -0.270
      -0.191
      -0.100
       0.007
       0.126
       0.243
       0.343
       0.414
       0.447
       0.441
       0.400
       0.333
       0.249
       0.153
       0.050
      -0.058
      -0.170
      -0.289
      -0.412
      -0.533
      -0.644
      -0.736
      -0.792
      -0.794
      -0.732
      -0.617
      -0.472
      -0.318
      -0.165
      -0.016
       0.121
       0.233
       0.301
       0.319
       0.305
       0.288
       0.290
       0.315
       0.347
       0.370
       0.376
       0.368
       0.355
       0.343
       0.330
       0.304
       0.258
       0.193
       0.118
       0.042
      -0.033
      -0.109
      -0.188
      -0.272
      -0.360
      -0.442
      -0.513
      -0.565
      -0.598
      -0.609
      -0.596
      -0.562
      -0.512
      -0.455
      -0.395
      -0.328
      -0.248
      -0.151
      -0.040
       0.070
       0.165
       0.236
       0.281
       0.304
       0.305
       0.288
       0.259
       0.225
       0.193
       0.167
       0.145
       0.126
       0.111
       0.102
       0.105
       0.124
       0.160
       0.206
       0.251
       0.274
       0.252
       0.178
       0.056
      -0.092
      -0.239
      -0.353
      -0.411
      -0.402
      -0.336
      -0.233
      -0.113
       0.015
       0.151
       0.297
       0.452
       0.603
       0.737
       0.846
       0.928
       0.986
       1.014
       1.008
       0.967
       0.899
       0.814
       0.715
       0.604
       0.476
       0.335
       0.187
       0.047
      -0.074
      -0.175
      -0.259
      -0.330
      -0.390
      -0.439
      -0.474
      -0.499
      -0.523
      -0.560
      -0.620
      -0.695
      -0.771
      -0.829
      -0.864
      -0.873
      -0.862
      -0.834
      -0.792
      -0.741
      -0.692
      -0.653
      -0.626
      -0.606
      -0.582
      -0.546
      -0.495
      -0.430
      -0.358
      -0.295
      -0.252
      -0.234
      -0.236
      -0.244
      -0.243
      -0.222
      -0.172
      -0.089
       0.028
       0.182
       0.369
       0.575
       0.777
       0.954
       1.096
       1.207
       1.297
       1.372
       1.436
       1.487
       1.518
       1.519
       1.476
       1.376
       1.212
       0.991
       0.737
       0.478
       0.236
       0.015
      -0.196
      -0.411
      -0.635
      -0.859
      -1.059
      -1.213
      -1.316
      -1.377
      -1.406
      -1.407
      -1.372
      -1.292
      -1.167
      -1.018
      -0.871
      -0.742
      -0.634
      -0.541
      -0.452
      -0.360
      -0.257
      -0.142
      -0.020
       0.100
       0.208
       0.294
       0.353
       0.382
       0.386
       0.374
       0.355
       0.333
       0.299
       0.243
       0.163
       0.069
      -0.018
      -0.079
      -0.102
      -0.083
      -0.026
       0.056
       0.144
       0.221
       0.285
       0.342
       0.398
       0.453
       0.502
       0.538
       0.554
       0.545
       0.510
       0.450
       0.374
       0.289
       0.205
       0.125
       0.051
      -0.021
      -0.094
      -0.168
      -0.247
      -0.335
      -0.438
      -0.559
      -0.695
      -0.838
      -0.975
      -1.089
      -1.164
      -1.189
      -1.163
      -1.094
      -0.998
      -0.894
      -0.792
      -0.690
      -0.579
      -0.437
      -0.249
      -0.014
       0.250
       0.514
       0.755
       0.970
       1.165
       1.345
       1.505
       1.626
       1.688
       1.682
       1.618
       1.520
       1.415
       1.317
       1.224
       1.121
       0.990
       0.823
       0.623
       0.404
       0.185
      -0.007
      -0.146
      -0.218
      -0.235
      -0.227
      -0.224
      -0.239
      -0.271
      -0.315
      -0.364
      -0.410
      -0.447
      -0.470
      -0.478
      -0.472
      -0.457
      -0.443
      -0.439
      -0.453
      -0.486
      -0.533
      -0.577
      -0.596
      -0.581
      -0.540
      -0.490
      -0.451
      -0.432
      -0.434
      -0.448
      -0.453
      -0.432
      -0.379
      -0.299
      -0.204
      -0.104
      -0.001
       0.110
       0.229
       0.341
       0.424
       0.460
       0.445
       0.393
       0.324
       0.264
       0.228
       0.219
       0.230
       0.247
       0.258
       0.255
       0.232
       0.189
       0.130
       0.058
      -0.020
      -0.102
      -0.186
      -0.269
      -0.341
      -0.391
      -0.408
      -0.393
      -0.355
      -0.306
      -0.251
      -0.195
      -0.148
      -0.126
      -0.144
      -0.208
      -0.300
      -0.383
      -0.414
      -0.370
      -0.260
      -0.119
       0.018
       0.133
       0.225
       0.295
       0.335
       0.330
       0.270
       0.165
       0.041
      -0.074
      -0.164
      -0.228
      -0.269
      -0.287
      -0.278
      -0.236
      -0.165
      -0.075
       0.015
       0.095
       0.162
       0.225
       0.291
       0.361
       0.438
       0.524
       0.620
       0.721
       0.823
       0.917
       0.994
       1.044
       1.050
       1.006
       0.914
       0.787
       0.643
       0.500
       0.369
       0.250
       0.143
       0.045
      -0.045
      -0.132
      -0.224
      -0.335
      -0.471
      -0.632
      -0.808
      -0.980
      -1.123
      -1.218
      -1.249
      -1.214
      -1.126
      -1.010
      -0.895
      -0.793
      -0.699
      -0.591
      -0.452
      -0.274
      -0.070
       0.133
       0.307
       0.434
       0.507
       0.527
       0.504
       0.454
       0.398
       0.356
       0.340
       0.354
       0.385
       0.411
       0.408
       0.360
       0.268
       0.145
       0.008
      -0.128
      -0.255
      -0.364
      -0.448
      -0.499
      -0.516
      -0.509
      -0.491
      -0.476
      -0.463
      -0.440
      -0.393
      -0.315
      -0.214
      -0.108
      -0.011
       0.074
       0.158
       0.242
       0.319
       0.378
       0.413
       0.432
       0.440
       0.439
       0.423
       0.382
       0.311
       0.221
       0.136
       0.084
       0.079
       0.117
       0.184
       0.262
       0.337
       0.399
       0.437
       0.442
       0.415
       0.369
       0.327
       0.299
       0.278
       0.249
       0.204
       0.149
       0.096
       0.053
       0.018
      -0.017
      -0.056
      -0.094
      -0.119
      -0.117
      -0.088
      -0.040
       0.012
       0.058
       0.093
       0.116
       0.126
       0.119
       0.087
       0.031
      -0.041
      -0.124
      -0.218
      -0.328
      -0.448
      -0.558
      -0.644
      -0.702
      -0.743
      -0.782
      -0.834
      -0.901
      -0.978
      -1.054
      -1.116
      -1.145
      -1.121
      -1.026
      -0.860
      -0.643
      -0.401
      -0.156
       0.076
       0.291
       0.484
       0.653
       0.798
       0.933
       1.076
       1.248
       1.456
       1.688
       1.914
       2.101
       2.216
       2.245
       2.191
       2.073
       1.907
       1.705
       1.469
       1.205
       0.925
       0.643
       0.371
       0.117
      -0.118
      -0.341
      -0.560
      -0.783
      -1.008
      -1.225
      -1.419
      -1.575
      -1.690
      -1.766
      -1.808
      -1.814
      -1.783
      -1.713
      -1.607
      -1.476
      -1.336
      -1.206
      -1.098
      -1.006
      -0.917
      -0.818
      -0.705
      -0.582
      -0.455
      -0.334
      -0.225
      -0.133
      -0.065
      -0.023
      -0.006
      -0.004
      -0.005
      -0.001
       0.009
       0.023
       0.044
       0.073
       0.110
       0.149
       0.183
       0.207
       0.226
       0.250
       0.287
       0.342
       0.413
       0.498
       0.591
       0.685
       0.767
       0.826
       0.855
       0.858
       0.846
       0.834
       0.831
       0.842
       0.860
       0.881
       0.901
       0.917
       0.933
       0.948
       0.956
       0.940
       0.889
       0.802
       0.693
       0.570
       0.428
       0.255
       0.043
      -0.199
      -0.446
      -0.668
      -0.848
      -0.982
      -1.073
      -1.125
      -1.143
      -1.137
      -1.120
      -1.098
      -1.067
      -1.012
      -0.919
      -0.781
      -0.602
      -0.394
      -0.176
       0.031
       0.205
       0.328
       0.393
       0.410
       0.398
       0.376
       0.355
       0.345
       0.356
       0.386
       0.426
       0.459
       0.471
       0.453
       0.409
       0.351
       0.292
       0.243
       0.204
       0.166
       0.115
       0.041
      -0.055
      -0.159
      -0.258
      -0.337
      -0.392
      -0.419
      -0.414
      -0.383
      -0.334
      -0.278
      -0.219
      -0.157
      -0.090
      -0.016
       0.065
       0.153
       0.242
       0.322
       0.383
       0.419
       0.429
       0.414
       0.376
       0.314
       0.227
       0.125
       0.035
      -0.018
      -0.019
       0.021
       0.071
       0.089
       0.054
      -0.033
      -0.143
      -0.250
      -0.341
      -0.415
      -0.473
      -0.513
      -0.532
      -0.530
      -0.511
      -0.483
      -0.452
      -0.424
      -0.395
      -0.360
      -0.318
      -0.271
      -0.223
      -0.178
      -0.138
      -0.104
      -0.072
      -0.036
       0.008
       0.052
       0.085
       0.095
       0.077
       0.043
       0.012
      -0.003
       0.004
       0.029
       0.062
       0.093
       0.109
       0.105
       0.087
       0.073
       0.081
       0.114
       0.161
       0.198
       0.208
       0.187
       0.149
       0.114
       0.091
       0.080
       0.069
       0.050
       0.025
       0.000
      -0.012
      -0.001
       0.032
       0.082
       0.146
       0.222
       0.304
       0.379
       0.434
       0.461
       0.459
       0.438
       0.408
       0.379
       0.356
       0.333
       0.304
       0.265
       0.221
       0.185
       0.169
       0.171
       0.176
       0.158
       0.102
       0.007
      -0.110
      -0.234
      -0.347
      -0.441
      -0.516
      -0.577
      -0.630
      -0.673
      -0.695
      -0.688
      -0.654
      -0.605
      -0.558
      -0.522
      -0.497
      -0.466
      -0.410
      -0.315
      -0.181
      -0.020
       0.142
       0.282
       0.386
       0.456
       0.501
       0.526
       0.535
       0.536
       0.539
       0.551
       0.561
       0.557
       0.530
       0.485
       0.437
       0.402
       0.383
       0.366
       0.334
       0.280
       0.212
       0.144
       0.087
       0.040
       0.000
      -0.040
      -0.079
      -0.114
      -0.141
      -0.152
      -0.143
      -0.109
      -0.052
       0.014
       0.065
       0.088
       0.082
       0.065
       0.060
       0.081
       0.125
       0.176
       0.208
       0.209
       0.174
       0.111
       0.026
      -0.074
      -0.190
      -0.321
      -0.459
      -0.595
      -0.722
      -0.843
      -0.964
      -1.083
      -1.187
      -1.256
      -1.283
      -1.270
      -1.230
      -1.177
      -1.122
      -1.068
      -1.012
      -0.948
      -0.871
      -0.773
      -0.654
      -0.522
      -0.385
      -0.251
      -0.113
       0.036
       0.200
       0.373
       0.546
       0.704
       0.837
       0.941
       1.020
       1.083
       1.140
       1.201
       1.273
       1.351
       1.416
       1.439
       1.399
       1.296
       1.150
       0.991
       0.845
       0.726
       0.636
       0.573
       0.535
       0.513
       0.492
       0.460
       0.408
       0.339
       0.260
       0.175
       0.089
       0.006
      -0.075
      -0.154
      -0.241
      -0.345
      -0.471
      -0.617
      -0.766
      -0.898
      -0.999
      -1.059
      -1.073
      -1.042
      -0.971
      -0.868
      -0.741
      -0.598
      -0.448
      -0.301
      -0.165
      -0.043
       0.067
       0.170
       0.269
       0.365
       0.452
       0.523
       0.575
       0.611
       0.633
       0.637
       0.615
       0.564
       0.483
       0.378
       0.257
       0.125
      -0.011
      -0.140
      -0.244
      -0.313
      -0.349
      -0.366
      -0.380
      -0.400
      -0.424
      -0.449
      -0.471
      -0.491
      -0.516
      -0.552
      -0.591
      -0.610
      -0.587
      -0.507
      -0.378
      -0.222
      -0.068
       0.062
       0.154
       0.206
       0.225
       0.223
       0.212
       0.201
       0.196
       0.199
       0.210
       0.234
       0.275
       0.328
       0.381
       0.416
       0.417
       0.373
       0.288
       0.177
       0.064
      -0.033
      -0.106
      -0.155
      -0.185
