Origin Time       19/8/2009 10:45:15	
Lat.              26.6 N	
Long.             92.5 E	
Depth (Km)         20.0
Magnitude         4.9
 Region           Sonitpur-Assam                                                   
 Above details taken from IMD 
     
Station Code      GUA
Station Lat.       26.190  N
Station Long.      91.746  E
Station Height(m)   55.2
Site Class        C   Vs30 between 200 m/sec to 375 m/sec *  
Record Time       19.08.2009 10:45:29.449
Sampling Rate     200. Hz
 Record Duration   71.660 Sec.
 Direction         E-W (E positive)
Max. Acceleration    -19.714 cm/sec**2
     
  * For reference see Site Classification link of website 
     
 Base Line Corrected and Low Pass Filtered (Cut Off at 35 Hz) Time History
 Acceleration data in cm/sec**2
    
[...]
      -0.273
       0.045
       0.318
       0.485
       0.498
       0.336
       0.052
      -0.216
      -0.301
      -0.133
       0.206
       0.529
       0.677
       0.613
       0.418
       0.202
       0.035
      -0.073
      -0.133
      -0.147
      -0.098
       0.024
       0.200
       0.381
       0.499
       0.506
       0.423
       0.336
       0.348
       0.484
       0.660
       0.724
       0.556
       0.148
      -0.378
      -0.833
      -1.062
      -1.037
      -0.878
      -0.767
      -0.822
      -1.010
      -1.183
      -1.192
      -1.009
      -0.743
      -0.540
      -0.474
      -0.500
      -0.509
      -0.414
      -0.202
       0.076
       0.349
       0.561
       0.697
       0.766
       0.773
       0.710
       0.574
       0.390
       0.216
       0.100
       0.039
      -0.024
      -0.154
      -0.360
      -0.567
      -0.658
      -0.549
      -0.257
       0.107
       0.392
       0.477
       0.322
      -0.015
      -0.387
      -0.631
      -0.648
      -0.468
      -0.214
      -0.010
       0.099
       0.159
       0.254
       0.421
       0.627
       0.783
       0.816
       0.710
       0.523
       0.337
       0.201
       0.114
       0.040
      -0.034
      -0.096
      -0.133
      -0.169
      -0.250
      -0.379
      -0.490
      -0.493
      -0.370
      -0.196
      -0.068
      -0.012
       0.023
       0.086
       0.159
       0.169
       0.066
      -0.122
      -0.310
      -0.426
      -0.454
      -0.427
      -0.391
      -0.372
      -0.371
      -0.367
      -0.325
      -0.199
       0.043
       0.398
       0.815
       1.191
       1.407
       1.372
       1.077
       0.608
       0.114
      -0.265
      -0.456
      -0.467
      -0.367
      -0.238
      -0.143
      -0.100
      -0.086
      -0.072
      -0.059
      -0.082
      -0.169
      -0.299
      -0.392
      -0.363
      -0.166
       0.171
       0.561
       0.898
       1.103
       1.157
       1.083
       0.907
       0.637
       0.281
      -0.117
      -0.478
      -0.723
      -0.802
      -0.716
      -0.517
      -0.285
      -0.105
      -0.019
      -0.011
      -0.031
      -0.039
      -0.039
      -0.053
      -0.081
      -0.079
       0.008
       0.194
       0.419
       0.582
       0.590
       0.417
       0.110
      -0.231
      -0.501
      -0.616
      -0.537
      -0.274
       0.101
       0.461
       0.664
       0.630
       0.396
       0.106
      -0.082
      -0.094
       0.018
       0.129
       0.124
      -0.033
      -0.305
      -0.620
      -0.908
      -1.118
      -1.209
      -1.149
      -0.921
      -0.543
      -0.084
       0.343
       0.618
       0.680
       0.571
       0.408
       0.308
       0.295
       0.295
       0.218
       0.050
      -0.117
      -0.175
      -0.094
       0.043
       0.116
       0.051
      -0.137
      -0.369
      -0.562
      -0.664
      -0.668
      -0.593
      -0.463
      -0.297
      -0.112
       0.071
       0.226
       0.332
       0.377
       0.365
       0.301
       0.175
      -0.027
      -0.294
      -0.570
      -0.776
      -0.858
      -0.822
      -0.711
      -0.563
      -0.378
      -0.130
       0.187
       0.522
       0.775
       0.845
       0.699
       0.398
       0.061
      -0.197
      -0.325
      -0.329
      -0.247
      -0.118
       0.019
       0.121
       0.161
       0.160
       0.209
       0.406
       0.765
       1.158
       1.380
       1.299
       0.954
       0.529
       0.208
       0.068
       0.056
       0.074
       0.054
      -0.007
      -0.066
      -0.077
      -0.032
       0.025
       0.023
      -0.087
      -0.293
      -0.527
      -0.694
      -0.709
      -0.538
      -0.222
       0.128
       0.376
       0.439
       0.328
       0.126
      -0.077
      -0.241
      -0.373
      -0.480
      -0.539
      -0.506
      -0.357
      -0.112
       0.170
       0.419
       0.581
       0.627
       0.565
       0.433
       0.292
       0.195
       0.150
       0.129
       0.095
       0.048
       0.027
       0.073
       0.180
       0.276
       0.272
       0.122
      -0.138
      -0.420
      -0.641
      -0.748
      -0.720
      -0.562
      -0.305
      -0.012
       0.238
       0.384
       0.409
       0.349
       0.269
       0.234
       0.273
       0.367
       0.449
       0.436
       0.275
      -0.005
      -0.302
      -0.508
      -0.590
      -0.596
      -0.589
      -0.585
      -0.554
      -0.471
      -0.338
      -0.175
      -0.005
       0.156
       0.290
       0.389
       0.463
       0.535
       0.618
       0.685
       0.678
       0.542
       0.283
      -0.023
      -0.273
      -0.411
      -0.474
      -0.554
      -0.713
      -0.922
      -1.073
      -1.063
      -0.863
      -0.535
      -0.192
       0.063
       0.172
       0.145
       0.048
      -0.028
      -0.024
       0.041
       0.091
       0.059
      -0.045
      -0.128
      -0.088
       0.113
       0.413
       0.698
       0.875
       0.914
       0.841
       0.702
       0.536
       0.388
       0.310
       0.337
       0.448
       0.557
       0.568
       0.437
       0.193
      -0.093
      -0.346
      -0.511
      -0.550
      -0.450
      -0.250
      -0.041
       0.061
      -0.021
      -0.280
      -0.620
      -0.903
      -1.005
      -0.883
      -0.581
      -0.206
       0.126
       0.332
       0.383
       0.302
       0.137
      -0.053
      -0.207
      -0.265
      -0.186
       0.009
       0.227
       0.330
       0.227
      -0.060
      -0.386
      -0.562
      -0.482
      -0.186
       0.168
       0.414
       0.469
       0.364
       0.206
       0.098
       0.083
       0.135
       0.204
       0.266
       0.320
       0.356
       0.341
       0.261
       0.159
       0.133
       0.246
       0.452
       0.612
       0.592
       0.358
      -0.012
      -0.394
      -0.685
      -0.835
      -0.835
      -0.721
      -0.562
      -0.440
      -0.393
      -0.403
      -0.412
      -0.373
      -0.278
      -0.137
       0.033
       0.213
       0.359
       0.417
       0.361
       0.231
       0.123
       0.121
       0.239
       0.407
       0.520
       0.512
       0.390
       0.216
       0.062
      -0.026
      -0.041
      -0.015
      -0.009
      -0.082
      -0.255
      -0.494
      -0.727
      -0.892
      -0.976
      -0.993
      -0.962
      -0.893
      -0.796
      -0.687
      -0.557
      -0.367
      -0.073
       0.302
       0.641
       0.794
       0.683
       0.381
       0.089
       0.006
       0.198
       0.556
       0.881
       1.014
       0.913
       0.650
       0.345
       0.086
      -0.094
      -0.198
      -0.229
      -0.181
      -0.061
       0.092
       0.225
       0.310
       0.364
       0.428
       0.530
       0.662
       0.779
       0.823
       0.760
       0.610
       0.433
       0.296
       0.229
       0.204
       0.148
      -0.018
      -0.318
      -0.693
      -1.020
      -1.192
      -1.188
      -1.074
      -0.943
      -0.840
      -0.752
      -0.638
      -0.480
      -0.298
      -0.135
      -0.034
      -0.004
      -0.015
      -0.003
       0.100
       0.327
       0.659
       1.025
       1.321
       1.432
       1.269
       0.812
       0.158
      -0.502
      -0.961
      -1.091
      -0.903
      -0.520
      -0.105
       0.211
       0.364
       0.361
       0.255
       0.126
       0.062
       0.123
       0.305
       0.526
       0.661
       0.623
       0.419
       0.141
      -0.092
      -0.198
      -0.155
       0.008
       0.215
       0.370
       0.389
       0.248
      -0.002
      -0.261
      -0.439
      -0.489
      -0.414
      -0.245
      -0.017
       0.231
       0.459
       0.626
       0.693
       0.632
       0.430
       0.101
      -0.305
      -0.707
      -1.016
      -1.172
      -1.173
      -1.084
      -1.006
      -1.009
      -1.074
      -1.086
      -0.921
      -0.549
      -0.075
       0.328
       0.532
       0.517
       0.347
       0.108
      -0.129
      -0.310
      -0.411
      -0.449
      -0.475
      -0.535
      -0.629
      -0.707
      -0.699
      -0.557
      -0.262
       0.162
       0.650
       1.102
       1.401
       1.470
       1.311
       1.003
       0.662
       0.376
       0.180
       0.071
       0.038
       0.073
       0.144
       0.175
       0.074
      -0.205
      -0.604
      -0.989
      -1.233
      -1.308
      -1.283
      -1.243
      -1.215
      -1.156
      -1.012
      -0.776
      -0.479
      -0.147
       0.222
       0.637
       1.066
       1.417
       1.587
       1.539
       1.351
       1.171
       1.118
       1.197
       1.307
       1.325
       1.196
       0.960
       0.706
       0.505
       0.370
       0.267
       0.165
       0.076
       0.034
       0.053
       0.093
       0.087
      -0.006
      -0.178
      -0.394
      -0.621
      -0.826
      -0.948
      -0.909
      -0.667
      -0.272
       0.125
       0.354
       0.334
       0.126
      -0.112
      -0.229
      -0.175
      -0.010
       0.156
       0.239
       0.219
       0.112
      -0.067
      -0.315
      -0.598
      -0.817
      -0.831
      -0.559
      -0.055
       0.498
       0.906
       1.072
       1.029
       0.900
       0.813
       0.828
       0.910
       0.963
       0.896
       0.690
       0.408
       0.139
      -0.075
      -0.271
      -0.507
      -0.789
      -1.038
      -1.150
      -1.100
      -0.978
      -0.938
      -1.078
      -1.366
      -1.652
      -1.759
      -1.590
      -1.181
      -0.669
      -0.204
       0.133
       0.341
       0.461
       0.525
       0.538
       0.491
       0.382
       0.227
       0.048
      -0.128
      -0.271
      -0.333
      -0.263
      -0.038
       0.291
       0.603
       0.774
       0.756
       0.611
       0.446
       0.322
       0.195
      -0.027
      -0.388
      -0.802
      -1.088
      -1.088
      -0.788
      -0.343
       0.011
       0.106
      -0.073
      -0.396
      -0.685
      -0.816
      -0.758
      -0.556
      -0.283
      -0.008
       0.207
       0.322
       0.342
       0.338
       0.410
       0.600
       0.835
       0.969
       0.891
       0.613
       0.268
       0.020
      -0.027
       0.124
       0.380
       0.625
       0.779
       0.829
       0.800
       0.716
       0.576
       0.371
       0.113
      -0.130
      -0.261
      -0.199
       0.057
       0.421
       0.758
       0.964
       1.002
       0.887
       0.651
       0.316
      -0.095
      -0.534
      -0.927
      -1.209
      -1.369
      -1.461
      -1.568
      -1.755
      -2.019
      -2.286
      -2.422
      -2.290
      -1.825
      -1.096
      -0.277
       0.445
       0.959
       1.262
       1.397
       1.388
       1.232
       0.951
       0.642
       0.453
       0.479
       0.678
       0.875
       0.867
       0.549
      -0.027
      -0.706
      -1.324
      -1.794
      -2.122
      -2.365
      -2.575
      -2.762
      -2.913
      -3.016
      -3.056
      -2.998
      -2.778
      -2.348
      -1.750
      -1.131
      -0.680
      -0.525
      -0.661
      -0.956
      -1.211
      -1.239
      -0.948
      -0.381
       0.307
       0.945
       1.452
       1.859
       2.255
       2.706
       3.239
       3.857
       4.546
       5.243
       5.821
       6.147
       6.163
       5.919
       5.509
       4.987
       4.342
       3.542
       2.584
       1.494
       0.322
      -0.838
      -1.819
      -2.407
      -2.454
      -1.962
      -1.077
       0.018
       1.188
       2.373
       3.534
       4.598
       5.455
       5.988
       6.115
       5.793
       5.020
       3.842
       2.375
       0.811
      -0.633
      -1.780
      -2.562
      -3.030
      -3.320
      -3.568
      -3.863
      -4.239
      -4.703
      -5.227
      -5.717
      -6.005
      -5.921
      -5.424
      -4.668
      -3.933
      -3.460
      -3.320
      -3.428
      -3.662
      -3.962
      -4.305
      -4.600
      -4.640
      -4.198
      -3.194
      -1.800
      -0.394
       0.619
       0.974
       0.635
      -0.226
      -1.316
      -2.315
      -2.959
      -3.100
      -2.717
      -1.877
      -0.684
       0.750
       2.297
       3.803
       5.111
       6.108
       6.779
       7.220
       7.596
       8.056
       8.659
       9.336
       9.915
      10.188
       9.988
       9.255
       8.053
       6.548
       4.943
       3.402
       2.008
       0.752
      -0.434
      -1.645
      -2.966
      -4.432
      -5.995
      -7.517
      -8.822
      -9.765
     -10.282
     -10.374
     -10.069
      -9.413
      -8.494
      -7.481
      -6.603
      -6.090
      -6.080
      -6.561
      -7.341
      -8.064
      -8.284
      -7.605
      -5.855
      -3.200
      -0.111
       2.809
       5.081
       6.527
       7.294
       7.727
       8.169
       8.812
       9.643
      10.492
      11.151
      11.489
      11.512
      11.323
      11.022
      10.618
      10.030
       9.167
       8.037
       6.769
       5.536
       4.450
       3.523
       2.690
       1.855
       0.915
      -0.242
      -1.739
      -3.679
      -6.105
      -8.958
     -12.044
     -15.044
     -17.554
     -19.188
     -19.714
     -19.166
     -17.852
     -16.204
     -14.556
     -13.013
     -11.462
      -9.684
      -7.481
      -4.749
      -1.520
       2.066
       5.782
       9.344
      12.422
      14.687
      15.937
      16.210
      15.786
      15.017
      14.091
      12.920
      11.250
       8.885
       5.850
       2.405
      -1.032
      -3.967
      -5.903
      -6.460
      -5.529
      -3.391
      -0.701
       1.706
       3.106
       3.129
       1.859
      -0.300
      -2.881
      -5.578
      -8.264
     -10.813
     -12.913
     -14.053
     -13.756
     -11.865
      -8.701
      -4.986
      -1.585
       0.813
       1.926
       1.963
       1.512
       1.280
       1.797
       3.222
       5.342
       7.732
       9.976
      11.799
      13.070
      13.711
      13.623
      12.687
      10.842
       8.180
       5.003
       1.784
      -0.941
      -2.729
      -3.352
      -2.842
      -1.460
       0.386
       2.233
       3.644
       4.279
       3.971
       2.772
       0.955
      -1.082
      -2.992
      -4.608
      -5.944
      -7.088
      -8.082
      -8.887
      -9.451
      -9.790
      -9.999
     -10.148
     -10.177
      -9.905
      -9.203
      -8.171
      -7.122
      -6.369
      -5.953
      -5.576
      -4.751
      -3.071
      -0.413
       2.990
       6.619
       9.809
      11.933
      12.592
      11.732
       9.661
       6.960
       4.301
       2.243
       1.079
       0.802
       1.190
       1.966
       2.925
       3.981
       5.076
       6.035
       6.510
       6.083
       4.507
       1.913
      -1.150
      -3.910
      -5.702
      -6.249
      -5.717
      -4.519
      -3.032
      -1.416
       0.357
       2.318
       4.330
       6.058
       7.064
       6.981
       5.666
       3.289
       0.324
      -2.597
      -4.942
      -6.506
      -7.442
      -8.048
      -8.485
      -8.651
      -8.295
      -7.253
      -5.601
      -3.619
      -1.625
       0.142
       1.526
       2.402
       2.694
       2.453
       1.880
       1.232
       0.617
      -0.111
      -1.239
      -2.909
      -4.868
      -6.468
      -6.973
      -5.970
      -3.636
      -0.639
       2.247
       4.560
       6.305
       7.749
       9.046
      10.009
      10.207
       9.278
       7.196
       4.337
       1.337
      -1.127
      -2.548
      -2.711
      -1.739
      -0.033
       1.845
       3.329
       3.991
       3.633
       2.314
       0.329
      -1.854
      -3.714
      -4.840
      -5.078
      -4.564
      -3.607
      -2.516
      -1.460
      -0.436
       0.648
       1.831
       2.972
       3.739
       3.749
       2.814
       1.110
      -0.861
      -2.515
      -3.469
      -3.661
      -3.277
      -2.570
      -1.723
      -0.805
       0.181
       1.232
       2.288
       3.231
       3.917
       4.254
       4.270
       4.109
       3.932
       3.799
       3.633
       3.285
       2.620
       1.586
       0.208
      -1.446
      -3.274
      -5.114
      -6.736
      -7.890
      -8.411
      -8.305
      -7.742
      -6.919
      -5.905
      -4.598
      -2.842
      -0.641
       1.719
       3.741
       4.977
       5.267
       4.781
       3.822
       2.580
       1.072
      -0.704
      -2.562
      -4.085
      -4.822
      -4.549
      -3.410
      -1.836
      -0.356
       0.593
       0.763
       0.131
      -1.086
      -2.445
      -3.378
      -3.395
      -2.318
      -0.404
       1.760
       3.530
       4.478
       4.539
       3.978
       3.209
       2.592
       2.285
       2.235
       2.259
       2.170
       1.869
       1.376
       0.814
       0.361
       0.197
       0.445
       1.132
       2.186
       3.474
       4.843
       6.128
       7.135
       7.645
       7.476
       6.587
       5.131
       3.409
       1.747
       0.366
      -0.661
      -1.378
      -1.882
      -2.288
      -2.711
      -3.257
      -3.985
      -4.876
      -5.833
      -6.721
      -7.421
      -7.841
      -7.913
      -7.623
      -7.064
      -6.456
      -6.035
      -5.871
      -5.799
      -5.542
      -4.951
      -4.153
      -3.468
      -3.166
      -3.289
      -3.640
      -3.935
      -3.963
      -3.672
      -3.137
      -2.480
      -1.797
      -1.125
      -0.433
       0.361
       1.338
       2.515
       3.784
       4.929
       5.718
       6.028
       5.920
       5.613
       5.379
       5.399
       5.665
       5.966
       6.000
       5.561
       4.700
       3.740
       3.088
       2.970
       3.289
       3.714
       3.943
       3.911
       3.781
       3.738
       3.775
       3.688
       3.248
       2.407
       1.335
       0.297
      -0.510
      -1.014
      -1.196
      -1.007
      -0.355
       0.807
       2.369
       4.038
       5.432
       6.249
       6.413
       6.071
       5.468
       4.778
       4.028
       3.152
       2.107
       0.961
      -0.138
      -1.042
      -1.692
      -2.176
      -2.730
      -3.655
      -5.141
      -7.101
      -9.128
     -10.689
     -11.428
     -11.336
     -10.692
      -9.819
      -8.899
      -7.962
      -7.005
      -6.069
      -5.220
      -4.478
      -3.815
      -3.214
      -2.712
      -2.352
      -2.080
      -1.730
      -1.119
      -0.195
       0.940
       2.143
       3.341
       4.522
       5.623
       6.478
       6.909
       6.875
       6.516
       6.065
       5.698
       5.450
       5.233
       4.907
       4.363
       3.576
       2.638
       1.730
       1.029
       0.584
       0.266
      -0.164
      -0.923
      -2.102
      -3.627
      -5.288
      -6.807
      -7.934
      -8.534
      -8.610
      -8.252
      -7.562
      -6.615
      -5.473
