Origin Time       31/12/2009 09:57:00 UTC
Lat.              27.3°N	
Long.             91.4°E	
Depth (Km)          7.0
Magnitude         5.5
 Region           BHUTAN                                                           
 Above details taken from IMD 
    
Station Code      GUA
Station Lat.       26.190  N
Station Long.      91.746  E
Station Height(m)   55.2
Site Class        C   Vs30 between 200 m/sec to 375 m/sec *  
Record Time       31.12.2009 09:57:36.114 UTC
Sampling Rate     200. Hz
 Record Duration   80.470 Sec.
 Direction         N-S (N positive)
Max. Acceleration      6.898 cm/sec**2
     
  * For reference see Site Classification link of website 
     
 Base Line Corrected and Low Pass Filtered (Cut Off at 35 Hz) Time History
 Acceleration data in cm/sec**2
    
[...]
      -0.416
      -0.274
      -0.057
       0.160
       0.303
       0.327
       0.235
       0.076
      -0.077
      -0.153
      -0.107
       0.063
       0.313
       0.573
       0.774
       0.868
       0.849
       0.750
       0.632
       0.561
       0.582
       0.708
       0.912
       1.145
       1.361
       1.538
       1.676
       1.777
       1.835
       1.845
       1.822
       1.790
       1.755
       1.679
       1.490
       1.129
       0.602
      -0.008
      -0.585
      -1.046
      -1.386
      -1.666
      -1.956
      -2.277
      -2.588
      -2.821
      -2.944
      -2.994
      -3.056
      -3.191
      -3.384
      -3.558
      -3.631
      -3.566
      -3.381
      -3.116
      -2.808
      -2.480
      -2.153
      -1.845
      -1.567
      -1.305
      -1.022
      -0.683
      -0.281
       0.152
       0.563
       0.905
       1.158
       1.343
       1.517
       1.751
       2.094
       2.547
       3.050
       3.493
       3.760
       3.777
       3.542
       3.118
       2.579
       1.969
       1.292
       0.557
      -0.187
      -0.849
      -1.345
      -1.654
      -1.834
      -1.980
      -2.158
      -2.374
      -2.588
      -2.762
      -2.882
      -2.964
      -3.008
      -2.980
      -2.806
      -2.423
      -1.833
      -1.117
      -0.397
       0.234
       0.748
       1.178
       1.573
       1.967
       2.356
       2.716
       3.023
       3.271
       3.472
       3.646
       3.799
       3.903
       3.896
       3.711
       3.309
       2.708
       1.984
       1.246
       0.600
       0.116
      -0.198
      -0.395
      -0.561
      -0.755
      -0.996
      -1.270
      -1.567
      -1.891
      -2.236
      -2.544
      -2.711
      -2.647
      -2.348
      -1.919
      -1.510
      -1.227
      -1.076
      -0.986
      -0.873
      -0.694
      -0.451
      -0.170
       0.131
       0.450
       0.790
       1.153
       1.535
       1.917
       2.263
       2.520
       2.648
       2.646
       2.569
       2.495
       2.484
       2.543
       2.625
       2.652
       2.552
       2.280
       1.828
       1.220
       0.498
      -0.282
      -1.056
      -1.753
      -2.309
      -2.686
      -2.881
      -2.932
      -2.902
      -2.854
      -2.825
      -2.808
      -2.759
      -2.623
      -2.371
      -2.016
      -1.588
      -1.100
      -0.548
       0.057
       0.655
       1.138
       1.401
       1.416
       1.254
       1.057
       0.948
       0.976
       1.107
       1.270
       1.402
       1.457
       1.404
       1.224
       0.919
       0.502
      -0.006
      -0.585
      -1.207
      -1.818
      -2.343
      -2.709
      -2.886
      -2.909
      -2.855
      -2.792
      -2.755
      -2.747
      -2.770
      -2.832
      -2.929
      -3.021
      -3.032
      -2.881
      -2.526
      -1.992
      -1.359
      -0.730
      -0.203
       0.156
       0.326
       0.341
       0.272
       0.207
       0.217
       0.347
       0.610
       0.993
       1.460
       1.964
       2.454
       2.876
       3.174
       3.315
       3.308
       3.217
       3.139
       3.159
       3.301
       3.530
       3.791
       4.045
       4.272
       4.423
       4.401
       4.088
       3.419
       2.438
       1.298
       0.204
      -0.657
      -1.175
      -1.342
      -1.242
      -1.024
      -0.851
      -0.839
      -1.020
      -1.335
      -1.682
      -1.985
      -2.227
      -2.451
      -2.708
      -3.015
      -3.313
      -3.493
      -3.451
      -3.163
      -2.696
      -2.178
      -1.722
      -1.378
      -1.120
      -0.891
      -0.638
      -0.334
       0.037
       0.495
       1.075
       1.808
       2.697
       3.676
       4.607
       5.293
       5.543
       5.250
       4.457
       3.350
       2.183
       1.178
       0.427
      -0.122
      -0.602
      -1.135
      -1.761
      -2.434
      -3.069
      -3.596
      -3.999
      -4.297
      -4.505
      -4.594
      -4.507
      -4.209
      -3.747
      -3.247
      -2.867
      -2.706
      -2.741
      -2.826
      -2.761
      -2.388
      -1.662
      -0.652
       0.514
       1.703
       2.811
       3.767
       4.507
       4.983
       5.180
       5.143
       4.969
       4.769
       4.617
       4.522
       4.430
       4.246
       3.870
       3.235
       2.346
       1.278
       0.165
      -0.851
      -1.655
      -2.204
      -2.531
      -2.736
      -2.935
      -3.200
      -3.523
      -3.832
      -4.037
      -4.070
      -3.884
      -3.442
      -2.735
      -1.845
      -0.968
      -0.356
      -0.189
      -0.463
      -0.984
      -1.460
      -1.632
      -1.387
      -0.775
       0.043
       0.887
       1.631
       2.230
       2.684
       2.988
       3.108
       3.028
       2.803
       2.572
       2.477
       2.575
       2.797
       3.001
       3.063
       2.924
       2.599
       2.139
       1.596
       1.001
       0.366
      -0.291
      -0.927
      -1.475
      -1.874
      -2.122
      -2.295
      -2.516
      -2.873
      -3.352
      -3.827
      -4.129
      -4.140
      -3.846
      -3.333
      -2.727
      -2.123
      -1.568
      -1.078
      -0.673
      -0.372
      -0.171
      -0.015
       0.178
       0.471
       0.859
       1.277
       1.657
       1.984
       2.307
       2.682
       3.097
       3.456
       3.632
       3.557
       3.267
       2.877
       2.516
       2.252
       2.069
       1.876
       1.555
       1.019
       0.261
      -0.638
      -1.545
      -2.342
      -2.975
      -3.456
      -3.828
      -4.125
      -4.366
      -4.538
      -4.595
      -4.462
      -4.072
      -3.410
      -2.532
      -1.555
      -0.625
       0.129
       0.636
       0.903
       1.014
       1.087
       1.221
       1.457
       1.785
       2.156
       2.512
       2.780
       2.889
       2.805
       2.561
       2.255
       1.994
       1.836
       1.776
       1.771
       1.767
       1.710
       1.545
       1.217
       0.692
      -0.019
      -0.850
      -1.698
      -2.444
      -2.982
      -3.257
      -3.294
      -3.200
      -3.114
      -3.135
      -3.273
      -3.466
      -3.634
      -3.701
      -3.590
      -3.214
      -2.499
      -1.439
      -0.119
       1.303
       2.666
       3.845
       4.755
       5.324
       5.494
       5.272
       4.749
       4.092
       3.476
       3.029
       2.805
       2.786
       2.902
       3.058
       3.169
       3.180
       3.079
       2.881
       2.607
       2.261
       1.831
       1.309
       0.708
       0.074
      -0.522
      -0.990
      -1.264
      -1.350
      -1.343
      -1.388
      -1.591
      -1.951
      -2.364
      -2.694
      -2.853
      -2.817
      -2.603
      -2.243
      -1.782
      -1.291
      -0.867
      -0.604
      -0.565
      -0.765
      -1.178
      -1.731
      -2.307
      -2.766
      -2.990
      -2.921
      -2.583
      -2.068
      -1.510
      -1.038
      -0.736
      -0.621
      -0.651
      -0.749
      -0.828
      -0.818
      -0.681
      -0.432
      -0.144
       0.087
       0.199
       0.219
       0.260
       0.446
       0.824
       1.323
       1.789
       2.073
       2.115
       1.974
       1.787
       1.688
       1.743
       1.932
       2.172
       2.362
       2.430
       2.351
       2.168
       1.974
       1.866
       1.898
       2.050
       2.227
       2.296
       2.137
       1.693
       1.000
       0.182
      -0.603
      -1.234
      -1.684
      -2.015
      -2.310
      -2.599
      -2.831
      -2.936
      -2.910
      -2.848
      -2.887
      -3.113
      -3.490
      -3.862
      -4.040
      -3.918
      -3.541
      -3.071
      -2.678
      -2.432
      -2.274
      -2.071
      -1.714
      -1.194
      -0.605
      -0.089
       0.238
       0.328
       0.209
      -0.023
      -0.225
      -0.243
       0.033
       0.615
       1.397
       2.198
       2.845
       3.247
       3.418
       3.447
       3.426
       3.395
       3.321
       3.122
       2.731
       2.164
       1.533
       0.994
       0.667
       0.568
       0.614
       0.673
       0.626
       0.399
      -0.021
      -0.587
      -1.184
      -1.648
      -1.826
      -1.647
      -1.171
      -0.563
      -0.013
       0.336
       0.415
       0.224
      -0.187
      -0.720
      -1.226
      -1.519
      -1.429
      -0.890
       0.003
       1.002
       1.812
       2.238
       2.279
       2.106
       1.960
       2.007
       2.262
       2.592
       2.801
       2.725
       2.314
       1.654
       0.927
       0.319
      -0.068
      -0.239
      -0.262
      -0.216
      -0.174
      -0.220
      -0.448
      -0.920
      -1.608
      -2.372
      -2.999
      -3.290
      -3.136
      -2.563
      -1.713
      -0.799
      -0.051
       0.348
       0.304
      -0.150
      -0.834
      -1.451
      -1.691
      -1.367
      -0.525
       0.558
       1.501
       2.006
       1.975
       1.539
       0.973
       0.572
       0.528
       0.863
       1.458
       2.124
       2.699
       3.079
       3.213
       3.066
       2.616
       1.888
       0.991
       0.110
      -0.568
      -0.943
      -1.046
      -1.015
      -1.028
      -1.208
      -1.567
      -2.004
      -2.365
      -2.532
      -2.473
      -2.238
      -1.920
      -1.601
      -1.341
      -1.186
      -1.178
      -1.345
      -1.669
      -2.060
      -2.362
      -2.414
      -2.121
      -1.519
      -0.770
      -0.095
       0.334
       0.472
       0.405
       0.283
       0.243
       0.370
       0.690
       1.180
       1.757
       2.278
       2.562
       2.477
       2.015
       1.321
       0.618
       0.079
      -0.260
      -0.488
      -0.724
      -1.027
      -1.367
      -1.667
      -1.877
      -1.999
      -2.063
      -2.106
      -2.156
      -2.243
      -2.381
      -2.527
      -2.569
      -2.376
      -1.871
      -1.093
      -0.196
       0.628
       1.224
       1.535
       1.598
       1.523
       1.463
       1.579
       1.998
       2.731
       3.647
       4.500
       5.041
       5.134
       4.814
       4.257
       3.681
       3.255
       3.044
       3.001
       2.990
       2.842
       2.435
       1.763
       0.952
       0.186
      -0.416
      -0.886
      -1.394
      -2.115
      -3.078
      -4.093
      -4.837
      -5.051
      -4.711
      -4.047
      -3.413
      -3.100
      -3.206
      -3.613
      -4.056
      -4.230
      -3.911
      -3.046
      -1.782
      -0.401
       0.813
       1.698
       2.253
       2.560
       2.676
       2.590
       2.275
       1.778
       1.266
       0.964
       1.020
       1.396
       1.862
       2.129
       2.024
       1.584
       1.025
       0.610
       0.514
       0.757
       1.234
       1.770
       2.187
       2.329
       2.093
       1.455
       0.487
      -0.659
      -1.787
      -2.704
      -3.276
      -3.459
      -3.312
      -2.959
      -2.532
      -2.127
      -1.804
      -1.593
      -1.508
      -1.538
      -1.631
      -1.701
      -1.653
      -1.444
      -1.119
      -0.796
      -0.597
      -0.555
      -0.574
      -0.476
      -0.103
       0.559
       1.348
       1.998
       2.267
       2.054
       1.427
       0.593
      -0.171
      -0.595
      -0.489
       0.197
       1.349
       2.709
       3.954
       4.789
       5.029
       4.641
       3.745
       2.583
       1.443
       0.572
       0.084
      -0.060
      -0.023
       0.004
      -0.111
      -0.390
      -0.773
      -1.188
      -1.583
      -1.899
      -2.049
      -1.955
      -1.624
      -1.194
      -0.875
      -0.817
      -1.014
      -1.310
      -1.519
      -1.537
      -1.382
      -1.128
      -0.822
      -0.473
      -0.105
       0.207
       0.358
       0.283
       0.005
      -0.366
      -0.690
      -0.855
      -0.812
      -0.572
      -0.182
       0.284
       0.724
       0.998
       0.967
       0.566
      -0.135
      -0.955
      -1.697
      -2.250
      -2.618
      -2.859
      -3.005
      -3.051
      -2.986
      -2.819
      -2.568
      -2.223
      -1.763
      -1.194
      -0.593
      -0.088
       0.215
       0.321
       0.365
       0.559
       1.067
       1.908
       2.949
       3.990
       4.885
       5.593
       6.138
       6.509
       6.592
       6.224
       5.334
       4.063
       2.757
       1.824
       1.539
       1.913
       2.692
       3.471
       3.855
       3.592
       2.643
       1.160
      -0.572
      -2.221
      -3.493
      -4.204
      -4.322
      -3.979
      -3.414
      -2.869
      -2.484
      -2.243
      -2.017
      -1.666
      -1.115
      -0.378
       0.476
       1.335
       2.068
       2.544
       2.682
       2.491
       2.068
       1.527
       0.919
       0.206
      -0.678
      -1.737
      -2.867
      -3.908
      -4.719
      -5.222
      -5.394
      -5.241
      -4.794
      -4.119
      -3.331
      -2.584
      -2.035
      -1.788
      -1.841
      -2.066
      -2.260
      -2.230
      -1.881
      -1.242
      -0.427
       0.416
       1.147
       1.645
       1.830
       1.701
       1.360
       1.001
       0.844
       1.060
       1.709
       2.731
       3.974
       5.230
       6.273
       6.885
       6.898
       6.244
       4.974
       3.258
       1.343
      -0.499
      -2.033
      -3.120
      -3.755
      -4.045
      -4.147
      -4.188
      -4.210
      -4.169
      -3.984
      -3.607
      -3.066
      -2.449
      -1.845
      -1.287
      -0.736
      -0.131
       0.544
       1.227
       1.817
       2.228
       2.411
       2.328
       1.939
       1.228
       0.268
      -0.756
      -1.590
      -2.006
      -1.901
      -1.326
      -0.428
       0.639
       1.769
       2.881
       3.852
       4.493
       4.613
       4.141
       3.199
       2.080
       1.111
       0.496
       0.223
       0.089
      -0.168
      -0.727
      -1.597
      -2.624
      -3.579
      -4.258
      -4.546
      -4.433
      -3.997
      -3.365
      -2.662
      -1.956
      -1.251
      -0.536
       0.153
       0.729
       1.107
       1.277
       1.301
       1.250
       1.129
       0.873
       0.416
      -0.217
      -0.883
      -1.373
      -1.520
      -1.281
      -0.750
      -0.100
       0.503
       0.971
       1.311
       1.590
       1.868
       2.153
       2.396
       2.516
       2.444
       2.144
       1.633
       0.982
       0.301
      -0.286
      -0.681
      -0.836
      -0.766
      -0.524
      -0.175
       0.205
       0.517
       0.638
       0.445
      -0.117
      -0.975
      -1.899
      -2.574
      -2.737
      -2.316
      -1.465
      -0.486
       0.326
       0.795
       0.903
       0.752
       0.490
       0.247
       0.104
       0.091
       0.187
       0.335
       0.465
       0.544
       0.599
       0.692
       0.863
       1.081
       1.248
       1.252
       1.038
       0.645
       0.192
      -0.173
      -0.337
      -0.267
      -0.004
       0.373
       0.801
       1.240
       1.644
       1.927
       1.984
       1.755
       1.295
       0.769
       0.392
       0.330
       0.629
       1.188
       1.789
       2.189
       2.214
       1.843
       1.223
       0.599
       0.195
       0.101
       0.247
       0.470
       0.618
       0.612
       0.443
       0.140
      -0.250
      -0.682
      -1.119
      -1.540
      -1.917
      -2.200
      -2.317
      -2.208
      -1.878
      -1.414
      -0.964
      -0.670
      -0.608
      -0.762
      -1.037
      -1.313
      -1.502
      -1.590
      -1.641
      -1.745
      -1.940
      -2.177
      -2.345
      -2.348
      -2.164
      -1.872
      -1.607
      -1.497
      -1.614
      -1.944
      -2.381
      -2.739
      -2.809
      -2.447
      -1.661
      -0.637
       0.327
       0.952
       1.098
       0.825
       0.359
      -0.007
      -0.030
       0.387
       1.168
       2.092
       2.864
       3.225
       3.044
       2.367
       1.399
       0.436
      -0.239
      -0.458
      -0.214
       0.348
       1.011
       1.572
       1.919
       2.059
       2.093
       2.147
       2.287
       2.473
       2.570
       2.431
       1.998
       1.362
       0.743
       0.378
       0.405
       0.798
       1.375
       1.878
       2.072
       1.841
       1.213
       0.335
      -0.599
      -1.411
      -1.975
      -2.236
      -2.212
      -1.975
      -1.624
      -1.263
      -0.991
      -0.888
      -1.003
      -1.328
      -1.789
      -2.256
      -2.570
      -2.602
      -2.293
      -1.685
      -0.904
      -0.105
       0.577
       1.054
       1.287
       1.271
       1.029
       0.629
       0.194
      -0.127
      -0.214
      -0.043
       0.296
       0.644
       0.841
       0.786
       0.458
      -0.093
      -0.767
      -1.438
      -1.970
      -2.233
      -2.144
      -1.689
      -0.942
      -0.063
       0.716
       1.162
       1.123
       0.602
      -0.237
      -1.146
      -1.884
      -2.292
      -2.320
      -2.008
      -1.459
      -0.811
      -0.205
       0.248
       0.504
       0.585
       0.561
       0.518
       0.535
       0.672
       0.953
       1.359
       1.822
       2.257
       2.582
       2.739
       2.700
       2.473
       2.098
       1.635
       1.141
       0.651
       0.178
      -0.272
      -0.670
      -0.957
      -1.070
      -0.991
      -0.781
      -0.560
      -0.445
      -0.474
      -0.586
      -0.667
      -0.643
      -0.527
      -0.402
      -0.334
      -0.309
      -0.244
      -0.041
       0.346
       0.891
       1.509
       2.081
       2.491
       2.659
       2.591
       2.400
       2.280
       2.416
       2.869
       3.511
       4.072
       4.274
       3.973
       3.234
       2.278
       1.359
       0.649
       0.181
      -0.120
      -0.380
      -0.709
      -1.163
      -1.736
      -2.379
      -3.028
      -3.619
      -4.099
      -4.431
      -4.616
      -4.676
      -4.640
      -4.525
      -4.350
      -4.155
      -3.996
      -3.900
      -3.836
      -3.732
      -3.526
      -3.200
      -2.770
      -2.243
      -1.603
      -0.845
      -0.021
       0.766
       1.407
       1.865
       2.187
       2.464
       2.765
       3.103
       3.444
       3.753
       4.011
       4.209
       4.314
       4.271
       4.023
       3.561
       2.953
       2.341
       1.890
       1.719
       1.821
       2.034
       2.085
       1.726
       0.879
      -0.275
      -1.364
      -2.006
      -2.013
      -1.487
      -0.750
      -0.166
       0.024
      -0.244
      -0.891
      -1.773
      -2.726
      -3.577
      -4.148
      -4.290
      -3.932
      -3.132
      -2.064
      -0.974
      -0.107
       0.363
       0.389
       0.086
      -0.317
      -0.578
      -0.556
      -0.281
       0.095
       0.395
       0.531
       0.518
       0.430
       0.323
       0.214
       0.113
       0.041
       0.036
