Origin Time       11/8/2009 21:43:39 
Lat.              24.4 N 
Long.             94.8 E 
Depth (Km)         22.0
Magnitude         5.6
 Region           MYANMAR-INDIA(MANIPUR)BORDER                                     
 Above details taken from IMD 
     
Station Code      GUA
Station Lat.       26.190  N
Station Long.      91.746  E
Station Height(m)   67.3
Site Class        C   Vs30 between 200 m/sec to 375 m/sec *  
Record Time       11.08.2009 21:44:54.729
Sampling Rate     200. Hz
 Record Duration   73.040 Sec.
 Direction         E-W (E positive)
Max. Acceleration    -13.472 cm/sec**2
     
  * For reference see Site Classification link of website 
     
 Base Line Corrected and Low Pass Filtered (Cut Off at 35 Hz) Time History
 Acceleration data in cm/sec**2
    
[...]
       0.234
       0.207
       0.079
      -0.114
      -0.302
      -0.408
      -0.393
      -0.277
      -0.130
      -0.035
      -0.039
      -0.130
      -0.253
      -0.341
      -0.352
      -0.284
      -0.172
      -0.071
      -0.033
      -0.081
      -0.199
      -0.330
      -0.406
      -0.390
      -0.286
      -0.137
       0.008
       0.115
       0.177
       0.207
       0.223
       0.226
       0.194
       0.096
      -0.079
      -0.302
      -0.514
      -0.655
      -0.699
      -0.662
      -0.593
      -0.535
      -0.506
      -0.502
      -0.512
      -0.531
      -0.549
      -0.543
      -0.486
      -0.361
      -0.177
       0.034
       0.241
       0.427
       0.588
       0.714
       0.787
       0.791
       0.738
       0.677
       0.663
       0.723
       0.830
       0.924
       0.951
       0.891
       0.772
       0.637
       0.521
       0.418
       0.297
       0.130
      -0.075
      -0.265
      -0.381
      -0.399
      -0.348
      -0.288
      -0.262
      -0.263
      -0.245
      -0.172
      -0.054
       0.067
       0.148
       0.184
       0.201
       0.227
       0.263
       0.298
       0.322
       0.335
       0.331
       0.285
       0.169
      -0.016
      -0.226
      -0.394
      -0.472
      -0.458
      -0.389
      -0.311
      -0.246
      -0.185
      -0.116
      -0.039
       0.019
       0.034
      -0.001
      -0.069
      -0.154
      -0.253
      -0.372
      -0.507
      -0.624
      -0.666
      -0.585
      -0.376
      -0.089
       0.184
       0.348
       0.357
       0.232
       0.056
      -0.073
      -0.103
      -0.049
       0.030
       0.085
       0.115
       0.156
       0.235
       0.348
       0.449
       0.487
       0.436
       0.306
       0.136
      -0.033
      -0.173
      -0.272
      -0.320
      -0.304
      -0.211
      -0.041
       0.170
       0.364
       0.482
       0.505
       0.458
       0.380
       0.299
       0.217
       0.126
       0.029
      -0.056
      -0.112
      -0.143
      -0.172
      -0.210
      -0.243
      -0.237
      -0.172
      -0.067
       0.035
       0.092
       0.094
       0.058
       0.004
      -0.061
      -0.138
      -0.218
      -0.274
      -0.278
      -0.230
      -0.166
      -0.140
      -0.186
      -0.303
      -0.470
      -0.659
      -0.844
      -0.995
      -1.071
      -1.035
      -0.872
      -0.602
      -0.276
       0.049
       0.323
       0.504
       0.559
       0.469
       0.251
      -0.036
      -0.290
      -0.407
      -0.325
      -0.063
       0.287
       0.613
       0.845
       0.972
       1.018
       0.999
       0.904
       0.715
       0.445
       0.156
      -0.058
      -0.120
      -0.023
       0.164
       0.334
       0.395
       0.307
       0.095
      -0.169
      -0.403
      -0.550
      -0.595
      -0.560
      -0.479
      -0.386
      -0.306
      -0.253
      -0.227
      -0.219
      -0.225
      -0.250
      -0.295
      -0.345
      -0.372
      -0.357
      -0.299
      -0.216
      -0.124
      -0.028
       0.071
       0.164
       0.230
       0.246
       0.197
       0.087
      -0.054
      -0.172
      -0.209
      -0.138
       0.018
       0.188
       0.291
       0.282
       0.172
       0.017
      -0.117
      -0.181
      -0.163
      -0.077
       0.045
       0.169
       0.265
       0.315
       0.319
       0.300
       0.297
       0.338
       0.422
       0.514
       0.570
       0.566
       0.522
       0.483
       0.480
       0.506
       0.525
       0.511
       0.466
       0.413
       0.357
       0.271
       0.113
      -0.140
      -0.460
      -0.773
      -0.987
      -1.044
      -0.952
      -0.784
      -0.636
      -0.568
      -0.567
      -0.570
      -0.506
      -0.346
      -0.112
       0.143
       0.366
       0.524
       0.606
       0.635
       0.653
       0.703
       0.797
       0.892
       0.895
       0.706
       0.283
      -0.311
      -0.928
      -1.405
      -1.648
      -1.661
      -1.515
      -1.296
      -1.073
      -0.893
      -0.790
      -0.777
      -0.841
      -0.936
      -0.994
      -0.953
      -0.785
      -0.499
      -0.124
       0.301
       0.739
       1.140
       1.438
       1.566
       1.493
       1.262
       0.982
       0.782
       0.731
       0.804
       0.901
       0.920
       0.819
       0.635
       0.454
       0.341
       0.313
       0.335
       0.357
       0.345
       0.287
       0.179
       0.027
      -0.150
      -0.317
      -0.439
      -0.492
      -0.484
      -0.436
      -0.368
      -0.292
      -0.224
      -0.191
      -0.218
      -0.298
      -0.390
      -0.439
      -0.419
      -0.350
      -0.277
      -0.235
      -0.222
      -0.210
      -0.174
      -0.123
      -0.096
      -0.133
      -0.233
      -0.340
      -0.384
      -0.330
      -0.200
      -0.055
       0.060
       0.141
       0.214
       0.301
       0.391
       0.449
       0.452
       0.411
       0.374
       0.398
       0.502
       0.653
       0.781
       0.828
       0.794
       0.729
       0.683
       0.656
       0.572
       0.326
      -0.147
      -0.816
      -1.558
      -2.217
      -2.679
      -2.910
      -2.940
      -2.814
      -2.552
      -2.158
      -1.652
      -1.087
      -0.552
      -0.125
       0.164
       0.349
       0.502
       0.700
       0.999
       1.408
       1.887
       2.359
       2.747
       3.013
       3.174
       3.270
       3.321
       3.299
       3.160
       2.892
       2.548
       2.213
       1.933
       1.677
       1.351
       0.869
       0.214
      -0.559
      -1.350
      -2.056
      -2.601
      -2.949
      -3.107
      -3.116
      -3.027
      -2.886
      -2.732
      -2.613
      -2.592
      -2.728
      -3.035
      -3.450
      -3.845
      -4.070
      -4.009
      -3.615
      -2.911
      -1.964
      -0.867
       0.282
       1.377
       2.317
       3.017
       3.435
       3.582
       3.518
       3.313
       3.012
       2.619
       2.120
       1.530
       0.926
       0.438
       0.190
       0.231
       0.505
       0.892
       1.262
       1.534
       1.685
       1.735
       1.708
       1.609
       1.419
       1.106
       0.654
       0.081
      -0.549
      -1.139
      -1.598
      -1.881
      -2.011
      -2.063
      -2.122
      -2.238
      -2.411
      -2.599
      -2.753
      -2.845
      -2.875
      -2.845
      -2.731
      -2.469
      -1.995
      -1.286
      -0.398
       0.556
       1.464
       2.265
       2.960
       3.575
       4.106
       4.501
       4.673
       4.548
       4.098
       3.359
       2.431
       1.447
       0.543
      -0.182
      -0.685
      -0.995
      -1.184
      -1.326
      -1.452
      -1.539
      -1.530
      -1.377
      -1.076
      -0.674
      -0.249
       0.110
       0.324
       0.344
       0.171
      -0.139
      -0.495
      -0.811
      -1.053
      -1.246
      -1.438
      -1.653
      -1.862
      -2.000
      -2.011
      -1.878
      -1.628
      -1.300
      -0.928
      -0.533
      -0.130
       0.269
       0.667
       1.079
       1.515
       1.966
       2.402
       2.799
       3.157
       3.490
       3.797
       4.042
       4.165
       4.116
       3.882
       3.478
       2.920
       2.214
       1.379
       0.480
      -0.363
      -1.025
      -1.437
      -1.620
      -1.663
      -1.661
      -1.679
      -1.748
      -1.893
      -2.136
      -2.489
      -2.932
      -3.419
      -3.904
      -4.358
      -4.763
      -5.075
      -5.211
      -5.077
      -4.626
      -3.901
      -3.034
      -2.173
      -1.410
      -0.748
      -0.142
       0.435
       0.962
       1.398
       1.750
       2.102
       2.587
       3.293
       4.186
       5.094
       5.792
       6.115
       6.031
       5.624
       5.027
       4.349
       3.671
       3.070
       2.631
       2.402
       2.336
       2.287
       2.084
       1.637
       0.978
       0.219
      -0.521
      -1.173
      -1.717
      -2.157
      -2.499
      -2.749
      -2.928
      -3.077
      -3.256
      -3.536
      -3.981
      -4.620
      -5.430
      -6.307
      -7.081
      -7.559
      -7.592
      -7.152
      -6.366
      -5.470
      -4.705
      -4.188
      -3.852
      -3.485
      -2.863
      -1.869
      -0.558
       0.888
       2.253
       3.388
       4.239
       4.825
       5.182
       5.340
       5.332
       5.215
       5.059
       4.926
       4.847
       4.835
       4.916
       5.131
       5.507
       6.011
       6.517
       6.844
       6.826
       6.372
       5.486
       4.245
       2.775
       1.231
      -0.229
      -1.474
      -2.434
      -3.098
      -3.493
      -3.655
      -3.636
      -3.520
      -3.423
      -3.458
      -3.673
      -4.033
      -4.430
      -4.738
      -4.847
      -4.680
      -4.197
      -3.405
      -2.377
      -1.261
      -0.246
       0.499
       0.888
       0.937
       0.745
       0.439
       0.133
      -0.097
      -0.209
      -0.193
      -0.051
       0.201
       0.534
       0.901
       1.244
       1.497
       1.613
       1.584
       1.456
       1.309
       1.223
       1.228
       1.296
       1.337
       1.242
       0.916
       0.331
      -0.449
      -1.284
      -2.016
      -2.526
      -2.762
      -2.724
      -2.451
      -2.001
      -1.465
      -0.943
      -0.520
      -0.226
      -0.029
       0.127
       0.281
       0.443
       0.620
       0.845
       1.181
       1.696
       2.419
       3.306
       4.223
       4.970
       5.348
       5.241
       4.677
       3.821
       2.907
       2.140
       1.631
       1.385
       1.334
       1.365
       1.349
       1.168
       0.752
       0.093
      -0.754
      -1.708
      -2.690
      -3.637
      -4.501
      -5.237
      -5.802
      -6.165
      -6.302
      -6.203
      -5.872
      -5.353
      -4.743
      -4.196
      -3.856
      -3.784
      -3.905
      -4.033
      -3.958
      -3.544
      -2.789
      -1.824
      -0.862
      -0.126
       0.234
       0.204
      -0.081
      -0.388
      -0.498
      -0.302
       0.170
       0.797
       1.449
       2.041
       2.550
       3.001
       3.450
       3.952
       4.536
       5.180
       5.816
       6.363
       6.781
       7.088
       7.354
       7.631
       7.898
       8.042
       7.891
       7.299
       6.223
       4.768
       3.167
       1.705
       0.611
      -0.034
      -0.319
      -0.454
      -0.663
      -1.083
      -1.710
      -2.438
      -3.150
      -3.807
      -4.471
      -5.249
      -6.205
      -7.288
      -8.331
      -9.093
      -9.347
      -8.972
      -8.006
      -6.653
      -5.208
      -3.951
      -3.035
      -2.449
      -2.058
      -1.708
      -1.327
      -0.957
      -0.704
      -0.638
      -0.727
      -0.836
      -0.786
      -0.431
       0.284
       1.305
       2.474
       3.577
       4.413
       4.872
       4.953
       4.734
       4.311
       3.770
       3.195
       2.702
       2.444
       2.561
       3.113
       4.043
       5.192
       6.341
       7.268
       7.786
       7.784
       7.253
       6.297
       5.089
       3.809
       2.583
       1.466
       0.473
      -0.380
      -1.055
      -1.511
      -1.747
      -1.816
      -1.794
      -1.738
      -1.670
      -1.616
      -1.644
      -1.843
      -2.261
      -2.837
      -3.417
      -3.829
      -3.978
      -3.888
      -3.685
      -3.544
      -3.646
      -4.114
      -4.956
      -6.028
      -7.067
      -7.811
      -8.131
      -8.099
      -7.933
      -7.857
      -7.948
      -8.075
      -7.965
      -7.370
      -6.219
      -4.679
      -3.066
      -1.664
      -0.583
       0.271
       1.094
       2.028
       3.078
       4.127
       5.033
       5.705
       6.143
       6.408
       6.593
       6.805
       7.152
       7.726
       8.574
       9.659
      10.846
      11.923
      12.666
      12.921
      12.654
      11.955
      10.960
       9.769
       8.403
       6.839
       5.099
       3.280
       1.520
      -0.083
      -1.515
      -2.828
      -4.073
      -5.269
      -6.413
      -7.510
      -8.599
      -9.726
     -10.895
     -12.022
     -12.929
     -13.403
     -13.291
     -12.557
     -11.291
      -9.660
      -7.880
      -6.202
      -4.900
      -4.189
      -4.107
      -4.457
      -4.864
      -4.945
      -4.481
      -3.494
      -2.194
      -0.828
       0.443
       1.582
       2.607
       3.495
       4.140
       4.402
       4.203
       3.606
       2.840
       2.241
       2.140
       2.723
       3.933
       5.462
       6.865
       7.726
       7.796
       7.039
       5.593
       3.707
       1.696
      -0.097
      -1.356
      -1.862
      -1.535
      -0.437
       1.253
       3.269
       5.291
       6.995
       8.131
       8.586
       8.412
       7.806
       7.042
       6.382
       5.987
       5.886
       5.990
       6.145
       6.190
       6.000
       5.518
       4.773
       3.842
       2.794
       1.628
       0.269
      -1.356
      -3.242
      -5.267
      -7.227
      -8.910
     -10.147
     -10.853
     -11.049
     -10.884
     -10.605
     -10.472
     -10.660
     -11.181
     -11.904
     -12.631
     -13.189
     -13.472
     -13.421
     -12.981
     -12.081
     -10.656
      -8.685
      -6.242
      -3.517
      -0.796
       1.618
       3.512
       4.853
       5.784
       6.544
       7.337
       8.238
       9.194
      10.091
      10.849
      11.446
      11.881
      12.113
      12.040
      11.563
      10.670
       9.494
       8.295
       7.356
       6.863
       6.803
       6.971
       7.072
       6.858
       6.247
       5.331
       4.312
       3.402
       2.749
       2.410
       2.343
       2.424
       2.466
       2.262
       1.649
       0.551
      -1.000
      -2.875
      -4.896
      -6.879
      -8.671
     -10.176
     -11.350
     -12.200
     -12.754
     -13.038
     -13.050
     -12.760
     -12.142
     -11.214
     -10.079
      -8.914
      -7.909
      -7.171
      -6.678
      -6.299
      -5.880
      -5.326
      -4.631
      -3.841
      -2.997
      -2.107
      -1.164
      -0.187
       0.773
       1.639
       2.339
       2.821
       3.059
       3.092
       3.062
       3.233
       3.889
       5.179
       6.979
       8.914
      10.516
      11.448
      11.627
      11.189
      10.360
       9.324
       8.169
       6.915
       5.573
       4.181
       2.797
       1.477
       0.261
      -0.820
      -1.696
      -2.244
      -2.321
      -1.867
      -1.002
      -0.050
       0.564
       0.496
      -0.346
      -1.753
      -3.330
      -4.687
      -5.597
      -6.019
      -5.992
      -5.508
      -4.487
      -2.877
      -0.788
       1.442
       3.330
       4.419
       4.447
       3.442
       1.715
      -0.237
      -1.884
      -2.839
      -2.978
      -2.448
      -1.548
      -0.580
       0.242
       0.771
       0.872
       0.416
      -0.650
      -2.216
      -3.996
      -5.615
      -6.730
      -7.145
      -6.851
      -5.997
      -4.818
      -3.525
      -2.232
      -0.956
       0.293
       1.413
       2.192
       2.419
       2.039
       1.224
       0.314
      -0.338
      -0.491
      -0.061
       0.925
       2.375
       4.135
       5.990
       7.680
       8.950
       9.630
       9.666
       9.109
       8.076
       6.726
       5.268
       3.953
       3.020
       2.584
       2.527
       2.509
       2.114
       1.078
      -0.541
      -2.368
      -3.873
      -4.631
      -4.515
      -3.739
      -2.718
      -1.842
      -1.301
      -1.060
      -0.983
      -0.979
      -1.079
      -1.378
      -1.914
      -2.584
      -3.176
      -3.490
      -3.460
      -3.183
      -2.855
      -2.652
      -2.657
      -2.846
      -3.110
      -3.300
      -3.281
      -2.983
      -2.443
      -1.788
      -1.152
      -0.584
      -0.021
       0.657
       1.531
       2.565
       3.618
       4.511
       5.100
       5.317
       5.162
       4.680
       3.950
       3.070
       2.136
       1.207
       0.289
      -0.651
      -1.649
      -2.700
      -3.734
      -4.623
      -5.217
      -5.398
      -5.125
      -4.447
      -3.521
      -2.590
      -1.913
      -1.652
      -1.765
      -2.018
      -2.112
      -1.879
      -1.365
      -0.780
      -0.331
      -0.080
       0.068
       0.278
       0.658
       1.209
       1.847
       2.455
       2.907
       3.054
       2.735
       1.862
       0.533
      -0.931
      -2.108
      -2.682
      -2.598
      -2.033
      -1.244
      -0.421
       0.348
       1.005
       1.447
       1.541
       1.207
       0.494
      -0.424
      -1.312
      -1.967
      -2.266
      -2.163
      -1.665
      -0.812
       0.308
       1.541
       2.678
       3.520
       3.948
       3.968
       3.685
       3.239
       2.759
       2.342
       2.056
       1.930
       1.951
       2.062
       2.192
       2.284
       2.316
       2.306
       2.291
       2.305
       2.353
       2.407
       2.429
       2.420
       2.452
       2.657
       3.145
       3.901
       4.742
       5.375
       5.533
       5.108
       4.200
       3.071
       2.038
       1.350
       1.114
       1.264
       1.584
       1.776
       1.574
       0.837
      -0.406
      -2.011
      -3.808
      -5.654
      -7.411
      -8.908
      -9.932
     -10.305
      -9.975
      -9.081
      -7.920
      -6.849
      -6.147
      -5.923
      -6.090
      -6.417
      -6.631
      -6.523
      -6.027
      -5.203
      -4.169
      -3.022
      -1.798
      -0.515
       0.752
       1.835
       2.506
       2.598
       2.115
       1.267
       0.391
      -0.202
      -0.360
      -0.137
       0.284
       0.718
       1.102
       1.496
       1.999
       2.623
       3.243
       3.657
       3.710
       3.379
       2.772
       2.041
       1.300
       0.626
       0.103
      -0.140
       0.020
       0.613
       1.530
       2.564
       3.511
       4.259
       4.807
       5.217
       5.553
       5.846
       6.100
       6.310
       6.479
       6.585
       6.554
       6.246
       5.504
       4.247
       2.549
       0.650
      -1.116
      -2.436
      -3.123
      -3.179
      -2.782
      -2.226
      -1.797
      -1.678
      -1.897
      -2.356
      -2.902
      -3.430
      -3.936
      -4.520
      -5.310
      -6.343
      -7.506
      -8.562
      -9.273
      -9.522
      -9.370
      -9.008
      -8.656
      -8.451
      -8.417
      -8.486
      -8.548
      -8.478
      -8.118
      -7.283
      -5.830
      -3.759
      -1.273
       1.308
       3.704
       5.793
       7.599
       9.182
      10.543
      11.628
      12.385
      12.812
      12.957
      12.901
      12.729
      12.499
      12.221
      11.853
      11.337
      10.655
       9.844
       8.966
       8.046
       7.040
       5.866
       4.483
       2.949
