Origin Time       30/8/2009 19:27:44	
Lat.              25.4 N	
Long.             94.8 E	
Depth (Km)         85.0
Magnitude         5.3
 Region           MYANMAR-India-Manipuir-Border                                    
 Above details taken from IMD 
   
Station Code      GUA
Station Lat.       26.190
Station Long.      91.746
Station Height(m)   55.2
Site Class        C   Vs30 between 200 m/sec to 375 m/sec *  
Record Time       30.08.2009 19:28:54.379
Sampling Rate     200. Hz
 Record Duration   68.450 Sec.
 Direction         Vert. (Up positive)
Max. Acceleration    -10.222 cm/sec**2
     
  * For reference see Site Classification link of website 
     
 Base Line Corrected and Low Pass Filtered (Cut Off at 35 Hz) Time History
 Acceleration data in cm/sec**2
    
[...]
       0.197
       0.234
       0.185
       0.056
      -0.078
      -0.126
      -0.050
       0.095
       0.191
       0.149
      -0.021
      -0.214
      -0.310
      -0.263
      -0.136
      -0.045
      -0.065
      -0.178
      -0.285
      -0.280
      -0.128
       0.109
       0.309
       0.373
       0.290
       0.131
      -0.004
      -0.058
      -0.042
      -0.003
       0.021
       0.031
       0.053
       0.096
       0.136
       0.130
       0.060
      -0.050
      -0.139
      -0.151
      -0.075
       0.043
       0.131
       0.135
       0.062
      -0.028
      -0.068
      -0.037
       0.020
       0.037
      -0.020
      -0.120
      -0.195
      -0.194
      -0.123
      -0.034
       0.021
       0.031
       0.029
       0.057
       0.125
       0.198
       0.229
       0.200
       0.142
       0.112
       0.146
       0.230
       0.307
       0.318
       0.241
       0.105
      -0.028
      -0.108
      -0.125
      -0.109
      -0.102
      -0.125
      -0.169
      -0.211
      -0.244
      -0.274
      -0.314
      -0.367
      -0.413
      -0.426
      -0.383
      -0.284
      -0.158
      -0.048
       0.015
       0.039
       0.061
       0.121
       0.225
       0.340
       0.413
       0.413
       0.350
       0.264
       0.197
       0.156
       0.119
       0.060
      -0.024
      -0.112
      -0.172
      -0.184
      -0.151
      -0.091
      -0.032
      -0.004
      -0.036
      -0.137
      -0.281
      -0.407
      -0.449
      -0.382
      -0.242
      -0.107
      -0.039
      -0.039
      -0.045
       0.013
       0.162
       0.356
       0.509
       0.553
       0.486
       0.366
       0.268
       0.232
       0.238
       0.231
       0.161
       0.027
      -0.121
      -0.222
      -0.242
      -0.207
      -0.174
      -0.193
      -0.264
      -0.335
      -0.334
      -0.214
       0.007
       0.247
       0.402
       0.404
       0.246
      -0.007
      -0.258
      -0.411
      -0.413
      -0.282
      -0.096
       0.043
       0.074
       0.008
      -0.091
      -0.152
      -0.143
      -0.088
      -0.032
      -0.001
       0.018
       0.056
       0.123
       0.192
       0.217
       0.179
       0.110
       0.074
       0.108
       0.196
       0.276
       0.285
       0.207
       0.079
      -0.032
      -0.077
      -0.057
      -0.016
      -0.012
      -0.059
      -0.112
      -0.101
       0.012
       0.187
       0.324
       0.330
       0.186
      -0.034
      -0.214
      -0.273
      -0.210
      -0.091
       0.004
       0.035
       0.018
      -0.006
      -0.011
      -0.011
      -0.035
      -0.094
      -0.164
      -0.208
      -0.211
      -0.186
      -0.160
      -0.154
      -0.170
      -0.194
      -0.210
      -0.205
      -0.176
      -0.133
      -0.089
      -0.050
      -0.010
       0.051
       0.153
       0.302
       0.472
       0.607
       0.656
       0.592
       0.432
       0.224
       0.027
      -0.112
      -0.172
      -0.171
      -0.149
      -0.149
      -0.186
      -0.236
      -0.253
      -0.203
      -0.088
       0.059
       0.195
       0.288
       0.328
       0.315
       0.254
       0.157
       0.037
      -0.095
      -0.230
      -0.351
      -0.426
      -0.421
      -0.326
      -0.177
      -0.047
       0.003
      -0.042
      -0.130
      -0.178
      -0.126
       0.016
       0.179
       0.280
       0.283
       0.213
       0.125
       0.055
      -0.003
      -0.071
      -0.158
      -0.233
      -0.258
      -0.216
      -0.138
      -0.074
      -0.054
      -0.053
      -0.008
       0.126
       0.335
       0.541
       0.641
       0.577
       0.368
       0.113
      -0.061
      -0.078
       0.042
       0.190
       0.239
       0.126
      -0.105
      -0.334
      -0.448
      -0.416
      -0.301
      -0.208
      -0.198
      -0.245
      -0.262
      -0.170
       0.039
       0.277
       0.416
       0.365
       0.137
      -0.166
      -0.407
      -0.500
      -0.450
      -0.336
      -0.247
      -0.225
      -0.240
      -0.226
      -0.130
       0.039
       0.222
       0.346
       0.372
       0.325
       0.271
       0.269
       0.322
       0.373
       0.348
       0.216
       0.023
      -0.144
      -0.221
      -0.205
      -0.149
      -0.106
      -0.092
      -0.086
      -0.061
      -0.018
       0.018
       0.032
       0.038
       0.063
       0.122
       0.193
       0.232
       0.210
       0.136
       0.046
      -0.027
      -0.080
      -0.127
      -0.175
      -0.208
      -0.199
      -0.134
      -0.031
       0.072
       0.136
       0.150
       0.131
       0.104
       0.080
       0.043
      -0.029
      -0.139
      -0.255
      -0.331
      -0.341
      -0.295
      -0.237
      -0.210
      -0.235
      -0.300
      -0.372
      -0.414
      -0.395
      -0.292
      -0.109
       0.124
       0.357
       0.542
       0.656
       0.695
       0.660
       0.557
       0.403
       0.239
       0.115
       0.060
       0.054
       0.044
      -0.014
      -0.112
      -0.180
      -0.143
       0.014
       0.219
       0.347
       0.309
       0.106
      -0.172
      -0.410
      -0.542
      -0.569
      -0.541
      -0.499
      -0.450
      -0.362
      -0.207
      -0.002
       0.185
       0.278
       0.256
       0.173
       0.121
       0.147
       0.215
       0.240
       0.164
       0.016
      -0.104
      -0.102
       0.037
       0.238
       0.382
       0.381
       0.234
       0.012
      -0.186
      -0.294
      -0.299
      -0.226
      -0.118
      -0.009
       0.079
       0.130
       0.138
       0.114
       0.082
       0.070
       0.089
       0.125
       0.138
       0.089
      -0.038
      -0.202
      -0.324
      -0.330
      -0.193
       0.043
       0.292
       0.462
       0.498
       0.403
       0.230
       0.061
      -0.028
      -0.011
       0.076
       0.152
       0.146
       0.034
      -0.140
      -0.305
      -0.404
      -0.428
      -0.416
      -0.417
      -0.459
      -0.522
      -0.554
      -0.502
      -0.354
      -0.152
       0.034
       0.159
       0.219
       0.256
       0.311
       0.396
       0.485
       0.537
       0.528
       0.465
       0.381
       0.305
       0.243
       0.173
       0.063
      -0.098
      -0.278
      -0.428
      -0.515
      -0.544
      -0.538
      -0.505
      -0.428
      -0.290
      -0.098
       0.106
       0.266
       0.328
       0.269
       0.109
      -0.086
      -0.229
      -0.251
      -0.144
       0.036
       0.199
       0.278
       0.268
       0.223
       0.216
       0.281
       0.385
       0.453
       0.422
       0.281
       0.076
      -0.128
      -0.286
      -0.395
      -0.472
      -0.524
      -0.543
      -0.521
      -0.469
      -0.412
      -0.370
      -0.333
      -0.261
      -0.123
       0.061
       0.211
       0.244
       0.146
      -0.001
      -0.074
      -0.005
       0.163
       0.305
       0.311
       0.171
      -0.012
      -0.094
       0.006
       0.253
       0.509
       0.628
       0.561
       0.384
       0.243
       0.238
       0.341
       0.412
       0.311
       0.010
      -0.383
      -0.701
      -0.841
      -0.826
      -0.761
      -0.736
      -0.753
      -0.741
      -0.629
      -0.409
      -0.155
       0.037
       0.116
       0.122
       0.148
       0.271
       0.479
       0.684
       0.795
       0.798
       0.755
       0.738
       0.741
       0.681
       0.468
       0.106
      -0.287
      -0.536
      -0.524
      -0.267
       0.091
       0.369
       0.458
       0.369
       0.200
       0.060
       0.003
       0.012
       0.033
       0.019
      -0.050
      -0.172
      -0.339
      -0.541
      -0.760
      -0.951
      -1.049
      -0.989
      -0.753
      -0.392
      -0.013
       0.272
       0.400
       0.380
       0.277
       0.177
       0.138
       0.167
       0.219
       0.222
       0.130
      -0.051
      -0.263
      -0.439
      -0.534
      -0.545
      -0.497
      -0.423
      -0.339
      -0.241
      -0.117
       0.041
       0.231
       0.444
       0.653
       0.817
       0.895
       0.868
       0.748
       0.571
       0.380
       0.203
       0.044
      -0.106
      -0.248
      -0.373
      -0.460
      -0.492
      -0.461
      -0.375
      -0.247
      -0.087
       0.105
       0.326
       0.548
       0.705
       0.715
       0.527
       0.169
      -0.257
      -0.619
      -0.819
      -0.837
      -0.722
      -0.564
      -0.447
      -0.417
      -0.463
      -0.528
      -0.536
      -0.440
      -0.238
       0.028
       0.295
       0.505
       0.622
       0.644
       0.595
       0.506
       0.398
       0.278
       0.147
       0.011
      -0.117
      -0.226
      -0.310
      -0.362
      -0.377
      -0.358
      -0.320
      -0.278
      -0.226
      -0.143
      -0.013
       0.153
       0.313
       0.412
       0.414
       0.326
       0.202
       0.123
       0.156
       0.324
       0.578
       0.823
       0.964
       0.960
       0.841
       0.687
       0.582
       0.585
       0.707
       0.915
       1.138
       1.291
       1.314
       1.203
       1.004
       0.762
       0.480
       0.114
      -0.373
      -0.948
      -1.496
      -1.874
      -1.996
      -1.876
      -1.603
      -1.282
      -0.972
      -0.674
      -0.349
       0.035
       0.463
       0.866
       1.156
       1.266
       1.178
       0.901
       0.450
      -0.163
      -0.878
      -1.567
      -2.059
      -2.237
      -2.122
      -1.855
      -1.598
      -1.410
      -1.215
      -0.880
      -0.341
       0.320
       0.913
       1.267
       1.344
       1.256
       1.166
       1.173
       1.259
       1.320
       1.256
       1.035
       0.703
       0.339
       0.006
      -0.276
      -0.515
      -0.721
      -0.882
      -0.958
      -0.897
      -0.668
      -0.300
       0.121
       0.485
       0.734
       0.906
       1.102
       1.390
       1.724
       1.954
       1.920
       1.554
       0.924
       0.175
      -0.551
      -1.163
      -1.616
      -1.888
      -1.974
      -1.891
      -1.674
      -1.363
      -0.997
      -0.627
      -0.312
      -0.103
      -0.007
       0.025
       0.057
       0.129
       0.235
       0.350
       0.464
       0.606
       0.814
       1.092
       1.369
       1.517
       1.422
       1.063
       0.548
       0.063
      -0.241
      -0.342
      -0.361
      -0.481
      -0.821
      -1.358
      -1.927
      -2.321
      -2.400
      -2.169
      -1.754
      -1.323
      -0.996
      -0.794
      -0.648
      -0.455
      -0.145
       0.275
       0.722
       1.087
       1.307
       1.396
       1.425
       1.441
       1.421
       1.299
       1.051
       0.741
       0.486
       0.356
       0.304
       0.186
      -0.127
      -0.636
      -1.175
      -1.515
      -1.521
      -1.256
      -0.948
      -0.814
      -0.889
      -0.970
      -0.750
      -0.043
       1.065
       2.256
       3.155
       3.537
       3.419
       3.004
       2.525
       2.111
       1.752
       1.362
       0.874
       0.311
      -0.234
      -0.654
      -0.902
      -1.014
      -1.081
      -1.182
      -1.333
      -1.500
      -1.642
      -1.734
      -1.755
      -1.669
      -1.435
      -1.039
      -0.527
      -0.002
       0.420
       0.655
       0.681
       0.529
       0.255
      -0.079
      -0.417
      -0.720
      -0.974
      -1.190
      -1.395
      -1.614
      -1.858
      -2.110
      -2.322
      -2.437
      -2.430
      -2.341
      -2.257
      -2.265
      -2.388
      -2.562
      -2.660
      -2.555
      -2.185
      -1.583
      -0.858
      -0.126
       0.550
       1.185
       1.837
       2.549
       3.316
       4.091
       4.822
       5.466
       5.980
       6.292
       6.312
       5.984
       5.341
       4.499
       3.586
       2.655
       1.669
       0.556
      -0.698
      -2.013
      -3.246
      -4.251
      -4.940
      -5.297
      -5.380
      -5.284
      -5.102
      -4.861
      -4.502
      -3.912
      -2.992
      -1.735
      -0.252
       1.255
       2.566
       3.531
       4.119
       4.416
       4.567
       4.711
       4.922
       5.193
       5.448
       5.584
       5.507
       5.159
       4.526
       3.631
       2.537
       1.334
       0.133
      -0.969
      -1.921
      -2.728
      -3.430
      -4.076
      -4.691
      -5.243
      -5.658
      -5.869
      -5.888
      -5.812
      -5.761
      -5.758
      -5.701
      -5.443
      -4.931
      -4.260
      -3.613
      -3.131
      -2.815
      -2.522
      -2.071
      -1.363
      -0.442
       0.562
       1.540
       2.471
       3.403
       4.359
       5.266
       5.973
       6.346
       6.357
       6.094
       5.698
       5.271
       4.809
       4.209
       3.348
       2.176
       0.782
      -0.614
      -1.749
      -2.438
      -2.655
      -2.522
      -2.215
      -1.854
      -1.438
      -0.876
      -0.083
       0.941
       2.106
       3.286
       4.381
       5.334
       6.099
       6.599
       6.719
       6.347
       5.401
       3.855
       1.761
      -0.716
      -3.298
      -5.662
      -7.557
      -8.902
      -9.755
     -10.195
     -10.222
      -9.770
      -8.817
      -7.457
      -5.877
      -4.255
      -2.685
      -1.163
       0.354
       1.882
       3.369
       4.693
       5.699
       6.267
       6.360
       6.056
       5.513
       4.911
       4.380
       3.960
       3.610
       3.233
       2.699
       1.867
       0.633
      -0.984
      -2.796
      -4.504
      -5.832
      -6.671
      -7.108
      -7.308
      -7.368
      -7.249
      -6.854
      -6.136
      -5.129
      -3.903
      -2.508
      -0.947
       0.784
       2.634
       4.472
       6.131
       7.478
       8.454
       9.061
       9.330
       9.284
       8.912
       8.180
       7.076
       5.644
       4.003
       2.315
       0.714
      -0.752
      -2.103
      -3.345
      -4.429
      -5.287
      -5.885
      -6.214
      -6.245
      -5.915
      -5.175
      -4.058
      -2.698
      -1.266
       0.098
       1.325
       2.383
       3.231
       3.813
       4.101
       4.118
       3.925
       3.600
       3.178
       2.619
       1.840
       0.799
      -0.463
      -1.830
      -3.151
      -4.297
      -5.204
      -5.862
      -6.256
      -6.350
      -6.123
      -5.608
      -4.888
      -4.046
      -3.120
      -2.100
      -0.964
       0.268
       1.503
       2.593
       3.409
       3.903
       4.122
       4.161
       4.104
       3.982
       3.776
       3.453
       2.995
       2.397
       1.656
       0.792
      -0.124
      -0.984
      -1.667
      -2.093
      -2.249
      -2.199
      -2.053
      -1.918
      -1.867
      -1.916
      -2.012
      -2.058
      -1.956
      -1.646
      -1.140
      -0.529
       0.064
       0.570
       1.027
       1.539
       2.174
       2.879
       3.504
       3.890
       3.963
       3.763
       3.400
       2.973
       2.520
       2.039
       1.533
       1.023
       0.515
      -0.018
      -0.603
      -1.221
      -1.807
      -2.297
      -2.682
      -2.999
      -3.287
      -3.526
      -3.634
      -3.516
      -3.130
      -2.529
      -1.861
      -1.286
      -0.869
      -0.535
      -0.152
       0.329
       0.810
       1.124
       1.179
       1.043
       0.904
       0.928
       1.136
       1.417
       1.628
       1.698
       1.653
       1.568
       1.510
       1.512
       1.559
       1.596
       1.533
       1.278
       0.788
       0.098
      -0.675
      -1.366
      -1.825
      -1.982
      -1.873
      -1.597
      -1.236
      -0.804
      -0.258
       0.435
       1.241
       2.062
       2.776
       3.300
       3.608
       3.719
       3.674
       3.532
       3.360
       3.193
       2.995
       2.658
       2.078
       1.231
       0.181
      -0.988
      -2.223
      -3.495
      -4.750
      -5.865
      -6.685
      -7.105
      -7.148
      -6.944
      -6.633
      -6.248
      -5.693
      -4.829
      -3.608
      -2.149
      -0.678
       0.600
       1.601
       2.370
       2.998
       3.542
       3.987
       4.279
       4.378
       4.289
       4.058
       3.742
       3.380
       2.992
       2.589
       2.177
       1.752
       1.302
       0.818
       0.300
      -0.228
      -0.726
      -1.164
      -1.551
      -1.928
      -2.340
      -2.789
      -3.208
      -3.483
      -3.507
      -3.237
      -2.717
      -2.050
      -1.333
      -0.611
       0.099
       0.751
       1.246
       1.485
       1.454
       1.257
       1.063
       1.005
       1.120
       1.354
       1.625
       1.870
       2.046
       2.101
       1.971
       1.620
       1.085
       0.464
      -0.142
      -0.692
      -1.216
      -1.745
      -2.254
      -2.643
      -2.803
      -2.685
      -2.333
      -1.842
      -1.301
      -0.748
      -0.185
       0.380
       0.902
       1.318
       1.594
       1.758
       1.875
       1.986
       2.069
       2.056
       1.895
       1.592
       1.195
       0.755
       0.273
      -0.291
      -0.959
      -1.669
      -2.268
      -2.596
      -2.594
      -2.367
      -2.098
      -1.889
      -1.653
      -1.185
      -0.341
       0.816
       2.034
       3.019
       3.607
       3.826
       3.820
       3.702
       3.482
       3.090
       2.475
       1.690
       0.897
       0.274
      -0.099
      -0.288
      -0.455
      -0.749
      -1.205
      -1.723
      -2.125
      -2.265
      -2.130
      -1.853
      -1.631
      -1.593
      -1.736
      -1.943
      -2.078
      -2.063
      -1.893
      -1.608
      -1.255
      -0.866
      -0.470
      -0.090
       0.247
       0.514
       0.683
       0.750
       0.763
       0.812
       0.990
       1.313
       1.677
       1.889
       1.788
       1.378
       0.858
       0.488
       0.400
       0.509
       0.588
       0.448
       0.067
      -0.417
      -0.812
      -0.991
      -0.948
      -0.775
      -0.597
      -0.491
      -0.438
      -0.362
      -0.218
      -0.064
      -0.033
      -0.217
      -0.566
      -0.892
      -1.004
      -0.854
      -0.566
      -0.324
      -0.228
      -0.245
      -0.269
      -0.221
      -0.091
       0.086
       0.288
       0.535
       0.850
       1.192
       1.444
       1.481
       1.265
       0.878
       0.455
       0.072
      -0.310
      -0.777
      -1.360
      -1.959
      -2.375
      -2.420
      -2.036
      -1.350
      -0.601
      -0.002
       0.385
       0.647
       0.932
       1.326
       1.785
       2.155
       2.273
       2.103
       1.796
       1.587
       1.610
       1.764
       1.772
       1.402
       0.670
      -0.138
      -0.672
      -0.765
      -0.546
      -0.325
      -0.376
      -0.752
      -1.266
      -1.613
      -1.586
      -1.216
      -0.744
      -0.444
      -0.428
