Origin Time       21/9/2009 8:53:04	 
Lat.              27.3 N	
Long.             91.5 E	
Depth (Km)          8.0
Magnitude         6.2
 Region           BHUTAN                                                           
 Above details taken from IMD 
   
Station Code      GUA
Station Lat.       26.190
Station Long.      91.746
Station Height(m)   55.2
Site Class        C   Vs30 between 200 m/sec to 375 m/sec *  
Record Time       21.09.2009 08:53:14.619
Sampling Rate     200. Hz
 Record Duration  107.280 Sec.
 Direction         Vert. (Up positive)
Max. Acceleration    -12.928 cm/sec**2
     
  * For reference see Site Classification link of website 
     
 Base Line Corrected and Low Pass Filtered (Cut Off at 35 Hz) Time History
 Acceleration data in cm/sec**2
    
[...]
      -5.519
      -5.181
      -4.998
      -5.137
      -5.559
      -5.997
      -6.115
      -5.742
      -5.006
      -4.239
      -3.714
      -3.440
      -3.138
      -2.449
      -1.194
       0.507
       2.345
       4.043
       5.493
       6.705
       7.655
       8.219
       8.254
       7.753
       6.912
       6.070
       5.544
       5.477
       5.776
       6.146
       6.239
       5.826
       4.907
       3.684
       2.411
       1.232
       0.137
      -0.967
      -2.132
      -3.287
      -4.222
      -4.682
      -4.511
      -3.768
      -2.711
      -1.659
      -0.807
      -0.142
       0.474
       1.121
       1.707
       2.046
       2.021
       1.695
       1.253
       0.866
       0.603
       0.477
       0.519
       0.761
       1.153
       1.515
       1.608
       1.285
       0.591
      -0.277
      -1.099
      -1.733
      -2.130
      -2.287
      -2.192
      -1.812
      -1.131
      -0.207
       0.799
       1.656
       2.141
       2.108
       1.541
       0.556
      -0.624
      -1.745
      -2.617
      -3.182
      -3.515
      -3.761
      -4.026
      -4.315
      -4.560
      -4.685
      -4.637
      -4.394
      -3.949
      -3.300
      -2.459
      -1.484
      -0.478
       0.456
       1.251
       1.873
       2.311
       2.575
       2.687
       2.677
       2.560
       2.339
       2.027
       1.703
       1.510
       1.592
       1.985
       2.579
       3.143
       3.435
       3.310
       2.796
       2.084
       1.421
       0.981
       0.778
       0.687
       0.554
       0.327
       0.082
      -0.077
      -0.145
      -0.252
      -0.596
      -1.332
      -2.471
      -3.869
      -5.293
      -6.547
      -7.557
      -8.334
      -8.831
      -8.840
      -8.086
      -6.431
      -4.044
      -1.361
       1.126
       3.108
       4.559
       5.629
       6.437
       6.929
       6.930
       6.340
       5.301
       4.159
       3.257
       2.716
       2.393
       2.040
       1.545
       1.040
       0.790
       0.936
       1.342
       1.684
       1.673
       1.250
       0.584
      -0.085
      -0.643
      -1.146
      -1.729
      -2.458
      -3.263
      -3.949
      -4.273
      -4.045
      -3.217
      -1.922
      -0.450
       0.870
       1.829
       2.413
       2.740
       2.913
       2.924
       2.643
       1.892
       0.609
      -1.028
      -2.628
      -3.804
      -4.399
      -4.531
      -4.407
      -4.124
      -3.643
      -2.952
      -2.199
      -1.650
      -1.492
      -1.642
      -1.749
      -1.434
      -0.601
       0.440
       1.168
       1.197
       0.531
      -0.445
      -1.185
      -1.291
      -0.744
       0.113
       0.813
       1.072
       0.902
       0.516
       0.139
      -0.119
      -0.265
      -0.348
      -0.399
      -0.435
      -0.500
      -0.665
      -1.009
      -1.581
      -2.351
      -3.196
      -3.937
      -4.439
      -4.676
      -4.722
      -4.681
      -4.571
      -4.253
      -3.499
      -2.216
      -0.611
       0.882
       1.849
       2.139
       1.946
       1.684
       1.733
       2.233
       3.093
       4.154
       5.337
       6.645
       8.051
       9.377
      10.294
      10.508
       9.968
       8.929
       7.821
       7.016
       6.610
       6.367
       5.863
       4.762
       3.024
       0.944
      -1.029
      -2.582
      -3.772
      -4.975
      -6.562
      -8.523
     -10.360
     -11.349
     -11.009
      -9.426
      -7.203
      -5.066
      -3.441
      -2.321
      -1.488
      -0.834
      -0.478
      -0.603
      -1.231
      -2.147
      -3.014
      -3.537
      -3.563
      -3.122
      -2.392
      -1.612
      -0.978
      -0.557
      -0.233
       0.237
       1.084
       2.392
       4.027
       5.688
       7.051
       7.943
       8.414
       8.626
       8.652
       8.377
       7.613
       6.333
       4.756
       3.201
       1.847
       0.619
      -0.720
      -2.306
      -3.970
      -5.291
      -5.870
      -5.585
      -4.651
      -3.509
      -2.611
      -2.212
      -2.256
      -2.482
      -2.674
      -2.845
      -3.177
      -3.775
      -4.472
      -4.902
      -4.760
      -3.999
      -2.807
      -1.423
       0.014
       1.440
       2.763
       3.821
       4.463
       4.647
       4.469
       4.108
       3.717
       3.350
       2.978
       2.583
       2.192
       1.862
       1.627
       1.469
       1.304
       1.028
       0.603
       0.087
      -0.457
      -1.064
      -1.861
      -2.941
      -4.244
      -5.550
      -6.602
      -7.284
      -7.669
      -7.907
      -8.073
      -8.085
      -7.736
      -6.805
      -5.252
      -3.311
      -1.394
       0.185
       1.411
       2.529
       3.830
       5.414
       7.124
       8.667
       9.791
      10.400
      10.542
      10.302
       9.716
       8.782
       7.548
       6.168
       4.868
       3.813
       3.019
       2.377
       1.774
       1.185
       0.688
       0.380
       0.275
       0.291
       0.325
       0.301
       0.162
      -0.161
      -0.733
      -1.571
      -2.608
      -3.714
      -4.764
      -5.712
      -6.564
      -7.316
      -7.893
      -8.179
      -8.109
      -7.737
      -7.177
      -6.480
      -5.555
      -4.247
      -2.510
      -0.541
       1.243
       2.405
       2.746
       2.429
       1.879
       1.507
       1.493
       1.773
       2.218
       2.786
       3.510
       4.359
       5.162
       5.669
       5.702
       5.262
       4.525
       3.733
       3.038
       2.422
       1.725
       0.778
      -0.443
      -1.755
      -2.839
      -3.397
      -3.290
      -2.599
      -1.606
      -0.678
      -0.091
       0.116
       0.141
       0.257
       0.614
       1.128
       1.576
       1.799
       1.835
       1.857
       1.999
       2.247
       2.470
       2.539
       2.429
       2.224
       2.034
       1.912
       1.862
       1.891
       2.024
       2.281
       2.622
       2.913
       2.978
       2.709
       2.149
       1.449
       0.761
       0.158
      -0.381
      -0.926
      -1.541
      -2.229
      -2.899
      -3.407
      -3.631
      -3.534
      -3.174
      -2.677
      -2.179
      -1.745
      -1.334
      -0.851
      -0.248
       0.430
       1.070
       1.534
       1.715
       1.560
       1.067
       0.286
      -0.682
      -1.689
      -2.586
      -3.288
      -3.807
      -4.235
      -4.648
      -5.009
      -5.132
      -4.796
      -3.902
      -2.545
      -0.952
       0.664
       2.214
       3.716
       5.183
       6.506
       7.465
       7.860
       7.646
       6.973
       6.097
       5.236
       4.463
       3.686
       2.757
       1.587
       0.202
      -1.296
      -2.798
      -4.229
      -5.516
      -6.526
      -7.066
      -6.976
      -6.261
      -5.153
      -4.020
      -3.196
      -2.846
      -2.947
      -3.374
      -4.007
      -4.784
      -5.647
      -6.410
      -6.710
      -6.152
      -4.566
      -2.145
       0.630
       3.233
       5.355
       7.024
       8.468
       9.848
      11.081
      11.877
      11.937
      11.141
       9.615
       7.655
       5.570
       3.566
       1.731
       0.079
      -1.427
      -2.862
      -4.305
      -5.769
      -7.143
      -8.190
      -8.651
      -8.405
      -7.552
      -6.343
      -4.975
      -3.474
      -1.755
       0.177
       2.098
       3.647
       4.542
       4.757
       4.483
       3.950
       3.270
       2.442
       1.494
       0.622
       0.165
       0.382
       1.208
       2.226
       2.902
       2.906
       2.298
       1.467
       0.875
       0.775
       1.097
       1.589
       2.058
       2.507
       3.046
       3.697
       4.278
       4.470
       4.021
       2.925
       1.447
      -0.026
      -1.221
      -2.133
      -2.997
      -4.086
      -5.498
      -7.053
      -8.379
      -9.141
      -9.278
      -9.056
      -8.866
      -8.912
      -9.048
      -8.920
      -8.278
      -7.168
      -5.835
      -4.473
      -3.090
      -1.556
       0.230
       2.213
       4.188
       5.935
       7.360
       8.492
       9.349
       9.844
       9.811
       9.134
       7.863
       6.206
       4.411
       2.625
       0.895
      -0.695
      -1.909
      -2.445
      -2.152
      -1.195
      -0.002
       0.996
       1.611
       1.923
       2.096
       2.166
       1.964
       1.258
      -0.020
      -1.680
      -3.406
      -4.934
      -6.103
      -6.788
      -6.822
      -6.042
      -4.456
      -2.352
      -0.187
       1.666
       3.073
       4.090
       4.807
       5.230
       5.292
       4.941
       4.179
       3.045
       1.612
       0.030
      -1.443
      -2.511
      -2.953
      -2.747
      -2.119
      -1.454
      -1.121
      -1.300
      -1.926
      -2.802
      -3.758
      -4.708
      -5.609
      -6.390
      -6.943
      -7.169
      -7.046
      -6.665
      -6.160
      -5.593
      -4.875
      -3.827
      -2.370
      -0.681
       0.842
       1.846
       2.293
       2.470
       2.762
       3.381
       4.301
       5.374
       6.482
       7.590
       8.687
       9.719
      10.606
      11.304
      11.816
      12.137
      12.197
      11.878
      11.114
       9.979
       8.665
       7.347
       6.079
       4.796
       3.387
       1.793
       0.037
      -1.807
      -3.664
      -5.468
      -7.110
      -8.394
      -9.087
      -9.077
      -8.536
      -7.894
      -7.611
      -7.873
      -8.472
      -8.931
      -8.807
      -7.951
      -6.554
      -4.973
      -3.509
      -2.275
      -1.212
      -0.186
       0.920
       2.180
       3.618
       5.171
       6.641
       7.708
       8.040
       7.421
       5.847
       3.532
       0.831
      -1.879
      -4.335
      -6.443
      -8.219
      -9.648
     -10.586
     -10.824
     -10.248
      -8.972
      -7.316
      -5.661
      -4.243
      -3.033
      -1.792
      -0.288
       1.492
       3.291
       4.764
       5.697
       6.120
       6.218
       6.175
       6.057
       5.811
       5.360
       4.740
       4.138
       3.791
       3.810
       4.109
       4.527
       4.973
       5.451
       5.977
       6.476
       6.755
       6.601
       5.946
       4.925
       3.746
       2.523
       1.249
      -0.118
      -1.567
      -3.012
      -4.329
      -5.419
      -6.275
      -6.986
      -7.651
      -8.274
      -8.716
      -8.767
      -8.279
      -7.290
      -6.032
      -4.807
      -3.800
      -2.996
      -2.269
      -1.543
      -0.869
      -0.349
      -0.008
       0.242
       0.502
       0.785
       1.023
       1.177
       1.336
       1.689
       2.368
       3.267
       4.009
       4.143
       3.460
       2.188
       0.874
       0.021
      -0.264
      -0.300
      -0.549
      -1.219
      -2.082
      -2.659
      -2.582
      -1.827
      -0.680
       0.499
       1.493
       2.286
       2.955
       3.534
       3.944
       4.033
       3.719
       3.115
       2.508
       2.173
       2.168
       2.265
       2.091
       1.371
       0.137
      -1.226
      -2.187
      -2.438
      -2.125
      -1.694
      -1.516
      -1.634
      -1.848
      -1.971
      -1.980
      -1.983
      -2.095
      -2.366
      -2.769
      -3.240
      -3.728
      -4.208
      -4.648
      -4.979
      -5.100
      -4.943
      -4.542
      -4.030
      -3.555
      -3.152
      -2.701
      -1.987
      -0.838
       0.757
       2.604
       4.386
       5.837
       6.892
       7.670
       8.301
       8.754
       8.823
       8.322
       7.302
       6.072
       4.996
       4.242
       3.666
       2.931
       1.792
       0.344
      -1.016
      -1.891
      -2.190
      -2.177
      -2.288
      -2.854
      -3.902
      -5.129
      -6.085
      -6.452
      -6.177
      -5.399
      -4.285
      -2.976
      -1.625
      -0.406
       0.567
       1.299
       1.869
       2.312
       2.546
       2.444
       1.987
       1.354
       0.860
       0.796
       1.262
       2.102
       2.988
       3.583
       3.682
       3.275
       2.554
       1.814
       1.306
       1.093
       1.031
       0.883
       0.455
      -0.353
      -1.564
      -3.133
      -4.893
      -6.533
      -7.670
      -8.041
      -7.648
      -6.734
      -5.587
      -4.339
      -2.967
      -1.450
       0.113
       1.555
       2.801
       3.921
       5.025
       6.091
       6.885
       7.092
       6.547
       5.409
       4.113
       3.142
       2.794
       3.045
       3.588
       3.998
       3.991
       3.606
       3.188
       3.112
       3.469
       3.966
       4.110
       3.520
       2.165
       0.376
      -1.386
      -2.814
      -3.865
      -4.644
      -5.242
      -5.663
      -5.876
      -5.869
      -5.663
      -5.270
      -4.695
      -3.969
      -3.200
      -2.567
      -2.220
      -2.162
      -2.224
      -2.178
      -1.862
      -1.234
      -0.325
       0.809
       2.103
       3.437
       4.620
       5.470
       5.962
       6.290
       6.743
       7.469
       8.335
       8.999
       9.130
       8.564
       7.331
       5.572
       3.455
       1.124
      -1.308
      -3.745
      -6.075
      -8.184
      -9.999
     -11.478
     -12.527
     -12.928
     -12.411
     -10.836
      -8.337
      -5.361
      -2.544
      -0.445
       0.714
       1.142
       1.305
       1.574
       1.987
       2.284
       2.192
       1.698
       1.097
       0.801
       1.070
       1.866
       2.911
       3.880
       4.589
       5.083
       5.539
       6.063
       6.536
       6.673
       6.218
       5.120
       3.534
       1.723
      -0.042
      -1.558
      -2.721
      -3.522
      -4.006
      -4.232
      -4.274
      -4.231
      -4.222
      -4.339
      -4.579
      -4.824
      -4.883
      -4.616
      -4.076
      -3.553
      -3.429
      -3.893
      -4.743
      -5.455
      -5.514
      -4.763
      -3.461
      -1.999
      -0.565
       0.931
       2.638
       4.496
       6.161
       7.215
       7.472
       7.116
       6.556
       6.121
       5.859
       5.576
       5.034
       4.141
       3.017
       1.919
       1.098
       0.668
       0.568
       0.613
       0.586
       0.301
      -0.336
      -1.303
      -2.467
      -3.652
      -4.755
      -5.811
      -6.944
      -8.197
      -9.394
     -10.173
     -10.205
      -9.415
      -8.020
      -6.355
      -4.629
      -2.808
      -0.735
       1.638
       4.103
       6.258
       7.700
       8.247
       8.071
       7.612
       7.284
       7.186
       7.045
       6.449
       5.163
       3.318
       1.362
      -0.159
      -0.879
      -0.795
      -0.244
       0.342
       0.721
       0.948
       1.241
       1.723
       2.256
       2.522
       2.281
       1.582
       0.718
      -0.042
      -0.684
      -1.443
      -2.551
      -3.945
      -5.209
      -5.812
      -5.482
      -4.408
      -3.117
      -2.119
      -1.598
      -1.399
      -1.261
      -1.054
      -0.829
      -0.689
      -0.667
      -0.696
      -0.656
      -0.420
       0.114
       0.992
       2.174
       3.542
       4.943
       6.202
       7.113
       7.485
       7.290
       6.720
       6.061
       5.512
       5.113
       4.782
       4.381
       3.768
       2.861
       1.711
       0.552
      -0.289
      -0.627
      -0.582
      -0.499
      -0.671
      -1.139
      -1.749
      -2.362
      -2.997
      -3.757
      -4.638
      -5.428
      -5.779
      -5.439
      -4.456
      -3.187
      -2.063
      -1.286
      -0.711
      -0.038
       0.880
       1.884
       2.635
       2.875
       2.602
       2.053
       1.491
       1.000
       0.454
      -0.349
      -1.523
      -3.011
      -4.614
      -6.099
      -7.289
      -8.089
      -8.467
      -8.424
      -7.983
      -7.189
      -6.131
      -4.973
      -3.961
      -3.350
      -3.246
      -3.493
      -3.723
      -3.563
      -2.830
      -1.621
      -0.251
       0.949
       1.845
       2.556
       3.333
       4.341
       5.546
       6.741
       7.716
       8.405
       8.874
       9.142
       9.058
       8.388
       7.024
       5.097
       2.893
       0.700
      -1.283
      -2.922
      -4.086
      -4.645
      -4.521
      -3.742
      -2.486
      -1.076
       0.093
       0.699
       0.644
       0.098
      -0.605
      -1.181
      -1.576
      -1.962
      -2.533
      -3.271
      -3.897
      -4.051
      -3.571
      -2.639
      -1.662
      -0.975
      -0.613
      -0.333
       0.126
       0.799
       1.463
       1.823
       1.753
       1.443
       1.331
       1.851
       3.166
       5.050
       6.985
       8.409
       8.949
       8.559
       7.502
       6.173
       4.861
       3.608
       2.226
       0.473
      -1.699
      -3.996
      -5.935
      -7.207
      -7.914
      -8.443
      -9.117
      -9.941
     -10.625
     -10.821
     -10.403
      -9.557
      -8.621
      -7.806
      -7.055
      -6.150
      -4.918
      -3.364
      -1.668
      -0.087
       1.158
       1.975
       2.406
       2.598
       2.757
       3.118
       3.865
       5.006
       6.308
       7.387
       7.904
       7.747
       7.074
       6.212
       5.482
       5.027
       4.736
       4.343
       3.682
       2.879
       2.294
       2.226
       2.609
       2.995
       2.872
       2.068
       0.875
      -0.182
      -0.721
      -0.701
      -0.354
       0.068
       0.510
       1.113
       1.977
       2.931
       3.530
       3.314
       2.109
       0.135
      -2.144
      -4.309
      -6.186
      -7.806
      -9.176
     -10.132
     -10.446
     -10.049
      -9.115
      -7.949
      -6.794
      -5.690
      -4.493
      -3.041
      -1.352
       0.296
       1.522
       2.112
       2.163
       1.984
       1.842
       1.811
       1.805
       1.725
       1.556
       1.359
       1.205
       1.135
       1.147
       1.228
       1.391
       1.689
       2.174
       2.872
       3.775
       4.827
       5.883
       6.706
       7.087
       6.997
       6.645
       6.340
       6.243
       6.234
       6.010
       5.338
       4.193
       2.702
       1.008
      -0.780
      -2.527
      -4.021
      -5.046
      -5.539
      -5.669
      -5.789
      -6.232
      -7.091
      -8.105
      -8.750
      -8.509
      -7.180
      -5.035
      -2.692
      -0.738
       0.622
       1.633
       2.702
       3.983
       5.183
       5.760
       5.333
       3.980
       2.175
       0.470
      -0.805
      -1.629
      -2.173
      -2.579
      -2.809
      -2.688
      -2.087
      -1.081
       0.053
       1.009
       1.649
       2.014
       2.190
       2.164
       1.816
       1.057
      -0.055
      -1.314
      -2.481
      -3.399
      -4.030
      -4.423
      -4.652
      -4.766
      -4.764
      -4.560
      -3.983
      -2.869
      -1.182
       0.924
       3.151
       5.158
       6.680
