Origin Time       29/12/2009 09:01:42 UTC
Lat.              24.5°N	
Long.             94.8°E	
Depth (Km)         80.0
Magnitude         5.5
 Region           MYANMAR-INDIA(MANIPUR)-BORDER                                    
 Above details taken from IMD 
    
Station Code      GUA
Station Lat.       26.190  N
Station Long.      91.746  E
Station Height(m)   55.2
Site Class        C   Vs30 between 200 m/sec to 375 m/sec *  
Record Time       29.12.2009 09:02:44.979 UTC
Sampling Rate     200. Hz
 Record Duration   80.765 Sec.
 Direction         N-S (N positive)
Max. Acceleration     -5.455 cm/sec**2
     
  * For reference see Site Classification link of website 
     
 Base Line Corrected and Low Pass Filtered (Cut Off at 35 Hz) Time History
 Acceleration data in cm/sec**2
    
[...]
       0.179
       0.241
       0.275
       0.253
       0.177
       0.088
       0.040
       0.064
       0.142
       0.221
       0.261
       0.250
       0.205
       0.150
       0.104
       0.080
       0.085
       0.114
       0.157
       0.198
       0.223
       0.220
       0.182
       0.105
      -0.005
      -0.123
      -0.214
      -0.251
      -0.239
      -0.202
      -0.165
      -0.143
      -0.135
      -0.133
      -0.126
      -0.111
      -0.101
      -0.121
      -0.183
      -0.261
      -0.301
      -0.254
      -0.112
       0.078
       0.252
       0.374
       0.444
       0.478
       0.477
       0.432
       0.344
       0.228
       0.104
      -0.028
      -0.180
      -0.352
      -0.521
      -0.649
      -0.703
      -0.676
      -0.585
      -0.455
      -0.312
      -0.186
      -0.114
      -0.119
      -0.190
      -0.279
      -0.325
      -0.293
      -0.190
      -0.062
       0.035
       0.066
       0.043
       0.020
       0.050
       0.145
       0.266
       0.340
       0.315
       0.186
       0.005
      -0.152
      -0.220
      -0.178
      -0.041
       0.143
       0.311
       0.407
       0.411
       0.352
       0.284
       0.250
       0.250
       0.251
       0.210
       0.113
      -0.024
      -0.163
      -0.268
      -0.317
      -0.305
      -0.248
      -0.173
      -0.098
      -0.014
       0.099
       0.239
       0.354
       0.381
       0.292
       0.128
      -0.024
      -0.092
      -0.068
      -0.013
      -0.006
      -0.089
      -0.238
      -0.383
      -0.458
      -0.441
      -0.367
      -0.302
      -0.310
      -0.403
      -0.537
      -0.629
      -0.606
      -0.441
      -0.173
       0.112
       0.320
       0.401
       0.357
       0.226
       0.061
      -0.088
      -0.181
      -0.197
      -0.148
      -0.071
      -0.007
       0.024
       0.031
       0.049
       0.108
       0.208
       0.314
       0.375
       0.363
       0.298
       0.227
       0.188
       0.182
       0.178
       0.151
       0.103
       0.064
       0.050
       0.044
       0.020
      -0.025
      -0.062
      -0.055
      -0.001
       0.082
       0.168
       0.242
       0.291
       0.293
       0.235
       0.139
       0.069
       0.086
       0.194
       0.336
       0.435
       0.461
       0.436
       0.396
       0.355
       0.305
       0.239
       0.166
       0.094
       0.021
      -0.060
      -0.143
      -0.197
      -0.186
      -0.105
       0.002
       0.066
       0.040
      -0.069
      -0.212
      -0.334
      -0.412
      -0.450
      -0.464
      -0.445
      -0.367
      -0.210
      -0.005
       0.175
       0.252
       0.203
       0.079
      -0.030
      -0.063
      -0.021
       0.039
       0.054
       0.001
      -0.093
      -0.187
      -0.245
      -0.254
      -0.219
      -0.158
      -0.098
      -0.065
      -0.075
      -0.128
      -0.195
      -0.239
      -0.240
      -0.222
      -0.243
      -0.350
      -0.540
      -0.756
      -0.913
      -0.939
      -0.814
      -0.572
      -0.282
      -0.009
       0.201
       0.325
       0.359
       0.318
       0.231
       0.133
       0.045
      -0.021
      -0.073
      -0.131
      -0.219
      -0.341
      -0.474
      -0.582
      -0.647
      -0.678
      -0.699
      -0.724
      -0.738
      -0.717
      -0.645
      -0.521
      -0.347
      -0.129
       0.111
       0.323
       0.449
       0.465
       0.407
       0.344
       0.333
       0.385
       0.473
       0.559
       0.625
       0.684
       0.752
       0.814
       0.828
       0.760
       0.629
       0.508
       0.472
       0.558
       0.737
       0.949
       1.134
       1.264
       1.343
       1.390
       1.407
       1.381
       1.289
       1.116
       0.872
       0.598
       0.366
       0.253
       0.307
       0.517
       0.806
       1.060
       1.183
       1.146
       0.997
       0.818
       0.667
       0.551
       0.441
       0.304
       0.128
      -0.078
      -0.295
      -0.504
      -0.697
      -0.875
      -1.053
      -1.243
      -1.436
      -1.589
      -1.643
      -1.571
      -1.407
      -1.232
      -1.124
      -1.122
      -1.223
      -1.396
      -1.602
      -1.804
      -1.972
      -2.081
      -2.103
      -2.012
      -1.797
      -1.474
      -1.094
      -0.736
      -0.486
      -0.399
      -0.470
      -0.649
      -0.877
      -1.120
      -1.371
      -1.617
      -1.814
      -1.890
      -1.778
      -1.456
      -0.966
      -0.380
       0.234
       0.843
       1.436
       2.003
       2.517
       2.939
       3.234
       3.395
       3.440
       3.387
       3.238
       2.994
       2.674
       2.334
       2.033
       1.803
       1.633
       1.491
       1.346
       1.186
       1.010
       0.812
       0.589
       0.357
       0.147
      -0.011
      -0.115
      -0.206
      -0.331
      -0.523
      -0.773
      -1.036
      -1.255
      -1.395
      -1.463
      -1.483
      -1.474
      -1.424
      -1.306
      -1.105
      -0.839
      -0.561
      -0.334
      -0.183
      -0.085
       0.007
       0.123
       0.263
       0.412
       0.564
       0.703
       0.791
       0.762
       0.564
       0.198
      -0.272
      -0.739
      -1.106
      -1.314
      -1.362
      -1.286
      -1.150
      -1.023
      -0.960
      -0.974
      -1.038
      -1.104
      -1.137
      -1.132
      -1.117
      -1.133
      -1.213
      -1.357
      -1.525
      -1.633
      -1.581
      -1.281
      -0.713
       0.055
       0.882
       1.625
       2.210
       2.660
       3.071
       3.533
       4.049
       4.511
       4.744
       4.603
       4.050
       3.163
       2.083
       0.948
      -0.155
      -1.192
      -2.153
      -3.011
      -3.706
      -4.170
      -4.353
      -4.251
      -3.896
      -3.347
      -2.674
      -1.941
      -1.197
      -0.477
       0.205
       0.847
       1.450
       2.001
       2.461
       2.765
       2.843
       2.644
       2.175
       1.528
       0.870
       0.378
       0.161
       0.209
       0.410
       0.610
       0.704
       0.670
       0.560
       0.429
       0.276
       0.045
      -0.315
      -0.792
      -1.286
      -1.652
      -1.777
      -1.647
      -1.356
      -1.045
      -0.833
      -0.769
      -0.828
      -0.944
      -1.039
      -1.058
      -0.991
      -0.860
      -0.696
      -0.510
      -0.283
       0.011
       0.366
       0.720
       0.976
       1.050
       0.939
       0.719
       0.501
       0.352
       0.247
       0.095
      -0.180
      -0.562
      -0.937
      -1.169
      -1.196
      -1.060
      -0.858
      -0.675
      -0.544
      -0.462
      -0.414
      -0.393
      -0.402
      -0.451
      -0.546
      -0.686
      -0.857
      -1.035
      -1.191
      -1.302
      -1.346
      -1.299
      -1.128
      -0.810
      -0.359
       0.170
       0.699
       1.171
       1.579
       1.967
       2.386
       2.836
       3.240
       3.500
       3.559
       3.443
       3.215
       2.906
       2.483
       1.878
       1.065
       0.127
      -0.743
      -1.331
      -1.508
      -1.306
      -0.899
      -0.505
      -0.282
      -0.263
      -0.366
      -0.467
      -0.476
      -0.365
      -0.160
       0.091
       0.336
       0.538
       0.685
       0.814
       0.999
       1.308
       1.746
       2.226
       2.617
       2.817
       2.812
       2.665
       2.450
       2.205
       1.922
       1.566
       1.107
       0.533
      -0.127
      -0.802
      -1.403
      -1.866
      -2.204
      -2.507
      -2.891
      -3.415
      -4.023
      -4.570
      -4.901
      -4.927
      -4.648
      -4.135
      -3.492
      -2.831
      -2.260
      -1.864
      -1.678
      -1.675
      -1.780
      -1.901
      -1.965
      -1.920
      -1.736
      -1.396
      -0.914
      -0.347
       0.194
       0.588
       0.762
       0.748
       0.677
       0.713
       0.961
       1.420
       2.004
       2.602
       3.126
       3.530
       3.822
       4.038
       4.201
       4.273
       4.146
       3.687
       2.836
       1.683
       0.452
      -0.602
      -1.329
      -1.734
      -1.932
      -2.039
      -2.099
      -2.078
      -1.916
      -1.582
      -1.107
      -0.577
      -0.096
       0.269
       0.496
       0.596
       0.586
       0.484
       0.333
       0.210
       0.215
       0.415
       0.794
       1.253
       1.663
       1.928
       2.022
       1.978
       1.864
       1.759
       1.732
       1.816
       1.983
       2.142
       2.172
       1.986
       1.588
       1.060
       0.499
      -0.046
      -0.582
      -1.116
      -1.614
      -1.994
      -2.172
      -2.111
      -1.844
      -1.457
      -1.049
      -0.691
      -0.417
      -0.233
      -0.131
      -0.092
      -0.091
      -0.120
      -0.209
      -0.423
      -0.818
      -1.384
      -2.032
      -2.635
      -3.110
      -3.446
      -3.665
      -3.743
      -3.590
      -3.106
      -2.276
      -1.221
      -0.153
       0.726
       1.339
       1.744
       2.061
       2.344
       2.534
       2.508
       2.199
       1.673
       1.099
       0.639
       0.337
       0.101
      -0.208
      -0.667
      -1.236
      -1.795
      -2.226
      -2.465
      -2.509
      -2.382
      -2.094
      -1.643
      -1.058
      -0.428
       0.120
       0.482
       0.615
       0.538
       0.286
      -0.105
      -0.577
      -1.033
      -1.340
      -1.380
      -1.117
      -0.615
      -0.002
       0.611
       1.176
       1.702
       2.200
       2.634
       2.915
       2.950
       2.702
       2.228
       1.663
       1.160
       0.834
       0.736
       0.838
       1.048
       1.244
       1.328
       1.259
       1.066
       0.828
       0.647
       0.610
       0.760
       1.090
       1.555
       2.090
       2.631
       3.104
       3.421
       3.485
       3.212
       2.575
       1.622
       0.470
      -0.726
      -1.794
      -2.571
      -2.934
      -2.854
      -2.420
      -1.818
      -1.242
      -0.810
      -0.531
      -0.347
      -0.217
      -0.153
      -0.214
      -0.449
      -0.872
      -1.456
      -2.135
      -2.787
      -3.254
      -3.406
      -3.238
      -2.896
      -2.612
      -2.562
      -2.770
      -3.113
      -3.411
      -3.536
      -3.453
      -3.186
      -2.759
      -2.180
      -1.453
      -0.614
       0.254
       1.033
       1.601
       1.880
       1.865
       1.629
       1.297
       0.987
       0.754
       0.554
       0.293
      -0.093
      -0.559
      -0.956
      -1.112
      -0.927
      -0.428
       0.235
       0.867
       1.303
       1.488
       1.483
       1.431
       1.461
       1.620
       1.848
       2.035
       2.084
       1.958
       1.662
       1.232
       0.739
       0.300
       0.044
       0.054
       0.328
       0.806
       1.416
       2.098
       2.780
       3.346
       3.670
       3.690
       3.455
       3.087
       2.685
       2.273
       1.810
       1.252
       0.595
      -0.123
      -0.826
      -1.425
      -1.838
      -2.035
      -2.046
      -1.946
      -1.807
      -1.664
      -1.512
      -1.335
      -1.122
      -0.889
      -0.670
      -0.505
      -0.423
      -0.423
      -0.466
      -0.488
      -0.459
      -0.431
      -0.524
      -0.862
      -1.496
      -2.362
      -3.282
      -3.993
      -4.217
      -3.775
      -2.693
      -1.223
       0.268
       1.476
       2.273
       2.695
       2.807
       2.607
       2.045
       1.134
       0.024
      -1.031
      -1.787
      -2.124
      -2.087
      -1.836
      -1.543
      -1.282
      -1.008
      -0.619
      -0.055
       0.634
       1.318
       1.872
       2.248
       2.474
       2.603
       2.674
       2.725
       2.804
       2.960
       3.176
       3.350
       3.328
       2.986
       2.293
       1.330
       0.261
      -0.725
      -1.485
      -1.954
      -2.148
      -2.135
      -2.007
      -1.847
      -1.706
      -1.609
      -1.569
      -1.589
      -1.648
      -1.687
      -1.628
      -1.427
      -1.112
      -0.785
      -0.576
      -0.561
      -0.717
      -0.944
      -1.125
      -1.190
      -1.121
      -0.939
      -0.688
      -0.421
      -0.173
       0.059
       0.317
       0.641
       1.024
       1.399
       1.674
       1.778
       1.694
       1.451
       1.091
       0.633
       0.066
      -0.623
      -1.401
      -2.146
      -2.672
      -2.804
      -2.468
      -1.745
      -0.841
      -0.003
       0.585
       0.873
       0.958
       1.021
       1.226
       1.636
       2.190
       2.744
       3.148
       3.305
       3.193
       2.855
       2.366
       1.813
       1.275
       0.786
       0.313
      -0.225
      -0.880
      -1.597
      -2.207
      -2.536
      -2.520
      -2.233
      -1.806
      -1.313
      -0.756
      -0.151
       0.377
       0.626
       0.467
      -0.016
      -0.519
      -0.675
      -0.241
       0.780
       2.144
       3.472
       4.386
       4.649
       4.244
       3.382
       2.400
       1.613
       1.170
       1.026
       1.017
       0.983
       0.827
       0.500
      -0.041
      -0.833
      -1.868
      -3.042
      -4.165
      -5.020
      -5.455
      -5.446
      -5.111
      -4.651
      -4.268
      -4.072
      -4.039
      -4.042
      -3.943
      -3.679
      -3.274
      -2.776
      -2.197
      -1.518
      -0.739
       0.072
       0.792
       1.314
       1.617
       1.776
       1.894
       2.018
       2.121
       2.136
       2.024
       1.796
       1.501
       1.202
       0.969
       0.889
       1.029
       1.383
       1.821
       2.121
       2.097
       1.723
       1.162
       0.664
       0.420
       0.488
       0.799
       1.215
       1.566
       1.676
       1.402
       0.712
      -0.250
      -1.204
      -1.871
      -2.126
      -2.046
      -1.820
      -1.607
      -1.440
      -1.244
      -0.927
      -0.468
       0.060
       0.543
       0.922
       1.229
       1.549
       1.937
       2.354
       2.683
       2.808
       2.704
       2.452
       2.188
       2.002
       1.898
       1.816
       1.698
       1.531
       1.332
       1.109
       0.844
       0.505
       0.084
      -0.385
      -0.847
      -1.246
      -1.548
      -1.725
      -1.755
      -1.629
      -1.356
      -0.951
      -0.434
       0.168
       0.792
       1.324
       1.599
       1.450
       0.788
      -0.329
      -1.690
      -3.002
      -4.001
      -4.544
      -4.629
      -4.350
      -3.830
      -3.180
      -2.498
      -1.891
      -1.466
      -1.294
      -1.367
      -1.591
      -1.828
      -1.963
      -1.940
      -1.769
      -1.478
      -1.077
      -0.572
      -0.018
       0.451
       0.683
       0.624
       0.385
       0.208
       0.328
       0.847
       1.676
       2.606
       3.424
       3.998
       4.304
       4.396
       4.370
       4.318
       4.298
       4.302
       4.258
       4.044
       3.524
       2.614
       1.348
      -0.088
      -1.396
      -2.280
      -2.583
      -2.368
      -1.888
      -1.446
      -1.231
      -1.244
      -1.362
      -1.471
      -1.541
      -1.605
      -1.686
      -1.761
      -1.770
      -1.652
      -1.374
      -0.949
      -0.452
       0.004
       0.335
       0.558
       0.785
       1.119
       1.509
       1.730
       1.523
       0.808
      -0.218
      -1.190
      -1.806
      -1.995
      -1.911
      -1.768
      -1.682
      -1.621
      -1.489
      -1.250
      -0.957
      -0.706
      -0.552
      -0.471
      -0.372
      -0.125
       0.387
       1.208
       2.249
       3.285
       4.025
       4.248
       3.913
       3.189
       2.374
       1.763
       1.538
       1.715
       2.152
       2.623
       2.932
       2.990
       2.822
       2.484
       1.988
       1.297
       0.389
      -0.671
      -1.725
      -2.585
      -3.138
      -3.394
      -3.461
      -3.474
      -3.521
      -3.621
      -3.732
      -3.789
      -3.746
      -3.601
      -3.389
      -3.147
      -2.899
      -2.646
      -2.374
      -2.050
      -1.633
      -1.085
      -0.394
       0.423
       1.307
       2.155
       2.837
       3.227
       3.256
       2.948
       2.431
       1.905
       1.566
       1.517
       1.720
       2.006
       2.161
       2.022
       1.554
       0.853
       0.081
      -0.618
      -1.178
      -1.612
      -1.979
      -2.340
      -2.704
      -3.028
      -3.250
      -3.352
      -3.366
      -3.329
      -3.227
      -2.979
      -2.485
      -1.691
      -0.640
       0.519
       1.571
       2.311
       2.621
       2.521
       2.169
       1.814
       1.704
       1.999
       2.693
       3.595
       4.405
       4.850
       4.818
       4.405
       3.829
       3.289
       2.848
       2.437
       1.937
       1.296
       0.556
      -0.188
      -0.874
      -1.505
      -2.105
      -2.644
      -3.025
      -3.149
      -3.007
      -2.710
      -2.454
      -2.421
      -2.692
      -3.192
      -3.719
      -4.043
      -4.021
      -3.650
      -3.035
      -2.304
      -1.544
      -0.798
      -0.113
       0.423
       0.700
       0.661
       0.376
       0.038
      -0.114
       0.092
       0.671
       1.470
       2.247
       2.794
       3.025
       2.986
       2.776
       2.471
       2.102
       1.679
       1.231
       0.808
       0.452
       0.169
      -0.066
      -0.267
      -0.401
      -0.391
      -0.169
       0.263
       0.795
       1.255
       1.490
       1.460
       1.258
       1.046
       0.943
       0.967
       1.051
       1.113
       1.123
       1.103
       1.082
       1.030
       0.853
       0.447
      -0.214
      -1.027
      -1.789
      -2.270
      -2.322
      -1.962
      -1.394
      -0.927
      -0.828
      -1.174
      -1.822
      -2.497
      -2.943
      -3.050
      -2.868
      -2.529
      -2.144
      -1.753
      -1.349
      -0.921
      -0.478
      -0.055
       0.291
       0.480
       0.423
       0.096
      -0.400
      -0.838
      -0.972
      -0.696
      -0.116
       0.528
       1.044
       1.402
       1.723
       2.144
       2.695
       3.253
       3.602
       3.561
       3.094
       2.349
       1.568
       0.952
       0.554
       0.283
      -0.009
      -0.423
      -0.951
      -1.480
      -1.854
      -1.946
      -1.728
      -1.290
      -0.796
      -0.387
      -0.109
       0.102
       0.346
       0.678
       1.037
       1.272
       1.212
       0.783
       0.066
      -0.735
      -1.405
      -1.842
      -2.093
      -2.283
      -2.497
      -2.694
      -2.729
      -2.454
      -1.825
      -0.938
       0.019
       0.866
       1.498
       1.913
       2.197
       2.472
       2.838
       3.310
       3.799
       4.130
       4.127
       3.715
       2.971
       2.095
       1.311
       0.744
       0.359
      -0.007
      -0.529
