Origin Time       12/3/2010 23:19:54	
Lat.              23.0 N	
Long.             94.5 E	
Depth (Km)         96.0
Magnitude         5.6
 Region           MYANMAR                                                          
 Above details taken from IMD 
   
Station Code      GUA
Station Lat.       26.190
Station Long.      91.746
Station Height(m)   55.2
Site Class        C   Vs30 between 200 m/sec to 375 m/sec *  
Record Time       12.03.2010 23:21:10.009
Sampling Rate     200. Hz
 Record Duration   91.615 Sec.
 Direction         Vert. (Up positive)
Max. Acceleration      4.711 cm/sec**2
     
  * For reference see Site Classification link of website 
     
 Base Line Corrected and Low Pass Filtered (Cut Off at 35 Hz) Time History
 Acceleration data in cm/sec**2
    
[...]
       0.264
       0.387
       0.439
       0.368
       0.208
       0.042
      -0.063
      -0.110
      -0.156
      -0.247
      -0.380
      -0.502
      -0.558
      -0.522
      -0.406
      -0.246
      -0.089
       0.027
       0.084
       0.091
       0.075
       0.062
       0.065
       0.076
       0.076
       0.057
       0.039
       0.065
       0.166
       0.327
       0.482
       0.549
       0.479
       0.297
       0.080
      -0.087
      -0.167
      -0.181
      -0.170
      -0.161
      -0.148
      -0.116
      -0.057
       0.017
       0.081
       0.113
       0.108
       0.080
       0.054
       0.048
       0.057
       0.054
       0.003
      -0.101
      -0.218
      -0.288
      -0.276
      -0.205
      -0.138
      -0.120
      -0.146
      -0.162
      -0.108
       0.039
       0.244
       0.426
       0.499
       0.418
       0.210
      -0.037
      -0.210
      -0.241
      -0.143
       0.010
       0.141
       0.213
       0.230
       0.196
       0.103
      -0.051
      -0.226
      -0.343
      -0.327
      -0.170
       0.055
       0.230
       0.273
       0.182
       0.024
      -0.124
      -0.219
      -0.260
      -0.273
      -0.281
      -0.296
      -0.305
      -0.283
      -0.206
      -0.071
       0.091
       0.224
       0.280
       0.257
       0.205
       0.187
       0.232
       0.315
       0.375
       0.371
       0.309
       0.228
       0.164
       0.122
       0.079
       0.000
      -0.131
      -0.297
      -0.454
      -0.551
      -0.554
      -0.456
      -0.287
      -0.102
       0.044
       0.127
       0.166
       0.201
       0.255
       0.302
       0.290
       0.180
      -0.004
      -0.182
      -0.265
      -0.219
      -0.091
       0.021
       0.039
      -0.035
      -0.125
      -0.137
      -0.033
       0.139
       0.280
       0.314
       0.246
       0.155
       0.125
       0.177
       0.247
       0.244
       0.127
      -0.057
      -0.214
      -0.274
      -0.238
      -0.158
      -0.086
      -0.048
      -0.037
      -0.050
      -0.082
      -0.120
      -0.133
      -0.093
      -0.005
       0.089
       0.139
       0.125
       0.066
       0.003
      -0.038
      -0.063
      -0.110
      -0.216
      -0.376
      -0.526
      -0.581
      -0.493
      -0.290
      -0.057
       0.134
       0.272
       0.402
       0.568
       0.747
       0.841
       0.748
       0.455
       0.077
      -0.200
      -0.251
      -0.100
       0.103
       0.196
       0.123
      -0.049
      -0.192
      -0.231
      -0.183
      -0.125
      -0.113
      -0.136
      -0.136
      -0.078
       0.012
       0.053
      -0.029
      -0.242
      -0.514
      -0.720
      -0.749
      -0.568
      -0.244
       0.081
       0.276
       0.302
       0.238
       0.214
       0.309
       0.484
       0.622
       0.619
       0.453
       0.190
      -0.070
      -0.247
      -0.312
      -0.285
      -0.211
      -0.135
      -0.084
      -0.057
      -0.034
       0.004
       0.052
       0.087
       0.081
       0.038
      -0.013
      -0.045
      -0.064
      -0.109
      -0.204
      -0.329
      -0.416
      -0.405
      -0.290
      -0.123
       0.019
       0.081
       0.065
       0.020
       0.010
       0.075
       0.207
       0.368
       0.504
       0.579
       0.573
       0.486
       0.335
       0.158
      -0.002
      -0.112
      -0.162
      -0.168
      -0.152
      -0.126
      -0.087
      -0.036
       0.011
       0.020
      -0.041
      -0.173
      -0.332
      -0.448
      -0.471
      -0.409
      -0.314
      -0.234
      -0.175
      -0.102
       0.014
       0.152
       0.246
       0.237
       0.130
       0.005
      -0.038
       0.027
       0.134
       0.169
       0.075
      -0.103
      -0.247
      -0.262
      -0.137
       0.052
       0.204
       0.259
       0.218
       0.134
       0.072
       0.083
       0.182
       0.329
       0.443
       0.453
       0.349
       0.194
       0.072
       0.016
      -0.012
      -0.083
      -0.233
      -0.421
      -0.548
      -0.536
      -0.397
      -0.235
      -0.164
      -0.213
      -0.293
      -0.270
      -0.085
       0.187
       0.378
       0.364
       0.162
      -0.087
      -0.229
      -0.207
      -0.071
       0.087
       0.213
       0.306
       0.389
       0.461
       0.491
       0.444
       0.317
       0.146
      -0.017
      -0.138
      -0.212
      -0.249
      -0.256
      -0.239
      -0.218
      -0.214
      -0.230
      -0.251
      -0.252
      -0.227
      -0.195
      -0.172
      -0.148
      -0.084
       0.059
       0.265
       0.465
       0.580
       0.578
       0.500
       0.424
       0.397
       0.398
       0.348
       0.176
      -0.125
      -0.475
      -0.749
      -0.843
      -0.729
      -0.473
      -0.190
       0.010
       0.087
       0.073
       0.039
       0.033
       0.044
       0.024
      -0.068
      -0.226
      -0.402
      -0.527
      -0.550
      -0.451
      -0.246
       0.021
       0.295
       0.532
       0.720
       0.873
       1.002
       1.082
       1.058
       0.884
       0.570
       0.187
      -0.174
      -0.438
      -0.575
      -0.601
      -0.554
      -0.485
      -0.430
      -0.405
      -0.407
      -0.427
      -0.466
      -0.533
      -0.625
      -0.708
      -0.713
      -0.579
      -0.295
       0.072
       0.417
       0.649
       0.738
       0.724
       0.690
       0.713
       0.811
       0.937
       0.994
       0.893
       0.600
       0.185
      -0.202
      -0.415
      -0.415
      -0.295
      -0.213
      -0.261
      -0.405
      -0.530
      -0.544
      -0.451
      -0.329
      -0.250
      -0.223
      -0.191
      -0.086
       0.113
       0.355
       0.542
       0.582
       0.443
       0.192
      -0.041
      -0.136
      -0.067
       0.075
       0.141
       0.028
      -0.234
      -0.491
      -0.560
      -0.366
      -0.003
       0.324
       0.451
       0.362
       0.181
       0.065
       0.074
       0.132
       0.082
      -0.184
      -0.628
      -1.071
      -1.293
      -1.185
      -0.815
      -0.382
      -0.079
       0.030
       0.028
       0.060
       0.217
       0.474
       0.727
       0.876
       0.888
       0.800
       0.673
       0.537
       0.388
       0.203
      -0.014
      -0.225
      -0.381
      -0.456
      -0.474
      -0.503
      -0.612
      -0.824
      -1.079
      -1.256
      -1.236
      -0.983
      -0.565
      -0.114
       0.244
       0.451
       0.532
       0.576
       0.669
       0.843
       1.056
       1.221
       1.264
       1.168
       0.981
       0.781
       0.618
       0.476
       0.304
       0.083
      -0.132
      -0.252
      -0.228
      -0.115
      -0.041
      -0.116
      -0.346
      -0.617
      -0.774
      -0.726
      -0.498
      -0.207
      -0.007
      -0.013
      -0.251
      -0.637
      -1.004
      -1.177
      -1.061
      -0.691
      -0.224
       0.151
       0.321
       0.314
       0.275
       0.368
       0.667
       1.102
       1.494
       1.659
       1.519
       1.142
       0.687
       0.290
      -0.017
      -0.289
      -0.580
      -0.867
      -1.052
      -1.036
      -0.818
      -0.517
      -0.299
      -0.257
      -0.335
      -0.376
      -0.253
       0.025
       0.317
       0.464
       0.414
       0.257
       0.149
       0.184
       0.326
       0.456
       0.484
       0.429
       0.374
       0.365
       0.346
       0.221
      -0.035
      -0.303
      -0.387
      -0.163
       0.303
       0.781
       1.020
       0.915
       0.565
       0.193
      -0.001
       0.035
       0.186
       0.263
       0.152
      -0.103
      -0.356
      -0.485
      -0.493
      -0.489
      -0.586
      -0.812
      -1.092
      -1.305
      -1.363
      -1.255
      -1.030
      -0.756
      -0.479
      -0.216
       0.034
       0.272
       0.494
       0.690
       0.847
       0.948
       0.974
       0.909
       0.742
       0.476
       0.124
      -0.267
      -0.608
      -0.796
      -0.769
      -0.561
      -0.287
      -0.074
       0.026
       0.052
       0.077
       0.146
       0.232
       0.278
       0.250
       0.167
       0.080
       0.017
      -0.037
      -0.123
      -0.255
      -0.405
      -0.534
      -0.634
      -0.739
      -0.887
      -1.076
      -1.259
      -1.377
      -1.394
      -1.310
      -1.140
      -0.889
      -0.536
      -0.052
       0.549
       1.191
       1.757
       2.153
       2.379
       2.508
       2.608
       2.652
       2.528
       2.147
       1.560
       0.963
       0.559
       0.393
       0.305
       0.053
      -0.490
      -1.222
      -1.876
      -2.217
      -2.206
      -2.015
      -1.881
      -1.938
      -2.143
      -2.330
      -2.326
      -2.040
      -1.507
      -0.853
      -0.239
       0.215
       0.482
       0.630
       0.776
       1.007
       1.318
       1.610
       1.753
       1.684
       1.465
       1.259
       1.219
       1.371
       1.595
       1.711
       1.609
       1.309
       0.911
       0.506
       0.122
      -0.246
      -0.590
      -0.854
      -0.962
      -0.862
      -0.579
      -0.243
      -0.054
      -0.178
      -0.632
      -1.248
      -1.762
      -1.972
      -1.842
      -1.482
      -1.046
      -0.639
      -0.297
      -0.012
       0.247
       0.525
       0.855
       1.230
       1.599
       1.880
       2.004
       1.941
       1.707
       1.345
       0.893
       0.366
      -0.210
      -0.763
      -1.166
      -1.309
      -1.180
      -0.892
      -0.627
      -0.527
      -0.607
      -0.742
      -0.757
      -0.561
      -0.229
       0.054
       0.127
      -0.032
      -0.306
      -0.536
      -0.627
      -0.581
      -0.457
      -0.327
      -0.233
      -0.166
      -0.069
       0.129
       0.439
       0.773
       0.985
       0.977
       0.779
       0.526
       0.341
       0.240
       0.141
      -0.031
      -0.260
      -0.465
      -0.586
      -0.640
      -0.699
      -0.802
      -0.893
      -0.846
      -0.559
      -0.046
       0.550
       1.037
       1.283
       1.292
       1.188
       1.137
       1.222
       1.375
       1.397
       1.101
       0.461
      -0.340
      -1.024
      -1.402
      -1.469
      -1.355
      -1.191
      -1.020
      -0.823
      -0.601
      -0.419
      -0.351
      -0.390
      -0.405
      -0.217
       0.264
       0.947
       1.587
       1.934
       1.888
       1.547
       1.110
       0.736
       0.447
       0.159
      -0.209
      -0.635
      -0.998
      -1.163
      -1.089
      -0.855
      -0.596
      -0.411
      -0.298
      -0.188
      -0.012
       0.238
       0.500
       0.679
       0.707
       0.583
       0.369
       0.148
      -0.024
      -0.136
      -0.207
      -0.249
      -0.266
      -0.264
      -0.260
      -0.269
      -0.279
      -0.260
      -0.211
      -0.183
      -0.245
      -0.418
      -0.623
      -0.731
      -0.652
      -0.407
      -0.110
       0.117
       0.227
       0.257
       0.262
       0.240
       0.130
      -0.126
      -0.507
      -0.895
      -1.141
      -1.180
      -1.086
      -1.023
      -1.105
      -1.277
      -1.341
      -1.108
      -0.563
       0.101
       0.615
       0.825
       0.803
       0.775
       0.949
       1.367
       1.889
       2.286
       2.385
       2.159
       1.726
       1.282
       0.984
       0.876
       0.874
       0.843
       0.701
       0.464
       0.205
      -0.040
      -0.322
      -0.737
      -1.319
      -1.974
      -2.512
      -2.764
      -2.684
      -2.353
      -1.917
      -1.492
      -1.117
      -0.755
      -0.338
       0.187
       0.810
       1.443
       1.924
       2.093
       1.898
       1.460
       1.033
       0.848
       0.960
       1.218
       1.355
       1.144
       0.522
      -0.382
      -1.311
      -1.996
      -2.246
      -2.003
      -1.360
      -0.552
       0.119
       0.410
       0.270
      -0.137
      -0.538
      -0.715
      -0.621
      -0.364
      -0.086
       0.136
       0.301
       0.434
       0.540
       0.612
       0.674
       0.794
       1.045
       1.423
       1.796
       1.928
       1.630
       0.908
       0.015
      -0.689
      -0.949
      -0.758
      -0.318
       0.104
       0.327
       0.309
       0.119
      -0.111
      -0.226
      -0.085
       0.368
       1.031
       1.654
       1.970
       1.863
       1.449
       0.982
       0.649
       0.415
       0.075
      -0.546
      -1.405
      -2.253
      -2.813
      -2.970
      -2.816
      -2.544
      -2.292
      -2.064
      -1.766
      -1.311
      -0.709
      -0.076
       0.436
       0.731
       0.824
       0.840
       0.940
       1.209
       1.559
       1.750
       1.534
       0.856
      -0.058
      -0.816
      -1.116
      -0.950
      -0.595
      -0.391
      -0.496
      -0.790
      -0.996
      -0.890
      -0.439
       0.219
       0.905
       1.504
       1.963
       2.215
       2.139
       1.620
       0.670
      -0.508
      -1.589
      -2.301
      -2.572
      -2.556
      -2.518
      -2.640
      -2.869
      -2.936
      -2.524
      -1.484
       0.067
       1.793
       3.301
       4.306
       4.711
       4.599
       4.150
       3.552
       2.926
       2.316
       1.706
       1.067
       0.378
      -0.367
      -1.154
      -1.928
      -2.570
      -2.937
      -2.940
      -2.614
      -2.110
      -1.616
      -1.261
      -1.057
      -0.926
      -0.772
      -0.537
      -0.220
       0.135
       0.457
       0.674
       0.744
       0.675
       0.528
       0.402
       0.400
       0.580
       0.911
       1.254
       1.420
       1.278
       0.832
       0.230
      -0.328
      -0.708
      -0.909
      -1.022
      -1.127
      -1.209
      -1.169
      -0.921
      -0.498
      -0.078
       0.113
      -0.048
      -0.459
      -0.849
      -0.944
      -0.653
      -0.104
       0.481
       0.965
       1.368
       1.785
       2.234
       2.602
       2.744
       2.626
       2.362
       2.123
       1.990
       1.917
       1.806
       1.642
       1.534
       1.601
       1.821
       1.983
       1.835
       1.296
       0.527
      -0.200
      -0.717
      -1.074
      -1.445
      -1.941
      -2.473
      -2.794
      -2.678
      -2.098
      -1.239
      -0.375
       0.296
       0.714
       0.923
       0.995
       0.975
       0.875
       0.696
       0.466
       0.238
       0.057
      -0.077
      -0.204
      -0.368
      -0.559
      -0.700
      -0.704
      -0.575
      -0.467
      -0.617
      -1.155
      -1.957
      -2.680
      -2.994
      -2.818
      -2.364
      -1.971
      -1.861
      -2.025
      -2.283
      -2.431
      -2.376
      -2.151
      -1.846
      -1.529
      -1.215
      -0.889
      -0.543
      -0.182
       0.188
       0.567
       0.929
       1.206
       1.302
       1.168
       0.853
       0.486
       0.180
      -0.031
      -0.184
      -0.321
      -0.448
      -0.539
      -0.596
      -0.670
      -0.822
      -1.033
      -1.182
      -1.136
      -0.887
      -0.594
      -0.462
      -0.547
      -0.683
      -0.606
      -0.173
       0.504
       1.139
       1.471
       1.435
       1.194
       1.001
       1.033
       1.280
       1.569
       1.673
       1.454
       0.950
       0.365
      -0.054
      -0.181
      -0.078
       0.062
       0.059
      -0.127
      -0.373
      -0.490
      -0.366
      -0.048
       0.304
       0.545
       0.652
       0.727
       0.900
       1.215
       1.591
       1.863
       1.881
       1.613
       1.181
       0.799
       0.638
       0.688
       0.756
       0.614
       0.181
      -0.391
      -0.830
      -0.952
      -0.819
      -0.705
      -0.877
      -1.353
      -1.852
      -1.988
      -1.546
      -0.643
       0.362
       1.083
       1.318
       1.129
       0.757
       0.455
       0.343
       0.360
       0.335
       0.119
      -0.303
      -0.795
      -1.158
      -1.257
      -1.098
      -0.807
      -0.552
      -0.438
      -0.454
      -0.493
      -0.450
      -0.301
      -0.133
      -0.101
      -0.324
      -0.780
      -1.276
      -1.537
      -1.373
      -0.825
      -0.176
       0.197
       0.070
      -0.464
      -1.028
      -1.198
      -0.778
       0.084
       0.999
       1.577
       1.636
       1.254
       0.670
       0.129
      -0.247
      -0.484
      -0.690
      -0.944
      -1.204
      -1.306
      -1.062
      -0.399
       0.560
       1.535
       2.232
       2.494
       2.377
       2.076
       1.779
       1.546
       1.292
       0.880
       0.260
      -0.442
      -0.956
      -1.038
      -0.643
       0.030
       0.673
       1.073
       1.236
       1.331
       1.518
       1.805
       2.050
       2.100
       1.949
       1.758
       1.720
       1.876
       2.041
       1.922
       1.334
       0.361
      -0.664
      -1.367
      -1.566
      -1.360
      -1.017
      -0.748
      -0.566
      -0.325
       0.092
       0.609
       0.963
       0.898
       0.403
      -0.234
      -0.631
      -0.595
      -0.254
       0.074
       0.152
      -0.013
      -0.240
      -0.383
      -0.468
      -0.638
      -0.952
      -1.266
      -1.296
      -0.855
      -0.048
       0.753
       1.156
       1.011
       0.498
      -0.031
      -0.296
      -0.253
      -0.058
       0.111
       0.213
       0.339
       0.569
       0.842
       0.952
       0.694
       0.026
      -0.856
      -1.640
      -2.115
      -2.301
      -2.388
      -2.542
      -2.754
      -2.843
      -2.608
      -2.012
      -1.252
      -0.658
      -0.465
      -0.663
      -1.032
      -1.309
      -1.340
      -1.098
      -0.642
      -0.079
       0.444
       0.787
       0.885
       0.782
       0.607
       0.493
       0.519
       0.669
       0.863
       1.010
       1.051
       0.955
       0.711
       0.344
      -0.063
      -0.397
      -0.571
      -0.577
      -0.482
      -0.373
      -0.282
      -0.151
       0.106
       0.497
       0.912
       1.184
       1.195
       0.916
       0.405
      -0.214
      -0.742
      -0.943
      -0.654
       0.087
       1.005
       1.720
       1.949
       1.661
       1.065
       0.455
       0.025
      -0.211
      -0.363
      -0.529
      -0.677
      -0.646
      -0.280
       0.410
       1.192
       1.740
       1.849
       1.572
       1.168
       0.896
       0.832
       0.858
       0.801
       0.592
       0.310
       0.117
       0.136
       0.357
       0.619
       0.679
       0.347
      -0.411
      -1.431
      -2.430
      -3.167
      -3.580
      -3.787
      -3.940
      -4.041
      -3.899
      -3.270
      -2.107
      -0.685
       0.496
       1.009
       0.770
       0.103
      -0.460
      -0.529
      -0.096
       0.512
       0.923
       1.026
       1.024
       1.212
       1.690
       2.272
