Origin Time       12/3/2010 23:19:54	 UTC
Lat.              23.0 N	
Long.             94.5 E	
Depth (Km)         96.0
Magnitude         5.6
 Region           MYANMAR                                                          
 Above details taken from IMD 
    
Station Code      GUA
Station Lat.       26.190  N
Station Long.      91.746  E
Station Height(m)   55.2
Site Class        C   Vs30 between 200 m/sec to 375 m/sec *  
Record Time       12.03.2010 23:21:10.009 UTC
Sampling Rate     200. Hz
 Record Duration   91.615 Sec.
 Direction         N-S (N positive)
Max. Acceleration     -5.213 cm/sec**2
     
  * For reference see Site Classification link of website 
     
 Base Line Corrected and Low Pass Filtered (Cut Off at 35 Hz) Time History
 Acceleration data in cm/sec**2
    
[...]
       0.100
       0.108
       0.082
       0.046
       0.020
       0.008
       0.003
       0.008
       0.030
       0.075
       0.134
       0.184
       0.201
       0.187
       0.159
       0.133
       0.102
       0.037
      -0.074
      -0.207
      -0.309
      -0.339
      -0.298
      -0.235
      -0.205
      -0.232
      -0.293
      -0.330
      -0.299
      -0.192
      -0.043
       0.100
       0.201
       0.245
       0.246
       0.226
       0.205
       0.196
       0.206
       0.245
       0.312
       0.389
       0.446
       0.449
       0.389
       0.287
       0.186
       0.137
       0.167
       0.262
       0.374
       0.448
       0.453
       0.389
       0.277
       0.135
      -0.034
      -0.227
      -0.425
      -0.595
      -0.702
      -0.725
      -0.656
      -0.509
      -0.321
      -0.148
      -0.042
      -0.030
      -0.097
      -0.199
      -0.289
      -0.330
      -0.303
      -0.211
      -0.066
       0.103
       0.256
       0.346
       0.336
       0.222
       0.049
      -0.111
      -0.194
      -0.182
      -0.107
      -0.030
       0.001
      -0.019
      -0.057
      -0.080
      -0.080
      -0.084
      -0.130
      -0.229
      -0.358
      -0.464
      -0.496
      -0.434
      -0.303
      -0.148
      -0.010
       0.097
       0.194
       0.307
       0.439
       0.551
       0.586
       0.507
       0.334
       0.141
       0.018
       0.021
       0.148
       0.334
       0.487
       0.537
       0.466
       0.312
       0.131
      -0.032
      -0.161
      -0.269
      -0.367
      -0.450
      -0.493
      -0.467
      -0.358
      -0.185
       0.008
       0.159
       0.212
       0.148
       0.006
      -0.144
      -0.235
      -0.246
      -0.204
      -0.160
      -0.152
      -0.186
      -0.234
      -0.247
      -0.189
      -0.055
       0.115
       0.261
       0.333
       0.318
       0.241
       0.141
       0.046
      -0.032
      -0.093
      -0.143
      -0.192
      -0.251
      -0.320
      -0.377
      -0.396
      -0.375
      -0.338
      -0.324
      -0.348
      -0.392
      -0.418
      -0.394
      -0.317
      -0.207
      -0.086
       0.038
       0.168
       0.318
       0.496
       0.693
       0.874
       0.990
       0.999
       0.883
       0.658
       0.364
       0.067
      -0.165
      -0.286
      -0.294
      -0.226
      -0.135
      -0.064
      -0.037
      -0.063
      -0.131
      -0.206
      -0.244
      -0.214
      -0.123
      -0.017
       0.063
       0.110
       0.163
       0.272
       0.451
       0.662
       0.836
       0.913
       0.878
       0.759
       0.611
       0.473
       0.365
       0.293
       0.268
       0.304
       0.400
       0.527
       0.634
       0.668
       0.601
       0.446
       0.253
       0.085
      -0.013
      -0.032
       0.003
       0.030
      -0.025
      -0.217
      -0.541
      -0.916
      -1.220
      -1.349
      -1.263
      -1.005
      -0.678
      -0.393
      -0.212
      -0.126
      -0.066
       0.036
       0.197
       0.368
       0.474
       0.470
       0.373
       0.244
       0.134
       0.058
      -0.007
      -0.083
      -0.177
      -0.270
      -0.344
      -0.392
      -0.433
      -0.488
      -0.559
      -0.608
      -0.575
      -0.407
      -0.095
       0.317
       0.739
       1.068
       1.235
       1.233
       1.102
       0.902
       0.685
       0.489
       0.348
       0.280
       0.279
       0.309
       0.321
       0.278
       0.176
       0.036
      -0.120
      -0.284
      -0.451
      -0.607
      -0.725
      -0.775
      -0.742
      -0.619
      -0.406
      -0.113
       0.222
       0.527
       0.709
       0.690
       0.458
       0.079
      -0.328
      -0.661
      -0.881
      -1.006
      -1.074
      -1.098
      -1.065
      -0.965
      -0.813
      -0.658
      -0.559
      -0.552
      -0.643
      -0.798
      -0.964
      -1.085
      -1.122
      -1.064
      -0.917
      -0.697
      -0.433
      -0.176
       0.011
       0.088
       0.069
       0.020
       0.021
       0.115
       0.303
       0.560
       0.863
       1.202
       1.556
       1.880
       2.100
       2.147
       1.985
       1.632
       1.157
       0.664
       0.261
       0.017
      -0.080
      -0.127
      -0.261
      -0.583
      -1.093
      -1.671
      -2.132
      -2.317
      -2.172
      -1.768
      -1.245
      -0.735
      -0.303
       0.059
       0.398
       0.739
       1.056
       1.284
       1.376
       1.346
       1.265
       1.210
       1.205
       1.198
       1.096
       0.827
       0.404
      -0.072
      -0.455
      -0.616
      -0.503
      -0.154
       0.325
       0.807
       1.186
       1.394
       1.394
       1.183
       0.794
       0.304
      -0.182
      -0.569
      -0.808
      -0.924
      -1.006
      -1.158
      -1.431
      -1.787
      -2.115
      -2.291
      -2.244
      -1.972
      -1.539
      -1.030
      -0.519
      -0.034
       0.438
       0.915
       1.382
       1.780
       2.025
       2.063
       1.910
       1.647
       1.383
       1.201
       1.125
       1.116
       1.102
       1.009
       0.792
       0.450
       0.020
      -0.432
      -0.825
      -1.076
      -1.127
      -0.965
      -0.648
      -0.286
      -0.003
       0.114
       0.052
      -0.137
      -0.383
      -0.640
      -0.891
      -1.125
      -1.313
      -1.420
      -1.424
      -1.325
      -1.126
      -0.835
      -0.475
      -0.107
       0.199
       0.411
       0.561
       0.720
       0.940
       1.211
       1.478
       1.683
       1.798
       1.826
       1.786
       1.697
       1.564
       1.361
       1.041
       0.563
      -0.072
      -0.805
      -1.533
      -2.145
      -2.553
      -2.714
      -2.644
      -2.403
      -2.070
      -1.705
      -1.327
      -0.933
      -0.529
      -0.155
       0.126
       0.263
       0.246
       0.118
      -0.041
      -0.144
      -0.135
      -0.011
       0.175
       0.342
       0.425
       0.407
       0.326
       0.252
       0.239
       0.299
       0.400
       0.510
       0.621
       0.740
       0.854
       0.925
       0.914
       0.813
       0.641
       0.424
       0.180
      -0.069
      -0.285
      -0.426
      -0.472
      -0.439
      -0.348
      -0.198
       0.036
       0.356
       0.705
       0.970
       1.053
       0.942
       0.734
       0.597
       0.669
       0.979
       1.418
       1.790
       1.909
       1.695
       1.201
       0.591
       0.060
      -0.263
      -0.359
      -0.314
      -0.265
      -0.336
      -0.594
      -1.017
      -1.488
      -1.838
      -1.945
      -1.807
      -1.553
      -1.347
      -1.266
      -1.256
      -1.190
      -0.999
      -0.743
      -0.578
      -0.641
      -0.948
      -1.381
      -1.743
      -1.836
      -1.546
      -0.890
      -0.017
       0.842
       1.478
       1.781
       1.770
       1.560
       1.290
       1.078
       0.986
       1.012
       1.099
       1.144
       1.046
       0.760
       0.326
      -0.159
      -0.582
      -0.859
      -0.950
      -0.863
      -0.649
      -0.396
      -0.203
      -0.143
      -0.234
      -0.409
      -0.533
      -0.459
      -0.109
       0.459
       1.069
       1.514
       1.665
       1.527
       1.213
       0.858
       0.555
       0.336
       0.201
       0.146
       0.174
       0.287
       0.480
       0.738
       1.016
       1.240
       1.330
       1.256
       1.078
       0.925
       0.911
       1.050
       1.236
       1.311
       1.164
       0.785
       0.249
      -0.337
      -0.882
      -1.329
      -1.665
      -1.914
      -2.117
      -2.301
      -2.462
      -2.570
      -2.588
      -2.496
      -2.305
      -2.039
      -1.716
      -1.346
      -0.960
      -0.617
      -0.379
      -0.248
      -0.144
       0.053
       0.417
       0.923
       1.460
       1.891
       2.120
       2.104
       1.844
       1.359
       0.697
      -0.053
      -0.756
      -1.255
      -1.431
      -1.249
      -0.787
      -0.215
       0.262
       0.484
       0.390
       0.033
      -0.455
      -0.917
      -1.226
      -1.318
      -1.194
      -0.898
      -0.509
      -0.126
       0.147
       0.235
       0.137
      -0.061
      -0.216
      -0.196
       0.056
       0.501
       1.036
       1.554
       1.974
       2.254
       2.391
       2.424
       2.411
       2.386
       2.324
       2.158
       1.837
       1.372
       0.823
       0.257
      -0.285
      -0.787
      -1.230
      -1.572
      -1.760
      -1.756
      -1.571
      -1.266
      -0.950
      -0.746
      -0.748
      -0.971
      -1.336
      -1.702
      -1.938
      -1.977
      -1.846
      -1.645
      -1.493
      -1.465
      -1.552
      -1.671
      -1.716
      -1.609
      -1.352
      -1.017
      -0.711
      -0.496
      -0.341
      -0.149
       0.160
       0.573
       0.972
       1.195
       1.132
       0.792
       0.303
      -0.157
      -0.455
      -0.572
      -0.608
      -0.711
      -0.967
      -1.341
      -1.672
      -1.762
      -1.479
      -0.843
      -0.024
       0.735
       1.256
       1.517
       1.653
       1.857
       2.243
       2.779
       3.311
       3.658
       3.708
       3.473
       3.075
       2.674
       2.380
       2.185
       1.983
       1.653
       1.152
       0.575
       0.106
      -0.076
       0.086
       0.498
       0.976
       1.348
       1.527
       1.501
       1.287
       0.892
       0.312
      -0.428
      -1.246
      -2.001
      -2.549
      -2.802
      -2.761
      -2.499
      -2.110
      -1.668
      -1.212
      -0.752
      -0.294
       0.143
       0.520
       0.789
       0.916
       0.916
       0.872
       0.912
       1.128
       1.489
       1.827
       1.929
       1.677
       1.114
       0.406
      -0.266
      -0.793
      -1.166
      -1.436
      -1.655
      -1.830
      -1.924
      -1.890
      -1.730
      -1.503
      -1.284
      -1.110
      -0.956
      -0.775
      -0.540
      -0.262
       0.041
       0.364
       0.706
       1.040
       1.292
       1.370
       1.217
       0.860
       0.429
       0.090
      -0.043
       0.020
       0.160
       0.247
       0.245
       0.223
       0.276
       0.418
       0.565
       0.613
       0.531
       0.374
       0.203
       0.009
      -0.272
      -0.677
      -1.136
      -1.510
      -1.701
      -1.729
      -1.711
      -1.768
      -1.948
      -2.227
      -2.559
      -2.899
      -3.192
      -3.342
      -3.223
      -2.748
      -1.937
      -0.939
       0.020
       0.730
       1.068
       1.021
       0.678
       0.200
      -0.214
      -0.382
      -0.217
       0.226
       0.747
       1.097
       1.092
       0.712
       0.103
      -0.497
      -0.886
      -0.989
      -0.870
      -0.670
      -0.512
      -0.447
      -0.447
      -0.458
      -0.450
      -0.421
      -0.369
      -0.270
      -0.093
       0.159
       0.434
       0.656
       0.775
       0.801
       0.806
       0.889
       1.125
       1.514
       1.966
       2.340
       2.513
       2.450
       2.223
       1.966
       1.797
       1.762
       1.827
       1.919
       1.976
       1.959
       1.841
       1.589
       1.175
       0.615
      -0.009
      -0.564
      -0.920
      -1.006
      -0.824
      -0.436
       0.070
       0.595
       1.046
       1.354
       1.490
       1.461
       1.286
       0.995
       0.650
       0.369
       0.298
       0.532
       1.032
       1.614
       2.041
       2.171
       2.043
       1.844
       1.774
       1.925
       2.252
       2.618
       2.869
       2.885
       2.608
       2.050
       1.295
       0.481
      -0.239
      -0.747
      -0.998
      -1.042
      -1.011
      -1.067
      -1.323
      -1.772
      -2.283
      -2.686
      -2.878
      -2.866
      -2.742
      -2.603
      -2.498
      -2.424
      -2.358
      -2.299
      -2.265
      -2.262
      -2.257
      -2.187
      -2.004
      -1.702
      -1.308
      -0.859
      -0.390
       0.051
       0.382
       0.492
       0.282
      -0.273
      -1.072
      -1.905
      -2.547
      -2.869
      -2.894
      -2.757
      -2.622
      -2.598
      -2.701
      -2.874
      -3.033
      -3.112
      -3.078
      -2.927
      -2.662
      -2.298
      -1.864
      -1.403
      -0.960
      -0.575
      -0.263
      -0.013
       0.209
       0.452
       0.763
       1.183
       1.715
       2.309
       2.848
       3.176
       3.173
       2.839
       2.329
       1.893
       1.739
       1.906
       2.232
       2.452
       2.339
       1.815
       0.967
       0.003
      -0.832
      -1.341
      -1.441
      -1.193
      -0.770
      -0.370
      -0.108
       0.028
       0.137
       0.312
       0.578
       0.882
       1.144
       1.296
       1.310
       1.221
       1.131
       1.186
       1.511
       2.130
       2.938
       3.739
       4.332
       4.580
       4.432
       3.904
       3.085
       2.158
       1.383
       1.005
       1.119
       1.588
       2.098
       2.305
       2.003
       1.195
       0.070
      -1.112
      -2.137
      -2.923
      -3.517
      -4.032
      -4.533
      -4.974
      -5.213
      -5.110
      -4.633
      -3.903
      -3.140
      -2.557
      -2.262
      -2.205
      -2.207
      -2.046
      -1.566
      -0.757
       0.237
       1.168
       1.792
       1.963
       1.693
       1.141
       0.535
       0.069
      -0.179
      -0.260
      -0.305
      -0.428
      -0.648
      -0.879
      -0.972
      -0.796
      -0.311
       0.387
       1.090
       1.560
       1.656
       1.402
       0.975
       0.610
       0.456
       0.496
       0.556
       0.442
       0.106
      -0.271
      -0.377
       0.034
       0.963
       2.157
       3.251
       3.970
       4.246
       4.183
       3.924
       3.534
       2.992
       2.276
       1.466
       0.750
       0.340
       0.334
       0.646
       1.035
       1.237
       1.108
       0.673
       0.072
      -0.555
      -1.159
      -1.773
      -2.432
      -3.096
      -3.643
      -3.933
      -3.887
      -3.522
      -2.920
      -2.192
      -1.458
      -0.849
      -0.488
      -0.444
      -0.684
      -1.075
      -1.447
      -1.661
      -1.655
      -1.427
      -1.012
      -0.477
       0.065
       0.471
       0.616
       0.464
       0.087
      -0.362
      -0.706
      -0.802
      -0.590
      -0.109
       0.510
       1.101
       1.518
       1.659
       1.460
       0.917
       0.124
      -0.706
      -1.315
      -1.561
      -1.516
      -1.408
      -1.429
      -1.566
      -1.624
      -1.398
      -0.853
      -0.143
       0.506
       0.933
       1.090
       1.001
       0.723
       0.351
       0.039
      -0.031
       0.271
       0.937
       1.792
       2.556
       2.959
       2.865
       2.342
       1.615
       0.940
       0.487
       0.293
       0.309
       0.457
       0.653
       0.809
       0.837
       0.677
       0.325
      -0.168
      -0.714
      -1.216
      -1.600
      -1.832
      -1.925
      -1.924
      -1.873
      -1.782
      -1.633
      -1.400
      -1.086
      -0.730
      -0.380
      -0.049
       0.285
       0.652
       1.044
       1.412
       1.707
       1.914
       2.043
       2.076
       1.941
       1.568
       0.979
       0.334
      -0.147
      -0.324
      -0.237
      -0.096
      -0.140
      -0.487
      -1.047
      -1.590
      -1.891
      -1.854
      -1.540
      -1.102
      -0.688
      -0.387
      -0.221
      -0.171
      -0.187
      -0.206
      -0.156
       0.021
       0.344
       0.788
       1.291
       1.776
       2.177
       2.441
       2.511
       2.317
       1.812
       1.040
       0.189
      -0.458
      -0.656
      -0.328
       0.391
       1.232
       1.909
       2.211
       2.059
       1.514
       0.769
       0.077
      -0.350
      -0.439
      -0.287
      -0.102
      -0.103
      -0.428
      -1.097
      -2.015
      -2.991
      -3.787
      -4.198
      -4.131
      -3.630
      -2.827
      -1.884
      -0.951
      -0.168
       0.346
       0.532
       0.420
       0.129
      -0.185
      -0.391
      -0.424
      -0.286
      -0.015
       0.337
       0.712
       1.040
       1.233
       1.202
       0.895
       0.346
      -0.291
      -0.792
      -0.977
      -0.836
      -0.549
      -0.385
      -0.535
      -0.998
      -1.593
      -2.088
      -2.320
      -2.254
      -1.936
      -1.445
      -0.873
      -0.322
       0.112
       0.384
       0.525
       0.622
       0.765
       1.000
       1.303
       1.597
       1.803
       1.889
       1.895
       1.925
       2.074
       2.369
       2.731
       3.003
       3.021
       2.687
       2.033
       1.240
       0.584
       0.323
       0.561
       1.188
       1.947
       2.577
       2.933
       3.000
       2.845
       2.539
       2.114
       1.573
       0.923
       0.219
      -0.437
      -0.956
      -1.306
      -1.524
      -1.671
      -1.782
      -1.873
      -1.962
      -2.082
      -2.251
      -2.431
      -2.533
      -2.465
      -2.177
      -1.673
      -0.999
      -0.247
       0.450
       0.954
       1.185
       1.155
       0.931
       0.565
       0.065
      -0.547
      -1.172
      -1.634
      -1.779
      -1.582
      -1.177
      -0.780
      -0.575
      -0.642
      -0.958
      -1.443
      -1.990
      -2.498
      -2.884
      -3.099
      -3.119
      -2.935
      -2.552
      -2.014
      -1.417
      -0.898
      -0.576
      -0.478
      -0.507
      -0.491
      -0.298
       0.064
       0.452
       0.694
       0.730
       0.666
       0.714
       1.043
       1.653
       2.346
       2.848
       2.972
       2.712
       2.218
       1.685
       1.246
       0.941
       0.743
       0.598
       0.455
       0.266
      -0.003
      -0.354
      -0.751
      -1.122
      -1.380
      -1.449
      -1.284
      -0.897
      -0.371
       0.161
       0.569
       0.771
       0.764
       0.617
       0.450
       0.399
       0.560
       0.940
       1.432
       1.867
       2.095
       2.073
       1.887
       1.686
       1.575
       1.546
       1.510
       1.391
       1.209
       1.074
       1.106
       1.335
       1.661
       1.894
       1.854
       1.476
       0.836
       0.104
      -0.552
      -1.037
      -1.354
      -1.577
      -1.795
      -2.066
      -2.378
      -2.645
      -2.742
      -2.573
      -2.150
      -1.613
      -1.159
      -0.928
      -0.918
      -1.007
      -1.073
      -1.083
      -1.089
      -1.123
      -1.116
      -0.920
      -0.438
       0.261
       0.950
       1.379
       1.424
       1.155
       0.773
       0.483
       0.384
       0.448
       0.575
       0.670
       0.694
       0.653
       0.560
       0.413
       0.206
      -0.054
      -0.329
      -0.561
      -0.709
