Origin Time       3/9/2009 19:51:08	  UTC
Lat.              24.3 N	
Long.             94.6 E	
Depth (Km)        100.0
Magnitude         5.9
 Region           MYANMAR-India-Manipuir-Border                                    
 Above details taken from IMD 
    
Station Code      GUA
Station Lat.       26.190  N
Station Long.      91.746  E
Station Height(m)   55.2
Site Class        C   Vs30 between 200 m/sec to 375 m/sec *  
Record Time       03.09.2009 19:52:15.559 UTC
Sampling Rate     200. Hz
 Record Duration   71.065 Sec.
 Direction         N-S (N positive)
Max. Acceleration      6.616 cm/sec**2
     
  * For reference see Site Classification link of website 
     
 Base Line Corrected and Low Pass Filtered (Cut Off at 35 Hz) Time History
 Acceleration data in cm/sec**2
    
[...]
      -0.257
      -0.321
      -0.395
      -0.433
      -0.392
      -0.268
      -0.101
       0.039
       0.096
       0.050
      -0.070
      -0.205
      -0.301
      -0.334
      -0.313
      -0.248
      -0.138
       0.028
       0.236
       0.434
       0.555
       0.557
       0.457
       0.322
       0.227
       0.208
       0.245
       0.294
       0.318
       0.315
       0.306
       0.315
       0.348
       0.390
       0.425
       0.436
       0.413
       0.341
       0.219
       0.076
      -0.031
      -0.052
       0.023
       0.159
       0.309
       0.439
       0.539
       0.598
       0.583
       0.460
       0.233
      -0.013
      -0.150
      -0.091
       0.143
       0.425
       0.608
       0.601
       0.412
       0.115
      -0.195
      -0.449
      -0.614
      -0.691
      -0.693
      -0.634
      -0.532
      -0.413
      -0.316
      -0.278
      -0.313
      -0.393
      -0.463
      -0.473
      -0.404
      -0.268
      -0.102
       0.049
       0.142
       0.161
       0.117
       0.050
      -0.007
      -0.035
      -0.039
      -0.030
      -0.017
      -0.003
       0.004
      -0.003
      -0.017
      -0.016
       0.020
       0.089
       0.163
       0.208
       0.205
       0.155
       0.071
      -0.027
      -0.123
      -0.201
      -0.250
      -0.258
      -0.222
      -0.158
      -0.097
      -0.065
      -0.064
      -0.066
      -0.032
       0.071
       0.239
       0.435
       0.606
       0.709
       0.725
       0.652
       0.499
       0.289
       0.062
      -0.130
      -0.247
      -0.284
      -0.271
      -0.251
      -0.238
      -0.218
      -0.170
      -0.105
      -0.058
      -0.051
      -0.063
      -0.048
       0.033
       0.178
       0.340
       0.455
       0.469
       0.378
       0.224
       0.078
      -0.011
      -0.036
      -0.028
      -0.025
      -0.030
      -0.014
       0.049
       0.155
       0.253
       0.283
       0.205
       0.023
      -0.213
      -0.429
      -0.561
      -0.593
      -0.565
      -0.542
      -0.574
      -0.660
      -0.760
      -0.830
      -0.848
      -0.830
      -0.806
      -0.784
      -0.739
      -0.624
      -0.412
      -0.123
       0.175
       0.406
       0.530
       0.568
       0.569
       0.569
       0.560
       0.512
       0.393
       0.206
      -0.016
      -0.227
      -0.389
      -0.483
      -0.505
      -0.456
      -0.334
      -0.154
       0.053
       0.241
       0.367
       0.414
       0.394
       0.346
       0.302
       0.272
       0.250
       0.232
       0.221
       0.212
       0.177
       0.081
      -0.089
      -0.300
      -0.482
      -0.569
      -0.530
      -0.381
      -0.161
       0.090
       0.338
       0.551
       0.709
       0.812
       0.888
       0.971
       1.082
       1.211
       1.325
       1.390
       1.393
       1.347
       1.280
       1.209
       1.137
       1.050
       0.940
       0.804
       0.649
       0.483
       0.313
       0.151
       0.007
      -0.108
      -0.192
      -0.237
      -0.231
      -0.165
      -0.074
      -0.041
      -0.164
      -0.484
      -0.938
      -1.390
      -1.697
      -1.783
      -1.655
      -1.375
      -1.019
      -0.643
      -0.288
       0.015
       0.241
       0.382
       0.444
       0.436
       0.352
       0.182
      -0.069
      -0.345
      -0.561
      -0.653
      -0.629
      -0.577
      -0.595
      -0.720
      -0.900
      -1.043
      -1.075
      -0.980
      -0.776
      -0.496
      -0.160
       0.205
       0.564
       0.859
       1.036
       1.066
       0.951
       0.724
       0.431
       0.121
      -0.166
      -0.399
      -0.552
      -0.610
      -0.585
      -0.525
      -0.502
      -0.561
      -0.688
      -0.799
      -0.786
      -0.579
      -0.193
       0.277
       0.718
       1.069
       1.352
       1.635
       1.958
       2.291
       2.549
       2.648
       2.568
       2.348
       2.045
       1.686
       1.271
       0.793
       0.270
      -0.261
      -0.753
      -1.159
      -1.446
      -1.597
      -1.633
      -1.604
      -1.576
      -1.600
      -1.682
      -1.788
      -1.865
      -1.873
      -1.804
      -1.681
      -1.542
      -1.419
      -1.318
      -1.208
      -1.030
      -0.737
      -0.328
       0.138
       0.577
       0.925
       1.176
       1.363
       1.508
       1.589
       1.550
       1.346
       0.976
       0.485
      -0.048
      -0.532
      -0.884
      -1.052
      -1.027
      -0.848
      -0.581
      -0.292
      -0.022
       0.214
       0.414
       0.575
       0.685
       0.742
       0.748
       0.710
       0.642
       0.565
       0.499
       0.446
       0.380
       0.258
       0.048
      -0.256
      -0.625
      -1.006
      -1.326
      -1.510
      -1.509
      -1.326
      -1.033
      -0.734
      -0.503
      -0.343
      -0.196
       0.009
       0.304
       0.664
       1.018
       1.279
       1.378
       1.296
       1.078
       0.810
       0.579
       0.433
       0.361
       0.306
       0.209
       0.029
      -0.252
      -0.637
      -1.101
      -1.573
      -1.941
      -2.078
      -1.903
      -1.418
      -0.722
       0.010
       0.598
       0.922
       0.972
       0.845
       0.688
       0.640
       0.776
       1.088
       1.499
       1.899
       2.185
       2.287
       2.167
       1.819
       1.266
       0.568
      -0.162
      -0.772
      -1.109
      -1.080
      -0.693
      -0.069
       0.589
       1.060
       1.194
       0.962
       0.459
      -0.157
      -0.742
      -1.199
      -1.472
      -1.520
      -1.316
      -0.890
      -0.358
       0.090
       0.262
       0.060
      -0.477
      -1.183
      -1.832
      -2.221
      -2.244
      -1.939
      -1.462
      -1.020
      -0.777
      -0.793
      -1.003
      -1.258
      -1.410
      -1.383
      -1.211
      -0.994
      -0.826
      -0.732
      -0.645
      -0.458
      -0.102
       0.395
       0.907
       1.292
       1.480
       1.515
       1.511
       1.556
       1.653
       1.738
       1.756
       1.703
       1.617
       1.526
       1.426
       1.291
       1.108
       0.897
       0.708
       0.601
       0.620
       0.781
       1.061
       1.390
       1.662
       1.787
       1.747
       1.621
       1.537
       1.584
       1.753
       1.950
       2.051
       1.970
       1.683
       1.212
       0.602
      -0.098
      -0.815
      -1.448
      -1.884
      -2.032
      -1.872
      -1.488
      -1.062
      -0.811
      -0.893
      -1.334
      -2.023
      -2.785
      -3.460
      -3.947
      -4.185
      -4.133
      -3.782
      -3.200
      -2.548
      -2.028
      -1.767
      -1.748
      -1.818
      -1.796
      -1.570
      -1.147
      -0.620
      -0.104
       0.332
       0.669
       0.919
       1.091
       1.186
       1.210
       1.188
       1.156
       1.138
       1.122
       1.069
       0.945
       0.760
       0.575
       0.465
       0.472
       0.590
       0.789
       1.046
       1.346
       1.657
       1.918
       2.058
       2.041
       1.890
       1.668
       1.436
       1.231
       1.067
       0.958
       0.916
       0.942
       1.022
       1.133
       1.262
       1.415
       1.628
       1.942
       2.355
       2.789
       3.089
       3.092
       2.720
       2.040
       1.236
       0.509
      -0.028
      -0.395
      -0.706
      -1.087
      -1.606
      -2.256
      -2.969
      -3.656
      -4.250
      -4.723
      -5.091
      -5.397
      -5.663
      -5.863
      -5.913
      -5.720
      -5.242
      -4.522
      -3.671
      -2.814
      -2.061
      -1.471
      -1.032
      -0.673
      -0.309
       0.077
       0.400
       0.524
       0.374
       0.031
      -0.281
      -0.318
       0.031
       0.677
       1.406
       2.026
       2.465
       2.780
       3.066
       3.366
       3.640
       3.815
       3.865
       3.839
       3.830
       3.896
       4.020
       4.116
       4.089
       3.892
       3.532
       3.049
       2.481
       1.863
       1.257
       0.760
       0.481
       0.479
       0.724
       1.090
       1.396
       1.479
       1.246
       0.709
      -0.021
      -0.775
      -1.377
      -1.698
      -1.710
      -1.491
      -1.198
      -0.994
      -0.974
      -1.134
      -1.392
      -1.654
      -1.871
      -2.044
      -2.181
      -2.270
      -2.277
      -2.189
      -2.040
      -1.927
      -1.986
      -2.320
      -2.930
      -3.675
      -4.298
      -4.521
      -4.163
      -3.235
      -1.948
      -0.630
       0.433
       1.117
       1.471
       1.628
       1.705
       1.764
       1.837
       1.977
       2.259
       2.722
       3.316
       3.887
       4.227
       4.165
       3.638
       2.725
       1.615
       0.544
      -0.291
      -0.779
      -0.900
      -0.706
      -0.295
       0.217
       0.706
       1.064
       1.217
       1.156
       0.944
       0.682
       0.460
       0.315
       0.236
       0.185
       0.106
      -0.063
      -0.367
      -0.798
      -1.288
      -1.745
      -2.110
      -2.384
      -2.612
      -2.829
      -3.005
      -3.055
      -2.908
      -2.570
      -2.138
      -1.739
      -1.472
      -1.363
      -1.387
      -1.487
      -1.602
      -1.657
      -1.572
      -1.286
      -0.787
      -0.129
       0.576
       1.190
       1.596
       1.750
       1.716
       1.641
       1.688
       1.951
       2.409
       2.931
       3.343
       3.508
       3.380
       3.010
       2.504
       1.967
       1.451
       0.953
       0.440
      -0.102
      -0.629
      -1.039
      -1.214
      -1.078
      -0.643
      -0.017
       0.627
       1.128
       1.407
       1.492
       1.484
       1.489
       1.549
       1.633
       1.651
       1.497
       1.083
       0.378
      -0.561
      -1.574
      -2.442
      -2.983
      -3.133
      -2.967
      -2.644
      -2.334
      -2.154
      -2.136
      -2.223
      -2.310
      -2.304
      -2.154
      -1.872
      -1.525
      -1.220
      -1.075
      -1.170
      -1.514
      -2.036
      -2.617
      -3.149
      -3.561
      -3.823
      -3.916
      -3.804
      -3.450
      -2.851
      -2.083
      -1.300
      -0.691
      -0.407
      -0.493
      -0.873
      -1.385
      -1.837
      -2.061
      -1.933
      -1.392
      -0.463
       0.702
       1.842
       2.674
       3.029
       2.932
       2.582
       2.224
       2.033
       2.068
       2.308
       2.709
       3.224
       3.794
       4.335
       4.737
       4.877
       4.670
       4.135
       3.432
       2.823
       2.548
       2.695
       3.136
       3.593
       3.800
       3.657
       3.263
       2.792
       2.342
       1.858
       1.229
       0.442
      -0.343
      -0.880
      -1.028
      -0.859
      -0.590
      -0.416
      -0.394
      -0.459
      -0.518
      -0.525
      -0.476
      -0.397
      -0.324
      -0.304
      -0.377
      -0.557
      -0.828
      -1.165
      -1.559
      -2.001
      -2.437
      -2.766
      -2.897
      -2.825
      -2.648
      -2.491
      -2.417
      -2.395
      -2.349
      -2.235
      -2.081
      -1.955
      -1.899
      -1.896
      -1.877
      -1.773
      -1.537
      -1.142
      -0.582
       0.105
       0.812
       1.392
       1.737
       1.850
       1.861
       1.926
       2.105
       2.305
       2.351
       2.121
       1.640
       1.064
       0.571
       0.256
       0.117
       0.106
       0.196
       0.382
       0.629
       0.836
       0.863
       0.620
       0.116
      -0.535
      -1.172
      -1.635
      -1.819
      -1.689
      -1.281
      -0.672
       0.057
       0.840
       1.625
       2.347
       2.923
       3.262
       3.291
       2.998
       2.440
       1.749
       1.099
       0.658
       0.538
       0.754
       1.222
       1.771
       2.166
       2.171
       1.635
       0.570
      -0.836
      -2.296
      -3.538
      -4.389
      -4.792
      -4.779
      -4.453
      -3.986
      -3.578
      -3.379
      -3.408
      -3.535
      -3.573
      -3.375
      -2.895
      -2.169
      -1.274
      -0.309
       0.617
       1.398
       1.974
       2.356
       2.606
       2.782
       2.892
       2.900
       2.797
       2.646
       2.549
       2.562
       2.639
       2.671
       2.566
       2.306
       1.943
       1.550
       1.188
       0.899
       0.717
       0.654
       0.669
       0.649
       0.465
       0.047
      -0.551
      -1.167
      -1.604
      -1.722
      -1.511
      -1.104
      -0.735
      -0.632
      -0.894
      -1.413
      -1.906
      -2.056
      -1.700
      -0.925
      -0.015
       0.723
       1.116
       1.181
       1.057
       0.874
       0.660
       0.352
      -0.114
      -0.725
      -1.388
      -2.006
      -2.548
      -3.065
      -3.629
      -4.247
      -4.816
      -5.170
      -5.193
      -4.907
      -4.466
      -4.070
      -3.851
      -3.808
      -3.809
      -3.657
      -3.177
      -2.302
      -1.108
       0.215
       1.432
       2.336
       2.818
       2.896
       2.718
       2.517
       2.518
       2.841
       3.455
       4.220
       4.980
       5.642
       6.165
       6.509
       6.616
       6.441
       6.003
       5.367
       4.585
       3.657
       2.565
       1.351
       0.166
      -0.779
      -1.321
      -1.448
      -1.308
      -1.132
      -1.112
      -1.301
      -1.597
      -1.811
      -1.784
      -1.470
      -0.945
      -0.355
       0.150
       0.477
       0.621
       0.665
       0.736
       0.924
       1.218
       1.484
       1.533
       1.244
       0.637
      -0.145
      -0.936
      -1.632
      -2.192
      -2.597
      -2.827
      -2.886
      -2.824
      -2.728
      -2.676
      -2.702
      -2.781
      -2.847
      -2.828
      -2.686
      -2.437
      -2.144
      -1.874
      -1.655
      -1.480
      -1.358
      -1.352
      -1.553
      -1.968
      -2.437
      -2.659
      -2.351
      -1.409
       0.031
       1.669
       3.182
       4.327
       4.980
       5.123
       4.824
       4.228
       3.526
       2.896
       2.448
       2.207
       2.143
       2.199
       2.312
       2.409
       2.417
       2.298
       2.075
       1.829
       1.651
       1.574
       1.550
       1.488
       1.323
       1.058
       0.732
       0.376
       0.008
      -0.339
      -0.593
      -0.689
      -0.648
      -0.608
      -0.755
      -1.203
      -1.915
      -2.723
      -3.415
      -3.815
      -3.837
      -3.489
      -2.867
      -2.135
      -1.481
      -1.047
      -0.856
      -0.799
      -0.721
      -0.529
      -0.253
      -0.006
       0.106
       0.052
      -0.116
      -0.298
      -0.401
      -0.409
      -0.410
      -0.564
      -0.989
      -1.669
      -2.432
      -3.024
      -3.226
      -2.956
      -2.297
      -1.448
      -0.629
       0.016
       0.474
       0.847
       1.265
       1.792
       2.374
       2.881
       3.214
       3.362
       3.400
       3.425
       3.498
       3.621
       3.738
       3.767
       3.635
       3.321
       2.885
       2.446
       2.134
       2.020
       2.075
       2.175
       2.145
       1.835
       1.183
       0.246
      -0.811
      -1.787
      -2.517
      -2.933
      -3.082
      -3.084
      -3.046
      -2.974
      -2.770
      -2.323
      -1.662
      -1.006
      -0.665
      -0.834
      -1.437
      -2.159
      -2.629
      -2.627
      -2.167
      -1.441
      -0.701
      -0.150
       0.119
       0.128
      -0.028
      -0.252
      -0.484
      -0.700
      -0.876
      -0.973
      -0.947
      -0.781
      -0.509
      -0.203
       0.072
       0.291
       0.465
       0.577
       0.542
       0.241
      -0.377
      -1.217
      -2.046
      -2.596
      -2.691
      -2.318
      -1.615
      -0.783
       0.011
       0.691
       1.265
       1.768
       2.188
       2.453
       2.466
       2.184
       1.661
       1.044
       0.521
       0.233
       0.208
       0.348
       0.494
       0.527
       0.431
       0.281
       0.163
       0.101
       0.038
      -0.099
      -0.322
      -0.529
      -0.545
      -0.217
       0.500
       1.513
       2.621
       3.572
       4.145
       4.221
       3.837
       3.162
       2.412
       1.731
       1.133
       0.528
      -0.156
      -0.877
      -1.464
      -1.732
      -1.615
      -1.221
      -0.766
      -0.447
      -0.356
      -0.458
      -0.627
      -0.691
      -0.498
      -0.003
       0.660
       1.212
       1.366
       0.990
       0.192
      -0.754
      -1.536
      -1.936
      -1.892
      -1.504
      -0.994
      -0.615
      -0.534
      -0.756
      -1.137
      -1.481
      -1.651
      -1.635
      -1.507
      -1.355
      -1.225
      -1.120
      -1.034
      -0.995
      -1.065
      -1.312
      -1.757
      -2.337
      -2.922
      -3.378
      -3.632
      -3.684
      -3.567
      -3.301
      -2.876
      -2.287
      -1.574
      -0.829
      -0.151
       0.418
       0.926
       1.466
       2.088
       2.733
       3.246
       3.470
       3.359
       3.005
       2.586
       2.258
       2.085
       2.033
       2.006
       1.907
       1.676
       1.319
       0.884
       0.435
       0.038
      -0.230
      -0.281
      -0.044
       0.497
       1.268
       2.115
       2.840
       3.276
       3.353
       3.106
       2.625
       2.001
       1.315
       0.657
       0.127
      -0.201
      -0.315
      -0.262
      -0.101
       0.123
       0.376
       0.600
       0.719
       0.678
       0.503
       0.308
       0.241
       0.408
       0.816
       1.366
       1.899
       2.259
       2.345
       2.129
       1.648
       0.987
       0.274
      -0.350
      -0.774
      -0.963
      -0.969
      -0.892
      -0.824
      -0.819
      -0.897
      -1.064
      -1.316
      -1.633
      -1.970
      -2.291
      -2.593
      -2.901
      -3.231
      -3.565
      -3.855
      -4.047
      -4.099
      -3.986
      -3.709
      -3.305
      -2.857
      -2.469
      -2.222
      -2.120
      -2.081
      -1.971
      -1.667
      -1.131
      -0.433
       0.282
       0.866
       1.248
       1.449
       1.541
       1.586
       1.592
       1.526
       1.359
       1.107
       0.840
       0.656
       0.625
       0.749
       0.966
       1.186
       1.353
       1.460
       1.534
       1.593
       1.633
       1.643
       1.636
       1.643
       1.682
       1.733
       1.762
       1.731
       1.613
       1.371
       0.987
       0.508
       0.079
      -0.126
      -0.017
       0.311
       0.613
       0.641
       0.317
      -0.211
      -0.657
      -0.777
      -0.506
       0.025
       0.572
       0.912
       0.942
       0.698
       0.307
      -0.091
      -0.417
      -0.676
      -0.919
      -1.172
      -1.386
      -1.463
      -1.344
      -1.087
      -0.849
