Origin Time       25/04/2009 14:29:29 UTC
Lat.              26.4 N 
Long.             91.7 E 
Depth (Km)         10.0
Magnitude         4.0
 Region           KAMRUP-ASSAM                                                     
 Above details taken from IMD 
    
Station Code      GUA
Station Lat.       26.190  N
Station Long.      91.746  E
Station Height(m)   67.3
Site Class        C   Vs30 between 200 m/sec to 375 m/sec *  
Record Time       25.04.2009 14:29:22.864 UTC
Sampling Rate     200. Hz
 Record Duration   66.185 Sec.
 Direction         N-S (N positive)
Max. Acceleration    -13.543 cm/sec**2
     
  * For reference see Site Classification link of website 
     
 Base Line Corrected and Low Pass Filtered (Cut Off at 35 Hz) Time History
 Acceleration data in cm/sec**2
    
[...]
       0.002
      -0.001
       0.000
       0.003
       0.002
      -0.006
      -0.019
      -0.027
      -0.028
      -0.025
      -0.020
      -0.014
      -0.007
      -0.005
      -0.006
      -0.008
      -0.007
      -0.006
      -0.009
      -0.016
      -0.023
      -0.028
      -0.030
      -0.032
      -0.033
      -0.032
      -0.026
      -0.012
       0.008
       0.023
       0.026
       0.016
       0.003
      -0.007
      -0.013
      -0.017
      -0.018
      -0.015
      -0.009
      -0.001
       0.012
       0.027
       0.035
       0.030
       0.014
      -0.007
      -0.024
      -0.027
      -0.014
       0.008
       0.024
       0.026
       0.019
       0.011
       0.004
      -0.005
      -0.017
      -0.027
      -0.027
      -0.017
      -0.004
       0.004
       0.002
      -0.009
      -0.020
      -0.022
      -0.018
      -0.013
      -0.010
      -0.009
      -0.009
      -0.009
      -0.009
      -0.005
       0.002
       0.006
       0.006
       0.005
       0.005
       0.008
       0.008
       0.002
      -0.009
      -0.019
      -0.019
      -0.011
       0.000
       0.007
       0.007
       0.002
      -0.005
      -0.012
      -0.017
      -0.018
      -0.014
      -0.008
      -0.005
      -0.009
      -0.019
      -0.030
      -0.034
      -0.027
      -0.012
       0.003
       0.014
       0.022
       0.026
       0.024
       0.015
       0.000
      -0.018
      -0.030
      -0.030
      -0.017
       0.003
       0.021
       0.028
       0.024
       0.012
      -0.001
      -0.010
      -0.013
      -0.012
      -0.011
      -0.006
       0.002
       0.009
       0.005
      -0.007
      -0.017
      -0.014
      -0.001
       0.012
       0.019
       0.020
       0.015
       0.004
      -0.005
      -0.005
       0.005
       0.016
       0.014
      -0.012
      -0.055
      -0.091
      -0.086
      -0.024
       0.075
       0.163
       0.187
       0.127
       0.006
      -0.118
      -0.178
      -0.139
      -0.024
       0.100
       0.175
       0.186
       0.147
       0.073
      -0.025
      -0.132
      -0.216
      -0.242
      -0.192
      -0.075
       0.064
       0.172
       0.217
       0.203
       0.160
       0.103
       0.015
      -0.125
      -0.293
      -0.390
      -0.292
       0.053
       0.541
       0.934
       0.991
       0.646
       0.084
      -0.385
      -0.533
      -0.338
       0.041
       0.385
       0.526
       0.429
       0.199
       0.006
      -0.057
      -0.058
      -0.183
      -0.557
      -1.086
      -1.459
      -1.386
      -0.856
      -0.168
       0.309
       0.396
       0.178
      -0.139
      -0.396
      -0.534
      -0.527
      -0.339
       0.040
       0.525
       0.959
       1.213
       1.248
       1.080
       0.728
       0.246
      -0.215
      -0.466
      -0.440
      -0.252
      -0.071
       0.051
       0.160
       0.249
       0.211
      -0.002
      -0.256
      -0.336
      -0.190
       0.003
       0.012
      -0.227
      -0.553
      -0.719
      -0.572
      -0.161
       0.305
       0.596
       0.600
       0.352
      -0.011
      -0.324
      -0.450
      -0.338
      -0.059
       0.214
       0.316
       0.232
       0.124
       0.203
       0.505
       0.799
       0.770
       0.335
      -0.239
      -0.568
      -0.481
      -0.111
       0.301
       0.603
       0.751
       0.708
       0.427
      -0.035
      -0.440
      -0.522
      -0.237
       0.155
       0.309
       0.108
      -0.265
      -0.559
      -0.715
      -0.852
      -1.040
      -1.158
      -1.045
      -0.704
      -0.283
       0.103
       0.447
       0.730
       0.843
       0.689
       0.327
      -0.044
      -0.258
      -0.306
      -0.291
      -0.292
      -0.281
      -0.180
       0.036
       0.280
       0.402
       0.328
       0.163
       0.119
       0.298
       0.551
       0.612
       0.355
      -0.095
      -0.481
      -0.603
      -0.404
       0.028
       0.503
       0.815
       0.828
       0.561
       0.181
      -0.088
      -0.115
       0.034
       0.155
       0.099
      -0.094
      -0.247
      -0.243
      -0.116
       0.013
       0.068
       0.069
       0.071
       0.081
       0.035
      -0.135
      -0.411
      -0.676
      -0.795
      -0.723
      -0.523
      -0.285
      -0.056
       0.137
       0.257
       0.291
       0.297
       0.377
       0.573
       0.800
       0.881
       0.668
       0.173
      -0.420
      -0.853
      -0.952
      -0.709
      -0.285
       0.071
       0.147
      -0.095
      -0.483
      -0.743
      -0.704
      -0.434
      -0.169
      -0.100
      -0.241
      -0.466
      -0.629
      -0.637
      -0.445
      -0.055
       0.473
       1.020
       1.440
       1.626
       1.550
       1.251
       0.788
       0.246
      -0.228
      -0.463
      -0.364
       0.007
       0.463
       0.804
       0.904
       0.746
       0.392
      -0.041
      -0.413
      -0.608
      -0.586
      -0.429
      -0.304
      -0.353
      -0.578
      -0.829
      -0.907
      -0.696
      -0.233
       0.327
       0.786
       0.972
       0.824
       0.425
      -0.059
      -0.520
      -0.953
      -1.356
      -1.609
      -1.506
      -0.931
      -0.036
       0.776
       1.080
       0.732
      -0.011
      -0.656
      -0.812
      -0.437
       0.187
       0.683
       0.816
       0.604
       0.251
       0.011
       0.027
       0.243
       0.450
       0.456
       0.271
       0.123
       0.266
       0.718
       1.179
       1.262
       0.831
       0.129
      -0.434
      -0.579
      -0.288
       0.250
       0.733
       0.861
       0.465
      -0.357
      -1.251
      -1.790
      -1.740
      -1.198
      -0.499
       0.025
       0.256
       0.298
       0.309
       0.343
       0.334
       0.213
      -0.012
      -0.287
      -0.563
      -0.768
      -0.774
      -0.462
       0.123
       0.719
       0.993
       0.797
       0.297
      -0.182
      -0.403
      -0.315
       0.020
       0.495
       0.914
       1.011
       0.632
      -0.079
      -0.728
      -0.941
      -0.618
       0.016
       0.582
       0.789
       0.600
       0.217
      -0.091
      -0.173
      -0.077
       0.034
       0.036
      -0.090
      -0.309
      -0.586
      -0.861
      -0.996
      -0.829
      -0.334
       0.281
       0.680
       0.675
       0.384
       0.115
       0.071
       0.190
       0.249
       0.108
      -0.147
      -0.286
      -0.156
       0.157
       0.388
       0.329
       0.029
      -0.258
      -0.307
      -0.119
       0.115
       0.206
       0.107
      -0.104
      -0.316
      -0.449
      -0.453
      -0.282
       0.091
       0.608
       1.061
       1.177
       0.845
       0.270
      -0.155
      -0.192
       0.040
       0.208
       0.112
      -0.157
      -0.346
      -0.289
      -0.012
       0.324
       0.529
       0.471
       0.129
      -0.385
      -0.859
      -1.078
      -0.950
      -0.573
      -0.184
      -0.009
      -0.105
      -0.334
      -0.489
      -0.454
      -0.276
      -0.095
      -0.011
       0.001
       0.057
       0.232
       0.461
       0.551
       0.336
      -0.145
      -0.609
      -0.711
      -0.330
       0.321
       0.870
       1.093
       1.044
       0.911
       0.795
       0.644
       0.371
      -0.005
      -0.351
      -0.514
      -0.431
      -0.163
       0.134
       0.287
       0.211
      -0.032
      -0.252
      -0.266
      -0.063
       0.169
       0.197
      -0.048
      -0.433
      -0.757
      -0.904
      -0.872
      -0.715
      -0.488
      -0.238
       0.005
       0.245
       0.512
       0.783
       0.925
       0.753
       0.193
      -0.572
      -1.143
      -1.139
      -0.482
       0.493
       1.231
       1.323
       0.795
       0.076
      -0.336
      -0.217
       0.263
       0.691
       0.714
       0.274
      -0.349
      -0.767
      -0.808
      -0.623
      -0.463
      -0.388
      -0.250
       0.077
       0.518
       0.859
       0.939
       0.747
       0.359
      -0.138
      -0.637
      -0.959
      -0.936
      -0.575
      -0.120
       0.127
       0.053
      -0.197
      -0.384
      -0.381
      -0.223
      -0.015
       0.168
       0.294
       0.373
       0.444
       0.543
       0.652
       0.686
       0.559
       0.259
      -0.133
      -0.491
      -0.725
      -0.825
      -0.839
      -0.774
      -0.536
      -0.019
       0.700
       1.286
       1.350
       0.786
      -0.083
      -0.743
      -0.908
      -0.707
      -0.456
      -0.312
      -0.163
       0.129
       0.486
       0.666
       0.540
       0.252
       0.073
       0.139
       0.348
       0.495
       0.440
       0.177
      -0.187
      -0.479
      -0.542
      -0.353
      -0.077
       0.062
      -0.013
      -0.151
      -0.141
       0.054
       0.252
       0.253
       0.050
      -0.192
      -0.346
      -0.444
      -0.574
      -0.710
      -0.688
      -0.372
       0.183
       0.727
       0.998
       0.908
       0.580
       0.200
      -0.126
      -0.395
      -0.597
      -0.649
      -0.464
      -0.075
       0.324
       0.503
       0.376
       0.074
      -0.187
      -0.274
      -0.209
      -0.093
      -0.013
       0.004
      -0.010
       0.027
       0.192
       0.468
       0.705
       0.709
       0.410
      -0.061
      -0.486
      -0.720
      -0.759
      -0.671
      -0.508
      -0.302
      -0.093
       0.067
       0.159
       0.225
       0.327
       0.485
       0.646
       0.727
       0.662
       0.429
       0.064
      -0.345
      -0.659
      -0.753
      -0.602
      -0.297
       0.049
       0.387
       0.673
       0.775
       0.545
       0.003
      -0.591
      -0.918
      -0.851
      -0.514
      -0.097
       0.319
       0.723
       1.022
       1.040
       0.707
       0.187
      -0.253
      -0.485
      -0.587
      -0.669
      -0.692
      -0.533
      -0.177
       0.177
       0.275
       0.040
      -0.336
      -0.547
      -0.409
       0.009
       0.442
       0.603
       0.378
      -0.108
      -0.565
      -0.719
      -0.501
      -0.073
       0.326
       0.573
       0.675
       0.650
       0.445
       0.037
      -0.438
      -0.713
      -0.588
      -0.117
       0.411
       0.678
       0.543
       0.101
      -0.392
      -0.668
      -0.606
      -0.300
      -0.010
       0.017
      -0.254
      -0.593
      -0.643
      -0.202
       0.569
       1.187
       1.187
       0.518
      -0.381
      -0.930
      -0.865
      -0.381
       0.119
       0.372
       0.373
       0.262
       0.154
       0.076
       0.005
      -0.062
      -0.057
       0.113
       0.440
       0.754
       0.828
       0.579
       0.147
      -0.222
      -0.388
      -0.370
      -0.226
       0.075
       0.583
       1.174
       1.492
       1.179
       0.217
      -0.958
      -1.728
      -1.733
      -1.104
      -0.280
       0.367
       0.734
       0.869
       0.769
       0.375
      -0.251
      -0.867
      -1.211
      -1.204
      -0.954
      -0.599
      -0.217
       0.145
       0.405
       0.461
       0.274
      -0.064
      -0.377
      -0.544
      -0.613
      -0.708
      -0.818
      -0.743
      -0.351
       0.184
       0.512
       0.493
       0.358
       0.440
       0.789
       1.097
       1.003
       0.444
      -0.273
      -0.712
      -0.615
      -0.052
       0.656
       1.157
       1.257
       0.977
       0.505
       0.098
      -0.032
       0.148
       0.433
       0.506
       0.181
      -0.431
      -0.994
      -1.189
      -0.933
      -0.435
      -0.057
      -0.081
      -0.522
      -1.128
      -1.565
      -1.640
      -1.398
      -1.062
      -0.856
      -0.823
      -0.768
      -0.414
       0.307
       1.098
       1.479
       1.198
       0.479
      -0.145
      -0.268
       0.091
       0.543
       0.674
       0.370
      -0.136
      -0.490
      -0.468
      -0.057
       0.627
       1.418
       2.080
       2.258
       1.631
       0.216
      -1.426
      -2.435
      -2.232
      -1.005
       0.367
       0.928
       0.294
      -1.160
      -2.702
      -3.800
      -4.354
      -4.485
      -4.208
      -3.352
      -1.779
       0.341
       2.470
       3.953
       4.375
       3.738
       2.421
       1.042
       0.246
       0.383
       1.233
       2.090
       2.225
       1.374
      -0.151
      -1.730
      -2.723
      -2.572
      -0.884
       2.260
       5.986
       8.773
       9.261
       7.151
       3.398
      -0.476
      -3.274
      -4.468
      -3.953
      -1.859
       1.187
       3.843
       4.557
       2.652
      -1.028
      -4.598
      -6.356
      -5.679
      -2.987
       0.856
       4.910
       8.072
       9.047
       6.890
       1.842
      -4.367
      -9.262
     -10.944
      -9.034
      -4.672
       0.246
       3.953
       5.342
       4.131
       0.885
      -3.044
      -5.856
      -6.027
      -3.136
       1.760
       6.552
       9.127
       8.397
       4.711
      -0.498
      -5.507
      -8.998
     -10.371
      -9.717
      -7.563
      -4.457
      -0.608
       3.986
       8.813
      12.251
      12.109
       7.280
      -0.877
      -8.940
     -13.543
     -13.489
     -10.114
      -5.813
      -2.229
       0.376
       2.426
       4.082
       5.007
       4.840
       3.646
       1.907
       0.287
      -0.450
       0.453
       3.308
       7.379
      10.812
      11.574
       8.843
       3.658
      -1.816
      -5.751
      -7.545
      -7.572
      -6.413
      -4.450
      -2.002
       0.509
       2.701
       4.395
       5.429
       5.318
       3.364
      -0.584
      -5.462
      -9.272
     -10.283
      -8.188
      -4.276
      -0.547
       1.559
       1.924
       1.607
       1.930
       3.462
       5.574
       6.850
       6.059
       3.007
      -1.317
      -5.338
      -7.726
      -7.904
      -6.052
      -2.863
       0.677
       3.484
       4.723
       4.231
       2.657
       1.036
       0.036
      -0.466
      -1.016
      -1.767
      -2.062
      -0.987
       1.545
       4.277
       5.382
       3.962
       0.891
      -1.842
      -2.704
      -1.661
       0.100
       1.281
       1.327
       0.465
      -0.708
      -1.525
      -1.361
       0.111
       2.541
       4.822
       5.634
       4.267
       1.054
      -2.877
      -6.236
      -8.104
      -8.135
      -6.504
      -3.749
      -0.567
       2.402
       4.677
       5.862
       5.559
       3.538
       0.121
      -3.592
      -6.060
      -6.109
      -3.664
       0.180
       3.796
       5.887
       6.014
       4.593
       2.519
       0.687
      -0.355
      -0.524
      -0.139
       0.264
       0.186
      -0.611
      -1.999
      -3.533
      -4.602
      -4.663
      -3.519
      -1.521
       0.518
       1.750
       1.785
       0.836
      -0.562
      -1.917
      -2.909
      -3.317
      -3.011
      -2.060
      -0.761
       0.574
       1.860
       3.176
       4.366
       4.866
       4.109
       2.193
       0.080
      -0.978
      -0.348
       1.493
       3.255
       3.663
       2.230
      -0.477
      -3.193
      -4.656
      -4.254
      -2.257
       0.433
       2.767
       3.932
       3.529
       1.683
      -0.891
      -3.063
      -3.841
      -3.018
      -1.373
      -0.129
      -0.029
      -0.840
      -1.718
      -2.030
      -1.800
      -1.392
      -0.891
       0.075
       1.859
       4.192
       6.130
       6.673
       5.523
       3.291
       1.054
      -0.348
      -0.743
      -0.586
      -0.530
      -0.926
      -1.585
      -1.994
      -1.770
      -0.978
      -0.073
       0.440
       0.355
      -0.155
      -0.752
      -1.218
      -1.504
      -1.528
      -1.085
      -0.072
       1.168
       1.873
       1.398
      -0.184
      -2.063
      -3.322
      -3.622
      -3.241
      -2.520
      -1.416
       0.311
       2.532
       4.523
       5.378
       4.691
       2.867
       0.797
      -0.750
      -1.486
      -1.532
      -1.171
      -0.683
      -0.312
      -0.225
      -0.403
      -0.596
      -0.477
       0.062
       0.730
       0.998
       0.513
      -0.609
      -1.847
      -2.654
      -2.790
      -2.365
      -1.623
      -0.727
       0.283
       1.374
       2.376
       2.965
       2.848
       2.010
       0.790
      -0.327
      -1.006
      -1.225
      -1.191
      -1.121
      -1.032
      -0.710
       0.064
       1.214
       2.233
       2.415
       1.293
      -0.986
      -3.627
      -5.498
      -5.640
      -3.760
      -0.465
       2.916
       4.971
       4.974
       3.293
       1.077
      -0.529
      -1.064
      -0.881
      -0.731
      -1.180
      -2.211
      -3.241
      -3.501
      -2.532
      -0.524
       1.720
       3.187
       3.209
       1.849
      -0.159
      -1.875
      -2.674
      -2.451
      -1.473
      -0.130
       1.195
       2.129
       2.345
       1.736
       0.593
      -0.443
      -0.737
      -0.099
       1.061
       2.032
       2.343
       2.107
       1.852
       2.010
       2.475
       2.637
       1.855
       0.033
      -2.141
      -3.511
      -3.168
      -1.126
       1.575
       3.508
       3.809
       2.693
       1.137
       0.079
      -0.158
       0.132
       0.422
       0.307
      -0.307
      -1.163
      -1.781
      -1.779
      -1.218
      -0.611
      -0.508
      -0.993
      -1.583
      -1.652
      -0.993
      -0.005
       0.671
       0.705
       0.329
       0.045
       0.108
       0.295
       0.186
      -0.359
      -1.010
      -1.223
      -0.688
       0.395
       1.385
       1.548
       0.526
      -1.330
      -3.071
      -3.741
      -3.070
      -1.661
      -0.492
      -0.155
      -0.507
      -0.949
      -0.994
      -0.576
       0.067
       0.727
       1.389
       2.100
       2.742
       2.992
       2.563
       1.495
       0.173
      -0.957
      -1.677
      -1.998
      -1.955
      -1.463
      -0.435
       0.968
       2.263
       2.855
       2.400
       1.041
      -0.680
      -2.113
      -2.760
      -2.385
      -1.079
       0.664
       1.994
       2.084
       0.702
      -1.483
      -3.250
      -3.603
      -2.368
      -0.207
       1.845
       2.923
       2.708
       1.530
       0.177
      -0.557
      -0.352
       0.466
       1.203
       1.331
       0.882
       0.370
       0.301
       0.667
       0.892
       0.344
      -1.020
      -2.490
      -3.079
      -2.264
      -0.342
       1.789
       3.185
       3.319
       2.207
       0.248
      -1.994
      -3.925
      -4.990
      -4.785
      -3.228
      -0.706
       1.985
       3.919
       4.457
       3.580
       1.955
       0.617
       0.361
       1.213
       2.387
       2.820
       1.924
      -0.032
      -2.160
      -3.543
      -3.703
      -2.721
      -1.076
       0.614
       1.859
       2.465
