Origin Time       29/12/2009 09:01:42
Lat.              24.5°N	
Long.             94.8°E	
Depth (Km)         80.0
Magnitude         5.5
 Region           MYANMAR-INDIA(MANIPUR)-BORDER                                    
 Above details taken from IMD 
     
Station Code      GUA
Station Lat.       26.190  N
Station Long.      91.746  E
Station Height(m)   55.2
Site Class        C   Vs30 between 200 m/sec to 375 m/sec *  
Record Time       29.12.2009 09:02:44.979
Sampling Rate     200. Hz
 Record Duration   80.765 Sec.
 Direction         E-W (E positive)
Max. Acceleration    -10.919 cm/sec**2
     
  * For reference see Site Classification link of website 
     
 Base Line Corrected and Low Pass Filtered (Cut Off at 35 Hz) Time History
 Acceleration data in cm/sec**2
    
[...]
       0.229
       0.398
       0.546
       0.604
       0.543
       0.382
       0.168
      -0.057
      -0.268
      -0.451
      -0.592
      -0.673
      -0.673
      -0.583
      -0.419
      -0.224
      -0.054
       0.054
       0.110
       0.148
       0.184
       0.184
       0.099
      -0.085
      -0.325
      -0.551
      -0.704
      -0.761
      -0.723
      -0.610
      -0.460
      -0.322
      -0.241
      -0.227
      -0.240
      -0.211
      -0.096
       0.091
       0.289
       0.437
       0.512
       0.534
       0.536
       0.533
       0.516
       0.460
       0.352
       0.201
       0.043
      -0.077
      -0.124
      -0.089
      -0.004
       0.075
       0.090
       0.013
      -0.154
      -0.374
      -0.593
      -0.741
      -0.762
      -0.634
      -0.385
      -0.087
       0.179
       0.341
       0.363
       0.248
       0.037
      -0.198
      -0.372
      -0.421
      -0.333
      -0.158
       0.013
       0.104
       0.090
       0.015
      -0.049
      -0.046
       0.018
       0.093
       0.136
       0.142
       0.145
       0.171
       0.207
       0.212
       0.156
       0.049
      -0.059
      -0.121
      -0.129
      -0.119
      -0.133
      -0.183
      -0.241
      -0.264
      -0.230
      -0.151
      -0.053
       0.044
       0.134
       0.213
       0.273
       0.300
       0.283
       0.229
       0.152
       0.073
       0.011
      -0.021
      -0.020
       0.007
       0.052
       0.113
       0.183
       0.243
       0.264
       0.224
       0.128
       0.010
      -0.089
      -0.140
      -0.134
      -0.081
       0.005
       0.115
       0.230
       0.327
       0.379
       0.377
       0.335
       0.280
       0.242
       0.230
       0.225
       0.196
       0.123
       0.018
      -0.079
      -0.124
      -0.093
       0.011
       0.159
       0.310
       0.427
       0.488
       0.498
       0.476
       0.445
       0.417
       0.376
       0.293
       0.150
      -0.035
      -0.217
      -0.361
      -0.461
      -0.537
      -0.607
      -0.670
      -0.703
      -0.684
      -0.606
      -0.486
      -0.350
      -0.219
      -0.107
      -0.020
       0.035
       0.053
       0.035
      -0.010
      -0.061
      -0.085
      -0.056
       0.019
       0.100
       0.136
       0.091
      -0.032
      -0.199
      -0.354
      -0.445
      -0.438
      -0.327
      -0.131
       0.105
       0.328
       0.494
       0.587
       0.622
       0.629
       0.630
       0.623
       0.587
       0.494
       0.332
       0.118
      -0.103
      -0.283
      -0.391
      -0.430
      -0.431
      -0.437
      -0.469
      -0.516
      -0.546
      -0.529
      -0.453
      -0.331
      -0.179
      -0.013
       0.153
       0.307
       0.436
       0.530
       0.580
       0.585
       0.541
       0.449
       0.309
       0.133
      -0.050
      -0.200
      -0.286
      -0.305
      -0.277
      -0.230
      -0.182
      -0.134
      -0.076
      -0.006
       0.067
       0.120
       0.132
       0.092
       0.013
      -0.068
      -0.112
      -0.105
      -0.074
      -0.067
      -0.117
      -0.214
      -0.311
      -0.364
      -0.365
      -0.349
      -0.359
      -0.403
      -0.446
      -0.432
      -0.333
      -0.163
       0.034
       0.209
       0.331
       0.390
       0.394
       0.364
       0.323
       0.286
       0.256
       0.222
       0.171
       0.099
       0.008
      -0.098
      -0.221
      -0.355
      -0.480
      -0.563
      -0.575
      -0.515
      -0.413
      -0.317
      -0.259
      -0.229
      -0.183
      -0.081
       0.069
       0.202
       0.240
       0.138
      -0.075
      -0.311
      -0.470
      -0.489
      -0.363
      -0.145
       0.085
       0.249
       0.304
       0.269
       0.215
       0.229
       0.351
       0.550
       0.741
       0.840
       0.817
       0.711
       0.601
       0.548
       0.558
       0.587
       0.578
       0.498
       0.343
       0.132
      -0.102
      -0.316
      -0.473
      -0.548
      -0.545
      -0.488
      -0.411
      -0.341
      -0.284
      -0.229
      -0.156
      -0.063
       0.037
       0.120
       0.163
       0.152
       0.079
      -0.058
      -0.248
      -0.450
      -0.605
      -0.661
      -0.607
      -0.477
      -0.337
      -0.248
      -0.239
      -0.300
      -0.379
      -0.404
      -0.317
      -0.105
       0.185
       0.476
       0.702
       0.845
       0.924
       0.970
       1.001
       1.020
       1.017
       0.978
       0.889
       0.737
       0.537
       0.327
       0.147
       0.008
      -0.121
      -0.293
      -0.529
      -0.796
      -1.017
      -1.125
      -1.106
      -0.993
      -0.840
      -0.686
      -0.563
      -0.502
      -0.518
      -0.587
      -0.643
      -0.614
      -0.468
      -0.244
      -0.029
       0.098
       0.114
       0.056
      -0.008
      -0.019
       0.065
       0.273
       0.607
       1.032
       1.481
       1.879
       2.173
       2.334
       2.355
       2.233
       1.979
       1.630
       1.261
       0.953
       0.761
       0.675
       0.634
       0.566
       0.425
       0.209
      -0.055
      -0.332
      -0.602
      -0.870
      -1.161
      -1.497
      -1.869
      -2.240
      -2.555
      -2.776
      -2.887
      -2.892
      -2.796
      -2.596
      -2.292
      -1.896
      -1.428
      -0.908
      -0.368
       0.136
       0.530
       0.749
       0.777
       0.665
       0.498
       0.358
       0.288
       0.297
       0.383
       0.547
       0.792
       1.106
       1.460
       1.809
       2.108
       2.324
       2.441
       2.456
       2.363
       2.158
       1.849
       1.480
       1.123
       0.843
       0.657
       0.527
       0.385
       0.175
      -0.122
      -0.501
      -0.946
      -1.444
      -1.969
      -2.483
      -2.948
      -3.341
      -3.660
      -3.908
      -4.080
      -4.153
      -4.104
      -3.923
      -3.623
      -3.237
      -2.804
      -2.347
      -1.877
      -1.400
      -0.938
      -0.524
      -0.187
       0.094
       0.397
       0.823
       1.438
       2.220
       3.075
       3.900
       4.659
       5.381
       6.101
       6.784
       7.313
       7.545
       7.389
       6.848
       5.989
       4.892
       3.629
       2.262
       0.858
      -0.511
      -1.783
      -2.907
      -3.860
      -4.640
      -5.268
      -5.773
      -6.184
      -6.519
      -6.788
      -6.997
      -7.133
      -7.152
      -6.969
      -6.497
      -5.702
      -4.648
      -3.464
      -2.276
      -1.144
      -0.064
       0.987
       2.005
       2.953
       3.794
       4.521
       5.158
       5.735
       6.266
       6.748
       7.161
       7.473
       7.638
       7.618
       7.412
       7.063
       6.638
       6.191
       5.741
       5.273
       4.760
       4.171
       3.475
       2.641
       1.651
       0.519
      -0.698
      -1.923
      -3.097
      -4.209
      -5.293
      -6.385
      -7.471
      -8.470
      -9.261
      -9.736
      -9.851
      -9.627
      -9.117
      -8.368
      -7.405
      -6.248
      -4.931
      -3.513
      -2.065
      -0.649
       0.688
       1.909
       2.983
       3.887
       4.628
       5.245
       5.785
       6.270
       6.692
       7.017
       7.201
       7.199
       6.975
       6.517
       5.846
       5.024
       4.131
       3.229
       2.334
       1.406
       0.394
      -0.721
      -1.895
      -3.048
      -4.110
      -5.061
      -5.939
      -6.803
      -7.685
      -8.569
      -9.391
     -10.061
     -10.477
     -10.536
     -10.169
      -9.382
      -8.273
      -6.995
      -5.684
      -4.404
      -3.141
      -1.854
      -0.528
       0.787
       2.008
       3.054
       3.897
       4.566
       5.130
       5.663
       6.216
       6.803
       7.395
       7.928
       8.328
       8.531
       8.512
       8.290
       7.919
       7.465
       6.977
       6.464
       5.881
       5.143
       4.177
       2.977
       1.626
       0.266
      -0.970
      -2.020
      -2.911
      -3.708
      -4.450
      -5.105
      -5.594
      -5.849
      -5.865
      -5.700
      -5.429
      -5.100
      -4.706
      -4.212
      -3.585
      -2.812
      -1.905
      -0.899
       0.135
       1.089
       1.847
       2.312
       2.450
       2.309
       2.014
       1.742
       1.677
       1.949
       2.591
       3.537
       4.664
       5.836
       6.916
       7.756
       8.196
       8.108
       7.471
       6.399
       5.110
       3.819
       2.665
       1.687
       0.854
       0.104
      -0.631
      -1.422
      -2.332
      -3.403
      -4.638
      -5.988
      -7.349
      -8.579
      -9.525
     -10.071
     -10.172
      -9.860
      -9.213
      -8.316
      -7.233
      -6.026
      -4.770
      -3.570
      -2.536
      -1.743
      -1.192
      -0.801
      -0.451
      -0.048
       0.436
       0.976
       1.539
       2.122
       2.746
       3.416
       4.092
       4.703
       5.179
       5.483
       5.605
       5.537
       5.260
       4.756
       4.017
       3.058
       1.905
       0.612
      -0.723
      -1.969
      -3.013
      -3.822
      -4.450
      -4.972
      -5.413
      -5.716
      -5.796
      -5.608
      -5.189
      -4.645
      -4.090
      -3.611
      -3.236
      -2.945
      -2.677
      -2.347
      -1.867
      -1.156
      -0.169
       1.092
       2.554
       4.087
       5.540
       6.775
       7.706
       8.307
       8.616
       8.697
       8.613
       8.393
       8.031
       7.505
       6.809
       5.965
       5.022
       4.039
       3.067
       2.130
       1.218
       0.303
      -0.620
      -1.502
      -2.242
      -2.752
      -3.020
      -3.127
      -3.197
      -3.342
      -3.612
      -3.999
      -4.454
      -4.914
      -5.316
      -5.601
      -5.721
      -5.645
      -5.373
      -4.927
      -4.345
      -3.667
      -2.932
      -2.170
      -1.386
      -0.552
       0.379
       1.445
       2.648
       3.947
       5.258
       6.470
       7.445
       8.033
       8.110
       7.629
       6.661
       5.393
       4.062
       2.861
       1.857
       0.983
       0.108
      -0.862
      -1.912
      -2.928
      -3.769
      -4.360
      -4.718
      -4.915
      -5.001
      -4.957
      -4.734
      -4.315
      -3.780
      -3.273
      -2.933
      -2.814
      -2.876
      -3.022
      -3.168
      -3.269
      -3.309
      -3.255
      -3.039
      -2.588
      -1.885
      -0.990
      -0.011
       0.975
       1.960
       2.983
       4.071
       5.192
       6.261
       7.177
       7.858
       8.247
       8.303
       8.008
       7.392
       6.554
       5.644
       4.800
       4.070
       3.388
       2.622
       1.669
       0.522
      -0.725
      -1.937
      -2.998
      -3.857
      -4.520
      -5.014
      -5.359
      -5.563
      -5.658
      -5.731
      -5.907
      -6.274
      -6.802
      -7.330
      -7.634
      -7.551
      -7.067
      -6.304
      -5.432
      -4.561
      -3.717
      -2.884
      -2.052
      -1.222
      -0.371
       0.550
       1.584
       2.713
       3.837
       4.794
       5.418
       5.596
       5.303
       4.605
       3.646
       2.610
       1.663
       0.916
       0.405
       0.127
       0.066
       0.196
       0.467
       0.787
       1.048
       1.153
       1.049
       0.725
       0.205
      -0.453
      -1.168
      -1.849
      -2.427
      -2.876
      -3.223
      -3.525
      -3.825
      -4.113
      -4.305
      -4.273
      -3.910
      -3.201
      -2.246
      -1.204
      -0.199
       0.759
       1.771
       2.962
       4.370
       5.888
       7.297
       8.367
       8.953
       9.008
       8.560
       7.684
       6.513
       5.238
       4.070
       3.169
       2.595
       2.323
       2.300
       2.497
       2.890
       3.424
       3.983
       4.423
       4.630
       4.562
       4.227
       3.640
       2.797
       1.699
       0.392
      -1.015
      -2.385
      -3.622
      -4.718
      -5.746
      -6.800
      -7.898
      -8.934
      -9.696
      -9.966
      -9.627
      -8.726
      -7.442
      -6.011
      -4.640
      -3.470
      -2.565
      -1.919
      -1.468
      -1.111
      -0.735
      -0.248
       0.412
       1.271
       2.317
       3.495
       4.693
       5.775
       6.621
       7.163
       7.377
       7.255
       6.804
       6.072
       5.166
       4.220
       3.323
       2.452
       1.487
       0.291
      -1.185
      -2.849
      -4.520
      -6.028
      -7.291
      -8.324
      -9.162
      -9.790
     -10.101
      -9.951
      -9.262
      -8.104
      -6.687
      -5.256
      -3.963
      -2.823
      -1.780
      -0.821
      -0.021
       0.508
       0.705
       0.631
       0.442
       0.332
       0.460
       0.915
       1.700
       2.738
       3.872
       4.904
       5.655
       6.037
       6.084
       5.942
       5.801
       5.815
       6.045
       6.456
       6.948
       7.380
       7.590
       7.421
       6.766
       5.610
       4.044
       2.234
       0.334
      -1.568
      -3.459
      -5.346
      -7.186
      -8.852
     -10.147
     -10.873
     -10.919
     -10.321
      -9.251
      -7.941
      -6.591
      -5.306
      -4.091
      -2.899
      -1.690
      -0.490
       0.610
       1.489
       2.061
       2.328
       2.404
       2.487
       2.773
       3.350
       4.162
       5.056
       5.886
       6.587
       7.175
       7.679
       8.080
       8.303
       8.250
       7.867
       7.174
       6.264
       5.280
       4.361
       3.583
       2.908
       2.191
       1.246
      -0.035
      -1.592
      -3.196
      -4.536
      -5.358
      -5.567
      -5.240
      -4.561
      -3.732
      -2.912
      -2.217
      -1.732
      -1.522
      -1.615
      -1.983
      -2.531
      -3.106
      -3.530
      -3.631
      -3.298
      -2.521
      -1.429
      -0.270
       0.671
       1.193
       1.257
       0.988
       0.608
       0.338
       0.307
       0.512
       0.850
       1.193
       1.471
       1.699
       1.933
       2.189
       2.394
       2.409
       2.108
       1.465
       0.576
      -0.394
      -1.312
      -2.135
      -2.911
      -3.707
      -4.524
      -5.278
      -5.838
      -6.115
      -6.113
      -5.933
      -5.730
      -5.639
      -5.714
      -5.896
      -6.032
      -5.932
      -5.454
      -4.572
      -3.372
      -2.012
      -0.636
       0.665
       1.865
       2.958
       3.921
       4.698
       5.210
       5.412
       5.343
       5.134
       4.945
       4.879
       4.929
       5.014
       5.050
       5.004
       4.879
       4.673
       4.349
       3.857
       3.172
       2.317
       1.359
       0.397
      -0.447
      -1.045
      -1.319
      -1.313
      -1.193
      -1.159
      -1.305
      -1.542
      -1.664
      -1.522
      -1.152
      -0.753
      -0.535
      -0.562
      -0.731
      -0.865
      -0.822
      -0.538
      -0.012
       0.708
       1.526
       2.308
       2.920
       3.284
       3.406
       3.348
       3.169
       2.880
       2.478
       2.007
       1.608
       1.460
       1.679
       2.212
       2.833
       3.251
       3.254
       2.807
       2.029
       1.095
       0.121
      -0.875
      -1.953
      -3.164
      -4.471
      -5.739
      -6.780
      -7.445
      -7.679
      -7.518
      -7.053
      -6.394
      -5.667
      -5.003
      -4.521
      -4.281
      -4.261
      -4.360
      -4.427
      -4.299
      -3.829
      -2.931
      -1.619
      -0.032
       1.595
       3.005
       4.025
       4.609
       4.824
       4.778
       4.561
       4.229
       3.828
       3.425
       3.099
       2.911
       2.873
       2.959
       3.128
       3.344
       3.570
       3.750
       3.793
       3.597
       3.095
       2.292
       1.285
       0.233
      -0.696
      -1.402
      -1.887
      -2.249
      -2.613
      -3.057
      -3.580
      -4.125
      -4.609
      -4.934
      -4.983
      -4.651
      -3.884
      -2.713
      -1.244
       0.372
       1.977
       3.428
       4.614
       5.459
       5.934
       6.057
       5.897
       5.557
       5.134
       4.682
       4.192
       3.609
       2.893
       2.074
       1.250
       0.534
      -0.033
      -0.513
      -1.020
      -1.621
      -2.264
      -2.807
      -3.127
      -3.243
      -3.331
      -3.610
      -4.191
      -4.989
      -5.779
      -6.327
      -6.510
      -6.366
      -6.034
      -5.662
      -5.327
      -5.012
      -4.647
      -4.176
      -3.604
      -2.999
      -2.446
      -1.979
      -1.550
      -1.055
      -0.413
       0.389
       1.292
       2.216
       3.110
       3.957
       4.738
       5.394
       5.826
       5.953
       5.780
       5.425
       5.070
       4.882
       4.935
       5.199
       5.559
       5.865
       5.967
       5.755
       5.178
       4.267
       3.124
       1.889
       0.683
      -0.441
      -1.495
      -2.510
      -3.475
      -4.317
      -4.943
      -5.307
      -5.445
      -5.434
      -5.321
      -5.077
      -4.644
      -4.018
      -3.302
      -2.655
      -2.187
      -1.883
      -1.621
      -1.273
      -0.793
      -0.221
       0.364
       0.915
       1.439
       1.994
       2.656
       3.479
       4.452
       5.490
       6.450
       7.184
       7.578
       7.570
       7.154
       6.373
       5.315
       4.113
       2.911
       1.815
       0.858
       0.012
      -0.755
      -1.440
      -2.011
      -2.446
      -2.773
      -3.069
      -3.428
      -3.911
      -4.495
      -5.075
      -5.504
      -5.688
      -5.626
      -5.396
      -5.091
      -4.761
      -4.418
      -4.071
      -3.735
      -3.411
      -3.050
      -2.585
      -1.996
      -1.356
      -0.790
      -0.383
      -0.115
       0.123
       0.431
       0.809
       1.151
       1.323
       1.261
       1.010
       0.679
       0.371
       0.142
       0.012
      -0.006
       0.087
       0.252
       0.394
       0.389
       0.155
      -0.281
      -0.764
      -1.066
      -0.991
      -0.473
       0.388
       1.368
       2.228
       2.806
       3.054
       2.998
       2.690
       2.180
       1.533
       0.859
       0.328
       0.124
       0.357
       0.995
       1.866
       2.738
       3.425
       3.844
       4.027
       4.075
       4.091
       4.119
       4.115
       3.978
       3.606
       2.953
       2.052
       1.008
      -0.042
      -0.972
      -1.706
      -2.224
      -2.535
      -2.647
      -2.564
      -2.314
      -1.969
      -1.644
      -1.467
      -1.524
      -1.811
      -2.231
      -2.618
      -2.794
      -2.643
      -2.172
      -1.531
      -0.946
      -0.617
      -0.631
      -0.951
      -1.461
      -2.019
      -2.500
      -2.812
      -2.919
      -2.842
      -2.637
