Origin Time       11/8/2009 21:43:39 
Lat.              24.4 N 
Long.             94.8 E 
Depth (Km)         22.0
Magnitude         5.6
 Region           MYANMAR-INDIA(MANIPUR)BORDER                                     
 Above details taken from IMD 
   
Station Code      GUA
Station Lat.       26.190
Station Long.      91.746
Station Height(m)   67.3
Site Class        C   Vs30 between 200 m/sec to 375 m/sec *  
Record Time       11.08.2009 21:44:54.729
Sampling Rate     200. Hz
 Record Duration   73.040 Sec.
 Direction         Vert. (Up positive)
Max. Acceleration    -13.084 cm/sec**2
     
  * For reference see Site Classification link of website 
     
 Base Line Corrected and Low Pass Filtered (Cut Off at 35 Hz) Time History
 Acceleration data in cm/sec**2
    
[...]
       0.609
       0.575
       0.449
       0.295
       0.166
       0.080
       0.005
      -0.098
      -0.237
      -0.364
      -0.402
      -0.297
      -0.069
       0.189
       0.355
       0.349
       0.177
      -0.071
      -0.279
      -0.375
      -0.381
      -0.374
      -0.416
      -0.492
      -0.510
      -0.385
      -0.115
       0.202
       0.437
       0.520
       0.487
       0.443
       0.472
       0.582
       0.706
       0.757
       0.685
       0.499
       0.247
      -0.021
      -0.276
      -0.497
      -0.658
      -0.712
      -0.618
      -0.379
      -0.066
       0.201
       0.323
       0.272
       0.121
      -0.002
      -0.001
       0.116
       0.237
       0.237
       0.093
      -0.092
      -0.161
      -0.037
       0.209
       0.401
       0.393
       0.165
      -0.161
      -0.416
      -0.491
      -0.401
      -0.259
      -0.191
      -0.250
      -0.380
      -0.463
      -0.412
      -0.243
      -0.058
       0.045
       0.058
       0.075
       0.213
       0.505
       0.857
       1.104
       1.117
       0.891
       0.556
       0.294
       0.221
       0.308
       0.395
       0.299
      -0.051
      -0.557
      -1.014
      -1.248
      -1.224
      -1.054
      -0.893
      -0.832
      -0.838
      -0.798
      -0.620
      -0.310
       0.021
       0.247
       0.320
       0.301
       0.300
       0.373
       0.475
       0.492
       0.337
       0.024
      -0.314
      -0.504
      -0.447
      -0.183
       0.135
       0.351
       0.411
       0.394
       0.425
       0.567
       0.766
       0.898
       0.855
       0.604
       0.187
      -0.306
      -0.763
      -1.063
      -1.120
      -0.939
      -0.629
      -0.348
      -0.198
      -0.174
      -0.184
      -0.125
       0.050
       0.310
       0.578
       0.774
       0.848
       0.792
       0.636
       0.420
       0.185
      -0.031
      -0.191
      -0.271
      -0.288
      -0.301
      -0.368
      -0.500
      -0.647
      -0.725
      -0.673
      -0.486
      -0.222
       0.027
       0.165
       0.142
      -0.024
      -0.242
      -0.398
      -0.419
      -0.324
      -0.199
      -0.126
      -0.110
      -0.083
       0.032
       0.246
       0.483
       0.644
       0.686
       0.654
       0.630
       0.641
       0.631
       0.515
       0.276
       0.002
      -0.168
      -0.151
       0.011
       0.182
       0.249
       0.213
       0.173
       0.212
       0.301
       0.314
       0.143
      -0.194
      -0.556
      -0.777
      -0.781
      -0.620
      -0.418
      -0.280
      -0.225
      -0.190
      -0.090
       0.109
       0.339
       0.468
       0.403
       0.174
      -0.077
      -0.194
      -0.130
       0.034
       0.159
       0.162
       0.064
      -0.042
      -0.069
      -0.008
       0.070
       0.064
      -0.067
      -0.259
      -0.388
      -0.360
      -0.192
      -0.001
       0.085
       0.031
      -0.088
      -0.162
      -0.145
      -0.082
      -0.056
      -0.088
      -0.108
      -0.008
       0.255
       0.594
       0.825
       0.795
       0.514
       0.162
      -0.040
       0.001
       0.182
       0.284
       0.144
      -0.230
      -0.654
      -0.897
      -0.820
      -0.463
      -0.024
       0.260
       0.253
      -0.006
      -0.335
      -0.533
      -0.507
      -0.305
      -0.045
       0.193
       0.410
       0.639
       0.877
       1.051
       1.047
       0.786
       0.295
      -0.270
      -0.689
      -0.801
      -0.608
      -0.280
      -0.036
      -0.009
      -0.176
      -0.407
      -0.572
      -0.619
      -0.568
      -0.462
      -0.326
      -0.167
      -0.009
       0.092
       0.080
      -0.041
      -0.173
      -0.169
       0.059
       0.452
       0.822
       0.970
       0.834
       0.535
       0.298
       0.290
       0.510
       0.793
       0.919
       0.753
       0.317
      -0.222
      -0.653
      -0.834
      -0.766
      -0.597
      -0.518
      -0.642
      -0.925
      -1.210
      -1.338
      -1.248
      -0.983
      -0.629
      -0.242
       0.170
       0.601
       1.009
       1.305
       1.415
       1.327
       1.110
       0.870
       0.679
       0.532
       0.370
       0.149
      -0.124
      -0.402
      -0.640
      -0.818
      -0.920
      -0.923
      -0.808
      -0.590
      -0.333
      -0.126
      -0.032
      -0.049
      -0.108
      -0.123
      -0.050
       0.073
       0.154
       0.109
      -0.068
      -0.297
      -0.461
      -0.478
      -0.342
      -0.109
       0.156
       0.426
       0.717
       1.038
       1.356
       1.598
       1.686
       1.581
       1.300
       0.904
       0.464
       0.050
      -0.275
      -0.452
      -0.449
      -0.288
      -0.058
       0.123
       0.161
       0.023
      -0.264
      -0.624
      -0.967
      -1.221
      -1.358
      -1.384
      -1.316
      -1.159
      -0.912
      -0.588
      -0.230
       0.100
       0.351
       0.510
       0.602
       0.658
       0.699
       0.727
       0.754
       0.814
       0.935
       1.088
       1.172
       1.072
       0.749
       0.279
      -0.196
      -0.560
      -0.786
      -0.934
      -1.077
      -1.228
      -1.331
      -1.305
      -1.118
      -0.833
      -0.592
      -0.540
      -0.719
      -1.026
      -1.262
      -1.260
      -0.987
      -0.555
      -0.115
       0.254
       0.588
       0.978
       1.465
       1.979
       2.371
       2.522
       2.449
       2.306
       2.275
       2.423
       2.647
       2.739
       2.539
       2.049
       1.410
       0.786
       0.228
      -0.354
      -1.095
      -2.036
      -3.039
      -3.831
      -4.164
      -3.975
      -3.439
      -2.867
      -2.508
      -2.407
      -2.400
      -2.266
      -1.898
      -1.380
      -0.888
      -0.519
      -0.197
       0.252
       0.925
       1.722
       2.404
       2.767
       2.808
       2.711
       2.687
       2.787
       2.864
       2.693
       2.168
       1.401
       0.657
       0.173
      -0.022
      -0.127
      -0.419
      -1.038
      -1.870
      -2.596
      -2.882
      -2.565
      -1.751
      -0.754
       0.065
       0.482
       0.494
       0.274
       0.023
      -0.157
      -0.312
      -0.551
      -0.918
      -1.307
      -1.521
      -1.412
      -1.004
      -0.489
      -0.101
       0.029
      -0.046
      -0.155
      -0.139
       0.013
       0.155
       0.100
      -0.212
      -0.622
      -0.817
      -0.518
       0.336
       1.533
       2.718
       3.576
       3.969
       3.938
       3.624
       3.161
       2.622
       2.023
       1.373
       0.718
       0.129
      -0.353
      -0.788
      -1.327
      -2.108
      -3.131
      -4.204
      -5.028
      -5.360
      -5.141
      -4.504
      -3.676
      -2.855
      -2.129
      -1.473
      -0.809
      -0.094
       0.632
       1.270
       1.745
       2.072
       2.352
       2.683
       3.086
       3.474
       3.692
       3.611
       3.228
       2.681
       2.162
       1.792
       1.544
       1.263
       0.779
       0.032
      -0.868
      -1.699
      -2.227
      -2.328
      -2.066
      -1.667
      -1.390
      -1.374
      -1.560
      -1.741
      -1.695
      -1.321
      -0.705
      -0.069
       0.361
       0.492
       0.410
       0.302
       0.329
       0.520
       0.778
       0.960
       0.993
       0.911
       0.800
       0.699
       0.549
       0.251
      -0.230
      -0.813
      -1.333
      -1.647
      -1.722
      -1.641
      -1.519
      -1.389
      -1.176
      -0.761
      -0.108
       0.668
       1.332
       1.661
       1.586
       1.247
       0.915
       0.822
       1.023
       1.372
       1.634
       1.621
       1.268
       0.639
      -0.106
      -0.761
      -1.129
      -1.088
      -0.641
       0.073
       0.836
       1.438
       1.761
       1.801
       1.642
       1.381
       1.062
       0.665
       0.155
      -0.466
      -1.135
      -1.739
      -2.150
      -2.267
      -2.061
      -1.601
      -1.042
      -0.579
      -0.351
      -0.383
      -0.580
      -0.809
      -0.957
      -0.960
      -0.792
      -0.458
      -0.007
       0.475
       0.887
       1.145
       1.199
       1.037
       0.694
       0.239
      -0.245
      -0.693
      -1.068
      -1.345
      -1.490
      -1.443
      -1.152
      -0.627
       0.039
       0.686
       1.151
       1.326
       1.212
       0.909
       0.564
       0.297
       0.168
       0.189
       0.339
       0.567
       0.795
       0.946
       0.972
       0.879
       0.723
       0.604
       0.625
       0.839
       1.198
       1.552
       1.718
       1.585
       1.184
       0.666
       0.195
      -0.164
      -0.461
      -0.777
      -1.126
      -1.423
      -1.556
      -1.488
      -1.303
      -1.136
      -1.064
      -1.033
      -0.910
      -0.619
      -0.211
       0.173
       0.438
       0.616
       0.834
       1.171
       1.540
       1.712
       1.473
       0.795
      -0.108
      -0.895
      -1.313
      -1.347
      -1.223
      -1.238
      -1.538
      -2.020
      -2.406
      -2.447
      -2.084
      -1.475
      -0.887
      -0.539
      -0.496
      -0.678
      -0.942
      -1.172
      -1.315
      -1.360
      -1.297
      -1.128
      -0.889
      -0.656
      -0.485
      -0.347
      -0.107
       0.397
       1.214
       2.200
       3.072
       3.563
       3.560
       3.144
       2.531
       1.960
       1.581
       1.400
       1.286
       1.065
       0.653
       0.132
      -0.274
      -0.324
       0.091
       0.865
       1.700
       2.261
       2.363
       2.056
       1.559
       1.077
       0.665
       0.222
      -0.392
      -1.197
      -2.052
      -2.752
      -3.173
      -3.342
      -3.390
      -3.440
      -3.521
      -3.551
      -3.420
      -3.086
      -2.620
      -2.159
      -1.784
      -1.442
      -0.952
      -0.128
       1.083
       2.514
       3.825
       4.637
       4.706
       4.047
       2.943
       1.813
       0.989
       0.548
       0.294
      -0.094
      -0.837
      -1.890
      -2.949
      -3.620
      -3.636
      -3.003
      -1.994
      -1.019
      -0.434
      -0.365
      -0.662
      -0.985
      -1.003
      -0.578
       0.157
       0.879
       1.274
       1.237
       0.941
       0.738
       0.947
       1.675
       2.765
       3.889
       4.732
       5.132
       5.102
       4.732
       4.075
       3.123
       1.886
       0.480
      -0.878
      -1.980
      -2.735
      -3.176
      -3.364
      -3.277
      -2.803
      -1.844
      -0.446
       1.167
       2.683
       3.837
       4.486
       4.600
       4.231
       3.491
       2.539
       1.532
       0.566
      -0.362
      -1.337
      -2.467
      -3.791
      -5.227
      -6.578
      -7.612
      -8.164
      -8.216
      -7.884
      -7.330
      -6.661
      -5.895
      -4.975
      -3.804
      -2.299
      -0.465
       1.527
       3.350
       4.649
       5.234
       5.197
       4.883
       4.700
       4.906
       5.475
       6.123
       6.472
       6.252
       5.449
       4.308
       3.190
       2.348
       1.789
       1.322
       0.733
      -0.030
      -0.806
      -1.338
      -1.480
      -1.318
      -1.128
      -1.190
      -1.597
      -2.189
      -2.668
      -2.789
      -2.476
      -1.814
      -0.965
      -0.101
       0.632
       1.133
       1.375
       1.435
       1.489
       1.727
       2.216
       2.816
       3.206
       3.041
       2.146
       0.639
      -1.099
      -2.616
      -3.626
      -4.155
      -4.478
      -4.899
      -5.527
      -6.211
      -6.656
      -6.628
      -6.100
      -5.242
      -4.282
      -3.362
      -2.489
      -1.609
      -0.726
       0.067
       0.675
       1.127
       1.589
       2.253
       3.189
       4.291
       5.337
       6.099
       6.422
       6.272
       5.751
       5.075
       4.498
       4.172
       4.031
       3.800
       3.188
       2.119
       0.816
      -0.341
      -1.063
      -1.324
      -1.315
      -1.266
      -1.284
      -1.344
      -1.375
      -1.348
      -1.265
      -1.098
      -0.783
      -0.277
       0.349
       0.892
       1.093
       0.774
      -0.055
      -1.186
      -2.289
      -3.034
      -3.216
      -2.826
      -2.053
      -1.199
      -0.554
      -0.291
      -0.413
      -0.777
      -1.149
      -1.316
      -1.185
      -0.836
      -0.463
      -0.253
      -0.287
      -0.541
      -0.948
      -1.476
      -2.131
      -2.919
      -3.801
      -4.693
      -5.474
      -5.982
      -6.066
      -5.689
      -4.989
      -4.225
      -3.620
      -3.220
      -2.852
      -2.213
      -1.063
       0.571
       2.323
       3.643
       4.127
       3.814
       3.213
       2.996
       3.567
       4.841
       6.344
       7.548
       8.144
       8.159
       7.861
       7.566
       7.429
       7.369
       7.154
       6.608
       5.755
       4.799
       3.957
       3.307
       2.767
       2.189
       1.472
       0.638
      -0.172
      -0.793
      -1.172
      -1.433
      -1.838
      -2.648
      -3.978
      -5.712
      -7.561
      -9.219
     -10.516
     -11.470
     -12.199
     -12.772
     -13.084
     -12.878
     -11.912
     -10.138
      -7.760
      -5.120
      -2.499
      -0.009
       2.347
       4.531
       6.401
       7.798
       8.679
       9.163
       9.423
       9.522
       9.344
       8.688
       7.442
       5.697
       3.690
       1.651
      -0.278
      -1.988
      -3.307
      -3.994
      -3.883
      -3.038
      -1.788
      -0.576
       0.278
       0.699
       0.798
       0.704
       0.453
       0.014
      -0.598
      -1.238
      -1.644
      -1.552
      -0.831
       0.427
       1.926
       3.284
       4.215
       4.674
       4.886
       5.189
       5.783
       6.536
       7.033
       6.847
       5.833
       4.208
       2.347
       0.493
      -1.353
      -3.285
      -5.246
      -6.929
      -7.938
      -8.042
      -7.318
      -6.083
      -4.720
      -3.508
      -2.563
      -1.859
      -1.320
      -0.892
      -0.568
      -0.363
      -0.299
      -0.388
      -0.617
      -0.911
      -1.138
      -1.176
      -0.992
      -0.681
      -0.422
      -0.366
      -0.520
      -0.717
      -0.705
      -0.319
       0.410
       1.283
       2.078
       2.671
       3.070
       3.336
       3.501
       3.537
       3.402
       3.097
       2.661
       2.124
       1.480
       0.700
      -0.244
      -1.361
      -2.599
      -3.817
      -4.782
      -5.225
      -4.941
      -3.900
      -2.305
      -0.540
       0.980
       1.990
       2.472
       2.600
       2.574
       2.461
       2.159
       1.510
       0.455
      -0.868
      -2.142
      -2.961
      -2.961
      -1.951
       0.007
       2.606
       5.394
       7.926
       9.870
      11.025
      11.270
      10.519
       8.739
       6.021
       2.659
      -0.875
      -4.079
      -6.647
      -8.590
     -10.139
     -11.476
     -12.497
     -12.811
     -12.021
     -10.063
      -7.317
      -4.404
      -1.842
       0.145
       1.595
       2.618
       3.230
       3.320
       2.739
       1.457
      -0.340
      -2.271
      -3.894
      -4.874
      -5.115
      -4.758
      -4.062
      -3.231
      -2.295
      -1.136
       0.372
       2.199
       4.095
       5.684
       6.658
       6.949
       6.738
       6.329
       5.956
       5.666
       5.323
       4.738
       3.809
       2.557
       1.100
      -0.384
      -1.673
      -2.532
      -2.802
      -2.489
      -1.774
      -0.932
      -0.189
       0.402
       0.958
       1.637
       2.459
       3.247
       3.752
       3.815
       3.478
       2.941
       2.410
       1.959
       1.528
       1.031
       0.449
      -0.147
      -0.639
      -0.908
      -0.868
      -0.493
       0.142
       0.830
       1.265
       1.154
       0.366
      -1.000
      -2.696
      -4.461
      -6.108
      -7.529
      -8.642
      -9.340
      -9.462
      -8.864
      -7.555
      -5.800
      -4.041
      -2.665
      -1.793
      -1.264
      -0.812
      -0.303
       0.157
       0.295
      -0.100
      -0.959
      -1.883
      -2.338
      -1.984
      -0.908
       0.436
       1.547
       2.218
       2.626
       3.144
       4.022
       5.181
       6.241
       6.743
       6.432
       5.426
       4.166
       3.136
       2.559
       2.302
       2.061
       1.649
       1.139
       0.794
       0.837
       1.267
       1.819
       2.132
       1.982
       1.413
       0.700
       0.165
      -0.008
       0.158
       0.500
       0.804
       0.866
       0.569
      -0.035
      -0.702
      -1.119
      -1.130
      -0.867
      -0.638
      -0.651
      -0.819
      -0.833
      -0.468
       0.181
       0.739
       0.852
       0.484
      -0.057
      -0.386
      -0.348
      -0.091
       0.126
       0.181
       0.179
       0.303
       0.618
       0.997
       1.241
       1.273
       1.207
       1.239
       1.431
       1.612
       1.477
       0.824
      -0.283
      -1.553
      -2.661
      -3.444
      -3.939
      -4.299
      -4.654
      -5.024
      -5.323
      -5.417
      -5.199
      -4.633
      -3.741
      -2.597
      -1.313
      -0.035
       1.081
       1.896
       2.323
       2.350
       2.049
       1.561
       1.060
       0.702
       0.591
       0.746
       1.109
       1.599
       2.176
       2.831
       3.523
       4.127
       4.472
       4.458
       4.133
       3.651
       3.127
       2.540
       1.774
       0.771
      -0.361
      -1.392
      -2.137
      -2.591
      -2.898
      -3.203
      -3.536
      -3.805
      -3.880
      -3.683
      -3.234
      -2.635
      -2.018
      -1.482
      -1.070
      -0.767
      -0.531
      -0.327
      -0.159
      -0.061
      -0.063
      -0.158
      -0.319
      -0.513
      -0.685
      -0.753
      -0.639
      -0.329
       0.099
       0.527
       0.882
       1.159
       1.380
       1.527
       1.532
       1.326
       0.903
       0.357
      -0.153
      -0.489
      -0.593
      -0.493
      -0.260
       0.047
       0.390
       0.719
       0.930
       0.888
       0.534
      -0.029
      -0.565
      -0.837
      -0.739
      -0.336
       0.188
       0.619
       0.807
       0.719
       0.470
       0.263
       0.254
       0.417
       0.560
       0.497
       0.234
      -0.005
       0.048
       0.483
       1.128
       1.681
       1.924
       1.872
       1.737
       1.733
       1.883
       1.978
       1.734
       1.018
      -0.038
      -1.100
      -1.828
      -2.059
      -1.861
      -1.460
      -1.109
      -0.959
      -1.001
      -1.086
      -1.033
      -0.750
      -0.307
       0.105
       0.306
       0.248
       0.024
      -0.227
      -0.447
      -0.695
      -1.088
      -1.693
      -2.472
      -3.315
