Origin Time       31/12/2009 09:57:00
Lat.              27.3°N	
Long.             91.4°E	
Depth (Km)          7.0
Magnitude         5.5
 Region           BHUTAN                                                           
 Above details taken from IMD 
   
Station Code      GUA
Station Lat.       26.190
Station Long.      91.746
Station Height(m)   55.2
Site Class        C   Vs30 between 200 m/sec to 375 m/sec *  
Record Time       31.12.2009 09:57:36.114
Sampling Rate     200. Hz
 Record Duration   80.470 Sec.
 Direction         Vert. (Up positive)
Max. Acceleration     -5.873 cm/sec**2
     
  * For reference see Site Classification link of website 
     
 Base Line Corrected and Low Pass Filtered (Cut Off at 35 Hz) Time History
 Acceleration data in cm/sec**2
    
[...]
      -0.830
      -1.001
      -1.080
      -1.025
      -0.812
      -0.461
      -0.029
       0.398
       0.728
       0.884
       0.834
       0.613
       0.321
       0.077
      -0.045
      -0.063
      -0.065
      -0.132
      -0.262
      -0.367
      -0.354
      -0.206
       0.011
       0.209
       0.344
       0.439
       0.541
       0.663
       0.749
       0.698
       0.423
      -0.077
      -0.688
      -1.212
      -1.461
      -1.367
      -1.031
      -0.672
      -0.495
      -0.555
      -0.734
      -0.827
      -0.677
      -0.274
       0.247
       0.692
       0.920
       0.915
       0.773
       0.627
       0.564
       0.591
       0.664
       0.734
       0.779
       0.809
       0.840
       0.855
       0.803
       0.624
       0.314
      -0.048
      -0.325
      -0.404
      -0.281
      -0.070
       0.067
       0.050
      -0.048
      -0.058
       0.124
       0.424
       0.618
       0.513
       0.117
      -0.341
      -0.573
      -0.453
      -0.095
       0.261
       0.443
       0.460
       0.441
       0.496
       0.611
       0.678
       0.603
       0.400
       0.189
       0.092
       0.140
       0.255
       0.316
       0.256
       0.089
      -0.124
      -0.343
      -0.571
      -0.808
      -1.003
      -1.047
      -0.856
      -0.457
      -0.009
       0.284
       0.316
       0.153
      -0.037
      -0.130
      -0.153
      -0.236
      -0.465
      -0.764
      -0.936
      -0.814
      -0.395
       0.149
       0.600
       0.833
       0.875
       0.849
       0.863
       0.939
       1.007
       0.967
       0.776
       0.488
       0.218
       0.046
      -0.049
      -0.179
      -0.446
      -0.834
      -1.201
      -1.375
      -1.299
      -1.090
      -0.958
      -1.045
      -1.309
      -1.549
      -1.568
      -1.316
      -0.927
      -0.621
      -0.540
      -0.658
      -0.809
      -0.812
      -0.600
      -0.252
       0.070
       0.248
       0.284
       0.300
       0.448
       0.788
       1.227
       1.582
       1.717
       1.651
       1.545
       1.573
       1.789
       2.090
       2.294
       2.267
       2.006
       1.634
       1.301
       1.073
       0.871
       0.533
      -0.041
      -0.770
      -1.414
      -1.739
      -1.705
      -1.509
      -1.437
      -1.625
      -1.958
      -2.180
      -2.106
      -1.753
      -1.292
      -0.895
      -0.623
      -0.417
      -0.198
       0.043
       0.233
       0.286
       0.195
       0.048
      -0.047
      -0.037
       0.066
       0.247
       0.523
       0.920
       1.411
       1.894
       2.244
       2.417
       2.492
       2.615
       2.881
       3.248
       3.568
       3.692
       3.565
       3.222
       2.722
       2.084
       1.290
       0.354
      -0.628
      -1.493
      -2.095
      -2.396
      -2.475
      -2.466
      -2.465
      -2.502
      -2.551
      -2.575
      -2.542
      -2.436
      -2.278
      -2.123
      -2.031
      -2.014
      -2.016
      -1.951
      -1.767
      -1.471
      -1.115
      -0.737
      -0.328
       0.164
       0.785
       1.522
       2.276
       2.884
       3.190
       3.114
       2.685
       2.007
       1.209
       0.399
      -0.336
      -0.914
      -1.261
      -1.363
      -1.306
      -1.263
      -1.391
      -1.718
      -2.111
      -2.384
      -2.449
      -2.389
      -2.391
      -2.592
      -2.963
      -3.310
      -3.399
      -3.109
      -2.503
      -1.782
      -1.151
      -0.692
      -0.342
       0.025
       0.468
       0.911
       1.199
       1.225
       1.022
       0.760
       0.635
       0.743
       1.028
       1.343
       1.571
       1.705
       1.841
       2.086
       2.448
       2.813
       3.012
       2.953
       2.689
       2.375
       2.150
       2.018
       1.853
       1.515
       0.981
       0.374
      -0.134
      -0.459
      -0.652
      -0.833
      -1.069
      -1.305
      -1.410
      -1.284
      -0.939
      -0.503
      -0.141
       0.037
       0.025
      -0.091
      -0.195
      -0.209
      -0.115
       0.055
       0.255
       0.430
       0.524
       0.481
       0.277
      -0.032
      -0.312
      -0.424
      -0.334
      -0.138
       0.022
       0.099
       0.196
       0.486
       1.060
       1.825
       2.548
       3.002
       3.089
       2.866
       2.474
       2.031
       1.567
       1.043
       0.424
      -0.259
      -0.920
      -1.493
      -1.987
      -2.475
      -3.026
      -3.627
      -4.160
      -4.463
      -4.423
      -4.056
      -3.496
      -2.901
      -2.352
      -1.828
      -1.274
      -0.695
      -0.175
       0.176
       0.312
       0.286
       0.233
       0.291
       0.529
       0.905
       1.304
       1.610
       1.775
       1.836
       1.869
       1.933
       2.027
       2.095
       2.062
       1.885
       1.588
       1.262
       1.020
       0.930
       0.976
       1.073
       1.123
       1.072
       0.935
       0.767
       0.619
       0.488
       0.316
       0.024
      -0.433
      -1.032
      -1.694
      -2.321
      -2.849
      -3.262
      -3.583
      -3.836
      -4.010
      -4.041
      -3.846
      -3.377
      -2.660
      -1.789
      -0.885
      -0.039
       0.716
       1.384
       1.969
       2.438
       2.736
       2.816
       2.676
       2.374
       2.018
       1.718
       1.520
       1.388
       1.248
       1.077
       0.938
       0.933
       1.092
       1.320
       1.432
       1.261
       0.750
      -0.018
      -0.867
      -1.614
      -2.157
      -2.504
      -2.744
      -2.971
      -3.202
      -3.355
      -3.298
      -2.934
      -2.263
      -1.378
      -0.442
       0.354
       0.853
       1.000
       0.867
       0.617
       0.423
       0.388
       0.508
       0.699
       0.863
       0.954
       1.003
       1.103
       1.347
       1.757
       2.261
       2.733
       3.080
       3.271
       3.315
       3.210
       2.953
       2.585
       2.187
       1.806
       1.392
       0.831
       0.071
      -0.804
      -1.585
      -2.057
      -2.114
      -1.809
      -1.319
      -0.857
      -0.584
      -0.547
      -0.687
      -0.889
      -1.069
      -1.204
      -1.315
      -1.410
      -1.462
      -1.438
      -1.330
      -1.157
      -0.931
      -0.650
      -0.330
      -0.036
       0.133
       0.123
      -0.001
      -0.063
       0.122
       0.637
       1.412
       2.274
       3.039
       3.596
       3.914
       3.995
       3.831
       3.430
       2.858
       2.239
       1.688
       1.227
       0.775
       0.221
      -0.461
      -1.172
      -1.753
      -2.114
      -2.303
      -2.461
      -2.690
      -2.951
      -3.095
      -2.989
      -2.633
      -2.167
      -1.787
      -1.629
      -1.716
      -1.963
      -2.224
      -2.344
      -2.226
      -1.887
      -1.467
      -1.157
      -1.082
      -1.228
      -1.456
      -1.580
      -1.477
      -1.138
      -0.663
      -0.191
       0.201
       0.558
       1.028
       1.747
       2.704
       3.699
       4.447
       4.750
       4.591
       4.110
       3.485
       2.828
       2.162
       1.457
       0.684
      -0.174
      -1.130
      -2.192
      -3.311
      -4.345
      -5.061
      -5.236
      -4.798
      -3.922
      -2.967
      -2.268
      -1.930
      -1.793
      -1.578
      -1.115
      -0.471
       0.116
       0.432
       0.444
       0.317
       0.306
       0.608
       1.256
       2.112
       2.956
       3.612
       4.029
       4.277
       4.463
       4.616
       4.658
       4.490
       4.100
       3.563
       2.959
       2.293
       1.514
       0.596
      -0.398
      -1.336
      -2.118
      -2.737
      -3.253
      -3.725
      -4.162
      -4.544
      -4.840
      -5.003
      -4.953
      -4.598
      -3.885
      -2.847
      -1.606
      -0.325
       0.844
       1.783
       2.424
       2.783
       2.972
       3.122
       3.273
       3.344
       3.219
       2.872
       2.415
       2.035
       1.862
       1.866
       1.866
       1.665
       1.213
       0.677
       0.338
       0.397
       0.826
       1.369
       1.698
       1.617
       1.175
       0.610
       0.155
      -0.143
      -0.436
      -0.925
      -1.653
      -2.418
      -2.883
      -2.811
      -2.255
      -1.516
      -0.903
      -0.515
      -0.214
       0.198
       0.758
       1.267
       1.420
       1.055
       0.295
      -0.527
      -1.076
      -1.208
      -1.028
      -0.795
      -0.729
      -0.860
      -1.022
      -0.992
      -0.672
      -0.176
       0.251
       0.401
       0.243
      -0.064
      -0.298
      -0.341
      -0.256
      -0.233
      -0.439
      -0.898
      -1.476
      -1.976
      -2.250
      -2.255
      -2.065
      -1.807
      -1.593
      -1.441
      -1.277
      -0.998
      -0.576
      -0.112
       0.219
       0.282
       0.096
      -0.149
      -0.215
       0.009
       0.420
       0.782
       0.923
       0.870
       0.816
       0.943
       1.269
       1.646
       1.886
       1.898
       1.749
       1.593
       1.536
       1.531
       1.401
       0.993
       0.313
      -0.450
      -1.029
      -1.225
      -1.003
      -0.504
       0.019
       0.332
       0.343
       0.150
      -0.041
      -0.068
       0.074
       0.239
       0.246
      -0.003
      -0.480
      -1.084
      -1.706
      -2.264
      -2.703
      -2.973
      -3.025
      -2.821
      -2.369
      -1.739
      -1.062
      -0.464
      -0.007
       0.339
       0.674
       1.087
       1.590
       2.098
       2.474
       2.630
       2.596
       2.505
       2.505
       2.674
       2.981
       3.315
       3.533
       3.509
       3.180
       2.572
       1.811
       1.076
       0.518
       0.172
      -0.060
      -0.328
      -0.728
      -1.230
      -1.711
      -2.041
      -2.162
      -2.107
      -1.957
      -1.803
      -1.713
      -1.726
      -1.845
      -2.041
      -2.251
      -2.389
      -2.349
      -2.029
      -1.398
      -0.551
       0.312
       1.017
       1.528
       1.935
       2.347
       2.769
       3.085
       3.139
       2.865
       2.346
       1.771
       1.304
       0.990
       0.747
       0.451
       0.046
      -0.390
      -0.689
      -0.717
      -0.493
      -0.195
      -0.032
      -0.121
      -0.446
      -0.926
      -1.497
      -2.123
      -2.771
      -3.349
      -3.699
      -3.642
      -3.088
      -2.151
      -1.170
      -0.551
      -0.521
      -0.954
      -1.441
      -1.566
      -1.188
      -0.511
       0.090
       0.344
       0.251
       0.042
      -0.015
       0.197
       0.596
       1.001
       1.287
       1.483
       1.735
       2.165
       2.741
       3.279
       3.590
       3.611
       3.406
       3.036
       2.478
       1.670
       0.645
      -0.398
      -1.173
      -1.482
      -1.354
      -1.023
      -0.764
      -0.719
      -0.845
      -0.996
      -1.067
      -1.072
      -1.120
      -1.327
      -1.742
      -2.309
      -2.883
      -3.279
      -3.347
      -3.050
      -2.495
      -1.854
      -1.245
      -0.648
       0.048
       0.919
       1.892
       2.762
       3.324
       3.507
       3.399
       3.159
       2.911
       2.709
       2.540
       2.342
       2.025
       1.515
       0.817
       0.038
      -0.650
      -1.105
      -1.295
      -1.307
      -1.265
      -1.215
      -1.088
      -0.789
      -0.330
       0.128
       0.365
       0.260
      -0.130
      -0.623
      -1.064
      -1.402
      -1.645
      -1.779
      -1.753
      -1.536
      -1.162
      -0.734
      -0.381
      -0.197
      -0.196
      -0.301
      -0.387
      -0.344
      -0.126
       0.238
       0.668
       1.077
       1.394
       1.587
       1.665
       1.662
       1.616
       1.551
       1.491
       1.466
       1.495
       1.548
       1.549
       1.432
       1.184
       0.845
       0.459
       0.029
      -0.469
      -1.037
      -1.601
      -2.019
      -2.153
      -1.947
      -1.486
      -0.982
      -0.690
      -0.779
      -1.227
      -1.810
      -2.207
      -2.195
      -1.816
      -1.356
      -1.127
      -1.205
      -1.337
      -1.129
      -0.385
       0.668
       1.486
       1.597
       0.972
       0.090
      -0.404
      -0.156
       0.673
       1.576
       2.094
       2.122
       1.924
       1.866
       2.098
       2.437
       2.527
       2.133
       1.324
       0.425
      -0.230
      -0.551
      -0.728
      -1.047
      -1.635
      -2.365
      -2.979
      -3.291
      -3.299
      -3.131
      -2.907
      -2.653
      -2.314
      -1.830
      -1.195
      -0.467
       0.262
       0.889
       1.332
       1.556
       1.602
       1.550
       1.444
       1.235
       0.837
       0.250
      -0.322
      -0.546
      -0.208
       0.544
       1.251
       1.537
       1.426
       1.231
       1.169
       1.234
       1.334
       1.419
       1.488
       1.565
       1.650
       1.727
       1.809
       1.923
       2.019
       2.004
       1.879
       1.778
       1.850
       2.096
       2.307
       2.163
       1.439
       0.185
      -1.276
      -2.566
      -3.514
      -4.219
      -4.858
      -5.458
      -5.860
      -5.873
      -5.445
      -4.702
      -3.856
      -3.050
      -2.277
      -1.406
      -0.316
       0.974
       2.256
       3.264
       3.889
       4.263
       4.596
       4.939
       5.107
       4.843
       4.040
       2.826
       1.469
       0.199
      -0.887
      -1.788
      -2.480
      -2.875
      -2.876
      -2.478
      -1.798
      -1.011
      -0.239
       0.497
       1.226
       1.933
       2.510
       2.802
       2.685
       2.120
       1.160
      -0.064
      -1.363
      -2.535
      -3.408
      -3.889
      -3.988
      -3.808
      -3.477
      -3.084
      -2.660
      -2.201
      -1.698
      -1.154
      -0.578
       0.028
       0.674
       1.385
       2.178
       3.027
       3.827
       4.396
       4.546
       4.202
       3.481
       2.649
       1.949
       1.441
       0.968
       0.303
      -0.665
      -1.821
      -2.870
      -3.509
      -3.597
      -3.209
      -2.529
      -1.715
      -0.843
       0.047
       0.895
       1.620
       2.141
       2.407
       2.399
       2.131
       1.634
       0.930
       0.037
      -0.975
      -1.935
      -2.636
      -2.961
      -2.962
      -2.798
      -2.583
      -2.305
      -1.882
      -1.282
      -0.588
       0.056
       0.539
       0.838
       1.011
       1.145
       1.281
       1.391
       1.422
       1.361
       1.246
       1.104
       0.902
       0.566
       0.061
      -0.553
      -1.132
      -1.523
      -1.634
      -1.476
      -1.142
      -0.751
      -0.387
      -0.079
       0.167
       0.319
       0.305
       0.065
      -0.368
      -0.856
      -1.216
      -1.307
      -1.062
      -0.492
       0.307
       1.156
       1.826
       2.136
       2.031
       1.613
       1.088
       0.669
       0.504
       0.609
       0.851
       1.004
       0.865
       0.372
      -0.348
      -1.027
      -1.396
      -1.329
      -0.927
      -0.462
      -0.214
      -0.298
      -0.591
      -0.825
      -0.770
      -0.359
       0.300
       1.022
       1.654
       2.125
       2.421
       2.512
       2.322
       1.787
       0.971
       0.099
      -0.553
      -0.841
      -0.845
      -0.775
      -0.798
      -0.938
      -1.098
      -1.150
      -1.015
      -0.682
      -0.194
       0.373
       0.931
       1.389
       1.679
       1.772
       1.674
       1.425
       1.102
       0.816
       0.676
       0.733
       0.929
       1.108
       1.098
       0.825
       0.360
      -0.126
      -0.475
      -0.649
      -0.748
      -0.946
      -1.368
      -1.990
      -2.657
      -3.194
      -3.521
      -3.653
      -3.628
      -3.429
      -2.986
      -2.223
      -1.129
       0.180
       1.467
       2.453
       2.953
       2.971
       2.675
       2.293
       1.983
       1.791
       1.679
       1.601
       1.544
       1.515
       1.503
       1.461
       1.325
       1.074
       0.743
       0.385
      -0.014
      -0.547
      -1.300
      -2.236
      -3.193
      -3.983
      -4.502
      -4.738
      -4.701
      -4.358
      -3.661
      -2.624
      -1.367
      -0.063
       1.144
       2.181
       3.009
       3.583
       3.871
       3.887
       3.695
       3.377
       2.990
       2.560
       2.099
       1.625
       1.181
       0.811
       0.526
       0.290
       0.025
      -0.345
      -0.833
      -1.355
      -1.752
      -1.890
      -1.776
      -1.561
      -1.422
      -1.422
      -1.483
      -1.485
      -1.375
      -1.194
      -1.007
      -0.822
      -0.581
      -0.238
       0.182
       0.579
       0.839
       0.891
       0.751
       0.495
       0.205
      -0.082
      -0.369
      -0.665
      -0.961
      -1.233
      -1.469
      -1.678
      -1.852
      -1.906
      -1.691
      -1.073
      -0.042
       1.228
       2.438
       3.300
       3.708
       3.778
       3.724
       3.657
       3.493
       3.065
       2.313
       1.358
       0.396
      -0.440
      -1.121
      -1.670
      -2.108
      -2.451
      -2.723
      -2.911
      -2.934
      -2.676
      -2.102
      -1.325
      -0.570
      -0.040
       0.194
       0.209
       0.139
       0.070
       0.014
      -0.041
      -0.067
       0.019
       0.301
       0.776
       1.320
       1.745
       1.914
       1.818
       1.548
       1.197
       0.809
       0.397
      -0.010
      -0.356
      -0.586
      -0.681
      -0.663
      -0.574
      -0.464
      -0.376
      -0.345
      -0.385
      -0.478
      -0.584
      -0.675
      -0.749
      -0.815
      -0.862
      -0.857
      -0.791
      -0.709
      -0.691
      -0.783
      -0.954
      -1.114
      -1.192
      -1.189
      -1.148
      -1.082
      -0.924
      -0.571
       0.014
       0.730
       1.361
       1.694
       1.637
       1.260
       0.744
       0.271
      -0.071
      -0.328
      -0.618
      -1.010
      -1.432
      -1.691
      -1.605
      -1.150
      -0.485
       0.164
       0.675
       1.099
       1.590
       2.250
       3.034
       3.796
       4.406
       4.826
       5.080
       5.167
       5.023
       4.573
       3.808
       2.796
       1.637
       0.414
      -0.785
      -1.816
      -2.492
      -2.676
      -2.406
      -1.916
      -1.513
      -1.399
      -1.571
      -1.887
      -2.197
      -2.434
      -2.590
      -2.646
      -2.560
      -2.322
      -1.998
      -1.699
      -1.480
      -1.285
      -0.991
      -0.543
      -0.054
       0.231
       0.101
      -0.446
      -1.178
      -1.765
      -1.976
      -1.791
      -1.370
      -0.909
      -0.520
      -0.183
       0.193
       0.668
       1.195
       1.622
       1.803
       1.708
       1.436
       1.139
       0.916
