Origin Time       19/8/2009 10:45:15	 UTC
Lat.              26.6 N	
Long.             92.5 E	
Depth (Km)         20.0
Magnitude         4.9
 Region           Sonitpur-Assam                                                   
 Above details taken from IMD 
    
Station Code      GUA
Station Lat.       26.190  N
Station Long.      91.746  E
Station Height(m)   55.2
Site Class        C   Vs30 between 200 m/sec to 375 m/sec *  
Record Time       19.08.2009 10:45:29.449 UTC
Sampling Rate     200. Hz
 Record Duration   71.660 Sec.
 Direction         N-S (N positive)
Max. Acceleration     30.320 cm/sec**2
     
  * For reference see Site Classification link of website 
     
 Base Line Corrected and Low Pass Filtered (Cut Off at 35 Hz) Time History
 Acceleration data in cm/sec**2
    
[...]
       0.384
       0.573
       0.465
       0.093
      -0.412
      -0.874
      -1.135
      -1.125
      -0.893
      -0.582
      -0.356
      -0.297
      -0.363
      -0.425
      -0.370
      -0.175
       0.076
       0.258
       0.287
       0.175
       0.037
       0.021
       0.198
       0.493
       0.734
       0.785
       0.652
       0.472
       0.384
       0.418
       0.483
       0.467
       0.331
       0.130
      -0.041
      -0.120
      -0.101
      -0.028
       0.020
      -0.021
      -0.161
      -0.327
      -0.411
      -0.362
      -0.234
      -0.149
      -0.191
      -0.346
      -0.515
      -0.608
      -0.604
      -0.550
      -0.494
      -0.436
      -0.333
      -0.146
       0.114
       0.383
       0.570
       0.613
       0.524
       0.400
       0.368
       0.487
       0.696
       0.847
       0.820
       0.605
       0.297
       0.015
      -0.172
      -0.256
      -0.266
      -0.230
      -0.162
      -0.068
       0.042
       0.146
       0.206
       0.188
       0.080
      -0.098
      -0.304
      -0.496
      -0.641
      -0.707
      -0.673
      -0.541
      -0.343
      -0.128
       0.060
       0.204
       0.307
       0.383
       0.440
       0.473
       0.469
       0.420
       0.336
       0.243
       0.177
       0.158
       0.178
       0.206
       0.208
       0.169
       0.094
      -0.009
      -0.126
      -0.220
      -0.236
      -0.128
       0.086
       0.318
       0.454
       0.417
       0.218
      -0.058
      -0.303
      -0.433
      -0.420
      -0.293
      -0.126
      -0.007
       0.009
      -0.057
      -0.129
      -0.130
      -0.048
       0.062
       0.128
       0.108
       0.007
      -0.141
      -0.294
      -0.409
      -0.452
      -0.404
      -0.278
      -0.114
       0.034
       0.114
       0.085
      -0.061
      -0.267
      -0.416
      -0.386
      -0.140
       0.227
       0.540
       0.655
       0.533
       0.246
      -0.071
      -0.278
      -0.288
      -0.104
       0.190
       0.476
       0.668
       0.738
       0.705
       0.598
       0.445
       0.271
       0.113
       0.003
      -0.059
      -0.102
      -0.155
      -0.213
      -0.254
      -0.285
      -0.342
      -0.453
      -0.592
      -0.689
      -0.681
      -0.562
      -0.373
      -0.164
       0.026
       0.177
       0.276
       0.322
       0.320
       0.285
       0.224
       0.139
       0.029
      -0.079
      -0.132
      -0.077
       0.081
       0.261
       0.354
       0.303
       0.153
       0.003
      -0.063
      -0.042
       0.001
      -0.016
      -0.140
      -0.348
      -0.559
      -0.673
      -0.638
      -0.478
      -0.268
      -0.074
       0.084
       0.212
       0.305
       0.330
       0.251
       0.069
      -0.172
      -0.402
      -0.566
      -0.629
      -0.570
      -0.381
      -0.086
       0.251
       0.548
       0.746
       0.820
       0.769
       0.596
       0.317
      -0.017
      -0.326
      -0.529
      -0.588
      -0.517
      -0.364
      -0.172
       0.034
       0.229
       0.374
       0.431
       0.407
       0.358
       0.353
       0.408
       0.468
       0.442
       0.285
       0.045
      -0.150
      -0.175
       0.001
       0.288
       0.543
       0.659
       0.614
       0.449
       0.223
      -0.020
      -0.254
      -0.449
      -0.563
      -0.551
      -0.400
      -0.146
       0.131
       0.334
       0.389
       0.277
       0.034
      -0.268
      -0.555
      -0.769
      -0.866
      -0.815
      -0.616
      -0.315
       0.002
       0.247
       0.366
       0.354
       0.251
       0.125
       0.040
       0.032
       0.101
       0.217
       0.340
       0.430
       0.444
       0.357
       0.172
      -0.075
      -0.330
      -0.542
      -0.676
      -0.711
      -0.645
      -0.502
      -0.338
      -0.209
      -0.129
      -0.051
       0.092
       0.315
       0.549
       0.688
       0.679
       0.574
       0.492
       0.516
       0.633
       0.753
       0.784
       0.691
       0.504
       0.289
       0.114
       0.018
      -0.011
      -0.022
      -0.066
      -0.151
      -0.250
      -0.318
      -0.328
      -0.272
      -0.165
      -0.048
       0.015
      -0.046
      -0.264
      -0.593
      -0.907
      -1.060
      -0.982
      -0.724
      -0.421
      -0.206
      -0.146
      -0.229
      -0.385
      -0.529
      -0.603
      -0.598
      -0.538
      -0.437
      -0.275
      -0.038
       0.243
       0.489
       0.627
       0.640
       0.568
       0.467
       0.370
       0.277
       0.187
       0.110
       0.061
       0.033
      -0.016
      -0.127
      -0.291
      -0.436
      -0.476
      -0.366
      -0.146
       0.093
       0.261
       0.314
       0.263
       0.152
       0.043
      -0.005
       0.041
       0.153
       0.252
       0.258
       0.154
       0.008
      -0.076
      -0.041
       0.075
       0.161
       0.119
      -0.062
      -0.294
      -0.445
      -0.416
      -0.196
       0.139
       0.477
       0.723
       0.834
       0.819
       0.719
       0.577
       0.421
       0.282
       0.203
       0.231
       0.372
       0.558
       0.661
       0.576
       0.297
      -0.078
      -0.411
      -0.600
      -0.621
      -0.515
      -0.369
      -0.287
      -0.344
      -0.534
      -0.750
      -0.839
      -0.710
      -0.412
      -0.102
       0.073
       0.080
       0.003
      -0.062
      -0.083
      -0.083
      -0.080
      -0.059
       0.008
       0.127
       0.275
       0.418
       0.537
       0.621
       0.665
       0.671
       0.666
       0.704
       0.827
       1.005
       1.119
       1.031
       0.692
       0.196
      -0.270
      -0.536
      -0.553
      -0.396
      -0.210
      -0.129
      -0.228
      -0.508
      -0.884
      -1.220
      -1.400
      -1.395
      -1.276
      -1.132
      -0.974
      -0.735
      -0.368
       0.070
       0.429
       0.585
       0.526
       0.342
       0.138
      -0.034
      -0.168
      -0.257
      -0.281
      -0.233
      -0.143
      -0.052
       0.036
       0.164
       0.370
       0.623
       0.818
       0.839
       0.635
       0.257
      -0.160
      -0.462
      -0.544
      -0.415
      -0.189
      -0.016
       0.012
      -0.080
      -0.183
      -0.190
      -0.068
       0.121
       0.270
       0.301
       0.209
       0.054
      -0.090
      -0.182
      -0.223
      -0.229
      -0.219
      -0.207
      -0.199
      -0.191
      -0.161
      -0.099
      -0.023
       0.015
      -0.042
      -0.191
      -0.340
      -0.342
      -0.108
       0.303
       0.703
       0.917
       0.898
       0.733
       0.542
       0.385
       0.241
       0.069
      -0.133
      -0.323
      -0.457
      -0.531
      -0.560
      -0.538
      -0.438
      -0.253
      -0.023
       0.177
       0.279
       0.252
       0.110
      -0.102
      -0.317
      -0.467
      -0.495
      -0.372
      -0.110
       0.221
       0.508
       0.647
       0.606
       0.445
       0.265
       0.148
       0.113
       0.140
       0.197
       0.265
       0.329
       0.381
       0.417
       0.451
       0.502
       0.574
       0.639
       0.641
       0.534
       0.324
       0.084
      -0.084
      -0.120
      -0.050
       0.034
       0.050
      -0.005
      -0.057
      -0.029
       0.093
       0.248
       0.348
       0.334
       0.206
       0.006
      -0.207
      -0.379
      -0.479
      -0.501
      -0.467
      -0.408
      -0.353
      -0.327
      -0.353
      -0.445
      -0.587
      -0.721
      -0.762
      -0.649
      -0.384
      -0.039
       0.282
       0.492
       0.544
       0.442
       0.238
       0.014
      -0.159
      -0.263
      -0.334
      -0.423
      -0.539
      -0.644
      -0.690
      -0.665
      -0.588
      -0.488
      -0.377
      -0.256
      -0.126
       0.011
       0.154
       0.296
       0.412
       0.467
       0.440
       0.352
       0.255
       0.199
       0.191
       0.190
       0.144
       0.029
      -0.119
      -0.225
      -0.208
      -0.031
       0.256
       0.520
       0.607
       0.454
       0.139
      -0.157
      -0.276
      -0.173
       0.068
       0.306
       0.420
       0.370
       0.195
      -0.025
      -0.224
      -0.375
      -0.476
      -0.529
      -0.521
      -0.440
      -0.293
      -0.122
       0.025
       0.124
       0.202
       0.295
       0.407
       0.493
       0.502
       0.414
       0.238
      -0.011
      -0.322
      -0.652
      -0.921
      -1.046
      -0.990
      -0.776
      -0.448
      -0.046
       0.358
       0.639
       0.663
       0.399
      -0.016
      -0.352
      -0.445
      -0.301
      -0.055
       0.146
       0.232
       0.215
       0.137
       0.050
       0.014
       0.073
       0.208
       0.317
       0.278
       0.062
      -0.224
      -0.408
      -0.380
      -0.175
       0.053
       0.149
       0.065
      -0.115
      -0.241
      -0.213
      -0.042
       0.172
       0.317
       0.338
       0.267
       0.199
       0.226
       0.388
       0.648
       0.913
       1.083
       1.090
       0.914
       0.575
       0.120
      -0.377
      -0.818
      -1.101
      -1.174
      -1.053
      -0.804
      -0.503
      -0.208
       0.040
       0.225
       0.357
       0.465
       0.563
       0.625
       0.598
       0.460
       0.257
       0.082
       0.015
       0.070
       0.191
       0.286
       0.278
       0.130
      -0.143
      -0.479
      -0.772
      -0.911
      -0.853
      -0.666
      -0.481
      -0.396
      -0.410
      -0.448
      -0.438
      -0.345
      -0.155
       0.142
       0.536
       0.961
       1.290
       1.391
       1.215
       0.833
       0.391
       0.032
      -0.169
      -0.204
      -0.104
       0.099
       0.386
       0.729
       1.054
       1.226
       1.107
       0.655
      -0.011
      -0.638
      -0.972
      -0.916
      -0.590
      -0.254
      -0.134
      -0.278
      -0.557
      -0.775
      -0.804
      -0.633
      -0.324
       0.033
       0.353
       0.559
       0.604
       0.499
       0.304
       0.086
      -0.124
      -0.328
      -0.515
      -0.624
      -0.577
      -0.347
       0.001
       0.327
       0.490
       0.414
       0.124
      -0.253
      -0.548
      -0.633
      -0.497
      -0.256
      -0.059
       0.024
       0.053
       0.147
       0.340
       0.517
       0.488
       0.149
      -0.414
      -0.967
      -1.262
      -1.178
      -0.777
      -0.257
       0.175
       0.402
       0.436
       0.357
       0.242
       0.131
       0.017
      -0.132
      -0.353
      -0.641
      -0.917
      -1.036
      -0.866
      -0.385
       0.271
       0.857
       1.159
       1.121
       0.870
       0.614
       0.502
       0.539
       0.607
       0.566
       0.354
       0.045
      -0.185
      -0.162
       0.165
       0.675
       1.139
       1.356
       1.283
       1.046
       0.843
       0.792
       0.842
       0.824
       0.600
       0.179
      -0.266
      -0.528
      -0.502
      -0.248
       0.059
       0.255
       0.279
       0.183
       0.067
       0.001
       0.007
       0.074
       0.182
       0.312
       0.436
       0.516
       0.504
       0.365
       0.109
      -0.183
      -0.376
      -0.356
      -0.106
       0.277
       0.630
       0.817
       0.778
       0.539
       0.181
      -0.185
      -0.457
      -0.571
      -0.531
      -0.398
      -0.253
      -0.145
      -0.053
       0.093
       0.334
       0.622
       0.832
       0.841
       0.613
       0.203
      -0.292
      -0.792
      -1.258
      -1.681
      -2.073
      -2.445
      -2.791
      -3.078
      -3.246
      -3.237
      -3.042
      -2.735
      -2.459
      -2.351
      -2.454
      -2.675
      -2.855
      -2.883
      -2.782
      -2.697
      -2.794
      -3.119
      -3.553
      -3.880
      -3.946
      -3.754
      -3.433
      -3.119
      -2.839
      -2.487
      -1.902
      -0.979
       0.262
       1.681
       3.079
       4.259
       5.072
       5.438
       5.373
       4.991
       4.472
       4.011
       3.762
       3.790
       4.068
       4.488
       4.906
       5.190
       5.266
       5.137
       4.877
       4.585
       4.330
       4.099
       3.814
       3.374
       2.707
       1.767
       0.537
      -0.951
      -2.581
      -4.149
      -5.429
      -6.256
      -6.572
      -6.379
      -5.668
      -4.416
      -2.670
      -0.659
       1.208
       2.488
       2.911
       2.501
       1.539
       0.423
      -0.462
      -0.815
      -0.453
       0.667
       2.435
       4.627
       6.991
       9.316
      11.465
      13.349
      14.873
      15.911
      16.319
      15.992
      14.924
      13.203
      10.946
       8.211
       4.960
       1.107
      -3.359
      -8.263
     -13.218
     -17.729
     -21.372
     -23.948
     -25.511
     -26.288
     -26.541
     -26.461
     -26.129
     -25.542
     -24.659
     -23.393
     -21.570
     -18.936
     -15.283
     -10.647
      -5.421
      -0.252
       4.244
       7.796
      10.585
      13.101
      15.842
      19.049
      22.599
      26.055
      28.820
      30.320
      30.183
      28.377
      25.245
      21.389
      17.454
      13.873
      10.746
       7.905
       5.110
       2.214
      -0.809
      -3.924
      -7.082
     -10.182
     -13.029
     -15.382
     -17.083
     -18.163
     -18.837
     -19.388
     -20.029
     -20.802
     -21.560
     -22.030
     -21.918
     -21.021
     -19.292
     -16.818
     -13.716
     -10.013
      -5.628
      -0.477
       5.336
      11.408
      17.092
      21.707
      24.778
      26.160
      26.023
      24.708
      22.578
      19.931
      17.010
      14.043
      11.219
       8.605
       6.121
       3.654
       1.211
      -1.004
      -2.663
      -3.453
      -3.233
      -2.141
      -0.619
       0.678
       1.115
       0.335
      -1.606
      -4.325
      -7.324
     -10.171
     -12.562
     -14.293
     -15.242
     -15.391
     -14.826
     -13.689
     -12.089
     -10.059
      -7.617
      -4.873
      -2.039
       0.687
       3.259
       5.778
       8.319
      10.737
      12.648
      13.625
      13.457
      12.292
      10.578
       8.898
       7.774
       7.487
       7.933
       8.641
       8.983
       8.512
       7.161
       5.194
       2.936
       0.551
      -1.971
      -4.634
      -7.270
      -9.542
     -11.122
     -11.871
     -11.899
     -11.515
     -11.124
     -11.116
     -11.704
     -12.762
     -13.789
     -14.094
     -13.146
     -10.883
      -7.775
      -4.607
      -2.077
      -0.451
       0.525
       1.389
       2.575
       4.174
       5.965
       7.629
       8.939
       9.836
      10.398
      10.785
      11.163
      11.606
      11.999
      12.022
      11.297
       9.637
       7.236
       4.634
       2.433
       0.976
       0.199
      -0.257
      -0.762
      -1.468
      -2.276
      -2.989
      -3.506
      -3.894
      -4.319
      -4.915
      -5.698
      -6.597
      -7.527
      -8.406
      -9.091
      -9.305
      -8.706
      -7.094
      -4.586
      -1.603
       1.347
       3.920
       6.000
       7.565
       8.506
       8.624
       7.809
       6.249
       4.433
       2.924
       2.084
       1.930
       2.186
       2.453
       2.398
       1.876
       0.962
      -0.111
      -1.101
      -1.900
      -2.585
      -3.303
      -4.088
      -4.771
      -5.086
      -4.871
      -4.211
      -3.414
      -2.871
      -2.910
      -3.692
      -5.126
      -6.838
      -8.269
      -8.882
      -8.377
      -6.792
      -4.455
      -1.823
       0.695
       2.852
       4.564
       5.847
       6.740
       7.270
       7.441
       7.220
       6.542
       5.374
       3.808
       2.148
       0.861
       0.392
       0.914
       2.193
       3.694
       4.852
       5.303
       4.938
       3.816
       2.092
       0.047
      -1.895
      -3.260
      -3.726
      -3.278
      -2.184
      -0.810
       0.577
       1.861
       2.978
       3.798
       4.105
       3.681
       2.431
       0.481
      -1.779
      -3.774
      -4.965
      -5.117
      -4.454
      -3.525
      -2.889
      -2.811
      -3.196
      -3.759
      -4.261
      -4.669
      -5.133
      -5.851
      -6.884
      -8.012
      -8.750
      -8.555
      -7.115
      -4.580
      -1.586
       0.990
       2.418
       2.455
       1.424
       0.025
      -1.004
      -1.180
      -0.396
       1.162
       3.195
       5.424
       7.585
       9.350
      10.337
      10.287
       9.274
       7.735
       6.252
       5.204
       4.567
       3.979
       3.041
       1.625
      -0.009
      -1.337
      -1.847
      -1.289
       0.219
       2.263
       4.306
       5.859
       6.570
       6.251
       4.906
       2.778
       0.365
      -1.719
      -2.980
      -3.246
      -2.659
      -1.501
      -0.043
       1.451
       2.632
       3.081
       2.524
       1.089
      -0.623
      -1.796
      -1.828
      -0.649
       1.256
       3.111
       4.208
       4.187
       3.119
       1.378
      -0.590
      -2.460
      -4.080
      -5.408
      -6.426
      -7.122
      -7.530
      -7.773
      -8.038
      -8.500
      -9.213
     -10.049
     -10.719
     -10.906
     -10.430
      -9.351
      -7.939
      -6.510
      -5.257
      -4.169
      -3.069
      -1.742
      -0.061
       1.919
       3.951
       5.693
       6.856
       7.343
       7.252
       6.791
       6.150
       5.465
       4.855
       4.480
       4.505
       4.973
       5.695
       6.282
       6.338
       5.683
       4.475
       3.138
       2.172
       1.903
       2.344
       3.202
       4.043
       4.507
       4.437
       3.862
       2.902
       1.679
       0.310
      -1.085
      -2.409
      -3.634
      -4.784
      -5.819
      -6.532
      -6.600
      -5.822
      -4.341
      -2.632
      -1.220
      -0.370
      -0.018
       0.037
      -0.109
      -0.522
      -1.295
      -2.361
      -3.464
      -4.306
      -4.727
      -4.799
      -4.759
      -4.855
      -5.174
      -5.556
      -5.684
      -5.286
      -4.336
      -3.098
      -1.953
      -1.140
      -0.595
      -0.010
       0.907
       2.192
       3.555
       4.552
       4.853
       4.421
       3.477
       2.337
       1.270
       0.464
       0.062
       0.172
       0.814
       1.855
       3.012
       3.958
       4.501
       4.706
       4.869
       5.336
       6.264
       7.490
       8.604
       9.154
       8.847
       7.647
       5.767
       3.613
       1.689
       0.427
       0.003
       0.244
       0.712
       0.927
       0.582
      -0.350
      -1.644
      -2.942
      -3.916
      -4.414
      -4.526
      -4.508
      -4.604
      -4.884
      -5.208
      -5.340
      -5.136
      -4.672
