Origin Time       25/04/2009 14:29:29
Lat.              26.4 N 
Long.             91.7 E 
Depth (Km)         10.0
Magnitude         4.0
 Region           KAMRUP-ASSAM                                                     
 Above details taken from IMD 
   
Station Code      GUA
Station Lat.       26.190
Station Long.      91.746
Station Height(m)   67.3
Site Class        C   Vs30 between 200 m/sec to 375 m/sec *  
Record Time       25.04.2009 14:29:22.864
Sampling Rate     200. Hz
 Record Duration   66.185 Sec.
 Direction         Vert. (Up positive)
Max. Acceleration    -14.707 cm/sec**2
     
  * For reference see Site Classification link of website 
     
 Base Line Corrected and Low Pass Filtered (Cut Off at 35 Hz) Time History
 Acceleration data in cm/sec**2
    
[...]
      -0.111
      -0.094
      -0.053
      -0.002
       0.047
       0.078
       0.080
       0.050
       0.007
      -0.026
      -0.038
      -0.037
      -0.038
      -0.041
      -0.032
      -0.003
       0.033
       0.048
       0.028
      -0.010
      -0.034
      -0.023
       0.013
       0.044
       0.046
       0.022
      -0.004
      -0.010
       0.006
       0.032
       0.055
       0.066
       0.063
       0.043
       0.009
      -0.029
      -0.056
      -0.059
      -0.037
      -0.005
       0.021
       0.035
       0.037
       0.033
       0.025
       0.012
      -0.002
      -0.012
      -0.017
      -0.018
      -0.019
      -0.023
      -0.027
      -0.026
      -0.019
      -0.007
       0.006
       0.017
       0.021
       0.011
      -0.011
      -0.032
      -0.030
      -0.003
       0.034
       0.059
       0.060
       0.040
       0.010
      -0.023
      -0.050
      -0.063
      -0.055
      -0.027
       0.009
       0.036
       0.045
       0.039
       0.031
       0.029
       0.034
       0.038
       0.036
       0.023
      -0.001
      -0.030
      -0.056
      -0.067
      -0.057
      -0.030
       0.002
       0.030
       0.050
       0.059
       0.055
       0.039
       0.011
      -0.025
      -0.061
      -0.087
      -0.092
      -0.073
      -0.036
       0.008
       0.050
       0.078
       0.081
       0.058
       0.018
      -0.019
      -0.037
      -0.034
      -0.021
      -0.004
       0.015
       0.035
       0.047
       0.045
       0.029
       0.002
      -0.028
      -0.053
      -0.062
      -0.046
      -0.005
       0.048
       0.093
       0.111
       0.093
       0.048
      -0.004
      -0.044
      -0.061
      -0.054
      -0.024
       0.017
       0.055
       0.070
       0.054
       0.017
      -0.021
      -0.048
      -0.061
      -0.061
      -0.046
      -0.017
       0.018
       0.044
       0.052
       0.041
       0.017
      -0.014
      -0.037
      -0.043
      -0.026
       0.004
       0.032
       0.045
       0.042
       0.031
       0.018
       0.006
      -0.004
      -0.008
      -0.002
       0.017
       0.042
       0.056
       0.052
       0.034
       0.015
      -0.004
      -0.023
      -0.040
      -0.046
      -0.032
      -0.004
       0.032
       0.069
       0.096
       0.089
       0.022
      -0.097
      -0.201
      -0.197
      -0.036
       0.209
       0.344
       0.171
      -0.325
      -0.893
      -1.137
      -0.814
      -0.054
       0.689
       0.955
       0.617
      -0.040
      -0.537
      -0.543
      -0.071
       0.584
       1.083
       1.264
       1.204
       1.078
       0.954
       0.729
       0.314
      -0.154
      -0.336
      -0.002
       0.660
       1.097
       0.830
      -0.059
      -0.881
      -0.863
       0.134
       1.330
       1.530
       0.086
      -2.457
      -4.654
      -5.195
      -3.837
      -1.533
       0.251
       0.513
      -0.625
      -1.979
      -2.144
      -0.614
       1.698
       3.140
       2.714
       0.986
      -0.355
       0.023
       1.828
       3.310
       2.843
       0.465
      -2.101
      -2.939
      -1.518
       0.921
       2.384
       1.728
      -0.437
      -2.286
      -2.286
      -0.349
       2.236
       3.834
       3.544
       1.642
      -0.677
      -2.032
      -1.697
      -0.122
       1.348
       1.461
       0.054
      -1.782
      -2.578
      -1.712
       0.076
       1.365
       1.275
       0.098
      -1.095
      -1.347
      -0.457
       0.982
       1.999
       1.840
       0.442
      -1.458
      -2.731
      -2.636
      -1.405
      -0.090
       0.254
      -0.565
      -1.668
      -1.807
      -0.450
       1.699
       3.229
       3.147
       1.624
      -0.202
      -1.112
      -0.703
       0.392
       1.105
       0.822
      -0.189
      -1.087
      -1.185
      -0.463
       0.538
       1.255
       1.489
       1.365
       1.059
       0.616
      -0.017
      -0.835
      -1.667
      -2.275
      -2.563
      -2.635
      -2.630
      -2.454
      -1.744
      -0.216
       1.794
       3.241
       3.102
       1.402
      -0.558
      -1.186
       0.027
       2.012
       2.997
       1.990
      -0.396
      -2.433
      -2.615
      -0.756
       1.940
       3.738
       3.534
       1.564
      -0.816
      -2.121
      -1.745
      -0.277
       0.989
       0.970
      -0.428
      -2.217
      -3.036
      -2.150
      -0.023
       1.951
       2.446
       1.242
      -0.580
      -1.543
      -1.018
       0.255
       0.838
      -0.148
      -2.192
      -3.693
      -3.199
      -0.669
       2.316
       3.726
       2.732
       0.374
      -1.315
      -0.956
       1.089
       3.006
       2.987
       0.725
      -2.307
      -4.060
      -3.507
      -1.315
       0.847
       1.621
       0.854
      -0.496
      -1.173
      -0.529
       1.079
       2.582
       2.993
       2.094
       0.519
      -0.755
      -1.084
      -0.545
       0.203
       0.469
       0.039
      -0.724
      -1.197
      -0.973
      -0.185
       0.582
       0.770
       0.328
      -0.294
      -0.596
      -0.476
      -0.251
      -0.302
      -0.698
      -1.157
      -1.330
      -1.106
      -0.657
      -0.226
       0.073
       0.276
       0.452
       0.622
       0.810
       1.101
       1.537
       1.935
       1.898
       1.155
      -0.084
      -1.164
      -1.442
      -0.777
       0.335
       1.111
       1.063
       0.313
      -0.618
      -1.271
      -1.478
      -1.253
      -0.643
       0.238
       1.086
       1.435
       0.932
      -0.325
      -1.701
      -2.360
      -1.796
      -0.212
       1.532
       2.384
       1.758
      -0.012
      -1.785
      -2.349
      -1.309
       0.572
       1.946
       1.927
       0.721
      -0.643
      -1.177
      -0.623
       0.493
       1.338
       1.353
       0.578
      -0.431
      -1.027
      -0.914
      -0.313
       0.254
       0.339
      -0.101
      -0.664
      -0.816
      -0.332
       0.489
       1.025
       0.860
       0.171
      -0.404
      -0.358
       0.231
       0.805
       0.815
       0.139
      -0.847
      -1.550
      -1.570
      -0.901
       0.151
       1.152
       1.679
       1.481
       0.631
      -0.497
      -1.414
      -1.739
      -1.348
      -0.472
       0.352
       0.591
       0.138
      -0.607
      -1.086
      -0.964
      -0.184
       1.086
       2.383
       2.966
       2.247
       0.378
      -1.634
      -2.556
      -1.857
      -0.180
       1.076
       0.863
      -0.586
      -1.884
      -1.692
       0.058
       2.043
       2.691
       1.560
      -0.245
      -1.028
      -0.078
       1.600
       2.196
       0.856
      -1.441
      -2.773
      -2.043
       0.051
       1.686
       1.537
      -0.125
      -1.774
      -1.998
      -0.679
       1.009
       1.703
       1.019
      -0.252
      -1.017
      -0.888
      -0.373
      -0.200
      -0.564
      -1.007
      -0.976
      -0.432
       0.160
       0.390
       0.318
       0.277
       0.400
       0.505
       0.409
       0.215
       0.191
       0.388
       0.502
       0.195
      -0.455
      -0.920
      -0.679
       0.247
       1.213
       1.453
       0.762
      -0.280
      -0.778
      -0.287
       0.790
       1.536
       1.310
       0.268
      -0.807
      -1.188
      -0.756
       0.007
       0.449
       0.220
      -0.547
      -1.368
      -1.732
      -1.434
      -0.696
       0.004
       0.282
       0.117
      -0.180
      -0.261
      -0.035
       0.315
       0.548
       0.555
       0.377
       0.148
       0.037
       0.161
       0.505
       0.921
       1.212
       1.224
       0.879
       0.242
      -0.383
      -0.552
      -0.078
       0.634
       0.794
      -0.054
      -1.467
      -2.332
      -1.841
      -0.316
       1.004
       1.062
      -0.093
      -1.384
      -1.622
      -0.488
       1.188
       2.090
       1.508
      -0.061
      -1.322
      -1.327
      -0.319
       0.541
       0.314
      -0.846
      -1.819
      -1.485
       0.252
       2.232
       2.935
       1.771
      -0.397
      -1.914
      -1.635
       0.160
       1.981
       2.359
       1.035
      -0.929
      -2.122
      -1.918
      -0.802
       0.274
       0.780
       0.880
       1.011
       1.321
       1.502
       1.130
       0.184
      -0.850
      -1.424
      -1.402
      -1.066
      -0.773
      -0.677
      -0.693
      -0.656
      -0.490
      -0.241
       0.017
       0.265
       0.485
       0.597
       0.509
       0.198
      -0.247
      -0.613
      -0.603
      -0.069
       0.698
       1.076
       0.692
      -0.113
      -0.543
      -0.101
       0.901
       1.557
       1.142
      -0.219
      -1.599
      -2.025
      -1.269
       0.020
       0.873
       0.773
       0.030
      -0.509
      -0.203
       0.829
       1.804
       1.936
       1.059
      -0.312
      -1.448
      -1.896
      -1.628
      -0.906
      -0.097
       0.443
       0.497
       0.108
      -0.388
      -0.542
      -0.091
       0.807
       1.626
       1.777
       1.002
      -0.387
      -1.596
      -1.844
      -1.037
       0.043
       0.415
      -0.108
      -0.681
      -0.325
       0.974
       2.162
       2.112
       0.696
      -1.087
      -1.956
      -1.365
       0.132
       1.392
       1.565
       0.631
      -0.744
      -1.771
      -2.007
      -1.482
      -0.547
       0.353
       0.854
       0.784
       0.243
      -0.363
      -0.495
       0.088
       1.005
       1.459
       0.913
      -0.361
      -1.421
      -1.403
      -0.267
       1.131
       1.730
       1.124
      -0.096
      -0.831
      -0.450
       0.607
       1.201
       0.542
      -1.029
      -2.242
      -1.983
      -0.330
       1.407
       1.803
       0.610
      -1.030
      -1.627
      -0.618
       1.218
       2.461
       2.185
       0.600
      -1.239
      -2.275
      -2.121
      -1.126
       0.042
       0.839
       1.001
       0.519
      -0.346
      -1.053
      -1.047
      -0.226
       0.857
       1.377
       0.915
      -0.164
      -0.940
      -0.657
       0.562
       1.699
       1.700
       0.464
      -0.989
      -1.414
      -0.515
       0.718
       0.927
      -0.258
      -1.791
      -2.193
      -0.963
       0.945
       1.967
       1.329
      -0.271
      -1.324
      -0.936
       0.380
       1.303
       1.024
       0.002
      -0.566
      -0.018
       1.041
       1.338
       0.305
      -1.240
      -1.848
      -0.876
       0.858
       1.826
       1.214
      -0.399
      -1.668
      -1.692
      -0.657
       0.482
       0.857
       0.359
      -0.419
      -0.859
      -0.888
      -0.854
      -0.952
      -0.877
      -0.128
       1.316
       2.697
       2.975
       1.738
      -0.329
      -1.869
      -1.883
      -0.497
       1.135
       1.719
       0.773
      -1.037
      -2.421
      -2.475
      -1.356
      -0.020
       0.676
       0.609
       0.253
       0.108
       0.315
       0.728
       1.160
       1.468
       1.470
       0.965
      -0.054
      -1.209
      -1.871
      -1.620
      -0.661
       0.293
       0.631
       0.370
       0.063
       0.177
       0.587
       0.724
       0.253
      -0.478
      -0.758
      -0.245
       0.698
       1.376
       1.329
       0.559
      -0.570
      -1.535
      -1.832
      -1.190
       0.196
       1.616
       2.186
       1.442
      -0.266
      -1.953
      -2.648
      -2.053
      -0.682
       0.586
       1.127
       0.841
       0.011
      -0.922
      -1.479
      -1.253
      -0.157
       1.388
       2.576
       2.694
       1.613
      -0.099
      -1.568
      -2.183
      -1.875
      -0.999
      -0.032
       0.654
       0.858
       0.561
      -0.020
      -0.443
      -0.265
       0.589
       1.641
       2.139
       1.675
       0.610
      -0.201
      -0.204
       0.335
       0.591
      -0.019
      -1.277
      -2.321
      -2.331
      -1.160
       0.526
       1.685
       1.624
       0.544
      -0.586
      -0.800
       0.047
       1.105
       1.224
      -0.002
      -1.732
      -2.473
      -1.354
       0.992
       2.786
       2.488
       0.071
      -2.920
      -4.555
      -3.916
      -1.638
       0.697
       1.749
       1.318
       0.317
      -0.071
       0.664
       2.022
       2.961
       2.735
       1.460
       0.029
      -0.551
       0.000
       0.919
       1.002
      -0.314
      -2.410
      -3.950
      -3.894
      -2.276
      -0.172
       1.161
       1.262
       0.672
       0.290
       0.612
       1.500
       2.427
       2.823
       2.332
       0.994
      -0.659
      -1.793
      -1.819
      -0.970
      -0.251
      -0.606
      -2.041
      -3.533
      -3.873
      -2.710
      -0.833
       0.611
       1.196
       1.456
       2.112
       3.215
       4.141
       4.279
       3.618
       2.684
       1.962
       1.348
       0.262
      -1.633
      -3.893
      -5.597
      -6.127
      -5.534
      -4.223
      -2.522
      -0.656
       1.016
       2.038
       2.282
       2.233
       2.691
       4.050
       5.886
       7.222
       7.163
       5.300
       1.710
      -3.198
      -8.623
     -13.108
     -14.707
     -12.036
      -5.639
       1.687
       6.381
       6.586
       3.549
       0.601
       0.526
       3.547
       7.485
       9.648
       8.761
       5.585
       2.026
      -0.401
      -1.642
      -2.953
      -5.567
      -9.249
     -12.076
     -11.756
      -7.461
      -0.725
       5.356
       8.156
       7.320
       4.797
       3.091
       3.347
       4.878
       6.183
       6.235
       4.971
       2.899
       0.440
      -2.317
      -5.306
      -8.098
     -10.008
     -10.609
      -9.928
      -8.106
      -5.130
      -1.169
       2.951
       5.927
       6.890
       6.159
       4.996
       4.457
       4.473
       4.116
       2.747
       0.805
      -0.575
      -0.673
       0.091
       0.472
      -0.599
      -3.223
      -6.488
      -8.956
      -9.354
      -7.239
      -3.321
       0.813
       3.501
       3.968
       2.791
       1.373
       0.773
       0.963
       1.173
       0.798
      -0.084
      -0.900
      -1.108
      -0.553
       0.483
       1.429
       1.652
       0.738
      -1.184
      -3.223
      -3.952
      -2.262
       1.709
       6.372
       9.482
       9.453
       6.354
       1.908
      -1.582
      -2.685
      -1.654
      -0.081
       0.320
      -1.042
      -3.234
      -4.608
      -4.213
      -2.583
      -1.184
      -1.020
      -1.738
      -2.006
      -0.747
       1.869
       4.468
       5.489
       4.319
       1.653
      -1.063
      -2.542
      -2.307
      -0.836
       0.836
       1.812
       1.844
       1.332
       0.890
       0.787
       0.674
      -0.105
      -1.795
      -3.724
      -4.574
      -3.391
      -0.566
       2.190
       3.065
       1.609
      -0.897
      -2.550
      -2.344
      -0.737
       1.019
       2.004
       2.168
       1.982
       1.758
       1.381
       0.671
      -0.155
      -0.514
      -0.018
       1.025
       1.710
       1.195
      -0.633
      -3.041
      -4.911
      -5.394
      -4.386
      -2.557
      -0.846
       0.242
       0.911
       1.641
       2.537
       3.146
       2.945
       1.941
       0.709
      -0.128
      -0.354
      -0.157
       0.180
       0.490
       0.636
       0.396
      -0.341
      -1.234
      -1.542
      -0.719
       0.945
       2.317
       2.244
       0.612
      -1.352
      -2.006
      -0.744
       1.409
       2.639
       1.893
      -0.175
      -1.715
      -1.313
       0.665
       2.325
       1.924
      -0.602
      -3.600
      -5.053
      -4.129
      -1.753
       0.154
       0.193
      -1.427
      -3.174
      -3.573
      -2.337
      -0.303
       1.497
       2.615
       3.246
       3.716
       4.013
       3.869
       3.210
       2.337
       1.575
       0.895
       0.027
      -1.084
      -2.047
      -2.306
      -1.702
      -0.733
      -0.178
      -0.370
      -0.833
      -0.713
       0.365
       1.826
       2.569
       1.945
       0.352
      -1.114
      -1.585
      -1.083
      -0.425
      -0.531
      -1.686
      -3.286
      -4.241
      -3.802
      -2.129
      -0.095
       1.444
       2.190
       2.389
       2.408
       2.349
       2.022
       1.282
       0.335
      -0.370
      -0.579
      -0.503
      -0.620
      -1.194
      -1.994
      -2.481
      -2.311
      -1.678
      -1.074
      -0.669
      -0.067
       1.220
       3.121
       4.860
       5.480
       4.576
       2.680
       0.892
       0.020
       0.049
       0.349
       0.277
      -0.345
      -1.175
      -1.694
      -1.670
      -1.349
      -1.214
      -1.518
      -2.045
      -2.298
      -1.949
      -1.118
      -0.275
       0.072
      -0.271
      -0.930
      -1.151
      -0.467
       0.796
       1.812
       2.056
       1.797
       1.775
       2.398
       3.225
       3.296
       2.059
       0.014
      -1.588
      -1.734
      -0.423
       1.394
       2.550
       2.406
       1.174
      -0.297
      -1.162
      -1.250
      -1.127
      -1.439
      -2.181
      -2.665
      -2.239
      -1.009
       0.137
       0.265
      -0.776
      -2.181
      -2.821
      -2.150
      -0.631
       0.660
       0.927
       0.296
      -0.327
      -0.092
       1.014
       2.125
       2.227
       0.991
      -0.954
      -2.493
      -2.820
      -1.925
      -0.460
       0.801
       1.428
       1.397
       0.848
      -0.092
      -1.180
      -1.878
      -1.551
      -0.030
       2.031
       3.460
       3.410
       2.060
       0.532
       0.022
       0.841
       2.130
       2.491
       1.107
      -1.539
      -3.986
      -4.903
      -4.079
      -2.546
      -1.669
      -1.946
      -2.577
      -2.253
      -0.429
       2.065
       3.594
       3.027
       0.720
      -1.705
      -2.621
      -1.645
       0.192
       1.428
       1.391
       0.654
       0.447
       1.552
       3.563
       5.125
       4.961
       2.835
      -0.248
      -2.673
      -3.233
      -1.918
       0.080
       1.230
       0.808
      -0.605
      -1.732
      -1.683
      -0.538
       0.916
       1.868
       1.967
       1.362
       0.423
      -0.533
      -1.298
      -1.733
      -1.845
      -1.856
      -2.040
      -2.406
      -2.591
      -2.127
      -0.857
       0.860
       2.378
       3.239
       3.499
       3.631
       4.047
       4.649
       4.845
       4.035
       2.081
      -0.576
      -3.183
      -5.070
      -5.882
      -5.587
      -4.442
      -2.974
      -1.820
      -1.397
      -1.582
      -1.766
      -1.330
      -0.169
       1.234
       2.254
       2.646
       2.613
       2.437
       2.134
       1.546
       0.758
       0.235
       0.366
       0.917
       1.136
       0.447
      -0.979
