Origin Time       31/12/2009 09:57:00
Lat.              27.3°N	
Long.             91.4°E	
Depth (Km)          7.0
Magnitude         5.5
 Region           BHUTAN                                                           
 Above details taken from IMD 
     
Station Code      GUA
Station Lat.       26.190  N
Station Long.      91.746  E
Station Height(m)   55.2
Site Class        C   Vs30 between 200 m/sec to 375 m/sec *  
Record Time       31.12.2009 09:57:36.114
Sampling Rate     200. Hz
 Record Duration   80.470 Sec.
 Direction         E-W (E positive)
Max. Acceleration      9.964 cm/sec**2
     
  * For reference see Site Classification link of website 
     
 Base Line Corrected and Low Pass Filtered (Cut Off at 35 Hz) Time History
 Acceleration data in cm/sec**2
    
[...]
      -1.707
      -1.803
      -1.825
      -1.781
      -1.695
      -1.596
      -1.498
      -1.388
      -1.235
      -1.019
      -0.753
      -0.487
      -0.285
      -0.200
      -0.232
      -0.326
      -0.395
      -0.364
      -0.195
       0.105
       0.507
       0.975
       1.474
       1.966
       2.407
       2.737
       2.895
       2.860
       2.662
       2.385
       2.127
       1.969
       1.953
       2.068
       2.257
       2.434
       2.508
       2.410
       2.126
       1.705
       1.244
       0.851
       0.595
       0.487
       0.481
       0.503
       0.481
       0.376
       0.182
      -0.080
      -0.389
      -0.723
      -1.058
      -1.363
      -1.607
      -1.769
      -1.847
      -1.864
      -1.859
      -1.870
      -1.908
      -1.950
      -1.942
      -1.832
      -1.608
      -1.309
      -1.010
      -0.772
      -0.614
      -0.524
      -0.484
      -0.495
      -0.565
      -0.699
      -0.886
      -1.104
      -1.336
      -1.579
      -1.829
      -2.051
      -2.170
      -2.103
      -1.812
      -1.326
      -0.730
      -0.117
       0.441
       0.903
       1.247
       1.453
       1.512
       1.437
       1.262
       1.024
       0.740
       0.403
       0.004
      -0.448
      -0.917
      -1.339
      -1.653
      -1.821
      -1.846
      -1.774
      -1.675
      -1.610
      -1.611
      -1.663
      -1.728
      -1.765
      -1.748
      -1.667
      -1.518
      -1.299
      -1.019
      -0.699
      -0.372
      -0.083
       0.112
       0.176
       0.107
      -0.045
      -0.210
      -0.321
      -0.340
      -0.248
      -0.047
       0.253
       0.618
       0.988
       1.285
       1.442
       1.441
       1.332
       1.201
       1.128
       1.147
       1.240
       1.352
       1.426
       1.418
       1.309
       1.097
       0.803
       0.476
       0.188
      -0.001
      -0.072
      -0.050
       0.014
       0.065
       0.051
      -0.073
      -0.325
      -0.683
      -1.069
      -1.374
      -1.512
      -1.460
      -1.254
      -0.952
      -0.589
      -0.171
       0.303
       0.816
       1.324
       1.766
       2.093
       2.296
       2.419
       2.538
       2.727
       3.015
       3.376
       3.735
       4.008
       4.141
       4.130
       4.015
       3.849
       3.671
       3.483
       3.254
       2.941
       2.527
       2.038
       1.519
       1.001
       0.483
      -0.057
      -0.628
      -1.191
      -1.658
      -1.928
      -1.937
      -1.692
      -1.277
      -0.811
      -0.418
      -0.185
      -0.156
      -0.329
      -0.670
      -1.126
      -1.637
      -2.144
      -2.585
      -2.892
      -3.004
      -2.887
      -2.553
      -2.060
      -1.479
      -0.860
      -0.237
       0.354
       0.848
       1.169
       1.263
       1.136
       0.862
       0.548
       0.289
       0.124
       0.042
       0.019
       0.040
       0.102
       0.175
       0.194
       0.068
      -0.264
      -0.790
      -1.428
      -2.064
      -2.606
      -3.007
      -3.257
      -3.376
      -3.413
      -3.429
      -3.475
      -3.563
      -3.653
      -3.671
      -3.538
      -3.210
      -2.693
      -2.055
      -1.407
      -0.875
      -0.550
      -0.449
      -0.501
      -0.586
      -0.598
      -0.480
      -0.227
       0.137
       0.582
       1.082
       1.606
       2.095
       2.455
       2.581
       2.414
       1.997
       1.469
       1.017
       0.797
       0.875
       1.219
       1.731
       2.275
       2.695
       2.827
       2.535
       1.777
       0.643
      -0.669
      -1.924
      -2.929
      -3.575
      -3.829
      -3.706
      -3.250
      -2.544
      -1.716
      -0.923
      -0.307
       0.052
       0.140
      -0.003
      -0.311
      -0.704
      -1.094
      -1.388
      -1.506
      -1.398
      -1.070
      -0.585
      -0.042
       0.470
       0.902
       1.246
       1.524
       1.754
       1.947
       2.110
       2.256
       2.390
       2.488
       2.485
       2.298
       1.884
       1.275
       0.579
      -0.062
      -0.531
      -0.771
      -0.790
      -0.641
      -0.393
      -0.108
       0.174
       0.447
       0.727
       1.032
       1.360
       1.685
       1.970
       2.175
       2.270
       2.242
       2.112
       1.948
       1.858
       1.956
       2.291
       2.800
       3.317
       3.656
       3.716
       3.529
       3.236
       2.996
       2.899
       2.936
       3.020
       3.058
       3.005
       2.870
       2.695
       2.509
       2.309
       2.067
       1.756
       1.375
       0.963
       0.575
       0.242
      -0.047
      -0.336
      -0.675
      -1.094
      -1.586
      -2.109
      -2.598
      -2.995
      -3.278
      -3.478
      -3.663
      -3.898
      -4.203
      -4.538
      -4.828
      -5.010
      -5.047
      -4.920
      -4.625
      -4.169
      -3.581
      -2.915
      -2.242
      -1.648
      -1.217
      -1.011
      -1.036
      -1.219
      -1.415
      -1.454
      -1.220
      -0.707
      -0.013
       0.734
       1.441
       2.072
       2.607
       2.985
       3.101
       2.856
       2.245
       1.393
       0.503
      -0.262
      -0.862
      -1.375
      -1.905
      -2.478
      -3.026
      -3.446
      -3.692
      -3.820
      -3.929
      -4.085
      -4.278
      -4.449
      -4.540
      -4.516
      -4.357
      -4.051
      -3.609
      -3.082
      -2.559
      -2.128
      -1.820
      -1.586
      -1.316
      -0.905
      -0.321
       0.385
       1.113
       1.776
       2.340
       2.833
       3.321
       3.863
       4.479
       5.127
       5.708
       6.090
       6.158
       5.877
       5.313
       4.602
       3.869
       3.165
       2.476
       1.790
       1.161
       0.695
       0.478
       0.493
       0.604
       0.617
       0.375
      -0.177
      -0.971
      -1.832
      -2.532
      -2.868
      -2.755
      -2.255
      -1.536
      -0.789
      -0.141
       0.365
       0.748
       1.038
       1.246
       1.368
       1.404
       1.391
       1.402
       1.538
       1.895
       2.521
       3.363
       4.242
       4.875
       4.988
       4.439
       3.323
       1.949
       0.709
      -0.110
      -0.438
      -0.413
      -0.260
      -0.173
      -0.265
      -0.576
      -1.103
      -1.805
      -2.585
      -3.293
      -3.776
      -3.941
      -3.810
      -3.490
      -3.113
      -2.762
      -2.443
      -2.116
      -1.767
      -1.434
      -1.191
      -1.084
      -1.082
      -1.090
      -1.000
      -0.727
      -0.229
       0.521
       1.534
       2.780
       4.156
       5.496
       6.615
       7.369
       7.677
       7.505
       6.852
       5.792
       4.507
       3.266
       2.327
       1.817
       1.668
       1.663
       1.540
       1.111
       0.318
      -0.775
      -2.023
      -3.239
      -4.225
      -4.806
      -4.882
      -4.485
      -3.800
      -3.121
      -2.735
      -2.808
      -3.319
      -4.100
      -4.936
      -5.651
      -6.164
      -6.465
      -6.581
      -6.532
      -6.324
      -5.966
      -5.484
      -4.919
      -4.293
      -3.601
      -2.813
      -1.912
      -0.923
       0.067
       0.927
       1.526
       1.784
       1.706
       1.383
       0.967
       0.625
       0.484
       0.578
       0.843
       1.157
       1.405
       1.527
       1.530
       1.474
       1.427
       1.446
       1.560
       1.768
       2.038
       2.320
       2.567
       2.749
       2.859
       2.895
       2.857
       2.741
       2.542
       2.263
       1.913
       1.504
       1.044
       0.529
      -0.033
      -0.603
      -1.101
      -1.432
      -1.524
      -1.362
      -0.990
      -0.493
       0.035
       0.514
       0.871
       1.038
       0.958
       0.618
       0.077
      -0.535
      -1.059
      -1.373
      -1.442
      -1.317
      -1.078
      -0.772
      -0.388
       0.104
       0.685
       1.253
       1.651
       1.761
       1.588
       1.280
       1.034
       0.967
       1.044
       1.128
       1.096
       0.929
       0.712
       0.563
       0.551
       0.649
       0.782
       0.884
       0.955
       1.037
       1.149
       1.246
       1.236
       1.049
       0.705
       0.322
       0.069
       0.078
       0.381
       0.895
       1.457
       1.889
       2.064
       1.940
       1.556
       1.000
       0.373
      -0.228
      -0.722
      -1.067
      -1.281
      -1.415
      -1.497
      -1.493
      -1.324
      -0.934
      -0.363
       0.231
       0.638
       0.690
       0.334
      -0.369
      -1.299
      -2.327
      -3.339
      -4.216
      -4.817
      -5.011
      -4.739
      -4.064
      -3.147
      -2.169
      -1.252
      -0.459
       0.162
       0.547
       0.649
       0.500
       0.230
       0.017
      -0.013
       0.134
       0.333
       0.431
       0.331
       0.028
      -0.432
      -1.002
      -1.639
      -2.273
      -2.786
      -3.038
      -2.954
      -2.588
      -2.127
      -1.791
      -1.707
      -1.830
      -1.976
      -1.939
      -1.620
      -1.082
      -0.506
      -0.067
       0.173
       0.303
       0.487
       0.867
       1.479
       2.240
       2.994
       3.594
       3.966
       4.126
       4.151
       4.119
       4.084
       4.069
       4.079
       4.109
       4.142
       4.132
       4.006
       3.679
       3.098
       2.283
       1.335
       0.414
      -0.337
      -0.871
      -1.254
      -1.603
      -1.989
      -2.382
      -2.697
      -2.892
      -3.025
      -3.210
      -3.509
      -3.848
      -4.047
      -3.942
      -3.520
      -2.940
      -2.424
      -2.103
      -1.919
      -1.662
      -1.107
      -0.168
       1.051
       2.316
       3.381
       4.098
       4.444
       4.489
       4.344
       4.105
       3.824
       3.512
       3.169
       2.813
       2.494
       2.264
       2.140
       2.077
       1.987
       1.797
       1.507
       1.189
       0.926
       0.744
       0.599
       0.420
       0.160
      -0.199
      -0.667
      -1.254
      -1.936
      -2.623
      -3.175
      -3.473
      -3.519
      -3.441
      -3.398
      -3.445
      -3.467
      -3.263
      -2.693
      -1.781
      -0.709
       0.312
       1.148
       1.800
       2.343
       2.844
       3.285
       3.562
       3.528
       3.084
       2.255
       1.199
       0.145
      -0.719
      -1.326
      -1.722
      -1.997
      -2.210
      -2.341
      -2.311
      -2.042
      -1.523
      -0.837
      -0.141
       0.413
       0.732
       0.811
       0.700
       0.463
       0.140
      -0.244
      -0.662
      -1.066
      -1.407
      -1.649
      -1.791
      -1.860
      -1.905
      -1.983
      -2.134
      -2.359
      -2.576
      -2.624
      -2.323
      -1.593
      -0.535
       0.581
       1.448
       1.881
       1.897
       1.680
       1.448
       1.324
       1.288
       1.229
       1.035
       0.667
       0.167
      -0.385
      -0.928
      -1.449
      -1.947
      -2.389
      -2.674
      -2.668
      -2.283
      -1.535
      -0.549
       0.486
       1.376
       1.952
       2.100
       1.784
       1.051
       0.022
      -1.138
      -2.248
      -3.131
      -3.630
      -3.642
      -3.174
      -2.375
      -1.490
      -0.748
      -0.246
       0.085
       0.412
       0.887
       1.560
       2.363
       3.154
       3.804
       4.255
       4.522
       4.652
       4.681
       4.630
       4.525
       4.418
       4.377
       4.447
       4.612
       4.811
       4.972
       5.050
       5.023
       4.850
       4.447
       3.722
       2.643
       1.295
      -0.151
      -1.518
      -2.686
      -3.595
      -4.200
      -4.448
      -4.313
      -3.872
      -3.334
      -2.977
      -3.024
      -3.534
      -4.368
      -5.251
      -5.895
      -6.116
      -5.882
      -5.292
      -4.497
      -3.634
      -2.796
      -2.056
      -1.496
      -1.206
      -1.239
      -1.556
      -2.020
      -2.435
      -2.639
      -2.569
      -2.264
      -1.800
      -1.226
      -0.545
       0.268
       1.222
       2.270
       3.311
       4.205
       4.824
       5.105
       5.083
       4.848
       4.470
       3.973
       3.370
       2.708
       2.045
       1.389
       0.660
      -0.247
      -1.343
      -2.466
      -3.322
      -3.641
      -3.332
      -2.535
      -1.536
      -0.612
       0.082
       0.534
       0.816
       1.017
       1.199
       1.402
       1.647
       1.941
       2.263
       2.558
       2.748
       2.753
       2.531
       2.103
       1.558
       1.021
       0.617
       0.449
       0.604
       1.146
       2.061
       3.202
       4.295
       5.052
       5.308
       5.086
       4.514
       3.692
       2.611
       1.201
      -0.530
      -2.403
      -4.106
      -5.347
      -6.014
      -6.223
      -6.234
      -6.292
      -6.509
      -6.847
      -7.200
      -7.486
      -7.684
      -7.799
      -7.820
      -7.710
      -7.427
      -6.957
      -6.306
      -5.479
      -4.451
      -3.191
      -1.708
      -0.084
       1.555
       3.090
       4.453
       5.618
       6.583
       7.367
       8.019
       8.610
       9.177
       9.677
       9.964
       9.859
       9.256
       8.190
       6.809
       5.287
       3.753
       2.279
       0.922
      -0.248
      -1.146
      -1.717
      -1.976
      -2.032
      -2.051
      -2.178
      -2.466
      -2.858
      -3.231
      -3.464
      -3.487
      -3.281
      -2.860
      -2.266
      -1.594
      -0.989
      -0.606
      -0.533
      -0.760
      -1.200
      -1.734
      -2.246
      -2.597
      -2.617
      -2.146
      -1.143
       0.230
       1.630
       2.676
       3.139
       3.052
       2.675
       2.360
       2.378
       2.822
       3.585
       4.430
       5.072
       5.280
       4.946
       4.138
       3.071
       2.009
       1.126
       0.443
      -0.134
      -0.698
      -1.264
      -1.787
      -2.232
      -2.616
      -2.986
      -3.376
      -3.783
      -4.199
      -4.614
      -5.009
      -5.320
      -5.457
      -5.351
      -5.002
      -4.464
      -3.795
      -3.027
      -2.170
      -1.267
      -0.429
       0.174
       0.396
       0.208
      -0.243
      -0.690
      -0.871
      -0.666
      -0.161
       0.395
       0.732
       0.704
       0.362
      -0.096
      -0.442
      -0.521
      -0.278
       0.276
       1.100
       2.128
       3.237
       4.228
       4.878
       5.026
       4.661
       3.938
       3.114
       2.444
       2.075
       1.989
       2.029
       1.981
       1.681
       1.084
       0.254
      -0.687
      -1.630
      -2.513
      -3.305
      -3.962
      -4.412
      -4.586
      -4.465
      -4.100
      -3.586
      -3.024
      -2.493
      -2.043
      -1.685
      -1.385
      -1.078
      -0.712
      -0.289
       0.111
       0.361
       0.368
       0.144
      -0.169
      -0.378
      -0.340
      -0.040
       0.436
       0.968
       1.474
       1.921
       2.296
       2.573
       2.712
       2.689
       2.501
       2.164
       1.695
       1.127
       0.534
       0.048
      -0.177
      -0.031
       0.484
       1.231
       1.986
       2.531
       2.732
       2.577
       2.141
       1.534
       0.841
       0.105
      -0.648
      -1.375
      -2.014
      -2.515
      -2.848
      -2.977
      -2.840
      -2.375
      -1.590
      -0.606
       0.385
       1.220
       1.853
       2.351
       2.801
       3.200
       3.417
       3.264
       2.629
       1.576
       0.340
      -0.783
      -1.580
      -1.994
      -2.089
      -1.962
      -1.685
      -1.317
      -0.952
      -0.722
      -0.733
      -0.988
      -1.358
      -1.652
      -1.729
      -1.569
      -1.252
      -0.879
      -0.522
      -0.219
      -0.006
       0.071
      -0.030
      -0.321
      -0.774
      -1.306
      -1.790
      -2.086
      -2.094
      -1.785
      -1.197
      -0.410
       0.457
       1.243
       1.772
       1.912
       1.658
       1.154
       0.633
       0.295
       0.204
       0.294
       0.446
       0.581
       0.693
       0.826
       1.028
       1.310
       1.629
       1.897
       2.017
       1.929
       1.649
       1.265
       0.893
       0.622
       0.485
       0.471
       0.547
       0.664
       0.755
       0.751
       0.606
       0.306
      -0.134
      -0.688
      -1.323
      -1.989
      -2.613
      -3.111
      -3.407
      -3.466
      -3.287
      -2.891
      -2.294
      -1.522
      -0.643
       0.211
       0.877
       1.225
       1.218
       0.929
       0.509
       0.122
      -0.121
      -0.193
      -0.146
      -0.070
      -0.060
      -0.175
      -0.413
      -0.696
      -0.892
      -0.861
      -0.517
       0.128
       0.972
       1.879
       2.735
       3.474
       4.055
       4.429
       4.538
       4.343
       3.861
       3.170
       2.391
       1.657
       1.084
       0.751
       0.678
       0.817
       1.052
       1.244
       1.275
       1.091
       0.722
       0.255
      -0.206
      -0.596
      -0.917
      -1.224
      -1.580
      -2.017
      -2.528
      -3.079
      -3.637
      -4.176
      -4.669
      -5.083
      -5.377
      -5.523
      -5.504
      -5.302
      -4.882
      -4.205
      -3.271
      -2.159
      -1.023
      -0.030
       0.714
       1.202
       1.501
       1.680
       1.736
       1.604
       1.237
       0.697
       0.166
      -0.160
      -0.196
      -0.027
       0.167
       0.243
       0.180
       0.064
      -0.018
      -0.045
      -0.051
      -0.052
      -0.003
       0.167
       0.489
       0.909
       1.322
       1.635
       1.822
       1.920
       1.997
       2.110
       2.308
       2.629
       3.100
       3.719
       4.440
       5.170
       5.763
       6.035
       5.834
       5.119
       4.013
       2.751
       1.563
       0.583
      -0.176
      -0.753
      -1.171
      -1.409
      -1.454
      -1.358
      -1.254
      -1.294
      -1.574
      -2.102
      -2.808
      -3.577
      -4.265
      -4.726
      -4.838
      -4.560
      -3.957
      -3.198
      -2.492
      -2.002
      -1.793
      -1.826
      -2.000
      -2.199
      -2.335
      -2.359
      -2.265
      -2.071
      -1.801
      -1.475
      -1.102
      -0.679
      -0.207
       0.295
       0.784
       1.203
       1.511
       1.703
       1.813
       1.880
       1.907
       1.842
       1.621
       1.224
       0.722
       0.245
      -0.075
      -0.153
       0.029
       0.433
       0.982
       1.572
       2.081
       2.385
       2.400
       2.117
       1.611
       1.015
       0.471
       0.091
      -0.069
      -0.029
       0.132
       0.317
       0.464
       0.569
       0.661
       0.765
       0.880
       0.982
       1.039
       1.013
       0.862
       0.551
       0.089
      -0.424
      -0.804
