Origin Time       19/8/2009 10:45:15	
Lat.              26.6 N	
Long.             92.5 E	
Depth (Km)         20.0
Magnitude         4.9
 Region           Sonitpur-Assam                                                   
 Above details taken from IMD 
   
Station Code      GUA
Station Lat.       26.190
Station Long.      91.746
Station Height(m)   55.2
Site Class        C   Vs30 between 200 m/sec to 375 m/sec *  
Record Time       19.08.2009 10:45:29.449
Sampling Rate     200. Hz
 Record Duration   71.660 Sec.
 Direction         Vert. (Up positive)
Max. Acceleration     20.664 cm/sec**2
     
  * For reference see Site Classification link of website 
     
 Base Line Corrected and Low Pass Filtered (Cut Off at 35 Hz) Time History
 Acceleration data in cm/sec**2
    
[...]
       0.997
       1.261
       1.278
       1.078
       0.804
       0.630
       0.642
       0.774
       0.843
       0.676
       0.247
      -0.310
      -0.800
      -1.101
      -1.224
      -1.265
      -1.311
      -1.378
      -1.411
      -1.324
      -1.059
      -0.632
      -0.138
       0.296
       0.589
       0.742
       0.800
       0.782
       0.686
       0.533
       0.406
       0.388
       0.486
       0.604
       0.627
       0.520
       0.357
       0.240
       0.221
       0.273
       0.330
       0.341
       0.291
       0.194
       0.088
       0.011
      -0.054
      -0.175
      -0.410
      -0.714
      -0.941
      -0.965
      -0.796
      -0.585
      -0.497
      -0.581
      -0.740
      -0.815
      -0.686
      -0.331
       0.184
       0.731
       1.154
       1.336
       1.233
       0.891
       0.436
       0.052
      -0.093
       0.045
       0.325
       0.489
       0.340
      -0.104
      -0.590
      -0.815
      -0.662
      -0.285
       0.023
       0.059
      -0.179
      -0.527
      -0.789
      -0.842
      -0.684
      -0.428
      -0.236
      -0.195
      -0.231
      -0.144
       0.231
       0.868
       1.537
       1.951
       1.953
       1.597
       1.073
       0.558
       0.132
      -0.210
      -0.484
      -0.676
      -0.768
      -0.796
      -0.849
      -0.980
      -1.120
      -1.101
      -0.800
      -0.286
       0.186
       0.355
       0.159
      -0.217
      -0.494
      -0.526
      -0.399
      -0.330
      -0.448
      -0.652
      -0.693
      -0.382
       0.247
       0.947
       1.425
       1.527
       1.315
       1.016
       0.861
       0.928
       1.079
       1.041
       0.607
      -0.179
      -1.000
      -1.452
      -1.315
      -0.715
      -0.034
       0.345
       0.263
      -0.161
      -0.662
      -1.001
      -1.083
      -0.975
      -0.826
      -0.741
      -0.704
      -0.616
      -0.413
      -0.137
       0.116
       0.304
       0.475
       0.698
       0.992
       1.297
       1.522
       1.593
       1.482
       1.215
       0.846
       0.431
       0.019
      -0.352
      -0.651
      -0.842
      -0.892
      -0.810
      -0.676
      -0.605
      -0.644
      -0.715
      -0.673
      -0.438
      -0.086
       0.202
       0.287
       0.188
       0.049
       0.005
       0.053
       0.076
      -0.023
      -0.194
      -0.270
      -0.131
       0.155
       0.376
       0.375
       0.211
       0.112
       0.260
       0.597
       0.853
       0.769
       0.335
      -0.175
      -0.429
      -0.307
       0.016
       0.234
       0.155
      -0.170
      -0.520
      -0.681
      -0.579
      -0.299
      -0.011
       0.134
       0.091
      -0.062
      -0.189
      -0.201
      -0.113
      -0.011
       0.047
       0.110
       0.273
       0.543
       0.773
       0.761
       0.431
      -0.069
      -0.448
      -0.491
      -0.218
       0.143
       0.329
       0.223
      -0.081
      -0.359
      -0.416
      -0.220
       0.087
       0.293
       0.254
      -0.024
      -0.392
      -0.645
      -0.647
      -0.414
      -0.100
       0.096
       0.056
      -0.167
      -0.377
      -0.366
      -0.075
       0.358
       0.702
       0.818
       0.757
       0.694
       0.752
       0.899
       0.984
       0.881
       0.594
       0.248
      -0.012
      -0.140
      -0.235
      -0.464
      -0.900
      -1.433
      -1.822
      -1.874
      -1.578
      -1.103
      -0.673
      -0.423
      -0.330
      -0.250
      -0.046
       0.291
       0.633
       0.826
       0.822
       0.723
       0.692
       0.812
       1.009
       1.105
       0.968
       0.618
       0.210
      -0.092
      -0.227
      -0.263
      -0.313
      -0.434
      -0.584
      -0.665
      -0.603
      -0.414
      -0.211
      -0.139
      -0.271
      -0.531
      -0.719
      -0.636
      -0.235
       0.322
       0.769
       0.934
       0.857
       0.740
       0.739
       0.825
       0.818
       0.559
       0.065
      -0.473
      -0.820
      -0.859
      -0.656
      -0.396
      -0.251
      -0.277
      -0.393
      -0.448
      -0.335
      -0.076
       0.175
       0.259
       0.142
      -0.029
      -0.049
       0.180
       0.558
       0.870
       0.949
       0.776
       0.450
       0.087
      -0.240
      -0.515
      -0.748
      -0.948
      -1.104
      -1.175
      -1.113
      -0.901
      -0.588
      -0.291
      -0.122
      -0.108
      -0.157
      -0.133
       0.028
       0.267
       0.463
       0.555
       0.597
       0.690
       0.861
       1.018
       1.040
       0.892
       0.662
       0.474
       0.368
       0.270
       0.067
      -0.283
      -0.701
      -1.032
      -1.124
      -0.905
      -0.414
       0.182
       0.645
       0.786
       0.606
       0.322
       0.205
       0.346
       0.561
       0.543
       0.137
      -0.514
      -1.088
      -1.334
      -1.234
      -0.970
      -0.746
      -0.639
      -0.571
      -0.420
      -0.141
       0.198
       0.481
       0.648
       0.737
       0.839
       0.978
       1.047
       0.875
       0.371
      -0.350
      -0.997
      -1.279
      -1.105
      -0.632
      -0.127
       0.226
       0.419
       0.573
       0.781
       0.981
       0.999
       0.734
       0.307
      -0.022
      -0.079
       0.066
       0.161
      -0.003
      -0.411
      -0.829
      -0.959
      -0.652
      -0.012
       0.646
       0.991
       0.888
       0.484
       0.090
      -0.051
       0.064
       0.228
       0.213
      -0.061
      -0.506
      -0.970
      -1.335
      -1.518
      -1.465
      -1.176
      -0.744
      -0.327
      -0.045
       0.104
       0.226
       0.420
       0.685
       0.920
       1.009
       0.911
       0.693
       0.484
       0.388
       0.412
       0.466
       0.422
       0.228
      -0.033
      -0.202
      -0.197
      -0.097
      -0.059
      -0.159
      -0.308
      -0.333
      -0.124
       0.260
       0.589
       0.592
       0.146
      -0.600
      -1.283
      -1.535
      -1.210
      -0.480
       0.266
       0.655
       0.571
       0.217
      -0.058
      -0.041
       0.182
       0.320
       0.155
      -0.256
      -0.627
      -0.693
      -0.421
      -0.020
       0.247
       0.262
       0.110
      -0.023
      -0.002
       0.185
       0.447
       0.665
       0.757
       0.687
       0.460
       0.127
      -0.205
      -0.396
      -0.364
      -0.158
       0.054
       0.097
      -0.086
      -0.392
      -0.631
      -0.655
      -0.457
      -0.172
       0.017
       0.016
      -0.112
      -0.192
      -0.084
       0.204
       0.525
       0.727
       0.768
       0.712
       0.646
       0.598
       0.524
       0.349
       0.023
      -0.416
      -0.833
      -1.042
      -0.925
      -0.545
      -0.134
       0.050
      -0.108
      -0.510
      -0.909
      -1.044
      -0.782
      -0.202
       0.438
       0.854
       0.918
       0.738
       0.565
       0.601
       0.838
       1.051
       0.962
       0.455
      -0.315
      -1.000
      -1.281
      -1.058
      -0.497
       0.081
       0.375
       0.255
      -0.170
      -0.604
      -0.732
      -0.430
       0.134
       0.591
       0.650
       0.326
      -0.069
      -0.178
       0.119
       0.631
       1.009
       1.007
       0.618
       0.049
      -0.428
      -0.634
      -0.573
      -0.405
      -0.314
      -0.372
      -0.491
      -0.496
      -0.249
       0.251
       0.845
       1.281
       1.332
       0.943
       0.305
      -0.221
      -0.338
      -0.040
       0.348
       0.410
      -0.034
      -0.790
      -1.430
      -1.592
      -1.220
      -0.584
      -0.101
      -0.059
      -0.412
      -0.816
      -0.874
      -0.432
       0.330
       1.062
       1.499
       1.588
       1.437
       1.185
       0.916
       0.647
       0.373
       0.117
      -0.044
      -0.030
       0.156
       0.362
       0.382
       0.131
      -0.230
      -0.410
      -0.245
       0.118
       0.317
       0.073
      -0.563
      -1.230
      -1.545
      -1.401
      -1.030
      -0.781
      -0.817
      -0.998
      -1.025
      -0.697
      -0.071
       0.579
       0.946
       0.884
       0.486
      -0.002
      -0.341
      -0.422
      -0.283
      -0.032
       0.230
       0.451
       0.613
       0.715
       0.764
       0.779
       0.768
       0.705
       0.565
       0.371
       0.192
       0.088
       0.041
      -0.055
      -0.314
      -0.738
      -1.161
      -1.317
      -1.019
      -0.326
       0.432
       0.857
       0.761
       0.302
      -0.168
      -0.394
      -0.394
      -0.352
      -0.398
      -0.495
      -0.525
      -0.440
      -0.324
      -0.319
      -0.501
      -0.810
      -1.075
      -1.102
      -0.775
      -0.143
       0.576
       1.107
       1.273
       1.078
       0.671
       0.268
       0.067
       0.161
       0.480
       0.816
       0.935
       0.732
       0.323
      -0.026
      -0.102
       0.092
       0.353
       0.457
       0.337
       0.108
      -0.041
      -0.008
       0.150
       0.260
       0.164
      -0.163
      -0.587
      -0.906
      -0.992
      -0.870
      -0.668
      -0.480
      -0.300
      -0.087
       0.132
       0.237
       0.133
      -0.112
      -0.272
      -0.159
       0.158
       0.363
       0.163
      -0.404
      -0.926
      -0.898
      -0.124
       1.084
       2.076
       2.320
       1.775
       0.898
       0.276
       0.195
       0.476
       0.679
       0.469
      -0.137
      -0.774
      -0.984
      -0.564
       0.250
       0.924
       1.007
       0.463
      -0.320
      -0.823
      -0.790
      -0.403
      -0.111
      -0.245
      -0.764
      -1.317
      -1.549
      -1.336
      -0.812
      -0.220
       0.234
       0.433
       0.330
      -0.054
      -0.608
      -1.141
      -1.478
      -1.576
      -1.554
      -1.577
      -1.678
      -1.683
      -1.322
      -0.446
       0.831
       2.170
       3.178
       3.619
       3.520
       3.108
       2.633
       2.187
       1.676
       0.934
      -0.127
      -1.431
      -2.760
      -3.859
      -4.550
      -4.774
      -4.571
      -4.013
      -3.169
      -2.113
      -0.966
       0.096
       0.886
       1.294
       1.347
       1.185
       0.947
       0.682
       0.335
      -0.183
      -0.911
      -1.789
      -2.646
      -3.227
      -3.261
      -2.577
      -1.242
       0.383
       1.740
       2.347
       2.061
       1.163
       0.181
      -0.388
      -0.297
       0.391
       1.379
       2.278
       2.769
       2.730
       2.291
       1.772
       1.487
       1.554
       1.840
       2.069
       1.995
       1.544
       0.848
       0.152
      -0.369
      -0.724
      -1.073
      -1.553
      -2.134
      -2.650
      -2.949
      -3.010
      -2.915
      -2.716
      -2.321
      -1.544
      -0.263
       1.440
       3.253
       4.753
       5.621
       5.834
       5.677
       5.540
       5.643
       5.885
       5.964
       5.644
       4.958
       4.159
       3.520
       3.170
       3.068
       3.071
       2.991
       2.677
       2.126
       1.493
       0.976
       0.659
       0.460
       0.221
      -0.182
      -0.788
      -1.578
      -2.505
      -3.502
      -4.498
      -5.454
      -6.401
      -7.412
      -8.497
      -9.508
     -10.136
     -10.065
      -9.194
      -7.734
      -6.076
      -4.509
      -3.044
      -1.507
       0.195
       1.865
       3.033
       3.226
       2.311
       0.637
      -1.122
      -2.296
      -2.506
      -1.745
      -0.270
       1.581
       3.537
       5.465
       7.365
       9.288
      11.214
      12.929
      14.018
      14.036
      12.762
      10.352
       7.265
       4.016
       0.942
      -1.887
      -4.565
      -7.172
      -9.660
     -11.834
     -13.394
     -14.089
     -13.885
     -12.996
     -11.698
     -10.116
      -8.183
      -5.814
      -3.132
      -0.548
       1.406
       2.405
       2.557
       2.335
       2.247
       2.519
       3.040
       3.581
       4.065
       4.655
       5.591
       6.934
       8.435
       9.622
      10.074
       9.672
       8.657
       7.468
       6.464
       5.713
       4.961
       3.816
       2.026
      -0.357
      -3.016
      -5.563
      -7.718
      -9.353
     -10.454
     -11.056
     -11.243
     -11.166
     -11.031
     -11.010
     -11.151
     -11.321
     -11.248
     -10.669
      -9.507
      -7.946
      -6.321
      -4.885
      -3.647
      -2.401
      -0.876
       1.140
       3.731
       6.813
      10.109
      13.177
      15.549
      16.945
      17.409
      17.220
      16.652
      15.760
      14.385
      12.361
       9.753
       6.890
       4.141
       1.655
      -0.669
      -2.958
      -5.144
      -6.962
      -8.092
      -8.294
      -7.511
      -5.950
      -4.064
      -2.363
      -1.179
      -0.546
      -0.324
      -0.442
      -1.031
      -2.292
      -4.274
      -6.794
      -9.536
     -12.147
     -14.271
     -15.563
     -15.738
     -14.656
     -12.383
      -9.190
      -5.419
      -1.335
       2.919
       7.236
      11.424
      15.152
      18.050
      19.890
      20.664
      20.481
      19.381
      17.296
      14.218
      10.380
       6.280
       2.479
      -0.636
      -2.988
      -4.768
      -6.276
      -7.736
      -9.195
     -10.511
     -11.410
     -11.591
     -10.911
      -9.549
      -8.020
      -6.953
      -6.721
      -7.172
      -7.700
      -7.631
      -6.636
      -4.887
      -2.901
      -1.219
      -0.122
       0.470
       0.903
       1.561
       2.650
       4.067
       5.424
       6.247
       6.324
       5.933
       5.672
       5.938
       6.545
       6.885
       6.494
       5.486
       4.406
       3.643
       3.055
       2.235
       1.049
      -0.194
      -1.052
      -1.323
      -1.138
      -0.765
      -0.387
      -0.041
       0.279
       0.486
       0.409
      -0.045
      -0.736
      -1.349
      -1.608
      -1.448
      -1.023
      -0.591
      -0.358
      -0.417
      -0.787
      -1.490
      -2.554
      -3.888
      -5.165
      -5.911
      -5.798
      -4.954
      -3.960
      -3.463
      -3.652
      -4.074
      -3.987
      -2.972
      -1.242
       0.569
       1.906
       2.634
       2.968
       3.140
       3.134
       2.771
       2.007
       1.120
       0.560
       0.594
       1.058
       1.507
       1.663
       1.731
       2.221
       3.438
       5.094
       6.407
       6.624
       5.536
       3.558
       1.391
      -0.395
      -1.561
      -2.166
      -2.439
      -2.643
      -2.902
      -3.088
      -2.902
      -2.137
      -0.863
       0.619
       1.949
       2.870
       3.311
       3.380
       3.242
       2.982
       2.560
       1.881
       0.889
      -0.369
      -1.737
      -3.028
      -4.134
      -5.061
      -5.860
      -6.492
      -6.750
      -6.363
      -5.228
      -3.549
      -1.771
      -0.351
       0.498
       0.907
       1.204
       1.624
       2.123
       2.458
       2.449
       2.164
       1.848
       1.684
       1.633
       1.512
       1.242
       0.959
       0.857
       0.909
       0.817
       0.248
      -0.867
      -2.226
      -3.348
      -3.872
      -3.728
      -3.033
      -1.870
      -0.221
       1.847
       3.983
       5.629
       6.368
       6.201
       5.497
       4.693
       4.015
       3.437
       2.845
       2.178
       1.437
       0.619
      -0.251
      -1.059
      -1.644
      -1.928
      -1.948
      -1.765
      -1.401
      -0.897
      -0.346
       0.152
       0.559
       0.907
       1.235
       1.447
       1.239
       0.288
      -1.430
      -3.513
      -5.320
      -6.297
      -6.202
      -5.145
      -3.503
      -1.784
      -0.491
       0.073
      -0.018
      -0.356
      -0.488
      -0.237
       0.177
       0.297
      -0.276
      -1.606
      -3.359
      -4.923
      -5.656
      -5.164
      -3.529
      -1.306
       0.768
       2.220
       3.078
       3.727
       4.511
       5.424
       6.138
       6.295
       5.793
       4.866
       3.941
       3.361
       3.138
       2.931
       2.315
       1.139
      -0.355
      -1.731
      -2.663
      -3.095
      -3.169
      -3.052
      -2.861
      -2.710
      -2.768
      -3.140
      -3.677
      -3.960
      -3.601
      -2.558
      -1.155
       0.155
       1.037
       1.385
       1.292
       0.934
       0.482
       0.042
      -0.370
      -0.782
      -1.166
      -1.383
      -1.255
      -0.741
      -0.049
       0.492
       0.731
       0.869
       1.306
       2.285
       3.657
       4.955
       5.739
       5.886
       5.581
       5.077
       4.483
       3.717
       2.617
       1.124
      -0.595
      -2.198
      -3.331
      -3.782
      -3.568
      -2.932
      -2.236
      -1.747
      -1.471
      -1.180
      -0.661
       0.042
       0.627
       0.779
       0.404
      -0.334
      -1.178
      -1.931
      -2.502
      -2.844
      -2.924
      -2.762
      -2.470
      -2.215
      -2.094
      -2.060
      -1.963
      -1.658
      -1.083
      -0.279
       0.652
       1.627
       2.596
       3.493
       4.220
       4.731
       5.090
       5.378
       5.517
       5.258
       4.401
       3.033
       1.519
       0.244
      -0.643
      -1.260
      -1.797
      -2.314
      -2.708
      -2.827
      -2.632
      -2.267
      -1.966
      -1.892
      -2.043
      -2.319
      -2.642
      -2.992
      -3.348
      -3.639
      -3.770
      -3.691
      -3.398
      -2.900
      -2.213
      -1.405
      -0.595
       0.101
       0.606
       0.894
       0.996
       1.015
       1.135
       1.535
       2.194
       2.763
       2.782
       2.113
       1.150
       0.560
       0.798
       1.780
       2.955
       3.681
       3.579
       2.694
       1.419
       0.243
      -0.551
      -1.043
      -1.553
      -2.314
      -3.187
      -3.700
      -3.433
      -2.396
      -1.064
      -0.050
       0.272
      -0.050
      -0.645
      -1.068
      -1.036
      -0.528
       0.259
       1.019
       1.452
       1.384
       0.889
       0.297
       0.014
       0.237
       0.854
       1.613
       2.334
       2.952
       3.424
       3.637
       3.423
       2.729
       1.818
       1.207
       1.279
       1.887
       2.367
       1.998
       0.579
      -1.371
      -2.941
      -3.448
      -2.902
      -1.958
      -1.427
      -1.696
      -2.506
      -3.210
      -3.273
      -2.644
      -1.764
      -1.251
      -1.483
      -2.332
      -3.216
      -3.445
      -2.638
      -0.946
       1.058
       2.749
       3.813
       4.377
       4.792
       5.295
       5.808
       6.006
       5.565
       4.400
       2.737
       0.985
      -0.495
      -1.561
      -2.297
      -2.842
      -3.171
      -3.043
      -2.223
