Origin Time       30/8/2009 19:27:44	 UTC
Lat.              25.4 N	
Long.             94.8 E	
Depth (Km)         85.0
Magnitude         5.3
 Region           MYANMAR-India-Manipuir-Border                                    
 Above details taken from IMD 
    
Station Code      GUA
Station Lat.       26.190  N
Station Long.      91.746  E
Station Height(m)   55.2
Site Class        C   Vs30 between 200 m/sec to 375 m/sec *  
Record Time       30.08.2009 19:28:54.379 UTC
Sampling Rate     200. Hz
 Record Duration   68.450 Sec.
 Direction         N-S (N positive)
Max. Acceleration     -9.347 cm/sec**2
     
  * For reference see Site Classification link of website 
     
 Base Line Corrected and Low Pass Filtered (Cut Off at 35 Hz) Time History
 Acceleration data in cm/sec**2
    
[...]
       0.081
       0.019
      -0.063
      -0.137
      -0.172
      -0.156
      -0.104
      -0.051
      -0.028
      -0.042
      -0.069
      -0.077
      -0.050
       0.000
       0.039
       0.039
      -0.003
      -0.067
      -0.131
      -0.179
      -0.204
      -0.205
      -0.177
      -0.117
      -0.030
       0.064
       0.129
       0.135
       0.074
      -0.026
      -0.115
      -0.146
      -0.097
       0.019
       0.157
       0.270
       0.332
       0.350
       0.343
       0.318
       0.265
       0.174
       0.054
      -0.060
      -0.131
      -0.137
      -0.088
      -0.016
       0.050
       0.091
       0.099
       0.078
       0.033
      -0.031
      -0.109
      -0.196
      -0.271
      -0.304
      -0.273
      -0.184
      -0.066
       0.041
       0.112
       0.134
       0.111
       0.055
      -0.013
      -0.061
      -0.060
      -0.010
       0.055
       0.083
       0.046
      -0.037
      -0.117
      -0.146
      -0.106
      -0.020
       0.068
       0.118
       0.116
       0.074
       0.015
      -0.047
      -0.114
      -0.195
      -0.286
      -0.363
      -0.393
      -0.350
      -0.239
      -0.093
       0.047
       0.154
       0.210
       0.212
       0.164
       0.084
       0.001
      -0.053
      -0.056
      -0.009
       0.057
       0.103
       0.108
       0.076
       0.032
      -0.009
      -0.049
      -0.098
      -0.167
      -0.250
      -0.322
      -0.356
      -0.336
      -0.270
      -0.183
      -0.098
      -0.028
       0.027
       0.073
       0.120
       0.172
       0.224
       0.266
       0.292
       0.299
       0.292
       0.278
       0.259
       0.236
       0.204
       0.166
       0.132
       0.118
       0.131
       0.168
       0.205
       0.216
       0.181
       0.109
       0.028
      -0.033
      -0.057
      -0.056
      -0.049
      -0.052
      -0.062
      -0.069
      -0.069
      -0.076
      -0.107
      -0.159
      -0.206
      -0.226
      -0.221
      -0.217
      -0.238
      -0.287
      -0.337
      -0.354
      -0.312
      -0.214
      -0.082
       0.055
       0.171
       0.252
       0.293
       0.298
       0.278
       0.237
       0.182
       0.119
       0.059
       0.015
      -0.013
      -0.027
      -0.032
      -0.030
      -0.020
      -0.002
       0.020
       0.040
       0.050
       0.053
       0.054
       0.060
       0.070
       0.080
       0.084
       0.077
       0.065
       0.060
       0.078
       0.120
       0.175
       0.220
       0.233
       0.204
       0.136
       0.048
      -0.031
      -0.081
      -0.103
      -0.109
      -0.115
      -0.135
      -0.170
      -0.214
      -0.257
      -0.289
      -0.305
      -0.304
      -0.291
      -0.275
      -0.269
      -0.274
      -0.280
      -0.269
      -0.235
      -0.189
      -0.150
      -0.129
      -0.115
      -0.082
      -0.008
       0.103
       0.224
       0.315
       0.352
       0.332
       0.271
       0.194
       0.129
       0.091
       0.081
       0.084
       0.080
       0.055
       0.011
      -0.034
      -0.061
      -0.064
      -0.053
      -0.046
      -0.052
      -0.065
      -0.064
      -0.029
       0.043
       0.133
       0.208
       0.240
       0.219
       0.153
       0.062
      -0.024
      -0.073
      -0.068
      -0.018
       0.043
       0.079
       0.074
       0.040
       0.006
      -0.006
       0.003
       0.024
       0.051
       0.091
       0.147
       0.200
       0.220
       0.181
       0.088
      -0.030
      -0.134
      -0.201
      -0.232
      -0.244
      -0.243
      -0.225
      -0.183
      -0.124
      -0.070
      -0.043
      -0.052
      -0.090
      -0.135
      -0.159
      -0.146
      -0.094
      -0.016
       0.065
       0.124
       0.150
       0.148
       0.136
       0.125
       0.107
       0.069
       0.009
      -0.053
      -0.088
      -0.079
      -0.038
       0.005
       0.021
       0.008
      -0.012
      -0.015
       0.001
       0.018
       0.014
      -0.019
      -0.070
      -0.114
      -0.129
      -0.107
      -0.066
      -0.038
      -0.048
      -0.093
      -0.148
      -0.173
      -0.142
      -0.064
       0.026
       0.090
       0.114
       0.110
       0.102
       0.108
       0.127
       0.147
       0.153
       0.144
       0.129
       0.112
       0.085
       0.032
      -0.045
      -0.127
      -0.182
      -0.187
      -0.142
      -0.070
      -0.005
       0.032
       0.041
       0.037
       0.033
       0.034
       0.040
       0.049
       0.060
       0.070
       0.070
       0.052
       0.023
       0.009
       0.035
       0.101
       0.174
       0.209
       0.178
       0.088
      -0.031
      -0.139
      -0.209
      -0.227
      -0.199
      -0.132
      -0.036
       0.075
       0.182
       0.257
       0.281
       0.250
       0.171
       0.066
      -0.043
      -0.135
      -0.194
      -0.218
      -0.212
      -0.194
      -0.182
      -0.174
      -0.155
      -0.109
      -0.045
       0.011
       0.032
       0.015
      -0.020
      -0.039
      -0.020
       0.035
       0.100
       0.138
       0.126
       0.071
       0.007
      -0.026
      -0.006
       0.053
       0.111
       0.129
       0.097
       0.034
      -0.030
      -0.077
      -0.104
      -0.119
      -0.124
      -0.110
      -0.068
      -0.008
       0.040
       0.045
      -0.004
      -0.088
      -0.170
      -0.217
      -0.216
      -0.168
      -0.090
      -0.001
       0.085
       0.154
       0.191
       0.184
       0.134
       0.061
      -0.004
      -0.034
      -0.025
       0.004
       0.022
       0.014
      -0.005
      -0.013
      -0.004
       0.005
      -0.011
      -0.055
      -0.110
      -0.152
      -0.164
      -0.142
      -0.085
       0.004
       0.118
       0.234
       0.316
       0.335
       0.287
       0.196
       0.098
       0.014
      -0.063
      -0.150
      -0.256
      -0.356
      -0.407
      -0.377
      -0.273
      -0.131
       0.001
       0.089
       0.113
       0.068
      -0.041
      -0.188
      -0.335
      -0.436
      -0.460
      -0.397
      -0.266
      -0.104
       0.051
       0.166
       0.229
       0.242
       0.223
       0.184
       0.132
       0.073
       0.020
      -0.009
      -0.003
       0.036
       0.098
       0.169
       0.234
       0.278
       0.286
       0.251
       0.181
       0.103
       0.052
       0.043
       0.064
       0.084
       0.081
       0.059
       0.044
       0.063
       0.127
       0.218
       0.298
       0.324
       0.281
       0.180
       0.053
      -0.061
      -0.138
      -0.172
      -0.173
      -0.154
      -0.120
      -0.072
      -0.013
       0.046
       0.095
       0.121
       0.118
       0.090
       0.046
      -0.002
      -0.049
      -0.086
      -0.100
      -0.080
      -0.037
       0.001
      -0.001
      -0.062
      -0.171
      -0.289
      -0.375
      -0.402
      -0.377
      -0.328
      -0.277
      -0.233
      -0.189
      -0.139
      -0.081
      -0.025
       0.016
       0.039
       0.054
       0.077
       0.116
       0.169
       0.228
       0.285
       0.334
       0.372
       0.397
       0.400
       0.374
       0.319
       0.249
       0.182
       0.133
       0.104
       0.089
       0.081
       0.072
       0.051
       0.012
      -0.043
      -0.099
      -0.136
      -0.138
      -0.107
      -0.064
      -0.032
      -0.018
      -0.015
      -0.006
       0.021
       0.075
       0.149
       0.220
       0.257
       0.234
       0.146
       0.015
      -0.122
      -0.225
      -0.275
      -0.272
      -0.241
      -0.210
      -0.208
      -0.250
      -0.326
      -0.407
      -0.455
      -0.449
      -0.395
      -0.322
      -0.262
      -0.232
      -0.229
      -0.239
      -0.254
      -0.281
      -0.335
      -0.419
      -0.518
      -0.599
      -0.628
      -0.582
      -0.466
      -0.313
      -0.172
      -0.082
      -0.050
      -0.044
      -0.024
       0.036
       0.118
       0.180
       0.179
       0.105
      -0.019
      -0.151
      -0.248
      -0.284
      -0.256
      -0.175
      -0.058
       0.083
       0.240
       0.404
       0.560
       0.685
       0.751
       0.733
       0.624
       0.451
       0.266
       0.130
       0.083
       0.127
       0.222
       0.306
       0.333
       0.303
       0.250
       0.210
       0.192
       0.190
       0.200
       0.242
       0.333
       0.464
       0.587
       0.643
       0.603
       0.487
       0.340
       0.188
       0.024
      -0.172
      -0.395
      -0.612
      -0.776
      -0.858
      -0.853
      -0.767
      -0.608
      -0.377
      -0.085
       0.239
       0.555
       0.825
       1.023
       1.130
       1.138
       1.042
       0.840
       0.536
       0.160
      -0.229
      -0.549
      -0.745
      -0.814
      -0.801
      -0.750
      -0.674
      -0.552
      -0.366
      -0.133
       0.097
       0.278
       0.393
       0.460
       0.504
       0.536
       0.558
       0.567
       0.568
       0.563
       0.544
       0.495
       0.406
       0.290
       0.193
       0.166
       0.234
       0.387
       0.592
       0.812
       1.015
       1.173
       1.256
       1.238
       1.100
       0.841
       0.483
       0.074
      -0.326
      -0.662
      -0.903
      -1.057
      -1.158
      -1.248
      -1.356
      -1.487
      -1.638
      -1.795
      -1.938
      -2.044
      -2.096
      -2.092
      -2.042
      -1.955
      -1.834
      -1.682
      -1.502
      -1.294
      -1.052
      -0.765
      -0.431
      -0.075
       0.259
       0.535
       0.753
       0.953
       1.187
       1.486
       1.840
       2.197
       2.487
       2.657
       2.699
       2.642
       2.524
       2.358
       2.128
       1.817
       1.442
       1.067
       0.778
       0.631
       0.627
       0.716
       0.837
       0.948
       1.025
       1.059
       1.037
       0.947
       0.780
       0.536
       0.212
      -0.194
      -0.669
      -1.177
      -1.656
      -2.053
      -2.350
      -2.564
      -2.722
      -2.829
      -2.860
      -2.790
      -2.620
      -2.394
      -2.177
      -2.011
      -1.883
      -1.738
      -1.523
      -1.228
      -0.890
      -0.571
      -0.323
      -0.171
      -0.118
      -0.163
      -0.314
      -0.580
      -0.963
      -1.435
      -1.941
      -2.407
      -2.753
      -2.915
      -2.851
      -2.545
      -2.002
      -1.250
      -0.352
       0.592
       1.452
       2.100
       2.445
       2.476
       2.274
       1.980
       1.736
       1.628
       1.672
       1.834
       2.065
       2.326
       2.590
       2.847
       3.091
       3.315
       3.494
       3.591
       3.576
       3.452
       3.265
       3.081
       2.935
       2.812
       2.657
       2.423
       2.102
       1.742
       1.416
       1.170
       0.985
       0.774
       0.434
      -0.096
      -0.794
      -1.564
      -2.278
      -2.835
      -3.200
      -3.399
      -3.483
      -3.487
      -3.415
      -3.251
      -2.989
      -2.656
      -2.317
      -2.059
      -1.950
      -2.008
      -2.186
      -2.389
      -2.503
      -2.439
      -2.172
      -1.741
      -1.224
      -0.687
      -0.164
       0.347
       0.849
       1.325
       1.725
       1.997
       2.112
       2.075
       1.899
       1.595
       1.182
       0.705
       0.236
      -0.162
      -0.469
      -0.707
      -0.912
      -1.091
      -1.198
      -1.159
      -0.928
      -0.533
      -0.077
       0.306
       0.524
       0.581
       0.576
       0.640
       0.843
       1.162
       1.504
       1.774
       1.916
       1.916
       1.785
       1.542
       1.223
       0.891
       0.625
       0.491
       0.510
       0.658
       0.885
       1.149
       1.425
       1.695
       1.941
       2.129
       2.219
       2.166
       1.939
       1.534
       0.974
       0.309
      -0.402
      -1.104
      -1.757
      -2.335
      -2.812
      -3.158
      -3.348
      -3.367
      -3.217
      -2.916
      -2.500
      -2.020
      -1.530
      -1.076
      -0.701
      -0.436
      -0.294
      -0.267
      -0.332
      -0.471
      -0.680
      -0.968
      -1.324
      -1.700
      -2.013
      -2.177
      -2.152
      -1.949
      -1.616
      -1.206
      -0.766
      -0.335
       0.053
       0.384
       0.679
       0.992
       1.387
       1.900
       2.509
       3.142
       3.712
       4.147
       4.401
       4.447
       4.272
       3.887
       3.335
       2.676
       1.968
       1.246
       0.521
      -0.192
      -0.863
      -1.441
      -1.883
      -2.170
      -2.303
      -2.310
      -2.250
      -2.203
      -2.245
      -2.409
      -2.655
      -2.883
      -2.978
      -2.869
      -2.558
      -2.121
      -1.654
      -1.220
      -0.820
      -0.400
       0.106
       0.739
       1.496
       2.341
       3.233
       4.122
       4.942
       5.605
       6.030
       6.179
       6.075
       5.795
       5.418
       4.978
       4.446
       3.761
       2.875
       1.785
       0.518
      -0.884
      -2.374
      -3.887
      -5.341
      -6.643
      -7.715
      -8.510
      -9.026
      -9.292
      -9.347
      -9.215
      -8.886
      -8.312
      -7.418
      -6.153
      -4.539
      -2.683
      -0.746
       1.123
       2.829
       4.338
       5.647
       6.742
       7.570
       8.054
       8.129
       7.790
       7.099
       6.168
       5.105
       3.979
       2.810
       1.600
       0.381
      -0.750
      -1.632
      -2.085
      -1.995
      -1.395
      -0.492
       0.415
       1.077
       1.418
       1.538
       1.610
       1.751
       1.954
       2.123
       2.152
       1.994
       1.671
       1.242
       0.755
       0.236
      -0.304
      -0.832
      -1.268
      -1.492
      -1.403
      -0.990
      -0.371
       0.243
       0.634
       0.654
       0.261
      -0.475
      -1.405
      -2.346
      -3.130
      -3.642
      -3.842
      -3.780
      -3.578
      -3.386
      -3.328
      -3.461
      -3.763
      -4.149
      -4.492
      -4.657
      -4.523
      -4.025
      -3.178
      -2.075
      -0.838
       0.432
       1.681
       2.860
       3.878
       4.596
       4.884
       4.701
       4.134
       3.360
       2.547
       1.753
       0.929
       0.008
      -0.994
      -1.951
      -2.708
      -3.166
      -3.333
      -3.291
      -3.122
      -2.865
      -2.512
      -2.048
      -1.485
      -0.868
      -0.254
       0.317
       0.830
       1.297
       1.747
       2.205
       2.669
       3.109
       3.482
       3.758
       3.936
       4.033
       4.065
       4.029
       3.909
       3.715
       3.503
       3.366
       3.379
       3.541
       3.758
       3.867
       3.715
       3.221
       2.410
       1.391
       0.313
      -0.680
      -1.479
      -2.045
      -2.421
      -2.703
      -2.967
      -3.199
      -3.293
      -3.119
      -2.631
      -1.923
      -1.192
      -0.648
      -0.423
      -0.534
      -0.897
      -1.361
      -1.754
      -1.940
      -1.871
      -1.615
      -1.343
      -1.273
      -1.573
      -2.279
      -3.267
      -4.296
      -5.116
      -5.560
      -5.581
      -5.223
      -4.564
      -3.691
      -2.698
      -1.689
      -0.748
       0.109
       0.944
       1.848
       2.860
       3.917
       4.860
       5.510
       5.748
       5.560
       5.020
       4.240
       3.336
       2.433
       1.671
       1.161
       0.917
       0.818
       0.676
       0.353
      -0.142
      -0.657
      -1.000
      -1.055
      -0.829
      -0.413
       0.085
       0.575
       0.986
       1.262
       1.371
       1.316
       1.125
       0.845
       0.537
       0.284
       0.186
       0.322
       0.702
       1.242
       1.789
       2.191
       2.366
       2.325
       2.148
       1.925
       1.704
       1.464
       1.127
       0.618
      -0.072
      -0.864
      -1.619
      -2.202
      -2.532
      -2.605
      -2.491
      -2.311
      -2.197
      -2.251
      -2.492
      -2.836
      -3.124
      -3.209
      -3.036
      -2.680
      -2.299
      -2.067
      -2.089
      -2.361
      -2.772
      -3.159
      -3.379
      -3.366
      -3.141
      -2.794
      -2.432
      -2.136
      -1.928
      -1.766
      -1.562
      -1.221
      -0.684
       0.043
       0.882
       1.727
       2.480
       3.078
       3.488
       3.689
       3.656
       3.393
       2.957
       2.462
       2.039
       1.771
       1.657
       1.629
       1.592
       1.485
       1.301
       1.086
       0.912
       0.836
       0.884
       1.044
       1.270
       1.500
       1.673
       1.758
       1.771
       1.754
       1.739
       1.720
       1.677
       1.595
       1.488
       1.388
       1.338
       1.376
       1.524
       1.776
       2.085
       2.363
       2.505
       2.440
       2.171
       1.773
       1.352
       0.979
       0.667
       0.379
       0.075
      -0.254
      -0.601
      -0.975
      -1.417
      -1.966
      -2.600
      -3.212
      -3.663
      -3.863
      -3.816
      -3.607
      -3.335
      -3.049
      -2.740
      -2.393
      -2.031
      -1.729
      -1.569
      -1.594
      -1.789
      -2.094
      -2.440
      -2.782
      -3.108
      -3.417
      -3.696
      -3.903
      -3.979
      -3.879
      -3.601
      -3.199
      -2.775
      -2.430
      -2.215
      -2.095
      -1.959
      -1.666
      -1.113
      -0.293
       0.713
       1.776
       2.783
       3.662
       4.380
       4.927
       5.318
       5.598
       5.819
       6.011
       6.156
       6.197
       6.087
       5.832
       5.499
       5.161
       4.849
       4.529
       4.128
       3.588
       2.916
       2.198
       1.579
       1.191
       1.076
       1.154
       1.270
       1.275
       1.102
       0.782
       0.397
       0.016
      -0.341
      -0.699
      -1.105
      -1.604
      -2.210
      -2.880
      -3.514
      -3.988
      -4.219
      -4.214
      -4.062
      -3.886
      -3.795
      -3.853
      -4.079
      -4.446
      -4.881
      -5.272
      -5.505
      -5.511
      -5.294
      -4.910
      -4.428
      -3.900
      -3.378
      -2.923
      -2.589
      -2.385
      -2.249
      -2.087
      -1.837
      -1.508
      -1.152
      -0.782
      -0.348
       0.217
       0.910
       1.644
       2.311
       2.858
       3.310
       3.711
       4.068
       4.346
       4.514
       4.600
       4.684
       4.852
       5.126
       5.444
       5.694
       5.774
       5.648
       5.353
       4.977
       4.602
       4.257
       3.913
       3.510
       3.011
       2.442
       1.870
       1.353
       0.897
       0.462
       0.004
      -0.480
      -0.958
      -1.395
      -1.779
      -2.103
      -2.347
      -2.474
      -2.461
      -2.332
      -2.160
      -2.047
