Origin Time       11/8/2009 21:43:39  UTC
Lat.              24.4 N 
Long.             94.8 E 
Depth (Km)         22.0
Magnitude         5.6
 Region           MYANMAR-INDIA(MANIPUR)BORDER                                     
 Above details taken from IMD 
    
Station Code      GUA
Station Lat.       26.190  N
Station Long.      91.746  E
Station Height(m)   67.3
Site Class        C   Vs30 between 200 m/sec to 375 m/sec *  
Record Time       11.08.2009 21:44:54.729 UTC
Sampling Rate     200. Hz
 Record Duration   73.040 Sec.
 Direction         N-S (N positive)
Max. Acceleration     11.189 cm/sec**2
     
  * For reference see Site Classification link of website 
     
 Base Line Corrected and Low Pass Filtered (Cut Off at 35 Hz) Time History
 Acceleration data in cm/sec**2
    
[...]
      -0.563
      -1.053
      -1.484
      -1.808
      -2.016
      -2.122
      -2.138
      -2.055
      -1.863
      -1.568
      -1.201
      -0.801
      -0.400
      -0.021
       0.319
       0.602
       0.819
       0.966
       1.050
       1.090
       1.108
       1.129
       1.173
       1.265
       1.443
       1.738
       2.138
       2.567
       2.910
       3.067
       2.996
       2.724
       2.331
       1.906
       1.515
       1.178
       0.866
       0.506
       0.022
      -0.611
      -1.333
      -2.011
      -2.501
      -2.719
      -2.666
      -2.411
      -2.038
      -1.599
      -1.090
      -0.482
       0.223
       0.939
       1.505
       1.752
       1.605
       1.139
       0.555
       0.082
      -0.135
      -0.085
       0.140
       0.424
       0.684
       0.884
       1.008
       1.027
       0.886
       0.522
      -0.092
      -0.916
      -1.828
      -2.650
      -3.213
      -3.424
      -3.312
      -3.001
      -2.628
      -2.267
      -1.905
      -1.500
      -1.043
      -0.582
      -0.188
       0.094
       0.272
       0.396
       0.513
       0.641
       0.760
       0.825
       0.790
       0.628
       0.339
      -0.040
      -0.446
      -0.797
      -1.013
      -1.036
      -0.852
      -0.498
      -0.057
       0.379
       0.738
       0.975
       1.076
       1.054
       0.944
       0.803
       0.702
       0.709
       0.882
       1.241
       1.751
       2.312
       2.792
       3.074
       3.100
       2.869
       2.408
       1.745
       0.921
       0.010
      -0.870
      -1.585
      -2.040
      -2.219
      -2.183
      -2.042
      -1.899
      -1.811
      -1.777
      -1.766
      -1.743
      -1.674
      -1.521
      -1.245
      -0.850
      -0.404
      -0.021
       0.204
       0.256
       0.211
       0.187
       0.276
       0.496
       0.791
       1.071
       1.253
       1.295
       1.217
       1.095
       1.029
       1.083
       1.240
       1.410
       1.468
       1.315
       0.917
       0.316
      -0.378
      -1.032
      -1.526
      -1.790
      -1.810
      -1.623
      -1.309
      -0.968
      -0.701
      -0.589
      -0.669
      -0.922
      -1.265
      -1.571
      -1.715
      -1.632
      -1.357
      -1.007
      -0.724
      -0.593
      -0.611
      -0.707
      -0.795
      -0.816
      -0.735
      -0.519
      -0.136
       0.417
       1.092
       1.783
       2.356
       2.695
       2.761
       2.602
       2.312
       1.971
       1.607
       1.214
       0.801
       0.405
       0.069
      -0.206
      -0.471
      -0.775
      -1.101
      -1.356
      -1.420
      -1.224
      -0.784
      -0.185
       0.461
       1.046
       1.493
       1.773
       1.912
       1.982
       2.057
       2.169
       2.279
       2.295
       2.128
       1.739
       1.153
       0.444
      -0.299
      -0.982
      -1.522
      -1.853
      -1.947
      -1.826
      -1.571
      -1.286
      -1.046
      -0.851
      -0.633
      -0.314
       0.122
       0.607
       1.010
       1.210
       1.154
       0.878
       0.468
       0.002
      -0.490
      -1.030
      -1.658
      -2.386
      -3.164
      -3.887
      -4.437
      -4.731
      -4.741
      -4.482
      -3.996
      -3.360
      -2.692
      -2.130
      -1.786
      -1.694
      -1.804
      -2.003
      -2.171
      -2.211
      -2.068
      -1.717
      -1.155
      -0.402
       0.473
       1.368
       2.176
       2.826
       3.295
       3.603
       3.797
       3.948
       4.140
       4.443
       4.881
       5.415
       5.967
       6.451
       6.784
       6.868
       6.590
       5.872
       4.756
       3.440
       2.212
       1.310
       0.790
       0.515
       0.264
      -0.116
      -0.621
      -1.124
      -1.497
      -1.716
      -1.863
      -2.048
      -2.306
      -2.573
      -2.725
      -2.662
      -2.365
      -1.904
      -1.406
      -0.995
      -0.749
      -0.668
      -0.689
      -0.731
      -0.741
      -0.731
      -0.768
      -0.934
      -1.270
      -1.731
      -2.183
      -2.460
      -2.460
      -2.212
      -1.856
      -1.557
      -1.409
      -1.408
      -1.498
      -1.624
      -1.774
      -1.957
      -2.176
      -2.401
      -2.577
      -2.656
      -2.613
      -2.461
      -2.243
      -2.009
      -1.789
      -1.574
      -1.320
      -0.976
      -0.505
       0.099
       0.823
       1.647
       2.551
       3.517
       4.524
       5.518
       6.411
       7.087
       7.450
       7.454
       7.123
       6.548
       5.865
       5.206
       4.656
       4.222
       3.841
       3.398
       2.760
       1.822
       0.566
      -0.910
      -2.409
      -3.712
      -4.664
      -5.233
      -5.494
      -5.566
      -5.546
      -5.489
      -5.416
      -5.338
      -5.245
      -5.096
      -4.822
      -4.363
      -3.717
      -2.944
      -2.139
      -1.377
      -0.683
      -0.054
       0.509
       0.986
       1.348
       1.584
       1.699
       1.712
       1.644
       1.517
       1.330
       1.049
       0.635
       0.095
      -0.486
      -0.978
      -1.280
      -1.370
      -1.296
      -1.119
      -0.866
      -0.541
      -0.163
       0.213
       0.529
       0.768
       0.961
       1.133
       1.256
       1.258
       1.094
       0.806
       0.529
       0.426
       0.608
       1.101
       1.853
       2.765
       3.726
       4.630
       5.382
       5.904
       6.140
       6.059
       5.653
       4.936
       3.960
       2.810
       1.600
       0.443
      -0.590
      -1.497
      -2.338
      -3.189
      -4.094
      -5.031
      -5.922
      -6.661
      -7.175
      -7.469
      -7.629
      -7.755
      -7.872
      -7.869
      -7.523
      -6.589
      -4.939
      -2.669
      -0.109
       2.281
       4.100
       5.179
       5.630
       5.762
       5.887
       6.149
       6.473
       6.656
       6.527
       6.048
       5.321
       4.505
       3.743
       3.106
       2.589
       2.114
       1.553
       0.777
      -0.293
      -1.630
      -3.094
      -4.469
      -5.520
      -6.063
      -6.019
      -5.443
      -4.523
      -3.510
      -2.619
      -1.934
      -1.395
      -0.874
      -0.281
       0.378
       1.014
       1.540
       1.947
       2.307
       2.696
       3.127
       3.539
       3.850
       4.000
       3.932
       3.557
       2.778
       1.565
       0.029
      -1.586
      -3.000
      -4.016
      -4.589
      -4.799
      -4.781
      -4.647
      -4.465
      -4.265
      -4.084
      -3.979
      -4.009
      -4.161
      -4.295
      -4.169
      -3.537
      -2.292
      -0.543
       1.413
       3.222
       4.608
       5.451
       5.747
       5.535
       4.861
       3.808
       2.545
       1.322
       0.389
      -0.116
      -0.223
      -0.106
       0.006
      -0.064
      -0.395
      -0.965
      -1.699
      -2.492
      -3.214
      -3.706
      -3.782
      -3.270
      -2.071
      -0.231
       2.015
       4.260
       6.033
       6.949
       6.858
       5.899
       4.445
       2.945
       1.745
       1.001
       0.712
       0.810
       1.218
       1.845
       2.549
       3.140
       3.420
       3.256
       2.634
       1.669
       0.573
      -0.413
      -1.075
      -1.286
      -1.031
      -0.419
       0.343
       0.997
       1.299
       1.093
       0.349
      -0.833
      -2.256
      -3.684
      -4.894
      -5.723
      -6.103
      -6.055
      -5.663
      -5.029
      -4.259
      -3.450
      -2.675
      -1.956
      -1.271
      -0.594
       0.059
       0.611
       0.963
       1.058
       0.933
       0.701
       0.490
       0.354
       0.235
      -0.020
      -0.581
      -1.537
      -2.828
      -4.251
      -5.536
      -6.445
      -6.817
      -6.556
      -5.604
      -3.969
      -1.773
       0.718
       3.149
       5.196
       6.689
       7.654
       8.247
       8.624
       8.859
       8.957
       8.925
       8.807
       8.649
       8.444
       8.132
       7.657
       7.020
       6.259
       5.386
       4.357
       3.131
       1.758
       0.415
      -0.677
      -1.388
      -1.766
      -2.001
      -2.316
      -2.841
      -3.568
      -4.385
      -5.169
      -5.857
      -6.485
      -7.145
      -7.918
      -8.795
      -9.638
     -10.207
     -10.260
      -9.660
      -8.441
      -6.778
      -4.904
      -3.044
      -1.369
      -0.002
       0.986
       1.575
       1.803
       1.757
       1.555
       1.318
       1.169
       1.222
       1.552
       2.147
       2.878
       3.527
       3.860
       3.717
       3.071
       2.025
       0.773
      -0.458
      -1.454
      -2.057
      -2.203
      -1.973
      -1.587
      -1.334
      -1.448
      -1.991
      -2.820
      -3.657
      -4.213
      -4.306
      -3.890
      -3.007
      -1.721
      -0.113
       1.686
       3.496
       5.146
       6.552
       7.733
       8.757
       9.662
      10.415
      10.919
      11.063
      10.773
      10.038
       8.909
       7.488
       5.895
       4.228
       2.537
       0.844
      -0.797
      -2.274
      -3.444
      -4.209
      -4.570
      -4.613
      -4.451
      -4.185
      -3.916
      -3.777
      -3.901
      -4.352
      -5.058
      -5.829
      -6.441
      -6.731
      -6.644
      -6.218
      -5.535
      -4.659
      -3.598
      -2.329
      -0.878
       0.605
       1.860
       2.645
       2.896
       2.802
       2.701
       2.861
       3.276
       3.651
       3.581
       2.801
       1.316
      -0.643
      -2.769
      -4.794
      -6.514
      -7.771
      -8.447
      -8.492
      -7.936
      -6.859
      -5.357
      -3.548
      -1.623
       0.128
       1.378
       1.913
       1.759
       1.193
       0.620
       0.389
       0.661
       1.400
       2.468
       3.758
       5.233
       6.861
       8.486
       9.775
      10.320
       9.850
       8.398
       6.321
       4.153
       2.382
       1.279
       0.847
       0.899
       1.191
       1.549
       1.907
       2.254
       2.552
       2.696
       2.562
       2.087
       1.304
       0.327
      -0.697
      -1.619
      -2.304
      -2.651
      -2.640
      -2.363
      -2.027
      -1.852
      -1.943
      -2.219
      -2.483
      -2.592
      -2.596
      -2.722
      -3.211
      -4.104
      -5.166
      -5.982
      -6.190
      -5.684
      -4.661
      -3.518
      -2.666
      -2.369
      -2.677
      -3.446
      -4.430
      -5.370
      -6.054
      -6.337
      -6.138
      -5.456
      -4.386
      -3.109
      -1.848
      -0.804
      -0.089
       0.329
       0.645
       1.149
       2.073
       3.424
       4.929
       6.137
       6.664
       6.413
       5.643
       4.818
       4.339
       4.343
       4.685
       5.089
       5.332
       5.335
       5.131
       4.798
       4.399
       3.993
       3.670
       3.559
       3.779
       4.362
       5.201
       6.062
       6.672
       6.824
       6.444
       5.596
       4.429
       3.119
       1.824
       0.662
      -0.301
      -1.060
      -1.650
      -2.125
      -2.528
      -2.894
      -3.284
      -3.802
      -4.561
      -5.576
      -6.691
      -7.621
      -8.132
      -8.206
      -8.061
      -7.983
      -8.122
      -8.422
      -8.713
      -8.860
      -8.798
      -8.477
      -7.796
      -6.655
      -5.077
      -3.270
      -1.550
      -0.178
       0.777
       1.435
       2.012
       2.699
       3.575
       4.593
       5.630
       6.553
       7.272
       7.750
       7.992
       8.029
       7.895
       7.613
       7.199
       6.670
       6.050
       5.351
       4.561
       3.675
       2.746
       1.888
       1.232
       0.862
       0.798
       1.006
       1.406
       1.863
       2.182
       2.155
       1.654
       0.699
      -0.552
      -1.896
      -3.189
      -4.368
      -5.402
      -6.212
      -6.670
      -6.672
      -6.222
      -5.468
      -4.645
      -3.981
      -3.637
      -3.691
      -4.145
      -4.921
      -5.842
      -6.636
      -7.009
      -6.758
      -5.880
      -4.599
      -3.275
      -2.242
      -1.665
      -1.493
      -1.534
      -1.579
      -1.500
      -1.271
      -0.926
      -0.496
       0.038
       0.738
       1.672
       2.867
       4.282
       5.800
       7.245
       8.403
       9.084
       9.187
       8.753
       7.977
       7.138
       6.498
       6.208
       6.277
       6.603
       7.040
       7.451
       7.705
       7.685
       7.307
       6.551
       5.478
       4.218
       2.936
       1.779
       0.819
       0.013
      -0.791
      -1.774
      -3.021
      -4.441
      -5.787
      -6.797
      -7.365
      -7.601
      -7.759
      -8.084
      -8.666
      -9.382
      -9.927
      -9.929
      -9.136
      -7.582
      -5.608
      -3.719
      -2.322
      -1.544
      -1.241
      -1.175
      -1.201
      -1.319
      -1.586
      -2.008
      -2.520
      -3.027
      -3.462
      -3.791
      -3.998
      -4.059
      -3.939
      -3.591
      -2.986
      -2.144
      -1.163
      -0.195
       0.614
       1.190
       1.570
       1.897
       2.368
       3.171
       4.410
       6.053
       7.900
       9.612
      10.803
      11.189
      10.713
       9.579
       8.182
       6.952
       6.199
       6.005
       6.220
       6.559
       6.730
       6.548
       5.973
       5.065
       3.911
       2.562
       1.039
      -0.618
      -2.303
      -3.830
      -4.985
      -5.602
      -5.663
      -5.328
      -4.878
      -4.579
      -4.551
      -4.714
      -4.858
      -4.777
      -4.382
      -3.736
      -2.984
      -2.251
      -1.579
      -0.955
      -0.390
       0.023
       0.158
      -0.044
      -0.491
      -0.961
      -1.233
      -1.227
      -1.050
      -0.909
      -0.956
      -1.197
      -1.515
      -1.764
      -1.851
      -1.746
      -1.469
      -1.062
      -0.582
      -0.094
       0.331
       0.613
       0.684
       0.522
       0.188
      -0.178
      -0.431
      -0.513
      -0.495
      -0.502
      -0.610
      -0.790
      -0.955
      -1.025
      -0.970
      -0.795
      -0.506
      -0.075
       0.582
       1.577
       2.965
       4.621
       6.200
       7.256
       7.472
       6.836
       5.618
       4.192
       2.839
       1.702
       0.847
       0.326
       0.148
       0.219
       0.341
       0.292
      -0.080
      -0.832
      -1.933
      -3.271
      -4.631
      -5.698
      -6.145
      -5.787
      -4.702
      -3.239
      -1.869
      -0.958
      -0.618
      -0.706
      -0.965
      -1.196
      -1.353
      -1.510
      -1.781
      -2.239
      -2.862
      -3.503
      -3.894
      -3.725
      -2.814
      -1.265
       0.531
       2.094
       3.099
       3.499
       3.445
       3.121
       2.647
       2.084
       1.490
       0.947
       0.540
       0.337
       0.376
       0.655
       1.104
       1.581
       1.914
       1.981
       1.767
       1.357
       0.874
       0.446
       0.195
       0.223
       0.568
       1.167
       1.860
       2.445
       2.752
       2.708
       2.355
       1.809
       1.194
       0.585
       0.003
      -0.553
      -1.075
      -1.535
      -1.900
      -2.163
      -2.360
      -2.561
      -2.823
      -3.136
      -3.379
      -3.345
      -2.834
      -1.794
      -0.396
       1.024
       2.127
       2.739
       2.884
       2.698
       2.302
       1.756
       1.084
       0.327
      -0.440
      -1.121
      -1.637
      -1.936
      -2.007
      -1.877
      -1.613
      -1.290
      -0.948
      -0.550
      -0.016
       0.702
       1.546
       2.359
       2.962
       3.239
       3.175
       2.844
       2.344
       1.754
       1.112
       0.418
      -0.354
      -1.230
      -2.196
      -3.147
      -3.884
      -4.178
      -3.884
      -3.009
      -1.721
      -0.280
       1.046
       2.041
       2.587
       2.681
       2.421
       1.967
       1.475
       1.037
       0.672
       0.349
       0.033
      -0.276
      -0.537
      -0.705
      -0.797
      -0.921
      -1.216
      -1.743
      -2.410
      -2.988
      -3.215
      -2.920
      -2.114
      -0.984
       0.192
       1.168
       1.827
       2.193
       2.380
       2.516
       2.681
       2.857
       2.924
       2.708
       2.075
       1.019
      -0.320
      -1.696
      -2.826
      -3.471
      -3.486
      -2.862
      -1.713
      -0.259
       1.238
       2.528
       3.434
       3.859
       3.760
       3.118
       1.971
       0.477
      -1.065
      -2.280
      -2.851
      -2.633
      -1.699
      -0.332
       1.034
       1.919
       1.951
       1.049
      -0.478
      -2.010
      -2.885
      -2.703
      -1.503
       0.278
       2.026
       3.206
       3.527
       2.987
       1.812
       0.357
      -1.021
      -2.074
      -2.739
      -3.114
      -3.352
      -3.539
      -3.637
      -3.540
      -3.180
      -2.610
      -2.002
      -1.552
      -1.367
      -1.404
      -1.507
      -1.525
      -1.410
      -1.236
      -1.112
      -1.085
      -1.095
      -1.018
      -0.756
      -0.308
       0.243
       0.786
       1.256
       1.656
       2.019
       2.348
       2.580
       2.616
       2.412
       2.055
       1.760
       1.758
       2.154
       2.853
       3.615
       4.171
       4.334
       4.055
       3.421
       2.608
       1.819
       1.229
       0.930
       0.903
       1.022
       1.119
       1.062
       0.816
       0.432
      -0.015
      -0.474
      -0.929
      -1.344
      -1.623
      -1.627
      -1.262
      -0.573
       0.240
       0.908
       1.236
       1.170
       0.767
       0.095
      -0.825
      -1.963
      -3.161
      -4.092
      -4.380
      -3.821
      -2.561
      -1.058
       0.121
       0.566
       0.181
      -0.813
      -1.999
      -2.936
      -3.325
      -3.094
      -2.402
      -1.526
      -0.714
      -0.069
       0.440
       0.872
       1.219
       1.405
       1.373
       1.167
       0.930
       0.808
       0.852
       0.989
       1.075
       1.012
       0.821
       0.611
       0.477
       0.409
       0.311
       0.100
      -0.221
      -0.583
      -0.925
      -1.247
      -1.564
      -1.842
      -1.965
      -1.793
      -1.260
      -0.444
       0.461
       1.236
       1.732
       1.904
       1.790
       1.486
       1.142
       0.941
       1.053
       1.552
       2.364
       3.287
       4.079
       4.545
       4.574
       4.145
       3.340
       2.330
       1.333
       0.516
      -0.064
      -0.466
      -0.784
      -1.082
      -1.360
      -1.586
      -1.744
      -1.862
      -1.998
      -2.208
      -2.528
      -2.951
      -3.423
      -3.846
      -4.100
      -4.109
      -3.882
      -3.510
      -3.116
      -2.772
      -2.469
      -2.142
      -1.747
      -1.310
      -0.923
      -0.686
      -0.640
      -0.751
