Origin Time       3/9/2009 19:51:08	 
Lat.              24.3 N	
Long.             94.6 E	
Depth (Km)        100.0
Magnitude         5.9
 Region           MYANMAR-India-Manipuir-Border                                    
 Above details taken from IMD 
     
Station Code      GUA
Station Lat.       26.190  N
Station Long.      91.746  E
Station Height(m)   55.2
Site Class        C   Vs30 between 200 m/sec to 375 m/sec *  
Record Time       03.09.2009 19:52:15.559
Sampling Rate     200. Hz
 Record Duration   71.065 Sec.
 Direction         E-W (E positive)
Max. Acceleration    -12.430 cm/sec**2
     
  * For reference see Site Classification link of website 
     
 Base Line Corrected and Low Pass Filtered (Cut Off at 35 Hz) Time History
 Acceleration data in cm/sec**2
    
[...]
      -0.468
      -0.350
      -0.163
       0.050
       0.235
       0.350
       0.374
       0.300
       0.133
      -0.101
      -0.355
      -0.552
      -0.613
      -0.491
      -0.214
       0.119
       0.382
       0.492
       0.458
       0.363
       0.313
       0.369
       0.507
       0.637
       0.659
       0.531
       0.287
       0.010
      -0.215
      -0.346
      -0.396
      -0.420
      -0.485
      -0.632
      -0.850
      -1.086
      -1.274
      -1.370
      -1.370
      -1.299
      -1.183
      -1.022
      -0.790
      -0.469
      -0.083
       0.300
       0.595
       0.751
       0.779
       0.741
       0.702
       0.692
       0.695
       0.677
       0.627
       0.553
       0.476
       0.403
       0.334
       0.285
       0.290
       0.375
       0.511
       0.610
       0.575
       0.376
       0.086
      -0.160
      -0.255
      -0.184
      -0.028
       0.095
       0.098
      -0.035
      -0.260
      -0.500
      -0.689
      -0.793
      -0.816
      -0.790
      -0.758
      -0.749
      -0.766
      -0.794
      -0.809
      -0.791
      -0.728
      -0.612
      -0.435
      -0.187
       0.138
       0.527
       0.947
       1.349
       1.687
       1.935
       2.080
       2.119
       2.055
       1.903
       1.707
       1.524
       1.401
       1.339
       1.287
       1.174
       0.947
       0.597
       0.155
      -0.318
      -0.754
      -1.091
      -1.291
      -1.348
      -1.286
      -1.145
      -0.973
      -0.813
      -0.705
      -0.682
      -0.764
      -0.941
      -1.161
      -1.342
      -1.401
      -1.294
      -1.034
      -0.691
      -0.349
      -0.068
       0.126
       0.228
       0.235
       0.146
      -0.016
      -0.201
      -0.346
      -0.404
      -0.364
      -0.244
      -0.068
       0.144
       0.380
       0.619
       0.828
       0.964
       0.987
       0.869
       0.613
       0.265
      -0.093
      -0.371
      -0.506
      -0.488
      -0.348
      -0.149
       0.037
       0.148
       0.152
       0.055
      -0.097
      -0.242
      -0.336
      -0.378
      -0.394
      -0.404
      -0.401
      -0.368
      -0.317
      -0.315
      -0.454
      -0.769
      -1.178
      -1.503
      -1.559
      -1.269
      -0.707
      -0.058
       0.478
       0.779
       0.848
       0.791
       0.743
       0.772
       0.851
       0.886
       0.804
       0.608
       0.374
       0.193
       0.114
       0.119
       0.148
       0.140
       0.076
      -0.023
      -0.113
      -0.153
      -0.125
      -0.030
       0.116
       0.291
       0.480
       0.674
       0.870
       1.068
       1.258
       1.420
       1.526
       1.557
       1.506
       1.382
       1.191
       0.934
       0.609
       0.219
      -0.217
      -0.662
      -1.073
      -1.406
      -1.625
      -1.700
      -1.629
      -1.442
      -1.192
      -0.929
      -0.671
      -0.412
      -0.142
       0.135
       0.397
       0.624
       0.808
       0.961
       1.103
       1.250
       1.404
       1.540
       1.610
       1.555
       1.334
       0.953
       0.472
      -0.010
      -0.382
      -0.566
      -0.549
      -0.412
      -0.302
      -0.348
      -0.589
      -0.935
      -1.228
      -1.332
      -1.203
      -0.906
      -0.568
      -0.328
      -0.273
      -0.406
      -0.644
      -0.858
      -0.948
      -0.904
      -0.807
      -0.772
      -0.861
      -1.055
      -1.268
      -1.419
      -1.480
      -1.477
      -1.435
      -1.341
      -1.142
      -0.791
      -0.283
       0.327
       0.961
       1.550
       2.056
       2.466
       2.762
       2.898
       2.811
       2.469
       1.927
       1.346
       0.928
       0.811
       0.987
       1.297
       1.518
       1.483
       1.150
       0.593
      -0.057
      -0.671
      -1.149
      -1.427
      -1.475
      -1.300
      -0.957
      -0.538
      -0.147
       0.138
       0.289
       0.322
       0.267
       0.138
      -0.078
      -0.385
      -0.748
      -1.079
      -1.269
      -1.248
      -1.016
      -0.651
      -0.270
       0.024
       0.169
       0.147
      -0.032
      -0.328
      -0.663
      -0.936
      -1.066
      -1.043
      -0.929
      -0.820
      -0.787
      -0.857
      -1.029
      -1.290
      -1.619
      -1.966
      -2.256
      -2.422
      -2.430
      -2.282
      -1.989
      -1.540
      -0.916
      -0.126
       0.761
       1.620
       2.310
       2.742
       2.901
       2.836
       2.609
       2.282
       1.931
       1.670
       1.623
       1.846
       2.274
       2.731
       3.019
       3.022
       2.746
       2.290
       1.773
       1.290
       0.888
       0.579
       0.350
       0.179
       0.040
      -0.085
      -0.223
      -0.416
      -0.721
      -1.180
      -1.785
      -2.471
      -3.148
      -3.747
      -4.244
      -4.637
      -4.903
      -4.980
      -4.797
      -4.312
      -3.541
      -2.563
      -1.498
      -0.489
       0.342
       0.953
       1.403
       1.824
       2.325
       2.919
       3.525
       4.037
       4.402
       4.630
       4.751
       4.767
       4.657
       4.403
       4.023
       3.585
       3.183
       2.911
       2.823
       2.901
       3.056
       3.157
       3.092
       2.822
       2.388
       1.873
       1.337
       0.783
       0.175
      -0.523
      -1.309
      -2.140
      -2.935
      -3.591
      -4.019
      -4.180
      -4.111
      -3.918
      -3.722
      -3.598
      -3.554
      -3.554
      -3.560
      -3.557
      -3.555
      -3.566
      -3.594
      -3.639
      -3.691
      -3.731
      -3.723
      -3.610
      -3.332
      -2.869
      -2.274
      -1.671
      -1.205
      -0.970
      -0.962
      -1.084
      -1.212
      -1.269
      -1.257
      -1.231
      -1.216
      -1.175
      -1.030
      -0.740
      -0.354
       0.021
       0.304
       0.508
       0.726
       1.047
       1.473
       1.905
       2.218
       2.358
       2.385
       2.435
       2.639
       3.058
       3.666
       4.388
       5.128
       5.789
       6.260
       6.429
       6.210
       5.589
       4.654
       3.589
       2.615
       1.911
       1.541
       1.439
       1.477
       1.555
       1.662
       1.842
       2.113
       2.401
       2.557
       2.441
       2.006
       1.328
       0.540
      -0.239
      -0.950
      -1.575
      -2.083
      -2.422
      -2.550
      -2.487
      -2.323
      -2.166
      -2.083
      -2.094
      -2.223
      -2.534
      -3.100
      -3.919
      -4.856
      -5.657
      -6.046
      -5.839
      -5.035
      -3.810
      -2.458
      -1.275
      -0.464
      -0.090
      -0.102
      -0.374
      -0.757
      -1.095
      -1.269
      -1.230
      -1.021
      -0.747
      -0.504
      -0.327
      -0.189
      -0.049
       0.115
       0.308
       0.531
       0.805
       1.150
       1.553
       1.955
       2.262
       2.398
       2.351
       2.189
       2.031
       1.991
       2.129
       2.434
       2.840
       3.246
       3.534
       3.596
       3.375
       2.910
       2.344
       1.857
       1.579
       1.524
       1.595
       1.656
       1.603
       1.397
       1.045
       0.573
      -0.002
      -0.664
      -1.377
      -2.072
      -2.679
      -3.156
      -3.521
      -3.843
      -4.199
      -4.637
      -5.158
      -5.715
      -6.238
      -6.651
      -6.897
      -6.935
      -6.749
      -6.338
      -5.726
      -4.986
      -4.237
      -3.615
      -3.203
      -2.977
      -2.809
      -2.530
      -2.019
      -1.257
      -0.327
       0.635
       1.494
       2.155
       2.592
       2.851
       3.035
       3.269
       3.642
       4.171
       4.789
       5.373
       5.787
       5.938
       5.817
       5.502
       5.112
       4.742
       4.408
       4.065
       3.666
       3.239
       2.893
       2.761
       2.903
       3.253
       3.633
       3.822
       3.662
       3.119
       2.299
       1.379
       0.526
      -0.163
      -0.665
      -0.998
      -1.195
      -1.295
      -1.350
      -1.412
      -1.508
      -1.612
      -1.652
      -1.557
      -1.312
      -0.991
      -0.738
      -0.700
      -0.929
      -1.327
      -1.664
      -1.679
      -1.217
      -0.310
       0.842
       1.981
       2.925
       3.633
       4.172
       4.619
       4.978
       5.182
       5.151
       4.868
       4.406
       3.878
       3.355
       2.816
       2.169
       1.346
       0.382
      -0.576
      -1.360
      -1.874
      -2.143
      -2.267
      -2.327
      -2.337
      -2.269
      -2.121
      -1.959
      -1.891
      -1.994
      -2.272
      -2.648
      -3.008
      -3.238
      -3.246
      -2.976
      -2.427
      -1.673
      -0.878
      -0.257
      -0.007
      -0.207
      -0.772
      -1.495
      -2.171
      -2.713
      -3.180
      -3.685
      -4.276
      -4.890
      -5.415
      -5.796
      -6.078
      -6.349
      -6.640
      -6.863
      -6.864
      -6.521
      -5.848
      -4.994
      -4.165
      -3.515
      -3.086
      -2.823
      -2.650
      -2.555
      -2.605
      -2.875
      -3.323
      -3.739
      -3.837
      -3.454
      -2.678
      -1.812
      -1.165
      -0.859
      -0.780
      -0.693
      -0.399
       0.180
       1.003
       1.960
       2.916
       3.748
       4.388
       4.854
       5.244
       5.672
       6.186
       6.749
       7.288
       7.776
       8.264
       8.828
       9.494
      10.189
      10.766
      11.058
      10.934
      10.354
       9.400
       8.283
       7.281
       6.631
       6.420
       6.541
       6.762
       6.834
       6.600
       6.020
       5.136
       4.018
       2.723
       1.297
      -0.217
      -1.765
      -3.285
      -4.717
      -5.998
      -7.066
      -7.859
      -8.326
      -8.433
      -8.174
      -7.591
      -6.790
      -5.928
      -5.153
      -4.539
      -4.068
      -3.665
      -3.252
      -2.786
      -2.264
      -1.716
      -1.201
      -0.792
      -0.536
      -0.409
      -0.321
      -0.176
       0.035
       0.204
       0.157
      -0.222
      -0.904
      -1.714
      -2.421
      -2.845
      -2.936
      -2.774
      -2.506
      -2.254
      -2.052
      -1.845
      -1.554
      -1.171
      -0.795
      -0.578
      -0.617
      -0.862
      -1.130
      -1.208
      -0.968
      -0.413
       0.354
       1.192
       1.965
       2.550
       2.846
       2.816
       2.530
       2.165
       1.929
       1.974
       2.325
       2.888
       3.496
       3.967
       4.151
       3.954
       3.366
       2.484
       1.512
       0.696
       0.234
       0.197
       0.525
       1.074
       1.674
       2.143
       2.285
       1.924
       0.975
      -0.482
      -2.205
      -3.859
      -5.148
      -5.925
      -6.231
      -6.245
      -6.166
      -6.119
      -6.119
      -6.112
      -6.038
      -5.857
      -5.549
      -5.107
      -4.573
      -4.060
      -3.722
      -3.641
      -3.728
      -3.717
      -3.299
      -2.305
      -0.811
       0.912
       2.556
       3.925
       4.976
       5.763
       6.337
       6.701
       6.811
       6.630
       6.186
       5.597
       5.045
       4.700
       4.643
       4.827
       5.103
       5.286
       5.227
       4.835
       4.095
       3.074
       1.938
       0.933
       0.295
       0.151
       0.452
       1.005
       1.570
       1.972
       2.145
       2.112
       1.916
       1.566
       1.056
       0.430
      -0.167
      -0.537
      -0.537
      -0.172
       0.420
       1.057
       1.601
       1.980
       2.149
       2.070
       1.733
       1.166
       0.410
      -0.502
      -1.528
      -2.562
      -3.422
      -3.921
      -3.975
      -3.666
      -3.220
      -2.888
      -2.835
      -3.065
      -3.437
      -3.740
      -3.796
      -3.549
      -3.094
      -2.629
      -2.354
      -2.357
      -2.566
      -2.788
      -2.811
      -2.520
      -1.957
      -1.309
      -0.826
      -0.704
      -0.984
      -1.507
      -1.972
      -2.086
      -1.723
      -0.996
      -0.188
       0.408
       0.632
       0.498
       0.154
      -0.221
      -0.499
      -0.647
      -0.705
      -0.726
      -0.727
      -0.678
      -0.536
      -0.307
      -0.075
       0.023
      -0.135
      -0.580
      -1.213
      -1.840
      -2.251
      -2.324
      -2.075
      -1.643
      -1.198
      -0.843
      -0.582
      -0.359
      -0.157
      -0.060
      -0.226
      -0.778
      -1.670
      -2.657
      -3.402
      -3.657
      -3.385
      -2.746
      -1.975
      -1.246
      -0.612
      -0.031
       0.562
       1.181
       1.772
       2.253
       2.573
       2.757
       2.887
       3.049
       3.288
       3.622
       4.085
       4.742
       5.640
       6.740
       7.893
       8.903
       9.625
      10.023
      10.157
      10.109
       9.926
       9.606
       9.139
       8.544
       7.876
       7.201
       6.565
       5.978
       5.423
       4.871
       4.289
       3.660
       2.986
       2.299
       1.640
       1.026
       0.426
      -0.243
      -1.078
      -2.156
      -3.493
      -5.035
      -6.670
      -8.261
      -9.689
     -10.874
     -11.758
     -12.291
     -12.430
     -12.189
     -11.665
     -11.009
     -10.354
      -9.763
      -9.226
      -8.698
      -8.129
      -7.475
      -6.714
      -5.875
      -5.060
      -4.417
      -4.070
      -4.040
      -4.217
      -4.395
      -4.355
      -3.958
      -3.218
      -2.282
      -1.350
      -0.572
      -0.001
       0.374
       0.594
       0.704
       0.778
       0.930
       1.280
       1.902
       2.779
       3.804
       4.819
       5.679
       6.302
       6.695
       6.924
       7.056
       7.115
       7.090
       6.991
       6.893
       6.913
       7.137
       7.565
       8.100
       8.594
       8.915
       8.985
       8.800
       8.429
       8.000
       7.653
       7.469
       7.419
       7.377
       7.202
       6.822
       6.258
       5.560
       4.740
       3.763
       2.605
       1.317
       0.018
      -1.179
      -2.243
      -3.235
      -4.231
      -5.241
      -6.178
      -6.901
      -7.300
      -7.374
      -7.240
      -7.085
      -7.073
      -7.282
      -7.694
      -8.234
      -8.823
      -9.403
      -9.922
     -10.312
     -10.480
     -10.343
      -9.879
      -9.159
      -8.333
      -7.571
      -6.993
      -6.637
      -6.474
      -6.437
      -6.449
      -6.431
      -6.307
      -6.013
      -5.512
      -4.796
      -3.903
      -2.909
      -1.913
      -0.990
      -0.155
       0.649
       1.508
       2.490
       3.594
       4.737
       5.771
       6.536
       6.931
       6.975
       6.808
       6.644
       6.668
       6.961
       7.474
       8.069
       8.601
       8.991
       9.251
       9.442
       9.605
       9.703
       9.622
       9.231
       8.450
       7.293
       5.868
       4.333
       2.856
       1.567
       0.545
      -0.191
      -0.668
      -0.945
      -1.076
      -1.089
      -0.987
      -0.798
      -0.623
      -0.624
      -0.942
      -1.592
      -2.426
      -3.178
      -3.580
      -3.469
      -2.843
      -1.869
      -0.838
      -0.054
       0.287
       0.189
      -0.180
      -0.624
      -1.049
      -1.471
      -1.912
      -2.284
      -2.412
      -2.159
      -1.549
      -0.782
      -0.118
       0.260
       0.317
       0.140
      -0.147
      -0.457
      -0.771
      -1.119
      -1.542
      -2.032
      -2.512
      -2.857
      -2.962
      -2.810
      -2.485
      -2.127
      -1.856
      -1.726
      -1.727
      -1.809
      -1.919
      -2.004
      -2.014
      -1.892
      -1.605
      -1.176
      -0.706
      -0.355
      -0.257
      -0.449
      -0.831
      -1.214
      -1.415
      -1.345
      -1.053
      -0.692
      -0.442
      -0.410
      -0.565
      -0.765
      -0.863
      -0.818
      -0.705
      -0.633
      -0.626
      -0.587
      -0.366
       0.139
       0.912
       1.821
       2.679
       3.305
       3.587
       3.526
       3.233
       2.894
       2.687
       2.722
       3.009
       3.461
       3.929
       4.253
       4.328
       4.153
       3.827
       3.494
       3.259
       3.134
       3.051
       2.925
       2.733
       2.528
       2.373
       2.269
       2.135
       1.874
       1.452
       0.915
       0.339
      -0.222
      -0.728
      -1.126
      -1.366
      -1.467
      -1.558
      -1.806
      -2.276
      -2.860
      -3.353
      -3.628
      -3.730
      -3.834
      -4.092
      -4.525
      -5.010
      -5.363
      -5.439
      -5.182
      -4.630
      -3.891
      -3.106
      -2.418
      -1.950
      -1.785
      -1.952
      -2.391
      -2.953
      -3.441
      -3.698
      -3.684
      -3.472
      -3.190
      -2.932
      -2.727
      -2.552
      -2.376
      -2.195
      -2.034
      -1.910
      -1.791
      -1.582
      -1.161
      -0.450
       0.521
       1.608
       2.600
       3.313
       3.666
       3.718
       3.630
       3.584
       3.683
       3.920
       4.216
       4.507
       4.784
       5.073
       5.373
       5.641
       5.821
       5.886
       5.855
       5.760
       5.636
       5.511
       5.412
       5.340
       5.248
       5.049
       4.676
       4.150
       3.564
       3.012
       2.503
       1.968
       1.339
       0.632
      -0.031
      -0.501
      -0.705
      -0.701
      -0.628
      -0.596
      -0.600
      -0.535
      -0.301
       0.075
       0.421
       0.516
       0.238
      -0.372
      -1.162
      -1.982
      -2.750
      -3.433
      -3.988
      -4.329
      -4.371
      -4.119
      -3.714
      -3.410
      -3.458
      -3.976
      -4.899
      -6.010
      -7.038
      -7.758
      -8.056
      -7.955
      -7.582
      -7.097
      -6.611
      -6.151
      -5.684
      -5.184
      -4.676
      -4.223
      -3.865
      -3.577
      -3.273
      -2.868
      -2.335
      -1.711
      -1.044
      -0.347
       0.412
       1.262
       2.192
       3.144
       4.042
       4.807
       5.362
       5.653
       5.672
       5.493
       5.256
       5.123
       5.219
       5.591
       6.169
       6.780
       7.207
       7.291
       7.008
       6.480
       5.897
       5.430
       5.162
       5.060
       4.991
       4.776
       4.273
       3.456
       2.433
       1.383
       0.443
      -0.356
      -1.067
      -1.736
      -2.331
      -2.759
      -2.944
      -2.919
      -2.830
      -2.857
      -3.089
      -3.459
      -3.778
      -3.869
      -3.688
      -3.352
      -3.039
      -2.844
      -2.719
      -2.526
      -2.176
      -1.716
      -1.319
      -1.165
      -1.320
      -1.692
      -2.078
      -2.258
      -2.104
      -1.627
      -0.979
      -0.369
       0.040
       0.214
       0.249
       0.294
       0.454
       0.732
       1.049
       1.300
       1.400
