Origin Time       12/3/2010 23:19:54	
Lat.              23.0 N	
Long.             94.5 E	
Depth (Km)         96.0
Magnitude         5.6
 Region           MYANMAR                                                          
 Above details taken from IMD 
     
Station Code      GUA
Station Lat.       26.190  N
Station Long.      91.746  E
Station Height(m)   55.2
Site Class        C   Vs30 between 200 m/sec to 375 m/sec *  
Record Time       12.03.2010 23:21:10.009
Sampling Rate     200. Hz
 Record Duration   91.615 Sec.
 Direction         E-W (E positive)
Max. Acceleration     -5.640 cm/sec**2
     
  * For reference see Site Classification link of website 
     
 Base Line Corrected and Low Pass Filtered (Cut Off at 35 Hz) Time History
 Acceleration data in cm/sec**2
    
[...]
      -0.041
      -0.179
      -0.227
      -0.150
       0.014
       0.174
       0.250
       0.220
       0.125
       0.033
      -0.010
       0.007
       0.065
       0.137
       0.193
       0.208
       0.158
       0.034
      -0.146
      -0.333
      -0.466
      -0.500
      -0.432
      -0.294
      -0.131
       0.018
       0.139
       0.233
       0.304
       0.349
       0.362
       0.341
       0.290
       0.213
       0.117
       0.023
      -0.041
      -0.061
      -0.049
      -0.043
      -0.078
      -0.169
      -0.299
      -0.421
      -0.484
      -0.464
      -0.371
      -0.245
      -0.127
      -0.042
       0.010
       0.049
       0.091
       0.136
       0.174
       0.198
       0.213
       0.234
       0.268
       0.313
       0.357
       0.381
       0.367
       0.309
       0.214
       0.096
      -0.034
      -0.164
      -0.275
      -0.338
      -0.330
      -0.247
      -0.107
       0.055
       0.193
       0.263
       0.228
       0.085
      -0.134
      -0.355
      -0.498
      -0.521
      -0.442
      -0.324
      -0.223
      -0.157
      -0.108
      -0.053
       0.013
       0.078
       0.123
       0.144
       0.153
       0.161
       0.171
       0.175
       0.163
       0.135
       0.097
       0.059
       0.034
       0.027
       0.035
       0.051
       0.065
       0.077
       0.087
       0.100
       0.110
       0.111
       0.089
       0.039
      -0.039
      -0.132
      -0.223
      -0.290
      -0.308
      -0.260
      -0.154
      -0.025
       0.079
       0.121
       0.094
       0.025
      -0.048
      -0.106
      -0.159
      -0.223
      -0.300
      -0.367
      -0.395
      -0.368
      -0.276
      -0.117
       0.092
       0.310
       0.480
       0.553
       0.520
       0.418
       0.315
       0.272
       0.303
       0.366
       0.393
       0.337
       0.199
       0.030
      -0.110
      -0.183
      -0.202
      -0.217
      -0.284
      -0.423
      -0.604
      -0.765
      -0.845
      -0.818
      -0.703
      -0.556
      -0.431
      -0.355
      -0.318
      -0.294
      -0.257
      -0.197
      -0.127
      -0.073
      -0.053
      -0.056
      -0.041
       0.028
       0.151
       0.276
       0.327
       0.255
       0.067
      -0.156
      -0.307
      -0.308
      -0.157
       0.071
       0.266
       0.345
       0.289
       0.147
      -0.016
      -0.157
      -0.277
      -0.389
      -0.489
      -0.543
      -0.513
      -0.387
      -0.193
       0.010
       0.156
       0.215
       0.206
       0.187
       0.223
       0.347
       0.542
       0.742
       0.867
       0.871
       0.771
       0.629
       0.521
       0.498
       0.562
       0.667
       0.742
       0.734
       0.643
       0.515
       0.401
       0.323
       0.268
       0.214
       0.161
       0.130
       0.140
       0.186
       0.242
       0.274
       0.259
       0.193
       0.088
      -0.017
      -0.070
      -0.031
       0.089
       0.231
       0.322
       0.326
       0.255
       0.150
       0.043
      -0.061
      -0.175
      -0.303
      -0.419
      -0.488
      -0.503
      -0.499
      -0.537
      -0.659
      -0.858
      -1.074
      -1.219
      -1.232
      -1.106
      -0.889
      -0.653
      -0.451
      -0.301
      -0.193
      -0.112
      -0.052
      -0.012
       0.019
       0.069
       0.167
       0.326
       0.536
       0.780
       1.042
       1.304
       1.534
       1.683
       1.697
       1.537
       1.204
       0.748
       0.260
      -0.163
      -0.446
      -0.549
      -0.475
      -0.281
      -0.066
       0.063
       0.043
      -0.123
      -0.368
      -0.600
      -0.745
      -0.771
      -0.690
      -0.541
      -0.364
      -0.187
      -0.013
       0.164
       0.344
       0.506
       0.612
       0.627
       0.537
       0.359
       0.123
      -0.137
      -0.393
      -0.626
      -0.822
      -0.965
      -1.031
      -0.999
      -0.864
      -0.650
      -0.416
      -0.232
      -0.151
      -0.171
      -0.246
      -0.312
      -0.339
      -0.343
      -0.368
      -0.444
      -0.558
      -0.653
      -0.666
      -0.566
      -0.378
      -0.172
      -0.027
       0.008
      -0.074
      -0.241
      -0.429
      -0.568
      -0.608
      -0.538
      -0.384
      -0.189
       0.020
       0.247
       0.510
       0.815
       1.121
       1.347
       1.410
       1.276
       0.984
       0.628
       0.317
       0.137
       0.117
       0.218
       0.355
       0.435
       0.398
       0.239
       0.003
      -0.239
      -0.424
      -0.521
      -0.522
      -0.421
      -0.214
       0.090
       0.441
       0.754
       0.933
       0.918
       0.715
       0.405
       0.106
      -0.080
      -0.100
       0.046
       0.321
       0.672
       1.037
       1.342
       1.507
       1.469
       1.215
       0.791
       0.281
      -0.232
      -0.682
      -1.014
      -1.183
      -1.172
      -1.008
      -0.768
      -0.543
      -0.399
      -0.338
      -0.311
      -0.264
      -0.187
      -0.121
      -0.132
      -0.268
      -0.532
      -0.873
      -1.209
      -1.459
      -1.578
      -1.562
      -1.424
      -1.175
      -0.820
      -0.382
       0.098
       0.568
       0.999
       1.391
       1.756
       2.086
       2.341
       2.459
       2.400
       2.166
       1.808
       1.392
       0.970
       0.565
       0.176
      -0.199
      -0.546
      -0.851
      -1.119
      -1.380
      -1.676
      -2.021
      -2.382
      -2.676
      -2.790
      -2.626
      -2.162
      -1.489
      -0.787
      -0.246
       0.033
       0.071
      -0.022
      -0.123
      -0.163
      -0.138
      -0.079
      -0.002
       0.109
       0.285
       0.541
       0.844
       1.121
       1.285
       1.293
       1.189
       1.079
       1.061
       1.158
       1.309
       1.421
       1.433
       1.347
       1.215
       1.096
       1.003
       0.892
       0.674
       0.269
      -0.331
      -1.024
      -1.612
      -1.899
      -1.809
      -1.438
      -1.014
      -0.756
      -0.758
      -0.949
      -1.151
      -1.199
      -1.028
      -0.695
      -0.315
       0.011
       0.241
       0.378
       0.443
       0.450
       0.418
       0.369
       0.330
       0.314
       0.316
       0.326
       0.349
       0.405
       0.504
       0.633
       0.762
       0.878
       0.989
       1.102
       1.185
       1.166
       0.977
       0.622
       0.200
      -0.144
      -0.307
      -0.298
      -0.219
      -0.202
      -0.317
      -0.545
      -0.792
      -0.952
      -0.962
      -0.831
      -0.616
      -0.380
      -0.153
       0.059
       0.252
       0.399
       0.439
       0.305
      -0.025
      -0.491
      -0.959
      -1.275
      -1.338
      -1.129
      -0.715
      -0.208
       0.275
       0.646
       0.856
       0.895
       0.787
       0.596
       0.401
       0.256
       0.168
       0.097
       0.007
      -0.098
      -0.153
      -0.079
       0.148
       0.454
       0.689
       0.729
       0.552
       0.252
      -0.044
      -0.255
      -0.391
      -0.508
      -0.646
      -0.782
      -0.845
      -0.768
      -0.535
      -0.185
       0.204
       0.546
       0.774
       0.861
       0.827
       0.728
       0.607
       0.460
       0.238
      -0.113
      -0.603
      -1.181
      -1.762
      -2.258
      -2.587
      -2.666
      -2.423
      -1.846
      -1.032
      -0.164
       0.568
       1.057
       1.316
       1.430
       1.492
       1.551
       1.610
       1.662
       1.719
       1.787
       1.842
       1.827
       1.695
       1.460
       1.205
       1.031
       0.988
       1.044
       1.112
       1.111
       1.021
       0.884
       0.758
       0.659
       0.561
       0.425
       0.238
       0.026
      -0.178
      -0.365
      -0.554
      -0.762
      -0.973
      -1.138
      -1.210
      -1.191
      -1.142
      -1.140
      -1.227
      -1.369
      -1.476
      -1.468
      -1.329
      -1.114
      -0.905
      -0.764
      -0.703
      -0.692
      -0.680
      -0.623
      -0.521
      -0.420
      -0.390
      -0.491
      -0.733
      -1.062
      -1.360
      -1.484
      -1.334
      -0.906
      -0.303
       0.324
       0.855
       1.236
       1.467
       1.553
       1.477
       1.211
       0.770
       0.238
      -0.246
      -0.552
      -0.605
      -0.412
      -0.051
       0.359
       0.691
       0.850
       0.801
       0.580
       0.270
      -0.018
      -0.166
      -0.075
       0.299
       0.905
       1.585
       2.114
       2.301
       2.086
       1.558
       0.903
       0.316
      -0.067
      -0.191
      -0.083
       0.160
       0.401
       0.503
       0.381
       0.035
      -0.475
      -1.071
      -1.693
      -2.282
      -2.752
      -3.002
      -2.975
      -2.708
      -2.316
      -1.914
      -1.542
      -1.167
      -0.738
      -0.261
       0.186
       0.491
       0.579
       0.455
       0.191
      -0.122
      -0.413
      -0.642
      -0.784
      -0.828
      -0.787
      -0.700
      -0.616
      -0.557
      -0.492
      -0.352
      -0.081
       0.303
       0.695
       0.960
       1.007
       0.858
       0.632
       0.472
       0.447
       0.517
       0.583
       0.575
       0.504
       0.425
       0.376
       0.350
       0.325
       0.309
       0.342
       0.464
       0.673
       0.932
       1.213
       1.517
       1.848
       2.171
       2.404
       2.465
       2.329
       2.042
       1.693
       1.361
       1.091
       0.884
       0.705
       0.507
       0.248
      -0.081
      -0.440
      -0.748
      -0.915
      -0.895
      -0.701
      -0.385
      -0.002
       0.414
       0.846
       1.263
       1.596
       1.729
       1.544
       0.995
       0.150
      -0.815
      -1.694
      -2.337
      -2.705
      -2.867
      -2.934
      -2.989
      -3.035
      -3.007
      -2.830
      -2.473
      -1.976
      -1.438
      -0.980
      -0.702
      -0.646
      -0.768
      -0.957
      -1.062
      -0.960
      -0.613
      -0.099
       0.420
       0.790
       0.943
       0.936
       0.915
       1.030
       1.342
       1.783
       2.185
       2.371
       2.247
       1.852
       1.343
       0.919
       0.734
       0.833
       1.152
       1.556
       1.897
       2.064
       2.015
       1.777
       1.423
       1.028
       0.636
       0.250
      -0.146
      -0.558
      -0.956
      -1.279
      -1.478
      -1.553
      -1.551
      -1.516
      -1.447
      -1.306
      -1.069
      -0.776
      -0.511
      -0.358
      -0.348
      -0.437
      -0.540
      -0.566
      -0.460
      -0.224
       0.077
       0.326
       0.406
       0.268
      -0.051
      -0.458
      -0.881
      -1.291
      -1.682
      -2.012
      -2.197
      -2.148
      -1.841
      -1.345
      -0.788
      -0.293
       0.077
       0.327
       0.494
       0.619
       0.711
       0.751
       0.691
       0.482
       0.094
      -0.457
      -1.086
      -1.631
      -1.906
      -1.783
      -1.264
      -0.475
       0.418
       1.283
       2.040
       2.623
       2.949
       2.931
       2.534
       1.828
       0.977
       0.187
      -0.372
      -0.608
      -0.503
      -0.100
       0.510
       1.195
       1.805
       2.224
       2.408
       2.393
       2.257
       2.072
       1.878
       1.690
       1.514
       1.343
       1.159
       0.936
       0.679
       0.430
       0.244
       0.139
       0.077
      -0.010
      -0.172
      -0.407
      -0.679
      -0.948
      -1.189
      -1.368
      -1.430
      -1.317
      -1.016
      -0.580
      -0.100
       0.343
       0.706
       0.973
       1.132
       1.165
       1.066
       0.862
       0.598
       0.302
      -0.046
      -0.493
      -1.055
      -1.672
      -2.223
      -2.603
      -2.786
      -2.828
      -2.810
      -2.786
      -2.765
      -2.739
      -2.712
      -2.699
      -2.703
      -2.698
      -2.642
      -2.499
      -2.260
      -1.940
      -1.573
      -1.204
      -0.884
      -0.664
      -0.576
      -0.623
      -0.774
      -0.963
      -1.108
      -1.140
      -1.034
      -0.816
      -0.555
      -0.317
      -0.136
       0.008
       0.164
       0.383
       0.693
       1.101
       1.590
       2.109
       2.571
       2.866
       2.903
       2.641
       2.116
       1.448
       0.826
       0.445
       0.425
       0.731
       1.171
       1.479
       1.467
       1.123
       0.588
       0.032
      -0.447
      -0.835
      -1.117
      -1.214
      -1.012
      -0.457
       0.373
       1.275
       2.013
       2.441
       2.571
       2.520
       2.395
       2.200
       1.851
       1.294
       0.608
       0.025
      -0.185
       0.129
       0.910
       1.925
       2.888
       3.574
       3.873
       3.773
       3.342
       2.709
       2.043
       1.503
       1.184
       1.098
       1.185
       1.358
       1.505
       1.479
       1.118
       0.333
      -0.790
      -1.974
      -2.859
      -3.178
      -2.886
      -2.150
      -1.238
      -0.395
       0.212
       0.468
       0.273
      -0.434
      -1.607
      -3.037
      -4.395
      -5.340
      -5.640
      -5.239
      -4.262
      -2.950
      -1.587
      -0.420
       0.393
       0.805
       0.868
       0.701
       0.435
       0.172
      -0.046
      -0.236
      -0.439
      -0.668
      -0.881
      -1.003
      -1.006
      -0.948
      -0.941
      -1.053
      -1.241
      -1.385
      -1.387
      -1.245
      -1.025
      -0.763
      -0.419
       0.074
       0.703
       1.330
       1.766
       1.899
       1.777
       1.560
       1.407
       1.381
       1.427
       1.430
       1.288
       0.949
       0.417
      -0.276
      -1.065
      -1.848
      -2.484
      -2.824
      -2.751
      -2.226
      -1.334
      -0.285
       0.631
       1.139
       1.071
       0.434
      -0.595
      -1.734
      -2.686
      -3.227
      -3.240
      -2.709
      -1.693
      -0.324
       1.191
       2.578
       3.548
       3.891
       3.583
       2.820
       1.948
       1.307
       1.100
       1.354
       1.969
       2.795
       3.675
       4.448
       4.953
       5.032
       4.573
       3.558
       2.095
       0.420
      -1.140
      -2.246
      -2.654
      -2.302
      -1.341
      -0.066
       1.181
       2.111
       2.528
       2.342
       1.578
       0.377
      -1.013
      -2.289
      -3.165
      -3.444
      -3.060
      -2.078
      -0.691
       0.796
       2.010
       2.624
       2.491
       1.726
       0.648
      -0.397
      -1.191
      -1.691
      -1.956
      -2.053
      -2.018
      -1.865
      -1.614
      -1.297
      -0.956
      -0.630
      -0.338
      -0.073
       0.199
       0.490
       0.752
       0.864
       0.692
       0.161
      -0.695
      -1.741
      -2.772
      -3.562
      -3.923
      -3.756
      -3.109
      -2.163
      -1.166
      -0.317
       0.293
       0.658
       0.770
       0.598
       0.154
      -0.434
      -0.939
      -1.177
      -1.129
      -0.941
      -0.793
      -0.750
      -0.737
      -0.637
      -0.425
      -0.210
      -0.152
      -0.327
      -0.657
      -0.953
      -1.035
      -0.825
      -0.353
       0.299
       1.048
       1.787
       2.344
       2.481
       2.015
       0.957
      -0.433
      -1.753
      -2.653
      -2.996
      -2.860
      -2.415
      -1.785
      -0.993
      -0.043
       0.983
       1.894
       2.468
       2.579
       2.276
       1.769
       1.330
       1.163
       1.314
       1.679
       2.087
       2.402
       2.584
       2.675
       2.741
       2.799
       2.771
       2.515
       1.907
       0.933
      -0.295
      -1.564
      -2.619
      -3.210
      -3.150
      -2.395
      -1.113
       0.324
       1.481
       2.062
       2.067
       1.758
       1.481
       1.455
       1.680
       2.008
       2.282
       2.433
       2.490
       2.513
       2.533
       2.540
       2.507
       2.401
       2.187
       1.823
       1.286
       0.599
      -0.147
      -0.818
      -1.274
      -1.420
      -1.254
      -0.874
      -0.452
      -0.175
      -0.185
      -0.530
      -1.146
      -1.864
      -2.471
      -2.799
      -2.801
      -2.574
      -2.313
      -2.202
      -2.325
      -2.626
      -2.951
      -3.139
      -3.112
      -2.907
      -2.640
      -2.419
      -2.274
      -2.143
      -1.938
      -1.625
      -1.267
      -0.981
      -0.853
      -0.873
      -0.926
      -0.847
      -0.516
       0.076
       0.817
       1.534
       2.078
       2.390
       2.518
       2.575
       2.668
       2.832
       3.003
       3.069
       2.926
       2.514
       1.842
       0.997
       0.150
      -0.495
      -0.779
      -0.686
      -0.353
      -0.011
       0.128
      -0.028
      -0.427
      -0.916
      -1.330
      -1.569
      -1.621
      -1.532
      -1.342
      -1.053
      -0.646
      -0.146
       0.340
       0.657
       0.685
       0.414
      -0.055
      -0.560
      -0.967
      -1.220
      -1.339
      -1.374
      -1.356
      -1.277
      -1.126
      -0.915
      -0.690
      -0.503
      -0.382
      -0.304
      -0.213
      -0.061
       0.155
       0.379
       0.509
       0.445
       0.155
      -0.284
      -0.702
      -0.927
      -0.893
      -0.670
      -0.402
      -0.199
      -0.073
       0.036
       0.184
       0.367
       0.509
       0.522
       0.383
       0.155
      -0.047
      -0.129
      -0.060
       0.145
       0.477
       0.948
       1.569
       2.286
       2.967
       3.438
       3.565
       3.310
       2.735
       1.969
       1.167
       0.474
      -0.019
      -0.303
      -0.463
      -0.623
      -0.857
      -1.126
      -1.302
      -1.273
      -1.045
      -0.732
      -0.447
      -0.216
       0.017
       0.295
       0.575
       0.752
       0.757
       0.644
       0.585
       0.756
       1.196
       1.760
       2.217
       2.408
       2.334
       2.119
       1.897
       1.723
       1.569
       1.394
       1.201
       1.037
       0.936
       0.876
       0.788
       0.622
       0.379
       0.100
      -0.176
      -0.448
      -0.726
      -0.994
      -1.184
      -1.205
      -1.009
      -0.640
      -0.224
       0.095
       0.223
       0.162
      -0.006
      -0.174
      -0.285
      -0.362
      -0.480
      -0.695
      -0.993
      -1.301
      -1.541
      -1.663
      -1.644
      -1.478
      -1.185
      -0.853
      -0.657
      -0.781
      -1.285
      -2.011
      -2.629
      -2.825
      -2.492
      -1.789
      -1.028
      -0.496
      -0.322
      -0.467
      -0.803
      -1.204
      -1.588
      -1.906
      -2.120
      -2.203
      -2.172
      -2.090
      -2.022
      -1.967
      -1.844
      -1.558
      -1.093
      -0.551
      -0.087
       0.208
       0.367
