Origin Time       29/12/2009 09:01:42
Lat.              24.5°N	
Long.             94.8°E	
Depth (Km)         80.0
Magnitude         5.5
 Region           MYANMAR-INDIA(MANIPUR)-BORDER                                    
 Above details taken from IMD 
   
Station Code      GUA
Station Lat.       26.190
Station Long.      91.746
Station Height(m)   55.2
Site Class        C   Vs30 between 200 m/sec to 375 m/sec *  
Record Time       29.12.2009 09:02:44.979
Sampling Rate     200. Hz
 Record Duration   80.765 Sec.
 Direction         Vert. (Up positive)
Max. Acceleration      8.944 cm/sec**2
     
  * For reference see Site Classification link of website 
     
 Base Line Corrected and Low Pass Filtered (Cut Off at 35 Hz) Time History
 Acceleration data in cm/sec**2
    
[...]
       0.255
       0.261
       0.332
       0.421
       0.442
       0.333
       0.107
      -0.156
      -0.346
      -0.392
      -0.307
      -0.171
      -0.085
      -0.102
      -0.197
      -0.277
      -0.240
      -0.043
       0.270
       0.599
       0.852
       0.981
       0.987
       0.885
       0.703
       0.484
       0.295
       0.196
       0.190
       0.209
       0.151
      -0.037
      -0.309
      -0.540
      -0.625
      -0.561
      -0.440
      -0.364
      -0.356
      -0.350
      -0.262
      -0.082
       0.110
       0.204
       0.149
      -0.007
      -0.157
      -0.229
      -0.231
      -0.227
      -0.262
      -0.312
      -0.303
      -0.175
       0.055
       0.285
       0.394
       0.330
       0.158
       0.023
       0.052
       0.263
       0.555
       0.786
       0.873
       0.835
       0.742
       0.638
       0.502
       0.301
       0.057
      -0.149
      -0.243
      -0.221
      -0.156
      -0.137
      -0.203
      -0.315
      -0.398
      -0.402
      -0.343
      -0.282
      -0.284
      -0.364
      -0.481
      -0.555
      -0.525
      -0.388
      -0.190
       0.001
       0.145
       0.238
       0.293
       0.309
       0.265
       0.142
      -0.042
      -0.215
      -0.283
      -0.186
       0.041
       0.287
       0.438
       0.461
       0.411
       0.362
       0.340
       0.299
       0.185
      -0.001
      -0.181
      -0.257
      -0.188
      -0.029
       0.102
       0.108
      -0.013
      -0.163
      -0.222
      -0.145
       0.000
       0.103
       0.101
       0.022
      -0.061
      -0.093
      -0.069
      -0.021
       0.014
       0.019
      -0.015
      -0.081
      -0.167
      -0.254
      -0.314
      -0.318
      -0.250
      -0.138
      -0.040
      -0.017
      -0.084
      -0.202
      -0.302
      -0.327
      -0.274
      -0.189
      -0.144
      -0.173
      -0.242
      -0.270
      -0.194
      -0.026
       0.164
       0.310
       0.400
       0.466
       0.526
       0.542
       0.434
       0.162
      -0.214
      -0.539
      -0.658
      -0.519
      -0.219
       0.061
       0.165
       0.058
      -0.152
      -0.281
      -0.205
       0.036
       0.253
       0.250
      -0.015
      -0.377
      -0.579
      -0.474
      -0.132
       0.221
       0.386
       0.337
       0.206
       0.143
       0.185
       0.241
       0.194
       0.007
      -0.244
      -0.426
      -0.429
      -0.233
       0.076
       0.361
       0.513
       0.519
       0.461
       0.446
       0.530
       0.681
       0.800
       0.780
       0.566
       0.188
      -0.259
      -0.648
      -0.866
      -0.859
      -0.661
      -0.393
      -0.211
      -0.201
      -0.316
      -0.395
      -0.274
       0.088
       0.574
       0.969
       1.093
       0.911
       0.542
       0.174
      -0.059
      -0.141
      -0.160
      -0.222
      -0.370
      -0.550
      -0.658
      -0.621
      -0.460
      -0.272
      -0.152
      -0.125
      -0.136
      -0.095
       0.056
       0.300
       0.556
       0.727
       0.755
       0.655
       0.495
       0.352
       0.265
       0.230
       0.219
       0.209
       0.186
       0.140
       0.063
      -0.049
      -0.186
      -0.323
      -0.429
      -0.489
      -0.513
      -0.522
      -0.530
      -0.529
      -0.501
      -0.432
      -0.311
      -0.135
       0.094
       0.354
       0.597
       0.743
       0.717
       0.492
       0.129
      -0.222
      -0.388
      -0.278
       0.047
       0.385
       0.513
       0.341
      -0.023
      -0.329
      -0.366
      -0.106
       0.277
       0.538
       0.539
       0.324
       0.069
      -0.053
       0.006
       0.141
       0.184
       0.031
      -0.276
      -0.575
      -0.703
      -0.609
      -0.375
      -0.133
       0.024
       0.088
       0.090
       0.055
      -0.021
      -0.136
      -0.252
      -0.309
      -0.273
      -0.163
      -0.035
       0.045
       0.014
      -0.163
      -0.455
      -0.744
      -0.866
      -0.710
      -0.304
       0.190
       0.572
       0.728
       0.691
       0.595
       0.560
       0.603
       0.642
       0.586
       0.405
       0.143
      -0.119
      -0.307
      -0.368
      -0.289
      -0.108
       0.093
       0.224
       0.232
       0.108
      -0.113
      -0.361
      -0.553
      -0.623
      -0.556
      -0.392
      -0.205
      -0.065
      -0.026
      -0.114
      -0.325
      -0.599
      -0.835
      -0.936
      -0.873
      -0.707
      -0.528
      -0.384
      -0.242
      -0.025
       0.317
       0.743
       1.123
       1.312
       1.239
       0.956
       0.611
       0.355
       0.249
       0.249
       0.266
       0.249
       0.209
       0.192
       0.229
       0.314
       0.414
       0.496
       0.559
       0.634
       0.757
       0.929
       1.097
       1.176
       1.103
       0.897
       0.650
       0.452
       0.293
       0.064
      -0.335
      -0.883
      -1.433
      -1.811
      -1.918
      -1.773
      -1.469
      -1.097
      -0.693
      -0.262
       0.166
       0.499
       0.640
       0.571
       0.385
       0.224
       0.159
       0.143
       0.068
      -0.135
      -0.434
      -0.720
      -0.886
      -0.896
      -0.790
      -0.638
      -0.493
      -0.350
      -0.149
       0.164
       0.575
       0.990
       1.283
       1.369
       1.247
       0.992
       0.705
       0.461
       0.273
       0.101
      -0.106
      -0.351
      -0.587
      -0.751
      -0.809
      -0.769
      -0.671
      -0.565
      -0.487
      -0.453
      -0.451
      -0.441
      -0.380
      -0.248
      -0.072
       0.085
       0.163
       0.136
       0.029
      -0.097
      -0.174
      -0.161
      -0.056
       0.111
       0.303
       0.478
       0.597
       0.614
       0.495
       0.238
      -0.112
      -0.478
      -0.795
      -1.024
      -1.153
      -1.176
      -1.090
      -0.899
      -0.608
      -0.213
       0.304
       0.956
       1.718
       2.515
       3.247
       3.809
       4.115
       4.112
       3.792
       3.204
       2.443
       1.590
       0.660
      -0.402
      -1.651
      -3.043
      -4.403
      -5.484
      -6.104
      -6.235
      -5.990
      -5.520
      -4.909
      -4.152
      -3.212
      -2.105
      -0.934
       0.141
       0.989
       1.581
       2.000
       2.371
       2.765
       3.154
       3.442
       3.577
       3.625
       3.742
       4.047
       4.504
       4.923
       5.075
       4.813
       4.124
       3.096
       1.877
       0.630
      -0.499
      -1.435
      -2.199
      -2.889
      -3.582
      -4.244
      -4.722
      -4.823
      -4.453
      -3.700
      -2.802
      -2.005
      -1.418
      -0.962
      -0.469
       0.171
       0.910
       1.562
       1.918
       1.882
       1.532
       1.052
       0.595
       0.179
      -0.303
      -0.952
      -1.715
      -2.360
      -2.605
      -2.302
      -1.522
      -0.482
       0.608
       1.658
       2.682
       3.692
       4.623
       5.331
       5.660
       5.504
       4.868
       3.878
       2.746
       1.668
       0.721
      -0.167
      -1.147
      -2.317
      -3.605
      -4.767
      -5.525
      -5.758
      -5.599
      -5.347
      -5.246
      -5.305
      -5.305
      -4.993
      -4.299
      -3.410
      -2.621
      -2.118
      -1.845
      -1.576
      -1.110
      -0.422
       0.346
       1.026
       1.574
       2.097
       2.754
       3.609
       4.555
       5.382
       5.914
       6.117
       6.084
       5.941
       5.767
       5.562
       5.271
       4.806
       4.084
       3.080
       1.859
       0.556
      -0.684
      -1.777
      -2.709
      -3.493
      -4.102
      -4.479
      -4.603
      -4.544
      -4.435
      -4.376
      -4.369
      -4.321
      -4.113
      -3.688
      -3.095
      -2.467
      -1.923
      -1.490
      -1.081
      -0.540
       0.268
       1.380
       2.700
       4.028
       5.141
       5.890
       6.256
       6.352
       6.324
       6.236
       6.024
       5.556
       4.767
       3.732
       2.619
       1.572
       0.627
      -0.251
      -1.087
      -1.839
      -2.434
      -2.850
      -3.153
      -3.430
      -3.697
      -3.869
      -3.825
      -3.506
      -2.952
      -2.284
      -1.653
      -1.195
      -0.991
      -1.025
      -1.182
      -1.303
      -1.297
      -1.216
      -1.223
      -1.459
      -1.919
      -2.438
      -2.782
      -2.768
      -2.339
      -1.560
      -0.564
       0.516
       1.564
       2.466
       3.116
       3.474
       3.605
       3.651
       3.723
       3.807
       3.763
       3.414
       2.668
       1.589
       0.384
      -0.703
      -1.522
      -2.088
      -2.531
      -2.972
      -3.424
      -3.783
      -3.920
      -3.798
      -3.522
      -3.285
      -3.227
      -3.322
      -3.373
      -3.145
      -2.545
      -1.704
      -0.894
      -0.341
      -0.072
       0.092
       0.388
       0.908
       1.524
       1.986
       2.132
       2.008
       1.821
       1.770
       1.899
       2.092
       2.199
       2.175
       2.112
       2.149
       2.344
       2.617
       2.823
       2.859
       2.723
       2.488
       2.249
       2.068
       1.936
       1.775
       1.522
       1.203
       0.935
       0.837
       0.930
       1.112
       1.227
       1.178
       0.981
       0.725
       0.473
       0.211
      -0.131
      -0.596
      -1.137
      -1.618
      -1.911
      -2.012
      -2.081
      -2.320
      -2.781
      -3.283
      -3.545
      -3.403
      -2.945
      -2.442
      -2.142
      -2.087
      -2.084
      -1.853
      -1.226
      -0.261
       0.805
       1.706
       2.300
       2.619
       2.808
       2.994
       3.187
       3.281
       3.163
       2.832
       2.403
       2.008
       1.665
       1.235
       0.530
      -0.493
      -1.595
      -2.347
      -2.424
      -1.881
      -1.179
      -0.901
      -1.346
      -2.324
      -3.287
      -3.734
      -3.570
      -3.147
      -2.971
      -3.309
      -4.004
      -4.605
      -4.714
      -4.248
      -3.446
      -2.630
      -1.947
      -1.307
      -0.525
       0.482
       1.625
       2.720
       3.617
       4.284
       4.782
       5.185
       5.489
       5.598
       5.393
       4.813
       3.926
       2.908
       1.973
       1.275
       0.862
       0.689
       0.667
       0.705
       0.749
       0.791
       0.867
       1.037
       1.346
       1.769
       2.186
       2.402
       2.234
       1.626
       0.692
      -0.359
      -1.360
      -2.282
      -3.186
      -4.095
      -4.896
      -5.360
      -5.295
      -4.704
      -3.826
      -3.006
      -2.473
      -2.169
      -1.783
      -0.975
       0.354
       1.965
       3.405
       4.296
       4.556
       4.407
       4.171
       4.022
       3.874
       3.491
       2.714
       1.644
       0.603
      -0.097
      -0.383
      -0.454
      -0.615
      -1.031
      -1.629
      -2.208
      -2.613
      -2.821
      -2.890
      -2.862
      -2.735
      -2.530
      -2.357
      -2.372
      -2.644
      -3.084
      -3.497
      -3.711
      -3.689
      -3.530
      -3.346
      -3.129
      -2.738
      -2.006
      -0.883
       0.499
       1.870
       2.928
       3.464
       3.448
       3.040
       2.512
       2.106
       1.914
       1.854
       1.742
       1.445
       1.009
       0.673
       0.710
       1.244
       2.157
       3.185
       4.081
       4.725
       5.095
       5.176
       4.936
       4.364
       3.512
       2.458
       1.275
       0.022
      -1.224
      -2.373
      -3.365
      -4.183
      -4.819
      -5.206
      -5.227
      -4.814
      -4.047
      -3.133
      -2.270
      -1.522
      -0.811
      -0.043
       0.761
       1.430
       1.755
       1.630
       1.147
       0.552
       0.119
       0.018
       0.265
       0.728
       1.184
       1.409
       1.296
       0.935
       0.572
       0.454
       0.638
       0.939
       1.073
       0.895
       0.496
       0.057
      -0.383
      -0.977
      -1.870
      -2.961
      -3.874
      -4.197
      -3.775
      -2.801
      -1.655
      -0.664
       0.047
       0.532
       0.894
       1.154
       1.209
       0.916
       0.211
      -0.808
      -1.905
      -2.841
      -3.519
      -4.022
      -4.489
      -4.927
      -5.118
      -4.727
      -3.548
      -1.711
       0.362
       2.199
       3.540
       4.416
       5.031
       5.547
       5.938
       5.996
       5.489
       4.355
       2.785
       1.136
      -0.249
      -1.172
      -1.605
      -1.645
      -1.452
      -1.176
      -0.891
      -0.564
      -0.079
       0.672
       1.677
       2.732
       3.498
       3.694
       3.280
       2.488
       1.641
       0.929
       0.302
      -0.423
      -1.340
      -2.286
      -2.898
      -2.841
      -2.059
      -0.845
       0.334
       1.132
       1.515
       1.673
       1.758
       1.670
       1.117
      -0.110
      -1.891
      -3.772
      -5.215
      -5.906
      -5.896
      -5.463
      -4.834
      -3.993
      -2.732
      -0.884
       1.466
       3.960
       6.147
       7.718
       8.611
       8.944
       8.867
       8.433
       7.590
       6.262
       4.458
       2.296
      -0.005
      -2.132
      -3.730
      -4.545
      -4.607
      -4.269
      -4.027
      -4.206
      -4.742
      -5.250
      -5.341
      -4.944
      -4.346
      -3.941
      -3.899
      -4.031
      -3.961
      -3.441
      -2.523
      -1.474
      -0.531
       0.306
       1.234
       2.442
       3.897
       5.306
       6.268
       6.512
       6.068
       5.252
       4.447
       3.837
       3.312
       2.600
       1.519
       0.165
      -1.110
      -1.926
      -2.133
      -1.899
      -1.578
      -1.455
      -1.554
      -1.669
      -1.584
      -1.284
      -0.984
      -0.966
      -1.362
      -2.043
      -2.701
      -3.072
      -3.114
      -2.989
      -2.867
      -2.757
      -2.504
      -1.945
      -1.075
      -0.090
       0.715
       1.150
       1.272
       1.356
       1.685
       2.299
       2.911
       3.097
       2.635
       1.726
       0.878
       0.528
       0.712
       1.058
       1.119
       0.745
       0.191
      -0.124
       0.020
       0.454
       0.751
       0.592
       0.053
      -0.415
      -0.325
       0.447
       1.525
       2.263
       2.205
       1.424
       0.476
      -0.024
       0.114
       0.502
       0.481
      -0.331
      -1.707
      -2.943
      -3.362
      -2.815
      -1.774
      -0.945
      -0.724
      -0.929
      -1.018
      -0.568
       0.354
       1.224
       1.452
       0.837
      -0.243
      -1.084
      -1.138
      -0.373
       0.761
       1.714
       2.247
       2.542
       2.935
       3.544
       4.119
       4.237
       3.639
       2.436
       1.023
      -0.196
      -1.038
      -1.581
      -2.030
      -2.532
      -3.067
      -3.495
      -3.696
      -3.668
      -3.518
      -3.352
      -3.181
      -2.918
      -2.476
      -1.879
      -1.292
      -0.928
      -0.886
      -1.042
      -1.110
      -0.842
      -0.208
       0.592
       1.283
       1.723
       1.973
       2.195
       2.480
       2.790
       3.025
       3.110
       3.034
       2.846
       2.619
       2.406
       2.192
       1.883
       1.372
       0.645
      -0.152
      -0.777
      -1.050
      -0.993
      -0.835
      -0.846
      -1.140
      -1.604
      -2.021
      -2.260
      -2.371
      -2.495
      -2.677
      -2.776
      -2.605
      -2.133
      -1.537
      -1.052
      -0.759
      -0.522
      -0.114
       0.567
       1.375
       2.003
       2.193
       1.894
       1.271
       0.583
       0.049
      -0.228
      -0.269
      -0.193
      -0.170
      -0.314
      -0.594
      -0.823
      -0.774
      -0.325
       0.461
       1.364
       2.101
       2.443
       2.322
       1.873
       1.355
       0.995
       0.872
       0.887
       0.870
       0.752
       0.668
       0.844
       1.390
       2.143
       2.709
       2.691
       1.941
       0.663
      -0.700
      -1.736
      -2.305
      -2.592
      -2.916
      -3.437
      -4.008
      -4.284
      -4.001
      -3.178
      -2.113
      -1.184
      -0.601
      -0.307
      -0.072
       0.295
       0.789
       1.226
       1.400
       1.267
       1.019
       0.973
       1.345
       2.078
       2.885
       3.454
       3.675
       3.682
       3.676
       3.699
       3.566
       3.038
       2.078
       0.934
      -0.028
      -0.597
      -0.841
      -1.002
      -1.292
      -1.781
      -2.436
      -3.198
      -3.995
      -4.696
      -5.095
      -5.012
      -4.417
      -3.481
      -2.469
      -1.562
      -0.764
       0.038
       0.895
       1.697
       2.226
       2.310
       1.944
       1.276
       0.519
      -0.158
      -0.667
      -0.985
      -1.100
      -0.987
      -0.620
      -0.016
       0.728
       1.462
       2.087
       2.611
       3.118
       3.648
       4.117
       4.368
       4.283
       3.864
       3.191
       2.322
       1.236
      -0.103
      -1.635
      -3.162
      -4.435
      -5.276
      -5.625
      -5.496
      -4.945
      -4.074
      -3.060
      -2.108
      -1.359
      -0.843
      -0.512
      -0.317
      -0.251
      -0.329
      -0.521
      -0.697
      -0.660
      -0.268
       0.430
       1.181
       1.677
       1.767
       1.565
       1.376
       1.462
       1.840
       2.275
       2.474
       2.317
       1.929
       1.558
       1.365
       1.294
       1.153
       0.809
       0.344
      -0.012
      -0.120
      -0.099
      -0.225
      -0.644
      -1.193
      -1.511
      -1.357
      -0.849
      -0.405
      -0.429
      -0.993
      -1.772
      -2.271
      -2.187
      -1.612
      -0.957
      -0.620
      -0.694
      -0.909
      -0.874
      -0.404
       0.323
       0.912
       1.064
       0.779
       0.337
       0.091
       0.243
       0.711
       1.181
       1.339
       1.108
       0.717
       0.526
       0.741
       1.218
       1.551
       1.402
       0.816
       0.243
       0.217
       0.906
       1.929
       2.600
       2.460
       1.631
       0.708
       0.265
       0.399
       0.689
       0.584
      -0.118
      -1.093
      -1.749
      -1.697
      -1.066
      -0.397
      -0.219
      -0.639
      -1.277
      -1.579
      -1.244
      -0.432
       0.375
       0.716
       0.437
      -0.272
      -1.065
      -1.683
      -2.075
      -2.335
      -2.535
      -2.605
      -2.361
      -1.655
      -0.540
       0.698
       1.693
       2.222
       2.318
       2.202
       2.091
       2.037
       1.910
       1.538
       0.881
       0.083
      -0.640
      -1.177
      -1.597
      -2.084
      -2.759
      -3.528
      -4.089
      -4.104
      -3.425
