Origin Time       3/9/2009 19:51:08	 
Lat.              24.3 N	
Long.             94.6 E	
Depth (Km)        100.0
Magnitude         5.9
 Region           MYANMAR-India-Manipuir-Border                                    
 Above details taken from IMD 
   
Station Code      GUA
Station Lat.       26.190
Station Long.      91.746
Station Height(m)   55.2
Site Class        C   Vs30 between 200 m/sec to 375 m/sec *  
Record Time       03.09.2009 19:52:15.559
Sampling Rate     200. Hz
 Record Duration   71.065 Sec.
 Direction         Vert. (Up positive)
Max. Acceleration      6.616 cm/sec**2
     
  * For reference see Site Classification link of website 
     
 Base Line Corrected and Low Pass Filtered (Cut Off at 35 Hz) Time History
 Acceleration data in cm/sec**2
    
[...]
       0.351
       0.462
       0.424
       0.266
       0.106
       0.060
       0.145
       0.266
       0.298
       0.198
       0.040
      -0.050
      -0.011
       0.092
       0.114
      -0.052
      -0.373
      -0.676
      -0.759
      -0.545
      -0.140
       0.232
       0.393
       0.318
       0.135
       0.023
       0.078
       0.250
       0.371
       0.280
      -0.048
      -0.467
      -0.755
      -0.768
      -0.541
      -0.250
      -0.077
      -0.074
      -0.149
      -0.161
      -0.037
       0.170
       0.339
       0.376
       0.287
       0.163
       0.101
       0.127
       0.183
       0.191
       0.122
       0.032
       0.007
       0.093
       0.249
       0.387
       0.434
       0.384
       0.298
       0.265
       0.338
       0.490
       0.623
       0.618
       0.407
       0.022
      -0.414
      -0.752
      -0.888
      -0.815
      -0.611
      -0.391
      -0.248
      -0.213
      -0.253
      -0.305
      -0.309
      -0.247
      -0.152
      -0.088
      -0.107
      -0.208
      -0.331
      -0.387
      -0.312
      -0.108
       0.164
       0.423
       0.617
       0.738
       0.796
       0.797
       0.738
       0.636
       0.533
       0.483
       0.516
       0.607
       0.676
       0.635
       0.452
       0.177
      -0.084
      -0.246
      -0.299
      -0.309
      -0.360
      -0.481
      -0.631
      -0.742
      -0.773
      -0.725
      -0.617
      -0.459
      -0.259
      -0.042
       0.149
       0.262
       0.272
       0.205
       0.127
       0.094
       0.111
       0.122
       0.066
      -0.075
      -0.251
      -0.378
      -0.396
      -0.316
      -0.214
      -0.167
      -0.198
      -0.264
      -0.297
      -0.254
      -0.138
       0.006
       0.135
       0.227
       0.288
       0.316
       0.295
       0.217
       0.120
       0.072
       0.118
       0.227
       0.315
       0.325
       0.272
       0.218
       0.204
       0.205
       0.150
      -0.008
      -0.246
      -0.477
      -0.608
      -0.600
      -0.492
      -0.359
      -0.260
      -0.203
      -0.162
      -0.111
      -0.058
      -0.034
      -0.069
      -0.169
      -0.308
      -0.438
      -0.493
      -0.404
      -0.129
       0.301
       0.780
       1.155
       1.302
       1.194
       0.915
       0.602
       0.361
       0.221
       0.130
       0.020
      -0.132
      -0.292
      -0.415
      -0.483
      -0.503
      -0.476
      -0.380
      -0.206
       0.011
       0.193
       0.262
       0.192
       0.019
      -0.185
      -0.345
      -0.411
      -0.372
      -0.254
      -0.102
       0.044
       0.157
       0.231
       0.270
       0.280
       0.261
       0.213
       0.147
       0.100
       0.120
       0.226
       0.385
       0.521
       0.570
       0.530
       0.458
       0.414
       0.402
       0.357
       0.208
      -0.051
      -0.332
      -0.510
      -0.516
      -0.384
      -0.229
      -0.161
      -0.214
      -0.340
      -0.447
      -0.464
      -0.376
      -0.227
      -0.092
      -0.040
      -0.094
      -0.216
      -0.328
      -0.356
      -0.270
      -0.094
       0.111
       0.279
       0.355
       0.316
       0.178
      -0.003
      -0.156
      -0.223
      -0.191
      -0.090
       0.013
       0.054
       0.001
      -0.121
      -0.243
      -0.288
      -0.228
      -0.105
      -0.002
       0.020
      -0.031
      -0.082
      -0.048
       0.106
       0.338
       0.553
       0.672
       0.682
       0.634
       0.590
       0.568
       0.535
       0.452
       0.311
       0.151
       0.020
      -0.066
      -0.138
      -0.254
      -0.468
      -0.785
      -1.135
      -1.385
      -1.409
      -1.172
      -0.773
      -0.399
      -0.199
      -0.179
      -0.196
      -0.075
       0.255
       0.694
       1.039
       1.117
       0.909
       0.550
       0.231
       0.071
       0.056
       0.086
       0.071
      -0.001
      -0.075
      -0.093
      -0.043
       0.033
       0.080
       0.065
      -0.011
      -0.119
      -0.215
      -0.261
      -0.251
      -0.237
      -0.288
      -0.436
      -0.624
      -0.738
      -0.681
      -0.439
      -0.083
       0.268
       0.496
       0.525
       0.364
       0.118
      -0.055
      -0.036
       0.164
       0.402
       0.505
       0.393
       0.135
      -0.103
      -0.189
      -0.120
      -0.013
      -0.007
      -0.137
      -0.299
      -0.324
      -0.115
       0.255
       0.578
       0.659
       0.460
       0.129
      -0.111
      -0.117
       0.075
       0.290
       0.343
       0.166
      -0.145
      -0.403
      -0.469
      -0.353
      -0.192
      -0.130
      -0.203
      -0.319
      -0.350
      -0.238
      -0.041
       0.132
       0.210
       0.222
       0.261
       0.392
       0.586
       0.720
       0.670
       0.398
      -0.006
      -0.377
      -0.570
      -0.534
      -0.324
      -0.049
       0.201
       0.384
       0.499
       0.554
       0.555
       0.504
       0.414
       0.305
       0.185
       0.052
      -0.101
      -0.260
      -0.384
      -0.419
      -0.327
      -0.114
       0.163
       0.411
       0.539
       0.511
       0.363
       0.179
       0.044
      -0.004
       0.028
       0.108
       0.204
       0.290
       0.332
       0.300
       0.184
       0.004
      -0.195
      -0.357
      -0.452
      -0.484
      -0.492
      -0.521
      -0.578
      -0.624
      -0.608
      -0.500
      -0.318
      -0.114
       0.059
       0.175
       0.238
       0.270
       0.299
       0.351
       0.440
       0.554
       0.652
       0.679
       0.602
       0.427
       0.192
      -0.073
      -0.362
      -0.661
      -0.912
      -1.005
      -0.841
      -0.432
       0.066
       0.425
       0.497
       0.307
       0.036
      -0.109
      -0.035
       0.190
       0.389
       0.402
       0.185
      -0.168
      -0.493
      -0.651
      -0.610
      -0.446
      -0.286
      -0.229
      -0.283
      -0.368
      -0.377
      -0.257
      -0.049
       0.146
       0.247
       0.248
       0.224
       0.264
       0.389
       0.518
       0.517
       0.309
      -0.042
      -0.351
      -0.445
      -0.295
      -0.032
       0.136
       0.066
      -0.238
      -0.625
      -0.881
      -0.850
      -0.518
      -0.018
       0.456
       0.762
       0.869
       0.820
       0.668
       0.438
       0.150
      -0.139
      -0.347
      -0.417
      -0.365
      -0.278
      -0.255
      -0.331
      -0.462
      -0.562
      -0.580
      -0.535
      -0.501
      -0.535
      -0.621
      -0.664
      -0.573
      -0.350
      -0.108
       0.014
      -0.040
      -0.202
      -0.328
      -0.299
      -0.090
       0.228
       0.536
       0.731
       0.787
       0.771
       0.820
       1.056
       1.483
       1.947
       2.207
       2.077
       1.558
       0.841
       0.181
      -0.262
      -0.495
      -0.633
      -0.779
      -0.940
      -1.042
      -1.026
      -0.910
      -0.781
      -0.722
      -0.755
      -0.827
      -0.850
      -0.760
      -0.548
      -0.274
      -0.026
       0.136
       0.217
       0.278
       0.378
       0.522
       0.652
       0.699
       0.645
       0.545
       0.489
       0.530
       0.635
       0.693
       0.601
       0.362
       0.103
      -0.005
       0.116
       0.398
       0.688
       0.869
       0.940
       0.981
       1.044
       1.086
       0.985
       0.653
       0.125
      -0.451
      -0.910
      -1.168
      -1.246
      -1.216
      -1.148
      -1.078
      -1.021
      -0.996
      -1.020
      -1.081
      -1.124
      -1.080
      -0.929
      -0.734
      -0.602
      -0.613
      -0.751
      -0.917
      -0.990
      -0.891
      -0.607
      -0.180
       0.310
       0.776
       1.138
       1.367
       1.502
       1.631
       1.818
       2.032
       2.133
       1.960
       1.448
       0.695
      -0.082
      -0.692
      -1.077
      -1.320
      -1.539
      -1.777
      -1.972
      -2.030
      -1.906
      -1.634
      -1.286
      -0.906
      -0.484
       0.007
       0.547
       1.029
       1.305
       1.284
       1.010
       0.646
       0.375
       0.291
       0.342
       0.374
       0.246
      -0.082
      -0.525
      -0.928
      -1.146
      -1.124
      -0.913
      -0.631
      -0.372
      -0.155
       0.071
       0.369
       0.765
       1.238
       1.729
       2.155
       2.423
       2.459
       2.242
       1.825
       1.319
       0.829
       0.396
      -0.018
      -0.479
      -1.013
      -1.556
      -1.984
      -2.199
      -2.204
      -2.087
      -1.934
      -1.754
      -1.472
      -1.019
      -0.431
       0.133
       0.470
       0.481
       0.254
       0.032
       0.064
       0.430
       0.989
       1.477
       1.698
       1.645
       1.483
       1.398
       1.448
       1.529
       1.471
       1.170
       0.661
       0.091
      -0.372
      -0.628
      -0.690
      -0.657
      -0.654
      -0.754
      -0.944
      -1.151
      -1.310
      -1.418
      -1.512
      -1.600
      -1.613
      -1.441
      -1.032
      -0.468
       0.070
       0.431
       0.605
       0.733
       0.975
       1.369
       1.785
       2.005
       1.865
       1.347
       0.582
      -0.210
      -0.826
      -1.173
      -1.307
      -1.383
      -1.522
      -1.718
      -1.842
      -1.735
      -1.319
      -0.644
       0.139
       0.853
       1.367
       1.620
       1.609
       1.368
       0.972
       0.523
       0.114
      -0.217
      -0.486
      -0.713
      -0.877
      -0.934
      -0.863
      -0.715
      -0.585
      -0.536
      -0.538
      -0.484
      -0.269
       0.120
       0.568
       0.892
       0.965
       0.830
       0.702
       0.831
       1.312
       1.975
       2.485
       2.564
       2.180
       1.556
       1.029
       0.838
       0.977
       1.200
       1.171
       0.671
      -0.250
      -1.297
      -2.100
      -2.436
      -2.334
      -2.011
      -1.690
      -1.455
      -1.238
      -0.937
      -0.536
      -0.117
       0.232
       0.514
       0.824
       1.240
       1.710
       2.038
       2.003
       1.521
       0.733
      -0.071
      -0.641
      -0.914
      -1.017
      -1.131
      -1.335
      -1.553
      -1.627
      -1.463
      -1.123
      -0.788
      -0.638
      -0.735
      -0.989
      -1.222
      -1.271
      -1.067
      -0.666
      -0.210
       0.142
       0.277
       0.171
      -0.099
      -0.378
      -0.506
      -0.404
      -0.118
       0.235
       0.553
       0.795
       0.965
       1.068
       1.081
       0.969
       0.719
       0.375
       0.028
      -0.229
      -0.333
      -0.259
      -0.018
       0.348
       0.769
       1.173
       1.506
       1.746
       1.887
       1.924
       1.848
       1.655
       1.362
       1.017
       0.692
       0.451
       0.299
       0.156
      -0.103
      -0.573
      -1.243
      -1.986
      -2.623
      -3.031
      -3.208
      -3.261
      -3.295
      -3.321
      -3.224
      -2.827
      -2.000
      -0.769
       0.659
       1.979
       2.950
       3.505
       3.738
       3.798
       3.765
       3.620
       3.290
       2.753
       2.095
       1.485
       1.071
       0.876
       0.774
       0.584
       0.207
      -0.292
      -0.727
      -0.915
      -0.802
      -0.512
      -0.278
      -0.293
      -0.569
      -0.920
      -1.085
      -0.929
      -0.558
      -0.256
      -0.296
      -0.743
      -1.399
      -1.918
      -2.029
      -1.702
      -1.164
      -0.732
      -0.592
      -0.673
      -0.733
      -0.575
      -0.214
       0.146
       0.302
       0.216
       0.028
      -0.083
      -0.040
       0.091
       0.183
       0.134
      -0.075
      -0.384
      -0.683
      -0.857
      -0.850
      -0.699
      -0.523
      -0.457
      -0.569
      -0.815
      -1.074
      -1.223
      -1.209
      -1.071
      -0.899
      -0.797
      -0.837
      -1.043
      -1.382
      -1.775
      -2.105
      -2.246
      -2.115
      -1.730
      -1.203
      -0.678
      -0.231
       0.168
       0.628
       1.265
       2.133
       3.189
       4.301
       5.278
       5.915
       6.065
       5.716
       5.009
       4.177
       3.410
       2.764
       2.179
       1.579
       0.970
       0.453
       0.157
       0.147
       0.358
       0.614
       0.717
       0.543
       0.117
      -0.405
      -0.824
      -0.996
      -0.891
      -0.574
      -0.152
       0.273
       0.633
       0.874
       0.946
       0.823
       0.540
       0.213
      -0.040
      -0.206
      -0.423
      -0.890
      -1.697
      -2.717
      -3.660
      -4.246
      -4.368
      -4.131
      -3.746
      -3.377
      -3.051
      -2.689
      -2.200
      -1.547
      -0.770
       0.027
       0.700
       1.107
       1.157
       0.870
       0.375
      -0.135
      -0.499
      -0.677
      -0.763
      -0.905
      -1.182
      -1.517
      -1.710
      -1.588
      -1.152
      -0.605
      -0.248
      -0.307
      -0.780
      -1.417
      -1.857
      -1.853
      -1.422
      -0.814
      -0.282
       0.127
       0.625
       1.503
       2.865
       4.485
       5.883
       6.616
       6.581
       6.088
       5.634
       5.518
       5.609
       5.442
       4.591
       3.013
       1.089
      -0.658
      -1.910
      -2.708
      -3.308
      -3.901
      -4.434
      -4.669
      -4.401
      -3.650
      -2.685
      -1.871
      -1.460
      -1.471
      -1.741
      -2.078
      -2.385
      -2.661
      -2.936
      -3.190
      -3.327
      -3.208
      -2.732
      -1.926
      -0.983
      -0.188
       0.232
       0.254
       0.080
       0.015
       0.281
       0.871
       1.563
       2.048
       2.124
       1.800
       1.265
       0.749
       0.399
       0.236
       0.185
       0.131
      -0.014
      -0.244
      -0.428
      -0.362
       0.085
       0.841
       1.623
       2.117
       2.183
       1.943
       1.680
       1.628
       1.802
       2.007
       2.012
       1.750
       1.363
       1.071
       0.983
       1.004
       0.920
       0.570
      -0.019
      -0.643
      -1.037
      -1.013
      -0.553
       0.194
       1.003
       1.701
       2.235
       2.637
       2.918
       3.024
       2.888
       2.510
       1.982
       1.417
       0.883
       0.379
      -0.125
      -0.649
      -1.189
      -1.721
      -2.201
      -2.560
      -2.716
      -2.636
      -2.385
      -2.124
      -1.999
      -2.022
      -2.056
      -1.946
      -1.693
      -1.522
      -1.762
      -2.575
      -3.763
      -4.817
      -5.209
      -4.726
      -3.590
      -2.312
      -1.390
      -1.041
      -1.100
      -1.147
      -0.768
       0.199
       1.576
       2.949
       3.914
       4.321
       4.342
       4.304
       4.399
       4.535
       4.413
       3.772
       2.621
       1.285
       0.212
      -0.325
      -0.418
      -0.453
      -0.834
      -1.696
      -2.804
      -3.729
      -4.152
      -4.061
      -3.702
      -3.351
      -3.102
      -2.829
      -2.321
      -1.485
      -0.457
       0.464
       1.015
       1.145
       1.041
       0.985
       1.157
       1.534
       1.959
       2.315
       2.624
       2.983
       3.409
       3.763
       3.811
       3.376
       2.437
       1.142
      -0.279
      -1.600
      -2.669
      -3.421
      -3.861
      -4.018
      -3.921
      -3.601
      -3.114
      -2.528
      -1.859
      -1.036
       0.040
       1.368
       2.752
       3.850
       4.364
       4.237
       3.722
       3.249
       3.152
       3.437
       3.758
       3.661
       2.911
       1.679
       0.435
      -0.390
      -0.689
      -0.690
      -0.673
      -0.698
      -0.566
      -0.044
       0.891
       1.999
       2.925
       3.398
       3.336
       2.837
       2.106
       1.349
       0.685
       0.111
      -0.452
      -1.059
      -1.637
      -1.986
      -1.884
      -1.265
      -0.319
       0.574
       1.064
       1.040
       0.661
       0.183
      -0.240
      -0.628
      -1.106
      -1.777
      -2.652
      -3.638
      -4.580
      -5.325
      -5.785
      -5.966
      -5.960
      -5.877
      -5.756
      -5.541
      -5.123
      -4.443
      -3.558
      -2.620
      -1.794
      -1.168
      -0.724
      -0.395
      -0.141
       0.015
       0.019
      -0.156
      -0.471
      -0.829
      -1.104
      -1.203
      -1.112
      -0.909
      -0.724
      -0.656
      -0.694
      -0.714
      -0.564
      -0.176
       0.389
       0.979
       1.464
       1.826
       2.153
       2.515
       2.856
       3.027
       2.934
       2.647
       2.353
       2.190
       2.132
       2.050
       1.903
       1.848
       2.139
       2.875
       3.834
       4.573
       4.737
       4.325
       3.680
       3.192
       2.969
       2.751
       2.153
       0.997
      -0.509
      -1.907
      -2.793
      -3.055
      -2.884
      -2.575
      -2.302
      -2.040
      -1.670
      -1.154
      -0.618
      -0.247
      -0.110
      -0.076
       0.081
       0.473
       0.991
       1.395
       1.516
       1.385
       1.218
       1.263
       1.622
       2.176
       2.666
       2.852
       2.639
       2.088
       1.335
       0.508
      -0.309
      -1.074
      -1.764
      -2.370
      -2.911
      -3.427
      -3.930
      -4.361
      -4.602
      -4.526
      -4.051
      -3.188
      -2.057
      -0.888
       0.042
       0.522
       0.551
       0.370
       0.322
       0.619
       1.187
       1.753
       2.078
       2.144
       2.130
       2.227
       2.462
       2.684
       2.725
       2.574
       2.390
       2.347
       2.458
       2.552
       2.406
       1.891
       1.047
       0.044
      -0.911
      -1.675
      -2.220
      -2.610
      -2.912
      -3.115
      -3.120
      -2.833
      -2.269
      -1.601
      -1.108
      -1.037
      -1.452
      -2.155
      -2.758
      -2.906
      -2.526
      -1.897
      -1.461
      -1.487
      -1.876
      -2.247
      -2.228
      -1.686
      -0.752
       0.319
       1.289
       2.006
       2.410
       2.530
       2.464
       2.319
       2.137
       1.877
       1.483
       0.987
       0.531
       0.295
       0.361
       0.651
       0.971
       1.138
       1.105
       0.994
       1.005
       1.273
       1.741
       2.154
       2.190
       1.653
       0.612
      -0.606
      -1.575
      -1.996
      -1.864
      -1.457
      -1.149
      -1.166
      -1.451
      -1.717
      -1.650
      -1.122
      -0.275
       0.580
       1.176
       1.475
       1.687
       2.078
       2.725
       3.420
       3.822
       3.711
       3.165
       2.532
       2.204
       2.353
       2.808
       3.153
       2.987
       2.179
       0.964
      -0.206
      -0.958
      -1.201
      -1.125
      -1.021
      -1.083
