Origin Time       30/8/2009 19:27:44	
Lat.              25.4 N	
Long.             94.8 E	
Depth (Km)         85.0
Magnitude         5.3
 Region           MYANMAR-India-Manipuir-Border                                    
 Above details taken from IMD 
     
Station Code      GUA
Station Lat.       26.190  N
Station Long.      91.746  E
Station Height(m)   55.2
Site Class        C   Vs30 between 200 m/sec to 375 m/sec *  
Record Time       30.08.2009 19:28:54.379
Sampling Rate     200. Hz
 Record Duration   68.450 Sec.
 Direction         E-W (E positive)
Max. Acceleration    -15.152 cm/sec**2
     
  * For reference see Site Classification link of website 
     
 Base Line Corrected and Low Pass Filtered (Cut Off at 35 Hz) Time History
 Acceleration data in cm/sec**2
    
[...]
       0.156
       0.143
       0.124
       0.120
       0.135
       0.157
       0.169
       0.151
       0.090
      -0.017
      -0.153
      -0.290
      -0.392
      -0.435
      -0.413
      -0.345
      -0.261
      -0.193
      -0.156
      -0.146
      -0.144
      -0.125
      -0.076
       0.007
       0.112
       0.223
       0.325
       0.409
       0.463
       0.479
       0.451
       0.380
       0.272
       0.137
      -0.010
      -0.146
      -0.241
      -0.273
      -0.236
      -0.146
      -0.033
       0.065
       0.119
       0.113
       0.058
      -0.017
      -0.069
      -0.064
       0.004
       0.108
       0.202
       0.248
       0.232
       0.171
       0.094
       0.023
      -0.037
      -0.092
      -0.146
      -0.187
      -0.196
      -0.162
      -0.092
      -0.017
       0.030
       0.029
      -0.014
      -0.066
      -0.093
      -0.083
      -0.050
      -0.015
       0.008
       0.022
       0.037
       0.059
       0.078
       0.069
       0.018
      -0.067
      -0.151
      -0.194
      -0.179
      -0.123
      -0.065
      -0.034
      -0.032
      -0.027
       0.007
       0.072
       0.143
       0.189
       0.201
       0.191
       0.178
       0.166
       0.141
       0.084
      -0.002
      -0.091
      -0.147
      -0.145
      -0.083
       0.019
       0.130
       0.221
       0.273
       0.283
       0.256
       0.204
       0.138
       0.064
      -0.015
      -0.097
      -0.176
      -0.235
      -0.257
      -0.230
      -0.164
      -0.092
      -0.057
      -0.084
      -0.162
      -0.251
      -0.307
      -0.307
      -0.256
      -0.174
      -0.086
      -0.012
       0.037
       0.058
       0.059
       0.049
       0.031
       0.004
      -0.028
      -0.056
      -0.066
      -0.049
      -0.012
       0.023
       0.038
       0.024
      -0.003
      -0.017
       0.010
       0.087
       0.202
       0.321
       0.409
       0.445
       0.425
       0.360
       0.271
       0.180
       0.104
       0.050
       0.012
      -0.018
      -0.046
      -0.069
      -0.083
      -0.088
      -0.093
      -0.110
      -0.137
      -0.153
      -0.133
      -0.063
       0.041
       0.152
       0.240
       0.296
       0.330
       0.349
       0.348
       0.305
       0.199
       0.036
      -0.145
      -0.291
      -0.358
      -0.340
      -0.270
      -0.208
      -0.198
      -0.250
      -0.336
      -0.411
      -0.439
      -0.406
      -0.321
      -0.208
      -0.092
       0.008
       0.087
       0.143
       0.175
       0.177
       0.146
       0.090
       0.031
      -0.004
      -0.005
       0.018
       0.039
       0.037
       0.001
      -0.067
      -0.157
      -0.250
      -0.326
      -0.366
      -0.355
      -0.286
      -0.163
      -0.006
       0.148
       0.260
       0.303
       0.279
       0.217
       0.159
       0.129
       0.128
       0.144
       0.167
       0.193
       0.222
       0.250
       0.269
       0.271
       0.255
       0.224
       0.185
       0.139
       0.092
       0.053
       0.034
       0.040
       0.062
       0.082
       0.090
       0.087
       0.081
       0.075
       0.065
       0.032
      -0.035
      -0.127
      -0.211
      -0.249
      -0.226
      -0.157
      -0.083
      -0.041
      -0.048
      -0.095
      -0.155
      -0.201
      -0.215
      -0.195
      -0.142
      -0.061
       0.041
       0.147
       0.229
       0.265
       0.253
       0.211
       0.169
       0.141
       0.120
       0.086
       0.028
      -0.050
      -0.131
      -0.196
      -0.232
      -0.233
      -0.203
      -0.153
      -0.099
      -0.060
      -0.049
      -0.062
      -0.077
      -0.062
      -0.006
       0.071
       0.127
       0.125
       0.065
      -0.016
      -0.068
      -0.058
       0.009
       0.096
       0.162
       0.176
       0.127
       0.029
      -0.089
      -0.191
      -0.249
      -0.252
      -0.208
      -0.138
      -0.061
       0.007
       0.065
       0.117
       0.166
       0.206
       0.220
       0.190
       0.112
       0.012
      -0.069
      -0.093
      -0.049
       0.045
       0.159
       0.263
       0.330
       0.341
       0.289
       0.183
       0.057
      -0.047
      -0.092
      -0.068
       0.002
       0.077
       0.117
       0.104
       0.048
      -0.020
      -0.063
      -0.062
      -0.025
       0.027
       0.077
       0.128
       0.190
       0.266
       0.338
       0.384
       0.391
       0.370
       0.338
       0.301
       0.244
       0.148
       0.014
      -0.124
      -0.221
      -0.248
      -0.214
      -0.156
      -0.111
      -0.092
      -0.086
      -0.082
      -0.081
      -0.100
      -0.143
      -0.200
      -0.248
      -0.278
      -0.299
      -0.331
      -0.385
      -0.459
      -0.532
      -0.580
      -0.585
      -0.545
      -0.474
      -0.393
      -0.323
      -0.276
      -0.250
      -0.225
      -0.172
      -0.060
       0.118
       0.332
       0.527
       0.647
       0.665
       0.590
       0.462
       0.326
       0.218
       0.149
       0.108
       0.071
       0.013
      -0.068
      -0.159
      -0.232
      -0.261
      -0.239
      -0.178
      -0.103
      -0.040
       0.002
       0.025
       0.043
       0.070
       0.114
       0.172
       0.228
       0.259
       0.246
       0.184
       0.092
       0.004
      -0.052
      -0.070
      -0.070
      -0.082
      -0.122
      -0.180
      -0.224
      -0.230
      -0.198
      -0.157
      -0.135
      -0.138
      -0.142
      -0.117
      -0.052
       0.030
       0.091
       0.099
       0.053
      -0.020
      -0.076
      -0.082
      -0.025
       0.076
       0.183
       0.249
       0.242
       0.167
       0.061
      -0.028
      -0.076
      -0.090
      -0.097
      -0.118
      -0.143
      -0.147
      -0.102
      -0.007
       0.118
       0.238
       0.316
       0.325
       0.259
       0.141
       0.016
      -0.067
      -0.089
      -0.062
      -0.023
      -0.006
      -0.023
      -0.064
      -0.113
      -0.156
      -0.187
      -0.203
      -0.198
      -0.164
      -0.100
      -0.010
       0.092
       0.190
       0.267
       0.308
       0.305
       0.259
       0.181
       0.087
      -0.010
      -0.098
      -0.162
      -0.189
      -0.174
      -0.125
      -0.064
      -0.012
       0.023
       0.052
       0.095
       0.168
       0.267
       0.363
       0.416
       0.401
       0.331
       0.248
       0.197
       0.199
       0.232
       0.254
       0.228
       0.149
       0.039
      -0.073
      -0.169
      -0.238
      -0.275
      -0.270
      -0.220
      -0.141
      -0.065
      -0.028
      -0.043
      -0.090
      -0.130
      -0.134
      -0.099
      -0.052
      -0.020
      -0.012
      -0.016
      -0.019
      -0.023
      -0.047
      -0.106
      -0.190
      -0.263
      -0.289
      -0.260
      -0.196
      -0.132
      -0.095
      -0.086
      -0.087
      -0.072
      -0.031
       0.028
       0.086
       0.129
       0.160
       0.193
       0.243
       0.316
       0.404
       0.496
       0.579
       0.641
       0.677
       0.688
       0.687
       0.686
       0.687
       0.673
       0.609
       0.463
       0.224
      -0.088
      -0.425
      -0.730
      -0.959
      -1.087
      -1.110
      -1.036
      -0.883
      -0.678
      -0.455
      -0.247
      -0.085
       0.019
       0.083
       0.147
       0.241
       0.354
       0.429
       0.404
       0.262
       0.058
      -0.118
      -0.207
      -0.220
      -0.224
      -0.270
      -0.358
      -0.432
      -0.432
      -0.333
      -0.157
       0.051
       0.264
       0.476
       0.684
       0.863
       0.968
       0.962
       0.845
       0.653
       0.436
       0.225
       0.024
      -0.176
      -0.374
      -0.551
      -0.681
      -0.753
      -0.774
      -0.761
      -0.729
      -0.679
      -0.611
      -0.527
      -0.431
      -0.328
      -0.206
      -0.046
       0.159
       0.378
       0.547
       0.592
       0.482
       0.248
      -0.027
      -0.254
      -0.380
      -0.409
      -0.381
      -0.340
      -0.311
      -0.297
      -0.283
      -0.256
      -0.216
      -0.180
      -0.176
      -0.215
      -0.285
      -0.353
      -0.390
      -0.391
      -0.379
      -0.384
      -0.421
      -0.471
      -0.488
      -0.428
      -0.276
      -0.066
       0.141
       0.285
       0.333
       0.295
       0.215
       0.145
       0.130
       0.182
       0.286
       0.408
       0.518
       0.608
       0.688
       0.769
       0.842
       0.879
       0.852
       0.747
       0.581
       0.381
       0.179
      -0.009
      -0.178
      -0.332
      -0.477
      -0.612
      -0.721
      -0.781
      -0.772
      -0.697
      -0.574
      -0.423
      -0.254
      -0.067
       0.136
       0.342
       0.538
       0.720
       0.891
       1.048
       1.173
       1.233
       1.198
       1.055
       0.814
       0.512
       0.205
      -0.035
      -0.153
      -0.131
       0.007
       0.207
       0.418
       0.598
       0.721
       0.772
       0.741
       0.633
       0.478
       0.325
       0.234
       0.241
       0.347
       0.526
       0.738
       0.950
       1.130
       1.245
       1.256
       1.141
       0.909
       0.599
       0.252
      -0.116
      -0.512
      -0.942
      -1.379
      -1.760
      -2.013
      -2.100
      -2.043
      -1.908
      -1.759
      -1.627
      -1.503
      -1.364
      -1.203
      -1.038
      -0.895
      -0.784
      -0.697
      -0.622
      -0.562
      -0.533
      -0.547
      -0.577
      -0.569
      -0.474
      -0.289
      -0.070
       0.103
       0.171
       0.129
       0.008
      -0.142
      -0.282
      -0.373
      -0.376
      -0.249
       0.026
       0.426
       0.890
       1.336
       1.700
       1.939
       2.027
       1.933
       1.632
       1.137
       0.529
      -0.065
      -0.537
      -0.850
      -1.052
      -1.218
      -1.381
      -1.503
      -1.502
      -1.321
      -0.971
      -0.539
      -0.148
       0.101
       0.164
       0.065
      -0.129
      -0.345
      -0.538
      -0.685
      -0.769
      -0.768
      -0.670
      -0.488
      -0.262
      -0.042
       0.140
       0.274
       0.369
       0.439
       0.505
       0.587
       0.692
       0.801
       0.871
       0.855
       0.731
       0.510
       0.226
      -0.078
      -0.357
      -0.567
      -0.669
      -0.640
      -0.492
      -0.271
      -0.053
       0.087
       0.112
       0.040
      -0.062
      -0.115
      -0.067
       0.084
       0.303
       0.551
       0.816
       1.102
       1.392
       1.628
       1.712
       1.563
       1.167
       0.603
       0.014
      -0.452
      -0.704
      -0.732
      -0.578
      -0.301
       0.056
       0.465
       0.895
       1.299
       1.606
       1.751
       1.692
       1.432
       1.016
       0.524
       0.055
      -0.291
      -0.443
      -0.383
      -0.153
       0.168
       0.488
       0.743
       0.914
       1.020
       1.088
       1.124
       1.100
       0.985
       0.784
       0.566
       0.449
       0.537
       0.854
       1.316
       1.780
       2.120
       2.285
       2.296
       2.211
       2.082
       1.921
       1.708
       1.402
       0.957
       0.352
      -0.398
      -1.230
      -2.048
      -2.766
      -3.347
      -3.817
      -4.249
      -4.714
      -5.241
      -5.801
      -6.332
      -6.788
      -7.164
      -7.484
      -7.765
      -7.984
      -8.069
      -7.919
      -7.439
      -6.583
      -5.379
      -3.921
      -2.340
      -0.759
       0.732
       2.083
       3.271
       4.295
       5.170
       5.933
       6.633
       7.310
       7.963
       8.530
       8.896
       8.922
       8.509
       7.666
       6.528
       5.315
       4.238
       3.420
       2.859
       2.457
       2.077
       1.607
       0.996
       0.268
      -0.493
      -1.177
      -1.694
      -2.025
      -2.227
      -2.400
      -2.613
      -2.851
      -3.022
      -3.009
      -2.762
      -2.326
      -1.815
      -1.336
      -0.926
      -0.564
      -0.212
       0.143
       0.477
       0.761
       0.988
       1.183
       1.395
       1.666
       2.006
       2.376
       2.684
       2.807
       2.624
       2.065
       1.141
      -0.050
      -1.355
      -2.608
      -3.673
      -4.464
      -4.943
      -5.115
      -5.036
      -4.820
      -4.608
      -4.507
      -4.524
      -4.570
      -4.506
      -4.225
      -3.689
      -2.914
      -1.951
      -0.879
       0.194
       1.134
       1.829
       2.239
       2.408
       2.418
       2.334
       2.170
       1.913
       1.554
       1.106
       0.607
       0.114
      -0.310
      -0.591
      -0.668
      -0.517
      -0.171
       0.296
       0.831
       1.449
       2.240
       3.318
       4.734
       6.413
       8.157
       9.702
      10.814
      11.358
      11.335
      10.854
      10.072
       9.118
       8.047
       6.846
       5.470
       3.886
       2.084
       0.083
      -2.063
      -4.257
      -6.376
      -8.305
      -9.980
     -11.403
     -12.616
     -13.649
     -14.476
     -15.013
     -15.152
     -14.814
     -13.987
     -12.731
     -11.154
      -9.377
      -7.507
      -5.633
      -3.817
      -2.093
      -0.474
       1.018
       2.328
       3.378
       4.116
       4.567
       4.835
       5.048
       5.289
       5.550
       5.755
       5.800
       5.615
       5.186
       4.560
       3.829
       3.117
       2.546
       2.195
       2.067
       2.088
       2.157
       2.207
       2.235
       2.294
       2.438
       2.681
       2.971
       3.221
       3.353
       3.326
       3.133
       2.787
       2.317
       1.766
       1.195
       0.666
       0.207
      -0.204
      -0.618
      -1.072
      -1.554
      -2.010
      -2.376
      -2.615
      -2.737
      -2.788
      -2.818
      -2.843
      -2.822
      -2.696
      -2.429
      -2.045
      -1.616
      -1.215
      -0.874
      -0.579
      -0.293
      -0.007
       0.250
       0.447
       0.592
       0.737
       0.949
       1.254
       1.625
       2.000
       2.327
       2.589
       2.787
       2.909
       2.928
       2.817
       2.567
       2.176
       1.630
       0.923
       0.090
      -0.758
      -1.470
      -1.937
      -2.147
      -2.187
      -2.172
      -2.170
      -2.175
      -2.141
      -2.037
      -1.865
      -1.639
      -1.363
      -1.012
      -0.549
       0.059
       0.828
       1.748
       2.765
       3.788
       4.689
       5.318
       5.537
       5.270
       4.560
       3.571
       2.535
       1.635
       0.923
       0.323
      -0.275
      -0.916
      -1.553
      -2.106
      -2.548
      -2.939
      -3.383
      -3.951
      -4.640
      -5.394
      -6.141
      -6.811
      -7.319
      -7.561
      -7.452
      -6.981
      -6.235
      -5.351
      -4.447
      -3.567
      -2.695
      -1.812
      -0.950
      -0.186
       0.412
       0.844
       1.180
       1.513
       1.904
       2.352
       2.796
       3.155
       3.370
       3.444
       3.442
       3.458
       3.563
       3.762
       3.999
       4.173
       4.180
       3.961
       3.536
       3.015
       2.555
       2.295
       2.291
       2.496
       2.786
       3.022
       3.103
       3.001
       2.748
       2.403
       2.001
       1.541
       0.995
       0.352
      -0.359
      -1.063
      -1.667
      -2.091
      -2.306
      -2.336
      -2.238
      -2.073
      -1.897
      -1.754
      -1.673
      -1.657
      -1.705
      -1.812
      -1.976
      -2.170
      -2.341
      -2.428
      -2.403
      -2.287
      -2.147
      -2.060
      -2.074
      -2.188
      -2.358
      -2.503
      -2.531
      -2.366
      -1.975
      -1.401
      -0.760
      -0.190
       0.210
       0.422
       0.500
       0.511
       0.486
       0.415
       0.290
       0.145
       0.065
       0.136
       0.385
       0.744
       1.093
       1.333
       1.458
       1.544
       1.686
       1.927
       2.237
       2.557
       2.855
       3.146
       3.459
       3.794
       4.099
       4.287
       4.275
       4.024
       3.549
       2.915
       2.210
       1.522
       0.918
       0.435
       0.087
      -0.123
      -0.185
      -0.084
       0.193
       0.625
       1.138
       1.610
       1.904
       1.918
       1.616
       1.035
       0.268
      -0.565
      -1.340
      -1.963
      -2.384
      -2.620
      -2.761
      -2.940
      -3.274
      -3.780
      -4.353
      -4.815
      -5.018
      -4.915
      -4.556
      -4.019
      -3.347
      -2.546
      -1.642
      -0.738
      -0.005
       0.400
       0.426
       0.148
      -0.288
      -0.763
      -1.235
      -1.713
      -2.198
      -2.640
      -2.956
      -3.083
      -3.020
      -2.831
      -2.609
      -2.423
      -2.278
      -2.117
      -1.865
      -1.475
      -0.959
      -0.376
       0.205
       0.736
       1.201
       1.605
       1.951
       2.224
       2.396
       2.436
       2.331
       2.094
       1.768
       1.420
       1.136
       1.007
       1.111
       1.476
       2.054
       2.715
       3.310
       3.744
       4.032
       4.266
       4.528
       4.822
       5.063
       5.142
       4.996
       4.639
       4.132
       3.550
       2.949
       2.374
       1.870
       1.468
       1.168
       0.920
       0.640
       0.265
      -0.206
      -0.703
      -1.137
      -1.465
      -1.703
      -1.883
      -1.990
      -1.957
      -1.724
      -1.323
      -0.901
      -0.659
      -0.734
      -1.118
      -1.665
      -2.196
      -2.607
      -2.909
      -3.179
      -3.473
      -3.776
      -4.031
      -4.201
      -4.296
      -4.359
      -4.412
      -4.440
      -4.406
      -4.274
      -4.028
      -3.660
      -3.168
      -2.554
      -1.842
      -1.077
      -0.322
       0.365
       0.950
       1.431
       1.845
       2.248
       2.683
       3.146
       3.576
       3.885
       4.014
       3.975
       3.844
       3.714
       3.642
       3.617
       3.571
       3.437
       3.200
       2.903
       2.617
       2.379
       2.165
       1.913
       1.581
       1.196
       0.853
       0.653
       0.631
       0.715
       0.758
       0.629
       0.298
      -0.143
      -0.536
      -0.757
      -0.787
      -0.706
      -0.626
      -0.621
      -0.698
      -0.804
      -0.868
      -0.843
      -0.735
      -0.599
      -0.509
      -0.516
      -0.638
      -0.859
      -1.146
      -1.464
      -1.790
      -2.120
      -2.463
      -2.818
      -3.156
      -3.418
      -3.555
      -3.568
      -3.512
      -3.458
      -3.423
      -3.349
      -3.138
      -2.727
      -2.141
      -1.483
      -0.860
      -0.317
       0.180
       0.678
       1.160
       1.534
       1.693
