Origin Time       26/2/2010 4:42:33	 
Lat.              28.5 N	
Long.             86.7 E	
Depth (Km)         28.0
Magnitude         5.4
 Region           Tibet                                                            
 Above details taken from IMD 
     
Station Code      GUA
Station Lat.       26.190  N
Station Long.      91.746  E
Station Height(m)   55.2
Site Class        C   Vs30 between 200 m/sec to 375 m/sec *  
Record Time       26.02.2010 04:44:19.814
Sampling Rate     200. Hz
 Record Duration   82.785 Sec.
 Direction         E-W (E positive)
Max. Acceleration     -2.635 cm/sec**2
     
  * For reference see Site Classification link of website 
     
 Base Line Corrected and Low Pass Filtered (Cut Off at 35 Hz) Time History
 Acceleration data in cm/sec**2
    
[...]
       0.041
      -0.002
      -0.038
      -0.056
      -0.057
      -0.046
      -0.034
      -0.024
      -0.020
      -0.016
      -0.011
      -0.004
       0.002
       0.006
       0.011
       0.020
       0.032
       0.040
       0.041
       0.029
       0.008
      -0.015
      -0.029
      -0.032
      -0.028
      -0.025
      -0.026
      -0.030
      -0.037
      -0.045
      -0.054
      -0.057
      -0.049
      -0.026
       0.005
       0.030
       0.037
       0.033
       0.034
       0.052
       0.080
       0.103
       0.110
       0.104
       0.093
       0.083
       0.074
       0.066
       0.057
       0.046
       0.033
       0.016
      -0.007
      -0.035
      -0.056
      -0.059
      -0.046
      -0.033
      -0.035
      -0.055
      -0.084
      -0.108
      -0.117
      -0.115
      -0.107
      -0.095
      -0.077
      -0.054
      -0.036
      -0.031
      -0.038
      -0.044
      -0.037
      -0.018
       0.004
       0.017
       0.016
       0.007
       0.001
       0.003
       0.007
       0.004
      -0.007
      -0.018
      -0.020
      -0.012
       0.005
       0.027
       0.046
       0.058
       0.062
       0.066
       0.078
       0.097
       0.116
       0.124
       0.115
       0.092
       0.067
       0.052
       0.051
       0.058
       0.066
       0.072
       0.070
       0.058
       0.032
      -0.001
      -0.031
      -0.051
      -0.064
      -0.073
      -0.081
      -0.085
      -0.081
      -0.069
      -0.051
      -0.031
      -0.009
       0.013
       0.023
       0.011
      -0.022
      -0.061
      -0.085
      -0.089
      -0.081
      -0.071
      -0.063
      -0.057
      -0.050
      -0.044
      -0.047
      -0.064
      -0.092
      -0.119
      -0.132
      -0.131
      -0.123
      -0.112
      -0.096
      -0.073
      -0.043
      -0.013
       0.003
       0.001
      -0.015
      -0.030
      -0.033
      -0.023
      -0.006
       0.017
       0.055
       0.111
       0.170
       0.212
       0.229
       0.236
       0.252
       0.285
       0.323
       0.344
       0.342
       0.326
       0.312
       0.304
       0.294
       0.269
       0.227
       0.177
       0.128
       0.085
       0.054
       0.040
       0.041
       0.047
       0.045
       0.019
      -0.033
      -0.103
      -0.176
      -0.243
      -0.298
      -0.338
      -0.359
      -0.368
      -0.375
      -0.392
      -0.419
      -0.450
      -0.476
      -0.491
      -0.495
      -0.491
      -0.482
      -0.469
      -0.445
      -0.408
      -0.357
      -0.296
      -0.228
      -0.158
      -0.090
      -0.025
       0.040
       0.110
       0.185
       0.262
       0.337
       0.402
       0.452
       0.485
       0.503
       0.513
       0.519
       0.524
       0.529
       0.534
       0.532
       0.519
       0.497
       0.470
       0.438
       0.398
       0.345
       0.279
       0.202
       0.121
       0.043
      -0.026
      -0.088
      -0.146
      -0.200
      -0.246
      -0.279
      -0.298
      -0.299
      -0.285
      -0.259
      -0.232
      -0.208
      -0.185
      -0.152
      -0.102
      -0.044
       0.001
       0.010
      -0.021
      -0.066
      -0.092
      -0.081
      -0.052
      -0.035
      -0.056
      -0.113
      -0.186
      -0.245
      -0.270
      -0.263
      -0.245
      -0.241
      -0.263
      -0.302
      -0.339
      -0.357
      -0.352
      -0.334
      -0.318
      -0.310
      -0.303
      -0.289
      -0.263
      -0.233
      -0.206
      -0.181
      -0.145
      -0.088
      -0.013
       0.062
       0.122
       0.171
       0.228
       0.303
       0.393
       0.483
       0.562
       0.623
       0.659
       0.668
       0.656
       0.637
       0.623
       0.615
       0.609
       0.600
       0.584
       0.562
       0.532
       0.490
       0.429
       0.346
       0.246
       0.139
       0.030
      -0.081
      -0.198
      -0.323
      -0.449
      -0.563
      -0.652
      -0.714
      -0.761
      -0.800
      -0.825
      -0.823
      -0.789
      -0.731
      -0.661
      -0.590
      -0.524
      -0.467
      -0.423
      -0.387
      -0.356
      -0.322
      -0.277
      -0.218
      -0.144
      -0.057
       0.040
       0.138
       0.229
       0.309
       0.380
       0.450
       0.521
       0.591
       0.651
       0.689
       0.694
       0.665
       0.612
       0.549
       0.482
       0.406
       0.314
       0.205
       0.086
      -0.025
      -0.112
      -0.171
      -0.206
      -0.225
      -0.233
      -0.226
      -0.201
      -0.160
      -0.107
      -0.048
       0.012
       0.071
       0.129
       0.184
       0.233
       0.269
       0.287
       0.288
       0.276
       0.256
       0.234
       0.203
       0.150
       0.066
      -0.042
      -0.152
      -0.247
      -0.323
      -0.382
      -0.423
      -0.441
      -0.435
      -0.414
      -0.390
      -0.366
      -0.336
      -0.294
      -0.240
      -0.189
      -0.156
      -0.144
      -0.144
      -0.141
      -0.132
      -0.118
      -0.104
      -0.091
      -0.079
      -0.071
      -0.072
      -0.086
      -0.112
      -0.137
      -0.149
      -0.138
      -0.106
      -0.059
       0.003
       0.082
       0.174
       0.279
       0.393
       0.512
       0.623
       0.707
       0.748
       0.744
       0.708
       0.658
       0.603
       0.540
       0.456
       0.341
       0.197
       0.037
      -0.121
      -0.265
      -0.389
      -0.489
      -0.562
      -0.605
      -0.616
      -0.600
      -0.568
      -0.535
      -0.511
      -0.489
      -0.459
      -0.408
      -0.338
      -0.260
      -0.191
      -0.141
      -0.102
      -0.062
      -0.016
       0.031
       0.072
       0.107
       0.136
       0.159
       0.169
       0.169
       0.171
       0.193
       0.248
       0.332
       0.431
       0.531
       0.630
       0.725
       0.810
       0.877
       0.915
       0.923
       0.900
       0.842
       0.740
       0.594
       0.418
       0.237
       0.075
      -0.056
      -0.164
      -0.261
      -0.347
      -0.406
      -0.420
      -0.381
      -0.302
      -0.207
      -0.127
      -0.083
      -0.079
      -0.107
      -0.157
      -0.220
      -0.290
      -0.359
      -0.423
      -0.484
      -0.546
      -0.610
      -0.670
      -0.719
      -0.755
      -0.777
      -0.790
      -0.796
      -0.787
      -0.750
      -0.679
      -0.584
      -0.486
      -0.401
      -0.330
      -0.264
      -0.203
      -0.156
      -0.142
      -0.166
      -0.211
      -0.251
      -0.270
      -0.274
      -0.274
      -0.267
      -0.235
      -0.159
      -0.033
       0.126
       0.296
       0.460
       0.610
       0.755
       0.901
       1.048
       1.197
       1.344
       1.482
       1.591
       1.648
       1.645
       1.591
       1.500
       1.383
       1.238
       1.066
       0.881
       0.712
       0.581
       0.492
       0.422
       0.344
       0.244
       0.129
       0.009
      -0.109
      -0.227
      -0.350
      -0.481
      -0.620
      -0.767
      -0.920
      -1.076
      -1.227
      -1.360
      -1.465
      -1.537
      -1.578
      -1.583
      -1.543
      -1.455
      -1.323
      -1.158
      -0.975
      -0.786
      -0.599
      -0.416
      -0.236
      -0.054
       0.127
       0.298
       0.445
       0.554
       0.617
       0.642
       0.649
       0.656
       0.670
       0.690
       0.708
       0.714
       0.697
       0.651
       0.578
       0.486
       0.386
       0.282
       0.173
       0.051
      -0.092
      -0.253
      -0.416
      -0.558
      -0.655
      -0.698
      -0.691
      -0.647
      -0.584
      -0.510
      -0.421
      -0.315
      -0.192
      -0.061
       0.059
       0.148
       0.187
       0.178
       0.135
       0.080
       0.029
      -0.009
      -0.023
      -0.005
       0.042
       0.106
       0.173
       0.237
       0.303
       0.378
       0.469
       0.569
       0.665
       0.741
       0.789
       0.812
       0.823
       0.832
       0.839
       0.827
       0.773
       0.659
       0.495
       0.306
       0.123
      -0.035
      -0.163
      -0.265
      -0.346
      -0.408
      -0.444
      -0.443
      -0.398
      -0.309
      -0.185
      -0.042
       0.100
       0.226
       0.327
       0.396
       0.421
       0.387
       0.288
       0.144
      -0.010
      -0.134
      -0.214
      -0.260
      -0.300
      -0.356
      -0.429
      -0.508
      -0.580
      -0.641
      -0.684
      -0.699
      -0.682
      -0.640
      -0.588
      -0.541
      -0.507
      -0.495
      -0.517
      -0.581
      -0.687
      -0.821
      -0.960
      -1.081
      -1.171
      -1.221
      -1.220
      -1.154
      -1.019
      -0.829
      -0.605
      -0.362
      -0.110
       0.144
       0.392
       0.620
       0.815
       0.966
       1.071
       1.135
       1.162
       1.155
       1.122
       1.073
       1.020
       0.970
       0.928
       0.900
       0.890
       0.902
       0.934
       0.984
       1.038
       1.076
       1.084
       1.060
       1.011
       0.948
       0.875
       0.791
       0.691
       0.563
       0.403
       0.218
       0.030
      -0.146
      -0.299
      -0.434
      -0.559
      -0.682
      -0.812
      -0.946
      -1.080
      -1.206
      -1.314
      -1.391
      -1.430
      -1.430
      -1.397
      -1.332
      -1.233
      -1.094
      -0.916
      -0.707
      -0.480
      -0.251
      -0.035
       0.155
       0.310
       0.427
       0.504
       0.542
       0.544
       0.516
       0.472
       0.428
       0.401
       0.391
       0.393
       0.400
       0.416
       0.445
       0.483
       0.523
       0.562
       0.596
       0.619
       0.622
       0.594
       0.534
       0.455
       0.373
       0.300
       0.233
       0.160
       0.083
       0.017
      -0.019
      -0.017
       0.014
       0.056
       0.091
       0.104
       0.091
       0.054
       0.007
      -0.036
      -0.063
      -0.076
      -0.096
      -0.147
      -0.239
      -0.361
      -0.490
      -0.608
      -0.712
      -0.806
      -0.898
      -0.994
      -1.089
      -1.168
      -1.211
      -1.208
      -1.156
      -1.065
      -0.950
      -0.817
      -0.666
      -0.484
      -0.269
      -0.031
       0.203
       0.412
       0.582
       0.718
       0.830
       0.932
       1.030
       1.121
       1.199
       1.261
       1.312
       1.356
       1.394
       1.427
       1.449
       1.453
       1.427
       1.373
       1.303
       1.237
       1.188
       1.160
       1.149
       1.143
       1.127
       1.078
       0.967
       0.773
       0.487
       0.125
      -0.284
      -0.700
      -1.087
      -1.410
      -1.654
      -1.827
      -1.951
      -2.044
      -2.113
      -2.147
      -2.135
      -2.072
      -1.967
      -1.837
      -1.693
      -1.537
      -1.364
      -1.172
      -0.967
      -0.756
      -0.547
      -0.350
      -0.184
      -0.067
      -0.008
      -0.003
      -0.037
      -0.085
      -0.123
      -0.133
      -0.108
      -0.049
       0.038
       0.143
       0.259
       0.381
       0.508
       0.634
       0.753
       0.859
       0.953
       1.039
       1.118
       1.194
       1.273
       1.354
       1.424
       1.456
       1.430
       1.336
       1.184
       0.997
       0.805
       0.638
       0.511
       0.429
       0.384
       0.358
       0.324
       0.259
       0.147
      -0.013
      -0.210
      -0.425
      -0.636
      -0.829
      -0.991
      -1.112
      -1.178
      -1.174
      -1.102
      -0.985
      -0.851
      -0.724
      -0.621
      -0.550
      -0.511
      -0.496
      -0.487
      -0.464
      -0.411
      -0.326
      -0.219
      -0.105
       0.007
       0.110
       0.192
       0.242
       0.252
       0.227
       0.180
       0.133
       0.108
       0.117
       0.155
       0.205
       0.247
       0.275
       0.292
       0.301
       0.304
       0.295
       0.267
       0.219
       0.154
       0.082
       0.014
      -0.039
      -0.071
      -0.084
      -0.086
      -0.084
      -0.071
      -0.033
       0.038
       0.133
       0.232
       0.317
       0.378
       0.420
       0.452
       0.485
       0.514
       0.529
       0.514
       0.461
       0.374
       0.256
       0.118
      -0.035
      -0.195
      -0.352
      -0.487
      -0.585
      -0.637
      -0.650
      -0.641
      -0.632
      -0.644
      -0.691
      -0.773
      -0.879
      -0.994
      -1.104
      -1.196
      -1.261
      -1.293
      -1.292
      -1.263
      -1.201
      -1.092
      -0.917
      -0.668
      -0.353
       0.000
       0.363
       0.716
       1.051
       1.364
       1.639
       1.861
       2.026
       2.146
       2.245
       2.332
       2.399
       2.423
       2.384
       2.275
       2.107
       1.903
       1.677
       1.438
       1.189
       0.936
       0.686
       0.455
       0.263
       0.123
       0.028
      -0.050
      -0.141
      -0.268
      -0.435
      -0.638
      -0.863
      -1.097
      -1.323
      -1.533
      -1.716
      -1.865
      -1.980
      -2.065
      -2.134
      -2.208
      -2.304
      -2.427
      -2.552
      -2.635
      -2.630
      -2.508
      -2.260
      -1.900
      -1.457
      -0.975
      -0.495
      -0.050
       0.342
       0.676
       0.959
       1.205
       1.423
       1.610
       1.757
       1.858
       1.919
       1.952
       1.971
       1.981
       1.975
       1.938
       1.863
       1.754
       1.623
       1.481
       1.338
       1.198
       1.058
       0.896
       0.692
       0.435
       0.137
      -0.177
      -0.479
      -0.751
      -0.991
      -1.205
      -1.402
      -1.577
      -1.717
      -1.804
      -1.825
      -1.779
      -1.682
      -1.552
      -1.402
      -1.233
      -1.040
      -0.823
      -0.586
      -0.331
      -0.062
       0.215
       0.486
       0.737
       0.955
       1.132
       1.268
       1.368
       1.433
       1.452
       1.418
       1.336
       1.225
       1.108
       0.994
       0.873
       0.724
       0.532
       0.303
       0.065
      -0.150
      -0.326
      -0.466
      -0.586
      -0.700
      -0.813
      -0.923
      -1.024
      -1.110
      -1.174
      -1.215
      -1.237
      -1.248
      -1.248
      -1.225
      -1.164
      -1.061
      -0.925
      -0.772
      -0.609
      -0.434
      -0.245
      -0.041
       0.178
       0.415
       0.668
       0.920
       1.144
       1.311
       1.405
       1.428
       1.398
       1.331
       1.233
       1.102
       0.940
       0.761
       0.581
       0.410
       0.250
       0.103
      -0.035
      -0.165
      -0.290
      -0.408
      -0.514
      -0.602
      -0.665
      -0.703
      -0.728
      -0.757
      -0.797
      -0.835
      -0.842
      -0.794
      -0.691
      -0.554
      -0.426
      -0.342
      -0.318
      -0.345
      -0.405
      -0.479
      -0.551
      -0.614
      -0.658
      -0.678
      -0.665
      -0.610
      -0.494
      -0.301
      -0.026
       0.314
       0.675
       1.005
       1.262
       1.430
       1.515
       1.533
       1.496
       1.419
       1.314
       1.193
       1.073
       0.970
       0.898
       0.859
       0.844
       0.837
       0.813
       0.749
       0.631
       0.462
       0.265
       0.067
      -0.114
      -0.270
      -0.404
      -0.525
      -0.647
      -0.780
      -0.925
      -1.074
      -1.210
      -1.318
      -1.387
      -1.417
      -1.408
      -1.357
      -1.267
      -1.145
      -1.006
      -0.860
      -0.706
      -0.542
      -0.366
      -0.185
      -0.005
       0.169
       0.335
       0.493
       0.641
       0.773
       0.877
       0.940
       0.961
       0.944
       0.898
       0.829
       0.736
       0.616
       0.469
       0.305
       0.146
       0.009
      -0.105
      -0.202
      -0.286
      -0.360
      -0.427
      -0.487
      -0.539
      -0.581
      -0.602
      -0.590
      -0.525
      -0.399
      -0.217
       0.003
       0.239
       0.470
       0.684
       0.870
       1.024
       1.135
       1.187
       1.167
       1.077
       0.937
       0.777
       0.620
       0.477
       0.344
       0.212
       0.079
      -0.054
      -0.183
      -0.307
      -0.427
      -0.535
      -0.626
      -0.700
      -0.770
      -0.846
      -0.932
      -1.019
      -1.096
      -1.151
      -1.188
      -1.223
      -1.264
      -1.305
      -1.327
      -1.305
      -1.224
      -1.073
      -0.854
      -0.576
      -0.266
       0.042
       0.316
       0.531
       0.682
       0.780
       0.843
       0.885
       0.912
       0.926
       0.923
       0.899
       0.853
       0.790
       0.722
       0.657
       0.592
       0.525
       0.456
       0.394
       0.345
       0.311
       0.294
       0.294
       0.313
       0.345
       0.375
       0.379
       0.337
       0.246
       0.118
      -0.030
      -0.178
      -0.310
      -0.409
      -0.463
      -0.467
      -0.424
      -0.352
      -0.270
      -0.200
      -0.143
      -0.085
      -0.005
       0.105
       0.235
       0.365
       0.474
       0.551
       0.592
       0.599
       0.563
       0.475
       0.326
       0.114
      -0.150
      -0.436
      -0.701
      -0.894
      -0.980
      -0.952
      -0.835
      -0.671
      -0.505
      -0.366
      -0.262
      -0.178
      -0.093
       0.002
       0.102
       0.195
       0.270
       0.321
       0.344
       0.338
       0.309
       0.262
       0.203
       0.137
       0.056
      -0.052
      -0.189
      -0.333
      -0.448
      -0.504
      -0.491
      -0.423
      -0.320
      -0.197
      -0.056
       0.104
       0.271
       0.420
       0.522
       0.562
       0.542
       0.479
       0.397
       0.319
       0.265
       0.238
       0.227
       0.213
       0.183
       0.132
       0.064
      -0.021
      -0.127
      -0.257
      -0.405
      -0.553
      -0.681
      -0.774
      -0.823
      -0.814
      -0.733
      -0.581
      -0.382
      -0.168
       0.032
       0.211
       0.372
       0.521
       0.651
       0.745
       0.786
       0.773
       0.726
       0.672
       0.629
       0.600
       0.574
       0.538
       0.483
       0.414
       0.338
       0.258
       0.172
       0.083
      -0.002
      -0.071
      -0.118
      -0.144
      -0.152
      -0.142
      -0.119
      -0.086
      -0.046
      -0.008
       0.016
       0.010
      -0.037
      -0.133
      -0.281
      -0.470
      -0.680
      -0.883
      -1.054
      -1.174
      -1.238
      -1.254
      -1.242
      -1.221
      -1.203
      -1.180
      -1.136
      -1.048
      -0.903
      -0.697
      -0.441
      -0.154
       0.149
       0.451
       0.730
       0.961
       1.124
       1.206
       1.205
       1.136
       1.033
       0.931
       0.856
       0.818
