Origin Time       21/9/2009 8:53:04	 
Lat.              27.3 N	
Long.             91.5 E	
Depth (Km)          8.0
Magnitude         6.2
 Region           BHUTAN                                                           
 Above details taken from IMD 
     
Station Code      GUA
Station Lat.       26.190  N
Station Long.      91.746  E
Station Height(m)   55.2
Site Class        C   Vs30 between 200 m/sec to 375 m/sec *  
Record Time       21.09.2009 08:53:14.619
Sampling Rate     200. Hz
 Record Duration  107.280 Sec.
 Direction         E-W (E positive)
Max. Acceleration    -27.943 cm/sec**2
     
  * For reference see Site Classification link of website 
     
 Base Line Corrected and Low Pass Filtered (Cut Off at 35 Hz) Time History
 Acceleration data in cm/sec**2
    
[...]
       6.385
       6.332
       5.667
       4.447
       2.898
       1.388
       0.315
      -0.045
       0.345
       1.260
       2.316
       3.158
       3.630
       3.817
       3.934
       4.148
       4.464
       4.746
       4.829
       4.615
       4.091
       3.306
       2.324
       1.221
       0.085
      -0.987
      -1.921
      -2.697
      -3.357
      -3.965
      -4.562
      -5.152
      -5.710
      -6.203
      -6.613
      -6.925
      -7.111
      -7.111
      -6.837
      -6.233
      -5.337
      -4.311
      -3.403
      -2.847
      -2.762
      -3.098
      -3.658
      -4.161
      -4.321
      -3.914
      -2.834
      -1.125
       1.012
       3.282
       5.396
       7.172
       8.579
       9.676
      10.512
      11.042
      11.138
      10.661
       9.554
       7.889
       5.856
       3.723
       1.780
       0.273
      -0.647
      -0.948
      -0.689
       0.012
       1.019
       2.182
       3.346
       4.351
       5.062
       5.398
       5.359
       5.008
       4.424
       3.648
       2.663
       1.428
      -0.058
      -1.699
      -3.316
      -4.727
      -5.840
      -6.691
      -7.399
      -8.079
      -8.776
      -9.457
     -10.041
     -10.450
     -10.639
     -10.608
     -10.383
      -9.994
      -9.449
      -8.726
      -7.777
      -6.559
      -5.048
      -3.238
      -1.121
       1.296
       3.949
       6.682
       9.269
      11.493
      13.225
      14.449
      15.227
      15.623
      15.684
      15.455
      15.016
      14.445
      13.740
      12.771
      11.312
       9.172
       6.320
       2.931
      -0.664
      -4.068
      -6.908
      -8.906
      -9.935
     -10.067
      -9.560
      -8.785
      -8.107
      -7.767
      -7.839
      -8.244
      -8.804
      -9.310
      -9.581
      -9.498
      -9.039
      -8.269
      -7.311
      -6.287
      -5.309
      -4.483
      -3.928
      -3.735
      -3.900
      -4.289
      -4.685
      -4.877
      -4.737
      -4.234
      -3.397
      -2.283
      -0.973
       0.421
       1.762
       2.911
       3.765
       4.270
       4.414
       4.205
       3.659
       2.801
       1.662
       0.289
      -1.243
      -2.798
      -4.177
      -5.156
      -5.574
      -5.394
      -4.709
      -3.676
      -2.436
      -1.070
       0.367
       1.768
       2.940
       3.657
       3.763
       3.282
       2.436
       1.551
       0.898
       0.585
       0.559
       0.710
       0.988
       1.450
       2.210
       3.359
       4.893
       6.681
       8.496
      10.091
      11.283
      12.008
      12.335
      12.409
      12.362
      12.231
      11.933
      11.318
      10.269
       8.797
       7.060
       5.293
       3.693
       2.344
       1.245
       0.392
      -0.154
      -0.294
       0.011
       0.668
       1.463
       2.142
       2.521
       2.547
       2.289
       1.860
       1.325
       0.654
      -0.260
      -1.521
      -3.146
      -5.000
      -6.805
      -8.221
      -8.967
      -8.928
      -8.177
      -6.939
      -5.498
      -4.111
      -2.952
      -2.123
      -1.685
      -1.692
      -2.176
      -3.085
      -4.246
      -5.376
      -6.177
      -6.465
      -6.234
      -5.627
      -4.816
      -3.910
      -2.922
      -1.820
      -0.591
       0.726
       2.037
       3.216
       4.120
       4.598
       4.510
       3.773
       2.425
       0.661
      -1.195
      -2.780
      -3.792
      -4.077
      -3.656
      -2.712
      -1.536
      -0.451
       0.255
       0.393
      -0.089
      -1.068
      -2.262
      -3.285
      -3.760
      -3.438
      -2.281
      -0.472
       1.663
       3.778
       5.627
       7.135
       8.376
       9.494
      10.599
      11.688
      12.653
      13.332
      13.583
      13.326
      12.553
      11.335
       9.816
       8.192
       6.664
       5.377
       4.380
       3.626
       3.020
       2.473
       1.932
       1.357
       0.675
      -0.248
      -1.578
      -3.425
      -5.745
      -8.298
     -10.723
     -12.683
     -14.009
     -14.758
     -15.141
     -15.386
     -15.602
     -15.724
     -15.570
     -14.967
     -13.853
     -12.321
     -10.573
      -8.850
      -7.341
      -6.125
      -5.162
      -4.342
      -3.572
      -2.839
      -2.210
      -1.756
      -1.470
      -1.220
      -0.780
       0.047
       1.311
       2.865
       4.433
       5.737
       6.615
       7.058
       7.167
       7.053
       6.741
       6.139
       5.077
       3.411
       1.130
      -1.591
      -4.411
      -6.890
      -8.598
      -9.216
      -8.618
      -6.911
      -4.408
      -1.537
       1.281
       3.727
       5.622
       6.906
       7.612
       7.845
       7.770
       7.574
       7.416
       7.371
       7.420
       7.499
       7.559
       7.595
       7.621
       7.606
       7.436
       6.958
       6.072
       4.810
       3.313
       1.727
       0.126
      -1.483
      -3.046
      -4.384
      -5.232
      -5.379
      -4.818
      -3.754
      -2.492
      -1.260
      -0.121
       1.000
       2.176
       3.376
       4.435
       5.124
       5.269
       4.847
       4.012
       3.005
       2.013
       1.061
       0.023
      -1.248
      -2.764
      -4.326
      -5.580
      -6.178
      -5.963
      -5.074
      -3.900
      -2.907
      -2.395
      -2.335
      -2.386
      -2.084
      -1.117
       0.483
       2.345
       3.940
       4.833
       4.864
       4.197
       3.223
       2.385
       1.987
       2.077
       2.445
       2.749
       2.706
       2.247
       1.539
       0.850
       0.365
       0.078
      -0.164
      -0.521
      -1.020
      -1.509
      -1.720
      -1.411
      -0.504
       0.829
       2.201
       3.158
       3.383
       2.835
       1.740
       0.441
      -0.788
      -1.855
      -2.811
      -3.743
      -4.681
      -5.569
      -6.293
      -6.722
      -6.771
      -6.448
      -5.872
      -5.254
      -4.828
      -4.758
      -5.051
      -5.524
      -5.858
      -5.742
      -5.024
      -3.815
      -2.455
      -1.357
      -0.803
      -0.820
      -1.182
      -1.531
      -1.510
      -0.867
       0.491
       2.481
       4.861
       7.292
       9.441
      11.071
      12.096
      12.549
      12.503
      12.018
      11.139
       9.957
       8.633
       7.362
       6.285
       5.416
       4.650
       3.824
       2.775
       1.366
      -0.514
      -2.917
      -5.776
      -8.858
     -11.796
     -14.213
     -15.857
     -16.660
     -16.670
     -15.953
     -14.560
     -12.598
     -10.318
      -8.126
      -6.436
      -5.485
      -5.230
      -5.397
      -5.650
      -5.740
      -5.552
      -5.058
      -4.238
      -3.065
      -1.561
       0.162
       1.916
       3.535
       4.949
       6.193
       7.334
       8.381
       9.242
       9.768
       9.862
       9.582
       9.141
       8.786
       8.669
       8.800
       9.096
       9.475
       9.889
      10.291
      10.578
      10.575
      10.113
       9.120
       7.692
       6.047
       4.414
       2.915
       1.518
       0.080
      -1.547
      -3.387
      -5.277
      -6.913
      -8.011
      -8.480
      -8.522
      -8.535
      -8.890
      -9.702
     -10.757
     -11.649
     -12.034
     -11.823
     -11.200
     -10.466
      -9.857
      -9.448
      -9.183
      -8.976
      -8.789
      -8.630
      -8.515
      -8.433
      -8.350
      -8.237
      -8.090
      -7.919
      -7.724
      -7.475
      -7.133
      -6.689
      -6.190
      -5.725
      -5.360
      -5.077
      -4.743
      -4.161
      -3.152
      -1.648
       0.269
       2.410
       4.565
       6.603
       8.511
      10.367
      12.279
      14.297
      16.353
      18.240
      19.672
      20.405
      20.360
      19.689
      18.740
      17.950
      17.688
      18.137
      19.224
      20.626
      21.854
      22.389
      21.858
      20.168
      17.519
      14.293
      10.885
       7.569
       4.481
       1.671
      -0.835
      -3.035
      -4.975
      -6.766
      -8.524
     -10.305
     -12.066
     -13.697
     -15.076
     -16.087
     -16.599
     -16.466
     -15.584
     -13.988
     -11.907
      -9.719
      -7.828
      -6.551
      -6.070
      -6.453
      -7.670
      -9.568
     -11.845
     -14.080
     -15.839
     -16.805
     -16.850
     -16.027
     -14.499
     -12.484
     -10.240
      -8.060
      -6.245
      -5.028
      -4.478
      -4.431
      -4.522
      -4.303
      -3.429
      -1.774
       0.544
       3.269
       6.124
       8.893
      11.425
      13.584
      15.234
      16.261
      16.623
      16.396
      15.768
      14.972
      14.204
      13.578
      13.125
      12.833
      12.691
      12.707
      12.880
      13.145
      13.324
      13.120
      12.187
      10.274
       7.372
       3.793
       0.104
      -3.077
      -5.317
      -6.506
      -6.822
      -6.591
      -6.118
      -5.601
      -5.143
      -4.813
      -4.699
      -4.905
      -5.516
      -6.554
      -7.959
      -9.591
     -11.253
     -12.732
     -13.855
     -14.523
     -14.721
     -14.489
     -13.875
     -12.909
     -11.598
      -9.936
      -7.925
      -5.581
      -2.944
      -0.104
       2.766
       5.412
       7.554
       8.974
       9.584
       9.431
       8.650
       7.416
       5.924
       4.398
       3.096
       2.258
       2.023
       2.358
       3.072
       3.892
       4.557
       4.882
       4.766
       4.174
       3.121
       1.696
       0.077
      -1.487
      -2.735
      -3.488
      -3.705
      -3.486
      -3.025
      -2.541
      -2.216
      -2.175
      -2.507
      -3.273
      -4.461
      -5.915
      -7.324
      -8.332
      -8.693
      -8.388
      -7.611
      -6.656
      -5.790
      -5.164
      -4.797
      -4.588
      -4.347
      -3.845
      -2.888
      -1.414
       0.458
       2.460
       4.298
       5.780
       6.853
       7.567
       7.991
       8.160
       8.079
       7.739
       7.147
       6.348
       5.450
       4.603
       3.920
       3.373
       2.779
       1.920
       0.710
      -0.714
      -2.053
      -3.008
      -3.394
      -3.131
      -2.167
      -0.455
       1.958
       4.824
       7.681
       9.993
      11.354
      11.619
      10.926
       9.593
       7.999
       6.487
       5.314
       4.653
       4.589
       5.080
       5.924
       6.746
       7.081
       6.503
       4.783
       1.978
      -1.575
      -5.363
      -8.836
     -11.537
     -13.174
     -13.633
     -12.975
     -11.424
      -9.347
      -7.185
      -5.331
      -3.996
      -3.132
      -2.489
      -1.782
      -0.869
       0.191
       1.221
       2.086
       2.784
       3.397
       3.969
       4.419
       4.565
       4.254
       3.456
       2.271
       0.863
      -0.603
      -1.961
      -3.058
      -3.794
      -4.215
      -4.544
      -5.086
      -6.057
      -7.426
      -8.918
     -10.145
     -10.784
     -10.680
      -9.843
      -8.387
      -6.475
      -4.316
      -2.177
      -0.349
       0.961
       1.747
       2.222
       2.708
       3.436
       4.423
       5.491
       6.421
       7.100
       7.556
       7.868
       8.064
       8.087
       7.865
       7.390
       6.733
       5.995
       5.253
       4.550
       3.925
       3.425
       3.067
       2.767
       2.324
       1.494
       0.152
      -1.601
      -3.468
      -5.109
      -6.289
      -6.934
      -7.092
      -6.867
      -6.384
      -5.776
      -5.176
      -4.676
      -4.311
      -4.058
      -3.861
      -3.667
      -3.452
      -3.227
      -3.033
      -2.908
      -2.823
      -2.627
      -2.085
      -0.994
       0.677
       2.731
       4.831
       6.668
       8.084
       9.070
       9.650
       9.788
       9.416
       8.557
       7.443
       6.479
       6.089
       6.506
       7.642
       9.106
      10.362
      10.940
      10.608
       9.412
       7.578
       5.369
       2.967
       0.458
      -2.078
      -4.474
      -6.489
      -7.921
      -8.743
      -9.124
      -9.321
      -9.519
      -9.747
      -9.911
      -9.915
      -9.744
      -9.470
      -9.189
      -8.947
      -8.704
      -8.336
      -7.669
      -6.551
      -4.924
      -2.864
      -0.554
       1.781
       3.937
       5.770
       7.190
       8.157
       8.661
       8.714
       8.343
       7.576
       6.424
       4.897
       3.029
       0.925
      -1.235
      -3.218
      -4.808
      -5.894
      -6.522
      -6.887
      -7.227
      -7.692
      -8.266
      -8.787
      -9.067
      -9.010
      -8.666
      -8.166
      -7.590
      -6.895
      -5.932
      -4.556
      -2.731
      -0.568
       1.725
       3.930
       5.909
       7.648
       9.224
      10.708
      12.073
      13.174
      13.831
      13.935
      13.515
      12.750
      11.916
      11.308
      11.145
      11.499
      12.266
      13.214
      14.061
      14.555
      14.509
      13.806
      12.404
      10.348
       7.774
       4.894
       1.953
      -0.827
      -3.302
      -5.434
      -7.294
      -9.022
     -10.780
     -12.712
     -14.909
     -17.376
     -20.006
     -22.598
     -24.896
     -26.661
     -27.712
     -27.943
     -27.324
     -25.883
     -23.705
     -20.945
     -17.835
     -14.655
     -11.673
      -9.067
      -6.875
      -5.000
      -3.275
      -1.568
       0.134
       1.731
       3.094
       4.179
       5.079
       5.976
       7.038
       8.341
       9.851
      11.454
      12.988
      14.258
      15.098
      15.436
      15.332
      14.939
      14.416
      13.871
      13.363
      12.936
      12.636
      12.503
      12.552
      12.761
      13.040
      13.214
      13.049
      12.330
      10.976
       9.105
       7.018
       5.062
       3.462
       2.209
       1.080
      -0.219
      -1.867
      -3.819
      -5.811
      -7.481
      -8.535
      -8.874
      -8.612
      -7.975
      -7.153
      -6.191
      -5.022
      -3.590
      -1.956
      -0.315
       1.094
       2.088
       2.572
       2.513
       1.909
       0.821
      -0.605
      -2.131
      -3.498
      -4.518
      -5.107
      -5.253
      -4.957
      -4.223
      -3.122
      -1.847
      -0.690
       0.093
       0.423
       0.431
       0.340
       0.293
       0.249
       0.021
      -0.562
      -1.508
      -2.628
      -3.641
      -4.314
      -4.551
      -4.370
      -3.850
      -3.080
      -2.158
      -1.214
      -0.403
       0.102
       0.131
      -0.457
      -1.712
      -3.527
      -5.601
      -7.495
      -8.789
      -9.250
      -8.933
      -8.120
      -7.129
      -6.108
      -4.954
      -3.422
      -1.349
       1.171
       3.772
       5.979
       7.425
       8.012
       7.916
       7.455
       6.907
       6.392
       5.893
       5.366
       4.856
       4.492
       4.399
       4.583
       4.901
       5.166
       5.300
       5.399
       5.634
       6.082
       6.607
       6.913
       6.710
       5.893
       4.610
       3.202
       2.053
       1.445
       1.466
       2.001
       2.767
       3.409
       3.611
       3.188
       2.110
       0.473
      -1.548
      -3.736
      -5.848
      -7.639
      -8.891
      -9.460
      -9.315
      -8.547
      -7.341
      -5.936
      -4.582
      -3.484
      -2.742
      -2.321
      -2.090
      -1.925
      -1.804
      -1.799
      -2.002
      -2.412
      -2.891
      -3.193
      -3.060
      -2.329
      -1.004
       0.755
       2.702
       4.590
       6.210
       7.397
       8.013
       7.968
       7.257
       5.981
       4.314
       2.450
       0.561
      -1.190
      -2.652
      -3.697
      -4.266
      -4.411
      -4.278
      -4.033
      -3.778
      -3.522
      -3.226
      -2.873
      -2.518
      -2.264
      -2.211
      -2.391
      -2.737
      -3.104
      -3.338
      -3.334
      -3.058
      -2.540
      -1.847
      -1.087
      -0.388
       0.135
       0.453
       0.664
       0.961
       1.519
       2.386
       3.450
       4.516
       5.423
       6.116
       6.623
       6.995
       7.247
       7.352
       7.263
       6.953
       6.460
       5.887
       5.352
       4.880
       4.324
       3.394
       1.818
      -0.474
      -3.240
      -5.994
      -8.205
      -9.527
      -9.933
      -9.699
      -9.265
      -9.051
      -9.303
     -10.027
     -11.013
     -11.931
     -12.483
     -12.540
     -12.209
     -11.764
     -11.460
     -11.351
     -11.205
     -10.610
      -9.187
      -6.794
      -3.611
      -0.058
       3.401
       6.459
       9.065
      11.368
      13.562
      15.721
      17.727
      19.318
      20.218
      20.263
      19.462
      17.957
      15.936
      13.585
      11.080
       8.597
       6.292
       4.258
       2.504
       0.983
      -0.354
      -1.507
      -2.428
      -3.071
      -3.458
      -3.716
      -4.059
      -4.704
      -5.772
      -7.208
      -8.793
     -10.246
     -11.355
     -12.068
     -12.489
     -12.781
     -13.043
     -13.215
     -13.100
     -12.474
     -11.224
      -9.412
      -7.226
      -4.871
      -2.485
      -0.132
       2.158
       4.340
       6.332
       8.042
       9.411
      10.436
      11.164
      11.662
      12.002
      12.252
      12.467
      12.672
      12.847
      12.909
      12.716
      12.110
      10.998
       9.393
       7.417
       5.253
       3.109
       1.198
      -0.294
      -1.253
      -1.684
      -1.725
      -1.608
      -1.585
      -1.858
      -2.534
      -3.597
      -4.900
      -6.180
      -7.104
      -7.382
      -6.892
      -5.756
      -4.304
      -2.936
      -1.965
      -1.526
      -1.586
      -2.011
      -2.646
      -3.350
      -3.973
      -4.331
      -4.226
      -3.523
      -2.241
      -0.599
       1.038
       2.288
       2.882
       2.738
       1.966
       0.823
      -0.350
      -1.220
      -1.552
      -1.286
      -0.532
       0.506
       1.637
       2.742
       3.763
       4.619
       5.154
       5.161
       4.479
       3.104
       1.215
      -0.881
      -2.855
      -4.455
      -5.558
      -6.191
      -6.511
      -6.749
      -7.104
      -7.639
      -8.235
      -8.650
      -8.649
      -8.113
      -7.075
      -5.670
      -4.073
      -2.453
      -0.963
       0.277
       1.192
       1.776
       2.074
       2.148
       2.047
       1.814
       1.535
       1.366
       1.492
       2.034
       2.957
       4.049
       4.981
       5.436
       5.229
       4.381
       3.083
       1.615
       0.237
      -0.881
      -1.684
      -2.192
      -2.456
      -2.517
      -2.388
      -2.076
      -1.607
      -1.067
      -0.604
      -0.394
      -0.549
      -1.030
      -1.640
      -2.092
      -2.139
      -1.666
      -0.703
       0.627
       2.180
       3.815
       5.393
       6.759
       7.760
       8.290
       8.309
       7.847
