Origin Time       25/04/2009 14:29:29
Lat.              26.4 N 
Long.             91.7 E 
Depth (Km)         10.0
Magnitude         4.0
 Region           KAMRUP-ASSAM                                                     
 Above details taken from IMD 
     
Station Code      GUA
Station Lat.       26.190  N
Station Long.      91.746  E
Station Height(m)   67.3
Site Class        C   Vs30 between 200 m/sec to 375 m/sec *  
Record Time       25.04.2009 14:29:22.864
Sampling Rate     200. Hz
 Record Duration   66.185 Sec.
 Direction         E-W (E positive)
Max. Acceleration     12.830 cm/sec**2
     
  * For reference see Site Classification link of website 
     
 Base Line Corrected and Low Pass Filtered (Cut Off at 35 Hz) Time History
 Acceleration data in cm/sec**2
    
[...]
      -0.034
      -0.017
       0.003
       0.013
       0.006
      -0.010
      -0.025
      -0.031
      -0.026
      -0.018
      -0.010
      -0.005
       0.000
       0.007
       0.014
       0.017
       0.012
      -0.001
      -0.019
      -0.036
      -0.045
      -0.041
      -0.027
      -0.011
       0.000
       0.004
       0.004
       0.005
       0.005
      -0.001
      -0.015
      -0.031
      -0.039
      -0.033
      -0.014
       0.008
       0.024
       0.027
       0.016
      -0.001
      -0.015
      -0.019
      -0.013
      -0.001
       0.010
       0.016
       0.015
       0.014
       0.015
       0.019
       0.022
       0.021
       0.018
       0.011
       0.003
      -0.004
      -0.007
      -0.006
      -0.005
      -0.007
      -0.010
      -0.011
      -0.011
      -0.011
      -0.014
      -0.019
      -0.024
      -0.025
      -0.023
      -0.019
      -0.017
      -0.016
      -0.011
       0.001
       0.013
       0.024
       0.032
       0.037
       0.034
       0.022
       0.005
      -0.010
      -0.019
      -0.023
      -0.022
      -0.013
       0.003
       0.023
       0.034
       0.027
       0.003
      -0.025
      -0.041
      -0.038
      -0.022
      -0.006
       0.001
       0.000
      -0.004
      -0.011
      -0.019
      -0.024
      -0.024
      -0.021
      -0.014
      -0.004
       0.010
       0.026
       0.036
       0.036
       0.027
       0.011
      -0.006
      -0.015
      -0.009
       0.007
       0.026
       0.038
       0.040
       0.033
       0.020
       0.008
       0.000
       0.000
       0.003
       0.003
      -0.002
      -0.009
      -0.011
      -0.006
       0.004
       0.012
       0.012
       0.002
      -0.013
      -0.025
      -0.028
      -0.024
      -0.021
      -0.022
      -0.024
      -0.025
      -0.023
      -0.018
      -0.008
       0.006
       0.019
       0.021
       0.006
      -0.021
      -0.047
      -0.058
      -0.050
      -0.029
      -0.009
       0.003
       0.008
       0.010
       0.000
      -0.028
      -0.066
      -0.081
      -0.046
       0.033
       0.117
       0.157
       0.121
       0.011
      -0.132
      -0.245
      -0.262
      -0.158
       0.030
       0.212
       0.300
       0.249
       0.081
      -0.125
      -0.271
      -0.284
      -0.155
       0.057
       0.250
       0.329
       0.264
       0.111
      -0.013
      -0.021
       0.072
       0.163
       0.161
       0.085
       0.052
       0.158
       0.394
       0.672
       0.911
       1.063
       1.063
       0.824
       0.316
      -0.344
      -0.904
      -1.118
      -0.918
      -0.458
       0.010
       0.289
       0.308
       0.077
      -0.346
      -0.856
      -1.301
      -1.542
      -1.552
      -1.445
      -1.363
      -1.324
      -1.178
      -0.768
      -0.159
       0.307
       0.274
      -0.266
      -0.908
      -1.156
      -0.832
      -0.168
       0.455
       0.826
       0.981
       1.064
       1.180
       1.346
       1.513
       1.580
       1.443
       1.101
       0.726
       0.602
       0.914
       1.554
       2.125
       2.196
       1.612
       0.622
      -0.280
      -0.686
      -0.529
      -0.084
       0.272
       0.341
       0.169
      -0.077
      -0.282
      -0.441
      -0.599
      -0.792
      -1.040
      -1.342
      -1.630
      -1.744
      -1.551
      -1.137
      -0.841
      -0.995
      -1.571
      -2.072
      -1.894
      -0.897
       0.380
       1.118
       0.905
       0.051
      -0.730
      -0.923
      -0.552
      -0.012
       0.323
       0.344
       0.189
       0.107
       0.319
       0.898
       1.693
       2.360
       2.520
       1.982
       0.896
      -0.250
      -0.868
      -0.611
       0.367
       1.480
       2.075
       1.853
       1.020
       0.074
      -0.576
      -0.844
      -0.906
      -0.970
      -1.097
      -1.210
      -1.227
      -1.175
      -1.149
      -1.176
      -1.156
      -0.935
      -0.461
       0.146
       0.648
       0.827
       0.606
       0.121
      -0.347
      -0.530
      -0.345
       0.076
       0.508
       0.779
       0.828
       0.687
       0.448
       0.243
       0.204
       0.395
       0.726
       0.965
       0.882
       0.442
      -0.126
      -0.480
      -0.413
      -0.013
       0.416
       0.596
       0.482
       0.252
       0.108
       0.083
       0.044
      -0.125
      -0.391
      -0.643
      -0.831
      -1.005
      -1.212
      -1.419
      -1.540
      -1.508
      -1.298
      -0.910
      -0.394
       0.111
       0.401
       0.327
      -0.057
      -0.482
      -0.618
      -0.321
       0.263
       0.792
       0.967
       0.723
       0.262
      -0.086
      -0.062
       0.357
       0.958
       1.440
       1.595
       1.411
       1.040
       0.703
       0.572
       0.655
       0.761
       0.632
       0.175
      -0.411
      -0.746
      -0.559
       0.095
       0.844
       1.229
       0.992
       0.223
      -0.720
      -1.454
      -1.788
      -1.786
      -1.649
      -1.527
      -1.423
      -1.249
      -0.967
      -0.652
      -0.417
      -0.279
      -0.130
       0.128
       0.434
       0.586
       0.418
      -0.038
      -0.554
      -0.854
      -0.769
      -0.324
       0.277
       0.745
       0.882
       0.714
       0.472
       0.410
       0.605
       0.911
       1.103
       1.057
       0.833
       0.596
       0.474
       0.478
       0.523
       0.517
       0.419
       0.230
      -0.024
      -0.287
      -0.474
      -0.511
      -0.383
      -0.158
       0.054
       0.156
       0.105
      -0.102
      -0.437
      -0.825
      -1.134
      -1.229
      -1.055
      -0.694
      -0.330
      -0.156
      -0.234
      -0.415
      -0.417
      -0.068
       0.515
       0.996
       1.102
       0.829
       0.399
       0.060
      -0.085
      -0.085
      -0.054
      -0.060
      -0.096
      -0.120
      -0.097
       0.009
       0.242
       0.593
       0.927
       1.039
       0.812
       0.319
      -0.223
      -0.614
      -0.779
      -0.775
      -0.715
      -0.657
      -0.561
      -0.353
      -0.060
       0.157
       0.117
      -0.196
      -0.580
      -0.757
      -0.603
      -0.244
       0.072
       0.202
       0.198
       0.185
       0.192
       0.150
       0.039
      -0.025
       0.102
       0.391
       0.611
       0.527
       0.134
      -0.308
      -0.469
      -0.187
       0.427
       1.077
       1.483
       1.515
       1.208
       0.674
       0.042
      -0.552
      -0.949
      -1.008
      -0.704
      -0.200
       0.230
       0.392
       0.316
       0.174
       0.072
      -0.049
      -0.294
      -0.623
      -0.859
      -0.866
      -0.697
      -0.552
      -0.588
      -0.771
      -0.909
      -0.841
      -0.602
      -0.395
      -0.377
      -0.480
      -0.451
      -0.088
       0.552
       1.165
       1.414
       1.153
       0.493
      -0.278
      -0.846
      -0.977
      -0.593
       0.207
       1.165
       1.939
       2.249
       2.009
       1.355
       0.545
      -0.176
      -0.642
      -0.787
      -0.635
      -0.295
       0.076
       0.337
       0.422
       0.349
       0.187
       0.000
      -0.199
      -0.446
      -0.751
      -1.028
      -1.133
      -1.002
      -0.723
      -0.475
      -0.380
      -0.434
      -0.553
      -0.651
      -0.675
      -0.579
      -0.328
       0.052
       0.437
       0.652
       0.610
       0.410
       0.267
       0.293
       0.391
       0.353
       0.097
      -0.221
      -0.312
      -0.019
       0.504
       0.892
       0.863
       0.453
      -0.014
      -0.184
       0.072
       0.587
       1.032
       1.117
       0.744
       0.051
      -0.683
      -1.179
      -1.281
      -1.009
      -0.528
      -0.046
       0.315
       0.557
       0.722
       0.766
       0.569
       0.076
      -0.569
      -1.061
      -1.146
      -0.819
      -0.306
       0.123
       0.322
       0.294
       0.125
      -0.066
      -0.166
      -0.123
       0.020
       0.155
       0.209
       0.188
       0.140
       0.082
      -0.018
      -0.190
      -0.399
      -0.556
      -0.575
      -0.410
      -0.049
       0.475
       1.030
       1.382
       1.321
       0.838
       0.162
      -0.409
      -0.723
      -0.823
      -0.797
      -0.648
      -0.311
       0.191
       0.655
       0.792
       0.434
      -0.304
      -1.063
      -1.454
      -1.305
      -0.767
      -0.200
       0.083
       0.045
      -0.053
       0.108
       0.589
       1.091
       1.195
       0.730
      -0.071
      -0.742
      -0.921
      -0.556
       0.119
       0.766
       1.130
       1.135
       0.869
       0.493
       0.155
      -0.058
      -0.126
      -0.089
      -0.034
      -0.069
      -0.261
      -0.568
      -0.847
      -0.948
      -0.827
      -0.582
      -0.358
      -0.213
      -0.080
       0.130
       0.386
       0.521
       0.358
      -0.103
      -0.631
      -0.891
      -0.686
      -0.117
       0.472
       0.764
       0.698
       0.466
       0.302
       0.280
       0.299
       0.225
       0.028
      -0.204
      -0.341
      -0.297
      -0.068
       0.284
       0.666
       0.972
       1.082
       0.906
       0.461
      -0.094
      -0.534
      -0.704
      -0.596
      -0.310
       0.027
       0.306
       0.446
       0.394
       0.153
      -0.215
      -0.613
      -0.956
      -1.205
      -1.368
      -1.454
      -1.440
      -1.271
      -0.913
      -0.411
       0.118
       0.548
       0.808
       0.889
       0.822
       0.663
       0.486
       0.365
       0.331
       0.356
       0.389
       0.431
       0.536
       0.719
       0.865
       0.779
       0.370
      -0.216
      -0.662
      -0.728
      -0.438
      -0.027
       0.287
       0.459
       0.554
       0.603
       0.548
       0.333
       0.018
      -0.249
      -0.379
      -0.433
      -0.554
      -0.789
      -1.016
      -1.064
      -0.895
      -0.654
      -0.515
      -0.503
      -0.492
      -0.362
      -0.127
       0.110
       0.276
       0.383
       0.470
       0.506
       0.402
       0.150
      -0.092
      -0.103
       0.180
       0.566
       0.760
       0.632
       0.345
       0.213
       0.416
       0.832
       1.122
       1.022
       0.572
       0.068
      -0.208
      -0.220
      -0.129
      -0.102
      -0.183
      -0.345
      -0.585
      -0.897
      -1.175
      -1.197
      -0.802
      -0.098
       0.515
       0.603
       0.044
      -0.861
      -1.597
      -1.796
      -1.434
      -0.728
       0.080
       0.814
       1.297
       1.312
       0.771
      -0.093
      -0.783
      -0.874
      -0.356
       0.375
       0.854
       0.893
       0.650
       0.412
       0.356
       0.473
       0.652
       0.768
       0.689
       0.326
      -0.266
      -0.815
      -0.941
      -0.436
       0.521
       1.416
       1.727
       1.260
       0.251
      -0.814
      -1.481
      -1.528
      -1.009
      -0.217
       0.439
       0.614
       0.227
      -0.483
      -1.116
      -1.353
      -1.112
      -0.529
       0.144
       0.654
       0.841
       0.694
       0.338
      -0.025
      -0.201
      -0.091
       0.232
       0.543
       0.590
       0.280
      -0.249
      -0.720
      -0.887
      -0.660
      -0.139
       0.438
       0.811
       0.812
       0.433
      -0.145
      -0.604
      -0.661
      -0.277
       0.272
       0.597
       0.526
       0.251
       0.125
       0.316
       0.640
       0.717
       0.305
      -0.488
      -1.267
      -1.612
      -1.348
      -0.626
       0.187
       0.715
       0.742
       0.273
      -0.474
      -1.142
      -1.384
      -1.043
      -0.252
       0.650
       1.312
       1.534
       1.323
       0.833
       0.283
      -0.124
      -0.259
      -0.093
       0.314
       0.819
       1.184
       1.126
       0.474
      -0.651
      -1.810
      -2.457
      -2.265
      -1.311
       0.010
       1.219
       1.941
       1.993
       1.383
       0.298
      -0.906
      -1.767
      -1.911
      -1.324
      -0.446
       0.108
       0.020
      -0.493
      -0.940
      -1.023
      -0.825
      -0.581
      -0.339
       0.085
       0.868
       1.945
       3.002
       3.660
       3.660
       2.979
       1.852
       0.687
      -0.124
      -0.428
      -0.403
      -0.424
      -0.758
      -1.364
      -1.975
      -2.348
      -2.399
      -2.080
      -1.239
       0.290
       2.393
       4.510
       5.821
       5.638
       3.694
       0.254
      -3.895
      -7.522
      -9.232
      -8.054
      -4.143
       0.924
       4.727
       5.320
       2.456
      -2.222
      -6.206
      -7.586
      -5.905
      -2.014
       2.623
       6.533
       8.496
       7.735
       4.235
      -1.023
      -6.309
      -9.899
     -10.881
      -9.456
      -6.584
      -3.349
      -0.505
       1.616
       2.956
       3.579
       3.646
       3.448
       3.348
       3.581
       4.004
       4.011
       2.813
       0.045
      -3.684
      -6.861
      -7.946
      -6.501
      -3.593
      -0.981
       0.328
       0.890
       2.237
       5.337
       9.472
      12.577
      12.830
      10.094
       5.971
       2.469
       0.562
      -0.127
      -0.432
      -0.596
      -0.147
       1.276
       3.100
       3.943
       2.741
      -0.175
      -3.098
      -4.183
      -2.871
      -0.284
       1.730
       2.007
       0.775
      -0.786
      -1.566
      -1.240
      -0.239
       0.728
       1.084
       0.510
      -1.019
      -3.122
      -4.926
      -5.315
      -3.611
      -0.254
       3.135
       4.586
       3.043
      -0.784
      -4.700
      -6.380
      -4.947
      -1.575
       1.408
       2.248
       0.918
      -1.153
      -2.387
      -2.203
      -1.161
      -0.239
      -0.025
      -0.446
      -1.052
      -1.430
      -1.425
      -1.167
      -1.030
      -1.480
      -2.762
      -4.563
      -6.042
      -6.337
      -5.197
      -3.151
      -1.063
       0.502
       1.528
       2.338
       3.283
       4.608
       6.323
       7.976
       8.597
       7.219
       3.732
      -0.774
      -4.618
      -6.557
      -6.260
      -4.000
      -0.210
       4.464
       8.842
      11.316
      10.613
       6.683
       0.927
      -4.453
      -7.559
      -7.635
      -5.206
      -1.593
       1.788
       3.947
       4.512
       3.620
       1.674
      -0.855
      -3.453
      -5.517
      -6.410
      -5.709
      -3.531
      -0.649
       1.775
       2.766
       2.077
       0.302
      -1.516
      -2.508
      -2.396
      -1.493
      -0.402
       0.301
       0.275
      -0.461
      -1.521
      -2.325
      -2.377
      -1.516
       0.007
       1.652
       2.873
       3.428
       3.457
       3.258
       2.895
       2.063
       0.413
      -1.897
      -3.945
      -4.416
      -2.470
       1.511
       5.919
       8.738
       8.660
       5.778
       1.443
      -2.538
      -4.867
      -5.288
      -4.465
      -3.378
      -2.710
      -2.554
      -2.515
      -2.088
      -1.092
       0.071
       0.566
      -0.310
      -2.473
      -4.864
      -6.017
      -5.039
      -2.234
       1.138
       3.724
       4.863
       4.780
       4.194
       3.734
       3.560
       3.397
       2.894
       1.977
       0.945
       0.263
       0.261
       0.929
       1.898
       2.632
       2.748
       2.253
       1.475
       0.733
       0.087
      -0.615
      -1.515
      -2.592
      -3.675
      -4.483
      -4.671
      -3.982
      -2.461
      -0.522
       1.251
       2.389
       2.660
       2.045
       0.717
      -0.909
      -2.213
      -2.619
      -1.925
      -0.452
       1.135
       2.206
       2.482
       2.084
       1.352
       0.586
      -0.097
      -0.717
      -1.264
      -1.599
      -1.522
      -0.923
       0.160
       1.601
       3.213
       4.704
       5.640
       5.578
       4.332
       2.173
      -0.258
      -2.271
      -3.458
      -3.803
      -3.575
      -3.114
      -2.657
      -2.290
      -2.054
      -2.028
      -2.251
      -2.569
      -2.633
      -2.156
      -1.219
      -0.313
      -0.013
      -0.529
      -1.479
      -2.091
      -1.723
      -0.350
       1.359
       2.489
       2.524
       1.647
       0.491
      -0.410
      -0.951
      -1.302
      -1.518
      -1.417
      -0.875
      -0.093
       0.546
       0.923
       1.364
       2.308
       3.724
       4.893
       4.808
       2.937
      -0.266
      -3.480
      -5.220
      -4.679
      -2.188
       0.952
       3.160
       3.385
       1.628
      -1.116
      -3.448
      -4.342
      -3.621
      -1.892
      -0.077
       1.110
       1.450
       1.194
       0.824
       0.716
       0.893
       1.022
       0.724
      -0.037
      -0.824
      -1.027
      -0.350
       0.975
       2.424
       3.559
       4.166
       4.117
       3.257
       1.566
      -0.577
      -2.395
      -3.129
      -2.550
      -1.128
       0.292
       1.047
       1.030
       0.683
       0.661
       1.389
       2.728
       3.975
       4.222
       2.918
       0.298
      -2.645
      -4.677
      -5.065
      -3.989
      -2.328
      -0.933
      -0.034
       0.706
       1.580
       2.362
       2.484
       1.646
       0.192
      -1.125
      -1.719
      -1.484
      -0.680
       0.348
       1.279
       1.815
       1.739
       1.024
      -0.177
      -1.670
      -3.286
      -4.788
      -5.779
      -5.856
      -4.902
      -3.249
      -1.511
      -0.211
       0.516
       0.886
       1.191
       1.500
       1.610
       1.259
       0.433
      -0.487
      -0.884
      -0.279
       1.266
       3.023
       3.899
       3.100
       0.743
      -2.024
      -3.635
      -3.096
      -0.660
       2.382
       4.574
       5.150
       4.268
       2.643
       1.012
      -0.180
      -0.784
      -0.867
      -0.682
      -0.644
      -1.154
      -2.270
      -3.479
      -3.882
      -2.802
      -0.372
       2.389
       4.165
       4.180
       2.642
       0.461
      -1.411
      -2.480
      -2.754
      -2.467
      -1.801
      -0.822
       0.418
       1.746
       2.880
       3.582
       3.793
       3.572
       2.887
       1.547
      -0.520
      -2.882
      -4.560
      -4.549
      -2.569
       0.585
       3.432
       4.660
       3.830
       1.484
      -1.279
      -3.417
      -4.381
      -4.186
      -3.186
      -1.750
      -0.125
       1.467
       2.678
       3.128
       2.728
       1.870
       1.172
       0.939
       0.857
       0.274
      -1.186
      -3.197
      -4.861
      -5.256
      -3.998
      -1.488
       1.267
       3.174
       3.664
       3.020
       2.138
       1.833
       2.211
       2.657
       2.418
       1.219
      -0.623
      -2.532
      -4.044
      -4.920
      -5.072
      -4.495
