Origin Time       21/9/2009 8:53:04	  UTC
Lat.              27.3 N	
Long.             91.5 E	
Depth (Km)          8.0
Magnitude         6.2
 Region           BHUTAN                                                           
 Above details taken from IMD 
    
Station Code      GUA
Station Lat.       26.190  N
Station Long.      91.746  E
Station Height(m)   55.2
Site Class        C   Vs30 between 200 m/sec to 375 m/sec *  
Record Time       21.09.2009 08:53:14.619 UTC
Sampling Rate     200. Hz
 Record Duration  107.280 Sec.
 Direction         N-S (N positive)
Max. Acceleration    -24.229 cm/sec**2
     
  * For reference see Site Classification link of website 
     
 Base Line Corrected and Low Pass Filtered (Cut Off at 35 Hz) Time History
 Acceleration data in cm/sec**2
    
[...]
       1.219
       1.570
       1.999
       2.321
       2.306
       1.798
       0.810
      -0.480
      -1.818
      -2.962
      -3.745
      -4.083
      -3.972
      -3.490
      -2.782
      -2.041
      -1.451
      -1.139
      -1.141
      -1.395
      -1.772
      -2.114
      -2.275
      -2.164
      -1.765
      -1.146
      -0.438
       0.198
       0.631
       0.805
       0.745
       0.535
       0.269
       0.021
      -0.160
      -0.239
      -0.186
       0.030
       0.437
       1.023
       1.689
       2.237
       2.418
       2.049
       1.128
      -0.141
      -1.425
      -2.418
      -2.966
      -3.089
      -2.912
      -2.559
      -2.095
      -1.545
      -0.942
      -0.366
       0.075
       0.295
       0.271
       0.060
      -0.232
      -0.473
      -0.541
      -0.353
       0.096
       0.711
       1.323
       1.763
       1.938
       1.876
       1.702
       1.566
       1.563
       1.702
       1.937
       2.231
       2.574
       2.969
       3.401
       3.834
       4.235
       4.587
       4.870
       5.046
       5.070
       4.926
       4.660
       4.360
       4.107
       3.924
       3.771
       3.559
       3.159
       2.421
       1.205
      -0.555
      -2.803
      -5.354
      -7.938
     -10.272
     -12.135
     -13.414
     -14.114
     -14.332
     -14.211
     -13.897
     -13.519
     -13.188
     -12.983
     -12.913
     -12.869
     -12.621
     -11.888
     -10.438
      -8.187
      -5.238
      -1.855
       1.636
       4.959
       7.972
      10.659
      13.051
      15.147
      16.894
      18.220
      19.071
      19.406
      19.177
      18.341
      16.914
      15.013
      12.847
      10.638
       8.522
       6.510
       4.512
       2.413
       0.147
      -2.259
      -4.665
      -6.873
      -8.715
     -10.138
     -11.225
     -12.129
     -12.974
     -13.775
     -14.422
     -14.735
     -14.518
     -13.629
     -12.038
      -9.877
      -7.436
      -5.086
      -3.131
      -1.684
      -0.646
       0.196
       1.030
       1.930
       2.868
       3.784
       4.644
       5.446
       6.176
       6.777
       7.149
       7.184
       6.825
       6.108
       5.168
       4.187
       3.314
       2.612
       2.063
       1.615
       1.241
       0.967
       0.845
       0.896
       1.072
       1.268
       1.363
       1.257
       0.867
       0.116
      -1.051
      -2.613
      -4.414
      -6.167
      -7.525
      -8.213
      -8.130
      -7.393
      -6.278
      -5.116
      -4.176
      -3.591
      -3.340
      -3.291
      -3.280
      -3.155
      -2.797
      -2.122
      -1.104
       0.192
       1.593
       2.880
       3.892
       4.604
       5.128
       5.617
       6.151
       6.681
       7.080
       7.237
       7.123
       6.759
       6.168
       5.350
       4.309
       3.099
       1.823
       0.600
      -0.502
      -1.500
      -2.471
      -3.462
      -4.432
      -5.250
      -5.779
      -5.953
      -5.814
      -5.469
      -5.032
      -4.568
      -4.095
      -3.602
      -3.067
      -2.464
      -1.765
      -0.955
      -0.050
       0.893
       1.799
       2.599
       3.256
       3.772
       4.175
       4.511
       4.816
       5.120
       5.457
       5.888
       6.484
       7.272
       8.158
       8.927
       9.317
       9.179
       8.574
       7.755
       7.028
       6.597
       6.487
       6.559
       6.577
       6.298
       5.553
       4.303
       2.641
       0.734
      -1.240
      -3.133
      -4.816
      -6.165
      -7.084
      -7.563
      -7.727
      -7.821
      -8.123
      -8.827
      -9.945
     -11.259
     -12.377
     -12.879
     -12.530
     -11.421
      -9.932
      -8.524
      -7.488
      -6.829
      -6.330
      -5.728
      -4.846
      -3.623
      -2.073
      -0.270
       1.618
       3.321
       4.509
       4.932
       4.564
       3.667
       2.712
       2.166
       2.263
       2.888
       3.629
       3.986
       3.601
       2.407
       0.630
      -1.330
      -3.064
      -4.299
      -4.985
      -5.276
      -5.440
      -5.713
      -6.183
      -6.774
      -7.311
      -7.622
      -7.606
      -7.241
      -6.573
      -5.687
      -4.677
      -3.608
      -2.483
      -1.237
       0.221
       1.936
       3.848
       5.797
       7.588
       9.094
      10.314
      11.346
      12.305
      13.233
      14.070
      14.686
      14.944
      14.775
      14.185
      13.225
      11.963
      10.465
       8.810
       7.100
       5.445
       3.939
       2.610
       1.402
       0.181
      -1.217
      -2.915
      -4.919
      -7.078
      -9.113
     -10.718
     -11.693
     -12.043
     -11.970
     -11.768
     -11.669
     -11.736
     -11.835
     -11.718
     -11.142
      -9.989
      -8.314
      -6.322
      -4.294
      -2.500
      -1.128
      -0.246
       0.206
       0.386
       0.478
       0.620
       0.860
       1.182
       1.555
       1.978
       2.471
       3.030
       3.588
       4.022
       4.204
       4.074
       3.685
       3.189
       2.767
       2.566
       2.651
       3.006
       3.562
       4.231
       4.943
       5.652
       6.326
       6.921
       7.382
       7.662
       7.764
       7.753
       7.744
       7.837
       8.066
       8.377
       8.645
       8.722
       8.477
       7.841
       6.827
       5.542
       4.147
       2.801
       1.589
       0.502
      -0.537
      -1.600
      -2.690
      -3.735
      -4.623
      -5.280
      -5.714
      -6.018
      -6.321
      -6.714
      -7.189
      -7.638
      -7.901
      -7.861
      -7.510
      -6.930
      -6.215
      -5.391
      -4.416
      -3.260
      -2.012
      -0.894
      -0.165
       0.040
      -0.200
      -0.633
      -0.984
      -1.095
      -0.979
      -0.769
      -0.607
      -0.532
      -0.416
      -0.023
       0.846
       2.183
       3.730
       5.089
       5.941
       6.193
       5.990
       5.568
       5.105
       4.654
       4.169
       3.564
       2.757
       1.696
       0.389
      -1.059
      -2.453
      -3.585
      -4.352
      -4.835
      -5.270
      -5.915
      -6.892
      -8.099
      -9.259
     -10.049
     -10.253
      -9.849
      -8.992
      -7.906
      -6.755
      -5.577
      -4.326
      -2.971
      -1.558
      -0.201
       0.975
       1.908
       2.637
       3.303
       4.104
       5.200
       6.617
       8.207
       9.682
      10.736
      11.173
      10.978
      10.295
       9.337
       8.284
       7.227
       6.174
       5.086
       3.938
       2.752
       1.585
       0.484
      -0.559
      -1.594
      -2.651
      -3.677
      -4.538
      -5.095
      -5.274
      -5.098
      -4.640
      -3.965
      -3.120
      -2.163
      -1.187
      -0.302
       0.416
       0.954
       1.369
       1.748
       2.153
       2.574
       2.902
       2.959
       2.596
       1.808
       0.790
      -0.130
      -0.652
      -0.645
      -0.197
       0.456
       1.034
       1.324
       1.238
       0.802
       0.106
      -0.751
      -1.681
      -2.612
      -3.472
      -4.209
      -4.818
      -5.369
      -6.003
      -6.845
      -7.908
      -9.026
      -9.899
     -10.236
      -9.887
      -8.902
      -7.476
      -5.844
      -4.188
      -2.619
      -1.193
       0.037
       1.012
       1.687
       2.070
       2.262
       2.453
       2.860
       3.640
       4.801
       6.156
       7.363
       8.031
       7.862
       6.786
       5.006
       2.967
       1.227
       0.291
       0.434
       1.592
       3.359
       5.131
       6.348
       6.734
       6.398
       5.728
       5.142
       4.853
       4.748
       4.460
       3.567
       1.833
      -0.635
      -3.387
      -5.816
      -7.422
      -8.019
      -7.775
      -7.077
      -6.323
      -5.785
      -5.566
      -5.642
      -5.914
      -6.230
      -6.397
      -6.206
      -5.491
      -4.198
      -2.438
      -0.463
       1.400
       2.857
       3.716
       3.910
       3.480
       2.554
       1.317
      -0.010
      -1.178
      -1.924
      -2.015
      -1.307
       0.175
       2.188
       4.310
       6.061
       7.083
       7.266
       6.771
       5.934
       5.106
       4.517
       4.215
       4.114
       4.082
       4.035
       3.962
       3.903
       3.906
       3.980
       4.082
       4.134
       4.061
       3.815
       3.373
       2.741
       1.963
       1.165
       0.552
       0.348
       0.677
       1.474
       2.487
       3.394
       3.947
       4.064
       3.818
       3.359
       2.839
       2.371
       2.056
       2.004
       2.323
       3.058
       4.123
       5.281
       6.214
       6.648
       6.456
       5.688
       4.511
       3.113
       1.629
       0.121
      -1.386
      -2.866
      -4.278
      -5.600
      -6.840
      -8.040
      -9.244
     -10.473
     -11.735
     -13.040
     -14.397
     -15.753
     -16.932
     -17.639
     -17.563
     -16.524
     -14.586
     -12.048
      -9.338
      -6.845
      -4.822
      -3.366
      -2.488
      -2.179
      -2.411
      -3.076
      -3.924
      -4.579
      -4.661
      -3.962
      -2.557
      -0.789
       0.893
       2.116
       2.707
       2.714
       2.358
       1.953
       1.809
       2.113
       2.872
       3.940
       5.139
       6.383
       7.721
       9.257
      11.021
      12.872
      14.522
      15.650
      16.034
      15.614
      14.453
      12.680
      10.473
       8.097
       5.933
       4.387
       3.677
       3.651
       3.760
       3.286
       1.681
      -1.164
      -4.876
      -8.771
     -12.135
     -14.456
     -15.516
     -15.349
     -14.146
     -12.192
      -9.851
      -7.533
      -5.612
      -4.315
      -3.659
      -3.493
      -3.613
      -3.859
      -4.133
      -4.349
      -4.369
      -4.025
      -3.193
      -1.877
      -0.228
       1.496
       3.011
       4.098
       4.649
       4.654
       4.159
       3.235
       1.978
       0.508
      -1.055
      -2.627
      -4.165
      -5.636
      -6.981
      -8.081
      -8.773
      -8.912
      -8.434
      -7.400
      -5.968
      -4.312
      -2.555
      -0.754
       1.063
       2.842
       4.491
       5.906
       7.004
       7.734
       8.092
       8.161
       8.166
       8.451
       9.342
      10.938
      12.986
      14.961
      16.330
      16.811
      16.471
      15.610
      14.553
      13.465
      12.297
      10.818
       8.750
       5.936
       2.495
      -1.138
      -4.345
      -6.601
      -7.752
      -8.111
      -8.315
      -8.992
     -10.463
     -12.623
     -15.059
     -17.282
     -18.920
     -19.793
     -19.880
     -19.257
     -18.055
     -16.437
     -14.570
     -12.565
     -10.430
      -8.078
      -5.397
      -2.342
       1.012
       4.480
       7.822
      10.809
      13.286
      15.191
      16.529
      17.325
      17.605
      17.405
      16.804
      15.933
      14.961
      14.029
      13.178
      12.310
      11.232
       9.767
       7.849
       5.535
       2.954
       0.269
      -2.326
      -4.606
      -6.358
      -7.471
      -7.997
      -8.147
      -8.209
      -8.427
      -8.911
      -9.594
     -10.241
     -10.536
     -10.210
      -9.194
      -7.692
      -6.120
      -4.904
      -4.270
      -4.146
      -4.261
      -4.347
      -4.317
      -4.263
      -4.317
      -4.482
      -4.570
      -4.285
      -3.381
      -1.798
       0.274
       2.434
       4.209
       5.225
       5.348
       4.713
       3.644
       2.514
       1.603
       1.037
       0.790
       0.726
       0.657
       0.398
      -0.180
      -1.097
      -2.243
      -3.395
      -4.259
      -4.545
      -4.029
      -2.636
      -0.483
       2.125
       4.764
       7.022
       8.639
       9.594
      10.097
      10.488
      11.080
      12.020
      13.218
      14.390
      15.173
      15.277
      14.581
      13.144
      11.152
       8.848
       6.465
       4.198
       2.175
       0.447
      -1.042
      -2.443
      -3.936
      -5.621
      -7.438
      -9.194
     -10.671
     -11.738
     -12.372
     -12.609
     -12.485
     -12.045
     -11.414
     -10.817
     -10.492
     -10.524
     -10.752
     -10.847
     -10.524
      -9.745
      -8.732
      -7.812
      -7.171
      -6.725
      -6.167
      -5.175
      -3.619
      -1.650
       0.402
       2.229
       3.705
       4.928
       6.103
       7.363
       8.629
       9.606
       9.909
       9.255
       7.619
       5.251
       2.564
      -0.046
      -2.324
      -4.163
      -5.520
      -6.341
      -6.572
      -6.228
      -5.452
      -4.492
      -3.614
      -2.997
      -2.671
      -2.506
      -2.275
      -1.753
      -0.813
       0.523
       2.096
       3.661
       4.965
       5.826
       6.207
       6.240
       6.182
       6.323
       6.883
       7.962
       9.528
      11.427
      13.389
      15.062
      16.100
      16.289
      15.633
      14.322
      12.609
      10.649
       8.456
       5.993
       3.324
       0.666
      -1.732
      -3.776
      -5.615
      -7.536
      -9.758
     -12.294
     -14.968
     -17.538
     -19.815
     -21.699
     -23.134
     -24.030
     -24.229
     -23.541
     -21.841
     -19.170
     -15.794
     -12.163
      -8.766
      -5.955
      -3.817
      -2.181
      -0.739
       0.794
       2.576
       4.624
       6.866
       9.208
      11.547
      13.743
      15.628
      17.056
      17.967
      18.407
      18.472
      18.224
      17.644
      16.647
      15.147
      13.143
      10.764
       8.251
       5.865
       3.765
       1.910
       0.072
      -2.049
      -4.659
      -7.729
     -10.985
     -14.001
     -16.344
     -17.689
     -17.891
     -16.983
     -15.147
     -12.665
      -9.841
      -6.919
      -4.032
      -1.218
       1.490
       3.993
       6.137
       7.815
       9.062
      10.060
      11.043
      12.165
      13.416
      14.618
      15.484
      15.720
      15.120
      13.637
      11.385
       8.598
       5.573
       2.603
      -0.057
      -2.232
      -3.881
      -5.140
      -6.285
      -7.608
      -9.260
     -11.154
     -12.989
     -14.391
     -15.070
     -14.931
     -14.080
     -12.748
     -11.194
      -9.627
      -8.156
      -6.796
      -5.514
      -4.278
      -3.072
      -1.865
      -0.579
       0.907
       2.699
       4.815
       7.149
       9.496
      11.631
      13.382
      14.665
      15.461
      15.780
      15.638
      15.035
      13.951
      12.358
      10.273
       7.817
       5.225
       2.783
       0.722
      -0.871
      -2.088
      -3.166
      -4.396
      -6.026
      -8.167
     -10.752
     -13.541
     -16.190
     -18.338
     -19.689
     -20.060
     -19.393
     -17.785
     -15.508
     -12.996
     -10.736
      -9.095
      -8.150
      -7.654
      -7.151
      -6.173
      -4.410
      -1.776
       1.608
       5.476
       9.495
      13.342
      16.746
      19.492
      21.395
      22.312
      22.184
      21.098
      19.307
      17.186
      15.136
      13.450
      12.216
      11.303
      10.450
       9.401
       8.007
       6.260
       4.239
       2.044
      -0.248
      -2.585
      -4.906
      -7.132
      -9.166
     -10.911
     -12.294
     -13.275
     -13.842
     -13.971
     -13.595
     -12.632
     -11.081
      -9.114
      -7.037
      -5.142
      -3.554
      -2.197
      -0.880
       0.574
       2.238
       4.070
       5.944
       7.689
       9.130
      10.109
      10.502
      10.252
       9.376
       7.962
       6.149
       4.085
       1.899
      -0.301
      -2.404
      -4.288
      -5.854
      -7.090
      -8.105
      -9.074
     -10.124
     -11.234
     -12.234
     -12.894
     -13.031
     -12.559
     -11.472
      -9.808
      -7.654
      -5.183
      -2.653
      -0.363
       1.443
       2.653
       3.303
       3.569
       3.738
       4.150
       5.104
       6.737
       8.919
      11.248
      13.164
      14.144
      13.911
      12.543
      10.440
       8.163
       6.207
       4.823
       3.967
       3.374
       2.714
       1.739
       0.375
      -1.256
      -2.912
      -4.348
      -5.422
      -6.115
      -6.481
      -6.564
      -6.350
      -5.793
      -4.876
      -3.638
      -2.159
      -0.511
       1.258
       3.089
       4.858
       6.356
       7.326
       7.572
       7.075
       6.049
       4.871
       3.906
       3.344
       3.107
       2.909
       2.397
       1.313
      -0.386
      -2.513
      -4.755
      -6.813
      -8.496
      -9.738
     -10.551
     -10.998
     -11.180
     -11.226
     -11.249
     -11.288
     -11.271
     -11.067
     -10.571
      -9.784
      -8.806
      -7.766
      -6.746
      -5.736
      -4.623
      -3.230
      -1.389
       0.957
       3.673
       6.437
       8.838
      10.531
      11.359
      11.397
      10.890
      10.128
       9.349
       8.681
       8.131
       7.622
       7.048
       6.354
       5.568
       4.764
       3.977
       3.133
       2.085
       0.719
      -0.906
      -2.522
      -3.752
      -4.295
      -4.070
      -3.231
      -2.073
      -0.904
       0.037
       0.625
       0.839
       0.734
       0.417
       0.044
      -0.199
      -0.143
       0.296
       1.060
       1.977
       2.846
       3.544
       4.063
       4.472
       4.826
       5.092
       5.158
       4.940
       4.486
       3.980
       3.647
       3.604
       3.789
       3.992
       3.958
       3.505
       2.593
       1.314
      -0.152
      -1.609
      -2.892
      -3.892
      -4.557
      -4.866
      -4.804
      -4.347
      -3.494
      -2.309
      -0.956
       0.304
       1.181
       1.451
       1.050
       0.106
      -1.108
      -2.275
      -3.152
      -3.653
      -3.857
      -3.945
      -4.072
      -4.298
      -4.580
      -4.824
      -4.941
      -4.871
      -4.601
      -4.170
      -3.663
      -3.187
      -2.817
      -2.551
      -2.311
      -1.986
      -1.488
      -0.794
       0.050
       0.947
       1.788
       2.493
       3.041
       3.445
       3.722
       3.855
       3.806
       3.553
       3.118
       2.573
       2.009
       1.505
       1.098
       0.764
       0.424
      -0.030
      -0.692
      -1.585
      -2.643
      -3.741
      -4.742
      -5.541
      -6.082
      -6.373
      -6.485
      -6.537
      -6.663
      -6.953
      -7.401
      -7.887
      -8.217
      -8.190
      -7.646
      -6.493
      -4.720
      -2.430
       0.130
       2.621
       4.736
       6.331
       7.469
       8.324
       9.050
       9.681
      10.145
      10.359
      10.319
      10.105
       9.813
       9.460
       8.958
       8.171
       7.011
       5.512
       3.848
       2.289
       1.099
       0.418
       0.177
       0.108
      -0.138
      -0.827
      -2.005
      -3.474
      -4.880
