Origin Time       25/11/2007 23:12:20 UTC
Lat.              28.6 N 
Long.             77.0 E 
Depth (Km)         20.3
Magnitude         4.3
 Region           DELHI-HARYANA-BORDER-REGION                                      
 Above details taken from IMD 
    
Station Code      GUR
Station Lat.       28.449  N
Station Long.      77.029  E
Station Height(m)  216.0
Site Class        C   Vs30 between 200 m/sec to 375 m/sec *  
Record Time       25.11.2007 23:05:13.829 UTC
Sampling Rate     200. Hz
 Record Duration   37.800 Sec.
 Direction         N-S (N positive)
Max. Acceleration    -41.023 cm/sec**2
     
  * For reference see Site Classification link of website 
     
 Base Line Corrected and Low Pass Filtered (Cut Off at 35 Hz) Time History
 Acceleration data in cm/sec**2
    
[...]
      -0.003
       0.001
       0.002
       0.004
       0.007
       0.007
       0.000
      -0.011
      -0.019
      -0.022
      -0.022
      -0.022
      -0.022
      -0.020
      -0.016
      -0.008
      -0.002
       0.000
       0.000
       0.002
       0.007
       0.013
       0.012
       0.007
       0.002
      -0.003
      -0.008
      -0.014
      -0.018
      -0.017
      -0.012
      -0.006
      -0.003
      -0.006
      -0.013
      -0.015
      -0.009
       0.000
       0.002
      -0.002
      -0.006
      -0.005
       0.002
       0.008
       0.010
       0.008
       0.005
       0.005
       0.010
       0.019
       0.024
       0.024
       0.022
       0.020
       0.017
       0.012
       0.003
      -0.008
      -0.017
      -0.021
      -0.019
      -0.014
      -0.013
      -0.018
      -0.027
      -0.034
      -0.036
      -0.032
      -0.025
      -0.022
      -0.025
      -0.034
      -0.041
      -0.042
      -0.036
      -0.027
      -0.018
      -0.008
       0.000
       0.006
       0.008
       0.009
       0.007
       0.003
      -0.001
      -0.004
      -0.004
      -0.002
       0.001
       0.006
       0.012
       0.015
       0.014
       0.009
       0.003
      -0.004
      -0.009
      -0.011
      -0.009
      -0.006
      -0.004
      -0.003
      -0.003
      -0.005
      -0.006
      -0.005
      -0.004
      -0.004
      -0.008
      -0.010
      -0.007
       0.001
       0.009
       0.014
       0.015
       0.013
       0.008
       0.000
      -0.008
      -0.016
      -0.020
      -0.019
      -0.015
      -0.010
      -0.008
      -0.007
      -0.002
       0.003
       0.005
       0.001
      -0.006
      -0.014
      -0.017
      -0.016
      -0.011
      -0.008
      -0.010
      -0.014
      -0.017
      -0.017
      -0.014
      -0.013
      -0.012
      -0.013
      -0.012
      -0.005
       0.006
       0.018
       0.024
       0.024
       0.019
       0.015
       0.013
       0.010
       0.009
       0.009
       0.011
       0.014
       0.015
       0.011
       0.005
      -0.001
      -0.002
       0.004
       0.011
       0.014
       0.014
       0.012
       0.008
       0.003
      -0.001
      -0.003
      -0.005
      -0.007
      -0.008
      -0.006
      -0.003
      -0.001
       0.001
       0.003
       0.003
      -0.001
      -0.005
      -0.006
      -0.004
      -0.001
       0.001
       0.003
       0.004
       0.004
       0.005
       0.004
       0.000
      -0.009
      -0.016
      -0.014
      -0.003
       0.009
       0.012
      -0.002
      -0.035
      -0.086
      -0.143
      -0.180
      -0.166
      -0.083
       0.054
       0.179
       0.206
       0.086
      -0.142
      -0.355
      -0.418
      -0.269
       0.054
       0.438
       0.746
       0.856
       0.696
       0.292
      -0.204
      -0.538
      -0.473
       0.052
       0.826
       1.457
       1.600
       1.185
       0.446
      -0.254
      -0.656
      -0.723
      -0.587
      -0.411
      -0.296
      -0.282
      -0.386
      -0.587
      -0.785
      -0.822
      -0.580
      -0.094
       0.435
       0.764
       0.765
       0.510
       0.216
       0.111
       0.310
       0.753
       1.255
       1.625
       1.789
       1.806
       1.779
       1.744
       1.637
       1.378
       0.976
       0.547
       0.225
       0.045
      -0.088
      -0.313
      -0.712
      -1.291
      -2.033
      -2.940
      -3.973
      -4.975
      -5.675
      -5.827
      -5.363
      -4.444
      -3.368
      -2.403
      -1.691
      -1.236
      -0.963
      -0.771
      -0.565
      -0.266
       0.195
       0.875
       1.794
       2.891
       4.003
       4.899
       5.360
       5.271
       4.675
       3.788
       2.929
       2.393
       2.315
       2.600
       2.950
       2.991
       2.433
       1.215
      -0.444
      -2.133
      -3.445
      -4.176
      -4.383
      -4.267
      -3.992
      -3.611
      -3.142
      -2.675
      -2.365
      -2.295
      -2.366
      -2.359
      -2.138
      -1.768
      -1.430
      -1.196
      -0.889
      -0.209
       0.973
       2.432
       3.710
       4.429
       4.531
       4.237
       3.831
       3.487
       3.255
       3.157
       3.234
       3.468
       3.677
       3.521
       2.705
       1.225
      -0.553
      -2.108
      -3.072
      -3.405
      -3.309
      -3.019
      -2.669
      -2.312
      -2.007
      -1.858
      -1.927
      -2.144
      -2.289
      -2.122
      -1.559
      -0.756
      -0.010
       0.449
       0.634
       0.783
       1.158
       1.797
       2.434
       2.676
       2.323
       1.543
       0.754
       0.304
       0.214
       0.208
      -0.023
      -0.554
      -1.178
      -1.595
      -1.693
      -1.645
      -1.737
      -2.081
      -2.475
      -2.543
      -2.033
      -1.031
       0.093
       0.927
       1.281
       1.247
       1.062
       0.891
       0.746
       0.579
       0.436
       0.481
       0.856
       1.516
       2.192
       2.530
       2.313
       1.603
       0.715
       0.039
      -0.179
       0.028
       0.388
       0.567
       0.395
      -0.035
      -0.450
      -0.595
      -0.396
       0.016
       0.418
       0.624
       0.565
       0.292
      -0.070
      -0.392
      -0.607
      -0.738
      -0.850
      -0.976
      -1.073
      -1.062
      -0.911
      -0.696
      -0.577
      -0.701
      -1.086
      -1.578
      -1.932
      -1.967
      -1.669
      -1.175
      -0.648
      -0.147
       0.382
       1.007
       1.690
       2.252
       2.486
       2.319
       1.904
       1.536
       1.468
       1.729
       2.111
       2.327
       2.216
       1.834
       1.357
       0.909
       0.479
      -0.022
      -0.628
      -1.260
      -1.772
      -2.067
      -2.162
      -2.161
      -2.160
      -2.177
      -2.173
      -2.117
      -2.022
      -1.909
      -1.748
      -1.437
      -0.881
      -0.112
       0.665
       1.173
       1.259
       1.021
       0.747
       0.714
       0.982
       1.345
       1.483
       1.228
       0.707
       0.236
       0.043
       0.096
       0.185
       0.159
       0.033
      -0.109
      -0.251
      -0.468
      -0.810
      -1.217
      -1.541
      -1.637
      -1.443
      -1.004
      -0.475
      -0.077
       0.006
      -0.235
      -0.577
      -0.707
      -0.470
       0.006
       0.454
       0.730
       0.906
       1.104
       1.303
       1.356
       1.192
       0.950
       0.884
       1.140
       1.635
       2.140
       2.444
       2.419
       1.990
       1.129
      -0.072
      -1.361
      -2.401
      -2.944
      -2.957
      -2.621
      -2.199
      -1.891
      -1.740
      -1.665
      -1.553
      -1.366
      -1.178
      -1.106
      -1.203
      -1.381
      -1.454
      -1.285
      -0.899
      -0.450
      -0.065
       0.270
       0.666
       1.191
       1.784
       2.315
       2.707
       2.993
       3.228
       3.370
       3.246
       2.692
       1.738
       0.677
      -0.099
      -0.359
      -0.190
       0.108
       0.267
       0.233
       0.137
       0.100
       0.100
       0.011
      -0.251
      -0.643
      -1.044
      -1.371
      -1.617
      -1.813
      -1.955
      -1.988
      -1.850
      -1.541
      -1.131
      -0.722
      -0.405
      -0.236
      -0.241
      -0.393
      -0.610
      -0.761
      -0.707
      -0.360
       0.268
       1.037
       1.707
       2.039
       1.924
       1.454
       0.888
       0.512
       0.471
       0.695
       0.956
       1.033
       0.856
       0.534
       0.264
       0.194
       0.332
       0.545
       0.643
       0.501
       0.139
      -0.292
      -0.605
      -0.691
      -0.552
      -0.272
       0.053
       0.356
       0.594
       0.704
       0.604
       0.253
      -0.260
      -0.724
      -0.950
      -0.933
      -0.869
      -0.969
      -1.236
      -1.412
      -1.168
      -0.392
       0.676
       1.567
       1.878
       1.513
       0.713
      -0.120
      -0.657
      -0.799
      -0.682
      -0.578
      -0.723
      -1.165
      -1.708
      -2.039
      -1.942
      -1.440
      -0.752
      -0.123
       0.332
       0.642
       0.868
       0.986
       0.888
       0.510
      -0.024
      -0.417
      -0.388
       0.108
       0.826
       1.407
       1.631
       1.536
       1.322
       1.147
       1.024
       0.882
       0.692
       0.511
       0.421
       0.431
       0.453
       0.375
       0.165
      -0.118
      -0.400
      -0.678
      -1.018
      -1.453
      -1.893
      -2.155
      -2.098
      -1.743
      -1.277
      -0.927
      -0.801
      -0.836
      -0.867
      -0.770
      -0.566
      -0.421
      -0.519
      -0.895
      -1.326
      -1.410
      -0.810
       0.456
       1.938
       2.983
       3.143
       2.460
       1.422
       0.620
       0.384
       0.642
       1.074
       1.400
       1.565
       1.690
       1.877
       2.049
       1.973
       1.453
       0.520
      -0.530
      -1.316
      -1.617
      -1.510
      -1.313
      -1.379
      -1.874
      -2.659
      -3.337
      -3.473
      -2.857
      -1.650
      -0.299
       0.731
       1.218
       1.249
       1.072
       0.891
       0.743
       0.551
       0.239
      -0.163
      -0.508
      -0.610
      -0.361
       0.193
       0.871
       1.443
       1.738
       1.698
       1.364
       0.826
       0.185
      -0.447
      -0.944
      -1.180
      -1.096
      -0.736
      -0.241
       0.215
       0.500
       0.582
       0.503
       0.327
       0.089
      -0.177
      -0.395
      -0.468
      -0.370
      -0.217
      -0.203
      -0.419
      -0.719
      -0.794
      -0.436
       0.245
       0.859
       1.037
       0.738
       0.268
       0.008
       0.086
       0.311
       0.413
       0.326
       0.234
       0.366
       0.772
       1.290
       1.677
       1.767
       1.534
       1.055
       0.438
      -0.227
      -0.853
      -1.332
      -1.526
      -1.342
      -0.836
      -0.269
       0.020
      -0.160
      -0.683
      -1.185
      -1.345
      -1.150
      -0.898
      -0.899
      -1.165
      -1.368
      -1.130
      -0.381
       0.565
       1.264
       1.466
       1.257
       0.925
       0.709
       0.640
       0.600
       0.501
       0.417
       0.507
       0.820
       1.181
       1.297
       0.981
       0.310
      -0.409
      -0.815
      -0.720
      -0.237
       0.285
       0.472
       0.148
      -0.573
      -1.387
      -2.010
      -2.341
      -2.459
      -2.488
      -2.452
      -2.282
      -1.918
      -1.417
      -0.921
      -0.531
      -0.211
       0.187
       0.770
       1.475
       2.072
       2.325
       2.167
       1.748
       1.333
       1.163
       1.354
       1.857
       2.445
       2.789
       2.630
       1.967
       1.092
       0.419
       0.207
       0.385
       0.620
       0.569
       0.115
      -0.601
      -1.358
      -2.050
      -2.701
      -3.296
      -3.656
      -3.521
      -2.802
      -1.749
      -0.843
      -0.474
      -0.674
      -1.112
      -1.344
      -1.114
      -0.499
       0.150
       0.436
       0.188
      -0.378
      -0.763
      -0.514
       0.423
       1.631
       2.514
       2.750
       2.516
       2.296
       2.419
       2.763
       2.871
       2.342
       1.166
      -0.268
      -1.415
      -1.872
      -1.564
      -0.762
       0.048
       0.413
       0.170
      -0.449
      -0.961
      -0.966
      -0.449
       0.182
       0.364
      -0.228
      -1.420
      -2.617
      -3.163
      -2.733
      -1.497
       0.054
       1.436
       2.396
       2.859
       2.793
       2.192
       1.215
       0.222
      -0.399
      -0.489
      -0.165
       0.332
       0.799
       1.065
       0.959
       0.392
      -0.501
      -1.389
      -1.981
      -2.272
      -2.502
      -2.858
      -3.211
      -3.170
      -2.428
      -1.061
       0.503
       1.768
       2.427
       2.400
       1.762
       0.725
      -0.352
      -1.022
      -0.945
      -0.094
       1.191
       2.345
       2.861
       2.562
       1.714
       0.905
       0.692
       1.213
       2.018
       2.346
       1.701
       0.273
      -1.174
      -1.876
      -1.600
      -0.707
       0.223
       0.801
       0.930
       0.654
       0.037
      -0.794
      -1.558
      -1.909
      -1.690
      -1.110
      -0.625
      -0.586
      -0.964
      -1.407
      -1.582
      -1.459
      -1.286
      -1.294
      -1.448
      -1.485
      -1.168
      -0.494
       0.310
       0.954
       1.253
       1.193
       0.929
       0.701
       0.676
       0.785
       0.729
       0.258
      -0.537
      -1.230
      -1.429
      -1.127
      -0.667
      -0.372
      -0.208
       0.166
       1.024
       2.263
       3.482
       4.386
       5.126
       6.212
       8.061
      10.590
      13.220
      15.268
      16.359
      16.554
      16.172
      15.525
      14.799
      14.106
      13.573
      13.286
      13.115
      12.595
      11.092
       8.216
       4.186
      -0.202
      -4.021
      -6.790
      -8.800
     -10.976
     -14.318
     -19.268
     -25.388
     -31.586
     -36.689
     -39.924
     -41.023
     -40.032
     -37.173
     -32.931
     -28.154
     -23.807
     -20.389
     -17.529
     -14.218
      -9.571
      -3.496
       3.243
       9.474
      14.152
      16.677
      16.986
      15.517
      13.059
      10.491
       8.454
       7.156
       6.452
       6.109
       6.073
       6.561
       7.913
      10.253
      13.235
      16.139
      18.259
      19.230
      19.026
      17.698
      15.199
      11.493
       6.813
       1.727
      -3.152
      -7.545
     -11.590
     -15.489
     -18.950
     -20.907
     -19.919
     -15.228
      -7.679
       0.428
       6.601
       9.461
       9.117
       6.594
       3.016
      -0.839
      -4.511
      -7.631
      -9.759
     -10.434
      -9.372
      -6.644
      -2.665
       1.949
       6.467
      10.060
      11.973
      11.930
      10.516
       9.079
       8.985
      10.705
      13.403
      15.398
      15.183
      12.250
       7.190
       1.185
      -4.573
      -9.137
     -11.825
     -12.312
     -10.853
      -8.283
      -5.575
      -3.294
      -1.476
      -0.015
       0.903
       0.826
      -0.517
      -2.838
      -5.379
      -7.340
      -8.208
      -7.824
      -6.308
      -3.998
      -1.357
       1.152
       3.201
       4.670
       5.689
       6.637
       7.994
       9.957
      12.042
      13.151
      12.245
       9.109
       4.588
       0.076
      -3.269
      -4.972
      -5.182
      -4.398
      -3.315
      -2.739
      -3.366
      -5.429
      -8.456
     -11.418
     -13.249
     -13.422
     -12.172
     -10.208
      -8.209
      -6.506
      -5.119
      -3.948
      -2.836
      -1.504
       0.427
       3.198
       6.649
      10.230
      13.336
      15.686
      17.391
      18.677
      19.518
      19.583
      18.545
      16.481
      13.947
      11.634
       9.922
       8.667
       7.312
       5.185
       1.852
      -2.575
      -7.361
     -11.467
     -14.160
     -15.498
     -16.249
     -17.264
     -18.765
     -20.122
     -20.339
     -18.861
     -16.012
     -12.730
      -9.930
      -8.019
      -6.790
      -5.650
      -4.017
      -1.655
       1.299
       4.557
       7.875
      11.019
      13.612
      15.102
      15.014
      13.367
      10.871
       8.655
       7.649
       8.067
       9.357
      10.584
      10.959
      10.155
       8.255
       5.529
       2.266
      -1.230
      -4.594
      -7.471
      -9.663
     -11.212
     -12.282
     -12.947
     -13.082
     -12.500
     -11.201
      -9.516
      -7.996
      -7.117
      -6.986
      -7.270
      -7.391
      -6.866
      -5.522
      -3.500
      -1.141
       1.137
       2.936
       4.044
       4.584
       4.998
       5.794
       7.244
       9.269
      11.515
      13.491
      14.697
      14.767
      13.623
      11.553
       9.115
       6.890
       5.180
       3.852
       2.455
       0.586
      -1.765
      -4.182
      -6.133
      -7.335
      -7.901
      -8.220
      -8.723
      -9.643
     -10.849
     -11.860
     -12.097
     -11.211
      -9.229
      -6.449
      -3.257
      -0.034
       2.912
       5.423
       7.524
       9.327
      10.900
      12.186
      12.946
      12.794
      11.452
       9.116
       6.549
       4.649
       3.814
       3.712
       3.634
       3.043
       1.790
      -0.043
      -2.386
      -5.233
      -8.520
     -11.986
     -15.143
     -17.429
     -18.444
     -18.131
     -16.810
     -15.030
     -13.342
     -12.089
     -11.331
     -10.892
     -10.466
      -9.712
      -8.353
      -6.251
      -3.422
       0.018
       3.894
       7.936
      11.721
      14.694
      16.378
      16.642
      15.786
      14.288
      12.458
      10.352
       7.997
       5.645
       3.728
       2.559
       2.089
       1.952
       1.751
       1.298
       0.647
      -0.070
      -0.798
      -1.591
      -2.456
      -3.178
      -3.360
      -2.760
      -1.619
      -0.613
      -0.377
      -1.002
      -1.940
      -2.437
      -2.164
      -1.503
      -1.188
      -1.629
      -2.533
      -3.144
      -2.795
      -1.316
       0.931
       3.274
       5.039
       5.841
       5.742
       5.189
       4.755
       4.786
       5.157
       5.297
       4.562
       2.759
       0.416
      -1.517
      -2.366
      -2.257
      -1.975
      -2.305
      -3.419
      -4.820
      -5.816
      -6.031
      -5.542
      -4.633
      -3.508
      -2.231
      -0.859
       0.433
       1.418
       1.989
       2.265
       2.491
       2.825
       3.202
       3.429
       3.406
       3.281
       3.379
       3.944
       4.922
       5.946
       6.551
       6.439
       5.618
       4.359
       3.044
       1.987
       1.301
       0.870
       0.443
      -0.187
      -1.057
      -2.059
      -3.084
      -4.118
      -5.168
      -6.117
      -6.721
      -6.836
      -6.658
      -6.659
      -7.201
      -8.163
      -8.965
      -8.993
      -8.042
      -6.421
      -4.678
      -3.220
      -2.133
      -1.276
      -0.532
       0.034
       0.237
      -0.007
      -0.516
      -0.908
      -0.851
      -0.320
       0.387
       0.875
       0.954
       0.750
       0.575
       0.737
       1.455
       2.835
       4.808
       7.048
       9.008
      10.125
      10.074
       8.929
       7.156
       5.451
       4.442
       4.379
       4.971
       5.536
       5.447
       4.540
       3.162
       1.799
       0.669
      -0.335
      -1.347
      -2.274
      -2.869
      -3.037
      -2.996
      -3.089
      -3.468
      -3.960
      -4.249
      -4.156
      -3.752
      -3.230
      -2.698
      -2.087
      -1.230
      -0.024
       1.461
       2.998
       4.343
