Origin Time       25/11/2007 23:12:20
Lat.              28.6 N 
Long.             77.0 E 
Depth (Km)         20.3
Magnitude         4.3
 Region           DELHI-HARYANA-BORDER-REGION                                      
 Above details taken from IMD 
     
Station Code      GUR
Station Lat.       28.449  N
Station Long.      77.029  E
Station Height(m)  216.0
Site Class        C   Vs30 between 200 m/sec to 375 m/sec *  
Record Time       25.11.2007 23:05:13.829
Sampling Rate     200. Hz
 Record Duration   37.800 Sec.
 Direction         E-W (E positive)
Max. Acceleration     37.325 cm/sec**2
     
  * For reference see Site Classification link of website 
     
 Base Line Corrected and Low Pass Filtered (Cut Off at 35 Hz) Time History
 Acceleration data in cm/sec**2
    
[...]
       0.002
      -0.002
      -0.002
       0.002
       0.008
       0.014
       0.018
       0.018
       0.015
       0.011
       0.008
       0.006
       0.005
       0.001
      -0.006
      -0.014
      -0.018
      -0.016
      -0.011
      -0.007
      -0.007
      -0.013
      -0.019
      -0.021
      -0.014
       0.001
       0.015
       0.019
       0.011
      -0.001
      -0.009
      -0.010
      -0.008
      -0.007
      -0.009
      -0.011
      -0.009
      -0.004
      -0.002
      -0.004
      -0.008
      -0.006
       0.001
       0.010
       0.015
       0.014
       0.007
      -0.003
      -0.011
      -0.013
      -0.011
      -0.005
       0.001
       0.005
       0.008
       0.008
       0.008
       0.009
       0.011
       0.014
       0.017
       0.019
       0.018
       0.016
       0.012
       0.007
       0.002
      -0.002
      -0.004
      -0.005
      -0.005
      -0.004
      -0.001
       0.004
       0.009
       0.011
       0.011
       0.009
       0.010
       0.011
       0.011
       0.011
       0.011
       0.010
       0.005
      -0.005
      -0.015
      -0.020
      -0.014
      -0.002
       0.009
       0.012
       0.007
       0.001
       0.002
       0.008
       0.016
       0.020
       0.018
       0.011
       0.004
      -0.001
      -0.002
      -0.002
       0.000
       0.003
       0.007
       0.008
       0.006
       0.003
       0.002
       0.003
       0.009
       0.017
       0.023
       0.023
       0.016
       0.006
      -0.001
      -0.005
      -0.008
      -0.012
      -0.018
      -0.023
      -0.025
      -0.024
      -0.020
      -0.016
      -0.013
      -0.010
      -0.008
      -0.007
      -0.005
      -0.002
       0.002
       0.007
       0.009
       0.006
       0.000
      -0.006
      -0.011
      -0.013
      -0.013
      -0.010
      -0.006
      -0.001
       0.004
       0.008
       0.011
       0.014
       0.017
       0.017
       0.011
       0.000
      -0.011
      -0.017
      -0.015
      -0.010
      -0.005
       0.001
       0.007
       0.016
       0.024
       0.029
       0.030
       0.028
       0.028
       0.032
       0.035
       0.035
       0.032
       0.027
       0.024
       0.024
       0.031
       0.050
       0.087
       0.143
       0.208
       0.263
       0.289
       0.274
       0.216
       0.122
       0.008
      -0.104
      -0.185
      -0.213
      -0.187
      -0.144
      -0.136
      -0.199
      -0.324
      -0.462
      -0.554
      -0.560
      -0.470
      -0.295
      -0.064
       0.179
       0.373
       0.458
       0.413
       0.268
       0.096
      -0.035
      -0.094
      -0.091
      -0.045
       0.034
       0.135
       0.218
       0.208
       0.049
      -0.238
      -0.543
      -0.733
      -0.735
      -0.578
      -0.335
      -0.055
       0.269
       0.662
       1.104
       1.522
       1.841
       2.041
       2.151
       2.200
       2.180
       2.067
       1.880
       1.685
       1.536
       1.394
       1.129
       0.614
      -0.179
      -1.153
      -2.145
      -2.996
      -3.591
      -3.857
      -3.774
      -3.404
      -2.907
      -2.479
      -2.243
      -2.162
      -2.094
      -1.921
      -1.654
      -1.394
      -1.200
      -0.996
      -0.640
      -0.070
       0.609
       1.199
       1.559
       1.708
       1.771
       1.856
       1.974
       2.093
       2.223
       2.442
       2.790
       3.148
       3.245
       2.825
       1.849
       0.562
      -0.648
      -1.473
      -1.836
      -1.877
      -1.808
      -1.781
      -1.826
      -1.881
      -1.850
      -1.658
      -1.302
      -0.880
      -0.559
      -0.463
      -0.568
      -0.689
      -0.618
      -0.305
       0.071
       0.220
      -0.044
      -0.645
      -1.275
      -1.581
      -1.394
      -0.825
      -0.159
       0.364
       0.713
       1.026
       1.426
       1.864
       2.159
       2.173
       1.944
       1.653
       1.462
       1.397
       1.366
       1.266
       1.070
       0.816
       0.550
       0.274
      -0.035
      -0.367
      -0.648
      -0.773
      -0.688
      -0.449
      -0.200
      -0.086
      -0.154
      -0.341
      -0.536
      -0.664
      -0.716
      -0.721
      -0.689
      -0.587
      -0.354
       0.027
       0.488
       0.888
       1.105
       1.091
       0.881
       0.534
       0.108
      -0.332
      -0.683
      -0.824
      -0.694
      -0.367
      -0.055
       0.011
      -0.249
      -0.673
      -0.958
      -0.878
      -0.452
       0.091
       0.497
       0.658
       0.632
       0.532
       0.419
       0.294
       0.162
       0.064
       0.046
       0.094
       0.114
      -0.015
      -0.331
      -0.719
      -0.956
      -0.874
      -0.515
      -0.116
       0.062
      -0.051
      -0.263
      -0.261
       0.149
       0.883
       1.620
       2.016
       1.932
       1.507
       1.022
       0.680
       0.484
       0.303
       0.031
      -0.322
      -0.667
      -0.947
      -1.183
      -1.433
      -1.707
      -1.939
      -2.026
      -1.910
      -1.616
      -1.232
      -0.848
      -0.512
      -0.240
      -0.042
       0.068
       0.090
       0.062
       0.052
       0.123
       0.297
       0.552
       0.850
       1.154
       1.448
       1.724
       1.976
       2.196
       2.374
       2.495
       2.524
       2.410
       2.116
       1.662
       1.138
       0.662
       0.297
       0.016
      -0.260
      -0.589
      -0.973
      -1.378
      -1.775
      -2.146
      -2.463
      -2.683
      -2.770
      -2.724
      -2.569
      -2.321
      -1.980
      -1.563
      -1.138
      -0.808
      -0.649
      -0.640
      -0.659
      -0.556
      -0.260
       0.173
       0.604
       0.919
       1.106
       1.221
       1.300
       1.303
       1.158
       0.857
       0.495
       0.199
       0.015
      -0.120
      -0.306
      -0.562
      -0.797
      -0.890
      -0.794
      -0.579
      -0.384
      -0.312
      -0.371
      -0.473
      -0.499
      -0.384
      -0.154
       0.107
       0.322
       0.467
       0.553
       0.599
       0.614
       0.617
       0.655
       0.806
       1.132
       1.601
       2.052
       2.253
       2.064
       1.558
       0.999
       0.655
       0.611
       0.727
       0.781
       0.648
       0.356
      -0.006
      -0.403
      -0.867
      -1.410
      -1.951
      -2.349
      -2.499
      -2.394
      -2.093
      -1.667
      -1.193
      -0.785
      -0.565
      -0.566
      -0.667
      -0.670
      -0.459
      -0.089
       0.281
       0.525
       0.633
       0.673
       0.722
       0.838
       1.059
       1.399
       1.819
       2.214
       2.455
       2.448
       2.190
       1.765
       1.304
       0.911
       0.603
       0.300
      -0.094
      -0.595
      -1.105
      -1.487
      -1.673
      -1.702
      -1.658
      -1.586
      -1.461
      -1.243
      -0.937
      -0.604
      -0.307
      -0.071
       0.107
       0.215
       0.216
       0.082
      -0.170
      -0.477
      -0.748
      -0.891
      -0.851
      -0.663
      -0.454
      -0.351
      -0.368
      -0.381
      -0.242
       0.068
       0.408
       0.596
       0.571
       0.431
       0.327
       0.323
       0.363
       0.362
       0.297
       0.214
       0.153
       0.118
       0.104
       0.128
       0.207
       0.304
       0.318
       0.155
      -0.181
      -0.569
      -0.848
      -0.931
      -0.844
      -0.679
      -0.489
      -0.241
       0.137
       0.659
       1.235
       1.714
       1.983
       2.041
       1.967
       1.833
       1.638
       1.342
       0.945
       0.528
       0.215
       0.082
       0.094
       0.137
       0.104
      -0.031
      -0.221
      -0.426
      -0.661
      -0.981
      -1.399
      -1.848
      -2.222
      -2.450
      -2.520
      -2.449
      -2.246
      -1.923
      -1.530
      -1.152
      -0.849
      -0.592
      -0.280
       0.169
       0.713
       1.195
       1.458
       1.478
       1.381
       1.324
       1.376
       1.490
       1.587
       1.634
       1.652
       1.659
       1.612
       1.421
       1.036
       0.522
       0.033
      -0.315
      -0.527
      -0.700
      -0.910
      -1.148
      -1.348
      -1.471
      -1.546
      -1.631
      -1.721
      -1.719
      -1.510
      -1.093
      -0.622
      -0.298
      -0.194
      -0.199
      -0.135
       0.064
       0.296
       0.398
       0.309
       0.116
      -0.044
      -0.098
      -0.079
      -0.047
      -0.002
       0.129
       0.403
       0.792
       1.196
       1.528
       1.756
       1.878
       1.841
       1.537
       0.908
       0.069
      -0.700
      -1.113
      -1.073
      -0.734
      -0.374
      -0.188
      -0.175
      -0.188
      -0.104
       0.051
       0.122
      -0.031
      -0.387
      -0.763
      -0.949
      -0.872
      -0.628
      -0.381
      -0.200
      -0.012
       0.318
       0.809
       1.290
       1.494
       1.274
       0.739
       0.191
      -0.112
      -0.148
      -0.124
      -0.273
      -0.648
      -1.073
      -1.301
      -1.210
      -0.886
      -0.494
      -0.121
       0.255
       0.635
       0.909
       0.934
       0.691
       0.353
       0.140
       0.132
       0.214
       0.211
       0.045
      -0.235
      -0.549
      -0.865
      -1.165
      -1.370
      -1.343
      -1.000
      -0.423
       0.157
       0.537
       0.704
       0.843
       1.131
       1.531
       1.780
       1.629
       1.089
       0.440
      -0.007
      -0.160
      -0.175
      -0.255
      -0.450
      -0.622
      -0.599
      -0.342
       0.005
       0.233
       0.233
       0.062
      -0.149
      -0.328
      -0.500
      -0.701
      -0.882
      -0.933
      -0.805
      -0.572
      -0.374
      -0.283
      -0.233
      -0.102
       0.157
       0.436
       0.563
       0.462
       0.255
       0.193
       0.444
       0.926
       1.337
       1.389
       1.066
       0.663
       0.560
       0.897
       1.445
       1.769
       1.563
       0.893
       0.130
      -0.353
      -0.479
      -0.484
      -0.675
      -1.151
      -1.733
      -2.133
      -2.183
      -1.937
      -1.597
      -1.348
      -1.240
      -1.185
      -1.065
      -0.853
      -0.643
      -0.546
      -0.553
      -0.495
      -0.176
       0.425
       1.080
       1.462
       1.425
       1.151
       1.013
       1.276
       1.863
       2.404
       2.507
       2.062
       1.331
       0.770
       0.689
       1.024
       1.363
       1.247
       0.498
      -0.655
      -1.749
      -2.409
      -2.579
      -2.491
      -2.429
      -2.496
      -2.575
      -2.488
      -2.180
      -1.777
      -1.452
      -1.263
      -1.101
      -0.831
      -0.467
      -0.203
      -0.228
      -0.503
      -0.729
      -0.580
       0.018
       0.810
       1.427
       1.683
       1.674
       1.629
       1.696
       1.875
       2.066
       2.142
       1.983
       1.517
       0.801
       0.073
      -0.323
      -0.169
       0.413
       0.983
       1.064
       0.513
      -0.355
      -0.996
      -1.064
      -0.657
      -0.196
      -0.063
      -0.317
      -0.708
      -0.933
      -0.876
      -0.630
      -0.345
      -0.103
       0.063
       0.093
      -0.087
      -0.462
      -0.879
      -1.137
      -1.119
      -0.836
      -0.345
       0.305
       1.040
       1.698
       2.077
       2.084
       1.826
       1.518
       1.283
       1.057
       0.698
       0.181
      -0.344
      -0.696
      -0.839
      -0.894
      -0.995
      -1.140
      -1.212
      -1.110
      -0.861
      -0.600
      -0.454
      -0.438
      -0.455
      -0.390
      -0.204
       0.048
       0.281
       0.446
       0.550
       0.637
       0.750
       0.906
       1.064
       1.120
       0.944
       0.470
      -0.205
      -0.831
      -1.155
      -1.112
      -0.871
      -0.682
      -0.671
      -0.772
      -0.830
      -0.737
      -0.478
      -0.118
       0.221
       0.369
       0.198
      -0.257
      -0.768
      -1.055
      -1.014
      -0.793
      -0.648
      -0.708
      -0.912
      -1.139
      -1.336
      -1.500
      -1.568
      -1.421
      -1.036
      -0.592
      -0.358
      -0.446
      -0.684
      -0.753
      -0.448
       0.180
       0.865
       1.307
       1.345
       1.055
       0.717
       0.671
       1.099
       1.900
       2.734
       3.234
       3.242
       2.899
       2.525
       2.372
       2.465
       2.638
       2.739
       2.782
       2.938
       3.352
       3.986
       4.627
       5.080
       5.347
       5.612
       6.047
       6.642
       7.221
       7.586
       7.640
       7.378
       6.810
       5.946
       4.817
       3.470
       1.895
      -0.009
      -2.338
      -5.028
      -7.777
     -10.157
     -11.866
     -12.917
     -13.650
     -14.566
     -16.109
     -18.475
     -21.504
     -24.656
     -27.136
     -28.175
     -27.406
     -25.108
     -22.127
     -19.433
     -17.566
     -16.317
     -14.886
     -12.407
      -8.474
      -3.339
       2.291
       7.666
      12.360
      16.422
      20.246
      24.250
      28.505
      32.572
      35.714
      37.325
      37.274
      35.939
      33.991
      32.036
      30.283
      28.394
      25.654
      21.397
      15.427
       8.133
       0.291
      -7.203
     -13.466
     -17.731
     -19.624
     -19.518
     -18.532
     -17.921
     -18.252
     -19.082
     -19.425
     -18.602
     -16.752
     -14.638
     -13.002
     -12.057
     -11.529
     -11.055
     -10.481
      -9.759
      -8.627
      -6.521
      -2.930
       2.060
       7.555
      12.258
      15.245
      16.516
      16.871
      17.192
      17.753
      18.125
      17.708
      16.337
      14.400
      12.389
      10.370
       7.884
       4.375
      -0.234
      -5.337
      -9.978
     -13.435
     -15.560
     -16.595
     -16.718
     -15.817
     -13.775
     -10.923
      -8.130
      -6.323
      -5.820
      -6.051
      -5.939
      -4.651
      -2.136
       0.929
       3.674
       5.597
       6.739
       7.479
       8.178
       8.927
       9.478
       9.342
       8.035
       5.388
       1.735
      -2.176
      -5.556
      -7.958
      -9.376
     -10.016
     -10.043
      -9.529
      -8.595
      -7.482
      -6.450
      -5.591
      -4.801
      -3.975
      -3.207
      -2.757
      -2.766
      -3.022
      -3.051
      -2.537
      -1.693
      -1.164
      -1.447
      -2.343
      -2.988
      -2.500
      -0.675
       1.912
       4.446
       6.539
       8.398
      10.451
      12.823
      15.179
      16.995
      17.963
      18.145
      17.803
      17.123
      16.107
      14.652
      12.696
      10.255
       7.392
       4.196
       0.797
      -2.643
      -5.964
      -9.035
     -11.749
     -14.023
     -15.814
     -17.140
     -18.054
     -18.582
     -18.697
     -18.343
     -17.500
     -16.211
     -14.542
     -12.525
     -10.152
      -7.420
      -4.389
      -1.192
       1.996
       5.035
       7.870
      10.465
      12.664
      14.191
      14.833
      14.676
      14.169
      13.911
      14.266
      15.070
      15.685
      15.384
      13.760
      10.886
       7.164
       3.070
      -1.001
      -4.705
      -7.687
      -9.636
     -10.456
     -10.380
      -9.892
      -9.461
      -9.280
      -9.200
      -8.907
      -8.199
      -7.134
      -5.973
      -4.983
      -4.294
      -3.896
      -3.728
      -3.745
      -3.889
      -4.003
      -3.813
      -3.012
      -1.423
       0.879
       3.553
       6.098
       8.047
       9.141
       9.392
       8.984
       8.065
       6.634
       4.654
       2.312
       0.127
      -1.305
      -1.750
      -1.528
      -1.243
      -1.290
      -1.593
      -1.795
      -1.678
      -1.365
      -1.143
      -1.116
      -1.092
      -0.852
      -0.475
      -0.339
      -0.759
      -1.644
      -2.541
      -3.022
      -3.047
      -2.972
      -3.194
      -3.763
      -4.276
      -4.174
      -3.182
      -1.508
       0.355
       2.039
       3.521
       4.974
       6.434
       7.674
       8.382
       8.466
       8.158
       7.829
       7.706
       7.720
       7.559
       6.860
       5.419
       3.335
       1.009
      -1.046
      -2.488
      -3.365
      -4.083
      -5.125
      -6.724
      -8.707
     -10.618
     -12.008
     -12.681
     -12.744
     -12.443
     -11.933
     -11.135
      -9.775
      -7.587
      -4.547
      -0.990
       2.488
       5.314
       7.222
       8.347
       9.072
       9.739
      10.433
      11.004
      11.297
      11.317
      11.185
      10.940
      10.431
       9.388
       7.625
       5.200
       2.402
      -0.405
      -2.976
      -5.259
      -7.288
      -9.004
     -10.196
     -10.650
     -10.379
      -9.696
      -9.021
      -8.562
      -8.184
      -7.604
      -6.751
      -5.905
      -5.445
      -5.422
      -5.415
      -4.834
      -3.430
      -1.520
       0.259
       1.471
       2.193
       2.850
       3.747
       4.776
       5.547
       5.791
       5.622
       5.416
       5.440
       5.597
       5.548
       5.071
       4.310
       3.681
       3.529
       3.846
       4.237
       4.154
       3.217
       1.437
      -0.801
      -2.945
      -4.545
      -5.438
      -5.763
      -5.830
      -5.907
      -6.051
      -6.089
      -5.777
      -5.013
      -3.902
      -2.628
      -1.259
       0.321
       2.288
       4.673
       7.267
       9.697
      11.606
      12.795
      13.277
      13.236
      12.920
      12.494
      11.902
      10.896
       9.253
       7.042
       4.669
       2.609
       1.046
      -0.255
      -1.728
      -3.647
      -5.930
      -8.249
     -10.294
     -11.944
     -13.235
     -14.211
     -14.849
     -15.109
     -15.026
     -14.696
     -14.159
     -13.285
     -11.800
      -9.502
      -6.495
      -3.204
      -0.125
       2.462
       4.576
       6.339
       7.730
       8.585
       8.820
       8.609
       8.301
       8.154
       8.167
       8.166
       8.040
       7.863
       7.766
       7.711
       7.435
       6.646
       5.267
       3.507
       1.695
       0.070
      -1.308
      -2.472
      -3.445
      -4.202
      -4.710
      -4.974
      -5.068
      -5.153
      -5.433
      -6.005
      -6.723
      -7.226
      -7.159
      -6.433
      -5.294
      -4.151
      -3.301
      -2.743
      -2.206
      -1.344
       0.009
       1.695
       3.305
       4.448
       5.018
       5.236
       5.443
       5.834
       6.369
       6.900
       7.325
       7.605
       7.671
       7.417
       6.780
       5.811
       4.623
       3.277
       1.754
       0.041
      -1.786
      -3.576
      -5.177
      -6.462
      -7.311
      -7.626
      -7.395
      -6.760
      -5.977
      -5.275
      -4.733
      -4.274
