Origin Time       25/11/2007 23:12:20
Lat.              28.6 N 
Long.             77.0 E 
Depth (Km)         20.3
Magnitude         4.3
 Region           DELHI-HARYANA-BORDER-REGION                                      
 Above details taken from IMD 
   
Station Code      GUR
Station Lat.       28.449
Station Long.      77.029
Station Height(m)  216.0
Site Class        C   Vs30 between 200 m/sec to 375 m/sec *  
Record Time       25.11.2007 23:05:13.829
Sampling Rate     200. Hz
 Record Duration   37.800 Sec.
 Direction         Vert. (Up positive)
Max. Acceleration    -18.020 cm/sec**2
     
  * For reference see Site Classification link of website 
     
 Base Line Corrected and Low Pass Filtered (Cut Off at 35 Hz) Time History
 Acceleration data in cm/sec**2
    
[...]
      -0.011
      -0.007
      -0.002
      -0.001
      -0.001
      -0.002
      -0.002
      -0.003
      -0.008
      -0.017
      -0.026
      -0.031
      -0.031
      -0.031
      -0.032
      -0.031
      -0.023
      -0.008
       0.009
       0.020
       0.026
       0.029
       0.034
       0.037
       0.035
       0.026
       0.014
       0.005
       0.001
      -0.003
      -0.009
      -0.013
      -0.014
      -0.012
      -0.015
      -0.023
      -0.033
      -0.035
      -0.028
      -0.016
      -0.006
       0.000
       0.003
       0.005
       0.005
       0.004
       0.002
       0.003
       0.005
       0.006
       0.005
      -0.001
      -0.008
      -0.008
       0.001
       0.017
       0.030
       0.032
       0.023
       0.004
      -0.024
      -0.067
      -0.135
      -0.240
      -0.384
      -0.560
      -0.749
      -0.918
      -1.026
      -1.040
      -0.961
      -0.855
      -0.846
      -1.097
      -1.752
      -2.869
      -4.351
      -5.907
      -7.084
      -7.391
      -6.480
      -4.320
      -1.263
       2.053
       4.915
       6.780
       7.448
       7.121
       6.340
       5.786
       6.000
       7.121
       8.778
      10.208
      10.572
       9.322
       6.455
       2.531
      -1.537
      -4.786
      -6.494
      -6.352
      -4.537
      -1.685
       1.227
       3.142
       3.273
       1.423
      -1.879
      -5.537
      -8.317
      -9.360
      -8.518
      -6.328
      -3.696
      -1.507
      -0.340
      -0.335
      -1.138
      -1.971
      -1.910
      -0.327
       2.721
       6.397
       9.399
      10.599
       9.566
       6.649
       2.660
      -1.495
      -5.037
      -7.410
      -8.355
      -7.976
      -6.696
      -5.049
      -3.404
      -1.881
      -0.503
       0.639
       1.383
       1.624
       1.434
       1.101
       1.014
       1.414
       2.164
       2.741
       2.499
       1.086
      -1.211
      -3.467
      -4.580
      -3.896
      -1.566
       1.580
       4.484
       6.332
       6.796
       5.975
       4.228
       2.049
      -0.010
      -1.476
      -2.147
      -2.198
      -2.091
      -2.257
      -2.768
      -3.270
      -3.302
      -2.740
      -1.954
      -1.499
      -1.649
      -2.188
      -2.642
      -2.688
      -2.335
      -1.765
      -1.065
      -0.184
       0.871
       1.854
       2.368
       2.200
       1.618
       1.290
       1.811
       3.211
       4.872
       5.962
       6.013
       5.144
       3.780
       2.235
       0.596
      -1.049
      -2.394
      -3.039
      -2.828
      -2.065
      -1.364
      -1.239
      -1.752
      -2.515
      -3.017
      -3.005
      -2.616
      -2.181
      -1.893
      -1.647
      -1.209
      -0.518
       0.223
       0.757
       1.053
       1.347
       1.904
       2.716
       3.452
       3.695
       3.280
       2.404
       1.434
       0.636
       0.057
      -0.366
      -0.655
      -0.744
      -0.573
      -0.227
       0.058
       0.072
      -0.169
      -0.395
      -0.258
       0.393
       1.339
       2.045
       1.955
       0.847
      -0.992
      -2.889
      -4.125
      -4.256
      -3.229
      -1.311
       0.971
       2.896
       3.773
       3.268
       1.628
      -0.414
      -2.009
      -2.641
      -2.374
      -1.726
      -1.282
      -1.332
      -1.789
      -2.367
      -2.831
      -3.097
      -3.117
      -2.733
      -1.734
      -0.091
       1.887
       3.634
       4.611
       4.615
       3.895
       2.945
       2.113
       1.376
       0.494
      -0.646
      -1.806
      -2.539
      -2.574
      -2.071
      -1.477
      -1.113
      -0.896
      -0.455
       0.458
       1.662
       2.605
       2.750
       1.988
       0.733
      -0.361
      -0.843
      -0.707
      -0.294
       0.031
       0.146
       0.200
       0.402
       0.797
       1.207
       1.374
       1.178
       0.735
       0.333
       0.227
       0.428
       0.662
       0.558
      -0.056
      -0.997
      -1.828
      -2.131
      -1.750
      -0.856
       0.156
       0.853
       0.959
       0.491
      -0.274
      -0.992
      -1.431
      -1.525
      -1.308
      -0.848
      -0.234
       0.411
       0.938
       1.212
       1.179
       0.895
       0.509
       0.212
       0.174
       0.499
       1.169
       1.988
       2.598
       2.621
       1.886
       0.581
      -0.854
      -1.998
      -2.672
      -2.918
      -2.824
      -2.411
      -1.696
      -0.819
      -0.074
       0.266
       0.173
      -0.099
      -0.224
      -0.056
       0.302
       0.620
       0.728
       0.617
       0.421
       0.279
       0.160
      -0.118
      -0.645
      -1.170
      -1.198
      -0.423
       0.909
       2.087
       2.453
       1.887
       0.783
      -0.377
      -1.354
      -2.128
      -2.674
      -2.848
      -2.486
      -1.624
      -0.590
       0.162
       0.355
       0.044
      -0.427
      -0.592
      -0.093
       1.041
       2.309
       3.039
       2.916
       2.211
       1.492
       1.097
       0.891
       0.534
      -0.067
      -0.592
      -0.586
       0.094
       1.105
       1.815
       1.719
       0.761
      -0.646
      -1.876
      -2.439
      -2.208
      -1.404
      -0.397
       0.497
       1.100
       1.331
       1.148
       0.577
      -0.224
      -0.967
      -1.371
      -1.344
      -1.026
      -0.653
      -0.378
      -0.235
      -0.211
      -0.290
      -0.394
      -0.350
       0.011
       0.694
       1.500
       2.124
       2.303
       1.911
       0.992
      -0.242
      -1.439
      -2.196
      -2.217
      -1.496
      -0.375
       0.596
       0.954
       0.571
      -0.299
      -1.184
      -1.614
      -1.325
      -0.383
       0.829
       1.800
       2.129
       1.688
       0.659
      -0.532
      -1.388
      -1.540
      -0.907
       0.238
       1.376
       2.022
       1.997
       1.469
       0.746
       0.027
      -0.697
      -1.526
      -2.442
      -3.174
      -3.333
      -2.737
      -1.615
      -0.493
       0.158
       0.204
      -0.148
      -0.574
      -0.830
      -0.787
      -0.400
       0.301
       1.181
       2.017
       2.582
       2.735
       2.457
       1.841
       1.065
       0.352
      -0.052
       0.046
       0.639
       1.419
       1.906
       1.743
       0.904
      -0.338
      -1.585
      -2.477
      -2.803
      -2.531
      -1.750
      -0.611
       0.639
       1.599
       1.813
       1.073
      -0.312
      -1.599
      -2.035
      -1.344
       0.089
       1.447
       1.995
       1.515
       0.379
      -0.780
      -1.499
      -1.716
      -1.659
      -1.524
      -1.288
      -0.801
      -0.012
       0.924
       1.702
       2.032
       1.833
       1.330
       0.950
       1.058
       1.718
       2.607
       3.160
       2.871
       1.615
      -0.260
      -2.151
      -3.545
      -4.199
      -4.118
      -3.409
      -2.196
      -0.616
       1.079
       2.475
       3.098
       2.660
       1.268
      -0.588
      -2.259
      -3.219
      -3.243
      -2.400
      -0.955
       0.709
       2.154
       2.990
       3.018
       2.323
       1.231
       0.135
      -0.705
      -1.239
      -1.511
      -1.504
      -1.146
      -0.505
       0.079
       0.143
      -0.539
      -1.691
      -2.594
      -2.511
      -1.178
       1.013
       3.262
       4.787
       5.133
       4.263
       2.477
       0.270
      -1.765
      -3.076
      -3.385
      -2.865
      -2.013
      -1.276
      -0.753
      -0.227
       0.503
       1.284
       1.613
       1.062
      -0.233
      -1.535
      -2.029
      -1.470
      -0.366
       0.479
       0.630
       0.274
      -0.087
      -0.084
       0.304
       0.864
       1.404
       1.884
       2.328
       2.646
       2.602
       1.995
       0.881
      -0.353
      -1.244
      -1.639
      -1.773
      -1.939
      -2.139
      -2.099
      -1.592
      -0.707
       0.185
       0.712
       0.779
       0.584
       0.358
       0.109
      -0.318
      -0.958
      -1.564
      -1.747
      -1.291
      -0.358
       0.600
       1.180
       1.317
       1.231
       1.129
       0.976
       0.576
      -0.182
      -1.142
      -1.932
      -2.194
      -1.820
      -0.999
      -0.052
       0.766
       1.372
       1.840
       2.233
       2.449
       2.309
       1.841
       1.351
       1.166
       1.296
       1.399
       1.088
       0.293
      -0.666
      -1.335
      -1.464
      -1.154
      -0.742
      -0.550
      -0.704
      -1.129
      -1.669
      -2.168
      -2.488
      -2.524
      -2.261
      -1.790
      -1.242
      -0.695
      -0.116
       0.581
       1.412
       2.203
       2.647
       2.519
       1.907
       1.203
       0.842
       0.939
       1.199
       1.192
       0.756
       0.107
      -0.409
      -0.629
      -0.668
      -0.746
      -0.944
      -1.091
      -0.917
      -0.331
       0.466
       1.120
       1.345
       1.031
       0.257
      -0.749
      -1.672
      -2.211
      -2.198
      -1.656
      -0.731
       0.383
       1.424
       2.030
       1.863
       0.828
      -0.822
      -2.523
      -3.558
      -3.346
      -1.755
       0.737
       3.188
       4.636
       4.604
       3.307
       1.426
      -0.341
      -1.575
      -2.165
      -2.172
      -1.679
      -0.802
       0.170
       0.790
       0.700
      -0.077
      -1.093
      -1.708
      -1.474
      -0.397
       1.079
       2.360
       3.022
       2.933
       2.144
       0.776
      -0.940
      -2.531
      -3.330
      -2.813
      -1.058
       1.108
       2.497
       2.239
       0.273
      -2.614
      -5.149
      -6.147
      -5.051
      -2.175
       1.437
       4.427
       5.698
       4.918
       2.682
       0.149
      -1.596
      -2.064
      -1.484
      -0.502
       0.297
       0.721
       0.955
       1.264
       1.685
       1.977
       1.884
       1.441
       0.996
       0.914
       1.269
       1.792
       2.040
       1.650
       0.527
      -1.074
      -2.637
      -3.598
      -3.624
      -2.821
      -1.721
      -0.952
      -0.795
      -1.031
      -1.232
      -1.178
      -0.976
      -0.836
      -0.793
      -0.641
      -0.121
       0.801
       1.786
       2.201
       1.449
      -0.557
      -3.086
      -4.811
      -4.577
      -2.203
       1.365
       4.641
       6.427
       6.270
       4.424
       1.587
      -1.322
      -3.327
      -3.685
      -2.275
       0.216
       2.603
       3.840
       3.525
       1.996
       0.087
      -1.251
      -1.340
      -0.017
       2.355
       5.054
       7.241
       8.192
       7.519
       5.365
       2.484
       0.060
      -0.808
       0.282
       2.762
       5.424
       7.118
       7.257
       5.830
       3.134
      -0.357
      -3.913
      -6.576
      -7.530
      -6.612
      -4.544
      -2.630
      -2.061
      -3.252
      -5.711
      -8.483
     -10.784
     -12.369
     -13.462
     -14.390
     -15.264
     -15.946
     -16.208
     -15.832
     -14.630
     -12.495
      -9.481
      -5.829
      -1.887
       2.000
       5.551
       8.522
      10.668
      11.857
      12.257
      12.385
      12.839
      13.856
      15.055
      15.636
      14.887
      12.641
       9.432
       6.259
       4.072
       3.298
       3.715
       4.657
       5.318
       5.000
       3.302
       0.267
      -3.545
      -7.171
      -9.629
     -10.386
      -9.555
      -7.670
      -5.336
      -3.091
      -1.458
      -0.915
      -1.644
      -3.240
      -4.731
      -5.056
      -3.718
      -1.040
       2.136
       4.936
       6.753
       7.272
       6.440
       4.516
       2.131
       0.212
      -0.362
       0.776
       3.172
       5.727
       7.296
       7.248
       5.591
       2.768
      -0.592
      -3.790
      -6.101
      -6.931
      -6.175
      -4.417
      -2.581
      -1.413
      -1.319
      -2.418
      -4.424
      -6.634
      -8.300
      -9.016
      -8.691
      -7.289
      -4.851
      -1.906
       0.299
       0.425
      -1.694
      -4.413
      -5.285
      -3.011
       1.550
       6.299
       9.660
      11.486
      12.596
      13.694
      14.675
      14.846
      13.684
      11.356
       8.558
       5.935
       3.615
       1.250
      -1.470
      -4.327
      -6.646
      -7.908
      -8.292
      -8.521
      -9.034
      -9.387
      -8.666
      -6.635
      -4.415
      -3.832
      -5.863
      -9.613
     -12.811
     -13.505
     -11.525
      -8.442
      -6.060
      -4.845
      -3.679
      -1.073
       3.311
       8.208
      11.825
      13.369
      13.496
      13.337
      13.305
      12.870
      11.367
       8.855
       6.127
       3.892
       2.038
      -0.250
      -3.714
      -8.314
     -13.042
     -16.324
     -16.829
     -14.289
      -9.779
      -5.149
      -1.879
      -0.258
       0.439
       1.107
       2.227
       3.872
       5.957
       8.373
      10.937
      13.310
      14.995
      15.426
      14.169
      11.266
       7.516
       4.241
       2.457
       2.216
       2.775
       3.365
       3.747
       4.061
       4.189
       3.365
       0.631
      -4.179
      -9.970
     -14.945
     -17.708
     -18.020
     -16.710
     -14.859
     -13.012
     -11.107
      -9.060
      -7.211
      -6.068
      -5.678
      -5.381
      -4.273
      -1.971
       0.969
       3.374
       4.316
       3.806
       2.694
       1.898
       1.732
       1.873
       1.853
       1.501
       0.995
       0.599
       0.467
       0.685
       1.401
       2.745
       4.553
       6.304
       7.486
       8.066
       8.500
       9.195
       9.970
      10.082
       8.875
       6.468
       3.728
       1.563
       0.366
       0.084
       0.490
       1.243
       1.890
       2.050
       1.597
       0.686
      -0.324
      -1.045
      -1.294
      -1.167
      -0.898
      -0.694
      -0.734
      -1.249
      -2.543
      -4.764
      -7.522
      -9.824
     -10.653
      -9.742
      -7.811
      -6.027
      -5.198
      -5.372
      -6.002
      -6.404
      -6.121
      -5.064
      -3.486
      -1.826
      -0.479
       0.412
       0.977
       1.399
       1.717
       1.903
       2.131
       2.859
       4.433
       6.555
       8.257
       8.614
       7.525
       5.720
       4.054
       2.881
       2.054
       1.282
       0.379
      -0.698
      -1.842
      -2.780
      -3.220
      -3.069
      -2.495
      -1.780
      -1.154
      -0.728
      -0.501
      -0.425
      -0.492
      -0.722
      -1.082
      -1.447
      -1.679
      -1.705
      -1.504
      -1.056
      -0.328
       0.712
       2.075
       3.674
       5.286
       6.660
       7.635
       8.077
       7.747
       6.416
       4.182
       1.603
      -0.602
      -2.041
      -2.812
      -3.198
      -3.269
      -2.821
      -1.696
      -0.123
       1.298
       2.035
       2.105
       2.097
       2.611
       3.617
       4.452
       4.446
       3.492
       1.991
       0.405
      -1.093
      -2.566
      -3.997
      -5.038
      -5.161
      -4.129
      -2.308
      -0.448
       0.820
       1.273
       0.999
       0.210
      -0.831
      -1.866
      -2.773
      -3.663
      -4.788
      -6.260
      -7.810
      -8.924
      -9.274
      -8.954
      -8.271
      -7.409
      -6.367
      -5.132
      -3.808
      -2.609
      -1.750
      -1.285
      -1.055
      -0.888
      -0.885
      -1.340
      -2.251
      -2.962
      -2.445
      -0.103
       3.606
       7.352
       9.854
      10.712
      10.457
       9.908
       9.501
       9.113
       8.424
       7.413
       6.487
       6.082
       6.131
       5.975
       4.895
       2.785
       0.262
      -1.962
      -3.738
      -5.471
      -7.468
      -9.379
     -10.310
      -9.588
      -7.513
      -5.306
      -4.098
      -3.829
      -3.225
      -1.042
       2.623
       6.278
       8.270
       8.121
       6.787
       5.675
       5.378
       5.337
       4.673
       3.192
       1.531
       0.445
       0.115
       0.125
       0.023
      -0.208
      -0.243
       0.115
       0.652
       0.951
       0.818
       0.420
       0.049
      -0.174
      -0.314
      -0.437
      -0.485
      -0.331
       0.047
       0.434
       0.429
      -0.326
      -1.836
      -3.600
      -4.853
      -5.109
      -4.548
      -3.858
      -3.661
      -4.018
      -4.427
      -4.263
      -3.300
      -1.930
      -0.901
      -0.755
      -1.375
      -2.050
      -1.987
      -0.891
       0.803
       2.202
       2.610
       2.076
       1.353
       1.256
       2.001
       3.054
       3.578
       3.079
       1.684
      -0.040
      -1.468
      -2.213
      -2.286
      -2.011
      -1.685
      -1.306
      -0.682
       0.246
       1.305
       2.259
       2.957
       3.309
       3.236
       2.741
       2.006
       1.286
       0.637
      -0.152
      -1.299
      -2.724
      -4.066
      -4.969
      -5.334
      -5.311
      -5.119
      -4.843
      -4.374
      -3.552
      -2.395
      -1.153
      -0.095
       0.732
       1.503
       2.387
       3.345
       4.204
       4.958
       5.834
       6.918
       7.802
       7.798
       6.616
       4.759
       3.186
       2.519
       2.581
       2.668
       2.208
       1.123
      -0.299
      -1.684
      -2.697
      -3.054
      -2.643
      -1.718
      -0.881
      -0.716
      -1.322
      -2.234
      -2.826
      -2.811
      -2.361
      -1.832
      -1.424
      -1.087
      -0.679
      -0.147
       0.422
       0.868
       1.058
       0.935
       0.529
      -0.038
      -0.573
      -0.887
      -0.892
      -0.691
      -0.556
      -0.795
      -1.551
      -2.651
      -3.631
      -3.942
      -3.260
      -1.719
       0.128
       1.634
       2.452
       2.657
       2.585
       2.573
       2.812
       3.355
       4.153
       5.060
       5.795
       6.014
       5.474
       4.137
       2.106
      -0.436
      -3.157
      -5.528
      -7.018
      -7.429
      -7.061
      -6.498
      -6.172
      -6.063
      -5.805
      -5.092
      -3.959
      -2.651
      -1.327
       0.041
       1.518
       3.038
       4.390
       5.290
       5.482
       4.874
       3.654
       2.279
       1.277
       0.961
       1.256
       1.741
       1.944
       1.710
       1.326
       1.236
       1.570
       1.933
       1.661
       0.406
      -1.492
      -3.203
      -4.025
      -3.875
      -3.275
      -2.969
      -3.435
      -4.603
      -5.918
      -6.708
      -6.552
      -5.411
      -3.529
      -1.284
       0.938
       2.829
       4.225
       5.133
       5.705
       6.120
       6.436
       6.544
       6.266
       5.533
       4.517
       3.597
       3.080
       2.891
       2.601
       1.809
       0.487
      -1.014
      -2.254
      -2.986
      -3.218
      -3.123
      -2.947
      -2.972
