Origin Time       4/2/2011 13:53:39	 
Lat.              24.8 N	
Long.             94.6 E	
Depth (Km)         30.0
Magnitude         6.4
 Region           Myanmar-India-Border                                             
 Above details taken from IMD 
   
Station Code      GUW
Station Lat.       26.190
Station Long.      91.746
Station Height(m)   55.2
Site Class        C   Vs30 between 200 m/sec to 375 m/sec *  
Record Time       04.02.2011 13:53:43.419
Sampling Rate     200. Hz
 Record Duration  164.795 Sec.
 Direction         Vert. (Up positive)
Max. Acceleration     18.383 cm/sec**2
     
  * For reference see Site Classification link of website 
     
 Base Line Corrected and Low Pass Filtered (Cut Off at 35 Hz) Time History
 Acceleration data in cm/sec**2
    
[...]
       0.571
       0.507
       0.041
      -0.516
      -0.847
      -0.827
      -0.570
      -0.299
      -0.164
      -0.157
      -0.165
      -0.101
       0.029
       0.148
       0.178
       0.108
       0.004
      -0.021
       0.110
       0.372
       0.636
       0.758
       0.679
       0.459
       0.220
       0.040
      -0.087
      -0.221
      -0.397
      -0.574
      -0.663
      -0.611
      -0.462
      -0.339
      -0.356
      -0.531
      -0.758
      -0.880
      -0.799
      -0.544
      -0.232
       0.029
       0.207
       0.338
       0.471
       0.613
       0.729
       0.780
       0.764
       0.707
       0.630
       0.512
       0.307
      -0.011
      -0.389
      -0.687
      -0.730
      -0.441
       0.058
       0.480
       0.539
       0.162
      -0.434
      -0.859
      -0.807
      -0.279
       0.408
       0.841
       0.795
       0.379
      -0.074
      -0.281
      -0.209
      -0.049
      -0.019
      -0.182
      -0.422
      -0.573
      -0.557
      -0.412
      -0.232
      -0.076
       0.055
       0.188
       0.331
       0.475
       0.604
       0.699
       0.721
       0.628
       0.429
       0.208
       0.067
       0.044
       0.093
       0.135
       0.118
       0.037
      -0.076
      -0.181
      -0.253
      -0.315
      -0.423
      -0.616
      -0.860
      -1.063
      -1.138
      -1.066
      -0.902
      -0.731
      -0.610
      -0.540
      -0.470
      -0.328
      -0.058
       0.344
       0.813
       1.223
       1.437
       1.371
       1.040
       0.542
       0.026
      -0.359
      -0.525
      -0.472
      -0.285
      -0.062
       0.154
       0.381
       0.649
       0.933
       1.142
       1.162
       0.940
       0.532
       0.084
      -0.248
      -0.384
      -0.364
      -0.322
      -0.414
      -0.709
      -1.132
      -1.486
      -1.558
      -1.235
      -0.577
       0.195
       0.802
       1.031
       0.832
       0.330
      -0.229
      -0.598
      -0.637
      -0.383
      -0.013
       0.280
       0.416
       0.447
       0.460
       0.463
       0.377
       0.133
      -0.230
      -0.552
      -0.650
      -0.473
      -0.162
       0.035
      -0.036
      -0.300
      -0.490
      -0.365
       0.058
       0.464
       0.457
      -0.099
      -0.901
      -1.371
      -1.072
      -0.069
       1.075
       1.686
       1.470
       0.733
       0.136
       0.174
       0.778
       1.357
       1.257
       0.278
      -1.142
      -2.240
      -2.477
      -1.903
      -1.050
      -0.504
      -0.491
      -0.778
      -0.919
      -0.610
       0.107
       0.914
       1.446
       1.514
       1.185
       0.699
       0.298
       0.083
      -0.016
      -0.127
      -0.284
      -0.378
      -0.256
       0.125
       0.610
       0.930
       0.887
       0.524
       0.125
       0.034
       0.404
       1.061
       1.598
       1.621
       1.011
       0.018
      -0.881
      -1.287
      -1.130
      -0.683
      -0.350
      -0.382
      -0.725
      -1.102
      -1.242
      -1.074
      -0.746
      -0.463
      -0.302
      -0.154
       0.147
       0.643
       1.183
       1.530
       1.552
       1.311
       0.998
       0.772
       0.648
       0.517
       0.269
      -0.094
      -0.435
      -0.585
      -0.476
      -0.215
      -0.025
      -0.060
      -0.253
      -0.349
      -0.120
       0.419
       0.998
       1.289
       1.138
       0.661
       0.138
      -0.185
      -0.251
      -0.204
      -0.251
      -0.513
      -0.944
      -1.382
      -1.679
      -1.803
      -1.823
      -1.782
      -1.619
      -1.214
      -0.527
       0.312
       1.055
       1.485
       1.549
       1.361
       1.110
       0.934
       0.864
       0.842
       0.778
       0.608
       0.319
      -0.054
      -0.430
      -0.695
      -0.739
      -0.521
      -0.118
       0.299
       0.557
       0.595
       0.483
       0.340
       0.207
       0.005
      -0.379
      -0.943
      -1.501
      -1.770
      -1.567
      -0.948
      -0.175
       0.443
       0.710
       0.624
       0.348
       0.120
       0.129
       0.398
       0.757
       0.931
       0.733
       0.220
      -0.318
      -0.563
      -0.398
       0.028
       0.442
       0.653
       0.645
       0.503
       0.291
       0.003
      -0.358
      -0.692
      -0.816
      -0.598
      -0.096
       0.443
       0.723
       0.577
       0.063
      -0.567
      -1.006
      -1.064
      -0.786
      -0.424
      -0.256
      -0.375
      -0.604
      -0.619
      -0.196
       0.577
       1.330
       1.654
       1.366
       0.597
      -0.332
      -1.107
      -1.555
      -1.661
      -1.491
      -1.103
      -0.510
       0.260
       1.095
       1.790
       2.145
       2.086
       1.726
       1.291
       0.971
       0.795
       0.619
       0.244
      -0.404
      -1.165
      -1.694
      -1.687
      -1.108
      -0.251
       0.433
       0.610
       0.257
      -0.365
      -0.909
      -1.145
      -1.042
      -0.725
      -0.398
      -0.262
      -0.420
      -0.815
      -1.227
      -1.370
      -1.055
      -0.321
       0.564
       1.264
       1.580
       1.567
       1.466
       1.497
       1.666
       1.772
       1.609
       1.186
       0.750
       0.557
       0.620
       0.663
       0.366
      -0.315
      -1.044
      -1.327
      -0.905
      -0.001
       0.804
       0.978
       0.404
      -0.558
      -1.360
      -1.633
      -1.399
      -0.985
      -0.761
      -0.898
      -1.292
      -1.670
      -1.759
      -1.418
      -0.688
       0.244
       1.123
       1.753
       2.077
       2.175
       2.152
       2.027
       1.720
       1.166
       0.440
      -0.238
      -0.629
      -0.641
      -0.379
      -0.059
       0.148
       0.194
       0.124
       0.003
      -0.151
      -0.383
      -0.755
      -1.263
      -1.777
      -2.073
      -1.962
      -1.435
      -0.692
      -0.028
       0.359
       0.509
       0.663
       1.055
       1.665
       2.165
       2.143
       1.444
       0.360
      -0.513
      -0.668
      -0.045
       0.913
       1.539
       1.367
       0.422
      -0.824
      -1.768
      -2.041
      -1.686
      -1.057
      -0.531
      -0.251
      -0.076
       0.222
       0.699
       1.148
       1.245
       0.820
       0.021
      -0.746
      -1.072
      -0.820
      -0.216
       0.289
       0.308
      -0.250
      -1.142
      -1.938
      -2.267
      -2.009
      -1.331
      -0.543
       0.118
       0.635
       1.151
       1.766
       2.362
       2.646
       2.382
       1.599
       0.609
      -0.199
      -0.592
      -0.583
      -0.360
      -0.151
      -0.112
      -0.260
      -0.475
      -0.566
      -0.394
       0.039
       0.581
       1.016
       1.171
       0.984
       0.514
      -0.079
      -0.589
      -0.855
      -0.854
      -0.717
      -0.654
      -0.812
      -1.154
      -1.466
      -1.494
      -1.144
      -0.560
      -0.019
       0.281
       0.352
       0.358
       0.445
       0.601
       0.683
       0.551
       0.212
      -0.176
      -0.428
      -0.483
      -0.433
      -0.428
      -0.538
      -0.685
      -0.706
      -0.480
      -0.031
       0.456
       0.742
       0.690
       0.392
       0.145
       0.251
       0.763
       1.396
       1.696
       1.367
       0.500
      -0.488
      -1.137
      -1.237
      -0.924
      -0.510
      -0.205
       0.037
       0.408
       0.984
       1.570
       1.789
       1.380
       0.436
      -0.617
      -1.317
      -1.496
      -1.391
      -1.421
      -1.804
      -2.329
      -2.481
      -1.834
      -0.426
       1.211
       2.372
       2.637
       2.126
       1.373
       0.931
       0.993
       1.300
       1.377
       0.930
       0.080
      -0.727
      -1.069
      -0.875
      -0.454
      -0.217
      -0.333
      -0.616
      -0.732
      -0.515
      -0.102
       0.210
       0.233
       0.035
      -0.161
      -0.198
      -0.126
      -0.153
      -0.467
      -1.085
      -1.788
      -2.194
      -1.960
      -1.036
       0.233
       1.284
       1.715
       1.562
       1.239
       1.173
       1.448
       1.769
       1.752
       1.288
       0.644
       0.205
       0.110
       0.105
      -0.215
      -1.013
      -2.007
      -2.643
      -2.483
      -1.501
      -0.088
       1.191
       1.917
       2.005
       1.681
       1.274
       0.987
       0.788
       0.489
      -0.050
      -0.757
      -1.361
      -1.582
      -1.347
      -0.835
      -0.318
       0.053
       0.316
       0.598
       0.952
       1.303
       1.502
       1.421
       1.028
       0.404
      -0.297
      -0.924
      -1.399
      -1.757
      -2.092
      -2.449
      -2.739
      -2.758
      -2.326
      -1.451
      -0.385
       0.520
       1.041
       1.222
       1.298
       1.483
       1.810
       2.150
       2.348
       2.331
       2.118
       1.779
       1.392
       1.026
       0.718
       0.438
       0.105
      -0.352
      -0.899
      -1.375
      -1.586
      -1.432
      -0.987
      -0.455
      -0.055
       0.095
       0.016
      -0.193
      -0.427
      -0.629
      -0.801
      -0.986
      -1.223
      -1.485
      -1.641
      -1.496
      -0.915
       0.055
       1.166
       2.079
       2.535
       2.474
       2.036
       1.463
       0.981
       0.718
       0.677
       0.745
       0.743
       0.492
      -0.099
      -0.960
      -1.835
      -2.364
      -2.269
      -1.550
      -0.535
       0.295
       0.632
       0.563
       0.520
       0.924
       1.822
       2.819
       3.404
       3.357
       2.886
       2.363
       1.950
       1.443
       0.474
      -1.145
      -3.220
      -5.258
      -6.754
      -7.450
      -7.394
      -6.805
      -5.873
      -4.635
      -3.036
      -1.113
       0.852
       2.390
       3.117
       3.038
       2.621
       2.509
       3.039
       3.952
       4.551
       4.231
       2.971
       1.398
       0.342
       0.256
       0.939
       1.753
       2.133
       1.937
       1.421
       0.938
       0.642
       0.444
       0.169
      -0.228
      -0.614
      -0.805
      -0.762
      -0.665
      -0.759
      -1.095
      -1.428
      -1.414
      -0.925
      -0.213
       0.242
       0.054
      -0.800
      -1.980
      -3.012
      -3.584
      -3.675
      -3.486
      -3.235
      -3.009
      -2.748
      -2.357
      -1.813
      -1.190
      -0.580
      -0.006
       0.595
       1.310
       2.164
       3.068
       3.844
       4.320
       4.446
       4.339
       4.211
       4.238
       4.433
       4.617
       4.514
       3.910
       2.767
       1.240
      -0.443
      -2.124
      -3.782
      -5.445
      -7.048
      -8.370
      -9.111
      -9.079
      -8.336
      -7.176
      -5.935
      -4.785
      -3.682
      -2.497
      -1.201
       0.036
       0.929
       1.296
       1.231
       1.078
       1.197
       1.731
       2.537
       3.322
       3.868
       4.184
       4.504
       5.127
       6.187
       7.472
       8.463
       8.641
       7.845
       6.402
       4.881
       3.697
       2.882
       2.191
       1.386
       0.417
      -0.620
      -1.648
      -2.673
      -3.676
      -4.488
      -4.856
      -4.671
      -4.126
      -3.615
      -3.464
      -3.713
      -4.122
      -4.369
      -4.288
      -3.958
      -3.615
      -3.461
      -3.504
      -3.548
      -3.335
      -2.725
      -1.804
      -0.821
      -0.020
       0.519
       0.903
       1.299
       1.780
       2.257
       2.544
       2.484
       2.091
       1.591
       1.317
       1.493
       2.050
       2.614
       2.721
       2.124
       0.982
      -0.217
      -0.970
      -1.081
      -0.738
      -0.280
       0.115
       0.542
       1.203
       2.154
       3.193
       3.975
       4.244
       3.975
       3.325
       2.482
       1.558
       0.571
      -0.517
      -1.737
      -3.051
      -4.312
      -5.314
      -5.890
      -6.001
      -5.735
      -5.206
      -4.437
      -3.343
      -1.827
       0.062
       2.037
       3.640
       4.470
       4.443
       3.880
       3.345
       3.312
       3.850
       4.554
       4.813
       4.274
       3.135
       2.031
       1.586
       1.994
       2.930
       3.837
       4.353
       4.498
       4.520
       4.563
       4.454
       3.812
       2.380
       0.313
      -1.878
      -3.683
      -4.950
      -5.932
      -6.981
      -8.192
      -9.274
      -9.769
      -9.426
      -8.431
      -7.298
      -6.502
      -6.164
      -6.028
      -5.691
      -4.888
      -3.645
      -2.222
      -0.909
       0.202
       1.283
       2.595
       4.181
       5.752
       6.927
       7.606
       8.060
       8.632
       9.373
       9.964
       9.999
       9.335
       8.176
       6.868
       5.625
       4.437
       3.155
       1.670
       0.056
      -1.458
      -2.641
      -3.422
      -3.938
      -4.471
      -5.295
      -6.509
      -7.957
      -9.291
     -10.156
     -10.421
     -10.276
     -10.093
     -10.081
     -10.037
      -9.413
      -7.697
      -4.808
      -1.176
       2.569
       6.037
       9.244
      12.368
      15.323
      17.569
      18.383
      17.399
      14.957
      11.946
       9.239
       7.135
       5.254
       2.983
       0.087
      -3.007
      -5.470
      -6.633
      -6.414
      -5.323
      -4.075
      -3.157
      -2.687
      -2.582
      -2.768
      -3.224
      -3.896
      -4.657
      -5.353
      -5.873
      -6.178
      -6.298
      -6.289
      -6.148
      -5.763
      -4.982
      -3.779
      -2.364
      -1.062
      -0.061
       0.690
       1.340
       1.936
       2.382
       2.573
       2.522
       2.364
       2.275
       2.371
       2.687
       3.251
       4.111
       5.270
       6.636
       8.068
       9.422
      10.490
      10.910
      10.224
       8.149
       4.850
       0.939
      -2.813
      -5.843
      -7.993
      -9.450
     -10.503
     -11.282
     -11.672
     -11.407
     -10.267
      -8.279
      -5.754
      -3.123
      -0.685
       1.533
       3.674
       5.799
       7.666
       8.750
       8.539
       6.856
       3.955
       0.344
      -3.458
      -7.049
     -10.093
     -12.239
     -13.154
     -12.659
     -10.826
      -7.962
      -4.528
      -1.029
       2.099
       4.586
       6.425
       7.904
       9.478
      11.476
      13.809
      15.899
      16.933
      16.310
      13.976
      10.428
       6.409
       2.551
      -0.810
      -3.598
      -5.836
      -7.530
      -8.670
      -9.272
      -9.399
      -9.142
      -8.624
      -8.042
      -7.636
      -7.524
      -7.506
      -7.073
      -5.738
      -3.437
      -0.692
       1.648
       2.887
       2.856
       1.966
       0.910
       0.264
       0.269
       0.845
       1.722
       2.563
       3.080
       3.129
       2.754
       2.154
       1.571
       1.179
       1.006
       0.916
       0.696
       0.295
      -0.010
       0.268
       1.443
       3.324
       5.238
       6.423
       6.479
       5.524
       4.001
       2.338
       0.695
      -1.027
      -2.976
      -5.174
      -7.490
      -9.732
     -11.730
     -13.328
     -14.329
     -14.512
     -13.722
     -11.964
      -9.402
      -6.300
      -2.944
       0.365
       3.333
       5.758
       7.666
       9.301
      10.907
      12.436
      13.469
      13.489
      12.337
      10.439
       8.576
       7.366
       6.866
       6.573
       5.856
       4.484
       2.793
       1.337
       0.366
      -0.352
      -1.226
      -2.399
      -3.612
      -4.456
      -4.746
      -4.673
      -4.642
      -4.935
      -5.473
      -5.879
      -5.807
      -5.256
      -4.595
      -4.287
      -4.546
      -5.173
      -5.687
      -5.619
      -4.771
      -3.304
      -1.631
      -0.191
       0.779
       1.345
       1.795
       2.428
       3.370
       4.516
       5.610
       6.392
       6.718
       6.594
       6.107
       5.327
       4.266
       2.963
       1.625
       0.634
       0.341
       0.793
       1.660
       2.416
       2.624
       2.120
       1.031
      -0.335
      -1.632
      -2.584
      -3.052
      -3.090
      -2.938
      -2.878
      -3.032
      -3.239
      -3.175
      -2.645
      -1.825
      -1.173
      -1.042
      -1.363
      -1.726
      -1.796
      -1.602
      -1.411
      -1.384
      -1.394
      -1.164
      -0.538
       0.390
       1.373
       2.219
       2.871
       3.330
       3.534
       3.374
       2.809
       1.964
       1.103
       0.467
       0.128
       0.006
       0.040
       0.293
       0.876
       1.738
       2.543
       2.800
       2.168
       0.697
      -1.174
      -2.825
      -3.708
      -3.590
      -2.673
      -1.508
      -0.723
      -0.695
      -1.350
      -2.227
      -2.786
      -2.758
      -2.291
      -1.840
      -1.883
      -2.603
      -3.740
      -4.740
      -5.064
      -4.456
      -3.088
      -1.523
      -0.365
       0.201
       0.624
       1.687
       3.833
       6.668
       9.134
      10.269
       9.926
       8.822
       7.861
       7.344
       6.766
       5.350
       2.820
      -0.245
      -2.770
      -3.972
      -3.919
      -3.426
      -3.364
      -3.958
      -4.611
      -4.415
      -2.952
      -0.713
       1.190
       1.797
       0.937
      -0.745
      -2.309
      -3.145
      -3.283
      -3.237
      -3.568
      -4.473
      -5.647
      -6.467
      -6.370
      -5.209
      -3.353
      -1.431
       0.086
       1.165
       2.098
       3.098
       4.009
       4.388
       3.868
       2.516
       0.891
      -0.263
      -0.495
       0.045
       0.757
       1.086
       0.962
       0.762
       0.841
       1.080
       0.903
      -0.187
      -2.083
      -4.080
      -5.432
      -5.909
      -5.843
      -5.669
      -5.452
      -4.808
      -3.285
      -0.876
       1.790
       3.772
       4.451
       3.957
       2.997
       2.274
       2.027
       2.058
       2.110
       2.152
       2.339
       2.766
       3.335
       3.874
       4.362
       4.969
       5.857
       6.920
       7.722
       7.686
       6.439
       4.074
       1.167
      -1.485
      -3.287
      -4.131
      -4.373
      -4.551
      -5.001
      -5.604
      -5.891
      -5.430
      -4.180
      -2.557
      -1.138
      -0.259
       0.183
       0.538
       1.010
       1.422
       1.333
       0.429
      -1.132
      -2.683
      -3.408
      -2.868
      -1.342
       0.276
       1.021
       0.486
      -0.870
      -2.029
      -2.159
      -1.220
       0.060
       0.811
       0.706
       0.147
      -0.107
       0.482
       1.918
       3.760
       5.415
       6.420
       6.571
       5.976
       5.003
       4.096
       3.480
       2.980
       2.152
       0.666
      -1.316
      -3.098
      -3.821
      -3.048
