Origin Time       21/11/2011 03:15:33 UTC
Lat.              25.1 N 
Long.             95.3 E 
Depth (Km)         80.0
Magnitude         5.8
 Region           Myanmar-India-Border                                             
 Above details taken from IMD 
    
Station Code      GUW
Station Lat.       26.190  N
Station Long.      91.746  E
Station Height(m)   55.2
Site Class        C   Vs30 between 200 m/sec to 375 m/sec *  
Record Time       21.11.2011 03:15:22.294 UTC
Sampling Rate     200. Hz
 Record Duration  112.435 Sec.
 Direction         N-S (N positive)
Max. Acceleration     -8.668 cm/sec**2
     
  * For reference see Site Classification link of website 
     
 Base Line Corrected and Low Pass Filtered (Cut Off at 35 Hz) Time History
 Acceleration data in cm/sec**2
    
[...]
      -0.196
      -0.084
       0.050
       0.174
       0.255
       0.266
       0.204
       0.086
      -0.052
      -0.166
      -0.213
      -0.177
      -0.077
       0.039
       0.122
       0.149
       0.135
       0.119
       0.132
       0.183
       0.251
       0.308
       0.329
       0.300
       0.219
       0.100
      -0.031
      -0.132
      -0.166
      -0.115
       0.003
       0.138
       0.243
       0.296
       0.305
       0.288
       0.257
       0.215
       0.165
       0.125
       0.116
       0.150
       0.209
       0.256
       0.260
       0.216
       0.148
       0.080
       0.022
      -0.033
      -0.098
      -0.169
      -0.228
      -0.257
      -0.250
      -0.215
      -0.161
      -0.091
      -0.016
       0.036
       0.032
      -0.045
      -0.180
      -0.320
      -0.401
      -0.386
      -0.286
      -0.158
      -0.070
      -0.054
      -0.099
      -0.158
      -0.182
      -0.151
      -0.082
      -0.015
       0.007
      -0.046
      -0.176
      -0.354
      -0.530
      -0.643
      -0.650
      -0.536
      -0.320
      -0.048
       0.218
       0.419
       0.516
       0.502
       0.399
       0.250
       0.101
      -0.013
      -0.079
      -0.102
      -0.095
      -0.068
      -0.023
       0.041
       0.124
       0.222
       0.324
       0.415
       0.482
       0.515
       0.512
       0.471
       0.388
       0.267
       0.127
       0.012
      -0.027
       0.040
       0.195
       0.363
       0.448
       0.380
       0.158
      -0.137
      -0.386
      -0.499
      -0.459
      -0.329
      -0.198
      -0.129
      -0.126
      -0.147
      -0.136
      -0.063
       0.060
       0.182
       0.236
       0.180
       0.020
      -0.191
      -0.366
      -0.432
      -0.369
      -0.226
      -0.093
      -0.040
      -0.070
      -0.117
      -0.105
      -0.003
       0.144
       0.254
       0.272
       0.208
       0.128
       0.098
       0.140
       0.216
       0.254
       0.187
      -0.003
      -0.269
      -0.516
      -0.650
      -0.633
      -0.495
      -0.320
      -0.185
      -0.127
      -0.130
      -0.149
      -0.145
      -0.105
      -0.048
      -0.011
      -0.026
      -0.094
      -0.184
      -0.245
      -0.244
      -0.184
      -0.100
      -0.035
      -0.008
      -0.001
       0.023
       0.078
       0.153
       0.221
       0.265
       0.282
       0.271
       0.226
       0.156
       0.089
       0.065
       0.106
       0.193
       0.276
       0.313
       0.291
       0.219
       0.116
      -0.004
      -0.111
      -0.162
      -0.119
       0.018
       0.197
       0.345
       0.406
       0.372
       0.283
       0.194
       0.136
       0.108
       0.096
       0.094
       0.107
       0.134
       0.159
       0.158
       0.114
       0.042
      -0.024
      -0.048
      -0.024
       0.026
       0.066
       0.072
       0.047
       0.012
      -0.003
       0.026
       0.102
       0.202
       0.291
       0.338
       0.329
       0.272
       0.178
       0.056
      -0.093
      -0.261
      -0.425
      -0.549
      -0.604
      -0.586
      -0.523
      -0.455
      -0.412
      -0.396
      -0.389
      -0.372
      -0.337
      -0.286
      -0.222
      -0.139
      -0.039
       0.062
       0.127
       0.130
       0.073
      -0.006
      -0.057
      -0.052
      -0.006
       0.041
       0.058
       0.056
       0.071
       0.133
       0.235
       0.332
       0.374
       0.345
       0.269
       0.194
       0.155
       0.158
       0.196
       0.262
       0.344
       0.412
       0.417
       0.322
       0.138
      -0.076
      -0.235
      -0.273
      -0.180
       0.002
       0.203
       0.357
       0.425
       0.393
       0.271
       0.094
      -0.084
      -0.201
      -0.220
      -0.150
      -0.047
       0.006
      -0.047
      -0.214
      -0.452
      -0.692
      -0.869
      -0.936
      -0.876
      -0.700
      -0.443
      -0.153
       0.117
       0.315
       0.399
       0.349
       0.185
      -0.030
      -0.206
      -0.269
      -0.204
      -0.064
       0.058
       0.085
       0.001
      -0.152
      -0.296
      -0.367
      -0.338
      -0.231
      -0.095
       0.012
       0.053
       0.028
      -0.031
      -0.078
      -0.086
      -0.061
      -0.029
      -0.008
       0.006
       0.026
       0.054
       0.078
       0.080
       0.061
       0.041
       0.046
       0.077
       0.114
       0.126
       0.109
       0.090
       0.107
       0.179
       0.296
       0.423
       0.534
       0.624
       0.696
       0.746
       0.744
       0.657
       0.478
       0.252
       0.058
      -0.036
      -0.014
       0.074
       0.139
       0.110
      -0.031
      -0.244
      -0.452
      -0.576
      -0.566
      -0.420
      -0.189
       0.044
       0.200
       0.238
       0.169
       0.041
      -0.097
      -0.213
      -0.306
      -0.385
      -0.459
      -0.528
      -0.592
      -0.645
      -0.674
      -0.658
      -0.583
      -0.452
      -0.301
      -0.174
      -0.101
      -0.080
      -0.084
      -0.086
      -0.080
      -0.067
      -0.050
      -0.029
      -0.010
      -0.008
      -0.029
      -0.048
      -0.020
       0.090
       0.261
       0.411
       0.442
       0.316
       0.083
      -0.139
      -0.243
      -0.191
      -0.016
       0.211
       0.415
       0.550
       0.598
       0.574
       0.505
       0.426
       0.366
       0.332
       0.311
       0.283
       0.241
       0.200
       0.184
       0.206
       0.246
       0.263
       0.219
       0.118
       0.008
      -0.049
      -0.019
       0.079
       0.192
       0.266
       0.274
       0.229
       0.166
       0.117
       0.095
       0.091
       0.089
       0.076
       0.040
      -0.021
      -0.099
      -0.176
      -0.235
      -0.268
      -0.276
      -0.262
      -0.233
      -0.201
      -0.182
      -0.195
      -0.246
      -0.322
      -0.386
      -0.398
      -0.333
      -0.205
      -0.067
       0.022
       0.027
      -0.032
      -0.100
      -0.128
      -0.113
      -0.086
      -0.083
      -0.106
      -0.129
      -0.115
      -0.042
       0.081
       0.216
       0.302
       0.279
       0.123
      -0.129
      -0.386
      -0.543
      -0.535
      -0.372
      -0.131
       0.091
       0.216
       0.213
       0.104
      -0.055
      -0.200
      -0.281
      -0.280
      -0.209
      -0.112
      -0.037
      -0.013
      -0.023
      -0.012
       0.071
       0.232
       0.419
       0.546
       0.539
       0.374
       0.092
      -0.222
      -0.476
      -0.608
      -0.596
      -0.462
      -0.259
      -0.052
       0.108
       0.192
       0.201
       0.156
       0.078
      -0.020
      -0.135
      -0.251
      -0.335
      -0.345
      -0.259
      -0.094
       0.096
       0.253
       0.348
       0.397
       0.440
       0.503
       0.570
       0.593
       0.530
       0.383
       0.204
       0.071
       0.055
       0.175
       0.385
       0.579
       0.641
       0.509
       0.218
      -0.104
      -0.315
      -0.340
      -0.218
      -0.068
       0.006
      -0.023
      -0.097
      -0.131
      -0.080
       0.032
       0.137
       0.174
       0.140
       0.085
       0.071
       0.113
       0.162
       0.132
      -0.025
      -0.281
      -0.531
      -0.664
      -0.624
      -0.449
      -0.232
      -0.066
       0.005
       0.001
      -0.021
      -0.016
       0.019
       0.045
       0.021
      -0.060
      -0.163
      -0.231
      -0.226
      -0.150
      -0.049
       0.025
       0.052
       0.056
       0.085
       0.163
       0.263
       0.315
       0.251
       0.049
      -0.239
      -0.519
      -0.693
      -0.710
      -0.581
      -0.360
      -0.119
       0.074
       0.170
       0.148
       0.021
      -0.156
      -0.304
      -0.363
      -0.326
      -0.232
      -0.126
      -0.026
       0.075
       0.177
       0.254
       0.265
       0.189
       0.058
      -0.057
      -0.093
      -0.039
       0.071
       0.192
       0.302
       0.400
       0.482
       0.532
       0.531
       0.478
       0.397
       0.318
       0.265
       0.235
       0.217
       0.199
       0.180
       0.160
       0.128
       0.071
      -0.014
      -0.107
      -0.169
      -0.170
      -0.112
      -0.032
       0.019
       0.003
      -0.082
      -0.207
      -0.334
      -0.433
      -0.488
      -0.495
      -0.447
      -0.341
      -0.187
      -0.026
       0.078
       0.069
      -0.072
      -0.302
      -0.535
      -0.682
      -0.692
      -0.579
      -0.400
      -0.224
      -0.093
      -0.011
       0.044
       0.092
       0.131
       0.133
       0.070
      -0.059
      -0.216
      -0.345
      -0.407
      -0.406
      -0.366
      -0.301
      -0.198
      -0.032
       0.190
       0.417
       0.576
       0.623
       0.571
       0.478
       0.407
       0.378
       0.368
       0.330
       0.240
       0.117
       0.020
       0.009
       0.105
       0.274
       0.437
       0.504
       0.426
       0.227
       0.002
      -0.133
      -0.104
       0.081
       0.338
       0.550
       0.625
       0.542
       0.357
       0.166
       0.047
       0.014
       0.019
      -0.006
      -0.096
      -0.227
      -0.346
      -0.412
      -0.415
      -0.374
      -0.313
      -0.257
      -0.235
      -0.272
      -0.375
      -0.505
      -0.579
      -0.514
      -0.287
       0.028
       0.289
       0.367
       0.215
      -0.103
      -0.464
      -0.756
      -0.929
      -0.995
      -0.981
      -0.905
      -0.776
      -0.611
      -0.445
      -0.313
      -0.232
      -0.192
      -0.163
      -0.112
      -0.014
       0.128
       0.273
       0.365
       0.363
       0.280
       0.183
       0.154
       0.236
       0.394
       0.537
       0.579
       0.505
       0.374
       0.277
       0.266
       0.333
       0.440
       0.560
       0.706
       0.904
       1.147
       1.388
       1.562
       1.630
       1.588
       1.455
       1.252
       1.002
       0.736
       0.496
       0.309
       0.175
       0.072
      -0.014
      -0.059
      -0.020
       0.121
       0.313
       0.450
       0.437
       0.258
       0.003
      -0.186
      -0.207
      -0.069
       0.124
       0.249
       0.238
       0.108
      -0.070
      -0.229
      -0.346
      -0.447
      -0.576
      -0.767
      -1.023
      -1.316
      -1.597
      -1.811
      -1.910
      -1.877
      -1.725
      -1.483
      -1.170
      -0.800
      -0.388
       0.034
       0.424
       0.736
       0.930
       0.971
       0.833
       0.526
       0.112
      -0.296
      -0.577
      -0.660
      -0.554
      -0.334
      -0.094
       0.099
       0.229
       0.324
       0.439
       0.619
       0.869
       1.136
       1.327
       1.352
       1.179
       0.859
       0.501
       0.218
       0.068
       0.024
      -0.001
      -0.098
      -0.306
      -0.588
      -0.853
      -1.015
      -1.041
      -0.974
      -0.895
      -0.867
      -0.891
      -0.898
      -0.796
      -0.522
      -0.087
       0.424
       0.885
       1.177
       1.231
       1.044
       0.664
       0.164
      -0.382
      -0.900
      -1.321
      -1.595
      -1.708
      -1.696
      -1.622
      -1.537
      -1.455
      -1.353
      -1.189
      -0.930
      -0.568
      -0.129
       0.330
       0.733
       1.017
       1.166
       1.215
       1.235
       1.280
       1.368
       1.470
       1.533
       1.507
       1.377
       1.171
       0.949
       0.783
       0.727
       0.797
       0.962
       1.164
       1.347
       1.495
       1.628
       1.792
       2.014
       2.280
       2.531
       2.693
       2.709
       2.571
       2.313
       1.987
       1.632
       1.266
       0.898
       0.535
       0.187
      -0.149
      -0.476
      -0.776
      -0.981
      -0.989
      -0.732
      -0.241
       0.339
       0.803
       0.983
       0.814
       0.351
      -0.286
      -0.971
      -1.625
      -2.208
      -2.697
      -3.066
      -3.299
      -3.411
      -3.457
      -3.511
      -3.630
      -3.813
      -4.009
      -4.146
      -4.153
      -3.984
      -3.620
      -3.089
      -2.471
      -1.876
      -1.397
      -1.068
      -0.871
      -0.774
      -0.770
      -0.878
      -1.113
      -1.451
      -1.819
      -2.114
      -2.233
      -2.095
      -1.673
      -1.021
      -0.289
       0.322
       0.643
       0.622
       0.351
       0.019
      -0.185
      -0.155
       0.113
       0.558
       1.105
       1.695
       2.273
       2.772
       3.124
       3.296
       3.302
       3.187
       2.992
       2.725
       2.382
       2.004
       1.706
       1.640
       1.899
       2.449
       3.149
       3.842
       4.457
       5.027
       5.628
       6.287
       6.931
       7.416
       7.603
       7.426
       6.913
       6.145
       5.208
       4.164
       3.047
       1.881
       0.687
      -0.521
      -1.718
      -2.846
      -3.823
      -4.578
      -5.108
      -5.478
      -5.775
      -6.049
      -6.294
      -6.481
      -6.620
      -6.782
      -7.052
      -7.459
      -7.933
      -8.347
      -8.599
      -8.668
      -8.615
      -8.531
      -8.474
      -8.422
      -8.259
      -7.807
      -6.883
      -5.372
      -3.306
      -0.886
       1.554
       3.672
       5.234
       6.185
       6.610
       6.655
       6.445
       6.072
       5.635
       5.271
       5.128
       5.287
       5.685
       6.129
       6.387
       6.302
       5.855
       5.155
       4.372
       3.656
       3.087
       2.661
       2.302
       1.905
       1.374
       0.679
      -0.107
      -0.820
      -1.262
      -1.293
      -0.909
      -0.253
       0.433
       0.911
       1.044
       0.836
       0.411
      -0.062
      -0.446
      -0.682
      -0.786
      -0.811
      -0.799
      -0.743
      -0.610
      -0.380
      -0.098
       0.126
       0.160
      -0.062
      -0.483
      -0.945
      -1.273
      -1.378
      -1.296
      -1.150
      -1.075
      -1.148
      -1.369
      -1.691
      -2.062
      -2.441
      -2.785
      -3.044
      -3.176
      -3.182
      -3.113
      -3.045
      -3.016
      -2.993
      -2.895
      -2.657
      -2.287
      -1.871
      -1.518
      -1.307
      -1.263
      -1.373
      -1.603
      -1.890
      -2.126
      -2.160
      -1.863
      -1.206
      -0.293
       0.697
       1.600
       2.337
       2.896
       3.286
       3.490
       3.469
       3.204
       2.742
       2.212
       1.804
       1.691
       1.969
       2.614
       3.507
       4.473
       5.324
       5.887
       6.031
       5.704
       4.961
       3.947
       2.844
       1.805
       0.927
       0.266
      -0.146
      -0.294
      -0.213
      -0.003
       0.196
       0.267
       0.162
      -0.105
      -0.496
      -0.980
      -1.506
      -1.962
      -2.202
      -2.133
      -1.813
      -1.462
      -1.351
      -1.646
      -2.300
      -3.088
      -3.753
      -4.156
      -4.335
      -4.449
      -4.660
      -5.043
      -5.546
      -6.021
      -6.282
      -6.181
      -5.660
      -4.758
      -3.580
      -2.249
      -0.884
       0.388
       1.421
       2.071
       2.272
       2.115
       1.861
       1.849
       2.323
       3.283
       4.456
       5.415
       5.813
       5.566
       4.892
       4.171
       3.739
       3.749
       4.157
       4.796
       5.474
       6.031
       6.369
       6.449
       6.272
       5.856
       5.207
       4.323
       3.223
       1.968
       0.662
      -0.570
      -1.613
      -2.378
      -2.802
      -2.850
      -2.520
      -1.856
      -0.960
      -0.004
       0.797
       1.244
       1.232
       0.791
       0.071
      -0.719
      -1.372
      -1.721
      -1.659
      -1.176
      -0.399
       0.403
       0.913
       0.895
       0.308
      -0.690
      -1.815
      -2.778
      -3.374
      -3.539
      -3.358
      -3.027
      -2.772
      -2.751
      -2.990
      -3.392
      -3.813
      -4.155
      -4.396
      -4.557
      -4.649
      -4.652
      -4.530
      -4.267
      -3.889
      -3.459
      -3.052
      -2.728
      -2.516
      -2.410
      -2.379
      -2.363
      -2.285
      -2.072
      -1.693
      -1.183
      -0.620
      -0.057
       0.539
       1.288
       2.290
       3.501
       4.700
       5.580
       5.905
       5.615
       4.822
       3.730
       2.563
       1.530
       0.826
       0.617
       0.979
       1.841
       2.953
       3.941
       4.411
       4.092
       2.932
       1.124
      -0.964
      -2.925
      -4.430
      -5.291
      -5.449
      -4.953
      -3.946
      -2.665
      -1.426
      -0.540
      -0.199
      -0.393
      -0.929
      -1.528
      -1.934
      -1.977
      -1.587
      -0.800
       0.255
       1.380
       2.371
       3.068
       3.393
       3.338
       2.948
       2.311
       1.567
       0.908
       0.554
       0.684
       1.370
       2.528
       3.919
       5.187
       5.939
       5.844
       4.736
       2.714
       0.171
      -2.265
      -3.928
      -4.363
      -3.506
      -1.702
       0.453
       2.345
       3.523
       3.765
       3.056
       1.547
      -0.459
      -2.549
      -4.288
      -5.357
      -5.627
      -5.142
      -4.023
      -2.413
      -0.508
       1.383
       2.857
       3.553
       3.323
       2.314
       0.883
      -0.557
      -1.673
      -2.245
      -2.156
      -1.394
      -0.080
       1.513
       3.019
       4.102
       4.567
       4.399
       3.712
       2.683
       1.508
       0.393
      -0.465
      -0.926
      -0.944
      -0.565
       0.097
       0.874
       1.540
       1.823
       1.480
       0.408
      -1.261
      -3.165
      -4.839
      -5.874
      -6.047
      -5.352
      -3.978
      -2.260
      -0.612
       0.576
       1.053
       0.781
      -0.074
      -1.225
      -2.385
      -3.339
      -3.970
      -4.220
      -4.057
      -3.458
      -2.442
      -1.120
       0.288
       1.498
       2.265
       2.487
       2.239
       1.734
       1.232
       0.952
       1.006
       1.374
       1.915
       2.440
       2.803
       2.969
       3.010
       3.037
       3.114
       3.213
       3.236
       3.091
       2.753
       2.282
       1.783
       1.326
       0.894
       0.399
      -0.242
      -1.008
      -1.750
      -2.255
      -2.345
      -1.963
      -1.205
      -0.303
       0.454
       0.834
       0.782
       0.443
       0.074
      -0.122
      -0.113
      -0.033
      -0.059
      -0.270
      -0.589
      -0.837
      -0.841
      -0.519
       0.076
       0.777
       1.361
       1.635
       1.509
       1.022
       0.310
      -0.474
      -1.215
      -1.847
      -2.331
      -2.633
      -2.731
      -2.649
      -2.478
      -2.354
      -2.406
      -2.685
