Origin Time       4/2/2011 13:53:39	 
Lat.              24.8 N	
Long.             94.6 E	
Depth (Km)         30.0
Magnitude         6.4
 Region           Myanmar-India-Border                                             
 Above details taken from IMD 
     
Station Code      GUW
Station Lat.       26.190  N
Station Long.      91.746  E
Station Height(m)   55.2
Site Class        C   Vs30 between 200 m/sec to 375 m/sec *  
Record Time       04.02.2011 13:53:43.419
Sampling Rate     200. Hz
 Record Duration  164.795 Sec.
 Direction         E-W (E positive)
Max. Acceleration     25.477 cm/sec**2
     
  * For reference see Site Classification link of website 
     
 Base Line Corrected and Low Pass Filtered (Cut Off at 35 Hz) Time History
 Acceleration data in cm/sec**2
    
[...]
      12.545
      13.374
      13.948
      14.142
      13.876
      13.149
      12.086
      10.966
      10.141
       9.836
       9.954
      10.006
       9.280
       7.181
       3.557
      -1.208
      -6.392
     -11.264
     -15.323
     -18.303
     -20.081
     -20.614
     -19.986
     -18.449
     -16.360
     -14.052
     -11.743
      -9.555
      -7.576
      -5.894
      -4.563
      -3.552
      -2.711
      -1.816
      -0.688
       0.683
       2.101
       3.256
       3.890
       3.940
       3.587
       3.191
       3.176
       3.874
       5.391
       7.506
       9.704
      11.360
      12.013
      11.571
      10.334
       8.781
       7.279
       5.887
       4.407
       2.643
       0.647
      -1.262
      -2.719
      -3.566
      -3.917
      -4.059
      -4.296
      -4.851
      -5.804
      -7.045
      -8.288
      -9.183
      -9.497
      -9.216
      -8.507
      -7.547
      -6.391
      -4.985
      -3.293
      -1.441
       0.307
       1.731
       2.864
       4.049
       5.740
       8.166
      11.076
      13.768
      15.400
      15.366
      13.528
      10.200
       5.995
       1.663
      -2.046
      -4.510
      -5.392
      -4.759
      -3.080
      -1.047
       0.710
       1.856
       2.387
       2.471
       2.217
       1.576
       0.426
      -1.238
      -3.189
      -5.051
      -6.471
      -7.257
      -7.367
      -6.839
      -5.769
      -4.364
      -2.960
      -1.951
      -1.628
      -2.038
      -2.957
      -3.993
      -4.776
      -5.108
      -5.005
      -4.603
      -4.001
      -3.156
      -1.912
      -0.145
       2.070
       4.425
       6.517
       8.040
       8.909
       9.230
       9.184
       8.914
       8.488
       7.937
       7.318
       6.729
       6.261
       5.965
       5.862
       5.981
       6.343
       6.884
       7.362
       7.363
       6.442
       4.353
       1.215
      -2.487
      -6.125
      -9.213
     -11.556
     -13.185
     -14.152
     -14.404
     -13.812
     -12.312
     -10.030
      -7.284
      -4.497
      -2.055
      -0.208
       0.984
       1.627
       1.907
       2.005
       2.039
       2.069
       2.143
       2.334
       2.729
       3.380
       4.240
       5.160
       5.949
       6.469
       6.682
       6.615
       6.281
       5.632
       4.582
       3.075
       1.153
      -1.024
      -3.199
      -5.096
      -6.482
      -7.223
      -7.321
      -6.959
      -6.499
      -6.376
      -6.874
      -7.931
      -9.109
      -9.801
      -9.536
      -8.194
      -5.992
      -3.299
      -0.436
       2.395
       5.030
       7.231
       8.654
       8.952
       7.952
       5.796
       2.962
       0.169
      -1.807
      -2.359
      -1.260
       1.226
       4.415
       7.487
       9.814
      11.150
      11.565
      11.232
      10.256
       8.682
       6.616
       4.334
       2.245
       0.734
      -0.034
      -0.207
      -0.200
      -0.503
      -1.455
      -3.069
      -5.049
      -6.980
      -8.582
      -9.845
     -10.958
     -12.086
     -13.186
     -13.979
     -14.080
     -13.195
     -11.266
      -8.522
      -5.427
      -2.556
      -0.437
       0.641
       0.739
       0.257
      -0.236
      -0.220
       0.600
       2.237
       4.455
       6.846
       8.922
      10.213
      10.392
       9.385
       7.394
       4.814
       2.088
      -0.395
      -2.356
      -3.669
      -4.399
      -4.795
      -5.167
      -5.709
      -6.372
      -6.896
      -6.990
      -6.503
      -5.470
      -4.009
      -2.197
      -0.073
       2.242
       4.415
       5.944
       6.412
       5.782
       4.488
       3.206
       2.462
       2.362
       2.650
       2.972
       3.112
       3.042
       2.825
       2.539
       2.280
       2.209
       2.510
       3.251
       4.269
       5.227
       5.839
       6.082
       6.194
       6.456
       6.929
       7.376
       7.408
       6.744
       5.380
       3.574
       1.681
      -0.039
      -1.517
      -2.848
      -4.181
      -5.583
      -6.960
      -8.071
      -8.643
      -8.533
      -7.849
      -6.961
      -6.379
      -6.539
      -7.572
      -9.160
     -10.607
     -11.110
     -10.124
      -7.593
      -3.925
       0.251
       4.357
       7.996
      10.892
      12.769
      13.333
      12.407
      10.101
       6.872
       3.393
       0.320
      -1.912
      -3.173
      -3.574
      -3.344
      -2.708
      -1.823
      -0.770
       0.405
       1.632
       2.776
       3.641
       4.032
       3.828
       3.031
       1.749
       0.163
      -1.483
      -2.879
      -3.678
      -3.616
      -2.685
      -1.224
       0.157
       0.831
       0.421
      -1.065
      -3.277
      -5.671
      -7.696
      -8.935
      -9.177
      -8.402
      -6.759
      -4.529
      -2.081
       0.220
       2.110
       3.471
       4.302
       4.675
       4.715
       4.593
       4.512
       4.650
       5.103
       5.848
       6.735
       7.519
       7.939
       7.799
       7.028
       5.666
       3.834
       1.732
      -0.324
      -1.942
      -2.787
      -2.770
      -2.129
      -1.315
      -0.750
      -0.628
      -0.899
      -1.427
      -2.155
      -3.110
      -4.272
      -5.443
      -6.300
      -6.565
      -6.118
      -4.996
      -3.323
      -1.319
       0.674
       2.266
       3.205
       3.519
       3.465
       3.291
       3.037
       2.555
       1.733
       0.688
      -0.215
      -0.545
      -0.012
       1.405
       3.458
       5.682
       7.500
       8.364
       7.925
       6.146
       3.303
      -0.147
      -3.751
      -7.171
     -10.165
     -12.494
     -13.872
     -14.047
     -12.951
     -10.791
      -7.978
      -4.978
      -2.188
       0.094
       1.656
       2.356
       2.138
       1.062
      -0.688
      -2.807
      -4.887
      -6.484
      -7.218
      -6.878
      -5.478
      -3.259
      -0.626
       1.950
       4.039
       5.342
       5.755
       5.384
       4.516
       3.520
       2.715
       2.270
       2.187
       2.366
       2.671
       2.972
       3.152
       3.133
       2.905
       2.562
       2.282
       2.267
       2.648
       3.413
       4.409
       5.408
       6.184
       6.555
       6.387
       5.622
       4.330
       2.735
       1.147
      -0.178
      -1.137
      -1.760
      -2.107
      -2.184
      -1.939
      -1.352
      -0.513
       0.352
       0.967
       1.154
       0.942
       0.555
       0.243
       0.101
       0.031
      -0.112
      -0.331
      -0.437
      -0.239
       0.232
       0.676
       0.734
       0.289
      -0.433
      -1.040
      -1.247
      -1.006
      -0.402
       0.513
       1.743
       3.196
       4.533
       5.164
       4.458
       2.037
      -2.030
      -7.205
     -12.631
     -17.343
     -20.481
     -21.472
     -20.190
     -16.998
     -12.629
      -7.910
      -3.497
       0.228
       3.083
       4.961
       5.808
       5.721
       5.049
       4.356
       4.186
       4.781
       5.970
       7.318
       8.449
       9.256
       9.866
      10.413
      10.864
      11.038
      10.762
      10.000
       8.867
       7.578
       6.394
       5.569
       5.253
       5.383
       5.670
       5.750
       5.396
       4.626
       3.632
       2.586
       1.490
       0.176
      -1.544
      -3.688
      -6.015
      -8.133
      -9.731
     -10.779
     -11.526
     -12.292
     -13.228
     -14.227
     -15.035
     -15.446
     -15.407
     -14.958
     -14.104
     -12.733
     -10.682
      -7.888
      -4.506
      -0.886
       2.563
       5.500
       7.713
       9.143
       9.927
      10.403
      10.966
      11.807
      12.731
      13.282
      13.121
      12.352
      11.500
      11.095
      11.209
      11.340
      10.736
       8.906
       5.928
       2.367
      -1.058
      -3.804
      -5.643
      -6.616
      -6.896
      -6.668
      -6.090
      -5.315
      -4.554
      -4.074
      -4.134
      -4.851
      -6.081
      -7.428
      -8.402
      -8.659
      -8.165
      -7.201
      -6.239
      -5.749
      -6.039
      -7.120
      -8.659
     -10.039
     -10.582
      -9.858
      -7.896
      -5.136
      -2.120
       0.854
       3.849
       7.092
      10.622
      14.072
      16.754
      18.014
      17.617
      15.898
      13.574
      11.351
       9.565
       8.091
       6.553
       4.669
       2.475
       0.291
      -1.525
      -2.814
      -3.672
      -4.327
      -4.987
      -5.797
      -6.870
      -8.279
      -9.990
     -11.788
     -13.316
     -14.226
     -14.341
     -13.701
     -12.467
     -10.763
      -8.605
      -5.962
      -2.892
       0.389
       3.547
       6.218
       8.088
       8.936
       8.697
       7.538
       5.898
       4.403
       3.665
       4.060
       5.571
       7.769
       9.957
      11.440
      11.824
      11.144
       9.733
       7.937
       5.890
       3.556
       0.957
      -1.621
      -3.648
      -4.615
      -4.355
      -3.212
      -1.894
      -1.117
      -1.256
      -2.244
      -3.693
      -5.147
      -6.264
      -6.895
      -7.075
      -6.974
      -6.801
      -6.674
      -6.519
      -6.104
      -5.205
      -3.793
      -2.107
      -0.556
       0.501
       0.973
       1.112
       1.407
       2.322
       4.043
       6.394
       8.942
      11.181
      12.640
      12.938
      11.826
       9.305
       5.723
       1.736
      -1.893
      -4.564
      -5.989
      -6.185
      -5.364
      -3.859
      -2.106
      -0.611
       0.140
      -0.155
      -1.500
      -3.571
      -5.826
      -7.686
      -8.740
      -8.876
      -8.283
      -7.324
      -6.347
      -5.545
      -4.931
      -4.440
      -4.040
      -3.743
      -3.519
      -3.203
      -2.519
      -1.248
       0.581
       2.632
       4.404
       5.523
       5.965
       6.048
       6.202
       6.684
       7.459
       8.300
       8.962
       9.304
       9.297
       9.008
       8.587
       8.220
       8.020
       7.903
       7.562
       6.592
       4.700
       1.884
      -1.535
      -5.025
      -8.063
     -10.327
     -11.744
     -12.371
     -12.237
     -11.291
      -9.507
      -7.042
      -4.298
      -1.812
      -0.031
       0.865
       0.997
       0.665
       0.190
      -0.171
      -0.232
       0.142
       0.997
       2.215
       3.502
       4.499
       4.955
       4.842
       4.296
       3.478
       2.449
       1.186
      -0.325
      -1.988
      -3.567
      -4.734
      -5.170
      -4.678
      -3.274
      -1.196
       1.163
       3.372
       5.068
       6.007
       6.067
       5.238
       3.636
       1.532
      -0.673
      -2.565
      -3.885
      -4.640
      -5.036
      -5.316
      -5.598
      -5.834
      -5.852
      -5.418
      -4.302
      -2.382
       0.199
       2.932
       5.053
       5.885
       5.226
       3.491
       1.492
       0.026
      -0.455
       0.062
       1.262
       2.713
       4.056
       5.127
       5.962
       6.714
       7.500
       8.249
       8.671
       8.377
       7.102
       4.860
       1.914
      -1.377
      -4.713
      -7.874
     -10.662
     -12.859
     -14.269
     -14.800
     -14.516
     -13.598
     -12.273
     -10.758
      -9.251
      -7.921
      -6.871
      -6.089
      -5.437
      -4.720
      -3.817
      -2.796
      -1.904
      -1.391
      -1.269
      -1.205
      -0.655
       0.825
       3.338
       6.624
      10.238
      13.740
      16.785
      19.130
      20.642
      21.315
      21.242
      20.505
      19.074
      16.857
      13.883
      10.469
       7.158
       4.484
       2.746
       1.947
       1.868
       2.155
       2.362
       2.005
       0.704
      -1.627
      -4.713
      -8.063
     -11.239
     -14.049
     -16.540
     -18.833
     -20.946
     -22.733
     -23.932
     -24.287
     -23.652
     -22.062
     -19.737
     -17.009
     -14.196
     -11.492
      -8.919
      -6.375
      -3.710
      -0.797
       2.440
       5.983
       9.693
      13.306
      16.507
      19.034
      20.763
      21.722
      22.023
      21.785
      21.097
      20.045
      18.747
      17.351
      15.977
      14.624
      13.107
      11.113
       8.389
       4.947
       1.126
      -2.591
      -5.863
      -8.645
     -11.081
     -13.255
     -15.072
     -16.387
     -17.253
     -17.988
     -18.934
     -20.081
     -20.925
     -20.741
     -19.085
     -16.108
     -12.436
      -8.757
      -5.449
      -2.524
       0.131
       2.472
       4.248
       5.223
       5.435
       5.227
       5.010
       5.011
       5.228
       5.613
       6.249
       7.342
       9.036
      11.230
      13.570
      15.596
      16.939
      17.408
      16.957
      15.597
      13.376
      10.418
       6.949
       3.243
      -0.461
      -3.992
      -7.201
      -9.928
     -12.051
     -13.581
     -14.698
     -15.636
     -16.522
     -17.297
     -17.784
     -17.829
     -17.374
     -16.449
     -15.132
     -13.550
     -11.876
     -10.250
      -8.644
      -6.837
      -4.562
      -1.737
       1.445
       4.657
       7.693
      10.599
      13.579
      16.752
      19.965
      22.802
      24.759
      25.477
      24.880
      23.169
      20.707
      17.875
      14.968
      12.141
       9.415
       6.759
       4.204
       1.895
       0.024
      -1.317
      -2.217
      -2.909
      -3.627
      -4.521
      -5.655
      -7.076
      -8.839
     -10.955
     -13.307
     -15.603
     -17.444
     -18.460
     -18.424
     -17.286
     -15.119
     -12.069
      -8.372
      -4.410
      -0.723
       2.136
       3.854
       4.536
       4.640
       4.684
       4.922
       5.244
       5.360
       5.118
       4.674
       4.414
       4.710
       5.739
       7.432
       9.529
      11.626
      13.253
      13.991
      13.620
      12.180
       9.904
       7.100
       4.076
       1.148
      -1.341
      -3.098
      -4.025
      -4.323
      -4.394
      -4.592
      -5.013
      -5.524
      -5.969
      -6.360
      -6.867
      -7.663
      -8.729
      -9.821
     -10.618
     -10.930
     -10.764
     -10.185
      -9.138
      -7.450
      -5.052
      -2.187
       0.615
       2.827
       4.198
       4.768
       4.660
       3.921
       2.617
       1.040
      -0.285
      -0.898
      -0.732
      -0.169
       0.229
       0.055
      -0.783
      -2.103
      -3.573
      -4.833
      -5.625
      -5.918
      -5.932
      -5.970
      -6.152
      -6.286
      -6.023
      -5.161
      -3.862
      -2.578
      -1.785
      -1.700
      -2.149
      -2.630
      -2.544
      -1.500
       0.472
       2.914
       5.160
       6.655
       7.205
       7.019
       6.557
       6.278
       6.447
       7.115
       8.213
       9.648
      11.294
      12.893
      14.011
      14.182
      13.167
      11.141
       8.592
       6.031
       3.722
       1.666
      -0.209
      -1.863
      -3.129
      -3.868
      -4.132
      -4.179
      -4.326
      -4.770
      -5.518
      -6.459
      -7.487
      -8.535
      -9.530
     -10.327
     -10.727
     -10.529
      -9.613
      -8.011
      -5.956
      -3.864
      -2.211
      -1.315
      -1.159
      -1.386
      -1.518
      -1.232
      -0.496
       0.533
       1.700
       2.932
       4.185
       5.369
       6.358
       7.049
       7.386
       7.352
       6.994
       6.454
       5.954
       5.716
       5.864
       6.388
       7.134
       7.813
       8.023
       7.383
       5.749
       3.355
       0.761
      -1.407
      -2.753
      -3.225
      -3.044
      -2.561
      -2.154
      -2.194
      -2.971
      -4.578
      -6.811
      -9.190
     -11.108
     -12.047
     -11.732
     -10.168
      -7.607
      -4.498
      -1.411
       1.086
       2.597
       3.034
       2.633
       1.836
       1.124
       0.869
       1.285
       2.432
       4.241
       6.512
       8.897
      10.918
      12.067
      11.978
      10.587
       8.203
       5.428
       2.933
       1.203
       0.362
       0.190
       0.277
       0.234
      -0.164
      -0.959
      -2.073
      -3.408
      -4.902
      -6.521
      -8.194
      -9.757
     -10.941
     -11.456
     -11.119
      -9.960
      -8.262
      -6.506
      -5.219
      -4.744
      -5.037
      -5.653
      -6.002
      -5.752
      -5.049
      -4.377
      -4.132
      -4.253
      -4.193
      -3.264
      -1.113
       2.027
       5.462
       8.433
      10.479
      11.548
      11.874
      11.745
      11.359
      10.810
      10.145
       9.421
       8.691
       7.965
       7.193
       6.276
       5.115
       3.657
       1.941
       0.103
      -1.679
      -3.280
      -4.661
      -5.831
      -6.773
      -7.442
      -7.849
      -8.149
      -8.606
      -9.416
     -10.522
     -11.580
     -12.116
     -11.772
     -10.464
      -8.398
      -5.962
      -3.597
      -1.658
      -0.280
       0.713
       1.730
       3.161
       5.078
       7.102
       8.582
       9.008
       8.335
       6.997
       5.605
       4.583
       4.022
       3.773
       3.652
       3.556
       3.480
       3.468
       3.556
       3.739
       3.959
       4.116
       4.088
       3.768
       3.099
       2.137
       1.089
       0.261
      -0.083
       0.099
       0.584
       0.997
       1.007
       0.472
      -0.524
      -1.722
      -2.776
      -3.393
      -3.464
      -3.131
      -2.677
      -2.311
      -1.987
      -1.424
      -0.349
       1.229
       2.948
       4.292
       4.901
       4.722
       3.943
       2.825
       1.609
       0.526
      -0.196
      -0.403
      -0.125
       0.366
       0.666
       0.454
      -0.313
      -1.384
      -2.382
      -3.028
      -3.245
      -3.107
      -2.749
      -2.337
      -2.085
      -2.207
      -2.792
      -3.711
      -4.682
      -5.460
      -5.987
      -6.372
      -6.717
      -6.960
      -6.863
      -6.185
      -4.873
      -3.154
      -1.429
      -0.068
       0.743
       1.035
       0.961
       0.712
       0.470
       0.392
       0.581
       1.055
       1.760
       2.605
       3.474
       4.230
       4.727
       4.883
       4.721
       4.348
       3.860
       3.282
       2.587
       1.785
       0.974
       0.316
      -0.039
      -0.039
       0.244
       0.646
       1.026
       1.359
       1.711
       2.086
       2.296
       2.017
       1.038
      -0.552
      -2.404
      -4.140
      -5.524
      -6.430
      -6.720
      -6.218
      -4.859
      -2.855
      -0.701
       1.055
       2.117
       2.609
       2.938
       3.453
       4.143
       4.643
       4.574
       3.953
       3.297
       3.263
       4.110
       5.423
       6.362
       6.239
       4.960
       2.989
       0.964
      -0.700
      -1.909
      -2.738
      -3.251
      -3.460
      -3.391
      -3.132
      -2.792
      -2.463
