Origin Time       21/11/2011 03:15:33
Lat.              25.1 N 
Long.             95.3 E 
Depth (Km)         80.0
Magnitude         5.8
 Region           Myanmar-India-Border                                             
 Above details taken from IMD 
   
Station Code      GUW
Station Lat.       26.190
Station Long.      91.746
Station Height(m)   55.2
Site Class        C   Vs30 between 200 m/sec to 375 m/sec *  
Record Time       21.11.2011 03:15:22.294
Sampling Rate     200. Hz
 Record Duration  112.435 Sec.
 Direction         Vert. (Up positive)
Max. Acceleration      6.838 cm/sec**2
     
  * For reference see Site Classification link of website 
     
 Base Line Corrected and Low Pass Filtered (Cut Off at 35 Hz) Time History
 Acceleration data in cm/sec**2
    
[...]
      -0.199
      -0.537
      -0.731
      -0.726
      -0.568
      -0.372
      -0.252
      -0.246
      -0.291
      -0.275
      -0.124
       0.128
       0.355
       0.429
       0.319
       0.117
      -0.034
      -0.050
       0.036
       0.115
       0.097
      -0.015
      -0.149
      -0.229
      -0.236
      -0.201
      -0.162
      -0.123
      -0.053
       0.078
       0.254
       0.416
       0.496
       0.459
       0.319
       0.115
      -0.116
      -0.343
      -0.532
      -0.636
      -0.611
      -0.453
      -0.223
      -0.020
       0.076
       0.060
      -0.002
      -0.019
       0.063
       0.221
       0.370
       0.425
       0.363
       0.242
       0.150
       0.131
       0.153
       0.157
       0.128
       0.127
       0.234
       0.451
       0.660
       0.680
       0.418
      -0.038
      -0.463
      -0.649
      -0.559
      -0.333
      -0.159
      -0.123
      -0.153
      -0.108
       0.079
       0.334
       0.502
       0.484
       0.307
       0.099
      -0.024
      -0.048
      -0.060
      -0.161
      -0.361
      -0.559
      -0.620
      -0.485
      -0.207
       0.104
       0.359
       0.527
       0.617
       0.650
       0.638
       0.578
       0.454
       0.247
      -0.049
      -0.393
      -0.706
      -0.896
      -0.914
      -0.791
      -0.621
      -0.506
      -0.484
      -0.496
      -0.432
      -0.217
       0.113
       0.415
       0.535
       0.426
       0.198
       0.048
       0.117
       0.384
       0.676
       0.790
       0.631
       0.277
      -0.094
      -0.334
      -0.423
      -0.445
      -0.491
      -0.573
      -0.626
      -0.572
      -0.394
      -0.155
       0.045
       0.125
       0.068
      -0.084
      -0.257
      -0.373
      -0.377
      -0.256
      -0.045
       0.174
       0.296
       0.250
       0.046
      -0.217
      -0.404
      -0.432
      -0.316
      -0.142
       0.011
       0.124
       0.239
       0.398
       0.592
       0.760
       0.833
       0.795
       0.692
       0.581
       0.458
       0.250
      -0.104
      -0.555
      -0.921
      -1.007
      -0.757
      -0.332
      -0.005
       0.038
      -0.161
      -0.368
      -0.346
      -0.040
       0.389
       0.704
       0.771
       0.640
       0.458
       0.334
       0.267
       0.192
       0.084
      -0.011
      -0.023
       0.062
       0.187
       0.270
       0.276
       0.240
       0.232
       0.287
       0.362
       0.359
       0.194
      -0.117
      -0.442
      -0.603
      -0.497
      -0.181
       0.166
       0.361
       0.345
       0.197
       0.058
       0.023
       0.085
       0.174
       0.221
       0.202
       0.125
       0.004
      -0.155
      -0.333
      -0.483
      -0.540
      -0.464
      -0.278
      -0.074
       0.047
       0.033
      -0.083
      -0.213
      -0.267
      -0.211
      -0.070
       0.084
       0.175
       0.165
       0.074
      -0.024
      -0.045
       0.044
       0.201
       0.340
       0.396
       0.357
       0.257
       0.131
      -0.019
      -0.202
      -0.399
      -0.540
      -0.540
      -0.356
      -0.047
       0.244
       0.359
       0.233
      -0.058
      -0.337
      -0.449
      -0.368
      -0.207
      -0.121
      -0.181
      -0.330
      -0.442
      -0.436
      -0.332
      -0.221
      -0.173
      -0.172
      -0.121
       0.075
       0.414
       0.772
       0.968
       0.879
       0.532
       0.099
      -0.203
      -0.251
      -0.104
       0.039
      -0.015
      -0.307
      -0.690
      -0.935
      -0.895
      -0.597
      -0.211
       0.084
       0.220
       0.265
       0.351
       0.549
       0.801
       0.950
       0.848
       0.465
      -0.094
      -0.641
      -1.014
      -1.139
      -1.028
      -0.743
      -0.358
       0.052
       0.414
       0.673
       0.805
       0.818
       0.742
       0.609
       0.445
       0.270
       0.094
      -0.088
      -0.294
      -0.527
      -0.743
      -0.858
      -0.786
      -0.503
      -0.081
       0.329
       0.576
       0.598
       0.458
       0.297
       0.238
       0.309
       0.421
       0.425
       0.217
      -0.180
      -0.611
      -0.856
      -0.756
      -0.315
       0.278
       0.729
       0.803
       0.475
      -0.048
      -0.452
      -0.514
      -0.233
       0.183
       0.479
       0.526
       0.384
       0.212
       0.119
       0.073
      -0.037
      -0.264
      -0.504
      -0.552
      -0.270
       0.266
       0.780
       0.968
       0.717
       0.192
      -0.283
      -0.450
      -0.280
       0.030
       0.226
       0.183
      -0.024
      -0.212
      -0.249
      -0.155
      -0.070
      -0.126
      -0.333
      -0.557
      -0.609
      -0.381
       0.075
       0.565
       0.876
       0.904
       0.706
       0.435
       0.224
       0.101
      -0.004
      -0.170
      -0.395
      -0.579
      -0.599
      -0.411
      -0.102
       0.165
       0.264
       0.186
       0.041
      -0.037
       0.011
       0.138
       0.237
       0.214
       0.045
      -0.214
      -0.459
      -0.592
      -0.560
      -0.388
      -0.170
      -0.031
      -0.053
      -0.228
      -0.445
      -0.554
      -0.457
      -0.174
       0.172
       0.426
       0.486
       0.345
       0.084
      -0.183
      -0.359
      -0.391
      -0.284
      -0.094
       0.094
       0.202
       0.198
       0.108
      -0.004
      -0.076
      -0.087
      -0.066
      -0.064
      -0.119
      -0.219
      -0.314
      -0.349
      -0.305
      -0.219
      -0.152
      -0.135
      -0.131
      -0.054
       0.149
       0.439
       0.699
       0.808
       0.718
       0.469
       0.145
      -0.182
      -0.481
      -0.742
      -0.939
      -1.018
      -0.934
      -0.695
      -0.376
      -0.075
       0.145
       0.285
       0.386
       0.479
       0.544
       0.533
       0.412
       0.202
      -0.029
      -0.202
      -0.273
      -0.252
      -0.191
      -0.144
      -0.140
      -0.169
      -0.187
      -0.148
      -0.038
       0.101
       0.200
       0.214
       0.152
       0.076
       0.062
       0.148
       0.296
       0.413
       0.408
       0.270
       0.077
      -0.065
      -0.105
      -0.079
      -0.061
      -0.092
      -0.134
      -0.100
       0.083
       0.416
       0.798
       1.067
       1.084
       0.822
       0.386
      -0.040
      -0.300
      -0.342
      -0.221
      -0.060
       0.027
      -0.006
      -0.127
      -0.261
      -0.357
      -0.409
      -0.435
      -0.432
      -0.377
      -0.260
      -0.122
      -0.031
      -0.019
      -0.039
       0.013
       0.187
       0.413
       0.521
       0.367
      -0.043
      -0.536
      -0.866
      -0.858
      -0.518
      -0.019
       0.399
       0.561
       0.438
       0.141
      -0.152
      -0.295
      -0.248
      -0.074
       0.107
       0.193
       0.150
       0.028
      -0.069
      -0.037
       0.159
       0.457
       0.712
       0.777
       0.605
       0.291
       0.014
      -0.068
       0.082
       0.365
       0.590
       0.579
       0.269
      -0.232
      -0.687
      -0.848
      -0.606
      -0.057
       0.544
       0.923
       0.925
       0.567
       0.005
      -0.551
      -0.921
      -1.002
      -0.791
      -0.384
       0.048
       0.322
       0.335
       0.120
      -0.158
      -0.298
      -0.186
       0.124
       0.434
       0.529
       0.323
      -0.098
      -0.530
      -0.789
      -0.795
      -0.597
      -0.313
      -0.077
       0.015
      -0.055
      -0.218
      -0.348
      -0.341
      -0.190
       0.002
       0.100
       0.053
      -0.058
      -0.076
       0.112
       0.493
       0.935
       1.262
       1.348
       1.174
       0.828
       0.453
       0.176
       0.039
      -0.029
      -0.159
      -0.443
      -0.848
      -1.234
      -1.449
      -1.428
      -1.217
      -0.914
      -0.581
      -0.222
       0.161
       0.503
       0.687
       0.639
       0.415
       0.191
       0.153
       0.368
       0.747
       1.093
       1.208
       0.995
       0.515
      -0.034
      -0.431
      -0.572
      -0.523
      -0.455
      -0.504
      -0.675
      -0.846
      -0.879
      -0.719
      -0.427
      -0.115
       0.151
       0.393
       0.680
       1.033
       1.360
       1.492
       1.294
       0.776
       0.116
      -0.425
      -0.645
      -0.522
      -0.239
      -0.066
      -0.189
      -0.574
      -0.979
      -1.118
      -0.861
      -0.330
       0.194
       0.472
       0.470
       0.358
       0.356
       0.552
       0.828
       0.955
       0.780
       0.348
      -0.130
      -0.426
      -0.448
      -0.285
      -0.137
      -0.187
      -0.498
      -0.967
      -1.365
      -1.465
      -1.189
      -0.680
      -0.211
       0.002
      -0.027
      -0.064
       0.144
       0.637
       1.159
       1.325
       0.918
       0.068
      -0.815
      -1.319
      -1.300
      -0.942
      -0.578
      -0.421
      -0.432
      -0.418
      -0.230
       0.095
       0.386
       0.483
       0.377
       0.221
       0.213
       0.443
       0.790
       0.991
       0.819
       0.265
      -0.426
      -0.903
      -0.935
      -0.544
       0.023
       0.470
       0.638
       0.576
       0.453
       0.397
       0.389
       0.302
       0.049
      -0.303
      -0.565
      -0.584
      -0.381
      -0.148
      -0.122
      -0.439
      -1.063
      -1.815
      -2.459
      -2.806
      -2.785
      -2.441
      -1.874
      -1.170
      -0.365
       0.536
       1.519
       2.529
       3.460
       4.175
       4.539
       4.470
       3.982
       3.193
       2.296
       1.478
       0.823
       0.279
      -0.279
      -0.907
      -1.497
      -1.823
      -1.701
      -1.153
      -0.419
       0.205
       0.565
       0.729
       0.878
       1.104
       1.304
       1.241
       0.750
      -0.108
      -1.041
      -1.716
      -1.973
      -1.939
      -1.920
      -2.166
      -2.669
      -3.156
      -3.282
      -2.863
      -1.979
      -0.898
       0.100
       0.854
       1.338
       1.591
       1.637
       1.449
       0.992
       0.292
      -0.521
      -1.239
      -1.650
      -1.609
      -1.090
      -0.197
       0.858
       1.823
       2.499
       2.826
       2.900
       2.883
       2.858
       2.724
       2.254
       1.292
      -0.087
      -1.585
      -2.877
      -3.806
      -4.444
      -4.952
      -5.365
      -5.503
      -5.058
      -3.838
      -1.953
       0.183
       2.051
       3.279
       3.792
       3.791
       3.587
       3.383
       3.145
       2.660
       1.758
       0.519
      -0.708
      -1.487
      -1.573
      -1.070
      -0.356
       0.174
       0.367
       0.387
       0.566
       1.148
       2.096
       3.127
       3.904
       4.237
       4.157
       3.830
       3.414
       2.969
       2.469
       1.883
       1.229
       0.567
      -0.045
      -0.616
      -1.211
      -1.885
      -2.586
      -3.140
      -3.346
      -3.110
      -2.521
      -1.787
      -1.110
      -0.590
      -0.213
       0.096
       0.387
       0.626
       0.697
       0.483
      -0.023
      -0.662
      -1.162
      -1.299
      -1.053
      -0.633
      -0.326
      -0.288
      -0.432
      -0.505
      -0.289
       0.216
       0.806
       1.240
       1.413
       1.369
       1.173
       0.792
       0.116
      -0.882
      -2.000
      -2.852
      -3.108
      -2.724
      -1.981
      -1.289
      -0.923
      -0.870
      -0.885
      -0.700
      -0.217
       0.449
       1.075
       1.483
       1.627
       1.575
       1.407
       1.131
       0.675
      -0.006
      -0.809
      -1.451
      -1.605
      -1.123
      -0.160
       0.915
       1.743
       2.171
       2.268
       2.204
       2.108
       2.010
       1.897
       1.802
       1.839
       2.119
       2.619
       3.129
       3.340
       3.025
       2.185
       1.052
      -0.043
      -0.859
      -1.359
      -1.666
      -1.907
      -2.082
      -2.050
      -1.653
      -0.898
      -0.052
       0.466
       0.345
      -0.376
      -1.278
      -1.791
      -1.571
      -0.735
       0.215
       0.745
       0.648
       0.137
      -0.418
      -0.852
      -1.339
      -2.160
      -3.313
      -4.339
      -4.550
      -3.512
      -1.398
       1.059
       2.981
       3.830
       3.619
       2.772
       1.779
       0.913
       0.156
      -0.670
      -1.681
      -2.769
      -3.601
      -3.803
      -3.214
      -2.037
      -0.744
       0.189
       0.546
       0.465
       0.289
       0.307
       0.552
       0.770
       0.614
      -0.087
      -1.167
      -2.231
      -2.921
      -3.127
      -2.995
      -2.748
      -2.498
      -2.186
      -1.713
      -1.096
      -0.536
      -0.299
      -0.532
      -1.141
      -1.824
      -2.242
      -2.225
      -1.866
      -1.449
      -1.269
      -1.463
      -1.949
      -2.459
      -2.657
      -2.277
      -1.264
       0.161
       1.538
       2.366
       2.361
       1.601
       0.463
      -0.621
      -1.372
      -1.714
      -1.657
      -1.179
      -0.207
       1.275
       3.105
       4.918
       6.268
       6.838
       6.567
       5.650
       4.393
       3.069
       1.850
       0.830
       0.073
      -0.397
      -0.613
      -0.666
      -0.651
      -0.615
      -0.560
      -0.470
      -0.333
      -0.141
       0.113
       0.413
       0.677
       0.756
       0.514
      -0.056
      -0.786
      -1.415
      -1.743
      -1.747
      -1.554
      -1.328
      -1.162
      -1.039
      -0.854
      -0.454
       0.282
       1.353
       2.567
       3.609
       4.199
       4.249
       3.892
       3.347
       2.735
       1.998
       0.995
      -0.310
      -1.701
      -2.757
      -3.058
      -2.438
      -1.096
       0.497
       1.849
       2.679
       2.979
       2.909
       2.622
       2.162
       1.486
       0.549
      -0.641
      -2.003
      -3.376
      -4.538
      -5.269
      -5.459
      -5.188
      -4.702
      -4.279
      -4.063
      -3.997
      -3.886
      -3.537
      -2.865
      -1.919
      -0.817
       0.332
       1.465
       2.541
       3.496
       4.217
       4.566
       4.471
       4.008
       3.410
       2.947
       2.757
       2.754
       2.702
       2.404
       1.865
       1.295
       0.964
       1.028
       1.431
       1.933
       2.227
       2.091
       1.508
       0.686
      -0.048
      -0.445
      -0.474
      -0.326
      -0.253
      -0.371
      -0.580
      -0.668
      -0.481
      -0.033
       0.509
       0.937
       1.124
       1.088
       0.963
       0.880
       0.885
       0.942
       1.026
       1.192
       1.536
       2.089
       2.723
       3.159
       3.104
       2.425
       1.260
      -0.041
      -1.079
      -1.586
      -1.515
      -1.014
      -0.357
       0.144
       0.221
      -0.239
      -1.123
      -2.095
      -2.737
      -2.779
      -2.259
      -1.484
      -0.815
      -0.455
      -0.374
      -0.414
      -0.463
      -0.564
      -0.883
      -1.559
      -2.556
      -3.622
      -4.387
      -4.544
      -3.987
      -2.857
      -1.469
      -0.162
       0.843
       1.483
       1.788
       1.778
       1.444
       0.813
       0.051
      -0.558
      -0.763
      -0.527
      -0.056
       0.355
       0.541
       0.554
       0.563
       0.677
       0.858
       0.984
       0.966
       0.789
       0.482
       0.046
      -0.562
      -1.383
      -2.371
      -3.344
      -4.035
      -4.216
      -3.830
      -3.024
      -2.052
      -1.132
      -0.342
       0.338
       0.915
       1.296
       1.320
       0.901
       0.165
      -0.547
      -0.876
      -0.673
      -0.110
       0.446
       0.678
       0.520
       0.175
      -0.012
       0.238
       0.970
       1.961
       2.822
       3.207
       2.995
       2.355
       1.649
       1.221
       1.183
       1.382
       1.550
       1.541
       1.428
       1.375
       1.437
       1.486
       1.333
       0.904
       0.293
      -0.358
      -1.003
      -1.716
      -2.555
      -3.419
      -4.037
      -4.133
      -3.618
      -2.658
      -1.570
      -0.648
      -0.028
       0.335
       0.583
       0.816
       1.012
       1.054
       0.836
       0.354
      -0.295
      -0.981
      -1.585
      -2.004
      -2.127
      -1.848
      -1.122
      -0.038
       1.155
       2.099
       2.483
       2.203
       1.440
       0.552
      -0.150
      -0.586
      -0.918
      -1.372
      -2.017
      -2.692
      -3.108
      -3.052
      -2.514
      -1.675
      -0.779
      -0.005
       0.588
       1.046
       1.445
       1.814
       2.081
       2.093
       1.717
       0.973
       0.080
      -0.623
      -0.873
      -0.646
      -0.171
       0.244
       0.442
       0.502
       0.619
       0.909
       1.313
       1.680
       1.898
       1.954
       1.890
       1.726
       1.459
       1.116
       0.786
       0.559
       0.440
       0.335
       0.149
      -0.111
      -0.330
      -0.399
      -0.316
      -0.174
      -0.058
       0.076
       0.393
       1.029
       1.889
       2.605
       2.735
       2.075
       0.814
      -0.568
      -1.601
      -2.065
      -2.021
      -1.671
      -1.191
      -0.681
      -0.207
       0.152
       0.296
       0.155
      -0.257
      -0.818
      -1.337
      -1.606
      -1.461
      -0.843
       0.149
       1.229
       2.027
       2.272
       1.951
       1.293
       0.596
       0.024
      -0.458
      -0.977
      -1.595
      -2.214
      -2.631
      -2.690
      -2.396
      -1.916
      -1.430
      -0.983
      -0.456
       0.302
       1.294
       2.329
       3.126
       3.492
       3.400
       2.962
       2.339
       1.670
       1.046
       0.500
       0.035
      -0.355
      -0.641
      -0.759
      -0.634
      -0.238
       0.385
       1.105
       1.730
       2.065
       1.991
       1.530
       0.830
       0.095
      -0.507
      -0.894
      -1.069
      -1.088
      -1.024
      -0.945
      -0.883
      -0.815
      -0.674
      -0.390
       0.057
       0.595
       1.060
       1.253
       1.032
       0.399
      -0.459
      -1.240
      -1.680
      -1.712
      -1.502
      -1.312
      -1.301
      -1.417
      -1.465
      -1.290
      -0.916
      -0.524
      -0.304
      -0.312
      -0.451
      -0.551
      -0.498
      -0.285
       0.006
       0.254
       0.344
       0.207
      -0.143
      -0.612
      -1.085
      -1.475
      -1.739
      -1.845
      -1.756
      -1.450
      -0.967
      -0.412
       0.063
       0.322
       0.304
       0.085
      -0.123
      -0.073
       0.342
       0.978
       1.487
       1.528
       1.007
       0.179
      -0.469
      -0.542
      -0.024
       0.685
       1.037
       0.732
      -0.082
      -0.931
