Origin Time       11/9/2010 07:02:09	
Lat.              25.9 N	
Long.             90.2 E	
Depth (Km)         20.0
Magnitude         5.0
 Region           Meghalaya-Assam-Border                                           
 Above details taken from IMD 
   
Station Code      GUW
Station Lat.       26.190
Station Long.      91.746
Station Height(m)   55.2
Site Class        C   Vs30 between 200 m/sec to 375 m/sec *  
Record Time       11.09.2010 07:02:03.709
Sampling Rate     200. Hz
 Record Duration   90.895 Sec.
 Direction         Vert. (Up positive)
Max. Acceleration     -3.014 cm/sec**2
     
  * For reference see Site Classification link of website 
     
 Base Line Corrected and Low Pass Filtered (Cut Off at 35 Hz) Time History
 Acceleration data in cm/sec**2
    
[...]
      -0.097
      -0.064
       0.038
       0.174
       0.279
       0.309
       0.273
       0.225
       0.220
       0.278
       0.363
       0.412
       0.371
       0.233
       0.041
      -0.130
      -0.222
      -0.227
      -0.200
      -0.212
      -0.291
      -0.399
      -0.457
      -0.409
      -0.265
      -0.102
       0.001
       0.013
      -0.029
      -0.058
      -0.029
       0.052
       0.138
       0.183
       0.172
       0.129
       0.095
       0.102
       0.155
       0.235
       0.314
       0.361
       0.348
       0.263
       0.124
      -0.020
      -0.112
      -0.132
      -0.111
      -0.109
      -0.158
      -0.235
      -0.275
      -0.228
      -0.090
       0.092
       0.245
       0.309
       0.259
       0.116
      -0.057
      -0.182
      -0.206
      -0.132
      -0.024
       0.036
       0.006
      -0.082
      -0.150
      -0.137
      -0.048
       0.055
       0.102
       0.071
       0.000
      -0.047
      -0.032
       0.039
       0.124
       0.177
       0.175
       0.126
       0.064
       0.015
      -0.019
      -0.063
      -0.138
      -0.242
      -0.338
      -0.385
      -0.362
      -0.293
      -0.228
      -0.211
      -0.237
      -0.244
      -0.162
       0.036
       0.290
       0.488
       0.542
       0.449
       0.295
       0.193
       0.201
       0.291
       0.374
       0.368
       0.256
       0.092
      -0.041
      -0.095
      -0.083
      -0.051
      -0.031
      -0.011
       0.030
       0.085
       0.110
       0.063
      -0.043
      -0.135
      -0.142
      -0.060
       0.036
       0.049
      -0.057
      -0.221
      -0.336
      -0.336
      -0.243
      -0.144
      -0.109
      -0.143
      -0.195
      -0.210
      -0.168
      -0.078
       0.042
       0.171
       0.277
       0.316
       0.264
       0.136
      -0.006
      -0.099
      -0.120
      -0.090
      -0.057
      -0.057
      -0.099
      -0.152
      -0.171
      -0.115
       0.007
       0.134
       0.187
       0.134
       0.033
      -0.011
       0.063
       0.207
       0.292
       0.214
      -0.010
      -0.254
      -0.374
      -0.316
      -0.143
       0.034
       0.135
       0.151
       0.113
       0.050
      -0.022
      -0.081
      -0.099
      -0.062
       0.009
       0.061
       0.049
      -0.033
      -0.150
      -0.244
      -0.262
      -0.172
       0.018
       0.250
       0.433
       0.493
       0.420
       0.280
       0.163
       0.115
       0.115
       0.108
       0.059
      -0.019
      -0.091
      -0.136
      -0.157
      -0.169
      -0.179
      -0.190
      -0.207
      -0.234
      -0.254
      -0.237
      -0.158
      -0.030
       0.106
       0.202
       0.237
       0.213
       0.137
       0.011
      -0.157
      -0.321
      -0.406
      -0.354
      -0.181
       0.013
       0.114
       0.079
      -0.024
      -0.075
       0.002
       0.180
       0.351
       0.406
       0.307
       0.108
      -0.079
      -0.165
      -0.140
      -0.082
      -0.092
      -0.211
      -0.364
      -0.412
      -0.262
       0.037
       0.312
       0.393
       0.242
      -0.013
      -0.176
      -0.123
       0.111
       0.377
       0.524
       0.494
       0.339
       0.169
       0.081
       0.115
       0.240
       0.370
       0.399
       0.260
      -0.023
      -0.334
      -0.522
      -0.516
      -0.376
      -0.260
      -0.294
      -0.474
      -0.660
      -0.687
      -0.493
      -0.175
       0.077
       0.111
      -0.076
      -0.329
      -0.446
      -0.320
      -0.025
       0.237
       0.280
       0.082
      -0.191
      -0.303
      -0.125
       0.251
       0.579
       0.637
       0.402
       0.074
      -0.085
       0.045
       0.347
       0.556
       0.475
       0.123
      -0.280
      -0.472
      -0.332
       0.053
       0.456
       0.671
       0.626
       0.405
       0.168
       0.043
       0.060
       0.152
       0.215
       0.173
       0.026
      -0.162
      -0.315
      -0.397
      -0.422
      -0.415
      -0.380
      -0.299
      -0.169
      -0.038
       0.018
      -0.048
      -0.200
      -0.321
      -0.293
      -0.093
       0.166
       0.302
       0.204
      -0.072
      -0.333
      -0.391
      -0.208
       0.076
       0.259
       0.244
       0.101
      -0.009
       0.026
       0.177
       0.312
       0.317
       0.188
       0.027
      -0.052
      -0.017
       0.061
       0.082
       0.007
      -0.119
      -0.207
      -0.207
      -0.147
      -0.101
      -0.121
      -0.192
      -0.253
      -0.248
      -0.181
      -0.112
      -0.111
      -0.195
      -0.302
      -0.335
      -0.242
      -0.057
       0.117
       0.191
       0.148
       0.055
       0.000
       0.034
       0.144
       0.277
       0.377
       0.411
       0.382
       0.323
       0.277
       0.274
       0.308
       0.345
       0.343
       0.281
       0.166
       0.028
      -0.104
      -0.203
      -0.254
      -0.244
      -0.172
      -0.059
       0.040
       0.067
      -0.002
      -0.134
      -0.265
      -0.333
      -0.321
      -0.254
      -0.182
      -0.143
      -0.151
      -0.196
      -0.249
      -0.282
      -0.278
      -0.241
      -0.190
      -0.140
      -0.091
      -0.036
       0.010
       0.008
      -0.073
      -0.206
      -0.302
      -0.269
      -0.090
       0.154
       0.343
       0.403
       0.350
       0.265
       0.225
       0.252
       0.314
       0.356
       0.336
       0.251
       0.139
       0.065
       0.072
       0.145
       0.219
       0.232
       0.175
       0.100
       0.069
       0.102
       0.161
       0.186
       0.140
       0.037
      -0.077
      -0.151
      -0.160
      -0.104
      -0.008
       0.086
       0.120
       0.043
      -0.152
      -0.399
      -0.582
      -0.607
      -0.461
      -0.224
      -0.017
       0.071
       0.029
      -0.080
      -0.166
      -0.171
      -0.108
      -0.039
      -0.024
      -0.066
      -0.099
      -0.049
       0.097
       0.272
       0.370
       0.335
       0.202
       0.070
       0.018
       0.041
       0.061
       0.002
      -0.144
      -0.318
      -0.441
      -0.471
      -0.418
      -0.318
      -0.200
      -0.076
       0.050
       0.168
       0.258
       0.309
       0.328
       0.339
       0.357
       0.379
       0.377
       0.316
       0.181
      -0.004
      -0.174
      -0.254
      -0.211
      -0.073
       0.072
       0.136
       0.087
      -0.027
      -0.110
      -0.095
       0.006
       0.108
       0.117
       0.000
      -0.191
      -0.358
      -0.416
      -0.346
      -0.195
      -0.040
       0.063
       0.115
       0.161
       0.245
       0.366
       0.463
       0.461
       0.323
       0.095
      -0.110
      -0.185
      -0.104
       0.054
       0.155
       0.109
      -0.069
      -0.266
      -0.366
      -0.338
      -0.248
      -0.194
      -0.224
      -0.307
      -0.367
      -0.353
      -0.263
      -0.136
      -0.018
       0.062
       0.100
       0.117
       0.150
       0.227
       0.345
       0.460
       0.505
       0.433
       0.253
       0.035
      -0.133
      -0.204
      -0.195
      -0.163
      -0.157
      -0.177
      -0.182
      -0.124
       0.010
       0.182
       0.320
       0.369
       0.329
       0.255
       0.215
       0.233
       0.273
       0.269
       0.181
       0.036
      -0.092
      -0.134
      -0.081
       0.011
       0.061
       0.024
      -0.071
      -0.148
      -0.141
      -0.056
       0.025
       0.003
      -0.158
      -0.383
      -0.540
      -0.536
      -0.396
      -0.243
      -0.187
      -0.234
      -0.278
      -0.206
      -0.003
       0.227
       0.337
       0.268
       0.092
      -0.045
      -0.037
       0.101
       0.266
       0.349
       0.314
       0.204
       0.088
       0.014
      -0.011
      -0.008
       0.000
      -0.004
      -0.016
      -0.024
      -0.015
       0.006
       0.015
      -0.017
      -0.101
      -0.224
      -0.350
      -0.444
      -0.479
      -0.445
      -0.341
      -0.184
      -0.012
       0.124
       0.198
       0.233
       0.290
       0.404
       0.536
       0.591
       0.493
       0.262
       0.017
      -0.111
      -0.072
       0.064
       0.155
       0.105
      -0.067
      -0.242
      -0.297
      -0.197
      -0.022
       0.105
       0.105
      -0.008
      -0.152
      -0.242
      -0.242
      -0.182
      -0.125
      -0.122
      -0.177
      -0.250
      -0.278
      -0.217
      -0.069
       0.110
       0.240
       0.266
       0.196
       0.097
       0.040
       0.059
       0.128
       0.189
       0.198
       0.142
       0.054
      -0.010
       0.005
       0.114
       0.271
       0.376
       0.341
       0.165
      -0.044
      -0.142
      -0.060
       0.117
       0.213
       0.092
      -0.218
      -0.540
      -0.677
      -0.565
      -0.325
      -0.169
      -0.235
      -0.487
      -0.743
      -0.809
      -0.612
      -0.250
       0.077
       0.198
       0.094
      -0.091
      -0.150
       0.034
       0.402
       0.769
       0.963
       0.937
       0.783
       0.645
       0.618
       0.695
       0.794
       0.830
       0.772
       0.652
       0.532
       0.457
       0.433
       0.428
       0.387
       0.268
       0.072
      -0.149
      -0.327
      -0.436
      -0.513
      -0.628
      -0.815
      -1.041
      -1.226
      -1.307
      -1.277
      -1.180
      -1.073
      -1.001
      -0.978
      -0.983
      -0.960
      -0.854
      -0.653
      -0.411
      -0.209
      -0.096
      -0.036
       0.066
       0.303
       0.691
       1.154
       1.558
       1.784
       1.799
       1.669
       1.521
       1.455
       1.473
       1.486
       1.377
       1.096
       0.696
       0.298
       0.006
      -0.158
      -0.258
      -0.381
      -0.573
      -0.811
      -1.037
      -1.211
      -1.329
      -1.407
      -1.447
      -1.431
      -1.348
      -1.221
      -1.108
      -1.056
      -1.066
      -1.089
      -1.059
      -0.944
      -0.762
      -0.572
      -0.427
      -0.331
      -0.236
      -0.087
       0.118
       0.321
       0.448
       0.490
       0.517
       0.625
       0.847
       1.124
       1.351
       1.460
       1.468
       1.442
       1.440
       1.469
       1.494
       1.466
       1.366
       1.212
       1.045
       0.895
       0.757
       0.595
       0.384
       0.131
      -0.126
      -0.344
      -0.497
      -0.591
      -0.646
      -0.690
      -0.751
      -0.845
      -0.963
      -1.073
      -1.135
      -1.131
      -1.074
      -1.000
      -0.944
      -0.916
      -0.885
      -0.795
      -0.597
      -0.287
       0.077
       0.415
       0.670
       0.838
       0.935
       0.954
       0.861
       0.635
       0.320
       0.016
      -0.194
      -0.307
      -0.400
      -0.556
      -0.781
      -0.984
      -1.046
      -0.912
      -0.628
      -0.306
      -0.038
       0.148
       0.272
       0.349
       0.359
       0.274
       0.103
      -0.087
      -0.205
      -0.196
      -0.066
       0.127
       0.311
       0.424
       0.430
       0.330
       0.173
       0.041
       0.000
       0.055
       0.146
       0.199
       0.191
       0.161
       0.165
       0.229
       0.325
       0.399
       0.403
       0.308
       0.109
      -0.168
      -0.457
      -0.672
      -0.751
      -0.692
      -0.546
      -0.372
      -0.204
      -0.044
       0.112
       0.254
       0.369
       0.474
       0.613
       0.824
       1.092
       1.348
       1.509
       1.540
       1.467
       1.344
       1.205
       1.050
       0.880
       0.718
       0.593
       0.485
       0.313
       0.005
      -0.407
      -0.767
      -0.895
      -0.738
      -0.419
      -0.145
      -0.054
      -0.136
      -0.288
      -0.421
      -0.537
      -0.694
      -0.935
      -1.217
      -1.432
      -1.474
      -1.316
      -1.018
      -0.670
      -0.311
       0.084
       0.546
       1.024
       1.369
       1.422
       1.159
       0.747
       0.451
       0.437
       0.632
       0.780
       0.648
       0.222
      -0.279
      -0.585
      -0.599
      -0.470
      -0.457
      -0.705
      -1.127
      -1.471
      -1.532
      -1.301
      -0.954
      -0.703
      -0.640
      -0.707
      -0.776
      -0.760
      -0.663
      -0.537
      -0.422
      -0.315
      -0.194
      -0.053
       0.068
       0.104
       0.008
      -0.208
      -0.456
      -0.608
      -0.561
      -0.300
       0.102
       0.528
       0.888
       1.151
       1.328
       1.423
       1.407
       1.242
       0.929
       0.525
       0.124
      -0.197
      -0.412
      -0.544
      -0.640
      -0.742
      -0.875
      -1.027
      -1.160
      -1.219
      -1.163
      -0.985
      -0.710
      -0.368
       0.028
       0.484
       0.993
       1.499
       1.893
       2.070
       1.999
       1.762
       1.507
       1.336
       1.229
       1.065
       0.739
       0.280
      -0.133
      -0.291
      -0.110
       0.288
       0.664
       0.832
       0.774
       0.609
       0.443
       0.266
      -0.040
      -0.585
      -1.350
      -2.160
      -2.772
      -3.014
      -2.878
      -2.500
      -2.056
      -1.639
      -1.219
      -0.698
      -0.021
       0.746
       1.439
       1.894
       2.044
       1.932
       1.646
       1.237
       0.700
       0.030
      -0.714
      -1.393
      -1.843
      -1.976
      -1.830
      -1.530
      -1.190
      -0.838
      -0.428
       0.081
       0.663
       1.223
       1.659
       1.929
       2.052
       2.066
       1.990
       1.811
       1.530
       1.192
       0.887
       0.699
       0.649
       0.690
       0.744
       0.750
       0.689
       0.572
       0.413
       0.213
      -0.049
      -0.405
      -0.880
      -1.452
      -2.040
      -2.527
      -2.813
      -2.862
      -2.698
      -2.373
      -1.935
      -1.422
      -0.869
      -0.319
       0.194
       0.655
       1.064
       1.412
       1.673
       1.825
       1.870
       1.834
       1.738
       1.578
       1.331
       0.973
       0.510
       0.006
      -0.429
      -0.683
      -0.708
      -0.558
      -0.360
      -0.232
      -0.215
      -0.261
      -0.294
      -0.270
      -0.215
      -0.198
      -0.282
      -0.462
      -0.665
      -0.798
      -0.820
      -0.775
      -0.747
      -0.779
      -0.811
      -0.737
      -0.501
      -0.169
       0.118
       0.249
       0.229
       0.168
       0.183
       0.300
       0.441
       0.499
       0.429
       0.286
       0.180
       0.188
       0.310
       0.483
       0.637
       0.744
       0.813
       0.865
       0.916
       0.968
       1.015
       1.030
       0.986
       0.866
       0.682
       0.462
       0.216
      -0.080
      -0.466
      -0.949
      -1.472
      -1.933
      -2.238
      -2.338
      -2.237
      -1.971
      -1.594
      -1.167
      -0.739
      -0.330
       0.061
       0.437
       0.769
       1.007
       1.111
       1.092
       1.026
       1.002
       1.059
       1.156
       1.204
       1.145
       0.998
       0.837
       0.727
       0.660
       0.581
       0.448
       0.296
       0.209
       0.256
       0.405
       0.532
       0.496
       0.247
      -0.138
      -0.518
      -0.798
      -0.996
      -1.210
      -1.503
      -1.812
      -1.957
      -1.772
      -1.253
      -0.606
      -0.136
      -0.037
      -0.248
      -0.499
      -0.519
      -0.249
       0.129
       0.344
       0.274
       0.036
      -0.117
      -0.009
       0.324
       0.688
       0.899
       0.908
       0.796
       0.666
       0.551
       0.408
       0.177
      -0.147
      -0.498
      -0.782
      -0.937
      -0.966
      -0.915
      -0.821
      -0.676
      -0.434
      -0.063
       0.407
       0.887
       1.276
       1.525
       1.661
       1.752
       1.824
       1.822
       1.658
       1.311
       0.870
       0.477
       0.212
       0.023
      -0.216
      -0.581
      -1.010
      -1.353
      -1.490
      -1.442
      -1.350
      -1.368
      -1.535
      -1.733
      -1.753
      -1.442
      -0.814
      -0.069
       0.500
       0.660
       0.368
      -0.199
      -0.723
      -0.900
      -0.586
       0.123
       0.941
       1.542
       1.730
       1.525
       1.125
       0.758
       0.543
       0.444
       0.340
       0.140
      -0.134
      -0.357
      -0.392
      -0.197
       0.131
       0.420
       0.548
       0.518
       0.449
       0.474
       0.646
       0.912
       1.158
       1.300
       1.334
       1.324
       1.320
       1.294
       1.156
       0.823
       0.292
      -0.357
      -1.020
      -1.617
      -2.111
      -2.472
      -2.667
      -2.656
      -2.424
      -2.009
      -1.506
      -1.033
      -0.680
      -0.479
      -0.405
      -0.395
      -0.385
      -0.338
      -0.264
      -0.217
      -0.274
      -0.474
      -0.767
      -1.011
      -1.038
      -0.755
      -0.223
       0.368
       0.806
       0.998
       1.027
       1.086
       1.333
       1.758
       2.182
       2.390
       2.295
       1.995
       1.668
       1.417
       1.179
       0.792
       0.147
      -0.706
      -1.566
      -2.208
      -2.504
      -2.473
      -2.229
      -1.895
      -1.537
      -1.159
      -0.740
      -0.279
       0.180
       0.571
       0.834
       0.961
       0.995
       1.010
       1.050
       1.095
       1.094
       1.035
       0.973
       0.980
       1.053
       1.080
       0.931
       0.575
       0.132
      -0.200
      -0.277
      -0.104
       0.159
       0.293
       0.168
      -0.160
      -0.482
      -0.594
      -0.456
      -0.226
      -0.141
      -0.338
      -0.750
      -1.155
      -1.331
      -1.194
      -0.839
      -0.449
      -0.174
      -0.063
      -0.076
      -0.136
      -0.170
      -0.136
      -0.042
       0.049
       0.053
      -0.067
      -0.259
      -0.407
      -0.424
      -0.327
      -0.226
      -0.235
      -0.375
      -0.542
      -0.583
      -0.408
      -0.065
       0.286
       0.484
       0.477
       0.352
       0.273
       0.362
       0.619
       0.936
       1.194
       1.360
       1.502
       1.715
       1.999
       2.214
       2.164
       1.744
       1.036
       0.251
      -0.420
      -0.922
      -1.318
      -1.677
      -1.971
      -2.092
      -1.962
      -1.625
      -1.226
      -0.900
      -0.674
      -0.464
      -0.170
       0.232
       0.679
       1.063
       1.308
       1.394
       1.354
       1.237
       1.083
       0.900
       0.671
       0.388
       0.081
      -0.176
      -0.303
      -0.280
      -0.181
      -0.130
      -0.220
      -0.448
      -0.716
      -0.900
      -0.922
      -0.790
      -0.584
      -0.412
      -0.353
      -0.424
      -0.577
      -0.740
      -0.856
