Origin Time       26/7/2010 19:43:27  UTC
Lat.              26.5 N 
Long.             91.3 E 
Depth (Km)         31.0
Magnitude         4.1
 Region           Barpeta-Assam                                                    
 Above details taken from IMD 
    
Station Code      GUW
Station Lat.       26.190  N
Station Long.      91.746  E
Station Height(m)   55.2
Site Class        C   Vs30 between 200 m/sec to 375 m/sec *  
Record Time       26.07.2010 19:13:06.004 UTC
Sampling Rate     200. Hz
 Record Duration   94.720 Sec.
 Direction         N-S (N positive)
Max. Acceleration    -15.729 cm/sec**2
     
  * For reference see Site Classification link of website 
     
 Base Line Corrected and Low Pass Filtered (Cut Off at 35 Hz) Time History
 Acceleration data in cm/sec**2
    
[...]
       0.065
      -0.273
      -0.497
      -0.519
      -0.380
      -0.203
      -0.092
      -0.059
      -0.039
       0.037
       0.162
       0.242
       0.165
      -0.104
      -0.480
      -0.803
      -0.931
      -0.832
      -0.585
      -0.313
      -0.098
       0.047
       0.139
       0.188
       0.188
       0.132
       0.031
      -0.084
      -0.182
      -0.225
      -0.170
       0.019
       0.336
       0.712
       1.033
       1.190
       1.134
       0.898
       0.580
       0.305
       0.164
       0.154
       0.165
       0.049
      -0.265
      -0.706
      -1.108
      -1.307
      -1.228
      -0.906
      -0.476
      -0.116
       0.027
      -0.068
      -0.284
      -0.429
      -0.369
      -0.110
       0.223
       0.483
       0.596
       0.574
       0.481
       0.387
       0.338
       0.348
       0.383
       0.391
       0.339
       0.247
       0.165
       0.135
       0.159
       0.202
       0.228
       0.216
       0.173
       0.114
       0.040
      -0.080
      -0.280
      -0.548
      -0.805
      -0.939
      -0.889
      -0.672
      -0.358
      -0.031
       0.240
       0.392
       0.389
       0.254
       0.078
      -0.027
      -0.017
       0.058
       0.096
       0.017
      -0.179
      -0.416
      -0.580
      -0.579
      -0.404
      -0.122
       0.161
       0.365
       0.462
       0.464
       0.392
       0.271
       0.144
       0.077
       0.125
       0.279
       0.449
       0.524
       0.453
       0.284
       0.119
       0.026
      -0.008
      -0.061
      -0.188
      -0.364
      -0.491
      -0.482
      -0.349
      -0.196
      -0.136
      -0.187
      -0.283
      -0.343
      -0.340
      -0.297
      -0.239
      -0.166
      -0.073
       0.031
       0.122
       0.190
       0.248
       0.323
       0.445
       0.623
       0.833
       1.015
       1.078
       0.947
       0.619
       0.193
      -0.181
      -0.410
      -0.520
      -0.622
      -0.803
      -1.045
      -1.249
      -1.320
      -1.226
      -0.980
      -0.618
      -0.187
       0.235
       0.560
       0.742
       0.808
       0.836
       0.885
       0.951
       0.969
       0.869
       0.629
       0.303
      -0.003
      -0.194
      -0.248
      -0.218
      -0.188
      -0.202
      -0.246
      -0.281
      -0.313
      -0.400
      -0.583
      -0.796
      -0.882
      -0.711
      -0.298
       0.201
       0.601
       0.811
       0.858
       0.801
       0.656
       0.396
       0.036
      -0.325
      -0.556
      -0.600
      -0.516
      -0.416
      -0.365
      -0.337
      -0.277
      -0.157
      -0.003
       0.150
       0.278
       0.363
       0.386
       0.342
       0.248
       0.130
      -0.010
      -0.169
      -0.296
      -0.293
      -0.089
       0.260
       0.577
       0.682
       0.532
       0.243
      -0.016
      -0.160
      -0.223
      -0.286
      -0.365
      -0.396
      -0.308
      -0.126
       0.034
       0.067
      -0.030
      -0.162
      -0.234
      -0.229
      -0.196
      -0.170
      -0.122
      -0.014
       0.122
       0.180
       0.094
      -0.058
      -0.090
       0.130
       0.539
       0.907
       1.017
       0.823
       0.476
       0.181
       0.040
      -0.010
      -0.128
      -0.411
      -0.796
      -1.079
      -1.060
      -0.705
      -0.198
       0.184
       0.260
       0.049
      -0.281
      -0.546
      -0.651
      -0.596
      -0.417
      -0.158
       0.136
       0.403
       0.582
       0.635
       0.576
       0.465
       0.372
       0.327
       0.305
       0.265
       0.206
       0.185
       0.257
       0.409
       0.543
       0.543
       0.363
       0.062
      -0.239
      -0.432
      -0.463
      -0.341
      -0.116
       0.121
       0.266
       0.253
       0.103
      -0.087
      -0.217
      -0.247
      -0.216
      -0.193
      -0.226
      -0.311
      -0.406
      -0.464
      -0.468
      -0.432
      -0.393
      -0.391
      -0.442
      -0.521
      -0.560
      -0.476
      -0.231
       0.126
       0.471
       0.678
       0.713
       0.646
       0.590
       0.610
       0.675
       0.695
       0.601
       0.399
       0.148
      -0.082
      -0.249
      -0.344
      -0.376
      -0.349
      -0.239
      -0.029
       0.251
       0.497
       0.579
       0.432
       0.105
      -0.265
      -0.541
      -0.657
      -0.620
      -0.477
      -0.285
      -0.104
       0.017
       0.063
       0.067
       0.076
       0.098
       0.084
      -0.023
      -0.218
      -0.408
      -0.478
      -0.384
      -0.197
      -0.048
      -0.014
      -0.064
      -0.102
      -0.052
       0.087
       0.255
       0.361
       0.344
       0.215
       0.067
       0.024
       0.150
       0.388
       0.601
       0.671
       0.584
       0.414
       0.250
       0.118
      -0.013
      -0.175
      -0.349
      -0.469
      -0.487
      -0.422
      -0.345
      -0.313
      -0.305
      -0.254
      -0.124
       0.036
       0.138
       0.144
       0.109
       0.108
       0.143
       0.129
      -0.008
      -0.235
      -0.428
      -0.475
      -0.371
      -0.201
      -0.047
       0.075
       0.180
       0.256
       0.253
       0.146
      -0.012
      -0.111
      -0.072
       0.081
       0.239
       0.311
       0.294
       0.255
       0.246
       0.253
       0.226
       0.133
      -0.001
      -0.119
      -0.146
      -0.026
       0.235
       0.533
       0.699
       0.604
       0.254
      -0.208
      -0.602
      -0.823
      -0.867
      -0.781
      -0.611
      -0.400
      -0.210
      -0.106
      -0.116
      -0.203
      -0.293
      -0.331
      -0.305
      -0.227
      -0.109
       0.036
       0.176
       0.268
       0.281
       0.224
       0.142
       0.096
       0.128
       0.237
       0.384
       0.508
       0.579
       0.621
       0.680
       0.756
       0.764
       0.592
       0.226
      -0.188
      -0.434
      -0.397
      -0.156
       0.087
       0.164
       0.051
      -0.166
      -0.386
      -0.566
      -0.717
      -0.863
      -1.005
      -1.115
      -1.149
      -1.055
      -0.810
      -0.448
      -0.060
       0.250
       0.429
       0.505
       0.546
       0.600
       0.664
       0.696
       0.650
       0.505
       0.285
       0.052
      -0.118
      -0.184
      -0.158
      -0.077
       0.033
       0.171
       0.323
       0.437
       0.450
       0.350
       0.213
       0.149
       0.208
       0.330
       0.386
       0.281
       0.021
      -0.286
      -0.490
      -0.489
      -0.296
      -0.042
       0.102
       0.049
      -0.147
      -0.342
      -0.426
      -0.384
      -0.276
      -0.167
      -0.081
      -0.021
       0.015
       0.035
       0.072
       0.156
       0.255
       0.262
       0.079
      -0.255
      -0.545
      -0.562
      -0.247
       0.212
       0.496
       0.416
       0.054
      -0.307
      -0.429
      -0.293
      -0.075
       0.025
      -0.062
      -0.246
      -0.375
      -0.330
      -0.085
       0.294
       0.678
       0.941
       1.016
       0.930
       0.764
       0.586
       0.406
       0.197
      -0.067
      -0.375
      -0.676
      -0.902
      -0.983
      -0.888
      -0.655
      -0.385
      -0.186
      -0.103
      -0.114
      -0.159
      -0.193
      -0.189
      -0.130
       0.002
       0.206
       0.437
       0.608
       0.641
       0.531
       0.364
       0.250
       0.245
       0.302
       0.315
       0.205
      -0.016
      -0.250
      -0.378
      -0.338
      -0.167
       0.026
       0.132
       0.098
      -0.042
      -0.200
      -0.286
      -0.262
      -0.152
      -0.018
       0.074
       0.069
      -0.060
      -0.288
      -0.517
      -0.604
      -0.442
      -0.053
       0.419
       0.791
       0.945
       0.865
       0.602
       0.241
      -0.115
      -0.348
      -0.378
      -0.223
      -0.011
       0.100
       0.039
      -0.124
      -0.227
      -0.148
       0.092
       0.342
       0.437
       0.309
       0.017
      -0.319
      -0.591
      -0.732
      -0.713
      -0.550
      -0.307
      -0.073
       0.100
       0.227
       0.347
       0.442
       0.415
       0.174
      -0.240
      -0.610
      -0.677
      -0.334
       0.275
       0.840
       1.083
       0.909
       0.442
      -0.069
      -0.387
      -0.422
      -0.247
      -0.028
       0.105
       0.121
       0.077
       0.041
       0.030
       0.010
      -0.064
      -0.196
      -0.336
      -0.407
      -0.350
      -0.163
       0.082
       0.273
       0.314
       0.186
      -0.036
      -0.219
      -0.265
      -0.172
      -0.018
       0.110
       0.181
       0.216
       0.230
       0.207
       0.133
       0.038
      -0.002
       0.079
       0.280
       0.526
       0.704
       0.714
       0.522
       0.186
      -0.155
      -0.361
      -0.371
      -0.248
      -0.131
      -0.148
      -0.337
      -0.620
      -0.838
      -0.841
      -0.575
      -0.141
       0.225
       0.277
      -0.068
      -0.626
      -1.030
      -0.972
      -0.428
       0.315
       0.851
       0.929
       0.600
       0.156
      -0.091
      -0.018
       0.258
       0.515
       0.618
       0.576
       0.468
       0.339
       0.182
      -0.011
      -0.208
      -0.356
      -0.419
      -0.394
      -0.284
      -0.089
       0.162
       0.397
       0.531
       0.535
       0.461
       0.384
       0.320
       0.224
       0.043
      -0.217
      -0.489
      -0.680
      -0.722
      -0.603
      -0.384
      -0.184
      -0.110
      -0.168
      -0.249
      -0.225
      -0.083
       0.054
       0.048
      -0.115
      -0.298
      -0.329
      -0.137
       0.200
       0.523
       0.682
       0.613
       0.351
       0.008
      -0.281
      -0.415
      -0.361
      -0.161
       0.076
       0.228
       0.221
       0.075
      -0.088
      -0.117
       0.062
       0.380
       0.671
       0.794
       0.715
       0.480
       0.147
      -0.237
      -0.599
      -0.817
      -0.785
      -0.505
      -0.119
       0.182
       0.282
       0.203
       0.050
      -0.094
      -0.222
      -0.365
      -0.514
      -0.583
      -0.467
      -0.129
       0.349
       0.807
       1.085
       1.086
       0.809
       0.336
      -0.198
      -0.636
      -0.847
      -0.776
      -0.477
      -0.101
       0.184
       0.274
       0.175
      -0.020
      -0.199
      -0.297
      -0.314
      -0.276
      -0.194
      -0.042
       0.203
       0.508
       0.759
       0.815
       0.606
       0.198
      -0.237
      -0.527
      -0.581
      -0.415
      -0.107
       0.239
       0.521
       0.653
       0.600
       0.408
       0.188
       0.048
       0.021
       0.051
       0.058
       0.014
      -0.029
       0.011
       0.157
       0.326
       0.374
       0.195
      -0.207
      -0.716
      -1.174
      -1.455
      -1.495
      -1.296
      -0.922
      -0.491
      -0.149
      -0.006
      -0.060
      -0.175
      -0.162
       0.091
       0.524
       0.940
       1.136
       1.029
       0.696
       0.319
       0.083
       0.080
       0.276
       0.534
       0.700
       0.692
       0.543
       0.363
       0.264
       0.279
       0.337
       0.307
       0.075
      -0.368
      -0.900
      -1.318
      -1.437
      -1.193
      -0.680
      -0.112
       0.289
       0.411
       0.295
       0.078
      -0.114
      -0.238
      -0.321
      -0.391
      -0.444
      -0.442
      -0.339
      -0.116
       0.193
       0.493
       0.660
       0.615
       0.371
       0.052
      -0.169
      -0.157
       0.100
       0.481
       0.809
       0.958
       0.906
       0.713
       0.462
       0.201
      -0.057
      -0.305
      -0.514
      -0.641
      -0.672
      -0.631
      -0.542
      -0.392
      -0.136
       0.227
       0.591
       0.762
       0.587
       0.081
      -0.560
      -1.069
      -1.240
      -1.013
      -0.483
       0.142
       0.612
       0.736
       0.481
       0.005
      -0.431
      -0.608
      -0.463
      -0.085
       0.363
       0.733
       0.921
       0.873
       0.612
       0.258
      -0.005
      -0.044
       0.128
       0.361
       0.494
       0.453
       0.265
      -0.004
      -0.306
      -0.625
      -0.937
      -1.173
      -1.248
      -1.127
      -0.881
      -0.644
      -0.506
      -0.436
      -0.317
      -0.057
       0.341
       0.810
       1.306
       1.837
       2.428
       3.054
       3.638
       4.106
       4.430
       4.611
       4.630
       4.424
       3.920
       3.103
       2.055
       0.934
      -0.112
      -1.082
      -2.162
      -3.618
      -5.567
      -7.805
      -9.818
     -10.987
     -10.849
      -9.276
      -6.534
      -3.242
      -0.241
       1.623
       1.764
       0.075
      -2.974
      -6.433
      -9.141
     -10.094
      -8.778
      -5.335
      -0.486
       4.737
       9.302
      12.411
      13.596
      12.774
      10.311
       7.039
       4.062
       2.313
       2.111
       3.055
       4.399
       5.605
       6.615
       7.613
       8.509
       8.661
       7.134
       3.350
      -2.340
      -8.590
     -13.566
     -15.729
     -14.492
     -10.446
      -5.103
      -0.273
       2.710
       3.539
       2.962
       2.206
       2.169
       2.948
       3.956
       4.465
       4.123
       3.099
       1.826
       0.604
      -0.612
      -2.085
      -3.977
      -6.070
      -7.768
      -8.368
      -7.480
      -5.327
      -2.733
      -0.736
      -0.030
      -0.601
      -1.823
      -2.928
      -3.483
      -3.523
      -3.293
      -2.906
      -2.239
      -1.138
       0.332
       1.856
       3.053
       3.656
       3.541
       2.691
       1.253
      -0.317
      -1.241
      -0.730
       1.506
       4.935
       8.385
      10.644
      11.053
       9.705
       7.188
       4.178
       1.193
      -1.427
      -3.435
      -4.663
      -5.084
      -4.845
      -4.193
      -3.362
      -2.537
      -1.953
      -1.974
      -2.964
      -4.964
      -7.420
      -9.266
      -9.410
      -7.332
      -3.371
       1.445
       5.907
       9.093
      10.590
      10.448
       9.048
       7.016
       5.140
       4.193
       4.631
       6.290
       8.359
       9.732
       9.581
       7.746
       4.683
       1.051
      -2.675
      -6.252
      -9.455
     -11.885
     -13.040
     -12.579
     -10.549
      -7.408
      -3.900
      -0.891
       0.816
       0.755
      -0.950
      -3.574
      -6.122
      -7.804
      -8.293
      -7.657
      -6.100
      -3.819
      -1.067
       1.729
       4.009
       5.306
       5.492
       4.861
       3.976
       3.417
       3.565
       4.535
       6.209
       8.252
      10.123
      11.140
      10.689
       8.516
       4.928
       0.751
      -2.990
      -5.485
      -6.441
      -6.106
      -5.032
      -3.751
      -2.597
      -1.743
      -1.334
      -1.517
      -2.300
      -3.402
      -4.293
      -4.476
      -3.781
      -2.465
      -1.035
       0.039
       0.521
       0.446
       0.050
      -0.331
      -0.373
       0.123
       1.151
       2.494
       3.784
       4.599
       4.595
       3.659
       2.041
       0.318
      -0.847
      -1.072
      -0.482
       0.388
       0.961
       0.964
       0.549
       0.121
       0.028
       0.315
       0.680
       0.698
       0.140
      -0.850
      -1.872
      -2.536
      -2.636
      -2.113
      -0.962
       0.757
       2.785
       4.617
       5.672
       5.586
       4.387
       2.437
       0.225
      -1.806
      -3.352
      -4.270
      -4.563
      -4.340
      -3.749
      -2.943
      -2.092
      -1.413
      -1.150
      -1.465
      -2.343
      -3.586
      -4.944
      -6.206
      -7.154
      -7.421
      -6.521
      -4.164
      -0.640
       3.136
       6.078
       7.527
       7.523
       6.552
       5.112
       3.530
       2.103
       1.222
       1.216
       2.053
       3.293
       4.396
       5.061
       5.275
       5.058
       4.285
       2.822
       0.829
      -1.138
      -2.444
      -2.848
      -2.701
      -2.638
      -3.058
      -3.852
      -4.596
      -4.937
      -4.803
      -4.320
      -3.654
      -2.930
      -2.231
      -1.609
      -1.097
      -0.756
      -0.705
      -1.018
      -1.533
      -1.798
      -1.323
       0.020
       1.786
       3.208
       3.712
       3.303
       2.498
       1.896
       1.774
       1.993
       2.212
       2.162
       1.771
       1.156
       0.563
       0.289
       0.550
       1.316
       2.248
       2.870
       2.860
       2.239
       1.299
       0.379
      -0.314
      -0.731
      -0.910
      -0.909
      -0.761
      -0.442
       0.115
       0.932
       1.848
       2.467
       2.323
       1.204
      -0.603
      -2.390
      -3.435
      -3.429
      -2.607
      -1.501
      -0.560
       0.046
       0.381
       0.562
       0.635
       0.561
       0.292
      -0.138
      -0.576
      -0.822
      -0.762
      -0.475
      -0.197
      -0.158
      -0.415
      -0.834
      -1.231
      -1.529
      -1.780
      -2.032
      -2.213
      -2.143
      -1.692
      -0.959
      -0.296
      -0.127
      -0.661
      -1.713
      -2.801
      -3.453
      -3.469
      -2.937
      -2.055
      -0.951
       0.304
       1.584
       2.661
       3.320
       3.495
       3.283
       2.827
       2.240
       1.645
       1.243
       1.257
       1.771
       2.608
       3.389
       3.729
       3.458
       2.693
       1.736
       0.865
       0.198
      -0.296
      -0.676
      -0.952
      -1.128
      -1.279
      -1.551
      -2.051
      -2.757
      -3.514
      -4.088
      -4.232
      -3.762
      -2.668
      -1.215
       0.123
       0.922
       1.088
       0.902
       0.798
       1.060
       1.667
       2.351
       2.787
       2.781
       2.392
       1.909
       1.661
       1.757
       1.972
       1.908
       1.321
       0.344
      -0.613
      -1.166
      -1.218
      -0.938
      -0.554
      -0.172
       0.198
       0.501
       0.554
       0.126
      -0.876
      -2.266
      -3.608
      -4.417
      -4.423
      -3.728
      -2.713
      -1.772
      -1.075
      -0.542
      -0.029
       0.477
       0.799
       0.709
       0.124
      -0.786
      -1.665
      -2.139
      -1.986
      -1.220
      -0.057
       1.173
       2.161
       2.734
       2.887
       2.727
       2.368
       1.860
       1.196
       0.393
      -0.421
      -1.001
      -1.106
      -0.670
       0.108
       0.863
       1.293
       1.353
       1.266
       1.334
       1.690
       2.194
       2.531
       2.448
       1.934
       1.211
       0.568
       0.176
       0.045
       0.119
       0.360
       0.725
       1.109
       1.368
       1.428
       1.343
       1.210
       1.040
       0.722
