Origin Time       26/7/2010 19:43:27 
Lat.              26.5 N 
Long.             91.3 E 
Depth (Km)         31.0
Magnitude         4.1
 Region           Barpeta-Assam                                                    
 Above details taken from IMD 
     
Station Code      GUW
Station Lat.       26.190  N
Station Long.      91.746  E
Station Height(m)   55.2
Site Class        C   Vs30 between 200 m/sec to 375 m/sec *  
Record Time       26.07.2010 19:13:06.004
Sampling Rate     200. Hz
 Record Duration   94.720 Sec.
 Direction         E-W (E positive)
Max. Acceleration    -21.911 cm/sec**2
     
  * For reference see Site Classification link of website 
     
 Base Line Corrected and Low Pass Filtered (Cut Off at 35 Hz) Time History
 Acceleration data in cm/sec**2
    
[...]
      -1.562
      -1.344
      -1.027
      -0.733
      -0.503
      -0.288
      -0.014
       0.351
       0.774
       1.179
       1.496
       1.691
       1.757
       1.679
       1.435
       1.022
       0.500
      -0.030
      -0.466
      -0.745
      -0.850
      -0.805
      -0.659
      -0.477
      -0.315
      -0.201
      -0.125
      -0.056
       0.013
       0.038
      -0.046
      -0.254
      -0.511
      -0.679
      -0.652
      -0.424
      -0.088
       0.222
       0.403
       0.414
       0.278
       0.057
      -0.165
      -0.307
      -0.307
      -0.159
       0.059
       0.207
       0.161
      -0.083
      -0.380
      -0.530
      -0.425
      -0.135
       0.156
       0.298
       0.283
       0.216
       0.206
       0.275
       0.359
       0.383
       0.336
       0.287
       0.322
       0.474
       0.701
       0.923
       1.063
       1.063
       0.872
       0.467
      -0.110
      -0.729
      -1.219
      -1.457
      -1.431
      -1.218
      -0.909
      -0.549
      -0.154
       0.244
       0.570
       0.736
       0.703
       0.506
       0.248
       0.033
      -0.089
      -0.140
      -0.185
      -0.264
      -0.367
      -0.453
      -0.488
      -0.466
      -0.397
      -0.299
      -0.204
      -0.146
      -0.141
      -0.158
      -0.129
       0.007
       0.254
       0.545
       0.781
       0.900
       0.905
       0.845
       0.750
       0.615
       0.416
       0.152
      -0.136
      -0.392
      -0.569
      -0.651
      -0.646
      -0.584
      -0.518
      -0.500
      -0.540
      -0.584
      -0.556
      -0.415
      -0.192
       0.046
       0.253
       0.422
       0.572
       0.706
       0.799
       0.809
       0.716
       0.543
       0.334
       0.119
      -0.113
      -0.385
      -0.681
      -0.919
      -0.975
      -0.770
      -0.350
       0.102
       0.370
       0.344
       0.104
      -0.142
      -0.216
      -0.102
       0.062
       0.116
       0.019
      -0.120
      -0.143
       0.017
       0.283
       0.501
       0.549
       0.398
       0.102
      -0.243
      -0.524
      -0.640
      -0.539
      -0.253
       0.105
       0.396
       0.525
       0.476
       0.295
       0.064
      -0.138
      -0.265
      -0.310
      -0.294
      -0.220
      -0.057
       0.216
       0.557
       0.835
       0.894
       0.663
       0.213
      -0.267
      -0.594
      -0.694
      -0.645
      -0.586
      -0.598
      -0.650
      -0.643
      -0.509
      -0.263
       0.017
       0.239
       0.350
       0.355
       0.311
       0.300
       0.393
       0.590
       0.797
       0.859
       0.652
       0.187
      -0.376
      -0.814
      -0.974
      -0.845
      -0.537
      -0.194
       0.090
       0.300
       0.460
       0.583
       0.637
       0.579
       0.400
       0.152
      -0.073
      -0.198
      -0.199
      -0.102
       0.041
       0.185
       0.290
       0.318
       0.243
       0.071
      -0.148
      -0.343
      -0.464
      -0.504
      -0.493
      -0.479
      -0.490
      -0.500
      -0.437
      -0.241
       0.057
       0.334
       0.453
       0.352
       0.079
      -0.244
      -0.483
      -0.543
      -0.410
      -0.163
       0.063
       0.161
       0.113
       0.001
      -0.064
      -0.024
       0.103
       0.274
       0.459
       0.641
       0.785
       0.837
       0.761
       0.559
       0.275
      -0.030
      -0.297
      -0.482
      -0.558
      -0.502
      -0.299
       0.031
       0.411
       0.719
       0.849
       0.769
       0.515
       0.141
      -0.307
      -0.770
      -1.145
      -1.312
      -1.225
      -0.956
      -0.654
      -0.428
      -0.281
      -0.151
      -0.011
       0.093
       0.092
      -0.022
      -0.166
      -0.237
      -0.194
      -0.084
       0.009
       0.042
       0.037
       0.057
       0.159
       0.360
       0.633
       0.930
       1.195
       1.370
       1.398
       1.240
       0.903
       0.465
       0.046
      -0.250
      -0.383
      -0.371
      -0.254
      -0.073
       0.120
       0.252
       0.246
       0.068
      -0.247
      -0.604
      -0.885
      -1.001
      -0.926
      -0.707
      -0.453
      -0.279
      -0.240
      -0.290
      -0.323
      -0.252
      -0.092
       0.054
       0.063
      -0.103
      -0.364
      -0.564
      -0.574
      -0.377
      -0.072
       0.198
       0.349
       0.395
       0.420
       0.505
       0.660
       0.807
       0.838
       0.693
       0.413
       0.123
      -0.049
      -0.038
       0.124
       0.335
       0.472
       0.446
       0.249
      -0.044
      -0.318
      -0.472
      -0.459
      -0.291
      -0.018
       0.283
       0.519
       0.589
       0.431
       0.069
      -0.380
      -0.750
      -0.905
      -0.809
      -0.544
      -0.268
      -0.126
      -0.166
      -0.330
      -0.503
      -0.590
      -0.557
      -0.423
      -0.224
       0.024
       0.325
       0.660
       0.944
       1.047
       0.889
       0.514
       0.073
      -0.276
      -0.441
      -0.410
      -0.220
       0.054
       0.297
       0.384
       0.252
      -0.028
      -0.278
      -0.319
      -0.095
       0.293
       0.652
       0.816
       0.729
       0.457
       0.135
      -0.121
      -0.264
      -0.316
      -0.329
      -0.347
      -0.388
      -0.437
      -0.447
      -0.375
      -0.228
      -0.093
      -0.085
      -0.259
      -0.553
      -0.822
      -0.931
      -0.826
      -0.544
      -0.175
       0.193
       0.490
       0.676
       0.746
       0.740
       0.736
       0.805
       0.946
       1.066
       1.038
       0.797
       0.415
       0.048
      -0.176
      -0.247
      -0.254
      -0.301
      -0.430
      -0.606
      -0.746
      -0.761
      -0.605
      -0.308
       0.019
       0.246
       0.304
       0.221
       0.089
      -0.002
      -0.025
      -0.020
      -0.054
      -0.164
      -0.323
      -0.475
      -0.572
      -0.603
      -0.583
      -0.532
      -0.467
      -0.393
      -0.308
      -0.210
      -0.100
       0.023
       0.172
       0.364
       0.610
       0.884
       1.110
       1.193
       1.081
       0.814
       0.509
       0.288
       0.207
       0.227
       0.251
       0.199
       0.061
      -0.109
      -0.249
      -0.339
      -0.389
      -0.411
      -0.394
      -0.320
      -0.194
      -0.039
       0.111
       0.227
       0.285
       0.260
       0.128
      -0.115
      -0.429
      -0.724
      -0.901
      -0.912
      -0.792
      -0.628
      -0.480
      -0.342
      -0.161
       0.078
       0.310
       0.432
       0.386
       0.219
       0.053
       0.001
       0.109
       0.333
       0.569
       0.710
       0.695
       0.531
       0.269
      -0.033
      -0.314
      -0.492
      -0.471
      -0.212
       0.211
       0.609
       0.794
       0.686
       0.362
      -0.015
      -0.303
      -0.447
      -0.472
      -0.417
      -0.305
      -0.143
       0.044
       0.193
       0.227
       0.113
      -0.106
      -0.318
      -0.414
      -0.360
      -0.213
      -0.087
      -0.075
      -0.205
      -0.428
      -0.653
      -0.795
      -0.826
      -0.769
      -0.662
      -0.508
      -0.271
       0.084
       0.534
       0.986
       1.311
       1.422
       1.314
       1.054
       0.723
       0.370
       0.020
      -0.279
      -0.439
      -0.379
      -0.111
       0.229
       0.456
       0.446
       0.210
      -0.136
      -0.451
      -0.627
      -0.615
      -0.420
      -0.099
       0.249
       0.518
       0.626
       0.535
       0.265
      -0.102
      -0.450
      -0.677
      -0.736
      -0.658
      -0.531
      -0.431
      -0.363
      -0.259
      -0.054
       0.224
       0.452
       0.487
       0.281
      -0.076
      -0.407
      -0.558
      -0.480
      -0.236
       0.053
       0.288
       0.431
       0.500
       0.536
       0.557
       0.538
       0.423
       0.172
      -0.182
      -0.509
      -0.644
      -0.496
      -0.126
       0.279
       0.533
       0.569
       0.447
       0.272
       0.102
      -0.065
      -0.246
      -0.422
      -0.544
      -0.561
      -0.436
      -0.148
       0.283
       0.753
       1.068
       1.023
       0.555
      -0.166
      -0.812
      -1.098
      -0.972
      -0.627
      -0.340
      -0.265
      -0.348
      -0.396
      -0.243
       0.124
       0.558
       0.851
       0.883
       0.685
       0.399
       0.167
       0.048
       0.010
      -0.019
      -0.102
      -0.254
      -0.436
      -0.571
      -0.583
      -0.438
      -0.174
       0.114
       0.324
       0.408
       0.384
       0.298
       0.189
       0.061
      -0.095
      -0.279
      -0.462
      -0.573
      -0.539
      -0.341
      -0.054
       0.203
       0.348
       0.385
       0.370
       0.346
       0.310
       0.229
       0.093
      -0.077
      -0.240
      -0.373
      -0.464
      -0.505
      -0.482
      -0.390
      -0.242
      -0.069
       0.093
       0.207
       0.244
       0.216
       0.186
       0.243
       0.422
       0.633
       0.701
       0.507
       0.117
      -0.240
      -0.339
      -0.140
       0.179
       0.365
       0.278
      -0.022
      -0.341
      -0.497
      -0.424
      -0.185
       0.091
       0.293
       0.364
       0.311
       0.189
       0.070
      -0.004
      -0.043
      -0.098
      -0.222
      -0.424
      -0.656
      -0.835
      -0.881
      -0.748
      -0.437
      -0.006
       0.434
       0.746
       0.820
       0.651
       0.359
       0.119
       0.040
       0.095
       0.161
       0.123
      -0.044
      -0.258
      -0.389
      -0.352
      -0.167
       0.051
       0.179
       0.169
       0.075
       0.000
       0.010
       0.092
       0.171
       0.167
       0.044
      -0.160
      -0.343
      -0.378
      -0.187
       0.198
       0.615
       0.847
       0.754
       0.370
      -0.106
      -0.435
      -0.485
      -0.316
      -0.122
      -0.087
      -0.253
      -0.505
      -0.667
      -0.634
      -0.421
      -0.141
       0.077
       0.166
       0.152
       0.130
       0.189
       0.351
       0.553
       0.682
       0.630
       0.373
       0.009
      -0.282
      -0.364
      -0.261
      -0.150
      -0.216
      -0.472
      -0.718
      -0.686
      -0.275
       0.342
       0.827
       0.921
       0.628
       0.201
      -0.043
       0.055
       0.402
       0.741
       0.837
       0.615
       0.164
      -0.330
      -0.684
      -0.796
      -0.692
      -0.515
      -0.429
      -0.488
      -0.583
      -0.520
      -0.198
       0.284
       0.684
       0.791
       0.571
       0.177
      -0.174
      -0.330
      -0.264
      -0.064
       0.130
       0.199
       0.117
      -0.042
      -0.145
      -0.092
       0.101
       0.297
       0.324
       0.103
      -0.275
      -0.598
      -0.686
      -0.507
      -0.177
       0.155
       0.413
       0.592
       0.693
       0.682
       0.508
       0.173
      -0.224
      -0.524
      -0.601
      -0.458
      -0.222
      -0.053
      -0.031
      -0.127
      -0.261
      -0.384
      -0.505
      -0.646
      -0.761
      -0.719
      -0.399
       0.192
       0.879
       1.418
       1.652
       1.573
       1.265
       0.801
       0.201
      -0.519
      -1.275
      -1.882
      -2.123
      -1.871
      -1.200
      -0.380
       0.271
       0.565
       0.542
       0.398
       0.337
       0.448
       0.701
       1.005
       1.252
       1.328
       1.118
       0.572
      -0.211
      -0.977
      -1.433
      -1.413
      -0.965
      -0.295
       0.369
       0.878
       1.167
       1.209
       1.004
       0.614
       0.180
      -0.154
      -0.337
      -0.442
      -0.591
      -0.829
      -1.056
      -1.082
      -0.765
      -0.126
       0.640
       1.259
       1.523
       1.382
       0.975
       0.558
       0.374
       0.521
       0.906
       1.321
       1.619
       1.823
       2.102
       2.595
       3.247
       3.793
       3.903
       3.374
       2.217
       0.607
      -1.225
      -3.081
      -4.822
      -6.362
      -7.640
      -8.586
      -9.096
      -9.025
      -8.214
      -6.560
      -4.144
      -1.340
       1.203
       2.765
       2.875
       1.551
      -0.696
      -3.096
      -4.927
      -5.728
      -5.351
      -3.871
      -1.457
       1.718
       5.447
       9.341
      12.693
      14.563
      14.146
      11.224
       6.359
       0.667
      -4.620
      -8.492
     -10.235
      -9.415
      -5.960
      -0.390
       6.034
      11.495
      14.244
      13.358
       9.205
       3.282
      -2.512
      -6.730
      -8.885
      -9.396
      -9.120
      -8.772
      -8.552
      -8.133
      -7.003
      -4.971
      -2.478
      -0.426
       0.449
       0.236
      -0.044
       0.956
       3.998
       8.698
      13.705
      17.420
      18.751
      17.471
      14.084
       9.410
       4.200
      -0.991
      -5.663
      -9.158
     -10.630
      -9.344
      -5.194
       0.916
       7.211
      11.728
      13.169
      11.393
       7.269
       2.046
      -3.304
      -8.336
     -12.947
     -17.013
     -20.173
     -21.911
     -21.788
     -19.658
     -15.771
     -10.772
      -5.626
      -1.440
       0.864
       0.928
      -0.838
      -3.427
      -5.724
      -6.985
      -6.992
      -5.836
      -3.625
      -0.409
       3.684
       8.285
      12.821
      16.694
      19.456
      20.899
      21.043
      20.071
      18.208
      15.621
      12.440
       8.894
       5.419
       2.559
       0.704
      -0.130
      -0.312
      -0.399
      -0.897
      -2.079
      -3.896
      -5.974
      -7.739
      -8.719
      -8.848
      -8.532
      -8.340
      -8.547
      -8.915
      -8.917
      -8.245
      -7.139
      -6.262
      -6.202
      -7.047
      -8.339
      -9.389
      -9.623
      -8.724
      -6.607
      -3.386
       0.596
       4.758
       8.386
      10.836
      11.741
      11.117
       9.370
       7.197
       5.398
       4.579
       4.887
       5.978
       7.288
       8.425
       9.360
      10.248
      11.061
      11.371
      10.542
       8.184
       4.542
       0.442
      -3.181
      -5.823
      -7.585
      -8.854
      -9.853
     -10.478
     -10.554
     -10.164
      -9.671
      -9.375
      -9.178
      -8.629
      -7.387
      -5.669
      -4.236
      -3.873
      -4.789
      -6.423
      -7.799
      -8.113
      -7.127
      -5.131
      -2.604
       0.110
       2.915
       5.847
       8.864
      11.716
      13.969
      15.196
      15.186
      14.041
      12.083
       9.659
       7.046
       4.497
       2.339
       0.935
       0.453
       0.642
       0.878
       0.518
      -0.704
      -2.545
      -4.484
      -6.067
      -7.081
      -7.503
      -7.365
      -6.723
      -5.741
      -4.763
      -4.210
      -4.307
      -4.857
      -5.301
      -5.092
      -4.112
      -2.782
      -1.757
      -1.433
      -1.659
      -1.858
      -1.441
      -0.212
       1.530
       3.197
       4.273
       4.599
       4.455
       4.388
       4.867
       5.979
       7.366
       8.470
       8.898
       8.618
       7.881
       6.993
       6.150
       5.430
       4.847
       4.325
       3.607
       2.275
       0.010
      -3.058
      -6.218
      -8.480
      -9.170
      -8.361
      -6.806
      -5.448
      -4.889
      -5.168
      -5.898
      -6.542
      -6.648
      -5.981
      -4.571
      -2.705
      -0.824
       0.658
       1.510
       1.721
       1.411
       0.724
      -0.194
      -1.117
      -1.683
      -1.475
      -0.245
       1.867
       4.324
       6.407
       7.529
       7.468
       6.426
       4.928
       3.576
       2.749
       2.411
       2.179
       1.634
       0.637
      -0.598
      -1.705
      -2.432
      -2.764
      -2.836
      -2.776
      -2.625
      -2.402
      -2.211
      -2.227
      -2.512
      -2.861
      -2.891
      -2.353
      -1.390
      -0.482
      -0.119
      -0.497
      -1.452
      -2.598
      -3.515
      -3.879
      -3.539
      -2.555
      -1.152
       0.379
       1.788
       2.911
       3.676
       4.081
       4.190
       4.107
       3.927
       3.660
       3.228
       2.557
       1.722
       0.976
       0.599
       0.666
       0.946
       1.044
       0.685
      -0.091
      -0.962
      -1.541
      -1.596
      -1.141
      -0.394
       0.336
       0.780
       0.806
       0.479
       0.024
      -0.310
      -0.413
      -0.362
      -0.318
      -0.366
      -0.468
      -0.522
      -0.447
      -0.191
       0.292
       0.994
       1.757
       2.256
       2.163
       1.384
       0.154
      -1.114
      -2.103
      -2.736
      -3.071
      -3.111
      -2.733
      -1.836
      -0.547
       0.733
       1.494
       1.391
       0.415
      -1.124
      -2.739
      -3.937
      -4.369
      -3.947
      -2.890
      -1.623
      -0.555
       0.123
       0.499
       0.796
       1.168
       1.570
       1.824
       1.812
       1.625
       1.527
       1.746
       2.269
       2.836
       3.131
       3.000
       2.531
       1.972
       1.568
       1.439
       1.528
       1.642
       1.566
       1.182
       0.537
      -0.198
      -0.849
      -1.342
      -1.731
      -2.138
      -2.660
      -3.281
      -3.850
      -4.145
      -3.989
      -3.370
      -2.434
      -1.382
      -0.346
       0.626
       1.468
       2.005
       1.980
       1.204
      -0.277
      -2.125
      -3.829
      -4.922
      -5.165
      -4.579
      -3.332
      -1.585
       0.539
       2.854
       5.006
       6.529
       7.085
       6.712
       5.849
       5.087
       4.800
       4.931
       5.061
       4.715
       3.676
       2.110
       0.458
      -0.791
      -1.327
      -1.138
      -0.513
       0.066
       0.143
      -0.470
      -1.567
      -2.666
      -3.326
      -3.425
      -3.192
      -2.980
      -2.995
      -3.182
      -3.324
      -3.231
      -2.871
      -2.361
      -1.864
      -1.461
      -1.112
      -0.714
      -0.223
       0.298
       0.732
       0.995
       1.081
       1.015
       0.814
       0.492
       0.110
      -0.228
      -0.434
      -0.496
      -0.486
      -0.478
      -0.462
      -0.317
       0.086
       0.732
       1.389
       1.709
       1.440
       0.596
      -0.535
      -1.521
      -1.990
      -1.794
      -1.078
      -0.200
       0.478
       0.800
       0.882
       0.975
       1.243
       1.627
       1.902
       1.843
       1.364
       0.553
      -0.394
      -1.257
      -1.837
      -1.989
      -1.650
      -0.880
       0.123
       1.073
       1.710
       1.921
       1.789
       1.517
       1.268
       1.068
       0.836
       0.514
       0.180
       0.030
       0.264
       0.952
       1.982
       3.105
       4.025
