Origin Time       11/9/2010 07:02:09	 UTC
Lat.              25.9 N	
Long.             90.2 E	
Depth (Km)         20.0
Magnitude         5.0
 Region           Meghalaya-Assam-Border                                           
 Above details taken from IMD 
    
Station Code      GUW
Station Lat.       26.190  N
Station Long.      91.746  E
Station Height(m)   55.2
Site Class        C   Vs30 between 200 m/sec to 375 m/sec *  
Record Time       11.09.2010 07:02:03.709 UTC
Sampling Rate     200. Hz
 Record Duration   90.895 Sec.
 Direction         N-S (N positive)
Max. Acceleration     -4.921 cm/sec**2
     
  * For reference see Site Classification link of website 
     
 Base Line Corrected and Low Pass Filtered (Cut Off at 35 Hz) Time History
 Acceleration data in cm/sec**2
    
[...]
       0.022
       0.058
       0.095
       0.128
       0.164
       0.218
       0.298
       0.397
       0.490
       0.546
       0.543
       0.480
       0.378
       0.268
       0.172
       0.095
       0.028
      -0.039
      -0.103
      -0.156
      -0.191
      -0.221
      -0.270
      -0.356
      -0.470
      -0.573
      -0.614
      -0.555
      -0.402
      -0.199
      -0.010
       0.115
       0.158
       0.132
       0.070
       0.014
      -0.004
       0.031
       0.110
       0.204
       0.278
       0.315
       0.321
       0.317
       0.320
       0.330
       0.342
       0.351
       0.357
       0.355
       0.330
       0.259
       0.137
      -0.018
      -0.164
      -0.259
      -0.289
      -0.266
      -0.224
      -0.188
      -0.171
      -0.167
      -0.164
      -0.157
      -0.153
      -0.165
      -0.199
      -0.250
      -0.297
      -0.316
      -0.288
      -0.216
      -0.122
      -0.035
       0.029
       0.075
       0.114
       0.149
       0.170
       0.168
       0.142
       0.104
       0.070
       0.044
       0.026
       0.020
       0.032
       0.068
       0.122
       0.170
       0.184
       0.149
       0.078
       0.002
      -0.049
      -0.068
      -0.075
      -0.090
      -0.110
      -0.105
      -0.045
       0.069
       0.205
       0.318
       0.376
       0.372
       0.326
       0.260
       0.185
       0.100
       0.003
      -0.097
      -0.175
      -0.207
      -0.188
      -0.142
      -0.104
      -0.104
      -0.141
      -0.191
      -0.223
      -0.218
      -0.184
      -0.138
      -0.104
      -0.089
      -0.083
      -0.066
      -0.017
       0.066
       0.168
       0.257
       0.300
       0.274
       0.180
       0.044
      -0.093
      -0.193
      -0.242
      -0.247
      -0.232
      -0.210
      -0.177
      -0.117
      -0.027
       0.072
       0.145
       0.164
       0.129
       0.064
       0.002
      -0.038
      -0.052
      -0.044
      -0.011
       0.046
       0.119
       0.180
       0.195
       0.144
       0.041
      -0.066
      -0.124
      -0.112
      -0.053
       0.000
       0.007
      -0.037
      -0.094
      -0.117
      -0.078
       0.005
       0.085
       0.117
       0.092
       0.031
      -0.035
      -0.086
      -0.113
      -0.113
      -0.082
      -0.025
       0.048
       0.121
       0.177
       0.205
       0.204
       0.181
       0.152
       0.135
       0.142
       0.171
       0.203
       0.217
       0.199
       0.155
       0.098
       0.042
      -0.007
      -0.046
      -0.073
      -0.083
      -0.072
      -0.045
      -0.013
       0.009
       0.010
      -0.016
      -0.069
      -0.142
      -0.217
      -0.266
      -0.264
      -0.203
      -0.103
      -0.010
       0.027
      -0.016
      -0.125
      -0.255
      -0.352
      -0.376
      -0.316
      -0.192
      -0.046
       0.075
       0.140
       0.144
       0.109
       0.070
       0.063
       0.112
       0.222
       0.376
       0.534
       0.649
       0.678
       0.610
       0.466
       0.289
       0.119
      -0.015
      -0.102
      -0.137
      -0.127
      -0.092
      -0.060
      -0.057
      -0.093
      -0.154
      -0.216
      -0.263
      -0.294
      -0.315
      -0.330
      -0.337
      -0.338
      -0.335
      -0.328
      -0.295
      -0.209
      -0.058
       0.136
       0.315
       0.415
       0.406
       0.306
       0.174
       0.073
       0.034
       0.056
       0.111
       0.162
       0.181
       0.156
       0.089
      -0.010
      -0.124
      -0.240
      -0.337
      -0.396
      -0.401
      -0.357
      -0.293
      -0.252
      -0.263
      -0.315
      -0.358
      -0.341
      -0.247
      -0.102
       0.041
       0.141
       0.189
       0.207
       0.228
       0.277
       0.361
       0.468
       0.569
       0.635
       0.646
       0.598
       0.506
       0.394
       0.288
       0.204
       0.147
       0.108
       0.072
       0.021
      -0.054
      -0.151
      -0.256
      -0.349
      -0.406
      -0.413
      -0.373
      -0.308
      -0.257
      -0.254
      -0.298
      -0.349
      -0.350
      -0.273
      -0.140
      -0.011
       0.056
       0.038
      -0.034
      -0.101
      -0.110
      -0.055
       0.031
       0.096
       0.115
       0.105
       0.112
       0.168
       0.263
       0.346
       0.368
       0.311
       0.204
       0.095
       0.026
       0.013
       0.042
       0.082
       0.102
       0.086
       0.035
      -0.035
      -0.102
      -0.152
      -0.176
      -0.175
      -0.148
      -0.093
      -0.015
       0.073
       0.150
       0.195
       0.192
       0.147
       0.088
       0.047
       0.043
       0.070
       0.111
       0.152
       0.187
       0.201
       0.174
       0.096
      -0.016
      -0.118
      -0.164
      -0.141
      -0.075
      -0.015
       0.000
      -0.032
      -0.087
      -0.137
      -0.168
      -0.185
      -0.200
      -0.213
      -0.213
      -0.193
      -0.167
      -0.161
      -0.189
      -0.238
      -0.271
      -0.257
      -0.190
      -0.093
      -0.001
       0.061
       0.083
       0.073
       0.050
       0.032
       0.028
       0.036
       0.048
       0.058
       0.064
       0.067
       0.060
       0.029
      -0.028
      -0.101
      -0.166
      -0.200
      -0.193
      -0.159
      -0.127
      -0.124
      -0.153
      -0.192
      -0.213
      -0.197
      -0.146
      -0.075
      -0.003
       0.053
       0.082
       0.087
       0.078
       0.076
       0.102
       0.164
       0.257
       0.361
       0.458
       0.533
       0.573
       0.564
       0.503
       0.405
       0.304
       0.234
       0.208
       0.208
       0.204
       0.173
       0.111
       0.029
      -0.059
      -0.142
      -0.206
      -0.238
      -0.232
      -0.200
      -0.169
      -0.171
      -0.224
      -0.323
      -0.430
      -0.497
      -0.483
      -0.384
      -0.230
      -0.079
       0.022
       0.056
       0.044
       0.025
       0.021
       0.025
       0.018
      -0.010
      -0.042
      -0.053
      -0.031
       0.008
       0.033
       0.016
      -0.041
      -0.111
      -0.159
      -0.164
      -0.123
      -0.055
       0.006
       0.028
       0.002
      -0.049
      -0.083
      -0.069
      -0.004
       0.083
       0.149
       0.167
       0.133
       0.070
       0.008
      -0.020
       0.004
       0.077
       0.169
       0.238
       0.251
       0.201
       0.108
       0.017
      -0.026
       0.002
       0.091
       0.197
       0.276
       0.302
       0.277
       0.220
       0.143
       0.046
      -0.076
      -0.210
      -0.324
      -0.381
      -0.359
      -0.270
      -0.152
      -0.047
       0.013
       0.019
      -0.025
      -0.108
      -0.213
      -0.315
      -0.382
      -0.391
      -0.346
      -0.275
      -0.206
      -0.149
      -0.096
      -0.042
       0.007
       0.034
       0.028
      -0.004
      -0.039
      -0.049
      -0.021
       0.041
       0.116
       0.177
       0.197
       0.166
       0.097
       0.022
      -0.027
      -0.033
      -0.001
       0.045
       0.074
       0.066
       0.017
      -0.057
      -0.126
      -0.161
      -0.144
      -0.078
       0.012
       0.096
       0.154
       0.178
       0.176
       0.164
       0.158
       0.177
       0.228
       0.311
       0.408
       0.484
       0.504
       0.450
       0.335
       0.193
       0.068
      -0.009
      -0.027
      -0.005
       0.019
       0.010
      -0.046
      -0.134
      -0.223
      -0.283
      -0.302
      -0.293
      -0.286
      -0.310
      -0.373
      -0.460
      -0.542
      -0.588
      -0.577
      -0.508
      -0.392
      -0.254
      -0.124
      -0.034
      -0.006
      -0.034
      -0.083
      -0.111
      -0.093
      -0.040
       0.026
       0.088
       0.149
       0.213
       0.271
       0.297
       0.275
       0.218
       0.166
       0.149
       0.167
       0.190
       0.188
       0.148
       0.086
       0.026
      -0.005
       0.007
       0.063
       0.152
       0.244
       0.306
       0.306
       0.230
       0.090
      -0.078
      -0.222
      -0.288
      -0.249
      -0.124
       0.022
       0.117
       0.118
       0.036
      -0.083
      -0.189
      -0.255
      -0.276
      -0.261
      -0.216
      -0.147
      -0.066
       0.008
       0.059
       0.084
       0.092
       0.090
       0.072
       0.026
      -0.054
      -0.150
      -0.223
      -0.233
      -0.168
      -0.056
       0.051
       0.103
       0.081
       0.003
      -0.083
      -0.128
      -0.109
      -0.041
       0.032
       0.068
       0.049
      -0.008
      -0.059
      -0.063
      -0.010
       0.077
       0.156
       0.191
       0.171
       0.113
       0.053
       0.025
       0.055
       0.148
       0.285
       0.431
       0.540
       0.576
       0.535
       0.443
       0.351
       0.308
       0.334
       0.415
       0.510
       0.573
       0.575
       0.513
       0.404
       0.277
       0.159
       0.064
      -0.002
      -0.041
      -0.053
      -0.040
      -0.024
      -0.038
      -0.108
      -0.229
      -0.369
      -0.489
      -0.574
      -0.639
      -0.709
      -0.797
      -0.897
      -0.988
      -1.049
      -1.068
      -1.035
      -0.954
      -0.845
      -0.752
      -0.717
      -0.755
      -0.837
      -0.904
      -0.899
      -0.792
      -0.599
      -0.359
      -0.115
       0.107
       0.303
       0.484
       0.655
       0.812
       0.934
       1.010
       1.052
       1.096
       1.169
       1.276
       1.398
       1.504
       1.570
       1.579
       1.520
       1.389
       1.193
       0.955
       0.713
       0.499
       0.330
       0.192
       0.056
      -0.112
      -0.329
      -0.580
      -0.832
      -1.049
      -1.211
      -1.323
      -1.408
      -1.501
      -1.632
      -1.809
      -2.007
      -2.177
      -2.269
      -2.256
      -2.144
      -1.962
      -1.740
      -1.494
      -1.221
      -0.921
      -0.611
      -0.326
      -0.100
       0.063
       0.185
       0.295
       0.406
       0.514
       0.613
       0.712
       0.823
       0.943
       1.044
       1.087
       1.053
       0.950
       0.807
       0.648
       0.490
       0.335
       0.190
       0.075
       0.022
       0.053
       0.150
       0.259
       0.318
       0.300
       0.240
       0.214
       0.288
       0.475
       0.730
       0.984
       1.187
       1.332
       1.442
       1.545
       1.656
       1.769
       1.871
       1.946
       1.978
       1.955
       1.875
       1.746
       1.591
       1.425
       1.250
       1.048
       0.805
       0.519
       0.217
      -0.066
      -0.300
      -0.484
      -0.647
      -0.831
      -1.072
      -1.371
      -1.697
      -1.991
      -2.188
      -2.244
      -2.152
      -1.947
      -1.696
      -1.481
      -1.367
      -1.371
      -1.453
      -1.526
      -1.505
      -1.352
      -1.093
      -0.796
      -0.532
      -0.348
      -0.268
      -0.292
      -0.398
      -0.543
      -0.675
      -0.751
      -0.756
      -0.698
      -0.605
      -0.514
      -0.456
      -0.436
      -0.427
      -0.390
      -0.297
      -0.147
       0.041
       0.235
       0.405
       0.524
       0.585
       0.609
       0.633
       0.694
       0.805
       0.958
       1.130
       1.304
       1.470
       1.627
       1.765
       1.867
       1.913
       1.891
       1.808
       1.693
       1.587
       1.522
       1.496
       1.486
       1.463
       1.420
       1.364
       1.303
       1.229
       1.111
       0.918
       0.639
       0.303
      -0.028
      -0.278
      -0.401
      -0.396
      -0.317
      -0.238
      -0.217
      -0.273
      -0.392
      -0.541
      -0.694
      -0.835
      -0.962
      -1.082
      -1.191
      -1.264
      -1.257
      -1.127
      -0.870
      -0.544
      -0.257
      -0.118
      -0.188
      -0.450
      -0.830
      -1.225
      -1.524
      -1.635
      -1.511
      -1.172
      -0.710
      -0.270
       0.008
       0.037
      -0.180
      -0.557
      -0.962
      -1.277
      -1.444
      -1.468
      -1.398
      -1.285
      -1.158
      -1.034
      -0.914
      -0.789
      -0.635
      -0.426
      -0.166
       0.096
       0.284
       0.349
       0.298
       0.202
       0.157
       0.240
       0.474
       0.827
       1.231
       1.618
       1.943
       2.184
       2.332
       2.376
       2.301
       2.088
       1.736
       1.269
       0.732
       0.183
      -0.314
      -0.691
      -0.895
      -0.916
      -0.810
      -0.697
      -0.707
      -0.912
      -1.271
      -1.658
      -1.918
      -1.946
      -1.717
      -1.288
      -0.771
      -0.294
       0.031
       0.147
       0.067
      -0.133
      -0.345
      -0.475
      -0.463
      -0.296
       0.003
       0.398
       0.845
       1.310
       1.772
       2.225
       2.664
       3.080
       3.439
       3.677
       3.711
       3.474
       2.971
       2.291
       1.584
       0.993
       0.580
       0.299
       0.019
      -0.405
      -1.058
      -1.923
      -2.887
      -3.789
      -4.474
      -4.851
      -4.921
      -4.761
      -4.487
      -4.199
      -3.954
      -3.754
      -3.569
      -3.354
      -3.073
      -2.702
      -2.224
      -1.625
      -0.895
      -0.037
       0.912
       1.874
       2.740
       3.405
       3.814
       3.975
       3.945
       3.794
       3.578
       3.318
       3.009
       2.638
       2.208
       1.747
       1.290
       0.867
       0.494
       0.173
      -0.099
      -0.332
      -0.534
      -0.703
      -0.828
      -0.890
      -0.881
      -0.811
      -0.709
      -0.604
      -0.503
      -0.382
      -0.200
       0.079
       0.448
       0.843
       1.161
       1.314
       1.272
       1.088
       0.857
       0.663
       0.539
       0.456
       0.354
       0.193
      -0.014
      -0.209
      -0.331
      -0.365
      -0.346
      -0.336
      -0.372
      -0.443
      -0.512
      -0.552
      -0.574
      -0.613
      -0.692
      -0.798
      -0.888
      -0.915
      -0.856
      -0.742
      -0.657
      -0.702
      -0.937
      -1.327
      -1.746
      -2.035
      -2.082
      -1.875
      -1.496
      -1.069
      -0.706
      -0.473
      -0.392
      -0.458
      -0.648
      -0.917
      -1.180
      -1.325
      -1.255
      -0.949
      -0.470
       0.062
       0.546
       0.928
       1.211
       1.430
       1.637
       1.882
       2.183
       2.500
       2.738
       2.784
       2.575
       2.146
       1.632
       1.211
       1.018
       1.079
       1.289
       1.476
       1.483
       1.247
       0.806
       0.268
      -0.245
      -0.630
      -0.816
      -0.781
      -0.576
      -0.313
      -0.123
      -0.111
      -0.309
      -0.669
      -1.082
      -1.421
      -1.588
      -1.550
      -1.339
      -1.028
      -0.698
      -0.418
      -0.238
      -0.192
      -0.281
      -0.453
      -0.607
      -0.632
      -0.463
      -0.106
       0.377
       0.901
       1.389
       1.787
       2.053
       2.149
       2.042
       1.731
       1.282
       0.823
       0.510
       0.444
       0.608
       0.865
       1.021
       0.933
       0.575
       0.038
      -0.532
      -1.018
      -1.376
      -1.630
      -1.821
      -1.958
      -2.009
      -1.933
      -1.726
      -1.448
      -1.201
      -1.079
      -1.119
      -1.279
      -1.468
      -1.580
      -1.535
      -1.292
      -0.854
      -0.276
       0.352
       0.918
       1.327
       1.517
       1.479
       1.251
       0.912
       0.567
       0.316
       0.223
       0.285
       0.428
       0.536
       0.502
       0.279
      -0.095
      -0.515
      -0.862
      -1.060
      -1.104
      -1.053
      -0.965
      -0.854
      -0.690
      -0.442
      -0.123
       0.209
       0.491
       0.704
       0.880
       1.067
       1.290
       1.533
       1.768
       1.968
       2.116
       2.189
       2.153
       1.969
       1.614
       1.110
       0.530
      -0.007
      -0.390
      -0.581
      -0.650
      -0.749
      -1.015
      -1.468
      -1.983
      -2.363
      -2.457
      -2.243
      -1.826
      -1.359
      -0.953
      -0.635
      -0.361
      -0.072
       0.253
       0.581
       0.856
       1.035
       1.120
       1.153
       1.192
       1.278
       1.417
       1.594
       1.779
       1.933
       2.003
       1.924
       1.660
       1.231
       0.718
       0.225
      -0.159
      -0.393
      -0.464
      -0.388
      -0.211
      -0.033
       0.010
      -0.196
      -0.678
      -1.345
      -2.025
      -2.540
      -2.770
      -2.686
      -2.348
      -1.871
      -1.383
      -0.987
      -0.747
      -0.687
      -0.798
      -1.047
      -1.370
      -1.675
      -1.847
      -1.781
      -1.419
      -0.784
       0.001
       0.739
       1.221
       1.306
       0.998
       0.450
      -0.092
      -0.404
      -0.375
      -0.051
       0.408
       0.827
       1.097
       1.206
       1.210
       1.181
       1.166
       1.178
       1.194
       1.174
       1.094
       0.967
       0.843
       0.774
       0.764
       0.753
       0.640
       0.351
      -0.105
      -0.622
      -1.051
      -1.273
      -1.263
      -1.097
      -0.911
      -0.831
      -0.906
      -1.084
      -1.250
      -1.288
      -1.146
      -0.845
      -0.459
      -0.068
       0.275
       0.543
       0.728
       0.836
       0.876
       0.855
       0.768
       0.619
       0.443
       0.324
       0.365
       0.632
       1.099
       1.630
       2.030
       2.143
       1.931
       1.494
       1.006
       0.618
       0.386
       0.254
       0.111
      -0.128
      -0.445
      -0.729
      -0.846
      -0.743
      -0.489
      -0.243
      -0.151
      -0.254
      -0.466
      -0.630
      -0.616
      -0.400
      -0.079
       0.185
       0.259
       0.119
      -0.145
      -0.400
      -0.552
      -0.574
      -0.479
      -0.287
      -0.020
       0.263
       0.456
       0.437
       0.146
      -0.359
      -0.904
      -1.277
      -1.328
      -1.042
      -0.535
       0.006
       0.395
       0.505
       0.294
      -0.191
      -0.826
      -1.433
      -1.831
      -1.889
      -1.568
      -0.914
      -0.039
       0.905
       1.739
       2.291
       2.441
       2.185
       1.646
       1.036
       0.562
       0.323
       0.279
       0.299
       0.269
       0.171
       0.090
       0.129
       0.304
       0.497
       0.511
       0.201
      -0.410
      -1.126
      -1.679
      -1.881
      -1.707
      -1.280
      -0.778
      -0.343
      -0.038
       0.140
       0.227
       0.265
       0.287
       0.307
       0.324
       0.326
       0.312
       0.297
       0.316
       0.401
       0.558
       0.745
       0.879
