Origin Time       11/9/2010 07:02:09	
Lat.              25.9 N	
Long.             90.2 E	
Depth (Km)         20.0
Magnitude         5.0
 Region           Meghalaya-Assam-Border                                           
 Above details taken from IMD 
     
Station Code      GUW
Station Lat.       26.190  N
Station Long.      91.746  E
Station Height(m)   55.2
Site Class        C   Vs30 between 200 m/sec to 375 m/sec *  
Record Time       11.09.2010 07:02:03.709
Sampling Rate     200. Hz
 Record Duration   90.895 Sec.
 Direction         E-W (E positive)
Max. Acceleration     -3.647 cm/sec**2
     
  * For reference see Site Classification link of website 
     
 Base Line Corrected and Low Pass Filtered (Cut Off at 35 Hz) Time History
 Acceleration data in cm/sec**2
    
[...]
       0.199
       0.165
       0.118
       0.067
       0.028
       0.019
       0.040
       0.074
       0.096
       0.090
       0.058
       0.008
      -0.048
      -0.106
      -0.154
      -0.180
      -0.167
      -0.111
      -0.022
       0.075
       0.151
       0.184
       0.162
       0.082
      -0.038
      -0.162
      -0.247
      -0.268
      -0.222
      -0.129
      -0.017
       0.094
       0.195
       0.282
       0.350
       0.392
       0.398
       0.361
       0.280
       0.160
       0.029
      -0.066
      -0.089
      -0.040
       0.033
       0.063
       0.014
      -0.090
      -0.178
      -0.191
      -0.127
      -0.037
       0.019
       0.016
      -0.025
      -0.065
      -0.087
      -0.101
      -0.129
      -0.178
      -0.230
      -0.257
      -0.247
      -0.205
      -0.146
      -0.080
      -0.013
       0.048
       0.093
       0.113
       0.103
       0.071
       0.028
      -0.018
      -0.071
      -0.133
      -0.197
      -0.243
      -0.252
      -0.220
      -0.159
      -0.091
      -0.033
       0.014
       0.057
       0.102
       0.145
       0.185
       0.229
       0.293
       0.384
       0.485
       0.567
       0.604
       0.590
       0.539
       0.469
       0.387
       0.290
       0.176
       0.065
      -0.020
      -0.065
      -0.082
      -0.092
      -0.113
      -0.146
      -0.185
      -0.220
      -0.246
      -0.268
      -0.294
      -0.328
      -0.360
      -0.375
      -0.362
      -0.319
      -0.258
      -0.197
      -0.153
      -0.137
      -0.149
      -0.173
      -0.187
      -0.176
      -0.144
      -0.113
      -0.113
      -0.155
      -0.221
      -0.276
      -0.281
      -0.218
      -0.100
       0.038
       0.158
       0.240
       0.291
       0.325
       0.350
       0.363
       0.351
       0.310
       0.249
       0.196
       0.174
       0.189
       0.220
       0.235
       0.208
       0.127
       0.005
      -0.127
      -0.233
      -0.282
      -0.260
      -0.175
      -0.058
       0.045
       0.086
       0.045
      -0.065
      -0.200
      -0.301
      -0.323
      -0.256
      -0.127
       0.012
       0.113
       0.147
       0.113
       0.035
      -0.055
      -0.132
      -0.187
      -0.218
      -0.220
      -0.186
      -0.114
      -0.010
       0.107
       0.216
       0.285
       0.288
       0.213
       0.078
      -0.073
      -0.182
      -0.203
      -0.127
       0.013
       0.154
       0.233
       0.216
       0.110
      -0.033
      -0.140
      -0.152
      -0.055
       0.105
       0.256
       0.337
       0.334
       0.282
       0.235
       0.224
       0.242
       0.247
       0.198
       0.082
      -0.084
      -0.255
      -0.382
      -0.429
      -0.390
      -0.288
      -0.161
      -0.046
       0.032
       0.071
       0.084
       0.081
       0.067
       0.041
       0.005
      -0.029
      -0.052
      -0.058
      -0.053
      -0.040
      -0.013
       0.040
       0.118
       0.203
       0.267
       0.290
       0.267
       0.203
       0.102
      -0.020
      -0.132
      -0.198
      -0.201
      -0.160
      -0.122
      -0.126
      -0.181
      -0.250
      -0.289
      -0.277
      -0.237
      -0.212
      -0.230
      -0.283
      -0.340
      -0.365
      -0.346
      -0.294
      -0.238
      -0.203
      -0.193
      -0.193
      -0.186
      -0.162
      -0.124
      -0.081
      -0.044
      -0.008
       0.045
       0.138
       0.282
       0.464
       0.640
       0.759
       0.789
       0.738
       0.654
       0.588
       0.563
       0.571
       0.585
       0.580
       0.542
       0.468
       0.362
       0.234
       0.102
      -0.017
      -0.118
      -0.212
      -0.305
      -0.387
      -0.432
      -0.419
      -0.354
      -0.266
      -0.191
      -0.153
      -0.164
      -0.214
      -0.281
      -0.341
      -0.368
      -0.351
      -0.293
      -0.217
      -0.164
      -0.162
      -0.213
      -0.283
      -0.326
      -0.307
      -0.225
      -0.114
      -0.017
       0.038
       0.048
       0.027
      -0.010
      -0.053
      -0.098
      -0.138
      -0.164
      -0.163
      -0.120
      -0.031
       0.094
       0.230
       0.339
       0.390
       0.375
       0.310
       0.227
       0.153
       0.102
       0.080
       0.083
       0.103
       0.125
       0.142
       0.148
       0.132
       0.080
      -0.022
      -0.167
      -0.329
      -0.464
      -0.534
      -0.519
      -0.422
      -0.263
      -0.075
       0.101
       0.216
       0.238
       0.173
       0.061
      -0.041
      -0.087
      -0.066
       0.005
       0.089
       0.155
       0.190
       0.208
       0.230
       0.270
       0.330
       0.400
       0.453
       0.454
       0.379
       0.238
       0.078
      -0.039
      -0.066
      -0.008
       0.086
       0.150
       0.137
       0.048
      -0.089
      -0.230
      -0.343
      -0.415
      -0.452
      -0.465
      -0.455
      -0.416
      -0.350
      -0.273
      -0.214
      -0.199
      -0.233
      -0.291
      -0.326
      -0.305
      -0.224
      -0.109
       0.005
       0.093
       0.144
       0.148
       0.107
       0.034
      -0.037
      -0.072
      -0.048
       0.029
       0.137
       0.251
       0.358
       0.461
       0.557
       0.634
       0.664
       0.624
       0.516
       0.377
       0.266
       0.226
       0.257
       0.316
       0.348
       0.322
       0.239
       0.123
       0.002
      -0.107
      -0.198
      -0.262
      -0.292
      -0.285
      -0.251
      -0.210
      -0.180
      -0.175
      -0.198
      -0.246
      -0.303
      -0.345
      -0.359
      -0.343
      -0.308
      -0.264
      -0.214
      -0.158
      -0.107
      -0.080
      -0.093
      -0.146
      -0.212
      -0.250
      -0.233
      -0.163
      -0.069
       0.008
       0.047
       0.055
       0.066
       0.106
       0.173
       0.241
       0.278
       0.274
       0.240
       0.203
       0.191
       0.214
       0.263
       0.321
       0.364
       0.372
       0.332
       0.246
       0.137
       0.039
      -0.018
      -0.028
      -0.012
       0.000
      -0.014
      -0.054
      -0.102
      -0.143
      -0.181
      -0.228
      -0.289
      -0.350
      -0.392
      -0.401
      -0.377
      -0.327
      -0.256
      -0.169
      -0.073
       0.015
       0.078
       0.112
       0.130
       0.147
       0.170
       0.188
       0.184
       0.145
       0.072
      -0.012
      -0.073
      -0.070
       0.015
       0.170
       0.346
       0.477
       0.507
       0.425
       0.270
       0.107
      -0.008
      -0.055
      -0.050
      -0.032
      -0.048
      -0.117
      -0.222
      -0.314
      -0.344
      -0.296
      -0.204
      -0.136
      -0.142
      -0.222
      -0.323
      -0.380
      -0.359
      -0.269
      -0.148
      -0.037
       0.043
       0.093
       0.120
       0.124
       0.096
       0.042
      -0.014
      -0.039
      -0.022
       0.024
       0.072
       0.104
       0.126
       0.162
       0.231
       0.326
       0.418
       0.470
       0.464
       0.416
       0.361
       0.334
       0.347
       0.377
       0.387
       0.347
       0.254
       0.126
      -0.011
      -0.146
      -0.283
      -0.431
      -0.579
      -0.683
      -0.694
      -0.591
      -0.407
      -0.214
      -0.080
      -0.033
      -0.054
      -0.097
      -0.121
      -0.116
      -0.097
      -0.087
      -0.088
      -0.083
      -0.050
       0.025
       0.131
       0.241
       0.326
       0.371
       0.375
       0.350
       0.308
       0.258
       0.209
       0.165
       0.120
       0.070
       0.012
      -0.044
      -0.078
      -0.076
      -0.043
      -0.014
      -0.032
      -0.110
      -0.221
      -0.311
      -0.342
      -0.311
      -0.255
      -0.219
      -0.230
      -0.282
      -0.349
      -0.405
      -0.437
      -0.443
      -0.424
      -0.380
      -0.312
      -0.232
      -0.161
      -0.115
      -0.089
      -0.058
       0.006
       0.114
       0.250
       0.378
       0.464
       0.492
       0.471
       0.423
       0.374
       0.337
       0.304
       0.255
       0.178
       0.076
      -0.032
      -0.121
      -0.179
      -0.208
      -0.216
      -0.206
      -0.181
      -0.153
      -0.148
      -0.178
      -0.226
      -0.257
      -0.234
      -0.148
      -0.019
       0.111
       0.208
       0.260
       0.293
       0.353
       0.474
       0.647
       0.816
       0.911
       0.897
       0.803
       0.699
       0.640
       0.632
       0.641
       0.630
       0.591
       0.539
       0.492
       0.449
       0.384
       0.262
       0.068
      -0.189
      -0.474
      -0.746
      -0.963
      -1.103
      -1.178
      -1.229
      -1.308
      -1.444
      -1.619
      -1.770
      -1.828
      -1.756
      -1.573
      -1.342
      -1.120
      -0.927
      -0.740
      -0.514
      -0.220
       0.131
       0.497
       0.825
       1.091
       1.306
       1.499
       1.698
       1.907
       2.108
       2.266
       2.341
       2.304
       2.140
       1.863
       1.512
       1.150
       0.827
       0.558
       0.318
       0.062
      -0.228
      -0.538
      -0.829
      -1.068
      -1.247
      -1.380
      -1.477
      -1.537
      -1.550
      -1.514
      -1.449
      -1.382
      -1.325
      -1.273
      -1.203
      -1.095
      -0.952
      -0.792
      -0.638
      -0.488
      -0.323
      -0.126
       0.105
       0.355
       0.605
       0.841
       1.055
       1.236
       1.366
       1.435
       1.452
       1.440
       1.417
       1.381
       1.312
       1.194
       1.035
       0.863
       0.702
       0.547
       0.369
       0.139
      -0.145
      -0.445
      -0.708
      -0.899
      -1.013
      -1.069
      -1.100
      -1.138
      -1.205
      -1.296
      -1.378
      -1.417
      -1.395
      -1.327
      -1.245
      -1.167
      -1.085
      -0.972
      -0.815
      -0.631
      -0.449
      -0.290
      -0.148
      -0.004
       0.164
       0.373
       0.626
       0.902
       1.157
       1.335
       1.384
       1.286
       1.067
       0.795
       0.549
       0.386
       0.327
       0.360
       0.460
       0.606
       0.785
       0.979
       1.156
       1.276
       1.305
       1.233
       1.084
       0.904
       0.741
       0.627
       0.550
       0.457
       0.286
       0.003
      -0.363
      -0.738
      -1.034
      -1.197
      -1.229
      -1.183
      -1.126
      -1.106
      -1.130
      -1.171
      -1.195
      -1.180
      -1.131
      -1.068
      -1.012
      -0.972
      -0.948
      -0.934
      -0.917
      -0.883
      -0.826
      -0.761
      -0.717
      -0.720
      -0.767
      -0.822
      -0.826
      -0.726
      -0.504
      -0.189
       0.166
       0.506
       0.793
       1.009
       1.152
       1.234
       1.273
       1.295
       1.328
       1.382
       1.440
       1.454
       1.376
       1.189
       0.924
       0.643
       0.404
       0.220
       0.053
      -0.154
      -0.424
      -0.721
      -0.963
      -1.067
      -0.977
      -0.687
      -0.249
       0.233
       0.634
       0.854
       0.865
       0.723
       0.533
       0.388
       0.322
       0.310
       0.299
       0.257
       0.195
       0.166
       0.228
       0.413
       0.693
       0.978
       1.150
       1.109
       0.818
       0.321
      -0.269
      -0.813
      -1.195
      -1.359
      -1.305
      -1.079
      -0.747
      -0.385
      -0.071
       0.126
       0.162
       0.034
      -0.221
      -0.543
      -0.868
      -1.133
      -1.279
      -1.269
      -1.105
      -0.852
      -0.608
      -0.468
      -0.479
      -0.626
      -0.844
      -1.052
      -1.168
      -1.122
      -0.866
      -0.391
       0.255
       0.963
       1.602
       2.052
       2.249
       2.196
       1.954
       1.601
       1.183
       0.698
       0.133
      -0.476
      -1.017
      -1.330
      -1.292
      -0.898
      -0.287
       0.315
       0.699
       0.749
       0.467
      -0.058
      -0.688
      -1.279
      -1.715
      -1.933
      -1.932
      -1.753
      -1.450
      -1.060
      -0.607
      -0.134
       0.290
       0.581
       0.696
       0.661
       0.568
       0.530
       0.629
       0.882
       1.233
       1.580
       1.828
       1.937
       1.930
       1.876
       1.841
       1.853
       1.889
       1.909
       1.906
       1.917
       1.998
       2.168
       2.373
       2.489
       2.383
       1.987
       1.339
       0.562
      -0.200
      -0.850
      -1.361
      -1.759
      -2.079
      -2.334
      -2.509
      -2.581
      -2.538
      -2.393
      -2.174
      -1.935
      -1.747
      -1.682
      -1.773
      -1.988
      -2.227
      -2.367
      -2.308
      -2.022
      -1.561
      -1.018
      -0.472
       0.048
       0.553
       1.060
       1.547
       1.954
       2.207
       2.272
       2.177
       1.996
       1.803
       1.634
       1.491
       1.367
       1.275
       1.255
       1.343
       1.520
       1.682
       1.665
       1.326
       0.628
      -0.337
      -1.382
      -2.311
      -2.998
      -3.412
      -3.603
      -3.647
      -3.617
      -3.555
      -3.472
      -3.352
      -3.166
      -2.880
      -2.456
      -1.856
      -1.057
      -0.083
       0.972
       1.962
       2.739
       3.208
       3.348
       3.192
       2.788
       2.187
       1.457
       0.709
       0.086
      -0.289
      -0.362
      -0.176
       0.171
       0.566
       0.917
       1.151
       1.210
       1.066
       0.747
       0.352
       0.007
      -0.186
      -0.189
      -0.019
       0.289
       0.700
       1.172
       1.623
       1.927
       1.947
       1.599
       0.902
      -0.009
      -0.921
      -1.606
      -1.900
      -1.750
      -1.231
      -0.507
       0.220
       0.775
       1.046
       1.022
       0.782
       0.461
       0.187
       0.032
      -0.002
       0.034
       0.078
       0.089
       0.057
      -0.007
      -0.092
      -0.209
      -0.384
      -0.643
      -0.982
      -1.359
      -1.694
      -1.898
      -1.901
      -1.680
      -1.276
      -0.788
      -0.344
      -0.057
       0.015
      -0.130
      -0.449
      -0.858
      -1.260
      -1.561
      -1.717
      -1.738
      -1.664
      -1.514
      -1.239
      -0.744
       0.036
       1.045
       2.076
       2.838
       3.106
       2.838
       2.200
       1.470
       0.891
       0.579
       0.506
       0.567
       0.648
       0.666
       0.587
       0.428
       0.253
       0.142
       0.145
       0.244
       0.364
       0.420
       0.367
       0.230
       0.079
      -0.014
      -0.016
       0.062
       0.175
       0.266
       0.287
       0.222
       0.086
      -0.086
      -0.270
      -0.465
      -0.686
      -0.937
      -1.195
      -1.414
      -1.540
      -1.531
      -1.372
      -1.070
      -0.657
      -0.192
       0.249
       0.589
       0.773
       0.772
       0.591
       0.261
      -0.166
      -0.626
      -1.038
      -1.316
      -1.389
      -1.230
      -0.878
      -0.430
      -0.018
       0.238
       0.278
       0.140
      -0.043
      -0.092
       0.137
       0.682
       1.458
       2.276
       2.907
       3.159
       2.938
       2.286
       1.376
       0.455
      -0.238
      -0.576
      -0.585
      -0.421
      -0.281
      -0.306
      -0.516
      -0.823
      -1.092
      -1.225
      -1.213
      -1.110
      -0.982
      -0.842
      -0.647
      -0.352
       0.016
       0.333
       0.434
       0.213
      -0.295
      -0.926
      -1.467
      -1.753
      -1.732
      -1.470
      -1.119
      -0.840
      -0.746
      -0.849
      -1.058
      -1.216
      -1.166
      -0.829
      -0.234
       0.500
       1.213
       1.768
       2.095
       2.195
       2.115
       1.909
       1.627
       1.322
       1.046
       0.832
       0.666
       0.491
       0.255
      -0.039
      -0.320
      -0.497
      -0.527
      -0.456
      -0.374
      -0.352
      -0.387
      -0.417
      -0.364
      -0.185
       0.106
       0.450
       0.773
       1.025
       1.184
       1.255
       1.254
       1.205
       1.140
       1.086
       1.065
       1.083
       1.133
       1.192
       1.222
       1.180
       1.038
       0.799
       0.504
       0.223
       0.029
      -0.030
       0.044
       0.209
       0.396
       0.537
       0.596
       0.579
       0.524
       0.467
       0.419
       0.354
       0.221
      -0.035
      -0.454
      -1.045
      -1.766
      -2.514
      -3.135
      -3.493
      -3.528
      -3.285
      -2.875
      -2.397
      -1.904
      -1.410
      -0.929
      -0.496
      -0.173
      -0.025
      -0.096
      -0.378
      -0.810
      -1.287
      -1.707
      -1.999
      -2.150
      -2.189
      -2.130
      -1.938
      -1.547
      -0.936
      -0.187
       0.538
       1.104
       1.491
       1.795
       2.123
       2.492
       2.802
       2.916
       2.765
       2.397
       1.942
       1.526
       1.205
       0.950
       0.692
       0.397
       0.104
      -0.091
      -0.103
       0.083
       0.391
       0.705
       0.923
       0.998
       0.933
       0.749
       0.484
       0.199
      -0.008
      -0.048
       0.103
       0.356
       0.551
       0.545
       0.305
      -0.076
      -0.444
      -0.673
      -0.720
      -0.612
      -0.401
      -0.148
       0.080
       0.215
       0.214
       0.095
      -0.067
      -0.178
      -0.175
      -0.054
       0.159
       0.433
       0.746
       1.057
       1.280
       1.298
       1.016
       0.430
      -0.364
      -1.214
      -1.976
      -2.567
      -2.962
      -3.160
      -3.152
      -2.920
      -2.461
      -1.821
      -1.109
      -0.479
      -0.074
       0.042
      -0.093
      -0.357
      -0.602
      -0.711
      -0.624
      -0.345
       0.082
       0.604
       1.177
       1.760
       2.284
       2.649
       2.751
       2.534
       2.051
       1.448
       0.902
       0.519
       0.294
       0.145
       0.003
      -0.133
      -0.201
      -0.133
       0.081
       0.364
       0.579
       0.587
       0.321
      -0.179
      -0.780
      -1.318
      -1.662
      -1.764
      -1.653
      -1.401
      -1.079
      -0.737
      -0.400
      -0.088
       0.177
       0.372
       0.503
       0.614
       0.759
       0.955
       1.162
       1.316
       1.383
       1.378
       1.345
       1.308
       1.248
       1.104
       0.817
       0.372
      -0.184
      -0.756
      -1.226
      -1.486
      -1.465
      -1.160
      -0.644
      -0.043
       0.510
       0.922
       1.159
       1.240
       1.202
       1.081
       0.910
       0.724
       0.567
       0.470
       0.437
       0.430
       0.369
       0.156
      -0.263
      -0.852
      -1.468
