Origin Time       26/7/2010 19:43:27 
Lat.              26.5 N 
Long.             91.3 E 
Depth (Km)         31.0
Magnitude         4.1
 Region           Barpeta-Assam                                                    
 Above details taken from IMD 
   
Station Code      GUW
Station Lat.       26.190
Station Long.      91.746
Station Height(m)   55.2
Site Class        C   Vs30 between 200 m/sec to 375 m/sec *  
Record Time       26.07.2010 19:13:06.004
Sampling Rate     200. Hz
 Record Duration   94.720 Sec.
 Direction         Vert. (Up positive)
Max. Acceleration     17.025 cm/sec**2
     
  * For reference see Site Classification link of website 
     
 Base Line Corrected and Low Pass Filtered (Cut Off at 35 Hz) Time History
 Acceleration data in cm/sec**2
    
[...]
      -0.119
      -0.190
      -0.732
      -1.351
      -1.568
      -1.175
      -0.363
       0.450
       0.899
       0.858
       0.468
       0.043
      -0.094
       0.189
       0.733
       1.179
       1.218
       0.821
       0.284
       0.005
       0.157
       0.517
       0.627
       0.183
      -0.686
      -1.474
      -1.687
      -1.235
      -0.510
      -0.074
      -0.204
      -0.689
      -1.024
      -0.823
      -0.092
       0.784
       1.315
       1.247
       0.721
       0.144
      -0.122
      -0.003
       0.290
       0.465
       0.370
       0.081
      -0.212
      -0.385
      -0.462
      -0.528
      -0.596
      -0.587
      -0.446
      -0.248
      -0.141
      -0.171
      -0.210
      -0.073
       0.270
       0.620
       0.701
       0.413
      -0.024
      -0.214
       0.085
       0.716
       1.209
       1.157
       0.561
      -0.181
      -0.627
      -0.640
      -0.432
      -0.310
      -0.401
      -0.574
      -0.612
      -0.433
      -0.136
       0.123
       0.285
       0.388
       0.469
       0.500
       0.424
       0.231
      -0.024
      -0.274
      -0.483
      -0.635
      -0.703
      -0.644
      -0.433
      -0.105
       0.246
       0.534
       0.729
       0.847
       0.882
       0.774
       0.468
       0.006
      -0.455
      -0.750
      -0.823
      -0.742
      -0.601
      -0.443
      -0.279
      -0.144
      -0.090
      -0.102
      -0.064
       0.143
       0.478
       0.724
       0.690
       0.437
       0.269
       0.435
       0.834
       1.025
       0.618
      -0.324
      -1.258
      -1.576
      -1.114
      -0.293
       0.245
       0.174
      -0.290
      -0.637
      -0.517
       0.018
       0.616
       0.918
       0.788
       0.364
      -0.075
      -0.284
      -0.160
       0.203
       0.523
       0.470
      -0.084
      -0.897
      -1.473
      -1.429
      -0.793
       0.023
       0.546
       0.594
       0.369
       0.252
       0.485
       0.967
       1.327
       1.217
       0.611
      -0.147
      -0.599
      -0.535
      -0.151
       0.114
      -0.050
      -0.566
      -1.041
      -1.120
      -0.787
      -0.325
      -0.032
       0.039
       0.089
       0.371
       0.935
       1.537
       1.803
       1.521
       0.812
       0.011
      -0.600
      -0.964
      -1.212
      -1.497
      -1.846
      -2.129
      -2.156
      -1.809
      -1.128
      -0.294
       0.476
       1.025
       1.325
       1.456
       1.513
       1.519
       1.445
       1.286
       1.095
       0.911
       0.673
       0.265
      -0.320
      -0.888
      -1.182
      -1.105
      -0.795
      -0.483
      -0.290
      -0.165
       0.015
       0.293
       0.588
       0.791
       0.838
       0.713
       0.415
      -0.049
      -0.615
      -1.140
      -1.446
      -1.435
      -1.169
      -0.820
      -0.538
      -0.371
      -0.274
      -0.176
      -0.034
       0.148
       0.351
       0.545
       0.682
       0.720
       0.704
       0.755
       0.933
       1.100
       1.010
       0.566
      -0.022
      -0.381
      -0.312
       0.017
       0.210
       0.015
      -0.446
      -0.798
      -0.762
      -0.389
       0.023
       0.216
       0.184
       0.110
       0.158
       0.347
       0.592
       0.778
       0.772
       0.427
      -0.307
      -1.254
      -2.017
      -2.194
      -1.673
      -0.743
       0.087
       0.450
       0.371
       0.196
       0.282
       0.717
       1.266
       1.537
       1.240
       0.410
      -0.564
      -1.149
      -1.022
      -0.311
       0.476
       0.806
       0.520
      -0.055
      -0.365
      -0.102
       0.535
       0.997
       0.845
       0.105
      -0.778
      -1.317
      -1.308
      -0.873
      -0.266
       0.288
       0.611
       0.578
       0.210
      -0.254
      -0.463
      -0.220
       0.335
       0.837
       1.006
       0.855
       0.597
       0.393
       0.197
      -0.150
      -0.711
      -1.356
      -1.837
      -1.954
      -1.669
      -1.095
      -0.408
       0.221
       0.655
       0.813
       0.718
       0.517
       0.406
       0.491
       0.706
       0.873
       0.838
       0.574
       0.178
      -0.198
      -0.422
      -0.438
      -0.270
      -0.001
       0.250
       0.386
       0.406
       0.432
       0.604
       0.899
       1.082
       0.891
       0.301
      -0.391
      -0.788
      -0.724
      -0.432
      -0.366
      -0.820
      -1.626
      -2.247
      -2.208
      -1.501
      -0.570
       0.069
       0.225
       0.101
       0.049
       0.249
       0.610
       0.895
       0.944
       0.778
       0.567
       0.509
       0.700
       1.067
       1.400
       1.462
       1.138
       0.529
      -0.088
      -0.430
      -0.403
      -0.166
       0.003
      -0.081
      -0.369
      -0.642
      -0.710
      -0.574
      -0.394
      -0.304
      -0.296
      -0.280
      -0.228
      -0.206
      -0.279
      -0.422
      -0.563
      -0.678
      -0.784
      -0.850
      -0.739
      -0.326
       0.320
       0.897
       1.089
       0.860
       0.507
       0.386
       0.573
       0.801
       0.736
       0.300
      -0.270
      -0.659
      -0.745
      -0.654
      -0.590
      -0.642
      -0.718
      -0.632
      -0.252
       0.383
       1.037
       1.391
       1.254
       0.729
       0.193
       0.030
       0.300
       0.661
       0.651
       0.085
      -0.777
      -1.428
      -1.502
      -1.039
      -0.415
      -0.026
       0.012
      -0.101
      -0.062
       0.277
       0.838
       1.401
       1.735
       1.665
       1.136
       0.270
      -0.644
      -1.282
      -1.469
      -1.296
      -1.060
      -1.040
      -1.272
      -1.512
      -1.437
      -0.910
      -0.086
       0.697
       1.146
       1.201
       1.045
       0.934
       0.965
       0.987
       0.750
       0.179
      -0.477
      -0.808
      -0.569
       0.097
       0.736
       0.920
       0.571
       0.032
      -0.200
       0.125
       0.784
       1.256
       1.142
       0.481
      -0.325
      -0.862
      -1.029
      -1.051
      -1.205
      -1.544
      -1.855
      -1.858
      -1.425
      -0.652
       0.220
       0.919
       1.266
       1.246
       1.001
       0.752
       0.668
       0.743
       0.789
       0.574
       0.029
      -0.641
      -1.075
      -1.017
      -0.526
       0.059
       0.381
       0.326
       0.061
      -0.148
      -0.156
       0.002
       0.192
       0.305
       0.300
       0.195
       0.059
      -0.012
       0.058
       0.255
       0.457
       0.517
       0.382
       0.146
      -0.035
      -0.091
      -0.088
      -0.140
      -0.266
      -0.382
      -0.406
      -0.347
      -0.297
      -0.318
      -0.370
      -0.343
      -0.186
       0.011
       0.081
      -0.051
      -0.274
      -0.369
      -0.196
       0.180
       0.553
       0.744
       0.712
       0.533
       0.307
       0.105
      -0.048
      -0.191
      -0.409
      -0.754
      -1.145
      -1.360
      -1.189
      -0.630
       0.064
       0.563
       0.712
       0.621
       0.544
       0.675
       1.026
       1.434
       1.657
       1.499
       0.919
       0.073
      -0.726
      -1.147
      -1.039
      -0.581
      -0.219
      -0.360
      -1.035
      -1.830
      -2.152
      -1.640
      -0.434
       0.893
       1.722
       1.798
       1.346
       0.828
       0.557
       0.497
       0.381
      -0.010
      -0.621
      -1.135
      -1.201
      -0.724
       0.016
       0.550
       0.572
       0.194
      -0.127
       0.032
       0.653
       1.232
       1.179
       0.326
      -0.891
      -1.732
      -1.705
      -0.927
       0.009
       0.496
       0.327
      -0.227
      -0.664
      -0.592
       0.039
       0.919
       1.575
       1.651
       1.094
       0.178
      -0.625
      -0.870
      -0.411
       0.444
       1.060
       0.899
      -0.045
      -1.168
      -1.675
      -1.196
      -0.106
       0.746
       0.715
      -0.144
      -1.138
      -1.502
      -0.977
       0.034
       0.819
       0.922
       0.464
      -0.006
       0.004
       0.504
       1.033
       1.076
       0.529
      -0.207
      -0.591
      -0.426
      -0.018
       0.143
      -0.143
      -0.618
      -0.861
      -0.688
      -0.300
      -0.085
      -0.296
      -0.836
      -1.297
      -1.232
      -0.491
       0.643
       1.615
       1.974
       1.667
       1.037
       0.545
       0.432
       0.591
       0.712
       0.532
       0.009
      -0.659
      -1.134
      -1.122
      -0.574
       0.221
       0.769
       0.698
       0.024
      -0.854
      -1.435
      -1.429
      -0.881
      -0.113
       0.457
       0.541
       0.172
      -0.287
      -0.417
      -0.097
       0.380
       0.585
       0.359
      -0.025
      -0.106
       0.348
       1.105
       1.630
       1.516
       0.827
       0.048
      -0.327
      -0.208
       0.039
      -0.085
      -0.784
      -1.757
      -2.397
      -2.252
      -1.397
      -0.384
       0.197
       0.161
      -0.163
      -0.236
       0.232
       1.035
       1.630
       1.591
       0.972
       0.287
       0.088
       0.488
       1.056
       1.180
       0.586
      -0.429
      -1.259
      -1.477
      -1.146
      -0.698
      -0.540
      -0.733
      -0.991
      -0.957
      -0.496
       0.218
       0.849
       1.130
       1.005
       0.639
       0.286
       0.142
       0.237
       0.436
       0.510
       0.294
      -0.173
      -0.608
      -0.648
      -0.138
       0.682
       1.290
       1.247
       0.543
      -0.374
      -0.912
      -0.770
      -0.156
       0.347
       0.210
      -0.613
      -1.595
      -1.998
      -1.442
      -0.243
       0.790
       0.949
       0.155
      -0.963
      -1.510
      -0.971
       0.387
       1.672
       1.987
       1.091
      -0.389
      -1.369
      -1.089
       0.324
       1.933
       2.665
       2.076
       0.628
      -0.700
      -1.123
      -0.568
       0.330
       0.731
       0.201
      -0.994
      -2.112
      -2.463
      -1.838
      -0.581
       0.683
       1.446
       1.563
       1.240
       0.825
       0.557
       0.454
       0.387
       0.255
       0.087
      -0.030
      -0.100
      -0.250
      -0.594
      -1.058
      -1.368
      -1.256
      -0.733
      -0.157
       0.031
      -0.311
      -0.869
      -1.102
      -0.684
       0.214
       1.032
       1.243
       0.732
      -0.147
      -0.853
      -1.024
      -0.666
      -0.073
       0.441
       0.785
       1.096
       1.508
       1.910
       1.936
       1.248
      -0.103
      -1.564
      -2.388
      -2.176
      -1.190
      -0.163
       0.264
       0.037
      -0.305
      -0.120
       0.766
       1.892
       2.555
       2.399
       1.657
       0.867
       0.358
      -0.007
      -0.599
      -1.563
      -2.585
      -3.127
      -2.885
      -2.029
      -1.031
      -0.277
       0.159
       0.454
       0.821
       1.330
       1.882
       2.289
       2.378
       2.039
       1.268
       0.218
      -0.814
      -1.528
      -1.785
      -1.675
      -1.416
      -1.188
      -1.028
      -0.874
      -0.668
      -0.399
      -0.082
       0.249
       0.508
       0.558
       0.344
       0.052
       0.084
       0.747
       1.891
       2.887
       3.041
       2.109
       0.458
      -1.222
      -2.349
      -2.672
      -2.237
      -1.264
      -0.109
       0.793
       1.108
       0.824
       0.285
      -0.085
      -0.148
      -0.148
      -0.447
      -1.143
      -1.948
      -2.420
      -2.337
      -1.846
      -1.292
      -0.882
      -0.535
      -0.040
       0.651
       1.307
       1.626
       1.544
       1.282
       1.126
       1.143
       1.106
       0.683
      -0.238
      -1.361
      -2.111
      -2.008
      -0.996
       0.503
       1.825
       2.442
       2.272
       1.696
       1.239
       1.135
       1.168
       0.932
       0.263
      -0.557
      -1.012
      -0.768
       0.085
       1.160
       2.125
       2.932
       3.737
       4.597
       5.264
       5.280
       4.337
       2.561
       0.473
      -1.347
      -2.583
      -3.232
      -3.416
      -3.206
      -2.615
      -1.743
      -0.866
      -0.346
      -0.398
      -0.904
      -1.453
      -1.629
      -1.313
      -0.765
      -0.444
      -0.731
      -1.658
      -2.803
      -3.486
      -3.224
      -2.143
      -1.005
      -0.800
      -2.142
      -4.833
      -7.866
      -9.908
     -10.034
      -8.261
      -5.509
      -2.963
      -1.299
      -0.328
       0.697
       2.407
       4.809
       7.329
       9.281
      10.359
      10.783
      11.044
      11.428
      11.670
      11.082
       9.066
       5.635
       1.575
      -1.896
      -3.796
      -3.998
      -3.305
      -2.886
      -3.461
      -4.860
      -6.241
      -6.760
      -6.151
      -4.843
      -3.602
      -3.044
      -3.326
      -4.144
      -4.952
      -5.262
      -4.899
      -4.110
      -3.419
      -3.262
      -3.635
      -4.058
      -3.874
      -2.667
      -0.509
       2.130
       4.743
       7.155
       9.570
      12.209
      14.854
      16.749
      17.025
      15.312
      12.014
       8.012
       4.095
       0.642
      -2.277
      -4.626
      -6.285
      -7.131
      -7.176
      -6.585
      -5.597
      -4.453
      -3.394
      -2.636
      -2.300
      -2.378
      -2.766
      -3.343
      -4.066
      -5.002
      -6.217
      -7.589
      -8.743
      -9.239
      -8.882
      -7.889
      -6.694
      -5.541
      -4.264
      -2.504
      -0.154
       2.464
       4.856
       6.712
       8.000
       8.786
       9.070
       8.829
       8.197
       7.538
       7.260
       7.507
       8.037
       8.423
       8.344
       7.684
       6.422
       4.534
       2.047
      -0.799
      -3.526
      -5.604
      -6.722
      -6.918
      -6.508
      -5.892
      -5.349
      -4.936
      -4.551
      -4.104
      -3.651
      -3.386
      -3.490
      -3.935
      -4.430
      -4.559
      -4.069
      -3.107
      -2.155
      -1.646
      -1.595
      -1.602
      -1.225
      -0.331
       0.873
       2.112
       3.318
       4.638
       6.222
       8.011
       9.677
      10.756
      10.881
       9.926
       8.027
       5.507
       2.770
       0.208
      -1.858
      -3.241
      -3.949
      -4.157
      -4.103
      -4.004
      -4.029
      -4.273
      -4.679
      -5.012
      -4.991
      -4.550
      -3.977
      -3.697
      -3.843
      -4.055
      -3.823
      -2.993
      -1.903
      -1.025
      -0.524
      -0.140
       0.509
       1.496
       2.470
       2.988
       2.942
       2.636
       2.433
       2.393
       2.260
       1.767
       0.950
       0.199
       0.015
       0.664
       1.997
       3.520
       4.666
       5.066
       4.665
       3.646
       2.281
       0.828
      -0.454
      -1.297
      -1.516
      -1.151
      -0.507
       0.007
       0.152
       0.033
      -0.035
       0.112
       0.252
      -0.067
      -1.092
      -2.584
      -3.981
      -4.836
      -5.103
      -5.012
      -4.734
      -4.234
      -3.431
      -2.427
      -1.512
      -0.932
      -0.690
      -0.596
      -0.507
      -0.468
      -0.604
      -0.852
      -0.835
      -0.084
       1.520
       3.491
       4.994
       5.429
       4.860
       3.906
       3.188
       2.850
       2.565
       1.956
       1.049
       0.360
       0.488
       1.549
       2.939
       3.716
       3.294
       1.875
       0.282
      -0.661
      -0.701
      -0.265
      -0.064
      -0.584
      -1.837
      -3.459
      -4.946
      -5.855
      -5.916
      -5.096
      -3.619
      -1.899
      -0.379
       0.641
       1.068
       0.966
       0.529
       0.101
       0.086
       0.684
       1.660
       2.437
       2.522
       1.933
       1.198
       0.897
       1.127
       1.408
       1.170
       0.346
      -0.480
      -0.549
       0.387
       1.742
       2.471
       1.883
       0.187
      -1.688
      -2.818
      -2.896
      -2.299
      -1.677
      -1.462
      -1.635
      -1.862
      -1.825
      -1.458
      -0.951
      -0.558
      -0.391
      -0.332
      -0.172
       0.176
       0.591
       0.878
       0.963
       0.925
       0.841
       0.639
       0.153
      -0.631
      -1.377
      -1.511
      -0.655
       0.951
       2.471
       3.032
       2.381
       1.063
      -0.019
      -0.271
       0.218
       0.854
       1.062
       0.724
       0.184
      -0.122
      -0.035
       0.231
       0.317
       0.012
      -0.579
      -1.104
      -1.228
      -0.898
      -0.386
      -0.072
      -0.126
      -0.382
      -0.488
      -0.199
       0.415
       1.026
       1.272
       1.030
       0.510
       0.110
       0.123
       0.554
       1.165
       1.679
       1.933
       1.889
       1.543
       0.876
      -0.079
      -1.151
      -2.044
      -2.529
      -2.647
      -2.703
      -2.995
      -3.512
      -3.877
      -3.604
      -2.505
      -0.930
       0.402
       0.905
       0.588
       0.080
       0.138
       1.013
       2.197
       2.797
       2.238
       0.728
      -0.876
      -1.695
      -1.418
      -0.427
       0.576
       1.098
       1.115
       0.944
       0.947
       1.279
       1.818
       2.282
       2.442
       2.287
       1.991
       1.738
       1.570
       1.353
       0.877
       0.037
      -1.022
      -1.948
      -2.434
      -2.431
      -2.136
      -1.767
      -1.377
      -0.853
      -0.095
       0.767
       1.340
       1.215
       0.318
      -0.965
      -2.018
      -2.377
      -1.956
      -1.013
       0.054
       0.906
       1.350
       1.344
       0.973
       0.424
      -0.079
      -0.406
      -0.623
      -0.919
      -1.407
      -1.992
      -2.443
      -2.577
      -2.360
      -1.840
      -1.064
      -0.102
       0.861
       1.551
       1.814
       1.802
       1.876
       2.288
       2.914
       3.328
       3.152
       2.390
       1.459
       0.882
       0.901
       1.285
       1.493
       1.071
      -0.001
      -1.245
      -1.998
      -1.875
      -1.050
      -0.144
       0.214
      -0.189
      -1.013
      -1.626
      -1.573
      -0.925
      -0.247
      -0.169
      -0.877
      -1.938
      -2.635
      -2.500
      -1.633
      -0.579
       0.105
       0.256
       0.177
       0.353
       1.047
       2.128
       3.206
       3.864
       3.818
       3.022
       1.711
       0.322
      -0.742
      -1.366
      -1.762
      -2.226
      -2.801
      -3.182
      -2.960
      -2.030
      -0.815
      -0.042
      -0.204
      -1.120
      -2.024
      -2.135
      -1.268
       0.023
       0.887
       0.837
       0.108
      -0.562
      -0.525
       0.278
       1.313
       1.905
       1.752
       1.130
       0.656
