Origin Time       21/11/2011 03:15:33
Lat.              25.1 N 
Long.             95.3 E 
Depth (Km)         80.0
Magnitude         5.8
 Region           Myanmar-India-Border                                             
 Above details taken from IMD 
     
Station Code      GUW
Station Lat.       26.190  N
Station Long.      91.746  E
Station Height(m)   55.2
Site Class        C   Vs30 between 200 m/sec to 375 m/sec *  
Record Time       21.11.2011 03:15:22.294
Sampling Rate     200. Hz
 Record Duration  112.435 Sec.
 Direction         E-W (E positive)
Max. Acceleration     -8.970 cm/sec**2
     
  * For reference see Site Classification link of website 
     
 Base Line Corrected and Low Pass Filtered (Cut Off at 35 Hz) Time History
 Acceleration data in cm/sec**2
    
[...]
      -0.573
      -0.497
      -0.279
       0.036
       0.341
       0.524
       0.526
       0.374
       0.156
      -0.027
      -0.118
      -0.119
      -0.073
      -0.027
      -0.007
      -0.011
      -0.019
      -0.014
       0.009
       0.035
       0.034
      -0.029
      -0.169
      -0.361
      -0.540
      -0.634
      -0.606
      -0.466
      -0.265
      -0.058
       0.111
       0.212
       0.225
       0.142
      -0.014
      -0.187
      -0.300
      -0.303
      -0.198
      -0.030
       0.138
       0.255
       0.299
       0.274
       0.203
       0.122
       0.070
       0.084
       0.186
       0.357
       0.533
       0.628
       0.575
       0.376
       0.103
      -0.133
      -0.243
      -0.209
      -0.072
       0.104
       0.271
       0.406
       0.493
       0.517
       0.470
       0.366
       0.246
       0.160
       0.138
       0.169
       0.201
       0.165
       0.022
      -0.209
      -0.466
      -0.664
      -0.742
      -0.687
      -0.531
      -0.337
      -0.169
      -0.079
      -0.084
      -0.164
      -0.275
      -0.380
      -0.466
      -0.543
      -0.610
      -0.646
      -0.613
      -0.483
      -0.251
       0.050
       0.360
       0.612
       0.757
       0.780
       0.703
       0.569
       0.408
       0.229
       0.028
      -0.189
      -0.389
      -0.526
      -0.564
      -0.492
      -0.330
      -0.120
       0.089
       0.256
       0.363
       0.409
       0.405
       0.368
       0.313
       0.255
       0.208
       0.192
       0.215
       0.262
       0.290
       0.260
       0.163
       0.036
      -0.065
      -0.105
      -0.082
      -0.020
       0.052
       0.123
       0.190
       0.240
       0.246
       0.181
       0.045
      -0.123
      -0.265
      -0.328
      -0.300
      -0.204
      -0.083
       0.028
       0.117
       0.183
       0.228
       0.249
       0.242
       0.199
       0.106
      -0.049
      -0.258
      -0.471
      -0.611
      -0.616
      -0.480
      -0.271
      -0.077
       0.051
       0.118
       0.153
       0.161
       0.111
      -0.032
      -0.270
      -0.555
      -0.810
      -0.961
      -0.960
      -0.813
      -0.579
      -0.344
      -0.188
      -0.139
      -0.154
      -0.154
      -0.074
       0.089
       0.279
       0.427
       0.500
       0.511
       0.494
       0.457
       0.378
       0.236
       0.063
      -0.059
      -0.044
       0.124
       0.366
       0.559
       0.601
       0.476
       0.256
       0.045
      -0.089
      -0.139
      -0.142
      -0.128
      -0.105
      -0.076
      -0.064
      -0.109
      -0.235
      -0.416
      -0.580
      -0.644
      -0.579
      -0.416
      -0.224
      -0.057
       0.071
       0.167
       0.230
       0.242
       0.177
       0.035
      -0.144
      -0.291
      -0.338
      -0.253
      -0.053
       0.211
       0.471
       0.658
       0.727
       0.659
       0.473
       0.214
      -0.057
      -0.274
      -0.398
      -0.427
      -0.396
      -0.346
      -0.289
      -0.209
      -0.082
       0.084
       0.243
       0.331
       0.307
       0.183
       0.020
      -0.103
      -0.126
      -0.042
       0.102
       0.239
       0.322
       0.345
       0.340
       0.344
       0.379
       0.443
       0.516
       0.566
       0.564
       0.492
       0.345
       0.147
      -0.050
      -0.181
      -0.207
      -0.139
      -0.026
       0.086
       0.173
       0.234
       0.263
       0.256
       0.219
       0.183
       0.183
       0.237
       0.329
       0.410
       0.433
       0.370
       0.220
      -0.003
      -0.271
      -0.553
      -0.815
      -1.019
      -1.117
      -1.065
      -0.853
      -0.532
      -0.210
      -0.003
       0.023
      -0.124
      -0.370
      -0.619
      -0.789
      -0.840
      -0.769
      -0.604
      -0.390
      -0.178
      -0.005
       0.108
       0.149
       0.123
       0.044
      -0.062
      -0.168
      -0.257
      -0.310
      -0.299
      -0.198
      -0.010
       0.218
       0.413
       0.511
       0.490
       0.372
       0.212
       0.070
      -0.015
      -0.030
       0.009
       0.072
       0.121
       0.120
       0.046
      -0.089
      -0.234
      -0.319
      -0.295
      -0.171
      -0.013
       0.107
       0.168
       0.214
       0.295
       0.403
       0.457
       0.363
       0.096
      -0.255
      -0.539
      -0.641
      -0.545
      -0.331
      -0.110
       0.033
       0.066
       0.008
      -0.092
      -0.179
      -0.216
      -0.194
      -0.133
      -0.065
      -0.018
      -0.006
      -0.021
      -0.032
       0.000
       0.099
       0.251
       0.399
       0.472
       0.434
       0.312
       0.170
       0.055
      -0.040
      -0.157
      -0.326
      -0.526
      -0.696
      -0.781
      -0.769
      -0.685
      -0.560
      -0.402
      -0.205
       0.026
       0.264
       0.467
       0.597
       0.639
       0.600
       0.502
       0.374
       0.248
       0.153
       0.119
       0.170
       0.307
       0.495
       0.673
       0.778
       0.767
       0.638
       0.424
       0.170
      -0.086
      -0.316
      -0.486
      -0.563
      -0.524
      -0.381
      -0.184
      -0.013
       0.065
       0.033
      -0.059
      -0.123
      -0.088
       0.055
       0.250
       0.417
       0.498
       0.493
       0.454
       0.439
       0.467
       0.503
       0.486
       0.383
       0.216
       0.050
      -0.042
      -0.030
       0.058
       0.151
       0.174
       0.097
      -0.050
      -0.182
      -0.204
      -0.066
       0.194
       0.458
       0.593
       0.529
       0.295
      -0.010
      -0.278
      -0.446
      -0.502
      -0.465
      -0.358
      -0.201
      -0.030
       0.103
       0.141
       0.045
      -0.178
      -0.464
      -0.720
      -0.873
      -0.904
      -0.851
      -0.767
      -0.685
      -0.597
      -0.478
      -0.312
      -0.116
       0.062
       0.174
       0.205
       0.178
       0.135
       0.105
       0.082
       0.036
      -0.059
      -0.202
      -0.351
      -0.440
      -0.413
      -0.260
      -0.029
       0.184
       0.295
       0.271
       0.155
       0.023
      -0.063
      -0.082
      -0.046
       0.020
       0.084
       0.102
       0.033
      -0.133
      -0.359
      -0.561
      -0.647
      -0.562
      -0.320
      -0.005
       0.277
       0.445
       0.470
       0.363
       0.159
      -0.095
      -0.337
      -0.492
      -0.499
      -0.351
      -0.126
       0.045
       0.055
      -0.108
      -0.348
      -0.524
      -0.544
      -0.418
      -0.245
      -0.128
      -0.114
      -0.169
      -0.227
      -0.230
      -0.154
      -0.006
       0.183
       0.371
       0.510
       0.563
       0.516
       0.385
       0.209
       0.037
      -0.090
      -0.143
      -0.112
      -0.001
       0.167
       0.354
       0.529
       0.671
       0.769
       0.811
       0.771
       0.617
       0.335
      -0.029
      -0.358
      -0.507
      -0.385
      -0.022
       0.441
       0.834
       1.053
       1.105
       1.065
       1.002
       0.934
       0.834
       0.665
       0.408
       0.073
      -0.291
      -0.598
      -0.749
      -0.691
      -0.453
      -0.146
       0.098
       0.199
       0.164
       0.070
       0.005
       0.009
       0.062
       0.115
       0.127
       0.089
       0.031
       0.000
       0.042
       0.171
       0.354
       0.525
       0.616
       0.589
       0.455
       0.259
       0.051
      -0.133
      -0.283
      -0.407
      -0.519
      -0.621
      -0.704
      -0.750
      -0.749
      -0.702
      -0.613
      -0.487
      -0.338
      -0.190
      -0.073
       0.004
       0.049
       0.065
       0.032
      -0.093
      -0.337
      -0.677
      -1.017
      -1.216
      -1.151
      -0.808
      -0.297
       0.200
       0.534
       0.662
       0.637
       0.548
       0.460
       0.390
       0.329
       0.267
       0.207
       0.153
       0.103
       0.038
      -0.058
      -0.181
      -0.287
      -0.313
      -0.220
      -0.033
       0.176
       0.334
       0.412
       0.425
       0.394
       0.338
       0.274
       0.228
       0.231
       0.288
       0.356
       0.354
       0.204
      -0.113
      -0.530
      -0.920
      -1.148
      -1.132
      -0.871
      -0.439
       0.035
       0.416
       0.601
       0.552
       0.320
       0.020
      -0.229
      -0.359
      -0.380
      -0.344
      -0.286
      -0.203
      -0.068
       0.121
       0.310
       0.408
       0.343
       0.116
      -0.186
      -0.440
      -0.558
      -0.529
      -0.405
      -0.255
      -0.123
      -0.021
       0.053
       0.096
       0.099
       0.065
       0.021
       0.001
       0.019
       0.050
       0.044
      -0.047
      -0.225
      -0.437
      -0.601
      -0.654
      -0.585
      -0.436
      -0.273
      -0.140
      -0.041
       0.059
       0.209
       0.425
       0.675
       0.890
       1.003
       0.979
       0.834
       0.621
       0.411
       0.260
       0.185
       0.164
       0.149
       0.099
       0.003
      -0.113
      -0.198
      -0.196
      -0.075
       0.150
       0.414
       0.627
       0.721
       0.691
       0.596
       0.504
       0.434
       0.359
       0.246
       0.108
       0.008
       0.007
       0.117
       0.287
       0.430
       0.479
       0.414
       0.257
       0.041
      -0.212
      -0.492
      -0.781
      -1.048
      -1.246
      -1.329
      -1.272
      -1.081
      -0.785
      -0.435
      -0.083
       0.228
       0.480
       0.665
       0.779
       0.811
       0.762
       0.654
       0.508
       0.322
       0.069
      -0.271
      -0.675
      -1.077
      -1.401
      -1.602
      -1.674
      -1.643
      -1.532
      -1.361
      -1.153
      -0.940
      -0.742
      -0.560
      -0.379
      -0.192
      -0.018
       0.110
       0.175
       0.190
       0.196
       0.224
       0.273
       0.310
       0.296
       0.224
       0.120
       0.021
      -0.054
      -0.110
      -0.163
      -0.218
      -0.257
      -0.248
      -0.163
       0.031
       0.376
       0.910
       1.614
       2.374
       3.006
       3.342
       3.312
       2.957
       2.390
       1.719
       1.015
       0.311
      -0.371
      -1.007
      -1.577
      -2.050
      -2.368
      -2.442
      -2.192
      -1.618
      -0.832
      -0.021
       0.632
       1.031
       1.189
       1.191
       1.123
       1.022
       0.866
       0.606
       0.213
      -0.288
      -0.818
      -1.277
      -1.587
      -1.715
      -1.664
      -1.442
      -1.056
      -0.519
       0.133
       0.825
       1.468
       1.984
       2.344
       2.578
       2.742
       2.866
       2.913
       2.798
       2.442
       1.839
       1.079
       0.301
      -0.364
      -0.841
      -1.102
      -1.142
      -0.965
      -0.609
      -0.151
       0.307
       0.686
       0.960
       1.148
       1.263
       1.264
       1.064
       0.601
      -0.090
      -0.866
      -1.537
      -1.967
      -2.143
      -2.160
      -2.151
      -2.197
      -2.280
      -2.321
      -2.245
      -2.028
      -1.702
      -1.323
      -0.952
      -0.646
      -0.454
      -0.399
      -0.455
      -0.550
      -0.610
      -0.616
      -0.634
      -0.781
      -1.135
      -1.673
      -2.255
      -2.681
      -2.782
      -2.497
      -1.892
      -1.113
      -0.316
       0.397
       0.990
       1.481
       1.900
       2.245
       2.466
       2.505
       2.356
       2.095
       1.849
       1.723
       1.732
       1.809
       1.856
       1.817
       1.705
       1.573
       1.470
       1.420
       1.435
       1.530
       1.706
       1.914
       2.043
       1.963
       1.607
       1.030
       0.372
      -0.229
      -0.722
      -1.142
      -1.528
      -1.855
      -2.026
      -1.947
      -1.617
      -1.153
      -0.725
      -0.455
      -0.368
      -0.419
      -0.570
      -0.828
      -1.232
      -1.794
      -2.440
      -3.022
      -3.369
      -3.368
      -3.011
      -2.387
      -1.635
      -0.894
      -0.269
       0.187
       0.469
       0.604
       0.632
       0.588
       0.500
       0.383
       0.252
       0.119
      -0.009
      -0.142
      -0.317
      -0.574
      -0.913
      -1.273
      -1.544
      -1.621
      -1.459
      -1.088
      -0.586
      -0.028
       0.532
       1.033
       1.385
       1.480
       1.232
       0.629
      -0.269
      -1.344
      -2.450
      -3.421
      -4.085
      -4.293
      -3.971
      -3.164
      -2.029
      -0.768
       0.459
       1.578
       2.569
       3.407
       4.035
       4.381
       4.417
       4.214
       3.934
       3.777
       3.893
       4.335
       5.062
       5.967
       6.900
       7.674
       8.105
       8.066
       7.559
       6.733
       5.827
       5.055
       4.519
       4.186
       3.940
       3.656
       3.249
       2.687
       1.980
       1.161
       0.257
      -0.727
      -1.800
      -2.966
      -4.187
      -5.373
      -6.400
      -7.176
      -7.681
      -7.986
      -8.205
      -8.433
      -8.688
      -8.906
      -8.970
      -8.778
      -8.275
      -7.453
      -6.332
      -4.954
      -3.407
      -1.842
      -0.458
       0.554
       1.074
       1.096
       0.724
       0.135
      -0.483
      -0.962
      -1.167
      -0.995
      -0.384
       0.671
       2.110
       3.806
       5.554
       7.075
       8.057
       8.255
       7.609
       6.295
       4.665
       3.094
       1.843
       0.990
       0.448
       0.032
      -0.446
      -1.107
      -1.967
      -2.969
      -4.032
      -5.092
      -6.082
      -6.895
      -7.382
      -7.404
      -6.903
      -5.943
      -4.684
      -3.331
      -2.094
      -1.168
      -0.698
      -0.710
      -1.047
      -1.401
      -1.438
      -0.958
       0.015
       1.255
       2.447
       3.304
       3.660
       3.494
       2.923
       2.173
       1.530
       1.274
       1.591
       2.514
       3.902
       5.490
       6.960
       8.031
       8.512
       8.314
       7.441
       5.980
       4.103
       2.057
       0.135
      -1.376
      -2.263
      -2.451
      -2.041
      -1.291
      -0.536
      -0.089
      -0.161
      -0.812
      -1.949
      -3.356
      -4.750
      -5.860
      -6.498
      -6.602
      -6.236
      -5.551
      -4.733
      -3.947
      -3.302
      -2.842
      -2.557
      -2.414
      -2.365
      -2.333
      -2.186
      -1.758
      -0.931
       0.259
       1.599
       2.771
       3.494
       3.658
       3.348
       2.787
       2.228
       1.884
       1.906
       2.369
       3.249
       4.408
       5.610
       6.591
       7.140
       7.138
       6.562
       5.460
       3.938
       2.176
       0.435
      -0.978
      -1.794
      -1.879
      -1.297
      -0.311
       0.690
       1.296
       1.202
       0.299
      -1.292
      -3.249
      -5.148
      -6.582
      -7.264
      -7.087
      -6.130
      -4.639
      -2.969
      -1.508
      -0.574
      -0.334
      -0.751
      -1.588
      -2.474
      -3.022
      -2.965
      -2.249
      -1.037
       0.365
       1.642
       2.605
       3.243
       3.691
       4.108
       4.572
       5.038
       5.376
       5.452
       5.214
       4.748
       4.253
       3.951
       3.975
       4.312
       4.833
       5.364
       5.765
       5.944
       5.831
       5.359
       4.489
       3.265
       1.843
       0.446
      -0.725
      -1.563
      -2.076
      -2.343
      -2.455
      -2.474
      -2.446
      -2.440
      -2.571
      -2.959
      -3.652
      -4.553
      -5.416
      -5.939
      -5.908
      -5.307
      -4.317
      -3.202
      -2.192
      -1.425
      -0.960
      -0.816
      -0.956
      -1.250
      -1.457
      -1.314
      -0.669
       0.402
       1.603
       2.560
       2.985
       2.778
       2.033
       0.970
      -0.149
      -1.081
      -1.643
      -1.742
      -1.394
      -0.734
       0.011
       0.583
       0.781
       0.522
      -0.159
      -1.164
      -2.392
      -3.744
      -5.079
      -6.177
      -6.798
      -6.782
      -6.141
      -5.060
      -3.816
      -2.682
      -1.843
      -1.363
      -1.199
      -1.231
      -1.312
      -1.326
      -1.222
      -1.020
      -0.770
      -0.509
      -0.250
       0.018
       0.310
       0.652
       1.046
       1.442
       1.721
       1.760
       1.527
       1.136
       0.819
       0.815
       1.240
       2.017
       2.904
       3.607
       3.917
       3.791
       3.349
       2.800
       2.332
       2.026
       1.824
       1.578
       1.154
       0.530
      -0.174
      -0.752
      -1.032
      -0.966
      -0.646
      -0.242
       0.073
       0.174
       0.010
      -0.375
      -0.829
      -1.134
      -1.081
      -0.577
       0.298
       1.333
       2.273
       2.903
       3.077
       2.706
       1.777
       0.405
      -1.131
      -2.440
      -3.158
      -3.106
      -2.370
      -1.246
      -0.098
       0.802
       1.345
       1.564
       1.548
       1.359
       0.997
       0.430
      -0.319
      -1.109
      -1.702
      -1.849
      -1.417
      -0.458
       0.798
       2.030
       2.945
       3.382
       3.347
       2.972
       2.426
       1.842
       1.288
       0.794
       0.392
       0.124
       0.015
       0.047
       0.178
       0.370
       0.598
       0.820
       0.954
       0.900
       0.611
       0.156
      -0.287
      -0.518
      -0.430
      -0.081
       0.342
       0.607
       0.533
       0.029
      -0.883
      -2.046
      -3.185
      -3.971
      -4.149
      -3.647
      -2.617
      -1.381
      -0.298
       0.389
       0.637
       0.569
       0.362
       0.123
      -0.136
      -0.442
      -0.769
      -1.015
      -1.060
      -0.841
      -0.386
       0.204
       0.802
       1.286
       1.556
       1.572
       1.363
       1.025
       0.669
       0.373
       0.156
       0.002
      -0.106
      -0.163
      -0.167
      -0.167
      -0.272
      -0.594
      -1.157
      -1.852
      -2.470
      -2.798
      -2.700
      -2.158
      -1.268
      -0.226
       0.704
       1.253
       1.244
       0.697
      -0.159
      -0.994
      -1.538
      -1.695
      -1.521
      -1.123
      -0.568
       0.134
       0.974
       1.882
       2.720
       3.318
       3.536
       3.327
       2.770
       2.063
       1.466
       1.208
       1.399
       2.010
       2.893
       3.840
       4.621
       5.039
       4.966
       4.386
       3.391
       2.141
       0.801
      -0.495
      -1.626
      -2.441
      -2.758
      -2.443
      -1.526
      -0.267
       0.897
       1.506
       1.279
       0.235
      -1.314
      -2.901
      -4.092
      -4.634
      -4.514
      -3.928
      -3.188
