Origin Time       4/2/2011 13:53:39	  UTC
Lat.              24.8 N	
Long.             94.6 E	
Depth (Km)         30.0
Magnitude         6.4
 Region           Myanmar-India-Border                                             
 Above details taken from IMD 
    
Station Code      GUW
Station Lat.       26.190  N
Station Long.      91.746  E
Station Height(m)   55.2
Site Class        C   Vs30 between 200 m/sec to 375 m/sec *  
Record Time       04.02.2011 13:53:43.419 UTC
Sampling Rate     200. Hz
 Record Duration  164.795 Sec.
 Direction         N-S (N positive)
Max. Acceleration     22.691 cm/sec**2
     
  * For reference see Site Classification link of website 
     
 Base Line Corrected and Low Pass Filtered (Cut Off at 35 Hz) Time History
 Acceleration data in cm/sec**2
    
[...]
      -1.297
       0.450
       2.460
       4.530
       6.415
       7.921
       8.992
       9.728
      10.311
      10.882
      11.440
      11.812
      11.721
      10.915
       9.332
       7.168
       4.787
       2.505
       0.409
      -1.659
      -3.946
      -6.570
      -9.408
     -12.134
     -14.369
     -15.830
     -16.391
     -16.042
     -14.826
     -12.834
     -10.263
      -7.432
      -4.690
      -2.275
      -0.249
       1.436
       2.829
       3.950
       4.855
       5.700
       6.697
       7.980
       9.485
      10.954
      12.085
      12.715
      12.918
      12.952
      13.099
      13.478
      13.936
      14.084
      13.489
      11.902
       9.404
       6.365
       3.242
       0.362
      -2.171
      -4.415
      -6.442
      -8.220
      -9.608
     -10.436
     -10.609
     -10.191
      -9.418
      -8.638
      -8.190
      -8.258
      -8.780
      -9.448
      -9.835
      -9.580
      -8.541
      -6.811
      -4.622
      -2.238
       0.080
       2.076
       3.531
       4.341
       4.571
       4.412
       4.059
       3.604
       3.009
       2.183
       1.076
      -0.267
      -1.720
      -3.141
      -4.430
      -5.538
      -6.422
      -6.980
      -7.050
      -6.503
      -5.360
      -3.836
      -2.257
      -0.907
       0.078
       0.708
       1.062
       1.221
       1.271
       1.332
       1.543
       1.980
       2.595
       3.255
       3.885
       4.543
       5.367
       6.404
       7.496
       8.299
       8.463
       7.850
       6.671
       5.409
       4.567
       4.406
       4.835
       5.508
       6.009
       6.004
       5.307
       3.881
       1.828
      -0.624
      -3.131
      -5.278
      -6.679
      -7.085
      -6.468
      -5.061
      -3.309
      -1.746
      -0.780
      -0.513
      -0.697
      -0.871
      -0.613
       0.265
       1.663
       3.302
       4.875
       6.140
       6.894
       6.930
       6.054
       4.203
       1.551
      -1.519
      -4.581
      -7.342
      -9.688
     -11.574
     -12.873
     -13.369
     -12.914
     -11.625
      -9.913
      -8.274
      -6.963
      -5.845
      -4.538
      -2.753
      -0.526
       1.845
       4.050
       5.972
       7.670
       9.228
      10.621
      11.704
      12.283
      12.219
      11.525
      10.421
       9.297
       8.546
       8.343
       8.507
       8.564
       8.006
       6.582
       4.412
       1.878
      -0.630
      -2.915
      -5.002
      -6.997
      -8.889
     -10.476
     -11.474
     -11.741
     -11.420
     -10.868
     -10.436
     -10.327
     -10.604
     -11.290
     -12.394
     -13.811
     -15.229
     -16.175
     -16.195
     -15.046
     -12.747
      -9.507
      -5.625
      -1.439
       2.694
       6.446
       9.619
      12.209
      14.353
      16.147
      17.489
      18.116
      17.834
      16.764
      15.346
      14.066
      13.125
      12.331
      11.288
       9.724
       7.707
       5.613
       3.916
       2.936
       2.696
       2.916
       3.114
       2.773
       1.534
      -0.653
      -3.486
      -6.415
      -8.842
     -10.344
     -10.811
     -10.441
      -9.613
      -8.726
      -8.080
      -7.818
      -7.879
      -7.991
      -7.759
      -6.872
      -5.295
      -3.282
      -1.194
       0.731
       2.462
       4.063
       5.483
       6.482
       6.766
       6.222
       5.037
       3.603
       2.285
       1.232
       0.357
      -0.541
      -1.632
      -2.972
      -4.536
      -6.273
      -8.098
      -9.849
     -11.264
     -12.060
     -12.051
     -11.199
      -9.578
      -7.344
      -4.769
      -2.261
      -0.277
       0.868
       1.166
       0.955
       0.781
       1.178
       2.436
       4.482
       6.912
       9.171
      10.790
      11.578
      11.664
      11.397
      11.175
      11.269
      11.709
      12.239
      12.414
      11.832
      10.376
       8.301
       6.091
       4.186
       2.796
       1.915
       1.424
       1.162
       0.916
       0.432
      -0.466
      -1.735
      -3.103
      -4.243
      -4.979
      -5.382
      -5.672
      -6.046
      -6.568
      -7.192
      -7.852
      -8.512
      -9.121
      -9.551
      -9.609
      -9.164
      -8.264
      -7.128
      -5.980
      -4.862
      -3.609
      -2.021
      -0.096
       1.863
       3.358
       3.954
       3.517
       2.314
       0.945
       0.116
       0.316
       1.543
       3.257
       4.646
       5.047
       4.277
       2.681
       0.899
      -0.440
      -0.944
      -0.547
       0.534
       1.896
       3.119
       3.932
       4.340
       4.602
       5.053
       5.854
       6.843
       7.597
       7.679
       6.923
       5.551
       4.048
       2.884
       2.264
       2.050
       1.872
       1.346
       0.304
      -1.098
      -2.451
      -3.324
      -3.508
      -3.123
      -2.527
      -2.119
      -2.140
      -2.588
      -3.251
      -3.844
      -4.178
      -4.256
      -4.233
      -4.294
      -4.527
      -4.905
      -5.351
      -5.791
      -6.152
      -6.332
      -6.207
      -5.715
      -4.918
      -4.004
      -3.179
      -2.553
      -2.087
      -1.664
      -1.187
      -0.649
      -0.085
       0.502
       1.173
       1.972
       2.815
       3.450
       3.558
       2.951
       1.730
       0.299
      -0.792
      -1.103
      -0.486
       0.875
       2.568
       4.122
       5.160
       5.521
       5.310
       4.841
       4.485
       4.480
       4.831
       5.355
       5.823
       6.089
       6.137
       6.023
       5.782
       5.349
       4.563
       3.269
       1.476
      -0.536
      -2.264
      -3.208
      -3.132
      -2.215
      -1.003
      -0.195
      -0.355
      -1.655
      -3.798
      -6.155
      -8.063
      -9.102
      -9.203
      -8.566
      -7.509
      -6.351
      -5.356
      -4.710
      -4.490
      -4.639
      -4.990
      -5.343
      -5.557
      -5.598
      -5.503
      -5.306
      -4.989
      -4.495
      -3.766
      -2.761
      -1.433
       0.273
       2.362
       4.701
       6.964
       8.672
       9.349
       8.750
       7.052
       4.876
       3.070
       2.322
       2.830
       4.250
       5.925
       7.220
       7.728
       7.300
       6.012
       4.133
       2.075
       0.260
      -1.067
      -1.944
      -2.610
      -3.278
      -3.962
      -4.499
      -4.734
      -4.673
      -4.459
      -4.209
      -3.895
      -3.377
      -2.556
      -1.501
      -0.440
       0.386
       0.871
       1.098
       1.255
       1.532
       2.048
       2.834
       3.807
       4.739
       5.269
       5.048
       3.949
       2.203
       0.290
      -1.328
      -2.435
      -3.068
      -3.354
      -3.374
      -3.182
      -2.906
      -2.761
      -2.954
      -3.563
      -4.530
      -5.742
      -7.099
      -8.493
      -9.742
     -10.583
     -10.768
     -10.180
      -8.870
      -6.985
      -4.685
      -2.135
       0.446
       2.789
       4.660
       5.974
       6.832
       7.428
       7.934
       8.427
       8.912
       9.347
       9.631
       9.573
       8.953
       7.691
       6.015
       4.467
       3.651
       3.893
       5.037
       6.537
       7.736
       8.167
       7.696
       6.516
       5.019
       3.624
       2.615
       2.034
       1.689
       1.265
       0.508
      -0.608
      -1.865
      -2.940
      -3.625
      -3.947
      -4.105
      -4.279
      -4.488
      -4.627
      -4.623
      -4.579
      -4.739
      -5.318
      -6.319
      -7.506
      -8.548
      -9.215
      -9.476
      -9.427
      -9.140
      -8.567
      -7.608
      -6.261
      -4.717
      -3.303
      -2.304
      -1.778
      -1.479
      -0.966
       0.145
       1.922
       4.022
       5.861
       6.928
       7.050
       6.415
       5.369
       4.193
       3.029
       1.963
       1.139
       0.729
       0.799
       1.176
       1.485
       1.346
       0.587
      -0.686
      -2.184
      -3.575
      -4.561
      -4.860
      -4.199
      -2.422
       0.320
       3.451
       6.142
       7.716
       8.041
       7.569
       6.998
       6.815
       7.039
       7.325
       7.275
       6.730
       5.842
       4.918
       4.188
       3.672
       3.223
       2.690
       2.051
       1.434
       1.034
       0.987
       1.283
       1.749
       2.092
       2.019
       1.374
       0.246
      -1.024
      -2.006
      -2.426
      -2.354
      -2.186
      -2.407
      -3.314
      -4.878
      -6.814
      -8.763
     -10.422
     -11.547
     -11.936
     -11.489
     -10.340
      -8.915
      -7.794
      -7.428
      -7.922
      -8.986
     -10.058
     -10.490
      -9.750
      -7.614
      -4.311
      -0.524
       2.832
       5.000
       5.731
       5.346
       4.491
       3.758
       3.457
       3.625
       4.204
       5.167
       6.495
       8.053
       9.523
      10.526
      10.859
      10.632
      10.167
       9.718
       9.259
       8.529
       7.277
       5.497
       3.472
       1.608
       0.226
      -0.542
      -0.738
      -0.532
      -0.230
      -0.270
      -1.071
      -2.772
      -5.035
      -7.118
      -8.219
      -7.901
      -6.310
      -4.081
      -1.999
      -0.645
      -0.215
      -0.551
      -1.308
      -2.123
      -2.728
      -2.973
      -2.825
      -2.343
      -1.656
      -0.911
      -0.212
       0.407
       0.957
       1.438
       1.781
       1.845
       1.487
       0.677
      -0.386
      -1.270
      -1.468
      -0.662
       1.069
       3.224
       5.097
       6.080
       5.881
       4.546
       2.375
      -0.164
      -2.490
      -4.012
      -4.344
      -3.518
      -2.017
      -0.537
       0.393
       0.692
       0.698
       0.870
       1.446
       2.288
       2.989
       3.150
       2.634
       1.668
       0.736
       0.330
       0.714
       1.829
       3.357
       4.860
       5.883
       6.015
       4.984
       2.805
      -0.110
      -3.013
      -5.096
      -5.836
      -5.217
      -3.701
      -2.008
      -0.840
      -0.682
      -1.711
      -3.772
      -6.387
      -8.839
     -10.377
     -10.517
      -9.289
      -7.224
      -5.048
      -3.287
      -2.084
      -1.304
      -0.791
      -0.505
      -0.494
      -0.778
      -1.280
      -1.843
      -2.292
      -2.491
      -2.365
      -1.894
      -1.077
       0.095
       1.624
       3.425
       5.244
       6.672
       7.318
       7.049
       6.109
       5.017
       4.292
       4.202
       4.673
       5.399
       6.027
       6.297
       6.089
       5.395
       4.277
       2.856
       1.322
      -0.045
      -0.884
      -0.839
       0.290
       2.406
       5.060
       7.527
       8.985
       8.759
       6.578
       2.739
      -1.890
      -6.109
      -8.801
      -9.373
      -7.991
      -5.491
      -2.987
      -1.397
      -1.143
      -2.136
      -3.968
      -6.129
      -8.148
      -9.658
     -10.422
     -10.348
      -9.476
      -7.962
      -6.026
      -3.905
      -1.805
       0.126
       1.769
       2.988
       3.614
       3.528
       2.794
       1.714
       0.714
       0.121
       0.025
       0.329
       0.908
       1.704
       2.664
       3.635
       4.341
       4.502
       3.975
       2.844
       1.402
       0.062
      -0.771
      -0.814
       0.009
       1.514
       3.258
       4.643
       5.123
       4.422
       2.630
       0.129
      -2.586
      -5.053
      -6.930
      -7.998
      -8.147
      -7.366
      -5.748
      -3.518
      -1.034
       1.282
       3.080
       4.223
       4.822
       5.119
       5.323
       5.516
       5.681
       5.792
       5.854
       5.872
       5.818
       5.646
       5.356
       5.029
       4.772
       4.625
       4.489
       4.166
       3.469
       2.340
       0.885
      -0.706
      -2.296
      -3.893
      -5.607
      -7.512
      -9.531
     -11.472
     -13.140
     -14.443
     -15.373
     -15.908
     -15.926
     -15.210
     -13.577
     -11.044
      -7.938
      -4.825
      -2.260
      -0.506
       0.603
       1.521
       2.699
       4.347
       6.412
       8.742
      11.235
      13.839
      16.398
      18.544
      19.774
      19.701
      18.262
      15.729
      12.536
       9.096
       5.725
       2.664
       0.093
      -1.937
      -3.562
      -5.066
      -6.744
      -8.737
     -10.952
     -13.086
     -14.760
     -15.708
     -15.912
     -15.576
     -14.933
     -14.020
     -12.653
     -10.602
      -7.829
      -4.589
      -1.325
       1.534
       3.745
       5.321
       6.500
       7.624
       8.976
      10.628
      12.396
      13.932
      14.910
      15.188
      14.848
      14.089
      13.079
      11.862
      10.384
       8.618
       6.667
       4.770
       3.198
       2.090
       1.372
       0.826
       0.253
      -0.417
      -1.193
      -2.180
      -3.658
      -5.972
      -9.267
     -13.278
     -17.306
     -20.448
     -21.985
     -21.692
     -19.900
     -17.256
     -14.370
     -11.592
      -9.027
      -6.706
      -4.677
      -2.960
      -1.474
      -0.054
       1.471
       3.263
       5.541
       8.565
      12.415
      16.701
      20.498
      22.691
      22.543
      20.101
      16.176
      11.924
       8.338
       5.940
       4.781
       4.607
       5.016
       5.521
       5.578
       4.682
       2.543
      -0.753
      -4.710
      -8.580
     -11.617
     -13.345
     -13.697
     -13.007
     -11.845
     -10.775
     -10.119
      -9.857
      -9.692
      -9.272
      -8.427
      -7.285
      -6.186
      -5.450
      -5.161
      -5.098
      -4.867
      -4.137
      -2.848
      -1.235
       0.331
       1.541
       2.277
       2.617
       2.756
       2.883
       3.076
       3.286
       3.441
       3.603
       4.049
       5.140
       7.011
       9.311
      11.250
      11.984
      11.082
       8.761
       5.744
       2.903
       0.922
       0.129
       0.487
       1.689
       3.272
       4.715
       5.520
       5.304
       3.897
       1.433
      -1.636
      -4.620
      -6.762
      -7.488
      -6.619
      -4.454
      -1.649
       1.035
       3.002
       3.977
       4.039
       3.507
       2.768
       2.138
       1.826
       1.972
       2.660
       3.865
       5.367
       6.741
       7.472
       7.166
       5.764
       3.614
       1.335
      -0.482
      -1.573
      -2.107
      -2.522
      -3.192
      -4.162
      -5.143
      -5.762
      -5.885
      -5.765
      -5.920
      -6.816
      -8.580
     -10.941
     -13.428
     -15.638
     -17.360
     -18.481
     -18.827
     -18.112
     -16.077
     -12.715
      -8.387
      -3.770
       0.357
       3.350
       4.897
       5.118
       4.548
       3.956
       4.022
       5.030
       6.741
       8.571
       9.947
      10.604
      10.621
      10.226
       9.594
       8.798
       7.909
       7.091
       6.560
       6.454
       6.731
       7.156
       7.394
       7.142
       6.255
       4.820
       3.112
       1.432
      -0.063
      -1.414
      -2.767
      -4.215
      -5.694
      -7.006
      -7.912
      -8.245
      -7.971
      -7.160
      -5.934
      -4.454
      -2.951
      -1.745
      -1.116
      -1.109
      -1.408
      -1.469
      -0.863
       0.435
       2.049
       3.486
       4.433
       4.832
       4.736
       4.148
       3.029
       1.426
      -0.417
      -2.114
      -3.283
      -3.678
      -3.238
      -2.089
      -0.534
       0.973
       1.927
       1.930
       0.872
      -0.974
      -2.986
      -4.410
      -4.679
      -3.699
      -1.943
      -0.250
       0.569
       0.122
      -1.407
      -3.417
      -5.238
      -6.451
      -6.969
      -6.877
      -6.233
      -5.024
      -3.279
      -1.187
       0.919
       2.698
       3.932
       4.589
       4.808
       4.837
       4.927
       5.207
       5.621
       5.987
       6.152
       6.119
       6.036
       6.047
       6.161
       6.236
       6.073
       5.539
       4.620
       3.426
       2.140
       0.973
       0.112
      -0.306
      -0.216
       0.357
       1.273
       2.271
       3.026
       3.247
       2.752
       1.492
      -0.467
      -2.922
      -5.485
      -7.594
      -8.666
      -8.341
      -6.660
      -4.046
      -1.135
       1.415
       3.053
       3.435
       2.539
       0.768
      -1.126
      -2.325
      -2.307
      -1.052
       1.024
       3.298
       5.159
       6.115
       5.838
       4.256
       1.655
      -1.310
      -3.811
      -5.177
      -5.184
      -4.134
      -2.662
      -1.421
      -0.818
      -0.934
      -1.620
      -2.651
      -3.834
      -4.999
      -5.921
      -6.299
      -5.879
      -4.653
      -2.966
      -1.395
      -0.483
      -0.494
      -1.301
      -2.420
      -3.182
      -3.036
      -1.857
      -0.064
       1.592
       2.462
       2.370
       1.645
       0.847
       0.410
       0.481
       0.983
       1.755
       2.613
       3.367
       3.862
       4.064
       4.056
       3.930
       3.667
       3.166
       2.405
       1.563
       0.938
       0.711
       0.766
       0.745
       0.325
      -0.541
      -1.596
      -2.470
      -2.909
      -2.884
      -2.560
      -2.168
      -1.884
      -1.734
      -1.609
      -1.377
      -1.031
      -0.742
      -0.744
      -1.109
      -1.590
      -1.688
      -0.933
       0.787
       3.093
       5.263
       6.586
       6.678
       5.593
       3.710
       1.519
      -0.541
      -2.139
      -3.046
      -3.134
      -2.445
      -1.229
       0.105
       1.168
       1.772
       1.976
       1.950
       1.773
       1.342
       0.486
      -0.796
      -2.195
      -3.154
      -3.155
      -2.040
      -0.166
       1.749
       3.001
       3.271
       2.714
       1.741
       0.684
      -0.375
      -1.499
      -2.660
      -3.598
      -3.928
      -3.401
      -2.116
      -0.493
       0.952
       1.876
       2.250
       2.296
       2.290
       2.369
       2.473
       2.429
       2.107
       1.525
       0.845
       0.294
       0.023
       0.013
       0.085
       0.047
      -0.118
      -0.200
       0.075
       0.775
       1.626
       2.147
       1.970
       1.093
      -0.110
      -1.096
      -1.445
      -1.051
      -0.163
       0.719
       1.066
       0.563
      -0.737
      -2.446
      -4.095
      -5.422
      -6.482
      -7.477
      -8.433
      -9.023
      -8.712
      -7.148
      -4.504
      -1.461
       1.166
       2.867
       3.618
       3.725
       3.512
       3.133
       2.593
       1.898
       1.185
       0.715
       0.760
       1.431
       2.551
       3.675
       4.269
       3.963
       2.736
       0.912
      -1.014
      -2.584
      -3.525
      -3.765
      -3.369
      -2.458
      -1.183
       0.227
       1.432
       2.029
       1.725
       0.547
