Origin Time       14/03/2010 6:53:21	
Lat.              31.7 N	
Long.             76.1 E	
Depth (Km)         29.0
Magnitude         4.6
 Region           HIMACHAL-PUNJAB-(HOSHIARPUR)-BORDER                              
 Above details taken from IMD 
     
Station Code      HAM
Station Lat.       31.691  N
Station Long.      76.520  E
Station Height(m)    1.0
Site Class        B   Vs30 between 375 m/sec to 700 m/sec *  
Record Time       14.03.2010 06:53:07.549
Sampling Rate     200. Hz
 Record Duration   80.400 Sec.
 Direction         E-W (E positive)
Max. Acceleration     -2.895 cm/sec**2
     
  * For reference see Site Classification link of website 
     
 Base Line Corrected and Low Pass Filtered (Cut Off at 35 Hz) Time History
 Acceleration data in cm/sec**2
    
[...]
      -0.190
      -0.247
      -0.232
      -0.159
      -0.064
       0.023
       0.085
       0.121
       0.137
       0.141
       0.131
       0.101
       0.045
      -0.035
      -0.117
      -0.163
      -0.139
      -0.043
       0.083
       0.173
       0.178
       0.100
      -0.014
      -0.102
      -0.127
      -0.099
      -0.054
      -0.027
      -0.026
      -0.027
      -0.001
       0.061
       0.135
       0.175
       0.144
       0.047
      -0.067
      -0.137
      -0.126
      -0.047
       0.049
       0.107
       0.099
       0.045
      -0.008
      -0.022
       0.004
       0.034
       0.029
      -0.023
      -0.093
      -0.136
      -0.120
      -0.052
       0.029
       0.077
       0.072
       0.034
       0.010
       0.040
       0.127
       0.227
       0.278
       0.242
       0.132
       0.004
      -0.080
      -0.095
      -0.061
      -0.030
      -0.042
      -0.096
      -0.158
      -0.187
      -0.167
      -0.117
      -0.077
      -0.079
      -0.128
      -0.204
      -0.269
      -0.297
      -0.277
      -0.211
      -0.107
       0.019
       0.140
       0.220
       0.238
       0.192
       0.104
       0.010
      -0.058
      -0.079
      -0.054
       0.004
       0.067
       0.111
       0.118
       0.087
       0.039
      -0.001
      -0.017
      -0.015
      -0.015
      -0.030
      -0.061
      -0.094
      -0.111
      -0.101
      -0.066
      -0.016
       0.035
       0.075
       0.093
       0.087
       0.062
       0.028
      -0.001
      -0.015
      -0.011
       0.005
       0.019
       0.017
      -0.013
      -0.067
      -0.123
      -0.150
      -0.121
      -0.035
       0.073
       0.151
       0.156
       0.087
      -0.019
      -0.103
      -0.121
      -0.069
       0.022
       0.105
       0.147
       0.137
       0.085
       0.012
      -0.056
      -0.100
      -0.115
      -0.107
      -0.086
      -0.063
      -0.044
      -0.031
      -0.021
      -0.010
       0.005
       0.024
       0.042
       0.051
       0.048
       0.031
       0.005
      -0.019
      -0.029
      -0.018
       0.010
       0.050
       0.089
       0.117
       0.122
       0.093
       0.030
      -0.051
      -0.126
      -0.172
      -0.183
      -0.169
      -0.146
      -0.123
      -0.097
      -0.056
       0.005
       0.083
       0.153
       0.182
       0.151
       0.069
      -0.027
      -0.088
      -0.079
      -0.004
       0.096
       0.165
       0.173
       0.131
       0.079
       0.052
       0.046
       0.026
      -0.046
      -0.173
      -0.316
      -0.415
      -0.426
      -0.348
      -0.218
      -0.081
       0.036
       0.126
       0.202
       0.270
       0.319
       0.324
       0.264
       0.144
      -0.001
      -0.124
      -0.190
      -0.190
      -0.146
      -0.090
      -0.045
      -0.019
      -0.009
      -0.010
      -0.024
      -0.045
      -0.065
      -0.072
      -0.059
      -0.031
      -0.003
       0.013
       0.019
       0.033
       0.075
       0.144
       0.220
       0.269
       0.262
       0.195
       0.088
      -0.022
      -0.106
      -0.158
      -0.194
      -0.240
      -0.310
      -0.398
      -0.470
      -0.486
      -0.414
      -0.261
      -0.075
       0.080
       0.150
       0.128
       0.054
      -0.012
      -0.018
       0.052
       0.181
       0.325
       0.438
       0.482
       0.445
       0.345
       0.215
       0.085
      -0.042
      -0.180
      -0.335
      -0.480
      -0.561
      -0.531
      -0.389
      -0.190
      -0.013
       0.079
       0.077
       0.022
      -0.019
       0.005
       0.105
       0.244
       0.357
       0.387
       0.321
       0.202
       0.107
       0.090
       0.153
       0.237
       0.270
       0.212
       0.081
      -0.069
      -0.188
      -0.254
      -0.278
      -0.283
      -0.279
      -0.261
      -0.222
      -0.160
      -0.081
       0.008
       0.104
       0.201
       0.284
       0.333
       0.330
       0.263
       0.134
      -0.036
      -0.205
      -0.321
      -0.344
      -0.267
      -0.118
       0.049
       0.181
       0.242
       0.225
       0.142
       0.013
      -0.139
      -0.285
      -0.394
      -0.437
      -0.401
      -0.293
      -0.134
       0.039
       0.185
       0.274
       0.295
       0.259
       0.185
       0.083
      -0.040
      -0.170
      -0.278
      -0.326
      -0.289
      -0.172
      -0.008
       0.155
       0.278
       0.337
       0.323
       0.239
       0.104
      -0.040
      -0.139
      -0.154
      -0.092
      -0.004
       0.052
       0.044
      -0.011
      -0.071
      -0.106
      -0.115
      -0.124
      -0.161
      -0.222
      -0.267
      -0.246
      -0.133
       0.042
       0.205
       0.275
       0.222
       0.085
      -0.050
      -0.101
      -0.043
       0.089
       0.216
       0.264
       0.207
       0.072
      -0.084
      -0.205
      -0.265
      -0.272
      -0.250
      -0.219
      -0.180
      -0.119
      -0.019
       0.113
       0.243
       0.322
       0.314
       0.219
       0.075
      -0.061
      -0.146
      -0.169
      -0.141
      -0.086
      -0.024
       0.027
       0.044
       0.010
      -0.077
      -0.185
      -0.268
      -0.281
      -0.207
      -0.065
       0.098
       0.226
       0.279
       0.251
       0.168
       0.075
       0.011
      -0.011
      -0.008
      -0.010
      -0.041
      -0.098
      -0.158
      -0.181
      -0.128
       0.008
       0.188
       0.330
       0.349
       0.212
      -0.038
      -0.295
      -0.447
      -0.431
      -0.270
      -0.054
       0.115
       0.181
       0.153
       0.085
       0.031
       0.011
       0.004
      -0.024
      -0.081
      -0.137
      -0.147
      -0.090
       0.005
       0.079
       0.086
       0.029
      -0.043
      -0.070
      -0.033
       0.029
       0.053
       0.005
      -0.086
      -0.148
      -0.128
      -0.026
       0.101
       0.186
       0.199
       0.163
       0.127
       0.127
       0.158
       0.180
       0.146
       0.040
      -0.119
      -0.279
      -0.383
      -0.404
      -0.347
      -0.241
      -0.112
       0.028
       0.175
       0.316
       0.427
       0.477
       0.449
       0.348
       0.199
       0.034
      -0.120
      -0.236
      -0.298
      -0.301
      -0.260
      -0.195
      -0.122
      -0.046
       0.022
       0.061
       0.043
      -0.040
      -0.156
      -0.254
      -0.298
      -0.295
      -0.277
      -0.268
      -0.257
      -0.213
      -0.111
       0.039
       0.201
       0.332
       0.405
       0.403
       0.321
       0.161
      -0.056
      -0.281
      -0.449
      -0.501
      -0.411
      -0.202
       0.054
       0.268
       0.371
       0.344
       0.220
       0.051
      -0.116
      -0.257
      -0.363
      -0.433
      -0.464
      -0.442
      -0.351
      -0.180
       0.056
       0.312
       0.521
       0.621
       0.587
       0.443
       0.251
       0.078
      -0.039
      -0.098
      -0.118
      -0.119
      -0.100
      -0.055
       0.018
       0.096
       0.142
       0.127
       0.055
      -0.033
      -0.087
      -0.089
      -0.066
      -0.072
      -0.144
      -0.257
      -0.332
      -0.288
      -0.117
       0.104
       0.256
       0.267
       0.159
       0.034
      -0.007
       0.065
       0.195
       0.290
       0.287
       0.185
       0.029
      -0.121
      -0.218
      -0.248
      -0.227
      -0.190
      -0.176
      -0.193
      -0.223
      -0.237
      -0.229
      -0.215
      -0.212
      -0.208
      -0.165
      -0.057
       0.104
       0.265
       0.367
       0.384
       0.332
       0.252
       0.186
       0.151
       0.145
       0.151
       0.148
       0.127
       0.097
       0.077
       0.075
       0.068
       0.008
      -0.134
      -0.328
      -0.492
      -0.543
      -0.458
      -0.286
      -0.114
      -0.003
       0.042
       0.057
       0.077
       0.114
       0.164
       0.220
       0.275
       0.303
       0.270
       0.152
      -0.030
      -0.219
      -0.348
      -0.386
      -0.350
      -0.282
      -0.216
      -0.161
      -0.113
      -0.067
      -0.032
      -0.013
      -0.009
      -0.012
      -0.017
      -0.024
      -0.036
      -0.057
      -0.080
      -0.090
      -0.068
      -0.003
       0.103
       0.217
       0.291
       0.282
       0.193
       0.086
       0.046
       0.115
       0.253
       0.355
       0.331
       0.168
      -0.055
      -0.230
      -0.295
      -0.269
      -0.217
      -0.186
      -0.164
      -0.106
       0.008
       0.142
       0.221
       0.184
       0.045
      -0.103
      -0.153
      -0.056
       0.137
       0.308
       0.357
       0.257
       0.071
      -0.093
      -0.148
      -0.082
       0.046
       0.140
       0.136
       0.030
      -0.127
      -0.263
      -0.329
      -0.319
      -0.257
      -0.172
      -0.081
       0.004
       0.069
       0.091
       0.061
       0.003
      -0.036
      -0.016
       0.056
       0.122
       0.120
       0.037
      -0.079
      -0.152
      -0.144
      -0.085
      -0.043
      -0.067
      -0.146
      -0.221
      -0.231
      -0.163
      -0.063
      -0.003
      -0.034
      -0.146
      -0.275
      -0.334
      -0.272
      -0.101
       0.105
       0.261
       0.317
       0.283
       0.205
       0.128
       0.076
       0.055
       0.071
       0.138
       0.254
       0.377
       0.439
       0.395
       0.256
       0.088
      -0.045
      -0.135
      -0.222
      -0.351
      -0.514
      -0.644
      -0.659
      -0.526
      -0.287
      -0.035
       0.142
       0.214
       0.201
       0.151
       0.096
       0.040
      -0.028
      -0.099
      -0.138
      -0.095
       0.053
       0.275
       0.486
       0.588
       0.531
       0.342
       0.118
      -0.037
      -0.072
      -0.019
       0.048
       0.060
       0.003
      -0.084
      -0.148
      -0.155
      -0.113
      -0.053
      -0.015
      -0.020
      -0.059
      -0.097
      -0.087
      -0.006
       0.120
       0.230
       0.269
       0.232
       0.166
       0.126
       0.132
       0.158
       0.164
       0.137
       0.108
       0.121
       0.192
       0.290
       0.362
       0.373
       0.322
       0.246
       0.192
       0.195
       0.262
       0.371
       0.487
       0.569
       0.588
       0.529
       0.402
       0.238
       0.085
      -0.013
      -0.026
       0.043
       0.164
       0.285
       0.362
       0.372
       0.320
       0.234
       0.146
       0.086
       0.068
       0.089
       0.139
       0.215
       0.323
       0.448
       0.534
       0.488
       0.237
      -0.212
      -0.751
      -1.221
      -1.503
      -1.579
      -1.514
      -1.401
      -1.301
      -1.239
      -1.208
      -1.185
      -1.135
      -1.012
      -0.795
      -0.506
      -0.215
       0.005
       0.129
       0.191
       0.244
       0.299
       0.315
       0.230
       0.014
      -0.310
      -0.679
      -1.035
      -1.343
      -1.591
      -1.767
      -1.852
      -1.829
      -1.694
      -1.457
      -1.144
      -0.789
      -0.432
      -0.113
       0.148
       0.356
       0.526
       0.670
       0.790
       0.884
       0.968
       1.062
       1.177
       1.292
       1.363
       1.350
       1.245
       1.072
       0.865
       0.651
       0.450
       0.282
       0.163
       0.095
       0.055
       0.006
      -0.081
      -0.213
      -0.375
      -0.550
      -0.724
      -0.876
      -0.965
      -0.934
      -0.739
      -0.388
       0.058
       0.518
       0.942
       1.331
       1.713
       2.081
       2.378
       2.515
       2.436
       2.157
       1.753
       1.304
       0.846
       0.365
      -0.170
      -0.754
      -1.340
      -1.851
      -2.225
      -2.420
      -2.424
      -2.245
      -1.918
      -1.496
      -1.033
      -0.555
      -0.060
       0.463
       1.014
       1.556
       2.021
       2.325
       2.401
       2.241
       1.904
       1.490
       1.084
       0.705
       0.312
      -0.151
      -0.694
      -1.259
      -1.747
      -2.071
      -2.204
      -2.176
      -2.040
      -1.837
      -1.572
      -1.235
      -0.828
      -0.386
       0.040
       0.411
       0.724
       0.999
       1.244
       1.438
       1.538
       1.524
       1.428
       1.329
       1.291
       1.307
       1.289
       1.137
       0.808
       0.354
      -0.117
      -0.520
      -0.849
      -1.161
      -1.508
      -1.869
      -2.154
      -2.254
      -2.114
      -1.758
      -1.268
      -0.735
      -0.223
       0.242
       0.655
       1.016
       1.322
       1.566
       1.735
       1.816
       1.795
       1.669
       1.440
       1.111
       0.695
       0.219
      -0.282
      -0.773
      -1.234
      -1.649
      -1.990
      -2.221
      -2.302
      -2.215
      -1.974
      -1.630
      -1.238
      -0.830
      -0.408
       0.037
       0.495
       0.933
       1.314
       1.628
       1.898
       2.158
       2.411
       2.616
       2.699
       2.592
       2.263
       1.728
       1.037
       0.261
      -0.537
      -1.299
      -1.975
      -2.504
      -2.825
      -2.895
      -2.711
      -2.311
      -1.758
      -1.119
      -0.448
       0.222
       0.868
       1.463
       1.967
       2.333
       2.529
       2.546
       2.393
       2.084
       1.636
       1.076
       0.454
      -0.164
      -0.715
      -1.161
      -1.493
      -1.708
      -1.795
      -1.729
      -1.489
      -1.083
      -0.567
      -0.032
       0.427
       0.755
       0.955
       1.064
       1.125
       1.152
       1.129
       1.027
       0.830
       0.553
       0.244
      -0.041
      -0.267
      -0.434
      -0.557
      -0.658
      -0.747
      -0.824
      -0.878
      -0.894
      -0.853
      -0.741
      -0.564
      -0.351
      -0.147
       0.016
       0.128
       0.204
       0.251
       0.256
       0.183
       0.002
      -0.293
      -0.669
      -1.065
      -1.408
      -1.634
      -1.714
      -1.653
      -1.484
      -1.237
      -0.927
      -0.558
      -0.154
       0.226
       0.507
       0.639
       0.629
       0.540
       0.446
       0.386
       0.343
       0.274
       0.145
      -0.039
      -0.238
      -0.404
      -0.500
      -0.511
      -0.438
      -0.294
      -0.097
       0.140
       0.403
       0.683
       0.972
       1.270
       1.567
       1.844
       2.064
       2.186
       2.174
       2.011
       1.703
       1.274
       0.767
       0.236
      -0.266
      -0.699
      -1.040
      -1.291
      -1.454
      -1.527
      -1.488
      -1.309
      -0.975
      -0.499
       0.068
       0.649
       1.167
       1.575
       1.850
       1.983
       1.965
       1.793
       1.478
       1.053
       0.560
       0.043
      -0.461
      -0.930
      -1.350
      -1.725
      -2.057
      -2.336
      -2.535
      -2.618
      -2.554
      -2.341
      -1.995
      -1.539
      -0.990
      -0.368
       0.283
       0.881
       1.330
       1.556
       1.547
       1.360
       1.090
       0.815
       0.563
       0.311
       0.024
      -0.312
      -0.664
      -0.968
      -1.167
      -1.242
      -1.220
      -1.147
      -1.053
      -0.935
      -0.763
      -0.504
      -0.147
       0.287
       0.749
       1.184
       1.548
       1.820
       1.995
       2.074
       2.051
       1.909
       1.641
       1.264
       0.833
       0.429
       0.121
      -0.058
      -0.127
      -0.137
      -0.135
      -0.138
      -0.132
      -0.094
      -0.009
       0.120
       0.279
       0.457
       0.645
       0.839
       1.023
       1.164
       1.223
       1.165
       0.989
       0.732
       0.448
       0.180
      -0.068
      -0.320
      -0.602
      -0.909
      -1.203
      -1.437
      -1.590
      -1.671
      -1.703
      -1.699
      -1.649
      -1.533
      -1.342
      -1.094
      -0.825
      -0.568
      -0.345
      -0.163
      -0.027
       0.056
       0.076
       0.028
      -0.086
      -0.248
      -0.420
      -0.558
      -0.629
      -0.634
      -0.616
      -0.631
      -0.709
      -0.826
      -0.908
      -0.879
      -0.706
      -0.426
      -0.114
       0.151
       0.331
       0.429
       0.478
       0.512
       0.544
       0.566
       0.555
       0.495
       0.388
       0.268
       0.184
       0.178
       0.250
       0.351
       0.412
       0.389
       0.294
       0.188
       0.133
       0.156
       0.231
       0.311
       0.369
       0.413
       0.470
       0.555
       0.656
       0.738
       0.776
       0.767
       0.733
       0.697
       0.665
       0.611
       0.509
       0.353
       0.171
       0.007
      -0.112
      -0.190
      -0.248
      -0.298
      -0.325
      -0.305
      -0.229
      -0.113
       0.020
       0.162
       0.322
       0.512
       0.717
       0.891
       0.976
       0.931
       0.755
       0.491
       0.197
      -0.076
      -0.305
      -0.488
      -0.633
      -0.739
      -0.801
      -0.810
      -0.771
      -0.700
      -0.610
      -0.503
      -0.378
      -0.238
      -0.099
       0.029
       0.142
       0.244
       0.332
       0.394
       0.414
       0.389
       0.334
       0.266
       0.195
       0.107
      -0.019
      -0.201
      -0.435
      -0.691
      -0.917
      -1.059
      -1.083
      -0.986
      -0.800
      -0.571
      -0.335
      -0.106
       0.118
       0.340
       0.539
       0.682
       0.737
       0.702
       0.601
       0.471
       0.349
       0.257
       0.197
       0.156
       0.126
       0.108
       0.111
       0.135
       0.163
       0.163
       0.113
       0.016
      -0.088
      -0.149
      -0.132
      -0.041
       0.092
       0.233
       0.354
       0.440
       0.483
       0.481
       0.441
       0.374
       0.288
       0.176
       0.023
      -0.177
      -0.398
      -0.587
      -0.690
      -0.686
      -0.602
      -0.498
      -0.423
      -0.401
      -0.423
      -0.464
      -0.493
      -0.484
      -0.424
      -0.323
      -0.211
      -0.115
      -0.046
       0.011
       0.071
       0.134
       0.166
       0.120
      -0.040
      -0.307
      -0.627
      -0.917
      -1.101
      -1.153
      -1.099
      -0.980
      -0.823
      -0.625
      -0.375
      -0.082
       0.211
       0.437
       0.542
       0.515
       0.399
       0.270
       0.196
       0.198
       0.248
       0.300
       0.324
       0.324
       0.315
       0.296
       0.247
       0.147
      -0.001
      -0.167
      -0.303
      -0.367
      -0.340
      -0.238
      -0.103
       0.026
       0.138
       0.259
       0.420
       0.621
       0.812
       0.926
       0.927
       0.842
       0.739
       0.671
       0.637
       0.596
       0.511
       0.390
       0.276
       0.213
       0.205
       0.219
