Origin Time       14/03/2010 6:53:21	
Lat.              31.7 N	
Long.             76.1 E	
Depth (Km)         29.0
Magnitude         4.6
 Region           HIMACHAL-PUNJAB-(HOSHIARPUR)-BORDER                              
 Above details taken from IMD 
   
Station Code      HAM
Station Lat.       31.691
Station Long.      76.520
Station Height(m)    1.0
Site Class        B   Vs30 between 375 m/sec to 700 m/sec *  
Record Time       14.03.2010 06:53:07.549
Sampling Rate     200. Hz
 Record Duration   80.400 Sec.
 Direction         Vert. (Up positive)
Max. Acceleration     -1.956 cm/sec**2
     
  * For reference see Site Classification link of website 
     
 Base Line Corrected and Low Pass Filtered (Cut Off at 35 Hz) Time History
 Acceleration data in cm/sec**2
    
[...]
      -0.216
      -0.256
      -0.250
      -0.180
      -0.097
      -0.079
      -0.159
      -0.286
      -0.343
      -0.233
       0.055
       0.427
       0.732
       0.842
       0.714
       0.405
       0.035
      -0.283
      -0.484
      -0.556
      -0.511
      -0.361
      -0.130
       0.134
       0.352
       0.452
       0.405
       0.243
       0.041
      -0.113
      -0.154
      -0.066
       0.114
       0.310
       0.435
       0.426
       0.272
       0.018
      -0.256
      -0.479
      -0.618
      -0.670
      -0.635
      -0.499
      -0.254
       0.078
       0.426
       0.683
       0.751
       0.591
       0.267
      -0.070
      -0.252
      -0.199
       0.022
       0.240
       0.280
       0.073
      -0.299
      -0.657
      -0.822
      -0.715
      -0.397
      -0.031
       0.224
       0.309
       0.284
       0.260
       0.301
       0.380
       0.410
       0.320
       0.115
      -0.119
      -0.263
      -0.244
      -0.082
       0.120
       0.242
       0.216
       0.068
      -0.108
      -0.210
      -0.186
      -0.077
       0.016
       0.006
      -0.110
      -0.242
      -0.272
      -0.131
       0.149
       0.453
       0.634
       0.593
       0.332
      -0.045
      -0.382
      -0.555
      -0.528
      -0.362
      -0.171
      -0.060
      -0.071
      -0.162
      -0.238
      -0.214
      -0.075
       0.120
       0.277
       0.337
       0.298
       0.211
       0.136
       0.102
       0.090
       0.066
       0.012
      -0.059
      -0.121
      -0.167
      -0.206
      -0.244
      -0.262
      -0.216
      -0.069
       0.176
       0.460
       0.678
       0.724
       0.548
       0.194
      -0.208
      -0.501
      -0.582
      -0.455
      -0.226
      -0.047
      -0.030
      -0.189
      -0.425
      -0.581
      -0.526
      -0.235
       0.198
       0.601
       0.803
       0.721
       0.392
      -0.045
      -0.421
      -0.605
      -0.556
      -0.331
      -0.043
       0.201
       0.346
       0.401
       0.408
       0.402
       0.396
       0.376
       0.318
       0.206
       0.047
      -0.123
      -0.264
      -0.349
      -0.377
      -0.362
      -0.321
      -0.263
      -0.194
      -0.118
      -0.038
       0.036
       0.086
       0.096
       0.069
       0.031
       0.008
       0.014
       0.039
       0.063
       0.078
       0.092
       0.134
       0.221
       0.336
       0.417
       0.383
       0.194
      -0.109
      -0.414
      -0.594
      -0.578
      -0.390
      -0.132
       0.073
       0.153
       0.122
       0.057
       0.039
       0.098
       0.193
       0.242
       0.178
      -0.002
      -0.224
      -0.361
      -0.316
      -0.085
       0.223
       0.454
       0.500
       0.361
       0.133
      -0.074
      -0.206
      -0.287
      -0.378
      -0.509
      -0.654
      -0.746
      -0.728
      -0.580
      -0.321
      -0.008
       0.276
       0.446
       0.466
       0.370
       0.255
       0.220
       0.301
       0.440
       0.514
       0.419
       0.159
      -0.143
      -0.317
      -0.262
      -0.019
       0.249
       0.363
       0.236
      -0.072
      -0.398
      -0.573
      -0.527
      -0.327
      -0.116
      -0.011
      -0.022
      -0.073
      -0.061
       0.066
       0.273
       0.460
       0.511
       0.359
       0.030
      -0.362
      -0.656
      -0.721
      -0.511
      -0.094
       0.377
       0.728
       0.837
       0.685
       0.362
       0.013
      -0.237
      -0.346
      -0.363
      -0.376
      -0.438
      -0.517
      -0.516
      -0.340
       0.019
       0.446
       0.752
       0.780
       0.509
       0.081
      -0.266
      -0.333
      -0.087
       0.314
       0.607
       0.585
       0.223
      -0.311
      -0.748
      -0.869
      -0.616
      -0.117
       0.390
       0.674
       0.629
       0.317
      -0.073
      -0.335
      -0.358
      -0.180
       0.049
       0.169
       0.121
      -0.024
      -0.112
      -0.017
       0.274
       0.632
       0.851
       0.761
       0.325
      -0.342
      -1.024
      -1.488
      -1.570
      -1.226
      -0.560
       0.221
       0.892
       1.311
       1.447
       1.338
       1.033
       0.571
       0.000
      -0.600
      -1.114
      -1.416
      -1.417
      -1.116
      -0.605
      -0.033
       0.464
       0.790
       0.894
       0.772
       0.482
       0.129
      -0.175
      -0.365
      -0.435
      -0.417
      -0.356
      -0.287
      -0.232
      -0.187
      -0.131
      -0.039
       0.099
       0.263
       0.404
       0.473
       0.451
       0.374
       0.311
       0.311
       0.360
       0.378
       0.270
      -0.009
      -0.397
      -0.747
      -0.901
      -0.793
      -0.492
      -0.152
       0.100
       0.236
       0.303
       0.338
       0.303
       0.114
      -0.264
      -0.738
      -1.103
      -1.152
      -0.805
      -0.176
       0.482
       0.904
       0.949
       0.663
       0.225
      -0.159
      -0.355
      -0.330
      -0.138
       0.116
       0.320
       0.400
       0.351
       0.222
       0.074
      -0.063
      -0.201
      -0.354
      -0.496
      -0.548
      -0.426
      -0.114
       0.296
       0.623
       0.689
       0.415
      -0.112
      -0.657
      -0.939
      -0.779
      -0.198
       0.577
       1.214
       1.436
       1.157
       0.512
      -0.216
      -0.748
      -0.934
      -0.792
      -0.470
      -0.147
       0.044
       0.070
      -0.015
      -0.107
      -0.104
       0.047
       0.331
       0.660
       0.888
       0.852
       0.459
      -0.232
      -0.983
      -1.470
      -1.439
      -0.853
       0.071
       0.962
       1.472
       1.459
       1.047
       0.531
       0.186
       0.100
       0.142
       0.087
      -0.211
      -0.694
      -1.129
      -1.254
      -0.959
      -0.370
       0.217
       0.524
       0.445
       0.092
      -0.284
      -0.443
      -0.296
       0.055
       0.402
       0.569
       0.507
       0.295
       0.067
      -0.059
      -0.028
       0.146
       0.380
       0.554
       0.557
       0.330
      -0.096
      -0.608
      -1.051
      -1.292
      -1.283
      -1.063
      -0.716
      -0.308
       0.130
       0.575
       0.961
       1.181
       1.136
       0.827
       0.383
      -0.014
      -0.246
      -0.325
      -0.353
      -0.411
      -0.490
      -0.502
      -0.369
      -0.100
       0.201
       0.408
       0.452
       0.352
       0.179
      -0.010
      -0.200
      -0.407
      -0.644
      -0.873
      -0.996
      -0.903
      -0.544
       0.009
       0.598
       1.053
       1.274
       1.239
       0.988
       0.599
       0.165
      -0.226
      -0.515
      -0.675
      -0.690
      -0.539
      -0.215
       0.237
       0.690
       0.970
       0.937
       0.581
       0.040
      -0.473
      -0.796
      -0.891
      -0.839
      -0.758
      -0.711
      -0.674
      -0.563
      -0.311
       0.079
       0.519
       0.872
       1.018
       0.903
       0.567
       0.134
      -0.235
      -0.410
      -0.369
      -0.213
      -0.099
      -0.130
      -0.273
      -0.385
      -0.318
      -0.028
       0.388
       0.755
       0.920
       0.835
       0.562
       0.215
      -0.117
      -0.396
      -0.612
      -0.730
      -0.697
      -0.489
      -0.174
       0.106
       0.227
       0.183
       0.093
       0.116
       0.319
       0.622
       0.848
       0.836
       0.536
       0.050
      -0.430
      -0.719
      -0.736
      -0.533
      -0.262
      -0.074
      -0.044
      -0.134
      -0.234
      -0.248
      -0.138
       0.059
       0.260
       0.368
       0.304
       0.059
      -0.283
      -0.565
      -0.632
      -0.430
      -0.041
       0.358
       0.592
       0.592
       0.424
       0.235
       0.147
       0.182
       0.276
       0.329
       0.277
       0.107
      -0.137
      -0.382
      -0.551
      -0.593
      -0.497
      -0.290
      -0.030
       0.206
       0.346
       0.359
       0.274
       0.165
       0.095
       0.082
       0.086
       0.045
      -0.082
      -0.282
      -0.488
      -0.608
      -0.574
      -0.374
      -0.059
       0.266
       0.486
       0.531
       0.426
       0.280
       0.215
       0.277
       0.380
       0.366
       0.122
      -0.305
      -0.722
      -0.908
      -0.768
      -0.374
       0.095
       0.477
       0.683
       0.702
       0.571
       0.362
       0.187
       0.157
       0.313
       0.574
       0.754
       0.665
       0.228
      -0.462
      -1.163
      -1.604
      -1.618
      -1.226
      -0.609
       0.009
       0.468
       0.726
       0.823
       0.822
       0.754
       0.600
       0.336
       0.003
      -0.279
      -0.387
      -0.307
      -0.167
      -0.144
      -0.316
      -0.588
      -0.760
      -0.672
      -0.330
       0.096
       0.374
       0.372
       0.135
      -0.155
      -0.313
      -0.256
      -0.023
       0.286
       0.568
       0.751
       0.796
       0.698
       0.491
       0.247
       0.062
       0.009
       0.073
       0.134
       0.028
      -0.340
      -0.897
      -1.414
      -1.627
      -1.399
      -0.806
      -0.108
       0.413
       0.625
       0.601
       0.529
       0.544
       0.620
       0.607
       0.373
      -0.060
      -0.492
      -0.654
      -0.395
       0.190
       0.794
       1.081
       0.884
       0.283
      -0.469
      -1.090
      -1.381
      -1.268
      -0.795
      -0.101
       0.605
       1.093
       1.183
       0.831
       0.170
      -0.531
      -0.991
      -1.052
      -0.745
      -0.257
       0.196
       0.490
       0.643
       0.746
       0.838
       0.837
       0.605
       0.093
      -0.559
      -1.085
      -1.264
      -1.067
      -0.662
      -0.279
      -0.049
       0.060
       0.183
       0.411
       0.708
       0.942
       1.006
       0.920
       0.796
       0.718
       0.639
       0.413
      -0.066
      -0.746
      -1.405
      -1.773
      -1.691
      -1.196
      -0.498
       0.135
       0.503
       0.564
       0.426
       0.274
       0.268
       0.455
       0.759
       1.020
       1.082
       0.878
       0.475
       0.043
      -0.241
      -0.284
      -0.118
       0.126
       0.282
       0.231
      -0.047
      -0.451
      -0.805
      -0.959
      -0.876
      -0.646
      -0.400
      -0.210
      -0.068
       0.055
       0.136
       0.116
      -0.033
      -0.258
      -0.449
      -0.499
      -0.352
      -0.027
       0.392
       0.778
       0.992
       0.942
       0.622
       0.141
      -0.309
      -0.538
      -0.470
      -0.175
       0.171
       0.407
       0.470
       0.413
       0.334
       0.282
       0.202
      -0.026
      -0.474
      -1.058
      -1.536
      -1.642
      -1.265
      -0.542
       0.203
       0.638
       0.614
       0.242
      -0.184
      -0.366
      -0.179
       0.277
       0.747
       0.976
       0.837
       0.388
      -0.170
      -0.585
      -0.674
      -0.389
       0.150
       0.704
       1.003
       0.870
       0.329
      -0.379
      -0.911
      -1.025
      -0.734
      -0.276
       0.088
       0.265
       0.365
       0.548
       0.844
       1.105
       1.112
       0.748
       0.101
      -0.586
      -1.051
      -1.146
      -0.877
      -0.358
       0.257
       0.821
       1.198
       1.280
       1.019
       0.479
      -0.173
      -0.717
      -0.983
      -0.915
      -0.587
      -0.164
       0.173
       0.302
       0.215
       0.024
      -0.120
      -0.119
       0.017
       0.209
       0.370
       0.450
       0.432
       0.322
       0.143
      -0.067
      -0.267
      -0.422
      -0.491
      -0.433
      -0.233
       0.064
       0.357
       0.548
       0.604
       0.563
       0.493
       0.423
       0.323
       0.137
      -0.150
      -0.469
      -0.700
      -0.749
      -0.614
      -0.388
      -0.198
      -0.130
      -0.191
      -0.315
      -0.411
      -0.408
      -0.284
      -0.060
       0.225
       0.520
       0.746
       0.790
       0.573
       0.136
      -0.331
      -0.585
      -0.498
      -0.164
       0.162
       0.235
       0.000
      -0.375
      -0.630
      -0.612
      -0.385
      -0.185
      -0.233
      -0.574
      -1.046
      -1.388
      -1.403
      -1.077
      -0.575
      -0.134
       0.087
       0.091
       0.016
       0.015
       0.156
       0.411
       0.704
       0.955
       1.084
       1.018
       0.731
       0.289
      -0.146
      -0.383
      -0.314
       0.001
       0.339
       0.429
       0.131
      -0.453
      -1.007
      -1.198
      -0.899
      -0.279
       0.312
       0.577
       0.461
       0.165
      -0.013
       0.122
       0.555
       1.101
       1.523
       1.650
       1.431
       0.918
       0.229
      -0.486
      -1.066
      -1.378
      -1.369
      -1.119
      -0.796
      -0.548
      -0.398
      -0.242
       0.035
       0.438
       0.836
       1.059
       1.018
       0.765
       0.459
       0.255
       0.213
       0.282
       0.366
       0.395
       0.355
       0.257
       0.101
      -0.148
      -0.526
      -1.019
      -1.529
      -1.889
      -1.956
      -1.694
      -1.194
      -0.608
      -0.050
       0.458
       0.941
       1.393
       1.729
       1.822
       1.600
       1.122
       0.581
       0.209
       0.142
       0.341
       0.617
       0.750
       0.628
       0.295
      -0.101
      -0.401
      -0.521
      -0.469
      -0.322
      -0.185
      -0.150
      -0.258
      -0.486
      -0.766
      -0.997
      -1.077
      -0.935
      -0.583
      -0.129
       0.268
       0.493
       0.554
       0.567
       0.656
       0.842
       1.020
       1.030
       0.784
       0.344
      -0.103
      -0.363
      -0.370
      -0.238
      -0.182
      -0.363
      -0.773
      -1.241
      -1.541
      -1.524
      -1.186
      -0.651
      -0.105
       0.291
       0.463
       0.436
       0.309
       0.202
       0.210
       0.359
       0.589
       0.779
       0.809
       0.627
       0.282
      -0.100
      -0.377
      -0.460
      -0.367
      -0.218
      -0.146
      -0.203
      -0.325
      -0.408
      -0.405
      -0.354
      -0.314
      -0.296
      -0.247
      -0.101
       0.161
       0.478
       0.725
       0.781
       0.607
       0.302
       0.046
      -0.010
       0.152
       0.407
       0.574
       0.525
       0.260
      -0.107
      -0.430
      -0.620
      -0.674
      -0.646
      -0.601
      -0.589
      -0.622
      -0.676
      -0.695
      -0.613
      -0.386
      -0.020
       0.410
       0.783
       0.971
       0.906
       0.619
       0.235
      -0.092
      -0.266
      -0.283
      -0.210
      -0.135
      -0.120
      -0.189
      -0.315
      -0.433
      -0.488
      -0.463
      -0.389
      -0.311
      -0.250
      -0.206
      -0.167
      -0.111
      -0.015
       0.139
       0.334
       0.508
       0.587
       0.529
       0.353
       0.123
      -0.085
      -0.196
      -0.146
       0.087
       0.453
       0.831
       1.081
       1.102
       0.869
       0.446
      -0.023
      -0.374
      -0.491
      -0.366
      -0.095
       0.171
       0.300
       0.245
       0.069
      -0.089
      -0.095
       0.101
       0.417
       0.678
       0.715
       0.478
       0.081
      -0.267
      -0.394
      -0.270
      -0.010
       0.216
       0.288
       0.183
      -0.034
      -0.255
      -0.386
      -0.399
      -0.341
      -0.291
      -0.300
      -0.364
      -0.439
      -0.470
      -0.412
      -0.248
      -0.008
       0.238
       0.418
       0.501
       0.515
       0.512
       0.512
       0.479
       0.339
       0.032
      -0.435
      -0.977
      -1.457
      -1.748
      -1.773
      -1.527
      -1.066
      -0.489
       0.062
       0.438
       0.552
       0.435
       0.231
       0.118
       0.201
       0.463
       0.779
       0.982
       0.951
       0.667
       0.220
      -0.234
      -0.542
      -0.617
      -0.465
      -0.175
       0.113
       0.266
       0.220
       0.011
      -0.237
      -0.367
      -0.272
       0.053
       0.497
       0.883
       1.055
       0.951
       0.643
       0.300
       0.099
       0.109
       0.252
       0.347
       0.246
      -0.057
      -0.403
      -0.562
      -0.378
       0.125
       0.750
       1.230
       1.365
       1.114
       0.613
       0.097
      -0.214
      -0.225
      -0.012
       0.218
       0.245
      -0.039
      -0.562
      -1.101
      -1.384
      -1.230
      -0.649
       0.142
       0.813
       1.089
       0.890
       0.361
      -0.227
      -0.637
      -0.780
      -0.731
      -0.632
      -0.576
      -0.552
      -0.497
      -0.375
      -0.224
      -0.110
      -0.063
      -0.054
      -0.020
       0.074
       0.210
       0.318
       0.326
       0.199
      -0.040
      -0.330
      -0.596
      -0.761
      -0.766
      -0.591
      -0.292
       0.004
       0.166
       0.137
      -0.020
      -0.167
      -0.185
      -0.062
       0.097
       0.142
      -0.001
      -0.263
      -0.467
      -0.472
      -0.276
      -0.019
       0.142
       0.152
       0.073
      -0.001
      -0.026
      -0.018
      -0.014
      -0.033
      -0.081
      -0.162
      -0.268
      -0.377
      -0.465
      -0.518
      -0.535
      -0.518
      -0.480
      -0.440
      -0.412
      -0.384
      -0.322
      -0.201
      -0.034
       0.126
       0.229
       0.272
       0.303
       0.390
       0.564
       0.773
       0.899
       0.833
       0.559
       0.175
      -0.155
      -0.289
      -0.174
       0.130
       0.489
       0.766
       0.887
       0.861
       0.743
       0.572
       0.338
       0.014
      -0.378
      -0.732
      -0.900
      -0.791
      -0.439
       0.018
       0.435
       0.745
       0.975
       1.187
       1.413
       1.628
       1.755
       1.699
       1.399
       0.875
       0.233
      -0.379
      -0.832
      -1.044
      -1.009
      -0.797
      -0.544
      -0.389
      -0.393
      -0.497
      -0.571
      -0.509
      -0.307
      -0.067
       0.063
      -0.014
      -0.262
      -0.503
      -0.519
      -0.200
       0.367
       0.940
       1.260
       1.184
       0.743
       0.123
      -0.433
      -0.747
      -0.782
      -0.642
      -0.490
      -0.439
      -0.494
      -0.571
      -0.571
      -0.447
      -0.231
      -0.011
       0.117
       0.108
       0.009
      -0.080
      -0.073
       0.032
       0.160
       0.219
       0.166
       0.022
      -0.170
      -0.369
      -0.545
      -0.671
      -0.728
      -0.718
      -0.659
      -0.567
      -0.458
      -0.354
      -0.284
      -0.260
      -0.241
      -0.151
       0.058
       0.353
       0.633
       0.792
       0.779
       0.612
       0.358
       0.088
      -0.150
