Origin Time       14/03/2010 6:53:21	 UTC
Lat.              31.7 N	
Long.             76.1 E	
Depth (Km)         29.0
Magnitude         4.6
 Region           HIMACHAL-PUNJAB-(HOSHIARPUR)-BORDER                              
 Above details taken from IMD 
    
Station Code      HAM
Station Lat.       31.691  N
Station Long.      76.520  E
Station Height(m)    1.0
Site Class        B   Vs30 between 375 m/sec to 700 m/sec *  
Record Time       14.03.2010 06:53:07.549 UTC
Sampling Rate     200. Hz
 Record Duration   80.400 Sec.
 Direction         N-S (N positive)
Max. Acceleration      3.115 cm/sec**2
     
  * For reference see Site Classification link of website 
     
 Base Line Corrected and Low Pass Filtered (Cut Off at 35 Hz) Time History
 Acceleration data in cm/sec**2
    
[...]
      -0.113
      -0.089
      -0.043
       0.013
       0.062
       0.089
       0.094
       0.087
       0.084
       0.097
       0.122
       0.148
       0.162
       0.154
       0.121
       0.068
       0.006
      -0.050
      -0.091
      -0.110
      -0.107
      -0.090
      -0.073
      -0.071
      -0.090
      -0.118
      -0.129
      -0.104
      -0.042
       0.040
       0.114
       0.162
       0.186
       0.199
       0.206
       0.200
       0.170
       0.115
       0.049
      -0.011
      -0.059
      -0.097
      -0.131
      -0.163
      -0.188
      -0.196
      -0.187
      -0.167
      -0.143
      -0.118
      -0.088
      -0.049
      -0.002
       0.048
       0.092
       0.123
       0.142
       0.155
       0.165
       0.156
       0.107
       0.004
      -0.142
      -0.289
      -0.384
      -0.384
      -0.288
      -0.133
       0.026
       0.148
       0.218
       0.245
       0.246
       0.237
       0.221
       0.199
       0.171
       0.140
       0.104
       0.053
      -0.019
      -0.105
      -0.183
      -0.227
      -0.223
      -0.176
      -0.108
      -0.044
       0.004
       0.039
       0.070
       0.100
       0.118
       0.111
       0.075
       0.027
      -0.007
      -0.004
       0.033
       0.074
       0.081
       0.043
      -0.016
      -0.054
      -0.045
       0.002
       0.049
       0.053
       0.002
      -0.077
      -0.135
      -0.135
      -0.078
       0.003
       0.061
       0.065
       0.017
      -0.052
      -0.101
      -0.105
      -0.067
      -0.014
       0.029
       0.053
       0.072
       0.104
       0.147
       0.176
       0.153
       0.066
      -0.061
      -0.178
      -0.238
      -0.227
      -0.169
      -0.105
      -0.073
      -0.081
      -0.111
      -0.138
      -0.145
      -0.125
      -0.079
      -0.018
       0.049
       0.114
       0.175
       0.231
       0.270
       0.278
       0.244
       0.170
       0.080
       0.004
      -0.033
      -0.035
      -0.029
      -0.046
      -0.104
      -0.190
      -0.273
      -0.318
      -0.302
      -0.232
      -0.135
      -0.042
       0.034
       0.096
       0.153
       0.209
       0.257
       0.283
       0.271
       0.223
       0.159
       0.108
       0.085
       0.088
       0.097
       0.091
       0.062
       0.018
      -0.018
      -0.034
      -0.031
      -0.022
      -0.018
      -0.024
      -0.043
      -0.073
      -0.109
      -0.144
      -0.165
      -0.157
      -0.111
      -0.033
       0.053
       0.118
       0.143
       0.128
       0.089
       0.050
       0.027
       0.023
       0.025
       0.012
      -0.024
      -0.077
      -0.134
      -0.180
      -0.207
      -0.214
      -0.203
      -0.176
      -0.128
      -0.062
       0.016
       0.085
       0.128
       0.141
       0.135
       0.129
       0.135
       0.151
       0.155
       0.131
       0.077
       0.013
      -0.040
      -0.066
      -0.066
      -0.050
      -0.036
      -0.036
      -0.048
      -0.063
      -0.073
      -0.077
      -0.074
      -0.062
      -0.032
       0.015
       0.070
       0.111
       0.122
       0.102
       0.077
       0.079
       0.125
       0.199
       0.257
       0.256
       0.173
       0.026
      -0.136
      -0.257
      -0.306
      -0.284
      -0.226
      -0.170
      -0.140
      -0.133
      -0.122
      -0.082
      -0.012
       0.064
       0.119
       0.141
       0.141
       0.139
       0.141
       0.134
       0.098
       0.030
      -0.049
      -0.103
      -0.115
      -0.099
      -0.083
      -0.091
      -0.121
      -0.154
      -0.169
      -0.157
      -0.126
      -0.093
      -0.067
      -0.044
      -0.012
       0.034
       0.092
       0.148
       0.186
       0.188
       0.157
       0.115
       0.095
       0.112
       0.155
       0.189
       0.181
       0.123
       0.043
      -0.019
      -0.037
      -0.022
      -0.003
      -0.004
      -0.021
      -0.032
      -0.013
       0.039
       0.105
       0.153
       0.169
       0.160
       0.144
       0.135
       0.127
       0.111
       0.074
       0.014
      -0.061
      -0.142
      -0.217
      -0.279
      -0.316
      -0.315
      -0.268
      -0.181
      -0.071
       0.036
       0.117
       0.151
       0.135
       0.082
       0.016
      -0.042
      -0.087
      -0.123
      -0.155
      -0.180
      -0.185
      -0.154
      -0.087
      -0.005
       0.060
       0.091
       0.088
       0.065
       0.032
       0.000
      -0.023
      -0.034
      -0.038
      -0.045
      -0.060
      -0.075
      -0.081
      -0.071
      -0.048
      -0.021
       0.004
       0.032
       0.068
       0.111
       0.150
       0.173
       0.182
       0.181
       0.177
       0.166
       0.135
       0.069
      -0.028
      -0.130
      -0.203
      -0.228
      -0.214
      -0.185
      -0.158
      -0.136
      -0.106
      -0.056
       0.017
       0.098
       0.163
       0.193
       0.180
       0.130
       0.065
       0.014
       0.000
       0.020
       0.045
       0.042
       0.003
      -0.050
      -0.075
      -0.045
       0.035
       0.126
       0.186
       0.191
       0.147
       0.076
      -0.004
      -0.084
      -0.156
      -0.211
      -0.236
      -0.218
      -0.151
      -0.045
       0.075
       0.175
       0.232
       0.235
       0.197
       0.141
       0.085
       0.036
      -0.013
      -0.072
      -0.136
      -0.190
      -0.216
      -0.201
      -0.149
      -0.082
      -0.023
       0.014
       0.030
       0.034
       0.031
       0.019
      -0.002
      -0.024
      -0.030
       0.001
       0.073
       0.160
       0.220
       0.223
       0.176
       0.107
       0.044
      -0.004
      -0.036
      -0.053
      -0.056
      -0.045
      -0.033
      -0.036
      -0.062
      -0.101
      -0.122
      -0.100
      -0.043
       0.012
       0.029
      -0.001
      -0.045
      -0.058
      -0.008
       0.090
       0.192
       0.251
       0.252
       0.215
       0.169
       0.122
       0.062
      -0.032
      -0.162
      -0.298
      -0.389
      -0.393
      -0.305
      -0.158
      -0.007
       0.102
       0.148
       0.139
       0.108
       0.087
       0.089
       0.104
       0.109
       0.082
       0.023
      -0.049
      -0.098
      -0.092
      -0.031
       0.057
       0.128
       0.151
       0.118
       0.042
      -0.058
      -0.168
      -0.272
      -0.347
      -0.366
      -0.313
      -0.196
      -0.049
       0.094
       0.209
       0.280
       0.301
       0.270
       0.198
       0.109
       0.032
      -0.014
      -0.028
      -0.030
      -0.040
      -0.067
      -0.107
      -0.153
      -0.200
      -0.246
      -0.285
      -0.297
      -0.258
      -0.151
       0.018
       0.217
       0.392
       0.493
       0.495
       0.415
       0.307
       0.229
       0.208
       0.223
       0.216
       0.133
      -0.039
      -0.258
      -0.449
      -0.542
      -0.514
      -0.399
      -0.253
      -0.121
      -0.011
       0.085
       0.171
       0.225
       0.219
       0.139
       0.015
      -0.094
      -0.125
      -0.067
       0.035
       0.107
       0.098
       0.013
      -0.089
      -0.135
      -0.095
       0.008
       0.115
       0.180
       0.199
       0.194
       0.188
       0.182
       0.170
       0.141
       0.099
       0.065
       0.064
       0.109
       0.180
       0.238
       0.239
       0.167
       0.040
      -0.095
      -0.188
      -0.218
      -0.195
      -0.143
      -0.081
      -0.025
       0.006
      -0.007
      -0.075
      -0.182
      -0.291
      -0.356
      -0.341
      -0.236
      -0.069
       0.105
       0.232
       0.276
       0.232
       0.125
      -0.001
      -0.105
      -0.166
      -0.183
      -0.169
      -0.139
      -0.106
      -0.081
      -0.074
      -0.088
      -0.118
      -0.145
      -0.135
      -0.066
       0.056
       0.188
       0.277
       0.298
       0.265
       0.218
       0.185
       0.163
       0.125
       0.054
      -0.041
      -0.123
      -0.158
      -0.139
      -0.088
      -0.040
      -0.031
      -0.077
      -0.166
      -0.259
      -0.307
      -0.276
      -0.167
      -0.019
       0.112
       0.185
       0.200
       0.190
       0.194
       0.219
       0.245
       0.238
       0.185
       0.098
       0.004
      -0.075
      -0.141
      -0.208
      -0.277
      -0.323
      -0.313
      -0.227
      -0.073
       0.109
       0.266
       0.346
       0.332
       0.251
       0.164
       0.125
       0.150
       0.202
       0.227
       0.199
       0.141
       0.103
       0.116
       0.161
       0.186
       0.144
       0.026
      -0.139
      -0.300
      -0.409
      -0.442
      -0.404
      -0.323
      -0.232
      -0.156
      -0.106
      -0.081
      -0.072
      -0.070
      -0.062
      -0.039
       0.005
       0.060
       0.111
       0.139
       0.145
       0.138
       0.133
       0.138
       0.150
       0.153
       0.127
       0.063
      -0.026
      -0.108
      -0.157
      -0.167
      -0.149
      -0.123
      -0.105
      -0.098
      -0.089
      -0.062
      -0.015
       0.032
       0.053
       0.027
      -0.038
      -0.110
      -0.151
      -0.144
      -0.098
      -0.036
       0.029
       0.093
       0.151
       0.186
       0.181
       0.139
       0.092
       0.079
       0.120
       0.193
       0.243
       0.227
       0.137
       0.009
      -0.113
      -0.200
      -0.245
      -0.253
      -0.228
      -0.169
      -0.084
       0.004
       0.060
       0.059
       0.005
      -0.065
      -0.110
      -0.105
      -0.048
       0.042
       0.134
       0.204
       0.242
       0.261
       0.279
       0.308
       0.337
       0.338
       0.281
       0.166
       0.025
      -0.095
      -0.178
      -0.249
      -0.346
      -0.477
      -0.601
      -0.657
      -0.608
      -0.473
      -0.312
      -0.174
      -0.060
       0.070
       0.245
       0.443
       0.597
       0.646
       0.580
       0.446
       0.311
       0.221
       0.174
       0.133
       0.052
      -0.088
      -0.270
      -0.449
      -0.568
      -0.587
      -0.503
      -0.349
      -0.174
      -0.022
       0.084
       0.140
       0.153
       0.126
       0.068
       0.004
      -0.029
      -0.002
       0.074
       0.153
       0.188
       0.173
       0.141
       0.133
       0.164
       0.209
       0.222
       0.172
       0.069
      -0.050
      -0.143
      -0.194
      -0.209
      -0.209
      -0.212
      -0.224
      -0.231
      -0.206
      -0.131
      -0.019
       0.099
       0.189
       0.240
       0.265
       0.278
       0.280
       0.256
       0.189
       0.078
      -0.057
      -0.188
      -0.293
      -0.360
      -0.378
      -0.335
      -0.229
      -0.075
       0.088
       0.217
       0.283
       0.286
       0.248
       0.192
       0.124
       0.041
      -0.053
      -0.132
      -0.164
      -0.133
      -0.063
      -0.002
       0.006
      -0.049
      -0.137
      -0.214
      -0.248
      -0.233
      -0.190
      -0.150
      -0.137
      -0.146
      -0.138
      -0.069
       0.068
       0.227
       0.341
       0.373
       0.340
       0.297
       0.284
       0.296
       0.281
       0.194
       0.030
      -0.171
      -0.352
      -0.464
      -0.481
      -0.404
      -0.260
      -0.097
       0.031
       0.095
       0.105
       0.103
       0.134
       0.206
       0.290
       0.337
       0.322
       0.252
       0.157
       0.055
      -0.052
      -0.178
      -0.320
      -0.455
      -0.545
      -0.563
      -0.517
      -0.443
      -0.383
      -0.361
      -0.370
      -0.394
      -0.414
      -0.420
      -0.407
      -0.376
      -0.341
      -0.329
      -0.371
      -0.479
      -0.625
      -0.754
      -0.810
      -0.778
      -0.682
      -0.571
      -0.500
      -0.510
      -0.614
      -0.795
      -1.004
      -1.183
      -1.292
      -1.331
      -1.331
      -1.318
      -1.282
      -1.185
      -1.004
      -0.765
      -0.525
      -0.328
      -0.173
      -0.018
       0.176
       0.410
       0.646
       0.834
       0.951
       1.003
       1.007
       0.969
       0.893
       0.797
       0.715
       0.676
       0.680
       0.692
       0.661
       0.555
       0.390
       0.223
       0.123
       0.122
       0.209
       0.340
       0.469
       0.577
       0.663
       0.734
       0.787
       0.813
       0.819
       0.838
       0.922
       1.107
       1.388
       1.703
       1.963
       2.082
       2.018
       1.784
       1.437
       1.049
       0.687
       0.394
       0.187
       0.060
      -0.011
      -0.055
      -0.105
      -0.192
      -0.336
      -0.525
      -0.714
      -0.843
      -0.865
      -0.762
      -0.561
      -0.317
      -0.086
       0.103
       0.261
       0.426
       0.638
       0.912
       1.226
       1.528
       1.763
       1.895
       1.898
       1.744
       1.402
       0.862
       0.169
      -0.573
      -1.233
      -1.702
      -1.935
      -1.949
      -1.796
      -1.515
      -1.124
      -0.626
      -0.036
       0.614
       1.282
       1.920
       2.475
       2.891
       3.115
       3.108
       2.866
       2.423
       1.842
       1.186
       0.498
      -0.202
      -0.895
      -1.547
      -2.098
      -2.486
      -2.678
      -2.686
      -2.557
      -2.338
      -2.045
      -1.667
      -1.192
      -0.630
      -0.029
       0.538
       1.000
       1.315
       1.477
       1.499
       1.394
       1.165
       0.818
       0.370
      -0.145
      -0.683
      -1.200
      -1.671
      -2.087
      -2.443
      -2.718
      -2.879
      -2.894
      -2.756
      -2.484
      -2.108
      -1.649
      -1.114
      -0.514
       0.110
       0.676
       1.099
       1.338
       1.408
       1.358
       1.228
       1.033
       0.779
       0.493
       0.228
       0.039
      -0.054
      -0.084
      -0.109
      -0.178
      -0.305
      -0.475
      -0.667
      -0.868
      -1.072
      -1.271
      -1.442
      -1.545
      -1.534
      -1.375
      -1.059
      -0.617
      -0.109
       0.399
       0.860
       1.266
       1.625
       1.932
       2.150
       2.231
       2.151
       1.927
       1.605
       1.219
       0.773
       0.252
      -0.340
      -0.950
      -1.494
      -1.895
      -2.121
      -2.184
      -2.113
      -1.927
      -1.628
      -1.216
      -0.719
      -0.200
       0.266
       0.619
       0.833
       0.910
       0.865
       0.718
       0.491
       0.213
      -0.073
      -0.318
      -0.485
      -0.567
      -0.585
      -0.570
      -0.541
      -0.499
      -0.433
      -0.330
      -0.185
      -0.004
       0.197
       0.399
       0.584
       0.734
       0.831
       0.867
       0.847
       0.786
       0.708
       0.630
       0.553
       0.459
       0.329
       0.169
       0.010
      -0.108
      -0.161
      -0.149
      -0.084
       0.019
       0.147
       0.300
       0.488
       0.723
       1.008
       1.325
       1.630
       1.866
       1.986
       1.968
       1.812
       1.526
       1.114
       0.588
      -0.026
      -0.680
      -1.320
      -1.889
      -2.344
      -2.660
      -2.830
      -2.852
      -2.723
      -2.436
      -1.996
      -1.431
      -0.793
      -0.152
       0.426
       0.901
       1.264
       1.515
       1.653
       1.671
       1.569
       1.358
       1.051
       0.657
       0.185
      -0.338
      -0.863
      -1.321
      -1.647
      -1.811
      -1.830
      -1.744
      -1.587
      -1.358
      -1.034
      -0.601
      -0.083
       0.462
       0.970
       1.405
       1.760
       2.034
       2.201
       2.221
       2.061
       1.727
       1.265
       0.738
       0.205
      -0.296
      -0.737
      -1.094
      -1.342
      -1.457
      -1.436
      -1.284
      -1.014
      -0.643
      -0.201
       0.268
       0.715
       1.092
       1.366
       1.519
       1.548
       1.465
       1.291
       1.054
       0.786
       0.520
       0.275
       0.056
      -0.136
      -0.301
      -0.434
      -0.537
      -0.614
      -0.670
      -0.694
      -0.658
      -0.528
      -0.292
       0.024
       0.364
       0.676
       0.928
       1.109
       1.211
       1.226
       1.149
       0.983
       0.753
       0.491
       0.226
      -0.040
      -0.323
      -0.624
      -0.917
      -1.151
      -1.280
      -1.288
      -1.195
      -1.037
      -0.836
      -0.593
      -0.303
       0.018
       0.323
       0.550
       0.657
       0.634
       0.509
       0.335
       0.160
       0.003
      -0.148
      -0.317
      -0.516
      -0.739
      -0.971
      -1.190
      -1.374
      -1.500
      -1.544
      -1.488
      -1.314
      -1.013
      -0.594
      -0.099
       0.403
       0.824
       1.083
       1.142
       1.019
       0.777
       0.485
       0.187
      -0.103
      -0.394
      -0.690
      -0.977
      -1.226
      -1.409
      -1.516
      -1.556
      -1.535
      -1.453
      -1.302
      -1.074
      -0.777
      -0.444
      -0.118
       0.173
       0.436
       0.696
       0.966
       1.221
       1.411
       1.488
       1.438
       1.282
       1.064
       0.816
       0.547
       0.259
      -0.036
      -0.306
      -0.515
      -0.649
      -0.716
      -0.739
      -0.736
      -0.707
      -0.637
      -0.507
      -0.310
      -0.052
       0.244
       0.540
       0.793
       0.973
       1.072
       1.098
       1.059
       0.954
       0.783
       0.569
       0.359
       0.209
       0.150
       0.177
       0.247
       0.316
       0.360
       0.382
       0.397
       0.421
       0.462
       0.523
       0.602
       0.688
       0.769
       0.829
       0.851
       0.822
       0.743
       0.625
       0.477
       0.302
       0.101
      -0.110
      -0.297
      -0.429
      -0.494
      -0.513
      -0.522
      -0.537
      -0.540
      -0.487
      -0.353
      -0.165
       0.008
       0.096
       0.074
      -0.028
      -0.149
      -0.242
      -0.304
      -0.363
      -0.451
      -0.569
      -0.692
      -0.788
      -0.833
      -0.824
      -0.779
      -0.721
      -0.672
      -0.648
      -0.656
      -0.695
      -0.747
      -0.774
      -0.731
      -0.592
      -0.361
      -0.078
       0.201
       0.419
       0.533
       0.527
       0.409
       0.211
      -0.021
      -0.241
      -0.416
      -0.535
      -0.598
      -0.608
      -0.567
      -0.478
      -0.344
      -0.172
       0.036
       0.280
       0.560
       0.865
       1.160
       1.401
       1.551
       1.598
       1.552
       1.432
       1.263
       1.072
       0.879
       0.686
       0.480
       0.245
      -0.022
      -0.301
      -0.564
      -0.785
      -0.952
      -1.065
      -1.115
      -1.081
      -0.941
      -0.691
      -0.356
       0.015
