Origin Time       3/9/2009 19:51:08	  UTC
Lat.              24.3 N	
Long.             94.6 E	
Depth (Km)        100.0
Magnitude         5.9
 Region           MYANMAR-India-Manipuir-Border                                    
 Above details taken from IMD 
    
Station Code      HKD
Station Lat.       24.682  N
Station Long.      92.563  E
Station Height(m)   23.0
Site Class        C   Vs30 between 200 m/sec to 375 m/sec *  
Record Time       03.09.2009 19:51:51.044 UTC
Sampling Rate     200. Hz
 Record Duration   70.295 Sec.
 Direction         N-S (N positive)
Max. Acceleration     -6.105 cm/sec**2
     
  * For reference see Site Classification link of website 
     
 Base Line Corrected and Low Pass Filtered (Cut Off at 35 Hz) Time History
 Acceleration data in cm/sec**2
    
[...]
       0.425
       0.481
       0.514
       0.515
       0.477
       0.410
       0.329
       0.240
       0.138
       0.021
      -0.097
      -0.193
      -0.249
      -0.268
      -0.258
      -0.224
      -0.171
      -0.112
      -0.059
      -0.018
       0.016
       0.045
       0.063
       0.067
       0.064
       0.063
       0.071
       0.081
       0.090
       0.106
       0.133
       0.167
       0.196
       0.213
       0.219
       0.217
       0.200
       0.164
       0.113
       0.062
       0.017
      -0.026
      -0.074
      -0.121
      -0.150
      -0.152
      -0.130
      -0.094
      -0.049
       0.005
       0.063
       0.109
       0.128
       0.118
       0.083
       0.026
      -0.050
      -0.135
      -0.210
      -0.263
      -0.293
      -0.300
      -0.286
      -0.245
      -0.181
      -0.109
      -0.043
       0.014
       0.064
       0.102
       0.120
       0.110
       0.080
       0.044
       0.011
      -0.018
      -0.039
      -0.042
      -0.026
      -0.001
       0.019
       0.024
       0.013
      -0.013
      -0.062
      -0.136
      -0.230
      -0.332
      -0.435
      -0.539
      -0.636
      -0.714
      -0.760
      -0.771
      -0.751
      -0.702
      -0.624
      -0.523
      -0.410
      -0.299
      -0.197
      -0.110
      -0.045
      -0.010
      -0.008
      -0.028
      -0.060
      -0.095
      -0.128
      -0.151
      -0.149
      -0.116
      -0.057
       0.011
       0.078
       0.139
       0.192
       0.233
       0.257
       0.268
       0.270
       0.264
       0.243
       0.207
       0.163
       0.122
       0.090
       0.070
       0.070
       0.094
       0.140
       0.194
       0.238
       0.265
       0.276
       0.274
       0.260
       0.234
       0.205
       0.179
       0.157
       0.134
       0.112
       0.103
       0.116
       0.152
       0.200
       0.255
       0.319
       0.392
       0.461
       0.512
       0.533
       0.526
       0.498
       0.451
       0.385
       0.305
       0.217
       0.128
       0.038
      -0.048
      -0.124
      -0.187
      -0.241
      -0.291
      -0.338
      -0.374
      -0.393
      -0.394
      -0.382
      -0.357
      -0.317
      -0.262
      -0.196
      -0.121
      -0.036
       0.057
       0.145
       0.213
       0.257
       0.283
       0.295
       0.290
       0.260
       0.206
       0.137
       0.060
      -0.024
      -0.116
      -0.209
      -0.292
      -0.355
      -0.395
      -0.409
      -0.393
      -0.348
      -0.289
      -0.235
      -0.194
      -0.160
      -0.130
      -0.114
      -0.122
      -0.157
      -0.206
      -0.254
      -0.297
      -0.333
      -0.359
      -0.367
      -0.352
      -0.316
      -0.264
      -0.198
      -0.123
      -0.045
       0.034
       0.114
       0.199
       0.286
       0.361
       0.411
       0.434
       0.441
       0.441
       0.437
       0.425
       0.408
       0.392
       0.378
       0.358
       0.328
       0.291
       0.251
       0.209
       0.159
       0.105
       0.052
       0.003
      -0.044
      -0.093
      -0.141
      -0.179
      -0.207
      -0.229
      -0.253
      -0.275
      -0.285
      -0.282
      -0.271
      -0.255
      -0.233
      -0.205
      -0.176
      -0.154
      -0.143
      -0.140
      -0.143
      -0.157
      -0.187
      -0.227
      -0.265
      -0.293
      -0.314
      -0.329
      -0.335
      -0.330
      -0.319
      -0.313
      -0.316
      -0.319
      -0.318
      -0.318
      -0.325
      -0.341
      -0.355
      -0.361
      -0.360
      -0.354
      -0.338
      -0.303
      -0.247
      -0.179
      -0.111
      -0.050
       0.001
       0.032
       0.035
       0.012
      -0.026
      -0.064
      -0.100
      -0.139
      -0.180
      -0.212
      -0.225
      -0.215
      -0.184
      -0.131
      -0.052
       0.051
       0.170
       0.294
       0.413
       0.519
       0.591
       0.611
       0.574
       0.497
       0.406
       0.320
       0.245
       0.185
       0.145
       0.128
       0.130
       0.145
       0.169
       0.200
       0.225
       0.227
       0.198
       0.150
       0.102
       0.065
       0.036
       0.015
       0.014
       0.040
       0.092
       0.159
       0.230
       0.305
       0.379
       0.437
       0.466
       0.465
       0.444
       0.412
       0.366
       0.304
       0.234
       0.171
       0.122
       0.087
       0.068
       0.072
       0.106
       0.163
       0.228
       0.289
       0.344
       0.391
       0.420
       0.426
       0.413
       0.398
       0.391
       0.389
       0.388
       0.391
       0.402
       0.422
       0.440
       0.448
       0.446
       0.437
       0.418
       0.380
       0.322
       0.252
       0.179
       0.108
       0.039
      -0.023
      -0.070
      -0.101
      -0.126
      -0.151
      -0.172
      -0.180
      -0.176
      -0.173
      -0.183
      -0.208
      -0.244
      -0.289
      -0.348
      -0.423
      -0.509
      -0.603
      -0.703
      -0.804
      -0.895
      -0.963
      -1.007
      -1.036
      -1.058
      -1.065
      -1.043
      -0.985
      -0.898
      -0.794
      -0.678
      -0.555
      -0.436
      -0.330
      -0.240
      -0.157
      -0.076
       0.000
       0.070
       0.139
       0.219
       0.314
       0.413
       0.500
       0.567
       0.614
       0.640
       0.640
       0.612
       0.564
       0.510
       0.458
       0.409
       0.366
       0.338
       0.332
       0.343
       0.357
       0.365
       0.365
       0.357
       0.334
       0.290
       0.224
       0.143
       0.050
      -0.052
      -0.162
      -0.274
      -0.376
      -0.463
      -0.533
      -0.589
      -0.634
      -0.674
      -0.712
      -0.751
      -0.784
      -0.804
      -0.811
      -0.809
      -0.798
      -0.769
      -0.714
      -0.638
      -0.552
      -0.469
      -0.389
      -0.309
      -0.228
      -0.149
      -0.070
       0.012
       0.098
       0.186
       0.271
       0.348
       0.413
       0.463
       0.492
       0.506
       0.519
       0.541
       0.570
       0.600
       0.626
       0.651
       0.675
       0.693
       0.703
       0.706
       0.709
       0.714
       0.710
       0.690
       0.657
       0.617
       0.571
       0.513
       0.438
       0.352
       0.262
       0.170
       0.072
      -0.033
      -0.134
      -0.223
      -0.294
      -0.346
      -0.376
      -0.382
      -0.370
      -0.348
      -0.321
      -0.286
      -0.238
      -0.178
      -0.109
      -0.032
       0.059
       0.164
       0.275
       0.379
       0.468
       0.538
       0.583
       0.593
       0.562
       0.500
       0.421
       0.334
       0.239
       0.138
       0.040
      -0.047
      -0.124
      -0.199
      -0.276
      -0.347
      -0.407
      -0.453
      -0.490
      -0.516
      -0.526
      -0.517
      -0.498
      -0.473
      -0.442
      -0.402
      -0.359
      -0.332
      -0.331
      -0.351
      -0.377
      -0.397
      -0.402
      -0.384
      -0.334
      -0.257
      -0.169
      -0.089
      -0.018
       0.048
       0.107
       0.145
       0.151
       0.128
       0.094
       0.061
       0.029
      -0.002
      -0.028
      -0.040
      -0.034
      -0.012
       0.019
       0.059
       0.102
       0.136
       0.146
       0.129
       0.089
       0.031
      -0.046
      -0.144
      -0.252
      -0.363
      -0.477
      -0.600
      -0.732
      -0.855
      -0.950
      -1.004
      -1.023
      -1.011
      -0.972
      -0.911
      -0.835
      -0.749
      -0.648
      -0.516
      -0.353
      -0.171
       0.010
       0.187
       0.370
       0.563
       0.759
       0.946
       1.120
       1.281
       1.426
       1.546
       1.636
       1.700
       1.744
       1.775
       1.795
       1.815
       1.835
       1.843
       1.813
       1.722
       1.566
       1.361
       1.124
       0.863
       0.583
       0.295
       0.011
      -0.265
      -0.534
      -0.793
      -1.035
      -1.252
      -1.447
      -1.622
      -1.768
      -1.872
      -1.928
      -1.936
      -1.902
      -1.821
      -1.691
      -1.520
      -1.326
      -1.127
      -0.926
      -0.727
      -0.539
      -0.372
      -0.229
      -0.098
       0.032
       0.164
       0.289
       0.402
       0.501
       0.583
       0.637
       0.654
       0.638
       0.597
       0.535
       0.451
       0.348
       0.239
       0.134
       0.032
      -0.079
      -0.201
      -0.320
      -0.422
      -0.501
      -0.563
      -0.609
      -0.634
      -0.632
      -0.606
      -0.563
      -0.506
      -0.434
      -0.353
      -0.274
      -0.204
      -0.144
      -0.090
      -0.047
      -0.027
      -0.031
      -0.051
      -0.077
      -0.109
      -0.146
      -0.175
      -0.173
      -0.128
      -0.049
       0.051
       0.168
       0.307
       0.473
       0.656
       0.851
       1.055
       1.265
       1.472
       1.655
       1.807
       1.929
       2.028
       2.104
       2.155
       2.183
       2.202
       2.223
       2.256
       2.308
       2.385
       2.485
       2.588
       2.664
       2.689
       2.654
       2.554
       2.378
       2.115
       1.776
       1.386
       0.975
       0.562
       0.158
      -0.221
      -0.554
      -0.824
      -1.033
      -1.189
      -1.297
      -1.366
      -1.412
      -1.455
      -1.506
      -1.554
      -1.580
      -1.577
      -1.548
      -1.496
      -1.417
      -1.309
      -1.178
      -1.032
      -0.869
      -0.674
      -0.440
      -0.175
       0.107
       0.391
       0.671
       0.935
       1.168
       1.362
       1.515
       1.629
       1.701
       1.727
       1.708
       1.654
       1.572
       1.455
       1.295
       1.088
       0.837
       0.547
       0.214
      -0.164
      -0.580
      -1.017
      -1.458
      -1.894
      -2.313
      -2.697
      -3.032
      -3.313
      -3.544
      -3.727
      -3.862
      -3.950
      -3.998
      -4.015
      -4.004
      -3.966
      -3.901
      -3.816
      -3.715
      -3.593
      -3.440
      -3.253
      -3.038
      -2.798
      -2.530
      -2.230
      -1.902
      -1.555
      -1.196
      -0.831
      -0.464
      -0.109
       0.219
       0.507
       0.749
       0.938
       1.067
       1.132
       1.140
       1.099
       1.018
       0.897
       0.739
       0.545
       0.314
       0.045
      -0.260
      -0.586
      -0.917
      -1.246
      -1.575
      -1.907
      -2.227
      -2.513
      -2.751
      -2.947
      -3.114
      -3.259
      -3.378
      -3.466
      -3.518
      -3.529
      -3.494
      -3.410
      -3.280
      -3.105
      -2.882
      -2.606
      -2.281
      -1.922
      -1.543
      -1.143
      -0.711
      -0.244
       0.250
       0.757
       1.259
       1.742
       2.188
       2.582
       2.917
       3.191
       3.404
       3.549
       3.625
       3.634
       3.586
       3.486
       3.339
       3.160
       2.969
       2.788
       2.621
       2.458
       2.292
       2.129
       1.975
       1.831
       1.686
       1.535
       1.382
       1.234
       1.091
       0.951
       0.816
       0.689
       0.567
       0.446
       0.329
       0.227
       0.154
       0.112
       0.094
       0.097
       0.130
       0.202
       0.310
       0.447
       0.610
       0.803
       1.026
       1.265
       1.505
       1.738
       1.964
       2.183
       2.389
       2.572
       2.733
       2.877
       3.003
       3.105
       3.179
       3.233
       3.278
       3.315
       3.330
       3.310
       3.246
       3.134
       2.970
       2.752
       2.490
       2.197
       1.882
       1.544
       1.187
       0.818
       0.446
       0.067
      -0.329
      -0.744
      -1.170
      -1.593
      -2.006
      -2.406
      -2.786
      -3.135
      -3.447
      -3.726
      -3.977
      -4.190
      -4.346
      -4.434
      -4.456
      -4.418
      -4.319
      -4.155
      -3.933
      -3.672
      -3.390
      -3.091
      -2.779
      -2.461
      -2.147
      -1.840
      -1.536
      -1.229
      -0.924
      -0.632
      -0.358
      -0.103
       0.129
       0.324
       0.471
       0.568
       0.620
       0.633
       0.611
       0.566
       0.515
       0.472
       0.437
       0.400
       0.361
       0.324
       0.295
       0.267
       0.230
       0.183
       0.133
       0.084
       0.028
      -0.041
      -0.118
      -0.190
      -0.250
      -0.301
      -0.342
      -0.367
      -0.365
      -0.335
      -0.285
      -0.216
      -0.127
      -0.014
       0.114
       0.247
       0.375
       0.495
       0.602
       0.691
       0.766
       0.839
       0.920
       1.007
       1.093
       1.181
       1.283
       1.414
       1.568
       1.734
       1.902
       2.072
       2.241
       2.395
       2.520
       2.608
       2.660
       2.677
       2.655
       2.595
       2.500
       2.372
       2.203
       1.981
       1.702
       1.369
       0.988
       0.552
       0.054
      -0.501
      -1.096
      -1.706
      -2.319
      -2.924
      -3.511
      -4.059
      -4.555
      -4.990
      -5.359
      -5.658
      -5.883
      -6.032
      -6.105
      -6.092
      -5.979
      -5.759
      -5.442
      -5.045
      -4.581
      -4.054
      -3.471
      -2.845
      -2.189
      -1.507
      -0.797
      -0.060
       0.689
       1.435
       2.164
       2.867
       3.529
       4.131
       4.656
       5.093
       5.435
       5.676
       5.809
       5.837
       5.767
       5.603
       5.342
       4.985
       4.545
       4.042
       3.489
       2.892
       2.260
       1.610
       0.968
       0.353
      -0.221
      -0.742
      -1.193
      -1.565
      -1.857
      -2.082
      -2.248
      -2.355
      -2.405
      -2.407
      -2.371
      -2.299
      -2.186
      -2.029
      -1.837
      -1.609
      -1.340
      -1.018
      -0.648
      -0.248
       0.164
       0.573
       0.966
       1.321
       1.615
       1.841
       2.005
       2.117
       2.176
       2.183
       2.146
       2.085
       2.021
       1.963
       1.918
       1.894
       1.902
       1.943
       2.016
       2.114
       2.235
       2.376
       2.518
       2.642
       2.733
       2.782
       2.782
       2.720
       2.595
       2.417
       2.202
       1.963
       1.695
       1.401
       1.092
       0.790
       0.507
       0.242
      -0.014
      -0.268
      -0.521
      -0.778
      -1.045
      -1.325
      -1.615
      -1.909
      -2.206
      -2.501
      -2.782
      -3.038
      -3.262
      -3.452
      -3.599
      -3.692
      -3.721
      -3.680
      -3.572
      -3.396
      -3.151
      -2.845
      -2.498
      -2.132
      -1.761
      -1.386
      -1.013
      -0.654
      -0.325
      -0.034
       0.218
       0.431
       0.604
       0.736
       0.831
       0.894
       0.924
       0.918
       0.874
       0.794
       0.680
       0.531
       0.342
       0.113
      -0.155
      -0.465
      -0.813
      -1.187
      -1.564
      -1.920
      -2.244
      -2.529
      -2.769
      -2.946
      -3.045
      -3.062
      -2.997
      -2.853
      -2.635
      -2.354
      -2.031
      -1.686
      -1.328
      -0.966
      -0.611
      -0.284
       0.004
       0.257
       0.487
       0.700
       0.898
       1.085
       1.273
       1.468
       1.667
       1.862
       2.048
       2.227
       2.398
       2.552
       2.677
       2.765
       2.807
       2.790
       2.700
       2.535
       2.301
       2.007
       1.658
       1.261
       0.830
       0.393
      -0.026
      -0.411
      -0.755
      -1.050
      -1.283
      -1.454
      -1.576
      -1.663
      -1.719
      -1.743
      -1.736
      -1.707
      -1.657
      -1.577
      -1.453
      -1.286
      -1.085
      -0.859
      -0.606
      -0.330
      -0.040
       0.246
       0.516
       0.763
       0.983
       1.166
       1.306
       1.407
       1.483
       1.541
       1.588
       1.629
       1.679
       1.750
       1.845
       1.957
       2.087
       2.239
       2.416
       2.604
       2.782
       2.933
       3.048
       3.115
       3.119
       3.053
       2.928
       2.761
       2.565
       2.344
       2.103
       1.855
       1.613
       1.380
       1.150
       0.925
       0.716
       0.533
       0.374
       0.233
       0.108
       0.006
      -0.075
      -0.147
      -0.221
      -0.295
      -0.358
      -0.408
      -0.450
      -0.489
      -0.520
      -0.528
      -0.509
      -0.465
      -0.399
      -0.312
      -0.203
      -0.082
       0.041
       0.159
       0.278
       0.397
       0.508
       0.598
       0.660
       0.694
       0.698
       0.663
       0.584
       0.469
       0.332
       0.176
      -0.003
      -0.205
      -0.420
      -0.640
      -0.868
      -1.107
      -1.358
      -1.613
      -1.867
      -2.123
      -2.380
      -2.629
      -2.856
      -3.058
      -3.235
      -3.390
      -3.513
      -3.592
      -3.626
      -3.623
      -3.585
      -3.505
      -3.378
      -3.208
      -3.010
      -2.800
      -2.584
      -2.373
      -2.178
      -2.009
      -1.867
      -1.750
      -1.663
      -1.616
      -1.611
      -1.632
      -1.660
      -1.684
      -1.700
      -1.702
      -1.673
      -1.599
      -1.477
      -1.317
      -1.126
      -0.905
      -0.663
      -0.415
      -0.179
       0.042
       0.251
       0.447
       0.622
       0.767
       0.888
       0.998
       1.104
       1.206
       1.303
       1.404
       1.514
       1.635
       1.760
       1.889
       2.024
       2.166
       2.314
       2.461
       2.604
       2.735
       2.845
       2.919
       2.950
       2.940
       2.892
       2.811
       2.703
       2.582
       2.469
       2.377
       2.311
       2.269
       2.256
       2.280
       2.343
       2.434
       2.533
       2.623
       2.695
       2.737
       2.740
       2.702
       2.630
       2.528
       2.392
       2.217
       2.005
       1.771
       1.524
       1.267
       0.994
       0.707
       0.418
       0.135
      -0.143
      -0.423
      -0.709
      -0.996
      -1.278
      -1.552
      -1.812
      -2.049
      -2.249
      -2.409
      -2.528
      -2.607
      -2.643
      -2.632
      -2.580
      -2.498
      -2.394
      -2.274
      -2.153
      -2.052
      -1.986
      -1.961
      -1.967
      -1.999
      -2.047
      -2.103
      -2.149
      -2.169
      -2.157
      -2.106
      -2.011
      -1.864
      -1.665
      -1.430
      -1.178
      -0.922
      -0.665
      -0.412
      -0.172
       0.045
       0.239
       0.408
       0.546
       0.644
       0.701
       0.728
       0.734
       0.725
       0.696
       0.652
       0.603
       0.556
       0.507
       0.449
       0.377
       0.290
       0.188
       0.062
      -0.089
      -0.262
