Origin Time       3/9/2009 19:51:08	 
Lat.              24.3 N	
Long.             94.6 E	
Depth (Km)        100.0
Magnitude         5.9
 Region           MYANMAR-India-Manipuir-Border                                    
 Above details taken from IMD 
   
Station Code      HKD
Station Lat.       24.682
Station Long.      92.563
Station Height(m)   23.0
Site Class        C   Vs30 between 200 m/sec to 375 m/sec *  
Record Time       03.09.2009 19:51:51.044
Sampling Rate     200. Hz
 Record Duration   70.295 Sec.
 Direction         Vert. (Up positive)
Max. Acceleration      2.065 cm/sec**2
     
  * For reference see Site Classification link of website 
     
 Base Line Corrected and Low Pass Filtered (Cut Off at 35 Hz) Time History
 Acceleration data in cm/sec**2
    
[...]
       0.025
      -0.026
      -0.070
      -0.070
      -0.009
       0.097
       0.200
       0.241
       0.191
       0.074
      -0.050
      -0.129
      -0.154
      -0.152
      -0.153
      -0.165
      -0.186
      -0.210
      -0.231
      -0.232
      -0.195
      -0.115
      -0.006
       0.109
       0.214
       0.303
       0.366
       0.390
       0.365
       0.299
       0.208
       0.106
       0.001
      -0.096
      -0.175
      -0.235
      -0.292
      -0.363
      -0.438
      -0.482
      -0.466
      -0.395
      -0.299
      -0.207
      -0.128
      -0.059
       0.000
       0.037
       0.041
       0.018
      -0.007
      -0.009
       0.028
       0.090
       0.141
       0.140
       0.072
      -0.046
      -0.171
      -0.267
      -0.323
      -0.349
      -0.366
      -0.386
      -0.414
      -0.437
      -0.435
      -0.385
      -0.291
      -0.185
      -0.110
      -0.088
      -0.103
      -0.117
      -0.107
      -0.075
      -0.042
      -0.028
      -0.032
      -0.032
       0.003
       0.091
       0.224
       0.361
       0.447
       0.450
       0.377
       0.272
       0.186
       0.150
       0.162
       0.199
       0.233
       0.248
       0.243
       0.224
       0.191
       0.136
       0.041
      -0.099
      -0.268
      -0.427
      -0.537
      -0.580
      -0.572
      -0.551
      -0.551
      -0.572
      -0.579
      -0.524
      -0.386
      -0.191
      -0.003
       0.114
       0.137
       0.088
       0.017
      -0.029
      -0.022
       0.039
       0.140
       0.255
       0.352
       0.405
       0.393
       0.318
       0.198
       0.069
      -0.029
      -0.073
      -0.067
      -0.028
       0.031
       0.106
       0.193
       0.275
       0.329
       0.338
       0.303
       0.243
       0.181
       0.130
       0.097
       0.083
       0.084
       0.088
       0.074
       0.020
      -0.078
      -0.205
      -0.325
      -0.402
      -0.419
      -0.389
      -0.337
      -0.276
      -0.199
      -0.094
       0.031
       0.150
       0.237
       0.286
       0.312
       0.325
       0.320
       0.284
       0.213
       0.121
       0.033
      -0.026
      -0.042
      -0.021
       0.021
       0.075
       0.146
       0.245
       0.363
       0.451
       0.446
       0.312
       0.073
      -0.195
      -0.408
      -0.510
      -0.496
      -0.403
      -0.290
      -0.205
      -0.166
      -0.158
      -0.153
      -0.141
      -0.130
      -0.126
      -0.118
      -0.084
      -0.022
       0.042
       0.061
       0.008
      -0.109
      -0.252
      -0.382
      -0.472
      -0.520
      -0.544
      -0.571
      -0.622
      -0.689
      -0.736
      -0.727
      -0.651
      -0.534
      -0.410
      -0.298
      -0.192
      -0.074
       0.060
       0.196
       0.308
       0.381
       0.419
       0.443
       0.473
       0.511
       0.541
       0.537
       0.483
       0.383
       0.265
       0.169
       0.137
       0.183
       0.276
       0.354
       0.363
       0.284
       0.146
      -0.010
      -0.155
      -0.274
      -0.353
      -0.373
      -0.333
      -0.253
      -0.168
      -0.095
      -0.021
       0.072
       0.176
       0.261
       0.295
       0.270
       0.203
       0.121
       0.050
       0.001
      -0.021
      -0.020
       0.004
       0.053
       0.127
       0.211
       0.279
       0.311
       0.304
       0.267
       0.208
       0.127
       0.027
      -0.069
      -0.130
      -0.139
      -0.103
      -0.046
       0.009
       0.051
       0.085
       0.126
       0.190
       0.279
       0.371
       0.426
       0.416
       0.351
       0.265
       0.188
       0.123
       0.048
      -0.052
      -0.177
      -0.310
      -0.420
      -0.471
      -0.439
      -0.329
      -0.175
      -0.030
       0.071
       0.117
       0.113
       0.063
      -0.022
      -0.104
      -0.132
      -0.073
       0.062
       0.231
       0.387
       0.507
       0.583
       0.620
       0.622
       0.596
       0.536
       0.426
       0.262
       0.065
      -0.114
      -0.235
      -0.300
      -0.342
      -0.388
      -0.431
      -0.450
      -0.446
      -0.444
      -0.478
      -0.564
      -0.689
      -0.819
      -0.911
      -0.926
      -0.851
      -0.710
      -0.546
      -0.381
      -0.208
      -0.002
       0.237
       0.481
       0.689
       0.837
       0.916
       0.924
       0.869
       0.780
       0.705
       0.684
       0.717
       0.776
       0.828
       0.859
       0.868
       0.850
       0.801
       0.723
       0.617
       0.485
       0.325
       0.148
      -0.017
      -0.135
      -0.186
      -0.175
      -0.122
      -0.055
       0.000
       0.017
      -0.014
      -0.089
      -0.194
      -0.321
      -0.473
      -0.638
      -0.780
      -0.841
      -0.778
      -0.591
      -0.323
      -0.032
       0.228
       0.422
       0.531
       0.552
       0.494
       0.367
       0.186
      -0.026
      -0.234
      -0.397
      -0.487
      -0.493
      -0.419
      -0.279
      -0.099
       0.088
       0.249
       0.360
       0.413
       0.401
       0.319
       0.175
       0.002
      -0.142
      -0.211
      -0.192
      -0.108
       0.009
       0.128
       0.219
       0.248
       0.191
       0.051
      -0.136
      -0.326
      -0.490
      -0.611
      -0.669
      -0.644
      -0.530
      -0.356
      -0.165
       0.020
       0.206
       0.410
       0.617
       0.778
       0.844
       0.800
       0.675
       0.522
       0.382
       0.272
       0.193
       0.140
       0.107
       0.085
       0.058
       0.005
      -0.092
      -0.238
      -0.430
      -0.653
      -0.886
      -1.094
      -1.237
      -1.282
      -1.219
      -1.075
      -0.898
      -0.738
      -0.621
      -0.536
      -0.460
      -0.377
      -0.289
      -0.206
      -0.126
      -0.031
       0.092
       0.239
       0.389
       0.528
       0.661
       0.805
       0.967
       1.130
       1.263
       1.338
       1.333
       1.228
       1.007
       0.670
       0.246
      -0.213
      -0.654
      -1.033
      -1.324
      -1.512
      -1.593
      -1.577
      -1.478
      -1.319
      -1.129
      -0.936
      -0.768
      -0.634
      -0.525
      -0.420
      -0.296
      -0.145
       0.020
       0.169
       0.269
       0.306
       0.295
       0.263
       0.231
       0.192
       0.124
       0.022
      -0.089
      -0.161
      -0.161
      -0.089
       0.035
       0.182
       0.330
       0.456
       0.541
       0.582
       0.594
       0.596
       0.600
       0.606
       0.610
       0.612
       0.613
       0.615
       0.615
       0.616
       0.620
       0.621
       0.601
       0.547
       0.457
       0.336
       0.188
       0.009
      -0.184
      -0.356
      -0.464
      -0.497
      -0.481
      -0.468
      -0.500
      -0.582
      -0.691
      -0.783
      -0.814
      -0.755
      -0.601
      -0.366
      -0.073
       0.256
       0.584
       0.861
       1.036
       1.087
       1.037
       0.939
       0.831
       0.714
       0.559
       0.340
       0.064
      -0.233
      -0.496
      -0.681
      -0.768
      -0.762
      -0.687
      -0.566
      -0.407
      -0.214
       0.003
       0.227
       0.443
       0.639
       0.799
       0.899
       0.909
       0.820
       0.652
       0.449
       0.256
       0.108
       0.028
       0.014
       0.045
       0.082
       0.103
       0.105
       0.095
       0.061
      -0.032
      -0.204
      -0.432
      -0.661
      -0.840
      -0.950
      -0.991
      -0.962
      -0.860
      -0.702
      -0.525
      -0.373
      -0.269
      -0.211
      -0.183
      -0.164
      -0.132
      -0.072
       0.019
       0.120
       0.202
       0.251
       0.270
       0.270
       0.254
       0.221
       0.177
       0.135
       0.108
       0.100
       0.103
       0.094
       0.046
      -0.061
      -0.220
      -0.397
      -0.548
      -0.644
      -0.684
      -0.686
      -0.667
      -0.641
      -0.623
      -0.616
      -0.602
      -0.552
      -0.444
      -0.288
      -0.120
       0.031
       0.151
       0.249
       0.327
       0.386
       0.426
       0.458
       0.493
       0.542
       0.613
       0.699
       0.775
       0.800
       0.741
       0.602
       0.428
       0.277
       0.179
       0.126
       0.093
       0.061
       0.023
      -0.023
      -0.070
      -0.103
      -0.109
      -0.086
      -0.059
      -0.052
      -0.074
      -0.116
      -0.169
      -0.233
      -0.308
      -0.380
      -0.424
      -0.422
      -0.374
      -0.289
      -0.178
      -0.054
       0.069
       0.185
       0.306
       0.455
       0.633
       0.807
       0.924
       0.948
       0.881
       0.745
       0.561
       0.343
       0.106
      -0.132
      -0.355
      -0.551
      -0.700
      -0.772
      -0.748
      -0.646
      -0.517
      -0.418
      -0.380
      -0.388
      -0.403
      -0.388
      -0.330
      -0.250
      -0.185
      -0.161
      -0.173
      -0.188
      -0.179
      -0.149
      -0.122
      -0.116
      -0.127
      -0.141
      -0.146
      -0.138
      -0.103
      -0.022
       0.117
       0.289
       0.452
       0.567
       0.621
       0.617
       0.562
       0.460
       0.325
       0.180
       0.047
      -0.063
      -0.153
      -0.228
      -0.303
      -0.393
      -0.512
      -0.651
      -0.778
      -0.859
      -0.881
      -0.858
      -0.815
      -0.762
      -0.690
      -0.585
      -0.436
      -0.244
      -0.021
       0.215
       0.440
       0.638
       0.815
       0.990
       1.175
       1.355
       1.490
       1.536
       1.475
       1.312
       1.074
       0.788
       0.479
       0.170
      -0.115
      -0.350
      -0.524
      -0.650
      -0.759
      -0.873
      -0.992
      -1.091
      -1.146
      -1.152
      -1.122
      -1.070
      -0.998
      -0.899
      -0.770
      -0.617
      -0.446
      -0.258
      -0.053
       0.159
       0.362
       0.539
       0.682
       0.790
       0.862
       0.900
       0.911
       0.917
       0.944
       1.001
       1.079
       1.155
       1.210
       1.240
       1.245
       1.216
       1.134
       0.992
       0.807
       0.613
       0.432
       0.263
       0.086
      -0.111
      -0.314
      -0.503
      -0.657
      -0.769
      -0.842
      -0.880
      -0.891
      -0.887
      -0.885
      -0.895
      -0.924
      -0.969
      -1.025
      -1.081
      -1.128
      -1.157
      -1.160
      -1.128
      -1.048
      -0.923
      -0.775
      -0.641
      -0.552
      -0.512
      -0.502
      -0.492
      -0.462
      -0.400
      -0.288
      -0.107
       0.141
       0.422
       0.681
       0.868
       0.955
       0.949
       0.882
       0.793
       0.716
       0.670
       0.654
       0.655
       0.661
       0.652
       0.603
       0.489
       0.304
       0.078
      -0.147
      -0.343
      -0.508
      -0.649
      -0.763
      -0.836
      -0.871
      -0.886
      -0.900
      -0.906
      -0.881
      -0.802
      -0.665
      -0.483
      -0.266
      -0.022
       0.234
       0.482
       0.694
       0.844
       0.915
       0.911
       0.861
       0.816
       0.821
       0.888
       0.989
       1.083
       1.145
       1.172
       1.161
       1.105
       0.991
       0.817
       0.602
       0.375
       0.170
       0.015
      -0.079
      -0.116
      -0.111
      -0.076
      -0.014
       0.074
       0.169
       0.245
       0.284
       0.291
       0.276
       0.241
       0.180
       0.108
       0.057
       0.062
       0.128
       0.228
       0.323
       0.391
       0.419
       0.405
       0.352
       0.277
       0.196
       0.103
      -0.030
      -0.229
      -0.482
      -0.744
      -0.977
      -1.173
      -1.348
      -1.508
      -1.631
      -1.679
      -1.630
      -1.488
      -1.274
      -1.021
      -0.765
      -0.540
      -0.364
      -0.232
      -0.117
       0.009
       0.168
       0.363
       0.578
       0.787
       0.969
       1.123
       1.258
       1.376
       1.454
       1.463
       1.392
       1.260
       1.100
       0.928
       0.736
       0.514
       0.265
       0.005
      -0.257
      -0.514
      -0.758
      -0.973
      -1.140
      -1.256
      -1.336
      -1.404
      -1.485
      -1.598
      -1.741
      -1.887
      -1.997
      -2.046
      -2.033
      -1.974
      -1.872
      -1.710
      -1.472
      -1.166
      -0.830
      -0.508
      -0.228
       0.012
       0.228
       0.441
       0.660
       0.873
       1.062
       1.215
       1.339
       1.453
       1.566
       1.666
       1.733
       1.758
       1.744
       1.691
       1.578
       1.389
       1.130
       0.838
       0.552
       0.295
       0.069
      -0.128
      -0.300
      -0.450
      -0.582
      -0.696
      -0.781
      -0.829
      -0.848
      -0.853
      -0.851
      -0.831
      -0.776
      -0.684
      -0.565
      -0.443
      -0.333
      -0.249
      -0.201
      -0.189
      -0.198
      -0.201
      -0.177
      -0.108
       0.015
       0.197
       0.435
       0.717
       1.022
       1.325
       1.604
       1.833
       1.988
       2.061
       2.065
       2.026
       1.963
       1.876
       1.762
       1.626
       1.485
       1.347
       1.199
       1.012
       0.761
       0.457
       0.136
      -0.152
      -0.372
      -0.519
      -0.612
      -0.679
      -0.740
      -0.793
      -0.831
      -0.852
      -0.860
      -0.856
      -0.831
      -0.782
      -0.727
      -0.694
      -0.698
      -0.721
      -0.724
      -0.682
      -0.603
      -0.519
      -0.457
      -0.419
      -0.391
      -0.346
      -0.269
      -0.159
      -0.036
       0.075
       0.162
       0.225
       0.269
       0.288
       0.264
       0.193
       0.092
      -0.013
      -0.103
      -0.174
      -0.220
      -0.232
      -0.205
      -0.161
      -0.145
      -0.186
      -0.274
      -0.357
      -0.387
      -0.351
      -0.281
      -0.229
      -0.234
      -0.308
      -0.433
      -0.576
      -0.705
      -0.799
      -0.845
      -0.838
      -0.783
      -0.690
      -0.574
      -0.451
      -0.331
      -0.217
      -0.112
      -0.026
       0.036
       0.077
       0.110
       0.151
       0.207
       0.266
       0.309
       0.327
       0.327
       0.330
       0.347
       0.371
       0.385
       0.382
       0.374
       0.385
       0.422
       0.470
       0.499
       0.482
       0.416
       0.322
       0.225
       0.154
       0.125
       0.143
       0.191
       0.240
       0.265
       0.259
       0.242
       0.234
       0.235
       0.218
       0.154
       0.030
      -0.139
      -0.328
      -0.518
      -0.702
      -0.875
      -1.023
      -1.129
      -1.176
      -1.158
      -1.073
      -0.926
      -0.725
      -0.496
      -0.280
      -0.119
      -0.029
       0.003
       0.007
       0.002
      -0.006
      -0.011
       0.002
       0.046
       0.125
       0.226
       0.337
       0.464
       0.621
       0.810
       1.013
       1.203
       1.360
       1.475
       1.544
       1.560
       1.514
       1.404
       1.237
       1.035
       0.829
       0.645
       0.496
       0.370
       0.245
       0.102
      -0.051
      -0.188
      -0.287
      -0.349
      -0.397
      -0.459
      -0.552
      -0.675
      -0.809
      -0.935
      -1.042
      -1.135
      -1.224
      -1.309
      -1.374
      -1.402
      -1.392
      -1.348
      -1.268
      -1.141
      -0.960
      -0.739
      -0.510
      -0.291
      -0.078
       0.135
       0.337
       0.502
       0.612
       0.676
       0.716
       0.746
       0.768
       0.777
       0.774
       0.752
       0.697
       0.605
       0.495
       0.400
       0.342
       0.319
       0.311
       0.303
       0.291
       0.275
       0.255
       0.236
       0.225
       0.221
       0.214
       0.192
       0.162
       0.145
       0.157
       0.190
       0.230
       0.264
       0.294
       0.318
       0.328
       0.317
       0.294
       0.274
       0.269
       0.281
       0.310
       0.356
       0.411
       0.449
       0.442
       0.379
       0.273
       0.138
      -0.036
      -0.266
      -0.545
      -0.835
      -1.079
      -1.241
      -1.315
      -1.314
      -1.260
      -1.167
      -1.051
      -0.917
      -0.763
      -0.586
      -0.396
      -0.211
      -0.039
       0.129
       0.302
       0.472
       0.619
       0.731
       0.815
       0.874
       0.902
       0.882
       0.810
       0.698
       0.561
       0.402
       0.218
       0.018
      -0.178
      -0.352
      -0.501
      -0.634
      -0.758
      -0.864
      -0.935
      -0.954
      -0.918
      -0.848
      -0.788
      -0.781
      -0.841
      -0.943
      -1.042
      -1.109
      -1.147
      -1.174
      -1.192
      -1.187
      -1.139
      -1.043
      -0.910
      -0.752
      -0.578
      -0.389
      -0.180
       0.054
       0.312
       0.570
       0.794
       0.955
       1.047
       1.080
       1.064
       1.006
       0.922
       0.839
       0.785
       0.759
       0.742
       0.718
       0.692
       0.684
       0.698
       0.712
       0.699
       0.651
       0.573
       0.466
       0.318
       0.127
      -0.096
      -0.330
      -0.566
      -0.812
      -1.067
      -1.306
      -1.482
      -1.560
      -1.537
      -1.443
      -1.306
      -1.142
      -0.953
      -0.747
      -0.533
      -0.319
      -0.103
       0.119
       0.342
       0.549
       0.724
       0.857
       0.950
       1.013
       1.056
       1.078
       1.071
       1.024
       0.938
       0.824
       0.698
       0.577
       0.473
       0.391
       0.326
       0.270
       0.219
       0.179
       0.152
       0.129
       0.092
       0.027
      -0.068
      -0.180
      -0.295
      -0.401
      -0.489
      -0.559
      -0.616
      -0.672
      -0.736
      -0.800
      -0.843
      -0.850
      -0.823
      -0.769
      -0.688
      -0.572
      -0.426
      -0.277
      -0.165
      -0.110
      -0.101
      -0.111
      -0.127
      -0.155
      -0.204
      -0.261
      -0.291
      -0.267
      -0.187
      -0.075
       0.042
       0.156
       0.274
       0.398
       0.514
       0.596
       0.637
       0.646
       0.643
       0.632
       0.604
       0.555
       0.495
       0.442
       0.403
       0.371
       0.338
       0.309
       0.295
       0.306
       0.336
       0.367
       0.374
       0.336
       0.240
       0.089
      -0.097
      -0.286
      -0.453
      -0.590
      -0.699
      -0.785
      -0.847
      -0.880
      -0.886
      -0.869
      -0.840
      -0.803
      -0.755
      -0.687
      -0.589
      -0.461
      -0.318
      -0.175
      -0.039
       0.095
       0.235
       0.381
       0.528
       0.670
       0.809
       0.934
       1.025
