Origin Time       11/8/2009 21:43:39 
Lat.              24.4 N 
Long.             94.8 E 
Depth (Km)         22.0
Magnitude         5.6
 Region           MYANMAR-INDIA(MANIPUR)BORDER                                     
 Above details taken from IMD 
   
Station Code      HKD
Station Lat.       24.682
Station Long.      92.563
Station Height(m)   23.0
Site Class        C   Vs30 between 200 m/sec to 375 m/sec *  
Record Time       11.08.2009 21:44:29.959
Sampling Rate     200. Hz
 Record Duration   70.410 Sec.
 Direction         Vert. (Up positive)
Max. Acceleration      5.067 cm/sec**2
     
  * For reference see Site Classification link of website 
     
 Base Line Corrected and Low Pass Filtered (Cut Off at 35 Hz) Time History
 Acceleration data in cm/sec**2
    
[...]
      -0.474
      -0.520
      -0.515
      -0.483
      -0.434
      -0.370
      -0.290
      -0.193
      -0.076
       0.052
       0.157
       0.205
       0.198
       0.188
       0.231
       0.340
       0.479
       0.603
       0.694
       0.768
       0.853
       0.950
       1.024
       1.032
       0.947
       0.779
       0.574
       0.400
       0.309
       0.303
       0.317
       0.266
       0.110
      -0.112
      -0.309
      -0.389
      -0.321
      -0.142
       0.068
       0.235
       0.327
       0.364
       0.391
       0.441
       0.525
       0.630
       0.722
       0.764
       0.733
       0.624
       0.444
       0.196
      -0.120
      -0.488
      -0.866
      -1.207
      -1.487
      -1.720
      -1.921
      -2.059
      -2.060
      -1.861
      -1.465
      -0.947
      -0.398
       0.118
       0.569
       0.929
       1.181
       1.330
       1.405
       1.429
       1.399
       1.307
       1.174
       1.031
       0.888
       0.714
       0.476
       0.193
      -0.070
      -0.248
      -0.333
      -0.357
      -0.349
      -0.307
      -0.225
      -0.115
      -0.004
       0.095
       0.182
       0.251
       0.277
       0.245
       0.168
       0.061
      -0.086
      -0.294
      -0.547
      -0.784
      -0.946
      -1.029
      -1.086
      -1.180
      -1.321
      -1.468
      -1.555
      -1.543
      -1.428
      -1.231
      -0.979
      -0.689
      -0.370
      -0.028
       0.311
       0.590
       0.746
       0.759
       0.675
       0.570
       0.500
       0.473
       0.481
       0.524
       0.600
       0.689
       0.764
       0.808
       0.823
       0.804
       0.741
       0.624
       0.463
       0.287
       0.134
       0.032
      -0.012
      -0.013
      -0.004
      -0.031
      -0.127
      -0.290
      -0.478
      -0.636
      -0.738
      -0.791
      -0.811
      -0.806
      -0.771
      -0.690
      -0.535
      -0.267
       0.124
       0.591
       1.038
       1.382
       1.588
       1.659
       1.595
       1.380
       1.012
       0.533
       0.020
      -0.450
      -0.832
      -1.100
      -1.233
      -1.226
      -1.117
      -0.986
      -0.908
      -0.914
      -0.991
      -1.117
      -1.270
      -1.420
      -1.510
      -1.489
      -1.331
      -1.048
      -0.663
      -0.196
       0.330
       0.871
       1.347
       1.664
       1.756
       1.615
       1.300
       0.900
       0.500
       0.164
      -0.065
      -0.172
      -0.174
      -0.112
      -0.036
       0.024
       0.067
       0.117
       0.199
       0.319
       0.466
       0.623
       0.764
       0.861
       0.888
       0.840
       0.746
       0.642
       0.548
       0.463
       0.385
       0.325
       0.290
       0.270
       0.250
       0.224
       0.187
       0.135
       0.063
      -0.015
      -0.068
      -0.069
      -0.028
       0.003
      -0.031
      -0.148
      -0.319
      -0.511
      -0.712
      -0.918
      -1.112
      -1.263
      -1.353
      -1.375
      -1.311
      -1.122
      -0.777
      -0.299
       0.234
       0.740
       1.162
       1.479
       1.685
       1.783
       1.781
       1.689
       1.511
       1.241
       0.879
       0.452
       0.015
      -0.378
      -0.701
      -0.957
      -1.148
      -1.268
      -1.311
      -1.288
      -1.218
      -1.113
      -0.973
      -0.797
      -0.580
      -0.320
      -0.027
       0.270
       0.524
       0.707
       0.831
       0.925
       1.001
       1.046
       1.042
       0.995
       0.921
       0.823
       0.684
       0.494
       0.270
       0.052
      -0.128
      -0.263
      -0.360
      -0.422
      -0.462
      -0.505
      -0.574
      -0.659
      -0.721
      -0.729
      -0.698
      -0.674
      -0.683
      -0.724
      -0.786
      -0.866
      -0.952
      -1.015
      -1.021
      -0.960
      -0.851
      -0.707
      -0.513
      -0.242
       0.101
       0.462
       0.766
       0.966
       1.050
       1.027
       0.912
       0.739
       0.555
       0.387
       0.223
       0.033
      -0.172
      -0.331
      -0.382
      -0.316
      -0.184
      -0.041
       0.092
       0.223
       0.373
       0.550
       0.743
       0.925
       1.059
       1.113
       1.071
       0.938
       0.724
       0.440
       0.104
      -0.249
      -0.565
      -0.805
      -0.968
      -1.083
      -1.166
      -1.207
      -1.185
      -1.097
      -0.971
      -0.836
      -0.714
      -0.609
      -0.507
      -0.381
      -0.207
       0.009
       0.229
       0.413
       0.557
       0.694
       0.857
       1.047
       1.228
       1.362
       1.438
       1.476
       1.492
       1.474
       1.396
       1.252
       1.056
       0.829
       0.568
       0.261
      -0.095
      -0.481
      -0.856
      -1.189
      -1.470
      -1.715
      -1.949
      -2.186
      -2.414
      -2.599
      -2.697
      -2.659
      -2.440
      -2.028
      -1.455
      -0.775
      -0.045
       0.683
       1.336
       1.825
       2.094
       2.165
       2.138
       2.118
       2.133
       2.123
       1.998
       1.718
       1.308
       0.822
       0.311
      -0.170
      -0.563
      -0.831
      -0.989
      -1.100
      -1.218
      -1.354
      -1.482
      -1.574
      -1.614
      -1.587
      -1.478
      -1.293
      -1.063
      -0.825
      -0.596
      -0.363
      -0.104
       0.196
       0.530
       0.883
       1.231
       1.535
       1.753
       1.870
       1.902
       1.883
       1.821
       1.708
       1.541
       1.349
       1.173
       1.024
       0.891
       0.766
       0.652
       0.551
       0.455
       0.346
       0.216
       0.056
      -0.154
      -0.442
      -0.814
      -1.247
      -1.694
      -2.125
      -2.533
      -2.901
      -3.176
      -3.285
      -3.180
      -2.876
      -2.419
      -1.852
      -1.198
      -0.483
       0.254
       0.964
       1.597
       2.105
       2.440
       2.578
       2.534
       2.349
       2.059
       1.695
       1.298
       0.924
       0.613
       0.364
       0.139
      -0.102
      -0.356
      -0.585
      -0.754
      -0.863
      -0.944
      -1.031
      -1.139
      -1.262
      -1.380
      -1.450
      -1.427
      -1.289
      -1.061
      -0.799
      -0.552
      -0.349
      -0.200
      -0.107
      -0.055
      -0.005
       0.080
       0.214
       0.386
       0.591
       0.840
       1.151
       1.526
       1.933
       2.323
       2.649
       2.872
       2.960
       2.884
       2.644
       2.274
       1.813
       1.283
       0.684
       0.025
      -0.665
      -1.341
      -1.960
      -2.485
      -2.881
      -3.121
      -3.203
      -3.150
      -2.982
      -2.707
      -2.325
      -1.844
      -1.289
      -0.695
      -0.104
       0.446
       0.933
       1.348
       1.689
       1.942
       2.090
       2.117
       2.026
       1.836
       1.568
       1.240
       0.875
       0.509
       0.191
      -0.050
      -0.216
      -0.331
      -0.421
      -0.506
      -0.609
      -0.736
      -0.866
      -0.945
      -0.926
      -0.808
      -0.627
      -0.425
      -0.227
      -0.045
       0.114
       0.241
       0.330
       0.379
       0.394
       0.382
       0.355
       0.336
       0.357
       0.441
       0.587
       0.766
       0.936
       1.052
       1.079
       1.000
       0.828
       0.588
       0.293
      -0.065
      -0.485
      -0.926
      -1.322
      -1.635
      -1.869
      -2.051
      -2.193
      -2.288
      -2.322
      -2.282
      -2.153
      -1.910
      -1.535
      -1.037
      -0.454
       0.174
       0.825
       1.473
       2.073
       2.564
       2.900
       3.071
       3.078
       2.915
       2.584
       2.132
       1.650
       1.222
       0.872
       0.574
       0.292
       0.001
      -0.309
      -0.640
      -0.970
      -1.254
      -1.441
      -1.508
      -1.469
      -1.360
      -1.219
      -1.075
      -0.950
      -0.855
      -0.778
      -0.698
      -0.616
      -0.555
      -0.527
      -0.495
      -0.394
      -0.203
       0.019
       0.178
       0.229
       0.206
       0.176
       0.176
       0.211
       0.271
       0.351
       0.440
       0.520
       0.583
       0.637
       0.694
       0.744
       0.758
       0.714
       0.632
       0.564
       0.544
       0.552
       0.532
       0.432
       0.240
      -0.022
      -0.309
      -0.578
      -0.799
      -0.976
      -1.134
      -1.293
      -1.438
      -1.525
      -1.508
      -1.363
      -1.092
      -0.727
      -0.337
       0.000
       0.229
       0.351
       0.418
       0.492
       0.601
       0.728
       0.835
       0.891
       0.885
       0.813
       0.675
       0.490
       0.286
       0.086
      -0.103
      -0.274
      -0.395
      -0.413
      -0.294
      -0.050
       0.263
       0.573
       0.826
       1.006
       1.131
       1.210
       1.217
       1.096
       0.807
       0.376
      -0.108
      -0.550
      -0.895
      -1.152
      -1.360
      -1.549
      -1.713
      -1.829
      -1.878
      -1.857
      -1.768
      -1.617
      -1.411
      -1.166
      -0.891
      -0.594
      -0.288
       0.003
       0.253
       0.441
       0.556
       0.596
       0.576
       0.528
       0.490
       0.475
       0.477
       0.479
       0.467
       0.418
       0.316
       0.175
       0.045
      -0.003
       0.064
       0.226
       0.424
       0.623
       0.829
       1.060
       1.298
       1.489
       1.590
       1.596
       1.528
       1.391
       1.177
       0.896
       0.595
       0.323
       0.099
      -0.085
      -0.233
      -0.336
      -0.391
      -0.411
      -0.412
      -0.396
      -0.352
      -0.273
      -0.172
      -0.079
      -0.022
      -0.004
      -0.014
      -0.035
      -0.044
      -0.017
       0.052
       0.137
       0.198
       0.210
       0.176
       0.112
       0.030
      -0.061
      -0.143
      -0.202
      -0.254
      -0.339
      -0.474
      -0.631
      -0.760
      -0.839
      -0.890
      -0.950
      -1.022
      -1.063
      -1.020
      -0.870
      -0.633
      -0.345
      -0.037
       0.263
       0.542
       0.798
       1.037
       1.257
       1.430
       1.526
       1.536
       1.480
       1.373
       1.223
       1.050
       0.907
       0.846
       0.871
       0.930
       0.948
       0.877
       0.701
       0.422
       0.049
      -0.397
      -0.876
      -1.343
      -1.764
      -2.118
      -2.383
      -2.520
      -2.502
      -2.343
      -2.103
      -1.845
      -1.607
      -1.408
      -1.272
      -1.217
      -1.235
      -1.277
      -1.288
      -1.247
      -1.173
      -1.102
      -1.054
      -1.027
      -0.998
      -0.944
      -0.856
      -0.739
      -0.598
      -0.428
      -0.220
       0.032
       0.325
       0.642
       0.961
       1.254
       1.491
       1.650
       1.724
       1.739
       1.737
       1.744
       1.753
       1.744
       1.722
       1.716
       1.742
       1.776
       1.766
       1.671
       1.470
       1.153
       0.713
       0.171
      -0.420
      -1.002
      -1.535
      -1.998
      -2.367
      -2.597
      -2.645
      -2.511
      -2.257
      -1.963
      -1.673
      -1.376
      -1.034
      -0.631
      -0.186
       0.261
       0.670
       1.010
       1.279
       1.503
       1.723
       1.958
       2.193
       2.393
       2.529
       2.583
       2.546
       2.416
       2.210
       1.960
       1.698
       1.448
       1.210
       0.975
       0.730
       0.471
       0.199
      -0.090
      -0.408
      -0.762
      -1.138
      -1.490
      -1.755
      -1.893
      -1.916
      -1.885
      -1.860
      -1.846
      -1.799
      -1.667
      -1.433
      -1.110
      -0.714
      -0.268
       0.184
       0.588
       0.914
       1.171
       1.375
       1.514
       1.556
       1.497
       1.384
       1.283
       1.231
       1.212
       1.188
       1.125
       0.999
       0.783
       0.472
       0.117
      -0.188
      -0.380
      -0.478
      -0.554
      -0.656
      -0.757
      -0.807
      -0.786
      -0.728
      -0.677
      -0.664
      -0.707
      -0.816
      -0.977
      -1.141
      -1.244
      -1.244
      -1.142
      -0.972
      -0.765
      -0.527
      -0.256
       0.039
       0.335
       0.609
       0.836
       0.989
       1.054
       1.050
       1.019
       0.988
       0.945
       0.857
       0.709
       0.510
       0.270
      -0.016
      -0.348
      -0.700
      -1.033
      -1.314
      -1.522
      -1.634
      -1.635
      -1.529
      -1.345
      -1.119
      -0.875
      -0.627
      -0.393
      -0.199
      -0.058
       0.060
       0.201
       0.376
       0.545
       0.656
       0.703
       0.716
       0.712
       0.663
       0.527
       0.304
       0.042
      -0.213
      -0.445
      -0.657
      -0.847
      -1.014
      -1.169
      -1.339
      -1.539
      -1.747
      -1.913
      -2.000
      -2.026
      -2.040
      -2.080
      -2.134
      -2.152
      -2.081
      -1.888
      -1.566
      -1.130
      -0.606
      -0.015
       0.638
       1.356
       2.126
       2.903
       3.613
       4.192
       4.611
       4.878
       5.023
       5.067
       5.000
       4.786
       4.395
       3.828
       3.120
       2.315
       1.462
       0.604
      -0.222
      -0.995
      -1.705
      -2.352
      -2.932
      -3.425
      -3.806
      -4.056
      -4.176
      -4.168
      -4.025
      -3.733
      -3.287
      -2.707
      -2.028
      -1.287
      -0.525
       0.220
       0.923
       1.573
       2.164
       2.668
       3.050
       3.305
       3.466
       3.568
       3.617
       3.587
       3.453
       3.221
       2.910
       2.533
       2.078
       1.539
       0.936
       0.312
      -0.290
      -0.847
      -1.343
      -1.773
      -2.147
      -2.494
      -2.827
      -3.124
      -3.335
      -3.433
      -3.428
      -3.335
      -3.141
      -2.825
      -2.393
      -1.889
      -1.353
      -0.795
      -0.204
       0.411
       1.014
       1.562
       2.031
       2.421
       2.729
       2.945
       3.062
       3.074
       2.967
       2.715
       2.302
       1.763
       1.164
       0.560
      -0.040
      -0.644
      -1.234
      -1.758
      -2.180
      -2.503
      -2.755
      -2.949
      -3.079
      -3.138
      -3.128
      -3.058
      -2.923
      -2.716
      -2.433
      -2.087
      -1.691
      -1.254
      -0.787
      -0.310
       0.149
       0.576
       0.971
       1.338
       1.669
       1.958
       2.212
       2.449
       2.665
       2.819
       2.868
       2.795
       2.614
       2.340
       1.989
       1.591
       1.197
       0.854
       0.580
       0.365
       0.183
       0.013
      -0.164
      -0.361
      -0.587
      -0.837
      -1.093
      -1.335
      -1.551
      -1.723
      -1.824
      -1.826
      -1.730
      -1.574
      -1.389
      -1.179
      -0.922
      -0.619
      -0.310
      -0.050
       0.130
       0.231
       0.279
       0.307
       0.345
       0.394
       0.424
       0.392
       0.283
       0.126
      -0.027
      -0.137
      -0.200
      -0.230
      -0.227
      -0.165
      -0.017
       0.214
       0.498
       0.794
       1.065
       1.271
       1.382
       1.399
       1.357
       1.298
       1.244
       1.190
       1.122
       1.031
       0.904
       0.724
       0.486
       0.202
      -0.099
      -0.386
      -0.634
      -0.831
      -0.972
      -1.057
      -1.083
      -1.047
      -0.953
      -0.803
      -0.602
      -0.366
      -0.123
       0.097
       0.271
       0.384
       0.427
       0.400
       0.314
       0.185
       0.028
      -0.132
      -0.257
      -0.306
      -0.264
      -0.157
      -0.031
       0.086
       0.195
       0.313
       0.456
       0.639
       0.860
       1.101
       1.322
       1.472
       1.515
       1.439
       1.256
       0.991
       0.665
       0.292
      -0.114
      -0.531
      -0.930
      -1.275
      -1.538
      -1.712
      -1.819
      -1.891
      -1.941
      -1.949
      -1.891
      -1.762
      -1.580
      -1.353
      -1.075
      -0.749
      -0.414
      -0.115
       0.121
       0.299
       0.427
       0.502
       0.512
       0.461
       0.375
       0.285
       0.202
       0.127
       0.073
       0.067
       0.121
       0.224
       0.360
       0.530
       0.749
       1.010
       1.281
       1.532
       1.763
       1.983
       2.176
       2.304
       2.337
       2.277
       2.133
       1.896
       1.543
       1.059
       0.461
      -0.211
      -0.896
      -1.528
      -2.048
      -2.428
      -2.690
      -2.896
      -3.080
      -3.218
      -3.247
      -3.130
      -2.895
      -2.594
      -2.251
      -1.853
      -1.391
      -0.889
      -0.386
       0.083
       0.487
       0.793
       0.980
       1.070
       1.113
       1.145
       1.156
       1.102
       0.956
       0.743
       0.510
       0.284
       0.062
      -0.163
      -0.366
      -0.509
      -0.575
      -0.574
      -0.521
      -0.415
      -0.249
      -0.032
       0.215
       0.473
       0.731
       0.981
       1.206
       1.380
       1.470
       1.443
       1.286
       1.029
       0.725
       0.421
       0.127
      -0.164
      -0.446
      -0.691
      -0.863
      -0.953
      -0.981
      -0.981
      -0.967
      -0.931
      -0.863
      -0.766
      -0.651
      -0.528
      -0.407
      -0.303
      -0.228
      -0.179
      -0.142
      -0.111
      -0.100
      -0.122
      -0.164
      -0.191
      -0.172
      -0.096
       0.034
       0.209
       0.425
       0.686
       0.985
       1.299
       1.596
       1.846
       2.026
       2.111
       2.074
       1.896
       1.586
       1.191
       0.783
       0.426
       0.156
      -0.032
      -0.163
      -0.267
      -0.361
      -0.461
      -0.574
      -0.689
      -0.775
      -0.806
      -0.786
      -0.730
      -0.631
      -0.465
      -0.218
       0.087
       0.408
       0.718
       1.016
       1.301
       1.540
       1.685
       1.710
       1.631
       1.484
       1.295
       1.060
       0.774
       0.441
       0.073
      -0.325
      -0.743
      -1.151
      -1.508
      -1.779
      -1.952
      -2.028
      -2.002
      -1.876
      -1.677
      -1.440
      -1.179
      -0.888
      -0.563
      -0.222
       0.104
       0.393
       0.638
       0.828
       0.941
       0.961
       0.906
       0.826
       0.763
       0.720
       0.675
       0.624
       0.590
       0.585
       0.589
       0.570
       0.520
       0.456
       0.386
       0.296
       0.175
       0.040
      -0.086
      -0.201
      -0.322
      -0.448
      -0.552
      -0.596
      -0.573
      -0.506
      -0.422
      -0.332
      -0.233
      -0.128
      -0.031
       0.047
       0.115
       0.182
       0.245
       0.292
