Origin Time       29/12/2009 09:01:42
Lat.              24.5°N	
Long.             94.8°E	
Depth (Km)         80.0
Magnitude         5.5
 Region           MYANMAR-INDIA(MANIPUR)-BORDER                                    
 Above details taken from IMD 
     
Station Code      HKD
Station Lat.       24.682  N
Station Long.      92.563  E
Station Height(m)   23.0
Site Class        C   Vs30 between 200 m/sec to 375 m/sec *  
Record Time       29.12.2009 09:02:22.959
Sampling Rate     200. Hz
 Record Duration  121.155 Sec.
 Direction         E-W (E positive)
Max. Acceleration     -7.049 cm/sec**2
     
  * For reference see Site Classification link of website 
     
 Base Line Corrected and Low Pass Filtered (Cut Off at 35 Hz) Time History
 Acceleration data in cm/sec**2
    
[...]
      -0.064
      -0.081
      -0.093
      -0.096
      -0.089
      -0.071
      -0.045
      -0.021
      -0.005
       0.003
       0.016
       0.051
       0.109
       0.178
       0.236
       0.269
       0.277
       0.264
       0.237
       0.203
       0.168
       0.137
       0.113
       0.094
       0.078
       0.068
       0.069
       0.083
       0.108
       0.130
       0.139
       0.125
       0.094
       0.051
       0.004
      -0.046
      -0.094
      -0.137
      -0.169
      -0.190
      -0.202
      -0.208
      -0.204
      -0.188
      -0.162
      -0.131
      -0.104
      -0.083
      -0.066
      -0.050
      -0.032
      -0.013
       0.010
       0.041
       0.079
       0.118
       0.144
       0.145
       0.117
       0.067
       0.000
      -0.074
      -0.142
      -0.192
      -0.213
      -0.202
      -0.162
      -0.101
      -0.024
       0.062
       0.145
       0.210
       0.248
       0.257
       0.246
       0.219
       0.181
       0.129
       0.063
      -0.011
      -0.085
      -0.150
      -0.201
      -0.239
      -0.269
      -0.287
      -0.287
      -0.261
      -0.212
      -0.151
      -0.091
      -0.038
       0.011
       0.058
       0.101
       0.138
       0.166
       0.190
       0.214
       0.240
       0.263
       0.281
       0.296
       0.311
       0.327
       0.342
       0.353
       0.358
       0.356
       0.349
       0.337
       0.323
       0.306
       0.282
       0.249
       0.210
       0.171
       0.139
       0.120
       0.115
       0.117
       0.118
       0.106
       0.074
       0.017
      -0.064
      -0.167
      -0.281
      -0.393
      -0.487
      -0.553
      -0.583
      -0.573
      -0.524
      -0.444
      -0.346
      -0.249
      -0.170
      -0.117
      -0.093
      -0.089
      -0.096
      -0.106
      -0.121
      -0.142
      -0.171
      -0.204
      -0.235
      -0.260
      -0.277
      -0.287
      -0.289
      -0.280
      -0.253
      -0.205
      -0.143
      -0.079
      -0.027
       0.007
       0.026
       0.034
       0.035
       0.032
       0.028
       0.029
       0.041
       0.065
       0.101
       0.148
       0.202
       0.259
       0.310
       0.354
       0.390
       0.420
       0.438
       0.435
       0.412
       0.378
       0.350
       0.334
       0.328
       0.319
       0.298
       0.266
       0.224
       0.175
       0.121
       0.071
       0.031
       0.010
       0.005
       0.006
       0.002
      -0.014
      -0.047
      -0.098
      -0.166
      -0.251
      -0.344
      -0.432
      -0.500
      -0.537
      -0.539
      -0.510
      -0.449
      -0.357
      -0.238
      -0.109
       0.009
       0.099
       0.158
       0.196
       0.227
       0.257
       0.280
       0.288
       0.280
       0.265
       0.251
       0.237
       0.214
       0.172
       0.112
       0.045
      -0.016
      -0.063
      -0.096
      -0.114
      -0.118
      -0.104
      -0.072
      -0.029
       0.015
       0.047
       0.055
       0.039
       0.003
      -0.042
      -0.084
      -0.115
      -0.132
      -0.136
      -0.134
      -0.133
      -0.133
      -0.131
      -0.120
      -0.099
      -0.069
      -0.031
       0.012
       0.059
       0.106
       0.146
       0.173
       0.185
       0.186
       0.176
       0.154
       0.119
       0.082
       0.057
       0.054
       0.073
       0.103
       0.132
       0.154
       0.167
       0.166
       0.146
       0.104
       0.045
      -0.025
      -0.100
      -0.174
      -0.239
      -0.285
      -0.309
      -0.322
      -0.341
      -0.379
      -0.434
      -0.497
      -0.556
      -0.608
      -0.656
      -0.697
      -0.724
      -0.723
      -0.687
      -0.621
      -0.537
      -0.446
      -0.355
      -0.267
      -0.189
      -0.125
      -0.073
      -0.024
       0.034
       0.106
       0.181
       0.247
       0.293
       0.320
       0.330
       0.327
       0.313
       0.294
       0.284
       0.298
       0.340
       0.402
       0.469
       0.525
       0.559
       0.563
       0.532
       0.465
       0.372
       0.266
       0.162
       0.068
      -0.009
      -0.061
      -0.083
      -0.075
      -0.049
      -0.021
       0.004
       0.033
       0.078
       0.147
       0.230
       0.312
       0.383
       0.439
       0.480
       0.503
       0.505
       0.490
       0.471
       0.462
       0.468
       0.482
       0.492
       0.487
       0.464
       0.427
       0.380
       0.332
       0.289
       0.261
       0.249
       0.250
       0.261
       0.278
       0.300
       0.324
       0.340
       0.345
       0.341
       0.335
       0.331
       0.324
       0.302
       0.256
       0.182
       0.080
      -0.045
      -0.189
      -0.346
      -0.509
      -0.666
      -0.804
      -0.910
      -0.977
      -1.000
      -0.981
      -0.929
      -0.856
      -0.778
      -0.706
      -0.649
      -0.611
      -0.594
      -0.591
      -0.594
      -0.597
      -0.603
      -0.616
      -0.639
      -0.664
      -0.682
      -0.686
      -0.673
      -0.642
      -0.589
      -0.510
      -0.406
      -0.284
      -0.152
      -0.014
       0.128
       0.273
       0.413
       0.535
       0.627
       0.680
       0.695
       0.681
       0.652
       0.619
       0.589
       0.561
       0.530
       0.487
       0.427
       0.352
       0.270
       0.192
       0.125
       0.064
       0.004
      -0.054
      -0.102
      -0.129
      -0.130
      -0.114
      -0.091
      -0.068
      -0.045
      -0.017
       0.017
       0.057
       0.101
       0.145
       0.185
       0.215
       0.229
       0.229
       0.223
       0.217
       0.218
       0.228
       0.248
       0.275
       0.298
       0.303
       0.280
       0.228
       0.161
       0.092
       0.027
      -0.035
      -0.090
      -0.128
      -0.135
      -0.104
      -0.040
       0.040
       0.117
       0.175
       0.206
       0.215
       0.211
       0.203
       0.194
       0.185
       0.172
       0.155
       0.129
       0.088
       0.023
      -0.071
      -0.185
      -0.306
      -0.420
      -0.520
      -0.604
      -0.671
      -0.718
      -0.746
      -0.760
      -0.762
      -0.753
      -0.737
      -0.712
      -0.683
      -0.652
      -0.624
      -0.601
      -0.580
      -0.555
      -0.516
      -0.458
      -0.379
      -0.288
      -0.194
      -0.108
      -0.033
       0.035
       0.101
       0.169
       0.239
       0.303
       0.351
       0.377
       0.374
       0.342
       0.285
       0.207
       0.118
       0.026
      -0.059
      -0.128
      -0.174
      -0.193
      -0.183
      -0.147
      -0.090
      -0.020
       0.059
       0.148
       0.253
       0.371
       0.491
       0.597
       0.680
       0.740
       0.783
       0.819
       0.854
       0.888
       0.914
       0.916
       0.885
       0.821
       0.736
       0.643
       0.548
       0.451
       0.350
       0.250
       0.158
       0.074
      -0.004
      -0.071
      -0.122
      -0.158
      -0.189
      -0.230
      -0.285
      -0.333
      -0.350
      -0.318
      -0.241
      -0.135
      -0.023
       0.082
       0.171
       0.236
       0.273
       0.279
       0.261
       0.230
       0.193
       0.157
       0.129
       0.117
       0.133
       0.182
       0.259
       0.344
       0.417
       0.466
       0.490
       0.489
       0.459
       0.396
       0.302
       0.184
       0.054
      -0.083
      -0.227
      -0.378
      -0.529
      -0.675
      -0.817
      -0.960
      -1.108
      -1.263
      -1.420
      -1.574
      -1.724
      -1.865
      -1.991
      -2.092
      -2.161
      -2.197
      -2.200
      -2.171
      -2.110
      -2.020
      -1.903
      -1.756
      -1.577
      -1.370
      -1.151
      -0.943
      -0.764
      -0.620
      -0.509
      -0.426
      -0.366
      -0.322
      -0.283
      -0.233
      -0.156
      -0.045
       0.096
       0.256
       0.420
       0.573
       0.706
       0.817
       0.911
       1.000
       1.089
       1.184
       1.282
       1.376
       1.463
       1.534
       1.578
       1.586
       1.554
       1.487
       1.395
       1.287
       1.169
       1.042
       0.907
       0.770
       0.638
       0.522
       0.431
       0.368
       0.330
       0.312
       0.313
       0.330
       0.360
       0.393
       0.421
       0.437
       0.438
       0.425
       0.398
       0.364
       0.327
       0.298
       0.279
       0.274
       0.286
       0.322
       0.392
       0.502
       0.650
       0.828
       1.023
       1.226
       1.425
       1.606
       1.754
       1.858
       1.916
       1.929
       1.906
       1.855
       1.783
       1.695
       1.591
       1.464
       1.307
       1.115
       0.889
       0.634
       0.356
       0.065
      -0.230
      -0.521
      -0.798
      -1.057
      -1.293
      -1.506
      -1.697
      -1.867
      -2.015
      -2.139
      -2.240
      -2.322
      -2.386
      -2.433
      -2.462
      -2.477
      -2.487
      -2.497
      -2.505
      -2.504
      -2.490
      -2.464
      -2.429
      -2.378
      -2.298
      -2.174
      -1.999
      -1.775
      -1.515
      -1.229
      -0.922
      -0.595
      -0.248
       0.110
       0.468
       0.813
       1.134
       1.423
       1.678
       1.904
       2.105
       2.284
       2.442
       2.577
       2.685
       2.761
       2.802
       2.804
       2.764
       2.686
       2.574
       2.430
       2.261
       2.068
       1.853
       1.618
       1.368
       1.109
       0.855
       0.614
       0.395
       0.202
       0.033
      -0.117
      -0.260
      -0.404
      -0.554
      -0.711
      -0.880
      -1.061
      -1.250
      -1.438
      -1.613
      -1.769
      -1.904
      -2.016
      -2.102
      -2.153
      -2.166
      -2.142
      -2.090
      -2.015
      -1.916
      -1.790
      -1.640
      -1.478
      -1.319
      -1.175
      -1.047
      -0.936
      -0.839
      -0.759
      -0.698
      -0.657
      -0.629
      -0.602
      -0.566
      -0.516
      -0.457
      -0.393
      -0.319
      -0.233
      -0.144
      -0.068
      -0.020
      -0.008
      -0.030
      -0.086
      -0.173
      -0.286
      -0.408
      -0.522
      -0.611
      -0.674
      -0.720
      -0.762
      -0.812
      -0.880
      -0.978
      -1.108
      -1.263
      -1.420
      -1.549
      -1.623
      -1.625
      -1.549
      -1.390
      -1.150
      -0.834
      -0.455
      -0.031
       0.419
       0.878
       1.338
       1.787
       2.219
       2.625
       3.000
       3.341
       3.642
       3.897
       4.107
       4.277
       4.420
       4.550
       4.680
       4.822
       4.981
       5.159
       5.353
       5.561
       5.776
       5.986
       6.179
       6.338
       6.447
       6.491
       6.460
       6.346
       6.150
       5.878
       5.540
       5.144
       4.701
       4.219
       3.705
       3.162
       2.590
       1.994
       1.380
       0.762
       0.154
      -0.429
      -0.969
      -1.449
      -1.853
      -2.173
      -2.404
      -2.551
      -2.621
      -2.625
      -2.569
      -2.463
      -2.322
      -2.162
      -2.001
      -1.856
      -1.736
      -1.649
      -1.599
      -1.589
      -1.625
      -1.709
      -1.838
      -1.996
      -2.170
      -2.351
      -2.539
      -2.734
      -2.941
      -3.160
      -3.392
      -3.639
      -3.903
      -4.184
      -4.477
      -4.774
      -5.064
      -5.330
      -5.560
      -5.748
      -5.896
      -6.010
      -6.096
      -6.159
      -6.201
      -6.229
      -6.249
      -6.272
      -6.301
      -6.336
      -6.371
      -6.403
      -6.430
      -6.453
      -6.464
      -6.455
      -6.419
      -6.350
      -6.244
      -6.090
      -5.875
      -5.590
      -5.234
      -4.811
      -4.320
      -3.761
      -3.137
      -2.457
      -1.740
      -1.001
      -0.252
       0.499
       1.241
       1.957
       2.632
       3.243
       3.769
       4.194
       4.510
       4.722
       4.838
       4.863
       4.804
       4.670
       4.473
       4.226
       3.945
       3.644
       3.342
       3.056
       2.797
       2.570
       2.379
       2.226
       2.116
       2.047
       2.013
       2.006
       2.023
       2.063
       2.125
       2.210
       2.321
       2.463
       2.637
       2.839
       3.061
       3.295
       3.531
       3.756
       3.959
       4.130
       4.265
       4.367
       4.438
       4.482
       4.503
       4.509
       4.508
       4.506
       4.500
       4.483
       4.444
       4.376
       4.276
       4.144
       3.982
       3.794
       3.584
       3.355
       3.107
       2.840
       2.560
       2.275
       1.991
       1.709
       1.428
       1.150
       0.879
       0.625
       0.395
       0.197
       0.035
      -0.091
      -0.179
      -0.237
      -0.272
      -0.298
      -0.333
      -0.389
      -0.476
      -0.594
      -0.744
      -0.930
      -1.160
      -1.435
      -1.746
      -2.079
      -2.426
      -2.788
      -3.174
      -3.589
      -4.031
      -4.493
      -4.960
      -5.417
      -5.845
      -6.226
      -6.546
      -6.794
      -6.964
      -7.049
      -7.041
      -6.933
      -6.722
      -6.416
      -6.022
      -5.546
      -4.992
      -4.358
      -3.648
      -2.866
      -2.024
      -1.140
      -0.241
       0.644
       1.490
       2.281
       3.003
       3.647
       4.200
       4.654
       5.006
       5.260
       5.424
       5.509
       5.525
       5.478
       5.370
       5.197
       4.953
       4.631
       4.230
       3.758
       3.229
       2.660
       2.078
       1.510
       0.981
       0.519
       0.143
      -0.136
      -0.315
      -0.404
      -0.418
      -0.385
      -0.334
      -0.291
      -0.274
      -0.289
      -0.337
      -0.418
      -0.533
      -0.680
      -0.850
      -1.029
      -1.201
      -1.350
      -1.464
      -1.529
      -1.535
      -1.478
      -1.357
      -1.173
      -0.927
      -0.633
      -0.319
      -0.022
       0.220
       0.381
       0.453
       0.433
       0.319
       0.114
      -0.173
      -0.526
      -0.919
      -1.329
      -1.731
      -2.100
      -2.418
      -2.671
      -2.851
      -2.958
      -2.993
      -2.957
      -2.854
      -2.686
      -2.456
      -2.172
      -1.844
      -1.485
      -1.114
      -0.748
      -0.405
      -0.103
       0.147
       0.341
       0.487
       0.595
       0.673
       0.730
       0.779
       0.836
       0.918
       1.036
       1.191
       1.379
       1.591
       1.818
       2.047
       2.262
       2.450
       2.597
       2.689
       2.718
       2.674
       2.555
       2.361
       2.098
       1.776
       1.408
       1.011
       0.600
       0.189
      -0.204
      -0.561
      -0.868
      -1.115
      -1.305
      -1.450
      -1.565
      -1.663
      -1.748
      -1.821
      -1.881
      -1.927
      -1.962
      -1.983
      -1.987
      -1.964
      -1.904
      -1.802
      -1.655
      -1.467
      -1.243
      -0.988
      -0.711
      -0.428
      -0.162
       0.066
       0.237
       0.344
       0.385
       0.366
       0.296
       0.189
       0.061
      -0.076
      -0.208
      -0.321
      -0.398
      -0.425
      -0.391
      -0.296
      -0.152
       0.020
       0.201
       0.375
       0.533
       0.670
       0.786
       0.879
       0.955
       1.021
       1.088
       1.166
       1.262
       1.382
       1.528
       1.698
       1.883
       2.065
       2.225
       2.343
       2.407
       2.413
       2.360
       2.247
       2.069
       1.822
       1.509
       1.140
       0.732
       0.301
      -0.139
      -0.578
      -1.001
      -1.392
      -1.737
      -2.025
      -2.254
      -2.423
      -2.532
      -2.585
      -2.589
      -2.556
      -2.496
      -2.408
      -2.290
      -2.137
      -1.954
      -1.751
      -1.537
      -1.315
      -1.088
      -0.858
      -0.629
      -0.409
      -0.199
       0.003
       0.204
       0.408
       0.617
       0.832
       1.049
       1.268
       1.490
       1.717
       1.954
       2.201
       2.459
       2.722
       2.976
       3.199
       3.368
       3.460
       3.463
       3.372
       3.186
       2.903
       2.524
       2.063
       1.544
       0.999
       0.458
      -0.057
      -0.533
      -0.962
      -1.339
      -1.658
      -1.910
      -2.091
      -2.199
      -2.237
      -2.213
      -2.134
      -2.011
      -1.856
      -1.682
      -1.499
      -1.310
      -1.117
      -0.923
      -0.733
      -0.552
      -0.379
      -0.216
      -0.062
       0.081
       0.210
       0.315
       0.390
       0.430
       0.438
       0.418
       0.370
       0.286
       0.156
      -0.030
      -0.270
      -0.562
      -0.898
      -1.265
      -1.646
      -2.022
      -2.377
      -2.702
      -2.988
      -3.225
      -3.405
      -3.518
      -3.564
      -3.545
      -3.466
      -3.329
      -3.134
      -2.885
      -2.588
      -2.255
      -1.897
      -1.526
      -1.150
      -0.779
      -0.419
      -0.078
       0.245
       0.550
       0.838
       1.108
       1.365
       1.617
       1.872
       2.135
       2.405
       2.675
       2.940
       3.194
       3.430
       3.641
       3.823
       3.965
       4.052
       4.069
       4.006
       3.866
       3.659
       3.398
       3.093
       2.755
       2.405
       2.070
       1.776
       1.547
       1.394
       1.318
       1.316
       1.378
       1.497
       1.656
       1.836
       2.009
       2.148
       2.231
       2.249
       2.199
       2.088
       1.925
       1.714
       1.454
       1.142
       0.777
       0.363
      -0.096
      -0.594
      -1.123
      -1.666
      -2.204
      -2.707
      -3.149
      -3.510
      -3.781
      -3.960
      -4.054
      -4.067
      -4.005
      -3.874
      -3.681
      -3.431
      -3.128
      -2.776
      -2.385
      -1.969
      -1.543
      -1.124
      -0.727
      -0.363
      -0.044
       0.224
       0.435
       0.586
       0.678
       0.717
       0.711
       0.674
       0.616
       0.544
       0.459
       0.364
       0.261
       0.157
       0.051
      -0.057
      -0.171
      -0.284
      -0.388
      -0.474
      -0.542
      -0.594
      -0.634
      -0.665
      -0.688
      -0.707
      -0.729
      -0.767
      -0.829
      -0.919
      -1.031
      -1.156
      -1.285
      -1.406
      -1.509
      -1.580
      -1.604
      -1.566
      -1.460
      -1.292
      -1.075
      -0.826
      -0.555
      -0.271
       0.017
       0.301
       0.570
       0.815
       1.032
       1.212
       1.349
       1.436
       1.475
       1.472
       1.437
       1.380
       1.309
       1.230
       1.150
       1.071
       0.995
       0.921
       0.844
       0.758
       0.663
       0.563
       0.469
       0.395
