Origin Time       11/8/2009 21:43:39 
Lat.              24.4 N 
Long.             94.8 E 
Depth (Km)         22.0
Magnitude         5.6
 Region           MYANMAR-INDIA(MANIPUR)BORDER                                     
 Above details taken from IMD 
     
Station Code      HKD
Station Lat.       24.682  N
Station Long.      92.563  E
Station Height(m)   23.0
Site Class        C   Vs30 between 200 m/sec to 375 m/sec *  
Record Time       11.08.2009 21:44:29.959
Sampling Rate     200. Hz
 Record Duration   70.410 Sec.
 Direction         E-W (E positive)
Max. Acceleration      7.103 cm/sec**2
     
  * For reference see Site Classification link of website 
     
 Base Line Corrected and Low Pass Filtered (Cut Off at 35 Hz) Time History
 Acceleration data in cm/sec**2
    
[...]
       0.492
       0.546
       0.572
       0.572
       0.552
       0.521
       0.484
       0.438
       0.382
       0.316
       0.243
       0.171
       0.110
       0.067
       0.045
       0.038
       0.035
       0.033
       0.035
       0.044
       0.061
       0.085
       0.113
       0.144
       0.180
       0.218
       0.254
       0.280
       0.292
       0.291
       0.279
       0.262
       0.240
       0.209
       0.163
       0.099
       0.020
      -0.076
      -0.186
      -0.308
      -0.428
      -0.527
      -0.592
      -0.623
      -0.626
      -0.605
      -0.564
      -0.505
      -0.435
      -0.365
      -0.299
      -0.234
      -0.165
      -0.089
      -0.010
       0.068
       0.138
       0.190
       0.216
       0.214
       0.190
       0.156
       0.123
       0.092
       0.066
       0.055
       0.069
       0.112
       0.179
       0.258
       0.336
       0.401
       0.442
       0.452
       0.437
       0.411
       0.384
       0.354
       0.316
       0.269
       0.221
       0.184
       0.155
       0.126
       0.091
       0.049
       0.007
      -0.035
      -0.079
      -0.128
      -0.178
      -0.225
      -0.260
      -0.277
      -0.269
      -0.240
      -0.202
      -0.170
      -0.150
      -0.136
      -0.120
      -0.101
      -0.091
      -0.101
      -0.134
      -0.186
      -0.251
      -0.324
      -0.403
      -0.475
      -0.528
      -0.550
      -0.535
      -0.485
      -0.406
      -0.308
      -0.202
      -0.101
      -0.014
       0.052
       0.087
       0.083
       0.049
       0.007
      -0.019
      -0.020
      -0.002
       0.028
       0.067
       0.115
       0.163
       0.196
       0.200
       0.174
       0.131
       0.092
       0.075
       0.086
       0.121
       0.165
       0.200
       0.218
       0.224
       0.227
       0.229
       0.231
       0.229
       0.231
       0.239
       0.251
       0.252
       0.230
       0.180
       0.111
       0.029
      -0.064
      -0.170
      -0.286
      -0.401
      -0.499
      -0.565
      -0.590
      -0.570
      -0.510
      -0.422
      -0.320
      -0.218
      -0.128
      -0.059
      -0.012
       0.014
       0.023
       0.018
       0.000
      -0.029
      -0.070
      -0.123
      -0.187
      -0.251
      -0.297
      -0.308
      -0.275
      -0.207
      -0.125
      -0.045
       0.024
       0.076
       0.105
       0.099
       0.056
      -0.019
      -0.106
      -0.182
      -0.229
      -0.229
      -0.178
      -0.076
       0.065
       0.229
       0.391
       0.527
       0.614
       0.634
       0.585
       0.483
       0.355
       0.230
       0.128
       0.059
       0.021
       0.008
       0.011
       0.026
       0.055
       0.101
       0.167
       0.253
       0.354
       0.467
       0.584
       0.698
       0.796
       0.872
       0.923
       0.945
       0.931
       0.874
       0.777
       0.649
       0.499
       0.337
       0.174
       0.025
      -0.092
      -0.170
      -0.208
      -0.214
      -0.196
      -0.164
      -0.131
      -0.111
      -0.109
      -0.122
      -0.145
      -0.176
      -0.217
      -0.262
      -0.302
      -0.335
      -0.369
      -0.408
      -0.448
      -0.474
      -0.478
      -0.467
      -0.452
      -0.441
      -0.435
      -0.433
      -0.439
      -0.448
      -0.448
      -0.429
      -0.394
      -0.358
      -0.332
      -0.313
      -0.292
      -0.265
      -0.238
      -0.217
      -0.199
      -0.177
      -0.148
      -0.116
      -0.080
      -0.037
       0.014
       0.060
       0.089
       0.093
       0.077
       0.048
       0.008
      -0.049
      -0.119
      -0.189
      -0.242
      -0.262
      -0.242
      -0.187
      -0.108
      -0.022
       0.051
       0.097
       0.107
       0.077
       0.006
      -0.098
      -0.216
      -0.328
      -0.420
      -0.489
      -0.542
      -0.582
      -0.606
      -0.612
      -0.600
      -0.568
      -0.516
      -0.443
      -0.350
      -0.242
      -0.127
      -0.006
       0.112
       0.221
       0.312
       0.380
       0.426
       0.448
       0.448
       0.428
       0.405
       0.394
       0.403
       0.424
       0.444
       0.452
       0.443
       0.411
       0.349
       0.250
       0.114
      -0.046
      -0.212
      -0.364
      -0.486
      -0.564
      -0.588
      -0.558
      -0.478
      -0.355
      -0.196
      -0.012
       0.186
       0.384
       0.575
       0.753
       0.909
       1.033
       1.112
       1.139
       1.117
       1.056
       0.974
       0.888
       0.813
       0.752
       0.705
       0.670
       0.646
       0.628
       0.611
       0.588
       0.553
       0.496
       0.406
       0.276
       0.108
      -0.081
      -0.263
      -0.414
      -0.519
      -0.571
      -0.565
      -0.506
      -0.407
      -0.287
      -0.164
      -0.048
       0.053
       0.128
       0.168
       0.174
       0.154
       0.108
       0.029
      -0.092
      -0.243
      -0.394
      -0.516
      -0.599
      -0.649
      -0.672
      -0.665
      -0.625
      -0.554
      -0.464
      -0.366
      -0.269
      -0.183
      -0.119
      -0.082
      -0.063
      -0.051
      -0.038
      -0.023
      -0.003
       0.036
       0.108
       0.213
       0.332
       0.441
       0.521
       0.567
       0.578
       0.554
       0.496
       0.405
       0.285
       0.146
       0.008
      -0.104
      -0.168
      -0.178
      -0.148
      -0.099
      -0.042
       0.019
       0.083
       0.142
       0.187
       0.211
       0.212
       0.188
       0.135
       0.054
      -0.049
      -0.171
      -0.309
      -0.457
      -0.602
      -0.723
      -0.803
      -0.836
      -0.824
      -0.773
      -0.689
      -0.584
      -0.476
      -0.380
      -0.308
      -0.266
      -0.256
      -0.269
      -0.291
      -0.305
      -0.301
      -0.280
      -0.245
      -0.189
      -0.104
       0.007
       0.127
       0.241
       0.346
       0.448
       0.543
       0.611
       0.631
       0.597
       0.529
       0.453
       0.386
       0.331
       0.283
       0.240
       0.194
       0.140
       0.074
       0.000
      -0.071
      -0.134
      -0.184
      -0.217
      -0.225
      -0.199
      -0.139
      -0.057
       0.029
       0.106
       0.164
       0.199
       0.206
       0.182
       0.126
       0.036
      -0.082
      -0.218
      -0.352
      -0.468
      -0.552
      -0.602
      -0.621
      -0.618
      -0.600
      -0.577
      -0.554
      -0.536
      -0.528
      -0.530
      -0.537
      -0.541
      -0.538
      -0.523
      -0.496
      -0.456
      -0.396
      -0.311
      -0.202
      -0.070
       0.077
       0.230
       0.376
       0.497
       0.580
       0.620
       0.622
       0.593
       0.539
       0.468
       0.393
       0.326
       0.274
       0.231
       0.188
       0.141
       0.091
       0.037
      -0.032
      -0.128
      -0.250
      -0.384
      -0.509
      -0.611
      -0.675
      -0.693
      -0.658
      -0.572
      -0.447
      -0.297
      -0.130
       0.048
       0.230
       0.400
       0.543
       0.654
       0.739
       0.806
       0.855
       0.886
       0.897
       0.896
       0.889
       0.882
       0.878
       0.883
       0.899
       0.922
       0.942
       0.949
       0.937
       0.903
       0.843
       0.751
       0.621
       0.453
       0.253
       0.035
      -0.181
      -0.375
      -0.531
      -0.644
      -0.713
      -0.742
      -0.729
      -0.679
      -0.605
      -0.526
      -0.458
      -0.410
      -0.388
      -0.395
      -0.425
      -0.468
      -0.512
      -0.550
      -0.579
      -0.591
      -0.573
      -0.512
      -0.408
      -0.274
      -0.125
       0.030
       0.178
       0.303
       0.380
       0.395
       0.347
       0.246
       0.098
      -0.086
      -0.292
      -0.493
      -0.666
      -0.795
      -0.871
      -0.893
      -0.859
      -0.773
      -0.639
      -0.458
      -0.233
       0.030
       0.311
       0.584
       0.830
       1.043
       1.222
       1.358
       1.435
       1.442
       1.379
       1.261
       1.105
       0.918
       0.707
       0.476
       0.235
      -0.007
      -0.243
      -0.469
      -0.682
      -0.883
      -1.074
      -1.248
      -1.384
      -1.464
      -1.479
      -1.439
      -1.360
      -1.247
      -1.093
      -0.890
      -0.639
      -0.353
      -0.051
       0.247
       0.525
       0.766
       0.963
       1.111
       1.206
       1.253
       1.264
       1.257
       1.252
       1.253
       1.258
       1.257
       1.246
       1.221
       1.177
       1.102
       0.984
       0.812
       0.583
       0.292
      -0.060
      -0.463
      -0.894
      -1.317
      -1.702
      -2.025
      -2.273
      -2.433
      -2.492
      -2.442
      -2.281
      -2.019
      -1.670
      -1.251
      -0.780
      -0.281
       0.212
       0.657
       1.020
       1.280
       1.432
       1.479
       1.424
       1.277
       1.054
       0.779
       0.482
       0.188
      -0.085
      -0.332
      -0.558
      -0.773
      -0.982
      -1.172
      -1.321
      -1.403
      -1.403
      -1.317
      -1.149
      -0.900
      -0.578
      -0.206
       0.184
       0.565
       0.925
       1.261
       1.569
       1.834
       2.047
       2.201
       2.294
       2.322
       2.278
       2.165
       1.985
       1.742
       1.436
       1.077
       0.689
       0.308
      -0.041
      -0.348
      -0.613
      -0.834
      -1.011
      -1.156
      -1.289
      -1.426
      -1.575
      -1.728
      -1.870
      -1.983
      -2.044
      -2.035
      -1.945
      -1.783
      -1.561
      -1.291
      -0.979
      -0.637
      -0.283
       0.063
       0.389
       0.690
       0.959
       1.185
       1.360
       1.485
       1.568
       1.609
       1.600
       1.528
       1.391
       1.190
       0.937
       0.647
       0.347
       0.066
      -0.165
      -0.327
      -0.408
      -0.405
      -0.327
      -0.202
      -0.067
       0.042
       0.109
       0.131
       0.110
       0.041
      -0.077
      -0.242
      -0.444
      -0.671
      -0.908
      -1.141
      -1.352
      -1.533
      -1.682
      -1.798
      -1.876
      -1.908
      -1.892
      -1.834
      -1.746
      -1.630
      -1.490
      -1.335
      -1.179
      -1.035
      -0.904
      -0.776
      -0.644
      -0.507
      -0.359
      -0.189
       0.021
       0.277
       0.577
       0.910
       1.272
       1.666
       2.085
       2.512
       2.924
       3.302
       3.632
       3.902
       4.101
       4.223
       4.261
       4.211
       4.067
       3.832
       3.514
       3.129
       2.696
       2.236
       1.765
       1.294
       0.837
       0.401
      -0.004
      -0.376
      -0.721
      -1.045
      -1.350
      -1.625
      -1.852
      -2.019
      -2.123
      -2.168
      -2.153
      -2.080
      -1.959
      -1.812
      -1.668
      -1.544
      -1.452
      -1.395
      -1.377
      -1.389
      -1.409
      -1.407
      -1.362
      -1.270
      -1.131
      -0.946
      -0.712
      -0.433
      -0.122
       0.202
       0.529
       0.854
       1.171
       1.470
       1.737
       1.964
       2.143
       2.269
       2.341
       2.357
       2.321
       2.234
       2.103
       1.939
       1.752
       1.551
       1.342
       1.135
       0.945
       0.792
       0.689
       0.639
       0.639
       0.690
       0.796
       0.952
       1.140
       1.342
       1.547
       1.759
       1.979
       2.199
       2.399
       2.569
       2.704
       2.798
       2.836
       2.802
       2.683
       2.474
       2.172
       1.784
       1.327
       0.826
       0.308
      -0.212
      -0.722
      -1.205
      -1.635
      -1.991
      -2.263
      -2.454
      -2.563
      -2.584
      -2.513
      -2.366
      -2.169
      -1.957
      -1.763
      -1.614
      -1.534
      -1.531
      -1.601
      -1.735
      -1.926
      -2.170
      -2.452
      -2.743
      -3.021
      -3.275
      -3.506
      -3.704
      -3.841
      -3.880
      -3.798
      -3.592
      -3.271
      -2.851
      -2.354
      -1.813
      -1.267
      -0.752
      -0.302
       0.050
       0.272
       0.343
       0.264
       0.053
      -0.269
      -0.685
      -1.182
      -1.740
      -2.330
      -2.917
      -3.470
      -3.965
      -4.383
      -4.716
      -4.956
      -5.103
      -5.152
      -5.100
      -4.952
      -4.721
      -4.424
      -4.084
      -3.720
      -3.355
      -3.004
      -2.675
      -2.359
      -2.041
      -1.701
      -1.324
      -0.901
      -0.429
       0.081
       0.608
       1.125
       1.613
       2.066
       2.485
       2.870
       3.216
       3.524
       3.798
       4.038
       4.229
       4.333
       4.309
       4.121
       3.756
       3.225
       2.553
       1.766
       0.887
      -0.057
      -1.027
      -1.977
      -2.865
      -3.664
      -4.358
      -4.927
      -5.338
      -5.557
      -5.556
      -5.332
      -4.895
      -4.259
      -3.440
      -2.459
      -1.345
      -0.143
       1.096
       2.316
       3.469
       4.510
       5.402
       6.117
       6.636
       6.959
       7.103
       7.099
       6.985
       6.803
       6.591
       6.382
       6.194
       6.028
       5.874
       5.729
       5.603
       5.513
       5.475
       5.495
       5.568
       5.684
       5.822
       5.952
       6.038
       6.051
       5.975
       5.807
       5.540
       5.173
       4.710
       4.167
       3.564
       2.917
       2.237
       1.543
       0.860
       0.216
      -0.373
      -0.898
      -1.348
      -1.706
      -1.953
      -2.080
      -2.085
      -1.974
      -1.753
      -1.438
      -1.055
      -0.639
      -0.224
       0.160
       0.482
       0.711
       0.819
       0.791
       0.622
       0.317
      -0.104
      -0.599
      -1.116
      -1.606
      -2.036
      -2.387
      -2.642
      -2.785
      -2.809
      -2.731
      -2.576
      -2.370
      -2.132
      -1.880
      -1.632
      -1.407
      -1.215
      -1.061
      -0.952
      -0.901
      -0.922
      -1.018
      -1.189
      -1.429
      -1.736
      -2.105
      -2.528
      -2.986
      -3.457
      -3.911
      -4.308
      -4.610
      -4.787
      -4.823
      -4.711
      -4.452
      -4.053
      -3.538
      -2.943
      -2.308
      -1.672
      -1.071
      -0.535
      -0.092
       0.233
       0.432
       0.502
       0.444
       0.256
      -0.063
      -0.501
      -1.037
      -1.638
      -2.269
      -2.890
      -3.464
      -3.953
      -4.332
      -4.592
      -4.736
      -4.779
      -4.740
      -4.638
      -4.496
      -4.326
      -4.137
      -3.927
      -3.685
      -3.394
      -3.035
      -2.591
      -2.061
      -1.452
      -0.784
      -0.079
       0.634
       1.323
       1.953
       2.494
       2.921
       3.219
       3.387
       3.435
       3.384
       3.249
       3.039
       2.761
       2.435
       2.088
       1.742
       1.405
       1.073
       0.746
       0.427
       0.121
      -0.170
      -0.440
      -0.676
      -0.857
      -0.968
      -1.001
      -0.956
      -0.839
      -0.654
      -0.405
      -0.093
       0.282
       0.719
       1.209
       1.730
       2.255
       2.756
       3.213
       3.607
       3.921
       4.138
       4.249
       4.258
       4.177
       4.018
       3.793
       3.517
       3.207
       2.884
       2.568
       2.269
       1.988
       1.726
       1.485
       1.274
       1.104
       0.979
       0.898
       0.860
       0.870
       0.946
       1.093
       1.304
       1.558
       1.836
       2.130
       2.428
       2.711
       2.948
       3.109
       3.172
       3.120
       2.941
       2.636
       2.223
       1.735
       1.209
       0.679
       0.182
      -0.240
      -0.547
      -0.715
      -0.736
      -0.614
      -0.357
       0.012
       0.444
       0.877
       1.253
       1.539
       1.721
       1.781
       1.704
       1.485
       1.146
       0.727
       0.266
      -0.214
      -0.694
      -1.156
      -1.583
      -1.959
      -2.274
      -2.515
      -2.672
      -2.742
      -2.740
      -2.681
      -2.577
      -2.433
      -2.259
      -2.069
      -1.879
      -1.700
      -1.542
      -1.411
      -1.307
      -1.228
      -1.162
      -1.102
      -1.047
      -1.001
      -0.968
      -0.951
      -0.957
      -0.999
      -1.085
      -1.213
      -1.373
      -1.556
      -1.751
      -1.937
      -2.084
      -2.168
      -2.177
      -2.112
      -1.974
      -1.762
      -1.487
      -1.173
      -0.859
      -0.579
      -0.352
      -0.191
      -0.108
      -0.114
      -0.210
      -0.385
      -0.622
      -0.904
      -1.212
      -1.516
      -1.790
      -2.015
      -2.188
      -2.311
      -2.383
      -2.402
      -2.378
      -2.331
      -2.285
      -2.245
      -2.203
      -2.148
      -2.072
      -1.974
      -1.855
      -1.711
      -1.538
      -1.333
      -1.095
      -0.824
      -0.527
      -0.220
       0.082
       0.361
       0.605
       0.802
       0.944
       1.028
       1.056
       1.038
       0.983
       0.898
       0.796
       0.689
       0.595
       0.536
       0.534
       0.604
       0.750
       0.957
       1.201
       1.453
       1.687
       1.880
       2.013
       2.073
       2.062
       1.997
       1.901
       1.795
       1.694
       1.613
       1.564
       1.556
       1.585
       1.637
       1.695
       1.745
       1.773
       1.770
       1.727
       1.642
       1.513
       1.343
       1.135
       0.900
       0.644
       0.368
       0.076
      -0.222
      -0.499
      -0.732
      -0.913
      -1.052
      -1.160
      -1.236
      -1.276
      -1.278
      -1.253
      -1.210
      -1.152
      -1.078
      -0.986
      -0.874
      -0.738
      -0.567
      -0.356
      -0.106
       0.173
       0.480
       0.812
       1.158
       1.493
       1.791
       2.037
       2.227
       2.357
       2.428
       2.446
       2.425
       2.383
       2.328
       2.259
       2.184
       2.121
       2.092
       2.107
       2.162
       2.247
       2.356
       2.482
       2.608
       2.709
       2.760
       2.749
       2.669
       2.513
       2.273
       1.946
       1.539
       1.060
       0.524
      -0.048
      -0.626
      -1.175
      -1.674
      -2.112
      -2.489
      -2.799
      -3.035
      -3.194
      -3.271
      -3.262
      -3.155
      -2.945
      -2.643
      -2.272
      -1.861
      -1.437
      -1.024
      -0.647
      -0.325
      -0.073
       0.100
       0.185
       0.177
       0.086
      -0.065
      -0.243
      -0.415
      -0.558
      -0.653
      -0.680
      -0.624
      -0.478
      -0.243
       0.071
       0.446
       0.856
       1.270
       1.658
       1.995
       2.263
       2.442
       2.509
