Origin Time       12/3/2010 23:19:54	
Lat.              23.0 N	
Long.             94.5 E	
Depth (Km)         96.0
Magnitude         5.6
 Region           MYANMAR                                                          
 Above details taken from IMD 
   
Station Code      HKD
Station Lat.       24.682
Station Long.      92.563
Station Height(m)   23.0
Site Class        C   Vs30 between 200 m/sec to 375 m/sec *  
Record Time       12.03.2010 23:20:32.754
Sampling Rate     200. Hz
 Record Duration  108.610 Sec.
 Direction         Vert. (Up positive)
Max. Acceleration     -1.632 cm/sec**2
     
  * For reference see Site Classification link of website 
     
 Base Line Corrected and Low Pass Filtered (Cut Off at 35 Hz) Time History
 Acceleration data in cm/sec**2
    
[...]
      -0.034
      -0.003
       0.029
       0.059
       0.087
       0.121
       0.165
       0.215
       0.260
       0.288
       0.295
       0.280
       0.250
       0.211
       0.169
       0.128
       0.087
       0.043
      -0.010
      -0.072
      -0.138
      -0.200
      -0.253
      -0.299
      -0.342
      -0.380
      -0.405
      -0.408
      -0.385
      -0.338
      -0.270
      -0.186
      -0.088
       0.019
       0.123
       0.202
       0.238
       0.228
       0.189
       0.145
       0.109
       0.076
       0.034
      -0.023
      -0.087
      -0.141
      -0.175
      -0.188
      -0.185
      -0.169
      -0.138
      -0.094
      -0.045
      -0.005
       0.014
       0.008
      -0.018
      -0.051
      -0.083
      -0.109
      -0.131
      -0.151
      -0.171
      -0.190
      -0.207
      -0.225
      -0.245
      -0.269
      -0.291
      -0.305
      -0.303
      -0.282
      -0.238
      -0.168
      -0.073
       0.045
       0.172
       0.292
       0.384
       0.432
       0.436
       0.410
       0.375
       0.339
       0.296
       0.237
       0.163
       0.087
       0.027
      -0.011
      -0.033
      -0.048
      -0.056
      -0.051
      -0.032
      -0.002
       0.030
       0.060
       0.090
       0.123
       0.163
       0.208
       0.255
       0.299
       0.332
       0.351
       0.358
       0.360
       0.365
       0.374
       0.382
       0.381
       0.369
       0.347
       0.318
       0.288
       0.257
       0.224
       0.183
       0.134
       0.086
       0.057
       0.056
       0.071
       0.073
       0.040
      -0.024
      -0.097
      -0.150
      -0.165
      -0.145
      -0.096
      -0.029
       0.048
       0.125
       0.195
       0.253
       0.296
       0.317
       0.305
       0.259
       0.189
       0.109
       0.034
      -0.036
      -0.106
      -0.182
      -0.263
      -0.344
      -0.418
      -0.474
      -0.506
      -0.514
      -0.500
      -0.472
      -0.433
      -0.384
      -0.330
      -0.276
      -0.228
      -0.188
      -0.158
      -0.138
      -0.127
      -0.129
      -0.140
      -0.160
      -0.184
      -0.208
      -0.228
      -0.238
      -0.235
      -0.218
      -0.192
      -0.160
      -0.124
      -0.088
      -0.058
      -0.035
      -0.016
       0.011
       0.056
       0.121
       0.195
       0.258
       0.289
       0.279
       0.229
       0.152
       0.062
      -0.030
      -0.122
      -0.210
      -0.286
      -0.337
      -0.350
      -0.324
      -0.267
      -0.193
      -0.120
      -0.060
      -0.013
       0.029
       0.080
       0.143
       0.210
       0.267
       0.305
       0.329
       0.351
       0.370
       0.374
       0.342
       0.271
       0.176
       0.079
       0.004
      -0.043
      -0.068
      -0.083
      -0.103
      -0.135
      -0.176
      -0.215
      -0.237
      -0.236
      -0.215
      -0.185
      -0.154
      -0.123
      -0.088
      -0.043
       0.011
       0.068
       0.118
       0.159
       0.193
       0.224
       0.253
       0.279
       0.301
       0.318
       0.329
       0.327
       0.306
       0.264
       0.203
       0.135
       0.070
       0.014
      -0.041
      -0.108
      -0.197
      -0.302
      -0.397
      -0.454
      -0.455
      -0.405
      -0.325
      -0.233
      -0.139
      -0.050
       0.026
       0.076
       0.095
       0.090
       0.073
       0.061
       0.061
       0.076
       0.100
       0.115
       0.099
       0.038
      -0.071
      -0.210
      -0.351
      -0.470
      -0.551
      -0.588
      -0.573
      -0.504
      -0.381
      -0.213
      -0.017
       0.183
       0.356
       0.477
       0.530
       0.520
       0.468
       0.403
       0.341
       0.290
       0.242
       0.189
       0.127
       0.061
      -0.001
      -0.049
      -0.081
      -0.102
      -0.122
      -0.142
      -0.151
      -0.127
      -0.059
       0.044
       0.155
       0.244
       0.296
       0.319
       0.326
       0.329
       0.326
       0.301
       0.238
       0.130
      -0.013
      -0.167
      -0.310
      -0.435
      -0.545
      -0.640
      -0.709
      -0.736
      -0.710
      -0.634
      -0.528
      -0.413
      -0.304
      -0.202
      -0.110
      -0.029
       0.032
       0.068
       0.080
       0.078
       0.078
       0.095
       0.139
       0.208
       0.284
       0.340
       0.347
       0.299
       0.212
       0.120
       0.060
       0.053
       0.097
       0.172
       0.254
       0.326
       0.375
       0.398
       0.396
       0.375
       0.349
       0.327
       0.313
       0.302
       0.284
       0.246
       0.182
       0.088
      -0.026
      -0.140
      -0.234
      -0.293
      -0.315
      -0.310
      -0.288
      -0.257
      -0.218
      -0.169
      -0.109
      -0.042
       0.029
       0.098
       0.162
       0.219
       0.263
       0.286
       0.275
       0.219
       0.117
      -0.018
      -0.157
      -0.266
      -0.320
      -0.312
      -0.257
      -0.181
      -0.103
      -0.035
       0.010
       0.025
       0.004
      -0.048
      -0.111
      -0.164
      -0.193
      -0.193
      -0.164
      -0.113
      -0.046
       0.027
       0.103
       0.187
       0.284
       0.389
       0.481
       0.533
       0.532
       0.484
       0.405
       0.313
       0.219
       0.130
       0.050
      -0.018
      -0.081
      -0.144
      -0.210
      -0.272
      -0.320
      -0.349
      -0.361
      -0.364
      -0.365
      -0.372
      -0.385
      -0.399
      -0.404
      -0.392
      -0.370
      -0.349
      -0.334
      -0.319
      -0.298
      -0.272
      -0.250
      -0.230
      -0.201
      -0.154
      -0.090
      -0.027
       0.017
       0.028
       0.001
      -0.059
      -0.134
      -0.196
      -0.221
      -0.204
      -0.159
      -0.107
      -0.055
       0.010
       0.104
       0.224
       0.350
       0.461
       0.543
       0.590
       0.598
       0.565
       0.492
       0.386
       0.256
       0.112
      -0.034
      -0.168
      -0.272
      -0.331
      -0.337
      -0.299
      -0.241
      -0.192
      -0.175
      -0.196
      -0.235
      -0.260
      -0.239
      -0.159
      -0.027
       0.131
       0.290
       0.425
       0.518
       0.562
       0.557
       0.512
       0.439
       0.351
       0.262
       0.185
       0.130
       0.096
       0.072
       0.045
       0.012
      -0.023
      -0.050
      -0.068
      -0.082
      -0.101
      -0.134
      -0.190
      -0.269
      -0.363
      -0.457
      -0.533
      -0.571
      -0.556
      -0.482
      -0.354
      -0.187
      -0.008
       0.155
       0.284
       0.374
       0.425
       0.442
       0.427
       0.385
       0.329
       0.275
       0.231
       0.191
       0.142
       0.072
      -0.018
      -0.122
      -0.230
      -0.330
      -0.413
      -0.472
      -0.504
      -0.505
      -0.479
      -0.435
      -0.390
      -0.362
      -0.356
      -0.358
      -0.345
      -0.303
      -0.234
      -0.155
      -0.081
      -0.014
       0.050
       0.118
       0.187
       0.249
       0.301
       0.344
       0.384
       0.420
       0.444
       0.445
       0.420
       0.378
       0.330
       0.285
       0.245
       0.212
       0.189
       0.177
       0.170
       0.156
       0.127
       0.083
       0.029
      -0.029
      -0.093
      -0.167
      -0.248
      -0.328
      -0.394
      -0.436
      -0.450
      -0.435
      -0.392
      -0.319
      -0.215
      -0.080
       0.080
       0.253
       0.421
       0.559
       0.646
       0.666
       0.623
       0.531
       0.418
       0.309
       0.225
       0.172
       0.150
       0.147
       0.147
       0.137
       0.110
       0.071
       0.027
      -0.018
      -0.065
      -0.111
      -0.154
      -0.189
      -0.220
      -0.255
      -0.303
      -0.363
      -0.424
      -0.471
      -0.493
      -0.488
      -0.454
      -0.388
      -0.292
      -0.177
      -0.070
       0.007
       0.041
       0.039
       0.015
      -0.011
      -0.019
       0.012
       0.087
       0.186
       0.277
       0.329
       0.337
       0.313
       0.278
       0.245
       0.220
       0.204
       0.202
       0.208
       0.210
       0.196
       0.160
       0.105
       0.040
      -0.024
      -0.080
      -0.120
      -0.145
      -0.162
      -0.183
      -0.212
      -0.239
      -0.250
      -0.231
      -0.179
      -0.102
      -0.009
       0.092
       0.195
       0.295
       0.390
       0.480
       0.562
       0.630
       0.669
       0.665
       0.611
       0.514
       0.392
       0.265
       0.151
       0.055
      -0.021
      -0.085
      -0.144
      -0.205
      -0.274
      -0.345
      -0.409
      -0.451
      -0.469
      -0.463
      -0.443
      -0.415
      -0.379
      -0.326
      -0.248
      -0.147
      -0.033
       0.080
       0.183
       0.271
       0.343
       0.400
       0.438
       0.454
       0.444
       0.401
       0.320
       0.202
       0.059
      -0.089
      -0.225
      -0.336
      -0.417
      -0.471
      -0.506
      -0.529
      -0.542
      -0.543
      -0.522
      -0.473
      -0.405
      -0.338
      -0.293
      -0.280
      -0.292
      -0.310
      -0.314
      -0.294
      -0.247
      -0.175
      -0.086
       0.008
       0.090
       0.146
       0.174
       0.177
       0.161
       0.130
       0.085
       0.034
      -0.012
      -0.044
      -0.060
      -0.066
      -0.072
      -0.085
      -0.112
      -0.152
      -0.195
      -0.229
      -0.246
      -0.245
      -0.232
      -0.210
      -0.178
      -0.137
      -0.089
      -0.036
       0.018
       0.076
       0.140
       0.213
       0.298
       0.396
       0.497
       0.578
       0.613
       0.590
       0.525
       0.443
       0.364
       0.294
       0.228
       0.165
       0.115
       0.086
       0.077
       0.077
       0.070
       0.047
       0.007
      -0.040
      -0.077
      -0.089
      -0.071
      -0.036
      -0.002
       0.021
       0.043
       0.078
       0.130
       0.189
       0.238
       0.264
       0.268
       0.259
       0.246
       0.232
       0.213
       0.182
       0.134
       0.071
      -0.002
      -0.073
      -0.137
      -0.190
      -0.231
      -0.257
      -0.264
      -0.250
      -0.218
      -0.177
      -0.143
      -0.132
      -0.159
      -0.228
      -0.329
      -0.440
      -0.535
      -0.595
      -0.617
      -0.603
      -0.559
      -0.488
      -0.396
      -0.293
      -0.195
      -0.112
      -0.051
      -0.012
       0.010
       0.024
       0.043
       0.074
       0.123
       0.181
       0.235
       0.271
       0.278
       0.250
       0.192
       0.112
       0.026
      -0.055
      -0.120
      -0.166
      -0.191
      -0.193
      -0.174
      -0.144
      -0.109
      -0.072
      -0.033
       0.006
       0.042
       0.069
       0.089
       0.101
       0.102
       0.084
       0.043
      -0.013
      -0.066
      -0.096
      -0.091
      -0.052
       0.012
       0.092
       0.185
       0.285
       0.389
       0.488
       0.567
       0.619
       0.642
       0.638
       0.605
       0.538
       0.441
       0.328
       0.225
       0.152
       0.117
       0.111
       0.124
       0.148
       0.176
       0.197
       0.200
       0.178
       0.136
       0.090
       0.052
       0.028
       0.016
       0.011
       0.010
       0.013
       0.018
       0.020
       0.018
       0.015
       0.016
       0.027
       0.040
       0.040
       0.010
      -0.052
      -0.133
      -0.211
      -0.272
      -0.319
      -0.371
      -0.446
      -0.550
      -0.671
      -0.786
      -0.871
      -0.909
      -0.895
      -0.834
      -0.742
      -0.645
      -0.565
      -0.512
      -0.485
      -0.474
      -0.472
      -0.480
      -0.501
      -0.536
      -0.570
      -0.578
      -0.543
      -0.467
      -0.373
      -0.285
      -0.217
      -0.162
      -0.115
      -0.080
      -0.068
      -0.086
      -0.131
      -0.183
      -0.217
      -0.210
      -0.155
      -0.061
       0.048
       0.151
       0.236
       0.304
       0.360
       0.412
       0.459
       0.501
       0.535
       0.561
       0.579
       0.593
       0.611
       0.631
       0.640
       0.615
       0.540
       0.421
       0.280
       0.150
       0.051
      -0.007
      -0.021
       0.004
       0.059
       0.136
       0.234
       0.354
       0.494
       0.639
       0.762
       0.842
       0.872
       0.863
       0.831
       0.790
       0.749
       0.712
       0.673
       0.624
       0.563
       0.499
       0.453
       0.436
       0.444
       0.457
       0.452
       0.419
       0.359
       0.282
       0.195
       0.103
       0.004
      -0.095
      -0.188
      -0.260
      -0.296
      -0.289
      -0.243
      -0.177
      -0.107
      -0.038
       0.032
       0.107
       0.179
       0.235
       0.271
       0.297
       0.330
       0.385
       0.457
       0.524
       0.553
       0.518
       0.414
       0.257
       0.073
      -0.118
      -0.313
      -0.520
      -0.744
      -0.973
      -1.187
      -1.367
      -1.502
      -1.587
      -1.629
      -1.632
      -1.604
      -1.549
      -1.471
      -1.372
      -1.261
      -1.152
      -1.060
      -0.985
      -0.916
      -0.831
      -0.714
      -0.567
      -0.404
      -0.247
      -0.117
      -0.021
       0.044
       0.085
       0.107
       0.107
       0.078
       0.011
      -0.089
      -0.212
      -0.341
      -0.461
      -0.558
      -0.616
      -0.623
      -0.572
      -0.468
      -0.326
      -0.167
      -0.012
       0.118
       0.206
       0.246
       0.243
       0.219
       0.201
       0.209
       0.244
       0.292
       0.337
       0.376
       0.419
       0.486
       0.583
       0.702
       0.823
       0.922
       0.987
       1.027
       1.063
       1.115
       1.188
       1.266
       1.319
       1.327
       1.282
       1.194
       1.082
       0.966
       0.854
       0.747
       0.633
       0.510
       0.386
       0.278
       0.198
       0.133
       0.059
      -0.042
      -0.166
      -0.285
      -0.370
      -0.409
      -0.403
      -0.359
      -0.279
      -0.160
      -0.006
       0.174
       0.369
       0.565
       0.751
       0.912
       1.036
       1.114
       1.149
       1.141
       1.090
       0.996
       0.857
       0.677
       0.470
       0.251
       0.038
      -0.160
      -0.348
      -0.538
      -0.735
      -0.928
      -1.093
      -1.216
      -1.300
      -1.360
      -1.407
      -1.432
      -1.422
      -1.373
      -1.293
      -1.193
      -1.072
      -0.922
      -0.733
      -0.510
      -0.272
      -0.043
       0.156
       0.315
       0.439
       0.542
       0.636
       0.726
       0.800
       0.840
       0.830
       0.764
       0.642
       0.471
       0.262
       0.032
      -0.197
      -0.408
      -0.593
      -0.753
      -0.894
      -1.019
      -1.123
      -1.194
      -1.220
      -1.198
      -1.145
      -1.087
      -1.043
      -1.009
      -0.970
      -0.908
      -0.822
      -0.717
      -0.599
      -0.468
      -0.320
      -0.156
       0.015
       0.179
       0.319
       0.423
       0.493
       0.540
       0.582
       0.631
       0.683
       0.726
       0.747
       0.741
       0.708
       0.656
       0.594
       0.536
       0.492
       0.458
       0.416
       0.344
       0.239
       0.116
       0.002
      -0.091
      -0.160
      -0.204
      -0.218
      -0.191
      -0.119
      -0.007
       0.131
       0.278
       0.420
       0.547
       0.659
       0.762
       0.864
       0.960
       1.036
       1.079
       1.085
       1.064
       1.027
       0.972
       0.888
       0.768
       0.612
       0.428
       0.229
       0.023
      -0.178
      -0.361
      -0.517
      -0.643
      -0.745
      -0.825
      -0.879
      -0.906
      -0.914
      -0.921
      -0.942
      -0.981
      -1.025
      -1.055
      -1.058
      -1.028
      -0.970
      -0.888
      -0.787
      -0.672
      -0.551
      -0.431
      -0.320
      -0.229
      -0.165
      -0.134
      -0.131
      -0.141
      -0.150
      -0.149
      -0.141
      -0.130
      -0.120
      -0.116
      -0.118
      -0.131
      -0.155
      -0.187
      -0.222
      -0.260
      -0.306
      -0.355
      -0.393
      -0.404
      -0.379
      -0.325
      -0.262
      -0.210
      -0.178
      -0.171
      -0.179
      -0.190
      -0.183
      -0.145
      -0.071
       0.028
       0.138
       0.244
       0.336
       0.405
       0.446
       0.458
       0.440
       0.395
       0.324
       0.238
       0.151
       0.081
       0.036
       0.015
       0.010
       0.011
       0.016
       0.031
       0.057
       0.095
       0.140
       0.190
       0.242
       0.295
       0.347
       0.397
       0.440
       0.472
       0.494
       0.510
       0.529
       0.558
       0.594
       0.631
       0.659
       0.671
       0.666
       0.642
       0.600
       0.545
       0.485
       0.426
       0.370
       0.315
       0.257
       0.199
       0.148
       0.116
       0.107
       0.122
       0.154
       0.190
       0.219
       0.232
       0.227
       0.210
       0.192
       0.177
       0.164
       0.150
       0.137
       0.127
       0.128
       0.139
       0.154
       0.161
       0.145
       0.099
       0.030
      -0.047
      -0.113
      -0.160
      -0.192
      -0.224
      -0.265
      -0.312
      -0.350
      -0.366
      -0.358
      -0.339
      -0.325
      -0.325
      -0.339
      -0.357
      -0.367
      -0.361
      -0.334
      -0.283
      -0.209
      -0.119
      -0.019
       0.081
       0.175
       0.256
       0.315
       0.349
       0.360
       0.361
       0.366
       0.380
       0.399
       0.409
       0.398
       0.361
       0.299
       0.223
       0.143
       0.073
       0.017
      -0.022
      -0.048
      -0.064
      -0.072
      -0.074
      -0.077
      -0.089
      -0.117
      -0.161
      -0.218
      -0.281
      -0.344
      -0.406
      -0.467
      -0.526
      -0.580
      -0.622
      -0.644
      -0.639
      -0.609
      -0.553
      -0.476
      -0.384
      -0.288
      -0.203
      -0.143
      -0.113
      -0.107
      -0.113
      -0.122
      -0.134
      -0.157
      -0.195
      -0.244
      -0.291
      -0.323
      -0.339
      -0.350
      -0.365
      -0.380
      -0.384
      -0.363
      -0.316
      -0.263
      -0.227
      -0.218
      -0.228
      -0.237
      -0.227
      -0.196
      -0.153
      -0.114
      -0.089
      -0.080
      -0.079
      -0.074
      -0.055
      -0.022
       0.017
       0.056
       0.087
       0.107
       0.108
       0.085
       0.034
      -0.040
      -0.126
      -0.215
      -0.294
      -0.349
      -0.359
      -0.313
      -0.210
