Origin Time       3/9/2009 19:51:08	 
Lat.              24.3 N	
Long.             94.6 E	
Depth (Km)        100.0
Magnitude         5.9
 Region           MYANMAR-India-Manipuir-Border                                    
 Above details taken from IMD 
     
Station Code      HKD
Station Lat.       24.682  N
Station Long.      92.563  E
Station Height(m)   23.0
Site Class        C   Vs30 between 200 m/sec to 375 m/sec *  
Record Time       03.09.2009 19:51:51.044
Sampling Rate     200. Hz
 Record Duration   70.295 Sec.
 Direction         E-W (E positive)
Max. Acceleration      6.857 cm/sec**2
     
  * For reference see Site Classification link of website 
     
 Base Line Corrected and Low Pass Filtered (Cut Off at 35 Hz) Time History
 Acceleration data in cm/sec**2
    
[...]
       0.382
       0.406
       0.431
       0.449
       0.453
       0.448
       0.443
       0.443
       0.446
       0.445
       0.432
       0.405
       0.361
       0.301
       0.227
       0.138
       0.038
      -0.063
      -0.147
      -0.198
      -0.217
      -0.218
      -0.219
      -0.231
      -0.251
      -0.276
      -0.303
      -0.336
      -0.370
      -0.398
      -0.417
      -0.433
      -0.453
      -0.478
      -0.500
      -0.511
      -0.507
      -0.491
      -0.467
      -0.438
      -0.407
      -0.377
      -0.345
      -0.310
      -0.272
      -0.235
      -0.208
      -0.194
      -0.193
      -0.199
      -0.208
      -0.222
      -0.246
      -0.281
      -0.324
      -0.366
      -0.396
      -0.407
      -0.399
      -0.379
      -0.348
      -0.308
      -0.259
      -0.207
      -0.163
      -0.127
      -0.089
      -0.039
       0.018
       0.066
       0.089
       0.085
       0.063
       0.033
      -0.001
      -0.041
      -0.086
      -0.133
      -0.176
      -0.209
      -0.228
      -0.228
      -0.209
      -0.174
      -0.124
      -0.059
       0.016
       0.092
       0.156
       0.207
       0.256
       0.312
       0.373
       0.428
       0.465
       0.484
       0.493
       0.500
       0.511
       0.528
       0.554
       0.584
       0.612
       0.632
       0.645
       0.651
       0.650
       0.644
       0.640
       0.647
       0.669
       0.698
       0.721
       0.730
       0.720
       0.691
       0.643
       0.577
       0.500
       0.420
       0.348
       0.285
       0.230
       0.179
       0.127
       0.065
      -0.012
      -0.104
      -0.198
      -0.279
      -0.339
      -0.376
      -0.394
      -0.395
      -0.381
      -0.355
      -0.322
      -0.284
      -0.244
      -0.210
      -0.196
      -0.214
      -0.265
      -0.335
      -0.409
      -0.478
      -0.539
      -0.584
      -0.605
      -0.597
      -0.564
      -0.517
      -0.459
      -0.394
      -0.324
      -0.259
      -0.202
      -0.153
      -0.113
      -0.083
      -0.071
      -0.079
      -0.103
      -0.138
      -0.184
      -0.238
      -0.296
      -0.350
      -0.394
      -0.428
      -0.450
      -0.454
      -0.432
      -0.383
      -0.315
      -0.239
      -0.166
      -0.098
      -0.040
       0.007
       0.045
       0.076
       0.104
       0.131
       0.156
       0.184
       0.214
       0.242
       0.261
       0.270
       0.279
       0.296
       0.321
       0.340
       0.338
       0.312
       0.272
       0.228
       0.188
       0.153
       0.131
       0.129
       0.148
       0.188
       0.236
       0.278
       0.304
       0.308
       0.296
       0.277
       0.256
       0.229
       0.193
       0.154
       0.126
       0.125
       0.152
       0.201
       0.256
       0.309
       0.356
       0.400
       0.446
       0.497
       0.553
       0.607
       0.654
       0.694
       0.728
       0.757
       0.777
       0.785
       0.781
       0.770
       0.755
       0.729
       0.679
       0.597
       0.485
       0.354
       0.209
       0.057
      -0.097
      -0.243
      -0.373
      -0.488
      -0.594
      -0.695
      -0.788
      -0.863
      -0.915
      -0.946
      -0.964
      -0.973
      -0.973
      -0.965
      -0.948
      -0.926
      -0.901
      -0.873
      -0.841
      -0.804
      -0.764
      -0.724
      -0.686
      -0.646
      -0.597
      -0.534
      -0.463
      -0.395
      -0.343
      -0.311
      -0.294
      -0.287
      -0.287
      -0.300
      -0.329
      -0.375
      -0.432
      -0.492
      -0.548
      -0.595
      -0.626
      -0.631
      -0.602
      -0.537
      -0.449
      -0.356
      -0.274
      -0.209
      -0.159
      -0.122
      -0.097
      -0.081
      -0.068
      -0.056
      -0.047
      -0.045
      -0.047
      -0.052
      -0.051
      -0.040
      -0.012
       0.036
       0.107
       0.192
       0.279
       0.355
       0.420
       0.477
       0.534
       0.593
       0.654
       0.720
       0.795
       0.883
       0.986
       1.099
       1.214
       1.316
       1.393
       1.439
       1.451
       1.432
       1.383
       1.306
       1.208
       1.103
       0.999
       0.896
       0.789
       0.673
       0.551
       0.433
       0.326
       0.233
       0.156
       0.094
       0.042
      -0.006
      -0.055
      -0.099
      -0.129
      -0.141
      -0.138
      -0.130
      -0.130
      -0.147
      -0.189
      -0.259
      -0.352
      -0.457
      -0.563
      -0.661
      -0.743
      -0.796
      -0.805
      -0.762
      -0.675
      -0.559
      -0.430
      -0.297
      -0.166
      -0.050
       0.041
       0.101
       0.131
       0.137
       0.129
       0.113
       0.097
       0.080
       0.058
       0.024
      -0.024
      -0.080
      -0.136
      -0.187
      -0.234
      -0.276
      -0.308
      -0.333
      -0.354
      -0.373
      -0.390
      -0.403
      -0.417
      -0.439
      -0.475
      -0.521
      -0.574
      -0.633
      -0.697
      -0.758
      -0.808
      -0.839
      -0.850
      -0.840
      -0.814
      -0.781
      -0.754
      -0.745
      -0.754
      -0.773
      -0.793
      -0.810
      -0.818
      -0.806
      -0.756
      -0.664
      -0.537
      -0.393
      -0.235
      -0.061
       0.133
       0.340
       0.549
       0.750
       0.949
       1.147
       1.343
       1.523
       1.677
       1.797
       1.878
       1.915
       1.911
       1.871
       1.798
       1.690
       1.547
       1.370
       1.174
       0.970
       0.763
       0.551
       0.329
       0.095
      -0.150
      -0.400
      -0.650
      -0.894
      -1.125
      -1.338
      -1.527
      -1.679
      -1.783
      -1.830
      -1.822
      -1.770
      -1.680
      -1.553
      -1.391
      -1.202
      -0.999
      -0.794
      -0.590
      -0.389
      -0.191
       0.001
       0.182
       0.348
       0.490
       0.607
       0.702
       0.785
       0.865
       0.948
       1.027
       1.097
       1.153
       1.187
       1.191
       1.162
       1.102
       1.023
       0.930
       0.821
       0.692
       0.541
       0.375
       0.202
       0.031
      -0.129
      -0.269
      -0.392
      -0.508
      -0.627
      -0.756
      -0.896
      -1.046
      -1.204
      -1.366
      -1.519
      -1.643
      -1.722
      -1.739
      -1.687
      -1.566
      -1.384
      -1.151
      -0.880
      -0.573
      -0.231
       0.142
       0.526
       0.897
       1.235
       1.530
       1.780
       1.981
       2.133
       2.238
       2.304
       2.334
       2.333
       2.304
       2.261
       2.217
       2.178
       2.140
       2.091
       2.025
       1.942
       1.843
       1.731
       1.609
       1.485
       1.364
       1.248
       1.128
       1.001
       0.867
       0.731
       0.592
       0.451
       0.309
       0.172
       0.046
      -0.066
      -0.161
      -0.234
      -0.281
      -0.302
      -0.299
      -0.272
      -0.216
      -0.129
      -0.012
       0.129
       0.286
       0.452
       0.621
       0.780
       0.918
       1.021
       1.082
       1.092
       1.050
       0.960
       0.836
       0.698
       0.558
       0.428
       0.315
       0.228
       0.169
       0.131
       0.103
       0.080
       0.064
       0.053
       0.039
       0.013
      -0.028
      -0.078
      -0.125
      -0.164
      -0.196
      -0.227
      -0.269
      -0.329
      -0.414
      -0.522
      -0.650
      -0.792
      -0.942
      -1.093
      -1.234
      -1.358
      -1.469
      -1.579
      -1.702
      -1.837
      -1.980
      -2.123
      -2.266
      -2.410
      -2.551
      -2.683
      -2.804
      -2.914
      -3.016
      -3.108
      -3.187
      -3.252
      -3.306
      -3.349
      -3.376
      -3.380
      -3.350
      -3.272
      -3.138
      -2.939
      -2.672
      -2.341
      -1.951
      -1.515
      -1.052
      -0.581
      -0.119
       0.317
       0.708
       1.038
       1.298
       1.491
       1.624
       1.704
       1.735
       1.719
       1.661
       1.572
       1.461
       1.338
       1.206
       1.070
       0.936
       0.802
       0.662
       0.504
       0.324
       0.122
      -0.091
      -0.306
      -0.512
      -0.700
      -0.865
      -1.003
      -1.110
      -1.181
      -1.214
      -1.214
      -1.191
      -1.151
      -1.092
      -1.006
      -0.894
      -0.758
      -0.595
      -0.394
      -0.141
       0.167
       0.519
       0.895
       1.277
       1.653
       2.012
       2.343
       2.637
       2.879
       3.059
       3.166
       3.189
       3.123
       2.967
       2.724
       2.406
       2.032
       1.630
       1.226
       0.841
       0.486
       0.178
      -0.070
      -0.249
      -0.359
      -0.407
      -0.396
      -0.326
      -0.204
      -0.043
       0.138
       0.328
       0.521
       0.712
       0.892
       1.055
       1.202
       1.332
       1.439
       1.515
       1.551
       1.550
       1.513
       1.441
       1.328
       1.177
       0.993
       0.787
       0.566
       0.340
       0.122
      -0.070
      -0.225
      -0.343
      -0.423
      -0.467
      -0.481
      -0.475
      -0.461
      -0.446
      -0.427
      -0.399
      -0.361
      -0.310
      -0.240
      -0.144
      -0.021
       0.122
       0.282
       0.464
       0.680
       0.938
       1.238
       1.567
       1.906
       2.233
       2.523
       2.750
       2.904
       2.980
       2.973
       2.875
       2.672
       2.362
       1.958
       1.479
       0.938
       0.343
      -0.293
      -0.947
      -1.592
      -2.204
      -2.769
      -3.280
      -3.738
      -4.146
      -4.504
      -4.806
      -5.043
      -5.206
      -5.300
      -5.334
      -5.311
      -5.231
      -5.092
      -4.899
      -4.657
      -4.367
      -4.026
      -3.635
      -3.204
      -2.746
      -2.272
      -1.783
      -1.281
      -0.771
      -0.259
       0.252
       0.757
       1.243
       1.687
       2.070
       2.386
       2.634
       2.812
       2.908
       2.908
       2.804
       2.595
       2.280
       1.865
       1.360
       0.783
       0.154
      -0.506
      -1.172
      -1.814
      -2.406
      -2.931
      -3.383
      -3.756
      -4.042
      -4.227
      -4.302
      -4.268
      -4.133
      -3.907
      -3.603
      -3.234
      -2.809
      -2.336
      -1.824
      -1.285
      -0.730
      -0.168
       0.398
       0.967
       1.530
       2.077
       2.598
       3.089
       3.550
       3.971
       4.335
       4.624
       4.828
       4.942
       4.961
       4.880
       4.694
       4.408
       4.036
       3.594
       3.094
       2.543
       1.947
       1.312
       0.651
      -0.022
      -0.690
      -1.340
      -1.958
      -2.530
      -3.035
      -3.453
      -3.767
      -3.971
      -4.068
      -4.063
      -3.962
      -3.768
      -3.489
      -3.130
      -2.698
      -2.200
      -1.647
      -1.053
      -0.428
       0.219
       0.875
       1.527
       2.162
       2.767
       3.335
       3.857
       4.321
       4.716
       5.032
       5.261
       5.400
       5.452
       5.424
       5.326
       5.163
       4.934
       4.638
       4.286
       3.897
       3.490
       3.079
       2.672
       2.281
       1.923
       1.613
       1.356
       1.151
       0.995
       0.889
       0.833
       0.822
       0.844
       0.885
       0.936
       0.993
       1.054
       1.115
       1.167
       1.199
       1.198
       1.155
       1.071
       0.947
       0.784
       0.581
       0.346
       0.098
      -0.136
      -0.339
      -0.508
      -0.648
      -0.759
      -0.831
      -0.854
      -0.831
      -0.775
      -0.699
      -0.610
      -0.506
      -0.389
      -0.266
      -0.152
      -0.061
      -0.004
       0.013
      -0.012
      -0.081
      -0.194
      -0.345
      -0.524
      -0.716
      -0.906
      -1.087
      -1.256
      -1.411
      -1.550
      -1.672
      -1.776
      -1.865
      -1.943
      -2.007
      -2.054
      -2.080
      -2.085
      -2.069
      -2.039
      -2.000
      -1.957
      -1.916
      -1.882
      -1.866
      -1.880
      -1.928
      -1.999
      -2.080
      -2.162
      -2.247
      -2.339
      -2.440
      -2.546
      -2.653
      -2.759
      -2.864
      -2.968
      -3.068
      -3.159
      -3.236
      -3.294
      -3.331
      -3.348
      -3.349
      -3.333
      -3.294
      -3.221
      -3.110
      -2.966
      -2.804
      -2.633
      -2.458
      -2.276
      -2.090
      -1.902
      -1.723
      -1.561
      -1.426
      -1.322
      -1.245
      -1.191
      -1.161
      -1.159
      -1.187
      -1.238
      -1.300
      -1.361
      -1.412
      -1.447
      -1.461
      -1.456
      -1.437
      -1.414
      -1.395
      -1.379
      -1.362
      -1.341
      -1.310
      -1.258
      -1.170
      -1.037
      -0.859
      -0.637
      -0.371
      -0.062
       0.286
       0.660
       1.046
       1.431
       1.805
       2.162
       2.498
       2.822
       3.143
       3.469
       3.804
       4.150
       4.512
       4.890
       5.275
       5.654
       6.007
       6.321
       6.578
       6.761
       6.855
       6.857
       6.774
       6.618
       6.395
       6.103
       5.745
       5.332
       4.879
       4.397
       3.890
       3.362
       2.814
       2.245
       1.658
       1.063
       0.480
      -0.069
      -0.573
      -1.030
      -1.438
      -1.784
      -2.051
      -2.230
      -2.322
      -2.331
      -2.257
      -2.100
      -1.865
      -1.563
      -1.210
      -0.822
      -0.421
      -0.031
       0.332
       0.661
       0.959
       1.219
       1.428
       1.574
       1.651
       1.664
       1.620
       1.524
       1.379
       1.199
       0.994
       0.772
       0.532
       0.275
       0.006
      -0.263
      -0.524
      -0.766
      -0.979
      -1.150
      -1.277
      -1.364
      -1.413
      -1.420
      -1.382
      -1.305
      -1.204
      -1.095
      -0.980
      -0.856
      -0.726
      -0.597
      -0.478
      -0.375
      -0.293
      -0.243
      -0.234
      -0.273
      -0.358
      -0.491
      -0.673
      -0.901
      -1.167
      -1.456
      -1.754
      -2.055
      -2.352
      -2.630
      -2.867
      -3.046
      -3.158
      -3.202
      -3.181
      -3.101
      -2.971
      -2.805
      -2.622
      -2.437
      -2.263
      -2.110
      -1.982
      -1.876
      -1.780
      -1.683
      -1.575
      -1.446
      -1.286
      -1.088
      -0.857
      -0.602
      -0.336
      -0.069
       0.189
       0.427
       0.638
       0.822
       0.980
       1.108
       1.191
       1.214
       1.176
       1.087
       0.960
       0.811
       0.653
       0.499
       0.364
       0.251
       0.157
       0.072
      -0.020
      -0.132
      -0.271
      -0.440
      -0.628
      -0.827
      -1.026
      -1.214
      -1.375
      -1.484
      -1.519
      -1.464
      -1.317
      -1.086
      -0.783
      -0.427
      -0.043
       0.336
       0.684
       0.993
       1.261
       1.489
       1.672
       1.811
       1.921
       2.026
       2.140
       2.263
       2.387
       2.501
       2.597
       2.664
       2.694
       2.671
       2.585
       2.428
       2.200
       1.910
       1.570
       1.197
       0.813
       0.440
       0.101
      -0.182
      -0.391
      -0.516
      -0.555
      -0.516
      -0.415
      -0.271
      -0.109
       0.052
       0.195
       0.310
       0.391
       0.437
       0.456
       0.464
       0.481
       0.523
       0.600
       0.715
       0.863
       1.035
       1.221
       1.413
       1.601
       1.776
       1.919
       2.017
       2.061
       2.055
       2.006
       1.923
       1.810
       1.670
       1.514
       1.352
       1.191
       1.035
       0.885
       0.743
       0.608
       0.479
       0.351
       0.217
       0.071
      -0.094
      -0.282
      -0.496
      -0.730
      -0.980
      -1.235
      -1.482
      -1.700
      -1.872
      -1.988
      -2.049
      -2.060
      -2.028
      -1.954
      -1.846
      -1.714
      -1.569
      -1.416
      -1.254
      -1.083
      -0.908
      -0.730
      -0.548
      -0.359
      -0.168
       0.015
       0.177
       0.305
       0.390
       0.427
       0.411
       0.338
       0.208
       0.026
      -0.193
      -0.427
      -0.654
      -0.854
      -1.015
      -1.130
      -1.196
      -1.214
      -1.191
      -1.141
      -1.075
      -1.001
      -0.924
      -0.852
      -0.796
      -0.769
      -0.779
      -0.829
      -0.912
      -1.022
      -1.149
      -1.280
      -1.405
      -1.510
      -1.583
      -1.611
      -1.588
      -1.520
      -1.422
      -1.311
      -1.198
      -1.092
      -1.009
      -0.962
      -0.953
      -0.969
      -0.988
      -0.997
      -0.991
      -0.969
      -0.926
      -0.853
      -0.753
      -0.633
      -0.498
      -0.342
      -0.155
       0.066
       0.309
       0.555
       0.790
       1.004
       1.192
       1.350
       1.475
       1.564
       1.612
       1.621
       1.594
       1.540
       1.463
       1.361
       1.233
       1.080
       0.906
       0.716
       0.510
       0.295
       0.081
      -0.114
      -0.275
      -0.396
      -0.475
      -0.510
      -0.494
      -0.426
      -0.309
      -0.152
       0.029
       0.217
       0.395
       0.554
       0.693
       0.817
       0.926
       1.019
       1.090
       1.139
       1.172
       1.198
       1.225
       1.269
       1.344
       1.457
       1.601
       1.760
       1.918
       2.064
       2.191
       2.289
       2.344
       2.346
       2.288
       2.171
       1.990
       1.746
       1.441
       1.086
       0.692
       0.276
      -0.143
      -0.545
      -0.917
      -1.254
      -1.557
      -1.823
      -2.047
      -2.217
      -2.331
      -2.384
      -2.373
      -2.291
      -2.138
      -1.919
      -1.645
      -1.327
      -0.978
      -0.613
      -0.246
       0.111
       0.456
       0.779
       1.068
       1.308
       1.491
       1.610
       1.663
       1.644
       1.548
       1.377
       1.140
       0.851
       0.525
       0.181
      -0.157
      -0.467
      -0.732
      -0.946
      -1.111
      -1.232
      -1.314
      -1.368
      -1.403
      -1.432
      -1.459
      -1.490
      -1.528
      -1.579
      -1.645
      -1.725
      -1.813
      -1.900
      -1.972
      -2.013
      -2.009
      -1.954
      -1.854
      -1.711
      -1.525
      -1.297
      -1.036
      -0.761
      -0.493
      -0.246
      -0.026
       0.164
       0.319
       0.440
       0.528
       0.586
       0.614
       0.612
       0.579
       0.522
       0.442
       0.343
       0.226
       0.099
      -0.031
      -0.160
      -0.290
      -0.421
      -0.552
      -0.676
      -0.785
      -0.877
      -0.950
      -1.008
