Origin Time       12/3/2010 23:19:54	
Lat.              23.0 N	
Long.             94.5 E	
Depth (Km)         96.0
Magnitude         5.6
 Region           MYANMAR                                                          
 Above details taken from IMD 
     
Station Code      HKD
Station Lat.       24.682  N
Station Long.      92.563  E
Station Height(m)   23.0
Site Class        C   Vs30 between 200 m/sec to 375 m/sec *  
Record Time       12.03.2010 23:20:32.754
Sampling Rate     200. Hz
 Record Duration  108.610 Sec.
 Direction         E-W (E positive)
Max. Acceleration     -4.871 cm/sec**2
     
  * For reference see Site Classification link of website 
     
 Base Line Corrected and Low Pass Filtered (Cut Off at 35 Hz) Time History
 Acceleration data in cm/sec**2
    
[...]
       0.090
       0.088
       0.087
       0.084
       0.079
       0.069
       0.055
       0.038
       0.020
       0.000
      -0.024
      -0.048
      -0.069
      -0.083
      -0.090
      -0.093
      -0.094
      -0.090
      -0.080
      -0.068
      -0.058
      -0.055
      -0.059
      -0.067
      -0.075
      -0.082
      -0.090
      -0.099
      -0.105
      -0.109
      -0.109
      -0.107
      -0.102
      -0.095
      -0.085
      -0.076
      -0.073
      -0.074
      -0.075
      -0.072
      -0.063
      -0.051
      -0.039
      -0.028
      -0.019
      -0.009
       0.004
       0.020
       0.035
       0.042
       0.038
       0.023
       0.006
      -0.006
      -0.015
      -0.025
      -0.039
      -0.054
      -0.064
      -0.063
      -0.049
      -0.026
       0.001
       0.025
       0.044
       0.058
       0.065
       0.066
       0.061
       0.052
       0.042
       0.033
       0.027
       0.025
       0.027
       0.034
       0.045
       0.057
       0.067
       0.074
       0.079
       0.084
       0.089
       0.091
       0.087
       0.075
       0.057
       0.037
       0.022
       0.015
       0.014
       0.015
       0.012
       0.004
      -0.007
      -0.020
      -0.029
      -0.035
      -0.038
      -0.039
      -0.040
      -0.044
      -0.051
      -0.061
      -0.071
      -0.081
      -0.088
      -0.093
      -0.096
      -0.097
      -0.094
      -0.087
      -0.078
      -0.065
      -0.045
      -0.019
       0.012
       0.041
       0.060
       0.068
       0.064
       0.053
       0.043
       0.039
       0.043
       0.054
       0.069
       0.088
       0.109
       0.130
       0.144
       0.149
       0.148
       0.144
       0.140
       0.131
       0.111
       0.082
       0.050
       0.025
       0.010
       0.000
      -0.010
      -0.025
      -0.045
      -0.067
      -0.091
      -0.115
      -0.136
      -0.154
      -0.168
      -0.179
      -0.191
      -0.205
      -0.220
      -0.229
      -0.227
      -0.213
      -0.189
      -0.164
      -0.142
      -0.120
      -0.098
      -0.074
      -0.049
      -0.026
      -0.007
       0.007
       0.015
       0.018
       0.017
       0.017
       0.020
       0.028
       0.040
       0.055
       0.075
       0.097
       0.115
       0.125
       0.125
       0.118
       0.107
       0.096
       0.085
       0.072
       0.059
       0.046
       0.035
       0.027
       0.026
       0.036
       0.055
       0.079
       0.102
       0.122
       0.140
       0.161
       0.183
       0.205
       0.219
       0.221
       0.208
       0.183
       0.152
       0.121
       0.090
       0.060
       0.028
      -0.007
      -0.042
      -0.074
      -0.097
      -0.111
      -0.116
      -0.115
      -0.108
      -0.095
      -0.074
      -0.049
      -0.025
      -0.004
       0.015
       0.032
       0.049
       0.063
       0.072
       0.075
       0.074
       0.075
       0.079
       0.084
       0.088
       0.090
       0.092
       0.093
       0.092
       0.090
       0.088
       0.087
       0.086
       0.085
       0.084
       0.089
       0.102
       0.121
       0.140
       0.156
       0.170
       0.185
       0.201
       0.215
       0.223
       0.225
       0.226
       0.232
       0.243
       0.254
       0.260
       0.258
       0.246
       0.226
       0.197
       0.162
       0.121
       0.075
       0.029
      -0.012
      -0.045
      -0.069
      -0.089
      -0.108
      -0.128
      -0.149
      -0.171
      -0.191
      -0.211
      -0.229
      -0.242
      -0.250
      -0.248
      -0.237
      -0.220
      -0.201
      -0.183
      -0.168
      -0.154
      -0.140
      -0.129
      -0.123
      -0.128
      -0.145
      -0.174
      -0.206
      -0.233
      -0.245
      -0.242
      -0.226
      -0.202
      -0.175
      -0.145
      -0.117
      -0.094
      -0.080
      -0.073
      -0.070
      -0.065
      -0.056
      -0.043
      -0.028
      -0.015
      -0.009
      -0.012
      -0.028
      -0.056
      -0.091
      -0.126
      -0.154
      -0.170
      -0.174
      -0.167
      -0.151
      -0.129
      -0.103
      -0.075
      -0.051
      -0.034
      -0.027
      -0.029
      -0.037
      -0.046
      -0.049
      -0.045
      -0.035
      -0.022
      -0.010
      -0.003
      -0.001
      -0.004
      -0.006
      -0.005
       0.001
       0.008
       0.017
       0.027
       0.044
       0.070
       0.102
       0.135
       0.162
       0.181
       0.196
       0.210
       0.229
       0.249
       0.265
       0.272
       0.270
       0.261
       0.251
       0.239
       0.218
       0.182
       0.132
       0.075
       0.021
      -0.023
      -0.054
      -0.071
      -0.075
      -0.064
      -0.043
      -0.018
       0.006
       0.026
       0.044
       0.062
       0.079
       0.094
       0.106
       0.116
       0.126
       0.133
       0.132
       0.118
       0.092
       0.060
       0.031
       0.008
      -0.010
      -0.023
      -0.026
      -0.013
       0.014
       0.043
       0.062
       0.067
       0.061
       0.053
       0.044
       0.033
       0.018
       0.003
      -0.010
      -0.016
      -0.016
      -0.013
      -0.014
      -0.021
      -0.032
      -0.044
      -0.055
      -0.063
      -0.073
      -0.086
      -0.104
      -0.122
      -0.136
      -0.142
      -0.141
      -0.137
      -0.133
      -0.131
      -0.130
      -0.128
      -0.120
      -0.105
      -0.087
      -0.070
      -0.060
      -0.059
      -0.066
      -0.075
      -0.080
      -0.080
      -0.074
      -0.065
      -0.058
      -0.052
      -0.043
      -0.026
       0.000
       0.033
       0.069
       0.102
       0.131
       0.158
       0.182
       0.205
       0.224
       0.237
       0.241
       0.236
       0.224
       0.209
       0.193
       0.177
       0.159
       0.143
       0.132
       0.131
       0.137
       0.146
       0.154
       0.158
       0.158
       0.150
       0.131
       0.100
       0.058
       0.009
      -0.043
      -0.094
      -0.140
      -0.172
      -0.185
      -0.178
      -0.157
      -0.129
      -0.101
      -0.076
      -0.054
      -0.034
      -0.015
       0.003
       0.020
       0.034
       0.045
       0.052
       0.056
       0.056
       0.052
       0.050
       0.058
       0.081
       0.110
       0.134
       0.146
       0.151
       0.157
       0.171
       0.190
       0.206
       0.214
       0.211
       0.198
       0.180
       0.156
       0.129
       0.100
       0.073
       0.052
       0.038
       0.028
       0.014
      -0.008
      -0.035
      -0.062
      -0.088
      -0.114
      -0.148
      -0.192
      -0.247
      -0.304
      -0.352
      -0.384
      -0.396
      -0.390
      -0.370
      -0.340
      -0.304
      -0.266
      -0.230
      -0.197
      -0.167
      -0.140
      -0.116
      -0.094
      -0.077
      -0.065
      -0.059
      -0.058
      -0.059
      -0.056
      -0.045
      -0.026
      -0.004
       0.016
       0.031
       0.038
       0.038
       0.035
       0.033
       0.035
       0.041
       0.049
       0.055
       0.061
       0.067
       0.075
       0.087
       0.101
       0.116
       0.127
       0.133
       0.132
       0.125
       0.118
       0.113
       0.113
       0.116
       0.117
       0.114
       0.102
       0.080
       0.050
       0.017
      -0.013
      -0.040
      -0.062
      -0.080
      -0.096
      -0.111
      -0.127
      -0.147
      -0.174
      -0.203
      -0.232
      -0.256
      -0.272
      -0.279
      -0.277
      -0.265
      -0.243
      -0.214
      -0.180
      -0.145
      -0.113
      -0.087
      -0.073
      -0.072
      -0.087
      -0.113
      -0.144
      -0.171
      -0.187
      -0.192
      -0.188
      -0.180
      -0.169
      -0.153
      -0.128
      -0.094
      -0.054
      -0.011
       0.033
       0.079
       0.126
       0.172
       0.212
       0.245
       0.269
       0.284
       0.292
       0.292
       0.284
       0.267
       0.244
       0.216
       0.183
       0.150
       0.118
       0.090
       0.067
       0.044
       0.022
      -0.002
      -0.027
      -0.048
      -0.063
      -0.065
      -0.056
      -0.038
      -0.018
       0.000
       0.014
       0.024
       0.027
       0.022
       0.009
      -0.012
      -0.037
      -0.065
      -0.090
      -0.108
      -0.119
      -0.127
      -0.132
      -0.132
      -0.124
      -0.104
      -0.073
      -0.033
       0.014
       0.068
       0.124
       0.177
       0.219
       0.248
       0.263
       0.269
       0.269
       0.266
       0.262
       0.254
       0.240
       0.217
       0.189
       0.157
       0.124
       0.089
       0.054
       0.023
       0.003
      -0.002
       0.008
       0.024
       0.038
       0.041
       0.034
       0.021
       0.007
      -0.003
      -0.009
      -0.009
      -0.006
       0.001
       0.008
       0.009
       0.004
      -0.006
      -0.016
      -0.025
      -0.036
      -0.052
      -0.073
      -0.093
      -0.110
      -0.121
      -0.128
      -0.133
      -0.136
      -0.136
      -0.132
      -0.125
      -0.112
      -0.092
      -0.064
      -0.031
      -0.001
       0.019
       0.026
       0.021
       0.009
      -0.004
      -0.013
      -0.015
      -0.008
       0.010
       0.037
       0.068
       0.100
       0.132
       0.164
       0.198
       0.230
       0.258
       0.279
       0.293
       0.300
       0.298
       0.282
       0.246
       0.191
       0.123
       0.052
      -0.015
      -0.071
      -0.113
      -0.140
      -0.150
      -0.145
      -0.129
      -0.106
      -0.080
      -0.051
      -0.021
       0.005
       0.019
       0.015
      -0.009
      -0.050
      -0.097
      -0.146
      -0.191
      -0.235
      -0.279
      -0.320
      -0.358
      -0.388
      -0.411
      -0.428
      -0.444
      -0.465
      -0.489
      -0.515
      -0.536
      -0.550
      -0.558
      -0.563
      -0.566
      -0.568
      -0.570
      -0.571
      -0.571
      -0.569
      -0.567
      -0.562
      -0.556
      -0.549
      -0.543
      -0.538
      -0.536
      -0.539
      -0.550
      -0.569
      -0.592
      -0.618
      -0.647
      -0.677
      -0.706
      -0.729
      -0.746
      -0.761
      -0.780
      -0.805
      -0.832
      -0.855
      -0.873
      -0.889
      -0.905
      -0.919
      -0.925
      -0.920
      -0.908
      -0.895
      -0.883
      -0.870
      -0.852
      -0.823
      -0.785
      -0.737
      -0.683
      -0.621
      -0.546
      -0.453
      -0.338
      -0.204
      -0.059
       0.088
       0.227
       0.355
       0.473
       0.582
       0.679
       0.763
       0.833
       0.893
       0.948
       1.005
       1.065
       1.129
       1.198
       1.273
       1.359
       1.455
       1.562
       1.676
       1.793
       1.908
       2.021
       2.133
       2.243
       2.347
       2.444
       2.537
       2.630
       2.723
       2.813
       2.895
       2.967
       3.028
       3.078
       3.116
       3.141
       3.148
       3.129
       3.078
       2.995
       2.890
       2.773
       2.648
       2.518
       2.383
       2.249
       2.122
       2.008
       1.905
       1.809
       1.716
       1.621
       1.518
       1.405
       1.282
       1.148
       1.005
       0.851
       0.683
       0.501
       0.309
       0.113
      -0.080
      -0.265
      -0.436
      -0.592
      -0.732
      -0.860
      -0.978
      -1.094
      -1.211
      -1.336
      -1.470
      -1.609
      -1.750
      -1.895
      -2.049
      -2.213
      -2.383
      -2.550
      -2.703
      -2.835
      -2.943
      -3.024
      -3.076
      -3.100
      -3.100
      -3.082
      -3.054
      -3.026
      -3.009
      -3.013
      -3.039
      -3.084
      -3.146
      -3.221
      -3.306
      -3.394
      -3.473
      -3.525
      -3.535
      -3.497
      -3.408
      -3.272
      -3.093
      -2.878
      -2.634
      -2.372
      -2.103
      -1.837
      -1.581
      -1.337
      -1.110
      -0.904
      -0.718
      -0.547
      -0.381
      -0.216
      -0.048
       0.120
       0.287
       0.450
       0.602
       0.736
       0.848
       0.939
       1.013
       1.075
       1.125
       1.162
       1.191
       1.219
       1.252
       1.295
       1.349
       1.415
       1.491
       1.579
       1.676
       1.782
       1.891
       1.999
       2.100
       2.184
       2.242
       2.268
       2.263
       2.230
       2.175
       2.103
       2.027
       1.964
       1.934
       1.950
       2.014
       2.116
       2.246
       2.395
       2.558
       2.723
       2.875
       2.999
       3.085
       3.129
       3.137
       3.116
       3.072
       3.007
       2.921
       2.816
       2.698
       2.574
       2.448
       2.319
       2.184
       2.040
       1.885
       1.717
       1.535
       1.339
       1.131
       0.914
       0.682
       0.431
       0.157
      -0.138
      -0.447
      -0.764
      -1.083
      -1.404
      -1.727
      -2.054
      -2.383
      -2.712
      -3.031
      -3.333
      -3.612
      -3.870
      -4.109
      -4.329
      -4.519
      -4.673
      -4.782
      -4.848
      -4.871
      -4.853
      -4.792
      -4.692
      -4.556
      -4.392
      -4.207
      -4.004
      -3.788
      -3.565
      -3.341
      -3.126
      -2.928
      -2.750
      -2.588
      -2.438
      -2.297
      -2.163
      -2.037
      -1.915
      -1.794
      -1.667
      -1.531
      -1.385
      -1.235
      -1.090
      -0.956
      -0.841
      -0.753
      -0.698
      -0.678
      -0.694
      -0.740
      -0.805
      -0.874
      -0.934
      -0.978
      -1.000
      -0.995
      -0.956
      -0.877
      -0.758
      -0.600
      -0.404
      -0.174
       0.085
       0.360
       0.639
       0.909
       1.165
       1.404
       1.621
       1.810
       1.966
       2.080
       2.155
       2.195
       2.211
       2.216
       2.219
       2.228
       2.250
       2.287
       2.343
       2.423
       2.530
       2.664
       2.821
       2.993
       3.171
       3.351
       3.529
       3.699
       3.853
       3.986
       4.099
       4.196
       4.274
       4.326
       4.346
       4.329
       4.277
       4.194
       4.080
       3.938
       3.773
       3.593
       3.406
       3.219
       3.037
       2.857
       2.678
       2.496
       2.311
       2.123
       1.932
       1.733
       1.523
       1.297
       1.058
       0.809
       0.552
       0.289
       0.022
      -0.247
      -0.512
      -0.765
      -1.001
      -1.209
      -1.382
      -1.515
      -1.611
      -1.680
      -1.731
      -1.768
      -1.792
      -1.806
      -1.819
      -1.847
      -1.905
      -2.003
      -2.141
      -2.318
      -2.528
      -2.766
      -3.024
      -3.296
      -3.570
      -3.834
      -4.071
      -4.266
      -4.411
      -4.501
      -4.536
      -4.517
      -4.444
      -4.319
      -4.147
      -3.934
      -3.687
      -3.412
      -3.114
      -2.799
      -2.474
      -2.147
      -1.823
      -1.504
      -1.191
      -0.884
      -0.581
      -0.279
       0.019
       0.312
       0.595
       0.869
       1.139
       1.408
       1.673
       1.930
       2.175
       2.404
       2.617
       2.813
       2.989
       3.143
       3.274
       3.378
       3.454
       3.501
       3.517
       3.499
       3.444
       3.352
       3.225
       3.067
       2.884
       2.681
       2.462
       2.233
       1.996
       1.758
       1.526
       1.310
       1.111
       0.929
       0.758
       0.595
       0.438
       0.288
       0.147
       0.016
      -0.101
      -0.200
      -0.279
      -0.341
      -0.388
      -0.422
      -0.441
      -0.442
      -0.421
      -0.378
      -0.313
      -0.226
      -0.119
       0.002
       0.126
       0.240
       0.334
       0.403
       0.450
       0.479
       0.495
       0.499
       0.492
       0.473
       0.446
       0.415
       0.385
       0.354
       0.314
       0.265
       0.208
       0.151
       0.097
       0.042
      -0.022
      -0.100
      -0.194
      -0.298
      -0.407
      -0.517
      -0.627
      -0.739
      -0.853
      -0.966
      -1.070
      -1.161
      -1.237
      -1.299
      -1.346
      -1.377
      -1.392
      -1.390
      -1.370
      -1.332
      -1.274
      -1.199
      -1.112
      -1.024
      -0.943
      -0.878
      -0.829
      -0.793
      -0.769
      -0.761
      -0.778
      -0.828
      -0.905
      -0.996
      -1.091
      -1.182
      -1.266
      -1.337
      -1.387
      -1.407
      -1.390
      -1.336
      -1.249
      -1.136
      -1.010
      -0.880
      -0.755
      -0.632
      -0.511
      -0.392
      -0.277
      -0.172
      -0.080
      -0.001
       0.067
       0.130
       0.190
       0.249
       0.302
       0.345
       0.380
       0.410
       0.438
       0.463
       0.480
       0.486
       0.483
       0.479
       0.478
       0.485
       0.495
       0.506
       0.517
       0.530
       0.549
       0.569
       0.579
       0.569
       0.531
       0.463
       0.364
       0.237
       0.082
      -0.097
      -0.290
      -0.488
      -0.677
      -0.843
      -0.973
      -1.057
      -1.093
      -1.080
      -1.021
      -0.921
      -0.787
      -0.634
      -0.479
      -0.338
      -0.222
      -0.138
      -0.089
      -0.077
      -0.098
      -0.146
      -0.207
      -0.271
      -0.327
      -0.364
      -0.372
      -0.342
      -0.270
      -0.160
      -0.017
       0.155
       0.355
       0.581
       0.825
       1.071
       1.306
       1.521
       1.711
       1.877
       2.017
       2.127
       2.204
       2.248
       2.260
       2.243
       2.197
       2.122
       2.021
       1.898
       1.758
       1.610
       1.461
       1.320
       1.188
       1.070
       0.969
       0.889
       0.834
       0.801
       0.788
       0.782
       0.774
       0.752
       0.712
       0.653
       0.576
       0.477
       0.350
       0.192
       0.005
      -0.201
      -0.412
      -0.615
      -0.807
      -0.990
      -1.166
      -1.336
      -1.491
      -1.627
      -1.744
      -1.846
      -1.938
      -2.023
      -2.104
      -2.181
      -2.260
      -2.340
      -2.419
      -2.492
      -2.547
      -2.574
      -2.562
      -2.505
      -2.405
      -2.265
      -2.091
      -1.889
      -1.671
      -1.450
      -1.248
      -1.080
      -0.957
      -0.882
      -0.852
      -0.860
      -0.900
      -0.962
      -1.034
      -1.106
      -1.169
      -1.222
      -1.264
      -1.292
      -1.303
      -1.296
      -1.271
      -1.239
      -1.209
      -1.186
      -1.169
      -1.158
      -1.153
      -1.156
      -1.167
      -1.179
      -1.185
      -1.181
      -1.166
      -1.144
      -1.117
      -1.087
      -1.052
      -1.010
      -0.966
      -0.919
      -0.873
