Origin Time       11/8/2009 21:43:39  UTC
Lat.              24.4 N 
Long.             94.8 E 
Depth (Km)         22.0
Magnitude         5.6
 Region           MYANMAR-INDIA(MANIPUR)BORDER                                     
 Above details taken from IMD 
    
Station Code      HKD
Station Lat.       24.682  N
Station Long.      92.563  E
Station Height(m)   23.0
Site Class        C   Vs30 between 200 m/sec to 375 m/sec *  
Record Time       11.08.2009 21:44:29.959 UTC
Sampling Rate     200. Hz
 Record Duration   70.410 Sec.
 Direction         N-S (N positive)
Max. Acceleration    -10.187 cm/sec**2
     
  * For reference see Site Classification link of website 
     
 Base Line Corrected and Low Pass Filtered (Cut Off at 35 Hz) Time History
 Acceleration data in cm/sec**2
    
[...]
       0.125
       0.130
       0.132
       0.125
       0.114
       0.102
       0.083
       0.050
       0.012
      -0.017
      -0.033
      -0.046
      -0.063
      -0.077
      -0.070
      -0.040
      -0.001
       0.032
       0.059
       0.093
       0.139
       0.191
       0.243
       0.293
       0.345
       0.390
       0.413
       0.413
       0.407
       0.409
       0.415
       0.404
       0.368
       0.318
       0.264
       0.209
       0.151
       0.092
       0.036
      -0.014
      -0.063
      -0.109
      -0.143
      -0.154
      -0.141
      -0.113
      -0.077
      -0.030
       0.032
       0.102
       0.158
       0.185
       0.186
       0.168
       0.131
       0.065
      -0.023
      -0.116
      -0.195
      -0.258
      -0.309
      -0.348
      -0.369
      -0.371
      -0.363
      -0.350
      -0.335
      -0.319
      -0.309
      -0.306
      -0.298
      -0.262
      -0.191
      -0.100
      -0.016
       0.048
       0.102
       0.157
       0.214
       0.260
       0.289
       0.308
       0.324
       0.335
       0.336
       0.325
       0.301
       0.253
       0.170
       0.056
      -0.065
      -0.166
      -0.238
      -0.286
      -0.318
      -0.331
      -0.325
      -0.303
      -0.273
      -0.240
      -0.207
      -0.175
      -0.154
      -0.150
      -0.164
      -0.191
      -0.231
      -0.288
      -0.362
      -0.434
      -0.486
      -0.507
      -0.504
      -0.480
      -0.435
      -0.369
      -0.297
      -0.233
      -0.184
      -0.143
      -0.110
      -0.095
      -0.108
      -0.143
      -0.187
      -0.227
      -0.258
      -0.279
      -0.284
      -0.265
      -0.217
      -0.142
      -0.041
       0.082
       0.219
       0.349
       0.456
       0.533
       0.580
       0.599
       0.585
       0.544
       0.496
       0.465
       0.465
       0.492
       0.542
       0.612
       0.690
       0.752
       0.779
       0.764
       0.719
       0.650
       0.558
       0.448
       0.336
       0.239
       0.164
       0.102
       0.040
      -0.024
      -0.080
      -0.125
      -0.163
      -0.200
      -0.233
      -0.252
      -0.257
      -0.254
      -0.252
      -0.250
      -0.254
      -0.282
      -0.342
      -0.415
      -0.470
      -0.493
      -0.491
      -0.480
      -0.457
      -0.410
      -0.339
      -0.264
      -0.205
      -0.166
      -0.141
      -0.131
      -0.139
      -0.164
      -0.189
      -0.191
      -0.165
      -0.116
      -0.050
       0.043
       0.167
       0.308
       0.437
       0.538
       0.614
       0.668
       0.692
       0.675
       0.619
       0.541
       0.451
       0.351
       0.245
       0.143
       0.052
      -0.027
      -0.103
      -0.181
      -0.260
      -0.335
      -0.408
      -0.480
      -0.544
      -0.585
      -0.598
      -0.597
      -0.596
      -0.594
      -0.570
      -0.510
      -0.423
      -0.338
      -0.266
      -0.207
      -0.155
      -0.114
      -0.080
      -0.041
       0.013
       0.079
       0.140
       0.188
       0.230
       0.274
       0.318
       0.352
       0.366
       0.360
       0.336
       0.293
       0.229
       0.149
       0.070
       0.003
      -0.051
      -0.094
      -0.118
      -0.115
      -0.091
      -0.062
      -0.035
      -0.001
       0.051
       0.117
       0.184
       0.239
       0.282
       0.313
       0.329
       0.325
       0.304
       0.276
       0.245
       0.210
       0.164
       0.107
       0.040
      -0.033
      -0.109
      -0.185
      -0.251
      -0.301
      -0.333
      -0.351
      -0.358
      -0.348
      -0.324
      -0.297
      -0.275
      -0.252
      -0.211
      -0.151
      -0.085
      -0.031
       0.015
       0.065
       0.126
       0.192
       0.253
       0.304
       0.342
       0.360
       0.349
       0.305
       0.236
       0.149
       0.053
      -0.043
      -0.123
      -0.164
      -0.154
      -0.101
      -0.022
       0.070
       0.165
       0.253
       0.322
       0.366
       0.393
       0.414
       0.426
       0.420
       0.393
       0.348
       0.288
       0.208
       0.110
       0.002
      -0.099
      -0.188
      -0.267
      -0.336
      -0.387
      -0.404
      -0.383
      -0.332
      -0.263
      -0.189
      -0.121
      -0.075
      -0.068
      -0.102
      -0.164
      -0.238
      -0.322
      -0.416
      -0.512
      -0.589
      -0.634
      -0.648
      -0.632
      -0.579
      -0.483
      -0.351
      -0.207
      -0.068
       0.068
       0.207
       0.348
       0.478
       0.585
       0.666
       0.727
       0.764
       0.767
       0.730
       0.663
       0.580
       0.489
       0.394
       0.305
       0.241
       0.205
       0.179
       0.136
       0.070
      -0.005
      -0.078
      -0.149
      -0.218
      -0.279
      -0.321
      -0.344
      -0.350
      -0.333
      -0.276
      -0.167
      -0.018
       0.145
       0.299
       0.434
       0.544
       0.618
       0.639
       0.603
       0.514
       0.389
       0.238
       0.074
      -0.077
      -0.190
      -0.259
      -0.301
      -0.328
      -0.340
      -0.326
      -0.286
      -0.232
      -0.168
      -0.094
      -0.009
       0.071
       0.126
       0.147
       0.139
       0.107
       0.050
      -0.030
      -0.120
      -0.199
      -0.255
      -0.290
      -0.309
      -0.312
      -0.293
      -0.255
      -0.212
      -0.173
      -0.131
      -0.073
      -0.005
       0.060
       0.108
       0.141
       0.161
       0.166
       0.154
       0.134
       0.119
       0.115
       0.115
       0.108
       0.092
       0.071
       0.047
       0.015
      -0.032
      -0.097
      -0.170
      -0.239
      -0.296
      -0.337
      -0.361
      -0.371
      -0.373
      -0.381
      -0.398
      -0.419
      -0.441
      -0.463
      -0.482
      -0.489
      -0.477
      -0.456
      -0.439
      -0.426
      -0.408
      -0.371
      -0.316
      -0.253
      -0.186
      -0.116
      -0.044
       0.025
       0.086
       0.138
       0.184
       0.219
       0.235
       0.229
       0.213
       0.204
       0.205
       0.207
       0.199
       0.185
       0.172
       0.160
       0.140
       0.113
       0.095
       0.096
       0.114
       0.142
       0.184
       0.245
       0.319
       0.388
       0.439
       0.473
       0.496
       0.504
       0.485
       0.435
       0.365
       0.290
       0.212
       0.119
       0.005
      -0.116
      -0.218
      -0.285
      -0.322
      -0.329
      -0.297
      -0.224
      -0.133
      -0.054
      -0.003
       0.029
       0.054
       0.076
       0.095
       0.113
       0.132
       0.143
       0.132
       0.098
       0.057
       0.026
       0.009
      -0.008
      -0.034
      -0.064
      -0.092
      -0.113
      -0.127
      -0.130
      -0.110
      -0.057
       0.016
       0.089
       0.150
       0.203
       0.247
       0.279
       0.296
       0.302
       0.301
       0.286
       0.241
       0.164
       0.072
      -0.022
      -0.117
      -0.221
      -0.331
      -0.428
      -0.493
      -0.523
      -0.526
      -0.503
      -0.445
      -0.346
      -0.212
      -0.060
       0.099
       0.255
       0.394
       0.494
       0.543
       0.550
       0.537
       0.508
       0.456
       0.383
       0.308
       0.249
       0.204
       0.163
       0.121
       0.088
       0.068
       0.045
       0.002
      -0.065
      -0.145
      -0.225
      -0.304
      -0.391
      -0.487
      -0.577
      -0.644
      -0.683
      -0.694
      -0.675
      -0.622
      -0.538
      -0.439
      -0.338
      -0.243
      -0.160
      -0.102
      -0.077
      -0.079
      -0.093
      -0.107
      -0.119
      -0.127
      -0.120
      -0.085
      -0.015
       0.087
       0.222
       0.385
       0.566
       0.740
       0.880
       0.969
       1.005
       0.987
       0.911
       0.776
       0.588
       0.363
       0.119
      -0.131
      -0.370
      -0.563
      -0.675
      -0.696
      -0.637
      -0.523
      -0.373
      -0.209
      -0.057
       0.058
       0.124
       0.143
       0.122
       0.070
      -0.001
      -0.072
      -0.129
      -0.168
      -0.196
      -0.218
      -0.227
      -0.213
      -0.178
      -0.142
      -0.124
      -0.125
      -0.140
      -0.176
      -0.255
      -0.391
      -0.572
      -0.771
      -0.963
      -1.125
      -1.230
      -1.256
      -1.195
      -1.056
      -0.856
      -0.601
      -0.294
       0.048
       0.392
       0.702
       0.948
       1.117
       1.205
       1.216
       1.167
       1.086
       1.002
       0.931
       0.875
       0.838
       0.830
       0.859
       0.913
       0.976
       1.042
       1.115
       1.188
       1.235
       1.231
       1.169
       1.058
       0.907
       0.715
       0.490
       0.248
       0.010
      -0.214
      -0.426
      -0.625
      -0.806
      -0.965
      -1.111
      -1.252
      -1.391
      -1.520
      -1.636
      -1.749
      -1.870
      -1.993
      -2.097
      -2.163
      -2.197
      -2.201
      -2.164
      -2.062
      -1.888
      -1.656
      -1.383
      -1.075
      -0.741
      -0.399
      -0.075
       0.216
       0.479
       0.729
       0.968
       1.197
       1.422
       1.656
       1.908
       2.163
       2.397
       2.592
       2.740
       2.837
       2.867
       2.813
       2.671
       2.446
       2.147
       1.779
       1.357
       0.909
       0.459
       0.022
      -0.396
      -0.780
      -1.111
      -1.383
      -1.602
      -1.771
      -1.878
      -1.906
      -1.851
      -1.728
      -1.558
      -1.348
      -1.097
      -0.813
      -0.515
      -0.222
       0.064
       0.348
       0.632
       0.901
       1.138
       1.338
       1.501
       1.621
       1.683
       1.680
       1.613
       1.485
       1.293
       1.036
       0.724
       0.377
       0.012
      -0.355
      -0.706
      -1.018
      -1.274
      -1.471
      -1.619
      -1.720
      -1.767
      -1.750
      -1.665
      -1.520
      -1.326
      -1.092
      -0.827
      -0.545
      -0.257
       0.037
       0.349
       0.676
       1.002
       1.308
       1.582
       1.815
       1.989
       2.083
       2.083
       1.993
       1.821
       1.581
       1.288
       0.967
       0.645
       0.338
       0.046
      -0.229
      -0.479
      -0.681
      -0.823
      -0.904
      -0.930
      -0.900
      -0.813
      -0.677
      -0.505
      -0.306
      -0.068
       0.218
       0.543
       0.881
       1.217
       1.550
       1.879
       2.187
       2.446
       2.644
       2.779
       2.844
       2.819
       2.680
       2.413
       2.023
       1.515
       0.897
       0.187
      -0.577
      -1.356
      -2.117
      -2.842
      -3.510
      -4.090
      -4.553
      -4.886
      -5.093
      -5.174
      -5.121
      -4.926
      -4.605
      -4.180
      -3.666
      -3.072
      -2.404
      -1.675
      -0.895
      -0.071
       0.779
       1.611
       2.371
       3.012
       3.514
       3.869
       4.063
       4.084
       3.932
       3.631
       3.212
       2.703
       2.128
       1.519
       0.920
       0.364
      -0.133
      -0.571
      -0.938
      -1.223
      -1.428
      -1.574
      -1.681
      -1.752
      -1.784
      -1.787
      -1.782
      -1.782
      -1.783
      -1.773
      -1.750
      -1.721
      -1.688
      -1.641
      -1.571
      -1.477
      -1.365
      -1.239
      -1.099
      -0.957
      -0.840
      -0.778
      -0.783
      -0.844
      -0.945
      -1.082
      -1.249
      -1.428
      -1.587
      -1.700
      -1.751
      -1.723
      -1.598
      -1.365
      -1.033
      -0.623
      -0.156
       0.348
       0.865
       1.363
       1.812
       2.201
       2.529
       2.797
       3.005
       3.157
       3.266
       3.345
       3.394
       3.407
       3.378
       3.314
       3.226
       3.107
       2.934
       2.689
       2.369
       1.977
       1.513
       0.974
       0.379
      -0.237
      -0.837
      -1.387
      -1.857
      -2.221
      -2.470
      -2.616
      -2.691
      -2.721
      -2.732
      -2.743
      -2.779
      -2.857
      -2.975
      -3.121
      -3.275
      -3.421
      -3.541
      -3.604
      -3.579
      -3.448
      -3.211
      -2.878
      -2.453
      -1.941
      -1.358
      -0.736
      -0.099
       0.537
       1.152
       1.709
       2.171
       2.507
       2.709
       2.777
       2.720
       2.559
       2.324
       2.047
       1.744
       1.417
       1.063
       0.690
       0.314
      -0.051
      -0.398
      -0.718
      -0.999
      -1.217
      -1.353
      -1.390
      -1.312
      -1.100
      -0.748
      -0.265
       0.336
       1.053
       1.886
       2.813
       3.791
       4.771
       5.716
       6.595
       7.369
       7.996
       8.452
       8.742
       8.882
       8.885
       8.748
       8.475
       8.080
       7.577
       6.975
       6.276
       5.493
       4.650
       3.763
       2.829
       1.828
       0.755
      -0.378
      -1.555
      -2.764
      -3.986
      -5.185
      -6.313
      -7.339
      -8.242
      -9.003
      -9.593
      -9.990
     -10.186
     -10.187
      -9.996
      -9.617
      -9.065
      -8.375
      -7.590
      -6.746
      -5.870
      -4.989
      -4.141
      -3.355
      -2.635
      -1.968
      -1.351
      -0.798
      -0.330
       0.052
       0.360
       0.604
       0.786
       0.918
       1.029
       1.148
       1.287
       1.446
       1.626
       1.844
       2.114
       2.436
       2.801
       3.195
       3.607
       4.023
       4.426
       4.797
       5.124
       5.387
       5.561
       5.612
       5.514
       5.261
       4.862
       4.326
       3.657
       2.871
       1.996
       1.056
       0.064
      -0.963
      -1.986
      -2.944
      -3.780
      -4.465
      -4.982
      -5.315
      -5.446
      -5.368
      -5.103
      -4.681
      -4.138
      -3.513
      -2.851
      -2.205
      -1.620
      -1.125
      -0.737
      -0.468
      -0.327
      -0.309
      -0.393
      -0.546
      -0.740
      -0.947
      -1.139
      -1.288
      -1.382
      -1.417
      -1.380
      -1.247
      -0.998
      -0.632
      -0.172
       0.356
       0.927
       1.511
       2.070
       2.560
       2.953
       3.237
       3.404
       3.443
       3.344
       3.109
       2.758
       2.321
       1.837
       1.345
       0.884
       0.489
       0.172
      -0.071
      -0.245
      -0.344
      -0.363
      -0.315
      -0.223
      -0.107
       0.022
       0.152
       0.266
       0.351
       0.403
       0.423
       0.409
       0.363
       0.293
       0.219
       0.147
       0.065
      -0.047
      -0.186
      -0.329
      -0.452
      -0.556
      -0.658
      -0.773
      -0.890
      -0.989
      -1.061
      -1.113
      -1.143
      -1.134
      -1.077
      -0.981
      -0.866
      -0.735
      -0.580
      -0.395
      -0.185
       0.042
       0.277
       0.520
       0.766
       1.010
       1.255
       1.509
       1.774
       2.037
       2.279
       2.492
       2.685
       2.866
       3.030
       3.159
       3.244
       3.282
       3.259
       3.146
       2.910
       2.548
       2.077
       1.512
       0.861
       0.134
      -0.637
      -1.417
      -2.176
      -2.896
      -3.557
      -4.134
      -4.612
      -4.989
      -5.274
      -5.461
      -5.531
      -5.464
      -5.256
      -4.917
      -4.453
      -3.866
      -3.165
      -2.376
      -1.524
      -0.627
       0.302
       1.232
       2.116
       2.916
       3.621
       4.222
       4.699
       5.016
       5.155
       5.119
       4.917
       4.549
       4.015
       3.327
       2.511
       1.595
       0.601
      -0.444
      -1.499
      -2.512
      -3.436
      -4.246
      -4.927
      -5.462
      -5.827
      -6.005
      -5.995
      -5.808
      -5.456
      -4.952
      -4.317
      -3.573
      -2.738
      -1.830
      -0.877
       0.075
       0.984
       1.830
       2.605
       3.301
       3.905
       4.407
       4.804
       5.098
       5.286
       5.354
       5.296
       5.108
       4.787
       4.325
       3.719
       2.982
       2.145
       1.242
       0.301
      -0.647
      -1.555
      -2.368
      -3.043
      -3.562
      -3.917
      -4.092
      -4.075
      -3.879
      -3.534
      -3.077
      -2.532
      -1.921
      -1.277
      -0.630
       0.004
       0.630
       1.254
       1.861
       2.426
       2.922
       3.332
       3.641
       3.830
       3.893
       3.837
       3.686
       3.456
       3.153
       2.781
       2.358
       1.909
       1.449
       0.976
       0.493
       0.014
      -0.450
      -0.896
      -1.326
      -1.732
      -2.093
      -2.392
      -2.616
      -2.757
      -2.804
      -2.746
      -2.582
      -2.313
      -1.938
      -1.460
      -0.897
      -0.287
       0.327
       0.915
       1.463
       1.957
       2.363
       2.637
       2.750
       2.697
       2.478
       2.094
       1.549
       0.874
       0.114
      -0.684
      -1.480
      -2.222
      -2.852
      -3.323
      -3.616
      -3.733
      -3.678
      -3.453
      -3.076
      -2.585
      -2.032
      -1.450
      -0.861
      -0.287
       0.243
       0.700
       1.080
       1.405
       1.692
       1.932
       2.099
       2.178
       2.174
       2.093
       1.934
       1.697
       1.398
       1.056
       0.676
       0.255
      -0.197
      -0.657
      -1.100
      -1.518
      -1.910
      -2.265
      -2.561
      -2.781
      -2.925
      -3.002
      -3.011
      -2.947
      -2.816
      -2.635
      -2.420
      -2.166
      -1.856
      -1.480
      -1.049
      -0.567
      -0.019
       0.617
       1.344
       2.142
       2.984
       3.846
       4.694
       5.480
       6.163
       6.721
       7.140
       7.403
       7.479
       7.347
       7.017
       6.523
       5.898
       5.162
       4.341
       3.473
       2.609
       1.786
       1.017
       0.299
      -0.368
      -0.981
      -1.539
      -2.051
      -2.518
      -2.935
      -3.303
      -3.638
      -3.957
      -4.258
      -4.520
      -4.728
      -4.882
      -4.982
      -5.020
      -4.982
      -4.860
      -4.662
      -4.407
      -4.114
      -3.795
      -3.466
      -3.141
      -2.826
      -2.520
      -2.217
      -1.913
      -1.612
      -1.313
      -1.014
      -0.713
      -0.415
      -0.128
       0.146
       0.409
       0.653
       0.859
       1.023
       1.155
       1.263
       1.334
       1.348
       1.299
       1.202
       1.078
       0.934
       0.775
       0.614
       0.473
       0.374
       0.328
       0.343
       0.421
       0.564
       0.757
       0.973
       1.181
       1.355
       1.472
       1.510
       1.448
       1.293
       1.075
       0.833
       0.591
