Origin Time       12/3/2010 23:19:54	 UTC
Lat.              23.0 N	
Long.             94.5 E	
Depth (Km)         96.0
Magnitude         5.6
 Region           MYANMAR                                                          
 Above details taken from IMD 
    
Station Code      HKD
Station Lat.       24.682  N
Station Long.      92.563  E
Station Height(m)   23.0
Site Class        C   Vs30 between 200 m/sec to 375 m/sec *  
Record Time       12.03.2010 23:20:32.754 UTC
Sampling Rate     200. Hz
 Record Duration  108.610 Sec.
 Direction         N-S (N positive)
Max. Acceleration     -4.964 cm/sec**2
     
  * For reference see Site Classification link of website 
     
 Base Line Corrected and Low Pass Filtered (Cut Off at 35 Hz) Time History
 Acceleration data in cm/sec**2
    
[...]
       0.104
       0.110
       0.108
       0.101
       0.088
       0.074
       0.061
       0.053
       0.051
       0.049
       0.040
       0.022
      -0.002
      -0.029
      -0.054
      -0.079
      -0.103
      -0.124
      -0.141
      -0.153
      -0.161
      -0.163
      -0.160
      -0.153
      -0.145
      -0.137
      -0.127
      -0.112
      -0.092
      -0.069
      -0.044
      -0.019
       0.007
       0.032
       0.058
       0.082
       0.104
       0.123
       0.140
       0.156
       0.172
       0.187
       0.201
       0.212
       0.220
       0.220
       0.206
       0.175
       0.129
       0.076
       0.024
      -0.026
      -0.074
      -0.122
      -0.163
      -0.191
      -0.202
      -0.201
      -0.198
      -0.195
      -0.192
      -0.184
      -0.169
      -0.145
      -0.112
      -0.068
      -0.017
       0.038
       0.090
       0.131
       0.160
       0.178
       0.188
       0.190
       0.185
       0.175
       0.160
       0.145
       0.133
       0.121
       0.110
       0.099
       0.089
       0.080
       0.070
       0.058
       0.044
       0.029
       0.018
       0.013
       0.017
       0.027
       0.039
       0.050
       0.058
       0.066
       0.074
       0.082
       0.088
       0.087
       0.076
       0.051
       0.013
      -0.035
      -0.085
      -0.130
      -0.168
      -0.204
      -0.240
      -0.278
      -0.312
      -0.334
      -0.339
      -0.326
      -0.299
      -0.258
      -0.206
      -0.149
      -0.091
      -0.040
      -0.001
       0.027
       0.043
       0.050
       0.047
       0.035
       0.019
       0.003
      -0.007
      -0.012
      -0.013
      -0.012
      -0.009
       0.001
       0.020
       0.046
       0.073
       0.095
       0.105
       0.102
       0.087
       0.065
       0.043
       0.021
      -0.007
      -0.045
      -0.093
      -0.144
      -0.189
      -0.224
      -0.248
      -0.262
      -0.265
      -0.259
      -0.247
      -0.236
      -0.230
      -0.232
      -0.238
      -0.244
      -0.247
      -0.243
      -0.234
      -0.221
      -0.202
      -0.171
      -0.125
      -0.071
      -0.018
       0.029
       0.072
       0.118
       0.170
       0.224
       0.272
       0.310
       0.339
       0.362
       0.381
       0.396
       0.407
       0.414
       0.421
       0.432
       0.447
       0.461
       0.470
       0.472
       0.465
       0.451
       0.424
       0.382
       0.328
       0.270
       0.213
       0.160
       0.109
       0.058
       0.008
      -0.038
      -0.081
      -0.119
      -0.152
      -0.177
      -0.191
      -0.194
      -0.189
      -0.184
      -0.180
      -0.176
      -0.168
      -0.153
      -0.128
      -0.097
      -0.063
      -0.027
       0.015
       0.063
       0.116
       0.164
       0.198
       0.219
       0.228
       0.232
       0.231
       0.225
       0.215
       0.199
       0.173
       0.134
       0.085
       0.031
      -0.019
      -0.057
      -0.081
      -0.093
      -0.096
      -0.092
      -0.079
      -0.059
      -0.036
      -0.015
       0.000
       0.007
       0.007
       0.001
      -0.010
      -0.026
      -0.043
      -0.057
      -0.065
      -0.071
      -0.081
      -0.101
      -0.131
      -0.167
      -0.204
      -0.239
      -0.274
      -0.307
      -0.336
      -0.358
      -0.372
      -0.378
      -0.381
      -0.386
      -0.396
      -0.405
      -0.408
      -0.403
      -0.391
      -0.373
      -0.351
      -0.319
      -0.276
      -0.223
      -0.164
      -0.109
      -0.060
      -0.018
       0.019
       0.056
       0.094
       0.133
       0.169
       0.198
       0.218
       0.228
       0.229
       0.222
       0.206
       0.183
       0.155
       0.130
       0.111
       0.100
       0.092
       0.085
       0.074
       0.063
       0.054
       0.046
       0.036
       0.022
       0.003
      -0.017
      -0.036
      -0.053
      -0.067
      -0.077
      -0.083
      -0.089
      -0.100
      -0.115
      -0.131
      -0.140
      -0.136
      -0.122
      -0.107
      -0.098
      -0.097
      -0.102
      -0.106
      -0.104
      -0.093
      -0.076
      -0.057
      -0.038
      -0.021
      -0.011
      -0.011
      -0.026
      -0.050
      -0.075
      -0.091
      -0.094
      -0.086
      -0.069
      -0.043
      -0.006
       0.043
       0.105
       0.177
       0.257
       0.342
       0.427
       0.504
       0.566
       0.613
       0.649
       0.675
       0.690
       0.687
       0.662
       0.613
       0.542
       0.458
       0.368
       0.279
       0.195
       0.118
       0.050
      -0.004
      -0.041
      -0.063
      -0.074
      -0.079
      -0.082
      -0.084
      -0.085
      -0.086
      -0.089
      -0.096
      -0.111
      -0.136
      -0.170
      -0.207
      -0.238
      -0.261
      -0.278
      -0.297
      -0.320
      -0.346
      -0.373
      -0.399
      -0.418
      -0.429
      -0.430
      -0.427
      -0.420
      -0.408
      -0.383
      -0.342
      -0.287
      -0.225
      -0.165
      -0.110
      -0.063
      -0.024
       0.002
       0.013
       0.013
       0.004
      -0.012
      -0.034
      -0.063
      -0.096
      -0.129
      -0.160
      -0.187
      -0.206
      -0.214
      -0.208
      -0.192
      -0.169
      -0.146
      -0.122
      -0.099
      -0.074
      -0.046
      -0.017
       0.011
       0.034
       0.047
       0.047
       0.038
       0.024
       0.012
       0.002
      -0.011
      -0.030
      -0.055
      -0.079
      -0.097
      -0.110
      -0.121
      -0.134
      -0.149
      -0.163
      -0.171
      -0.167
      -0.149
      -0.118
      -0.076
      -0.028
       0.022
       0.075
       0.130
       0.188
       0.247
       0.301
       0.343
       0.369
       0.379
       0.376
       0.366
       0.348
       0.320
       0.281
       0.235
       0.189
       0.150
       0.120
       0.099
       0.085
       0.078
       0.076
       0.081
       0.090
       0.100
       0.107
       0.109
       0.106
       0.101
       0.095
       0.091
       0.089
       0.086
       0.083
       0.079
       0.075
       0.071
       0.068
       0.065
       0.064
       0.063
       0.062
       0.059
       0.057
       0.058
       0.062
       0.066
       0.069
       0.069
       0.068
       0.068
       0.069
       0.070
       0.069
       0.064
       0.053
       0.039
       0.028
       0.020
       0.014
       0.008
       0.002
      -0.004
      -0.008
      -0.011
      -0.016
      -0.023
      -0.035
      -0.051
      -0.070
      -0.085
      -0.091
      -0.084
      -0.064
      -0.032
       0.004
       0.041
       0.073
       0.097
       0.111
       0.115
       0.110
       0.096
       0.079
       0.061
       0.042
       0.021
      -0.003
      -0.028
      -0.053
      -0.075
      -0.092
      -0.102
      -0.106
      -0.104
      -0.099
      -0.089
      -0.074
      -0.054
      -0.028
       0.002
       0.033
       0.060
       0.081
       0.099
       0.115
       0.131
       0.144
       0.150
       0.148
       0.141
       0.132
       0.123
       0.110
       0.088
       0.053
       0.009
      -0.043
      -0.099
      -0.157
      -0.211
      -0.256
      -0.287
      -0.306
      -0.314
      -0.309
      -0.286
      -0.245
      -0.191
      -0.132
      -0.072
      -0.018
       0.029
       0.065
       0.091
       0.106
       0.112
       0.111
       0.104
       0.092
       0.083
       0.080
       0.084
       0.088
       0.086
       0.073
       0.052
       0.030
       0.011
      -0.009
      -0.038
      -0.081
      -0.137
      -0.196
      -0.247
      -0.284
      -0.305
      -0.310
      -0.303
      -0.284
      -0.254
      -0.217
      -0.173
      -0.127
      -0.082
      -0.045
      -0.021
      -0.017
      -0.037
      -0.077
      -0.129
      -0.184
      -0.237
      -0.289
      -0.341
      -0.391
      -0.436
      -0.466
      -0.480
      -0.477
      -0.460
      -0.432
      -0.393
      -0.342
      -0.285
      -0.230
      -0.185
      -0.155
      -0.138
      -0.129
      -0.124
      -0.123
      -0.125
      -0.126
      -0.123
      -0.110
      -0.089
      -0.064
      -0.037
      -0.009
       0.023
       0.059
       0.094
       0.128
       0.159
       0.185
       0.204
       0.213
       0.208
       0.187
       0.153
       0.114
       0.079
       0.054
       0.041
       0.034
       0.029
       0.017
      -0.009
      -0.051
      -0.108
      -0.176
      -0.251
      -0.331
      -0.419
      -0.513
      -0.609
      -0.698
      -0.770
      -0.821
      -0.849
      -0.859
      -0.859
      -0.850
      -0.828
      -0.792
      -0.740
      -0.679
      -0.616
      -0.551
      -0.484
      -0.417
      -0.356
      -0.308
      -0.270
      -0.239
      -0.211
      -0.186
      -0.165
      -0.149
      -0.132
      -0.115
      -0.099
      -0.088
      -0.084
      -0.090
      -0.106
      -0.136
      -0.180
      -0.235
      -0.293
      -0.353
      -0.411
      -0.466
      -0.508
      -0.532
      -0.532
      -0.511
      -0.473
      -0.426
      -0.375
      -0.326
      -0.276
      -0.224
      -0.168
      -0.107
      -0.043
       0.020
       0.087
       0.159
       0.241
       0.333
       0.436
       0.549
       0.674
       0.803
       0.927
       1.036
       1.125
       1.197
       1.257
       1.313
       1.369
       1.430
       1.495
       1.565
       1.643
       1.731
       1.833
       1.949
       2.077
       2.211
       2.346
       2.479
       2.611
       2.742
       2.870
       2.988
       3.086
       3.158
       3.201
       3.215
       3.199
       3.152
       3.076
       2.974
       2.854
       2.725
       2.594
       2.462
       2.327
       2.188
       2.052
       1.926
       1.814
       1.712
       1.611
       1.503
       1.390
       1.276
       1.165
       1.055
       0.937
       0.802
       0.645
       0.471
       0.285
       0.089
      -0.117
      -0.333
      -0.552
      -0.759
      -0.942
      -1.096
      -1.226
      -1.337
      -1.431
      -1.501
      -1.542
      -1.557
      -1.551
      -1.535
      -1.513
      -1.490
      -1.467
      -1.450
      -1.447
      -1.465
      -1.504
      -1.563
      -1.641
      -1.735
      -1.847
      -1.974
      -2.114
      -2.264
      -2.417
      -2.571
      -2.721
      -2.867
      -3.001
      -3.120
      -3.214
      -3.281
      -3.317
      -3.323
      -3.298
      -3.239
      -3.142
      -3.007
      -2.837
      -2.639
      -2.421
      -2.190
      -1.953
      -1.715
      -1.484
      -1.266
      -1.065
      -0.880
      -0.709
      -0.551
      -0.406
      -0.278
      -0.169
      -0.075
       0.007
       0.078
       0.135
       0.172
       0.185
       0.178
       0.159
       0.136
       0.113
       0.090
       0.069
       0.053
       0.048
       0.060
       0.091
       0.142
       0.209
       0.294
       0.397
       0.518
       0.655
       0.803
       0.961
       1.123
       1.287
       1.443
       1.581
       1.692
       1.771
       1.815
       1.819
       1.777
       1.686
       1.552
       1.386
       1.199
       0.999
       0.791
       0.582
       0.377
       0.181
      -0.005
      -0.178
      -0.335
      -0.475
      -0.595
      -0.689
      -0.752
      -0.779
      -0.772
      -0.734
      -0.669
      -0.583
      -0.478
      -0.365
      -0.255
      -0.158
      -0.080
      -0.024
       0.010
       0.025
       0.020
      -0.005
      -0.051
      -0.118
      -0.203
      -0.302
      -0.408
      -0.517
      -0.622
      -0.713
      -0.785
      -0.833
      -0.857
      -0.859
      -0.837
      -0.796
      -0.741
      -0.684
      -0.634
      -0.595
      -0.571
      -0.559
      -0.556
      -0.558
      -0.557
      -0.548
      -0.529
      -0.502
      -0.463
      -0.405
      -0.321
      -0.207
      -0.069
       0.086
       0.250
       0.420
       0.595
       0.770
       0.940
       1.098
       1.238
       1.355
       1.439
       1.484
       1.486
       1.448
       1.376
       1.277
       1.155
       1.011
       0.846
       0.665
       0.475
       0.289
       0.120
      -0.017
      -0.110
      -0.152
      -0.139
      -0.070
       0.056
       0.239
       0.474
       0.750
       1.056
       1.379
       1.710
       2.040
       2.359
       2.658
       2.929
       3.163
       3.356
       3.506
       3.609
       3.667
       3.680
       3.646
       3.567
       3.441
       3.268
       3.046
       2.778
       2.475
       2.150
       1.815
       1.479
       1.146
       0.824
       0.522
       0.251
       0.019
      -0.171
      -0.322
      -0.437
      -0.519
      -0.566
      -0.580
      -0.562
      -0.514
      -0.444
      -0.362
      -0.279
      -0.205
      -0.141
      -0.086
      -0.040
      -0.008
       0.001
      -0.019
      -0.066
      -0.131
      -0.208
      -0.295
      -0.398
      -0.526
      -0.685
      -0.878
      -1.105
      -1.370
      -1.670
      -2.004
      -2.367
      -2.751
      -3.143
      -3.531
      -3.903
      -4.243
      -4.535
      -4.761
      -4.906
      -4.964
      -4.938
      -4.840
      -4.683
      -4.479
      -4.243
      -3.994
      -3.750
      -3.529
      -3.339
      -3.185
      -3.071
      -2.997
      -2.963
      -2.965
      -2.994
      -3.040
      -3.092
      -3.147
      -3.200
      -3.252
      -3.295
      -3.320
      -3.318
      -3.287
      -3.229
      -3.146
      -3.040
      -2.913
      -2.764
      -2.590
      -2.388
      -2.153
      -1.881
      -1.568
      -1.212
      -0.811
      -0.368
       0.107
       0.596
       1.077
       1.531
       1.948
       2.325
       2.659
       2.943
       3.171
       3.343
       3.465
       3.548
       3.598
       3.621
       3.620
       3.596
       3.548
       3.475
       3.379
       3.266
       3.138
       2.997
       2.841
       2.670
       2.490
       2.309
       2.137
       1.979
       1.840
       1.722
       1.630
       1.568
       1.541
       1.548
       1.587
       1.653
       1.739
       1.841
       1.953
       2.069
       2.180
       2.274
       2.343
       2.387
       2.411
       2.417
       2.404
       2.369
       2.306
       2.214
       2.089
       1.931
       1.744
       1.537
       1.318
       1.097
       0.877
       0.665
       0.471
       0.306
       0.180
       0.094
       0.045
       0.025
       0.028
       0.044
       0.067
       0.090
       0.110
       0.124
       0.126
       0.109
       0.072
       0.019
      -0.041
      -0.104
      -0.171
      -0.242
      -0.316
      -0.386
      -0.447
      -0.498
      -0.544
      -0.593
      -0.651
      -0.722
      -0.806
      -0.903
      -1.005
      -1.102
      -1.184
      -1.241
      -1.268
      -1.262
      -1.224
      -1.156
      -1.060
      -0.940
      -0.798
      -0.643
      -0.480
      -0.318
      -0.158
      -0.001
       0.149
       0.292
       0.429
       0.566
       0.711
       0.865
       1.024
       1.178
       1.316
       1.431
       1.519
       1.575
       1.589
       1.551
       1.455
       1.302
       1.098
       0.849
       0.563
       0.245
      -0.091
      -0.433
      -0.768
      -1.081
      -1.363
      -1.607
      -1.812
      -1.987
      -2.139
      -2.273
      -2.383
      -2.465
      -2.519
      -2.547
      -2.554
      -2.532
      -2.475
      -2.376
      -2.238
      -2.068
      -1.870
      -1.649
      -1.407
      -1.153
      -0.904
      -0.678
      -0.492
      -0.355
      -0.268
      -0.228
      -0.229
      -0.264
      -0.321
      -0.385
      -0.441
      -0.479
      -0.493
      -0.483
      -0.450
      -0.397
      -0.322
      -0.227
      -0.116
       0.001
       0.117
       0.225
       0.322
       0.408
       0.482
       0.547
       0.607
       0.666
       0.723
       0.778
       0.829
       0.873
       0.908
       0.936
       0.954
       0.961
       0.953
       0.925
       0.876
       0.808
       0.725
       0.632
       0.538
       0.448
       0.367
       0.299
       0.248
       0.220
       0.216
       0.232
       0.262
       0.297
       0.331
       0.361
       0.386
       0.410
       0.435
       0.464
       0.499
       0.540
       0.591
       0.651
       0.722
       0.802
       0.890
       0.986
       1.084
       1.177
       1.253
       1.299
       1.305
       1.263
       1.174
       1.041
       0.870
       0.670
       0.450
       0.223
      -0.001
      -0.212
      -0.404
      -0.571
      -0.715
      -0.841
      -0.951
      -1.050
      -1.135
      -1.206
      -1.263
      -1.309
      -1.347
      -1.373
      -1.382
      -1.369
      -1.328
      -1.259
      -1.162
      -1.036
      -0.881
      -0.699
      -0.498
      -0.288
      -0.081
       0.117
       0.300
       0.466
       0.609
       0.728
       0.822
       0.892
       0.942
       0.979
       1.014
       1.054
       1.102
       1.153
       1.201
       1.241
       1.274
       1.305
       1.338
       1.370
       1.393
       1.396
       1.377
       1.337
       1.285
       1.224
       1.154
       1.075
       0.988
       0.901
       0.821
       0.755
       0.707
       0.685
       0.695
       0.738
       0.810
       0.899
       0.998
       1.098
       1.196
       1.288
       1.370
       1.440
       1.499
       1.549
       1.588
       1.610
       1.605
       1.566
       1.487
       1.365
       1.201
       0.994
       0.745
       0.457
       0.136
      -0.209
      -0.565
      -0.919
      -1.257
      -1.567
      -1.839
      -2.069
      -2.254
      -2.392
      -2.486
      -2.537
      -2.551
      -2.536
      -2.498
      -2.445
      -2.384
      -2.322
      -2.265
      -2.216
      -2.174
      -2.137
      -2.106
      -2.084
      -2.072
      -2.068
      -2.067
      -2.063
      -2.053
      -2.030
      -1.992
      -1.934
      -1.860
      -1.773
      -1.682
      -1.593
      -1.512
      -1.447
      -1.400
      -1.376
      -1.376
      -1.395
      -1.429
      -1.471
      -1.514
      -1.549
      -1.568
      -1.570
      -1.555
      -1.521
      -1.465
      -1.388
      -1.291
      -1.184
      -1.078
      -0.978
      -0.889
      -0.810
      -0.739
      -0.673
      -0.611
      -0.552
      -0.497
      -0.446
      -0.393
      -0.334
      -0.269
      -0.203
      -0.144
      -0.096
      -0.059
      -0.032
      -0.014
      -0.002
       0.010
       0.030
       0.063
       0.112
       0.179
       0.263
       0.361
       0.473
       0.598
       0.734
       0.881
       1.041
       1.214
       1.400
       1.598
       1.806
       2.019
       2.234
       2.446
       2.648
       2.833
       2.990
       3.113
       3.199
       3.253
       3.280
