Origin Time       29/12/2009 09:01:42 UTC
Lat.              24.5°N	
Long.             94.8°E	
Depth (Km)         80.0
Magnitude         5.5
 Region           MYANMAR-INDIA(MANIPUR)-BORDER                                    
 Above details taken from IMD 
    
Station Code      HKD
Station Lat.       24.682  N
Station Long.      92.563  E
Station Height(m)   23.0
Site Class        C   Vs30 between 200 m/sec to 375 m/sec *  
Record Time       29.12.2009 09:02:22.959 UTC
Sampling Rate     200. Hz
 Record Duration  121.155 Sec.
 Direction         N-S (N positive)
Max. Acceleration      5.474 cm/sec**2
     
  * For reference see Site Classification link of website 
     
 Base Line Corrected and Low Pass Filtered (Cut Off at 35 Hz) Time History
 Acceleration data in cm/sec**2
    
[...]
       0.197
       0.205
       0.201
       0.193
       0.185
       0.180
       0.179
       0.188
       0.209
       0.243
       0.284
       0.325
       0.357
       0.377
       0.384
       0.382
       0.376
       0.371
       0.367
       0.354
       0.323
       0.269
       0.196
       0.115
       0.036
      -0.035
      -0.099
      -0.157
      -0.209
      -0.253
      -0.286
      -0.306
      -0.316
      -0.318
      -0.318
      -0.322
      -0.333
      -0.351
      -0.374
      -0.399
      -0.418
      -0.425
      -0.418
      -0.398
      -0.375
      -0.360
      -0.359
      -0.371
      -0.392
      -0.417
      -0.441
      -0.461
      -0.474
      -0.478
      -0.471
      -0.448
      -0.410
      -0.364
      -0.321
      -0.291
      -0.275
      -0.267
      -0.261
      -0.253
      -0.241
      -0.221
      -0.194
      -0.158
      -0.113
      -0.062
      -0.009
       0.044
       0.096
       0.151
       0.211
       0.275
       0.342
       0.407
       0.466
       0.512
       0.546
       0.568
       0.582
       0.588
       0.588
       0.580
       0.562
       0.533
       0.494
       0.449
       0.403
       0.355
       0.297
       0.220
       0.122
       0.015
      -0.081
      -0.151
      -0.192
      -0.209
      -0.206
      -0.179
      -0.125
      -0.046
       0.047
       0.141
       0.222
       0.279
       0.305
       0.304
       0.281
       0.242
       0.186
       0.117
       0.042
      -0.029
      -0.092
      -0.150
      -0.204
      -0.243
      -0.262
      -0.265
      -0.262
      -0.258
      -0.245
      -0.217
      -0.178
      -0.142
      -0.122
      -0.122
      -0.136
      -0.157
      -0.179
      -0.205
      -0.239
      -0.287
      -0.342
      -0.387
      -0.405
      -0.396
      -0.371
      -0.345
      -0.318
      -0.282
      -0.229
      -0.160
      -0.084
      -0.015
       0.042
       0.091
       0.143
       0.210
       0.294
       0.391
       0.492
       0.582
       0.648
       0.679
       0.672
       0.632
       0.568
       0.487
       0.396
       0.302
       0.215
       0.140
       0.072
       0.007
      -0.054
      -0.108
      -0.152
      -0.190
      -0.227
      -0.264
      -0.300
      -0.331
      -0.359
      -0.383
      -0.398
      -0.391
      -0.350
      -0.276
      -0.187
      -0.110
      -0.066
      -0.057
      -0.060
      -0.047
      -0.002
       0.070
       0.145
       0.195
       0.204
       0.170
       0.105
       0.031
      -0.030
      -0.068
      -0.085
      -0.095
      -0.105
      -0.113
      -0.109
      -0.085
      -0.047
      -0.009
       0.020
       0.039
       0.050
       0.059
       0.064
       0.065
       0.063
       0.057
       0.047
       0.034
       0.019
       0.006
      -0.005
      -0.016
      -0.023
      -0.020
      -0.003
       0.025
       0.056
       0.083
       0.106
       0.134
       0.167
       0.194
       0.202
       0.183
       0.143
       0.094
       0.047
       0.003
      -0.037
      -0.064
      -0.068
      -0.048
      -0.011
       0.031
       0.068
       0.098
       0.123
       0.144
       0.165
       0.185
       0.206
       0.230
       0.256
       0.282
       0.307
       0.326
       0.335
       0.332
       0.312
       0.274
       0.224
       0.171
       0.124
       0.090
       0.071
       0.065
       0.072
       0.087
       0.107
       0.124
       0.132
       0.124
       0.102
       0.071
       0.035
      -0.002
      -0.038
      -0.074
      -0.111
      -0.150
      -0.193
      -0.243
      -0.299
      -0.363
      -0.434
      -0.507
      -0.576
      -0.637
      -0.683
      -0.709
      -0.712
      -0.689
      -0.644
      -0.581
      -0.508
      -0.429
      -0.344
      -0.256
      -0.174
      -0.104
      -0.055
      -0.034
      -0.045
      -0.089
      -0.160
      -0.244
      -0.330
      -0.407
      -0.469
      -0.511
      -0.526
      -0.512
      -0.473
      -0.419
      -0.358
      -0.298
      -0.241
      -0.189
      -0.145
      -0.108
      -0.075
      -0.041
      -0.004
       0.036
       0.078
       0.118
       0.151
       0.174
       0.187
       0.190
       0.189
       0.191
       0.204
       0.235
       0.285
       0.350
       0.419
       0.482
       0.528
       0.550
       0.549
       0.532
       0.507
       0.480
       0.454
       0.431
       0.405
       0.371
       0.324
       0.264
       0.196
       0.121
       0.038
      -0.052
      -0.143
      -0.220
      -0.272
      -0.296
      -0.295
      -0.273
      -0.234
      -0.178
      -0.111
      -0.041
       0.024
       0.074
       0.108
       0.128
       0.143
       0.164
       0.198
       0.243
       0.294
       0.340
       0.372
       0.387
       0.385
       0.372
       0.350
       0.317
       0.271
       0.210
       0.142
       0.075
       0.017
      -0.029
      -0.060
      -0.079
      -0.089
      -0.094
      -0.094
      -0.086
      -0.067
      -0.044
      -0.027
      -0.022
      -0.027
      -0.036
      -0.042
      -0.048
      -0.061
      -0.088
      -0.130
      -0.177
      -0.216
      -0.239
      -0.243
      -0.231
      -0.208
      -0.173
      -0.127
      -0.070
      -0.008
       0.050
       0.096
       0.125
       0.140
       0.146
       0.149
       0.152
       0.159
       0.169
       0.179
       0.183
       0.176
       0.153
       0.111
       0.051
      -0.022
      -0.102
      -0.175
      -0.230
      -0.254
      -0.245
      -0.209
      -0.163
      -0.125
      -0.104
      -0.099
      -0.100
      -0.095
      -0.083
      -0.069
      -0.063
      -0.066
      -0.077
      -0.085
      -0.084
      -0.067
      -0.037
      -0.001
       0.033
       0.063
       0.093
       0.127
       0.166
       0.204
       0.232
       0.240
       0.222
       0.178
       0.112
       0.037
      -0.029
      -0.075
      -0.099
      -0.111
      -0.123
      -0.139
      -0.147
      -0.133
      -0.087
      -0.020
       0.045
       0.084
       0.087
       0.068
       0.055
       0.075
       0.134
       0.214
       0.286
       0.323
       0.318
       0.283
       0.248
       0.235
       0.252
       0.281
       0.293
       0.269
       0.211
       0.143
       0.087
       0.054
       0.040
       0.031
       0.019
       0.000
      -0.021
      -0.040
      -0.053
      -0.061
      -0.064
      -0.066
      -0.071
      -0.080
      -0.093
      -0.110
      -0.134
      -0.169
      -0.219
      -0.277
      -0.335
      -0.384
      -0.416
      -0.424
      -0.399
      -0.341
      -0.257
      -0.163
      -0.077
      -0.010
       0.030
       0.034
       0.001
      -0.066
      -0.150
      -0.234
      -0.302
      -0.348
      -0.373
      -0.384
      -0.390
      -0.393
      -0.389
      -0.376
      -0.354
      -0.331
      -0.304
      -0.261
      -0.188
      -0.079
       0.050
       0.171
       0.265
       0.320
       0.339
       0.325
       0.284
       0.222
       0.150
       0.076
       0.010
      -0.041
      -0.076
      -0.098
      -0.116
      -0.145
      -0.189
      -0.243
      -0.298
      -0.346
      -0.383
      -0.407
      -0.409
      -0.384
      -0.328
      -0.248
      -0.152
      -0.047
       0.064
       0.176
       0.278
       0.358
       0.412
       0.442
       0.458
       0.467
       0.470
       0.466
       0.453
       0.430
       0.402
       0.374
       0.350
       0.329
       0.311
       0.295
       0.280
       0.271
       0.270
       0.275
       0.285
       0.293
       0.296
       0.293
       0.284
       0.268
       0.245
       0.217
       0.186
       0.160
       0.146
       0.149
       0.171
       0.213
       0.269
       0.330
       0.380
       0.409
       0.408
       0.381
       0.330
       0.260
       0.172
       0.072
      -0.032
      -0.129
      -0.211
      -0.276
      -0.325
      -0.355
      -0.362
      -0.346
      -0.314
      -0.281
      -0.263
      -0.261
      -0.269
      -0.278
      -0.289
      -0.306
      -0.335
      -0.374
      -0.417
      -0.459
      -0.497
      -0.529
      -0.551
      -0.555
      -0.538
      -0.501
      -0.447
      -0.381
      -0.312
      -0.248
      -0.196
      -0.158
      -0.128
      -0.102
      -0.078
      -0.057
      -0.044
      -0.036
      -0.029
      -0.015
       0.010
       0.043
       0.075
       0.095
       0.094
       0.077
       0.053
       0.034
       0.023
       0.015
       0.000
      -0.029
      -0.075
      -0.132
      -0.189
      -0.231
      -0.244
      -0.222
      -0.168
      -0.089
       0.003
       0.095
       0.173
       0.226
       0.245
       0.233
       0.200
       0.164
       0.139
       0.130
       0.133
       0.142
       0.152
       0.165
       0.181
       0.194
       0.193
       0.169
       0.120
       0.056
      -0.010
      -0.067
      -0.110
      -0.140
      -0.160
      -0.176
      -0.193
      -0.210
      -0.223
      -0.229
      -0.226
      -0.217
      -0.211
      -0.212
      -0.219
      -0.223
      -0.219
      -0.203
      -0.178
      -0.145
      -0.101
      -0.036
       0.058
       0.180
       0.316
       0.444
       0.543
       0.607
       0.648
       0.684
       0.732
       0.789
       0.838
       0.859
       0.840
       0.789
       0.725
       0.672
       0.651
       0.670
       0.722
       0.785
       0.834
       0.858
       0.864
       0.865
       0.868
       0.869
       0.853
       0.812
       0.749
       0.670
       0.580
       0.476
       0.361
       0.237
       0.112
      -0.013
      -0.139
      -0.267
      -0.390
      -0.495
      -0.570
      -0.614
      -0.634
      -0.641
      -0.641
      -0.632
      -0.607
      -0.562
      -0.490
      -0.388
      -0.253
      -0.094
       0.072
       0.221
       0.336
       0.415
       0.463
       0.490
       0.498
       0.483
       0.439
       0.364
       0.262
       0.142
       0.010
      -0.135
      -0.295
      -0.474
      -0.663
      -0.853
      -1.036
      -1.209
      -1.379
      -1.548
      -1.708
      -1.847
      -1.951
      -2.014
      -2.040
      -2.035
      -2.009
      -1.973
      -1.932
      -1.889
      -1.847
      -1.806
      -1.770
      -1.742
      -1.723
      -1.714
      -1.713
      -1.716
      -1.717
      -1.710
      -1.690
      -1.655
      -1.606
      -1.540
      -1.453
      -1.343
      -1.212
      -1.065
      -0.910
      -0.747
      -0.571
      -0.374
      -0.150
       0.098
       0.359
       0.620
       0.867
       1.090
       1.288
       1.461
       1.606
       1.719
       1.797
       1.841
       1.854
       1.840
       1.796
       1.717
       1.606
       1.475
       1.342
       1.226
       1.131
       1.055
       0.986
       0.915
       0.831
       0.729
       0.607
       0.466
       0.311
       0.145
      -0.030
      -0.208
      -0.376
      -0.517
      -0.619
      -0.673
      -0.683
      -0.657
      -0.604
      -0.526
      -0.421
      -0.286
      -0.121
       0.071
       0.287
       0.529
       0.799
       1.095
       1.411
       1.741
       2.082
       2.433
       2.783
       3.122
       3.434
       3.706
       3.921
       4.065
       4.124
       4.089
       3.958
       3.737
       3.437
       3.072
       2.658
       2.219
       1.779
       1.364
       0.993
       0.675
       0.411
       0.191
      -0.002
      -0.184
      -0.371
      -0.570
      -0.781
      -1.002
      -1.227
      -1.450
      -1.661
      -1.855
      -2.034
      -2.200
      -2.358
      -2.508
      -2.651
      -2.787
      -2.918
      -3.042
      -3.152
      -3.237
      -3.283
      -3.278
      -3.211
      -3.075
      -2.870
      -2.598
      -2.266
      -1.882
      -1.451
      -0.979
      -0.473
       0.058
       0.596
       1.119
       1.602
       2.027
       2.385
       2.665
       2.856
       2.946
       2.938
       2.847
       2.698
       2.514
       2.307
       2.085
       1.859
       1.641
       1.445
       1.276
       1.137
       1.021
       0.919
       0.812
       0.683
       0.519
       0.321
       0.099
      -0.137
      -0.382
      -0.635
      -0.887
      -1.125
      -1.338
      -1.518
      -1.672
      -1.813
      -1.954
      -2.104
      -2.256
      -2.400
      -2.522
      -2.614
      -2.673
      -2.697
      -2.682
      -2.620
      -2.503
      -2.324
      -2.085
      -1.799
      -1.486
      -1.173
      -0.879
      -0.610
      -0.365
      -0.144
       0.040
       0.168
       0.226
       0.209
       0.129
       0.002
      -0.153
      -0.327
      -0.512
      -0.701
      -0.880
      -1.038
      -1.172
      -1.287
      -1.398
      -1.522
      -1.674
      -1.866
      -2.106
      -2.385
      -2.684
      -2.976
      -3.231
      -3.430
      -3.557
      -3.606
      -3.567
      -3.436
      -3.208
      -2.888
      -2.487
      -2.024
      -1.521
      -1.000
      -0.477
       0.036
       0.535
       1.021
       1.494
       1.956
       2.408
       2.852
       3.285
       3.701
       4.089
       4.441
       4.751
       5.015
       5.229
       5.383
       5.468
       5.474
       5.401
       5.256
       5.053
       4.806
       4.528
       4.230
       3.926
       3.632
       3.367
       3.144
       2.970
       2.840
       2.747
       2.674
       2.607
       2.524
       2.409
       2.244
       2.023
       1.744
       1.414
       1.039
       0.628
       0.188
      -0.268
      -0.724
      -1.163
      -1.576
      -1.954
      -2.295
      -2.591
      -2.834
      -3.014
      -3.125
      -3.170
      -3.155
      -3.083
      -2.956
      -2.778
      -2.555
      -2.298
      -2.019
      -1.727
      -1.431
      -1.146
      -0.889
      -0.673
      -0.499
      -0.361
      -0.247
      -0.148
      -0.064
       0.001
       0.039
       0.045
       0.018
      -0.037
      -0.115
      -0.207
      -0.305
      -0.404
      -0.497
      -0.581
      -0.655
      -0.725
      -0.798
      -0.879
      -0.966
      -1.058
      -1.155
      -1.257
      -1.366
      -1.477
      -1.583
      -1.675
      -1.740
      -1.767
      -1.741
      -1.656
      -1.516
      -1.331
      -1.117
      -0.885
      -0.644
      -0.406
      -0.184
       0.010
       0.168
       0.292
       0.383
       0.443
       0.472
       0.475
       0.459
       0.433
       0.409
       0.385
       0.357
       0.316
       0.256
       0.175
       0.076
      -0.036
      -0.155
      -0.269
      -0.366
      -0.430
      -0.449
      -0.413
      -0.322
      -0.182
      -0.002
       0.201
       0.408
       0.598
       0.754
       0.868
       0.941
       0.979
       0.991
       0.982
       0.963
       0.947
       0.953
       1.004
       1.114
       1.288
       1.529
       1.837
       2.211
       2.643
       3.111
       3.585
       4.031
       4.419
       4.723
       4.917
       4.973
       4.864
       4.569
       4.092
       3.455
       2.701
       1.879
       1.039
       0.221
      -0.540
      -1.214
      -1.775
      -2.213
      -2.529
      -2.738
      -2.852
      -2.885
      -2.844
      -2.737
      -2.577
      -2.378
      -2.156
      -1.925
      -1.699
      -1.493
      -1.315
      -1.176
      -1.087
      -1.060
      -1.100
      -1.207
      -1.372
      -1.592
      -1.863
      -2.178
      -2.522
      -2.867
      -3.181
      -3.431
      -3.594
      -3.654
      -3.607
      -3.455
      -3.211
      -2.892
      -2.521
      -2.118
      -1.698
      -1.275
      -0.858
      -0.458
      -0.083
       0.252
       0.536
       0.758
       0.912
       0.992
       0.998
       0.939
       0.831
       0.696
       0.552
       0.407
       0.263
       0.127
       0.010
      -0.079
      -0.137
      -0.166
      -0.166
      -0.135
      -0.072
       0.019
       0.131
       0.250
       0.367
       0.474
       0.563
       0.635
       0.692
       0.744
       0.805
       0.884
       0.988
       1.120
       1.284
       1.477
       1.696
       1.935
       2.189
       2.458
       2.736
       3.012
       3.269
       3.494
       3.678
       3.820
       3.918
       3.971
       3.980
       3.949
       3.877
       3.762
       3.598
       3.385
       3.126
       2.824
       2.479
       2.087
       1.649
       1.175
       0.681
       0.186
      -0.291
      -0.734
      -1.130
      -1.476
      -1.774
      -2.029
      -2.241
      -2.403
      -2.512
      -2.571
      -2.589
      -2.577
      -2.541
      -2.480
      -2.391
      -2.276
      -2.139
      -1.983
      -1.804
      -1.599
      -1.369
      -1.121
      -0.861
      -0.594
      -0.322
      -0.054
       0.195
       0.403
       0.551
       0.630
       0.637
       0.577
       0.452
       0.267
       0.035
      -0.229
      -0.510
      -0.796
      -1.083
      -1.368
      -1.643
      -1.905
      -2.152
      -2.381
      -2.588
      -2.762
      -2.888
      -2.949
      -2.937
      -2.850
      -2.689
      -2.461
      -2.179
      -1.859
      -1.525
      -1.204
      -0.918
      -0.680
      -0.494
      -0.355
      -0.262
      -0.210
      -0.192
      -0.195
      -0.206
      -0.212
      -0.202
      -0.172
      -0.118
      -0.039
       0.065
       0.193
       0.343
       0.514
       0.699
       0.891
       1.086
       1.281
       1.475
       1.660
       1.826
       1.956
       2.043
       2.082
       2.075
       2.027
       1.943
       1.832
       1.695
       1.534
       1.347
       1.135
       0.905
       0.663
       0.422
       0.193
      -0.012
      -0.182
      -0.310
      -0.386
      -0.411
      -0.389
      -0.329
      -0.246
      -0.152
      -0.055
       0.037
       0.123
       0.201
       0.273
       0.346
       0.431
       0.535
       0.662
       0.801
       0.944
       1.084
       1.221
       1.361
       1.500
       1.635
       1.755
       1.852
       1.917
       1.945
       1.928
       1.860
       1.736
       1.552
       1.314
       1.031
       0.716
       0.378
       0.025
      -0.337
      -0.697
      -1.042
      -1.358
      -1.639
      -1.884
      -2.093
      -2.263
      -2.387
      -2.463
      -2.493
      -2.479
      -2.418
      -2.308
      -2.142
      -1.916
      -1.628
      -1.279
      -0.877
      -0.429
       0.050
       0.544
       1.032
       1.494
       1.919
       2.301
       2.640
       2.931
       3.168
       3.341
       3.446
       3.483
       3.456
       3.367
       3.220
       3.012
       2.741
       2.409
       2.020
       1.583
       1.107
       0.603
       0.084
      -0.432
      -0.926
      -1.383
      -1.791
      -2.147
      -2.454
      -2.713
      -2.922
      -3.076
      -3.174
      -3.220
      -3.222
      -3.187
      -3.121
      -3.024
      -2.895
