Origin Time       29/12/2009 09:01:42
Lat.              24.5°N	
Long.             94.8°E	
Depth (Km)         80.0
Magnitude         5.5
 Region           MYANMAR-INDIA(MANIPUR)-BORDER                                    
 Above details taken from IMD 
   
Station Code      HKD
Station Lat.       24.682
Station Long.      92.563
Station Height(m)   23.0
Site Class        C   Vs30 between 200 m/sec to 375 m/sec *  
Record Time       29.12.2009 09:02:22.959
Sampling Rate     200. Hz
 Record Duration  121.155 Sec.
 Direction         Vert. (Up positive)
Max. Acceleration     -3.999 cm/sec**2
     
  * For reference see Site Classification link of website 
     
 Base Line Corrected and Low Pass Filtered (Cut Off at 35 Hz) Time History
 Acceleration data in cm/sec**2
    
       0.035
       0.000
      -0.027
      -0.036
      -0.029
      -0.018
      -0.011
      -0.007
      -0.002
       0.003
       0.002
      -0.006
      -0.014
      -0.013
      -0.003
       0.005
       0.002
      -0.006
      -0.007
       0.006
       0.024
       0.031
       0.021
       0.003
      -0.004
       0.012
       0.044
       0.072
       0.077
       0.058
       0.034
       0.023
       0.028
       0.026
      -0.003
      -0.053
      -0.090
      -0.084
      -0.034
       0.023
       0.045
       0.022
      -0.020
      -0.047
      -0.044
      -0.022
      -0.003
       0.001
      -0.005
      -0.010
      -0.005
       0.012
       0.030
       0.041
       0.040
       0.032
       0.023
       0.018
       0.015
       0.010
       0.003
      -0.004
      -0.010
      -0.018
      -0.026
      -0.029
      -0.022
      -0.006
       0.009
       0.014
       0.012
       0.010
       0.011
       0.010
       0.004
      -0.003
       0.000
       0.018
       0.042
       0.051
       0.036
       0.006
      -0.018
      -0.023
      -0.015
      -0.012
      -0.024
      -0.043
      -0.055
      -0.049
      -0.027
       0.003
       0.033
       0.057
       0.069
       0.064
       0.043
       0.017
      -0.001
      -0.004
      -0.001
      -0.004
      -0.018
      -0.038
      -0.053
      -0.057
      -0.048
      -0.028
      -0.002
       0.019
       0.023
       0.005
      -0.020
      -0.030
      -0.015
       0.013
       0.032
       0.030
       0.015
       0.007
       0.019
       0.042
       0.059
       0.062
       0.052
       0.034
       0.010
      -0.019
      -0.048
      -0.062
      -0.057
      -0.041
      -0.031
      -0.031
      -0.034
      -0.026
      -0.006
       0.013
       0.020
       0.018
       0.016
       0.023
       0.034
       0.041
       0.037
       0.026
       0.017
       0.018
       0.026
       0.032
       0.028
       0.011
      -0.009
      -0.021
      -0.021
      -0.015
      -0.015
      -0.024
      -0.037
      -0.042
      -0.031
      -0.004
       0.030
       0.054
       0.059
       0.047
       0.032
       0.022
       0.017
       0.009
      -0.005
      -0.017
      -0.017
      -0.007
       0.003
       0.009
       0.011
       0.018
       0.025
       0.021
       0.000
      -0.027
      -0.043
      -0.038
      -0.018
       0.001
       0.012
       0.016
       0.013
       0.006
      -0.005
      -0.015
      -0.017
      -0.011
      -0.004
      -0.001
       0.001
       0.011
       0.029
       0.047
       0.049
       0.033
       0.009
      -0.005
      -0.007
      -0.002
       0.001
       0.002
       0.007
       0.020
       0.034
       0.041
       0.037
       0.028
       0.019
       0.007
      -0.013
      -0.035
      -0.048
      -0.039
      -0.009
       0.024
       0.045
       0.046
       0.035
       0.023
       0.016
       0.011
       0.004
      -0.004
      -0.009
      -0.012
      -0.017
      -0.030
      -0.047
      -0.055
      -0.041
      -0.010
       0.020
       0.030
       0.019
      -0.001
      -0.010
      -0.002
       0.015
       0.025
       0.018
      -0.004
      -0.030
      -0.039
      -0.020
       0.021
       0.055
       0.058
       0.031
      -0.004
      -0.022
      -0.026
      -0.029
      -0.035
      -0.031
      -0.005
       0.033
       0.059
       0.064
       0.056
       0.054
       0.056
       0.048
       0.022
      -0.008
      -0.020
      -0.008
       0.013
       0.025
       0.020
       0.007
      -0.005
      -0.015
      -0.021
      -0.023
      -0.017
      -0.007
      -0.001
      -0.005
      -0.013
      -0.014
       0.000
       0.022
       0.042
       0.052
       0.057
       0.063
       0.069
       0.066
       0.045
       0.009
      -0.027
      -0.049
      -0.051
      -0.043
      -0.033
      -0.021
      -0.003
       0.021
       0.038
       0.032
       0.004
      -0.027
      -0.037
      -0.020
       0.010
       0.030
       0.029
       0.019
       0.016
       0.025
       0.033
       0.024
      -0.006
      -0.044
      -0.073
      -0.080
      -0.064
      -0.032
       0.001
       0.019
       0.016
      -0.004
      -0.021
      -0.017
       0.011
       0.045
       0.062
       0.047
       0.008
      -0.032
      -0.049
      -0.038
      -0.007
       0.024
       0.044
       0.049
       0.043
       0.028
       0.006
      -0.019
      -0.035
      -0.034
      -0.019
       0.000
       0.013
       0.017
       0.015
       0.012
       0.007
       0.000
      -0.010
      -0.018
      -0.018
      -0.003
       0.022
       0.047
       0.058
       0.057
       0.049
       0.043
       0.036
       0.024
       0.006
      -0.004
       0.006
       0.030
       0.046
       0.034
      -0.001
      -0.035
      -0.048
      -0.044
      -0.039
      -0.040
      -0.037
      -0.020
       0.005
       0.020
       0.015
       0.002
      -0.001
       0.010
       0.020
       0.017
       0.008
       0.013
       0.042
       0.081
       0.103
       0.094
       0.064
       0.040
       0.040
       0.059
       0.074
       0.062
       0.022
      -0.024
      -0.048
      -0.042
      -0.017
       0.004
       0.015
       0.023
       0.038
       0.056
       0.062
       0.052
       0.036
       0.033
       0.047
       0.065
       0.069
       0.054
       0.029
       0.008
      -0.006
      -0.024
      -0.056
      -0.099
      -0.141
      -0.168
      -0.178
      -0.176
      -0.169
      -0.157
      -0.133
      -0.097
      -0.055
      -0.020
      -0.004
      -0.006
      -0.017
      -0.023
      -0.019
      -0.003
       0.021
       0.045
       0.061
       0.062
       0.049
       0.038
       0.046
       0.075
       0.111
       0.135
       0.139
       0.132
       0.124
       0.116
       0.104
       0.089
       0.082
       0.088
       0.106
       0.123
       0.133
       0.133
       0.130
       0.123
       0.109
       0.087
       0.060
       0.032
       0.008
      -0.014
      -0.035
      -0.052
      -0.061
      -0.060
      -0.056
      -0.056
      -0.057
      -0.050
      -0.024
       0.016
       0.049
       0.058
       0.042
       0.024
       0.026
       0.046
       0.060
       0.046
       0.008
      -0.028
      -0.043
      -0.039
      -0.037
      -0.054
      -0.087
      -0.116
      -0.126
      -0.117
      -0.099
      -0.082
      -0.070
      -0.064
      -0.066
      -0.080
      -0.103
      -0.129
      -0.153
      -0.178
      -0.204
      -0.232
      -0.254
      -0.260
      -0.243
      -0.198
      -0.128
      -0.047
       0.028
       0.087
       0.132
       0.178
       0.236
       0.302
       0.358
       0.386
       0.382
       0.358
       0.329
       0.306
       0.286
       0.263
       0.232
       0.195
       0.158
       0.128
       0.115
       0.121
       0.143
       0.171
       0.201
       0.233
       0.269
       0.311
       0.347
       0.364
       0.350
       0.302
       0.226
       0.130
       0.023
      -0.091
      -0.209
      -0.329
      -0.446
      -0.557
      -0.660
      -0.751
      -0.823
      -0.861
      -0.844
      -0.758
      -0.602
      -0.396
      -0.170
       0.037
       0.200
       0.306
       0.362
       0.385
       0.387
       0.373
       0.338
       0.280
       0.205
       0.128
       0.056
      -0.012
      -0.086
      -0.163
      -0.227
      -0.253
      -0.228
      -0.155
      -0.047
       0.084
       0.226
       0.366
       0.486
       0.566
       0.594
       0.573
       0.523
       0.469
       0.423
       0.381
       0.323
       0.235
       0.118
      -0.006
      -0.118
      -0.215
      -0.321
      -0.464
      -0.655
      -0.885
      -1.120
      -1.324
      -1.462
      -1.510
      -1.457
      -1.305
      -1.074
      -0.791
      -0.489
      -0.199
       0.059
       0.282
       0.483
       0.681
       0.881
       1.067
       1.212
       1.293
       1.302
       1.251
       1.160
       1.043
       0.905
       0.745
       0.567
       0.390
       0.235
       0.118
       0.029
      -0.055
      -0.153
      -0.270
      -0.387
      -0.481
      -0.536
      -0.539
      -0.477
      -0.338
      -0.123
       0.144
       0.417
       0.648
       0.806
       0.888
       0.906
       0.876
       0.819
       0.752
       0.692
       0.656
       0.649
       0.664
       0.683
       0.681
       0.641
       0.560
       0.443
       0.288
       0.084
      -0.184
      -0.516
      -0.883
      -1.233
      -1.511
      -1.679
      -1.727
      -1.669
      -1.531
      -1.339
      -1.110
      -0.847
      -0.547
      -0.213
       0.131
       0.447
       0.698
       0.868
       0.969
       1.029
       1.075
       1.112
       1.138
       1.145
       1.131
       1.095
       1.024
       0.892
       0.665
       0.312
      -0.183
      -0.812
      -1.537
      -2.288
      -2.972
      -3.506
      -3.846
      -3.999
      -3.996
      -3.862
      -3.588
      -3.155
      -2.560
      -1.839
      -1.052
      -0.262
       0.490
       1.176
       1.780
       2.298
       2.741
       3.123
       3.446
       3.676
       3.760
       3.655
       3.357
       2.902
       2.347
       1.737
       1.105
       0.478
      -0.100
      -0.580
      -0.927
      -1.139
      -1.236
      -1.241
      -1.160
      -1.010
      -0.841
      -0.728
      -0.733
      -0.847
      -0.988
      -1.053
      -0.984
      -0.800
      -0.569
      -0.355
      -0.181
      -0.030
       0.132
       0.324
       0.536
       0.740
       0.900
       0.997
       1.033
       1.021
       0.971
       0.880
       0.734
       0.533
       0.295
       0.059
      -0.141
      -0.293
      -0.405
      -0.496
      -0.588
      -0.692
      -0.800
      -0.880
      -0.879
      -0.753
      -0.503
      -0.179
       0.136
       0.376
       0.521
       0.595
       0.630
       0.632
       0.577
       0.433
       0.207
      -0.047
      -0.250
      -0.341
      -0.303
      -0.173
      -0.011
       0.120
       0.188
       0.198
       0.178
       0.163
       0.180
       0.236
       0.324
       0.425
       0.515
       0.572
       0.590
       0.580
       0.560
       0.530
       0.466
       0.330
       0.106
      -0.176
      -0.453
      -0.672
      -0.818
      -0.913
      -0.981
      -1.019
      -1.006
      -0.936
      -0.835
      -0.746
      -0.690
      -0.651
      -0.598
      -0.526
      -0.462
      -0.450
      -0.509
      -0.617
      -0.717
      -0.756
      -0.704
      -0.556
      -0.319
      -0.007
       0.357
       0.725
       1.033
       1.233
       1.321
       1.338
       1.330
       1.310
       1.254
       1.133
       0.954
       0.766
       0.623
       0.549
       0.522
       0.487
       0.395
       0.235
       0.039
      -0.140
      -0.254
      -0.285
      -0.250
      -0.181
      -0.116
      -0.078
      -0.070
      -0.078
      -0.088
      -0.101
      -0.135
      -0.203
      -0.296
      -0.369
      -0.362
      -0.239
      -0.016
       0.234
       0.426
       0.500
       0.441
       0.266
       0.003
      -0.320
      -0.665
      -0.984
      -1.233
      -1.396
      -1.483
      -1.512
      -1.478
      -1.355
      -1.123
      -0.792
      -0.408
      -0.026
       0.322
       0.640
       0.950
       1.253
       1.517
       1.690
       1.743
       1.691
       1.580
       1.441
       1.271
       1.044
       0.747
       0.409
       0.081
      -0.191
      -0.392
      -0.534
      -0.638
      -0.706
      -0.726
      -0.686
      -0.592
      -0.463
      -0.326
      -0.204
      -0.115
      -0.072
      -0.079
      -0.124
      -0.185
      -0.238
      -0.280
      -0.330
      -0.417
      -0.549
      -0.707
      -0.853
      -0.953
      -1.003
      -1.021
      -1.036
      -1.066
      -1.099
      -1.101
      -1.035
      -0.883
      -0.659
      -0.392
      -0.109
       0.178
       0.463
       0.733
       0.958
       1.108
       1.164
       1.132
       1.046
       0.950
       0.876
       0.829
       0.790
       0.741
       0.685
       0.648
       0.662
       0.737
       0.845
       0.921
       0.895
       0.735
       0.467
       0.163
      -0.102
      -0.292
      -0.410
      -0.474
      -0.486
      -0.432
      -0.300
      -0.111
       0.088
       0.241
       0.315
       0.315
       0.274
       0.234
       0.222
       0.242
       0.281
       0.318
       0.339
       0.330
       0.285
       0.208
       0.117
       0.019
      -0.092
      -0.238
      -0.428
      -0.649
      -0.866
      -1.047
      -1.171
      -1.225
      -1.189
      -1.042
      -0.788
      -0.473
      -0.175
       0.033
       0.119
       0.107
       0.056
       0.026
       0.048
       0.113
       0.191
       0.250
       0.284
       0.317
       0.382
       0.492
       0.615
       0.689
       0.669
       0.567
       0.448
       0.390
       0.425
       0.521
       0.611
       0.632
       0.563
       0.420
       0.233
       0.034
      -0.151
      -0.306
      -0.430
      -0.543
      -0.675
      -0.843
      -1.042
      -1.237
      -1.381
      -1.425
      -1.336
      -1.100
      -0.738
      -0.299
       0.152
       0.548
       0.838
       0.997
       1.028
       0.955
       0.804
       0.595
       0.338
       0.054
      -0.208
      -0.393
      -0.470
      -0.472
      -0.479
      -0.561
      -0.711
      -0.842
      -0.843
      -0.665
      -0.357
      -0.024
       0.247
       0.434
       0.569
       0.690
       0.797
       0.861
       0.850
       0.763
       0.633
       0.511
       0.437
       0.420
       0.429
       0.423
       0.380
       0.320
       0.283
       0.291
       0.316
       0.301
       0.201
       0.025
      -0.177
      -0.357
      -0.506
      -0.639
      -0.765
      -0.863
      -0.906
      -0.890
      -0.849
      -0.821
      -0.819
      -0.822
      -0.793
      -0.712
      -0.582
      -0.415
      -0.220
       0.008
       0.275
       0.568
       0.842
       1.049
       1.164
       1.195
       1.182
       1.164
       1.156
       1.139
       1.072
       0.930
       0.735
       0.548
       0.431
       0.404
       0.431
       0.446
       0.389
       0.243
       0.032
      -0.188
      -0.370
      -0.502
      -0.608
      -0.711
      -0.808
      -0.864
      -0.840
      -0.733
      -0.582
      -0.441
      -0.349
      -0.311
      -0.308
      -0.317
      -0.333
      -0.368
      -0.440
      -0.550
      -0.674
      -0.777
      -0.834
      -0.838
      -0.794
      -0.696
      -0.523
      -0.262
       0.070
       0.412
       0.682
       0.807
       0.756
       0.546
       0.232
      -0.111
      -0.406
      -0.593
      -0.641
      -0.560
      -0.391
      -0.185
       0.027
       0.237
       0.436
       0.602
       0.703
       0.728
       0.704
       0.676
       0.670
       0.674
       0.671
       0.665
       0.679
       0.717
       0.739
       0.679
       0.504
       0.242
      -0.041
      -0.289
      -0.487
      -0.646
      -0.771
      -0.845
      -0.845
      -0.768
      -0.633
      -0.472
      -0.304
      -0.139
       0.018
       0.160
       0.284
       0.393
       0.498
       0.601
       0.688
       0.733
       0.717
       0.650
       0.569
       0.518
       0.514
       0.534
       0.523
       0.441
       0.288
       0.107
      -0.060
      -0.193
      -0.304
      -0.407
      -0.498
      -0.561
      -0.581
      -0.566
      -0.539
      -0.519
      -0.516
      -0.523
      -0.537
      -0.558
      -0.585
      -0.608
      -0.602
      -0.543
      -0.419
      -0.242
      -0.050
       0.110
       0.198
       0.205
       0.154
       0.090
       0.045
       0.025
       0.012
      -0.015
      -0.063
      -0.121
      -0.166
      -0.184
      -0.177
      -0.164
      -0.167
      -0.188
      -0.199
      -0.164
      -0.072
       0.051
       0.164
       0.246
       0.308
       0.376
       0.469
       0.576
       0.670
       0.721
       0.711
       0.631
       0.486
       0.294
       0.096
      -0.060
      -0.147
      -0.178
      -0.185
      -0.173
      -0.112
       0.033
       0.247
       0.455
       0.570
       0.557
       0.453
       0.318
       0.190
       0.073
      -0.025
      -0.071
      -0.030
       0.091
       0.226
       0.296
       0.256
       0.124
      -0.049
      -0.209
      -0.327
      -0.391
      -0.408
      -0.397
      -0.389
      -0.415
      -0.474
      -0.525
      -0.517
      -0.432
      -0.310
      -0.214
      -0.184
      -0.213
      -0.266
      -0.317
      -0.354
      -0.373
      -0.367
      -0.334
      -0.281
      -0.215
      -0.137
      -0.044
       0.058
       0.140
       0.172
       0.146
       0.089
       0.048
       0.052
       0.100
       0.170
       0.240
       0.306
       0.374
       0.446
       0.520
       0.593
       0.669
       0.750
       0.825
       0.873
       0.876
       0.833
       0.752
       0.641
       0.497
       0.323
       0.130
      -0.060
      -0.231
      -0.385
      -0.529
      -0.664
      -0.771
      -0.826
      -0.815
      -0.753
      -0.673
      -0.605
      -0.567
      -0.557
      -0.556
      -0.531
      -0.449
      -0.306
      -0.133
       0.022
       0.127
       0.184
       0.214
       0.227
       0.218
       0.188
       0.173
       0.216
       0.325
       0.440
       0.479
       0.399
       0.243
       0.092
      -0.001
      -0.050
      -0.103
      -0.181
      -0.253
      -0.268
      -0.202
      -0.079
       0.047
       0.128
       0.137
       0.062
      -0.091
      -0.293
      -0.498
      -0.657
      -0.740
      -0.740
      -0.664
      -0.518
      -0.312
      -0.068
       0.175
       0.368
       0.468
       0.459
       0.359
       0.210
       0.052
      -0.092
      -0.212
      -0.294
      -0.312
      -0.242
      -0.089
       0.106
       0.286
       0.408
       0.462
       0.462
       0.431
       0.387
       0.343
       0.303
       0.263
       0.216
       0.170
       0.148
       0.176
       0.260
       0.380
       0.502
       0.598
       0.654
       0.661
       0.617
       0.533
       0.433
       0.339
       0.256
       0.167
       0.066
      -0.025
      -0.067
      -0.048
       0.001
       0.034
       0.034
       0.023
       0.021
       0.003
      -0.078
      -0.239
      -0.431
      -0.577
      -0.629
      -0.606
      -0.557
      -0.500
      -0.407
      -0.247
      -0.030
       0.176
       0.293
       0.277
       0.139
      -0.085
      -0.357
      -0.643
      -0.900
      -1.075
      -1.130
      -1.067
      -0.922
      -0.731
      -0.512
      -0.265
      -0.001
       0.249
       0.450
       0.588
       0.678
       0.746
       0.803
