Origin Time       16/4/2013 10:44:11	
Lat.              28.0 N	
Long.             62.1 E	
Depth (Km)         46.0
Magnitude         7.8
 Region           Iran-Pakistan-Border-Region                                      
 Above details taken from IMD 
   
Station Code      IGN
Station Lat.       28.492
Station Long.      77.203
Station Height(m)  263.0
Site Class        A   Vs30 between 700 m/sec to 1400 m/sec * 
Record Time       16.04.2013 10:48:51.999
Sampling Rate     200. Hz
 Record Duration   84.910 Sec.
 Direction         Vert. (Up positive)
Max. Acceleration     -2.320 cm/sec**2
     
  * For reference see Site Classification link of website 
     
 Base Line Corrected and Low Pass Filtered (Cut Off at 35 Hz) Time History
 Acceleration data in cm/sec**2
    
[...]
       0.079
       0.089
       0.129
       0.196
       0.266
       0.314
       0.339
       0.359
       0.390
       0.425
       0.451
       0.459
       0.451
       0.424
       0.376
       0.312
       0.247
       0.197
       0.167
       0.151
       0.138
       0.126
       0.123
       0.136
       0.158
       0.170
       0.151
       0.091
       0.004
      -0.082
      -0.140
      -0.168
      -0.186
      -0.214
      -0.259
      -0.306
      -0.337
      -0.345
      -0.338
      -0.327
      -0.312
      -0.286
      -0.240
      -0.180
      -0.138
      -0.144
      -0.206
      -0.294
      -0.370
      -0.419
      -0.455
      -0.503
      -0.573
      -0.656
      -0.728
      -0.769
      -0.782
      -0.792
      -0.813
      -0.828
      -0.800
      -0.709
      -0.583
      -0.471
      -0.399
      -0.352
      -0.291
      -0.199
      -0.090
       0.005
       0.067
       0.097
       0.102
       0.094
       0.086
       0.095
       0.136
       0.202
       0.262
       0.283
       0.257
       0.206
       0.165
       0.161
       0.200
       0.262
       0.306
       0.304
       0.264
       0.229
       0.229
       0.260
       0.294
       0.313
       0.314
       0.302
       0.287
       0.275
       0.264
       0.238
       0.187
       0.132
       0.107
       0.128
       0.182
       0.240
       0.278
       0.292
       0.282
       0.249
       0.192
       0.119
       0.045
      -0.007
      -0.019
       0.010
       0.053
       0.068
       0.033
      -0.032
      -0.074
      -0.045
       0.049
       0.145
       0.166
       0.088
      -0.046
      -0.158
      -0.212
      -0.235
      -0.283
      -0.383
      -0.503
      -0.590
      -0.613
      -0.586
      -0.547
      -0.523
      -0.511
      -0.496
      -0.463
      -0.418
      -0.379
      -0.360
      -0.353
      -0.335
      -0.294
      -0.238
      -0.191
      -0.165
      -0.156
      -0.156
      -0.168
      -0.195
      -0.235
      -0.277
      -0.301
      -0.291
      -0.247
      -0.190
      -0.148
      -0.128
      -0.110
      -0.067
       0.004
       0.068
       0.086
       0.054
       0.013
       0.010
       0.055
       0.113
       0.148
       0.157
       0.160
       0.171
       0.175
       0.163
       0.156
       0.189
       0.269
       0.359
       0.415
       0.430
       0.438
       0.459
       0.475
       0.444
       0.351
       0.226
       0.123
       0.073
       0.066
       0.057
       0.014
      -0.063
      -0.146
      -0.206
      -0.236
      -0.237
      -0.215
      -0.170
      -0.113
      -0.052
      -0.001
       0.022
       0.005
      -0.040
      -0.081
      -0.087
      -0.062
      -0.045
      -0.082
      -0.188
      -0.331
      -0.450
      -0.489
      -0.440
      -0.343
      -0.254
      -0.197
      -0.156
      -0.109
      -0.057
      -0.027
      -0.040
      -0.087
      -0.137
      -0.165
      -0.168
      -0.156
      -0.134
      -0.103
      -0.060
      -0.011
       0.035
       0.069
       0.087
       0.086
       0.071
       0.045
       0.016
      -0.005
      -0.005
       0.020
       0.061
       0.098
       0.118
       0.128
       0.138
       0.152
       0.151
       0.117
       0.051
      -0.010
      -0.023
       0.024
       0.098
       0.154
       0.167
       0.153
       0.143
       0.161
       0.201
       0.243
       0.272
       0.292
       0.311
       0.326
       0.323
       0.297
       0.269
       0.271
       0.311
       0.362
       0.387
       0.375
       0.346
       0.330
       0.338
       0.355
       0.360
       0.339
       0.298
       0.253
       0.209
       0.166
       0.124
       0.084
       0.042
      -0.009
      -0.067
      -0.122
      -0.166
      -0.204
      -0.236
      -0.258
      -0.268
      -0.275
      -0.293
      -0.325
      -0.361
      -0.389
      -0.412
      -0.438
      -0.462
      -0.467
      -0.441
      -0.391
      -0.340
      -0.295
      -0.247
      -0.183
      -0.105
      -0.027
       0.042
       0.101
       0.145
       0.161
       0.140
       0.091
       0.045
       0.029
       0.048
       0.086
       0.124
       0.156
       0.188
       0.222
       0.252
       0.266
       0.260
       0.245
       0.241
       0.257
       0.273
       0.257
       0.197
       0.118
       0.057
       0.033
       0.043
       0.068
       0.094
       0.117
       0.139
       0.162
       0.184
       0.201
       0.216
       0.251
       0.324
       0.432
       0.551
       0.655
       0.729
       0.761
       0.739
       0.656
       0.527
       0.391
       0.284
       0.224
       0.200
       0.195
       0.199
       0.219
       0.257
       0.298
       0.315
       0.290
       0.221
       0.130
       0.048
       0.000
      -0.008
       0.011
       0.042
       0.071
       0.088
       0.078
       0.033
      -0.033
      -0.079
      -0.067
      -0.001
       0.077
       0.127
       0.141
       0.142
       0.148
       0.149
       0.131
       0.096
       0.066
       0.062
       0.081
       0.110
       0.138
       0.164
       0.184
       0.186
       0.168
       0.145
       0.140
       0.168
       0.222
       0.276
       0.289
       0.233
       0.118
      -0.004
      -0.068
      -0.044
       0.033
       0.092
       0.078
      -0.009
      -0.128
      -0.237
      -0.321
      -0.394
      -0.471
      -0.550
      -0.606
      -0.612
      -0.564
      -0.492
      -0.434
      -0.403
      -0.374
      -0.318
      -0.236
      -0.164
      -0.122
      -0.097
      -0.058
       0.012
       0.103
       0.188
       0.237
       0.228
       0.155
       0.031
      -0.109
      -0.227
      -0.290
      -0.292
      -0.255
      -0.223
      -0.234
      -0.300
      -0.402
      -0.506
      -0.583
      -0.620
      -0.627
      -0.621
      -0.612
      -0.601
      -0.587
      -0.581
      -0.591
      -0.611
      -0.617
      -0.589
      -0.525
      -0.439
      -0.348
      -0.259
      -0.173
      -0.101
      -0.049
      -0.013
       0.025
       0.073
       0.113
       0.110
       0.052
      -0.032
      -0.093
      -0.104
      -0.085
      -0.075
      -0.089
      -0.096
      -0.054
       0.049
       0.170
       0.248
       0.257
       0.230
       0.222
       0.253
       0.285
       0.257
       0.146
      -0.006
      -0.131
      -0.190
      -0.197
      -0.198
      -0.228
      -0.285
      -0.335
      -0.343
      -0.309
      -0.263
      -0.240
      -0.245
      -0.259
      -0.266
      -0.267
      -0.273
      -0.294
      -0.320
      -0.333
      -0.321
      -0.286
      -0.242
      -0.209
      -0.195
      -0.186
      -0.156
      -0.090
       0.002
       0.094
       0.165
       0.199
       0.190
       0.149
       0.099
       0.071
       0.071
       0.085
       0.088
       0.065
       0.016
      -0.047
      -0.102
      -0.125
      -0.100
      -0.023
       0.093
       0.225
       0.358
       0.478
       0.577
       0.642
       0.668
       0.667
       0.655
       0.634
       0.589
       0.508
       0.399
       0.291
       0.213
       0.186
       0.207
       0.252
       0.288
       0.289
       0.258
       0.225
       0.217
       0.236
       0.255
       0.248
       0.209
       0.160
       0.131
       0.139
       0.173
       0.210
       0.234
       0.245
       0.255
       0.269
       0.286
       0.310
       0.351
       0.412
       0.483
       0.546
       0.592
       0.623
       0.646
       0.674
       0.713
       0.756
       0.783
       0.777
       0.744
       0.700
       0.649
       0.583
       0.494
       0.394
       0.309
       0.261
       0.255
       0.278
       0.303
       0.311
       0.298
       0.282
       0.283
       0.307
       0.340
       0.355
       0.337
       0.292
       0.242
       0.199
       0.149
       0.071
      -0.044
      -0.184
      -0.323
      -0.431
      -0.491
      -0.512
      -0.532
      -0.595
      -0.709
      -0.844
      -0.953
      -1.010
      -1.033
      -1.066
      -1.143
      -1.255
      -1.356
      -1.395
      -1.346
      -1.212
      -1.019
      -0.797
      -0.568
      -0.349
      -0.144
       0.048
       0.226
       0.380
       0.482
       0.498
       0.419
       0.278
       0.143
       0.068
       0.046
       0.016
      -0.073
      -0.214
      -0.348
      -0.416
      -0.419
      -0.404
      -0.428
      -0.508
      -0.612
      -0.692
      -0.712
      -0.679
      -0.630
      -0.601
      -0.603
      -0.620
      -0.629
      -0.618
      -0.585
      -0.537
      -0.478
      -0.407
      -0.315
      -0.207
      -0.108
      -0.060
      -0.078
      -0.138
      -0.200
      -0.251
      -0.306
      -0.373
      -0.429
      -0.436
      -0.379
      -0.283
      -0.200
      -0.162
      -0.165
      -0.172
      -0.159
      -0.140
      -0.161
      -0.251
      -0.402
      -0.565
      -0.691
      -0.756
      -0.761
      -0.719
      -0.637
      -0.523
      -0.392
      -0.262
      -0.148
      -0.045
       0.056
       0.163
       0.265
       0.336
       0.357
       0.339
       0.318
       0.322
       0.348
       0.369
       0.363
       0.343
       0.340
       0.377
       0.429
       0.445
       0.397
       0.303
       0.202
       0.103
      -0.019
      -0.185
      -0.381
      -0.569
      -0.729
      -0.863
      -0.973
      -1.044
      -1.062
      -1.033
      -0.986
      -0.940
      -0.882
      -0.782
      -0.629
      -0.452
      -0.297
      -0.185
      -0.095
       0.005
       0.130
       0.279
       0.435
       0.581
       0.692
       0.750
       0.757
       0.728
       0.677
       0.608
       0.529
       0.466
       0.447
       0.475
       0.518
       0.535
       0.514
       0.480
       0.453
       0.428
       0.384
       0.322
       0.264
       0.227
       0.197
       0.142
       0.043
      -0.092
      -0.237
      -0.371
      -0.476
      -0.538
      -0.546
      -0.509
      -0.450
      -0.393
      -0.351
      -0.321
      -0.295
      -0.267
      -0.232
      -0.191
      -0.152
      -0.127
      -0.125
      -0.136
      -0.142
      -0.134
      -0.115
      -0.086
      -0.037
       0.050
       0.177
       0.316
       0.425
       0.481
       0.500
       0.517
       0.556
       0.613
       0.672
       0.715
       0.736
       0.734
       0.720
       0.709
       0.722
       0.769
       0.845
       0.934
       1.021
       1.093
       1.145
       1.171
       1.173
       1.156
       1.121
       1.061
       0.960
       0.810
       0.619
       0.404
       0.183
      -0.030
      -0.230
      -0.411
      -0.568
      -0.702
      -0.817
      -0.909
      -0.971
      -0.999
      -0.998
      -0.979
      -0.960
      -0.955
      -0.967
      -0.976
      -0.953
      -0.889
      -0.801
      -0.722
      -0.664
      -0.612
      -0.530
      -0.400
      -0.238
      -0.087
       0.013
       0.054
       0.054
       0.032
      -0.005
      -0.051
      -0.081
      -0.072
      -0.029
       0.011
       0.014
      -0.014
      -0.025
       0.030
       0.157
       0.307
       0.416
       0.449
       0.424
       0.383
       0.349
       0.311
       0.240
       0.126
      -0.003
      -0.101
      -0.147
      -0.159
      -0.177
      -0.222
      -0.278
      -0.307
      -0.287
      -0.232
      -0.182
      -0.156
      -0.133
      -0.073
       0.033
       0.146
       0.219
       0.253
       0.296
       0.388
       0.506
       0.585
       0.583
       0.528
       0.494
       0.533
       0.628
       0.697
       0.668
       0.531
       0.350
       0.198
       0.096
       0.009
      -0.107
      -0.255
      -0.403
      -0.522
      -0.610
      -0.694
      -0.792
      -0.894
      -0.962
      -0.967
      -0.900
      -0.776
      -0.633
      -0.514
      -0.453
      -0.462
      -0.519
      -0.586
      -0.631
      -0.635
      -0.581
      -0.445
      -0.218
       0.068
       0.348
       0.569
       0.730
       0.864
       0.985
       1.076
       1.106
       1.066
       0.973
       0.848
       0.700
       0.534
       0.354
       0.173
       0.002
      -0.141
      -0.228
      -0.233
      -0.163
      -0.067
      -0.008
      -0.001
      -0.006
       0.030
       0.123
       0.239
       0.340
       0.411
       0.463
       0.508
       0.549
       0.585
       0.621
       0.670
       0.735
       0.804
       0.856
       0.887
       0.911
       0.941
       0.976
       1.002
       1.010
       1.003
       0.989
       0.969
       0.925
       0.830
       0.672
       0.479
       0.301
       0.176
       0.116
       0.113
       0.154
       0.224
       0.298
       0.348
       0.355
       0.322
       0.275
       0.254
       0.289
       0.379
       0.481
       0.544
       0.544
       0.500
       0.460
       0.463
       0.527
       0.653
       0.823
       1.002
       1.146
       1.224
       1.232
       1.186
       1.109
       1.012
       0.895
       0.752
       0.582
       0.396
       0.205
       0.007
      -0.213
      -0.472
      -0.770
      -1.090
      -1.406
      -1.699
      -1.953
      -2.153
      -2.279
      -2.320
      -2.292
      -2.226
      -2.149
      -2.060
      -1.938
      -1.772
      -1.572
      -1.361
      -1.149
      -0.932
      -0.706
      -0.482
      -0.282
      -0.127
      -0.016
       0.063
       0.114
       0.130
       0.111
       0.069
       0.021
      -0.028
      -0.086
      -0.168
      -0.275
      -0.398
      -0.522
      -0.634
      -0.727
      -0.801
      -0.860
      -0.906
      -0.939
      -0.983
      -1.071
      -1.209
      -1.360
      -1.458
      -1.463
      -1.385
      -1.264
      -1.136
      -1.003
      -0.842
      -0.637
      -0.394
      -0.146
       0.074
       0.245
       0.365
       0.450
       0.519
       0.581
       0.626
       0.642
       0.621
       0.572
       0.513
       0.465
       0.427
       0.384
       0.322
       0.250
       0.190
       0.155
       0.135
       0.104
       0.038
      -0.066
      -0.191
      -0.311
      -0.412
      -0.499
      -0.580
      -0.642
      -0.650
      -0.578
      -0.439
      -0.289
      -0.179
      -0.112
      -0.041
       0.084
       0.268
       0.466
       0.623
       0.718
       0.766
       0.802
       0.852
       0.913
       0.965
       0.987
       0.992
       1.019
       1.097
       1.210
       1.293
       1.286
       1.185
       1.042
       0.917
       0.821
       0.710
       0.530
       0.269
      -0.025
      -0.276
      -0.427
      -0.466
      -0.425
      -0.345
      -0.250
      -0.131
       0.031
       0.235
       0.450
       0.626
       0.723
       0.740
       0.707
       0.669
       0.659
       0.690
       0.764
       0.866
       0.971
       1.055
       1.114
       1.165
       1.222
       1.269
       1.268
       1.196
       1.075
       0.946
       0.831
       0.703
       0.520
       0.269
      -0.016
      -0.284
      -0.496
      -0.649
      -0.760
      -0.857
      -0.964
      -1.081
      -1.174
      -1.206
      -1.173
      -1.117
      -1.089
      -1.084
      -1.045
      -0.916
      -0.709
      -0.484
      -0.298
      -0.162
      -0.054
       0.049
       0.151
       0.242
       0.313
       0.363
       0.389
       0.391
       0.373
       0.341
       0.287
       0.192
       0.040
      -0.159
      -0.373
      -0.560
      -0.690
      -0.761
      -0.795
      -0.820
      -0.844
      -0.854
      -0.837
      -0.800
      -0.771
      -0.763
      -0.756
      -0.709
      -0.597
      -0.429
      -0.244
      -0.072
       0.083
       0.248
       0.449
       0.690
       0.941
       1.150
       1.277
       1.310
       1.260
       1.141
       0.958
       0.711
       0.413
       0.100
      -0.178
      -0.393
      -0.550
      -0.676
      -0.783
      -0.856
      -0.872
      -0.829
      -0.757
      -0.701
      -0.691
      -0.718
      -0.754
      -0.780
      -0.814
      -0.881
      -0.979
      -1.067
      -1.105
      -1.088
      -1.037
      -0.968
      -0.875
      -0.749
      -0.592
      -0.418
      -0.248
      -0.098
       0.036
       0.167
       0.297
       0.393
       0.407
       0.319
       0.162
      -0.004
      -0.132
      -0.214
      -0.274
      -0.346
      -0.446
      -0.567
      -0.673
      -0.730
      -0.732
      -0.705
      -0.696
      -0.737
      -0.824
      -0.914
      -0.956
      -0.932
      -0.862
      -0.780
      -0.707
      -0.645
      -0.592
      -0.549
      -0.513
      -0.483
      -0.464
      -0.464
      -0.477
      -0.487
      -0.484
      -0.478
      -0.476
      -0.471
      -0.430
      -0.329
      -0.173
      -0.010
       0.085
       0.064
      -0.057
      -0.210
      -0.324
      -0.366
      -0.351
      -0.308
      -0.265
      -0.239
      -0.227
      -0.202
      -0.131
       0.005
       0.200
       0.434
       0.686
       0.933
       1.150
       1.320
       1.435
       1.491
       1.489
       1.439
       1.368
       1.299
       1.240
       1.184
       1.116
       1.023
       0.899
       0.749
       0.581
       0.407
       0.233
       0.064
      -0.083
      -0.191
      -0.252
      -0.279
      -0.290
      -0.291
      -0.278
      -0.249
      -0.209
      -0.166
      -0.129
      -0.109
      -0.116
      -0.154
      -0.211
      -0.261
      -0.286
      -0.293
      -0.299
      -0.317
      -0.341
      -0.360
      -0.370
      -0.371
      -0.366
      -0.368
      -0.389
      -0.425
      -0.452
      -0.441
      -0.390
      -0.316
      -0.236
      -0.144
      -0.017
       0.155
       0.348
       0.515
       0.611
       0.624
       0.580
       0.525
       0.501
       0.522
       0.572
       0.626
       0.665
       0.683
       0.678
       0.650
       0.587
       0.478
       0.327
       0.162
       0.020
      -0.064
      -0.077
      -0.026
       0.059
       0.146
       0.215
       0.272
       0.326
       0.383
       0.431
       0.454
       0.435
       0.364
       0.252
       0.131
       0.040
      -0.006
      -0.015
       0.003
       0.050
       0.141
       0.288
       0.493
       0.742
       1.004
       1.234
       1.393
       1.461
       1.449
       1.387
       1.291
       1.164
       0.999
       0.800
       0.585
       0.382
       0.219
       0.110
       0.041
      -0.033
      -0.146
      -0.289
      -0.412
      -0.471
      -0.462
      -0.424
      -0.411
      -0.456
      -0.552
      -0.660
      -0.742
      -0.784
      -0.793
      -0.768
      -0.699
      -0.586
      -0.451
      -0.323
      -0.222
      -0.155
      -0.129
      -0.148
      -0.207
      -0.284
      -0.358
      -0.410
      -0.424
      -0.384
      -0.294
      -0.185
      -0.105
      -0.083
      -0.099
      -0.097
