Origin Time       24/2/2010 19:20:52	
Lat.              28.6 N	
Long.             76.9 E	
Depth (Km)         17.0
Magnitude         2.5
 Region           Rohtak                                                           
 Above details taken from IMD 
     
Station Code      IGN
Station Lat.       28.492  N
Station Long.      77.203  E
Station Height(m)  263.0
Site Class        A   Vs30 between 700 m/sec to 1400 m/sec * 
Record Time       24.02.2010 19:19:55.834
Sampling Rate     200. Hz
 Record Duration   79.995 Sec.
 Direction         E-W (E positive)
Max. Acceleration     -3.154 cm/sec**2
     
  * For reference see Site Classification link of website 
     
 Base Line Corrected and Low Pass Filtered (Cut Off at 35 Hz) Time History
 Acceleration data in cm/sec**2
    
[...]
       0.003
       0.001
       0.003
       0.005
       0.004
       0.000
      -0.004
      -0.008
      -0.009
      -0.006
       0.000
       0.005
       0.004
      -0.001
      -0.005
      -0.008
      -0.007
      -0.001
       0.009
       0.013
       0.008
      -0.001
      -0.006
      -0.005
      -0.002
       0.001
       0.000
      -0.003
      -0.006
      -0.004
       0.002
       0.008
       0.008
       0.004
       0.000
      -0.003
      -0.003
       0.000
       0.004
       0.006
       0.004
       0.001
       0.001
       0.006
       0.012
       0.018
       0.018
       0.010
      -0.002
      -0.009
      -0.006
       0.003
       0.007
       0.003
      -0.003
      -0.006
      -0.004
       0.001
       0.007
       0.009
       0.006
       0.001
      -0.003
      -0.006
      -0.011
      -0.014
      -0.011
      -0.004
       0.000
      -0.001
      -0.003
       0.000
       0.005
       0.007
       0.004
      -0.004
      -0.010
      -0.010
      -0.004
      -0.001
      -0.006
      -0.014
      -0.014
      -0.005
       0.006
       0.013
       0.013
       0.009
       0.003
      -0.001
      -0.003
      -0.003
      -0.004
      -0.003
       0.000
       0.005
       0.009
       0.014
       0.017
       0.018
       0.012
       0.003
      -0.004
      -0.007
      -0.008
      -0.007
      -0.004
       0.001
       0.003
       0.000
      -0.004
      -0.007
      -0.008
      -0.007
      -0.004
      -0.001
      -0.001
      -0.004
      -0.007
      -0.006
      -0.005
      -0.005
      -0.006
      -0.005
      -0.003
       0.002
       0.007
       0.010
       0.008
       0.004
       0.003
       0.004
       0.004
       0.000
      -0.005
      -0.008
      -0.004
       0.006
       0.014
       0.014
       0.008
       0.003
       0.005
       0.012
       0.014
       0.008
       0.001
      -0.001
       0.000
       0.001
      -0.001
      -0.002
      -0.003
      -0.002
       0.004
       0.011
       0.013
       0.008
       0.000
      -0.004
      -0.002
       0.004
       0.010
       0.010
       0.007
       0.003
       0.004
       0.009
       0.010
       0.004
      -0.005
      -0.010
      -0.007
       0.001
       0.006
       0.004
      -0.002
      -0.004
       0.001
       0.009
       0.014
       0.009
       0.002
      -0.003
      -0.007
      -0.011
      -0.014
      -0.013
      -0.010
      -0.009
      -0.010
      -0.011
      -0.011
      -0.009
      -0.005
      -0.001
      -0.001
      -0.003
      -0.002
       0.001
       0.004
       0.002
      -0.002
      -0.003
      -0.002
      -0.002
      -0.002
      -0.002
      -0.006
      -0.013
      -0.019
      -0.019
      -0.012
      -0.002
       0.002
       0.001
      -0.002
      -0.004
      -0.002
       0.000
      -0.004
      -0.010
      -0.014
      -0.011
      -0.004
       0.002
       0.006
       0.005
      -0.002
      -0.011
      -0.016
      -0.013
      -0.006
      -0.001
      -0.002
      -0.003
      -0.002
       0.000
       0.000
      -0.002
      -0.005
      -0.005
       0.000
       0.007
       0.009
       0.004
      -0.004
      -0.006
      -0.003
       0.001
       0.001
       0.000
      -0.001
      -0.002
      -0.002
      -0.001
       0.001
       0.000
      -0.001
      -0.001
       0.002
       0.004
       0.003
      -0.001
      -0.004
      -0.003
       0.003
       0.010
       0.012
       0.008
       0.002
      -0.001
       0.001
       0.003
       0.003
       0.004
       0.006
       0.007
       0.006
       0.003
      -0.002
      -0.005
      -0.002
       0.006
       0.014
       0.013
       0.004
      -0.003
      -0.003
       0.003
       0.011
       0.017
       0.016
       0.008
       0.000
      -0.002
       0.003
       0.006
       0.005
       0.005
       0.007
       0.009
       0.007
       0.002
      -0.001
      -0.002
      -0.002
      -0.001
      -0.001
      -0.002
      -0.003
      -0.002
       0.001
       0.002
       0.001
      -0.004
      -0.010
      -0.013
      -0.009
       0.001
       0.007
       0.003
      -0.007
      -0.010
      -0.004
       0.004
       0.007
       0.009
       0.010
       0.011
       0.011
       0.013
       0.014
       0.010
       0.003
      -0.003
      -0.003
       0.001
       0.004
       0.003
       0.002
       0.001
       0.002
       0.005
       0.008
       0.010
       0.008
       0.003
      -0.002
      -0.007
      -0.009
      -0.004
       0.003
       0.009
       0.013
       0.016
       0.017
       0.014
       0.008
       0.006
       0.012
       0.020
       0.023
       0.020
       0.013
       0.004
       0.001
       0.006
       0.014
       0.018
       0.015
       0.009
       0.007
       0.005
       0.003
       0.002
       0.006
       0.011
       0.013
       0.011
       0.008
       0.003
       0.001
       0.008
       0.019
       0.023
       0.012
      -0.009
      -0.029
      -0.040
      -0.041
      -0.034
      -0.023
      -0.019
      -0.028
      -0.048
      -0.064
      -0.060
      -0.023
       0.037
       0.085
       0.084
       0.028
      -0.043
      -0.071
      -0.023
       0.079
       0.169
       0.180
       0.094
      -0.032
      -0.105
      -0.079
       0.015
       0.090
       0.086
       0.007
      -0.086
      -0.129
      -0.109
      -0.063
      -0.029
      -0.015
       0.006
       0.053
       0.112
       0.142
       0.113
       0.038
      -0.032
      -0.046
       0.005
       0.085
       0.141
       0.130
       0.035
      -0.112
      -0.228
      -0.223
      -0.078
       0.111
       0.200
       0.119
      -0.050
      -0.145
      -0.083
       0.059
       0.129
       0.057
      -0.080
      -0.150
      -0.094
       0.035
       0.128
       0.130
       0.075
       0.039
       0.051
       0.061
       0.018
      -0.053
      -0.075
      -0.016
       0.062
       0.071
      -0.004
      -0.089
      -0.094
      -0.011
       0.076
       0.077
      -0.011
      -0.094
      -0.080
       0.020
       0.104
       0.090
      -0.007
      -0.103
      -0.130
      -0.079
       0.016
       0.111
       0.158
       0.120
       0.006
      -0.117
      -0.153
      -0.058
       0.112
       0.223
       0.171
      -0.024
      -0.217
      -0.245
      -0.080
       0.136
       0.206
       0.064
      -0.148
      -0.219
      -0.076
       0.144
       0.245
       0.158
      -0.006
      -0.085
      -0.018
       0.102
       0.125
      -0.007
      -0.198
      -0.279
      -0.159
       0.085
       0.264
       0.230
       0.011
      -0.204
      -0.233
      -0.069
       0.118
       0.164
       0.070
      -0.029
      -0.035
       0.026
       0.058
       0.012
      -0.069
      -0.100
      -0.039
       0.070
       0.133
       0.095
      -0.013
      -0.104
      -0.109
      -0.026
       0.090
       0.154
       0.098
      -0.071
      -0.243
      -0.269
      -0.095
       0.171
       0.324
       0.238
      -0.017
      -0.225
      -0.206
       0.012
       0.217
       0.207
      -0.012
      -0.228
      -0.237
      -0.049
       0.136
       0.134
      -0.038
      -0.194
      -0.178
      -0.013
       0.146
       0.182
       0.120
       0.056
       0.027
      -0.016
      -0.098
      -0.145
      -0.064
       0.114
       0.222
       0.124
      -0.118
      -0.285
      -0.213
       0.041
       0.265
       0.301
       0.175
       0.020
      -0.076
      -0.124
      -0.151
      -0.133
      -0.050
       0.050
       0.081
       0.019
      -0.058
      -0.064
       0.000
       0.065
       0.075
       0.049
       0.038
       0.064
       0.088
       0.052
      -0.056
      -0.170
      -0.191
      -0.074
       0.108
       0.208
       0.138
      -0.050
      -0.193
      -0.169
       0.004
       0.186
       0.239
       0.132
      -0.046
      -0.167
      -0.163
      -0.075
      -0.014
      -0.062
      -0.176
      -0.215
      -0.080
       0.165
       0.350
       0.361
       0.233
       0.072
      -0.061
      -0.163
      -0.225
      -0.221
      -0.148
      -0.053
       0.006
       0.007
      -0.021
      -0.032
      -0.002
       0.052
       0.095
       0.100
       0.057
      -0.003
      -0.021
       0.035
       0.112
       0.108
      -0.002
      -0.119
      -0.119
       0.000
       0.118
       0.122
       0.009
      -0.133
      -0.218
      -0.213
      -0.136
      -0.024
       0.088
       0.167
       0.183
       0.142
       0.092
       0.078
       0.085
       0.038
      -0.103
      -0.274
      -0.338
      -0.215
       0.031
       0.234
       0.259
       0.110
      -0.085
      -0.180
      -0.128
      -0.004
       0.089
       0.122
       0.137
       0.163
       0.167
       0.098
      -0.037
      -0.176
      -0.249
      -0.225
      -0.122
       0.003
       0.092
       0.120
       0.095
       0.019
      -0.107
      -0.209
      -0.154
       0.101
       0.389
       0.440
       0.158
      -0.246
      -0.425
      -0.223
       0.163
       0.382
       0.256
      -0.076
      -0.329
      -0.340
      -0.163
       0.051
       0.198
       0.251
       0.214
       0.094
      -0.066
      -0.182
      -0.187
      -0.096
       0.004
       0.031
      -0.026
      -0.098
      -0.093
       0.030
       0.218
       0.339
       0.283
       0.071
      -0.145
      -0.227
      -0.174
      -0.085
      -0.021
       0.033
       0.089
       0.103
       0.036
      -0.070
      -0.114
      -0.037
       0.112
       0.220
       0.209
       0.093
      -0.049
      -0.140
      -0.160
      -0.135
      -0.095
      -0.036
       0.060
       0.191
       0.298
       0.284
       0.102
      -0.171
      -0.355
      -0.317
      -0.100
       0.109
       0.151
       0.024
      -0.136
      -0.172
      -0.026
       0.215
       0.369
       0.300
       0.036
      -0.227
      -0.280
      -0.086
       0.174
       0.265
       0.117
      -0.131
      -0.277
      -0.232
      -0.058
       0.108
       0.161
       0.095
      -0.002
      -0.025
       0.052
       0.156
       0.174
       0.058
      -0.120
      -0.206
      -0.086
       0.201
       0.450
       0.434
       0.107
      -0.334
      -0.606
      -0.563
      -0.276
       0.064
       0.277
       0.280
       0.104
      -0.112
      -0.194
      -0.050
       0.238
       0.459
       0.422
       0.104
      -0.301
      -0.505
      -0.367
      -0.019
       0.257
       0.286
       0.133
      -0.014
      -0.048
      -0.017
      -0.027
      -0.114
      -0.195
      -0.137
       0.099
       0.355
       0.372
       0.075
      -0.298
      -0.391
      -0.095
       0.334
       0.513
       0.278
      -0.179
      -0.494
      -0.432
      -0.075
       0.270
       0.322
       0.055
      -0.296
      -0.434
      -0.229
       0.188
       0.543
       0.620
       0.406
       0.055
      -0.259
      -0.447
      -0.486
      -0.381
      -0.149
       0.134
       0.335
       0.330
       0.107
      -0.194
      -0.365
      -0.279
       0.019
       0.348
       0.534
       0.490
       0.230
      -0.148
      -0.464
      -0.534
      -0.297
       0.095
       0.370
       0.358
       0.118
      -0.130
      -0.207
      -0.119
      -0.017
      -0.035
      -0.159
      -0.242
      -0.141
       0.148
       0.456
       0.551
       0.335
      -0.035
      -0.277
      -0.238
      -0.036
       0.075
      -0.035
      -0.251
      -0.336
      -0.155
       0.199
       0.455
       0.379
      -0.005
      -0.400
      -0.470
      -0.131
       0.367
       0.635
       0.447
      -0.070
      -0.534
      -0.615
      -0.289
       0.173
       0.451
       0.406
       0.138
      -0.126
      -0.198
      -0.049
       0.188
       0.315
       0.200
      -0.131
      -0.484
      -0.592
      -0.313
       0.209
       0.588
       0.500
      -0.004
      -0.504
      -0.576
      -0.167
       0.389
       0.692
       0.590
       0.219
      -0.180
      -0.442
      -0.510
      -0.385
      -0.117
       0.168
       0.317
       0.266
       0.087
      -0.081
      -0.143
      -0.107
      -0.051
      -0.036
      -0.034
       0.036
       0.198
       0.347
       0.324
       0.073
      -0.288
      -0.529
      -0.460
      -0.097
       0.304
       0.420
       0.157
      -0.270
      -0.538
      -0.483
      -0.162
       0.262
       0.618
       0.771
       0.651
       0.295
      -0.153
      -0.489
      -0.557
      -0.363
      -0.094
       0.058
       0.069
       0.054
       0.070
       0.044
      -0.102
      -0.296
      -0.364
      -0.201
       0.131
       0.455
       0.603
       0.509
       0.250
      -0.016
      -0.175
      -0.247
      -0.326
      -0.435
      -0.484
      -0.376
      -0.133
       0.112
       0.234
       0.215
       0.130
       0.075
       0.105
       0.214
       0.347
       0.417
       0.332
       0.059
      -0.308
      -0.568
      -0.572
      -0.359
      -0.091
       0.145
       0.406
       0.730
       0.994
       1.014
       0.786
       0.539
       0.506
       0.613
       0.457
      -0.317
      -1.590
      -2.746
      -3.154
      -2.662
      -1.631
      -0.527
       0.451
       1.353
       2.175
       2.649
       2.389
       1.262
      -0.358
      -1.721
      -2.198
      -1.728
      -0.815
      -0.063
       0.281
       0.372
       0.479
       0.694
       0.908
       0.987
       0.940
       0.899
       0.931
       0.908
       0.611
      -0.025
      -0.781
      -1.286
      -1.297
      -0.896
      -0.440
      -0.293
      -0.526
      -0.806
      -0.642
       0.147
       1.146
       1.594
       1.027
      -0.261
      -1.386
      -1.566
      -0.702
       0.634
       1.698
       2.070
       1.761
       1.029
       0.179
      -0.531
      -0.938
      -1.043
      -1.012
      -1.029
      -1.115
      -1.114
      -0.865
      -0.339
       0.374
       1.120
       1.669
       1.747
       1.223
       0.313
      -0.483
      -0.756
      -0.532
      -0.237
      -0.331
      -0.921
      -1.643
      -1.889
      -1.255
       0.059
       1.282
       1.630
       0.975
      -0.031
      -0.509
      -0.088
       0.853
       1.594
       1.663
       1.102
       0.283
      -0.409
      -0.757
      -0.744
      -0.514
      -0.254
      -0.045
       0.146
       0.314
       0.318
       0.032
      -0.426
      -0.698
      -0.505
       0.033
       0.413
       0.170
      -0.661
      -1.491
      -1.643
      -0.926
       0.226
       1.148
       1.453
       1.208
       0.743
       0.366
       0.187
       0.118
       0.036
      -0.064
      -0.106
      -0.118
      -0.265
      -0.612
      -0.933
      -0.882
      -0.385
       0.236
       0.591
       0.639
       0.684
       0.972
       1.348
       1.382
       0.818
      -0.140
      -0.975
      -1.271
      -0.985
      -0.409
       0.042
       0.056
      -0.388
      -0.985
      -1.295
      -1.045
      -0.294
       0.647
       1.395
       1.651
       1.277
       0.365
      -0.731
      -1.486
      -1.494
      -0.782
       0.153
       0.708
       0.647
       0.260
       0.042
       0.211
       0.558
       0.733
       0.628
       0.424
       0.313
       0.272
       0.122
      -0.253
      -0.775
      -1.202
      -1.264
      -0.841
      -0.111
       0.502
       0.621
       0.254
      -0.172
      -0.202
       0.209
       0.642
       0.621
       0.066
      -0.614
      -0.867
      -0.471
       0.271
       0.791
       0.736
       0.255
      -0.197
      -0.298
      -0.139
      -0.059
      -0.241
      -0.516
      -0.591
      -0.413
      -0.205
      -0.164
      -0.217
      -0.126
       0.221
       0.687
       1.033
       1.132
       0.993
       0.667
       0.198
      -0.307
      -0.652
      -0.687
      -0.466
      -0.189
      -0.007
       0.082
       0.144
       0.191
       0.165
       0.031
      -0.172
      -0.350
      -0.404
      -0.268
       0.040
       0.381
       0.545
       0.418
       0.103
      -0.146
      -0.130
       0.115
       0.320
       0.189
      -0.333
      -0.953
      -1.254
      -1.066
      -0.611
      -0.238
      -0.054
       0.113
       0.423
       0.800
       1.022
       0.970
       0.712
       0.374
       0.025
      -0.300
      -0.526
      -0.561
      -0.367
       0.001
       0.394
       0.610
       0.492
       0.083
      -0.334
      -0.436
      -0.166
       0.176
       0.215
      -0.110
      -0.474
      -0.517
      -0.221
       0.093
       0.131
      -0.061
      -0.190
      -0.073
       0.165
       0.264
       0.128
      -0.112
      -0.257
      -0.196
       0.036
       0.298
       0.438
       0.413
       0.302
       0.195
       0.109
       0.031
      -0.029
      -0.077
      -0.170
      -0.346
      -0.523
      -0.550
      -0.369
      -0.091
       0.114
       0.176
       0.165
       0.192
       0.292
       0.394
       0.370
       0.135
      -0.261
      -0.623
      -0.726
      -0.499
      -0.085
       0.290
       0.491
       0.523
       0.459
       0.359
       0.250
       0.155
       0.089
       0.031
      -0.083
      -0.314
      -0.633
      -0.908
      -0.993
      -0.835
      -0.456
       0.090
       0.701
       1.167
       1.229
       0.792
       0.076
      -0.477
      -0.544
      -0.208
       0.121
       0.113
      -0.147
      -0.278
      -0.046
       0.352
       0.491
       0.164
      -0.396
      -0.721
      -0.530
       0.023
       0.504
       0.589
       0.318
      -0.024
      -0.197
      -0.178
      -0.088
      -0.044
      -0.055
      -0.036
       0.068
       0.183
       0.150
      -0.093
      -0.392
      -0.490
      -0.271
       0.099
       0.310
       0.199
      -0.077
      -0.195
      -0.010
       0.285
       0.370
       0.159
      -0.120
      -0.194
      -0.038
       0.144
       0.170
       0.062
      -0.026
       0.013
       0.134
       0.224
       0.227
       0.170
       0.062
      -0.132
      -0.412
      -0.665
      -0.705
      -0.426
       0.078
       0.528
       0.646
       0.380
      -0.009
      -0.129
       0.177
       0.632
       0.740
       0.262
      -0.546
      -1.165
      -1.252
      -0.843
      -0.212
       0.365
       0.719
       0.785
       0.591
       0.256
      -0.062
      -0.259
      -0.318
      -0.255
      -0.088
       0.124
       0.260
       0.225
       0.049
      -0.128
      -0.201
      -0.179
      -0.123
      -0.037
       0.115
       0.292
       0.340
       0.133
      -0.263
      -0.596
      -0.621
      -0.290
       0.205
       0.560
       0.557
       0.214
      -0.203
      -0.383
      -0.229
       0.073
       0.250
       0.187
      -0.022
      -0.214
      -0.293
      -0.258
      -0.145
       0.022
