Origin Time       24/2/2010 19:20:52	
Lat.              28.6 N	
Long.             76.9 E	
Depth (Km)         17.0
Magnitude         2.5
 Region           Rohtak                                                           
 Above details taken from IMD 
   
Station Code      IGN
Station Lat.       28.492
Station Long.      77.203
Station Height(m)  263.0
Site Class        A   Vs30 between 700 m/sec to 1400 m/sec * 
Record Time       24.02.2010 19:19:55.834
Sampling Rate     200. Hz
 Record Duration   79.995 Sec.
 Direction         Vert. (Up positive)
Max. Acceleration     -1.301 cm/sec**2
     
  * For reference see Site Classification link of website 
     
 Base Line Corrected and Low Pass Filtered (Cut Off at 35 Hz) Time History
 Acceleration data in cm/sec**2
    
[...]
      -0.018
       0.010
       0.006
      -0.028
      -0.060
      -0.052
       0.001
       0.062
       0.082
       0.046
      -0.014
      -0.052
      -0.043
      -0.001
       0.038
       0.043
       0.012
      -0.027
      -0.041
      -0.019
       0.014
       0.028
       0.014
      -0.005
      -0.004
       0.014
       0.028
       0.026
       0.020
       0.028
       0.045
       0.044
       0.013
      -0.033
      -0.060
      -0.053
      -0.020
       0.020
       0.053
       0.070
       0.067
       0.045
       0.008
      -0.032
      -0.062
      -0.073
      -0.059
      -0.029
       0.000
       0.014
       0.009
      -0.003
      -0.014
      -0.020
      -0.023
      -0.015
       0.010
       0.049
       0.080
       0.081
       0.049
       0.001
      -0.030
      -0.031
      -0.011
       0.007
       0.018
       0.029
       0.042
       0.050
       0.044
       0.031
       0.020
       0.017
       0.018
       0.020
       0.014
      -0.003
      -0.025
      -0.038
      -0.032
      -0.013
       0.008
       0.023
       0.025
       0.018
       0.005
      -0.008
      -0.027
      -0.052
      -0.079
      -0.092
      -0.081
      -0.050
      -0.017
       0.000
      -0.015
      -0.052
      -0.080
      -0.067
      -0.012
       0.048
       0.073
       0.048
      -0.005
      -0.050
      -0.068
      -0.063
      -0.054
      -0.048
      -0.033
       0.008
       0.066
       0.111
       0.112
       0.069
       0.008
      -0.041
      -0.058
      -0.035
       0.010
       0.046
       0.051
       0.032
       0.015
       0.017
       0.028
       0.022
      -0.012
      -0.058
      -0.086
      -0.075
      -0.036
       0.003
       0.020
       0.012
      -0.006
      -0.018
      -0.017
      -0.004
       0.013
       0.026
       0.029
       0.021
       0.009
       0.003
       0.012
       0.030
       0.038
       0.027
      -0.002
      -0.034
      -0.055
      -0.056
      -0.039
      -0.019
      -0.016
      -0.033
      -0.046
      -0.031
       0.005
       0.022
      -0.007
      -0.063
      -0.095
      -0.072
      -0.007
       0.053
       0.074
       0.057
       0.024
      -0.004
      -0.018
      -0.021
      -0.017
      -0.008
       0.000
       0.000
      -0.009
      -0.025
      -0.043
      -0.055
      -0.049
      -0.020
       0.024
       0.057
       0.060
       0.036
       0.004
      -0.020
      -0.024
      -0.008
       0.024
       0.058
       0.081
       0.088
       0.082
       0.065
       0.038
       0.007
      -0.021
      -0.043
      -0.056
      -0.058
      -0.049
      -0.036
      -0.022
      -0.005
       0.016
       0.035
       0.042
       0.034
       0.016
      -0.003
      -0.012
      -0.007
       0.007
       0.016
       0.007
      -0.012
      -0.023
      -0.010
       0.021
       0.046
       0.045
       0.021
      -0.003
      -0.013
      -0.008
      -0.002
      -0.003
      -0.008
      -0.010
      -0.012
      -0.025
      -0.055
      -0.094
      -0.116
      -0.100
      -0.048
       0.014
       0.049
       0.037
      -0.007
      -0.052
      -0.068
      -0.052
      -0.025
      -0.012
      -0.022
      -0.039
      -0.039
      -0.017
       0.007
       0.012
       0.000
      -0.008
       0.010
       0.047
       0.077
       0.075
       0.036
      -0.022
      -0.067
      -0.080
      -0.063
      -0.039
      -0.033
      -0.050
      -0.076
      -0.087
      -0.069
      -0.025
       0.023
       0.046
       0.032
      -0.014
      -0.070
      -0.108
      -0.114
      -0.091
      -0.057
      -0.029
      -0.014
      -0.007
       0.000
       0.007
       0.001
      -0.025
      -0.065
      -0.095
      -0.095
      -0.063
      -0.012
       0.036
       0.062
       0.064
       0.046
       0.017
      -0.013
      -0.034
      -0.036
      -0.020
      -0.004
      -0.005
      -0.027
      -0.058
      -0.083
      -0.093
      -0.083
      -0.057
      -0.022
       0.002
      -0.002
      -0.034
      -0.070
      -0.078
      -0.051
      -0.007
       0.017
       0.002
      -0.034
      -0.055
      -0.039
      -0.002
       0.019
       0.000
      -0.050
      -0.096
      -0.104
      -0.070
      -0.020
       0.013
       0.010
      -0.025
      -0.074
      -0.115
      -0.126
      -0.103
      -0.061
      -0.030
      -0.020
      -0.011
       0.027
       0.096
       0.152
       0.147
       0.080
       0.005
      -0.017
       0.028
       0.096
       0.120
       0.059
      -0.069
      -0.196
      -0.241
      -0.167
      -0.011
       0.123
       0.130
      -0.014
      -0.220
      -0.340
      -0.281
      -0.081
       0.122
       0.200
       0.137
       0.034
       0.000
       0.055
       0.122
       0.116
       0.038
      -0.025
       0.003
       0.096
       0.152
       0.099
      -0.042
      -0.177
      -0.234
      -0.204
      -0.132
      -0.061
      -0.010
       0.013
       0.000
      -0.042
      -0.075
      -0.049
       0.043
       0.144
       0.181
       0.135
       0.059
       0.019
       0.011
      -0.032
      -0.148
      -0.267
      -0.265
      -0.095
       0.139
       0.277
       0.251
       0.129
       0.024
      -0.026
      -0.070
      -0.147
      -0.226
      -0.230
      -0.135
      -0.009
       0.043
      -0.013
      -0.106
      -0.122
      -0.018
       0.126
       0.179
       0.077
      -0.112
      -0.230
      -0.165
       0.038
       0.188
       0.114
      -0.156
      -0.384
      -0.339
      -0.022
       0.331
       0.466
       0.327
       0.051
      -0.176
      -0.248
      -0.170
      -0.027
       0.073
       0.065
      -0.027
      -0.110
      -0.107
      -0.015
       0.099
       0.165
       0.149
       0.059
      -0.059
      -0.124
      -0.077
       0.052
       0.143
       0.094
      -0.068
      -0.210
      -0.225
      -0.134
      -0.045
      -0.019
      -0.003
       0.079
       0.202
       0.242
       0.106
      -0.141
      -0.312
      -0.268
      -0.052
       0.145
       0.160
       0.002
      -0.156
      -0.146
       0.026
       0.185
       0.158
      -0.044
      -0.230
      -0.209
       0.027
       0.281
       0.325
       0.105
      -0.203
      -0.350
      -0.231
       0.031
       0.205
       0.160
      -0.043
      -0.225
      -0.243
      -0.098
       0.095
       0.204
       0.165
       0.023
      -0.112
      -0.143
      -0.059
       0.058
       0.112
       0.082
       0.030
       0.027
       0.075
       0.111
       0.089
       0.033
      -0.001
       0.007
       0.033
       0.047
       0.055
       0.079
       0.112
       0.100
       0.001
      -0.140
      -0.202
      -0.101
       0.112
       0.281
       0.279
       0.105
      -0.130
      -0.268
      -0.197
       0.054
       0.297
       0.313
       0.060
      -0.251
      -0.344
      -0.146
       0.147
       0.269
       0.145
      -0.068
      -0.156
      -0.058
       0.117
       0.231
       0.243
       0.200
       0.140
       0.053
      -0.068
      -0.186
      -0.246
      -0.217
      -0.117
       0.007
       0.100
       0.131
       0.103
       0.048
      -0.002
      -0.042
      -0.089
      -0.151
      -0.202
      -0.191
      -0.087
       0.087
       0.259
       0.344
       0.294
       0.129
      -0.070
      -0.208
      -0.230
      -0.153
      -0.050
      -0.001
      -0.038
      -0.118
      -0.157
      -0.108
      -0.008
       0.066
       0.080
       0.074
       0.094
       0.119
       0.086
      -0.025
      -0.143
      -0.154
      -0.014
       0.182
       0.264
       0.149
      -0.067
      -0.197
      -0.151
      -0.026
       0.004
      -0.123
      -0.268
      -0.224
       0.068
       0.435
       0.615
       0.486
       0.163
      -0.124
      -0.232
      -0.190
      -0.119
      -0.094
      -0.095
      -0.067
       0.006
       0.086
       0.134
       0.151
       0.157
       0.129
       0.010
      -0.202
      -0.381
      -0.342
      -0.035
       0.354
       0.521
       0.315
      -0.120
      -0.468
      -0.504
      -0.247
       0.097
       0.312
       0.309
       0.144
      -0.040
      -0.116
      -0.067
       0.007
      -0.010
      -0.128
      -0.226
      -0.176
       0.025
       0.233
       0.297
       0.203
       0.074
       0.037
       0.091
       0.119
       0.016
      -0.184
      -0.327
      -0.278
      -0.052
       0.190
       0.273
       0.150
      -0.069
      -0.212
      -0.192
      -0.064
       0.057
       0.107
       0.106
       0.096
       0.077
       0.022
      -0.061
      -0.102
      -0.027
       0.135
       0.249
       0.193
       0.004
      -0.137
      -0.075
       0.152
       0.345
       0.320
       0.071
      -0.229
      -0.368
      -0.257
       0.010
       0.240
       0.300
       0.200
       0.045
      -0.067
      -0.102
      -0.072
      -0.005
       0.066
       0.107
       0.106
       0.076
       0.045
       0.017
      -0.031
      -0.115
      -0.201
      -0.228
      -0.159
      -0.017
       0.133
       0.222
       0.204
       0.078
      -0.093
      -0.213
      -0.213
      -0.113
      -0.005
       0.043
       0.060
       0.134
       0.267
       0.333
       0.201
      -0.099
      -0.371
      -0.427
      -0.247
       0.043
       0.306
       0.465
       0.460
       0.240
      -0.156
      -0.540
      -0.670
      -0.457
      -0.056
       0.269
       0.385
       0.366
       0.339
       0.306
       0.147
      -0.187
      -0.554
      -0.708
      -0.519
      -0.080
       0.356
       0.556
       0.446
       0.129
      -0.194
      -0.339
      -0.242
       0.011
       0.248
       0.344
       0.293
       0.172
       0.051
      -0.052
      -0.137
      -0.197
      -0.218
      -0.194
      -0.129
      -0.021
       0.119
       0.249
       0.292
       0.190
      -0.027
      -0.234
      -0.292
      -0.164
       0.052
       0.199
       0.189
       0.057
      -0.078
      -0.126
      -0.093
      -0.058
      -0.068
      -0.067
       0.032
       0.202
       0.284
       0.137
      -0.182
      -0.423
      -0.360
      -0.011
       0.359
       0.457
       0.217
      -0.143
      -0.315
      -0.162
       0.168
       0.391
       0.344
       0.112
      -0.089
      -0.140
      -0.097
      -0.061
      -0.035
       0.061
       0.238
       0.368
       0.280
      -0.052
      -0.436
      -0.587
      -0.359
       0.127
       0.554
       0.647
       0.360
      -0.101
      -0.432
      -0.438
      -0.160
       0.154
       0.239
       0.035
      -0.261
      -0.366
      -0.169
       0.180
       0.413
       0.369
       0.103
      -0.185
      -0.284
      -0.116
       0.212
       0.467
       0.448
       0.132
      -0.311
      -0.623
      -0.622
      -0.320
       0.074
       0.307
       0.265
       0.052
      -0.115
      -0.085
       0.109
       0.284
       0.261
       0.028
      -0.233
      -0.308
      -0.134
       0.162
       0.382
       0.407
       0.246
      -0.019
      -0.287
      -0.465
      -0.476
      -0.290
       0.028
       0.312
       0.388
       0.203
      -0.125
      -0.397
      -0.461
      -0.300
      -0.008
       0.278
       0.460
       0.513
       0.457
       0.314
       0.095
      -0.159
      -0.342
      -0.334
      -0.126
       0.129
       0.223
       0.100
      -0.092
      -0.165
      -0.089
       0.003
       0.003
      -0.046
      -0.023
       0.098
       0.223
       0.265
       0.239
       0.191
       0.092
      -0.130
      -0.441
      -0.627
      -0.458
       0.050
       0.561
       0.687
       0.335
      -0.204
      -0.535
      -0.493
      -0.208
       0.080
       0.201
       0.098
      -0.188
      -0.497
      -0.585
      -0.296
       0.248
       0.659
       0.599
       0.119
      -0.352
      -0.417
      -0.101
       0.210
       0.200
      -0.063
      -0.265
      -0.214
       0.002
       0.172
       0.192
       0.113
       0.019
      -0.064
      -0.148
      -0.212
      -0.193
      -0.041
       0.200
       0.374
       0.324
       0.032
      -0.334
      -0.542
      -0.466
      -0.168
       0.172
       0.385
       0.416
       0.330
       0.227
       0.147
       0.052
      -0.088
      -0.225
      -0.270
      -0.189
      -0.060
       0.001
      -0.054
      -0.154
      -0.169
      -0.024
       0.220
       0.403
       0.397
       0.213
      -0.004
      -0.089
       0.024
       0.249
       0.395
       0.301
      -0.043
      -0.456
      -0.688
      -0.633
      -0.455
      -0.447
      -0.719
      -1.028
      -0.975
      -0.409
       0.389
       0.930
       0.948
       0.613
       0.340
       0.403
       0.713
       0.936
       0.797
       0.302
      -0.295
      -0.694
      -0.731
      -0.411
       0.136
       0.690
       1.007
       0.935
       0.510
      -0.076
      -0.615
      -0.986
      -1.142
      -1.059
      -0.746
      -0.316
       0.030
       0.142
       0.062
      -0.010
       0.090
       0.309
       0.437
       0.341
       0.149
       0.149
       0.480
       0.935
       1.089
       0.675
      -0.156
      -0.943
      -1.301
      -1.217
      -0.965
      -0.772
      -0.595
      -0.252
       0.291
       0.807
       0.984
       0.700
       0.135
      -0.336
      -0.377
       0.075
       0.717
       1.048
       0.761
       0.061
      -0.442
      -0.263
       0.470
       1.072
       0.916
       0.027
      -0.929
      -1.234
      -0.724
       0.130
       0.641
       0.444
      -0.272
      -0.954
      -1.097
      -0.580
       0.277
       0.943
       1.035
       0.567
      -0.089
      -0.491
      -0.428
      -0.027
       0.379
       0.487
       0.213
      -0.248
      -0.548
      -0.429
       0.066
       0.591
       0.755
       0.434
      -0.137
      -0.596
      -0.755
      -0.680
      -0.508
      -0.279
       0.022
       0.331
       0.531
       0.608
       0.681
       0.834
       0.957
       0.813
       0.298
      -0.409
      -0.948
      -1.066
      -0.823
      -0.511
      -0.365
      -0.359
      -0.290
      -0.025
       0.354
       0.641
       0.677
       0.474
       0.198
       0.050
       0.113
       0.287
       0.364
       0.209
      -0.112
      -0.383
      -0.405
      -0.165
       0.137
       0.224
      -0.036
      -0.513
      -0.899
      -0.936
      -0.580
      -0.020
       0.467
       0.683
       0.601
       0.355
       0.135
       0.081
       0.188
       0.304
       0.261
       0.029
      -0.254
      -0.403
      -0.353
      -0.204
      -0.114
      -0.151
      -0.236
      -0.237
      -0.118
       0.028
       0.084
       0.022
      -0.078
      -0.119
      -0.064
       0.042
       0.132
       0.173
       0.176
       0.163
       0.141
       0.116
       0.105
       0.137
       0.209
       0.276
       0.277
       0.183
       0.005
      -0.218
      -0.413
      -0.461
      -0.286
       0.034
       0.261
       0.185
      -0.176
      -0.556
      -0.666
      -0.413
       0.062
       0.531
       0.824
       0.856
       0.619
       0.185
      -0.281
      -0.585
      -0.625
      -0.460
      -0.264
      -0.175
      -0.178
      -0.134
       0.047
       0.273
       0.364
       0.253
       0.068
      -0.009
       0.092
       0.282
       0.417
       0.389
       0.166
      -0.199
      -0.563
      -0.746
      -0.653
      -0.341
       0.025
       0.285
       0.350
       0.220
      -0.009
      -0.170
      -0.123
       0.148
       0.517
       0.787
       0.796
       0.505
       0.039
      -0.357
      -0.469
      -0.288
      -0.039
       0.007
      -0.218
      -0.515
      -0.613
      -0.421
      -0.084
       0.175
       0.230
       0.115
      -0.055
      -0.178
      -0.226
      -0.220
      -0.175
      -0.077
       0.071
       0.204
       0.240
       0.161
       0.047
      -0.014
      -0.018
      -0.026
      -0.078
      -0.145
      -0.159
      -0.092
       0.028
       0.141
       0.204
       0.201
       0.125
       0.002
      -0.094
      -0.082
       0.036
       0.154
       0.157
       0.027
      -0.163
      -0.326
      -0.414
      -0.407
      -0.300
      -0.097
       0.169
       0.425
       0.572
       0.538
       0.332
       0.057
      -0.144
      -0.177
      -0.075
       0.037
       0.054
      -0.025
      -0.118
      -0.166
      -0.188
      -0.242
      -0.320
      -0.302
      -0.078
       0.291
       0.548
       0.459
       0.055
      -0.375
      -0.536
      -0.373
      -0.068
       0.153
       0.193
       0.110
       0.034
       0.042
       0.115
       0.164
       0.104
      -0.096
      -0.377
      -0.584
      -0.538
      -0.175
       0.335
       0.660
       0.545
       0.037
      -0.509
      -0.705
      -0.430
       0.086
       0.480
       0.545
       0.330
       0.039
      -0.137
      -0.129
      -0.011
       0.079
       0.043
      -0.109
      -0.268
      -0.299
      -0.144
       0.130
       0.369
       0.435
       0.297
       0.025
      -0.259
      -0.421
      -0.360
      -0.083
       0.265
       0.471
       0.410
       0.147
      -0.113
      -0.188
      -0.072
       0.075
       0.076
      -0.093
      -0.284
      -0.306
      -0.098
       0.220
       0.441
       0.426
       0.203
      -0.078
      -0.266
      -0.301
      -0.216
      -0.091
      -0.005
      -0.001
      -0.073
      -0.158
      -0.184
      -0.131
      -0.049
      -0.008
      -0.014
       0.007
       0.109
       0.240
       0.268
       0.120
      -0.111
      -0.225
      -0.096
       0.181
       0.360
       0.261
      -0.049
      -0.313
      -0.329
      -0.129
       0.072
       0.083
      -0.085
      -0.251
      -0.246
      -0.066
       0.134
       0.198
       0.102
      -0.051
      -0.151
      -0.161
      -0.100
       0.008
       0.145
       0.268
       0.316
       0.258
       0.127
      -0.017
      -0.121
      -0.160
      -0.148
      -0.133
      -0.156
      -0.201
      -0.183
      -0.026
       0.247
       0.492
       0.530
       0.289
      -0.107
      -0.402
      -0.415
      -0.192
       0.058
       0.169
       0.153
       0.123
       0.124
       0.090
      -0.050
      -0.247
      -0.364
      -0.309
      -0.131
       0.039
       0.107
       0.077
       0.012
      -0.037
      -0.059
      -0.065
      -0.062
      -0.050
      -0.029
      -0.012
      -0.023
      -0.066
      -0.110
      -0.110
      -0.056
       0.018
       0.076
       0.112
       0.144
       0.181
       0.211
       0.211
       0.174
       0.104
       0.000
      -0.126
      -0.229
      -0.254
      -0.186
      -0.063
       0.069
       0.181
       0.255
       0.265
       0.184
       0.022
      -0.152
      -0.238
      -0.187
      -0.040
