Origin Time       16/4/2013 10:44:11	 UTC
Lat.              28.0 N	
Long.             62.1 E	
Depth (Km)         46.0
Magnitude         7.8
 Region           Iran-Pakistan-Border-Region                                      
 Above details taken from IMD 
    
Station Code      IGN
Station Lat.       28.492  N
Station Long.      77.203  E
Station Height(m)  263.0
Site Class        A   Vs30 between 700 m/sec to 1400 m/sec * 
Record Time       16.04.2013 10:48:51.999 UTC
Sampling Rate     200. Hz
 Record Duration   84.910 Sec.
 Direction         N-S (N positive)
Max. Acceleration     -2.996 cm/sec**2
     
  * For reference see Site Classification link of website 
     
 Base Line Corrected and Low Pass Filtered (Cut Off at 35 Hz) Time History
 Acceleration data in cm/sec**2
    
[...]
       0.539
       0.528
       0.519
       0.523
       0.538
       0.552
       0.552
       0.529
       0.475
       0.385
       0.272
       0.152
       0.040
      -0.053
      -0.113
      -0.129
      -0.107
      -0.068
      -0.021
       0.033
       0.099
       0.180
       0.272
       0.367
       0.441
       0.482
       0.495
       0.492
       0.473
       0.426
       0.351
       0.274
       0.217
       0.180
       0.150
       0.112
       0.061
      -0.008
      -0.099
      -0.210
      -0.335
      -0.465
      -0.578
      -0.650
      -0.671
      -0.662
      -0.652
      -0.653
      -0.657
      -0.645
      -0.607
      -0.539
      -0.455
      -0.374
      -0.309
      -0.255
      -0.207
      -0.167
      -0.139
      -0.113
      -0.070
      -0.001
       0.095
       0.205
       0.310
       0.385
       0.412
       0.391
       0.334
       0.254
       0.157
       0.051
      -0.054
      -0.162
      -0.279
      -0.401
      -0.506
      -0.574
      -0.591
      -0.551
      -0.452
      -0.304
      -0.132
       0.031
       0.158
       0.242
       0.288
       0.308
       0.310
       0.291
       0.242
       0.174
       0.112
       0.081
       0.082
       0.112
       0.171
       0.259
       0.363
       0.451
       0.494
       0.482
       0.426
       0.351
       0.277
       0.206
       0.129
       0.040
      -0.051
      -0.123
      -0.168
      -0.196
      -0.221
      -0.247
      -0.267
      -0.267
      -0.246
      -0.216
      -0.203
      -0.220
      -0.264
      -0.317
      -0.364
      -0.393
      -0.398
      -0.386
      -0.389
      -0.432
      -0.506
      -0.571
      -0.590
      -0.555
      -0.486
      -0.406
      -0.327
      -0.250
      -0.163
      -0.065
       0.026
       0.084
       0.101
       0.102
       0.113
       0.132
       0.134
       0.099
       0.029
      -0.058
      -0.132
      -0.171
      -0.167
      -0.133
      -0.081
      -0.012
       0.075
       0.164
       0.242
       0.306
       0.369
       0.430
       0.477
       0.495
       0.484
       0.451
       0.403
       0.341
       0.264
       0.180
       0.105
       0.059
       0.041
       0.033
       0.022
       0.021
       0.052
       0.119
       0.199
       0.273
       0.340
       0.416
       0.509
       0.608
       0.678
       0.687
       0.631
       0.546
       0.472
       0.420
       0.371
       0.308
       0.244
       0.205
       0.206
       0.249
       0.317
       0.384
       0.425
       0.426
       0.388
       0.314
       0.207
       0.086
      -0.023
      -0.101
      -0.154
      -0.202
      -0.253
      -0.305
      -0.346
      -0.358
      -0.321
      -0.230
      -0.112
      -0.005
       0.073
       0.131
       0.173
       0.187
       0.161
       0.097
       0.013
      -0.075
      -0.160
      -0.247
      -0.331
      -0.398
      -0.425
      -0.407
      -0.364
      -0.319
      -0.272
      -0.208
      -0.129
      -0.059
      -0.026
      -0.035
      -0.079
      -0.144
      -0.216
      -0.281
      -0.328
      -0.358
      -0.380
      -0.403
      -0.435
      -0.471
      -0.497
      -0.495
      -0.465
      -0.421
      -0.378
      -0.342
      -0.312
      -0.280
      -0.237
      -0.182
      -0.129
      -0.103
      -0.110
      -0.137
      -0.175
      -0.226
      -0.300
      -0.389
      -0.468
      -0.513
      -0.509
      -0.446
      -0.328
      -0.168
       0.012
       0.191
       0.350
       0.469
       0.542
       0.578
       0.593
       0.586
       0.550
       0.486
       0.410
       0.336
       0.273
       0.230
       0.207
       0.194
       0.174
       0.142
       0.108
       0.078
       0.048
       0.018
      -0.019
      -0.070
      -0.151
      -0.264
      -0.391
      -0.506
      -0.589
      -0.630
      -0.631
      -0.608
      -0.573
      -0.529
      -0.464
      -0.373
      -0.257
      -0.120
       0.023
       0.130
       0.151
       0.072
      -0.065
      -0.195
      -0.274
      -0.297
      -0.279
      -0.241
      -0.203
      -0.167
      -0.123
      -0.064
       0.000
       0.052
       0.080
       0.084
       0.062
       0.016
      -0.037
      -0.081
      -0.117
      -0.153
      -0.187
      -0.214
      -0.229
      -0.229
      -0.200
      -0.121
      -0.003
       0.121
       0.227
       0.314
       0.398
       0.482
       0.556
       0.610
       0.631
       0.612
       0.565
       0.513
       0.459
       0.388
       0.285
       0.167
       0.064
      -0.006
      -0.037
      -0.034
      -0.002
       0.045
       0.093
       0.132
       0.146
       0.114
       0.032
      -0.078
      -0.181
      -0.259
      -0.310
      -0.335
      -0.332
      -0.306
      -0.253
      -0.166
      -0.040
       0.101
       0.224
       0.316
       0.382
       0.421
       0.424
       0.387
       0.327
       0.273
       0.249
       0.263
       0.304
       0.353
       0.399
       0.451
       0.525
       0.620
       0.708
       0.752
       0.737
       0.674
       0.593
       0.530
       0.495
       0.469
       0.411
       0.290
       0.109
      -0.099
      -0.276
      -0.375
      -0.383
      -0.343
      -0.325
      -0.372
      -0.484
      -0.634
      -0.797
      -0.955
      -1.097
      -1.220
      -1.322
      -1.391
      -1.411
      -1.383
      -1.328
      -1.275
      -1.234
      -1.188
      -1.111
      -0.989
      -0.831
      -0.673
      -0.550
      -0.470
      -0.403
      -0.319
      -0.219
      -0.125
      -0.054
      -0.007
       0.021
       0.033
       0.031
       0.010
      -0.032
      -0.082
      -0.112
      -0.101
      -0.054
      -0.002
       0.029
       0.034
       0.025
       0.015
       0.004
      -0.009
      -0.041
      -0.111
      -0.222
      -0.337
      -0.402
      -0.384
      -0.303
      -0.201
      -0.103
      -0.003
       0.112
       0.242
       0.377
       0.514
       0.655
       0.794
       0.910
       0.974
       0.965
       0.879
       0.727
       0.538
       0.353
       0.202
       0.095
       0.033
       0.020
       0.065
       0.164
       0.296
       0.439
       0.577
       0.705
       0.817
       0.906
       0.957
       0.947
       0.849
       0.664
       0.435
       0.218
       0.054
      -0.054
      -0.129
      -0.193
      -0.257
      -0.311
      -0.340
      -0.348
      -0.349
      -0.353
      -0.356
      -0.357
      -0.370
      -0.410
      -0.477
      -0.553
      -0.626
      -0.688
      -0.728
      -0.739
      -0.731
      -0.714
      -0.684
      -0.619
      -0.506
      -0.349
      -0.158
       0.048
       0.245
       0.415
       0.561
       0.695
       0.811
       0.886
       0.910
       0.895
       0.852
       0.786
       0.712
       0.655
       0.631
       0.633
       0.650
       0.681
       0.721
       0.744
       0.724
       0.656
       0.549
       0.418
       0.287
       0.183
       0.117
       0.072
       0.030
       0.007
       0.029
       0.095
       0.168
       0.214
       0.228
       0.224
       0.210
       0.188
       0.164
       0.145
       0.139
       0.147
       0.170
       0.206
       0.252
       0.306
       0.365
       0.428
       0.481
       0.508
       0.498
       0.452
       0.381
       0.298
       0.202
       0.087
      -0.045
      -0.171
      -0.259
      -0.297
      -0.297
      -0.271
      -0.215
      -0.117
       0.023
       0.183
       0.331
       0.443
       0.503
       0.510
       0.473
       0.397
       0.287
       0.152
       0.019
      -0.089
      -0.169
      -0.240
      -0.310
      -0.369
      -0.393
      -0.365
      -0.285
      -0.181
      -0.089
      -0.028
       0.012
       0.044
       0.057
       0.026
      -0.060
      -0.185
      -0.325
      -0.463
      -0.587
      -0.689
      -0.774
      -0.853
      -0.925
      -0.974
      -0.983
      -0.951
      -0.887
      -0.801
      -0.715
      -0.652
      -0.622
      -0.613
      -0.604
      -0.584
      -0.556
      -0.520
      -0.465
      -0.375
      -0.250
      -0.116
      -0.010
       0.047
       0.071
       0.097
       0.146
       0.202
       0.241
       0.265
       0.304
       0.382
       0.489
       0.592
       0.660
       0.669
       0.618
       0.527
       0.419
       0.301
       0.159
      -0.013
      -0.201
      -0.380
      -0.534
      -0.655
      -0.746
      -0.818
      -0.886
      -0.949
      -0.985
      -0.966
      -0.875
      -0.715
      -0.507
      -0.289
      -0.105
       0.019
       0.088
       0.121
       0.121
       0.077
      -0.022
      -0.169
      -0.329
      -0.456
      -0.513
      -0.494
      -0.425
      -0.339
      -0.257
      -0.186
      -0.122
      -0.063
      -0.015
       0.008
      -0.012
      -0.077
      -0.178
      -0.298
      -0.418
      -0.514
      -0.557
      -0.525
      -0.426
      -0.285
      -0.118
       0.080
       0.314
       0.569
       0.814
       1.018
       1.168
       1.270
       1.333
       1.355
       1.316
       1.210
       1.064
       0.928
       0.833
       0.781
       0.765
       0.785
       0.834
       0.879
       0.867
       0.760
       0.557
       0.289
       0.009
      -0.249
      -0.483
      -0.708
      -0.917
      -1.078
      -1.162
      -1.174
      -1.135
      -1.067
      -0.987
      -0.912
      -0.849
      -0.786
      -0.715
      -0.648
      -0.612
      -0.612
      -0.623
      -0.608
      -0.536
      -0.396
      -0.208
      -0.006
       0.189
       0.384
       0.591
       0.804
       0.999
       1.167
       1.311
       1.433
       1.520
       1.561
       1.558
       1.526
       1.481
       1.439
       1.414
       1.412
       1.429
       1.458
       1.490
       1.505
       1.465
       1.329
       1.073
       0.706
       0.264
      -0.193
      -0.607
      -0.941
      -1.186
      -1.345
      -1.423
      -1.431
      -1.393
      -1.330
      -1.249
      -1.153
      -1.064
      -1.013
      -1.009
      -1.017
      -0.987
      -0.905
      -0.805
      -0.732
      -0.693
      -0.641
      -0.522
      -0.326
      -0.093
       0.124
       0.304
       0.462
       0.616
       0.764
       0.884
       0.959
       0.992
       1.006
       1.028
       1.069
       1.129
       1.208
       1.313
       1.439
       1.562
       1.648
       1.687
       1.692
       1.683
       1.661
       1.611
       1.518
       1.385
       1.222
       1.037
       0.824
       0.575
       0.300
       0.036
      -0.169
      -0.301
      -0.388
      -0.473
      -0.579
      -0.705
      -0.837
      -0.963
      -1.073
      -1.173
      -1.280
      -1.402
      -1.533
      -1.672
      -1.829
      -2.006
      -2.179
      -2.317
      -2.406
      -2.451
      -2.455
      -2.416
      -2.334
      -2.201
      -2.003
      -1.729
      -1.394
      -1.028
      -0.663
      -0.320
      -0.008
       0.266
       0.498
       0.677
       0.789
       0.825
       0.800
       0.745
       0.671
       0.564
       0.405
       0.192
      -0.059
      -0.327
      -0.587
      -0.816
      -0.990
      -1.094
      -1.122
      -1.085
      -1.015
      -0.944
      -0.868
      -0.762
      -0.611
      -0.440
      -0.286
      -0.166
      -0.067
       0.034
       0.155
       0.302
       0.469
       0.646
       0.827
       1.013
       1.194
       1.346
       1.447
       1.499
       1.515
       1.499
       1.448
       1.354
       1.208
       1.001
       0.739
       0.459
       0.199
      -0.023
      -0.214
      -0.396
      -0.590
      -0.811
      -1.056
      -1.296
      -1.504
      -1.671
      -1.802
      -1.884
      -1.894
      -1.813
      -1.642
      -1.396
      -1.105
      -0.813
      -0.572
      -0.413
      -0.332
      -0.304
      -0.292
      -0.253
      -0.160
      -0.013
       0.154
       0.312
       0.457
       0.601
       0.750
       0.898
       1.035
       1.151
       1.236
       1.286
       1.301
       1.272
       1.187
       1.044
       0.857
       0.653
       0.458
       0.309
       0.246
       0.281
       0.386
       0.510
       0.616
       0.704
       0.776
       0.821
       0.810
       0.721
       0.565
       0.378
       0.205
       0.072
      -0.026
      -0.104
      -0.168
      -0.213
      -0.234
      -0.230
      -0.204
      -0.168
      -0.143
      -0.136
      -0.132
      -0.110
      -0.060
       0.009
       0.082
       0.150
       0.209
       0.263
       0.317
       0.359
       0.365
       0.315
       0.224
       0.139
       0.085
       0.050
       0.005
      -0.054
      -0.103
      -0.111
      -0.072
      -0.006
       0.056
       0.090
       0.099
       0.102
       0.115
       0.145
       0.194
       0.272
       0.387
       0.538
       0.722
       0.933
       1.160
       1.375
       1.539
       1.626
       1.632
       1.570
       1.460
       1.314
       1.132
       0.909
       0.644
       0.346
       0.026
      -0.311
      -0.662
      -1.014
      -1.345
      -1.638
      -1.894
      -2.125
      -2.339
      -2.533
      -2.698
      -2.822
      -2.905
      -2.957
      -2.988
      -2.996
      -2.971
      -2.901
      -2.764
      -2.530
      -2.177
      -1.721
      -1.213
      -0.710
      -0.251
       0.140
       0.442
       0.642
       0.745
       0.776
       0.763
       0.725
       0.671
       0.606
       0.540
       0.496
       0.485
       0.490
       0.468
       0.399
       0.304
       0.219
       0.162
       0.128
       0.113
       0.123
       0.162
       0.221
       0.274
       0.296
       0.279
       0.250
       0.251
       0.313
       0.436
       0.600
       0.785
       0.969
       1.127
       1.243
       1.326
       1.399
       1.479
       1.561
       1.629
       1.660
       1.637
       1.555
       1.422
       1.248
       1.046
       0.835
       0.651
       0.524
       0.458
       0.440
       0.454
       0.483
       0.496
       0.451
       0.330
       0.151
      -0.043
      -0.212
      -0.331
      -0.394
      -0.404
      -0.365
      -0.266
      -0.096
       0.133
       0.389
       0.646
       0.898
       1.139
       1.341
       1.473
       1.523
       1.494
       1.384
       1.190
       0.924
       0.626
       0.352
       0.144
       0.014
      -0.059
      -0.113
      -0.169
      -0.221
      -0.247
      -0.250
      -0.264
      -0.322
      -0.431
      -0.589
      -0.785
      -1.006
      -1.230
      -1.439
      -1.624
      -1.774
      -1.862
      -1.850
      -1.715
      -1.465
      -1.150
      -0.844
      -0.606
      -0.463
      -0.412
      -0.447
      -0.561
      -0.726
      -0.887
      -0.988
      -1.006
      -0.954
      -0.845
      -0.678
      -0.444
      -0.147
       0.187
       0.510
       0.761
       0.889
       0.861
       0.671
       0.339
      -0.087
      -0.541
      -0.962
      -1.312
      -1.584
      -1.792
      -1.944
      -2.031
      -2.034
      -1.946
      -1.788
      -1.607
      -1.442
      -1.303
      -1.188
      -1.098
      -1.033
      -0.969
      -0.855
      -0.658
      -0.394
      -0.120
       0.117
       0.300
       0.442
       0.566
       0.684
       0.795
       0.898
       0.993
       1.082
       1.153
       1.187
       1.163
       1.060
       0.862
       0.575
       0.241
      -0.070
      -0.300
      -0.441
      -0.519
      -0.567
      -0.597
      -0.601
      -0.566
      -0.481
      -0.364
      -0.262
      -0.217
      -0.231
      -0.254
      -0.221
      -0.093
       0.122
       0.387
       0.653
       0.892
       1.096
       1.259
       1.354
       1.357
       1.270
       1.127
       0.953
       0.747
       0.494
       0.200
      -0.112
      -0.413
      -0.676
      -0.888
      -1.044
      -1.147
      -1.201
      -1.206
      -1.155
      -1.042
      -0.866
      -0.639
      -0.394
      -0.176
      -0.010
       0.111
       0.213
       0.324
       0.458
       0.624
       0.822
       1.044
       1.276
       1.496
       1.674
       1.784
       1.825
       1.819
       1.788
       1.737
       1.667
       1.587
       1.502
       1.393
       1.227
       1.002
       0.761
       0.564
       0.455
       0.443
       0.510
       0.622
       0.748
       0.869
       0.976
       1.052
       1.088
       1.094
       1.086
       1.065
       1.010
       0.892
       0.710
       0.481
       0.240
       0.023
      -0.146
      -0.275
      -0.406
      -0.585
      -0.826
      -1.101
      -1.361
      -1.557
      -1.671
      -1.714
      -1.711
      -1.684
      -1.630
      -1.540
      -1.404
      -1.216
      -0.971
      -0.679
      -0.376
      -0.106
       0.095
       0.215
       0.257
       0.232
       0.166
       0.083
       0.010
      -0.030
       0.001
       0.133
       0.370
       0.677
       1.002
       1.303
       1.550
       1.734
       1.859
       1.937
       1.968
       1.936
       1.825
       1.641
       1.415
       1.196
       1.019
       0.889
       0.789
       0.700
       0.622
       0.550
       0.457
       0.318
       0.132
      -0.073
      -0.271
      -0.451
      -0.601
      -0.709
      -0.782
      -0.853
      -0.951
      -1.077
      -1.211
      -1.324
      -1.401
      -1.440
      -1.463
      -1.498
      -1.566
      -1.662
      -1.757
      -1.818
      -1.819
      -1.754
      -1.638
      -1.509
      -1.411
      -1.367
      -1.382
      -1.446
      -1.546
      -1.662
      -1.769
      -1.833
      -1.816
      -1.690
      -1.458
      -1.155
      -0.824
      -0.495
      -0.178
       0.113
       0.362
       0.556
       0.699
       0.807
       0.903
       1.007
       1.127
       1.245
       1.327
       1.337
       1.248
       1.045
       0.731
       0.341
      -0.069
      -0.441
      -0.730
      -0.906
      -0.968
      -0.939
      -0.848
      -0.710
      -0.530
      -0.328
      -0.141
       0.011
       0.145
       0.289
       0.449
       0.603
       0.722
       0.788
       0.806
       0.812
       0.848
       0.931
       1.033
       1.110
       1.146
       1.162
       1.196
       1.262
       1.327
       1.337
       1.268
       1.150
       1.029
       0.895
       0.680
       0.335
      -0.096
      -0.499
      -0.785
      -0.948
      -1.045
      -1.132
      -1.225
      -1.310
      -1.376
      -1.441
      -1.542
      -1.693
      -1.848
      -1.936
      -1.928
      -1.876
      -1.872
      -1.965
      -2.120
      -2.241
      -2.250
      -2.151
      -2.022
      -1.941
      -1.906
      -1.855
      -1.750
      -1.622
      -1.529
      -1.489
      -1.463
      -1.386
      -1.206
      -0.900
      -0.487
      -0.016
       0.462
       0.912
       1.315
       1.654
       1.918
       2.105
       2.205
       2.204
