Origin Time       11/11/2013 19:11:18
Lat.              28.5 N	
Long.             77.2 E	
Depth (Km)         10.0
Magnitude         3.1
 Region           DELHI                                                            
 Above details taken from IMD 
     
Station Code      IGN
Station Lat.       28.492  N
Station Long.      77.203  E
Station Height(m)  263.0
Site Class        A   Vs30 between 700 m/sec to 1400 m/sec * 
Record Time       11.11.2013 19:10:55.469
Sampling Rate     200. Hz
 Record Duration   85.810 Sec.
 Direction         E-W (E positive)
Max. Acceleration      4.019 cm/sec**2
     
  * For reference see Site Classification link of website 
     
 Base Line Corrected and Low Pass Filtered (Cut Off at 35 Hz) Time History
 Acceleration data in cm/sec**2
    
[...]
      -0.003
       0.001
       0.005
       0.008
       0.014
       0.018
       0.019
       0.015
       0.009
       0.006
       0.008
       0.011
       0.009
      -0.001
      -0.013
      -0.018
      -0.016
      -0.012
      -0.011
      -0.013
      -0.012
      -0.008
      -0.004
      -0.006
      -0.017
      -0.029
      -0.035
      -0.032
      -0.024
      -0.014
      -0.009
      -0.008
      -0.011
      -0.015
      -0.018
      -0.016
      -0.008
       0.004
       0.012
       0.012
       0.004
      -0.006
      -0.012
      -0.013
      -0.007
       0.001
       0.010
       0.014
       0.011
       0.001
      -0.012
      -0.020
      -0.018
      -0.009
      -0.001
      -0.004
      -0.015
      -0.026
      -0.027
      -0.019
      -0.008
       0.001
       0.006
       0.008
       0.005
       0.000
      -0.004
      -0.002
       0.001
       0.003
       0.000
      -0.003
       0.000
       0.007
       0.013
       0.009
      -0.007
      -0.024
      -0.031
      -0.023
      -0.007
       0.006
       0.009
       0.000
      -0.015
      -0.027
      -0.028
      -0.024
      -0.020
      -0.022
      -0.029
      -0.034
      -0.032
      -0.024
      -0.011
       0.002
       0.008
       0.006
      -0.003
      -0.010
      -0.012
      -0.008
      -0.006
      -0.006
      -0.010
      -0.012
      -0.010
      -0.004
       0.000
       0.001
      -0.001
      -0.003
      -0.002
       0.002
       0.005
       0.002
      -0.007
      -0.015
      -0.018
      -0.014
      -0.010
      -0.011
      -0.016
      -0.021
      -0.025
      -0.026
      -0.027
      -0.030
      -0.032
      -0.028
      -0.019
      -0.009
      -0.004
      -0.004
      -0.006
      -0.009
      -0.013
      -0.016
      -0.018
      -0.016
      -0.012
      -0.006
       0.004
       0.016
       0.025
       0.025
       0.017
       0.006
       0.001
       0.007
       0.018
       0.025
       0.018
      -0.002
      -0.025
      -0.037
      -0.035
      -0.022
      -0.013
      -0.015
      -0.025
      -0.035
      -0.034
      -0.022
      -0.006
       0.002
      -0.001
      -0.011
      -0.021
      -0.020
      -0.011
       0.000
       0.003
       0.000
      -0.006
      -0.011
      -0.015
      -0.021
      -0.028
      -0.029
      -0.025
      -0.017
      -0.012
      -0.014
      -0.021
      -0.026
      -0.024
      -0.015
      -0.002
       0.008
       0.009
       0.000
      -0.016
      -0.029
      -0.031
      -0.020
      -0.003
       0.011
       0.014
       0.007
      -0.006
      -0.014
      -0.014
      -0.006
       0.004
       0.009
       0.004
      -0.008
      -0.021
      -0.027
      -0.024
      -0.016
      -0.010
      -0.007
      -0.004
       0.000
       0.003
       0.003
      -0.001
      -0.006
      -0.010
      -0.015
      -0.018
      -0.020
      -0.017
      -0.011
      -0.005
      -0.006
      -0.013
      -0.018
      -0.016
      -0.006
       0.005
       0.012
       0.011
       0.006
      -0.003
      -0.008
      -0.004
       0.007
       0.018
       0.022
       0.019
       0.014
       0.011
       0.011
       0.013
       0.014
       0.011
       0.002
      -0.008
      -0.011
      -0.005
       0.004
       0.009
       0.006
       0.001
       0.000
       0.006
       0.010
       0.009
       0.003
      -0.005
      -0.012
      -0.018
      -0.019
      -0.011
       0.003
       0.017
       0.023
       0.018
       0.008
       0.000
       0.000
       0.005
       0.009
       0.007
       0.003
      -0.001
      -0.003
      -0.004
      -0.007
      -0.008
      -0.007
      -0.005
      -0.006
      -0.014
      -0.025
      -0.030
      -0.023
      -0.008
       0.003
       0.001
      -0.013
      -0.028
      -0.030
      -0.016
       0.007
       0.025
       0.027
       0.013
      -0.005
      -0.015
      -0.013
      -0.002
       0.010
       0.014
       0.010
      -0.002
      -0.017
      -0.026
      -0.025
      -0.014
      -0.002
       0.003
      -0.005
      -0.019
      -0.027
      -0.023
      -0.011
      -0.003
      -0.007
      -0.018
      -0.025
      -0.020
      -0.007
       0.003
       0.005
       0.001
      -0.002
      -0.004
      -0.005
      -0.009
      -0.014
      -0.013
      -0.003
       0.013
       0.026
       0.029
       0.022
       0.008
      -0.004
      -0.011
      -0.012
      -0.012
      -0.010
      -0.006
      -0.001
       0.005
       0.008
       0.009
       0.007
       0.002
      -0.008
      -0.021
      -0.032
      -0.038
      -0.036
      -0.030
      -0.020
      -0.011
      -0.005
      -0.005
      -0.008
      -0.012
      -0.015
      -0.017
      -0.020
      -0.022
      -0.019
      -0.014
      -0.010
      -0.011
      -0.015
      -0.015
      -0.010
       0.000
       0.009
       0.014
       0.016
       0.014
       0.009
       0.003
       0.000
      -0.001
      -0.002
      -0.006
      -0.015
      -0.025
      -0.028
      -0.024
      -0.017
      -0.012
      -0.011
      -0.011
      -0.011
      -0.007
      -0.003
      -0.001
      -0.007
      -0.017
      -0.024
      -0.021
      -0.010
       0.000
       0.004
       0.003
       0.001
       0.002
       0.005
       0.007
       0.007
       0.004
      -0.003
      -0.013
      -0.022
      -0.027
      -0.029
      -0.031
      -0.034
      -0.037
      -0.035
      -0.029
      -0.019
      -0.008
       0.000
       0.007
       0.011
       0.011
       0.008
       0.003
      -0.001
      -0.001
       0.003
       0.009
       0.019
       0.038
       0.069
       0.108
       0.141
       0.154
       0.147
       0.139
       0.147
       0.167
       0.168
       0.114
      -0.004
      -0.153
      -0.282
      -0.364
      -0.411
      -0.455
      -0.525
      -0.605
      -0.631
      -0.531
      -0.291
       0.033
       0.360
       0.618
       0.740
       0.695
       0.521
       0.285
       0.020
      -0.237
      -0.415
      -0.465
      -0.409
      -0.303
      -0.193
      -0.134
      -0.171
      -0.261
      -0.273
      -0.107
       0.220
       0.589
       0.821
       0.742
       0.343
      -0.113
      -0.303
      -0.175
       0.039
       0.122
       0.046
      -0.141
      -0.398
      -0.624
      -0.652
      -0.407
       0.005
       0.411
       0.698
       0.787
       0.604
       0.170
      -0.288
      -0.470
      -0.288
       0.044
       0.244
       0.203
      -0.007
      -0.254
      -0.415
      -0.443
      -0.392
      -0.315
      -0.169
       0.082
       0.320
       0.356
       0.177
      -0.006
      -0.002
       0.155
       0.257
       0.139
      -0.181
      -0.513
      -0.635
      -0.469
      -0.129
       0.210
       0.448
       0.587
       0.653
       0.578
       0.253
      -0.253
      -0.625
      -0.586
      -0.203
       0.181
       0.275
       0.067
      -0.206
      -0.280
      -0.110
       0.097
       0.089
      -0.171
      -0.433
      -0.383
       0.042
       0.596
       0.921
       0.802
       0.301
      -0.279
      -0.604
      -0.565
      -0.341
      -0.208
      -0.267
      -0.347
      -0.216
       0.141
       0.476
       0.513
       0.219
      -0.147
      -0.287
      -0.173
      -0.023
       0.020
       0.013
       0.037
       0.068
       0.039
      -0.072
      -0.188
      -0.156
       0.074
       0.330
       0.359
       0.101
      -0.244
      -0.415
      -0.312
      -0.050
       0.170
       0.211
       0.090
      -0.038
      -0.021
       0.101
       0.118
      -0.096
      -0.353
      -0.305
       0.125
       0.553
       0.515
      -0.022
      -0.626
      -0.855
      -0.631
      -0.212
       0.112
       0.261
       0.353
       0.492
       0.619
       0.562
       0.221
      -0.286
      -0.689
      -0.787
      -0.574
      -0.205
       0.115
       0.236
       0.162
       0.046
       0.035
       0.152
       0.326
       0.451
       0.385
       0.040
      -0.448
      -0.711
      -0.475
       0.119
       0.607
       0.647
       0.280
      -0.195
      -0.464
      -0.377
      -0.050
       0.233
       0.293
       0.166
       0.001
      -0.056
       0.037
       0.129
      -0.001
      -0.359
      -0.676
      -0.643
      -0.166
       0.541
       1.036
       0.930
       0.244
      -0.515
      -0.758
      -0.370
       0.200
       0.408
       0.081
      -0.550
      -1.098
      -1.231
      -0.785
       0.141
       1.122
       1.553
       1.080
      -0.040
      -1.069
      -1.337
      -0.716
       0.308
       1.046
       1.191
       0.965
       0.685
       0.367
      -0.136
      -0.745
      -1.112
      -0.978
      -0.476
       0.005
       0.204
       0.161
       0.076
       0.094
       0.226
       0.410
       0.582
       0.647
       0.477
       0.039
      -0.514
      -0.917
      -0.967
      -0.659
      -0.234
      -0.004
      -0.030
      -0.080
       0.080
       0.423
       0.684
       0.594
       0.169
      -0.218
      -0.200
       0.146
       0.359
       0.128
      -0.360
      -0.664
      -0.564
      -0.203
       0.173
       0.456
       0.644
       0.713
       0.571
       0.146
      -0.478
      -1.005
      -1.089
      -0.617
       0.114
       0.569
       0.433
      -0.072
      -0.435
      -0.397
      -0.099
       0.235
       0.500
       0.650
       0.633
       0.437
       0.133
      -0.138
      -0.236
      -0.139
       0.030
       0.090
      -0.065
      -0.418
      -0.818
      -1.021
      -0.817
      -0.202
       0.594
       1.234
       1.429
       1.066
       0.297
      -0.528
      -1.037
      -1.011
      -0.477
       0.258
       0.728
       0.631
       0.084
      -0.515
      -0.824
      -0.715
      -0.243
       0.356
       0.716
       0.586
       0.099
      -0.302
      -0.237
       0.253
       0.664
       0.432
      -0.434
      -1.203
      -1.143
      -0.334
       0.476
       0.731
       0.490
       0.129
      -0.059
      -0.028
       0.003
      -0.238
      -0.692
      -0.875
      -0.381
       0.587
       1.325
       1.291
       0.575
      -0.236
      -0.597
      -0.425
      -0.081
       0.037
      -0.107
      -0.233
      -0.154
      -0.004
      -0.038
      -0.315
      -0.582
      -0.485
       0.032
       0.552
       0.567
       0.029
      -0.569
      -0.680
      -0.209
       0.471
       0.921
       0.958
       0.640
       0.095
      -0.507
      -0.901
      -0.834
      -0.306
       0.349
       0.675
       0.450
      -0.112
      -0.528
      -0.496
      -0.152
       0.166
       0.302
       0.318
       0.281
       0.180
      -0.017
      -0.306
      -0.550
      -0.476
       0.011
       0.508
       0.386
      -0.490
      -1.445
      -1.557
      -0.546
       0.931
       1.861
       1.707
       0.754
      -0.210
      -0.545
      -0.245
       0.144
       0.112
      -0.332
      -0.748
      -0.774
      -0.472
      -0.145
       0.070
       0.282
       0.593
       0.872
       0.796
       0.161
      -0.791
      -1.438
      -1.267
      -0.316
       0.797
       1.316
       0.991
       0.330
       0.076
       0.415
       0.840
       0.747
       0.000
      -1.026
      -1.774
      -1.909
      -1.527
      -0.987
      -0.504
       0.050
       0.880
       1.851
       2.434
       2.171
       1.164
       0.055
      -0.522
      -0.477
      -0.233
      -0.198
      -0.380
      -0.542
      -0.549
      -0.444
      -0.273
       0.002
       0.369
       0.643
       0.564
       0.078
      -0.562
      -1.026
      -1.224
      -1.317
      -1.447
      -1.521
      -1.267
      -0.516
       0.592
       1.632
       2.136
       1.917
       1.237
       0.589
       0.235
       0.015
      -0.361
      -0.898
      -1.239
      -0.945
       0.089
       1.360
       2.004
       1.541
       0.398
      -0.512
      -0.795
      -0.923
      -1.460
      -2.170
      -2.224
      -1.275
      -0.021
       0.527
       0.226
      -0.054
       0.515
       1.767
       2.758
       2.778
       2.000
       1.145
       0.643
       0.274
      -0.384
      -1.309
      -1.998
      -2.010
      -1.409
      -0.681
      -0.348
      -0.537
      -0.831
      -0.670
       0.042
       0.840
       1.164
       0.788
      -0.067
      -0.853
      -1.000
      -0.372
       0.532
       1.017
       0.897
       0.670
       0.862
       1.264
       0.994
      -0.472
      -2.439
      -3.443
      -2.626
      -0.576
       1.201
       1.608
       0.859
       0.164
       0.527
       1.722
       2.434
       1.625
      -0.185
      -1.350
      -0.911
       0.354
       0.913
       0.247
      -0.691
      -0.774
      -0.131
       0.030
      -1.079
      -2.798
      -3.626
      -2.769
      -0.873
       0.825
       1.798
       2.434
       3.116
       3.446
       2.600
       0.524
      -1.442
      -1.661
      -0.099
       1.376
       0.951
      -1.123
      -2.793
      -2.360
      -0.114
       2.183
       3.082
       2.462
       1.060
      -0.407
      -1.531
      -2.094
      -2.073
      -1.784
      -1.748
      -2.187
      -2.661
      -2.336
      -0.730
       1.700
       3.677
       4.019
       2.710
       0.961
      -0.015
      -0.226
      -0.638
      -1.720
      -2.598
      -1.931
       0.431
       2.931
       3.656
       2.186
       0.010
      -0.981
      -0.399
       0.369
      -0.183
      -1.929
      -3.195
      -2.538
      -0.240
       2.045
       2.956
       2.510
       1.580
       0.713
      -0.212
      -1.294
      -2.116
      -2.218
      -1.736
      -1.211
      -0.860
      -0.400
       0.379
       1.138
       1.372
       1.176
       1.194
       1.638
       1.739
       0.589
      -1.508
      -2.955
      -2.385
      -0.103
       2.202
       3.060
       2.312
       0.817
      -0.503
      -1.282
      -1.710
      -2.094
      -2.386
      -2.199
      -1.298
       0.011
       1.131
       1.776
       2.109
       2.161
       1.521
      -0.044
      -1.880
      -2.839
      -2.404
      -1.194
      -0.258
       0.036
       0.291
       1.163
       2.294
       2.484
       1.058
      -1.147
      -2.385
      -1.595
       0.576
       2.293
       2.174
       0.567
      -0.858
      -0.852
       0.151
       0.665
      -0.055
      -1.178
      -1.413
      -0.597
       0.278
       0.410
       0.064
      -0.001
       0.371
       0.513
      -0.151
      -1.227
      -1.632
      -0.780
       0.654
       1.347
       0.713
      -0.518
      -1.146
      -0.713
       0.249
       0.919
       0.943
       0.573
       0.262
       0.237
       0.462
       0.793
       1.016
       0.853
       0.172
      -0.793
      -1.527
      -1.637
      -1.179
      -0.557
      -0.157
      -0.098
      -0.216
      -0.209
       0.143
       0.767
       1.287
       1.274
       0.610
      -0.331
      -0.914
      -0.793
      -0.257
       0.103
       0.012
      -0.356
      -0.709
      -0.833
      -0.524
       0.259
       1.049
       1.073
       0.080
      -1.208
      -1.750
      -1.200
      -0.126
       0.671
       0.913
       0.956
       1.233
       1.667
       1.726
       1.024
      -0.182
      -1.097
      -1.055
      -0.184
       0.637
       0.599
      -0.273
      -1.249
      -1.666
      -1.436
      -0.902
      -0.421
      -0.110
       0.117
       0.398
       0.796
       1.211
       1.360
       0.992
       0.244
      -0.413
      -0.728
      -0.985
      -1.479
      -1.869
      -1.440
      -0.065
       1.394
       1.833
       1.034
      -0.053
      -0.261
       0.554
       1.366
       1.107
      -0.186
      -1.450
      -1.672
      -0.760
       0.549
       1.410
       1.503
       1.091
       0.569
       0.046
      -0.594
      -1.278
      -1.642
      -1.443
      -0.916
      -0.548
      -0.566
      -0.729
      -0.576
       0.088
       0.913
       1.278
       0.969
       0.476
       0.437
       0.872
       1.167
       0.844
       0.090
      -0.555
      -0.811
      -0.764
      -0.551
      -0.211
       0.195
       0.537
       0.731
       0.759
       0.565
       0.057
      -0.661
      -1.203
      -1.224
      -0.793
      -0.285
       0.037
       0.213
       0.396
       0.592
       0.636
       0.399
      -0.002
      -0.275
      -0.296
      -0.294
      -0.546
      -0.926
      -0.934
      -0.266
       0.694
       1.113
       0.516
      -0.666
      -1.437
      -1.201
      -0.315
       0.413
       0.649
       0.734
       1.048
       1.494
       1.677
       1.362
       0.656
      -0.182
      -0.965
      -1.543
      -1.634
      -0.970
       0.286
       1.373
       1.421
       0.242
      -1.362
      -2.186
      -1.641
      -0.252
       0.821
       0.792
      -0.112
      -0.935
      -0.904
      -0.109
       0.720
       1.026
       0.918
       0.851
       0.997
       1.093
       0.800
       0.028
      -1.028
      -1.913
      -2.045
      -1.151
       0.326
       1.447
       1.579
       0.942
       0.272
      -0.005
      -0.109
      -0.421
      -0.870
      -0.953
      -0.339
       0.659
       1.245
       0.823
      -0.358
      -1.278
      -1.047
       0.176
       1.338
       1.542
       0.762
      -0.382
      -1.259
      -1.598
      -1.455
      -0.992
      -0.356
       0.246
       0.533
       0.341
      -0.142
      -0.453
      -0.246
       0.405
       1.107
       1.473
       1.326
       0.715
      -0.108
      -0.770
      -0.976
      -0.717
      -0.284
       0.000
       0.091
       0.189
       0.344
       0.282
      -0.191
      -0.797
      -1.035
      -0.769
      -0.384
      -0.349
      -0.659
      -0.748
      -0.042
       1.333
       2.513
       2.614
       1.488
      -0.168
      -1.331
      -1.378
      -0.522
       0.390
       0.614
       0.091
      -0.650
      -1.018
      -0.798
      -0.209
       0.340
       0.583
       0.503
       0.189
      -0.249
      -0.596
      -0.617
      -0.345
      -0.147
      -0.288
      -0.549
      -0.511
      -0.151
       0.106
      -0.072
      -0.511
      -0.721
      -0.370
       0.451
       1.326
       1.797
       1.623
       0.900
      -0.022
      -0.736
      -0.975
      -0.751
      -0.341
      -0.056
       0.002
      -0.055
      -0.075
       0.019
       0.213
       0.418
       0.525
       0.482
       0.279
      -0.083
      -0.510
      -0.781
      -0.721
      -0.392
      -0.024
       0.218
       0.331
       0.352
       0.250
      -0.001
      -0.349
      -0.723
      -1.054
      -1.190
      -0.934
      -0.264
       0.561
       1.208
       1.499
       1.427
       1.090
       0.626
       0.114
      -0.461
      -1.060
      -1.498
      -1.594
      -1.328
      -0.790
      -0.107
       0.545
       1.002
       1.230
       1.300
       1.206
       0.810
