Origin Time       24/2/2010 19:20:52	 UTC
Lat.              28.6 N	
Long.             76.9 E	
Depth (Km)         17.0
Magnitude         2.5
 Region           Rohtak                                                           
 Above details taken from IMD 
    
Station Code      IGN
Station Lat.       28.492  N
Station Long.      77.203  E
Station Height(m)  263.0
Site Class        A   Vs30 between 700 m/sec to 1400 m/sec * 
Record Time       24.02.2010 19:19:55.834 UTC
Sampling Rate     200. Hz
 Record Duration   79.995 Sec.
 Direction         N-S (N positive)
Max. Acceleration     -3.100 cm/sec**2
     
  * For reference see Site Classification link of website 
     
 Base Line Corrected and Low Pass Filtered (Cut Off at 35 Hz) Time History
 Acceleration data in cm/sec**2
    
[...]
       0.009
       0.011
       0.018
       0.025
       0.023
       0.011
      -0.001
      -0.004
       0.001
       0.010
       0.017
       0.015
       0.003
      -0.011
      -0.015
      -0.010
      -0.004
      -0.001
       0.001
       0.004
       0.004
      -0.003
      -0.011
      -0.016
      -0.017
      -0.013
      -0.006
      -0.004
      -0.011
      -0.023
      -0.026
      -0.014
       0.002
       0.010
       0.005
      -0.006
      -0.016
      -0.016
      -0.009
      -0.002
      -0.005
      -0.015
      -0.022
      -0.020
      -0.017
      -0.014
      -0.009
       0.002
       0.013
       0.018
       0.019
       0.016
       0.010
       0.001
      -0.007
      -0.010
      -0.009
      -0.005
       0.001
       0.005
       0.006
       0.005
       0.005
       0.005
      -0.001
      -0.010
      -0.013
      -0.007
       0.000
       0.001
      -0.002
      -0.003
      -0.002
       0.000
       0.003
       0.006
       0.003
      -0.006
      -0.015
      -0.017
      -0.014
      -0.009
      -0.001
       0.009
       0.012
       0.007
       0.000
      -0.001
       0.001
       0.005
       0.010
       0.015
       0.017
       0.013
       0.005
      -0.001
      -0.004
      -0.003
       0.003
       0.010
       0.013
       0.011
       0.005
       0.001
      -0.001
      -0.001
       0.001
       0.002
      -0.002
      -0.008
      -0.007
       0.003
       0.012
       0.012
       0.006
       0.000
      -0.002
      -0.002
       0.000
       0.005
       0.007
       0.006
       0.004
       0.004
       0.003
       0.001
       0.003
       0.009
       0.013
       0.006
      -0.005
      -0.009
      -0.004
       0.007
       0.016
       0.019
       0.012
       0.001
      -0.006
      -0.003
       0.003
       0.003
      -0.001
      -0.004
       0.000
       0.006
       0.010
       0.008
      -0.002
      -0.010
      -0.007
       0.009
       0.024
       0.025
       0.014
       0.005
       0.004
       0.009
       0.011
       0.006
      -0.006
      -0.016
      -0.015
      -0.003
       0.009
       0.011
       0.006
       0.003
       0.002
       0.002
       0.001
       0.003
       0.007
       0.009
       0.008
       0.006
       0.002
      -0.003
      -0.006
      -0.003
       0.002
       0.002
      -0.004
      -0.008
      -0.009
      -0.007
      -0.004
       0.001
       0.003
       0.000
      -0.003
       0.000
       0.006
       0.006
       0.000
      -0.008
      -0.012
      -0.010
      -0.002
       0.011
       0.018
       0.012
       0.001
      -0.003
       0.000
       0.002
      -0.001
      -0.003
      -0.005
      -0.010
      -0.013
      -0.011
      -0.004
       0.001
       0.001
      -0.003
      -0.008
      -0.015
      -0.016
      -0.008
       0.004
       0.009
       0.003
      -0.006
      -0.014
      -0.016
      -0.011
       0.001
       0.010
       0.009
       0.000
      -0.008
      -0.012
      -0.015
      -0.017
      -0.013
      -0.005
       0.002
       0.005
       0.006
       0.004
      -0.004
      -0.014
      -0.016
      -0.009
       0.000
       0.005
       0.007
       0.006
       0.001
      -0.001
       0.002
       0.008
       0.009
       0.005
       0.000
      -0.003
      -0.007
      -0.011
      -0.009
      -0.001
       0.006
       0.004
      -0.005
      -0.015
      -0.021
      -0.018
      -0.007
       0.004
       0.006
       0.000
      -0.003
       0.000
       0.007
       0.010
       0.006
      -0.003
      -0.011
      -0.012
      -0.006
       0.001
       0.000
      -0.008
      -0.013
      -0.012
      -0.010
      -0.011
      -0.011
      -0.008
      -0.004
      -0.001
       0.002
       0.001
      -0.006
      -0.017
      -0.021
      -0.015
      -0.006
      -0.004
      -0.010
      -0.017
      -0.020
      -0.015
      -0.003
       0.008
       0.008
      -0.002
      -0.010
      -0.007
       0.000
       0.004
       0.004
       0.003
       0.002
       0.003
       0.008
       0.014
       0.015
       0.011
       0.010
       0.019
       0.033
       0.045
       0.048
       0.036
       0.004
      -0.045
      -0.092
      -0.118
      -0.114
      -0.080
      -0.028
       0.018
       0.035
       0.017
      -0.015
      -0.028
      -0.005
       0.042
       0.085
       0.089
       0.040
      -0.037
      -0.087
      -0.070
       0.003
       0.076
       0.096
       0.050
      -0.028
      -0.086
      -0.099
      -0.079
      -0.053
      -0.025
       0.024
       0.095
       0.152
       0.146
       0.067
      -0.040
      -0.113
      -0.119
      -0.058
       0.043
       0.134
       0.157
       0.084
      -0.045
      -0.137
      -0.124
      -0.019
       0.087
       0.094
      -0.026
      -0.190
      -0.264
      -0.177
       0.013
       0.166
       0.178
       0.059
      -0.071
      -0.087
       0.034
       0.193
       0.258
       0.180
       0.012
      -0.160
      -0.273
      -0.291
      -0.201
      -0.032
       0.139
       0.239
       0.242
       0.166
       0.037
      -0.113
      -0.233
      -0.260
      -0.164
       0.009
       0.156
       0.193
       0.117
       0.001
      -0.087
      -0.130
      -0.137
      -0.091
       0.026
       0.165
       0.223
       0.156
       0.039
      -0.030
      -0.048
      -0.073
      -0.105
      -0.075
       0.030
       0.107
       0.044
      -0.129
      -0.237
      -0.145
       0.085
       0.242
       0.179
      -0.023
      -0.138
      -0.029
       0.207
       0.334
       0.191
      -0.157
      -0.449
      -0.434
      -0.097
       0.291
       0.402
       0.169
      -0.141
      -0.210
      -0.011
       0.171
       0.078
      -0.214
      -0.377
      -0.201
       0.166
       0.392
       0.310
       0.052
      -0.131
      -0.127
      -0.016
       0.069
       0.080
       0.060
       0.070
       0.102
       0.089
      -0.022
      -0.193
      -0.303
      -0.254
      -0.061
       0.147
       0.236
       0.168
       0.009
      -0.142
      -0.225
      -0.215
      -0.093
       0.141
       0.401
       0.510
       0.337
      -0.044
      -0.365
      -0.392
      -0.156
       0.077
       0.077
      -0.117
      -0.252
      -0.132
       0.184
       0.437
       0.400
       0.092
      -0.240
      -0.330
      -0.120
       0.193
       0.336
       0.186
      -0.125
      -0.340
      -0.287
      -0.035
       0.180
       0.165
      -0.033
      -0.179
      -0.103
       0.111
       0.225
       0.121
      -0.074
      -0.153
      -0.068
       0.049
       0.084
       0.059
       0.052
       0.060
       0.015
      -0.085
      -0.141
      -0.078
       0.037
       0.073
       0.023
       0.034
       0.205
       0.399
       0.364
       0.037
      -0.334
      -0.455
      -0.299
      -0.096
      -0.034
      -0.054
       0.032
       0.267
       0.451
       0.340
      -0.071
      -0.476
      -0.519
      -0.137
       0.349
       0.516
       0.228
      -0.240
      -0.463
      -0.278
       0.077
       0.233
       0.082
      -0.143
      -0.147
       0.104
       0.376
       0.424
       0.220
      -0.053
      -0.193
      -0.157
      -0.072
      -0.077
      -0.172
      -0.227
      -0.139
       0.043
       0.177
       0.181
       0.099
       0.030
       0.011
       0.002
      -0.033
      -0.057
      -0.019
       0.054
       0.062
      -0.021
      -0.086
      -0.014
       0.163
       0.281
       0.222
       0.027
      -0.158
      -0.224
      -0.171
      -0.102
      -0.122
      -0.235
      -0.305
      -0.174
       0.163
       0.503
       0.594
       0.367
      -0.004
      -0.264
      -0.301
      -0.201
      -0.100
      -0.013
       0.139
       0.343
       0.410
       0.154
      -0.329
      -0.665
      -0.553
      -0.105
       0.250
       0.215
      -0.064
      -0.173
       0.104
       0.531
       0.654
       0.274
      -0.338
      -0.682
      -0.493
       0.037
       0.454
       0.447
       0.075
      -0.337
      -0.481
      -0.289
       0.052
       0.286
       0.317
       0.254
       0.229
       0.208
       0.066
      -0.191
      -0.361
      -0.268
      -0.008
       0.117
      -0.059
      -0.350
      -0.388
      -0.025
       0.474
       0.675
       0.378
      -0.203
      -0.631
      -0.604
      -0.163
       0.364
       0.618
       0.466
       0.067
      -0.276
      -0.364
      -0.232
      -0.054
       0.040
       0.059
       0.073
       0.089
       0.051
      -0.058
      -0.150
      -0.112
       0.066
       0.253
       0.290
       0.122
      -0.158
      -0.375
      -0.399
      -0.215
       0.078
       0.338
       0.449
       0.365
       0.129
      -0.146
      -0.327
      -0.341
      -0.211
      -0.018
       0.153
       0.246
       0.237
       0.132
      -0.026
      -0.162
      -0.209
      -0.152
      -0.065
      -0.057
      -0.153
      -0.218
      -0.060
       0.330
       0.676
       0.633
       0.153
      -0.416
      -0.644
      -0.409
       0.047
       0.393
       0.462
       0.279
      -0.048
      -0.386
      -0.568
      -0.456
      -0.077
       0.347
       0.558
       0.476
       0.227
      -0.028
      -0.239
      -0.425
      -0.538
      -0.458
      -0.132
       0.319
       0.675
       0.776
       0.609
       0.266
      -0.131
      -0.477
      -0.680
      -0.677
      -0.469
      -0.143
       0.171
       0.363
       0.390
       0.258
       0.028
      -0.182
      -0.236
      -0.091
       0.149
       0.316
       0.325
       0.214
       0.061
      -0.087
      -0.223
      -0.323
      -0.316
      -0.145
       0.121
       0.286
       0.195
      -0.081
      -0.290
      -0.262
      -0.088
       0.008
      -0.059
      -0.130
       0.011
       0.382
       0.727
       0.700
       0.180
      -0.563
      -1.023
      -0.860
      -0.192
       0.487
       0.717
       0.425
      -0.062
      -0.342
      -0.281
      -0.069
       0.038
       0.012
       0.031
       0.202
       0.383
       0.329
      -0.021
      -0.452
      -0.666
      -0.548
      -0.238
       0.045
       0.201
       0.283
       0.359
       0.395
       0.292
       0.040
      -0.223
      -0.325
      -0.237
      -0.077
       0.041
       0.115
       0.191
       0.243
       0.182
      -0.037
      -0.335
      -0.551
      -0.525
      -0.210
       0.256
       0.593
       0.577
       0.243
      -0.125
      -0.256
      -0.140
       0.011
       0.024
      -0.060
      -0.070
       0.061
       0.190
       0.102
      -0.230
      -0.542
      -0.496
      -0.023
       0.553
       0.767
       0.421
      -0.233
      -0.683
      -0.569
       0.016
       0.590
       0.680
       0.208
      -0.452
      -0.810
      -0.637
      -0.096
       0.448
       0.697
       0.590
       0.277
      -0.023
      -0.174
      -0.184
      -0.148
      -0.160
      -0.237
      -0.304
      -0.248
      -0.022
       0.272
       0.437
       0.343
       0.036
      -0.301
      -0.488
      -0.443
      -0.172
       0.246
       0.651
       0.819
       0.595
       0.060
      -0.467
      -0.677
      -0.521
      -0.194
       0.093
       0.265
       0.309
       0.182
      -0.103
      -0.371
      -0.394
      -0.144
       0.145
       0.232
       0.142
       0.108
       0.274
       0.497
       0.496
       0.166
      -0.302
      -0.625
      -0.681
      -0.531
      -0.258
       0.093
       0.417
       0.529
       0.346
       0.034
      -0.148
      -0.116
      -0.007
       0.057
       0.124
       0.280
       0.428
       0.305
      -0.196
      -0.776
      -0.929
      -0.473
       0.203
       0.525
       0.343
       0.016
      -0.082
       0.034
       0.123
       0.102
       0.114
       0.249
       0.377
       0.315
       0.054
      -0.233
      -0.394
      -0.431
      -0.437
      -0.444
      -0.375
      -0.153
       0.185
       0.494
       0.649
       0.598
       0.326
      -0.134
      -0.608
      -0.777
      -0.414
       0.335
       0.996
       1.122
       0.633
      -0.171
      -0.853
      -1.109
      -0.895
      -0.383
       0.178
       0.581
       0.702
       0.511
       0.086
      -0.366
      -0.597
      -0.464
      -0.036
       0.437
       0.688
       0.625
       0.408
       0.287
       0.317
       0.278
      -0.092
      -0.779
      -1.460
      -1.767
      -1.582
      -1.109
      -0.668
      -0.418
      -0.250
       0.071
       0.645
       1.289
       1.668
       1.573
       1.104
       0.585
       0.296
       0.256
       0.291
       0.289
       0.359
       0.649
       1.033
       1.098
       0.553
      -0.366
      -0.996
      -0.832
      -0.011
       0.793
       0.940
       0.332
      -0.592
      -1.279
      -1.498
      -1.402
      -1.283
      -1.296
      -1.373
      -1.291
      -0.816
       0.077
       1.069
       1.616
       1.353
       0.412
      -0.667
      -1.320
      -1.274
      -0.593
       0.423
       1.358
       1.824
       1.655
       1.046
       0.471
       0.371
       0.796
       1.294
       1.208
       0.213
      -1.353
      -2.689
      -3.100
      -2.462
      -1.224
      -0.033
       0.694
       0.953
       1.039
       1.262
       1.703
       2.166
       2.302
       1.844
       0.817
      -0.427
      -1.409
      -1.850
      -1.828
      -1.607
      -1.342
      -0.997
      -0.549
      -0.194
      -0.213
      -0.637
      -1.091
      -1.073
      -0.370
       0.783
       1.902
       2.551
       2.526
       1.911
       1.038
       0.285
      -0.203
      -0.621
      -1.234
      -1.951
      -2.235
      -1.564
      -0.041
       1.505
       2.143
       1.620
       0.542
      -0.235
      -0.372
      -0.232
      -0.354
      -0.812
      -1.125
      -0.810
       0.029
       0.729
       0.705
       0.004
      -0.781
      -1.055
      -0.663
       0.106
       0.816
       1.179
       1.135
       0.719
      -0.037
      -0.997
      -1.749
      -1.736
      -0.751
       0.741
       1.890
       2.147
       1.648
       0.957
       0.506
       0.293
       0.029
      -0.494
      -1.158
      -1.624
      -1.641
      -1.245
      -0.666
      -0.092
       0.401
       0.748
       0.838
       0.628
       0.239
      -0.097
      -0.195
      -0.027
       0.253
       0.376
       0.149
      -0.323
      -0.646
      -0.490
       0.040
       0.471
       0.442
       0.066
      -0.247
      -0.278
      -0.211
      -0.351
      -0.715
      -0.970
      -0.765
      -0.091
       0.706
       1.235
       1.354
       1.190
       0.948
       0.758
       0.650
       0.556
       0.348
      -0.059
      -0.581
      -0.977
      -1.066
      -0.919
      -0.766
      -0.712
      -0.615
      -0.278
       0.266
       0.733
       0.851
       0.622
       0.325
       0.270
       0.536
       0.898
       0.960
       0.438
      -0.585
      -1.637
      -2.124
      -1.755
      -0.774
       0.209
       0.659
       0.494
       0.096
      -0.040
       0.237
       0.592
       0.533
      -0.077
      -0.855
      -1.226
      -0.897
      -0.050
       0.844
       1.361
       1.329
       0.832
       0.118
      -0.515
      -0.835
      -0.756
      -0.355
       0.170
       0.573
       0.689
       0.575
       0.477
       0.585
       0.794
       0.791
       0.382
      -0.283
      -0.848
      -1.062
      -0.935
      -0.632
      -0.312
      -0.085
      -0.011
      -0.048
      -0.051
       0.069
       0.205
       0.175
      -0.021
      -0.191
      -0.200
      -0.135
      -0.141
      -0.190
      -0.109
       0.187
       0.562
       0.750
       0.570
       0.087
      -0.400
      -0.566
      -0.322
       0.097
       0.314
       0.112
      -0.378
      -0.744
      -0.615
       0.021
       0.789
       1.240
       1.173
       0.703
       0.106
      -0.358
      -0.566
      -0.568
      -0.515
      -0.482
      -0.424
      -0.296
      -0.167
      -0.124
      -0.130
      -0.055
       0.131
       0.297
       0.305
       0.178
       0.079
       0.128
       0.279
       0.378
       0.309
       0.099
      -0.136
      -0.300
      -0.363
      -0.307
      -0.108
       0.188
       0.429
       0.447
       0.223
      -0.083
      -0.271
      -0.279
      -0.202
      -0.163
      -0.201
      -0.270
      -0.287
      -0.202
      -0.027
       0.169
       0.323
       0.427
       0.501
       0.539
       0.484
       0.280
      -0.071
      -0.461
      -0.706
      -0.664
      -0.362
       0.006
       0.246
       0.295
       0.200
       0.026
      -0.165
      -0.284
      -0.243
      -0.051
       0.148
       0.192
       0.059
      -0.080
      -0.026
       0.221
       0.409
       0.278
      -0.146
      -0.525
      -0.518
      -0.123
       0.337
       0.554
       0.516
       0.416
       0.343
       0.173
      -0.197
      -0.619
      -0.787
      -0.549
      -0.054
       0.393
       0.562
       0.380
      -0.085
      -0.615
      -0.884
      -0.649
       0.009
       0.684
       0.963
       0.761
       0.351
       0.054
      -0.060
      -0.155
      -0.349
      -0.532
      -0.503
      -0.255
      -0.030
      -0.045
      -0.242
      -0.368
      -0.263
      -0.001
       0.242
       0.377
       0.417
       0.392
       0.316
       0.220
       0.148
       0.098
       0.022
      -0.093
      -0.180
      -0.166
      -0.052
       0.104
       0.246
       0.321
       0.263
       0.043
      -0.251
      -0.466
      -0.505
      -0.378
      -0.145
       0.104
       0.242
       0.159
      -0.111
      -0.360
      -0.367
      -0.083
       0.334
       0.643
       0.670
       0.411
       0.037
      -0.205
      -0.179
       0.027
       0.175
       0.087
      -0.201
      -0.484
      -0.560
      -0.372
      -0.017
       0.328
       0.517
       0.505
       0.353
       0.155
      -0.034
      -0.217
      -0.403
      -0.544
      -0.537
      -0.301
       0.126
       0.560
       0.744
       0.513
      -0.056
      -0.624
      -0.784
      -0.396
       0.254
       0.670
       0.574
       0.158
      -0.122
      -0.019
       0.269
       0.332
       0.011
      -0.441
      -0.642
      -0.473
      -0.152
       0.026
      -0.021
      -0.150
      -0.192
      -0.124
      -0.025
       0.046
       0.101
       0.161
       0.209
       0.215
       0.190
       0.180
       0.207
       0.216
       0.134
      -0.019
      -0.116
      -0.065
       0.071
       0.122
       0.004
      -0.178
      -0.250
      -0.145
       0.054
       0.237
       0.348
       0.349
       0.195
      -0.093
      -0.357
      -0.389
      -0.141
       0.180
       0.261
      -0.050
      -0.578
      -0.907
      -0.712
      -0.055
       0.618
       0.846
       0.531
