Origin Time       11/11/2013 20:11:30
Lat.              28.4 N	
Long.             77.2 E	
Depth (Km)         10.0
Magnitude         3.3
 Region           DELHI                                                            
 Above details taken from IMD 
   
Station Code      IGN
Station Lat.       28.492
Station Long.      77.203
Station Height(m)  263.0
Site Class        A   Vs30 between 700 m/sec to 1400 m/sec * 
Record Time       11.11.2013 20:11:08.054
Sampling Rate     200. Hz
 Record Duration   89.405 Sec.
 Direction         Vert. (Up positive)
Max. Acceleration      7.021 cm/sec**2
     
  * For reference see Site Classification link of website 
     
 Base Line Corrected and Low Pass Filtered (Cut Off at 35 Hz) Time History
 Acceleration data in cm/sec**2
    
[...]
       0.029
       0.089
       0.094
       0.028
      -0.062
      -0.107
      -0.082
      -0.022
       0.014
       0.001
      -0.033
      -0.034
       0.019
       0.089
       0.116
       0.082
       0.032
       0.017
       0.034
       0.031
      -0.029
      -0.129
      -0.219
      -0.256
      -0.227
      -0.147
      -0.055
       0.007
       0.011
      -0.035
      -0.091
      -0.108
      -0.064
       0.012
       0.058
       0.042
      -0.008
      -0.030
       0.005
       0.072
       0.119
       0.112
       0.053
      -0.024
      -0.069
      -0.053
       0.009
       0.059
       0.050
      -0.009
      -0.057
      -0.042
       0.024
       0.082
       0.084
       0.034
      -0.025
      -0.054
      -0.043
       0.002
       0.059
       0.096
       0.088
       0.041
      -0.009
      -0.023
       0.009
       0.064
       0.109
       0.115
       0.076
       0.017
      -0.028
      -0.043
      -0.036
      -0.019
       0.007
       0.051
       0.104
       0.135
       0.113
       0.040
      -0.049
      -0.106
      -0.107
      -0.058
       0.016
       0.082
       0.106
       0.071
      -0.010
      -0.085
      -0.104
      -0.062
       0.001
       0.037
       0.022
      -0.024
      -0.060
      -0.044
       0.029
       0.128
       0.194
       0.187
       0.112
       0.015
      -0.054
      -0.069
      -0.039
      -0.004
      -0.008
      -0.059
      -0.113
      -0.112
      -0.034
       0.084
       0.178
       0.203
       0.162
       0.091
       0.030
      -0.002
      -0.011
      -0.019
      -0.040
      -0.058
      -0.045
       0.008
       0.065
       0.080
       0.037
      -0.023
      -0.042
      -0.005
       0.041
       0.041
      -0.010
      -0.055
      -0.036
       0.047
       0.130
       0.147
       0.082
      -0.012
      -0.066
      -0.038
       0.050
       0.131
       0.137
       0.052
      -0.076
      -0.166
      -0.156
      -0.056
       0.055
       0.100
       0.069
       0.026
       0.034
       0.090
       0.137
       0.137
       0.105
       0.083
       0.085
       0.081
       0.035
      -0.048
      -0.118
      -0.124
      -0.064
       0.014
       0.050
       0.028
      -0.013
      -0.021
       0.013
       0.040
       0.006
      -0.093
      -0.192
      -0.210
      -0.119
       0.032
       0.147
       0.153
       0.054
      -0.071
      -0.130
      -0.090
       0.008
       0.091
       0.112
       0.078
       0.021
      -0.026
      -0.049
      -0.045
      -0.014
       0.040
       0.109
       0.173
       0.211
       0.209
       0.172
       0.125
       0.085
       0.055
       0.020
      -0.013
      -0.020
       0.016
       0.070
       0.089
       0.051
      -0.012
      -0.050
      -0.041
      -0.008
       0.017
       0.032
       0.057
       0.098
       0.138
       0.144
       0.101
       0.030
      -0.024
      -0.030
       0.000
       0.025
       0.023
       0.006
       0.005
       0.029
       0.064
       0.085
       0.084
       0.067
       0.042
       0.016
      -0.006
      -0.018
      -0.024
      -0.048
      -0.106
      -0.181
      -0.220
      -0.171
      -0.047
       0.077
       0.115
       0.047
      -0.069
      -0.145
      -0.126
      -0.030
       0.074
       0.108
       0.055
      -0.033
      -0.072
      -0.026
       0.061
       0.111
       0.087
       0.021
      -0.027
      -0.038
      -0.041
      -0.074
      -0.125
      -0.143
      -0.099
      -0.021
       0.032
       0.042
       0.043
       0.078
       0.145
       0.197
       0.191
       0.129
       0.052
       0.002
      -0.012
      -0.015
      -0.038
      -0.082
      -0.109
      -0.080
       0.008
       0.114
       0.186
       0.192
       0.135
       0.047
      -0.033
      -0.066
      -0.040
       0.027
       0.097
       0.139
       0.142
       0.113
       0.068
       0.022
      -0.005
       0.006
       0.049
       0.093
       0.102
       0.066
       0.013
      -0.018
      -0.011
       0.016
       0.021
      -0.023
      -0.085
      -0.105
      -0.051
       0.040
       0.087
       0.045
      -0.055
      -0.130
      -0.124
      -0.055
       0.002
      -0.003
      -0.052
      -0.073
      -0.017
       0.084
       0.155
       0.151
       0.100
       0.069
       0.085
       0.115
       0.098
       0.014
      -0.090
      -0.144
      -0.123
      -0.063
      -0.021
      -0.016
      -0.022
      -0.008
       0.015
       0.014
      -0.028
      -0.087
      -0.116
      -0.092
      -0.027
       0.037
       0.064
       0.041
      -0.009
      -0.047
      -0.044
      -0.010
       0.021
       0.022
       0.002
      -0.007
       0.010
       0.031
       0.026
      -0.011
      -0.058
      -0.083
      -0.073
      -0.040
      -0.012
       0.001
       0.017
       0.063
       0.129
       0.169
       0.136
       0.026
      -0.108
      -0.191
      -0.170
      -0.054
       0.081
       0.147
       0.106
       0.001
      -0.085
      -0.098
      -0.049
       0.010
       0.035
       0.024
       0.010
       0.025
       0.067
       0.101
       0.096
       0.065
       0.050
       0.082
       0.144
       0.172
       0.120
       0.007
      -0.088
      -0.094
      -0.023
       0.048
       0.052
      -0.002
      -0.053
      -0.061
      -0.048
      -0.055
      -0.083
      -0.093
      -0.050
       0.033
       0.101
       0.109
       0.057
      -0.010
      -0.045
      -0.028
       0.027
       0.087
       0.122
       0.111
       0.051
      -0.029
      -0.078
      -0.065
      -0.007
       0.045
       0.053
       0.026
       0.000
      -0.006
       0.004
       0.006
      -0.013
      -0.042
      -0.055
      -0.042
      -0.020
      -0.014
      -0.025
      -0.032
      -0.020
       0.002
       0.011
       0.001
      -0.016
      -0.022
      -0.020
      -0.029
      -0.058
      -0.101
      -0.138
      -0.142
      -0.099
      -0.018
       0.060
       0.085
       0.040
      -0.046
      -0.125
      -0.169
      -0.172
      -0.139
      -0.082
      -0.024
       0.004
      -0.011
      -0.049
      -0.070
      -0.050
      -0.003
       0.045
       0.078
       0.097
       0.099
       0.078
       0.033
      -0.024
      -0.074
      -0.102
      -0.099
      -0.069
      -0.028
      -0.008
      -0.021
      -0.051
      -0.073
      -0.081
      -0.098
      -0.139
      -0.184
      -0.190
      -0.138
      -0.069
      -0.050
      -0.103
      -0.176
      -0.196
      -0.158
      -0.135
      -0.198
      -0.308
      -0.329
      -0.167
       0.081
       0.177
      -0.009
      -0.291
      -0.297
       0.118
       0.654
       0.848
       0.562
       0.138
       0.038
       0.331
       0.625
       0.546
       0.198
      -0.006
       0.084
       0.168
      -0.025
      -0.253
      -0.032
       0.624
       1.034
       0.618
      -0.335
      -0.895
      -0.541
       0.258
       0.615
       0.216
      -0.443
      -0.739
      -0.563
      -0.233
       0.013
       0.187
       0.275
       0.111
      -0.347
      -0.789
      -0.792
      -0.297
       0.269
       0.419
       0.145
      -0.035
       0.314
       0.893
       0.871
      -0.104
      -1.270
      -1.420
      -0.252
       1.183
       1.547
       0.598
      -0.643
      -1.000
      -0.259
       0.774
       1.126
       0.507
      -0.566
      -1.300
      -1.242
      -0.464
       0.630
       1.510
       1.653
       0.826
      -0.590
      -1.673
      -1.629
      -0.469
       0.951
       1.627
       1.218
       0.258
      -0.427
      -0.499
      -0.278
      -0.222
      -0.388
      -0.492
      -0.381
      -0.191
      -0.024
       0.222
       0.535
       0.556
      -0.031
      -0.879
      -1.110
      -0.268
       0.994
       1.445
       0.562
      -0.852
      -1.440
      -0.647
       0.806
       1.698
       1.385
       0.127
      -1.306
      -2.141
      -1.908
      -0.665
       0.909
       1.813
       1.456
       0.221
      -0.810
      -0.838
      -0.096
       0.450
       0.169
      -0.526
      -0.641
       0.274
       1.561
       2.071
       1.266
      -0.328
      -1.675
      -2.080
      -1.528
      -0.423
       0.743
       1.522
       1.593
       0.991
       0.204
      -0.197
      -0.103
       0.039
      -0.231
      -0.830
      -1.181
      -0.791
       0.227
       1.175
       1.320
       0.492
      -0.740
      -1.509
      -1.364
      -0.617
       0.037
       0.212
       0.082
       0.001
       0.074
       0.161
       0.160
       0.124
       0.145
       0.217
       0.236
       0.109
      -0.101
      -0.175
       0.023
       0.326
       0.402
       0.155
      -0.149
      -0.229
      -0.130
      -0.101
      -0.194
      -0.163
       0.199
       0.709
       0.918
       0.586
      -0.061
      -0.572
      -0.674
      -0.422
      -0.063
       0.109
      -0.102
      -0.589
      -0.894
      -0.553
       0.437
       1.525
       1.990
       1.413
      -0.079
      -1.815
      -2.809
      -2.325
      -0.517
       1.484
       2.356
       1.656
       0.133
      -0.975
      -0.962
      -0.083
       0.805
       0.964
       0.307
      -0.577
      -0.879
      -0.206
       1.056
       1.970
       1.740
       0.369
      -1.300
      -2.195
      -1.794
      -0.466
       0.805
       1.146
       0.485
      -0.371
      -0.457
       0.374
       1.194
       0.858
      -0.761
      -2.393
      -2.422
      -0.470
       2.091
       3.319
       2.402
       0.182
      -1.798
      -2.574
      -2.214
      -1.335
      -0.386
       0.570
       1.487
       1.972
       1.513
       0.115
      -1.458
      -2.207
      -1.682
      -0.277
       1.131
       1.773
       1.396
       0.348
      -0.681
      -1.138
      -0.945
      -0.418
       0.110
       0.486
       0.615
       0.340
      -0.321
      -0.897
      -0.706
       0.421
       1.759
       2.183
       1.167
      -0.653
      -1.914
      -1.635
      -0.082
       1.410
       1.534
       0.110
      -1.794
      -2.725
      -1.925
       0.150
       2.123
       2.605
       1.225
      -0.983
      -2.279
      -1.603
       0.516
       2.373
       2.506
       0.918
      -0.975
      -1.621
      -0.723
       0.581
       0.954
       0.209
      -0.701
      -0.891
      -0.375
       0.311
       0.802
       0.962
       0.641
      -0.169
      -1.017
      -1.258
      -0.707
       0.168
       0.739
       0.708
       0.152
      -0.620
      -1.150
      -0.965
       0.040
       1.275
       1.770
       1.006
      -0.542
      -1.723
      -1.640
      -0.337
       1.317
       2.304
       2.079
       0.821
      -0.702
      -1.591
      -1.429
      -0.575
       0.226
       0.546
       0.503
       0.366
       0.216
       0.049
      -0.070
      -0.127
      -0.253
      -0.462
      -0.408
       0.292
       1.412
       2.051
       1.441
      -0.221
      -1.837
      -2.304
      -1.402
       0.045
       0.878
       0.614
      -0.160
      -0.466
       0.037
       0.809
       1.101
       0.686
      -0.089
      -0.732
      -0.882
      -0.307
       0.946
       2.192
       2.270
       0.602
      -1.851
      -3.161
      -2.223
       0.110
       1.818
       1.633
       0.112
      -1.111
      -0.957
       0.278
       1.480
       1.771
       1.050
      -0.132
      -1.038
      -1.187
      -0.592
       0.219
       0.458
      -0.292
      -1.451
      -1.711
      -0.320
       1.887
       3.055
       2.083
      -0.246
      -2.040
      -2.131
      -0.985
       0.139
       0.609
       0.740
       0.914
       0.868
       0.177
      -0.828
      -1.155
      -0.355
       0.756
       1.014
       0.350
      -0.170
       0.162
       0.676
       0.211
      -1.209
      -2.148
      -1.379
       0.627
       2.102
       1.771
      -0.003
      -1.711
      -2.088
      -1.026
       0.551
       1.516
       1.359
       0.458
      -0.322
      -0.399
       0.078
       0.497
       0.452
       0.077
      -0.181
      -0.021
       0.405
       0.553
      -0.024
      -1.069
      -1.627
      -0.955
       0.569
       1.711
       1.604
       0.532
      -0.487
      -0.672
       0.036
       1.148
       1.954
       1.866
       0.887
      -0.208
      -0.528
      -0.006
       0.506
       0.189
      -0.839
      -1.680
      -1.610
      -0.773
      -0.003
      -0.069
      -1.052
      -2.325
      -3.041
      -2.687
      -1.383
       0.196
       1.203
       1.157
       0.359
      -0.233
       0.220
       1.629
       2.936
       3.017
       1.742
       0.148
      -0.510
       0.041
       0.858
       0.733
      -0.631
      -2.335
      -3.039
      -2.060
       0.091
       2.067
       2.641
       1.597
      -0.120
      -1.178
      -0.978
      -0.072
       0.508
       0.298
      -0.214
      -0.222
       0.417
       0.925
       0.431
      -1.016
      -2.434
      -2.873
      -2.183
      -0.875
       0.418
       1.189
       1.090
       0.178
      -0.842
      -1.030
      -0.158
       0.885
       0.941
      -0.084
      -0.932
      -0.171
       2.375
       5.364
       7.021
       6.486
       4.209
       1.277
      -1.413
      -3.326
      -4.102
      -3.660
      -2.424
      -1.124
      -0.242
       0.218
       0.419
       0.255
      -0.621
      -2.283
      -4.100
      -5.022
      -4.442
      -2.682
      -0.520
       1.627
       3.715
       5.346
       5.537
       3.648
       0.438
      -2.221
      -2.884
      -1.722
      -0.239
       0.139
      -0.692
      -1.466
      -0.772
       1.503
       3.884
       4.539
       2.887
       0.050
      -2.132
      -2.556
      -1.499
      -0.109
       0.629
       0.515
       0.022
      -0.238
       0.001
       0.415
       0.192
      -1.321
      -3.745
      -5.510
      -4.994
      -2.142
       1.160
       2.689
       2.028
       0.954
       1.478
       3.556
       4.982
       3.701
       0.076
      -3.301
      -4.049
      -2.098
       0.657
       2.460
       3.077
       3.223
       3.175
       2.379
       0.371
      -2.233
      -3.928
      -3.538
      -1.251
       1.501
       3.078
       2.627
       0.446
      -2.233
      -3.883
      -3.618
      -1.900
      -0.275
      -0.089
      -1.232
      -2.250
      -1.857
      -0.275
       1.119
       1.455
       1.294
       1.652
       2.544
       3.033
       2.522
       1.447
       0.692
       0.645
       0.936
       0.965
       0.588
       0.227
       0.319
       0.651
       0.373
      -1.195
      -3.691
      -5.749
      -6.067
      -4.472
      -1.941
       0.277
       1.396
       1.244
       0.130
      -1.232
      -1.871
      -1.102
       0.802
       2.583
       3.026
       2.102
       0.976
       0.765
       1.402
       1.836
       1.281
       0.109
      -0.574
      -0.151
       0.803
       1.099
       0.185
      -1.205
      -1.680
      -0.529
       1.476
       2.612
       1.680
      -0.865
      -3.199
      -3.632
      -2.032
       0.095
       0.953
      -0.029
      -1.773
      -2.497
      -1.223
       1.304
       3.131
       2.724
       0.307
      -2.396
      -3.680
      -3.052
      -1.165
       0.926
       2.305
       2.505
       1.719
       0.654
      -0.069
      -0.414
      -0.719
      -1.054
      -1.058
      -0.441
       0.621
       1.695
       2.441
       2.631
       2.104
       0.974
      -0.159
      -0.478
       0.311
       1.480
       1.758
       0.546
      -1.373
      -2.482
      -1.981
      -0.585
       0.131
      -0.714
      -2.364
      -3.140
      -2.179
      -0.358
       0.645
       0.143
      -0.870
      -0.794
       0.886
       2.968
       3.547
       1.777
      -1.248
      -3.399
      -3.367
      -1.662
       0.162
       1.070
       1.219
       1.272
       1.460
       1.488
       1.116
       0.472
      -0.166
      -0.587
      -0.603
      -0.083
       0.765
       1.315
       1.050
       0.202
      -0.392
      -0.199
       0.431
       0.697
       0.239
      -0.566
      -1.114
      -1.161
      -0.873
      -0.548
      -0.422
      -0.598
      -0.954
      -1.121
      -0.745
       0.118
       0.948
       1.213
       0.839
       0.194
      -0.286
      -0.406
      -0.249
      -0.026
       0.088
       0.045
      -0.060
      -0.011
       0.410
       1.252
       2.259
       2.935
       2.809
       1.719
      -0.050
      -1.763
      -2.504
      -1.795
      -0.168
       1.019
       0.626
      -1.214
      -3.100
      -3.489
      -1.969
       0.479
       2.371
       2.859
       2.133
       0.941
      -0.068
      -0.626
      -0.800
      -0.817
      -0.848
      -0.888
      -0.854
      -0.751
      -0.644
      -0.500
      -0.169
       0.417
       1.091
       1.537
       1.493
       0.870
      -0.144
      -0.997
      -1.026
      -0.099
       1.063
       1.479
       0.906
       0.086
      -0.026
       0.795
       1.836
       2.059
       0.941
      -1.086
      -2.896
      -3.476
      -2.657
      -1.126
       0.261
       1.079
       1.310
       1.005
       0.236
      -0.652
      -1.057
      -0.624
       0.373
       1.280
       1.657
       1.574
       1.366
       1.211
       1.012
       0.664
       0.292
       0.162
       0.357
       0.586
       0.336
      -0.712
      -2.300
      -3.623
      -3.892
      -2.960
      -1.374
       0.142
       1.172
       1.628
       1.487
       0.679
      -0.656
      -1.853
      -1.939
      -0.458
       1.907
       3.763
       4.080
       2.843
       0.816
      -1.063
      -2.147
      -2.269
      -1.669
      -0.752
       0.117
       0.637
       0.620
       0.157
      -0.351
      -0.462
      -0.051
       0.594
       0.997
       0.818
       0.067
      -0.860
      -1.348
      -0.995
      -0.050
       0.658
       0.465
      -0.405
      -0.981
      -0.536
       0.559
       1.098
       0.322
      -1.143
      -1.871
      -1.192
       0.080
       0.633
       0.184
      -0.285
       0.191
       1.391
       2.179
       1.749
       0.408
      -0.787
      -1.033
      -0.466
       0.037
      -0.232
      -1.073
      -1.600
      -1.221
      -0.238
       0.547
       0.672
       0.354
       0.112
       0.229
       0.581
       0.825
       0.666
       0.096
      -0.505
      -0.613
      -0.050
       0.783
       1.261
       1.106
       0.507
      -0.243
      -1.033
      -1.748
      -2.007
      -1.364
       0.104
       1.598
       2.175
       1.574
       0.388
      -0.577
      -0.977
      -0.959
      -0.723
      -0.297
       0.322
       0.999
       1.470
       1.431
       0.686
      -0.598
      -1.740
      -1.878
      -0.740
       0.856
       1.530
       0.598
      -1.158
      -2.119
      -1.273
       0.840
