Origin Time       11/11/2013 19:11:18 UTC
Lat.              28.5 N	
Long.             77.2 E	
Depth (Km)         10.0
Magnitude         3.1
 Region           DELHI                                                            
 Above details taken from IMD 
    
Station Code      IGN
Station Lat.       28.492  N
Station Long.      77.203  E
Station Height(m)  263.0
Site Class        A   Vs30 between 700 m/sec to 1400 m/sec * 
Record Time       11.11.2013 19:10:55.469 UTC
Sampling Rate     200. Hz
 Record Duration   85.810 Sec.
 Direction         N-S (N positive)
Max. Acceleration     -6.222 cm/sec**2
     
  * For reference see Site Classification link of website 
     
 Base Line Corrected and Low Pass Filtered (Cut Off at 35 Hz) Time History
 Acceleration data in cm/sec**2
    
[...]
      -0.026
      -0.028
      -0.028
      -0.024
      -0.016
      -0.006
       0.003
       0.010
       0.013
       0.014
       0.012
       0.006
      -0.002
      -0.008
      -0.009
      -0.003
       0.007
       0.011
       0.008
       0.001
      -0.001
       0.005
       0.010
       0.007
      -0.004
      -0.014
      -0.016
      -0.012
      -0.009
      -0.009
      -0.009
      -0.006
      -0.001
       0.001
      -0.003
      -0.009
      -0.010
      -0.006
       0.001
       0.007
       0.012
       0.018
       0.022
       0.021
       0.016
       0.010
       0.007
       0.009
       0.011
       0.013
       0.014
       0.013
       0.009
       0.001
      -0.011
      -0.022
      -0.027
      -0.026
      -0.025
      -0.028
      -0.037
      -0.046
      -0.047
      -0.037
      -0.023
      -0.009
      -0.002
      -0.001
      -0.003
      -0.007
      -0.008
      -0.004
       0.005
       0.016
       0.021
       0.018
       0.010
       0.003
       0.001
       0.000
      -0.001
      -0.005
      -0.008
      -0.009
      -0.007
      -0.004
      -0.001
      -0.002
      -0.010
      -0.019
      -0.024
      -0.023
      -0.016
      -0.010
      -0.007
      -0.008
      -0.009
      -0.005
       0.002
       0.008
       0.012
       0.011
       0.008
       0.002
      -0.005
      -0.011
      -0.011
      -0.004
       0.010
       0.022
       0.027
       0.025
       0.020
       0.015
       0.014
       0.014
       0.013
       0.012
       0.008
       0.004
       0.003
       0.004
       0.003
      -0.002
      -0.012
      -0.023
      -0.030
      -0.030
      -0.023
      -0.013
      -0.007
      -0.007
      -0.012
      -0.016
      -0.011
      -0.001
       0.008
       0.007
      -0.001
      -0.008
      -0.005
       0.010
       0.027
       0.034
       0.029
       0.017
       0.007
       0.004
       0.004
       0.005
       0.003
       0.000
      -0.002
      -0.002
      -0.004
      -0.007
      -0.012
      -0.016
      -0.015
      -0.012
      -0.004
       0.005
       0.011
       0.006
      -0.009
      -0.024
      -0.031
      -0.026
      -0.014
      -0.002
       0.003
       0.001
      -0.001
       0.003
       0.013
       0.023
       0.029
       0.030
       0.030
       0.027
       0.022
       0.012
       0.002
      -0.004
      -0.005
      -0.002
       0.003
       0.007
       0.007
       0.004
       0.000
      -0.004
      -0.003
       0.003
       0.011
       0.015
       0.013
       0.006
      -0.001
      -0.004
      -0.004
      -0.003
      -0.003
      -0.003
      -0.003
      -0.003
      -0.006
      -0.012
      -0.016
      -0.014
      -0.005
       0.004
       0.010
       0.011
       0.010
       0.007
       0.004
      -0.002
      -0.010
      -0.017
      -0.019
      -0.014
      -0.009
      -0.009
      -0.014
      -0.020
      -0.023
      -0.024
      -0.023
      -0.020
      -0.013
      -0.005
       0.000
       0.003
       0.003
       0.003
       0.001
      -0.003
      -0.008
      -0.008
      -0.002
       0.009
       0.018
       0.021
       0.018
       0.014
       0.011
       0.012
       0.014
       0.017
       0.017
       0.014
       0.008
       0.000
      -0.006
      -0.008
      -0.006
      -0.002
       0.000
      -0.003
      -0.007
      -0.008
      -0.004
      -0.001
      -0.001
      -0.007
      -0.012
      -0.013
      -0.008
       0.003
       0.015
       0.024
       0.026
       0.021
       0.009
      -0.004
      -0.015
      -0.019
      -0.015
      -0.010
      -0.007
      -0.007
      -0.009
      -0.011
      -0.010
      -0.008
      -0.004
      -0.001
      -0.002
      -0.006
      -0.012
      -0.016
      -0.015
      -0.013
      -0.012
      -0.016
      -0.025
      -0.035
      -0.038
      -0.032
      -0.019
      -0.002
       0.014
       0.027
       0.034
       0.034
       0.026
       0.013
       0.000
      -0.008
      -0.008
      -0.005
      -0.005
      -0.008
      -0.011
      -0.012
      -0.008
      -0.003
       0.002
       0.006
       0.005
       0.000
      -0.004
      -0.003
       0.002
       0.004
       0.001
      -0.007
      -0.015
      -0.016
      -0.010
      -0.001
       0.003
       0.002
       0.001
       0.005
       0.016
       0.024
       0.022
       0.013
       0.005
       0.005
       0.014
       0.022
       0.024
       0.016
       0.006
       0.004
       0.011
       0.021
       0.024
       0.017
       0.004
      -0.007
      -0.012
      -0.015
      -0.015
      -0.011
      -0.001
       0.009
       0.015
       0.012
       0.005
       0.002
       0.009
       0.024
       0.039
       0.046
       0.041
       0.031
       0.023
       0.022
       0.028
       0.033
       0.030
       0.020
       0.010
       0.007
       0.009
       0.009
       0.006
       0.002
      -0.001
      -0.002
      -0.002
      -0.003
      -0.003
      -0.003
      -0.004
      -0.006
      -0.010
      -0.012
      -0.010
      -0.006
       0.000
       0.004
       0.006
       0.005
       0.001
      -0.002
       0.001
       0.008
       0.015
       0.015
       0.008
      -0.002
      -0.008
      -0.003
       0.009
       0.021
       0.026
       0.021
       0.009
      -0.001
      -0.004
       0.000
       0.007
       0.012
       0.015
       0.014
       0.010
       0.005
       0.002
       0.004
       0.012
       0.020
       0.024
       0.017
       0.003
      -0.008
      -0.010
      -0.003
       0.007
       0.014
       0.014
       0.012
       0.011
       0.015
       0.023
       0.032
       0.035
       0.032
       0.024
       0.018
       0.018
       0.021
       0.023
       0.025
       0.028
       0.037
       0.054
       0.077
       0.101
       0.121
       0.127
       0.102
       0.037
      -0.059
      -0.145
      -0.180
      -0.155
      -0.111
      -0.110
      -0.187
      -0.322
      -0.456
      -0.531
      -0.507
      -0.360
      -0.088
       0.273
       0.647
       0.955
       1.139
       1.142
       0.924
       0.515
       0.044
      -0.334
      -0.546
      -0.627
      -0.662
      -0.698
      -0.698
      -0.587
      -0.337
       0.017
       0.415
       0.793
       1.059
       1.141
       1.071
       0.948
       0.775
       0.429
      -0.141
      -0.760
      -1.176
      -1.289
      -1.190
      -1.000
      -0.771
      -0.504
      -0.193
       0.171
       0.580
       0.961
       1.145
       0.952
       0.380
      -0.305
      -0.754
      -0.838
      -0.710
      -0.553
      -0.348
       0.019
       0.465
       0.686
       0.489
       0.065
      -0.182
      -0.078
       0.164
       0.251
       0.147
       0.052
       0.118
       0.266
       0.304
       0.143
      -0.126
      -0.325
      -0.336
      -0.146
       0.172
       0.469
       0.552
       0.324
      -0.092
      -0.415
      -0.452
      -0.246
      -0.006
       0.100
       0.069
      -0.012
      -0.137
      -0.372
      -0.642
      -0.662
      -0.239
       0.403
       0.758
       0.533
      -0.032
      -0.407
      -0.294
       0.136
       0.515
       0.644
       0.569
       0.375
       0.045
      -0.421
      -0.840
      -0.926
      -0.569
       0.009
       0.433
       0.511
       0.394
       0.378
       0.588
       0.845
       0.836
       0.416
      -0.233
      -0.739
      -0.882
      -0.779
      -0.671
      -0.601
      -0.400
       0.037
       0.525
       0.708
       0.422
      -0.096
      -0.430
      -0.371
      -0.045
       0.288
       0.431
       0.283
      -0.141
      -0.646
      -0.890
      -0.636
       0.012
       0.645
       0.857
       0.565
       0.084
      -0.153
      -0.002
       0.292
       0.425
       0.356
       0.234
       0.136
       0.026
      -0.107
      -0.198
      -0.221
      -0.240
      -0.286
      -0.293
      -0.208
      -0.089
      -0.010
       0.055
       0.175
       0.302
       0.288
       0.076
      -0.185
      -0.279
      -0.138
       0.125
       0.358
       0.468
       0.378
       0.024
      -0.520
      -0.955
      -0.932
      -0.384
       0.352
       0.781
       0.654
       0.141
      -0.381
      -0.690
      -0.821
      -0.823
      -0.555
       0.144
       1.113
       1.818
       1.714
       0.720
      -0.609
      -1.472
      -1.491
      -0.968
      -0.444
      -0.140
       0.076
       0.328
       0.561
       0.709
       0.833
       0.980
       1.001
       0.652
      -0.046
      -0.683
      -0.804
      -0.389
       0.100
       0.186
      -0.182
      -0.668
      -0.931
      -0.870
      -0.578
      -0.224
       0.050
       0.221
       0.442
       0.876
       1.402
       1.572
       1.047
       0.041
      -0.837
      -1.201
      -1.189
      -1.130
      -1.036
      -0.607
       0.253
       1.073
       1.185
       0.458
      -0.492
      -0.900
      -0.540
       0.215
       0.868
       1.164
       1.046
       0.519
      -0.303
      -1.117
      -1.534
      -1.356
      -0.746
      -0.111
       0.241
       0.318
       0.339
       0.474
       0.718
       0.932
       0.968
       0.754
       0.316
      -0.257
      -0.811
      -1.133
      -1.065
      -0.670
      -0.231
       0.017
       0.128
       0.342
       0.701
       0.890
       0.580
      -0.100
      -0.600
      -0.536
      -0.130
       0.081
      -0.090
      -0.304
      -0.209
       0.088
       0.203
       0.023
      -0.134
       0.069
       0.559
       0.929
       0.867
       0.386
      -0.305
      -0.970
      -1.366
      -1.302
      -0.825
      -0.248
       0.135
       0.338
       0.579
       0.905
       1.073
       0.869
       0.430
       0.106
       0.014
      -0.103
      -0.473
      -0.871
      -0.835
      -0.278
       0.298
       0.323
      -0.218
      -0.806
      -0.943
      -0.555
       0.097
       0.747
       1.230
       1.394
       1.127
       0.537
      -0.040
      -0.345
      -0.419
      -0.472
      -0.620
      -0.808
      -0.881
      -0.677
      -0.151
       0.530
       1.057
       1.197
       0.924
       0.377
      -0.222
      -0.658
      -0.844
      -0.875
      -0.874
      -0.769
      -0.345
       0.432
       1.178
       1.349
       0.786
      -0.059
      -0.529
      -0.379
       0.046
       0.219
      -0.056
      -0.528
      -0.798
      -0.664
      -0.219
       0.295
       0.667
       0.810
       0.752
       0.567
       0.334
       0.127
       0.020
       0.071
       0.219
       0.216
      -0.202
      -0.926
      -1.395
      -1.125
      -0.321
       0.272
       0.213
      -0.125
      -0.067
       0.479
       0.926
       0.758
       0.107
      -0.491
      -0.676
      -0.454
       0.001
       0.483
       0.722
       0.450
      -0.301
      -1.023
      -1.087
      -0.416
       0.331
       0.454
       0.046
      -0.137
       0.305
       0.845
       0.703
      -0.108
      -0.722
      -0.420
       0.546
       1.227
       0.971
       0.031
      -0.768
      -0.852
      -0.363
       0.106
       0.121
      -0.247
      -0.581
      -0.513
      -0.014
       0.593
       0.869
       0.598
      -0.009
      -0.490
      -0.582
      -0.455
      -0.379
      -0.280
       0.115
       0.754
       1.178
       1.022
       0.389
      -0.366
      -1.021
      -1.481
      -1.545
      -0.953
       0.200
       1.233
       1.359
       0.532
      -0.356
      -0.328
       0.638
       1.565
       1.479
       0.371
      -0.844
      -1.250
      -0.784
      -0.223
      -0.328
      -1.041
      -1.597
      -1.398
      -0.611
       0.119
       0.413
       0.486
       0.808
       1.536
       2.278
       2.377
       1.510
       0.042
      -1.248
      -1.837
      -1.813
      -1.540
      -1.101
      -0.241
       1.132
       2.549
       3.243
       2.802
       1.513
       0.056
      -1.052
      -1.712
      -2.075
      -2.270
      -2.270
      -1.929
      -1.139
      -0.034
       0.979
       1.524
       1.620
       1.639
       1.828
       1.955
       1.503
       0.201
      -1.641
      -3.275
      -4.019
      -3.685
      -2.606
      -1.306
      -0.167
       0.686
       1.357
       2.106
       3.088
       3.979
       3.966
       2.415
      -0.385
      -3.242
      -4.886
      -4.812
      -3.456
      -1.694
      -0.103
       1.379
       3.077
       4.874
       6.013
       5.672
       3.704
       0.823
      -1.847
      -3.484
      -4.059
      -4.198
      -4.435
      -4.570
      -3.839
      -1.755
       1.210
       3.732
       4.493
       3.177
       0.783
      -1.147
      -1.775
      -1.495
      -1.173
      -1.038
      -0.550
       0.682
       2.164
       2.861
       2.258
       0.982
       0.218
       0.437
       0.856
       0.359
      -1.086
      -2.254
      -2.073
      -0.941
      -0.188
      -0.329
      -0.412
       0.654
       2.480
       3.365
       2.121
      -0.511
      -2.475
      -2.429
      -1.030
      -0.158
      -0.928
      -2.566
      -3.312
      -2.317
      -0.352
       1.373
       2.664
       4.159
       5.804
       6.172
       3.834
      -0.702
      -4.885
      -6.222
      -4.410
      -1.346
       0.811
       1.421
       1.383
       1.743
       2.509
       2.812
       1.981
       0.261
      -1.464
      -2.497
      -2.782
      -2.605
      -2.076
      -1.126
       0.041
       0.804
       0.732
       0.217
       0.107
       0.535
       0.473
      -1.061
      -3.420
      -4.495
      -2.818
       0.735
       3.722
       4.538
       3.689
       2.674
       2.132
       1.508
       0.269
      -1.170
      -1.905
      -1.613
      -0.882
      -0.465
      -0.414
      -0.170
       0.552
       1.227
       1.102
       0.147
      -0.866
      -1.286
      -1.333
      -1.690
      -2.461
      -2.837
      -1.970
      -0.077
       1.560
       1.836
       1.004
       0.343
       0.639
       1.376
       1.597
       1.163
       0.713
       0.578
       0.301
      -0.591
      -1.678
      -1.948
      -1.006
       0.324
       0.820
       0.236
      -0.347
       0.293
       1.989
       3.140
       2.396
       0.212
      -1.590
      -1.799
      -1.025
      -0.764
      -1.408
      -1.615
       0.014
       2.855
       4.433
       2.958
      -0.661
      -3.653
      -4.063
      -2.359
      -0.553
      -0.052
      -0.515
      -0.645
       0.209
       1.387
       1.763
       0.995
      -0.197
      -0.871
      -0.769
      -0.291
       0.199
       0.738
       1.404
       1.837
       1.420
       0.041
      -1.501
      -2.159
      -1.685
      -0.779
      -0.124
       0.442
       1.454
       2.672
       2.939
       1.425
      -1.224
      -3.268
      -3.347
      -1.577
       0.638
       1.788
       1.425
       0.386
      -0.131
       0.254
       0.831
       0.658
      -0.417
      -1.591
      -1.894
      -1.123
      -0.006
       0.586
       0.570
       0.636
       1.262
       1.957
       1.734
       0.283
      -1.542
      -2.478
      -2.037
      -0.897
      -0.135
      -0.164
      -0.510
      -0.551
      -0.216
       0.155
       0.389
       0.632
       0.983
       1.233
       1.106
       0.610
       0.026
      -0.365
      -0.414
      -0.060
       0.611
       1.254
       1.379
       0.734
      -0.432
      -1.540
      -2.109
      -2.023
      -1.460
      -0.621
       0.392
       1.444
       2.152
       1.983
       0.735
      -1.068
      -2.400
      -2.507
      -1.511
      -0.213
       0.726
       1.314
       1.859
       2.291
       2.119
       1.133
      -0.085
      -0.588
      -0.037
       0.880
       1.067
      -0.003
      -1.819
      -3.152
      -2.920
      -1.095
       1.050
       1.857
       0.797
      -0.899
      -1.357
       0.071
       2.112
       2.777
       1.230
      -1.501
      -3.446
      -3.286
      -1.301
       0.971
       2.030
       1.591
       0.617
       0.186
       0.420
       0.603
       0.226
      -0.353
      -0.393
       0.253
       0.857
       0.623
      -0.344
      -1.088
      -0.821
       0.239
       1.088
       0.936
      -0.075
      -1.134
      -1.637
      -1.658
      -1.560
      -1.388
      -0.881
       0.034
       1.074
       1.934
       2.523
       2.753
       2.381
       1.292
      -0.144
      -1.302
      -1.908
      -2.171
      -2.226
      -1.731
      -0.354
       1.439
       2.505
       2.099
       0.676
      -0.567
      -0.863
      -0.489
      -0.255
      -0.541
      -0.916
      -0.702
       0.198
       1.126
       1.343
       0.781
      -0.008
      -0.524
      -0.711
      -0.685
      -0.389
       0.262
       1.051
       1.457
       1.055
      -0.089
      -1.410
      -2.201
      -2.025
      -0.936
       0.526
       1.567
       1.566
       0.520
      -0.864
      -1.640
      -1.366
      -0.464
       0.203
       0.156
      -0.228
      -0.103
       0.939
       2.307
       2.851
       1.953
       0.157
      -1.357
      -1.891
      -1.683
      -1.324
      -0.957
      -0.274
       0.764
       1.547
       1.379
       0.344
      -0.703
      -1.064
      -0.867
      -0.620
      -0.362
       0.281
       1.245
       1.717
       1.000
      -0.538
      -1.668
      -1.480
      -0.190
       1.184
       1.782
       1.495
       0.780
       0.102
      -0.370
      -0.645
      -0.724
      -0.649
      -0.588
      -0.711
      -0.952
      -1.006
      -0.631
       0.068
       0.742
       1.155
       1.310
       1.217
       0.748
      -0.105
      -0.953
      -1.199
      -0.588
       0.503
       1.330
       1.332
       0.523
      -0.540
      -1.184
      -1.124
      -0.651
      -0.368
      -0.640
      -1.180
      -1.228
      -0.347
       0.988
       1.736
       1.323
       0.245
      -0.392
       0.080
       1.266
       2.039
       1.533
      -0.038
      -1.503
      -1.776
      -0.850
       0.250
       0.492
      -0.222
      -1.130
      -1.457
      -1.048
      -0.249
       0.579
       1.266
       1.661
       1.492
       0.600
      -0.692
      -1.614
      -1.502
      -0.403
       0.871
       1.359
       0.726
      -0.491
      -1.374
      -1.359
      -0.553
       0.519
       1.344
       1.681
       1.547
       1.081
       0.446
      -0.152
      -0.483
      -0.441
      -0.195
      -0.083
      -0.277
      -0.629
      -0.890
      -0.961
      -0.822
      -0.365
       0.466
       1.367
       1.680
       0.945
      -0.499
      -1.614
      -1.563
      -0.530
       0.425
       0.387
      -0.569
      -1.496
      -1.470
      -0.356
       1.139
       2.029
       1.773
       0.653
      -0.471
      -0.866
      -0.474
       0.186
       0.559
       0.507
       0.288
       0.183
       0.198
       0.150
      -0.017
      -0.089
       0.161
