Origin Time       16/4/2013 10:44:11	
Lat.              28.0 N	
Long.             62.1 E	
Depth (Km)         46.0
Magnitude         7.8
 Region           Iran-Pakistan-Border-Region                                      
 Above details taken from IMD 
     
Station Code      IGN
Station Lat.       28.492  N
Station Long.      77.203  E
Station Height(m)  263.0
Site Class        A   Vs30 between 700 m/sec to 1400 m/sec * 
Record Time       16.04.2013 10:48:51.999
Sampling Rate     200. Hz
 Record Duration   84.910 Sec.
 Direction         E-W (E positive)
Max. Acceleration      2.518 cm/sec**2
     
  * For reference see Site Classification link of website 
     
 Base Line Corrected and Low Pass Filtered (Cut Off at 35 Hz) Time History
 Acceleration data in cm/sec**2
    
[...]
      -0.326
      -0.394
      -0.461
      -0.521
      -0.570
      -0.604
      -0.621
      -0.621
      -0.605
      -0.575
      -0.537
      -0.509
      -0.504
      -0.511
      -0.502
      -0.460
      -0.391
      -0.309
      -0.225
      -0.137
      -0.038
       0.089
       0.253
       0.438
       0.597
       0.693
       0.718
       0.688
       0.617
       0.520
       0.414
       0.319
       0.242
       0.187
       0.159
       0.163
       0.191
       0.232
       0.281
       0.335
       0.380
       0.399
       0.387
       0.345
       0.275
       0.181
       0.088
       0.024
      -0.002
      -0.003
       0.011
       0.044
       0.102
       0.183
       0.281
       0.381
       0.465
       0.522
       0.562
       0.604
       0.652
       0.693
       0.710
       0.695
       0.651
       0.591
       0.526
       0.457
       0.371
       0.251
       0.102
      -0.059
      -0.207
      -0.322
      -0.386
      -0.388
      -0.344
      -0.280
      -0.211
      -0.137
      -0.064
      -0.012
       0.013
       0.017
       0.004
      -0.034
      -0.097
      -0.160
      -0.194
      -0.200
      -0.193
      -0.173
      -0.129
      -0.054
       0.043
       0.149
       0.258
       0.356
       0.428
       0.471
       0.486
       0.474
       0.428
       0.350
       0.247
       0.126
       0.004
      -0.091
      -0.141
      -0.160
      -0.169
      -0.164
      -0.124
      -0.052
       0.016
       0.043
       0.024
      -0.027
      -0.093
      -0.155
      -0.196
      -0.218
      -0.237
      -0.259
      -0.272
      -0.269
      -0.270
      -0.303
      -0.374
      -0.467
      -0.567
      -0.666
      -0.756
      -0.830
      -0.876
      -0.876
      -0.803
      -0.650
      -0.439
      -0.202
       0.040
       0.284
       0.523
       0.751
       0.965
       1.160
       1.317
       1.418
       1.472
       1.505
       1.533
       1.551
       1.547
       1.515
       1.449
       1.346
       1.218
       1.088
       0.966
       0.846
       0.715
       0.571
       0.421
       0.273
       0.137
       0.024
      -0.065
      -0.141
      -0.218
      -0.294
      -0.358
      -0.398
      -0.400
      -0.355
      -0.273
      -0.176
      -0.079
       0.019
       0.118
       0.209
       0.285
       0.361
       0.454
       0.571
       0.703
       0.843
       0.978
       1.088
       1.158
       1.186
       1.166
       1.084
       0.931
       0.719
       0.472
       0.204
      -0.073
      -0.338
      -0.560
      -0.718
      -0.808
      -0.828
      -0.783
      -0.695
      -0.592
      -0.486
      -0.376
      -0.261
      -0.146
      -0.036
       0.070
       0.164
       0.231
       0.265
       0.275
       0.281
       0.297
       0.331
       0.385
       0.441
       0.473
       0.467
       0.431
       0.375
       0.296
       0.190
       0.067
      -0.060
      -0.198
      -0.365
      -0.564
      -0.779
      -0.987
      -1.167
      -1.297
      -1.368
      -1.385
      -1.358
      -1.287
      -1.171
      -1.021
      -0.861
      -0.711
      -0.584
      -0.486
      -0.418
      -0.363
      -0.301
      -0.220
      -0.122
       0.005
       0.179
       0.409
       0.677
       0.950
       1.193
       1.373
       1.470
       1.481
       1.417
       1.284
       1.089
       0.852
       0.610
       0.388
       0.187
       0.001
      -0.165
      -0.299
      -0.400
      -0.476
      -0.540
      -0.600
      -0.652
      -0.679
      -0.663
      -0.610
      -0.543
      -0.481
      -0.428
      -0.386
      -0.367
      -0.379
      -0.406
      -0.423
      -0.419
      -0.403
      -0.384
      -0.362
      -0.335
      -0.293
      -0.222
      -0.116
       0.009
       0.129
       0.225
       0.289
       0.314
       0.290
       0.223
       0.137
       0.058
      -0.001
      -0.033
      -0.039
      -0.029
      -0.008
       0.031
       0.098
       0.182
       0.249
       0.283
       0.293
       0.293
       0.284
       0.268
       0.264
       0.296
       0.376
       0.490
       0.617
       0.726
       0.783
       0.770
       0.688
       0.547
       0.354
       0.127
      -0.109
      -0.328
      -0.525
      -0.697
      -0.836
      -0.933
      -0.997
      -1.048
      -1.101
      -1.164
      -1.244
      -1.349
      -1.466
      -1.575
      -1.663
      -1.732
      -1.777
      -1.792
      -1.779
      -1.746
      -1.692
      -1.603
      -1.468
      -1.293
      -1.089
      -0.872
      -0.654
      -0.448
      -0.256
      -0.074
       0.095
       0.248
       0.391
       0.538
       0.694
       0.851
       0.999
       1.136
       1.261
       1.367
       1.445
       1.487
       1.488
       1.452
       1.398
       1.352
       1.330
       1.326
       1.326
       1.313
       1.279
       1.218
       1.139
       1.057
       0.980
       0.907
       0.827
       0.732
       0.623
       0.501
       0.376
       0.261
       0.162
       0.078
       0.013
      -0.011
       0.019
       0.096
       0.198
       0.310
       0.429
       0.544
       0.641
       0.707
       0.737
       0.727
       0.678
       0.600
       0.506
       0.405
       0.313
       0.257
       0.252
       0.275
       0.282
       0.246
       0.162
       0.034
      -0.139
      -0.343
      -0.556
      -0.764
      -0.969
      -1.169
      -1.355
      -1.517
      -1.649
      -1.734
      -1.753
      -1.697
      -1.573
      -1.380
      -1.105
      -0.757
      -0.375
      -0.007
       0.319
       0.608
       0.870
       1.107
       1.307
       1.445
       1.500
       1.481
       1.423
       1.352
       1.270
       1.172
       1.065
       0.958
       0.841
       0.700
       0.533
       0.352
       0.166
      -0.021
      -0.201
      -0.368
      -0.520
      -0.659
      -0.776
      -0.857
      -0.900
      -0.910
      -0.885
      -0.819
      -0.713
      -0.584
      -0.439
      -0.278
      -0.102
       0.080
       0.262
       0.449
       0.643
       0.838
       1.024
       1.192
       1.330
       1.424
       1.469
       1.464
       1.401
       1.263
       1.055
       0.805
       0.544
       0.287
       0.035
      -0.202
      -0.409
      -0.571
      -0.682
      -0.744
      -0.770
      -0.786
      -0.806
      -0.835
      -0.881
      -0.958
      -1.068
      -1.185
      -1.267
      -1.295
      -1.264
      -1.173
      -1.032
      -0.855
      -0.659
      -0.445
      -0.223
      -0.016
       0.151
       0.281
       0.388
       0.475
       0.536
       0.582
       0.630
       0.676
       0.693
       0.655
       0.546
       0.362
       0.107
      -0.191
      -0.493
      -0.772
      -1.022
      -1.246
      -1.444
      -1.625
      -1.800
      -1.968
      -2.115
      -2.230
      -2.313
      -2.360
      -2.353
      -2.285
      -2.168
      -2.022
      -1.844
      -1.619
      -1.337
      -0.998
      -0.604
      -0.168
       0.277
       0.700
       1.082
       1.415
       1.683
       1.877
       2.001
       2.069
       2.088
       2.050
       1.951
       1.795
       1.596
       1.364
       1.121
       0.893
       0.702
       0.552
       0.431
       0.326
       0.226
       0.124
       0.024
      -0.068
      -0.157
      -0.255
      -0.374
      -0.513
      -0.660
      -0.790
      -0.873
      -0.882
      -0.812
      -0.681
      -0.514
      -0.325
      -0.121
       0.089
       0.293
       0.474
       0.615
       0.705
       0.753
       0.778
       0.800
       0.820
       0.835
       0.843
       0.839
       0.811
       0.747
       0.653
       0.535
       0.395
       0.238
       0.071
      -0.096
      -0.258
      -0.412
      -0.547
      -0.651
      -0.725
      -0.771
      -0.795
      -0.802
      -0.805
      -0.811
      -0.821
      -0.828
      -0.830
      -0.812
      -0.749
      -0.616
      -0.413
      -0.147
       0.176
       0.540
       0.906
       1.230
       1.493
       1.703
       1.859
       1.944
       1.938
       1.834
       1.633
       1.354
       1.032
       0.705
       0.384
       0.059
      -0.278
      -0.615
      -0.933
      -1.218
      -1.462
      -1.659
      -1.818
      -1.947
      -2.044
      -2.082
      -2.036
      -1.900
      -1.688
      -1.416
      -1.114
      -0.818
      -0.551
      -0.310
      -0.082
       0.138
       0.348
       0.548
       0.733
       0.882
       0.973
       1.004
       0.989
       0.945
       0.884
       0.815
       0.743
       0.670
       0.599
       0.549
       0.527
       0.515
       0.473
       0.374
       0.233
       0.085
      -0.043
      -0.145
      -0.234
      -0.326
      -0.430
      -0.537
      -0.633
      -0.715
      -0.790
      -0.856
      -0.897
      -0.908
      -0.903
      -0.908
      -0.935
      -0.983
      -1.033
      -1.048
      -0.990
      -0.840
      -0.606
      -0.307
       0.035
       0.393
       0.738
       1.046
       1.306
       1.497
       1.586
       1.553
       1.422
       1.245
       1.067
       0.915
       0.807
       0.749
       0.730
       0.727
       0.733
       0.756
       0.806
       0.884
       0.982
       1.078
       1.138
       1.138
       1.085
       1.003
       0.896
       0.756
       0.592
       0.453
       0.389
       0.417
       0.516
       0.645
       0.748
       0.771
       0.695
       0.543
       0.357
       0.169
       0.000
      -0.136
      -0.233
      -0.309
      -0.380
      -0.452
      -0.524
      -0.607
      -0.715
      -0.850
      -1.005
      -1.172
      -1.336
      -1.469
      -1.552
      -1.586
      -1.589
      -1.571
      -1.535
      -1.478
      -1.394
      -1.262
      -1.064
      -0.802
      -0.495
      -0.153
       0.223
       0.619
       1.002
       1.340
       1.612
       1.808
       1.921
       1.956
       1.922
       1.832
       1.704
       1.566
       1.444
       1.343
       1.246
       1.142
       1.036
       0.940
       0.848
       0.748
       0.630
       0.490
       0.327
       0.149
      -0.026
      -0.189
      -0.339
      -0.472
      -0.571
      -0.618
      -0.610
      -0.556
      -0.473
      -0.379
      -0.295
      -0.229
      -0.181
      -0.146
      -0.121
      -0.098
      -0.067
      -0.030
      -0.006
      -0.013
      -0.046
      -0.094
      -0.149
      -0.209
      -0.264
      -0.314
      -0.372
      -0.451
      -0.544
      -0.631
      -0.697
      -0.742
      -0.761
      -0.742
      -0.675
      -0.559
      -0.397
      -0.189
       0.046
       0.271
       0.456
       0.583
       0.639
       0.617
       0.521
       0.371
       0.190
      -0.007
      -0.196
      -0.351
      -0.457
      -0.525
      -0.570
      -0.602
      -0.631
      -0.668
      -0.716
      -0.764
      -0.803
      -0.843
      -0.894
      -0.957
      -1.027
      -1.100
      -1.173
      -1.227
      -1.241
      -1.210
      -1.142
      -1.042
      -0.912
      -0.759
      -0.605
      -0.474
      -0.381
      -0.316
      -0.257
      -0.186
      -0.110
      -0.049
      -0.007
       0.035
       0.092
       0.150
       0.177
       0.156
       0.096
       0.023
      -0.039
      -0.066
      -0.048
       0.015
       0.110
       0.228
       0.360
       0.490
       0.599
       0.683
       0.752
       0.812
       0.864
       0.906
       0.943
       0.973
       0.985
       0.973
       0.937
       0.881
       0.798
       0.691
       0.571
       0.455
       0.349
       0.248
       0.149
       0.041
      -0.080
      -0.213
      -0.349
      -0.483
      -0.623
      -0.767
      -0.901
      -1.007
      -1.078
      -1.105
      -1.073
      -0.967
      -0.801
      -0.600
      -0.383
      -0.150
       0.094
       0.339
       0.570
       0.782
       0.978
       1.167
       1.356
       1.539
       1.698
       1.816
       1.896
       1.946
       1.952
       1.892
       1.752
       1.538
       1.254
       0.911
       0.532
       0.148
      -0.222
      -0.576
      -0.902
      -1.162
      -1.314
      -1.341
      -1.250
      -1.069
      -0.840
      -0.612
      -0.430
      -0.320
      -0.294
      -0.347
      -0.459
      -0.594
      -0.719
      -0.812
      -0.852
      -0.825
      -0.738
      -0.621
      -0.496
      -0.369
      -0.251
      -0.169
      -0.154
      -0.214
      -0.331
      -0.468
      -0.580
      -0.628
      -0.608
      -0.561
      -0.536
      -0.552
      -0.590
      -0.629
      -0.655
      -0.663
      -0.654
      -0.635
      -0.600
      -0.530
      -0.416
      -0.275
      -0.139
      -0.029
       0.050
       0.098
       0.123
       0.141
       0.168
       0.193
       0.182
       0.112
      -0.015
      -0.184
      -0.371
      -0.540
      -0.648
      -0.681
      -0.662
      -0.635
      -0.626
      -0.632
      -0.636
      -0.623
      -0.590
      -0.549
      -0.516
      -0.489
      -0.443
      -0.358
      -0.234
      -0.084
       0.073
       0.203
       0.279
       0.308
       0.337
       0.405
       0.515
       0.650
       0.807
       1.000
       1.234
       1.502
       1.790
       2.076
       2.318
       2.468
       2.518
       2.505
       2.479
       2.465
       2.460
       2.447
       2.412
       2.352
       2.286
       2.235
       2.209
       2.206
       2.221
       2.244
       2.245
       2.187
       2.055
       1.869
       1.648
       1.392
       1.099
       0.781
       0.460
       0.156
      -0.114
      -0.325
      -0.465
      -0.543
      -0.581
      -0.600
      -0.618
      -0.664
      -0.752
      -0.860
      -0.933
      -0.925
      -0.815
      -0.615
      -0.361
      -0.111
       0.083
       0.204
       0.265
       0.287
       0.280
       0.250
       0.207
       0.153
       0.086
       0.011
      -0.059
      -0.111
      -0.140
      -0.143
      -0.117
      -0.066
       0.000
       0.081
       0.184
       0.292
       0.367
       0.366
       0.282
       0.138
      -0.036
      -0.227
      -0.439
      -0.682
      -0.953
      -1.217
      -1.419
      -1.514
      -1.484
      -1.337
      -1.097
      -0.812
      -0.543
      -0.333
      -0.194
      -0.121
      -0.115
      -0.176
      -0.281
      -0.390
      -0.464
      -0.480
      -0.436
      -0.352
      -0.267
      -0.215
      -0.220
      -0.297
      -0.457
      -0.690
      -0.960
      -1.218
      -1.438
      -1.616
      -1.749
      -1.827
      -1.846
      -1.818
      -1.761
      -1.692
      -1.621
      -1.542
      -1.434
      -1.288
      -1.132
      -1.021
      -0.997
      -1.054
      -1.160
      -1.273
      -1.363
      -1.407
      -1.401
      -1.343
      -1.232
      -1.069
      -0.874
      -0.682
      -0.522
      -0.399
      -0.302
      -0.217
      -0.130
      -0.035
       0.059
       0.126
       0.152
       0.143
       0.112
       0.057
      -0.032
      -0.152
      -0.285
      -0.396
      -0.445
      -0.399
      -0.249
      -0.019
       0.248
       0.509
       0.728
       0.878
       0.947
       0.945
       0.885
       0.776
       0.627
       0.460
       0.301
       0.159
       0.034
      -0.072
      -0.138
      -0.139
      -0.058
       0.106
       0.325
       0.550
       0.731
       0.845
       0.889
       0.868
       0.798
       0.707
       0.623
       0.548
       0.464
       0.365
       0.267
       0.194
       0.155
       0.145
       0.138
       0.097
      -0.003
      -0.151
      -0.309
      -0.452
      -0.578
      -0.694
      -0.795
      -0.859
      -0.858
      -0.765
      -0.570
      -0.302
      -0.016
       0.241
       0.457
       0.632
       0.762
       0.846
       0.896
       0.937
       0.987
       1.057
       1.147
       1.236
       1.288
       1.277
       1.207
       1.104
       0.982
       0.853
       0.740
       0.658
       0.599
       0.532
       0.440
       0.336
       0.247
       0.202
       0.226
       0.322
       0.466
       0.619
       0.757
       0.873
       0.968
       1.030
       1.052
       1.036
       0.987
       0.913
       0.830
       0.762
       0.717
       0.677
       0.620
       0.534
       0.425
       0.301
       0.171
       0.046
      -0.072
      -0.196
      -0.341
      -0.514
      -0.715
      -0.942
      -1.183
      -1.412
      -1.603
      -1.748
      -1.849
      -1.910
      -1.923
      -1.881
      -1.774
      -1.595
      -1.349
      -1.056
      -0.742
      -0.425
      -0.118
       0.163
       0.399
       0.574
       0.674
       0.682
       0.592
       0.417
       0.188
      -0.069
      -0.335
      -0.585
      -0.797
      -0.962
      -1.084
      -1.162
      -1.195
      -1.191
      -1.165
      -1.132
      -1.095
      -1.057
      -1.023
      -0.992
      -0.962
      -0.938
      -0.928
      -0.923
      -0.899
      -0.836
      -0.731
      -0.581
      -0.383
      -0.150
       0.085
       0.291
       0.458
       0.591
       0.699
       0.795
       0.891
       0.982
       1.040
       1.039
       0.985
       0.908
       0.836
       0.779
       0.732
       0.676
       0.583
       0.433
       0.231
      -0.009
      -0.276
      -0.561
      -0.839
      -1.077
      -1.255
      -1.359
      -1.377
      -1.302
      -1.147
      -0.945
      -0.722
      -0.496
      -0.274
      -0.064
       0.138
       0.334
       0.514
       0.662
       0.780
       0.885
       0.981
       1.058
       1.108
       1.134
       1.145
       1.135
       1.101
       1.046
       0.970
       0.871
       0.752
       0.631
       0.518
       0.400
       0.263
       0.106
      -0.058
      -0.221
      -0.378
      -0.516
      -0.621
      -0.688
      -0.714
      -0.692
      -0.615
      -0.485
      -0.313
      -0.114
       0.100
       0.316
       0.523
       0.715
       0.885
       1.012
       1.070
       1.049
       0.967
       0.849
       0.719
       0.593
       0.483
       0.383
       0.285
       0.191
       0.113
       0.056
       0.022
       0.024
       0.076
       0.171
       0.277
       0.352
       0.367
       0.313
       0.203
       0.072
      -0.036
      -0.096
      -0.116
      -0.114
      -0.109
      -0.119
      -0.153
      -0.207
      -0.270
      -0.341
      -0.429
      -0.527
      -0.605
      -0.635
      -0.614
      -0.559
      -0.482
      -0.390
      -0.282
      -0.156
      -0.009
       0.150
       0.300
       0.435
       0.570
       0.724
       0.894
       1.049
       1.162
       1.216
       1.201
       1.116
       0.969
       0.780
       0.571
       0.362
       0.173
       0.014
      -0.125
      -0.270
      -0.433
      -0.609
      -0.784
      -0.949
      -1.096
      -1.219
      -1.324
      -1.431
      -1.551
      -1.677
      -1.794
      -1.896
      -1.982
      -2.041
      -2.055
      -2.005
