Origin Time       11/11/2013 22:10:42
Lat.              28.4 N	
Long.             77.2 E	
Depth (Km)         11.0
Magnitude         2.8
 Region           DELHI                                                            
 Above details taken from IMD 
     
Station Code      IGN
Station Lat.       28.492  N
Station Long.      77.203  E
Station Height(m)  263.0
Site Class        A   Vs30 between 700 m/sec to 1400 m/sec * 
Record Time       11.11.2013 22:10:21.844
Sampling Rate     200. Hz
 Record Duration   81.260 Sec.
 Direction         E-W (E positive)
Max. Acceleration      4.375 cm/sec**2
     
  * For reference see Site Classification link of website 
     
 Base Line Corrected and Low Pass Filtered (Cut Off at 35 Hz) Time History
 Acceleration data in cm/sec**2
    
[...]
      -0.004
      -0.003
       0.004
       0.013
       0.016
       0.010
       0.000
      -0.007
      -0.006
      -0.001
       0.002
       0.002
      -0.001
      -0.004
      -0.005
      -0.005
      -0.006
      -0.007
      -0.006
      -0.002
       0.004
       0.011
       0.018
       0.023
       0.021
       0.010
      -0.007
      -0.017
      -0.012
       0.004
       0.021
       0.027
       0.023
       0.016
       0.013
       0.013
       0.009
      -0.002
      -0.015
      -0.020
      -0.016
      -0.010
      -0.008
      -0.014
      -0.019
      -0.014
       0.004
       0.025
       0.035
       0.026
       0.006
      -0.008
      -0.007
       0.010
       0.028
       0.033
       0.021
       0.003
      -0.008
      -0.006
       0.004
       0.012
       0.014
       0.007
      -0.004
      -0.013
      -0.013
      -0.006
       0.003
       0.003
      -0.007
      -0.019
      -0.027
      -0.027
      -0.018
      -0.008
      -0.006
      -0.013
      -0.022
      -0.022
      -0.011
       0.006
       0.018
       0.019
       0.014
       0.011
       0.015
       0.021
       0.020
       0.012
       0.004
       0.004
       0.010
       0.013
       0.012
       0.010
       0.011
       0.016
       0.018
       0.013
       0.004
      -0.002
       0.001
       0.009
       0.011
       0.002
      -0.013
      -0.023
      -0.024
      -0.021
      -0.017
      -0.016
      -0.014
      -0.011
      -0.005
       0.001
       0.005
       0.007
       0.009
       0.013
       0.015
       0.013
       0.008
       0.003
       0.000
      -0.002
      -0.006
      -0.010
      -0.012
      -0.011
      -0.005
       0.002
       0.006
       0.006
       0.003
       0.001
       0.000
      -0.001
      -0.005
      -0.011
      -0.014
      -0.010
       0.002
       0.013
       0.018
       0.014
       0.010
       0.015
       0.026
       0.033
       0.029
       0.017
       0.008
       0.009
       0.015
       0.016
       0.010
      -0.002
      -0.011
      -0.012
      -0.005
       0.005
       0.014
       0.019
       0.019
       0.013
       0.004
      -0.002
      -0.003
       0.000
       0.005
       0.008
       0.009
       0.011
       0.013
       0.016
       0.014
       0.007
      -0.004
      -0.011
      -0.008
       0.002
       0.010
       0.009
       0.002
      -0.005
      -0.008
      -0.010
      -0.014
      -0.018
      -0.016
      -0.005
       0.009
       0.016
       0.008
      -0.007
      -0.018
      -0.016
      -0.006
       0.002
       0.002
      -0.003
      -0.001
       0.012
       0.031
       0.040
       0.030
       0.008
      -0.012
      -0.014
       0.003
       0.025
       0.037
       0.036
       0.028
       0.020
       0.016
       0.014
       0.011
       0.007
       0.005
       0.008
       0.014
       0.017
       0.012
       0.001
      -0.005
       0.000
       0.009
       0.011
       0.002
      -0.009
      -0.013
      -0.005
       0.007
       0.013
       0.007
      -0.003
      -0.012
      -0.018
      -0.021
      -0.021
      -0.014
      -0.003
       0.007
       0.013
       0.014
       0.013
       0.011
       0.008
       0.002
      -0.001
       0.003
       0.013
       0.024
       0.030
       0.024
       0.009
      -0.007
      -0.016
      -0.015
      -0.005
       0.007
       0.017
       0.018
       0.010
      -0.003
      -0.013
      -0.013
      -0.008
      -0.004
      -0.005
      -0.009
      -0.009
      -0.002
       0.008
       0.016
       0.016
       0.009
       0.000
      -0.004
      -0.002
       0.002
       0.004
       0.002
      -0.001
      -0.001
       0.001
       0.000
      -0.007
      -0.015
      -0.015
      -0.007
       0.001
       0.001
      -0.009
      -0.023
      -0.032
      -0.032
      -0.022
      -0.006
       0.010
       0.020
       0.023
       0.019
       0.011
       0.002
      -0.005
      -0.009
      -0.009
      -0.003
       0.009
       0.022
       0.027
       0.022
       0.011
       0.001
      -0.002
       0.001
       0.006
       0.007
       0.003
       0.001
       0.003
       0.010
       0.016
       0.017
       0.014
       0.009
       0.002
      -0.003
      -0.006
      -0.005
       0.000
       0.008
       0.020
       0.030
       0.031
       0.020
       0.004
      -0.007
      -0.008
      -0.005
      -0.003
      -0.005
      -0.007
      -0.005
      -0.001
       0.004
       0.005
       0.002
       0.001
       0.005
       0.014
       0.021
       0.022
       0.014
       0.001
      -0.011
      -0.016
      -0.016
      -0.010
       0.000
       0.010
       0.014
       0.008
      -0.005
      -0.016
      -0.017
      -0.010
      -0.003
      -0.001
      -0.004
      -0.006
      -0.003
       0.002
       0.005
       0.002
      -0.002
      -0.003
       0.001
       0.001
      -0.004
      -0.011
      -0.016
      -0.021
      -0.031
      -0.046
      -0.054
      -0.042
      -0.013
       0.016
       0.022
       0.004
      -0.017
      -0.018
       0.004
       0.031
       0.041
       0.024
      -0.002
      -0.009
       0.011
       0.037
       0.038
       0.011
      -0.019
      -0.030
      -0.022
      -0.009
       0.002
       0.004
      -0.009
      -0.023
      -0.017
       0.004
       0.014
       0.001
      -0.014
      -0.016
      -0.015
      -0.029
      -0.040
      -0.022
       0.024
       0.061
       0.061
       0.030
      -0.007
      -0.029
      -0.027
      -0.009
       0.007
       0.002
      -0.018
      -0.027
      -0.012
       0.012
       0.023
       0.012
      -0.014
      -0.049
      -0.080
      -0.076
      -0.014
       0.076
       0.119
       0.075
      -0.012
      -0.067
      -0.049
       0.017
       0.079
       0.085
       0.023
      -0.071
      -0.119
      -0.080
       0.009
       0.068
       0.061
       0.020
      -0.006
       0.002
       0.026
       0.043
       0.047
       0.049
       0.064
       0.091
       0.120
       0.133
       0.114
       0.058
      -0.018
      -0.084
      -0.105
      -0.077
      -0.048
      -0.079
      -0.184
      -0.303
      -0.347
      -0.265
      -0.090
       0.070
       0.123
       0.082
       0.041
       0.072
       0.155
       0.219
       0.220
       0.157
       0.054
      -0.051
      -0.119
      -0.122
      -0.068
       0.002
       0.033
      -0.003
      -0.082
      -0.140
      -0.107
       0.034
       0.192
       0.216
       0.027
      -0.259
      -0.400
      -0.250
       0.083
       0.331
       0.297
       0.048
      -0.135
      -0.042
       0.227
       0.351
       0.152
      -0.207
      -0.403
      -0.258
       0.130
       0.469
       0.491
       0.180
      -0.227
      -0.476
      -0.471
      -0.242
       0.100
       0.313
       0.153
      -0.315
      -0.659
      -0.489
       0.125
       0.710
       0.841
       0.484
      -0.055
      -0.436
      -0.505
      -0.307
      -0.013
       0.159
       0.107
      -0.056
      -0.156
      -0.163
      -0.135
      -0.065
       0.075
       0.201
       0.190
       0.054
      -0.073
      -0.096
      -0.034
       0.077
       0.217
       0.309
       0.237
       0.020
      -0.155
      -0.149
      -0.075
      -0.146
      -0.360
      -0.483
      -0.356
      -0.066
       0.180
       0.255
       0.185
       0.093
       0.105
       0.223
       0.300
       0.167
      -0.170
      -0.465
      -0.443
      -0.111
       0.213
       0.259
       0.107
       0.013
       0.070
       0.146
       0.097
      -0.063
      -0.183
      -0.139
       0.003
       0.037
      -0.148
      -0.406
      -0.464
      -0.195
       0.242
       0.552
       0.579
       0.430
       0.304
       0.263
       0.209
       0.050
      -0.191
      -0.428
      -0.583
      -0.578
      -0.348
       0.047
       0.345
       0.285
      -0.046
      -0.253
      -0.085
       0.268
       0.418
       0.217
      -0.121
      -0.302
      -0.255
      -0.137
      -0.087
      -0.067
       0.058
       0.332
       0.620
       0.657
       0.285
      -0.310
      -0.679
      -0.559
      -0.141
       0.149
       0.089
      -0.188
      -0.390
      -0.338
      -0.055
       0.282
       0.467
       0.429
       0.282
       0.143
      -0.034
      -0.320
      -0.581
      -0.518
      -0.014
       0.622
       0.869
       0.547
       0.036
      -0.174
      -0.056
       0.001
      -0.253
      -0.621
      -0.715
      -0.377
       0.158
       0.455
       0.316
       0.007
      -0.047
       0.210
       0.421
       0.297
      -0.049
      -0.262
      -0.147
       0.114
       0.137
      -0.222
      -0.639
      -0.647
      -0.164
       0.416
       0.617
       0.290
      -0.252
      -0.482
      -0.183
       0.277
       0.359
      -0.023
      -0.457
      -0.523
      -0.153
       0.409
       0.817
       0.832
       0.516
       0.182
       0.027
      -0.071
      -0.308
      -0.610
      -0.715
      -0.521
      -0.197
       0.038
       0.154
       0.282
       0.488
       0.612
       0.422
      -0.056
      -0.477
      -0.539
      -0.279
       0.020
       0.120
      -0.009
      -0.193
      -0.192
       0.073
       0.410
       0.545
       0.419
       0.211
       0.108
       0.106
       0.056
      -0.127
      -0.345
      -0.419
      -0.325
      -0.249
      -0.320
      -0.373
      -0.134
       0.383
       0.831
       0.866
       0.449
      -0.125
      -0.452
      -0.351
      -0.007
       0.237
       0.215
       0.028
      -0.169
      -0.315
      -0.381
      -0.266
       0.081
       0.471
       0.540
       0.131
      -0.463
      -0.763
      -0.574
      -0.116
       0.277
       0.473
       0.509
       0.442
       0.323
       0.199
       0.045
      -0.216
      -0.552
      -0.742
      -0.575
      -0.106
       0.372
       0.595
       0.458
       0.039
      -0.370
      -0.391
       0.063
       0.599
       0.708
       0.293
      -0.281
      -0.594
      -0.467
       0.035
       0.645
       0.933
       0.586
      -0.227
      -0.925
      -1.029
      -0.601
      -0.136
      -0.004
      -0.062
       0.087
       0.516
       0.841
       0.658
       0.025
      -0.549
      -0.615
      -0.239
       0.101
       0.034
      -0.341
      -0.603
      -0.436
       0.086
       0.611
       0.860
       0.820
       0.612
       0.307
      -0.045
      -0.329
      -0.420
      -0.283
      -0.011
       0.188
       0.083
      -0.382
      -0.930
      -1.065
      -0.541
       0.292
       0.798
       0.736
       0.423
       0.251
       0.262
       0.249
       0.091
      -0.117
      -0.207
      -0.127
       0.013
       0.018
      -0.210
      -0.490
      -0.500
      -0.155
       0.271
       0.469
       0.365
       0.079
      -0.245
      -0.492
      -0.523
      -0.175
       0.516
       1.130
       1.098
       0.268
      -0.829
      -1.394
      -1.061
      -0.206
       0.444
       0.493
       0.140
      -0.144
      -0.079
       0.270
       0.619
       0.687
       0.388
      -0.123
      -0.558
      -0.649
      -0.318
       0.200
       0.485
       0.314
      -0.114
      -0.367
      -0.210
       0.159
       0.298
      -0.059
      -0.721
      -1.125
      -0.771
       0.249
       1.203
       1.350
       0.647
      -0.217
      -0.455
       0.105
       0.855
       0.980
       0.261
      -0.733
      -1.226
      -0.969
      -0.366
       0.078
       0.277
       0.431
       0.569
       0.487
       0.080
      -0.472
      -0.827
      -0.752
      -0.335
       0.098
       0.312
       0.337
       0.320
       0.329
       0.351
       0.347
       0.270
       0.085
      -0.180
      -0.463
      -0.678
      -0.651
      -0.187
       0.622
       1.279
       1.297
       0.704
       0.009
      -0.311
      -0.208
       0.028
       0.140
       0.121
       0.107
       0.105
      -0.078
      -0.556
      -1.106
      -1.366
      -1.222
      -0.825
      -0.343
       0.111
       0.408
       0.471
       0.407
       0.436
       0.613
       0.681
       0.270
      -0.678
      -1.663
      -1.842
      -0.735
       1.181
       2.650
       2.627
       1.202
      -0.448
      -1.086
      -0.486
       0.407
       0.419
      -0.583
      -1.421
      -0.877
       0.813
       2.084
       1.645
      -0.321
      -2.455
      -3.446
      -2.979
      -1.717
      -0.508
       0.361
       1.145
       1.988
       2.539
       2.369
       1.632
       1.056
       1.153
       1.593
       1.530
       0.553
      -0.861
      -1.861
      -1.982
      -1.370
      -0.487
       0.225
       0.529
       0.373
      -0.213
      -1.091
      -1.870
      -2.036
      -1.438
      -0.579
      -0.186
      -0.416
      -0.668
      -0.267
       0.786
       1.780
       1.956
       1.207
       0.153
      -0.558
      -0.887
      -1.159
      -1.305
      -0.757
       0.743
       2.440
       2.988
       1.753
      -0.400
      -1.744
      -1.261
       0.364
       1.363
       0.606
      -1.256
      -2.483
      -2.123
      -0.986
      -0.553
      -1.111
      -1.375
      -0.052
       2.488
       4.375
       4.036
       1.778
      -0.442
      -0.788
       0.713
       2.104
       1.354
      -1.465
      -4.009
      -3.882
      -1.040
       2.172
       3.353
       2.144
       0.013
      -1.519
      -2.086
      -2.167
      -2.042
      -1.284
       0.485
       2.470
       2.962
       1.182
      -1.486
      -2.694
      -1.583
       0.359
       0.972
      -0.331
      -2.071
      -2.298
      -0.597
       1.475
       2.003
       0.698
      -0.926
      -1.297
      -0.306
       1.027
       1.939
       2.448
       2.645
       2.098
       0.413
      -1.768
      -2.864
      -1.813
       0.695
       2.792
       3.164
       1.932
      -0.026
      -1.911
      -3.049
      -2.883
      -1.529
      -0.030
       0.439
      -0.318
      -1.294
      -1.170
       0.477
       2.612
       3.382
       1.699
      -1.517
      -3.821
      -3.344
      -0.553
       2.195
       2.923
       1.713
       0.140
      -0.531
      -0.255
       0.296
       0.583
       0.492
       0.212
       0.012
      -0.064
      -0.388
      -1.380
      -2.706
      -3.165
      -1.797
       0.915
       3.291
       3.900
       2.651
       0.633
      -0.861
      -1.261
      -0.933
      -0.541
      -0.301
      -0.043
       0.167
      -0.066
      -0.813
      -1.467
      -1.368
      -0.542
       0.427
       1.090
       1.419
       1.512
       1.273
       0.521
      -0.572
      -1.376
      -1.298
      -0.381
       0.701
       1.191
       0.795
      -0.146
      -0.986
      -1.327
      -1.223
      -0.866
      -0.253
       0.656
       1.597
       2.003
       1.458
       0.160
      -1.089
      -1.474
      -0.840
       0.186
       0.698
       0.239
      -0.780
      -1.375
      -0.857
       0.495
       1.629
       1.678
       0.777
      -0.117
      -0.251
       0.183
       0.395
      -0.006
      -0.602
      -0.804
      -0.584
      -0.337
      -0.217
       0.079
       0.808
       1.628
       1.690
       0.466
      -1.469
      -2.710
      -2.334
      -0.853
       0.368
       0.538
       0.101
       0.016
       0.639
       1.455
       1.803
       1.561
       1.018
       0.374
      -0.363
      -1.120
      -1.655
      -1.737
      -1.336
      -0.645
      -0.013
       0.179
      -0.189
      -0.653
      -0.369
       0.990
       2.604
       3.096
       1.831
      -0.439
      -2.190
      -2.390
      -1.270
       0.039
       0.592
       0.358
       0.009
       0.079
       0.391
       0.390
      -0.027
      -0.333
      -0.159
       0.096
      -0.235
      -1.068
      -1.462
      -0.647
       1.022
       2.309
       2.235
       0.883
      -0.770
      -1.635
      -1.228
       0.000
       0.928
       0.696
      -0.435
      -1.323
      -1.137
      -0.105
       0.868
       1.056
       0.419
      -0.453
      -0.831
      -0.438
       0.366
       0.979
       1.050
       0.604
      -0.114
      -0.790
      -1.142
      -1.022
      -0.480
       0.258
       0.871
       1.130
       1.060
       0.826
       0.467
      -0.093
      -0.737
      -1.104
      -1.000
      -0.693
      -0.585
      -0.656
      -0.446
       0.334
       1.292
       1.628
       1.009
      -0.040
      -0.737
      -0.853
      -0.699
      -0.539
      -0.300
       0.182
       0.879
       1.503
       1.600
       0.869
      -0.402
      -1.363
      -1.367
      -0.690
      -0.215
      -0.399
      -0.814
      -0.761
      -0.077
       0.753
       1.140
       0.953
       0.541
       0.275
       0.202
       0.112
      -0.142
      -0.422
      -0.397
       0.048
       0.539
       0.497
      -0.237
      -1.120
      -1.331
      -0.550
       0.643
       1.177
       0.468
      -0.930
      -1.725
      -1.074
       0.549
       1.811
       1.840
       0.959
       0.069
      -0.390
      -0.701
      -1.224
      -1.689
      -1.327
       0.140
       1.782
       2.195
       1.106
      -0.179
      -0.271
       0.683
       1.287
       0.546
      -1.143
      -2.508
      -2.605
      -1.557
      -0.311
       0.296
       0.275
       0.297
       0.773
       1.304
       1.221
       0.516
      -0.086
       0.010
       0.594
       0.973
       0.751
       0.155
      -0.278
      -0.208
       0.230
       0.474
      -0.029
      -1.204
      -2.179
      -1.997
      -0.555
       1.252
       2.269
       1.973
       0.755
      -0.544
      -1.329
      -1.509
      -1.288
      -0.879
      -0.399
       0.125
       0.693
       1.231
       1.521
       1.307
       0.558
      -0.383
      -0.994
      -0.933
      -0.322
       0.286
       0.307
      -0.292
      -0.867
      -0.748
       0.025
       0.733
       0.720
       0.000
      -0.768
      -0.896
      -0.284
       0.509
       0.785
       0.291
      -0.609
      -1.191
      -0.879
       0.284
       1.532
       1.895
       1.044
      -0.321
      -1.066
      -0.697
       0.235
       0.807
       0.598
      -0.102
      -0.698
      -0.777
      -0.392
       0.044
       0.182
       0.050
      -0.010
       0.283
       0.792
       0.998
       0.553
      -0.241
      -0.679
      -0.387
       0.279
       0.587
       0.167
      -0.596
      -0.995
      -0.779
      -0.374
      -0.333
      -0.667
      -0.798
      -0.177
       1.022
       1.922
       1.748
       0.610
      -0.535
      -0.790
      -0.240
       0.120
      -0.463
      -1.497
      -1.699
      -0.494
       1.222
       2.004
       1.318
      -0.095
      -1.061
      -0.988
      -0.235
       0.304
       0.075
      -0.585
      -0.873
      -0.452
       0.245
       0.608
       0.526
       0.384
       0.516
