Origin Time       11/11/2013 22:10:42 UTC
Lat.              28.4 N	
Long.             77.2 E	
Depth (Km)         11.0
Magnitude         2.8
 Region           DELHI                                                            
 Above details taken from IMD 
    
Station Code      IGN
Station Lat.       28.492  N
Station Long.      77.203  E
Station Height(m)  263.0
Site Class        A   Vs30 between 700 m/sec to 1400 m/sec * 
Record Time       11.11.2013 22:10:21.844 UTC
Sampling Rate     200. Hz
 Record Duration   81.260 Sec.
 Direction         N-S (N positive)
Max. Acceleration     -4.848 cm/sec**2
     
  * For reference see Site Classification link of website 
     
 Base Line Corrected and Low Pass Filtered (Cut Off at 35 Hz) Time History
 Acceleration data in cm/sec**2
    
[...]
       0.023
       0.026
       0.028
       0.031
       0.037
       0.043
       0.045
       0.039
       0.025
       0.010
       0.003
       0.005
       0.014
       0.023
       0.026
       0.020
       0.009
      -0.002
      -0.009
      -0.010
      -0.004
       0.009
       0.023
       0.030
       0.026
       0.016
       0.008
       0.005
       0.003
      -0.001
      -0.008
      -0.013
      -0.012
      -0.006
       0.005
       0.015
       0.023
       0.026
       0.025
       0.022
       0.016
       0.008
       0.000
      -0.006
      -0.006
      -0.001
       0.007
       0.011
       0.009
       0.004
       0.001
       0.003
       0.011
       0.020
       0.024
       0.021
       0.013
       0.004
      -0.003
      -0.005
      -0.003
       0.000
       0.005
       0.010
       0.018
       0.026
       0.029
       0.024
       0.011
      -0.002
      -0.011
      -0.011
      -0.005
       0.004
       0.013
       0.019
       0.020
       0.016
       0.010
       0.006
       0.003
       0.005
       0.011
       0.022
       0.032
       0.034
       0.027
       0.015
       0.005
       0.000
       0.001
       0.006
       0.012
       0.018
       0.022
       0.023
       0.019
       0.012
       0.005
       0.002
       0.007
       0.017
       0.028
       0.034
       0.033
       0.027
       0.021
       0.016
       0.013
       0.012
       0.010
       0.004
      -0.002
      -0.003
       0.004
       0.016
       0.021
       0.014
       0.001
      -0.008
      -0.006
       0.004
       0.017
       0.025
       0.023
       0.017
       0.016
       0.024
       0.034
       0.039
       0.036
       0.029
       0.027
       0.033
       0.041
       0.045
       0.038
       0.024
       0.010
       0.004
       0.005
       0.013
       0.023
       0.032
       0.035
       0.030
       0.019
       0.011
       0.015
       0.028
       0.042
       0.046
       0.038
       0.026
       0.017
       0.015
       0.017
       0.020
       0.022
       0.022
       0.021
       0.021
       0.023
       0.024
       0.019
       0.010
       0.005
       0.007
       0.010
       0.006
      -0.007
      -0.020
      -0.022
      -0.013
       0.001
       0.011
       0.014
       0.012
       0.007
       0.001
      -0.006
      -0.012
      -0.014
      -0.012
      -0.006
       0.000
       0.005
       0.008
       0.009
       0.009
       0.009
       0.011
       0.014
       0.014
       0.011
       0.005
      -0.003
      -0.011
      -0.017
      -0.018
      -0.013
      -0.003
       0.008
       0.016
       0.017
       0.012
       0.007
       0.006
       0.005
       0.002
      -0.007
      -0.014
      -0.013
      -0.003
       0.012
       0.022
       0.018
       0.002
      -0.016
      -0.025
      -0.023
      -0.016
      -0.012
      -0.009
      -0.003
       0.011
       0.028
       0.041
       0.039
       0.022
       0.001
      -0.012
      -0.013
      -0.004
       0.005
       0.006
      -0.004
      -0.016
      -0.020
      -0.013
      -0.001
       0.006
       0.008
       0.005
       0.001
      -0.004
      -0.010
      -0.017
      -0.025
      -0.028
      -0.022
      -0.006
       0.014
       0.028
       0.032
       0.027
       0.019
       0.010
       0.004
      -0.002
      -0.008
      -0.012
      -0.010
      -0.002
       0.011
       0.021
       0.021
       0.012
       0.000
      -0.006
      -0.002
       0.008
       0.013
       0.010
       0.004
       0.003
       0.008
       0.015
       0.016
       0.012
       0.008
       0.011
       0.017
       0.020
       0.013
       0.000
      -0.009
      -0.007
       0.004
       0.013
       0.010
      -0.006
      -0.022
      -0.022
      -0.001
       0.025
       0.032
       0.017
       0.000
       0.003
       0.024
       0.041
       0.036
       0.015
      -0.004
      -0.011
      -0.010
      -0.009
      -0.017
      -0.037
      -0.057
      -0.053
      -0.019
       0.025
       0.048
       0.045
       0.030
       0.015
       0.001
      -0.016
      -0.034
      -0.046
      -0.042
      -0.023
       0.000
       0.020
       0.041
       0.062
       0.068
       0.042
      -0.007
      -0.047
      -0.053
      -0.035
      -0.021
      -0.022
      -0.023
      -0.004
       0.028
       0.039
       0.009
      -0.028
      -0.024
       0.032
       0.088
       0.089
       0.032
      -0.031
      -0.046
      -0.005
       0.052
       0.068
       0.026
      -0.036
      -0.060
      -0.024
       0.038
       0.067
       0.038
      -0.024
      -0.068
      -0.059
      -0.014
       0.020
       0.018
       0.000
       0.002
       0.039
       0.090
       0.130
       0.140
       0.112
       0.045
      -0.047
      -0.129
      -0.162
      -0.140
      -0.105
      -0.117
      -0.186
      -0.241
      -0.206
      -0.089
       0.014
       0.024
      -0.019
      -0.001
       0.133
       0.309
       0.394
       0.334
       0.198
       0.106
       0.099
       0.108
       0.038
      -0.116
      -0.260
      -0.295
      -0.217
      -0.104
      -0.028
       0.001
       0.031
       0.112
       0.235
       0.318
       0.276
       0.114
      -0.049
      -0.094
      -0.032
       0.008
      -0.056
      -0.160
      -0.192
      -0.137
      -0.072
      -0.055
      -0.070
      -0.075
      -0.050
      -0.006
       0.031
       0.044
       0.029
      -0.024
      -0.150
      -0.314
      -0.340
      -0.083
       0.319
       0.491
       0.236
      -0.200
      -0.358
      -0.057
       0.423
       0.649
       0.469
       0.097
      -0.164
      -0.199
      -0.107
      -0.018
       0.031
       0.056
       0.028
      -0.109
      -0.291
      -0.316
      -0.070
       0.254
       0.322
       0.048
      -0.314
      -0.439
      -0.218
       0.212
       0.608
       0.761
       0.585
       0.178
      -0.213
      -0.361
      -0.253
      -0.108
      -0.156
      -0.383
      -0.549
      -0.455
      -0.149
       0.161
       0.320
       0.320
       0.244
       0.175
       0.156
       0.190
       0.232
       0.198
       0.022
      -0.256
      -0.479
      -0.478
      -0.215
       0.169
       0.463
       0.545
       0.433
       0.207
      -0.040
      -0.212
      -0.248
      -0.206
      -0.229
      -0.368
      -0.489
      -0.393
      -0.067
       0.265
       0.379
       0.326
       0.369
       0.610
       0.800
       0.608
       0.002
      -0.711
      -1.169
      -1.191
      -0.794
      -0.148
       0.431
       0.596
       0.262
      -0.228
      -0.363
       0.037
       0.647
       0.980
       0.838
       0.382
      -0.122
      -0.504
      -0.651
      -0.451
       0.036
       0.450
       0.387
      -0.130
      -0.581
      -0.475
       0.083
       0.486
       0.306
      -0.204
      -0.430
      -0.166
       0.144
       0.032
      -0.340
      -0.398
       0.053
       0.543
       0.520
       0.041
      -0.318
      -0.164
       0.292
       0.550
       0.391
       0.017
      -0.303
      -0.485
      -0.532
      -0.389
      -0.063
       0.234
       0.237
      -0.052
      -0.318
      -0.268
       0.019
       0.204
       0.130
       0.019
       0.123
       0.326
       0.289
      -0.033
      -0.267
      -0.125
       0.225
       0.404
       0.286
       0.036
      -0.173
      -0.284
      -0.241
       0.023
       0.397
       0.537
       0.189
      -0.448
      -0.835
      -0.650
      -0.117
       0.289
       0.355
       0.234
       0.169
       0.249
       0.380
       0.379
       0.150
      -0.185
      -0.374
      -0.291
      -0.071
       0.045
      -0.055
      -0.264
      -0.372
      -0.270
      -0.067
       0.047
       0.041
       0.067
       0.216
       0.348
       0.264
      -0.007
      -0.218
      -0.196
      -0.048
      -0.027
      -0.202
      -0.333
      -0.139
       0.332
       0.687
       0.578
       0.089
      -0.321
      -0.301
       0.034
       0.282
       0.249
       0.123
       0.127
       0.152
      -0.103
      -0.637
      -1.002
      -0.767
      -0.066
       0.502
       0.521
       0.171
      -0.042
       0.136
       0.485
       0.637
       0.500
       0.266
       0.055
      -0.257
      -0.754
      -1.174
      -1.109
      -0.514
       0.177
       0.513
       0.482
       0.423
       0.573
       0.813
       0.810
       0.353
      -0.421
      -1.061
      -1.125
      -0.564
       0.177
       0.513
       0.256
      -0.239
      -0.425
      -0.069
       0.545
       0.876
       0.630
       0.022
      -0.451
      -0.497
      -0.237
       0.028
       0.145
       0.139
       0.074
      -0.001
      -0.011
       0.095
       0.241
       0.260
       0.067
      -0.244
      -0.482
      -0.504
      -0.319
      -0.116
      -0.134
      -0.370
      -0.478
      -0.116
       0.587
       1.080
       0.949
       0.330
      -0.263
      -0.451
      -0.297
      -0.144
      -0.231
      -0.451
      -0.474
      -0.081
       0.571
       1.013
       0.857
       0.185
      -0.457
      -0.512
       0.035
       0.580
       0.468
      -0.297
      -1.004
      -0.984
      -0.291
       0.425
       0.621
       0.284
      -0.235
      -0.568
      -0.499
      -0.027
       0.542
       0.739
       0.389
      -0.125
      -0.234
       0.156
       0.542
       0.401
      -0.206
      -0.732
      -0.772
      -0.435
      -0.082
       0.120
       0.227
       0.254
       0.111
      -0.131
      -0.151
       0.244
       0.765
       0.911
       0.584
       0.181
       0.034
      -0.049
      -0.472
      -1.157
      -1.445
      -0.841
       0.307
       1.057
       0.838
       0.041
      -0.423
      -0.101
       0.552
       0.717
       0.111
      -0.712
      -0.942
      -0.340
       0.517
       0.812
       0.329
      -0.325
      -0.408
       0.139
       0.668
       0.587
      -0.016
      -0.590
      -0.797
      -0.757
      -0.678
      -0.508
      -0.117
       0.332
       0.460
       0.173
      -0.115
       0.055
       0.586
       0.909
       0.653
       0.061
      -0.327
      -0.274
      -0.040
      -0.012
      -0.229
      -0.339
      -0.043
       0.516
       0.856
       0.634
      -0.025
      -0.658
      -0.872
      -0.617
      -0.157
       0.142
       0.084
      -0.170
      -0.251
      -0.003
       0.333
       0.396
       0.115
      -0.258
      -0.456
      -0.476
      -0.510
      -0.629
      -0.622
      -0.213
       0.546
       1.203
       1.309
       0.864
       0.263
      -0.148
      -0.330
      -0.376
      -0.297
      -0.105
       0.031
      -0.129
      -0.593
      -1.000
      -0.883
      -0.154
       0.717
       1.118
       0.891
       0.447
       0.318
       0.626
       1.002
       1.005
       0.607
       0.188
       0.025
      -0.071
      -0.466
      -1.085
      -1.320
      -0.717
       0.359
       0.970
       0.561
      -0.430
      -0.995
      -0.552
       0.482
       1.086
       0.641
      -0.394
      -0.901
      -0.285
       0.847
       1.275
       0.365
      -1.351
      -2.676
      -2.755
      -1.702
      -0.379
       0.400
       0.473
       0.274
       0.314
       0.751
       1.355
       1.770
       1.737
       1.165
       0.165
      -0.830
      -1.152
      -0.447
       0.767
       1.402
       0.881
      -0.206
      -0.802
      -0.619
      -0.327
      -0.506
      -0.839
      -0.655
       0.003
       0.340
      -0.122
      -0.868
      -1.056
      -0.612
      -0.315
      -0.804
      -1.735
      -2.056
      -1.108
       0.548
       1.557
       1.151
       0.033
      -0.372
       0.524
       1.842
       2.205
       1.212
      -0.074
      -0.102
       1.599
       3.736
       4.242
       2.176
      -1.255
      -3.696
      -3.815
      -2.405
      -1.282
      -1.272
      -1.539
      -0.841
       0.875
       2.301
       2.124
       0.411
      -1.370
      -1.719
      -0.516
       0.924
       1.195
       0.137
      -1.157
      -1.498
      -0.677
       0.502
       1.050
       0.664
      -0.067
      -0.224
       0.585
       1.859
       2.640
       2.300
       0.906
      -0.990
      -2.645
      -3.262
      -2.289
      -0.025
       2.146
       2.596
       0.916
      -1.499
      -2.642
      -1.817
      -0.225
       0.512
       0.196
       0.091
       1.173
       2.779
       3.263
       1.813
      -0.668
      -2.496
      -2.787
      -2.028
      -1.214
      -0.682
      -0.059
       0.715
       0.845
      -0.280
      -1.728
      -1.548
       0.876
       3.545
       3.747
       1.229
      -1.300
      -1.235
       0.908
       2.192
       0.773
      -2.061
      -3.592
      -2.783
      -1.050
      -0.148
      -0.050
       0.601
       2.227
       3.258
       1.857
      -1.543
      -4.174
      -3.755
      -1.016
       1.121
       0.782
      -0.951
      -1.536
       0.046
       2.242
       2.856
       1.528
      -0.132
      -0.581
       0.152
       1.043
       1.407
       1.204
       0.547
      -0.349
      -0.813
      -0.061
       1.737
       3.126
       2.565
      -0.038
      -3.148
      -4.848
      -4.263
      -2.019
       0.401
       1.716
       1.511
       0.254
      -1.064
      -1.495
      -0.763
       0.445
       1.035
       0.617
      -0.019
       0.183
       1.210
       1.914
       1.386
       0.100
      -0.609
      -0.095
       0.875
       0.987
      -0.176
      -1.687
      -2.239
      -1.445
      -0.128
       0.643
       0.593
       0.263
       0.197
       0.354
       0.308
      -0.202
      -0.973
      -1.400
      -0.848
       0.739
       2.471
       3.018
       1.796
      -0.294
      -1.500
      -0.860
       0.769
       1.484
       0.331
      -1.569
      -2.184
      -0.907
       0.689
       0.717
      -0.790
      -2.049
      -1.771
      -0.569
       0.076
      -0.274
      -0.692
      -0.291
       0.653
       1.224
       1.106
       0.834
       0.906
       1.090
       0.845
       0.146
      -0.435
      -0.459
      -0.151
      -0.097
      -0.505
      -0.924
      -0.786
      -0.119
       0.492
       0.661
       0.634
       0.776
       0.957
       0.749
       0.109
      -0.488
      -0.600
      -0.263
       0.137
       0.229
      -0.143
      -0.867
      -1.555
      -1.700
      -1.078
      -0.071
       0.563
       0.404
      -0.116
      -0.018
       1.176
       2.624
       2.650
       0.471
      -2.569
      -3.908
      -2.246
       0.980
       2.900
       2.054
      -0.255
      -1.515
      -0.592
       1.416
       2.597
       2.042
       0.351
      -1.204
      -1.746
      -1.286
      -0.503
      -0.065
      -0.054
      -0.045
       0.247
       0.566
       0.494
       0.054
      -0.317
      -0.353
      -0.232
      -0.221
      -0.272
      -0.163
       0.113
       0.328
       0.368
       0.352
       0.366
       0.276
      -0.127
      -0.845
      -1.558
      -1.774
      -1.225
      -0.183
       0.670
       0.849
       0.510
       0.243
       0.475
       1.099
       1.603
       1.562
       1.018
       0.351
      -0.203
      -0.766
      -1.457
      -1.959
      -1.723
      -0.721
       0.209
       0.090
      -1.022
      -1.831
      -1.036
       1.209
       3.241
       3.425
       1.696
      -0.439
      -1.336
      -0.578
       0.858
       1.614
       1.120
      -0.059
      -0.934
      -1.025
      -0.609
      -0.225
      -0.144
      -0.333
      -0.683
      -1.040
      -1.076
      -0.455
       0.703
       1.680
       1.689
       0.590
      -0.905
      -1.756
      -1.402
      -0.195
       0.906
       1.129
       0.489
      -0.286
      -0.453
       0.061
       0.664
       0.720
       0.156
      -0.472
      -0.480
       0.234
       0.957
       0.833
      -0.146
      -1.011
      -0.881
      -0.030
       0.400
      -0.247
      -1.329
      -1.618
      -0.652
       0.821
       1.652
       1.311
       0.174
      -0.886
      -1.127
      -0.408
       0.731
       1.477
       1.322
       0.372
      -0.785
      -1.456
      -1.249
      -0.358
       0.510
       0.681
       0.154
      -0.372
      -0.187
       0.714
       1.611
       1.713
       0.848
      -0.451
      -1.464
      -1.817
      -1.583
      -1.031
      -0.413
       0.098
       0.405
       0.486
       0.396
       0.263
       0.271
       0.578
       1.128
       1.543
       1.355
       0.499
      -0.483
      -0.864
      -0.451
       0.153
       0.113
      -0.714
      -1.545
      -1.497
      -0.539
       0.537
       0.983
       0.756
       0.363
       0.247
       0.374
       0.352
      -0.077
      -0.706
      -1.041
      -0.787
      -0.119
       0.460
       0.489
      -0.079
      -0.705
      -0.629
       0.358
       1.482
       1.579
       0.290
      -1.407
      -2.074
      -1.253
       0.077
       0.551
      -0.110
      -0.802
      -0.281
       1.373
       2.738
       2.491
       0.726
      -1.187
      -1.919
      -1.280
      -0.174
       0.336
      -0.078
      -0.847
      -1.081
      -0.359
       0.873
       1.673
       1.448
       0.468
      -0.411
      -0.528
       0.044
       0.671
       0.773
       0.275
      -0.403
      -0.752
      -0.650
      -0.440
      -0.477
      -0.662
      -0.591
      -0.121
       0.414
       0.645
       0.615
       0.601
       0.647
       0.534
       0.161
      -0.288
      -0.574
      -0.632
      -0.549
      -0.381
      -0.049
       0.505
       1.046
       1.066
       0.310
      -0.757
      -1.253
      -0.779
       0.119
       0.533
       0.137
      -0.566
      -0.861
      -0.560
      -0.086
       0.053
      -0.203
      -0.475
      -0.396
       0.029
       0.497
       0.732
       0.694
       0.537
       0.447
       0.455
       0.352
      -0.129
      -0.922
      -1.453
      -1.076
       0.198
       1.540
       2.021
       1.463
       0.477
      -0.233
      -0.442
      -0.355
      -0.268
      -0.366
      -0.660
      -0.934
      -0.844
      -0.268
       0.439
       0.720
       0.391
      -0.195
      -0.536
      -0.397
       0.117
       0.677
       0.909
       0.672
       0.235
      -0.028
      -0.161
      -0.600
      -1.484
      -2.187
      -1.833
      -0.290
       1.520
       2.408
       1.986
       0.905
       0.092
      -0.156
      -0.233
      -0.536
      -0.946
      -1.064
      -0.744
      -0.218
       0.249
       0.614
       0.928
       1.108
       0.994
       0.591
       0.086
      -0.388
      -0.819
      -1.109
      -0.983
      -0.312
       0.593
       1.180
       1.123
       0.496
      -0.394
      -1.181
      -1.536
      -1.324
      -0.737
      -0.170
       0.136
       0.271
       0.447
       0.742
       1.080
       1.339
       1.345
