Origin Time       11/11/2013 20:11:30 UTC
Lat.              28.4 N	
Long.             77.2 E	
Depth (Km)         10.0
Magnitude         3.3
 Region           DELHI                                                            
 Above details taken from IMD 
    
Station Code      IGN
Station Lat.       28.492  N
Station Long.      77.203  E
Station Height(m)  263.0
Site Class        A   Vs30 between 700 m/sec to 1400 m/sec * 
Record Time       11.11.2013 20:11:08.054 UTC
Sampling Rate     200. Hz
 Record Duration   89.405 Sec.
 Direction         N-S (N positive)
Max. Acceleration     17.204 cm/sec**2
     
  * For reference see Site Classification link of website 
     
 Base Line Corrected and Low Pass Filtered (Cut Off at 35 Hz) Time History
 Acceleration data in cm/sec**2
    
[...]
       0.004
      -0.008
      -0.020
      -0.022
      -0.013
       0.001
       0.010
       0.006
      -0.007
      -0.021
      -0.024
      -0.017
      -0.004
       0.004
       0.002
      -0.003
      -0.006
      -0.005
      -0.001
      -0.001
      -0.006
      -0.014
      -0.019
      -0.019
      -0.017
      -0.018
      -0.022
      -0.026
      -0.026
      -0.020
      -0.011
      -0.003
       0.001
      -0.003
      -0.012
      -0.018
      -0.015
      -0.008
      -0.003
      -0.005
      -0.014
      -0.021
      -0.022
      -0.016
      -0.009
      -0.008
      -0.014
      -0.023
      -0.029
      -0.027
      -0.020
      -0.011
      -0.007
      -0.009
      -0.015
      -0.019
      -0.018
      -0.012
      -0.002
       0.007
       0.010
       0.004
      -0.006
      -0.017
      -0.024
      -0.027
      -0.027
      -0.027
      -0.026
      -0.023
      -0.015
      -0.006
       0.001
       0.002
      -0.001
      -0.003
      -0.004
      -0.008
      -0.012
      -0.016
      -0.013
      -0.007
      -0.001
      -0.001
      -0.006
      -0.016
      -0.025
      -0.031
      -0.033
      -0.032
      -0.026
      -0.014
       0.001
       0.013
       0.016
       0.010
       0.003
      -0.002
      -0.005
      -0.005
      -0.004
      -0.001
       0.005
       0.010
       0.014
       0.012
       0.007
       0.000
      -0.002
       0.000
       0.003
       0.003
       0.002
       0.004
       0.017
       0.037
       0.054
       0.058
       0.045
       0.022
       0.002
      -0.008
      -0.006
       0.000
       0.007
       0.009
       0.009
       0.008
       0.008
       0.006
       0.003
       0.003
       0.007
       0.014
       0.020
       0.020
       0.013
       0.006
       0.003
       0.009
       0.022
       0.032
       0.034
       0.026
       0.012
      -0.001
      -0.011
      -0.019
      -0.028
      -0.035
      -0.037
      -0.031
      -0.018
      -0.004
       0.003
       0.005
       0.002
      -0.004
      -0.010
      -0.011
      -0.006
       0.003
       0.010
       0.013
       0.011
       0.006
       0.002
       0.000
       0.000
      -0.001
      -0.005
      -0.009
      -0.007
       0.003
       0.016
       0.024
       0.020
       0.010
       0.003
       0.007
       0.020
       0.030
       0.030
       0.023
       0.015
       0.011
       0.007
       0.000
      -0.008
      -0.014
      -0.014
      -0.013
      -0.013
      -0.013
      -0.009
       0.000
       0.008
       0.010
       0.007
       0.008
       0.017
       0.029
       0.033
       0.023
       0.004
      -0.014
      -0.021
      -0.017
      -0.010
      -0.006
      -0.006
      -0.008
      -0.011
      -0.014
      -0.015
      -0.010
       0.001
       0.012
       0.018
       0.015
       0.010
       0.006
       0.004
       0.003
       0.005
       0.010
       0.016
       0.020
       0.020
       0.016
       0.011
       0.007
       0.004
       0.003
       0.001
       0.000
       0.001
       0.002
       0.005
       0.007
       0.010
       0.015
       0.023
       0.033
       0.040
       0.041
       0.040
       0.039
       0.039
       0.035
       0.026
       0.016
       0.010
       0.011
       0.017
       0.024
       0.027
       0.025
       0.020
       0.020
       0.024
       0.030
       0.031
       0.028
       0.024
       0.024
       0.025
       0.024
       0.018
       0.012
       0.010
       0.013
       0.014
       0.009
      -0.001
      -0.010
      -0.012
      -0.009
      -0.003
       0.003
       0.007
       0.006
       0.001
      -0.007
      -0.014
      -0.016
      -0.013
      -0.009
      -0.007
      -0.008
      -0.011
      -0.014
      -0.014
      -0.015
      -0.019
      -0.025
      -0.031
      -0.031
      -0.024
      -0.014
      -0.008
      -0.008
      -0.011
      -0.007
       0.002
       0.011
       0.014
       0.011
       0.007
       0.003
       0.001
      -0.001
      -0.001
      -0.001
      -0.003
      -0.008
      -0.013
      -0.014
      -0.011
      -0.002
       0.008
       0.016
       0.019
       0.017
       0.015
       0.016
       0.017
       0.014
       0.005
      -0.006
      -0.013
      -0.015
      -0.014
      -0.015
      -0.018
      -0.021
      -0.021
      -0.019
      -0.019
      -0.022
      -0.026
      -0.025
      -0.018
      -0.007
       0.001
       0.002
      -0.003
      -0.008
      -0.007
       0.001
       0.010
       0.016
       0.015
       0.009
       0.000
      -0.009
      -0.014
      -0.015
      -0.010
      -0.004
      -0.001
      -0.002
      -0.008
      -0.014
      -0.015
      -0.009
       0.000
       0.009
       0.012
       0.011
       0.009
       0.011
       0.014
       0.015
       0.011
       0.005
       0.000
      -0.002
      -0.004
      -0.006
      -0.009
      -0.009
      -0.009
      -0.009
      -0.012
      -0.017
      -0.019
      -0.014
      -0.004
       0.006
       0.009
       0.004
      -0.006
      -0.017
      -0.022
      -0.023
      -0.021
      -0.020
      -0.020
      -0.019
      -0.015
      -0.010
      -0.005
      -0.004
      -0.004
      -0.005
      -0.006
      -0.009
      -0.012
      -0.015
      -0.015
      -0.013
      -0.011
      -0.007
      -0.002
       0.003
       0.002
      -0.004
      -0.013
      -0.018
      -0.013
      -0.002
       0.006
       0.006
      -0.001
      -0.009
      -0.015
      -0.015
      -0.014
      -0.011
      -0.007
      -0.002
       0.002
       0.003
      -0.001
      -0.005
      -0.009
      -0.014
      -0.023
      -0.031
      -0.033
      -0.028
      -0.022
      -0.018
      -0.013
      -0.006
       0.003
       0.009
       0.007
      -0.001
      -0.012
      -0.017
      -0.015
      -0.008
       0.000
       0.006
       0.010
       0.009
      -0.001
      -0.018
      -0.034
      -0.040
      -0.033
      -0.021
      -0.011
      -0.005
       0.000
       0.006
       0.008
       0.000
      -0.013
      -0.021
      -0.016
      -0.003
       0.007
       0.007
       0.003
       0.007
       0.022
       0.041
       0.053
       0.055
       0.054
       0.051
       0.036
       0.004
      -0.026
      -0.028
      -0.010
      -0.029
      -0.133
      -0.283
      -0.354
      -0.261
      -0.090
      -0.033
      -0.169
      -0.360
      -0.416
      -0.300
      -0.143
      -0.090
      -0.145
      -0.147
       0.052
       0.375
       0.576
       0.541
       0.426
       0.406
       0.423
       0.297
       0.013
      -0.263
      -0.394
      -0.367
      -0.210
       0.055
       0.366
       0.607
       0.707
       0.742
       0.830
       0.903
       0.719
       0.207
      -0.293
      -0.373
      -0.134
      -0.156
      -0.742
      -1.394
      -1.313
      -0.410
       0.479
       0.497
      -0.294
      -1.021
      -0.947
      -0.172
       0.575
       0.723
       0.336
      -0.152
      -0.490
      -0.734
      -0.886
      -0.742
      -0.237
       0.281
       0.393
       0.103
      -0.170
      -0.028
       0.554
       1.182
       1.293
       0.678
      -0.185
      -0.551
      -0.250
       0.140
       0.082
      -0.222
      -0.170
       0.357
       0.781
       0.514
      -0.316
      -0.895
      -0.508
       0.639
       1.464
       1.117
       0.002
      -0.635
      -0.213
       0.466
       0.277
      -0.764
      -1.556
      -1.338
      -0.572
      -0.238
      -0.553
      -0.755
      -0.140
       0.958
       1.502
       1.031
       0.275
       0.192
       0.615
       0.428
      -0.800
      -1.958
      -1.671
      -0.063
       1.351
       1.463
       0.654
      -0.038
      -0.275
      -0.483
      -0.881
      -0.993
      -0.265
       1.119
       2.236
       2.210
       0.932
      -0.895
      -2.238
      -2.353
      -1.234
       0.365
       1.462
       1.581
       0.999
       0.295
      -0.221
      -0.567
      -0.786
      -0.839
      -0.786
      -0.843
      -1.103
      -1.293
      -0.970
      -0.004
       1.235
       2.163
       2.375
       1.763
       0.495
      -0.978
      -2.010
      -2.083
      -1.153
       0.281
       1.432
       1.683
       1.010
       0.069
      -0.283
       0.231
       0.982
       1.008
       0.010
      -1.274
      -1.704
      -0.773
       0.926
       2.142
       1.886
       0.114
      -2.191
      -3.517
      -2.768
      -0.213
       2.420
       3.218
       1.769
      -0.468
      -1.584
      -0.986
       0.272
       0.738
      -0.009
      -1.162
      -1.686
      -1.301
      -0.459
       0.360
       0.978
       1.277
       1.047
       0.279
      -0.595
      -0.991
      -0.708
      -0.109
       0.259
       0.204
       0.017
       0.095
       0.477
       0.777
       0.542
      -0.274
      -1.185
      -1.556
      -1.153
      -0.279
       0.617
       1.333
       1.856
       2.017
       1.468
       0.155
      -1.256
      -1.748
      -0.938
       0.464
       1.342
       1.226
       0.523
      -0.149
      -0.579
      -0.899
      -1.133
      -1.036
      -0.384
       0.682
       1.643
       1.883
       1.048
      -0.662
      -2.351
      -2.804
      -1.498
       0.662
       1.965
       1.486
      -0.078
      -1.228
      -1.126
      -0.117
       0.895
       1.269
       0.900
       0.074
      -0.752
      -1.136
      -0.962
      -0.630
      -0.641
      -0.809
      -0.273
       1.279
       2.734
       2.570
       0.726
      -1.158
      -1.565
      -0.679
       0.158
       0.131
      -0.364
      -0.560
      -0.335
      -0.192
      -0.419
      -0.588
      -0.049
       1.156
       2.105
       1.895
       0.676
      -0.468
      -0.725
      -0.387
      -0.288
      -0.682
      -1.033
      -0.868
      -0.417
      -0.228
      -0.429
      -0.634
      -0.416
       0.303
       1.209
       1.758
       1.533
       0.622
      -0.396
      -0.908
      -0.693
       0.006
       0.652
       0.670
      -0.141
      -1.296
      -1.873
      -1.307
       0.117
       1.634
       2.587
       2.505
       1.070
      -1.357
      -3.309
      -3.095
      -0.576
       2.296
       3.146
       1.415
      -1.191
      -2.391
      -1.425
       0.425
       1.296
       0.607
      -0.630
      -1.200
      -0.949
      -0.510
      -0.226
       0.083
       0.484
       0.695
       0.567
       0.379
       0.438
       0.618
       0.520
       0.003
      -0.550
      -0.559
       0.143
       0.990
       1.069
       0.053
      -1.274
      -1.650
      -0.656
       0.750
       1.170
       0.232
      -1.036
      -1.302
      -0.268
       1.125
       1.721
       1.242
       0.345
      -0.278
      -0.578
      -0.824
      -0.969
      -0.789
      -0.498
      -0.606
      -1.038
      -0.946
       0.238
       1.830
       2.377
       1.232
      -0.593
      -1.368
      -0.440
       1.134
       1.775
       0.968
      -0.489
      -1.504
      -1.603
      -0.934
       0.135
       1.189
       1.758
       1.483
       0.427
      -0.825
      -1.545
      -1.491
      -1.113
      -0.978
      -1.036
      -0.690
       0.321
       1.393
       1.695
       1.191
       0.601
       0.375
       0.122
      -0.669
      -1.617
      -1.614
      -0.163
       1.736
       2.362
       0.954
      -1.451
      -2.893
      -2.211
      -0.001
       2.037
       2.638
       1.824
       0.460
      -0.668
      -1.232
      -1.205
      -0.733
      -0.161
       0.140
       0.142
       0.183
       0.454
       0.624
       0.279
      -0.349
      -0.506
       0.070
       0.651
       0.338
      -0.771
      -1.553
      -1.095
       0.283
       1.432
       1.665
       1.304
       0.887
       0.274
      -0.980
      -2.504
      -2.989
      -1.554
       0.998
       2.726
       2.434
       0.755
      -0.709
      -1.067
      -0.665
      -0.168
       0.228
       0.496
       0.301
      -0.610
      -1.720
      -1.951
      -0.783
       1.068
       2.255
       1.996
       0.557
      -1.175
      -2.355
      -2.593
      -2.091
      -1.378
      -0.738
       0.053
       1.232
       2.440
       2.920
       2.277
       0.896
      -0.273
      -0.263
       1.208
       3.180
       3.934
       2.618
       0.372
      -0.630
       0.606
       2.833
       3.780
       2.282
      -0.812
      -3.623
      -4.840
      -4.385
      -2.945
      -1.317
      -0.161
       0.134
      -0.247
      -0.487
       0.165
       1.463
       2.212
       1.550
      -0.047
      -1.319
      -1.628
      -1.557
      -2.099
      -3.442
      -4.588
      -4.225
      -2.057
       0.655
       1.980
       0.974
      -1.308
      -2.492
      -0.876
       2.904
       6.183
       6.488
       3.680
      -0.064
      -2.377
      -2.665
      -1.995
      -1.363
      -0.386
       2.143
       6.389
      10.261
      10.509
       5.611
      -2.225
      -8.377
      -9.656
      -6.962
      -4.041
      -3.717
      -5.516
      -6.746
      -5.360
      -1.589
       2.681
       5.477
       5.725
       3.497
      -0.070
      -3.257
      -4.785
      -4.651
      -3.710
      -2.231
       0.835
       6.462
      13.239
      17.204
      14.934
       6.977
      -2.166
      -7.702
      -8.286
      -6.370
      -5.110
      -5.128
      -4.561
      -2.140
       0.649
       1.148
      -1.112
      -3.516
      -2.973
       0.986
       5.780
       8.077
       6.526
       2.611
      -0.962
      -2.808
      -3.741
      -5.063
      -6.354
      -5.608
      -1.777
       3.285
       6.040
       4.657
       0.913
      -1.540
      -0.593
       2.795
       5.949
       6.735
       4.670
       0.657
      -3.702
      -6.599
      -6.524
      -3.095
       2.249
       6.635
       7.454
       4.210
      -1.035
      -5.009
      -5.461
      -2.784
       0.183
       0.324
      -3.097
      -7.563
      -9.170
      -5.774
       1.192
       7.669
       9.903
       7.082
       1.708
      -2.649
      -4.294
      -4.210
      -4.019
      -3.765
      -2.339
       0.351
       2.870
       4.260
       5.453
       7.642
       9.827
       9.301
       4.853
      -1.355
      -5.704
      -6.741
      -6.372
      -7.131
      -8.561
      -7.249
      -1.158
       6.647
       9.847
       5.000
      -4.597
     -11.629
     -11.321
      -5.215
       1.109
       3.418
       1.965
       0.079
       0.412
       2.719
       4.801
       4.913
       3.160
       1.117
       0.485
       1.742
       3.684
       4.342
       2.712
      -0.232
      -2.284
      -1.955
       0.181
       1.988
       1.597
      -1.026
      -3.927
      -4.536
      -1.746
       2.973
       6.512
       6.382
       2.479
      -2.840
      -6.348
      -6.214
      -3.334
      -0.523
      -0.140
      -2.146
      -4.163
      -3.369
       1.114
       6.963
       9.763
       6.326
      -2.165
     -10.311
     -12.554
      -7.714
       0.328
       6.374
       8.249
       7.546
       6.598
       5.556
       2.891
      -1.746
      -6.168
      -7.568
      -5.369
      -1.761
       0.448
       0.239
      -1.188
      -1.876
      -0.817
       1.449
       3.592
       4.746
       5.002
       4.694
       3.528
       0.876
      -2.918
      -5.918
      -5.879
      -2.493
       1.866
       4.011
       2.679
      -0.590
      -3.075
      -3.221
      -1.596
       0.027
       0.421
      -0.134
      -0.540
      -0.470
      -0.898
      -2.603
      -4.375
      -3.628
       0.614
       5.864
       8.046
       5.326
      -0.209
      -4.572
      -5.211
      -2.520
       1.126
       3.262
       2.753
       0.338
      -1.916
      -2.223
      -0.576
       1.513
       2.841
       3.601
       4.376
       4.674
       3.265
      -0.123
      -4.079
      -6.659
      -6.890
      -5.128
      -2.520
      -0.391
       0.318
      -0.348
      -1.225
      -0.866
       1.139
       3.570
       4.523
       3.116
       0.268
      -2.187
      -2.987
      -2.078
      -0.170
       1.878
       3.265
       3.326
       1.977
       0.167
      -0.528
       0.697
       2.898
       4.128
       3.266
       0.878
      -1.614
      -3.123
      -3.212
      -1.983
      -0.237
       0.609
      -0.402
      -2.514
      -3.573
      -2.189
       0.431
       1.438
      -0.492
      -3.318
      -3.583
      -0.190
       4.245
       5.938
       3.491
      -1.106
      -4.462
      -4.526
      -1.838
       1.304
       2.788
       2.167
       0.641
      -0.221
       0.136
       0.929
       0.954
      -0.096
      -1.181
      -0.944
       0.705
       2.200
       1.814
      -0.532
      -3.090
      -3.832
      -2.035
       1.364
       4.482
       5.397
       2.968
      -2.277
      -7.760
     -10.077
      -7.576
      -2.017
       2.831
       4.655
       4.535
       5.051
       6.680
       6.900
       3.360
      -2.550
      -6.249
      -4.453
       1.334
       6.251
       6.764
       3.490
      -0.382
      -2.575
      -3.174
      -3.336
      -3.615
      -3.747
      -3.374
      -2.441
      -1.075
       0.433
       1.502
       1.545
       0.631
      -0.360
      -0.511
       0.197
       0.829
       0.433
      -0.904
      -1.845
      -0.879
       2.124
       5.456
       6.802
       4.930
       0.373
      -4.971
      -8.645
      -8.672
      -4.828
       0.799
       4.970
       5.668
       3.581
       1.175
       0.256
       0.460
       0.129
      -1.513
      -3.318
      -3.462
      -1.515
       1.034
       2.332
       1.916
       0.775
       0.015
      -0.158
      -0.176
      -0.299
      -0.314
       0.072
       0.695
       0.945
       0.425
      -0.462
      -0.791
      -0.099
       1.033
       1.511
       0.827
      -0.471
      -1.340
      -1.158
      -0.222
       0.533
       0.343
      -0.656
      -1.451
      -1.015
       0.635
       2.198
       2.141
       0.242
      -1.920
      -2.245
      -0.065
       3.087
       4.648
       3.100
      -0.772
      -4.375
      -5.238
      -2.865
       0.905
       3.330
       2.871
       0.364
      -1.759
      -1.640
       0.367
       2.169
       1.989
      -0.090
      -2.397
      -3.182
      -1.950
       0.274
       1.796
       1.542
      -0.155
      -1.867
      -2.222
      -1.000
       0.729
       1.561
       0.978
      -0.305
      -1.056
      -0.611
       0.571
       1.350
       1.009
       0.003
      -0.524
       0.022
       1.019
       1.247
       0.167
      -1.430
      -2.067
      -1.042
       0.773
       1.817
       1.529
       0.836
       0.848
       1.478
       1.651
       0.630
      -1.262
      -3.077
      -4.023
      -3.757
      -2.295
      -0.001
       2.348
       3.843
       4.098
       3.558
       2.909
       2.269
       1.239
      -0.262
      -1.526
      -1.681
      -0.792
