Origin Time       11/11/2013 20:11:30
Lat.              28.4 N	
Long.             77.2 E	
Depth (Km)         10.0
Magnitude         3.3
 Region           DELHI                                                            
 Above details taken from IMD 
     
Station Code      IGN
Station Lat.       28.492  N
Station Long.      77.203  E
Station Height(m)  263.0
Site Class        A   Vs30 between 700 m/sec to 1400 m/sec * 
Record Time       11.11.2013 20:11:08.054
Sampling Rate     200. Hz
 Record Duration   89.405 Sec.
 Direction         E-W (E positive)
Max. Acceleration     17.554 cm/sec**2
     
  * For reference see Site Classification link of website 
     
 Base Line Corrected and Low Pass Filtered (Cut Off at 35 Hz) Time History
 Acceleration data in cm/sec**2
    
[...]
       0.004
       0.001
      -0.006
      -0.010
      -0.005
       0.006
       0.013
       0.011
       0.005
       0.002
       0.005
       0.011
       0.013
       0.011
       0.010
       0.013
       0.015
       0.009
      -0.005
      -0.017
      -0.017
      -0.006
       0.011
       0.026
       0.032
       0.030
       0.025
       0.019
       0.014
       0.008
       0.003
       0.002
       0.005
       0.011
       0.014
       0.013
       0.009
       0.007
       0.009
       0.015
       0.023
       0.028
       0.027
       0.018
       0.006
      -0.002
       0.001
       0.012
       0.023
       0.027
       0.024
       0.020
       0.019
       0.018
       0.014
       0.008
       0.004
       0.004
       0.004
       0.002
      -0.001
      -0.001
       0.003
       0.009
       0.010
       0.004
      -0.004
      -0.009
      -0.007
       0.000
       0.009
       0.017
       0.018
       0.011
       0.001
      -0.007
      -0.013
      -0.018
      -0.019
      -0.011
       0.002
       0.015
       0.017
       0.008
      -0.006
      -0.013
      -0.008
       0.009
       0.029
       0.040
       0.039
       0.030
       0.026
       0.028
       0.033
       0.032
       0.023
       0.009
      -0.002
      -0.008
      -0.012
      -0.014
      -0.013
      -0.007
       0.000
       0.006
       0.010
       0.013
       0.014
       0.015
       0.016
       0.020
       0.023
       0.020
       0.011
       0.003
      -0.001
       0.000
       0.003
       0.006
       0.007
       0.004
      -0.001
      -0.005
      -0.004
       0.000
       0.007
       0.016
       0.022
       0.023
       0.020
       0.016
       0.014
       0.010
       0.000
      -0.012
      -0.019
      -0.016
      -0.007
       0.000
       0.000
      -0.005
      -0.007
      -0.004
      -0.002
      -0.005
      -0.011
      -0.011
       0.002
       0.022
       0.035
       0.029
       0.009
      -0.010
      -0.017
      -0.012
      -0.001
       0.008
       0.012
       0.012
       0.008
       0.001
      -0.006
      -0.008
      -0.004
       0.000
      -0.001
      -0.007
      -0.010
      -0.006
       0.002
       0.008
       0.007
       0.005
       0.008
       0.020
       0.030
       0.030
       0.017
      -0.001
      -0.014
      -0.020
      -0.018
      -0.013
      -0.007
      -0.007
      -0.014
      -0.024
      -0.028
      -0.021
      -0.005
       0.010
       0.013
       0.001
      -0.016
      -0.025
      -0.018
       0.000
       0.018
       0.024
       0.016
       0.003
      -0.004
      -0.002
       0.003
       0.005
       0.003
      -0.001
      -0.003
      -0.006
      -0.010
      -0.016
      -0.020
      -0.018
      -0.010
       0.005
       0.022
       0.034
       0.034
       0.025
       0.011
       0.001
      -0.003
      -0.002
      -0.001
      -0.004
      -0.008
      -0.011
      -0.009
      -0.001
       0.007
       0.009
       0.002
      -0.009
      -0.013
      -0.005
       0.011
       0.026
       0.031
       0.028
       0.019
       0.009
       0.003
       0.002
       0.004
       0.009
       0.011
       0.006
      -0.004
      -0.013
      -0.015
      -0.008
       0.002
       0.011
       0.014
       0.011
       0.005
       0.000
       0.000
       0.005
       0.014
       0.021
       0.023
       0.017
       0.005
      -0.007
      -0.012
      -0.008
       0.000
       0.001
      -0.007
      -0.019
      -0.025
      -0.022
      -0.009
       0.006
       0.016
       0.016
       0.009
       0.001
      -0.003
      -0.004
      -0.003
      -0.001
       0.000
       0.002
       0.005
       0.010
       0.012
       0.008
      -0.003
      -0.014
      -0.015
      -0.008
       0.001
       0.005
       0.002
      -0.002
       0.001
       0.009
       0.016
       0.016
       0.009
       0.001
      -0.003
      -0.005
      -0.007
      -0.011
      -0.017
      -0.025
      -0.033
      -0.035
      -0.028
      -0.015
      -0.002
       0.005
       0.006
       0.002
      -0.002
      -0.003
       0.000
       0.004
       0.009
       0.015
       0.019
       0.019
       0.014
       0.007
       0.000
      -0.004
      -0.008
      -0.014
      -0.021
      -0.024
      -0.022
      -0.018
      -0.015
      -0.011
      -0.005
       0.005
       0.013
       0.014
       0.009
       0.002
      -0.001
       0.002
       0.008
       0.015
       0.017
       0.011
       0.000
      -0.011
      -0.018
      -0.022
      -0.022
      -0.018
      -0.011
      -0.001
       0.009
       0.017
       0.021
       0.024
       0.027
       0.032
       0.033
       0.026
       0.014
       0.007
       0.009
       0.015
       0.018
       0.010
      -0.003
      -0.015
      -0.021
      -0.020
      -0.012
       0.000
       0.013
       0.021
       0.023
       0.019
       0.012
       0.007
       0.006
       0.007
       0.010
       0.012
       0.013
       0.012
       0.009
       0.003
      -0.004
      -0.008
      -0.006
       0.001
       0.009
       0.013
       0.015
       0.016
       0.017
       0.016
       0.012
       0.005
      -0.002
      -0.007
      -0.012
      -0.017
      -0.024
      -0.032
      -0.037
      -0.034
      -0.024
      -0.013
      -0.009
      -0.014
      -0.024
      -0.030
      -0.023
      -0.004
       0.019
       0.033
       0.037
       0.044
       0.067
       0.104
       0.135
       0.142
       0.126
       0.119
       0.149
       0.200
       0.213
       0.143
       0.035
       0.000
       0.089
       0.206
       0.195
       0.016
      -0.220
      -0.341
      -0.253
      -0.079
      -0.084
      -0.344
      -0.604
      -0.610
      -0.415
      -0.229
      -0.131
      -0.052
       0.065
       0.192
       0.235
       0.112
      -0.142
      -0.319
      -0.249
      -0.068
      -0.092
      -0.385
      -0.626
      -0.495
      -0.019
       0.476
       0.692
       0.587
       0.342
       0.189
       0.226
       0.337
       0.312
       0.090
      -0.155
      -0.188
       0.043
       0.328
       0.353
       0.013
      -0.382
      -0.397
      -0.041
       0.206
       0.048
      -0.244
      -0.293
      -0.132
       0.004
       0.158
       0.549
       1.030
       1.027
       0.204
      -1.018
      -1.763
      -1.465
      -0.349
       0.764
       1.142
       0.728
       0.082
      -0.268
      -0.285
      -0.192
      -0.050
       0.176
       0.282
      -0.039
      -0.705
      -1.192
      -1.039
      -0.277
       0.589
       0.983
       0.715
       0.101
      -0.395
      -0.565
      -0.466
      -0.140
       0.440
       1.092
       1.368
       0.994
       0.215
      -0.505
      -0.939
      -1.054
      -0.750
      -0.006
       0.764
       0.885
       0.110
      -0.983
      -1.420
      -0.655
       0.886
       2.027
       1.807
       0.372
      -1.181
      -1.815
      -1.259
       0.030
       1.203
       1.434
       0.505
      -0.843
      -1.467
      -0.929
       0.121
       0.718
       0.542
       0.007
      -0.312
      -0.187
       0.155
       0.304
       0.062
      -0.382
      -0.663
      -0.551
      -0.092
       0.445
       0.744
       0.691
       0.451
       0.191
      -0.170
      -0.720
      -1.134
      -0.860
       0.143
       1.123
       1.221
       0.351
      -0.714
      -1.041
      -0.321
       0.877
       1.550
       1.086
      -0.159
      -1.167
      -1.273
      -0.754
      -0.313
      -0.165
       0.023
       0.379
       0.510
       0.137
      -0.369
      -0.420
       0.073
       0.683
       0.967
       0.787
       0.287
      -0.262
      -0.692
      -1.036
      -1.295
      -1.243
      -0.678
       0.254
       1.160
       1.688
       1.601
       0.853
      -0.188
      -0.867
      -0.844
      -0.425
      -0.135
      -0.169
      -0.367
      -0.479
      -0.322
       0.109
       0.599
       0.893
       0.922
       0.749
       0.415
      -0.062
      -0.612
      -1.118
      -1.378
      -1.049
       0.135
       1.832
       2.944
       2.426
       0.415
      -1.747
      -2.739
      -2.358
      -1.358
      -0.495
       0.031
       0.425
       0.893
       1.364
       1.470
       0.901
      -0.168
      -1.126
      -1.416
      -0.931
      -0.067
       0.501
       0.306
      -0.469
      -1.110
      -0.991
      -0.062
       1.161
       1.893
       1.531
       0.126
      -1.474
      -2.116
      -1.175
       0.843
       2.481
       2.450
       0.843
      -0.941
      -1.662
      -1.307
      -0.569
       0.166
       0.877
       1.348
       1.151
       0.199
      -0.997
      -1.686
      -1.418
      -0.391
       0.649
       1.012
       0.675
       0.181
      -0.048
      -0.055
      -0.058
      -0.137
      -0.234
      -0.249
      -0.131
       0.023
       0.013
      -0.254
      -0.653
      -0.880
      -0.578
       0.365
       1.491
       1.947
       1.234
      -0.210
      -1.308
      -1.241
      -0.090
       1.265
       1.804
       1.146
      -0.151
      -1.120
      -1.285
      -0.966
      -0.753
      -0.836
      -0.879
      -0.484
       0.263
       0.809
       0.740
       0.252
      -0.112
      -0.067
       0.228
       0.481
       0.562
       0.453
       0.101
      -0.419
      -0.691
      -0.345
       0.336
       0.629
       0.265
      -0.314
      -0.650
      -0.719
      -0.539
       0.077
       1.038
       1.707
       1.498
       0.444
      -0.901
      -1.796
      -1.635
      -0.391
       1.109
       1.692
       0.921
      -0.411
      -1.078
      -0.630
       0.320
       0.832
       0.464
      -0.482
      -1.327
      -1.538
      -1.023
      -0.087
       0.805
       1.281
       1.235
       0.852
       0.414
       0.038
      -0.362
      -0.826
      -1.171
      -1.171
      -0.862
      -0.511
      -0.191
       0.393
       1.336
       2.008
       1.633
       0.362
      -0.724
      -0.802
      -0.112
       0.443
       0.222
      -0.578
      -1.062
      -0.512
       0.677
       1.232
       0.398
      -1.123
      -1.817
      -0.868
       1.012
       2.199
       1.678
      -0.021
      -1.495
      -1.837
      -1.142
      -0.060
       0.734
       0.856
       0.438
      -0.020
      -0.156
      -0.012
       0.182
       0.352
       0.565
       0.719
       0.472
      -0.250
      -0.864
      -0.744
      -0.124
       0.131
      -0.332
      -0.890
      -0.736
       0.167
       1.067
       1.219
       0.553
      -0.404
      -1.072
      -1.187
      -0.750
       0.125
       1.161
       1.812
       1.537
       0.358
      -1.000
      -1.678
      -1.353
      -0.368
       0.550
       0.756
       0.190
      -0.494
      -0.527
       0.128
       0.723
       0.591
      -0.060
      -0.428
      -0.132
       0.331
       0.242
      -0.487
      -1.248
      -1.332
      -0.456
       0.978
       2.034
       1.925
       0.787
      -0.397
      -0.763
      -0.377
      -0.032
      -0.290
      -0.800
      -0.684
       0.327
       1.357
       1.285
       0.092
      -1.098
      -1.268
      -0.452
       0.529
       0.845
       0.206
      -0.940
      -1.620
      -0.989
       0.852
       2.697
       3.201
       2.098
       0.345
      -0.817
      -0.765
       0.227
       1.281
       1.618
       1.224
       0.758
       0.709
       0.861
       0.677
      -0.107
      -1.395
      -2.875
      -4.048
      -4.475
      -4.263
      -4.000
      -3.893
      -3.305
      -1.551
       1.040
       3.222
       3.888
       2.898
       1.073
      -0.463
      -1.057
      -0.722
       0.240
       1.530
       2.785
       3.592
       3.810
       3.666
       3.371
       2.693
       1.137
      -1.391
      -4.161
      -5.941
      -5.848
      -4.077
      -1.871
      -0.536
      -0.267
      -0.190
       0.299
       0.665
       0.028
      -1.508
      -2.712
      -2.249
       0.299
       4.146
       7.740
       9.578
       8.859
       5.688
       1.013
      -3.572
      -6.315
      -6.136
      -3.378
       0.144
       2.134
       1.403
      -1.149
      -3.249
      -3.258
      -1.659
      -0.547
      -1.485
      -3.738
      -4.813
      -3.003
       0.777
       3.956
       4.877
       4.066
       3.123
       2.906
       2.909
       2.038
      -0.217
      -3.200
      -5.514
      -6.040
      -4.649
      -2.158
       0.156
       1.216
       0.932
       0.497
       1.383
       3.581
       5.261
       4.847
       3.142
       2.428
       3.302
       3.403
       0.150
      -5.712
     -10.218
      -9.916
      -5.047
       0.801
       3.735
       2.457
      -0.988
      -2.932
      -1.094
       3.295
       6.274
       4.739
      -0.277
      -4.261
      -3.591
       0.906
       5.031
       5.610
       3.447
       2.078
       3.880
       7.420
       8.525
       4.147
      -4.524
     -12.646
     -15.599
     -12.695
      -7.282
      -3.160
      -1.052
       1.204
       5.247
       9.616
      10.822
       6.933
      -0.137
      -6.230
      -8.838
      -8.907
      -8.614
      -8.181
      -5.666
       0.393
       8.743
      15.716
      17.554
      13.050
       4.712
      -2.775
      -6.073
      -5.659
      -4.614
      -4.975
      -5.764
      -4.692
      -1.108
       3.138
       5.438
       4.740
       2.231
       0.081
      -0.256
       1.045
       2.230
       1.171
      -2.605
      -6.844
      -8.096
      -4.745
       1.315
       5.928
       5.932
       1.845
      -2.456
      -3.134
       0.127
       3.887
       4.282
       0.728
      -3.641
      -5.187
      -3.167
       0.084
       1.865
       1.641
       1.103
       2.037
       4.293
       5.875
       4.910
       1.352
      -2.983
      -5.805
      -5.998
      -4.325
      -2.558
      -1.692
      -1.006
       0.946
       4.281
       6.889
       6.036
       1.245
      -4.620
      -7.654
      -6.425
      -2.983
      -0.456
      -0.089
      -0.701
      -0.573
       0.665
       1.961
       2.230
       1.593
       1.264
       2.116
       3.403
       3.468
       1.941
       0.546
       0.964
       2.323
       1.911
      -1.407
      -5.450
      -6.974
      -5.014
      -1.511
       0.825
       0.746
      -0.936
      -2.174
      -1.206
       1.895
       4.853
       5.101
       2.538
      -0.196
      -0.612
       1.014
       2.239
       1.140
      -1.923
      -4.814
      -5.550
      -3.863
      -1.126
       1.041
       2.118
       2.863
       4.202
       5.756
       5.677
       2.465
      -2.914
      -7.167
      -7.415
      -3.890
       0.296
       2.171
       1.544
       0.602
       1.190
       2.864
       3.618
       2.188
      -0.632
      -2.811
      -2.888
      -1.134
       0.649
       0.561
      -1.514
      -3.417
      -2.712
       0.603
       3.895
       4.593
       2.611
      -0.121
      -1.892
      -2.438
      -2.408
      -2.335
      -2.159
      -1.451
      -0.063
       1.409
       1.992
       1.343
       0.326
       0.355
       1.987
       4.184
       5.128
       3.790
       0.780
      -2.190
      -3.609
      -3.179
      -1.890
      -1.148
      -1.629
      -2.799
      -3.393
      -2.331
       0.518
       4.040
       6.332
       5.877
       2.621
      -1.964
      -5.771
      -7.127
      -5.539
      -1.931
       1.807
       3.952
       3.987
       2.673
       1.211
       0.300
      -0.192
      -0.772
      -1.486
      -1.682
      -0.840
       0.501
       1.071
       0.243
      -1.154
      -1.581
      -0.326
       1.771
       3.039
       2.469
       0.637
      -0.833
      -0.827
       0.222
       0.882
       0.228
      -1.153
      -1.623
      -0.090
       2.637
       4.150
       2.491
      -1.851
      -6.036
      -7.215
      -4.899
      -1.112
       1.560
       1.948
       0.728
      -0.473
      -0.380
       1.070
       2.881
       3.996
       3.993
       2.873
       0.804
      -1.478
      -2.549
      -1.484
       0.898
       2.703
       2.987
       2.489
       2.213
       1.889
       0.327
      -2.809
      -6.097
      -7.531
      -6.401
      -3.788
      -1.414
      -0.195
       0.297
       1.119
       2.726
       4.470
       5.192
       4.147
       1.622
      -0.991
      -2.045
      -1.230
      -0.145
      -0.627
      -2.539
      -3.740
      -2.335
       1.277
       4.573
       5.047
       2.399
      -1.258
      -3.394
      -3.253
      -1.989
      -0.917
      -0.112
       1.176
       3.032
       4.179
       3.101
       0.024
      -2.684
      -2.731
      -0.334
       2.162
       2.777
       1.313
      -1.279
      -3.868
      -5.431
      -5.252
      -3.328
      -0.425
       2.400
       4.253
       4.481
       2.811
      -0.228
      -3.131
      -4.062
      -2.106
       1.812
       5.266
       5.989
       3.647
       0.042
      -2.486
      -2.822
      -1.472
       0.202
       1.026
       0.808
       0.375
       0.633
       1.421
       1.542
       0.198
      -1.848
      -2.996
      -2.559
      -1.314
      -0.358
       0.028
       0.209
       0.386
       0.371
      -0.021
      -0.572
      -0.628
       0.385
       2.056
       2.775
       1.097
      -2.369
      -4.888
      -3.950
       0.187
       4.480
       5.698
       3.085
      -1.295
      -4.510
      -5.054
      -3.613
      -1.876
      -0.678
       0.498
       2.262
       4.066
       4.611
       3.286
       0.887
      -1.042
      -1.459
      -0.587
       0.374
       0.358
      -0.623
      -1.618
      -1.770
      -1.101
      -0.261
       0.282
       0.612
       1.065
       1.754
       2.342
       2.276
       1.357
       0.054
      -0.908
      -1.261
      -1.366
      -1.674
      -2.020
      -1.616
      -0.003
       2.009
       2.741
       1.325
      -1.138
      -2.451
      -1.525
       0.475
       1.423
       0.433
      -1.442
      -2.437
      -1.635
       0.393
       2.093
       2.189
       0.724
      -1.163
      -2.363
      -2.485
      -1.677
      -0.290
       1.239
       2.516
       3.296
       3.352
       2.394
       0.450
      -1.685
      -2.809
      -2.361
      -0.954
       0.241
       0.503
      -0.032
      -0.645
      -0.552
       0.493
       1.856
       2.429
       1.586
      -0.249
      -1.958
      -2.530
      -1.670
       0.048
       1.530
       1.891
       1.116
       0.038
      -0.447
      -0.205
       0.177
       0.187
      -0.083
      -0.226
      -0.009
       0.455
       0.688
       0.097
      -1.397
      -2.982
      -3.506
      -2.432
      -0.185
       2.246
       3.873
       3.986
       2.324
      -0.676
      -3.823
      -5.599
      -4.955
      -2.015
       1.760
       4.307
       4.402
       2.647
       0.892
       0.491
       1.131
       1.338
