Origin Time       11/11/2013 22:10:42
Lat.              28.4 N	
Long.             77.2 E	
Depth (Km)         11.0
Magnitude         2.8
 Region           DELHI                                                            
 Above details taken from IMD 
   
Station Code      IGN
Station Lat.       28.492
Station Long.      77.203
Station Height(m)  263.0
Site Class        A   Vs30 between 700 m/sec to 1400 m/sec * 
Record Time       11.11.2013 22:10:21.844
Sampling Rate     200. Hz
 Record Duration   81.260 Sec.
 Direction         Vert. (Up positive)
Max. Acceleration     -2.397 cm/sec**2
     
  * For reference see Site Classification link of website 
     
 Base Line Corrected and Low Pass Filtered (Cut Off at 35 Hz) Time History
 Acceleration data in cm/sec**2
    
[...]
      -0.017
      -0.011
      -0.004
       0.006
       0.021
       0.037
       0.048
       0.053
       0.054
       0.050
       0.045
       0.040
       0.035
       0.020
      -0.009
      -0.044
      -0.074
      -0.098
      -0.121
      -0.128
      -0.090
       0.002
       0.099
       0.127
       0.059
      -0.048
      -0.105
      -0.075
       0.000
       0.054
       0.063
       0.051
       0.050
       0.063
       0.072
       0.062
       0.037
       0.019
       0.018
       0.027
       0.030
       0.024
       0.022
       0.028
       0.032
       0.024
       0.008
      -0.003
      -0.001
       0.014
       0.046
       0.089
       0.123
       0.123
       0.090
       0.049
       0.030
       0.041
       0.069
       0.097
       0.113
       0.113
       0.097
       0.069
       0.035
      -0.002
      -0.033
      -0.051
      -0.050
      -0.031
       0.002
       0.034
       0.049
       0.036
       0.001
      -0.033
      -0.048
      -0.047
      -0.048
      -0.064
      -0.078
      -0.066
      -0.024
       0.022
       0.043
       0.032
       0.008
      -0.001
       0.019
       0.061
       0.097
       0.107
       0.091
       0.078
       0.089
       0.110
       0.104
       0.061
       0.014
       0.004
       0.033
       0.063
       0.050
      -0.009
      -0.075
      -0.096
      -0.050
       0.042
       0.129
       0.173
       0.168
       0.138
       0.101
       0.061
       0.013
      -0.043
      -0.095
      -0.124
      -0.122
      -0.100
      -0.085
      -0.093
      -0.123
      -0.154
      -0.163
      -0.128
      -0.054
       0.021
       0.053
       0.029
      -0.005
       0.013
       0.100
       0.206
       0.252
       0.192
       0.052
      -0.086
      -0.141
      -0.095
      -0.002
       0.063
       0.063
       0.013
      -0.045
      -0.086
      -0.098
      -0.081
      -0.044
      -0.009
      -0.006
      -0.043
      -0.083
      -0.075
       0.005
       0.114
       0.170
       0.126
       0.006
      -0.109
      -0.155
      -0.127
      -0.066
      -0.011
       0.033
       0.075
       0.110
       0.119
       0.094
       0.052
       0.017
      -0.004
      -0.013
      -0.006
       0.032
       0.098
       0.158
       0.161
       0.089
      -0.013
      -0.075
      -0.066
      -0.021
       0.000
      -0.028
      -0.076
      -0.095
      -0.066
      -0.020
      -0.006
      -0.048
      -0.118
      -0.166
      -0.150
      -0.066
       0.051
       0.144
       0.174
       0.139
       0.067
      -0.015
      -0.083
      -0.112
      -0.088
      -0.017
       0.061
       0.104
       0.093
       0.053
       0.021
       0.015
       0.021
       0.015
      -0.003
      -0.011
       0.009
       0.044
       0.059
       0.031
      -0.036
      -0.113
      -0.167
      -0.180
      -0.150
      -0.091
      -0.028
       0.018
       0.030
       0.008
      -0.033
      -0.064
      -0.064
      -0.032
       0.009
       0.031
       0.015
      -0.038
      -0.106
      -0.149
      -0.139
      -0.079
      -0.005
       0.041
       0.050
       0.048
       0.063
       0.097
       0.127
       0.127
       0.091
       0.026
      -0.045
      -0.089
      -0.081
      -0.027
       0.028
       0.034
      -0.020
      -0.096
      -0.133
      -0.100
      -0.022
       0.035
       0.018
      -0.064
      -0.141
      -0.148
      -0.076
       0.024
       0.086
       0.089
       0.054
       0.016
      -0.007
      -0.012
      -0.009
      -0.005
      -0.006
      -0.015
      -0.034
      -0.062
      -0.094
      -0.116
      -0.113
      -0.076
      -0.009
       0.072
       0.138
       0.165
       0.146
       0.090
       0.014
      -0.063
      -0.121
      -0.138
      -0.110
      -0.060
      -0.036
      -0.070
      -0.145
      -0.200
      -0.178
      -0.080
       0.032
       0.083
       0.046
      -0.047
      -0.129
      -0.151
      -0.123
      -0.090
      -0.095
      -0.135
      -0.164
      -0.134
      -0.043
       0.057
       0.105
       0.085
       0.040
       0.029
       0.062
       0.091
       0.054
      -0.053
      -0.166
      -0.202
      -0.125
       0.024
       0.155
       0.186
       0.104
      -0.024
      -0.097
      -0.062
       0.041
       0.118
       0.101
       0.003
      -0.098
      -0.128
      -0.073
       0.022
       0.099
       0.132
       0.132
       0.109
       0.058
      -0.022
      -0.095
      -0.107
      -0.046
       0.031
       0.051
      -0.006
      -0.090
      -0.140
      -0.128
      -0.072
      -0.025
      -0.028
      -0.079
      -0.115
      -0.069
       0.066
       0.205
       0.233
       0.115
      -0.067
      -0.180
      -0.148
      -0.008
       0.132
       0.183
       0.134
       0.045
      -0.010
      -0.014
      -0.002
      -0.014
      -0.044
      -0.043
       0.023
       0.126
       0.193
       0.175
       0.093
       0.028
       0.033
       0.082
       0.092
       0.009
      -0.134
      -0.244
      -0.245
      -0.144
      -0.025
       0.019
      -0.043
      -0.148
      -0.182
      -0.075
       0.140
       0.341
       0.404
       0.302
       0.148
       0.107
       0.236
       0.406
       0.407
       0.162
      -0.175
      -0.342
      -0.221
       0.063
       0.253
       0.195
      -0.056
      -0.317
      -0.425
      -0.321
      -0.052
       0.248
       0.402
       0.286
      -0.047
      -0.360
      -0.401
      -0.126
       0.246
       0.430
       0.336
       0.111
      -0.041
      -0.066
      -0.054
      -0.100
      -0.210
      -0.326
      -0.382
      -0.313
      -0.079
       0.277
       0.566
       0.554
       0.179
      -0.317
      -0.553
      -0.360
       0.058
       0.334
       0.284
       0.042
      -0.109
      -0.006
       0.274
       0.489
       0.419
       0.028
      -0.473
      -0.742
      -0.557
      -0.036
       0.421
       0.456
       0.054
      -0.438
      -0.600
      -0.298
       0.207
       0.497
       0.372
      -0.007
      -0.313
      -0.342
      -0.117
       0.187
       0.383
       0.393
       0.259
       0.080
      -0.083
      -0.213
      -0.283
      -0.228
      -0.029
       0.203
       0.280
       0.114
      -0.175
      -0.356
      -0.281
      -0.008
       0.260
       0.352
       0.274
       0.158
       0.084
       0.007
      -0.117
      -0.207
      -0.136
       0.078
       0.240
       0.170
      -0.085
      -0.297
      -0.309
      -0.183
      -0.071
      -0.033
      -0.013
       0.061
       0.204
       0.350
       0.359
       0.139
      -0.191
      -0.334
      -0.109
       0.306
       0.501
       0.257
      -0.220
      -0.517
      -0.451
      -0.201
      -0.036
      -0.019
      -0.014
       0.091
       0.247
       0.313
       0.198
      -0.086
      -0.445
      -0.714
      -0.706
      -0.336
       0.236
       0.657
       0.659
       0.311
      -0.038
      -0.102
       0.065
       0.145
      -0.058
      -0.366
      -0.414
      -0.089
       0.296
       0.329
      -0.040
      -0.443
      -0.511
      -0.237
       0.122
       0.378
       0.502
       0.468
       0.229
      -0.123
      -0.344
      -0.284
      -0.076
       0.017
      -0.074
      -0.168
      -0.089
       0.127
       0.304
       0.346
       0.301
       0.223
       0.085
      -0.126
      -0.297
      -0.281
      -0.088
       0.072
       0.007
      -0.209
      -0.271
       0.028
       0.530
       0.821
       0.640
       0.139
      -0.293
      -0.406
      -0.257
      -0.052
       0.064
       0.060
      -0.048
      -0.225
      -0.394
      -0.416
      -0.180
       0.245
       0.586
       0.561
       0.162
      -0.268
      -0.322
       0.041
       0.393
       0.273
      -0.253
      -0.616
      -0.372
       0.303
       0.811
       0.718
       0.115
      -0.533
      -0.789
      -0.541
      -0.022
       0.402
       0.494
       0.276
      -0.047
      -0.256
      -0.248
      -0.059
       0.172
       0.287
       0.212
       0.047
      -0.002
       0.174
       0.445
       0.549
       0.354
      -0.012
      -0.292
      -0.338
      -0.208
      -0.087
      -0.108
      -0.243
      -0.337
      -0.262
      -0.039
       0.186
       0.289
       0.247
       0.118
      -0.027
      -0.129
      -0.151
      -0.082
       0.053
       0.181
       0.213
       0.101
      -0.088
      -0.197
      -0.107
       0.133
       0.333
       0.324
       0.098
      -0.196
      -0.392
      -0.422
      -0.315
      -0.140
       0.034
       0.135
       0.079
      -0.170
      -0.500
      -0.656
      -0.430
       0.111
       0.637
       0.819
       0.581
       0.133
      -0.190
      -0.177
       0.080
       0.248
       0.062
      -0.378
      -0.655
      -0.473
       0.034
       0.445
       0.467
       0.155
      -0.201
      -0.317
      -0.093
       0.292
       0.461
       0.171
      -0.386
      -0.704
      -0.448
       0.188
       0.643
       0.481
      -0.231
      -0.963
      -1.123
      -0.521
       0.435
       1.038
       0.867
       0.138
      -0.524
      -0.644
      -0.267
       0.155
       0.206
      -0.120
      -0.429
      -0.317
       0.214
       0.695
       0.611
      -0.049
      -0.703
      -0.715
      -0.050
       0.642
       0.657
      -0.040
      -0.780
      -0.851
      -0.181
       0.625
       0.866
       0.372
      -0.403
      -0.852
      -0.758
      -0.362
       0.027
       0.326
       0.553
       0.581
       0.260
      -0.257
      -0.534
      -0.327
       0.097
       0.288
       0.155
       0.010
       0.112
       0.341
       0.378
       0.106
      -0.268
      -0.456
      -0.378
      -0.175
      -0.003
       0.127
       0.291
       0.468
       0.510
       0.330
       0.055
      -0.112
      -0.139
      -0.197
      -0.396
      -0.577
      -0.443
       0.080
       0.687
       0.904
       0.456
      -0.466
      -1.262
      -1.320
      -0.497
       0.692
       1.419
       1.182
       0.187
      -0.833
      -1.181
      -0.672
       0.286
       0.995
       0.933
       0.150
      -0.716
      -0.935
      -0.348
       0.448
       0.656
       0.061
      -0.743
      -0.930
      -0.254
       0.706
       1.102
       0.620
      -0.256
      -0.746
      -0.526
       0.039
       0.319
       0.048
      -0.434
      -0.508
       0.101
       0.978
       1.346
       0.785
      -0.338
      -1.180
      -1.164
      -0.427
       0.408
       0.811
       0.705
       0.387
       0.200
       0.265
       0.433
       0.457
       0.196
      -0.273
      -0.682
      -0.740
      -0.400
       0.065
       0.292
       0.157
      -0.116
      -0.179
       0.090
       0.452
       0.535
       0.222
      -0.202
      -0.332
      -0.054
       0.356
       0.523
       0.343
       0.049
      -0.083
      -0.042
      -0.054
      -0.281
      -0.608
      -0.738
      -0.490
       0.017
       0.436
       0.466
       0.092
      -0.399
      -0.635
      -0.475
      -0.124
       0.060
      -0.099
      -0.447
      -0.629
      -0.393
       0.201
       0.795
       0.980
       0.619
      -0.011
      -0.428
      -0.354
       0.069
       0.420
       0.393
       0.088
      -0.067
       0.248
       0.835
       1.054
       0.448
      -0.654
      -1.261
      -0.634
       0.849
       1.826
       1.184
      -0.746
      -2.361
      -2.290
      -0.715
       0.880
       1.186
       0.246
      -0.780
      -0.824
       0.162
       1.326
       1.767
       1.259
       0.296
      -0.381
      -0.351
       0.216
       0.698
       0.514
      -0.362
      -1.263
      -1.344
      -0.380
       0.924
       1.542
       1.073
       0.050
      -0.661
      -0.642
      -0.101
       0.452
       0.557
       0.008
      -0.974
      -1.751
      -1.723
      -0.899
       0.083
       0.559
       0.397
      -0.049
      -0.371
      -0.395
      -0.116
       0.407
       0.956
       1.114
       0.584
      -0.386
      -1.071
      -0.912
      -0.112
       0.521
       0.377
      -0.340
      -0.863
      -0.650
       0.157
       0.982
       1.373
       1.302
       1.030
       0.767
       0.458
      -0.125
      -1.038
      -1.931
      -2.237
      -1.652
      -0.436
       0.760
       1.346
       1.143
       0.442
      -0.228
      -0.480
      -0.331
      -0.104
      -0.051
      -0.101
      -0.041
       0.135
       0.190
      -0.013
      -0.261
      -0.186
       0.316
       0.885
       0.986
       0.429
      -0.417
      -0.954
      -0.889
      -0.425
       0.011
       0.195
       0.223
       0.300
       0.492
       0.676
       0.676
       0.394
      -0.129
      -0.686
      -0.941
      -0.629
       0.155
       0.888
       0.969
       0.249
      -0.791
      -1.417
      -1.203
      -0.276
       0.819
       1.403
       1.050
      -0.043
      -1.054
      -1.159
      -0.323
       0.615
       0.729
      -0.091
      -1.048
      -1.221
      -0.396
       0.847
       1.710
       1.764
       1.079
      -0.006
      -1.053
      -1.572
      -1.179
       0.007
       1.168
       1.280
       0.067
      -1.592
      -2.397
      -1.784
      -0.327
       0.925
       1.370
       1.172
       0.838
       0.627
       0.416
       0.066
      -0.240
      -0.131
       0.455
       1.046
       1.047
       0.369
      -0.480
      -0.944
      -0.883
      -0.500
      -0.048
       0.294
       0.415
       0.315
       0.106
      -0.102
      -0.306
      -0.559
      -0.822
      -0.919
      -0.665
      -0.051
       0.650
       1.042
       0.937
       0.555
       0.355
       0.575
       0.935
       0.910
       0.344
      -0.315
      -0.539
      -0.365
      -0.344
      -0.830
      -1.509
      -1.748
      -1.311
      -0.549
       0.076
       0.449
       0.698
       0.854
       0.821
       0.583
       0.275
       0.071
       0.086
       0.324
       0.629
       0.751
       0.545
       0.139
      -0.150
      -0.105
       0.187
       0.424
       0.361
       0.013
      -0.378
      -0.554
      -0.471
      -0.331
      -0.384
      -0.643
      -0.834
      -0.693
      -0.283
       0.052
       0.040
      -0.288
      -0.665
      -0.830
      -0.708
      -0.393
      -0.012
       0.389
       0.828
       1.254
       1.469
       1.238
       0.557
      -0.210
      -0.590
      -0.421
       0.010
       0.273
       0.180
      -0.082
      -0.190
      -0.037
       0.149
       0.060
      -0.290
      -0.495
      -0.177
       0.503
       0.872
       0.407
      -0.649
      -1.431
      -1.248
      -0.229
       0.789
       0.998
       0.298
      -0.652
      -1.042
      -0.585
       0.317
       0.995
       1.064
       0.640
       0.115
      -0.209
      -0.257
      -0.109
       0.086
       0.133
      -0.089
      -0.450
      -0.609
      -0.337
       0.162
       0.355
      -0.080
      -0.837
      -1.200
      -0.733
       0.261
       1.002
       0.936
       0.236
      -0.338
      -0.131
       0.764
       1.550
       1.469
       0.522
      -0.555
      -0.988
      -0.628
       0.010
       0.282
      -0.030
      -0.601
      -0.921
      -0.717
      -0.096
       0.586
       0.916
       0.637
      -0.157
      -0.970
      -1.207
      -0.698
       0.082
       0.410
       0.010
      -0.656
      -0.856
      -0.313
       0.555
       1.087
       0.983
       0.488
       0.072
       0.013
       0.258
       0.571
       0.739
       0.662
       0.318
      -0.243
      -0.823
      -1.080
      -0.761
       0.019
       0.779
       1.016
       0.602
      -0.121
      -0.612
      -0.560
      -0.137
       0.166
       0.045
      -0.295
      -0.368
       0.019
       0.498
       0.527
      -0.012
      -0.701
      -1.006
      -0.721
      -0.052
       0.570
       0.802
       0.639
       0.407
       0.429
       0.660
       0.698
       0.228
      -0.561
      -1.101
      -0.991
      -0.375
       0.243
       0.455
       0.211
      -0.239
      -0.577
      -0.620
      -0.376
       0.018
       0.391
       0.604
       0.602
       0.414
       0.129
      -0.144
      -0.295
      -0.290
      -0.239
      -0.283
      -0.360
      -0.205
       0.301
       0.835
       0.840
       0.134
      -0.735
      -0.892
      -0.014
       1.239
       1.763
       1.038
      -0.395
      -1.437
      -1.411
      -0.609
       0.072
       0.012
      -0.587
      -1.003
      -0.740
       0.052
       0.788
       0.962
       0.489
      -0.278
      -0.802
      -0.743
      -0.219
       0.283
       0.355
       0.081
      -0.071
       0.190
       0.624
       0.727
       0.284
      -0.411
      -0.840
      -0.710
      -0.164
       0.383
       0.611
       0.540
       0.421
       0.386
       0.257
      -0.224
      -0.970
      -1.477
      -1.257
      -0.360
       0.624
       1.077
       0.868
       0.375
       0.064
       0.095
       0.281
       0.309
      -0.010
      -0.605
      -1.172
      -1.316
      -0.811
       0.180
       1.119
       1.427
       0.928
       0.019
      -0.602
      -0.494
       0.161
       0.698
       0.535
      -0.312
      -1.220
      -1.484
      -0.886
       0.151
       0.939
       1.054
       0.590
      -0.006
      -0.299
      -0.155
       0.184
       0.323
       0.084
      -0.329
      -0.573
      -0.499
      -0.231
       0.040
       0.253
       0.428
       0.513
       0.397
       0.114
      -0.079
       0.057
       0.438
       0.647
       0.316
      -0.442
      -1.033
      -0.928
      -0.204
       0.485
       0.524
      -0.107
      -0.823
      -0.978
      -0.444
       0.275
       0.531
       0.167
      -0.362
      -0.489
      -0.082
       0.510
       0.826
       0.649
       0.099
      -0.480
      -0.740
      -0.551
      -0.078
       0.375
       0.627
       0.688
       0.611
       0.393
       0.066
      -0.229
      -0.354
      -0.317
      -0.238
      -0.190
      -0.160
      -0.131
      -0.130
      -0.179
      -0.233
      -0.184
       0.032
       0.323
       0.440
       0.181
      -0.360
      -0.765
      -0.636
      -0.024
       0.557
       0.640
       0.298
       0.024
       0.161
       0.539
       0.720
       0.499
       0.088
      -0.153
      -0.103
       0.015
      -0.104
      -0.483
      -0.788
      -0.645
      -0.048
       0.573
       0.706
       0.212
      -0.534
      -0.918
      -0.585
       0.262
       1.009
       1.131
       0.591
      -0.171
      -0.618
      -0.532
      -0.154
       0.066
      -0.111
      -0.491
      -0.626
      -0.264
       0.364
       0.738
       0.577
       0.120
      -0.172
      -0.104
       0.115
       0.183
       0.039
      -0.138
      -0.178
      -0.102
      -0.036
      -0.032
      -0.027
       0.007
      -0.020
