Origin Time       11/11/2013 19:11:18
Lat.              28.5 N	
Long.             77.2 E	
Depth (Km)         10.0
Magnitude         3.1
 Region           DELHI                                                            
 Above details taken from IMD 
   
Station Code      IGN
Station Lat.       28.492
Station Long.      77.203
Station Height(m)  263.0
Site Class        A   Vs30 between 700 m/sec to 1400 m/sec * 
Record Time       11.11.2013 19:10:55.469
Sampling Rate     200. Hz
 Record Duration   85.810 Sec.
 Direction         Vert. (Up positive)
Max. Acceleration      2.964 cm/sec**2
     
  * For reference see Site Classification link of website 
     
 Base Line Corrected and Low Pass Filtered (Cut Off at 35 Hz) Time History
 Acceleration data in cm/sec**2
    
[...]
       0.134
       0.152
       0.120
       0.052
      -0.017
      -0.054
      -0.053
      -0.034
      -0.020
      -0.011
       0.015
       0.059
       0.093
       0.084
       0.036
      -0.013
      -0.029
      -0.020
      -0.016
      -0.032
      -0.046
      -0.026
       0.025
       0.060
       0.033
      -0.044
      -0.106
      -0.100
      -0.041
       0.010
       0.011
      -0.020
      -0.034
       0.000
       0.059
       0.097
       0.087
       0.047
       0.019
       0.030
       0.076
       0.119
       0.121
       0.076
       0.017
      -0.007
       0.011
       0.035
       0.030
       0.008
       0.014
       0.072
       0.145
       0.158
       0.074
      -0.066
      -0.172
      -0.173
      -0.078
       0.041
       0.111
       0.118
       0.095
       0.080
       0.080
       0.079
       0.071
       0.068
       0.080
       0.088
       0.068
       0.019
      -0.028
      -0.040
      -0.013
       0.021
       0.023
      -0.022
      -0.082
      -0.108
      -0.077
      -0.017
       0.024
       0.019
      -0.012
      -0.026
       0.011
       0.091
       0.173
       0.204
       0.166
       0.090
       0.036
       0.039
       0.082
       0.109
       0.077
      -0.001
      -0.072
      -0.095
      -0.075
      -0.051
      -0.060
      -0.103
      -0.147
      -0.155
      -0.106
      -0.010
       0.092
       0.152
       0.151
       0.112
       0.070
       0.038
       0.008
      -0.035
      -0.083
      -0.109
      -0.093
      -0.039
       0.029
       0.092
       0.138
       0.156
       0.131
       0.056
      -0.046
      -0.135
      -0.183
      -0.189
      -0.166
      -0.121
      -0.049
       0.039
       0.103
       0.098
       0.026
      -0.062
      -0.107
      -0.100
      -0.082
      -0.090
      -0.116
      -0.129
      -0.107
      -0.064
      -0.030
      -0.018
      -0.014
       0.003
       0.039
       0.079
       0.091
       0.058
      -0.007
      -0.063
      -0.068
      -0.020
       0.044
       0.081
       0.080
       0.063
       0.054
       0.053
       0.046
       0.027
       0.012
       0.013
       0.018
       0.003
      -0.037
      -0.077
      -0.091
      -0.076
      -0.052
      -0.038
      -0.034
      -0.027
       0.001
       0.047
       0.087
       0.086
       0.031
      -0.060
      -0.143
      -0.174
      -0.133
      -0.030
       0.094
       0.181
       0.194
       0.147
       0.088
       0.057
       0.054
       0.053
       0.030
      -0.015
      -0.067
      -0.099
      -0.090
      -0.030
       0.057
       0.121
       0.124
       0.071
       0.005
      -0.027
      -0.020
       0.002
       0.016
       0.020
       0.027
       0.041
       0.054
       0.062
       0.067
       0.063
       0.034
      -0.025
      -0.085
      -0.103
      -0.067
      -0.006
       0.032
       0.025
      -0.005
      -0.014
       0.027
       0.098
       0.148
       0.138
       0.071
      -0.001
      -0.024
       0.010
       0.060
       0.072
       0.036
      -0.002
       0.012
       0.081
       0.143
       0.141
       0.076
       0.003
      -0.036
      -0.043
      -0.045
      -0.048
      -0.031
       0.020
       0.080
       0.103
       0.070
       0.008
      -0.039
      -0.051
      -0.040
      -0.024
      -0.010
       0.000
       0.007
       0.014
       0.026
       0.037
       0.031
       0.011
       0.001
       0.019
       0.045
       0.031
      -0.036
      -0.112
      -0.136
      -0.086
       0.002
       0.071
       0.087
       0.058
       0.015
      -0.017
      -0.029
      -0.030
      -0.036
      -0.055
      -0.076
      -0.071
      -0.016
       0.075
       0.154
       0.174
       0.129
       0.052
      -0.013
      -0.049
      -0.062
      -0.066
      -0.064
      -0.050
      -0.016
       0.031
       0.071
       0.083
       0.055
       0.002
      -0.042
      -0.058
      -0.067
      -0.106
      -0.171
      -0.210
      -0.170
      -0.051
       0.082
       0.155
       0.152
       0.118
       0.108
       0.119
       0.105
       0.029
      -0.084
      -0.160
      -0.142
      -0.039
       0.084
       0.154
       0.148
       0.094
       0.039
       0.006
      -0.014
      -0.039
      -0.064
      -0.061
      -0.017
       0.042
       0.064
       0.026
      -0.040
      -0.075
      -0.047
       0.028
       0.103
       0.144
       0.146
       0.114
       0.063
       0.015
      -0.001
       0.020
       0.049
       0.045
       0.007
      -0.025
      -0.014
       0.025
       0.042
       0.007
      -0.048
      -0.064
      -0.020
       0.036
       0.033
      -0.047
      -0.155
      -0.213
      -0.186
      -0.095
       0.003
       0.051
       0.029
      -0.034
      -0.078
      -0.062
      -0.004
       0.035
       0.016
      -0.036
      -0.053
       0.005
       0.109
       0.184
       0.176
       0.097
       0.006
      -0.039
      -0.017
       0.048
       0.106
       0.108
       0.044
      -0.042
      -0.092
      -0.079
      -0.030
       0.007
       0.000
      -0.052
      -0.123
      -0.175
      -0.188
      -0.163
      -0.118
      -0.060
       0.006
       0.062
       0.076
       0.035
      -0.038
      -0.086
      -0.068
       0.007
       0.092
       0.139
       0.131
       0.089
       0.043
       0.011
      -0.001
       0.005
       0.021
       0.032
       0.027
      -0.003
      -0.053
      -0.107
      -0.136
      -0.118
      -0.056
       0.017
       0.062
       0.070
       0.062
       0.063
       0.074
       0.077
       0.068
       0.057
       0.057
       0.066
       0.073
       0.067
       0.042
      -0.001
      -0.049
      -0.083
      -0.088
      -0.065
      -0.020
       0.034
       0.080
       0.103
       0.100
       0.078
       0.052
       0.029
       0.013
       0.006
       0.006
       0.009
       0.011
       0.002
      -0.034
      -0.100
      -0.169
      -0.198
      -0.154
      -0.052
       0.055
       0.109
       0.089
       0.030
      -0.022
      -0.046
      -0.053
      -0.059
      -0.053
      -0.015
       0.058
       0.131
       0.152
       0.097
      -0.011
      -0.104
      -0.118
      -0.041
       0.075
       0.150
       0.140
       0.065
      -0.007
      -0.022
       0.013
       0.046
       0.025
      -0.046
      -0.113
      -0.113
      -0.030
       0.092
       0.184
       0.198
       0.140
       0.049
      -0.032
      -0.079
      -0.089
      -0.069
      -0.033
      -0.002
      -0.002
      -0.040
      -0.093
      -0.117
      -0.091
      -0.036
      -0.015
      -0.075
      -0.186
      -0.236
      -0.097
       0.254
       0.695
       1.019
       1.073
       0.838
       0.413
      -0.047
      -0.388
      -0.515
      -0.432
      -0.244
      -0.071
       0.045
       0.117
       0.136
       0.043
      -0.192
      -0.467
      -0.565
      -0.328
       0.175
       0.675
       0.872
       0.628
       0.055
      -0.523
      -0.751
      -0.501
       0.007
       0.377
       0.383
       0.136
      -0.104
      -0.196
      -0.203
      -0.243
      -0.338
      -0.390
      -0.271
       0.061
       0.479
       0.734
       0.644
       0.271
      -0.108
      -0.226
      -0.042
       0.260
       0.452
       0.443
       0.313
       0.169
       0.003
      -0.284
      -0.665
      -0.860
      -0.553
       0.216
       0.975
       1.227
       0.898
       0.345
      -0.065
      -0.274
      -0.434
      -0.589
      -0.548
      -0.124
       0.564
       1.093
       1.074
       0.483
      -0.326
      -0.897
      -0.974
      -0.591
       0.013
       0.540
       0.741
       0.529
       0.077
      -0.258
      -0.220
       0.104
       0.372
       0.335
       0.057
      -0.203
      -0.253
      -0.106
       0.107
       0.260
       0.273
       0.113
      -0.161
      -0.402
      -0.457
      -0.285
       0.008
       0.245
       0.321
       0.277
       0.229
       0.213
       0.133
      -0.110
      -0.446
      -0.659
      -0.592
      -0.298
       0.022
       0.217
       0.292
       0.342
       0.413
       0.458
       0.405
       0.249
       0.068
      -0.034
      -0.030
      -0.024
      -0.143
      -0.340
      -0.388
      -0.136
       0.283
       0.549
       0.452
       0.082
      -0.263
      -0.311
      -0.023
       0.352
       0.443
       0.085
      -0.474
      -0.757
      -0.541
      -0.097
       0.120
      -0.034
      -0.277
      -0.282
      -0.033
       0.207
       0.229
       0.076
      -0.069
      -0.108
      -0.107
      -0.148
      -0.209
      -0.200
      -0.077
       0.136
       0.379
       0.564
       0.567
       0.276
      -0.255
      -0.728
      -0.778
      -0.324
       0.275
       0.505
       0.172
      -0.376
      -0.559
      -0.123
       0.590
       0.962
       0.692
       0.031
      -0.528
      -0.705
      -0.553
      -0.245
       0.091
       0.342
       0.370
       0.149
      -0.135
      -0.213
      -0.029
       0.164
       0.067
      -0.281
      -0.479
      -0.190
       0.444
       0.893
       0.731
       0.028
      -0.726
      -1.025
      -0.723
      -0.075
       0.485
       0.628
       0.311
      -0.206
      -0.506
      -0.312
       0.254
       0.720
       0.660
       0.129
      -0.368
      -0.383
       0.027
       0.385
       0.306
      -0.142
      -0.553
      -0.554
      -0.090
       0.539
       0.867
       0.615
      -0.033
      -0.543
      -0.523
      -0.090
       0.269
       0.176
      -0.308
      -0.791
      -0.905
      -0.555
       0.065
       0.629
       0.884
       0.774
       0.428
       0.056
      -0.176
      -0.220
      -0.144
      -0.067
      -0.052
      -0.042
       0.090
       0.344
       0.485
       0.233
      -0.386
      -0.924
      -0.873
      -0.162
       0.718
       1.144
       0.924
       0.384
      -0.049
      -0.241
      -0.323
      -0.412
      -0.449
      -0.315
      -0.006
       0.333
       0.511
       0.419
       0.086
      -0.320
      -0.563
      -0.492
      -0.170
       0.192
       0.452
       0.641
       0.811
       0.840
       0.512
      -0.172
      -0.844
      -1.031
      -0.597
       0.100
       0.515
       0.406
       0.003
      -0.284
      -0.253
      -0.027
       0.122
       0.024
      -0.259
      -0.469
      -0.354
       0.086
       0.516
       0.513
      -0.020
      -0.670
      -0.846
      -0.341
       0.445
       0.885
       0.702
       0.146
      -0.327
      -0.486
      -0.413
      -0.259
      -0.025
       0.331
       0.663
       0.674
       0.254
      -0.310
      -0.578
      -0.395
      -0.017
       0.186
       0.091
      -0.120
      -0.190
      -0.050
       0.149
       0.221
       0.131
      -0.008
      -0.087
      -0.064
       0.048
       0.201
       0.317
       0.368
       0.427
       0.550
       0.603
       0.342
      -0.287
      -0.964
      -1.195
      -0.733
       0.157
       0.870
       0.901
       0.243
      -0.575
      -0.858
      -0.323
       0.606
       1.115
       0.748
      -0.142
      -0.741
      -0.594
      -0.025
       0.302
       0.133
      -0.203
      -0.264
       0.029
       0.416
       0.640
       0.637
       0.436
       0.055
      -0.423
      -0.771
      -0.769
      -0.440
      -0.061
       0.129
       0.171
       0.277
       0.496
       0.589
       0.325
      -0.170
      -0.485
      -0.369
       0.015
       0.283
       0.242
       0.044
      -0.020
       0.130
       0.258
       0.073
      -0.422
      -0.861
      -0.824
      -0.197
       0.689
       1.258
       1.113
       0.403
      -0.257
      -0.342
       0.052
       0.305
      -0.038
      -0.727
      -1.053
      -0.635
       0.189
       0.748
       0.699
       0.244
      -0.207
      -0.461
      -0.580
      -0.638
      -0.532
      -0.106
       0.567
       1.100
       1.092
       0.501
      -0.297
      -0.817
      -0.833
      -0.501
      -0.149
       0.045
       0.143
       0.254
       0.341
       0.267
       0.010
      -0.261
      -0.344
      -0.223
      -0.077
      -0.058
      -0.119
      -0.097
       0.073
       0.304
       0.493
       0.601
       0.574
       0.308
      -0.177
      -0.575
      -0.506
       0.040
       0.570
       0.554
      -0.020
      -0.624
      -0.747
      -0.383
       0.046
       0.153
      -0.091
      -0.472
      -0.829
      -1.130
      -1.278
      -1.050
      -0.381
       0.344
       0.551
       0.137
      -0.287
       0.007
       1.019
       1.938
       1.973
       1.142
       0.173
      -0.273
      -0.158
       0.055
      -0.097
      -0.724
      -1.535
      -2.032
      -1.809
      -0.834
       0.491
       1.562
       1.958
       1.653
       0.935
       0.169
      -0.393
      -0.653
      -0.613
      -0.345
      -0.018
       0.129
      -0.059
      -0.468
      -0.759
      -0.655
      -0.184
       0.405
       0.884
       1.151
       1.137
       0.750
      -0.006
      -0.898
      -1.548
      -1.732
      -1.563
      -1.306
      -1.044
      -0.615
       0.103
       0.992
       1.833
       2.506
       2.938
       2.964
       2.410
       1.352
       0.174
      -0.716
      -1.216
      -1.528
      -1.799
      -1.885
      -1.561
      -0.906
      -0.317
      -0.079
      -0.018
       0.304
       1.009
       1.575
       1.257
      -0.125
      -1.822
      -2.655
      -1.973
      -0.232
       1.359
       1.807
       1.083
       0.002
      -0.574
      -0.453
      -0.067
       0.142
       0.174
       0.350
       0.854
       1.459
       1.673
       1.160
       0.028
      -1.231
      -2.074
      -2.188
      -1.557
      -0.403
       0.824
       1.546
       1.429
       0.731
       0.116
       0.035
       0.309
       0.365
      -0.150
      -1.020
      -1.664
      -1.647
      -0.982
      -0.052
       0.690
       0.962
       0.734
       0.188
      -0.360
      -0.573
      -0.247
       0.524
       1.331
       1.682
       1.369
       0.649
       0.033
      -0.177
      -0.113
      -0.142
      -0.455
      -0.865
      -0.959
      -0.481
       0.390
       1.133
       1.299
       0.870
       0.177
      -0.506
      -1.173
      -1.855
      -2.286
      -1.999
      -0.854
       0.590
       1.411
       1.148
       0.251
      -0.353
      -0.146
       0.598
       1.240
       1.418
       1.206
       0.813
       0.308
      -0.329
      -0.992
      -1.391
      -1.234
      -0.514
       0.392
       0.950
       0.872
       0.337
      -0.184
      -0.331
      -0.107
       0.195
       0.218
      -0.244
      -1.084
      -1.852
      -1.993
      -1.274
      -0.076
       0.833
       0.952
       0.506
       0.206
       0.503
       1.128
       1.378
       0.847
      -0.160
      -0.900
      -0.862
      -0.184
       0.527
       0.772
       0.555
       0.265
       0.225
       0.408
       0.530
       0.327
      -0.223
      -0.846
      -1.137
      -0.880
      -0.262
       0.274
       0.400
       0.149
      -0.187
      -0.317
      -0.178
       0.038
       0.057
      -0.227
      -0.614
      -0.714
      -0.280
       0.490
       1.027
       0.866
       0.112
      -0.596
      -0.655
      -0.076
       0.530
       0.583
       0.109
      -0.341
      -0.267
       0.311
       0.906
       1.022
       0.573
      -0.062
      -0.372
      -0.162
       0.304
       0.589
       0.480
       0.114
      -0.188
      -0.192
       0.082
       0.364
       0.311
      -0.227
      -1.015
      -1.534
      -1.376
      -0.626
       0.166
       0.441
       0.093
      -0.468
      -0.721
      -0.492
      -0.040
       0.268
       0.319
       0.285
       0.376
       0.591
       0.721
       0.573
       0.186
      -0.195
      -0.353
      -0.303
      -0.249
      -0.359
      -0.576
      -0.656
      -0.410
       0.069
       0.448
       0.450
       0.140
      -0.125
      -0.039
       0.367
       0.770
       0.869
       0.630
       0.256
      -0.014
      -0.096
      -0.107
      -0.269
      -0.672
      -1.109
      -1.184
      -0.667
       0.249
       1.041
       1.226
       0.678
      -0.291
      -1.125
      -1.371
      -0.952
      -0.182
       0.476
       0.742
       0.675
       0.524
       0.439
       0.361
       0.203
       0.042
       0.083
       0.407
       0.764
       0.706
       0.001
      -1.056
      -1.815
      -1.777
      -0.987
       0.015
       0.609
       0.577
       0.251
       0.162
       0.508
       0.951
       0.967
       0.357
      -0.578
      -1.298
      -1.398
      -0.849
       0.009
       0.657
       0.743
       0.327
      -0.165
      -0.329
      -0.139
       0.074
       0.013
      -0.240
      -0.288
       0.132
       0.835
       1.329
       1.269
       0.728
       0.087
      -0.305
      -0.370
      -0.281
      -0.257
      -0.366
      -0.509
      -0.581
      -0.605
      -0.688
      -0.826
      -0.832
      -0.506
       0.104
       0.675
       0.913
       0.846
       0.766
       0.840
       0.842
       0.368
      -0.610
      -1.505
      -1.569
      -0.662
       0.529
       1.095
       0.726
      -0.090
      -0.603
      -0.491
      -0.055
       0.184
       0.026
      -0.255
      -0.255
       0.130
       0.631
       0.891
       0.759
       0.337
      -0.160
      -0.518
      -0.615
      -0.488
      -0.298
      -0.162
      -0.052
       0.115
       0.320
       0.403
       0.219
      -0.166
      -0.490
      -0.511
      -0.212
       0.189
       0.401
       0.257
      -0.160
      -0.560
      -0.649
      -0.341
       0.204
       0.729
       1.033
       0.997
       0.577
      -0.124
      -0.778
      -0.995
      -0.657
      -0.080
       0.252
       0.145
      -0.185
      -0.411
      -0.438
      -0.408
      -0.423
      -0.380
      -0.106
       0.370
       0.780
       0.877
       0.672
       0.367
       0.104
      -0.147
      -0.437
      -0.651
      -0.588
      -0.219
       0.206
       0.355
       0.118
      -0.300
      -0.564
      -0.459
      -0.021
       0.472
       0.649
       0.315
      -0.369
      -0.987
      -1.157
      -0.788
      -0.131
       0.392
       0.500
       0.256
      -0.015
      -0.015
       0.258
       0.523
       0.519
       0.289
       0.108
       0.138
       0.220
       0.090
      -0.255
      -0.495
      -0.348
       0.055
       0.224
      -0.208
      -1.045
      -1.619
      -1.373
      -0.410
       0.579
       0.954
       0.667
       0.188
      -0.030
       0.072
       0.260
       0.359
       0.394
       0.437
       0.418
       0.179
      -0.291
      -0.750
      -0.887
      -0.588
      -0.058
       0.328
       0.311
      -0.056
      -0.472
      -0.608
      -0.309
       0.302
       0.833
       0.856
