Origin Time       05/3/2012 07:41:05	
Lat.              28.7 N	
Long.             76.6 E	
Depth (Km)         14.0
Magnitude         4.9
 Region           Haryana-Delhi-Border-Region                                      
 Above details taken from IMD 
   
Station Code       IIT 
Station Lat.       28.603
Station Long.      77.295
Station Height(m)   50.0
Site Class        C   Vs30 between 200 m/sec to 375 m/sec *  
Record Time        3/5/2012   7:41:02.000
Sampling Rate     200. Hz
 Record Duration   98.000 Sec.
 Direction         Vert. (Up positive)
Max. Acceleration -11.179 cm/sec**2
     
  * For reference see Site Classification link of website 
     
 Base Line Corrected and Low Pass Filtered (Cut Off at 35 Hz) Time History
 Acceleration data in cm/sec**2
    
[...]
    0.018
    0.582
    0.921
    0.994
    0.935
    0.934
    1.073
    1.255
    1.312
    1.170
    0.944
    0.850
    1.025
    1.406
    1.782
    1.945
    1.825
    1.482
    1.019
    0.505
   -0.029
   -0.554
   -1.023
   -1.379
   -1.572
   -1.595
   -1.509
   -1.428
   -1.439
   -1.525
   -1.546
   -1.333
   -0.839
   -0.212
    0.261
    0.336
   -0.020
   -0.608
   -1.122
   -1.350
   -1.295
   -1.144
   -1.097
   -1.199
   -1.310
   -1.245
   -0.931
   -0.460
    0.006
    0.354
    0.585
    0.749
    0.868
    0.904
    0.821
    0.674
    0.610
    0.764
    1.126
    1.512
    1.689
    1.542
    1.132
    0.623
    0.172
   -0.127
   -0.251
   -0.243
   -0.195
   -0.203
   -0.304
   -0.428
   -0.430
   -0.185
    0.318
    0.948
    1.485
    1.711
    1.494
    0.857
    0.015
   -0.699
   -1.009
   -0.879
   -0.530
   -0.275
   -0.295
   -0.538
   -0.797
   -0.877
   -0.710
   -0.374
   -0.010
    0.262
    0.377
    0.302
    0.022
   -0.419
   -0.857
   -1.035
   -0.746
   -0.014
    0.875
    1.535
    1.735
    1.519
    1.111
    0.705
    0.352
    0.017
   -0.295
   -0.499
   -0.508
   -0.332
   -0.085
    0.099
    0.170
    0.188
    0.246
    0.348
    0.378
    0.192
   -0.233
   -0.748
   -1.127
   -1.224
   -1.040
   -0.671
   -0.220
    0.210
    0.495
    0.529
    0.333
    0.117
    0.141
    0.479
    0.886
    0.945
    0.397
   -0.625
   -1.650
   -2.196
   -2.069
   -1.441
   -0.664
   -0.032
    0.330
    0.428
    0.335
    0.174
    0.105
    0.257
    0.628
    1.052
    1.289
    1.177
    0.716
    0.059
   -0.545
   -0.830
   -0.616
    0.077
    0.984
    1.681
    1.788
    1.179
    0.070
   -1.075
   -1.775
   -1.780
   -1.204
   -0.441
    0.087
    0.181
   -0.048
   -0.319
   -0.408
   -0.274
   -0.012
    0.241
    0.362
    0.246
   -0.125
   -0.603
   -0.900
   -0.758
   -0.155
    0.655
    1.292
    1.469
    1.110
    0.352
   -0.536
   -1.252
   -1.573
   -1.436
   -0.986
   -0.511
   -0.308
   -0.503
   -0.961
   -1.357
   -1.368
   -0.861
    0.063
    1.152
    2.095
    2.600
    2.496
    1.850
    1.000
    0.408
    0.389
    0.905
    1.582
    1.945
    1.725
    1.030
    0.254
   -0.188
   -0.134
    0.225
    0.480
    0.272
   -0.467
   -1.450
   -2.213
   -2.411
   -2.021
   -1.309
   -0.614
   -0.139
    0.113
    0.243
    0.329
    0.356
    0.256
   -0.002
   -0.337
   -0.581
   -0.589
   -0.356
   -0.045
    0.119
    0.021
   -0.259
   -0.512
   -0.579
   -0.456
   -0.258
   -0.086
    0.040
    0.141
    0.196
    0.156
    0.035
   -0.033
    0.106
    0.448
    0.767
    0.759
    0.305
   -0.403
   -0.967
   -1.067
   -0.670
   -0.030
    0.521
    0.782
    0.749
    0.527
    0.217
   -0.124
   -0.448
   -0.694
   -0.803
   -0.771
   -0.662
   -0.571
   -0.520
   -0.416
   -0.111
    0.425
    1.019
    1.393
    1.382
    1.066
    0.671
    0.384
    0.255
    0.236
    0.267
    0.300
    0.280
    0.132
   -0.211
   -0.751
   -1.372
   -1.865
   -2.030
   -1.797
   -1.273
   -0.687
   -0.261
   -0.092
   -0.115
   -0.148
   -0.015
    0.356
    0.911
    1.516
    2.020
    2.287
    2.217
    1.782
    1.057
    0.224
   -0.482
   -0.838
   -0.710
   -0.107
    0.765
    1.525
    1.788
    1.422
    0.673
    0.024
   -0.160
    0.107
    0.475
    0.544
    0.144
   -0.600
   -1.401
   -1.977
   -2.129
   -1.784
   -1.045
   -0.193
    0.422
    0.604
    0.416
    0.089
   -0.190
   -0.385
   -0.548
   -0.716
   -0.871
   -0.980
   -1.033
   -1.027
   -0.934
   -0.702
   -0.324
    0.111
    0.451
    0.579
    0.483
    0.236
   -0.055
   -0.278
   -0.330
   -0.170
    0.132
    0.433
    0.636
    0.759
    0.849
    0.873
    0.723
    0.360
   -0.071
   -0.311
   -0.190
    0.219
    0.637
    0.781
    0.546
    0.061
   -0.424
   -0.685
   -0.640
   -0.370
   -0.053
    0.149
    0.174
    0.057
   -0.131
   -0.297
   -0.308
   -0.036
    0.506
    1.079
    1.323
    1.033
    0.371
   -0.207
   -0.292
    0.160
    0.815
    1.239
    1.225
    0.866
    0.393
   -0.036
   -0.414
   -0.814
   -1.242
   -1.564
   -1.584
   -1.233
   -0.672
   -0.192
   -0.001
   -0.101
   -0.337
   -0.506
   -0.439
   -0.062
    0.522
    1.029
    1.136
    0.729
    0.022
   -0.563
   -0.692
   -0.344
    0.191
    0.520
    0.412
   -0.062
   -0.598
   -0.864
   -0.692
   -0.153
    0.493
    0.918
    0.858
    0.223
   -0.833
   -1.948
   -2.715
   -2.884
   -2.471
   -1.690
   -0.774
    0.153
    1.063
    1.905
    2.523
    2.719
    2.426
    1.805
    1.157
    0.691
    0.379
    0.033
   -0.450
   -0.924
   -1.081
   -0.735
   -0.029
    0.649
    0.982
    0.957
    0.805
    0.733
    0.719
    0.578
    0.188
   -0.355
   -0.813
   -1.019
   -0.990
   -0.841
   -0.626
   -0.286
    0.219
    0.765
    1.070
    0.901
    0.307
   -0.338
   -0.596
   -0.321
    0.205
    0.505
    0.307
   -0.251
   -0.785
   -1.013
   -0.945
   -0.796
   -0.740
   -0.768
   -0.754
   -0.613
   -0.386
   -0.180
   -0.080
   -0.104
   -0.232
   -0.421
   -0.572
   -0.540
   -0.222
    0.332
    0.916
    1.280
    1.247
    0.771
   -0.043
   -0.920
   -1.473
   -1.396
   -0.686
    0.328
    1.193
    1.629
    1.646
    1.450
    1.220
    0.972
    0.602
    0.053
   -0.571
   -1.051
   -1.219
   -1.085
   -0.805
   -0.561
   -0.462
   -0.505
   -0.596
   -0.615
   -0.504
   -0.315
   -0.165
   -0.119
   -0.134
   -0.109
    0.024
    0.264
    0.577
    0.916
    1.238
    1.510
    1.739
    1.945
    2.109
    2.147
    1.955
    1.515
    0.939
    0.424
    0.113
    0.007
    0.012
    0.053
    0.110
    0.139
    0.013
   -0.412
   -1.137
   -1.939
   -2.478
   -2.506
   -2.033
   -1.353
   -0.876
   -0.864
   -1.237
   -1.624
   -1.648
   -1.222
   -0.600
   -0.162
   -0.116
   -0.376
   -0.679
   -0.779
   -0.563
   -0.061
    0.597
    1.222
    1.628
    1.711
    1.499
    1.125
    0.761
    0.552
    0.572
    0.792
    1.100
    1.367
    1.514
    1.509
    1.327
    0.950
    0.424
   -0.109
   -0.477
   -0.606
   -0.574
   -0.531
   -0.534
   -0.481
   -0.258
    0.048
    0.133
   -0.243
   -0.972
   -1.634
   -1.863
   -1.664
   -1.373
   -1.328
   -1.569
   -1.848
   -1.897
   -1.671
   -1.327
   -0.970
   -0.485
    0.315
    1.384
    2.338
    2.727
    2.419
    1.716
    1.090
    0.803
    0.771
    0.765
    0.696
    0.661
    0.725
    0.740
    0.448
   -0.211
   -0.922
   -1.210
   -0.869
   -0.207
    0.168
   -0.118
   -0.845
   -1.355
   -1.118
   -0.198
    0.807
    1.290
    1.113
    0.617
    0.200
   -0.055
   -0.331
   -0.715
   -0.970
   -0.727
    0.098
    1.089
    1.600
    1.298
    0.468
   -0.222
   -0.290
    0.162
    0.604
    0.594
    0.169
   -0.247
   -0.280
    0.061
    0.444
    0.559
    0.394
    0.186
    0.121
    0.123
   -0.034
   -0.400
   -0.689
   -0.520
    0.129
    0.762
    0.714
   -0.249
   -1.642
   -2.554
   -2.306
   -0.960
    0.717
    1.818
    1.924
    1.311
    0.613
    0.299
    0.396
    0.606
    0.631
    0.423
    0.171
    0.064
    0.082
    0.028
   -0.246
   -0.663
   -0.998
   -1.083
   -0.929
   -0.657
   -0.369
   -0.103
    0.113
    0.201
    0.082
   -0.204
   -0.462
   -0.493
   -0.288
   -0.067
   -0.083
   -0.401
   -0.854
   -1.168
   -1.127
   -0.672
    0.069
    0.829
    1.335
    1.449
    1.231
    0.855
    0.451
    0.027
   -0.457
   -0.936
   -1.189
   -0.989
   -0.328
    0.514
    1.149
    1.334
    1.075
    0.524
   -0.159
   -0.860
   -1.452
   -1.766
   -1.642
   -1.056
   -0.185
    0.632
    1.035
    0.818
    0.078
   -0.774
   -1.207
   -0.889
    0.073
    1.176
    1.835
    1.731
    0.960
   -0.072
   -0.888
   -1.153
   -0.800
   -0.063
    0.619
    0.843
    0.504
   -0.135
   -0.633
   -0.692
   -0.331
    0.198
    0.626
    0.826
    0.795
    0.571
    0.197
   -0.231
   -0.549
   -0.609
   -0.400
   -0.071
    0.188
    0.283
    0.259
    0.249
    0.380
    0.693
    1.071
    1.266
    1.048
    0.398
   -0.454
   -1.213
   -1.742
   -2.075
   -2.213
   -1.972
   -1.142
    0.198
    1.566
    2.356
    2.259
    1.454
    0.442
   -0.264
   -0.408
   -0.095
    0.282
    0.312
   -0.139
   -0.821
   -1.282
   -1.186
   -0.506
    0.476
    1.347
    1.760
    1.557
    0.789
   -0.314
   -1.378
   -1.985
   -1.862
   -1.058
    0.060
    1.040
    1.574
    1.569
    1.095
    0.356
   -0.313
   -0.549
   -0.177
    0.624
    1.368
    1.552
    1.020
    0.110
   -0.584
   -0.703
   -0.429
   -0.288
   -0.631
   -1.304
   -1.823
   -1.836
   -1.387
   -0.815
   -0.443
   -0.384
   -0.579
   -0.948
   -1.450
   -1.980
   -2.254
   -1.900
   -0.743
    0.945
    2.520
    3.355
    3.242
    2.465
    1.538
    0.841
    0.444
    0.217
    0.067
    0.038
    0.176
    0.353
    0.321
   -0.027
   -0.478
   -0.648
   -0.336
    0.281
    0.771
    0.769
    0.216
   -0.645
   -1.435
   -1.817
   -1.568
   -0.646
    0.715
    1.961
    2.438
    1.800
    0.296
   -1.334
   -2.324
   -2.359
   -1.693
   -0.864
   -0.273
    0.031
    0.224
    0.449
    0.676
    0.780
    0.694
    0.455
    0.145
   -0.188
   -0.519
   -0.768
   -0.739
   -0.211
    0.848
    2.111
    2.980
    2.953
    2.026
    0.733
   -0.250
   -0.609
   -0.537
   -0.410
   -0.377
   -0.315
   -0.123
    0.007
   -0.307
   -1.245
   -2.494
   -3.374
   -3.293
   -2.167
   -0.456
    1.167
    2.199
    2.449
    1.974
    0.990
   -0.168
   -1.118
   -1.591
   -1.589
   -1.361
   -1.177
   -1.074
   -0.823
   -0.181
    0.803
    1.730
    2.133
    1.825
    1.000
    0.014
   -0.902
   -1.704
   -2.385
   -2.823
   -2.825
   -2.304
   -1.391
   -0.376
    0.453
    0.908
    0.909
    0.482
   -0.199
   -0.776
   -0.813
   -0.056
    1.319
    2.720
    3.457
    3.168
    2.067
    0.838
    0.258
    0.721
    1.939
    3.052
    3.182
    2.088
    0.376
   -0.969
   -1.376
   -1.102
   -0.912
   -1.362
   -2.369
   -3.362
   -3.750
   -3.251
   -1.922
   -0.044
    1.946
    3.510
    4.176
    3.779
    2.582
    1.130
   -0.051
   -0.694
   -0.808
   -0.557
   -0.150
    0.219
    0.426
    0.455
    0.351
    0.143
   -0.162
   -0.490
   -0.657
   -0.490
   -0.010
    0.507
    0.732
    0.588
    0.380
    0.599
    1.503
    2.824
    3.873
    4.012
    3.102
    1.556
    0.015
   -1.026
   -1.376
   -1.105
   -0.452
    0.250
    0.652
    0.505
   -0.207
   -1.196
   -1.942
   -1.956
   -1.128
    0.098
    0.944
    0.877
    0.066
   -0.727
   -0.818
   -0.241
    0.280
    0.031
   -1.009
   -2.174
   -2.748
   -2.583
   -2.129
   -1.922
   -2.072
   -2.242
   -2.093
   -1.699
   -1.500
   -1.805
   -2.399
   -2.677
   -2.217
   -1.212
   -0.320
   -0.068
   -0.385
   -0.695
   -0.464
    0.304
    1.076
    1.265
    0.694
   -0.317
   -1.234
   -1.696
   -1.703
   -1.545
   -1.526
   -1.704
   -1.850
   -1.670
   -1.116
   -0.493
   -0.241
   -0.542
   -1.133
   -1.525
   -1.432
   -1.002
   -0.597
   -0.355
    0.001
    0.906
    2.504
    4.460
    6.153
    7.065
    7.036
    6.287
    5.268
    4.436
    4.026
    3.932
    3.823
    3.423
    2.714
    1.898
    1.188
    0.667
    0.299
    0.018
   -0.243
   -0.587
   -1.160
   -2.070
   -3.237
   -4.356
   -5.017
   -4.884
   -3.815
   -1.889
    0.560
    2.930
    4.475
    4.614
    3.287
    1.068
   -1.113
   -2.498
   -2.878
   -2.549
   -1.944
   -1.338
   -0.853
   -0.605
   -0.703
   -1.078
   -1.402
   -1.309
   -0.753
   -0.138
   -0.038
   -0.707
   -1.801
   -2.581
   -2.442
   -1.329
    0.272
    1.716
    2.620
    3.002
    3.069
    2.921
    2.492
    1.765
    0.978
    0.465
    0.263
   -0.053
   -1.019
   -2.712
   -4.551
   -5.738
   -5.926
   -5.515
   -5.266
   -5.586
   -6.114
   -5.981
   -4.505
   -1.717
    1.679
    4.790
    6.985
    8.001
    7.831
    6.656
    4.897
    3.160
    1.947
    1.338
    0.965
    0.340
   -0.701
   -1.841
   -2.506
   -2.285
   -1.185
    0.425
    2.086
    3.463
    4.346
    4.574
    4.023
    2.716
    0.895
   -1.042
   -2.713
   -3.867
   -4.343
   -4.001
   -2.786
   -0.912
    1.128
    2.847
    4.092
    5.034
    5.776
    5.987
    4.965
    2.210
   -1.944
   -6.192
   -8.904
   -9.155
   -7.304
   -4.596
   -2.167
   -0.384
    0.945
    1.914
    2.202
    1.457
   -0.068
   -1.398
   -1.521
   -0.291
    1.320
    1.948
    0.925
   -1.209
   -3.166
   -3.871
   -3.121
   -1.544
   -0.051
    0.747
    0.790
    0.432
    0.145
    0.283
    0.997
    2.201
    3.590
    4.739
    5.317
    5.260
    4.763
    4.051
    3.193
    2.135
    0.899
   -0.304
   -1.198
   -1.699
   -2.003
   -2.356
   -2.698
   -2.592
   -1.616
    0.126
    1.881
    2.698
    2.066
    0.220
   -2.109
   -4.179
   -5.525
   -5.913
   -5.216
   -3.463
   -1.007
    1.511
    3.480
    4.627
    5.023
    4.805
    3.992
    2.542
    0.541
   -1.714
   -3.771
   -5.176
   -5.679
   -5.378
   -4.666
   -3.948
   -3.342
   -2.663
   -1.740
   -0.718
   -0.025
   -0.006
   -0.607
   -1.389
   -1.842
   -1.662
   -0.781
    0.747
    2.734
    4.694
    5.846
    5.503
    3.597
    0.834
   -1.691
   -3.137
   -3.331
   -2.734
   -2.046
   -1.712
   -1.664
   -1.430
   -0.495
    1.363
    3.947
    6.721
    8.997
   10.181
   10.024
    8.725
    6.776
    4.677
    2.788
    1.371
    0.626
    0.591
    1.008
    1.386
    1.293
    0.647
   -0.252
   -0.970
   -1.255
   -1.215
   -1.240
   -1.786
   -3.150
   -5.320
   -7.899
  -10.140
  -11.179
  -10.395
   -7.728
   -3.772
    0.400
    3.621
    5.062
    4.571
    2.722
    0.516
   -1.154
   -1.942
   -2.105
   -2.187
   -2.553
   -3.122
   -3.458
   -3.160
   -2.240
   -1.172
   -0.559
   -0.668
   -1.249
   -1.745
   -1.673
   -0.886
    0.411
    1.814
    2.932
    3.561
    3.713
    3.476
    2.858
    1.824
    0.500
   -0.710
   -1.331
   -1.182
   -0.533
    0.108
    0.414
    0.498
    0.796
    1.655
    2.944
    4.031
    4.179
    3.061
    1.018
   -1.070
   -2.200
   -1.731
    0.243
    2.856
    4.894
    5.499
    4.670
    3.169
    1.924
    1.379
    1.286
    1.012
    0.074
   -1.536
   -3.399
   -4.958
   -5.749
   -5.499
   -4.190
   -2.164
   -0.119
    1.163
    1.276
    0.445
   -0.669
   -1.439
   -1.613
   -1.290
   -0.653
    0.230
    1.323
    2.359
    2.775
    2.064
    0.350
   -1.413
   -2.009
   -0.942
    1.042
    2.467
    2.299
    0.759
   -0.962
   -1.808
   -1.731
   -1.494
   -1.681
   -1.989
   -1.529
    0.193
    2.665
    4.714
    5.411
    4.637
    2.929
    0.941
   -0.895
   -2.348
   -3.271
   -3.629
   -3.591
   -3.439
   -3.315
   -3.091
   -2.510
   -1.436
    0.028
    1.614
    3.022
    3.964
    4.163
    3.444
    1.939
    0.201
   -1.006
   -1.165
   -0.366
    0.748
    1.439
    1.351
    0.661
   -0.158
   -0.719
   -0.988
   -1.268
   -1.933
   -3.121
   -4.599
   -5.868
   -6.432
   -6.106
   -5.130
   -3.943
   -2.776
   -1.483
    0.196
    2.210
    4.033
    4.951
    4.560
    3.090
    1.333
    0.200
    0.168
    0.969
    1.776
    1.831
    1.071
    0.231
    0.314
    1.826
    4.363
    6.843
    8.176
    7.864
    6.150
    3.678
    1.029
   -1.491
   -3.726
   -5.477
   -6.501
   -6.692
   -6.204
   -5.348
   -4.361
   -3.287
   -2.123
   -1.093
   -0.698
   -1.323
   -2.710
   -3.896
   -3.837
   -2.231
    0.239
    2.441
    3.581
    3.634
    3.199
    3.039
    3.625
    4.941
    6.542
    7.722
    7.696
    5.873
    2.283
   -2.088
   -5.529
   -6.541
   -4.859
   -1.696
    1.094
    2.229
    1.632
    0.118
   -1.374
   -2.339
   -2.772
   -2.933
   -3.074
   -3.306
   -3.588
   -3.792
   -3.772
   -3.408
   -2.655
   -1.573
   -0.323
    0.911
    2.001
    2.900
    3.597
    4.046
    4.136
    3.773
    3.059
    2.350
    2.056
    2.302
    2.809
    3.132
    2.984
    2.331
    1.260
   -0.122
   -1.602
   -2.766
   -3.127
   -2.483
   -1.155
    0.169
    0.915
    0.972
    0.599
    0.040
   -0.715
   -1.757
   -2.931
   -3.763
   -3.752
   -2.743
   -1.052
    0.768
    2.260
    3.220
    3.621
    3.498
    2.952
    2.193
    1.469
    0.902
    0.431
   -0.075
   -0.650
   -1.214
   -1.663
   -1.950
   -2.112
   -2.250
   -2.470
   -2.809
   -3.187
   -3.428
   -3.354
   -2.881
   -2.118
   -1.359
   -0.906
   -0.817
   -0.825
   -0.587
   -0.055
    0.457
    0.592
    0.323
   -0.025
   -0.069
    0.355
    1.172
    2.212
    3.301
    4.245
    4.820
    4.839
    4.234
    3.041
    1.315
   -0.847
   -3.130
   -4.885
   -5.339
   -4.117
   -1.662
    0.919
    2.559
    2.926
    2.490
    1.945
    1.525
    0.853
   -0.558
   -2.634
   -4.536
   -5.157
   -3.936
   -1.289
    1.679
    3.899
    4.864
    4.678
    3.779
    2.625
    1.521
    0.579
   -0.200
   -0.830
   -1.299
   -1.622
   -1.865
   -2.077
   -2.185
   -2.025
   -1.537
   -0.924
   -0.586
   -0.850
   -1.723
   -2.892
   -3.980
   -4.794
   -5.352
   -5.658
   -5.500
   -4.503
   -2.461
    0.339
    3.133
    5.092
    5.833
    5.567
    4.824
    4.049
    3.415
    2.868
    2.280
    1.608
    0.958
    0.541
    0.525
    0.903
    1.479
    2.009
    2.369
    2.581
    2.675
    2.546
    1.984
    0.903
   -0.465
   -1.617
   -2.085
   -1.746
   -0.892
   -0.046
    0.351
    0.213
   -0.102
   -0.001
    0.915
    2.474
    3.945
    4.452
    3.484
    1.153
   -1.871
   -4.632
   -6.231
   -6.174
   -4.612
   -2.281
   -0.091
    1.350
    1.903
    1.701
    0.885
   -0.428
   -1.961
   -3.184
   -3.485
   -2.559
   -0.690
    1.329
    2.646
    2.865
    2.235
    1.358
    0.685
    0.234
   -0.274
   -1.029
   -1.860
   -2.340
   -2.206
   -1.658
   -1.228
   -1.313
   -1.835
   -2.345
   -2.427
   -1.976
   -1.121
    0.014
    1.369
    2.783
    3.868
    4.161
    3.502
    2.273
    1.212
    0.916
    1.449
    2.383
    3.203
    3.654
    3.737
    3.439
    2.594
    1.036
   -1.099
   -3.261
   -4.742
   -5.169
   -4.825
   -4.432
   -4.530
   -4.987
   -5.096
   -4.175
   -2.152
    0.316
    2.257
    2.986
    2.452
    1.105
   -0.512
   -2.004
   -2.993
   -2.999
   -1.738
    0.374
    2.199
    2.596
    1.298
   -0.830
   -2.341
   -2.153
   -0.223
    2.439
    4.402
    4.652
    3.132
    0.642
   -1.715
   -3.127
   -3.304
   -2.376
   -0.665
    1.436
    3.453
    4.871
    5.365
    5.012
    4.219
    3.373
    2.567
    1.646
    0.489
   -0.767
   -1.785
   -2.287
   -2.257
   -1.885
   -1.341
   -0.653
    0.148
    0.823
    0.968
    0.342
   -0.876
   -2.177
   -3.072
   -3.350
   -3.078
   -2.447
   -1.641
   -0.794
    0.038
    0.947
    2.128
    3.649
    5.160
    5.933
    5.345
    3.434
    0.995
   -0.935
   -1.759
   -1.642
   -1.239
   -1.096
   -1.258
   -1.409
   -1.361
   -1.322
   -1.649
   -2.363
   -2.987
   -2.920
   -2.009
   -0.790
   -0.157
   -0.669
   -2.056
   -3.370
   -3.744
   -3.114
   -2.189
   -1.665
   -1.511
   -1.054
    0.194
    1.846
    2.841
    2.446
    1.081
    0.072
    0.501
    2.225
    4.045
    4.839
    4.535
    3.968
    3.872
    4.101
    3.880
    2.785
    1.364
    0.717
    1.395
    2.744
    3.389
    2.420
    0.172
   -2.109
   -3.378
   -3.611
   -3.597
   -3.979
   -4.549
   -4.512
   -3.444
   -1.905
   -1.041
   -1.544
   -2.963
