Origin Time       05/3/2012 07:41:05	
Lat.              28.7 N	
Long.             76.6 E	
Depth (Km)         14.0
Magnitude         4.9
 Region           Haryana-Delhi-Border-Region                                      
 Above details taken from IMD 
    
Station Code       IIT 
Station Lat.       28.603  N
Station Long.      77.295  E
Station Height(m)   50.0
Site Class        C   Vs30 between 200 m/sec to 375 m/sec *  
Record Time        3/5/2012   7:41:02.000
Sampling Rate     200. Hz
 Record Duration   98.000 Sec.
 Direction         N-S (N positive)
Max. Acceleration  13.833 cm/sec**2
     
  * For reference see Site Classification link of website 
     
 Base Line Corrected and Low Pass Filtered (Cut Off at 35 Hz) Time History
 Acceleration data in cm/sec**2
    
[...]
   -0.007
   -0.345
   -0.283
    0.168
    0.711
    0.984
    0.812
    0.297
   -0.294
   -0.697
   -0.741
   -0.353
    0.419
    1.384
    2.243
    2.715
    2.674
    2.220
    1.620
    1.149
    0.938
    0.919
    0.896
    0.690
    0.244
   -0.362
   -0.986
   -1.512
   -1.878
   -2.024
   -1.871
   -1.370
   -0.628
    0.084
    0.502
    0.606
    0.640
    0.867
    1.281
    1.583
    1.442
    0.779
   -0.156
   -0.961
   -1.321
   -1.155
   -0.600
    0.096
    0.664
    0.892
    0.678
    0.069
   -0.765
   -1.597
   -2.216
   -2.463
   -2.269
   -1.730
   -1.122
   -0.786
   -0.882
   -1.229
   -1.416
   -1.147
   -0.501
    0.150
    0.479
    0.450
    0.259
    0.089
   -0.049
   -0.261
   -0.616
   -1.017
   -1.216
   -0.967
   -0.247
    0.651
    1.295
    1.420
    1.083
    0.541
    0.033
   -0.313
   -0.431
   -0.289
    0.042
    0.338
    0.341
   -0.009
   -0.464
   -0.631
   -0.303
    0.336
    0.825
    0.761
    0.098
   -0.793
   -1.329
   -1.070
   -0.037
    1.226
    1.946
    1.627
    0.407
   -1.022
   -1.885
   -1.842
   -1.166
   -0.489
   -0.336
   -0.776
   -1.430
   -1.796
   -1.646
   -1.181
   -0.803
   -0.731
   -0.824
   -0.770
   -0.436
    0.020
    0.363
    0.569
    0.846
    1.385
    2.096
    2.593
    2.476
    1.649
    0.420
   -0.704
   -1.361
   -1.540
   -1.487
   -1.431
   -1.387
   -1.207
   -0.763
   -0.071
    0.727
    1.432
    1.835
    1.786
    1.289
    0.551
   -0.106
   -0.433
   -0.378
   -0.055
    0.359
    0.727
    0.994
    1.177
    1.307
    1.350
    1.193
    0.732
    0.011
   -0.711
   -1.078
   -0.871
   -0.185
    0.601
    1.067
    1.021
    0.587
    0.068
   -0.283
   -0.370
   -0.207
    0.169
    0.695
    1.212
    1.463
    1.241
    0.592
   -0.114
   -0.378
    0.060
    0.970
    1.739
    1.815
    1.115
    0.068
   -0.741
   -0.986
   -0.730
   -0.227
    0.340
    0.926
    1.497
    1.915
    2.001
    1.699
    1.142
    0.546
    0.058
   -0.293
   -0.531
   -0.663
   -0.660
   -0.501
   -0.182
    0.286
    0.869
    1.480
    1.959
    2.100
    1.743
    0.864
   -0.356
   -1.565
   -2.401
   -2.691
   -2.555
   -2.292
   -2.146
   -2.137
   -2.085
   -1.785
   -1.175
   -0.396
    0.282
    0.621
    0.541
    0.145
   -0.361
   -0.813
   -1.182
   -1.549
   -1.940
   -2.203
   -2.060
   -1.363
   -0.306
    0.624
    0.989
    0.715
    0.113
   -0.405
   -0.646
   -0.702
   -0.762
   -0.885
   -0.965
   -0.856
   -0.510
   -0.010
    0.472
    0.733
    0.645
    0.271
   -0.139
   -0.325
   -0.246
   -0.112
   -0.161
   -0.402
   -0.590
   -0.466
   -0.008
    0.547
    0.913
    0.983
    0.878
    0.791
    0.791
    0.750
    0.477
   -0.056
   -0.618
   -0.877
   -0.708
   -0.345
   -0.183
   -0.429
   -0.944
   -1.427
   -1.703
   -1.815
   -1.880
   -1.907
   -1.780
   -1.398
   -0.838
   -0.348
   -0.128
   -0.101
    0.057
    0.585
    1.342
    1.882
    1.857
    1.354
    0.827
    0.703
    1.060
    1.635
    2.106
    2.322
    2.288
    2.022
    1.518
    0.882
    0.426
    0.527
    1.287
    2.315
    2.903
    2.536
    1.320
   -0.039
   -0.752
   -0.518
    0.310
    1.071
    1.330
    1.132
    0.792
    0.501
    0.163
   -0.397
   -1.088
   -1.508
   -1.298
   -0.568
    0.074
   -0.002
   -0.873
   -1.945
   -2.417
   -1.913
   -0.723
    0.520
    1.377
    1.849
    2.183
    2.474
    2.499
    1.923
    0.686
   -0.826
   -1.991
   -2.385
   -2.077
   -1.513
   -1.107
   -0.910
   -0.666
   -0.176
    0.429
    0.775
    0.610
    0.058
   -0.480
   -0.653
   -0.433
   -0.100
    0.018
   -0.177
   -0.474
   -0.530
   -0.134
    0.637
    1.446
    1.863
    1.603
    0.700
   -0.485
   -1.483
   -2.015
   -2.131
   -2.093
   -2.094
   -2.099
   -1.930
   -1.521
   -1.036
   -0.750
   -0.800
   -1.052
   -1.199
   -0.995
   -0.452
    0.128
    0.327
   -0.090
   -0.974
   -1.860
   -2.258
   -1.942
   -1.055
   -0.008
    0.722
    0.835
    0.391
   -0.219
   -0.546
   -0.432
   -0.102
    0.089
    0.017
   -0.116
   -0.052
    0.193
    0.332
    0.178
   -0.025
    0.240
    1.245
    2.637
    3.614
    3.534
    2.417
    0.940
   -0.051
   -0.121
    0.521
    1.249
    1.513
    1.193
    0.579
    0.037
   -0.298
   -0.505
   -0.643
   -0.623
   -0.361
   -0.006
    0.098
   -0.245
   -0.779
   -0.903
   -0.164
    1.277
    2.655
    3.145
    2.508
    1.272
    0.285
    0.028
    0.316
    0.592
    0.475
    0.045
   -0.318
   -0.321
   -0.007
    0.295
    0.241
   -0.238
   -0.854
   -1.157
   -0.856
   -0.036
    0.898
    1.491
    1.527
    1.141
    0.688
    0.463
    0.494
    0.555
    0.369
   -0.148
   -0.816
   -1.317
   -1.431
   -1.185
   -0.805
   -0.532
   -0.446
   -0.450
   -0.412
   -0.313
   -0.220
   -0.130
    0.076
    0.437
    0.712
    0.510
   -0.320
   -1.430
   -2.173
   -2.090
   -1.266
   -0.258
    0.297
    0.081
   -0.762
   -1.766
   -2.408
   -2.358
   -1.618
   -0.519
    0.443
    0.879
    0.692
    0.057
   -0.741
   -1.419
   -1.704
   -1.396
   -0.572
    0.325
    0.723
    0.360
   -0.500
   -1.281
   -1.517
   -1.135
   -0.433
    0.178
    0.455
    0.455
    0.394
    0.390
    0.344
    0.101
   -0.276
   -0.457
   -0.123
    0.710
    1.630
    2.145
    2.048
    1.525
    0.943
    0.539
    0.298
    0.066
   -0.239
   -0.505
   -0.500
   -0.062
    0.739
    1.599
    2.159
    2.240
    1.924
    1.416
    0.842
    0.218
   -0.380
   -0.681
   -0.351
    0.680
    2.009
    2.912
    2.809
    1.666
    0.028
   -1.353
   -1.962
   -1.720
   -0.922
   -0.039
    0.479
    0.390
   -0.225
   -1.015
   -1.559
   -1.595
   -1.136
   -0.427
    0.221
    0.608
    0.701
    0.550
    0.187
   -0.355
   -0.947
   -1.347
   -1.320
   -0.805
    0.010
    0.771
    1.136
    0.959
    0.375
   -0.288
   -0.717
   -0.813
   -0.731
   -0.720
   -0.920
   -1.276
   -1.599
   -1.658
   -1.248
   -0.264
    1.164
    2.581
    3.349
    3.028
    1.750
    0.208
   -0.806
   -0.960
   -0.582
   -0.306
   -0.496
   -0.968
   -1.228
   -0.977
   -0.382
    0.116
    0.196
   -0.112
   -0.530
   -0.788
   -0.804
   -0.680
   -0.574
   -0.587
   -0.714
   -0.836
   -0.776
   -0.429
    0.109
    0.539
    0.576
    0.215
   -0.219
   -0.315
    0.092
    0.813
    1.474
    1.758
    1.483
    0.563
   -0.955
   -2.744
   -4.160
   -4.498
   -3.409
   -1.171
    1.439
    3.566
    4.675
    4.668
    3.761
    2.322
    0.784
   -0.419
   -1.001
   -0.990
   -0.725
   -0.629
   -0.923
   -1.502
   -2.043
   -2.242
   -1.994
   -1.435
   -0.832
   -0.400
   -0.156
    0.067
    0.449
    0.995
    1.498
    1.696
    1.475
    0.935
    0.281
   -0.338
   -0.854
   -1.172
   -1.073
   -0.327
    1.031
    2.528
    3.455
    3.331
    2.249
    0.812
   -0.282
   -0.645
   -0.326
    0.362
    1.098
    1.683
    2.015
    2.045
    1.814
    1.537
    1.522
    1.912
    2.472
    2.703
    2.229
    1.122
   -0.105
   -0.846
   -0.832
   -0.328
    0.076
   -0.079
   -0.824
   -1.834
   -2.691
   -3.038
   -2.589
   -1.236
    0.701
    2.376
    2.805
    1.584
   -0.687
   -2.755
   -3.619
   -3.227
   -2.325
   -1.686
   -1.450
   -1.195
   -0.554
    0.312
    0.856
    0.684
   -0.100
   -1.046
   -1.781
   -2.263
   -2.645
   -2.973
   -3.060
   -2.680
   -1.854
   -0.904
   -0.180
    0.283
    0.818
    1.740
    2.862
    3.429
    2.670
    0.518
   -2.215
   -4.389
   -5.292
   -4.939
   -3.808
   -2.421
   -1.113
   -0.031
    0.805
    1.427
    1.831
    1.933
    1.610
    0.851
   -0.156
   -1.091
   -1.661
   -1.699
   -1.162
   -0.138
    1.108
    2.140
    2.557
    2.265
    1.567
    0.956
    0.813
    1.254
    2.166
    3.279
    4.199
    4.554
    4.226
    3.464
    2.667
    2.003
    1.275
    0.199
   -1.190
   -2.444
   -3.057
   -2.892
   -2.285
   -1.712
   -1.422
   -1.376
   -1.477
   -1.752
   -2.230
   -2.705
   -2.720
   -1.872
   -0.188
    1.793
    3.359
    4.125
    4.277
    4.317
    4.532
    4.702
    4.320
    3.107
    1.290
   -0.587
   -2.059
   -2.930
   -3.183
   -2.864
   -2.148
   -1.441
   -1.234
   -1.691
   -2.345
   -2.301
   -0.917
    1.599
    4.250
    5.945
    6.280
    5.709
    5.036
    4.741
    4.764
    4.827
    4.830
    4.834
    4.710
    3.977
    2.136
   -0.782
   -4.055
   -6.732
   -8.298
   -8.912
   -9.065
   -9.067
   -8.894
   -8.430
   -7.693
   -6.753
   -5.530
   -3.838
   -1.698
    0.451
    1.969
    2.508
    2.346
    2.206
    2.695
    3.825
    5.021
    5.603
    5.326
    4.483
    3.476
    2.305
    0.589
   -1.853
   -4.512
   -6.427
   -7.026
   -6.688
   -6.404
   -6.828
   -7.663
   -7.932
   -6.829
   -4.325
   -1.093
    2.037
    4.536
    6.270
    7.310
    7.735
    7.530
    6.602
    4.888
    2.496
   -0.213
   -2.674
   -4.263
   -4.485
   -3.200
   -0.834
    1.656
    3.228
    3.355
    2.254
    0.504
   -1.523
   -3.803
   -6.202
   -8.001
   -8.088
   -5.841
   -1.891
    2.065
    4.389
    4.622
    3.624
    2.702
    2.548
    2.864
    2.825
    1.882
    0.217
   -1.408
   -2.193
   -1.787
   -0.414
    1.383
    3.102
    4.489
    5.500
    6.138
    6.370
    6.169
    5.581
    4.714
    3.691
    2.698
    2.017
    1.905
    2.333
    2.904
    3.169
    3.054
    2.883
    2.926
    2.964
    2.420
    0.909
   -1.379
   -3.824
   -5.814
   -6.963
   -7.039
   -5.919
   -3.820
   -1.528
   -0.179
   -0.534
   -2.360
   -4.519
   -5.807
   -5.845
   -5.256
   -4.989
   -5.420
   -6.012
   -5.775
   -4.095
   -1.255
    1.748
    3.900
    4.832
    4.892
    4.637
    4.320
    3.896
    3.424
    3.244
    3.655
    4.481
    5.124
    5.115
    4.564
    4.055
    4.090
    4.634
    5.162
    5.101
    4.225
    2.661
    0.611
   -1.812
   -4.452
   -6.940
   -8.838
   -9.958
  -10.448
  -10.433
   -9.652
   -7.595
   -4.132
    0.007
    3.478
    5.168
    4.917
    3.498
    1.899
    0.585
   -0.615
   -2.017
   -3.548
   -4.704
   -5.017
   -4.523
   -3.743
   -3.195
   -2.943
   -2.653
   -2.067
   -1.395
   -1.159
   -1.652
   -2.573
   -3.225
   -3.045
   -1.960
   -0.298
    1.549
    3.343
    4.955
    6.180
    6.679
    6.194
    4.916
    3.632
    3.367
    4.619
    6.799
    8.437
    8.173
    5.794
    2.484
    0.030
   -0.486
    0.521
    1.511
    1.090
   -0.890
   -3.315
   -4.808
   -4.802
   -3.781
   -2.635
   -1.845
   -1.210
   -0.284
    0.982
    2.019
    2.085
    0.981
   -0.657
   -1.808
   -1.897
   -1.254
   -0.789
   -1.216
   -2.496
   -3.899
   -4.538
   -3.955
   -2.423
   -0.823
   -0.184
   -1.156
   -3.644
   -6.730
   -8.939
   -8.858
   -5.946
   -1.053
    3.853
    6.759
    6.752
    4.386
    1.075
   -1.893
   -3.918
   -4.942
   -4.964
   -3.777
   -1.182
    2.544
    6.411
    9.020
    9.232
    6.739
    2.222
   -2.888
   -6.893
   -8.470
   -7.279
   -4.161
   -0.642
    2.004
    3.450
    4.252
    5.122
    6.226
    7.100
    7.231
    6.673
    6.062
    5.946
    6.075
    5.443
    3.193
   -0.380
   -3.717
   -4.984
   -3.355
    0.445
    4.708
    7.835
    9.094
    8.623
    7.009
    4.889
    2.759
    0.852
   -0.935
   -2.916
   -5.207
   -7.397
   -8.694
   -8.529
   -7.065
   -5.088
   -3.390
   -2.265
   -1.566
   -1.130
   -1.004
   -1.271
   -1.725
   -1.792
   -0.859
    1.189
    3.640
    5.190
    4.702
    2.019
   -1.729
   -4.658
   -5.256
   -3.383
   -0.365
    1.997
    2.729
    2.224
    1.624
    1.716
    2.411
    3.140
    3.558
    3.789
    4.113
    4.523
    4.632
    4.013
    2.658
    1.122
    0.137
   -0.009
    0.210
   -0.146
   -1.766
   -4.478
   -7.262
   -8.892
   -8.784
   -7.385
   -5.827
   -5.098
   -5.353
   -5.828
   -5.433
   -3.603
   -0.798
    1.700
    2.587
    1.351
   -1.438
   -4.502
   -6.504
   -6.496
   -4.111
    0.249
    5.227
    8.745
    8.991
    5.687
    0.590
   -3.448
   -4.341
   -2.151
    1.146
    3.266
    3.225
    1.650
   -0.220
   -1.685
   -2.798
   -3.718
   -4.146
   -3.543
   -1.824
    0.337
    1.974
    2.644
    2.715
    2.817
    2.994
    2.504
    0.638
   -2.208
   -4.396
   -4.158
   -1.033
    3.677
    7.790
    9.663
    8.981
    6.517
    3.296
   -0.011
   -3.110
   -5.735
   -7.450
   -7.849
   -6.893
   -4.936
   -2.381
    0.605
    3.917
    7.034
    8.859
    8.238
    4.831
   -0.367
   -5.349
   -8.162
   -8.022
   -5.688
   -2.792
   -0.695
    0.253
    0.582
    0.993
    1.693
    2.247
    2.008
    0.827
   -0.546
   -0.810
    0.962
    4.521
    8.423
   10.868
   10.767
    8.269
    4.437
    0.461
   -2.885
   -5.187
   -6.061
   -5.146
   -2.559
    0.697
    3.014
    3.143
    1.110
   -1.754
   -3.745
   -3.987
   -2.943
   -1.897
   -1.871
   -2.872
   -3.990
   -4.148
   -2.853
   -0.470
    2.078
    3.860
    4.363
    3.552
    1.672
   -0.931
   -3.787
   -6.170
   -7.118
   -5.826
   -2.315
    2.189
    5.736
    6.908
    5.883
    4.348
    4.216
    6.208
    9.405
   11.957
   12.300
   10.070
    6.247
    2.489
    0.032
   -1.098
   -1.914
   -3.394
   -5.417
   -6.722
   -6.033
   -3.357
   -0.203
    1.548
    1.131
   -0.594
   -2.001
   -2.099
   -1.233
   -0.580
   -1.029
   -2.516
   -4.301
   -5.736
   -6.650
   -7.079
   -6.815
   -5.491
   -3.218
   -1.043
   -0.521
   -2.559
   -6.522
  -10.465
  -12.380
  -11.444
   -8.325
   -4.525
   -1.446
    0.197
    0.465
   -0.026
   -0.414
    0.111
    2.057
    5.402
    9.415
   12.726
   13.833
   11.939
    7.595
    2.557
   -1.204
   -2.654
   -2.108
   -0.653
    0.800
    1.995
    3.060
    3.971
    4.394
    4.000
    2.832
    1.323
   -0.053
   -1.126
   -2.057
   -3.034
   -3.996
   -4.730
   -5.198
   -5.614
   -6.081
   -6.238
   -5.444
   -3.422
   -0.713
    1.618
    2.793
    2.839
    2.362
    1.873
    1.395
    0.678
   -0.327
   -1.308
   -1.854
   -1.838
   -1.510
   -1.232
   -1.058
   -0.539
    0.961
    3.525
    6.106
    6.854
    4.426
   -0.689
   -6.057
   -8.694
   -6.955
   -1.524
    5.113
   10.143
   11.790
    9.892
    5.732
    1.390
   -1.216
   -1.329
    0.219
    1.586
    1.210
   -1.139
   -4.274
   -6.423
   -6.310
   -3.859
   -0.157
    3.259
    5.356
    6.095
    6.096
    5.848
    5.284
    4.094
    2.325
    0.506
   -0.856
   -1.733
   -2.353
   -2.555
   -1.636
    0.951
    4.753
    8.337
   10.253
    9.941
    7.783
    4.446
    0.386
   -4.029
   -8.078
  -10.577
  -10.441
   -7.522
   -2.973
    1.324
    3.862
    4.228
    2.910
    0.561
   -2.439
   -5.782
   -8.854
  -10.794
  -11.087
  -10.106
   -8.960
   -8.557
   -8.679
   -8.018
   -5.338
   -0.801
    3.808
    6.238
    5.418
    2.241
   -1.082
   -2.550
   -1.622
    0.701
    2.888
    4.060
    4.351
    4.318
    4.190
    3.724
    2.676
    1.265
    0.142
   -0.086
    0.658
    1.791
    2.374
    1.674
   -0.326
   -2.770
   -4.355
   -4.081
   -1.808
    1.745
    5.436
    8.193
    9.354
    8.863
    7.277
    5.437
    3.927
    2.768
    1.671
    0.548
   -0.313
   -0.602
   -0.471
   -0.561
   -1.417
   -2.808
   -3.714
   -3.202
   -1.411
    0.372
    0.751
   -0.616
   -2.775
   -4.266
   -4.146
   -2.477
   -0.117
    1.847
    2.651
    2.154
    0.832
   -0.433
   -0.742
    0.271
    1.985
    2.923
    1.715
   -1.690
   -5.679
   -8.040
   -7.660
   -5.368
   -3.128
   -2.325
   -2.689
   -2.790
   -1.497
    1.019
    3.554
    4.923
    4.737
    3.348
    1.276
   -1.159
   -3.664
   -5.577
   -5.927
   -4.155
   -0.894
    2.132
    3.288
    2.321
    0.451
   -0.863
   -1.221
   -1.325
   -1.874
   -2.678
   -2.938
   -2.234
   -0.991
    0.015
    0.483
    0.789
    1.416
    2.230
    2.376
    0.991
   -1.832
   -4.751
   -6.007
   -4.856
   -2.357
   -0.668
   -1.327
   -3.953
   -6.520
   -6.960
   -4.671
   -0.707
    3.323
    6.422
    8.389
    9.161
    8.372
    5.765
    1.987
   -1.306
   -2.377
   -0.675
    2.656
    5.467
    6.020
    4.105
    1.073
   -1.267
   -2.035
   -1.762
   -1.572
   -1.928
   -2.209
   -1.465
    0.565
    3.231
    5.606
    7.156
    7.783
    7.467
    6.176
    4.176
    2.237
    1.209
    1.297
    1.872
    2.142
    2.032
    2.258
    3.471
    5.393
    6.887
    6.875
    5.146
    2.343
   -0.682
   -3.406
   -5.623
   -7.083
   -7.319
   -5.893
   -2.864
    0.926
    3.965
    4.649
    2.172
   -2.722
   -7.821
  -10.617
   -9.896
   -6.510
   -2.690
   -0.410
   -0.108
   -0.649
   -0.462
    1.120
    3.349
    4.742
    4.336
    2.438
    0.230
   -1.350
   -2.361
   -3.523
   -5.208
   -6.853
   -7.417
   -6.367
   -4.175
   -1.903
   -0.378
    0.314
    0.697
    1.376
    2.543
    3.773
    4.179
    2.885
   -0.343
   -4.640
   -8.218
   -9.264
   -7.097
   -2.735
    1.679
    4.244
    4.423
    3.087
    1.573
    0.631
    0.107
   -0.550
   -1.499
   -2.256
   -2.211
   -1.367
   -0.419
   -0.041
   -0.197
   -0.247
    0.343
    1.522
    2.812
    3.736
    3.980
    3.330
    1.720
   -0.539
   -2.696
   -3.904
   -3.710
   -2.256
   -0.065
    2.344
    4.671
    6.774
    8.434
    9.248
    8.838
    7.229
    4.999
    2.975
    1.759
    1.450
    1.713
    1.983
    1.662
    0.396
   -1.588
   -3.423
   -4.175
   -3.761
   -3.280
   -4.179
   -6.848
   -9.966
  -11.385
   -9.859
   -6.069
   -2.044
    0.432
    0.995
    0.579
    0.370
    0.884
    1.849
    2.696
    3.063
    2.911
    2.360
    1.508
    0.408
   -0.809
   -1.781
   -1.935
   -0.823
    1.396
    3.741
    4.790
    3.571
    0.374
   -3.205
   -5.151
   -4.301
   -1.054
    2.942
    5.864
    6.726
    5.670
    3.493
    1.013
   -1.190
   -2.677
   -3.131
   -2.642
   -1.935
   -2.036
   -3.389
   -5.203
   -5.888
   -4.419
   -1.371
    1.444
    2.406
    1.226
   -1.085
   -3.094
   -3.781
   -2.879
   -0.796
    1.658
    3.619
    4.482
    4.076
    2.637
    0.680
   -1.147
   -2.203
   -2.076
   -0.868
    0.699
    1.652
    1.445
    0.385
   -0.651
   -0.970
   -0.603
   -0.168
   -0.228
   -0.784
   -1.328
   -1.313
   -0.559
    0.733
    2.265
    3.862
    5.414
    6.641
    7.073
    6.414
    4.994
    3.706
    3.292
    3.581
    3.549
    2.279
   -0.119
   -2.555
   -3.895
   -3.830
   -2.945
   -2.092
   -1.730
   -1.680
   -1.363
   -0.340
    1.188
    2.381
    2.422
    1.303
   -0.064
   -0.585
    0.145
    1.621
    2.948
    3.469
    3.025
    1.816
    0.205
   -1.366
   -2.450
   -2.775
   -2.461
   -2.046
   -2.189
   -3.205
   -4.752
   -5.976
   -6.015
   -4.500
   -1.714
    1.617
    4.693
    6.855
    7.603
    6.592
    3.868
    0.169
   -3.159
   -4.842
   -4.506
   -2.923
   -1.410
   -0.924
   -1.534
   -2.577
   -3.197
   -2.819
   -1.352
    0.779
    2.731
    3.560
    2.787
    0.848
   -1.096
   -2.004
   -1.791
   -1.340
   -1.657
   -2.936
   -4.369
   -4.790
   -3.586
   -1.237
    0.912
    1.532
    0.270
   -2.005
   -3.936
   -4.721
   -4.492
   -3.765
   -2.702
   -1.047
    1.242
    3.494
    4.623
    3.988
    1.933
   -0.519
   -2.464
   -3.627
   -4.201
   -4.397
   -4.211
   -3.514
   -2.262
   -0.635
    0.952
    1.977
    2.058
    1.214
   -0.011
   -0.693
   -0.059
    1.880
    4.160
    5.530
    5.512
    4.803
    4.532
    5.040
    5.441
    4.468
