Origin Time       05/3/2012 07:41:05	
Lat.              28.7 N	
Long.             76.6 E	
Depth (Km)         14.0
Magnitude         4.9
 Region           Haryana-Delhi-Border-Region                                      
 Above details taken from IMD 
     
Station Code       IIT 
Station Lat.       28.603  N
Station Long.      77.295  E
Station Height(m)   50.0
Site Class        C   Vs30 between 200 m/sec to 375 m/sec *  
Record Time        3/5/2012   7:41:02.000
Sampling Rate     200. Hz
 Record Duration   98.000 Sec.
 Direction         E-W (E positive)
Max. Acceleration -11.036 cm/sec**2
     
  * For reference see Site Classification link of website 
     
 Base Line Corrected and Low Pass Filtered (Cut Off at 35 Hz) Time History
 Acceleration data in cm/sec**2
    
[...]
    0.721
    0.975
    1.070
    0.909
    0.549
    0.201
    0.088
    0.283
    0.673
    1.049
    1.234
    1.144
    0.813
    0.391
    0.109
    0.165
    0.582
    1.172
    1.659
    1.869
    1.812
    1.624
    1.431
    1.282
    1.169
    1.084
    1.034
    1.019
    0.998
    0.903
    0.687
    0.379
    0.073
   -0.119
   -0.114
    0.112
    0.504
    0.922
    1.164
    1.063
    0.576
   -0.193
   -1.048
   -1.791
   -2.280
   -2.457
   -2.357
   -2.088
   -1.760
   -1.430
   -1.092
   -0.725
   -0.340
    0.021
    0.328
    0.576
    0.768
    0.871
    0.832
    0.659
    0.493
    0.549
    0.916
    1.411
    1.667
    1.412
    0.706
   -0.125
   -0.746
   -1.044
   -1.135
   -1.216
   -1.412
   -1.728
   -2.067
   -2.270
   -2.191
   -1.794
   -1.210
   -0.689
   -0.455
   -0.574
   -0.924
   -1.296
   -1.517
   -1.524
   -1.361
   -1.137
   -0.964
   -0.887
   -0.857
   -0.769
   -0.565
   -0.309
   -0.149
   -0.193
   -0.407
   -0.623
   -0.646
   -0.372
    0.154
    0.763
    1.248
    1.449
    1.326
    0.969
    0.550
    0.215
   -0.020
   -0.266
   -0.657
   -1.217
   -1.812
   -2.229
   -2.308
   -2.031
   -1.525
   -0.998
   -0.647
   -0.551
   -0.623
   -0.666
   -0.528
   -0.233
    0.038
    0.101
   -0.062
   -0.287
   -0.347
   -0.131
    0.287
    0.721
    1.016
    1.135
    1.137
    1.106
    1.110
    1.198
    1.391
    1.656
    1.911
    2.067
    2.063
    1.863
    1.453
    0.868
    0.219
   -0.342
   -0.713
   -0.895
   -0.940
   -0.861
   -0.599
   -0.100
    0.587
    1.294
    1.818
    2.009
    1.804
    1.228
    0.394
   -0.494
   -1.176
   -1.417
   -1.097
   -0.264
    0.863
    1.948
    2.659
    2.803
    2.408
    1.691
    0.915
    0.267
   -0.189
   -0.436
   -0.438
   -0.151
    0.406
    1.107
    1.765
    2.206
    2.325
    2.111
    1.655
    1.132
    0.712
    0.440
    0.201
   -0.188
   -0.799
   -1.507
   -2.064
   -2.273
   -2.102
   -1.654
   -1.051
   -0.380
    0.270
    0.769
    0.999
    0.928
    0.617
    0.145
   -0.434
   -1.024
   -1.420
   -1.381
   -0.839
   -0.034
    0.595
    0.702
    0.270
   -0.417
   -1.015
   -1.347
   -1.440
   -1.400
   -1.290
   -1.101
   -0.804
   -0.401
    0.059
    0.489
    0.785
    0.860
    0.675
    0.247
   -0.359
   -1.030
   -1.617
   -1.968
   -2.009
   -1.793
   -1.475
   -1.191
   -0.972
   -0.734
   -0.372
    0.121
    0.604
    0.836
    0.622
   -0.039
   -0.907
   -1.589
   -1.747
   -1.286
   -0.436
    0.364
    0.739
    0.621
    0.254
   -0.040
   -0.114
   -0.062
   -0.087
   -0.335
   -0.824
   -1.438
   -1.963
   -2.160
   -1.894
   -1.253
   -0.540
   -0.108
   -0.142
   -0.545
   -1.009
   -1.217
   -1.036
   -0.569
   -0.041
    0.369
    0.634
    0.859
    1.159
    1.540
    1.883
    2.017
    1.849
    1.436
    0.961
    0.616
    0.467
    0.418
    0.285
   -0.070
   -0.637
   -1.229
   -1.554
   -1.346
   -0.533
    0.699
    1.976
    2.910
    3.265
    3.043
    2.477
    1.924
    1.675
    1.776
    2.012
    2.073
    1.810
    1.345
    0.948
    0.808
    0.873
    0.886
    0.566
   -0.187
   -1.203
   -2.103
   -2.514
   -2.284
   -1.570
   -0.699
    0.055
    0.602
    0.983
    1.241
    1.358
    1.301
    1.080
    0.751
    0.386
    0.051
   -0.198
   -0.318
   -0.314
   -0.248
   -0.212
   -0.263
   -0.380
   -0.478
   -0.479
   -0.357
   -0.143
    0.109
    0.344
    0.517
    0.577
    0.471
    0.163
   -0.324
   -0.856
   -1.208
   -1.188
   -0.803
   -0.312
   -0.072
   -0.282
   -0.831
   -1.367
   -1.526
   -1.152
   -0.384
    0.437
    0.980
    1.110
    0.926
    0.640
    0.402
    0.222
    0.011
   -0.323
   -0.773
   -1.202
   -1.414
   -1.310
   -0.991
   -0.701
   -0.647
   -0.854
   -1.184
   -1.441
   -1.458
   -1.140
   -0.496
    0.336
    1.127
    1.656
    1.808
    1.620
    1.260
    0.949
    0.827
    0.840
    0.768
    0.386
   -0.340
   -1.210
   -1.919
   -2.262
   -2.254
   -2.092
   -1.987
   -2.004
   -2.014
   -1.776
   -1.097
    0.036
    1.410
    2.650
    3.403
    3.506
    3.055
    2.293
    1.432
    0.557
   -0.342
   -1.248
   -2.047
   -2.537
   -2.549
   -2.089
   -1.384
   -0.761
   -0.428
   -0.327
   -0.203
    0.176
    0.815
    1.497
    1.974
    2.172
    2.221
    2.296
    2.435
    2.505
    2.337
    1.891
    1.291
    0.714
    0.250
   -0.133
   -0.504
   -0.861
   -1.127
   -1.227
   -1.171
   -1.060
   -1.036
   -1.195
   -1.521
   -1.868
   -2.033
   -1.877
   -1.420
   -0.836
   -0.346
   -0.071
    0.036
    0.129
    0.306
    0.511
    0.596
    0.498
    0.320
    0.255
    0.420
    0.773
    1.150
    1.375
    1.352
    1.122
    0.837
    0.669
    0.677
    0.749
    0.693
    0.419
    0.042
   -0.213
   -0.222
   -0.081
    0.003
   -0.076
   -0.228
   -0.284
   -0.176
    0.012
    0.141
    0.148
    0.072
   -0.005
   -0.039
   -0.074
   -0.236
   -0.663
   -1.383
   -2.218
   -2.838
   -2.966
   -2.589
   -1.986
   -1.521
   -1.375
   -1.431
   -1.383
   -0.979
   -0.176
    0.850
    1.820
    2.506
    2.809
    2.743
    2.369
    1.754
    1.001
    0.279
   -0.204
   -0.310
   -0.068
    0.341
    0.724
    1.015
    1.264
    1.493
    1.580
    1.327
    0.667
   -0.184
   -0.821
   -0.938
   -0.593
   -0.176
   -0.090
   -0.411
   -0.838
   -0.972
   -0.659
   -0.114
    0.223
   -0.022
   -0.892
   -2.034
   -2.884
   -3.010
   -2.361
   -1.251
   -0.132
    0.648
    0.949
    0.855
    0.620
    0.563
    0.886
    1.512
    2.084
    2.181
    1.633
    0.695
   -0.099
   -0.308
    0.101
    0.729
    1.040
    0.746
   -0.011
   -0.794
   -1.185
   -1.051
   -0.568
   -0.040
    0.311
    0.423
    0.336
    0.083
   -0.319
   -0.796
   -1.166
   -1.230
   -0.944
   -0.494
   -0.165
   -0.082
   -0.116
   -0.032
    0.239
    0.503
    0.484
    0.101
   -0.413
   -0.676
   -0.436
    0.275
    1.215
    2.095
    2.693
    2.889
    2.673
    2.138
    1.431
    0.676
   -0.053
   -0.697
   -1.167
   -1.384
   -1.363
   -1.219
   -1.085
   -1.025
   -1.055
   -1.198
   -1.469
   -1.787
   -1.949
   -1.752
   -1.179
   -0.449
    0.143
    0.445
    0.525
    0.560
    0.645
    0.708
    0.589
    0.207
   -0.345
   -0.857
   -1.139
   -1.119
   -0.848
   -0.465
   -0.143
   -0.023
   -0.117
   -0.292
   -0.358
   -0.212
    0.110
    0.484
    0.769
    0.853
    0.674
    0.284
   -0.123
   -0.315
   -0.217
    0.000
    0.054
   -0.189
   -0.614
   -0.987
   -1.147
   -1.067
   -0.778
   -0.325
    0.189
    0.561
    0.595
    0.283
   -0.149
   -0.424
   -0.456
   -0.363
   -0.247
   -0.017
    0.506
    1.300
    2.032
    2.271
    1.828
    0.903
   -0.049
   -0.601
   -0.570
   -0.077
    0.558
    1.009
    1.097
    0.812
    0.257
   -0.422
   -1.057
   -1.488
   -1.611
   -1.438
   -1.098
   -0.774
   -0.590
   -0.526
   -0.437
   -0.184
    0.251
    0.779
    1.314
    1.827
    2.292
    2.620
    2.693
    2.471
    2.030
    1.502
    0.983
    0.502
    0.066
   -0.300
   -0.527
   -0.532
   -0.259
    0.253
    0.852
    1.318
    1.452
    1.176
    0.587
   -0.088
   -0.613
   -0.864
   -0.861
   -0.688
   -0.423
   -0.141
    0.052
    0.064
   -0.086
   -0.233
   -0.178
    0.130
    0.520
    0.718
    0.561
    0.128
   -0.316
   -0.501
   -0.332
    0.045
    0.331
    0.265
   -0.199
   -0.855
   -1.385
   -1.585
   -1.495
   -1.327
   -1.257
   -1.275
   -1.251
   -1.149
   -1.129
   -1.383
   -1.858
   -2.179
   -1.904
   -0.897
    0.530
    1.830
    2.562
    2.569
    1.925
    0.805
   -0.544
   -1.772
   -2.488
   -2.467
   -1.814
   -0.892
   -0.050
    0.597
    1.135
    1.659
    2.142
    2.441
    2.369
    1.770
    0.594
   -0.984
   -2.509
   -3.386
   -3.204
   -2.045
   -0.479
    0.766
    1.217
    0.865
    0.062
   -0.749
   -1.283
   -1.521
   -1.640
   -1.829
   -2.105
   -2.273
   -2.092
   -1.490
   -0.650
    0.120
    0.600
    0.781
    0.817
    0.868
    0.965
    1.010
    0.925
    0.791
    0.834
    1.218
    1.849
    2.390
    2.497
    2.068
    1.300
    0.524
   -0.030
   -0.333
   -0.495
   -0.630
   -0.785
   -0.954
   -1.124
   -1.278
   -1.363
   -1.289
   -0.988
   -0.477
    0.140
    0.728
    1.189
    1.493
    1.661
    1.739
    1.758
    1.701
    1.530
    1.249
    0.964
    0.809
    0.789
    0.724
    0.403
   -0.154
   -0.616
   -0.599
   -0.039
    0.706
    1.160
    1.143
    0.880
    0.717
    0.789
    0.978
    1.105
    1.059
    0.743
    0.056
   -0.965
   -1.983
   -2.459
   -1.996
   -0.657
    1.034
    2.368
    2.806
    2.208
    0.848
   -0.769
   -2.150
   -2.994
   -3.248
   -3.070
   -2.710
   -2.351
   -2.001
   -1.553
   -0.939
   -0.222
    0.456
    0.984
    1.323
    1.463
    1.389
    1.097
    0.611
   -0.009
   -0.655
   -1.145
   -1.235
   -0.743
    0.283
    1.490
    2.364
    2.521
    1.959
    1.051
    0.269
   -0.142
   -0.307
   -0.533
   -0.985
   -1.505
   -1.750
   -1.500
   -0.821
    0.049
    0.891
    1.563
    1.897
    1.686
    0.858
   -0.329
   -1.339
   -1.677
   -1.219
   -0.276
    0.671
    1.317
    1.699
    2.067
    2.606
    3.231
    3.598
    3.339
    2.358
    0.970
   -0.256
   -0.851
   -0.728
   -0.165
    0.451
    0.902
    1.208
    1.475
    1.708
    1.770
    1.507
    0.895
    0.050
   -0.896
   -1.916
   -3.040
   -4.203
   -5.152
   -5.556
   -5.262
   -4.467
   -3.660
   -3.357
   -3.820
   -4.927
   -6.229
   -7.151
   -7.226
   -6.301
   -4.610
   -2.651
   -0.886
    0.532
    1.766
    3.024
    4.280
    5.296
    5.866
    5.988
    5.760
    5.209
    4.310
    3.204
    2.299
    2.054
    2.597
    3.594
    4.518
    5.042
    5.156
    4.954
    4.424
    3.521
    2.406
    1.507
    1.225
    1.574
    2.128
    2.351
    1.997
    1.228
    0.394
   -0.264
   -0.724
   -1.087
   -1.448
   -1.859
   -2.360
   -3.008
   -3.836
   -4.785
   -5.688
   -6.346
   -6.671
   -6.766
   -6.845
   -7.014
   -7.135
   -6.895
   -6.054
   -4.642
   -2.944
   -1.293
    0.142
    1.385
    2.502
    3.433
    3.998
    4.073
    3.747
    3.269
    2.833
    2.422
    1.878
    1.115
    0.260
   -0.397
   -0.584
   -0.235
    0.431
    0.997
    1.095
    0.668
    0.022
   -0.399
   -0.322
    0.203
    0.898
    1.449
    1.642
    1.384
    0.694
   -0.283
   -1.260
   -1.908
   -2.048
   -1.761
   -1.282
   -0.807
   -0.406
   -0.105
    0.028
   -0.088
   -0.467
   -1.010
   -1.558
   -1.973
   -2.164
   -2.043
   -1.490
   -0.418
    1.093
    2.703
    3.900
    4.239
    3.576
    2.161
    0.539
   -0.686
   -1.114
   -0.699
    0.310
    1.518
    2.508
    2.927
    2.580
    1.511
   -0.028
   -1.699
   -3.196
   -4.247
   -4.587
   -4.045
   -2.724
   -1.042
    0.502
    1.708
    2.814
    4.215
    5.976
    7.596
    8.282
    7.532
    5.531
    3.048
    0.889
   -0.646
   -1.888
   -3.391
   -5.355
   -7.338
   -8.535
   -8.390
   -7.018
   -5.054
   -3.090
   -1.253
    0.658
    2.668
    4.297
    4.802
    3.790
    1.651
   -0.564
   -1.714
   -1.156
    0.983
    3.934
    6.672
    8.374
    8.741
    8.011
    6.692
    5.250
    3.978
    3.026
    2.434
    2.115
    1.900
    1.673
    1.461
    1.380
    1.489
    1.683
    1.712
    1.283
    0.224
   -1.405
   -3.293
   -5.005
   -6.195
   -6.787
   -6.985
   -7.088
   -7.261
   -7.432
   -7.423
   -7.159
   -6.722
   -6.192
   -5.530
   -4.703
   -3.872
   -3.307
   -3.045
   -2.732
   -1.917
   -0.523
    1.018
    2.087
    2.354
    1.983
    1.454
    1.169
    1.181
    1.225
    1.010
    0.495
   -0.081
   -0.394
   -0.279
    0.175
    0.675
    0.883
    0.620
    0.009
   -0.582
   -0.753
   -0.298
    0.685
    1.829
    2.623
    2.594
    1.518
   -0.415
   -2.565
   -4.029
   -4.036
   -2.396
    0.298
    2.921
    4.399
    4.224
    2.607
    0.282
   -1.851
   -3.067
   -3.041
   -1.878
    0.043
    2.299
    4.511
    6.290
    7.173
    6.736
    4.881
    2.070
   -0.735
   -2.509
   -2.688
   -1.401
    0.785
    3.294
    5.730
    7.734
    8.814
    8.438
    6.343
    2.810
   -1.330
   -5.005
   -7.372
   -8.191
   -7.865
   -7.100
   -6.409
   -5.828
   -5.025
   -3.684
   -1.861
   -0.043
    1.110
    1.161
    0.187
   -1.241
   -2.411
   -2.882
   -2.634
   -1.899
   -0.874
    0.407
    1.990
    3.804
    5.496
    6.426
    5.949
    3.911
    0.988
   -1.550
   -2.614
   -2.011
   -0.467
    1.045
    2.083
    2.952
    4.217
    5.994
    7.635
    8.058
    6.452
    2.841
   -1.818
   -6.047
   -8.482
   -8.450
   -6.221
   -2.877
    0.165
    1.744
    1.376
   -0.629
   -3.337
   -5.559
   -6.323
   -5.263
   -2.752
    0.322
    2.996
    4.634
    5.102
    4.704
    3.947
    3.258
    2.795
    2.484
    2.202
    1.902
    1.567
    1.119
    0.435
   -0.510
   -1.569
   -2.499
   -3.124
   -3.378
   -3.192
   -2.413
   -0.926
    1.100
    3.093
    4.300
    4.169
    2.640
    0.184
   -2.364
   -4.130
   -4.611
   -3.953
   -2.848
   -2.034
   -1.770
   -1.761
   -1.579
   -1.091
   -0.495
   -0.040
    0.170
    0.120
   -0.239
   -0.920
   -1.706
   -2.083
   -1.476
    0.353
    3.070
    5.846
    7.711
    8.022
    6.796
    4.709
    2.724
    1.560
    1.334
    1.607
    1.785
    1.531
    0.901
    0.177
   -0.410
   -0.880
   -1.520
   -2.680
   -4.435
   -6.368
   -7.689
   -7.694
   -6.236
   -3.880
   -1.592
   -0.182
    0.071
   -0.637
   -1.993
   -3.824
   -6.053
   -8.429
  -10.355
  -11.036
   -9.869
   -6.844
   -2.705
    1.246
    3.676
    3.889
    2.256
    0.030
   -1.431
   -1.492
   -0.469
    0.891
    2.103
    3.147
    4.124
    4.889
    5.120
    4.657
    3.729
    2.845
    2.476
    2.783
    3.520
    4.172
    4.290
    3.783
    2.928
    2.059
    1.230
    0.197
   -1.231
   -2.811
   -3.832
   -3.526
   -1.644
    1.230
    3.932
    5.427
    5.435
    4.480
    3.349
    2.496
    1.877
    1.238
    0.458
   -0.367
   -1.041
   -1.367
   -1.176
   -0.430
    0.583
    1.190
    0.654
   -1.279
   -4.046
   -6.477
   -7.388
   -6.164
   -3.060
    0.828
    3.988
    5.275
    4.696
    3.518
    3.396
    5.100
    7.894
   10.102
   10.379
    8.628
    5.937
    3.733
    2.869
    3.246
    4.045
    4.296
    3.386
    1.260
   -1.690
   -4.873
   -7.695
   -9.613
  -10.175
   -9.190
   -6.966
   -4.346
   -2.340
   -1.547
   -1.787
   -2.274
   -2.201
   -1.303
    0.036
    1.098
    1.262
    0.245
   -1.828
   -4.450
   -6.853
   -8.312
   -8.501
   -7.580
   -5.958
   -4.007
   -2.020
   -0.313
    0.824
    1.367
    1.686
    2.318
    3.540
    5.086
    6.246
    6.327
    5.163
    3.311
    1.699
    0.958
    1.022
    1.347
    1.505
    1.521
    1.642
    1.855
    1.723
    0.761
   -1.029
   -3.028
   -4.395
   -4.612
   -3.765
   -2.420
   -1.305
   -0.958
   -1.458
   -2.389
   -3.140
   -3.353
   -3.136
   -2.796
   -2.407
   -1.668
   -0.230
    1.864
    4.064
    5.606
    5.913
    4.816
    2.565
   -0.235
   -2.721
   -3.988
   -3.454
   -1.236
    1.743
    4.102
    4.722
    3.381
    0.838
   -1.713
   -3.395
   -4.029
   -3.960
   -3.611
   -3.129
   -2.333
   -0.944
    1.046
    3.144
    4.502
    4.425
    2.886
    0.666
   -1.050
   -1.355
   -0.116
    2.031
    4.124
    5.407
    5.638
    5.050
    4.051
    2.898
    1.589
    0.033
   -1.677
   -3.160
   -3.913
   -3.626
   -2.408
   -0.728
    0.840
    1.869
    2.160
    1.733
    0.820
   -0.185
   -0.873
   -1.031
   -0.750
   -0.349
   -0.155
   -0.292
   -0.611
   -0.781
   -0.517
    0.213
    1.129
    1.767
    1.693
    0.682
   -1.188
   -3.515
   -5.651
   -6.920
   -6.909
   -5.635
   -3.462
   -0.872
    1.674
    3.727
    4.844
    4.711
    3.337
    1.115
   -1.316
   -3.280
   -4.220
   -3.812
   -2.088
    0.520
    3.332
    5.726
    7.352
    8.082
    7.827
    6.478
    4.074
    0.991
   -2.106
   -4.587
   -6.158
   -6.871
   -6.885
   -6.276
   -5.106
   -3.611
   -2.224
   -1.320
   -0.927
   -0.729
   -0.450
   -0.209
   -0.425
   -1.268
   -2.246
   -2.420
   -1.144
    1.353
    4.072
    5.900
    6.259
    5.319
    3.766
    2.378
    1.665
    1.709
    2.216
    2.707
    2.729
    2.013
    0.555
   -1.371
   -3.296
   -4.710
   -5.204
   -4.586
   -2.956
   -0.727
    1.499
    3.161
    3.961
    3.911
    3.189
    1.959
    0.339
   -1.454
   -2.970
   -3.635
   -3.067
   -1.368
    0.914
    3.120
    4.787
    5.650
    5.451
    3.910
    0.986
   -2.849
   -6.650
   -9.349
  -10.201
   -9.051
   -6.368
   -3.067
   -0.149
    1.730
    2.568
    2.930
    3.460
    4.276
    4.801
    4.285
    2.620
    0.653
   -0.393
    0.119
    1.788
    3.536
    4.339
    3.700
    1.699
   -1.125
   -3.908
   -5.730
   -6.006
   -4.759
   -2.512
    0.057
    2.342
    3.774
    3.817
    2.233
   -0.545
   -3.438
   -5.291
   -5.557
   -4.537
   -3.041
   -1.823
   -1.239
   -1.221
   -1.459
   -1.586
   -1.349
   -0.759
   -0.120
    0.179
    0.027
   -0.205
    0.118
    1.365
    3.250
    4.968
    5.767
    5.493
    4.649
    3.964
    3.843
    4.103
    4.156
    3.445
    1.831
   -0.295
   -2.253
   -3.463
   -3.692
   -3.013
   -1.611
    0.291
    2.281
    3.664
    3.743
    2.342
    0.054
   -2.112
   -3.436
   -3.953
   -4.294
   -5.009
   -5.987
   -6.503
   -5.895
   -4.227
   -2.269
   -0.799
    0.030
    0.636
    1.464
    2.639
    4.090
    5.783
    7.633
    9.251
    9.975
    9.320
    7.404
    4.905
    2.596
    0.901
   -0.221
   -1.092
   -2.039
   -3.186
   -4.357
   -5.159
   -5.213
   -4.451
   -3.272
   -2.443
   -2.691
   -4.143
   -6.023
   -6.992
   -6.075
   -3.483
   -0.580
    1.096
    0.962
   -0.298
   -1.463
   -1.767
   -1.279
   -0.492
    0.223
    0.730
    0.895
    0.530
   -0.328
   -1.207
   -1.460
   -0.744
    0.794
    2.768
    4.797
    6.455
    7.190
    6.594
    4.848
    2.741
    1.100
    0.185
   -0.316
   -0.738
   -1.009
   -0.820
   -0.118
    0.703
    1.119
    0.892
    0.167
   -0.722
   -1.431
   -1.689
   -1.412
   -0.879
   -0.696
   -1.418
   -3.058
   -4.975
   -6.268
   -6.324
   -5.105
   -3.033
   -0.700
    1.320
    2.543
    2.678
    1.793
    0.372
   -0.892
   -1.457
   -1.177
   -0.308
    0.707
    1.543
    2.217
    3.004
    4.076
    5.160
    5.587
    4.764
    2.690
    0.077
   -2.046
   -2.962
   -2.682
   -1.872
   -1.330
   -1.388
   -1.669
   -1.418
   -0.140
    1.963
    4.129
    5.576
    5.952
    5.338
    3.929
    1.865
   -0.602
   -2.871
   -4.136
   -3.928
   -2.586
   -1.146
   -0.666
   -1.536
   -3.294
   -5.029
   -5.967
   -5.842
   -4.908
   -3.673
   -2.506
   -1.386
    0.052
    2.142
    4.781
    7.274
    8.606
    8.022
    5.555
    2.140
   -0.868
   -2.498
   -2.709
   -2.273
   -2.119
   -2.699
   -3.824
   -4.947
   -5.539
   -5.324
   -4.377
   -3.114
   -2.054
   -1.459
   -1.146
   -0.709
    0.088
    1.186
    2.423
    3.742
    5.140
    6.517
    7.714
    8.682
    9.445
    9.828
    9.340
    7.507
    4.374
    0.639
   -2.738
   -5.050
   -6.030
   -5.732
   -4.412
   -2.529
   -0.713
    0.455
    0.725
    0.322
   -0.188
   -0.216
    0.499
    1.681
    2.565
    2.265
    0.371
   -2.563
   -5.149
   -6.012
   -4.778
   -2.346
