Origin Time       05/3/2012 07:41:05	
Lat.              28.7 N	
Long.             76.6 E	
Depth (Km)         14.0
Magnitude         4.9
 Region           Haryana-Delhi-Border-Region                                      
 Above details taken from IMD 
    
Station Code       IMD 
Station Lat.       28.685  N
Station Long.      77.216  E
Station Height(m)  184.0
Site Class        A   Vs30 between 700 m/sec to 1620 m/sec * 
Record Time        3/5/2012   7:40:33.000
Sampling Rate     200. Hz
 Record Duration  114.000 Sec.
 Direction         N-S (N positive)
Max. Acceleration  -2.583 cm/sec**2
     
  * For reference see Site Classification link of website 
     
 Base Line Corrected and Low Pass Filtered (Cut Off at 35 Hz) Time History
 Acceleration data in cm/sec**2
    
[...]
    0.007
   -0.023
   -0.053
   -0.063
   -0.053
   -0.042
   -0.047
   -0.065
   -0.077
   -0.067
   -0.040
   -0.013
   -0.009
   -0.041
   -0.106
   -0.182
   -0.234
   -0.240
   -0.204
   -0.151
   -0.109
   -0.087
   -0.076
   -0.060
   -0.033
   -0.002
    0.023
    0.042
    0.067
    0.114
    0.178
    0.225
    0.215
    0.133
    0.004
   -0.115
   -0.171
   -0.136
   -0.024
    0.112
    0.206
    0.216
    0.157
    0.091
    0.085
    0.172
    0.326
    0.477
    0.551
    0.510
    0.368
    0.174
   -0.020
   -0.172
   -0.246
   -0.214
   -0.085
    0.081
    0.187
    0.167
    0.022
   -0.175
   -0.337
   -0.406
   -0.380
   -0.299
   -0.219
   -0.179
   -0.192
   -0.236
   -0.267
   -0.237
   -0.115
    0.077
    0.266
    0.366
    0.340
    0.225
    0.094
    0.002
   -0.049
   -0.089
   -0.148
   -0.224
   -0.294
   -0.331
   -0.322
   -0.268
   -0.175
   -0.052
    0.071
    0.158
    0.185
    0.164
    0.135
    0.129
    0.145
    0.146
    0.092
   -0.025
   -0.175
   -0.308
   -0.382
   -0.386
   -0.346
   -0.309
   -0.310
   -0.343
   -0.354
   -0.278
   -0.093
    0.156
    0.390
    0.550
    0.631
    0.667
    0.680
    0.659
    0.581
    0.454
    0.326
    0.249
    0.240
    0.264
    0.275
    0.255
    0.221
    0.207
    0.225
    0.263
    0.296
    0.305
    0.278
    0.213
    0.126
    0.044
   -0.005
   -0.010
    0.012
    0.031
    0.017
   -0.049
   -0.173
   -0.334
   -0.486
   -0.567
   -0.555
   -0.489
   -0.436
   -0.417
   -0.375
   -0.224
    0.050
    0.347
    0.521
    0.506
    0.376
    0.275
    0.286
    0.362
    0.383
    0.266
    0.032
   -0.226
   -0.416
   -0.503
   -0.500
   -0.442
   -0.357
   -0.258
   -0.146
   -0.017
    0.117
    0.222
    0.259
    0.221
    0.149
    0.114
    0.158
    0.245
    0.276
    0.159
   -0.103
   -0.392
   -0.560
   -0.545
   -0.419
   -0.304
   -0.261
   -0.235
   -0.130
    0.083
    0.324
    0.464
    0.443
    0.311
    0.183
    0.145
    0.199
    0.286
    0.342
    0.330
    0.249
    0.118
   -0.024
   -0.131
   -0.180
   -0.189
   -0.207
   -0.267
   -0.344
   -0.377
   -0.330
   -0.243
   -0.194
   -0.224
   -0.292
   -0.311
   -0.232
   -0.093
    0.007
   -0.005
   -0.120
   -0.260
   -0.342
   -0.341
   -0.283
   -0.212
   -0.150
   -0.099
   -0.061
   -0.045
   -0.061
   -0.094
   -0.108
   -0.074
    0.002
    0.067
    0.060
   -0.041
   -0.188
   -0.283
   -0.258
   -0.124
    0.045
    0.180
    0.253
    0.275
    0.255
    0.192
    0.096
   -0.011
   -0.096
   -0.140
   -0.147
   -0.131
   -0.096
   -0.030
    0.076
    0.200
    0.297
    0.341
    0.348
    0.352
    0.352
    0.302
    0.165
   -0.034
   -0.206
   -0.261
   -0.176
   -0.012
    0.121
    0.132
    0.005
   -0.188
   -0.335
   -0.350
   -0.231
   -0.037
    0.159
    0.309
    0.395
    0.409
    0.352
    0.252
    0.171
    0.165
    0.241
    0.333
    0.351
    0.262
    0.109
   -0.038
   -0.144
   -0.214
   -0.247
   -0.206
   -0.057
    0.171
    0.370
    0.421
    0.280
    0.011
   -0.261
   -0.419
   -0.410
   -0.261
   -0.050
    0.137
    0.255
    0.315
    0.351
    0.388
    0.417
    0.410
    0.331
    0.166
   -0.062
   -0.297
   -0.471
   -0.546
   -0.524
   -0.447
   -0.356
   -0.263
   -0.153
   -0.015
    0.125
    0.215
    0.225
    0.185
    0.156
    0.169
    0.190
    0.161
    0.068
   -0.032
   -0.068
   -0.032
    0.005
   -0.045
   -0.199
   -0.382
   -0.482
   -0.443
   -0.315
   -0.221
   -0.243
   -0.347
   -0.404
   -0.303
   -0.054
    0.223
    0.403
    0.452
    0.426
    0.394
    0.360
    0.276
    0.112
   -0.087
   -0.222
   -0.220
   -0.106
    0.019
    0.049
   -0.041
   -0.188
   -0.292
   -0.294
   -0.204
   -0.082
    0.016
    0.073
    0.095
    0.089
    0.052
   -0.019
   -0.096
   -0.130
   -0.083
    0.033
    0.151
    0.205
    0.190
    0.166
    0.192
    0.262
    0.300
    0.234
    0.068
   -0.095
   -0.131
    0.007
    0.233
    0.384
    0.338
    0.112
   -0.144
   -0.259
   -0.164
    0.053
    0.213
    0.172
   -0.069
   -0.364
   -0.531
   -0.491
   -0.318
   -0.175
   -0.177
   -0.292
   -0.379
   -0.308
   -0.075
    0.188
    0.318
    0.254
    0.093
    0.013
    0.133
    0.401
    0.638
    0.673
    0.488
    0.223
    0.061
    0.072
    0.169
    0.195
    0.075
   -0.124
   -0.263
   -0.258
   -0.144
   -0.031
   -0.012
   -0.097
   -0.218
   -0.278
   -0.211
   -0.025
    0.187
    0.296
    0.228
    0.037
   -0.116
   -0.101
    0.060
    0.198
    0.142
   -0.117
   -0.410
   -0.537
   -0.434
   -0.211
   -0.035
    0.013
   -0.026
   -0.066
   -0.069
   -0.061
   -0.071
   -0.098
   -0.113
   -0.104
   -0.087
   -0.096
   -0.155
   -0.256
   -0.360
   -0.413
   -0.392
   -0.303
   -0.167
    0.000
    0.177
    0.319
    0.378
    0.326
    0.171
   -0.049
   -0.276
   -0.437
   -0.464
   -0.341
   -0.123
    0.085
    0.191
    0.175
    0.079
   -0.024
   -0.068
   -0.022
    0.097
    0.221
    0.269
    0.202
    0.049
   -0.110
   -0.208
   -0.219
   -0.152
   -0.030
    0.122
    0.271
    0.370
    0.383
    0.306
    0.175
    0.047
   -0.027
   -0.021
    0.066
    0.213
    0.375
    0.488
    0.489
    0.351
    0.117
   -0.117
   -0.255
   -0.258
   -0.152
   -0.009
    0.098
    0.124
    0.069
   -0.018
   -0.076
   -0.086
   -0.094
   -0.167
   -0.323
   -0.489
   -0.550
   -0.440
   -0.197
    0.058
    0.202
    0.203
    0.123
    0.052
    0.034
    0.058
    0.112
    0.196
    0.280
    0.284
    0.135
   -0.144
   -0.410
   -0.512
   -0.411
   -0.202
   -0.018
    0.080
    0.111
    0.106
    0.058
   -0.053
   -0.200
   -0.307
   -0.303
   -0.169
    0.052
    0.284
    0.449
    0.494
    0.417
    0.280
    0.178
    0.174
    0.258
    0.362
    0.416
    0.392
    0.309
    0.202
    0.087
   -0.049
   -0.222
   -0.398
   -0.489
   -0.420
   -0.202
    0.060
    0.245
    0.301
    0.261
    0.198
    0.168
    0.179
    0.193
    0.161
    0.057
   -0.092
   -0.225
   -0.299
   -0.310
   -0.287
   -0.252
   -0.207
   -0.143
   -0.059
    0.018
    0.047
    0.004
   -0.075
   -0.103
   -0.014
    0.168
    0.323
    0.331
    0.165
   -0.083
   -0.277
   -0.340
   -0.291
   -0.201
   -0.134
   -0.119
   -0.148
   -0.207
   -0.279
   -0.345
   -0.370
   -0.316
   -0.166
    0.027
    0.159
    0.143
   -0.015
   -0.190
   -0.224
   -0.056
    0.203
    0.338
    0.191
   -0.195
   -0.587
   -0.726
   -0.523
   -0.103
    0.306
    0.537
    0.564
    0.455
    0.302
    0.174
    0.103
    0.090
    0.117
    0.165
    0.214
    0.242
    0.220
    0.142
    0.042
    0.001
    0.081
    0.259
    0.420
    0.436
    0.282
    0.072
   -0.035
    0.028
    0.172
    0.241
    0.163
    0.014
   -0.071
   -0.036
    0.040
    0.048
   -0.015
   -0.033
    0.107
    0.361
    0.543
    0.481
    0.181
   -0.165
   -0.332
   -0.237
    0.026
    0.294
    0.459
    0.506
    0.459
    0.328
    0.119
   -0.114
   -0.277
   -0.293
   -0.173
   -0.011
    0.087
    0.079
    0.001
   -0.085
   -0.138
   -0.156
   -0.152
   -0.131
   -0.102
   -0.088
   -0.115
   -0.172
   -0.212
   -0.195
   -0.128
   -0.063
   -0.052
   -0.103
   -0.171
   -0.188
   -0.114
    0.012
    0.084
    0.015
   -0.179
   -0.369
   -0.415
   -0.276
   -0.030
    0.194
    0.311
    0.308
    0.219
    0.076
   -0.093
   -0.237
   -0.275
   -0.152
    0.082
    0.267
    0.254
    0.033
   -0.249
   -0.426
   -0.445
   -0.373
   -0.282
   -0.173
   -0.004
    0.219
    0.413
    0.477
    0.378
    0.189
    0.037
    0.000
    0.046
    0.068
   -0.013
   -0.188
   -0.386
   -0.514
   -0.496
   -0.304
    0.004
    0.284
    0.393
    0.294
    0.098
   -0.017
    0.056
    0.256
    0.404
    0.351
    0.107
   -0.153
   -0.240
   -0.102
    0.131
    0.255
    0.164
   -0.076
   -0.291
   -0.339
   -0.213
   -0.037
    0.044
   -0.013
   -0.116
   -0.126
    0.011
    0.218
    0.352
    0.330
    0.192
    0.055
    0.000
   -0.006
   -0.058
   -0.194
   -0.343
   -0.401
   -0.344
   -0.255
   -0.222
   -0.240
   -0.223
   -0.106
    0.081
    0.238
    0.295
    0.276
    0.282
    0.389
    0.582
    0.754
    0.799
    0.686
    0.476
    0.268
    0.129
    0.062
    0.023
   -0.028
   -0.087
   -0.102
   -0.038
    0.065
    0.108
    0.017
   -0.178
   -0.368
   -0.443
   -0.362
   -0.153
    0.098
    0.276
    0.288
    0.124
   -0.123
   -0.320
   -0.388
   -0.326
   -0.184
   -0.018
    0.111
    0.127
   -0.024
   -0.310
   -0.577
   -0.638
   -0.416
   -0.030
    0.286
    0.368
    0.230
    0.022
   -0.113
   -0.130
   -0.084
   -0.046
   -0.047
   -0.075
   -0.126
   -0.218
   -0.345
   -0.450
   -0.444
   -0.284
   -0.012
    0.257
    0.401
    0.361
    0.178
   -0.026
   -0.119
   -0.039
    0.175
    0.399
    0.486
    0.349
    0.024
   -0.333
   -0.529
   -0.472
   -0.233
    0.017
    0.158
    0.196
    0.224
    0.312
    0.450
    0.567
    0.593
    0.507
    0.343
    0.164
    0.018
   -0.092
   -0.201
   -0.334
   -0.477
   -0.575
   -0.575
   -0.472
   -0.310
   -0.142
    0.014
    0.174
    0.344
    0.490
    0.558
    0.534
    0.452
    0.352
    0.250
    0.140
    0.031
   -0.041
   -0.037
    0.057
    0.209
    0.338
    0.349
    0.198
   -0.056
   -0.265
   -0.301
   -0.159
    0.022
    0.079
   -0.043
   -0.248
   -0.385
   -0.387
   -0.312
   -0.259
   -0.262
   -0.263
   -0.200
   -0.083
    0.018
    0.060
    0.083
    0.153
    0.260
    0.293
    0.147
   -0.152
   -0.447
   -0.581
   -0.524
   -0.362
   -0.197
   -0.073
    0.021
    0.107
    0.203
    0.332
    0.496
    0.644
    0.675
    0.509
    0.156
   -0.259
   -0.552
   -0.582
   -0.356
   -0.042
    0.146
    0.108
   -0.067
   -0.187
   -0.116
    0.142
    0.455
    0.648
    0.600
    0.318
   -0.042
   -0.264
   -0.234
   -0.033
    0.117
    0.045
   -0.222
   -0.495
   -0.593
   -0.511
   -0.415
   -0.490
   -0.769
   -1.089
   -1.222
   -1.058
   -0.695
   -0.350
   -0.185
   -0.198
   -0.267
   -0.274
   -0.193
   -0.081
   -0.012
   -0.016
   -0.056
   -0.058
    0.038
    0.227
    0.433
    0.541
    0.472
    0.249
   -0.007
   -0.178
   -0.245
   -0.305
   -0.481
   -0.801
   -1.147
   -1.315
   -1.152
   -0.665
   -0.011
    0.617
    1.101
    1.416
    1.556
    1.486
    1.175
    0.683
    0.177
   -0.164
   -0.258
   -0.168
   -0.053
   -0.066
   -0.269
   -0.571
   -0.778
   -0.722
   -0.377
    0.135
    0.640
    1.011
    1.199
    1.217
    1.117
    0.972
    0.841
    0.739
    0.631
    0.451
    0.164
   -0.176
   -0.423
   -0.432
   -0.191
    0.134
    0.311
    0.221
   -0.052
   -0.299
   -0.360
   -0.243
   -0.108
   -0.129
   -0.361
   -0.678
   -0.860
   -0.741
   -0.332
    0.194
    0.632
    0.887
    0.997
    1.051
    1.064
    0.955
    0.638
    0.142
   -0.379
   -0.747
   -0.876
   -0.794
   -0.569
   -0.256
    0.111
    0.483
    0.783
    0.934
    0.904
    0.722
    0.448
    0.133
   -0.206
   -0.579
   -0.993
   -1.418
   -1.773
   -1.951
   -1.885
   -1.596
   -1.181
   -0.752
   -0.384
   -0.088
    0.180
    0.475
    0.802
    1.078
    1.170
    1.014
    0.685
    0.369
    0.224
    0.262
    0.361
    0.386
    0.316
    0.247
    0.294
    0.475
    0.692
    0.807
    0.735
    0.477
    0.116
   -0.233
   -0.486
   -0.648
   -0.783
   -0.918
   -0.986
   -0.880
   -0.560
   -0.115
    0.297
    0.542
    0.575
    0.431
    0.166
   -0.169
   -0.503
   -0.703
   -0.629
   -0.268
    0.197
    0.505
    0.521
    0.312
    0.033
   -0.229
   -0.486
   -0.738
   -0.880
   -0.756
   -0.302
    0.363
    0.980
    1.303
    1.234
    0.850
    0.318
   -0.209
   -0.640
   -0.914
   -0.971
   -0.786
   -0.430
   -0.061
    0.181
    0.275
    0.303
    0.341
    0.373
    0.341
    0.242
    0.148
    0.116
    0.101
   -0.012
   -0.281
   -0.642
   -0.953
   -1.107
   -1.073
   -0.865
   -0.505
   -0.027
    0.476
    0.858
    0.985
    0.835
    0.532
    0.266
    0.178
    0.294
    0.566
    0.931
    1.322
    1.620
    1.650
    1.278
    0.550
   -0.298
   -0.984
   -1.355
   -1.435
   -1.346
   -1.200
   -1.048
   -0.886
   -0.687
   -0.440
   -0.152
    0.168
    0.533
    0.964
    1.433
    1.814
    1.930
    1.666
    1.077
    0.394
   -0.117
   -0.313
   -0.266
   -0.212
   -0.382
   -0.851
   -1.480
   -2.002
   -2.201
   -2.032
   -1.616
   -1.119
   -0.651
   -0.250
    0.091
    0.413
    0.782
    1.238
    1.725
    2.082
    2.140
    1.854
    1.348
    0.819
    0.390
    0.044
   -0.319
   -0.747
   -1.144
   -1.329
   -1.197
   -0.863
   -0.609
   -0.661
   -0.977
   -1.266
   -1.227
   -0.791
   -0.168
    0.348
    0.591
    0.586
    0.458
    0.317
    0.225
    0.198
    0.197
    0.137
   -0.048
   -0.336
   -0.611
   -0.760
   -0.781
   -0.798
   -0.959
   -1.283
   -1.605
   -1.671
   -1.321
   -0.619
    0.184
    0.819
    1.160
    1.260
    1.258
    1.243
    1.190
    1.036
    0.790
    0.599
    0.648
    1.001
    1.496
    1.833
    1.788
    1.380
    0.842
    0.408
    0.154
    0.015
   -0.080
   -0.116
   -0.044
    0.118
    0.263
    0.282
    0.165
    0.029
    0.039
    0.269
    0.616
    0.859
    0.833
    0.543
    0.117
   -0.329
   -0.752
   -1.128
   -1.390
   -1.447
   -1.284
   -1.022
   -0.848
   -0.867
   -0.996
   -1.001
   -0.662
    0.066
    0.998
    1.822
    2.260
    2.203
    1.722
    1.015
    0.297
   -0.307
   -0.815
   -1.329
   -1.892
   -2.385
   -2.583
   -2.326
   -1.661
   -0.826
   -0.090
    0.385
    0.576
    0.548
    0.396
    0.225
    0.133
    0.182
    0.360
    0.563
    0.631
    0.434
    0.000
   -0.447
   -0.612
   -0.377
    0.054
    0.283
    0.045
   -0.547
   -1.087
   -1.206
   -0.856
   -0.305
    0.105
    0.233
    0.190
    0.164
    0.201
    0.166
   -0.090
   -0.532
   -0.921
   -0.981
   -0.599
    0.107
    0.860
    1.379
    1.537
    1.424
    1.270
    1.244
    1.295
    1.204
    0.810
    0.185
   -0.406
   -0.729
   -0.765
   -0.684
   -0.662
   -0.723
   -0.747
   -0.576
   -0.137
    0.495
    1.124
    1.520
    1.543
    1.202
    0.641
    0.059
   -0.390
   -0.659
   -0.806
   -0.910
   -0.994
   -1.014
   -0.951
   -0.876
   -0.915
   -1.127
   -1.410
   -1.541
   -1.339
   -0.804
   -0.104
    0.563
    1.077
    1.373
    1.396
    1.131
    0.677
    0.245
    0.027
    0.054
    0.175
    0.197
    0.059
   -0.128
   -0.220
   -0.195
   -0.158
   -0.193
   -0.244
   -0.158
    0.127
    0.480
    0.671
    0.584
    0.334
    0.169
    0.265
    0.588
    0.929
    1.045
    0.820
    0.338
   -0.158
   -0.420
   -0.342
   -0.021
    0.314
    0.438
    0.267
   -0.105
   -0.474
   -0.644
   -0.527
   -0.178
    0.233
    0.511
    0.545
    0.383
    0.200
    0.153
    0.235
    0.269
    0.054
   -0.425
   -0.921
   -1.087
   -0.755
   -0.095
    0.476
    0.571
    0.091
   -0.711
   -1.378
   -1.538
   -1.143
   -0.501
   -0.020
    0.111
    0.044
    0.081
    0.376
    0.794
    1.030
    0.855
    0.285
   -0.441
   -1.028
   -1.307
   -1.297
   -1.120
   -0.872
   -0.570
   -0.184
    0.303
    0.853
    1.368
    1.716
    1.787
    1.560
    1.124
    0.649
    0.317
    0.254
    0.460
    0.776
    0.948
    0.786
    0.302
   -0.284
   -0.709
   -0.869
   -0.869
   -0.879
   -0.950
   -0.956
   -0.716
   -0.176
    0.489
    0.959
    1.015
    0.741
    0.463
    0.441
    0.637
    0.777
    0.638
    0.210
   -0.397
   -1.099
   -1.827
   -2.400
   -2.530
   -2.042
   -1.082
   -0.068
    0.610
    0.860
    0.901
    1.014
    1.274
    1.497
    1.432
    1.031
    0.533
    0.249
    0.258
    0.331
    0.164
   -0.317
   -0.901
   -1.316
   -1.454
   -1.392
   -1.240
   -1.012
   -0.641
   -0.083
    0.597
    1.212
    1.553
    1.543
    1.321
    1.110
    0.998
    0.833
    0.394
   -0.337
   -1.060
   -1.361
   -1.064
   -0.433
   -0.002
   -0.134
   -0.685
   -1.120
   -1.001
   -0.401
    0.173
    0.247
   -0.210
   -0.795
   -1.028
   -0.749
   -0.211
    0.150
    0.075
   -0.335
   -0.726
   -0.772
   -0.415
    0.123
    0.540
    0.710
    0.761
    0.898
    1.137
    1.249
    1.008
    0.470
   -0.041
   -0.222
   -0.048
    0.261
    0.448
    0.360
   -0.028
   -0.635
   -1.249
   -1.562
   -1.334
   -0.591
    0.330
    0.975
    1.045
    0.572
   -0.116
   -0.592
   -0.588
   -0.169
    0.335
    0.605
    0.589
    0.496
    0.538
    0.687
    0.692
    0.358
   -0.226
   -0.747
   -0.963
   -0.896
   -0.738
   -0.593
   -0.361
    0.085
    0.650
    1.003
    0.840
    0.181
   -0.597
   -1.044
   -0.961
   -0.512
   -0.041
    0.210
    0.233
    0.148
    0.028
   -0.160
   -0.442
   -0.715
   -0.743
   -0.324
    0.480
    1.261
    1.498
    0.980
    0.023
   -0.758
   -0.917
   -0.461
    0.257
    0.824
    0.980
    0.669
    0.024
   -0.681
   -1.138
   -1.183
   -0.887
   -0.468
   -0.102
    0.189
    0.486
    0.836
    1.166
    1.308
    1.132
    0.701
    0.289
    0.201
    0.485
    0.857
    0.932
    0.565
   -0.035
   -0.518
   -0.682
   -0.601
   -0.502
   -0.555
   -0.743
   -0.907
   -0.896
   -0.673
   -0.309
    0.101
    0.492
    0.782
    0.845
    0.572
    0.019
   -0.557
   -0.846
   -0.704
   -0.246
    0.263
    0.588
    0.650
    0.515
    0.308
    0.146
    0.092
    0.138
    0.201
    0.156
   -0.047
   -0.290
   -0.338
   -0.049
    0.434
    0.755
    0.632
    0.128
   -0.368
   -0.446
   -0.026
    0.571
    0.903
    0.794
    0.453
    0.226
    0.231
    0.257
    0.005
   -0.566
   -1.162
   -1.413
   -1.217
   -0.834
   -0.653
   -0.843
   -1.213
   -1.381
   -1.091
   -0.422
    0.272
    0.625
    0.532
    0.210
   -0.019
   -0.011
    0.116
    0.137
   -0.042
   -0.297
   -0.381
   -0.115
    0.466
    1.106
    1.487
    1.439
    1.057
    0.633
    0.444
    0.566
    0.844
    1.022
    0.905
    0.488
   -0.024
   -0.344
   -0.338
   -0.169
   -0.179
   -0.544
   -1.056
   -1.291
   -1.013
   -0.387
    0.218
    0.584
    0.737
    0.756
    0.613
    0.246
   -0.278
   -0.777
   -1.098
   -1.221
   -1.196
   -1.044
   -0.727
   -0.215
    0.419
    0.960
    1.156
    0.916
    0.433
    0.062
    0.013
    0.143
    0.106
   -0.269
   -0.726
   -0.773
   -0.145
    0.872
    1.612
    1.559
    0.765
   -0.230
   -0.864
   -0.976
   -0.821
   -0.758
   -0.926
   -1.152
   -1.120
   -0.655
    0.103
    0.784
    1.080
    0.959
    0.644
    0.384
    0.279
    0.282
    0.299
    0.258
    0.118
   -0.116
   -0.368
   -0.516
   -0.502
   -0.395
   -0.326
   -0.331
   -0.266
    0.073
    0.721
    1.423
    1.782
    1.572
    0.923
    0.209
   -0.257
   -0.442
   -0.554
   -0.794
   -1.144
   -1.382
   -1.304
   -0.925
   -0.477
   -0.186
   -0.096
   -0.075
    0.027
    0.247
    0.476
    0.536
    0.332
   -0.036
   -0.295
   -0.193
    0.289
    0.904
    1.294
    1.211
    0.655
   -0.125
   -0.762
   -0.948
   -0.588
    0.133
    0.812
    1.054
    0.731
    0.081
   -0.473
   -0.653
   -0.511
   -0.314
   -0.244
   -0.216
   -0.010
    0.417
    0.801
    0.793
    0.331
   -0.268
   -0.623
   -0.645
   -0.557
   -0.587
   -0.731
   -0.821
   -0.767
   -0.658
   -0.611
   -0.596
   -0.451
   -0.080
    0.417
    0.820
    0.988
