Origin Time       05/3/2012 07:41:05	
Lat.              28.7 N	
Long.             76.6 E	
Depth (Km)         14.0
Magnitude         4.9
 Region           Haryana-Delhi-Border-Region                                      
 Above details taken from IMD 
   
Station Code       IMD 
Station Lat.       28.685
Station Long.      77.216
Station Height(m)  184.0
Site Class        A   Vs30 between 700 m/sec to 1620 m/sec * 
Record Time        3/5/2012   7:40:33.000
Sampling Rate     200. Hz
 Record Duration  114.000 Sec.
 Direction         Vert. (Up positive)
Max. Acceleration  -2.037 cm/sec**2
     
  * For reference see Site Classification link of website 
     
 Base Line Corrected and Low Pass Filtered (Cut Off at 35 Hz) Time History
 Acceleration data in cm/sec**2
    
[...]
    0.538
    0.504
    0.393
    0.220
    0.024
   -0.130
   -0.193
   -0.154
   -0.050
    0.073
    0.181
    0.257
    0.286
    0.253
    0.164
    0.061
    0.000
    0.014
    0.085
    0.162
    0.192
    0.154
    0.063
   -0.041
   -0.112
   -0.120
   -0.069
    0.011
    0.079
    0.107
    0.089
    0.029
   -0.064
   -0.177
   -0.285
   -0.350
   -0.340
   -0.254
   -0.129
   -0.026
    0.011
   -0.015
   -0.060
   -0.076
   -0.045
    0.007
    0.042
    0.036
   -0.008
   -0.073
   -0.144
   -0.207
   -0.247
   -0.247
   -0.192
   -0.091
    0.031
    0.135
    0.195
    0.205
    0.174
    0.113
    0.028
   -0.067
   -0.140
   -0.150
   -0.071
    0.080
    0.245
    0.360
    0.388
    0.339
    0.254
    0.175
    0.122
    0.092
    0.075
    0.069
    0.078
    0.105
    0.135
    0.150
    0.142
    0.118
    0.080
    0.020
   -0.069
   -0.169
   -0.242
   -0.256
   -0.204
   -0.117
   -0.034
    0.013
    0.020
    0.004
   -0.021
   -0.051
   -0.092
   -0.145
   -0.188
   -0.177
   -0.082
    0.073
    0.209
    0.233
    0.112
   -0.095
   -0.273
   -0.333
   -0.278
   -0.189
   -0.152
   -0.183
   -0.227
   -0.207
   -0.097
    0.066
    0.215
    0.301
    0.320
    0.300
    0.268
    0.225
    0.146
    0.019
   -0.138
   -0.281
   -0.364
   -0.368
   -0.307
   -0.212
   -0.125
   -0.087
   -0.128
   -0.246
   -0.386
   -0.460
   -0.397
   -0.195
    0.075
    0.300
    0.388
    0.314
    0.125
   -0.085
   -0.224
   -0.250
   -0.195
   -0.138
   -0.135
   -0.174
   -0.186
   -0.119
    0.002
    0.098
    0.108
    0.051
    0.004
    0.035
    0.145
    0.281
    0.381
    0.418
    0.403
    0.354
    0.277
    0.183
    0.098
    0.057
    0.080
    0.154
    0.244
    0.308
    0.313
    0.231
    0.053
   -0.176
   -0.359
   -0.385
   -0.217
    0.062
    0.293
    0.351
    0.240
    0.080
    0.002
    0.058
    0.206
    0.357
    0.431
    0.388
    0.233
    0.018
   -0.176
   -0.278
   -0.269
   -0.193
   -0.126
   -0.125
   -0.185
   -0.239
   -0.216
   -0.096
    0.062
    0.171
    0.180
    0.110
    0.026
   -0.022
   -0.031
   -0.038
   -0.073
   -0.136
   -0.197
   -0.215
   -0.166
   -0.043
    0.131
    0.296
    0.360
    0.253
   -0.009
   -0.311
   -0.507
   -0.525
   -0.405
   -0.239
   -0.086
    0.056
    0.207
    0.345
    0.409
    0.345
    0.148
   -0.117
   -0.344
   -0.442
   -0.377
   -0.195
    0.015
    0.164
    0.209
    0.166
    0.090
    0.034
    0.019
    0.025
    0.018
   -0.027
   -0.111
   -0.211
   -0.289
   -0.312
   -0.269
   -0.175
   -0.060
    0.056
    0.162
    0.241
    0.249
    0.146
   -0.050
   -0.245
   -0.324
   -0.245
   -0.074
    0.065
    0.081
   -0.028
   -0.191
   -0.317
   -0.339
   -0.241
   -0.052
    0.159
    0.309
    0.328
    0.199
   -0.021
   -0.216
   -0.283
   -0.211
   -0.088
   -0.028
   -0.078
   -0.176
   -0.216
   -0.142
    0.000
    0.115
    0.135
    0.064
   -0.039
   -0.112
   -0.116
   -0.047
    0.059
    0.146
    0.169
    0.141
    0.117
    0.144
    0.202
    0.222
    0.150
    0.000
   -0.146
   -0.204
   -0.141
    0.008
    0.149
    0.193
    0.115
   -0.026
   -0.135
   -0.155
   -0.089
    0.032
    0.189
    0.360
    0.497
    0.539
    0.475
    0.362
    0.285
    0.268
    0.258
    0.182
    0.026
   -0.134
   -0.201
   -0.144
   -0.018
    0.100
    0.180
    0.243
    0.301
    0.322
    0.254
    0.093
   -0.099
   -0.232
   -0.248
   -0.149
    0.017
    0.176
    0.262
    0.239
    0.111
   -0.086
   -0.292
   -0.439
   -0.470
   -0.379
   -0.227
   -0.097
   -0.041
   -0.049
   -0.075
   -0.081
   -0.060
   -0.029
   -0.015
   -0.038
   -0.096
   -0.152
   -0.148
   -0.044
    0.135
    0.289
    0.302
    0.143
   -0.101
   -0.280
   -0.293
   -0.157
    0.026
    0.153
    0.178
    0.102
   -0.049
   -0.234
   -0.390
   -0.445
   -0.369
   -0.204
   -0.041
    0.060
    0.117
    0.194
    0.324
    0.469
    0.553
    0.529
    0.416
    0.282
    0.183
    0.127
    0.080
    0.013
   -0.065
   -0.116
   -0.102
   -0.022
    0.088
    0.170
    0.177
    0.098
   -0.038
   -0.171
   -0.235
   -0.192
   -0.057
    0.099
    0.183
    0.139
   -0.004
   -0.144
   -0.189
   -0.129
   -0.038
   -0.005
   -0.043
   -0.082
   -0.039
    0.085
    0.185
    0.145
   -0.040
   -0.244
   -0.314
   -0.212
   -0.042
    0.049
    0.011
   -0.079
   -0.108
   -0.037
    0.084
    0.187
    0.243
    0.242
    0.155
   -0.047
   -0.326
   -0.556
   -0.606
   -0.441
   -0.154
    0.114
    0.267
    0.286
    0.204
    0.073
   -0.056
   -0.145
   -0.184
   -0.184
   -0.157
   -0.107
   -0.047
    0.002
    0.035
    0.073
    0.136
    0.201
    0.218
    0.179
    0.148
    0.190
    0.292
    0.362
    0.325
    0.197
    0.055
   -0.053
   -0.141
   -0.222
   -0.248
   -0.151
    0.058
    0.249
    0.258
    0.028
   -0.337
   -0.644
   -0.758
   -0.681
   -0.523
   -0.388
   -0.300
   -0.219
   -0.112
    0.001
    0.069
    0.075
    0.054
    0.054
    0.082
    0.099
    0.071
    0.011
   -0.029
   -0.008
    0.068
    0.159
    0.229
    0.274
    0.301
    0.300
    0.223
    0.029
   -0.253
   -0.499
   -0.555
   -0.366
   -0.049
    0.180
    0.177
   -0.004
   -0.163
   -0.136
    0.054
    0.240
    0.285
    0.208
    0.130
    0.120
    0.132
    0.082
   -0.045
   -0.180
   -0.245
   -0.217
   -0.122
    0.006
    0.148
    0.289
    0.392
    0.414
    0.343
    0.222
    0.123
    0.086
    0.095
    0.101
    0.070
    0.000
   -0.085
   -0.150
   -0.157
   -0.093
    0.006
    0.069
    0.045
   -0.047
   -0.139
   -0.174
   -0.141
   -0.064
    0.016
    0.052
    0.008
   -0.096
   -0.178
   -0.151
   -0.011
    0.132
    0.139
   -0.040
   -0.306
   -0.489
   -0.484
   -0.322
   -0.122
    0.016
    0.092
    0.176
    0.318
    0.472
    0.523
    0.390
    0.120
   -0.131
   -0.222
   -0.135
    0.026
    0.149
    0.199
    0.206
    0.193
    0.129
   -0.011
   -0.178
   -0.270
   -0.230
   -0.123
   -0.075
   -0.142
   -0.241
   -0.223
   -0.009
    0.331
    0.623
    0.714
    0.576
    0.307
    0.038
   -0.161
   -0.304
   -0.408
   -0.447
   -0.382
   -0.230
   -0.077
    0.003
    0.022
    0.044
    0.094
    0.117
    0.045
   -0.094
   -0.175
   -0.085
    0.166
    0.430
    0.538
    0.427
    0.200
    0.045
    0.088
    0.283
    0.454
    0.459
    0.315
    0.160
    0.096
    0.089
    0.024
   -0.141
   -0.325
   -0.412
   -0.376
   -0.283
   -0.200
   -0.124
   -0.017
    0.110
    0.170
    0.079
   -0.154
   -0.407
   -0.539
   -0.486
   -0.317
   -0.172
   -0.147
   -0.208
   -0.230
   -0.110
    0.124
    0.338
    0.396
    0.261
    0.026
   -0.160
   -0.194
   -0.085
    0.055
    0.105
    0.023
   -0.121
   -0.205
   -0.155
   -0.008
    0.123
    0.150
    0.081
    0.004
    0.005
    0.094
    0.209
    0.272
    0.247
    0.151
    0.028
   -0.074
   -0.115
   -0.078
    0.022
    0.120
    0.130
    0.009
   -0.183
   -0.317
   -0.297
   -0.151
   -0.010
    0.027
   -0.011
   -0.003
    0.115
    0.270
    0.329
    0.245
    0.110
    0.040
    0.047
    0.037
   -0.065
   -0.220
   -0.306
   -0.249
   -0.084
    0.087
    0.194
    0.222
    0.171
    0.033
   -0.164
   -0.320
   -0.306
   -0.089
    0.202
    0.358
    0.261
   -0.020
   -0.277
   -0.331
   -0.160
    0.101
    0.270
    0.246
    0.067
   -0.143
   -0.264
   -0.252
   -0.139
   -0.009
    0.051
   -0.005
   -0.135
   -0.223
   -0.166
    0.019
    0.186
    0.202
    0.081
   -0.034
   -0.023
    0.098
    0.205
    0.182
    0.001
   -0.271
   -0.509
   -0.598
   -0.493
   -0.244
    0.030
    0.202
    0.204
    0.067
   -0.083
   -0.100
    0.067
    0.317
    0.458
    0.372
    0.131
   -0.075
   -0.122
   -0.055
   -0.001
   -0.021
   -0.061
   -0.047
    0.022
    0.085
    0.105
    0.114
    0.175
    0.303
    0.443
    0.512
    0.466
    0.326
    0.156
    0.010
   -0.088
   -0.152
   -0.203
   -0.259
   -0.322
   -0.388
   -0.443
   -0.481
   -0.498
   -0.488
   -0.422
   -0.267
   -0.032
    0.215
    0.382
    0.420
    0.342
    0.180
   -0.037
   -0.247
   -0.342
   -0.249
   -0.037
    0.105
    0.046
   -0.147
   -0.276
   -0.215
   -0.017
    0.174
    0.281
    0.328
    0.345
    0.289
    0.099
   -0.193
   -0.420
   -0.410
   -0.159
    0.129
    0.219
    0.053
   -0.208
   -0.347
   -0.283
   -0.104
    0.062
    0.175
    0.269
    0.360
    0.395
    0.307
    0.102
   -0.133
   -0.302
   -0.350
   -0.264
   -0.057
    0.221
    0.458
    0.539
    0.433
    0.226
    0.049
   -0.021
    0.007
    0.085
    0.162
    0.196
    0.158
    0.058
   -0.054
   -0.114
   -0.084
    0.039
    0.221
    0.389
    0.447
    0.342
    0.115
   -0.132
   -0.326
   -0.465
   -0.566
   -0.596
   -0.497
   -0.255
    0.052
    0.304
    0.406
    0.328
    0.108
   -0.157
   -0.352
   -0.403
   -0.324
   -0.191
   -0.064
    0.052
    0.176
    0.300
    0.367
    0.314
    0.134
   -0.100
   -0.281
   -0.342
   -0.298
   -0.229
   -0.196
   -0.193
   -0.172
   -0.120
   -0.072
   -0.058
   -0.042
    0.054
    0.263
    0.520
    0.713
    0.754
    0.631
    0.389
    0.106
   -0.130
   -0.238
   -0.184
   -0.018
    0.128
    0.113
   -0.107
   -0.415
   -0.603
   -0.536
   -0.264
    0.049
    0.284
    0.434
    0.498
    0.407
    0.110
   -0.276
   -0.495
   -0.367
    0.026
    0.401
    0.510
    0.309
   -0.064
   -0.413
   -0.588
   -0.526
   -0.266
    0.069
    0.336
    0.462
    0.456
    0.351
    0.149
   -0.127
   -0.369
   -0.409
   -0.159
    0.270
    0.614
    0.650
    0.373
    0.008
   -0.177
   -0.092
    0.119
    0.232
    0.159
   -0.008
   -0.120
   -0.140
   -0.137
   -0.169
   -0.185
   -0.087
    0.144
    0.407
    0.566
    0.560
    0.428
    0.236
    0.025
   -0.193
   -0.389
   -0.512
   -0.523
   -0.432
   -0.282
   -0.116
    0.039
    0.151
    0.160
    0.000
   -0.337
   -0.746
   -1.013
   -0.946
   -0.538
   -0.021
    0.296
    0.273
    0.041
   -0.155
   -0.180
   -0.091
   -0.013
    0.012
    0.037
    0.108
    0.187
    0.188
    0.084
   -0.045
   -0.080
    0.018
    0.156
    0.190
    0.068
   -0.112
   -0.182
   -0.056
    0.193
    0.385
    0.377
    0.180
   -0.026
   -0.036
    0.193
    0.478
    0.566
    0.372
    0.036
   -0.242
   -0.390
   -0.469
   -0.533
   -0.554
   -0.481
   -0.339
   -0.221
   -0.190
   -0.216
   -0.197
   -0.059
    0.170
    0.387
    0.511
    0.554
    0.569
    0.554
    0.427
    0.127
   -0.278
   -0.610
   -0.708
   -0.551
   -0.261
    0.018
    0.224
    0.375
    0.468
    0.428
    0.186
   -0.205
   -0.562
   -0.710
   -0.627
   -0.430
   -0.229
   -0.030
    0.209
    0.461
    0.614
    0.570
    0.325
   -0.026
   -0.350
   -0.533
   -0.510
   -0.285
    0.059
    0.373
    0.525
    0.492
    0.385
    0.331
    0.335
    0.282
    0.082
   -0.196
   -0.371
   -0.323
   -0.104
    0.119
    0.226
    0.208
    0.123
    0.018
   -0.092
   -0.180
   -0.197
   -0.106
    0.071
    0.258
    0.369
    0.347
    0.183
   -0.085
   -0.374
   -0.581
   -0.621
   -0.477
   -0.217
    0.039
    0.193
    0.222
    0.170
    0.118
    0.131
    0.220
    0.309
    0.280
    0.078
   -0.227
   -0.493
   -0.607
   -0.524
   -0.258
    0.104
    0.387
    0.401
    0.101
   -0.335
   -0.606
   -0.514
   -0.105
    0.385
    0.715
    0.788
    0.656
    0.422
    0.149
   -0.130
   -0.363
   -0.480
   -0.453
   -0.338
   -0.240
   -0.213
   -0.227
   -0.205
   -0.113
    0.017
    0.140
    0.250
    0.360
    0.441
    0.429
    0.303
    0.130
    0.010
   -0.028
   -0.043
   -0.103
   -0.221
   -0.351
   -0.433
   -0.401
   -0.201
    0.163
    0.584
    0.881
    0.906
    0.629
    0.154
   -0.325
   -0.600
   -0.541
   -0.184
    0.262
    0.531
    0.462
    0.110
   -0.298
   -0.522
   -0.483
   -0.303
   -0.152
   -0.068
    0.054
    0.293
    0.554
    0.642
    0.483
    0.226
    0.090
    0.132
    0.195
    0.095
   -0.171
   -0.411
   -0.445
   -0.293
   -0.152
   -0.171
   -0.283
   -0.272
   -0.016
    0.344
    0.508
    0.304
   -0.142
   -0.518
   -0.614
   -0.484
   -0.338
   -0.307
   -0.333
   -0.280
   -0.093
    0.155
    0.346
    0.410
    0.338
    0.162
   -0.047
   -0.197
   -0.214
   -0.097
    0.065
    0.149
    0.083
   -0.106
   -0.312
   -0.428
   -0.401
   -0.236
    0.021
    0.284
    0.432
    0.387
    0.209
    0.076
    0.134
    0.347
    0.523
    0.498
    0.286
    0.053
   -0.035
    0.075
    0.328
    0.607
    0.775
    0.725
    0.463
    0.152
    0.006
    0.120
    0.386
    0.594
    0.607
    0.446
    0.236
    0.099
    0.089
    0.181
    0.293
    0.334
    0.273
    0.174
    0.136
    0.194
    0.286
    0.323
    0.279
    0.187
    0.076
   -0.057
   -0.215
   -0.362
   -0.445
   -0.448
   -0.386
   -0.268
   -0.093
    0.100
    0.211
    0.161
   -0.020
   -0.206
   -0.304
   -0.320
   -0.294
   -0.213
   -0.039
    0.184
    0.301
    0.172
   -0.189
   -0.594
   -0.835
   -0.860
   -0.801
   -0.826
   -0.960
   -1.062
   -0.964
   -0.638
   -0.232
    0.057
    0.118
   -0.019
   -0.234
   -0.390
   -0.378
   -0.157
    0.202
    0.536
    0.675
    0.525
    0.100
   -0.476
   -0.997
   -1.252
   -1.169
   -0.882
   -0.622
   -0.513
   -0.508
   -0.494
   -0.434
   -0.381
   -0.384
   -0.420
   -0.432
   -0.384
   -0.273
   -0.095
    0.177
    0.552
    0.961
    1.262
    1.317
    1.064
    0.527
   -0.218
   -1.034
   -1.716
   -2.037
   -1.886
   -1.348
   -0.640
    0.045
    0.633
    1.110
    1.435
    1.550
    1.460
    1.267
    1.102
    1.021
    0.958
    0.794
    0.466
    0.037
   -0.331
   -0.486
   -0.403
   -0.183
    0.052
    0.267
    0.504
    0.773
    0.977
    0.992
    0.809
    0.579
    0.473
    0.530
    0.637
    0.645
    0.484
    0.192
   -0.120
   -0.330
   -0.366
   -0.258
   -0.134
   -0.141
   -0.344
   -0.668
   -0.924
   -0.927
   -0.635
   -0.199
    0.132
    0.204
    0.059
   -0.113
   -0.156
   -0.077
   -0.006
   -0.026
   -0.077
   -0.031
    0.136
    0.311
    0.390
    0.404
    0.450
    0.525
    0.502
    0.306
    0.029
   -0.156
   -0.192
   -0.184
   -0.252
   -0.384
   -0.449
   -0.346
   -0.126
    0.054
    0.076
   -0.039
   -0.175
   -0.214
   -0.091
    0.203
    0.597
    0.913
    0.947
    0.618
    0.048
   -0.538
   -0.963
   -1.165
   -1.135
   -0.887
   -0.490
   -0.100
    0.125
    0.144
    0.060
    0.003
    0.025
    0.096
    0.183
    0.301
    0.472
    0.658
    0.747
    0.615
    0.212
   -0.351
   -0.816
   -0.924
   -0.633
   -0.189
    0.063
   -0.001
   -0.174
   -0.141
    0.163
    0.476
    0.483
    0.148
   -0.257
   -0.445
   -0.383
   -0.277
   -0.329
   -0.544
   -0.741
   -0.744
   -0.560
   -0.365
   -0.328
   -0.449
   -0.562
   -0.494
   -0.213
    0.168
    0.509
    0.749
    0.905
    0.996
    1.018
    0.988
    0.952
    0.931
    0.889
    0.773
    0.579
    0.355
    0.146
   -0.040
   -0.201
   -0.293
   -0.254
   -0.074
    0.163
    0.310
    0.264
    0.048
   -0.196
   -0.310
   -0.232
   -0.020
    0.229
    0.478
    0.752
    1.034
    1.169
    0.932
    0.261
   -0.581
   -1.126
   -1.079
   -0.584
   -0.119
   -0.102
   -0.580
   -1.240
   -1.668
   -1.609
   -1.085
   -0.325
    0.379
    0.816
    0.936
    0.835
    0.681
    0.620
    0.702
    0.854
    0.939
    0.865
    0.645
    0.357
    0.046
   -0.285
   -0.612
   -0.858
   -0.964
   -0.973
   -0.994
   -1.074
   -1.134
   -1.075
   -0.919
   -0.796
   -0.763
   -0.688
   -0.386
    0.134
    0.615
    0.778
    0.583
    0.254
    0.048
    0.036
    0.089
    0.039
   -0.157
   -0.388
   -0.503
   -0.451
   -0.318
   -0.233
   -0.241
   -0.265
   -0.206
   -0.045
    0.153
    0.315
    0.408
    0.426
    0.355
    0.208
    0.066
    0.062
    0.266
    0.599
    0.846
    0.794
    0.371
   -0.279
   -0.849
   -1.032
   -0.722
   -0.092
    0.529
    0.893
    0.974
    0.896
    0.782
    0.680
    0.590
    0.493
    0.369
    0.197
   -0.023
   -0.255
   -0.438
   -0.525
   -0.531
   -0.519
   -0.522
   -0.491
   -0.350
   -0.108
    0.099
    0.132
   -0.006
   -0.149
   -0.140
    0.021
    0.194
    0.249
    0.166
    0.020
   -0.084
   -0.046
    0.184
    0.536
    0.795
    0.715
    0.229
   -0.450
   -0.946
   -0.974
   -0.527
    0.164
    0.806
    1.184
    1.218
    0.967
    0.606
    0.330
    0.207
    0.122
   -0.121
   -0.598
   -1.147
   -1.466
   -1.340
   -0.825
   -0.221
    0.158
    0.233
    0.185
    0.243
    0.435
    0.612
    0.674
    0.699
    0.790
    0.858
    0.653
    0.055
   -0.708
   -1.191
   -1.118
   -0.633
   -0.174
   -0.092
   -0.351
   -0.604
   -0.539
   -0.144
    0.330
    0.636
    0.717
    0.666
    0.568
    0.424
    0.218
   -0.004
   -0.139
   -0.124
   -0.007
    0.072
   -0.005
   -0.243
   -0.532
   -0.731
   -0.758
   -0.633
   -0.453
   -0.329
   -0.307
   -0.361
   -0.427
   -0.453
   -0.400
   -0.246
   -0.004
    0.260
    0.460
    0.561
    0.606
    0.662
    0.725
    0.698
    0.489
    0.119
   -0.259
   -0.461
   -0.383
   -0.068
    0.284
    0.425
    0.256
   -0.058
   -0.218
   -0.074
    0.227
    0.388
    0.265
   -0.001
   -0.155
   -0.091
    0.071
    0.169
    0.164
    0.120
    0.042
   -0.153
   -0.508
   -0.892
   -1.054
   -0.834
   -0.332
    0.135
    0.281
    0.079
   -0.241
   -0.425
   -0.392
   -0.233
   -0.055
    0.118
    0.306
    0.494
    0.630
    0.671
    0.616
    0.488
    0.303
    0.086
   -0.105
   -0.202
   -0.190
   -0.119
   -0.043
    0.033
    0.130
    0.246
    0.340
    0.359
    0.265
    0.054
   -0.221
   -0.450
   -0.515
   -0.379
   -0.130
    0.081
    0.150
    0.092
   -0.003
   -0.047
   -0.002
    0.121
    0.280
    0.416
    0.440
    0.258
   -0.156
   -0.691
   -1.128
   -1.273
   -1.103
   -0.766
   -0.454
   -0.270
   -0.205
   -0.206
   -0.229
   -0.255
   -0.265
   -0.246
   -0.209
   -0.189
   -0.220
   -0.314
   -0.446
   -0.562
   -0.580
   -0.403
    0.020
    0.624
    1.187
    1.419
    1.151
    0.504
   -0.148
   -0.435
   -0.274
    0.117
    0.445
    0.566
    0.489
    0.289
    0.078
   -0.010
    0.104
    0.334
    0.479
    0.412
    0.218
    0.109
    0.226
    0.503
    0.728
    0.721
    0.478
    0.172
    0.009
    0.066
    0.235
    0.320
    0.207
   -0.049
   -0.276
   -0.327
   -0.170
    0.114
    0.390
    0.517
    0.396
    0.036
   -0.401
   -0.659
   -0.539
   -0.067
    0.475
    0.710
    0.435
   -0.229
   -0.923
   -1.314
   -1.308
   -1.035
   -0.684
   -0.383
   -0.172
   -0.017
    0.155
    0.371
    0.537
    0.517
    0.325
    0.174
    0.242
    0.426
    0.436
    0.162
   -0.153
   -0.179
    0.107
    0.386
    0.329
   -0.084
   -0.581
   -0.851
   -0.779
   -0.480
   -0.156
    0.079
    0.238
    0.367
    0.441
    0.371
    0.078
   -0.421
   -0.990
   -1.406
   -1.454
   -1.061
   -0.372
    0.316
    0.722
    0.733
    0.432
    0.018
   -0.299
   -0.395
   -0.268
   -0.016
    0.226
    0.331
    0.231
   -0.041
   -0.327
   -0.434
   -0.302
   -0.066
    0.081
    0.079
    0.036
    0.080
    0.216
    0.344
    0.403
    0.428
    0.471
    0.512
    0.479
    0.358
    0.226
    0.173
    0.208
    0.250
