Origin Time       05/3/2012 07:41:05	
Lat.              28.7 N	
Long.             76.6 E	
Depth (Km)         14.0
Magnitude         4.9
 Region           Haryana-Delhi-Border-Region                                      
 Above details taken from IMD 
     
Station Code       IMD 
Station Lat.       28.685  N
Station Long.      77.216  E
Station Height(m)  184.0
Site Class        A   Vs30 between 700 m/sec to 1620 m/sec * 
Record Time        3/5/2012   7:40:33.000
Sampling Rate     200. Hz
 Record Duration  114.000 Sec.
 Direction         E-W (E positive)
Max. Acceleration   2.499 cm/sec**2
     
  * For reference see Site Classification link of website 
     
 Base Line Corrected and Low Pass Filtered (Cut Off at 35 Hz) Time History
 Acceleration data in cm/sec**2
    
[...]
    0.044
    0.026
   -0.159
   -0.389
   -0.497
   -0.435
   -0.316
   -0.277
   -0.329
   -0.353
   -0.244
   -0.038
    0.125
    0.139
    0.038
   -0.051
   -0.030
    0.093
    0.230
    0.283
    0.214
    0.049
   -0.134
   -0.241
   -0.213
   -0.060
    0.135
    0.263
    0.258
    0.133
   -0.037
   -0.171
   -0.230
   -0.228
   -0.202
   -0.170
   -0.115
   -0.012
    0.133
    0.269
    0.331
    0.292
    0.186
    0.078
    0.010
   -0.021
   -0.042
   -0.074
   -0.105
   -0.089
    0.006
    0.165
    0.317
    0.382
    0.331
    0.200
    0.062
   -0.022
   -0.031
    0.020
    0.084
    0.108
    0.061
   -0.043
   -0.150
   -0.195
   -0.152
   -0.054
    0.028
    0.030
   -0.058
   -0.171
   -0.218
   -0.164
   -0.074
   -0.051
   -0.133
   -0.242
   -0.247
   -0.094
    0.137
    0.286
    0.256
    0.098
   -0.032
   -0.018
    0.112
    0.223
    0.207
    0.092
   -0.002
    0.017
    0.124
    0.207
    0.174
    0.020
   -0.188
   -0.363
   -0.456
   -0.462
   -0.409
   -0.330
   -0.235
   -0.108
    0.065
    0.275
    0.487
    0.659
    0.747
    0.713
    0.539
    0.272
    0.020
   -0.115
   -0.121
   -0.085
   -0.118
   -0.258
   -0.443
   -0.577
   -0.608
   -0.548
   -0.428
   -0.254
   -0.019
    0.246
    0.458
    0.530
    0.443
    0.274
    0.140
    0.115
    0.187
    0.283
    0.332
    0.306
    0.228
    0.135
    0.053
   -0.017
   -0.079
   -0.124
   -0.142
   -0.144
   -0.166
   -0.233
   -0.325
   -0.375
   -0.327
   -0.180
    0.006
    0.156
    0.230
    0.236
    0.208
    0.167
    0.108
    0.020
   -0.099
   -0.230
   -0.335
   -0.367
   -0.295
   -0.142
    0.001
    0.025
   -0.117
   -0.360
   -0.564
   -0.606
   -0.455
   -0.172
    0.136
    0.374
    0.485
    0.454
    0.295
    0.052
   -0.197
   -0.357
   -0.366
   -0.244
   -0.091
   -0.008
   -0.017
   -0.060
   -0.074
   -0.060
   -0.065
   -0.118
   -0.186
   -0.201
   -0.133
   -0.023
    0.056
    0.074
    0.082
    0.164
    0.340
    0.523
    0.588
    0.482
    0.272
    0.074
   -0.047
   -0.109
   -0.155
   -0.183
   -0.157
   -0.068
    0.040
    0.119
    0.168
    0.223
    0.291
    0.313
    0.221
    0.029
   -0.141
   -0.143
    0.050
    0.298
    0.393
    0.243
   -0.050
   -0.289
   -0.352
   -0.267
   -0.119
    0.049
    0.242
    0.438
    0.550
    0.493
    0.270
   -0.009
   -0.193
   -0.199
   -0.059
    0.101
    0.160
    0.084
   -0.062
   -0.186
   -0.255
   -0.315
   -0.413
   -0.517
   -0.529
   -0.384
   -0.124
    0.123
    0.243
    0.225
    0.154
    0.130
    0.182
    0.253
    0.266
    0.205
    0.112
    0.020
   -0.077
   -0.198
   -0.316
   -0.363
   -0.302
   -0.164
   -0.028
    0.048
    0.052
    0.002
   -0.074
   -0.155
   -0.220
   -0.257
   -0.259
   -0.217
   -0.125
    0.010
    0.151
    0.241
    0.231
    0.112
   -0.074
   -0.239
   -0.286
   -0.146
    0.170
    0.539
    0.762
    0.690
    0.357
   -0.023
   -0.219
   -0.169
   -0.005
    0.097
    0.088
    0.045
    0.034
    0.005
   -0.141
   -0.403
   -0.628
   -0.637
   -0.393
   -0.043
    0.208
    0.263
    0.190
    0.130
    0.164
    0.252
    0.292
    0.212
    0.023
   -0.203
   -0.387
   -0.495
   -0.528
   -0.502
   -0.422
   -0.302
   -0.190
   -0.144
   -0.177
   -0.220
   -0.180
   -0.029
    0.155
    0.259
    0.236
    0.136
    0.052
    0.043
    0.107
    0.216
    0.342
    0.459
    0.522
    0.476
    0.300
    0.039
   -0.207
   -0.345
   -0.340
   -0.226
   -0.075
    0.038
    0.058
   -0.026
   -0.167
   -0.283
   -0.310
   -0.255
   -0.173
   -0.106
   -0.035
    0.087
    0.267
    0.450
    0.556
    0.556
    0.492
    0.433
    0.404
    0.363
    0.254
    0.078
   -0.104
   -0.231
   -0.297
   -0.329
   -0.332
   -0.266
   -0.100
    0.119
    0.263
    0.219
    0.000
   -0.235
   -0.314
   -0.197
   -0.012
    0.076
    0.022
   -0.073
   -0.087
   -0.007
    0.070
    0.051
   -0.059
   -0.173
   -0.206
   -0.142
   -0.030
    0.046
    0.015
   -0.130
   -0.316
   -0.414
   -0.328
   -0.071
    0.233
    0.424
    0.422
    0.280
    0.131
    0.088
    0.165
    0.284
    0.347
    0.305
    0.191
    0.086
    0.049
    0.075
    0.118
    0.132
    0.094
    0.002
   -0.136
   -0.301
   -0.460
   -0.568
   -0.567
   -0.415
   -0.133
    0.173
    0.353
    0.314
    0.087
   -0.197
   -0.393
   -0.424
   -0.298
   -0.076
    0.168
    0.372
    0.478
    0.440
    0.251
   -0.020
   -0.240
   -0.293
   -0.169
    0.013
    0.104
    0.044
   -0.100
   -0.213
   -0.237
   -0.207
   -0.187
   -0.188
   -0.154
   -0.029
    0.174
    0.377
    0.490
    0.473
    0.340
    0.141
   -0.059
   -0.187
   -0.181
   -0.037
    0.163
    0.277
    0.188
   -0.098
   -0.447
   -0.687
   -0.722
   -0.566
   -0.297
   -0.002
    0.250
    0.411
    0.464
    0.430
    0.338
    0.210
    0.071
   -0.023
   -0.004
    0.138
    0.315
    0.387
    0.270
    0.003
   -0.280
   -0.446
   -0.456
   -0.378
   -0.314
   -0.319
   -0.362
   -0.374
   -0.314
   -0.185
   -0.005
    0.208
    0.407
    0.503
    0.408
    0.127
   -0.202
   -0.386
   -0.337
   -0.134
    0.049
    0.095
    0.020
   -0.070
   -0.076
    0.030
    0.211
    0.381
    0.447
    0.361
    0.160
   -0.058
   -0.206
   -0.258
   -0.228
   -0.114
    0.103
    0.398
    0.654
    0.715
    0.522
    0.192
   -0.049
   -0.037
    0.206
    0.490
    0.600
    0.440
    0.077
   -0.318
   -0.578
   -0.619
   -0.458
   -0.184
    0.081
    0.258
    0.348
    0.398
    0.409
    0.310
    0.042
   -0.340
   -0.663
   -0.770
   -0.630
   -0.353
   -0.102
    0.001
   -0.089
   -0.332
   -0.615
   -0.805
   -0.828
   -0.704
   -0.515
   -0.334
   -0.206
   -0.161
   -0.224
   -0.372
   -0.523
   -0.579
   -0.508
   -0.378
   -0.297
   -0.334
   -0.483
   -0.680
   -0.835
   -0.868
   -0.743
   -0.505
   -0.256
   -0.096
   -0.059
   -0.105
   -0.165
   -0.181
   -0.137
   -0.049
    0.053
    0.144
    0.193
    0.166
    0.042
   -0.140
   -0.283
   -0.274
   -0.061
    0.320
    0.775
    1.209
    1.555
    1.767
    1.806
    1.655
    1.340
    0.944
    0.578
    0.349
    0.321
    0.480
    0.741
    0.998
    1.182
    1.269
    1.257
    1.158
    1.026
    0.946
    0.970
    1.040
    1.012
    0.758
    0.264
   -0.376
   -1.019
   -1.537
   -1.827
   -1.812
   -1.474
   -0.884
   -0.193
    0.428
    0.856
    1.057
    1.086
    1.052
    1.040
    1.041
    0.948
    0.644
    0.130
   -0.444
   -0.885
   -1.112
   -1.196
   -1.245
   -1.269
   -1.181
   -0.917
   -0.532
   -0.160
    0.104
    0.270
    0.408
    0.551
    0.648
    0.599
    0.331
   -0.117
   -0.594
   -0.916
   -1.005
   -0.951
   -0.916
   -0.969
   -1.003
   -0.853
   -0.471
    0.012
    0.406
    0.619
    0.686
    0.677
    0.596
    0.405
    0.093
   -0.275
   -0.584
   -0.737
   -0.714
   -0.569
   -0.384
   -0.213
   -0.063
    0.088
    0.248
    0.406
    0.551
    0.689
    0.835
    0.988
    1.120
    1.194
    1.168
    1.002
    0.675
    0.220
   -0.272
   -0.689
   -0.969
   -1.112
   -1.142
   -1.052
   -0.806
   -0.393
    0.120
    0.599
    0.920
    1.032
    0.960
    0.750
    0.428
    0.019
   -0.410
   -0.748
   -0.909
   -0.910
   -0.871
   -0.931
   -1.125
   -1.337
   -1.384
   -1.168
   -0.761
   -0.350
   -0.087
    0.022
    0.105
    0.294
    0.612
    0.945
    1.142
    1.133
    0.958
    0.699
    0.390
   -0.002
   -0.507
   -1.073
   -1.537
   -1.686
   -1.369
   -0.618
    0.336
    1.161
    1.597
    1.571
    1.186
    0.618
    0.014
   -0.518
   -0.861
   -0.887
   -0.544
    0.061
    0.671
    1.017
    0.987
    0.684
    0.339
    0.158
    0.201
    0.397
    0.635
    0.825
    0.889
    0.735
    0.294
   -0.373
   -1.045
   -1.443
   -1.429
   -1.108
   -0.747
   -0.573
   -0.630
   -0.793
   -0.925
   -0.979
   -0.974
   -0.894
   -0.643
   -0.122
    0.644
    1.459
    2.045
    2.220
    1.995
    1.536
    1.044
    0.639
    0.332
    0.076
   -0.163
   -0.367
   -0.497
   -0.536
   -0.505
   -0.435
   -0.338
   -0.206
   -0.045
    0.104
    0.182
    0.174
    0.148
    0.215
    0.417
    0.665
    0.807
    0.765
    0.611
    0.477
    0.406
    0.292
   -0.021
   -0.555
   -1.111
   -1.378
   -1.177
   -0.613
    0.006
    0.408
    0.541
    0.533
    0.527
    0.552
    0.537
    0.417
    0.197
   -0.051
   -0.224
   -0.244
   -0.121
    0.021
    0.005
   -0.265
   -0.709
   -1.123
   -1.325
   -1.264
   -1.021
   -0.733
   -0.516
   -0.439
   -0.507
   -0.661
   -0.790
   -0.805
   -0.706
   -0.592
   -0.569
   -0.653
   -0.743
   -0.698
   -0.442
   -0.023
    0.406
    0.668
    0.662
    0.427
    0.116
   -0.116
   -0.225
   -0.277
   -0.339
   -0.384
   -0.295
   -0.006
    0.391
    0.679
    0.681
    0.423
    0.130
    0.058
    0.299
    0.737
    1.176
    1.491
    1.651
    1.625
    1.321
    0.675
   -0.225
   -1.121
   -1.711
   -1.803
   -1.366
   -0.514
    0.535
    1.508
    2.130
    2.229
    1.810
    1.056
    0.232
   -0.440
   -0.852
   -0.991
   -0.916
   -0.730
   -0.562
   -0.512
   -0.581
   -0.670
   -0.656
   -0.502
   -0.285
   -0.113
    0.002
    0.171
    0.505
    0.954
    1.290
    1.267
    0.830
    0.181
   -0.366
   -0.606
   -0.571
   -0.462
   -0.444
   -0.492
   -0.427
   -0.105
    0.413
    0.898
    1.153
    1.168
    1.074
    0.967
    0.831
    0.626
    0.404
    0.293
    0.357
    0.498
    0.510
    0.247
   -0.244
   -0.767
   -1.161
   -1.438
   -1.728
   -2.083
   -2.367
   -2.362
   -1.972
   -1.303
   -0.555
    0.120
    0.648
    0.978
    1.067
    0.930
    0.690
    0.521
    0.522
    0.650
    0.759
    0.700
    0.404
   -0.089
   -0.643
   -1.083
   -1.284
   -1.211
   -0.911
   -0.452
    0.073
    0.523
    0.745
    0.688
    0.489
    0.391
    0.554
    0.923
    1.278
    1.381
    1.124
    0.581
   -0.023
   -0.450
   -0.607
   -0.594
   -0.577
   -0.594
   -0.502
   -0.123
    0.531
    1.190
    1.494
    1.263
    0.622
   -0.119
   -0.730
   -1.192
   -1.583
   -1.856
   -1.799
   -1.253
   -0.356
    0.475
    0.857
    0.704
    0.220
   -0.331
   -0.781
   -1.044
   -1.054
   -0.796
   -0.359
    0.095
    0.465
    0.757
    1.026
    1.270
    1.430
    1.452
    1.331
    1.106
    0.844
    0.642
    0.594
    0.706
    0.847
    0.816
    0.495
   -0.035
   -0.524
   -0.732
   -0.613
   -0.354
   -0.213
   -0.303
   -0.525
   -0.714
   -0.812
   -0.879
   -0.955
   -0.963
   -0.786
   -0.429
   -0.059
    0.133
    0.087
   -0.126
   -0.427
   -0.791
   -1.185
   -1.474
   -1.459
   -1.033
   -0.301
    0.475
    1.064
    1.406
    1.584
    1.672
    1.624
    1.328
    0.781
    0.188
   -0.150
   -0.079
    0.274
    0.635
    0.814
    0.820
    0.742
    0.581
    0.223
   -0.421
   -1.244
   -1.931
   -2.153
   -1.806
   -1.087
   -0.324
    0.285
    0.760
    1.207
    1.629
    1.897
    1.882
    1.583
    1.105
    0.544
   -0.074
   -0.734
   -1.328
   -1.657
   -1.564
   -1.087
   -0.448
    0.115
    0.496
    0.678
    0.615
    0.259
   -0.272
   -0.646
   -0.580
   -0.149
    0.243
    0.238
   -0.142
   -0.568
   -0.756
   -0.699
   -0.565
   -0.450
   -0.309
   -0.110
    0.026
   -0.092
   -0.514
   -1.055
   -1.426
   -1.430
   -1.062
   -0.433
    0.330
    1.126
    1.815
    2.177
    1.973
    1.137
   -0.074
   -1.166
   -1.728
   -1.727
   -1.481
   -1.327
   -1.326
   -1.286
   -1.018
   -0.530
    0.029
    0.526
    0.938
    1.306
    1.648
    1.938
    2.123
    2.146
    1.957
    1.547
    0.970
    0.321
   -0.324
   -0.927
   -1.454
   -1.843
   -2.039
   -2.027
   -1.818
   -1.412
   -0.808
   -0.099
    0.518
    0.891
    1.090
    1.350
    1.787
    2.208
    2.260
    1.782
    0.987
    0.277
   -0.110
   -0.277
   -0.494
   -0.869
   -1.232
   -1.334
   -1.128
   -0.795
   -0.528
   -0.349
   -0.168
    0.044
    0.220
    0.317
    0.404
    0.572
    0.804
    0.986
    1.045
    1.015
    0.949
    0.799
    0.441
   -0.171
   -0.880
   -1.397
   -1.497
   -1.162
   -0.567
    0.054
    0.516
    0.721
    0.660
    0.389
    0.003
   -0.394
   -0.704
   -0.868
   -0.890
   -0.815
   -0.663
   -0.399
   -0.010
    0.421
    0.730
    0.790
    0.608
    0.291
   -0.048
   -0.346
   -0.548
   -0.581
   -0.401
   -0.070
    0.239
    0.358
    0.266
    0.116
    0.093
    0.222
    0.342
    0.289
    0.109
    0.030
    0.185
    0.410
    0.377
   -0.018
   -0.468
   -0.519
   -0.039
    0.594
    0.823
    0.411
   -0.379
   -1.084
   -1.449
   -1.552
   -1.578
   -1.560
   -1.358
   -0.855
   -0.139
    0.521
    0.871
    0.862
    0.670
    0.550
    0.666
    1.007
    1.429
    1.747
    1.808
    1.533
    0.923
    0.087
   -0.757
   -1.339
   -1.482
   -1.224
   -0.791
   -0.429
   -0.244
   -0.187
   -0.173
   -0.180
   -0.225
   -0.285
   -0.269
   -0.108
    0.168
    0.447
    0.623
    0.634
    0.469
    0.166
   -0.161
   -0.332
   -0.213
    0.168
    0.587
    0.764
    0.547
    0.006
   -0.620
   -1.100
   -1.343
   -1.401
   -1.354
   -1.203
   -0.877
   -0.346
    0.277
    0.753
    0.888
    0.738
    0.620
    0.838
    1.360
    1.781
    1.660
    0.916
   -0.077
   -0.797
   -0.990
   -0.805
   -0.555
   -0.388
   -0.193
    0.165
    0.580
    0.732
    0.414
   -0.193
   -0.628
   -0.559
   -0.090
    0.356
    0.438
    0.156
   -0.250
   -0.577
   -0.811
   -1.032
   -1.228
   -1.227
   -0.799
    0.126
    1.307
    2.251
    2.499
    1.953
    0.953
    0.038
   -0.438
   -0.472
   -0.304
   -0.189
   -0.263
   -0.531
   -0.885
   -1.127
   -1.063
   -0.671
   -0.168
    0.180
    0.322
    0.452
    0.719
    0.980
    0.947
    0.554
    0.082
   -0.139
   -0.084
   -0.024
   -0.179
   -0.464
   -0.602
   -0.427
   -0.036
    0.332
    0.508
    0.488
    0.379
    0.265
    0.137
   -0.066
   -0.330
   -0.512
   -0.449
   -0.164
    0.090
    0.044
   -0.333
   -0.801
   -1.083
   -1.086
   -0.919
   -0.736
   -0.606
   -0.496
   -0.341
   -0.102
    0.208
    0.538
    0.827
    1.049
    1.245
    1.486
    1.766
    1.920
    1.700
    0.984
   -0.039
   -0.906
   -1.170
   -0.763
   -0.098
    0.238
   -0.024
   -0.598
   -0.914
   -0.637
    0.047
    0.623
    0.711
    0.328
   -0.222
   -0.666
   -0.954
   -1.177
   -1.371
   -1.438
   -1.246
   -0.768
   -0.135
    0.427
    0.700
    0.580
    0.157
   -0.304
   -0.517
   -0.368
    0.006
    0.349
    0.498
    0.492
    0.492
    0.603
    0.778
    0.882
    0.837
    0.721
    0.723
    0.969
    1.344
    1.501
    1.104
    0.146
   -1.000
   -1.841
   -2.127
   -1.933
   -1.483
   -0.940
   -0.380
    0.093
    0.328
    0.233
   -0.099
   -0.410
   -0.451
   -0.160
    0.286
    0.597
    0.572
    0.230
   -0.217
   -0.547
   -0.699
   -0.760
   -0.795
   -0.711
   -0.343
    0.297
    0.883
    0.986
    0.491
   -0.233
   -0.649
   -0.564
   -0.282
   -0.208
   -0.363
   -0.370
    0.072
    0.773
    1.196
    0.995
    0.364
   -0.155
   -0.170
    0.278
    0.857
    1.267
    1.423
    1.402
    1.294
    1.106
    0.763
    0.196
   -0.533
   -1.195
   -1.522
   -1.411
   -1.007
   -0.561
   -0.229
   -0.003
    0.186
    0.341
    0.387
    0.252
   -0.051
   -0.412
   -0.671
   -0.705
   -0.489
   -0.121
    0.239
    0.449
    0.466
    0.350
    0.180
   -0.048
   -0.414
   -0.940
   -1.461
   -1.672
   -1.341
   -0.496
    0.553
    1.375
    1.631
    1.263
    0.526
   -0.149
   -0.410
   -0.178
    0.365
    0.949
    1.403
    1.675
    1.726
    1.467
    0.855
    0.024
   -0.712
   -1.057
   -0.968
   -0.705
   -0.627
   -0.906
   -1.415
   -1.843
   -1.924
   -1.566
   -0.862
   -0.024
    0.688
    1.073
    1.082
    0.837
    0.527
    0.269
    0.075
   -0.059
   -0.061
    0.162
    0.560
    0.882
    0.838
    0.337
   -0.421
   -1.098
   -1.462
   -1.492
   -1.286
   -0.904
   -0.326
    0.439
    1.228
    1.727
    1.655
    0.984
    0.033
   -0.688
   -0.795
   -0.287
    0.471
    1.017
    1.108
    0.823
    0.424
    0.127
    0.008
    0.055
    0.259
    0.596
    0.943
    1.079
    0.824
    0.182
   -0.627
   -1.272
   -1.481
   -1.193
   -0.603
   -0.026
    0.327
    0.459
    0.488
    0.473
    0.357
    0.073
   -0.354
   -0.794
   -1.106
   -1.204
   -1.070
   -0.736
   -0.276
    0.193
    0.567
    0.813
    0.943
    0.926
    0.676
    0.185
   -0.363
   -0.674
   -0.585
   -0.231
    0.060
    0.044
   -0.233
   -0.522
   -0.620
   -0.544
   -0.451
   -0.425
   -0.401
   -0.283
   -0.099
    0.010
   -0.039
   -0.153
   -0.138
    0.134
    0.634
    1.224
    1.716
    1.910
    1.631
    0.833
   -0.316
   -1.452
   -2.178
   -2.268
   -1.790
   -1.044
   -0.349
    0.141
    0.435
    0.575
    0.588
    0.527
    0.489
    0.513
    0.526
    0.422
    0.190
   -0.076
   -0.290
   -0.431
   -0.492
   -0.412
   -0.130
    0.307
    0.716
    0.881
    0.693
    0.213
   -0.364
   -0.814
   -1.007
   -0.954
   -0.757
   -0.513
   -0.280
   -0.094
    0.035
    0.163
    0.413
    0.835
    1.277
    1.451
    1.228
    0.837
    0.676
    0.896
    1.192
    1.110
    0.534
   -0.180
   -0.571
   -0.542
   -0.406
   -0.506
   -0.845
   -1.121
   -1.081
   -0.768
   -0.448
   -0.354
   -0.512
   -0.770
   -0.922
   -0.812
   -0.403
    0.177
    0.662
    0.788
    0.496
   -0.002
   -0.392
   -0.518
   -0.461
   -0.390
   -0.357
   -0.274
   -0.066
    0.189
    0.297
    0.115
   -0.298
   -0.707
   -0.853
   -0.629
   -0.121
    0.459
    0.881
    0.991
    0.781
    0.395
    0.023
   -0.236
   -0.422
   -0.592
   -0.663
   -0.448
    0.114
    0.796
    1.224
    1.200
    0.869
    0.561
    0.483
    0.574
    0.634
    0.567
    0.456
    0.434
    0.481
    0.403
    0.051
   -0.430
   -0.660
   -0.392
    0.181
    0.536
    0.291
   -0.435
   -1.133
   -1.341
   -1.005
   -0.472
   -0.151
   -0.173
   -0.328
   -0.308
   -0.024
    0.282
    0.261
   -0.168
   -0.669
   -0.754
   -0.241
    0.573
    1.188
    1.330
    1.072
    0.648
    0.233
   -0.104
   -0.361
   -0.578
   -0.790
   -0.958
   -0.967
   -0.735
   -0.298
    0.240
    0.810
    1.376
    1.835
    1.971
    1.571
    0.662
   -0.385
   -1.048
   -1.034
   -0.508
    0.043
    0.219
    0.001
   -0.310
   -0.434
   -0.359
   -0.287
   -0.362
   -0.512
   -0.536
   -0.315
    0.063
    0.363
    0.377
    0.086
   -0.314
   -0.573
   -0.575
   -0.387
   -0.146
    0.072
    0.275
    0.464
    0.578
    0.512
    0.217
   -0.224
   -0.615
   -0.759
   -0.582
   -0.174
    0.251
    0.445
    0.259
   -0.232
   -0.736
   -0.946
   -0.765
   -0.350
    0.065
    0.375
    0.603
    0.759
    0.767
    0.568
    0.248
    0.016
    0.010
    0.157
    0.251
    0.158
   -0.073
   -0.294
   -0.405
   -0.378
   -0.205
    0.138
    0.603
    1.003
    1.088
    0.739
    0.113
   -0.443
   -0.639
   -0.451
   -0.091
    0.202
    0.352
    0.422
    0.457
    0.407
    0.231
    0.023
   -0.037
    0.119
    0.341
    0.389
    0.184
   -0.114
   -0.280
   -0.265
   -0.228
   -0.330
   -0.535
   -0.647
   -0.540
   -0.314
   -0.194
   -0.293
   -0.508
   -0.632
   -0.555
   -0.338
   -0.139
   -0.063
   -0.079
   -0.061
    0.082
    0.301
    0.409
    0.250
   -0.130
   -0.463
