Origin Time       07/09/2011 17:58:18
Lat.              28.6 N	
Long.             77.0 E	
Depth (Km)          8.0
Magnitude         4.2
 Region           DELHI-HARYANA(SONIPAT)-Haryana                                   
 Above details taken from IMD 
   
Station Code       IMD 
Station Lat.       28.685
Station Long.      77.216
Station Height(m)  184.0
Site Class        A   Vs30 between 700 m/sec to 1620 m/sec * 
Record Time        9/7/2011  ) 17:57:31.0
Sampling Rate     200. Hz
 Record Duration  110.000 Sec.
 Direction         Vert. (Up positive)
Max. Acceleration -10.121 cm/sec**2
     
  * For reference see Site Classification link of website 
     
 Base Line Corrected and Low Pass Filtered (Cut Off at 35 Hz) Time History
 Acceleration data in cm/sec**2
    
[...]
    0.000
    0.000
   -0.001
    0.000
    0.001
    0.001
    0.001
    0.001
    0.001
    0.001
    0.000
   -0.001
   -0.001
   -0.001
    0.000
    0.000
    0.000
   -0.001
   -0.001
   -0.001
    0.000
    0.000
    0.000
   -0.001
   -0.001
   -0.001
    0.000
    0.000
    0.001
    0.001
    0.001
    0.000
    0.000
    0.000
    0.001
    0.001
    0.001
    0.000
    0.000
    0.000
    0.000
    0.000
    0.000
   -0.001
   -0.001
    0.000
    0.000
    0.000
   -0.001
   -0.001
   -0.001
   -0.001
   -0.001
    0.000
    0.000
    0.000
    0.000
    0.000
    0.000
    0.000
   -0.001
   -0.001
   -0.001
   -0.001
   -0.002
   -0.002
   -0.001
    0.000
    0.001
    0.001
    0.001
    0.000
    0.000
    0.000
    0.000
    0.000
    0.000
    0.000
    0.000
    0.000
   -0.001
   -0.001
   -0.001
   -0.001
   -0.002
   -0.002
   -0.002
   -0.001
   -0.001
   -0.001
   -0.001
    0.000
    0.000
    0.000
    0.000
   -0.001
   -0.001
   -0.001
   -0.001
   -0.001
    0.000
    0.000
    0.000
    0.000
    0.000
   -0.001
    0.000
    0.000
    0.001
    0.000
    0.000
    0.000
    0.000
    0.000
   -0.001
   -0.001
   -0.001
    0.000
   -0.001
   -0.001
    0.000
    0.000
    0.000
    0.000
    0.000
   -0.001
   -0.001
   -0.001
   -0.001
    0.000
    0.000
    0.000
    0.000
   -0.001
   -0.001
   -0.002
   -0.002
   -0.002
   -0.002
   -0.002
   -0.001
   -0.001
    0.000
    0.000
    0.001
    0.001
    0.001
    0.000
   -0.001
   -0.001
   -0.001
   -0.001
    0.000
    0.000
    0.000
    0.000
   -0.001
   -0.001
   -0.001
   -0.001
    0.000
    0.000
    0.000
    0.000
   -0.001
   -0.001
   -0.001
    0.000
    0.000
    0.000
   -0.001
   -0.001
   -0.001
   -0.001
    0.000
    0.000
    0.000
   -0.001
   -0.001
   -0.002
   -0.002
   -0.001
    0.000
    0.001
    0.001
    0.001
    0.000
   -0.001
   -0.001
    0.000
    0.000
   -0.001
   -0.002
   -0.002
   -0.002
   -0.001
   -0.001
   -0.001
   -0.002
   -0.002
   -0.002
   -0.002
   -0.002
   -0.001
   -0.001
   -0.001
   -0.001
   -0.001
   -0.001
   -0.001
   -0.001
   -0.001
   -0.001
    0.000
    0.000
   -0.001
   -0.001
   -0.001
   -0.001
    0.000
   -0.001
   -0.001
   -0.001
   -0.001
   -0.001
    0.000
   -0.001
   -0.001
   -0.001
   -0.001
   -0.001
   -0.001
   -0.001
   -0.001
   -0.001
   -0.001
   -0.001
    0.000
    0.000
    0.000
   -0.001
   -0.001
   -0.001
   -0.001
   -0.001
   -0.001
   -0.001
   -0.001
    0.000
    0.000
   -0.001
   -0.002
   -0.002
   -0.002
   -0.001
   -0.001
   -0.001
    0.000
    0.000
    0.000
    0.000
    0.000
    0.000
   -0.001
   -0.001
   -0.001
   -0.001
    0.000
    0.000
    0.000
   -0.001
   -0.001
   -0.002
   -0.001
   -0.001
   -0.001
   -0.001
   -0.001
   -0.001
   -0.001
    0.000
    0.000
    0.000
   -0.001
   -0.001
   -0.001
    0.000
    0.000
    0.000
   -0.001
   -0.001
   -0.001
   -0.002
   -0.002
   -0.002
   -0.002
   -0.001
   -0.001
   -0.001
   -0.001
    0.000
    0.000
    0.000
    0.000
   -0.001
   -0.002
   -0.002
   -0.002
   -0.001
   -0.001
   -0.001
    0.000
    0.000
    0.000
   -0.001
   -0.001
   -0.001
   -0.001
   -0.001
   -0.001
    0.000
    0.001
    0.001
    0.001
    0.000
   -0.001
   -0.001
   -0.001
    0.000
    0.000
    0.000
    0.000
    0.000
    0.000
   -0.001
    0.000
    0.000
    0.000
    0.000
    0.000
    0.000
    0.000
    0.001
    0.001
    0.000
    0.000
    0.000
    0.000
    0.000
    0.001
    0.001
    0.001
    0.001
    0.000
    0.000
    0.000
    0.000
    0.000
    0.000
    0.000
    0.000
    0.001
    0.001
    0.001
    0.000
   -0.001
   -0.001
   -0.001
   -0.001
   -0.001
   -0.001
    0.000
    0.000
    0.000
    0.001
    0.000
    0.000
    0.000
    0.000
    0.000
    0.000
    0.000
    0.000
    0.001
    0.001
    0.001
    0.001
    0.001
    0.000
    0.000
    0.000
    0.000
    0.000
    0.000
    0.001
    0.002
    0.002
    0.002
    0.002
    0.001
    0.001
    0.001
    0.002
    0.002
    0.002
    0.001
    0.001
    0.000
    0.001
    0.001
    0.001
    0.001
    0.001
    0.001
    0.001
    0.001
    0.000
    0.000
    0.000
    0.000
    0.000
    0.000
    0.000
    0.000
    0.000
    0.000
    0.001
    0.001
    0.000
    0.000
   -0.001
   -0.001
    0.000
    0.001
    0.001
    0.001
    0.000
    0.000
    0.000
    0.001
    0.001
    0.001
    0.001
    0.001
    0.001
    0.001
    0.000
    0.001
    0.000
    0.000
    0.000
   -0.001
   -0.001
   -0.001
    0.000
    0.001
    0.001
    0.000
   -0.001
   -0.001
   -0.001
    0.000
    0.001
    0.001
    0.001
    0.001
    0.001
    0.001
    0.001
    0.000
    0.000
    0.001
    0.001
    0.000
    0.000
    0.000
    0.000
    0.000
    0.000
    0.000
    0.000
    0.000
    0.000
    0.000
    0.000
    0.000
   -0.001
   -0.001
   -0.001
    0.000
    0.000
    0.000
    0.000
    0.000
    0.000
    0.000
    0.000
    0.000
    0.000
   -0.001
    0.000
    0.000
    0.000
    0.000
    0.000
    0.000
    0.000
   -0.001
   -0.001
    0.000
    0.000
    0.000
   -0.001
   -0.001
   -0.001
   -0.001
   -0.001
   -0.001
   -0.001
   -0.001
    0.000
    0.001
    0.001
    0.000
    0.000
    0.000
    0.000
    0.000
    0.000
    0.000
    0.000
    0.000
    0.000
    0.000
    0.001
    0.001
    0.001
    0.000
    0.000
    0.000
    0.000
    0.000
    0.000
    0.000
    0.000
    0.000
    0.000
    0.000
    0.000
    0.000
   -0.001
    0.000
    0.000
    0.000
    0.000
    0.000
   -0.001
   -0.001
    0.000
    0.000
   -0.001
   -0.001
   -0.002
   -0.002
   -0.001
   -0.001
   -0.001
   -0.001
   -0.001
    0.000
    0.000
    0.000
    0.000
    0.000
    0.000
    0.000
   -0.001
   -0.001
   -0.001
   -0.001
   -0.001
   -0.001
   -0.001
    0.000
    0.000
   -0.001
   -0.002
   -0.002
   -0.002
   -0.002
   -0.002
   -0.001
    0.000
    0.000
    0.000
   -0.001
   -0.001
   -0.002
   -0.002
   -0.001
   -0.001
   -0.001
   -0.002
   -0.002
   -0.002
   -0.002
   -0.001
   -0.001
   -0.001
    0.000
    0.000
    0.000
    0.000
   -0.001
   -0.001
   -0.001
   -0.001
   -0.001
    0.000
    0.000
    0.000
    0.000
    0.000
    0.000
    0.000
    0.000
    0.000
    0.000
    0.000
   -0.001
   -0.001
   -0.002
   -0.002
   -0.002
   -0.002
   -0.001
    0.000
    0.000
    0.001
    0.000
    0.000
   -0.001
   -0.001
   -0.001
    0.000
    0.000
    0.000
    0.000
   -0.001
   -0.001
   -0.001
   -0.001
   -0.001
   -0.001
    0.000
   -0.001
   -0.001
   -0.001
   -0.001
    0.000
    0.000
   -0.001
   -0.002
   -0.002
   -0.002
   -0.001
   -0.001
   -0.001
   -0.001
   -0.001
    0.000
    0.000
    0.000
    0.000
    0.000
    0.000
    0.000
    0.000
    0.000
    0.000
    0.000
    0.000
    0.000
    0.000
   -0.001
   -0.001
    0.000
    0.000
    0.000
   -0.001
    0.000
    0.000
    0.000
    0.000
    0.000
    0.001
    0.001
    0.001
    0.001
    0.001
    0.001
    0.001
    0.000
   -0.001
   -0.001
   -0.001
    0.000
    0.000
    0.000
    0.000
   -0.001
   -0.001
   -0.002
   -0.002
   -0.002
   -0.002
   -0.001
   -0.002
   -0.001
   -0.001
    0.000
    0.000
   -0.001
   -0.002
   -0.001
   -0.001
    0.000
   -0.001
   -0.001
   -0.001
   -0.001
   -0.001
   -0.001
   -0.002
   -0.002
   -0.001
    0.000
    0.000
    0.000
    0.000
   -0.001
    0.000
    0.000
    0.000
    0.001
    0.001
    0.000
    0.000
    0.000
    0.000
    0.000
    0.000
   -0.001
   -0.001
    0.000
    0.000
    0.000
    0.000
    0.000
   -0.001
   -0.001
   -0.001
    0.000
    0.000
    0.000
   -0.001
   -0.001
    0.000
    0.000
   -0.001
   -0.001
   -0.001
   -0.001
   -0.001
   -0.001
   -0.002
   -0.002
   -0.002
   -0.001
   -0.001
   -0.001
   -0.001
    0.000
    0.000
    0.001
    0.000
    0.000
   -0.001
   -0.001
   -0.001
    0.000
    0.001
    0.001
    0.000
    0.000
    0.000
    0.000
    0.000
    0.000
    0.000
    0.000
    0.000
    0.000
   -0.001
   -0.001
   -0.001
   -0.002
   -0.001
   -0.001
   -0.001
   -0.001
   -0.001
   -0.001
    0.000
    0.000
    0.001
    0.000
    0.000
   -0.001
   -0.001
   -0.001
   -0.001
   -0.001
    0.000
    0.000
   -0.001
   -0.001
    0.000
    0.000
    0.000
    0.000
   -0.001
    0.000
    0.000
    0.000
    0.000
   -0.001
   -0.001
   -0.002
   -0.002
   -0.002
   -0.002
   -0.002
   -0.001
   -0.001
   -0.001
   -0.001
   -0.002
   -0.002
   -0.002
   -0.002
   -0.001
   -0.001
    0.000
    0.000
    0.000
   -0.001
   -0.002
   -0.002
   -0.001
   -0.001
    0.000
    0.000
   -0.001
   -0.002
   -0.001
   -0.001
   -0.001
   -0.001
   -0.001
   -0.001
    0.000
    0.000
    0.000
   -0.001
   -0.001
   -0.001
    0.000
    0.000
    0.000
    0.000
    0.000
   -0.001
   -0.001
   -0.001
   -0.001
    0.000
    0.000
    0.000
    0.000
    0.000
    0.000
   -0.001
   -0.001
    0.000
    0.000
    0.000
    0.000
    0.000
    0.000
    0.001
    0.000
    0.000
   -0.001
   -0.001
   -0.001
   -0.001
   -0.001
    0.000
    0.000
    0.000
    0.000
    0.000
    0.000
    0.000
    0.000
    0.000
    0.000
    0.000
    0.000
    0.000
   -0.001
   -0.001
   -0.001
   -0.001
    0.000
    0.000
    0.000
    0.000
    0.000
   -0.001
   -0.001
    0.000
   -0.001
   -0.001
   -0.001
   -0.001
   -0.001
   -0.002
   -0.002
   -0.002
   -0.001
   -0.001
    0.000
    0.000
    0.000
   -0.001
   -0.001
    0.000
    0.000
    0.000
    0.000
    0.000
    0.000
    0.000
    0.000
    0.001
    0.000
    0.000
    0.000
    0.000
    0.001
    0.001
    0.000
   -0.001
   -0.001
   -0.001
    0.000
    0.000
    0.000
    0.000
   -0.001
   -0.001
   -0.001
   -0.001
   -0.002
   -0.002
   -0.002
   -0.002
   -0.001
   -0.001
    0.000
    0.000
   -0.001
   -0.001
   -0.001
   -0.001
   -0.001
   -0.001
   -0.001
    0.000
    0.000
    0.000
    0.000
    0.000
    0.000
    0.000
    0.000
    0.000
    0.000
    0.000
    0.000
    0.000
   -0.001
    0.000
    0.001
    0.002
    0.002
   -0.003
   -0.008
   -0.008
    0.005
    0.028
    0.056
    0.084
    0.109
    0.118
    0.084
   -0.013
   -0.126
   -0.145
    0.004
    0.260
    0.453
    0.410
    0.081
   -0.347
   -0.461
    0.079
    1.180
    2.263
    2.642
    2.077
    0.981
   -0.009
   -0.698
   -1.427
   -2.433
   -3.289
   -3.225
   -2.046
   -0.563
    0.080
   -0.404
   -1.068
   -0.765
    0.478
    1.546
    1.666
    1.096
    0.324
   -0.623
   -1.613
   -1.899
   -0.951
    0.566
    1.408
    1.259
    0.982
    1.299
    1.755
    1.341
   -0.081
   -1.339
   -1.110
    0.545
    2.081
    2.024
    0.403
   -1.465
   -2.327
   -1.966
   -1.088
   -0.465
   -0.159
    0.351
    1.232
    1.770
    1.132
   -0.467
   -1.816
   -1.963
   -1.069
    0.075
    0.931
    1.381
    1.376
    0.854
   -0.001
   -0.731
   -1.069
   -1.198
   -1.237
   -0.792
    0.479
    2.111
    3.033
    2.522
    0.794
   -1.263
   -2.656
   -2.789
   -1.757
   -0.211
    1.149
    1.888
    1.865
    1.262
    0.517
   -0.010
   -0.290
   -0.487
   -0.684
   -0.812
   -0.778
   -0.594
   -0.417
   -0.380
   -0.390
   -0.235
    0.120
    0.521
    0.800
    0.815
    0.429
   -0.377
   -1.275
   -1.621
   -0.914
    0.769
    2.625
    3.282
    1.688
   -1.584
   -4.263
   -4.282
   -1.833
    0.884
    2.064
    1.998
    1.987
    2.184
    1.560
   -0.085
   -1.309
   -0.808
    0.797
    1.682
    0.901
   -0.770
   -1.847
   -1.653
   -0.805
   -0.312
   -0.420
   -0.596
   -0.459
   -0.292
   -0.492
   -0.853
   -0.789
   -0.163
    0.523
    0.779
    0.703
    0.738
    0.942
    0.879
    0.354
   -0.131
   -0.002
    0.500
    0.521
   -0.274
   -1.171
   -1.191
   -0.274
    0.527
    0.238
   -0.706
   -0.790
    0.632
    2.272
    2.339
    0.782
   -0.571
   -0.264
    1.026
    1.373
   -0.114
   -2.264
   -3.100
   -1.939
   -0.031
    0.905
    0.461
   -0.326
   -0.351
    0.392
    1.033
    0.899
    0.208
   -0.267
   -0.032
    0.677
    1.199
    1.014
    0.033
   -1.338
   -2.240
   -1.892
   -0.370
    1.261
    1.797
    0.895
   -0.658
   -1.492
   -0.716
    1.058
    1.936
    0.711
   -1.426
   -2.094
   -0.764
    0.492
   -0.197
   -1.921
   -2.097
    0.296
    3.440
    4.521
    2.350
   -1.640
   -4.608
   -4.612
   -2.001
    1.182
    3.039
    3.217
    2.645
    2.120
    1.472
    0.087
   -1.969
   -3.662
   -3.960
   -2.785
   -0.793
    1.375
    3.236
    4.164
    3.602
    1.711
   -0.527
   -1.972
   -2.036
   -1.019
    0.036
    0.129
   -0.745
   -1.580
   -1.562
   -1.121
   -1.261
   -1.840
   -1.370
    0.923
    3.521
    4.031
    1.960
   -0.721
   -1.866
   -1.262
   -0.088
    0.860
    1.464
    1.416
    0.372
   -1.026
   -1.460
   -0.631
    0.275
    0.220
   -0.364
   -0.436
    0.018
    0.086
   -0.395
   -0.298
    1.063
    2.440
    1.957
   -0.316
   -2.154
   -1.872
   -0.384
    0.222
   -0.324
   -0.231
    1.416
    2.864
    1.762
   -1.738
   -4.914
   -5.308
   -2.951
    0.092
    1.737
    1.377
    0.066
   -0.524
    0.227
    1.194
    0.925
   -0.530
   -1.853
   -2.244
   -2.174
   -2.273
   -2.213
   -1.241
    0.556
    2.174
    2.797
    2.387
    1.396
    0.564
    0.767
    2.249
    4.031
    4.711
    3.990
    3.006
    2.936
    3.644
    3.928
    2.936
    1.076
   -0.441
   -0.931
   -1.176
   -2.849
   -6.491
  -10.044
  -10.121
   -5.351
    1.646
    6.077
    5.217
    0.817
   -2.887
   -3.236
   -0.999
    1.239
    1.851
    1.141
    0.073
   -0.977
   -1.959
   -2.519
   -2.353
   -1.839
   -1.640
   -1.613
   -0.780
    1.136
    2.742
    2.392
    0.371
   -1.106
   -0.248
    2.390
    4.636
    5.050
    4.096
    3.095
    2.515
    1.583
   -0.489
   -3.249
   -5.051
   -4.281
   -0.942
    2.705
    3.798
    1.741
   -1.150
   -2.297
   -1.513
   -0.489
   -0.328
   -0.491
   -0.117
    0.425
    0.021
   -1.314
   -2.020
   -0.986
    0.757
    1.128
   -0.448
   -2.307
   -2.470
   -0.817
    0.882
    0.868
   -0.952
   -3.114
   -3.946
   -2.764
   -0.268
    1.978
    2.858
    2.683
    2.583
    2.965
    3.053
    2.158
    0.956
    0.799
    1.740
    2.155
    0.862
   -1.099
   -1.621
   -0.217
    1.191
    0.469
   -2.144
   -4.195
   -3.765
   -1.555
    0.099
    0.018
   -0.625
   -0.072
    1.664
    2.837
    2.177
    0.443
   -0.410
    0.552
    2.074
    2.073
    0.100
   -2.116
   -2.742
   -1.875
   -1.035
   -1.048
   -1.203
   -0.611
    0.353
    0.476
   -0.772
   -2.507
   -3.114
   -1.640
    1.267
    3.708
    4.040
    2.249
   -0.130
   -1.365
   -0.898
    0.389
    1.176
    0.969
    0.289
   -0.229
   -0.642
   -1.371
   -2.237
   -2.327
   -1.060
    0.980
    2.557
    2.897
    2.108
    0.790
   -0.468
   -1.281
   -1.470
   -1.051
   -0.312
    0.218
    0.195
   -0.085
   -0.024
    0.347
    0.250
   -0.666
   -1.468
   -0.902
    0.829
    1.963
    1.279
   -0.203
   -0.438
    0.922
    1.946
    0.844
   -1.699
   -3.269
   -2.475
   -0.348
    1.007
    0.593
   -0.818
   -1.803
   -1.723
   -0.945
    0.027
    1.093
    2.083
    2.282
    1.043
   -1.126
   -2.577
   -1.977
    0.316
    2.527
    3.219
    2.579
    1.771
    1.397
    1.138
    0.686
    0.294
    0.265
    0.369
    0.113
   -0.503
   -0.786
   -0.165
    0.835
    0.946
   -0.252
   -1.576
   -1.546
   -0.249
    0.669
    0.014
   -1.504
   -2.206
   -1.437
   -0.171
    0.202
   -0.723
   -2.060
   -2.445
   -1.211
    0.969
    2.601
    2.600
    1.185
   -0.345
   -0.856
   -0.436
   -0.078
   -0.389
   -0.930
   -0.887
   -0.155
    0.506
    0.428
   -0.136
   -0.453
   -0.387
   -0.510
   -1.115
   -1.577
   -0.959
    0.807
    2.583
    3.064
    2.093
    0.766
    0.261
    0.721
    1.242
    0.877
   -0.351
   -1.393
   -1.174
    0.229
    1.407
    0.923
   -1.051
   -2.697
   -2.424
   -0.615
    0.773
    0.439
   -0.800
   -1.130
   -0.008
    1.323
    1.501
    0.592
   -0.256
   -0.231
    0.464
    1.091
    1.116
    0.531
   -0.282
   -0.906
   -1.184
   -1.195
   -0.962
   -0.358
    0.539
    1.109
    0.596
   -0.936
   -2.318
   -2.267
   -0.681
    1.210
    2.009
    1.396
    0.198
   -0.616
   -0.770
   -0.503
    0.018
    0.798
    1.612
    1.840
    1.028
   -0.397
   -1.309
   -0.992
    0.032
    0.435
   -0.487
   -1.786
   -1.667
    0.435
    2.942
    3.666
    2.103
   -0.182
   -1.419
   -1.325
   -0.751
   -0.314
    0.094
    0.706
    1.297
    1.321
    0.495
   -0.806
   -1.689
   -1.432
   -0.271
    0.639
    0.287
   -1.220
   -2.779
   -3.257
   -2.350
   -0.643
    0.925
    1.671
    1.504
    0.809
    0.001
   -0.720
   -1.195
   -1.161
   -0.483
    0.599
    1.605
    2.139
    2.047
    1.432
    0.644
    0.057
   -0.234
   -0.358
   -0.303
    0.164
    1.036
    1.672
    1.199
   -0.522
   -2.436
   -3.067
   -1.930
   -0.089
    0.871
    0.434
   -0.502
   -0.895
   -0.719
   -0.600
   -0.716
   -0.546
    0.285
    1.293
    1.592
    1.024
    0.413
    0.475
    0.885
    0.798
    0.027
   -0.702
   -0.692
   -0.168
    0.035
   -0.410
   -0.868
   -0.546
    0.514
    1.451
    1.452
    0.555
   -0.362
   -0.400
    0.514
    1.539
    1.664
    0.586
   -1.028
   -2.108
   -2.051
   -1.099
    0.013
    0.706
    0.842
    0.589
    0.226
    0.004
   -0.024
   -0.056
   -0.307
   -0.684
   -0.806
   -0.480
   -0.082
   -0.221
   -0.953
   -1.537
   -1.234
   -0.179
    0.810
    1.139
    0.901
    0.560
    0.422
    0.470
    0.593
    0.759
    0.870
    0.627
   -0.122
   -0.954
   -1.164
   -0.580
    0.161
    0.248
   -0.447
   -1.172
   -1.006
    0.140
    1.348
    1.588
    0.766
   -0.172
   -0.262
    0.433
    1.013
    0.846
    0.147
   -0.513
   -0.879
   -1.020
   -0.962
   -0.619
   -0.028
    0.537
    0.784
    0.667
    0.407
    0.243
    0.186
    0.062
   -0.183
   -0.285
    0.036
    0.598
    0.855
    0.539
   -0.075
   -0.579
   -0.836
   -0.874
   -0.624
   -0.001
    0.751
    1.078
    0.664
   -0.146
   -0.637
   -0.450
    0.074
    0.268
   -0.140
   -0.757
   -0.978
   -0.655
   -0.277
   -0.438
   -1.123
   -1.620
   -1.272
   -0.241
    0.640
    0.764
    0.400
    0.366
    0.995
    1.614
    1.255
   -0.106
   -1.319
   -1.279
   -0.180
    0.721
    0.519
   -0.403
   -0.862
   -0.175
    1.057
    1.516
    0.562
   -0.991
   -1.621
   -0.629
    1.161
    2.271
    2.027
    0.996
    0.096
   -0.351
   -0.558
   -0.641
   -0.504
   -0.218
   -0.112
   -0.335
   -0.592
   -0.501
   -0.128
    0.053
   -0.232
   -0.682
   -0.813
   -0.552
   -0.220
   -0.053
    0.040
    0.275
    0.669
    0.919
    0.682
    0.039
   -0.457
   -0.298
    0.400
    0.936
    0.727
   -0.085
   -0.810
   -0.898
   -0.403
    0.114
    0.116
   -0.395
   -0.897
   -0.897
   -0.426
    0.032
    0.065
   -0.182
   -0.119
    0.576
    1.401
    1.445
    0.446
   -0.793
   -1.207
   -0.573
    0.346
    0.682
    0.294
   -0.290
   -0.496
   -0.179
    0.385
    0.754
    0.615
    0.040
   -0.536
   -0.673
   -0.244
    0.547
    1.290
    1.531
    1.023
   -0.012
   -0.926
   -1.119
   -0.584
    0.079
    0.294
    0.083
   -0.062
