Origin Time       07/09/2011 17:58:18
Lat.              28.6 N	
Long.             77.0 E	
Depth (Km)          8.0
Magnitude         4.2
 Region           DELHI-HARYANA(SONIPAT)-Haryana                                   
 Above details taken from IMD 
     
Station Code       IMD 
Station Lat.       28.685  N
Station Long.      77.216  E
Station Height(m)  184.0
Site Class        A   Vs30 between 700 m/sec to 1620 m/sec * 
Record Time        9/7/2011  ) 17:57:31.0
Sampling Rate     200. Hz
 Record Duration  110.000 Sec.
 Direction         E-W (E positive)
Max. Acceleration -15.823 cm/sec**2
     
  * For reference see Site Classification link of website 
     
 Base Line Corrected and Low Pass Filtered (Cut Off at 35 Hz) Time History
 Acceleration data in cm/sec**2
    
[...]
    0.001
    0.001
    0.000
    0.000
   -0.001
    0.000
    0.000
    0.000
    0.000
    0.000
    0.000
    0.000
    0.000
    0.000
   -0.001
   -0.001
   -0.001
    0.000
    0.000
    0.001
    0.000
    0.000
    0.000
    0.000
    0.000
    0.000
    0.000
    0.000
    0.000
    0.001
    0.001
    0.001
    0.000
    0.000
    0.000
   -0.001
   -0.001
    0.000
    0.000
    0.000
    0.000
    0.000
    0.000
    0.000
    0.000
    0.000
    0.000
    0.000
    0.000
    0.000
    0.000
    0.000
    0.001
    0.001
    0.000
    0.000
    0.000
    0.000
    0.000
    0.000
    0.000
   -0.001
   -0.001
   -0.001
    0.000
    0.000
    0.000
    0.000
   -0.001
   -0.001
   -0.001
    0.000
    0.001
    0.001
    0.001
    0.000
    0.000
    0.000
    0.000
    0.000
   -0.001
   -0.001
    0.000
    0.001
    0.001
    0.000
    0.000
   -0.001
   -0.001
    0.000
    0.000
    0.000
    0.000
   -0.001
   -0.001
   -0.001
   -0.001
   -0.001
   -0.001
   -0.001
    0.000
    0.001
    0.001
    0.001
    0.001
    0.000
    0.000
    0.000
    0.001
    0.001
    0.001
    0.001
    0.000
    0.000
    0.000
    0.001
    0.001
    0.000
    0.000
    0.000
    0.000
    0.000
    0.000
    0.000
    0.000
    0.000
    0.000
   -0.001
   -0.001
   -0.001
    0.000
    0.000
    0.000
    0.001
    0.001
    0.001
    0.001
    0.001
    0.000
    0.000
    0.000
    0.000
    0.001
    0.000
    0.000
   -0.001
   -0.001
    0.000
    0.000
    0.000
   -0.001
   -0.001
   -0.001
    0.000
    0.000
    0.000
    0.000
    0.000
    0.000
   -0.001
   -0.001
   -0.001
   -0.001
    0.000
    0.000
    0.000
    0.001
    0.001
    0.001
    0.001
    0.001
    0.001
    0.000
    0.000
    0.001
    0.001
    0.001
    0.001
    0.000
    0.000
    0.001
    0.001
    0.001
    0.001
    0.001
    0.001
    0.002
    0.002
    0.002
    0.001
    0.001
    0.001
    0.002
    0.002
    0.002
    0.001
    0.001
    0.000
    0.000
    0.000
    0.000
    0.000
    0.000
    0.000
    0.000
    0.000
    0.000
    0.000
    0.000
    0.000
    0.000
    0.000
    0.000
    0.000
   -0.001
   -0.001
   -0.001
   -0.001
    0.000
    0.000
    0.001
    0.000
   -0.001
   -0.001
   -0.001
    0.000
    0.000
    0.000
    0.000
    0.000
    0.000
    0.000
    0.000
    0.000
    0.000
    0.000
    0.000
    0.000
    0.000
    0.000
    0.001
    0.001
    0.001
    0.000
    0.000
    0.001
    0.002
    0.002
    0.002
    0.001
    0.001
    0.000
    0.000
    0.000
    0.000
    0.000
    0.000
    0.000
    0.000
   -0.001
   -0.001
    0.000
    0.001
    0.001
    0.001
    0.001
    0.000
   -0.001
   -0.001
    0.000
    0.000
    0.001
    0.001
    0.001
    0.000
    0.000
   -0.001
   -0.001
    0.000
    0.000
    0.000
    0.000
    0.000
    0.000
    0.000
    0.000
    0.000
    0.000
    0.000
    0.000
    0.000
    0.000
    0.001
    0.001
    0.001
    0.001
    0.001
    0.000
    0.001
    0.001
    0.001
    0.000
    0.000
    0.000
    0.000
    0.000
    0.001
    0.001
    0.001
    0.001
    0.001
    0.001
    0.000
    0.000
    0.000
    0.000
    0.000
    0.000
   -0.001
   -0.001
   -0.001
    0.000
    0.000
    0.001
    0.001
    0.001
    0.000
    0.000
    0.000
    0.000
    0.000
    0.000
    0.000
    0.000
    0.001
    0.001
    0.001
    0.000
    0.000
   -0.001
    0.000
    0.000
    0.000
    0.000
    0.001
    0.001
    0.001
    0.001
    0.000
   -0.001
   -0.001
    0.000
    0.001
    0.001
    0.001
    0.000
    0.000
    0.000
    0.001
    0.001
    0.001
    0.001
    0.001
    0.001
    0.001
    0.001
    0.001
    0.001
    0.001
    0.001
    0.001
    0.000
    0.000
    0.000
    0.000
    0.000
    0.000
    0.000
    0.000
    0.000
    0.000
    0.000
    0.000
    0.001
    0.001
    0.001
    0.000
    0.000
    0.000
    0.001
    0.002
    0.001
    0.001
    0.000
   -0.001
   -0.001
    0.000
    0.001
    0.001
    0.001
    0.000
   -0.001
   -0.001
   -0.001
   -0.001
   -0.001
   -0.001
    0.000
    0.000
    0.000
    0.000
    0.000
    0.000
   -0.001
   -0.001
   -0.001
   -0.001
   -0.001
   -0.001
    0.000
   -0.001
   -0.001
   -0.001
    0.000
    0.000
    0.001
    0.001
    0.001
    0.001
    0.000
    0.000
    0.000
    0.000
    0.000
    0.000
    0.000
    0.001
    0.001
    0.001
    0.000
    0.000
    0.000
    0.000
    0.000
    0.000
    0.000
    0.001
    0.001
    0.001
    0.001
    0.000
    0.000
    0.000
    0.000
    0.000
    0.000
    0.000
    0.000
    0.000
    0.002
    0.002
    0.002
    0.001
    0.000
    0.000
    0.000
    0.001
    0.001
    0.001
    0.000
    0.000
    0.001
    0.001
    0.001
    0.001
    0.000
    0.000
    0.000
    0.000
    0.000
    0.000
    0.000
    0.000
    0.000
    0.000
    0.000
    0.000
    0.000
    0.001
    0.001
    0.001
    0.001
    0.000
    0.000
    0.000
    0.000
    0.000
    0.000
    0.001
    0.001
    0.001
    0.001
    0.001
    0.001
    0.000
    0.000
    0.000
    0.001
    0.001
    0.001
    0.002
    0.001
    0.001
    0.001
    0.001
    0.001
    0.001
    0.001
    0.000
    0.000
    0.000
    0.000
    0.001
    0.001
    0.001
    0.001
    0.002
    0.002
    0.001
    0.001
    0.001
    0.000
    0.000
    0.000
    0.001
    0.001
    0.001
    0.000
    0.000
    0.000
    0.000
    0.001
    0.001
    0.002
    0.001
    0.001
    0.001
    0.001
    0.001
    0.001
    0.001
    0.000
   -0.001
   -0.001
   -0.001
   -0.001
   -0.001
    0.000
    0.000
   -0.001
   -0.001
    0.000
    0.001
    0.001
    0.001
    0.000
    0.000
    0.000
    0.000
    0.000
    0.000
   -0.001
   -0.001
   -0.001
   -0.001
    0.000
    0.000
    0.000
    0.000
    0.000
    0.000
    0.000
    0.000
    0.001
    0.001
    0.002
    0.002
    0.001
    0.001
    0.000
    0.000
    0.000
    0.000
    0.000
    0.001
    0.001
    0.002
    0.002
    0.002
    0.001
    0.000
    0.000
    0.000
    0.000
    0.000
    0.000
    0.000
    0.000
    0.000
    0.000
    0.000
    0.000
    0.000
    0.000
    0.001
    0.001
    0.001
    0.002
    0.002
    0.001
    0.000
   -0.001
   -0.001
   -0.001
    0.000
    0.000
    0.001
    0.001
    0.001
    0.001
    0.001
    0.001
    0.001
    0.001
    0.002
    0.001
    0.001
    0.001
    0.001
    0.001
    0.001
    0.001
    0.001
    0.001
    0.001
    0.001
    0.001
    0.002
    0.002
    0.002
    0.001
    0.001
    0.000
    0.000
    0.000
    0.000
    0.000
    0.000
    0.001
    0.002
    0.002
    0.001
    0.000
    0.000
   -0.001
   -0.001
   -0.002
   -0.001
   -0.001
    0.000
    0.000
    0.000
    0.000
   -0.001
   -0.001
   -0.001
   -0.001
   -0.001
    0.000
    0.000
    0.000
    0.000
    0.000
    0.000
    0.000
    0.000
    0.001
    0.001
    0.001
    0.000
    0.000
    0.000
    0.001
    0.001
    0.000
    0.000
    0.000
    0.001
    0.001
    0.002
    0.001
    0.000
   -0.001
   -0.001
    0.000
    0.001
    0.001
    0.001
    0.000
    0.000
    0.001
    0.001
    0.000
   -0.001
   -0.001
   -0.001
   -0.001
   -0.001
    0.000
    0.000
    0.000
    0.000
    0.000
    0.000
    0.000
   -0.001
   -0.002
   -0.002
   -0.002
   -0.002
   -0.001
   -0.001
    0.000
    0.000
    0.000
   -0.001
   -0.002
   -0.002
   -0.002
   -0.002
   -0.001
    0.000
    0.001
    0.001
    0.001
    0.001
    0.001
    0.000
    0.000
    0.000
    0.000
    0.000
    0.000
    0.000
    0.000
    0.000
    0.000
    0.000
    0.000
    0.000
    0.000
    0.000
    0.000
    0.000
    0.000
    0.000
    0.000
    0.000
    0.000
    0.001
    0.001
    0.001
    0.001
    0.001
    0.001
    0.001
    0.001
    0.000
    0.000
   -0.001
   -0.001
   -0.001
   -0.001
   -0.001
   -0.001
   -0.001
   -0.001
   -0.001
   -0.001
   -0.001
   -0.001
   -0.001
    0.000
    0.000
    0.000
    0.000
    0.000
    0.000
    0.000
    0.000
   -0.001
   -0.001
   -0.001
   -0.001
    0.000
    0.000
    0.000
    0.000
    0.000
    0.000
   -0.001
   -0.001
   -0.001
   -0.001
    0.000
    0.000
    0.001
    0.001
    0.001
    0.001
    0.001
    0.001
    0.001
    0.000
    0.000
    0.001
    0.001
    0.001
    0.001
    0.001
    0.001
    0.000
   -0.001
   -0.001
    0.000
    0.000
    0.001
    0.001
    0.001
    0.000
    0.000
    0.000
    0.000
    0.000
    0.000
    0.000
    0.000
    0.000
    0.000
   -0.001
   -0.001
   -0.001
   -0.001
   -0.001
   -0.001
    0.000
    0.001
    0.001
    0.001
    0.001
    0.000
    0.000
    0.000
    0.000
   -0.001
   -0.001
   -0.001
   -0.001
    0.000
    0.001
    0.001
    0.001
    0.000
   -0.001
   -0.001
   -0.001
    0.000
    0.000
    0.001
    0.001
    0.001
    0.001
    0.000
    0.000
    0.000
    0.000
    0.000
    0.001
    0.001
    0.001
    0.001
    0.001
    0.000
    0.000
    0.000
    0.000
    0.001
    0.002
    0.002
    0.002
    0.001
    0.000
    0.000
    0.000
    0.000
    0.001
    0.001
    0.001
    0.000
    0.000
    0.000
    0.000
    0.000
    0.000
    0.000
    0.000
    0.000
    0.000
    0.000
   -0.001
   -0.001
    0.000
    0.000
    0.000
   -0.001
   -0.001
   -0.001
   -0.001
   -0.001
    0.000
    0.000
    0.000
    0.000
    0.000
    0.000
    0.000
    0.000
    0.000
   -0.001
   -0.001
   -0.001
   -0.001
   -0.001
   -0.001
   -0.001
    0.000
    0.000
    0.000
    0.000
    0.000
    0.000
    0.000
    0.000
    0.000
    0.000
   -0.001
   -0.002
   -0.002
   -0.001
   -0.001
    0.000
    0.000
    0.000
    0.000
    0.000
    0.000
    0.000
    0.000
    0.000
    0.000
    0.001
    0.000
    0.000
    0.000
    0.000
    0.000
    0.000
    0.000
    0.001
    0.001
    0.001
    0.001
    0.001
    0.000
    0.000
    0.000
    0.001
    0.001
    0.002
    0.001
    0.001
    0.000
    0.000
    0.001
    0.001
    0.002
    0.001
   -0.001
   -0.003
   -0.002
    0.001
    0.008
    0.014
    0.019
    0.023
    0.023
    0.013
   -0.013
   -0.038
   -0.032
    0.024
    0.099
    0.133
    0.081
   -0.050
   -0.174
   -0.156
    0.078
    0.439
    0.693
    0.629
    0.263
   -0.145
   -0.319
   -0.242
   -0.160
   -0.293
   -0.556
   -0.644
   -0.403
   -0.060
    0.006
   -0.289
   -0.588
   -0.465
    0.063
    0.557
    0.667
    0.438
    0.079
   -0.297
   -0.559
   -0.456
    0.064
    0.581
    0.606
    0.210
   -0.040
    0.200
    0.643
    0.745
    0.329
   -0.248
   -0.462
   -0.148
    0.310
    0.353
   -0.151
   -0.750
   -0.872
   -0.405
    0.223
    0.490
    0.265
   -0.132
   -0.300
   -0.168
   -0.012
   -0.075
   -0.269
   -0.345
   -0.209
    0.042
    0.281
    0.389
    0.255
   -0.087
   -0.394
   -0.413
   -0.168
    0.045
    0.028
   -0.044
    0.169
    0.711
    1.158
    1.005
    0.221
   -0.651
   -0.969
   -0.538
    0.248
    0.753
    0.604
   -0.044
   -0.648
   -0.688
   -0.090
    0.648
    0.843
    0.284
   -0.514
   -0.826
   -0.461
    0.119
    0.371
    0.162
   -0.266
   -0.571
   -0.482
    0.032
    0.607
    0.679
    0.042
   -0.855
   -1.277
   -0.895
   -0.055
    0.652
    0.909
    0.693
    0.099
   -0.584
   -0.846
   -0.390
    0.422
    0.853
    0.616
    0.155
   -0.002
    0.102
    0.123
    0.101
    0.402
    0.958
    1.047
    0.167
   -1.163
   -1.817
   -1.242
   -0.051
    0.597
    0.178
   -0.674
   -0.908
   -0.266
    0.436
    0.343
   -0.354
   -0.704
   -0.241
    0.503
    0.788
    0.556
    0.323
    0.403
    0.587
    0.591
    0.482
    0.474
    0.504
    0.309
   -0.133
   -0.498
   -0.475
   -0.106
    0.222
    0.131
   -0.318
   -0.586
   -0.252
    0.409
    0.676
    0.220
   -0.533
   -0.970
   -0.979
   -0.877
   -0.875
   -0.808
   -0.377
    0.456
    1.319
    1.680
    1.292
    0.464
   -0.185
   -0.282
   -0.001
    0.203
    0.070
   -0.277
   -0.529
   -0.499
   -0.234
    0.079
    0.237
    0.112
   -0.216
   -0.451
   -0.291
    0.249
    0.768
    0.781
    0.191
   -0.506
   -0.609
   -0.036
    0.371
   -0.207
   -1.358
   -1.753
   -0.834
    0.384
    0.555
   -0.336
   -1.022
   -0.498
    0.913
    1.968
    1.681
    0.224
   -1.132
   -1.154
    0.170
    1.617
    1.925
    0.907
   -0.528
   -1.263
   -0.841
    0.276
    1.156
    1.167
    0.420
   -0.425
   -0.732
   -0.373
    0.229
    0.467
    0.073
   -0.650
   -1.097
   -0.854
    0.001
    0.941
    1.281
    0.606
   -0.798
   -1.950
   -1.965
   -0.970
    0.015
    0.255
    0.073
    0.207
    0.715
    0.931
    0.419
   -0.404
   -0.737
   -0.276
    0.567
    1.201
    1.332
    0.940
    0.152
   -0.696
   -1.117
   -0.861
   -0.209
    0.264
    0.209
   -0.239
   -0.638
   -0.564
    0.135
    1.207
    2.026
    1.932
    0.780
   -0.791
   -1.770
   -1.580
   -0.539
    0.493
    0.944
    0.856
    0.463
   -0.156
   -0.854
   -1.203
   -0.878
   -0.128
    0.378
    0.170
   -0.677
   -1.657
   -2.076
   -1.378
    0.335
    2.069
    2.576
    1.461
   -0.353
   -1.406
   -1.023
    0.214
    1.419
    2.584
    4.419
    6.777
    7.649
    4.676
   -1.897
   -8.505
  -11.330
   -9.809
   -6.533
   -4.215
   -3.700
   -4.398
   -5.219
   -4.902
   -2.529
    1.732
    6.592
   10.228
   10.978
    8.455
    4.598
    2.564
    3.355
    4.136
    1.374
   -4.393
   -8.180
   -5.527
    2.592
   10.147
   11.191
    4.537
   -5.931
  -14.258
  -15.823
   -9.978
   -1.036
    4.499
    3.704
   -0.011
   -1.107
    1.829
    5.284
    5.428
    2.147
   -1.204
   -1.122
    2.914
    8.091
   10.847
    9.764
    5.904
    0.880
   -4.375
   -8.861
  -10.979
   -9.931
   -7.071
   -4.679
   -3.535
   -2.566
   -0.738
    1.464
    2.601
    1.873
    0.004
   -1.418
   -1.469
   -0.623
    0.036
    0.112
    0.234
    1.262
    3.269
    5.146
    5.228
    2.806
   -0.661
   -2.340
   -0.641
    3.085
    5.797
    5.576
    2.973
   -0.081
   -2.159
   -3.112
   -3.493
   -3.596
   -3.155
   -1.845
    0.097
    1.787
    2.174
    0.758
   -1.896
   -4.371
   -5.500
   -5.462
   -5.369
   -5.505
   -4.591
   -1.366
    3.399
    7.031
    7.266
    4.366
    0.938
   -0.429
    0.624
    2.348
    3.018
    2.620
    2.401
    3.031
    3.638
    2.747
   -0.022
   -3.357
   -5.335
   -5.011
   -3.043
   -0.956
    0.087
   -0.037
   -0.616
   -0.927
   -0.874
   -0.769
   -0.662
   -0.233
    0.762
    2.266
    3.931
    4.891
    3.940
    0.758
   -3.045
   -4.870
   -3.584
   -0.784
    0.841
    0.367
   -0.530
    0.217
    2.379
    3.468
    1.578
   -2.223
   -4.775
   -3.958
   -0.619
    2.467
    3.154
    1.578
   -0.358
   -1.008
   -0.502
   -0.159
   -0.622
   -1.118
   -0.607
    0.841
    2.006
    1.654
   -0.298
   -2.545
   -3.315
   -1.870
    0.730
    2.431
    1.986
    0.100
   -1.249
   -0.713
    1.224
    2.820
    2.660
    0.783
   -1.424
   -2.325
   -1.243
    1.036
    2.847
    2.926
    1.377
   -0.571
   -1.763
   -1.978
   -1.688
   -1.320
   -1.002
   -0.870
   -1.094
   -1.334
   -0.625
    1.521
    4.012
    4.853
    3.160
    0.229
   -1.685
   -1.582
   -0.503
   -0.143
   -1.061
   -2.382
   -2.811
   -1.729
    0.235
    1.448
    0.576
   -1.896
   -3.755
   -3.189
   -0.778
    1.065
    0.726
   -0.912
   -1.623
   -0.396
    1.536
    2.130
    0.741
   -1.202
   -1.658
   -0.100
    1.942
    2.596
    1.632
    0.409
    0.144
    0.821
    1.681
    2.206
    2.373
    2.246
    1.672
    0.501
   -1.062
   -2.440
   -2.992
   -2.443
   -1.108
    0.278
    1.053
    1.066
    0.773
    0.809
    1.272
    1.473
    0.666
   -0.893
   -1.962
   -1.657
   -0.555
   -0.076
   -0.846
   -2.018
   -2.278
   -1.206
    0.434
    1.420
    0.978
   -0.634
   -2.178
   -2.309
   -0.793
    1.102
    1.658
    0.433
   -1.114
   -1.029
    0.965
    3.000
    3.027
    0.980
   -1.293
   -1.950
   -0.666
    1.460
    3.052
    3.393
    2.579
    1.166
   -0.129
   -0.700
   -0.415
    0.275
    0.719
    0.491
   -0.464
   -1.772
   -2.598
   -2.098
   -0.360
    1.274
    1.326
   -0.307
   -2.128
   -2.346
   -0.486
    2.095
    3.256
    1.814
   -1.471
   -4.467
   -5.288
   -3.608
   -0.616
    2.089
    3.467
    3.308
    2.060
    0.468
   -0.813
   -1.411
   -1.220
   -0.420
    0.508
    1.028
    0.977
    0.733
    0.825
    1.320
    1.622
    0.956
   -0.847
   -2.994
   -4.226
   -3.759
   -1.882
    0.226
    1.323
    1.049
    0.186
   -0.154
    0.345
    1.065
    1.376
    1.334
    1.299
    1.265
    0.907
    0.229
   -0.146
    0.440
    1.801
    2.800
    2.297
    0.240
   -2.215
   -3.663
   -3.531
   -2.360
   -1.217
   -0.807
   -0.977
   -1.018
   -0.465
    0.396
    0.847
    0.542
   -0.120
   -0.441
   -0.144
    0.452
    0.855
    0.886
    0.799
    1.044
    1.831
    2.777
    3.055
    2.112
    0.345
   -1.067
   -1.247
   -0.567
   -0.345
   -1.427
   -3.137
   -3.842
   -2.646
   -0.359
    1.355
    1.655
    1.079
    0.596
    0.559
    0.682
    0.636
    0.401
    0.127
   -0.099
   -0.307
   -0.565
   -0.938
   -1.376
   -1.615
   -1.357
   -0.632
    0.167
    0.676
    0.861
    0.927
    1.048
    1.241
    1.381
    1.227
    0.527
   -0.684
   -1.847
   -2.167
   -1.381
   -0.148
    0.508
    0.184
   -0.536
   -0.720
   -0.101
    0.674
    0.912
    0.757
    0.877
    1.423
    1.724
    1.141
   -0.121
   -1.215
   -1.484
   -0.942
   -0.053
    0.730
    1.137
    1.050
    0.574
    0.030
   -0.278
   -0.313
   -0.263
   -0.299
   -0.370
   -0.254
    0.127
    0.486
    0.404
   -0.202
   -0.960
   -1.397
   -1.281
   -0.706
   -0.002
    0.443
    0.427
    0.097
   -0.173
   -0.129
    0.103
    0.149
   -0.205
   -0.735
   -0.873
   -0.147
    1.248
    2.320
    2.045
    0.435
   -1.305
   -1.880
   -1.068
    0.237
    0.897
    0.420
   -0.707
   -1.416
   -1.006
    0.198
    1.138
    1.059
    0.191
   -0.615
   -0.817
   -0.572
   -0.306
   -0.196
   -0.142
    0.010
    0.377
    1.007
    1.721
    2.024
    1.455
    0.174
   -0.916
   -0.880
    0.283
    1.487
    1.546
    0.359
   -0.964
   -1.270
   -0.546
    0.178
    0.003
   -0.920
   -1.667
   -1.566
   -0.822
   -0.151
    0.051
    0.043
    0.279
    0.806
    1.211
    1.104
    0.592
    0.210
    0.333
    0.723
    0.762
    0.155
   -0.729
   -1.284
   -1.332
   -1.187
   -1.136
   -1.117
   -0.963
   -0.743
   -0.655
   -0.626
   -0.239
    0.778
    2.018
    2.564
    1.914
    0.669
    0.008
    0.372
    0.932
    0.531
   -0.963
   -2.442
   -2.643
   -1.368
    0.354
    1.214
    0.749
   -0.390
   -1.138
   -0.951
   -0.125
    0.643
    0.871
    0.563
    0.111
   -0.021
    0.363
    1.026
    1.476
    1.345
    0.713
    0.066
   -0.144
    0.038
    0.087
   -0.409
   -1.194
   -1.549
   -1.080
   -0.154
    0.498
    0.449
   -0.155
   -0.808
   -0.998
   -0.546
    0.236
    0.787
    0.804
    0.459
    0.081
   -0.190
   -0.327
   -0.235
    0.142
    0.629
    0.941
    0.972
    0.841
    0.657
    0.357
   -0.155
   -0.791
   -1.286
   -1.385
   -1.021
   -0.401
    0.071
    0.093
   -0.238
   -0.500
   -0.379
    0.031
    0.358
    0.297
   -0.153
   -0.661
   -0.769
   -0.202
