Origin Time       11/11/2013 19:11:18
Lat.              28.5 N	
Long.             77.2 E	
Depth (Km)         10.0
Magnitude         3.1
 Region           DELHI                                                            
 Above details taken from IMD 
     
Station Code      GGI
Station Lat.       28.665  N
Station Long.      77.232  E
Station Height(m)  207.0
Site Class        C   Vs30 between 200 m/sec to 375 m/sec *  
Record Time       11.11.2013 20:22:15.124
Sampling Rate     200. Hz
 Record Duration   80.435 Sec.
 Direction         E-W (E positive)
Max. Acceleration     -6.514 cm/sec**2
     
  * For reference see Site Classification link of website 
     
 Base Line Corrected and Low Pass Filtered (Cut Off at 35 Hz) Time History
 Acceleration data in cm/sec**2
    
[...]
      -0.300
      -0.056
       0.137
       0.164
       0.010
      -0.225
      -0.380
      -0.328
      -0.055
       0.320
       0.601
       0.629
       0.369
      -0.070
      -0.499
      -0.741
      -0.720
      -0.486
      -0.184
       0.030
       0.075
      -0.012
      -0.099
      -0.056
       0.158
       0.452
       0.667
       0.681
       0.487
       0.188
      -0.068
      -0.185
      -0.161
      -0.073
      -0.017
      -0.043
      -0.137
      -0.243
      -0.307
      -0.304
      -0.234
      -0.119
       0.008
       0.106
       0.149
       0.132
       0.082
       0.040
       0.029
       0.041
       0.050
       0.036
       0.008
      -0.002
       0.028
       0.083
       0.118
       0.092
       0.005
      -0.088
      -0.109
      -0.015
       0.166
       0.337
       0.394
       0.287
       0.050
      -0.220
      -0.416
      -0.476
      -0.401
      -0.247
      -0.090
       0.013
       0.043
       0.022
      -0.008
      -0.021
      -0.016
      -0.013
      -0.021
      -0.026
       0.003
       0.079
       0.179
       0.259
       0.279
       0.237
       0.172
       0.134
       0.146
       0.175
       0.149
       0.006
      -0.246
      -0.511
      -0.650
      -0.576
      -0.315
       0.003
       0.226
       0.282
       0.200
       0.071
      -0.031
      -0.084
      -0.101
      -0.092
      -0.062
      -0.017
       0.019
       0.023
      -0.001
      -0.023
      -0.009
       0.048
       0.126
       0.190
       0.213
       0.194
       0.148
       0.097
       0.061
       0.049
       0.058
       0.070
       0.061
       0.012
      -0.078
      -0.182
      -0.257
      -0.266
      -0.200
      -0.083
       0.040
       0.128
       0.166
       0.165
       0.137
       0.084
       0.002
      -0.102
      -0.185
      -0.187
      -0.077
       0.111
       0.285
       0.352
       0.282
       0.133
       0.003
      -0.044
      -0.022
      -0.005
      -0.055
      -0.165
      -0.259
      -0.255
      -0.132
       0.045
       0.170
       0.167
       0.039
      -0.141
      -0.277
      -0.308
      -0.229
      -0.086
       0.053
       0.134
       0.140
       0.097
       0.055
       0.052
       0.090
       0.136
       0.149
       0.108
       0.024
      -0.076
      -0.161
      -0.214
      -0.222
      -0.177
      -0.075
       0.067
       0.204
       0.280
       0.260
       0.149
      -0.005
      -0.140
      -0.208
      -0.192
      -0.109
      -0.005
       0.068
       0.081
       0.044
      -0.008
      -0.037
      -0.029
       0.008
       0.062
       0.130
       0.208
       0.272
       0.285
       0.219
       0.098
      -0.016
      -0.057
      -0.017
       0.044
       0.036
      -0.090
      -0.297
      -0.478
      -0.527
      -0.410
      -0.183
       0.047
       0.185
       0.207
       0.166
       0.147
       0.197
       0.287
       0.329
       0.249
       0.058
      -0.144
      -0.236
      -0.169
      -0.004
       0.135
       0.154
       0.047
      -0.112
      -0.231
      -0.263
      -0.217
      -0.132
      -0.040
       0.043
       0.106
       0.136
       0.119
       0.050
      -0.053
      -0.154
      -0.216
      -0.218
      -0.164
      -0.067
       0.064
       0.219
       0.378
       0.493
       0.505
       0.376
       0.134
      -0.128
      -0.296
      -0.304
      -0.173
       0.001
       0.111
       0.105
       0.008
      -0.108
      -0.176
      -0.180
      -0.145
      -0.112
      -0.098
      -0.088
      -0.047
       0.044
       0.164
       0.264
       0.288
       0.214
       0.059
      -0.128
      -0.286
      -0.363
      -0.334
      -0.208
      -0.025
       0.160
       0.303
       0.378
       0.372
       0.289
       0.148
      -0.012
      -0.142
      -0.200
      -0.178
      -0.104
      -0.030
      -0.002
      -0.036
      -0.105
      -0.164
      -0.173
      -0.125
      -0.048
       0.013
       0.028
       0.003
      -0.024
      -0.007
       0.079
       0.209
       0.314
       0.321
       0.199
      -0.010
      -0.218
      -0.337
      -0.331
      -0.220
      -0.063
       0.083
       0.191
       0.256
       0.289
       0.296
       0.268
       0.188
       0.053
      -0.111
      -0.251
      -0.308
      -0.252
      -0.104
       0.060
       0.149
       0.101
      -0.064
      -0.254
      -0.356
      -0.306
      -0.129
       0.087
       0.244
       0.296
       0.252
       0.156
       0.052
      -0.032
      -0.079
      -0.087
      -0.069
      -0.042
      -0.014
       0.019
       0.059
       0.091
       0.082
       0.020
      -0.068
      -0.119
      -0.084
       0.029
       0.151
       0.200
       0.141
       0.009
      -0.116
      -0.172
      -0.150
      -0.091
      -0.042
      -0.026
      -0.037
      -0.056
      -0.065
      -0.051
      -0.002
       0.081
       0.172
       0.231
       0.224
       0.150
       0.039
      -0.067
      -0.138
      -0.159
      -0.129
      -0.066
      -0.007
       0.004
      -0.045
      -0.114
      -0.129
      -0.045
       0.101
       0.205
       0.179
       0.030
      -0.134
      -0.190
      -0.100
       0.051
       0.123
       0.041
      -0.151
      -0.320
      -0.349
      -0.208
       0.036
       0.275
       0.416
       0.422
       0.313
       0.154
       0.019
      -0.044
      -0.044
      -0.036
      -0.068
      -0.133
      -0.160
      -0.087
       0.072
       0.212
       0.211
       0.044
      -0.183
      -0.302
      -0.216
       0.027
       0.271
       0.369
       0.281
       0.083
      -0.102
      -0.189
      -0.172
      -0.104
      -0.056
      -0.066
      -0.126
      -0.186
      -0.192
      -0.112
       0.039
       0.204
       0.313
       0.324
       0.239
       0.108
      -0.008
      -0.068
      -0.075
      -0.061
      -0.060
      -0.080
      -0.101
      -0.085
      -0.015
       0.087
       0.171
       0.183
       0.099
      -0.052
      -0.207
      -0.298
      -0.292
      -0.204
      -0.084
       0.019
       0.084
       0.117
       0.141
       0.167
       0.186
       0.178
       0.128
       0.037
      -0.066
      -0.132
      -0.120
      -0.028
       0.096
       0.178
       0.176
       0.106
       0.029
      -0.005
      -0.003
      -0.015
      -0.080
      -0.184
      -0.264
      -0.256
      -0.156
      -0.018
       0.083
       0.104
       0.051
      -0.031
      -0.095
      -0.113
      -0.093
      -0.057
      -0.025
      -0.002
       0.028
       0.076
       0.137
       0.186
       0.198
       0.170
       0.128
       0.105
       0.114
       0.137
       0.136
       0.087
      -0.011
      -0.130
      -0.231
      -0.281
      -0.266
      -0.196
      -0.095
       0.005
       0.077
       0.113
       0.121
       0.114
       0.096
       0.058
      -0.014
      -0.113
      -0.203
      -0.226
      -0.147
       0.013
       0.182
       0.278
       0.268
       0.188
       0.109
       0.080
       0.093
       0.106
       0.078
       0.013
      -0.052
      -0.075
      -0.051
      -0.020
      -0.030
      -0.104
      -0.212
      -0.297
      -0.309
      -0.240
      -0.118
       0.008
       0.102
       0.148
       0.142
       0.098
       0.036
      -0.013
      -0.027
      -0.002
       0.038
       0.057
       0.029
      -0.036
      -0.092
      -0.096
      -0.044
       0.019
       0.028
      -0.039
      -0.137
      -0.182
      -0.117
       0.039
       0.202
       0.281
       0.243
       0.120
      -0.025
      -0.140
      -0.203
      -0.201
      -0.120
       0.040
       0.248
       0.434
       0.507
       0.402
       0.120
      -0.236
      -0.492
      -0.501
      -0.245
       0.146
       0.475
       0.591
       0.443
       0.064
      -0.435
      -0.852
      -0.953
      -0.620
       0.006
       0.578
       0.769
       0.508
      -0.003
      -0.463
      -0.660
      -0.550
      -0.215
       0.207
       0.571
       0.751
       0.681
       0.391
       0.000
      -0.331
      -0.469
      -0.381
      -0.167
      -0.013
      -0.065
      -0.298
      -0.522
      -0.528
      -0.255
       0.177
       0.554
       0.701
       0.564
       0.226
      -0.124
      -0.278
      -0.129
       0.251
       0.648
       0.840
       0.703
       0.256
      -0.332
      -0.786
      -0.873
      -0.575
      -0.132
       0.129
       0.044
      -0.276
      -0.564
      -0.611
      -0.385
       0.012
       0.437
       0.752
       0.829
       0.601
       0.133
      -0.369
      -0.654
      -0.563
      -0.119
       0.480
       0.961
       1.102
       0.830
       0.235
      -0.467
      -1.022
      -1.231
      -1.024
      -0.494
       0.136
       0.605
       0.730
       0.480
      -0.032
      -0.601
      -0.988
      -1.003
      -0.609
       0.027
       0.631
       0.985
       1.037
       0.860
       0.554
       0.202
      -0.130
      -0.373
      -0.454
      -0.340
      -0.092
       0.132
       0.165
      -0.018
      -0.257
      -0.350
      -0.236
      -0.033
       0.097
       0.090
      -0.006
      -0.097
      -0.095
       0.045
       0.283
       0.463
       0.407
       0.094
      -0.262
      -0.366
      -0.142
       0.162
       0.195
      -0.138
      -0.575
      -0.732
      -0.443
       0.126
       0.671
       0.999
       1.071
       0.873
       0.370
      -0.372
      -1.069
      -1.343
      -1.034
      -0.347
       0.316
       0.692
       0.770
       0.624
       0.215
      -0.530
      -1.436
      -1.976
      -1.605
      -0.283
       1.355
       2.393
       2.276
       1.180
      -0.165
      -0.998
      -0.988
      -0.350
       0.390
       0.766
       0.634
       0.169
      -0.321
      -0.606
      -0.612
      -0.379
      -0.002
       0.379
       0.591
       0.508
       0.163
      -0.239
      -0.448
      -0.360
      -0.111
       0.065
       0.065
       0.002
       0.036
       0.154
       0.150
      -0.124
      -0.523
      -0.701
      -0.469
      -0.026
       0.242
       0.176
      -0.017
      -0.040
       0.151
       0.339
       0.323
       0.117
      -0.129
      -0.310
      -0.395
      -0.328
      -0.037
       0.417
       0.761
       0.696
       0.192
      -0.434
      -0.787
      -0.707
      -0.345
       0.047
       0.313
       0.427
       0.402
       0.268
       0.106
       0.014
      -0.006
      -0.076
      -0.293
      -0.558
      -0.618
      -0.315
       0.242
       0.767
       1.012
       0.884
       0.426
      -0.210
      -0.770
      -0.967
      -0.655
       0.027
       0.700
       0.959
       0.623
      -0.135
      -0.853
      -1.055
      -0.603
       0.159
       0.652
       0.542
      -0.009
      -0.548
      -0.757
      -0.628
      -0.280
       0.243
       0.907
       1.488
       1.610
       1.079
       0.128
      -0.726
      -1.102
      -0.988
      -0.609
      -0.150
       0.294
       0.571
       0.440
      -0.189
      -0.992
      -1.361
      -0.886
       0.224
       1.251
       1.508
       0.825
      -0.387
      -1.447
      -1.806
      -1.307
      -0.233
       0.863
       1.470
       1.399
       0.849
       0.209
      -0.212
      -0.292
      -0.050
       0.383
       0.725
       0.623
      -0.041
      -0.910
      -1.359
      -1.043
      -0.252
       0.343
       0.310
      -0.164
      -0.494
      -0.293
       0.276
       0.704
       0.621
       0.106
      -0.429
      -0.598
      -0.335
       0.104
       0.384
       0.354
       0.121
      -0.092
      -0.140
      -0.066
      -0.018
      -0.065
      -0.108
       0.008
       0.294
       0.566
       0.614
       0.392
       0.032
      -0.316
      -0.612
      -0.842
      -0.887
      -0.590
       0.014
       0.596
       0.772
       0.470
       0.016
      -0.183
      -0.038
       0.160
       0.091
      -0.222
      -0.399
      -0.078
       0.698
       1.459
       1.671
       1.130
       0.074
      -1.009
      -1.647
      -1.584
      -0.878
       0.096
       0.769
       0.699
      -0.103
      -1.116
      -1.680
      -1.485
      -0.750
       0.029
       0.465
       0.481
       0.262
       0.088
       0.164
       0.512
       0.967
       1.295
       1.389
       1.346
       1.320
       1.308
       1.120
       0.607
      -0.117
      -0.700
      -0.833
      -0.493
       0.055
       0.443
       0.363
      -0.342
      -1.615
      -3.109
      -4.210
      -4.270
      -2.970
      -0.632
       1.763
       3.010
       2.418
       0.401
      -1.663
      -2.334
      -1.131
       1.141
       3.026
       3.479
       2.531
       1.147
       0.437
       0.823
       1.766
       2.212
       1.397
      -0.596
      -2.893
      -4.363
      -4.276
      -2.675
      -0.347
       1.595
       2.259
       1.414
      -0.404
      -2.178
      -2.941
      -2.286
      -0.576
       1.294
       2.456
       2.588
       2.023
       1.362
       0.963
       0.773
       0.611
       0.503
       0.620
       0.931
       1.093
       0.828
       0.377
       0.381
       1.182
       2.265
       2.484
       0.975
      -2.012
      -5.076
      -6.514
      -5.468
      -2.499
       0.819
       2.955
       3.289
       2.205
       0.502
      -1.189
      -2.505
      -3.148
      -2.854
      -1.630
       0.098
       1.687
       2.629
       2.696
       1.854
       0.240
      -1.677
      -3.036
      -2.988
      -1.384
       0.903
       2.519
       2.665
       1.665
       0.572
       0.286
       1.005
       2.278
       3.341
       3.468
       2.345
       0.320
      -1.764
      -3.161
      -3.675
      -3.530
      -2.898
      -1.734
      -0.156
       1.212
       1.528
       0.489
      -1.249
      -2.485
      -2.365
      -0.968
       0.853
       2.190
       2.711
       2.719
       2.663
       2.635
       2.322
       1.392
      -0.111
      -1.714
      -2.769
      -2.786
      -1.713
      -0.052
       1.313
       1.590
       0.568
      -1.251
      -2.947
      -3.672
      -3.101
      -1.620
      -0.082
       0.797
       0.946
       0.870
       1.082
       1.593
       1.976
       1.833
       1.173
       0.346
      -0.272
      -0.527
      -0.488
      -0.319
      -0.148
      -0.006
       0.174
       0.491
       0.928
       1.242
       1.067
       0.222
      -1.040
      -2.112
      -2.406
      -1.701
      -0.227
       1.428
       2.487
       2.249
       0.545
      -1.880
      -3.572
      -3.293
      -0.983
       2.095
       4.220
       4.363
       2.730
       0.399
      -1.501
      -2.414
      -2.427
      -1.939
      -1.280
      -0.555
       0.192
       0.733
       0.690
      -0.094
      -1.215
      -1.847
      -1.373
       0.041
       1.514
       2.168
       1.838
       1.105
       0.651
       0.604
       0.543
       0.062
      -0.776
      -1.572
      -2.007
      -2.016
      -1.604
      -0.694
       0.704
       2.207
       3.089
       2.739
       1.199
      -0.748
      -2.061
      -2.125
      -1.061
       0.486
       1.790
       2.347
       1.938
       0.653
      -1.008
      -2.169
      -1.999
      -0.359
       1.898
       3.376
       3.062
       0.983
      -1.881
      -4.257
      -5.237
      -4.570
      -2.625
      -0.183
       1.866
       2.868
       2.638
       1.459
      -0.098
      -1.395
      -1.914
      -1.391
       0.077
       1.989
       3.537
       3.919
       2.758
       0.391
      -2.228
      -4.004
      -4.280
      -3.110
      -1.123
       0.870
       2.239
       2.737
       2.497
       1.850
       1.078
       0.318
      -0.347
      -0.769
      -0.798
      -0.441
       0.083
       0.488
       0.584
       0.308
      -0.282
      -0.947
      -1.223
      -0.636
       0.838
       2.481
       3.149
       2.111
      -0.268
      -2.679
      -3.819
      -3.329
      -1.892
      -0.501
       0.331
       0.713
       0.929
       1.030
       0.858
       0.359
      -0.251
      -0.637
      -0.597
      -0.186
       0.367
       0.826
       1.074
       1.120
       1.003
       0.706
       0.187
      -0.517
      -1.226
      -1.690
      -1.741
      -1.364
      -0.664
       0.191
       0.967
       1.364
       1.168
       0.467
      -0.289
      -0.548
      -0.086
       0.777
       1.376
       1.177
       0.157
      -1.165
      -2.048
      -1.986
      -1.022
       0.276
       1.164
       1.167
       0.356
      -0.722
      -1.389
      -1.241
      -0.337
       0.892
       1.914
       2.348
       2.100
       1.346
       0.398
      -0.465
      -1.094
      -1.438
      -1.470
      -1.185
      -0.659
      -0.104
       0.214
       0.150
      -0.167
      -0.390
      -0.212
       0.367
       1.004
       1.266
       0.974
       0.348
      -0.196
      -0.410
      -0.413
      -0.505
      -0.803
      -1.088
      -1.040
      -0.575
       0.073
       0.571
       0.744
       0.610
       0.260
      -0.214
      -0.679
      -0.935
      -0.801
      -0.272
       0.411
       0.874
       0.841
       0.317
      -0.393
      -0.850
      -0.728
       0.008
       1.086
       2.076
       2.602
       2.474
       1.696
       0.411
      -1.076
      -2.274
      -2.620
      -1.842
      -0.293
       1.129
       1.573
       0.885
      -0.312
      -1.188
      -1.326
      -0.833
       0.000
       0.948
       1.766
       2.063
       1.503
       0.192
      -1.235
      -2.031
      -1.914
      -1.195
      -0.371
       0.333
       0.977
       1.530
       1.676
       1.071
      -0.224
      -1.644
      -2.489
      -2.386
      -1.462
      -0.159
       1.032
       1.726
       1.713
       1.053
       0.144
      -0.431
      -0.303
       0.359
       0.940
       0.871
       0.074
      -1.021
      -1.850
      -2.062
      -1.619
      -0.703
       0.382
       1.262
       1.602
       1.287
       0.547
      -0.144
      -0.381
      -0.104
       0.398
       0.751
       0.788
       0.610
       0.423
       0.342
       0.298
       0.102
      -0.426
      -1.286
      -2.193
      -2.679
      -2.394
      -1.399
      -0.155
       0.800
       1.191
       1.089
       0.712
       0.216
      -0.323
      -0.792
      -0.983
      -0.699
       0.068
       1.049
       1.795
       1.915
       1.321
       0.325
      -0.497
      -0.643
      -0.011
       1.002
       1.744
       1.733
       0.972
      -0.093
      -0.898
      -1.121
      -0.835
      -0.370
      -0.065
      -0.060
      -0.250
      -0.390
      -0.302
      -0.070
      -0.009
      -0.358
      -0.931
      -1.146
      -0.521
       0.775
       1.924
       2.092
       1.137
      -0.271
      -1.198
      -1.155
      -0.358
       0.567
       1.083
       1.030
       0.571
      -0.011
      -0.503
      -0.829
      -1.037
