Origin Time       11/11/2013 19:11:18 UTC
Lat.              28.5 N	
Long.             77.2 E	
Depth (Km)         10.0
Magnitude         3.1
 Region           DELHI                                                            
 Above details taken from IMD 
    
Station Code      GGI
Station Lat.       28.665  N
Station Long.      77.232  E
Station Height(m)  207.0
Site Class        C   Vs30 between 200 m/sec to 375 m/sec *  
Record Time       11.11.2013 20:22:15.124 UTC
Sampling Rate     200. Hz
 Record Duration   80.435 Sec.
 Direction         N-S (N positive)
Max. Acceleration    -11.272 cm/sec**2
     
  * For reference see Site Classification link of website 
     
 Base Line Corrected and Low Pass Filtered (Cut Off at 35 Hz) Time History
 Acceleration data in cm/sec**2
    
[...]
       0.721
       0.583
       0.300
       0.024
      -0.139
      -0.189
      -0.214
      -0.291
      -0.420
      -0.516
      -0.471
      -0.239
       0.123
       0.479
       0.675
       0.620
       0.334
      -0.057
      -0.375
      -0.484
      -0.356
      -0.085
       0.171
       0.281
       0.215
       0.051
      -0.086
      -0.104
      -0.003
       0.137
       0.216
       0.191
       0.091
      -0.016
      -0.086
      -0.126
      -0.169
      -0.221
      -0.240
      -0.170
       0.002
       0.214
       0.356
       0.346
       0.184
      -0.050
      -0.254
      -0.358
      -0.351
      -0.263
      -0.143
      -0.034
       0.041
       0.087
       0.125
       0.162
       0.186
       0.171
       0.110
       0.030
      -0.021
      -0.011
       0.050
       0.113
       0.124
       0.061
      -0.053
      -0.163
      -0.209
      -0.169
      -0.069
       0.029
       0.071
       0.044
      -0.019
      -0.069
      -0.080
      -0.065
      -0.056
      -0.077
      -0.120
      -0.158
      -0.164
      -0.129
      -0.060
       0.029
       0.120
       0.189
       0.208
       0.165
       0.073
      -0.027
      -0.096
      -0.118
      -0.103
      -0.067
      -0.014
       0.057
       0.133
       0.183
       0.173
       0.101
       0.007
      -0.052
      -0.043
       0.015
       0.071
       0.079
       0.027
      -0.054
      -0.118
      -0.128
      -0.080
      -0.001
       0.073
       0.121
       0.145
       0.152
       0.139
       0.093
       0.006
      -0.104
      -0.198
      -0.231
      -0.183
      -0.069
       0.069
       0.183
       0.238
       0.218
       0.128
      -0.006
      -0.142
      -0.229
      -0.235
      -0.167
      -0.078
      -0.036
      -0.078
      -0.188
      -0.302
      -0.352
      -0.299
      -0.150
       0.050
       0.241
       0.371
       0.417
       0.384
       0.298
       0.184
       0.060
      -0.062
      -0.161
      -0.206
      -0.173
      -0.060
       0.094
       0.225
       0.269
       0.202
       0.057
      -0.093
      -0.167
      -0.134
      -0.028
       0.067
       0.075
      -0.024
      -0.176
      -0.290
      -0.296
      -0.191
      -0.037
       0.080
       0.103
       0.045
      -0.033
      -0.062
      -0.011
       0.093
       0.192
       0.235
       0.204
       0.123
       0.035
      -0.024
      -0.040
      -0.026
      -0.009
      -0.012
      -0.042
      -0.081
      -0.098
      -0.070
      -0.007
       0.050
       0.049
      -0.027
      -0.145
      -0.230
      -0.218
      -0.099
       0.072
       0.212
       0.253
       0.185
       0.055
      -0.068
      -0.137
      -0.151
      -0.143
      -0.138
      -0.125
      -0.066
       0.060
       0.233
       0.385
       0.444
       0.368
       0.176
      -0.066
      -0.267
      -0.348
      -0.279
      -0.099
       0.098
       0.219
       0.218
       0.122
       0.005
      -0.067
      -0.077
      -0.061
      -0.066
      -0.111
      -0.169
      -0.195
      -0.163
      -0.092
      -0.029
      -0.006
      -0.015
      -0.017
       0.020
       0.081
       0.115
       0.080
      -0.009
      -0.084
      -0.074
       0.036
       0.187
       0.287
       0.279
       0.174
       0.036
      -0.069
      -0.109
      -0.098
      -0.071
      -0.059
      -0.074
      -0.107
      -0.132
      -0.125
      -0.074
       0.010
       0.095
       0.138
       0.107
       0.008
      -0.113
      -0.189
      -0.171
      -0.062
       0.081
       0.184
       0.201
       0.135
       0.030
      -0.057
      -0.082
      -0.037
       0.054
       0.151
       0.211
       0.203
       0.124
       0.000
      -0.112
      -0.159
      -0.120
      -0.025
       0.058
       0.075
       0.018
      -0.071
      -0.143
      -0.173
      -0.175
      -0.173
      -0.171
      -0.148
      -0.080
       0.029
       0.144
       0.224
       0.253
       0.246
       0.226
       0.200
       0.154
       0.069
      -0.055
      -0.191
      -0.295
      -0.330
      -0.281
      -0.151
       0.031
       0.220
       0.359
       0.394
       0.296
       0.088
      -0.153
      -0.329
      -0.374
      -0.296
      -0.163
      -0.054
      -0.007
      -0.005
      -0.005
       0.020
       0.058
       0.086
       0.093
       0.094
       0.112
       0.143
       0.153
       0.109
       0.011
      -0.101
      -0.167
      -0.149
      -0.054
       0.066
       0.147
       0.152
       0.086
      -0.008
      -0.085
      -0.117
      -0.108
      -0.082
      -0.061
      -0.053
      -0.050
      -0.034
       0.010
       0.081
       0.163
       0.219
       0.206
       0.101
      -0.076
      -0.261
      -0.373
      -0.354
      -0.211
      -0.006
       0.174
       0.267
       0.259
       0.181
       0.080
      -0.004
      -0.050
      -0.058
      -0.046
      -0.037
      -0.055
      -0.111
      -0.187
      -0.240
      -0.214
      -0.080
       0.137
       0.347
       0.438
       0.337
       0.070
      -0.238
      -0.427
      -0.394
      -0.151
       0.175
       0.418
       0.459
       0.293
       0.019
      -0.221
      -0.328
      -0.290
      -0.169
      -0.039
       0.054
       0.098
       0.101
       0.073
       0.040
       0.032
       0.064
       0.109
       0.110
       0.027
      -0.118
      -0.248
      -0.284
      -0.203
      -0.051
       0.091
       0.155
       0.115
      -0.001
      -0.128
      -0.196
      -0.160
      -0.036
       0.106
       0.179
       0.133
      -0.007
      -0.157
      -0.225
      -0.178
      -0.049
       0.087
       0.172
       0.193
       0.168
       0.118
       0.051
      -0.029
      -0.108
      -0.160
      -0.162
      -0.111
      -0.028
       0.056
       0.110
       0.118
       0.084
       0.039
       0.021
       0.050
       0.112
       0.163
       0.166
       0.110
       0.018
      -0.076
      -0.146
      -0.184
      -0.198
      -0.199
      -0.185
      -0.145
      -0.065
       0.055
       0.184
       0.270
       0.260
       0.134
      -0.063
      -0.237
      -0.290
      -0.186
       0.016
       0.198
       0.254
       0.159
      -0.024
      -0.193
      -0.272
      -0.244
      -0.141
      -0.011
       0.106
       0.191
       0.237
       0.241
       0.204
       0.128
       0.024
      -0.086
      -0.180
      -0.235
      -0.237
      -0.183
      -0.082
       0.038
       0.136
       0.171
       0.125
       0.015
      -0.105
      -0.172
      -0.151
      -0.053
       0.060
       0.114
       0.072
      -0.034
      -0.121
      -0.120
      -0.030
       0.083
       0.135
       0.096
       0.011
      -0.043
      -0.018
       0.068
       0.148
       0.157
       0.082
      -0.034
      -0.124
      -0.143
      -0.101
      -0.043
      -0.012
      -0.005
       0.010
       0.064
       0.141
       0.181
       0.131
      -0.010
      -0.176
      -0.282
      -0.280
      -0.184
      -0.051
       0.066
       0.143
       0.182
       0.189
       0.162
       0.099
       0.016
      -0.050
      -0.058
       0.007
       0.116
       0.205
       0.212
       0.109
      -0.075
      -0.266
      -0.378
      -0.364
      -0.236
      -0.050
       0.129
       0.252
       0.282
       0.201
       0.038
      -0.114
      -0.153
      -0.055
       0.083
       0.117
      -0.018
      -0.244
      -0.413
      -0.423
      -0.290
      -0.091
       0.115
       0.314
       0.473
       0.488
       0.246
      -0.232
      -0.715
      -0.867
      -0.511
       0.193
       0.823
       0.997
       0.653
       0.064
      -0.398
      -0.518
      -0.307
       0.087
       0.480
       0.683
       0.540
       0.029
      -0.648
      -1.129
      -1.126
      -0.627
       0.091
       0.649
       0.807
       0.594
       0.239
      -0.014
      -0.064
       0.040
       0.187
       0.296
       0.328
       0.248
       0.034
      -0.273
      -0.556
      -0.679
      -0.582
      -0.318
      -0.013
       0.209
       0.277
       0.189
      -0.001
      -0.188
      -0.240
      -0.056
       0.351
       0.802
       1.020
       0.810
       0.212
      -0.492
      -0.941
      -0.911
      -0.448
       0.157
       0.539
       0.467
      -0.014
      -0.608
      -0.931
      -0.742
      -0.122
       0.554
       0.863
       0.628
       0.049
      -0.453
      -0.538
      -0.171
       0.388
       0.785
       0.805
       0.472
      -0.024
      -0.474
      -0.750
      -0.803
      -0.633
      -0.300
       0.049
       0.248
       0.217
       0.024
      -0.177
      -0.246
      -0.116
       0.191
       0.558
       0.780
       0.652
       0.138
      -0.507
      -0.841
      -0.559
       0.211
       0.942
       1.122
       0.664
      -0.056
      -0.584
      -0.766
      -0.764
      -0.760
      -0.725
      -0.498
      -0.028
       0.503
       0.806
       0.736
       0.409
       0.094
      -0.008
       0.100
       0.269
       0.336
       0.215
      -0.100
      -0.518
      -0.822
      -0.759
      -0.256
       0.400
       0.711
       0.372
      -0.407
      -1.012
      -0.928
      -0.165
       0.766
       1.273
       1.129
       0.564
      -0.003
      -0.309
      -0.378
      -0.380
      -0.417
      -0.457
      -0.436
      -0.360
      -0.292
      -0.242
      -0.128
       0.121
       0.437
       0.622
       0.538
       0.276
       0.087
       0.134
       0.299
       0.288
      -0.064
      -0.584
      -0.892
      -0.746
      -0.263
       0.215
       0.439
       0.418
       0.286
       0.117
      -0.070
      -0.186
      -0.074
       0.295
       0.675
       0.704
       0.253
      -0.407
      -0.800
      -0.655
      -0.121
       0.368
       0.451
       0.087
      -0.458
      -0.833
      -0.832
      -0.484
       0.008
       0.404
       0.574
       0.550
       0.476
       0.450
       0.428
       0.295
       0.044
      -0.152
      -0.099
       0.169
       0.358
       0.178
      -0.356
      -0.912
      -1.145
      -0.986
      -0.644
      -0.335
      -0.076
       0.247
       0.639
       0.897
       0.804
       0.400
       0.025
       0.007
       0.340
       0.680
       0.699
       0.397
       0.049
      -0.131
      -0.200
      -0.349
      -0.603
      -0.767
      -0.676
      -0.432
      -0.304
      -0.405
      -0.523
      -0.349
       0.146
       0.608
       0.619
       0.131
      -0.452
      -0.625
      -0.240
       0.384
       0.759
       0.618
       0.058
      -0.587
      -0.939
      -0.738
       0.026
       1.061
       1.854
       1.958
       1.289
       0.196
      -0.773
      -1.238
      -1.185
      -0.875
      -0.581
      -0.390
      -0.213
       0.022
       0.221
       0.176
      -0.209
      -0.727
      -0.945
      -0.524
       0.451
       1.444
       1.821
       1.343
       0.358
      -0.490
      -0.757
      -0.495
      -0.099
       0.088
       0.029
      -0.091
      -0.141
      -0.179
      -0.325
      -0.552
      -0.642
      -0.371
       0.241
       0.872
       1.114
       0.811
       0.197
      -0.296
      -0.409
      -0.259
      -0.160
      -0.268
      -0.424
      -0.362
      -0.036
       0.307
       0.373
       0.123
      -0.199
      -0.326
      -0.214
      -0.019
       0.107
       0.137
       0.113
       0.033
      -0.124
      -0.290
      -0.290
       0.006
       0.490
       0.821
       0.678
       0.068
      -0.630
      -0.945
      -0.703
      -0.158
       0.230
       0.150
      -0.374
      -1.060
      -1.575
      -1.733
      -1.560
      -1.224
      -0.880
      -0.533
      -0.028
       0.806
       1.955
       3.131
       3.903
       3.973
       3.363
       2.355
       1.282
       0.370
      -0.262
      -0.524
      -0.372
       0.098
       0.609
       0.806
       0.440
      -0.514
      -1.809
      -2.975
      -3.461
      -2.946
      -1.653
      -0.383
      -0.098
      -1.272
      -3.470
      -5.482
      -5.975
      -4.230
      -0.528
       4.014
       7.899
       9.716
       8.577
       4.572
      -0.909
      -5.479
      -6.884
      -4.420
       0.408
       4.653
       5.715
       2.953
      -1.965
      -6.169
      -7.355
      -5.036
      -0.585
       3.759
       6.128
       5.802
       3.317
       0.054
      -2.450
      -3.180
      -2.051
       0.128
       2.131
       2.999
       2.559
       1.422
       0.452
       0.081
       0.009
      -0.458
      -1.711
      -3.334
      -4.274
      -3.647
      -1.545
       0.929
       2.466
       2.476
       1.354
      -0.038
      -1.067
      -1.607
      -1.822
      -1.887
      -1.895
      -1.845
      -1.574
      -0.756
       0.822
       2.835
       4.331
       4.311
       2.644
       0.449
      -0.643
       0.127
       1.874
       2.775
       1.705
      -0.711
      -2.631
      -2.612
      -0.836
       1.111
       1.651
       0.529
      -1.097
      -1.804
      -1.173
      -0.007
       0.547
       0.014
      -1.177
      -2.214
      -2.470
      -1.663
       0.217
       2.824
       5.244
       6.081
       4.125
      -0.676
      -6.677
     -11.046
     -11.272
      -6.770
       0.574
       7.395
      10.698
       9.329
       4.312
      -1.863
      -6.430
      -7.502
      -4.809
       0.242
       5.284
       8.133
       7.739
       4.496
      -0.084
      -4.061
      -5.858
      -4.927
      -2.015
       1.176
       2.855
       2.133
      -0.452
      -3.221
      -4.347
      -2.981
       0.218
       3.501
       5.107
       4.281
       1.598
      -1.498
      -3.567
      -3.857
      -2.461
      -0.064
       2.372
       3.793
       3.330
       0.839
      -2.635
      -5.153
      -5.068
      -2.307
       1.405
       3.766
       3.591
       1.581
      -0.444
      -1.063
      -0.203
       1.126
       1.845
       1.569
       0.616
      -0.448
      -1.201
      -1.481
      -1.324
      -0.901
      -0.456
      -0.184
      -0.136
      -0.234
      -0.403
      -0.641
      -0.946
      -1.203
      -1.195
      -0.729
       0.251
       1.591
       2.893
       3.572
       3.118
       1.492
      -0.668
      -2.285
      -2.466
      -1.084
       1.086
       2.798
       3.079
       1.806
      -0.267
      -2.053
      -2.826
      -2.573
      -1.824
      -1.178
      -0.918
      -0.949
      -0.972
      -0.694
       0.016
       1.067
       2.182
       3.035
       3.381
       3.092
       2.147
       0.662
      -1.053
      -2.508
      -3.180
      -2.756
      -1.342
       0.460
       1.722
       1.627
       0.005
      -2.382
      -4.109
      -3.916
      -1.593
       1.726
       4.191
       4.429
       2.443
      -0.473
      -2.695
      -3.291
      -2.347
      -0.605
       1.080
       2.084
       2.205
       1.761
       1.410
       1.626
       2.155
       2.068
       0.555
      -2.157
      -4.654
      -5.261
      -3.369
      -0.037
       2.708
       3.330
       1.820
      -0.470
      -1.928
      -1.763
      -0.310
       1.468
       2.660
       2.768
       1.732
      -0.113
      -2.023
      -3.025
      -2.437
      -0.463
       1.749
       2.801
       2.032
      -0.035
      -2.140
      -3.196
      -2.905
      -1.653
       0.008
       1.690
       3.080
       3.743
       3.284
       1.795
       0.032
      -1.043
      -1.042
      -0.453
      -0.145
      -0.523
      -1.177
      -1.355
      -0.763
       0.105
       0.426
      -0.177
      -1.291
      -2.070
      -1.914
      -0.864
       0.564
       1.824
       2.606
       2.790
       2.302
       1.133
      -0.476
      -1.947
      -2.600
      -2.106
      -0.806
       0.423
       0.733
      -0.090
      -1.442
      -2.293
      -1.927
      -0.475
       1.167
       2.019
       1.771
       0.985
       0.537
       0.800
       1.322
       1.319
       0.516
      -0.516
      -0.854
      -0.104
       1.218
       2.128
       1.976
       0.845
      -0.717
      -2.212
      -3.386
      -4.025
      -3.758
      -2.277
       0.175
       2.610
       3.760
       2.919
       0.515
      -2.085
      -3.391
      -2.670
      -0.333
       2.364
       4.066
       4.039
       2.461
       0.207
      -1.665
      -2.414
      -1.897
      -0.550
       0.893
       1.777
       1.773
       0.917
      -0.462
      -1.829
      -2.571
      -2.255
      -0.913
       0.878
       2.287
       2.688
       1.962
       0.440
      -1.327
      -2.766
      -3.372
      -2.831
      -1.227
       0.849
       2.498
       2.976
       2.149
       0.570
      -0.869
      -1.464
      -1.048
       0.041
       1.245
       2.071
       2.210
       1.549
       0.180
      -1.526
      -2.937
      -3.385
      -2.561
      -0.820
       0.914
       1.690
       1.172
      -0.124
      -1.214
      -1.340
      -0.461
       0.800
       1.651
       1.672
       1.024
       0.255
      -0.094
       0.198
       0.931
       1.601
       1.670
       0.901
      -0.448
      -1.742
      -2.367
      -2.087
      -1.093
       0.207
       1.386
       2.038
       1.796
       0.503
      -1.515
      -3.397
      -4.117
      -3.146
      -0.898
       1.480
       2.842
       2.739
       1.529
      -0.038
      -1.305
      -1.911
      -1.741
      -0.862
       0.488
       1.911
       2.954
       3.275
       2.763
       1.583
       0.138
      -1.045
      -1.515
      -1.156
      -0.326
       0.281
       0.063
      -1.052
      -2.473
      -3.255
      -2.650
      -0.601
       2.128
       4.269
       4.718
       3.171
       0.322
      -2.499
      -4.044
      -3.767
      -2.044
       0.094
       1.527
       1.612
       0.478
      -1.061
      -1.952
      -1.494
       0.204
       2.208
       3.272
       2.636
       0.573
      -1.719
      -2.852
      -2.121
       0.026
       2.271
       3.261
       2.452
       0.377
      -1.785
      -2.985
      -2.837
      -1.639
      -0.024
       1.405
       2.252
       2.346
       1.731
       0.658
      -0.469
      -1.238
      -1.419
      -1.069
      -0.487
      -0.026
       0.090
      -0.138
      -0.499
      -0.696
      -0.514
       0.036
       0.706
       1.143
       1.099
       0.598
      -0.064
      -0.531
      -0.653
      -0.577
      -0.551
      -0.619
      -0.536
      -0.027
       0.841
       1.558
       1.504
       0.454
      -1.135
      -2.346
      -2.385
      -1.128
       0.757
       2.240
       2.588
       1.782
       0.402
      -0.839
      -1.492
      -1.470
      -0.918
      -0.111
       0.602
       0.895
       0.636
      -0.001
      -0.594
      -0.730
      -0.292
       0.426
       0.889
       0.702
      -0.114
      -1.139
      -1.841
      -1.874
      -1.210
      -0.102
       1.034
       1.791
       1.931
       1.474
       0.645
