Origin Time       11/11/2013 19:11:18
Lat.              28.5 N	
Long.             77.2 E	
Depth (Km)         10.0
Magnitude         3.1
 Region           DELHI                                                            
 Above details taken from IMD 
   
Station Code      GGI
Station Lat.       28.665
Station Long.      77.232
Station Height(m)  207.0
Site Class        C   Vs30 between 200 m/sec to 375 m/sec *  
Record Time       11.11.2013 20:22:15.124
Sampling Rate     200. Hz
 Record Duration   80.435 Sec.
 Direction         Vert. (Up positive)
Max. Acceleration      3.676 cm/sec**2
     
  * For reference see Site Classification link of website 
     
 Base Line Corrected and Low Pass Filtered (Cut Off at 35 Hz) Time History
 Acceleration data in cm/sec**2
    
[...]
      -0.140
      -0.080
       0.028
       0.153
       0.249
       0.275
       0.223
       0.117
       0.006
      -0.073
      -0.111
      -0.123
      -0.126
      -0.119
      -0.089
      -0.034
       0.023
       0.041
      -0.010
      -0.119
      -0.230
      -0.283
      -0.249
      -0.151
      -0.039
       0.047
       0.099
       0.132
       0.160
       0.183
       0.185
       0.152
       0.081
      -0.005
      -0.070
      -0.084
      -0.035
       0.055
       0.143
       0.184
       0.153
       0.058
      -0.064
      -0.159
      -0.182
      -0.116
       0.012
       0.143
       0.214
       0.197
       0.109
       0.000
      -0.090
      -0.143
      -0.168
      -0.182
      -0.199
      -0.219
      -0.236
      -0.236
      -0.204
      -0.126
      -0.002
       0.154
       0.306
       0.415
       0.446
       0.389
       0.264
       0.112
      -0.029
      -0.133
      -0.189
      -0.196
      -0.160
      -0.098
      -0.035
       0.006
       0.015
      -0.003
      -0.034
      -0.071
      -0.109
      -0.137
      -0.142
      -0.116
      -0.069
      -0.024
      -0.005
      -0.014
      -0.030
      -0.030
      -0.006
       0.024
       0.039
       0.033
       0.020
       0.023
       0.050
       0.091
       0.131
       0.158
       0.173
       0.176
       0.163
       0.127
       0.071
       0.012
      -0.030
      -0.040
      -0.027
      -0.021
      -0.046
      -0.108
      -0.178
      -0.221
      -0.219
      -0.185
      -0.147
      -0.119
      -0.093
      -0.059
      -0.016
       0.027
       0.066
       0.109
       0.159
       0.202
       0.204
       0.143
       0.035
      -0.071
      -0.126
      -0.109
      -0.038
       0.050
       0.124
       0.167
       0.176
       0.154
       0.107
       0.042
      -0.032
      -0.095
      -0.130
      -0.128
      -0.096
      -0.055
      -0.026
      -0.017
      -0.022
      -0.031
      -0.037
      -0.041
      -0.044
      -0.043
      -0.035
      -0.018
       0.005
       0.032
       0.069
       0.120
       0.168
       0.187
       0.150
       0.066
      -0.029
      -0.096
      -0.119
      -0.115
      -0.106
      -0.099
      -0.086
      -0.056
      -0.015
       0.016
       0.014
      -0.029
      -0.097
      -0.152
      -0.150
      -0.074
       0.046
       0.148
       0.181
       0.140
       0.070
       0.022
       0.019
       0.041
       0.052
       0.033
      -0.003
      -0.026
      -0.012
       0.038
       0.098
       0.136
       0.136
       0.103
       0.053
       0.003
      -0.041
      -0.076
      -0.096
      -0.097
      -0.077
      -0.044
      -0.012
       0.008
       0.015
       0.017
       0.020
       0.027
       0.032
       0.031
       0.017
      -0.011
      -0.047
      -0.075
      -0.073
      -0.030
       0.043
       0.115
       0.153
       0.138
       0.080
       0.008
      -0.049
      -0.080
      -0.091
      -0.091
      -0.083
      -0.063
      -0.030
       0.008
       0.033
       0.030
       0.000
      -0.039
      -0.063
      -0.053
      -0.012
       0.043
       0.086
       0.099
       0.081
       0.050
       0.031
       0.038
       0.055
       0.050
      -0.002
      -0.089
      -0.168
      -0.189
      -0.138
      -0.045
       0.037
       0.072
       0.063
       0.037
       0.024
       0.031
       0.041
       0.033
       0.000
      -0.033
      -0.028
       0.034
       0.135
       0.221
       0.236
       0.160
       0.023
      -0.116
      -0.202
      -0.211
      -0.153
      -0.055
       0.053
       0.143
       0.195
       0.193
       0.137
       0.041
      -0.073
      -0.185
      -0.277
      -0.329
      -0.323
      -0.246
      -0.107
       0.061
       0.210
       0.294
       0.285
       0.184
       0.031
      -0.111
      -0.182
      -0.152
      -0.047
       0.074
       0.150
       0.162
       0.133
       0.103
       0.096
       0.098
       0.075
       0.001
      -0.110
      -0.207
      -0.232
      -0.163
      -0.035
       0.078
       0.118
       0.078
       0.003
      -0.056
      -0.074
      -0.066
      -0.058
      -0.062
      -0.064
      -0.039
       0.026
       0.117
       0.197
       0.230
       0.203
       0.130
       0.043
      -0.027
      -0.063
      -0.061
      -0.031
       0.010
       0.040
       0.041
       0.013
      -0.026
      -0.057
      -0.073
      -0.081
      -0.094
      -0.107
      -0.103
      -0.067
       0.001
       0.076
       0.130
       0.141
       0.111
       0.057
      -0.002
      -0.049
      -0.077
      -0.078
      -0.046
       0.014
       0.089
       0.152
       0.175
       0.139
       0.050
      -0.060
      -0.143
      -0.160
      -0.101
       0.002
       0.103
       0.160
       0.166
       0.130
       0.067
      -0.014
      -0.104
      -0.186
      -0.234
      -0.228
      -0.169
      -0.074
       0.032
       0.131
       0.213
       0.264
       0.268
       0.211
       0.099
      -0.035
      -0.143
      -0.186
      -0.151
      -0.062
       0.034
       0.096
       0.105
       0.072
       0.026
      -0.008
      -0.018
      -0.011
       0.000
       0.002
      -0.013
      -0.038
      -0.058
      -0.056
      -0.023
       0.029
       0.080
       0.102
       0.084
       0.033
      -0.025
      -0.058
      -0.045
       0.006
       0.061
       0.085
       0.063
       0.017
      -0.016
      -0.010
       0.028
       0.064
       0.067
       0.024
      -0.046
      -0.106
      -0.126
      -0.100
      -0.046
       0.001
       0.022
       0.020
       0.020
       0.047
       0.106
       0.170
       0.202
       0.172
       0.078
      -0.054
      -0.184
      -0.270
      -0.285
      -0.226
      -0.116
       0.004
       0.100
       0.160
       0.193
       0.202
       0.178
       0.107
      -0.008
      -0.134
      -0.222
      -0.232
      -0.158
      -0.031
       0.096
       0.177
       0.187
       0.135
       0.052
      -0.029
      -0.086
      -0.114
      -0.115
      -0.091
      -0.046
       0.007
       0.053
       0.080
       0.083
       0.066
       0.028
      -0.029
      -0.089
      -0.124
      -0.107
      -0.044
       0.034
       0.090
       0.114
       0.123
       0.137
       0.152
       0.147
       0.105
       0.033
      -0.042
      -0.094
      -0.117
      -0.119
      -0.110
      -0.094
      -0.069
      -0.035
       0.003
       0.031
       0.039
       0.024
      -0.009
      -0.044
      -0.069
      -0.082
      -0.085
      -0.084
      -0.079
      -0.070
      -0.055
      -0.030
       0.012
       0.077
       0.150
       0.205
       0.224
       0.203
       0.160
       0.111
       0.062
       0.013
      -0.037
      -0.084
      -0.121
      -0.143
      -0.142
      -0.116
      -0.065
      -0.004
       0.050
       0.080
       0.082
       0.058
       0.014
      -0.040
      -0.084
      -0.097
      -0.074
      -0.028
       0.009
       0.018
       0.002
      -0.015
      -0.015
       0.004
       0.028
       0.040
       0.038
       0.030
       0.024
       0.028
       0.037
       0.043
       0.037
       0.020
       0.002
      -0.008
      -0.011
      -0.022
      -0.052
      -0.090
      -0.106
      -0.071
       0.009
       0.098
       0.142
       0.114
       0.029
      -0.070
      -0.137
      -0.151
      -0.118
      -0.065
      -0.023
      -0.006
      -0.004
       0.006
       0.042
       0.094
       0.130
       0.121
       0.066
      -0.005
      -0.053
      -0.058
      -0.031
       0.001
       0.015
       0.012
       0.008
       0.016
       0.035
       0.051
       0.053
       0.045
       0.048
       0.078
       0.127
       0.166
       0.158
       0.084
      -0.037
      -0.160
      -0.243
      -0.267
      -0.243
      -0.194
      -0.143
      -0.109
      -0.102
      -0.118
      -0.133
      -0.113
      -0.030
       0.108
       0.248
       0.316
       0.279
       0.166
       0.045
      -0.027
      -0.035
       0.007
       0.077
       0.143
       0.160
       0.087
      -0.070
      -0.239
      -0.322
      -0.274
      -0.137
      -0.009
       0.045
       0.044
       0.050
       0.092
       0.120
       0.068
      -0.052
      -0.139
      -0.081
       0.126
       0.350
       0.413
       0.248
      -0.026
      -0.198
      -0.148
       0.056
       0.223
       0.205
      -0.004
      -0.287
      -0.505
      -0.559
      -0.410
      -0.100
       0.235
       0.402
       0.275
      -0.086
      -0.431
      -0.494
      -0.198
       0.259
       0.539
       0.431
       0.032
      -0.344
      -0.424
      -0.161
       0.266
       0.604
       0.681
       0.485
       0.134
      -0.215
      -0.428
      -0.423
      -0.198
       0.131
       0.366
       0.359
       0.129
      -0.160
      -0.335
      -0.343
      -0.253
      -0.162
      -0.107
      -0.062
      -0.009
       0.040
       0.061
       0.046
      -0.023
      -0.162
      -0.339
      -0.438
      -0.328
       0.000
       0.373
       0.536
       0.370
       0.021
      -0.194
      -0.057
       0.355
       0.720
       0.727
       0.340
      -0.169
      -0.439
      -0.330
      -0.029
       0.144
       0.046
      -0.189
      -0.334
      -0.297
      -0.170
      -0.090
      -0.108
      -0.170
      -0.190
      -0.119
       0.022
       0.161
       0.216
       0.153
       0.023
      -0.054
       0.015
       0.189
       0.287
       0.138
      -0.235
      -0.574
      -0.572
      -0.144
       0.441
       0.747
       0.533
      -0.013
      -0.440
      -0.428
      -0.053
       0.333
       0.436
       0.245
      -0.032
      -0.198
      -0.226
      -0.230
      -0.304
      -0.423
      -0.473
      -0.369
      -0.116
       0.189
       0.415
       0.461
       0.345
       0.200
       0.174
       0.286
       0.396
       0.312
      -0.023
      -0.428
      -0.593
      -0.358
       0.101
       0.395
       0.256
      -0.218
      -0.640
      -0.664
      -0.258
       0.287
       0.598
       0.500
       0.115
      -0.266
      -0.423
      -0.341
      -0.160
      -0.015
       0.059
       0.096
       0.119
       0.120
       0.099
       0.087
       0.107
       0.146
       0.180
       0.226
       0.325
       0.436
       0.387
       0.019
      -0.587
      -1.067
      -1.036
      -0.441
       0.331
       0.728
       0.491
      -0.134
      -0.606
      -0.549
      -0.041
       0.500
       0.687
       0.439
      -0.025
      -0.400
      -0.495
      -0.314
      -0.006
       0.247
       0.329
       0.237
       0.063
      -0.085
      -0.148
      -0.115
       0.016
       0.233
       0.454
       0.539
       0.401
       0.092
      -0.226
      -0.402
      -0.397
      -0.282
      -0.149
      -0.023
       0.132
       0.326
       0.439
       0.284
      -0.200
      -0.789
      -1.082
      -0.830
      -0.187
       0.387
       0.518
       0.242
      -0.067
      -0.071
       0.234
       0.594
       0.779
       0.728
       0.467
       0.002
      -0.603
      -1.101
      -1.125
      -0.504
       0.473
       1.157
       1.009
       0.081
      -0.971
      -1.383
      -0.873
       0.179
       1.072
       1.284
       0.747
      -0.181
      -0.959
      -1.149
      -0.644
       0.248
       0.962
       1.007
       0.309
      -0.678
      -1.244
      -0.944
       0.022
       0.950
       1.209
       0.737
       0.040
      -0.307
      -0.154
       0.189
       0.334
       0.185
      -0.075
      -0.247
      -0.303
      -0.326
      -0.369
      -0.397
      -0.335
      -0.155
       0.061
       0.151
       0.014
      -0.263
      -0.425
      -0.245
       0.253
       0.754
       0.872
       0.489
      -0.125
      -0.519
      -0.427
       0.017
       0.418
       0.469
       0.198
      -0.107
      -0.203
      -0.096
       0.028
       0.046
      -0.005
      -0.025
       0.001
       0.016
      -0.012
      -0.055
      -0.091
      -0.146
      -0.232
      -0.272
      -0.161
       0.067
       0.190
      -0.016
      -0.504
      -0.876
      -0.666
       0.227
       1.327
       1.862
       1.370
       0.131
      -0.993
      -1.227
      -0.483
       0.574
       1.067
       0.587
      -0.506
      -1.391
      -1.422
      -0.586
       0.529
       1.178
       0.993
       0.183
      -0.680
      -1.078
      -0.836
      -0.148
       0.563
       0.890
       0.673
       0.096
      -0.439
      -0.571
      -0.207
       0.413
       0.867
       0.837
       0.352
      -0.230
      -0.506
      -0.351
       0.018
       0.254
       0.154
      -0.214
      -0.591
      -0.717
      -0.515
      -0.145
       0.108
       0.059
      -0.224
      -0.454
      -0.339
       0.192
       0.886
       1.300
       1.103
       0.358
      -0.462
      -0.780
      -0.344
       0.537
       1.150
       0.896
      -0.189
      -1.374
      -1.790
      -1.142
       0.073
       1.019
       1.169
       0.585
      -0.293
      -1.016
      -1.317
      -1.083
      -0.315
       0.750
       1.552
       1.438
       0.201
      -1.542
      -2.595
      -2.012
       0.103
       2.522
       3.676
       2.770
       0.402
      -1.846
      -2.522
      -1.291
       0.948
       2.765
       3.138
       1.966
      -0.046
      -1.888
      -2.744
      -2.319
      -0.960
       0.509
       1.224
       0.806
      -0.380
      -1.458
      -1.649
      -0.820
       0.420
       1.153
       0.804
      -0.421
      -1.658
      -2.015
      -1.212
       0.280
       1.657
       2.333
       2.193
       1.473
       0.525
      -0.300
      -0.700
      -0.559
      -0.103
       0.173
      -0.109
      -0.810
      -1.283
      -0.915
       0.277
       1.574
       2.107
       1.544
       0.290
      -0.885
      -1.467
      -1.511
      -1.435
      -1.475
      -1.387
      -0.707
       0.611
       1.900
       2.223
       1.232
      -0.437
      -1.654
      -1.716
      -0.795
       0.424
       1.376
       1.861
       1.836
       1.212
       0.029
      -1.247
      -1.813
      -1.148
       0.421
       1.834
       2.115
       1.120
      -0.439
      -1.658
      -2.061
      -1.697
      -0.867
       0.082
       0.795
       0.956
       0.479
      -0.323
      -0.839
      -0.605
       0.257
       1.044
       1.053
       0.220
      -0.836
      -1.386
      -1.219
      -0.708
      -0.326
      -0.134
       0.225
       1.011
       1.906
       2.169
       1.364
      -0.067
      -1.078
      -0.958
       0.021
       0.888
       0.874
       0.007
      -1.046
      -1.591
      -1.386
      -0.669
       0.114
       0.580
       0.545
       0.075
      -0.523
      -0.832
      -0.606
      -0.006
       0.492
       0.569
       0.435
       0.643
       1.420
       2.261
       2.283
       1.084
      -0.771
      -2.152
      -2.297
      -1.418
      -0.433
      -0.130
      -0.543
      -1.083
      -1.146
      -0.582
       0.339
       1.263
       1.945
       2.184
       1.766
       0.658
      -0.770
      -1.809
      -1.865
      -0.922
       0.430
       1.426
       1.625
       1.101
       0.277
      -0.379
      -0.620
      -0.502
      -0.284
      -0.227
      -0.442
      -0.844
      -1.196
      -1.229
      -0.842
      -0.252
       0.123
       0.009
      -0.457
      -0.796
      -0.578
       0.207
       1.102
       1.513
       1.175
       0.394
      -0.162
       0.011
       0.824
       1.657
       1.852
       1.216
       0.124
      -0.825
      -1.228
      -1.093
      -0.749
      -0.594
      -0.815
      -1.227
      -1.359
      -0.826
       0.274
       1.302
       1.535
       0.777
      -0.400
      -1.073
      -0.696
       0.470
       1.614
       2.017
       1.510
       0.434
      -0.707
      -1.506
      -1.717
      -1.219
      -0.087
       1.297
       2.279
       2.247
       1.078
      -0.644
      -1.949
      -2.155
      -1.350
      -0.264
       0.347
       0.255
      -0.204
      -0.577
      -0.714
      -0.749
      -0.785
      -0.711
      -0.387
       0.078
       0.357
       0.259
      -0.018
      -0.064
       0.312
       0.881
       1.232
       1.178
       0.880
       0.606
       0.447
       0.307
       0.123
      -0.025
      -0.031
       0.052
       0.000
      -0.357
      -0.879
      -1.144
      -0.806
      -0.005
       0.635
       0.491
      -0.465
      -1.545
      -1.840
      -0.953
       0.647
       1.934
       2.070
       1.015
      -0.469
      -1.384
      -1.190
      -0.126
       1.012
       1.447
       0.962
       0.016
      -0.632
      -0.532
       0.106
       0.582
       0.314
      -0.635
      -1.564
      -1.692
      -0.786
       0.666
       1.840
       2.123
       1.411
       0.052
      -1.360
      -2.190
      -2.004
      -0.832
       0.714
       1.722
       1.577
       0.454
      -0.779
      -1.229
      -0.664
       0.370
       1.055
       0.951
       0.237
      -0.537
      -0.905
      -0.742
      -0.226
       0.362
       0.791
       0.942
       0.814
       0.540
       0.328
       0.327
       0.493
       0.586
       0.343
      -0.293
      -1.074
      -1.584
      -1.531
      -0.969
      -0.271
       0.145
       0.102
      -0.238
      -0.523
      -0.477
      -0.084
       0.419
       0.738
       0.732
       0.463
       0.087
      -0.266
      -0.516
      -0.584
      -0.365
       0.198
       0.997
       1.700
       1.876
       1.266
       0.035
      -1.224
      -1.812
      -1.420
      -0.418
       0.368
       0.324
      -0.413
      -1.071
      -0.937
       0.013
       1.102
       1.533
       1.025
      -0.010
      -0.838
      -0.994
      -0.588
      -0.106
       0.066
      -0.047
      -0.125
       0.076
       0.496
       0.864
       0.973
       0.838
       0.626
       0.474
       0.398
       0.335
       0.207
      -0.052
      -0.501
      -1.147
      -1.867
      -2.364
      -2.269
      -1.387
       0.079
       1.528
       2.280
       2.015
       1.011
      -0.018
      -0.399
       0.035
       0.833
       1.274
       0.915
      -0.079
      -1.111
      -1.635
      -1.515
      -0.991
      -0.397
       0.077
       0.397
       0.556
       0.486
       0.115
      -0.479
      -1.001
      -1.057
      -0.434
       0.676
       1.703
       2.024
       1.369
       0.032
      -1.278
      -1.857
      -1.425
      -0.272
       0.950
       1.619
       1.462
       0.662
      -0.285
      -0.830
      -0.668
       0.088
       0.950
       1.322
       0.873
      -0.225
      -1.356
      -1.846
      -1.424
      -0.427
       0.435
       0.613
       0.119
      -0.523
      -0.736
      -0.339
       0.354
       0.851
       0.881
       0.563
       0.206
       0.004
      -0.082
      -0.165
      -0.241
      -0.184
