Origin Time       11/11/2013 20:11:30
Lat.              28.4 N	
Long.             77.2 E	
Depth (Km)         10.0
Magnitude         3.3
 Region           DELHI                                                            
 Above details taken from IMD 
   
Station Code      GGI
Station Lat.       28.665
Station Long.      77.232
Station Height(m)  207.0
Site Class        C   Vs30 between 200 m/sec to 375 m/sec *  
Record Time       11.11.2013 21:22:29.249
Sampling Rate     200. Hz
 Record Duration   81.090 Sec.
 Direction         Vert. (Up positive)
Max. Acceleration     11.484 cm/sec**2
     
  * For reference see Site Classification link of website 
     
 Base Line Corrected and Low Pass Filtered (Cut Off at 35 Hz) Time History
 Acceleration data in cm/sec**2
    
[...]
       0.055
       0.037
       0.028
       0.031
       0.037
       0.033
       0.011
      -0.022
      -0.056
      -0.082
      -0.093
      -0.086
      -0.061
      -0.022
       0.022
       0.060
       0.086
       0.097
       0.090
       0.069
       0.039
       0.009
      -0.013
      -0.027
      -0.038
      -0.050
      -0.060
      -0.057
      -0.029
       0.019
       0.061
       0.070
       0.034
      -0.027
      -0.079
      -0.094
      -0.074
      -0.039
      -0.010
       0.005
       0.011
       0.017
       0.027
       0.039
       0.049
       0.055
       0.055
       0.048
       0.031
       0.004
      -0.030
      -0.055
      -0.056
      -0.031
       0.004
       0.023
       0.011
      -0.023
      -0.051
      -0.049
      -0.020
       0.013
       0.026
       0.014
      -0.006
      -0.015
      -0.008
       0.006
       0.013
       0.005
      -0.010
      -0.023
      -0.028
      -0.027
      -0.021
      -0.013
      -0.006
      -0.007
      -0.022
      -0.047
      -0.070
      -0.073
      -0.045
       0.007
       0.063
       0.100
       0.109
       0.096
       0.071
       0.044
       0.018
      -0.002
      -0.010
      -0.005
       0.011
       0.028
       0.035
       0.026
       0.000
      -0.039
      -0.073
      -0.087
      -0.075
      -0.050
      -0.035
      -0.041
      -0.060
      -0.072
      -0.064
      -0.041
      -0.015
       0.007
       0.029
       0.057
       0.090
       0.112
       0.107
       0.072
       0.020
      -0.026
      -0.050
      -0.047
      -0.021
       0.014
       0.043
       0.052
       0.039
       0.016
      -0.003
      -0.012
      -0.014
      -0.015
      -0.020
      -0.034
      -0.054
      -0.077
      -0.091
      -0.088
      -0.067
      -0.040
      -0.022
      -0.017
      -0.015
      -0.002
       0.022
       0.046
       0.053
       0.041
       0.017
      -0.005
      -0.019
      -0.024
      -0.024
      -0.021
      -0.016
      -0.007
       0.003
       0.013
       0.022
       0.031
       0.043
       0.058
       0.072
       0.080
       0.077
       0.060
       0.033
       0.001
      -0.029
      -0.052
      -0.068
      -0.075
      -0.073
      -0.065
      -0.053
      -0.045
      -0.049
      -0.062
      -0.069
      -0.054
      -0.016
       0.030
       0.059
       0.060
       0.039
       0.017
       0.007
       0.006
       0.009
       0.014
       0.022
       0.033
       0.040
       0.032
       0.011
      -0.008
      -0.008
       0.017
       0.054
       0.076
       0.068
       0.033
      -0.005
      -0.025
      -0.021
      -0.006
      -0.001
      -0.014
      -0.041
      -0.066
      -0.077
      -0.071
      -0.054
      -0.034
      -0.017
      -0.007
      -0.005
      -0.007
      -0.010
      -0.007
       0.002
       0.013
       0.016
       0.004
      -0.025
      -0.062
      -0.091
      -0.093
      -0.062
      -0.009
       0.045
       0.081
       0.094
       0.089
       0.077
       0.066
       0.060
       0.054
       0.042
       0.020
      -0.005
      -0.017
      -0.008
       0.015
       0.026
       0.011
      -0.025
      -0.053
      -0.051
      -0.018
       0.020
       0.034
       0.011
      -0.032
      -0.067
      -0.075
      -0.063
      -0.056
      -0.073
      -0.103
      -0.112
      -0.076
       0.001
       0.083
       0.128
       0.112
       0.053
      -0.008
      -0.033
      -0.013
       0.027
       0.050
       0.041
       0.018
       0.008
       0.017
       0.031
       0.028
       0.007
      -0.019
      -0.033
      -0.032
      -0.026
      -0.022
      -0.015
      -0.003
       0.012
       0.018
       0.010
      -0.002
      -0.008
      -0.008
      -0.016
      -0.044
      -0.080
      -0.099
      -0.080
      -0.035
       0.008
       0.025
       0.015
       0.000
      -0.002
       0.010
       0.026
       0.037
       0.043
       0.049
       0.053
       0.048
       0.032
       0.015
       0.009
       0.023
       0.048
       0.065
       0.059
       0.028
      -0.010
      -0.038
      -0.043
      -0.029
      -0.011
      -0.009
      -0.033
      -0.069
      -0.093
      -0.085
      -0.048
      -0.002
       0.032
       0.044
       0.039
       0.025
       0.006
      -0.015
      -0.033
      -0.041
      -0.040
      -0.037
      -0.040
      -0.048
      -0.047
      -0.029
      -0.001
       0.019
       0.026
       0.024
       0.027
       0.039
       0.048
       0.041
       0.013
      -0.022
      -0.044
      -0.037
      -0.005
       0.031
       0.044
       0.018
      -0.036
      -0.090
      -0.110
      -0.084
      -0.029
       0.022
       0.041
       0.028
       0.007
       0.005
       0.031
       0.062
       0.065
       0.029
      -0.022
      -0.052
      -0.045
      -0.016
       0.003
      -0.006
      -0.031
      -0.041
      -0.015
       0.039
       0.085
       0.094
       0.059
       0.001
      -0.055
      -0.089
      -0.098
      -0.084
      -0.054
      -0.015
       0.023
       0.049
       0.054
       0.037
       0.006
      -0.030
      -0.058
      -0.068
      -0.056
      -0.025
       0.012
       0.037
       0.034
       0.006
      -0.027
      -0.039
      -0.020
       0.015
       0.039
       0.038
       0.020
       0.010
       0.024
       0.051
       0.066
       0.053
       0.018
      -0.011
      -0.011
       0.015
       0.037
       0.027
      -0.013
      -0.056
      -0.072
      -0.055
      -0.020
       0.002
      -0.006
      -0.045
      -0.093
      -0.122
      -0.112
      -0.070
      -0.017
       0.025
       0.049
       0.061
       0.068
       0.072
       0.071
       0.064
       0.053
       0.043
       0.036
       0.029
       0.015
      -0.008
      -0.033
      -0.046
      -0.036
      -0.015
      -0.004
      -0.018
      -0.048
      -0.064
      -0.049
      -0.009
       0.022
       0.019
      -0.018
      -0.060
      -0.076
      -0.060
      -0.026
       0.003
       0.019
       0.029
       0.048
       0.076
       0.095
       0.082
       0.036
      -0.021
      -0.054
      -0.046
      -0.013
       0.012
       0.005
      -0.023
      -0.043
      -0.035
      -0.009
       0.008
      -0.001
      -0.018
      -0.013
       0.023
       0.065
       0.071
       0.029
      -0.033
      -0.067
      -0.050
       0.000
       0.042
       0.052
       0.033
       0.006
      -0.012
      -0.015
      -0.010
      -0.003
      -0.003
      -0.015
      -0.039
      -0.060
      -0.062
      -0.038
       0.000
       0.034
       0.050
       0.048
       0.032
       0.010
      -0.009
      -0.019
      -0.019
      -0.012
      -0.008
      -0.014
      -0.025
      -0.033
      -0.029
      -0.016
       0.004
       0.027
       0.048
       0.063
       0.060
       0.034
      -0.007
      -0.040
      -0.043
      -0.019
       0.010
       0.017
       0.003
      -0.013
      -0.012
       0.002
       0.011
       0.005
      -0.010
      -0.018
      -0.015
      -0.009
      -0.011
      -0.021
      -0.027
      -0.019
       0.005
       0.031
       0.045
       0.037
       0.012
      -0.020
      -0.042
      -0.045
      -0.034
      -0.021
      -0.021
      -0.035
      -0.048
      -0.046
      -0.022
       0.015
       0.046
       0.054
       0.039
       0.010
      -0.016
      -0.027
      -0.023
      -0.010
       0.004
       0.018
       0.030
       0.041
       0.047
       0.046
       0.037
       0.030
       0.035
       0.061
       0.101
       0.145
       0.193
       0.276
       0.425
       0.620
       0.737
       0.588
       0.064
      -0.715
      -1.383
      -1.535
      -1.030
      -0.161
       0.511
       0.560
       0.035
      -0.583
      -0.788
      -0.471
       0.007
       0.164
      -0.140
      -0.539
      -0.475
       0.272
       1.306
       1.879
       1.487
       0.309
      -0.873
      -1.241
      -0.576
       0.560
       1.270
       1.021
       0.014
      -1.025
      -1.383
      -0.848
       0.176
       0.992
       1.130
       0.618
      -0.178
      -0.882
      -1.283
      -1.293
      -0.908
      -0.237
       0.471
       0.893
       0.775
       0.138
      -0.613
      -0.880
      -0.345
       0.705
       1.544
       1.552
       0.684
      -0.501
      -1.227
      -1.012
       0.016
       1.173
       1.617
       0.883
      -0.750
      -2.343
      -2.843
      -1.787
       0.308
       2.203
       2.725
       1.587
      -0.374
      -1.777
      -1.721
      -0.425
       1.027
       1.593
       1.016
      -0.153
      -1.126
      -1.449
      -1.142
      -0.475
       0.280
       0.904
       1.187
       1.032
       0.607
       0.277
       0.276
       0.473
       0.470
      -0.006
      -0.788
      -1.341
      -1.224
      -0.545
       0.091
       0.133
      -0.372
      -0.833
      -0.700
       0.034
       0.862
       1.224
       0.958
       0.354
      -0.188
      -0.505
      -0.691
      -0.815
      -0.739
      -0.268
       0.535
       1.271
       1.480
       1.016
       0.183
      -0.483
      -0.618
      -0.283
       0.123
       0.204
      -0.111
      -0.532
      -0.647
      -0.261
       0.430
       0.947
       0.852
       0.067
      -1.021
      -1.769
      -1.646
      -0.576
       0.961
       2.113
       2.106
       0.748
      -1.302
      -2.800
      -2.692
      -0.904
       1.472
       2.860
       2.322
       0.300
      -1.632
      -1.935
      -0.313
       1.988
       3.119
       2.080
      -0.517
      -2.952
      -3.692
      -2.414
      -0.097
       1.725
       1.979
       0.741
      -0.838
      -1.380
      -0.348
       1.495
       2.642
       2.034
      -0.086
      -2.321
      -3.155
      -2.035
       0.256
       2.166
       2.446
       1.014
      -0.993
      -2.038
      -1.339
       0.505
       2.000
       1.988
       0.573
      -1.035
      -1.581
      -0.771
       0.559
       1.205
       0.565
      -0.922
      -2.147
      -2.171
      -0.911
       0.830
       1.984
       2.012
       1.213
       0.337
      -0.106
      -0.171
      -0.232
      -0.508
      -0.863
      -0.976
      -0.660
      -0.026
       0.583
       0.800
       0.443
      -0.318
      -0.963
      -0.930
      -0.127
       0.834
       1.082
       0.296
      -0.903
      -1.432
      -0.709
       0.771
       1.789
       1.430
      -0.064
      -1.431
      -1.469
      -0.123
       1.439
       1.841
       0.688
      -1.102
      -2.093
      -1.517
       0.124
       1.545
       1.772
       0.869
      -0.289
      -0.883
      -0.790
      -0.470
      -0.354
      -0.413
      -0.289
       0.209
       0.793
       0.937
       0.437
      -0.306
      -0.600
      -0.103
       0.812
       1.327
       0.904
      -0.219
      -1.245
      -1.531
      -1.065
      -0.309
       0.306
       0.622
       0.633
       0.349
      -0.129
      -0.520
      -0.514
      -0.090
       0.393
       0.533
       0.312
       0.096
       0.173
       0.374
       0.218
      -0.506
      -1.360
      -1.534
      -0.614
       0.871
       1.769
       1.292
      -0.214
      -1.492
      -1.443
      -0.062
       1.559
       2.160
       1.308
      -0.354
      -1.737
      -2.146
      -1.594
      -0.499
       0.720
       1.730
       2.165
       1.682
       0.303
      -1.334
      -2.270
      -1.916
      -0.536
       0.955
       1.686
       1.383
       0.395
      -0.645
      -1.168
      -0.880
       0.094
       1.203
       1.709
       1.138
      -0.330
      -1.842
      -2.361
      -1.415
       0.463
       2.006
       2.106
       0.677
      -1.216
      -2.117
      -1.305
       0.623
       2.185
       2.153
       0.500
      -1.574
      -2.547
      -1.712
       0.293
       1.942
       1.960
       0.341
      -1.628
      -2.402
      -1.439
       0.426
       1.782
       1.814
       0.797
      -0.358
      -0.882
      -0.583
       0.196
       0.863
       0.931
       0.316
      -0.590
      -1.166
      -1.010
      -0.259
       0.521
       0.819
       0.592
       0.234
       0.133
       0.263
       0.245
      -0.144
      -0.591
      -0.512
       0.238
       0.988
       0.787
      -0.589
      -2.211
      -2.748
      -1.672
       0.252
       1.626
       1.545
       0.220
      -1.316
      -2.036
      -1.558
      -0.157
       1.576
       2.995
       3.540
       2.973
       1.628
       0.277
      -0.469
      -0.688
      -0.916
      -1.357
      -1.532
      -0.883
       0.320
       0.924
      -0.078
      -2.384
      -4.307
      -4.026
      -1.157
       2.720
       5.097
       4.343
       0.918
      -2.930
      -4.709
      -3.282
       0.535
       4.560
       6.523
       5.316
       1.603
      -2.555
      -4.947
      -4.627
      -2.442
      -0.222
       0.735
       0.575
       0.438
       1.116
       2.128
       2.193
       0.694
      -1.358
      -2.027
      -0.324
       2.598
       4.198
       2.637
      -1.672
      -6.300
      -8.453
      -6.708
      -1.796
       3.803
       7.139
       6.389
       1.897
      -3.946
      -7.900
      -7.486
      -2.363
       5.129
      10.900
      11.484
       6.423
      -1.285
      -7.202
      -8.360
      -4.920
       0.371
       4.244
       4.947
       2.905
      -0.138
      -2.435
      -2.963
      -1.504
       1.305
       3.902
       4.360
       1.645
      -3.305
      -7.707
      -8.469
      -4.364
       2.606
       8.090
       8.361
       3.206
      -3.822
      -8.065
      -7.117
      -2.209
       3.123
       5.730
       4.796
       1.891
      -0.564
      -1.092
       0.057
       1.471
       1.775
       0.485
      -1.820
      -3.804
      -4.038
      -1.916
       1.658
       4.581
       4.917
       2.297
      -1.798
      -5.013
      -5.556
      -3.178
       0.754
       4.067
       4.995
       3.113
      -0.499
      -3.862
      -5.110
      -3.474
       0.225
       3.949
       5.630
       4.439
       1.201
      -2.282
      -4.391
      -4.449
      -2.728
      -0.040
       2.610
       4.189
       3.893
       1.642
      -1.503
      -3.612
      -3.074
       0.020
       3.561
       4.808
       2.583
      -1.603
      -4.639
      -4.336
      -1.235
       1.896
       2.457
       0.203
      -2.643
      -3.444
      -1.512
       1.338
       2.544
       1.168
      -1.342
      -2.611
      -1.495
       1.084
       3.137
       3.273
       1.548
      -0.895
      -2.701
      -2.960
      -1.529
       0.866
       2.874
       3.349
       2.268
       0.751
      -0.057
      -0.157
      -0.601
      -2.147
      -4.038
      -4.302
      -1.553
       3.286
       7.184
       7.220
       2.964
      -3.023
      -6.975
      -6.550
      -2.378
       2.466
       4.621
       2.763
      -1.502
      -4.850
      -4.678
      -0.972
       3.771
       6.405
       5.292
       1.260
      -3.129
      -5.310
      -4.314
      -1.235
       1.652
       2.503
       1.180
      -0.718
      -1.156
       0.667
       3.651
       5.699
       5.364
       2.863
      -0.320
      -2.712
      -3.794
      -3.926
      -3.655
      -3.224
      -2.645
      -1.979
      -1.380
      -0.829
      -0.017
       1.334
       2.969
       3.990
       3.421
       1.096
      -1.917
      -3.855
      -3.526
      -1.252
       1.355
       2.630
       2.056
       0.436
      -0.955
      -1.363
      -0.867
       0.005
       0.780
       1.185
       1.045
       0.350
      -0.515
      -0.793
       0.110
       1.979
       3.661
       3.746
       1.638
      -1.810
      -4.732
      -5.503
      -3.865
      -1.023
       1.284
       1.944
       1.016
      -0.580
      -1.786
      -1.940
      -0.913
       0.949
       2.882
       3.930
       3.459
       1.705
      -0.208
      -0.980
      -0.092
       1.754
       3.100
       2.777
       0.753
      -1.907
      -3.891
      -4.475
      -3.697
      -1.985
       0.135
       1.996
       2.773
       1.863
      -0.507
      -3.095
      -4.271
      -3.150
      -0.366
       2.252
       2.998
       1.569
      -0.789
      -2.326
      -2.129
      -0.656
       0.860
       1.529
       1.436
       1.315
       1.678
       2.288
       2.456
       1.792
       0.626
      -0.303
      -0.545
      -0.328
      -0.261
      -0.675
      -1.300
      -1.567
      -1.231
      -0.685
      -0.600
      -1.216
      -2.008
      -2.088
      -0.993
       0.830
       2.254
       2.287
       0.883
      -0.915
      -1.701
      -0.805
       1.127
       2.645
       2.675
       1.322
      -0.416
      -1.602
      -1.959
      -1.650
      -0.789
       0.597
       2.177
       3.150
       2.693
       0.715
      -1.787
      -3.259
      -2.731
      -0.654
       1.393
       1.940
       0.777
      -0.968
      -1.813
      -1.074
       0.680
       2.149
       2.279
       0.917
      -1.231
      -3.087
      -3.722
      -2.730
      -0.469
       1.982
       3.363
       3.078
       1.657
       0.323
      -0.058
       0.305
       0.416
      -0.448
      -1.901
      -2.671
      -1.747
       0.568
       2.700
       2.983
       1.024
      -1.892
      -3.694
      -3.029
      -0.278
       2.661
       3.682
       1.990
      -1.264
      -3.783
      -3.818
      -1.481
       1.406
       2.770
       1.872
      -0.276
      -1.876
      -1.765
      -0.131
       1.871
       3.043
       2.864
       1.616
       0.024
      -1.235
      -1.835
      -1.821
      -1.396
      -0.682
       0.321
       1.524
       2.514
       2.649
       1.556
      -0.431
      -2.364
      -3.306
      -2.964
      -1.814
      -0.657
      -0.011
       0.138
       0.144
       0.333
       0.790
       1.349
       1.682
       1.434
       0.451
      -0.930
      -1.877
      -1.572
       0.075
       2.147
       3.248
       2.489
       0.195
      -2.247
      -3.302
      -2.319
       0.038
       2.231
       2.869
       1.634
      -0.533
      -2.137
      -2.211
      -0.990
       0.360
       0.701
      -0.183
      -1.466
      -2.002
      -1.277
       0.191
       1.338
       1.469
       0.796
       0.130
       0.103
       0.641
       1.114
       0.964
       0.223
      -0.526
      -0.708
      -0.312
       0.115
       0.063
      -0.383
      -0.637
      -0.269
       0.486
       0.901
       0.455
      -0.645
      -1.594
      -1.649
      -0.734
       0.522
       1.271
       1.077
       0.210
      -0.584
      -0.655
       0.062
       1.024
       1.519
       1.210
       0.371
      -0.345
      -0.444
      -0.003
       0.408
       0.281
      -0.313
      -0.820
      -0.817
      -0.471
      -0.284
      -0.429
      -0.504
      -0.054
       0.744
       1.115
       0.501
      -0.712
      -1.413
      -0.807
       0.756
       2.013
       1.916
