Origin Time       05/3/2012 07:41:05	
Lat.              28.7 N	
Long.             76.6 E	
Depth (Km)         14.0
Magnitude         4.9
 Region           Haryana-Delhi-Border-Region                                      
 Above details taken from IMD 
     
Station Code      GGI
Station Lat.       28.665  N
Station Long.      77.232  E
Station Height(m)  207.0
Site Class        C   Vs30 between 200 m/sec to 375 m/sec *  
Record Time       05.03.2012 07:40:54.384
Sampling Rate     200. Hz
 Record Duration   91.865 Sec.
 Direction         E-W (E positive)
Max. Acceleration     -9.549 cm/sec**2
     
  * For reference see Site Classification link of website 
     
 Base Line Corrected and Low Pass Filtered (Cut Off at 35 Hz) Time History
 Acceleration data in cm/sec**2
    
[...]
       0.971
       1.320
       1.190
       0.593
      -0.195
      -0.763
      -0.795
      -0.253
       0.603
       1.357
       1.647
       1.330
       0.534
      -0.417
      -1.175
      -1.537
      -1.510
      -1.229
      -0.814
      -0.306
       0.284
       0.887
       1.353
       1.538
       1.418
       1.123
       0.865
       0.819
       1.030
       1.397
       1.699
       1.672
       1.133
       0.105
      -1.146
      -2.224
      -2.807
      -2.813
      -2.378
      -1.729
      -1.039
      -0.394
       0.170
       0.625
       0.926
       0.994
       0.734
       0.110
      -0.733
      -1.446
      -1.636
      -1.162
      -0.293
       0.435
       0.580
       0.088
      -0.724
      -1.422
      -1.716
      -1.561
      -1.091
      -0.519
      -0.041
       0.228
       0.311
       0.336
       0.434
       0.614
       0.745
       0.666
       0.357
      -0.003
      -0.143
       0.095
       0.652
       1.292
       1.734
       1.765
       1.305
       0.451
      -0.538
      -1.325
      -1.651
      -1.461
      -0.891
      -0.168
       0.488
       0.904
       0.971
       0.680
       0.158
      -0.345
      -0.558
      -0.321
       0.324
       1.148
       1.826
       2.076
       1.786
       1.072
       0.225
      -0.426
      -0.660
      -0.427
       0.161
       0.896
       1.513
       1.750
       1.449
       0.681
      -0.230
      -0.863
      -0.970
      -0.648
      -0.252
      -0.122
      -0.344
      -0.718
      -0.934
      -0.778
      -0.256
       0.409
       0.896
       0.955
       0.578
       0.030
      -0.312
      -0.239
       0.118
       0.367
       0.143
      -0.620
      -1.630
      -2.411
      -2.583
      -2.064
      -1.096
      -0.095
       0.572
       0.750
       0.538
       0.197
       0.004
       0.110
       0.473
       0.895
       1.130
       1.013
       0.529
      -0.169
      -0.830
      -1.208
      -1.161
      -0.721
      -0.083
       0.487
       0.780
       0.742
       0.485
       0.202
       0.054
       0.090
       0.232
       0.337
       0.287
       0.051
      -0.305
      -0.671
      -0.943
      -1.054
      -0.989
      -0.781
      -0.521
      -0.336
      -0.333
      -0.521
      -0.748
      -0.753
      -0.327
       0.508
       1.453
       2.079
       2.070
       1.412
       0.387
      -0.596
      -1.220
      -1.383
      -1.184
      -0.816
      -0.448
      -0.170
       0.011
       0.138
       0.261
       0.394
       0.507
       0.549
       0.487
       0.341
       0.174
       0.045
      -0.036
      -0.112
      -0.226
      -0.356
      -0.403
      -0.261
       0.092
       0.553
       0.940
       1.109
       1.037
       0.828
       0.627
       0.515
       0.453
       0.332
       0.078
      -0.267
      -0.565
      -0.691
      -0.628
      -0.484
      -0.402
      -0.432
      -0.482
      -0.389
      -0.069
       0.395
       0.802
       0.980
       0.902
       0.675
       0.449
       0.338
       0.398
       0.634
       0.987
       1.325
       1.482
       1.361
       0.997
       0.518
       0.034
      -0.443
      -0.944
      -1.426
      -1.706
      -1.559
      -0.907
       0.070
       1.015
       1.603
       1.696
       1.367
       0.816
       0.297
       0.020
       0.060
       0.298
       0.500
       0.487
       0.251
      -0.091
      -0.446
      -0.841
      -1.343
      -1.915
      -2.364
      -2.450
      -2.082
      -1.416
      -0.768
      -0.416
      -0.436
      -0.689
      -0.932
      -0.960
      -0.683
      -0.132
       0.567
       1.234
       1.682
       1.802
       1.607
       1.213
       0.747
       0.273
      -0.204
      -0.653
      -0.946
      -0.912
      -0.494
       0.119
       0.559
       0.507
      -0.077
      -0.923
      -1.619
      -1.859
      -1.572
      -0.898
      -0.078
       0.636
       1.026
       0.962
       0.455
      -0.315
      -1.060
      -1.521
      -1.585
      -1.309
      -0.823
      -0.225
       0.439
       1.105
       1.626
       1.817
       1.581
       1.005
       0.322
      -0.226
      -0.510
      -0.517
      -0.292
       0.106
       0.565
       0.897
       0.909
       0.572
       0.114
      -0.093
       0.192
       0.886
       1.623
       1.998
       1.809
       1.147
       0.317
      -0.329
      -0.563
      -0.410
      -0.143
      -0.115
      -0.495
      -1.116
      -1.576
      -1.533
      -0.957
      -0.139
       0.525
       0.796
       0.693
       0.419
       0.189
       0.129
       0.258
       0.543
       0.921
       1.291
       1.522
       1.510
       1.250
       0.839
       0.381
      -0.128
      -0.801
      -1.699
      -2.642
      -3.222
      -3.055
      -2.102
      -0.768
       0.323
       0.725
       0.432
      -0.167
      -0.573
      -0.481
       0.079
       0.822
       1.415
       1.665
       1.582
       1.316
       1.022
       0.764
       0.531
       0.318
       0.177
       0.155
       0.192
       0.115
      -0.221
      -0.784
      -1.358
      -1.710
      -1.760
      -1.615
      -1.447
      -1.362
      -1.362
      -1.401
      -1.419
      -1.320
      -0.975
      -0.314
       0.543
       1.283
       1.593
       1.407
       0.954
       0.551
       0.311
       0.072
      -0.382
      -1.031
      -1.563
      -1.628
      -1.152
      -0.402
       0.231
       0.531
       0.565
       0.550
       0.635
       0.788
       0.883
       0.867
       0.836
       0.923
       1.114
       1.199
       0.942
       0.323
      -0.389
      -0.827
      -0.806
      -0.459
      -0.107
      -0.009
      -0.183
      -0.444
      -0.566
      -0.446
      -0.146
       0.174
       0.372
       0.419
       0.409
       0.501
       0.797
       1.262
       1.728
       1.997
       1.959
       1.646
       1.186
       0.720
       0.326
       0.007
      -0.276
      -0.565
      -0.865
      -1.123
      -1.224
      -1.035
      -0.494
       0.293
       1.036
       1.381
       1.086
       0.183
      -0.987
      -1.894
      -2.060
      -1.318
       0.061
       1.453
       2.152
       1.710
       0.183
      -1.837
      -3.449
      -3.849
      -2.742
      -0.521
       1.907
       3.568
       3.878
       2.868
       1.064
      -0.820
      -2.200
      -2.788
      -2.603
      -1.878
      -0.925
      -0.028
       0.608
       0.858
       0.678
       0.127
      -0.594
      -1.168
      -1.295
      -0.875
      -0.089
       0.706
       1.226
       1.429
       1.467
       1.490
       1.485
       1.331
       0.968
       0.489
       0.063
      -0.209
      -0.338
      -0.384
      -0.401
      -0.463
      -0.683
      -1.142
      -1.748
      -2.191
      -2.103
      -1.331
      -0.101
       1.090
       1.780
       1.822
       1.430
       1.003
       0.872
       1.146
       1.695
       2.229
       2.420
       2.016
       0.958
      -0.570
      -2.167
      -3.336
      -3.670
      -3.060
      -1.783
      -0.417
       0.444
       0.502
      -0.088
      -0.830
      -1.200
      -0.958
      -0.271
       0.433
       0.776
       0.681
       0.386
       0.230
       0.387
       0.746
       1.023
       0.981
       0.583
      -0.012
      -0.560
      -0.885
      -0.976
      -0.996
      -1.185
      -1.666
      -2.289
      -2.659
      -2.390
      -1.419
      -0.096
       1.041
       1.638
       1.716
       1.559
       1.418
       1.329
       1.156
       0.789
       0.281
      -0.170
      -0.372
      -0.278
      -0.012
       0.237
       0.355
       0.369
       0.398
       0.525
       0.703
       0.785
       0.661
       0.394
       0.220
       0.406
       1.050
       1.976
       2.789
       3.087
       2.692
       1.763
       0.707
      -0.062
      -0.369
      -0.355
      -0.342
      -0.595
      -1.136
      -1.751
      -2.151
      -2.176
      -1.894
      -1.535
      -1.315
      -1.273
      -1.223
      -0.873
      -0.052
       1.095
       2.120
       2.524
       2.093
       1.074
       0.033
      -0.519
      -0.453
      -0.067
       0.169
      -0.060
      -0.752
      -1.667
      -2.496
      -2.990
      -3.002
      -2.503
      -1.600
      -0.533
       0.397
       0.947
       1.031
       0.713
       0.118
      -0.653
      -1.510
      -2.289
      -2.726
      -2.564
      -1.747
      -0.527
       0.628
       1.283
       1.259
       0.693
      -0.084
      -0.727
      -1.023
      -0.933
      -0.578
      -0.178
       0.032
      -0.090
      -0.526
      -1.087
      -1.511
      -1.592
      -1.284
      -0.712
      -0.093
       0.373
       0.592
       0.599
       0.521
       0.514
       0.717
       1.198
       1.913
       2.669
       3.172
       3.155
       2.534
       1.484
       0.363
      -0.459
      -0.774
      -0.596
      -0.124
       0.375
       0.692
       0.751
       0.624
       0.451
       0.355
       0.366
       0.434
       0.489
       0.509
       0.545
       0.698
       1.035
       1.506
       1.924
       2.070
       1.855
       1.420
       1.055
       0.997
       1.249
       1.569
       1.658
       1.365
       0.778
       0.116
      -0.453
      -0.894
      -1.246
      -1.511
      -1.620
      -1.475
      -1.024
      -0.312
       0.492
       1.114
       1.295
       0.998
       0.511
       0.288
       0.598
       1.257
       1.750
       1.652
       1.006
       0.287
      -0.019
       0.127
       0.225
      -0.396
      -2.041
      -4.318
      -6.274
      -6.880
      -5.596
      -2.675
       0.916
       3.931
       5.394
       5.030
       3.329
       1.238
      -0.350
      -1.008
      -0.847
      -0.280
       0.277
       0.566
       0.467
      -0.074
      -1.061
      -2.392
      -3.807
      -4.925
      -5.371
      -4.964
      -3.841
      -2.424
      -1.229
      -0.618
      -0.622
      -0.934
      -1.080
      -0.691
       0.278
       1.506
       2.483
       2.798
       2.351
       1.354
       0.162
      -0.938
      -1.820
      -2.482
      -2.969
      -3.288
      -3.369
      -3.082
      -2.343
      -1.233
      -0.039
       0.889
       1.373
       1.572
       1.896
       2.716
       4.046
       5.450
       6.250
       5.929
       4.447
       2.291
       0.244
      -0.990
      -1.099
      -0.289
       0.819
       1.489
       1.262
       0.250
      -0.880
      -1.264
      -0.377
       1.596
       3.825
       5.292
       5.368
       4.140
       2.301
       0.714
      -0.068
      -0.044
       0.343
       0.527
       0.177
      -0.648
      -1.605
      -2.343
      -2.744
      -2.936
      -3.119
      -3.382
      -3.682
      -3.942
      -4.109
      -4.088
      -3.663
      -2.574
      -0.752
       1.514
       3.625
       4.941
       5.064
       4.008
       2.213
       0.447
      -0.439
       0.076
       1.783
       3.663
       4.348
       2.921
      -0.464
      -4.574
      -7.732
      -8.672
      -7.142
      -3.964
      -0.570
       1.691
       2.152
       1.025
      -0.850
      -2.511
      -3.318
      -3.129
      -2.203
      -0.974
       0.159
       0.964
       1.430
       1.725
       2.047
       2.442
       2.734
       2.659
       2.104
       1.230
       0.348
      -0.304
      -0.696
      -0.928
      -1.077
      -1.116
      -0.963
      -0.581
      -0.044
       0.466
       0.731
       0.626
       0.247
      -0.092
      -0.051
       0.472
       1.223
       1.763
       1.792
       1.348
       0.727
       0.221
      -0.070
      -0.198
      -0.201
       0.000
       0.524
       1.360
       2.277
       2.916
       2.960
       2.306
       1.131
      -0.151
      -1.045
      -1.206
      -0.624
       0.367
       1.271
       1.692
       1.482
       0.731
      -0.333
      -1.425
      -2.265
      -2.684
      -2.721
      -2.608
      -2.577
      -2.634
      -2.527
      -1.989
      -1.068
      -0.217
      -0.007
      -0.656
      -1.754
      -2.430
      -1.886
       0.049
       2.712
       4.888
       5.465
       4.068
       1.304
      -1.543
      -3.174
      -2.944
      -1.156
       1.141
       2.693
       2.644
       0.908
      -1.822
      -4.420
      -5.855
      -5.645
      -4.006
      -1.666
       0.505
       1.833
       2.033
       1.275
       0.112
      -0.757
      -0.848
      -0.158
       0.866
       1.666
       1.938
       1.744
       1.335
       0.913
       0.546
       0.225
      -0.062
      -0.315
      -0.532
      -0.694
      -0.737
      -0.570
      -0.112
       0.638
       1.523
       2.211
       2.321
       1.711
       0.717
       0.059
       0.397
       1.835
       3.785
       5.324
       5.762
       5.003
       3.491
       1.865
       0.602
      -0.201
      -0.848
      -1.860
      -3.617
      -5.966
      -8.134
      -9.107
      -8.289
      -5.946
      -3.082
      -0.837
       0.162
       0.091
      -0.276
      -0.082
       1.074
       2.893
       4.587
       5.416
       5.191
       4.359
       3.621
       3.423
       3.711
       4.088
       4.145
       3.657
       2.560
       0.849
      -1.428
      -4.070
      -6.659
      -8.646
      -9.549
      -9.154
      -7.605
      -5.363
      -3.048
      -1.194
      -0.008
       0.713
       1.386
       2.265
       3.165
       3.547
       2.949
       1.419
      -0.409
      -1.659
      -1.733
      -0.648
       1.004
       2.400
       2.923
       2.450
       1.346
       0.200
      -0.539
      -0.784
      -0.794
      -0.945
      -1.487
      -2.393
      -3.342
      -3.810
      -3.280
      -1.534
       1.124
       3.899
       5.881
       6.517
       5.876
       4.514
       3.092
       2.054
       1.530
       1.391
       1.346
       1.046
       0.268
      -0.889
      -1.968
      -2.444
      -2.134
      -1.363
      -0.681
      -0.376
      -0.269
      -0.009
       0.467
       0.811
       0.627
      -0.069
      -0.772
      -0.892
      -0.266
       0.664
       1.154
       0.707
      -0.534
      -1.798
      -2.132
      -1.032
       1.123
       3.169
       3.810
       2.480
      -0.189
      -2.685
      -3.569
      -2.419
      -0.099
       1.839
       2.177
       0.768
      -1.455
      -3.142
      -3.363
      -2.113
      -0.207
       1.290
       1.701
       1.058
      -0.051
      -0.919
      -1.129
      -0.670
       0.224
       1.312
       2.436
       3.428
       4.012
       3.868
       2.861
       1.230
      -0.453
      -1.559
      -1.739
      -1.125
      -0.287
       0.045
      -0.591
      -2.051
      -3.557
      -4.137
      -3.299
      -1.467
       0.210
       0.614
      -0.555
      -2.559
      -4.127
      -4.284
      -2.928
      -0.809
       0.979
       1.603
       0.876
      -0.704
      -2.215
      -2.735
      -1.772
       0.475
       3.151
       5.105
       5.423
       3.853
       0.917
      -2.332
      -4.749
      -5.548
      -4.586
      -2.420
      -0.083
       1.379
       1.436
       0.378
      -0.826
      -1.113
       0.025
       2.241
       4.579
       6.042
       6.081
       4.753
       2.598
       0.417
      -0.996
      -1.144
      -0.100
       1.465
       2.604
       2.636
       1.537
      -0.116
      -1.581
      -2.436
      -2.762
      -2.940
      -3.268
      -3.717
      -3.984
      -3.767
      -3.028
      -2.028
      -1.138
      -0.585
      -0.302
       0.031
       0.802
       2.212
       4.087
       5.854
       6.769
       6.279
       4.338
       1.496
      -1.309
      -3.128
      -3.382
      -2.093
       0.132
       2.380
       3.864
       4.279
       3.847
       3.037
       2.187
       1.350
       0.460
      -0.398
      -0.931
      -0.883
      -0.352
       0.136
      -0.061
      -1.227
      -2.988
      -4.454
      -4.743
      -3.570
      -1.472
       0.477
       1.315
       0.728
      -0.840
      -2.531
      -3.594
      -3.728
      -3.134
      -2.295
      -1.672
      -1.441
      -1.388
      -1.031
       0.046
       1.812
       3.670
       4.755
       4.507
       3.071
       1.209
      -0.226
      -0.837
      -0.863
      -0.880
      -1.298
      -2.012
      -2.468
      -2.087
      -0.751
       1.005
       2.279
       2.384
       1.330
      -0.171
      -1.187
      -1.174
      -0.258
       0.969
       1.912
       2.325
       2.320
       2.112
       1.777
       1.195
       0.225
      -1.047
      -2.202
      -2.664
      -2.098
      -0.752
       0.563
       0.911
      -0.185
      -2.433
      -4.938
      -6.710
      -7.120
      -6.066
      -3.857
      -0.997
       1.947
       4.390
       5.768
       5.681
       4.115
       1.619
      -0.759
      -1.881
      -1.122
       1.173
       3.751
       5.097
       4.296
       1.590
      -1.740
      -4.098
      -4.473
      -2.967
      -0.648
       1.173
       1.768
       1.358
       0.817
       0.939
       1.838
       2.893
       3.241
       2.403
       0.589
      -1.484
      -3.045
      -3.649
      -3.276
      -2.228
      -0.937
       0.173
       0.790
       0.768
       0.166
      -0.754
      -1.562
      -1.783
      -1.099
       0.444
       2.397
       4.062
       4.764
       4.110
       2.158
      -0.489
      -2.761
      -3.487
      -2.014
       1.276
       4.989
       7.406
       7.450
       5.257
       1.986
      -0.936
      -2.567
      -2.780
      -2.091
      -1.237
      -0.760
      -0.789
      -1.077
      -1.244
      -1.063
      -0.601
      -0.104
       0.214
       0.274
       0.068
      -0.419
      -1.150
      -1.909
      -2.305
      -1.984
      -0.879
       0.712
       2.286
       3.362
       3.632
       2.997
       1.585
      -0.216
      -1.802
      -2.573
      -2.241
      -1.024
       0.455
       1.514
       1.746
       1.153
       0.059
      -1.074
      -1.822
      -1.952
      -1.529
      -0.916
      -0.591
      -0.848
      -1.617
      -2.565
      -3.382
      -3.997
      -4.521
      -4.994
      -5.233
      -4.931
      -3.924
      -2.366
      -0.667
       0.718
       1.492
       1.595
       1.199
       0.626
       0.236
       0.273
       0.770
       1.536
       2.245
       2.556
       2.246
       1.312
       0.033
      -1.098
      -1.579
      -1.156
       0.037
       1.571
       2.954
       3.843
       4.120
       3.901
       3.500
       3.336
       3.677
       4.363
       4.780
       4.239
       2.532
       0.173
      -1.888
      -2.873
      -2.638
      -1.673
      -0.706
      -0.226
      -0.247
      -0.444
      -0.489
      -0.307
      -0.074
      -0.010
      -0.202
      -0.568
      -0.944
      -1.176
      -1.168
      -0.901
      -0.454
      -0.005
       0.236
       0.144
      -0.228
      -0.675
      -0.976
      -1.041
      -0.959
      -0.907
      -0.995
      -1.167
