Origin Time       24/2/2010 19:20:52	 UTC
Lat.              28.6 N	
Long.             76.9 E	
Depth (Km)         17.0
Magnitude         2.5
 Region           Rohtak                                                           
 Above details taken from IMD 
    
Station Code      GGI
Station Lat.       28.665  N
Station Long.      77.232  E
Station Height(m)  207.0
Site Class        C   Vs30 between 200 m/sec to 375 m/sec *  
Record Time       24.02.2010 19:20:30.894 UTC
Sampling Rate     200. Hz
 Record Duration   81.560 Sec.
 Direction         N-S (N positive)
Max. Acceleration      2.426 cm/sec**2
     
  * For reference see Site Classification link of website 
     
 Base Line Corrected and Low Pass Filtered (Cut Off at 35 Hz) Time History
 Acceleration data in cm/sec**2
    
[...]
      -0.233
       0.019
       0.224
       0.276
       0.186
       0.047
      -0.035
      -0.006
       0.103
       0.197
       0.191
       0.075
      -0.084
      -0.195
      -0.218
      -0.176
      -0.115
      -0.060
      -0.009
       0.035
       0.056
       0.040
      -0.008
      -0.058
      -0.078
      -0.051
       0.017
       0.105
       0.181
       0.212
       0.171
       0.055
      -0.100
      -0.226
      -0.246
      -0.124
       0.093
       0.284
       0.323
       0.173
      -0.073
      -0.255
      -0.263
      -0.118
       0.058
       0.144
       0.102
      -0.013
      -0.114
      -0.144
      -0.104
      -0.035
       0.015
       0.032
       0.030
       0.034
       0.047
       0.057
       0.052
       0.039
       0.042
       0.075
       0.123
       0.143
       0.095
      -0.027
      -0.174
      -0.276
      -0.280
      -0.190
      -0.060
       0.042
       0.077
       0.049
      -0.004
      -0.042
      -0.046
      -0.014
       0.047
       0.128
       0.205
       0.228
       0.152
      -0.019
      -0.201
      -0.273
      -0.163
       0.078
       0.299
       0.353
       0.204
      -0.048
      -0.249
      -0.296
      -0.199
      -0.049
       0.053
       0.058
      -0.018
      -0.112
      -0.160
      -0.129
      -0.031
       0.082
       0.158
       0.161
       0.090
      -0.024
      -0.129
      -0.162
      -0.091
       0.062
       0.213
       0.270
       0.187
      -0.001
      -0.190
      -0.270
      -0.187
       0.020
       0.236
       0.345
       0.296
       0.132
      -0.050
      -0.168
      -0.189
      -0.130
      -0.023
       0.096
       0.190
       0.212
       0.134
      -0.027
      -0.202
      -0.291
      -0.230
      -0.039
       0.178
       0.294
       0.236
       0.036
      -0.194
      -0.324
      -0.284
      -0.093
       0.154
       0.337
       0.368
       0.229
      -0.022
      -0.277
      -0.423
      -0.397
      -0.225
      -0.018
       0.100
       0.072
      -0.045
      -0.126
      -0.073
       0.100
       0.286
       0.363
       0.289
       0.117
      -0.059
      -0.174
      -0.219
      -0.208
      -0.153
      -0.057
       0.055
       0.130
       0.119
       0.019
      -0.110
      -0.176
      -0.120
       0.040
       0.216
       0.300
       0.240
       0.066
      -0.128
      -0.242
      -0.222
      -0.085
       0.094
       0.219
       0.219
       0.091
      -0.100
      -0.257
      -0.301
      -0.210
      -0.026
       0.163
       0.262
       0.218
       0.058
      -0.121
      -0.203
      -0.134
       0.034
       0.179
       0.202
       0.094
      -0.062
      -0.163
      -0.151
      -0.049
       0.070
       0.133
       0.112
       0.032
      -0.054
      -0.108
      -0.125
      -0.124
      -0.119
      -0.097
      -0.040
       0.043
       0.106
       0.102
       0.035
      -0.041
      -0.063
      -0.014
       0.062
       0.104
       0.086
       0.035
      -0.006
      -0.017
      -0.014
      -0.021
      -0.040
      -0.047
      -0.015
       0.049
       0.106
       0.113
       0.056
      -0.037
      -0.111
      -0.114
      -0.040
       0.061
       0.114
       0.078
      -0.021
      -0.110
      -0.133
      -0.086
      -0.013
       0.044
       0.070
       0.073
       0.066
       0.047
       0.013
      -0.029
      -0.059
      -0.052
      -0.002
       0.068
       0.113
       0.091
       0.000
      -0.108
      -0.155
      -0.094
       0.044
       0.168
       0.188
       0.084
      -0.081
      -0.207
      -0.223
      -0.130
       0.003
       0.098
       0.121
       0.092
       0.055
       0.034
       0.014
      -0.028
      -0.088
      -0.123
      -0.087
       0.010
       0.099
       0.106
       0.016
      -0.105
      -0.163
      -0.108
       0.022
       0.135
       0.155
       0.073
      -0.055
      -0.154
      -0.174
      -0.105
       0.020
       0.149
       0.223
       0.207
       0.111
      -0.014
      -0.105
      -0.127
      -0.087
      -0.020
       0.032
       0.045
       0.022
      -0.008
      -0.005
       0.049
       0.132
       0.191
       0.181
       0.100
      -0.011
      -0.112
      -0.192
      -0.257
      -0.297
      -0.280
      -0.184
      -0.027
       0.130
       0.218
       0.204
       0.113
       0.011
      -0.033
       0.013
       0.118
       0.212
       0.226
       0.139
      -0.012
      -0.159
      -0.251
      -0.275
      -0.250
      -0.204
      -0.177
      -0.210
      -0.319
      -0.455
      -0.506
      -0.362
      -0.009
       0.427
       0.754
       0.835
       0.676
       0.399
       0.150
       0.008
      -0.031
      -0.013
       0.022
       0.049
       0.042
      -0.034
      -0.203
      -0.432
      -0.611
      -0.598
      -0.324
       0.123
       0.512
       0.602
       0.323
      -0.159
      -0.539
      -0.576
      -0.258
       0.213
       0.571
       0.653
       0.475
       0.185
      -0.043
      -0.108
      -0.020
       0.126
       0.218
       0.189
       0.047
      -0.151
      -0.341
      -0.492
      -0.594
      -0.617
      -0.496
      -0.185
       0.263
       0.671
       0.815
       0.581
       0.069
      -0.452
      -0.697
      -0.547
      -0.117
       0.327
       0.540
       0.446
       0.161
      -0.112
      -0.221
      -0.150
      -0.001
       0.097
       0.083
      -0.005
      -0.076
      -0.065
       0.022
       0.113
       0.140
       0.082
      -0.024
      -0.119
      -0.164
      -0.145
      -0.066
       0.051
       0.150
       0.144
      -0.030
      -0.333
      -0.608
      -0.665
      -0.417
       0.052
       0.535
       0.843
       0.899
       0.736
       0.435
       0.071
      -0.279
      -0.529
      -0.598
      -0.467
      -0.207
       0.046
       0.166
       0.093
      -0.131
      -0.380
      -0.494
      -0.373
      -0.042
       0.356
       0.644
       0.722
       0.602
       0.378
       0.144
      -0.044
      -0.176
      -0.247
      -0.244
      -0.162
      -0.040
       0.045
       0.028
      -0.080
      -0.181
      -0.173
      -0.049
       0.086
       0.101
      -0.028
      -0.185
      -0.216
      -0.078
       0.117
       0.210
       0.146
       0.020
      -0.015
       0.097
       0.257
       0.294
       0.122
      -0.169
      -0.370
      -0.338
      -0.128
       0.031
      -0.066
      -0.408
      -0.748
      -0.793
      -0.429
       0.199
       0.794
       1.110
       1.064
       0.732
       0.273
      -0.151
      -0.419
      -0.478
      -0.374
      -0.229
      -0.170
      -0.241
      -0.369
      -0.432
      -0.350
      -0.135
       0.143
       0.413
       0.621
       0.723
       0.683
       0.492
       0.193
      -0.140
      -0.433
      -0.637
      -0.726
      -0.684
      -0.503
      -0.198
       0.181
       0.541
       0.760
       0.732
       0.426
      -0.059
      -0.507
      -0.685
      -0.489
      -0.027
       0.420
       0.573
       0.343
      -0.104
      -0.452
      -0.445
      -0.067
       0.438
       0.726
       0.585
       0.089
      -0.452
      -0.715
      -0.583
      -0.216
       0.100
       0.171
       0.014
      -0.201
      -0.314
      -0.284
      -0.166
      -0.020
       0.137
       0.303
       0.445
       0.507
       0.456
       0.305
       0.099
      -0.114
      -0.287
      -0.360
      -0.286
      -0.083
       0.135
       0.214
       0.080
      -0.181
      -0.374
      -0.340
      -0.083
       0.233
       0.408
       0.348
       0.119
      -0.120
      -0.240
      -0.223
      -0.137
      -0.059
      -0.008
       0.042
       0.115
       0.189
       0.202
       0.098
      -0.122
      -0.372
      -0.514
      -0.445
      -0.178
       0.147
       0.355
       0.356
       0.217
       0.095
       0.117
       0.272
       0.431
       0.439
       0.237
      -0.102
      -0.428
      -0.602
      -0.560
      -0.325
       0.026
       0.385
       0.634
       0.676
       0.478
       0.100
      -0.309
      -0.579
      -0.600
      -0.386
      -0.066
       0.201
       0.314
       0.264
       0.104
      -0.099
      -0.278
      -0.357
      -0.278
      -0.055
       0.201
       0.343
       0.291
       0.100
      -0.096
      -0.190
      -0.183
      -0.146
      -0.134
      -0.124
      -0.044
       0.136
       0.349
       0.465
       0.395
       0.145
      -0.187
      -0.470
      -0.583
      -0.456
      -0.111
       0.329
       0.676
       0.776
       0.602
       0.263
      -0.083
      -0.331
      -0.465
      -0.513
      -0.485
      -0.359
      -0.118
       0.186
       0.431
       0.481
       0.279
      -0.094
      -0.443
      -0.581
      -0.450
      -0.142
       0.178
       0.380
       0.414
       0.303
       0.112
      -0.070
      -0.171
      -0.160
      -0.062
       0.079
       0.228
       0.354
       0.417
       0.366
       0.194
      -0.025
      -0.173
      -0.178
      -0.079
       0.018
       0.033
      -0.025
      -0.082
      -0.081
      -0.034
      -0.010
      -0.070
      -0.215
      -0.367
      -0.414
      -0.288
      -0.027
       0.235
       0.357
       0.280
       0.058
      -0.190
      -0.349
      -0.348
      -0.174
       0.118
       0.404
       0.530
       0.406
       0.094
      -0.212
      -0.326
      -0.212
       0.000
       0.132
       0.109
      -0.012
      -0.116
      -0.135
      -0.083
      -0.022
       0.006
      -0.002
      -0.027
      -0.054
      -0.078
      -0.096
      -0.091
      -0.044
       0.046
       0.155
       0.236
       0.239
       0.141
      -0.030
      -0.186
      -0.216
      -0.065
       0.210
       0.447
       0.478
       0.237
      -0.187
      -0.596
      -0.792
      -0.680
      -0.310
       0.153
       0.520
       0.668
       0.605
       0.440
       0.288
       0.187
       0.086
      -0.073
      -0.278
      -0.436
      -0.441
      -0.271
      -0.016
       0.164
       0.148
      -0.055
      -0.306
      -0.430
      -0.335
      -0.069
       0.221
       0.389
       0.373
       0.217
       0.019
      -0.124
      -0.167
      -0.130
      -0.077
      -0.061
      -0.077
      -0.074
       0.004
       0.155
       0.300
       0.326
       0.166
      -0.130
      -0.402
      -0.470
      -0.264
       0.108
       0.427
       0.511
       0.342
       0.053
      -0.204
      -0.368
      -0.461
      -0.487
      -0.389
      -0.122
       0.249
       0.546
       0.610
       0.418
       0.079
      -0.264
      -0.516
      -0.621
      -0.537
      -0.253
       0.160
       0.546
       0.733
       0.633
       0.296
      -0.113
      -0.397
      -0.424
      -0.198
       0.142
       0.400
       0.450
       0.317
       0.130
       0.011
      -0.019
      -0.019
      -0.048
      -0.106
      -0.154
      -0.166
      -0.163
      -0.188
      -0.251
      -0.306
      -0.280
      -0.144
       0.039
       0.145
       0.102
      -0.022
      -0.053
       0.130
       0.445
       0.638
       0.479
      -0.024
      -0.603
      -0.919
      -0.805
      -0.369
       0.111
       0.389
       0.393
       0.216
       0.015
      -0.100
      -0.114
      -0.094
      -0.118
      -0.184
      -0.188
       0.000
       0.381
       0.756
       0.834
       0.466
      -0.198
      -0.774
      -0.917
      -0.578
      -0.032
       0.346
       0.370
       0.155
      -0.024
       0.000
       0.146
       0.168
      -0.088
      -0.506
      -0.765
      -0.603
      -0.046
       0.586
       0.899
       0.705
       0.150
      -0.388
      -0.554
      -0.254
       0.291
       0.706
       0.727
       0.355
      -0.167
      -0.551
      -0.648
      -0.516
      -0.331
      -0.236
      -0.225
      -0.157
       0.105
       0.520
       0.834
       0.751
       0.216
      -0.461
      -0.793
      -0.512
       0.172
       0.713
       0.665
       0.044
      -0.705
      -1.069
      -0.846
      -0.234
       0.377
       0.682
       0.614
       0.304
      -0.031
      -0.207
      -0.155
       0.043
       0.215
       0.240
       0.145
       0.056
       0.052
       0.086
       0.056
      -0.066
      -0.196
      -0.232
      -0.162
      -0.071
      -0.042
      -0.057
      -0.009
       0.168
       0.402
       0.500
       0.282
      -0.279
      -1.014
      -1.620
      -1.801
      -1.442
      -0.702
       0.061
       0.502
       0.498
       0.214
      -0.026
       0.032
       0.396
       0.851
       1.155
       1.238
       1.213
       1.208
       1.204
       1.060
       0.693
       0.226
      -0.085
      -0.078
       0.148
       0.296
       0.108
      -0.432
      -1.105
      -1.618
      -1.787
      -1.615
      -1.254
      -0.886
      -0.602
      -0.356
      -0.047
       0.342
       0.661
       0.689
       0.337
      -0.196
      -0.497
      -0.225
       0.593
       1.521
       1.974
       1.626
       0.638
      -0.467
      -1.164
      -1.246
      -0.867
      -0.354
       0.026
       0.159
       0.050
      -0.255
      -0.674
      -1.057
      -1.182
      -0.846
      -0.016
       1.082
       2.030
       2.426
       2.085
       1.120
      -0.129
      -1.224
      -1.776
      -1.604
      -0.844
       0.073
       0.641
       0.584
       0.032
      -0.575
      -0.805
      -0.527
       0.049
       0.580
       0.843
       0.825
       0.635
       0.369
       0.080
      -0.191
      -0.408
      -0.581
      -0.753
      -0.899
      -0.844
      -0.380
       0.480
       1.372
       1.771
       1.399
       0.468
      -0.468
      -0.936
      -0.869
      -0.564
      -0.366
      -0.376
      -0.437
      -0.360
      -0.144
       0.003
      -0.128
      -0.490
      -0.745
      -0.508
       0.282
       1.226
       1.712
       1.386
       0.447
      -0.477
      -0.789
      -0.330
       0.538
       1.211
       1.231
       0.519
      -0.616
      -1.647
      -2.081
      -1.702
      -0.677
       0.549
       1.502
       1.886
       1.631
       0.831
      -0.286
      -1.346
      -1.921
      -1.763
      -1.012
      -0.116
       0.510
       0.774
       0.864
       0.954
       0.988
       0.775
       0.242
      -0.431
      -0.935
      -1.053
      -0.778
      -0.276
       0.234
       0.561
       0.583
       0.283
      -0.220
      -0.689
      -0.868
      -0.631
      -0.075
       0.517
       0.839
       0.740
       0.313
      -0.172
      -0.435
      -0.351
      -0.019
       0.299
       0.351
       0.077
      -0.330
      -0.554
      -0.382
       0.145
       0.766
       1.168
       1.145
       0.675
      -0.078
      -0.811
      -1.183
      -0.959
      -0.168
       0.837
       1.503
       1.387
       0.453
      -0.845
      -1.809
      -1.914
      -1.124
       0.124
       1.216
       1.714
       1.538
       0.914
       0.172
      -0.422
      -0.747
      -0.815
      -0.723
      -0.602
      -0.565
      -0.666
      -0.860
      -1.028
      -1.020
      -0.731
      -0.169
       0.499
       0.989
       1.057
       0.683
       0.137
      -0.173
       0.017
       0.630
       1.277
       1.506
       1.085
       0.167
      -0.788
      -1.275
      -1.068
      -0.377
       0.267
       0.383
      -0.100
      -0.778
      -1.072
      -0.687
       0.157
       0.901
       1.087
       0.689
       0.074
      -0.330
      -0.356
      -0.149
       0.037
       0.084
       0.082
       0.200
       0.482
       0.758
       0.746
       0.282
      -0.487
      -1.139
      -1.243
      -0.688
       0.205
       0.894
       0.996
       0.526
      -0.188
      -0.779
      -1.055
      -1.002
      -0.679
      -0.163
       0.408
       0.819
       0.874
       0.566
       0.113
      -0.203
      -0.259
      -0.143
      -0.016
       0.053
       0.094
       0.132
       0.134
       0.064
      -0.029
      -0.039
       0.061
       0.134
      -0.002
      -0.336
      -0.578
      -0.382
       0.288
       1.029
       1.264
       0.701
      -0.407
      -1.416
      -1.740
      -1.234
      -0.251
       0.651
       1.088
       1.019
       0.636
       0.131
      -0.395
      -0.860
      -1.103
      -0.946
      -0.382
       0.327
       0.778
       0.712
       0.216
      -0.344
      -0.605
      -0.451
      -0.044
       0.357
       0.597
       0.683
       0.681
       0.602
       0.409
       0.122
      -0.133
      -0.211
      -0.106
      -0.013
      -0.173
      -0.638
      -1.171
      -1.399
      -1.112
      -0.430
       0.298
       0.759
       0.872
       0.755
       0.561
       0.366
       0.190
       0.072
       0.087
       0.273
       0.551
       0.746
       0.703
       0.404
      -0.015
      -0.371
      -0.557
      -0.598
      -0.593
      -0.597
      -0.561
      -0.382
      -0.030
       0.377
       0.628
       0.558
       0.166
      -0.369
      -0.763
      -0.775
      -0.370
       0.229
       0.662
       0.699
       0.429
       0.185
       0.233
       0.512
       0.670
       0.386
      -0.321
      -1.069
      -1.403
      -1.133
      -0.467
       0.161
       0.392
       0.166
      -0.281
      -0.592
      -0.518
      -0.058
       0.547
       0.970
       0.993
       0.635
       0.131
      -0.233
      -0.295
      -0.103
       0.159
       0.313
       0.287
       0.130
      -0.051
      -0.155
      -0.137
      -0.032
       0.068
       0.069
      -0.048
      -0.210
      -0.301
      -0.253
      -0.120
      -0.055
      -0.192
      -0.504
      -0.784
      -0.787
      -0.436
       0.103
       0.534
       0.650
       0.473
       0.231
       0.160
       0.317
       0.536
       0.581
       0.361
       0.018
      -0.204
      -0.171
       0.034
       0.201
       0.172
      -0.066
      -0.404
      -0.694
      -0.798
      -0.629
      -0.221
       0.239
       0.500
       0.434
       0.161
      -0.043
       0.015
       0.259
       0.410
       0.265
      -0.094
      -0.365
      -0.312
       0.008
       0.298
       0.294
       0.006
      -0.317
      -0.431
      -0.329
      -0.222
      -0.298
      -0.513
      -0.608
      -0.357
       0.208
       0.782
       1.015
       0.791
       0.340
       0.061
       0.185
       0.562
       0.765
       0.452
      -0.317
      -1.082
      -1.317
      -0.832
       0.068
       0.803
       0.939
       0.488
      -0.140
      -0.462
      -0.280
       0.210
       0.607
       0.617
       0.236
      -0.298
      -0.698
      -0.812
      -0.671
      -0.412
      -0.164
       0.004
       0.064
      -0.003
      -0.162
      -0.270
      -0.150
       0.236
       0.687
       0.892
       0.709
       0.297
      -0.018
      -0.034
       0.158
       0.274
       0.091
      -0.361
      -0.830
      -1.021
      -0.790
      -0.239
