Origin Time       11/11/2013 20:11:30
Lat.              28.4 N	
Long.             77.2 E	
Depth (Km)         10.0
Magnitude         3.3
 Region           DELHI                                                            
 Above details taken from IMD 
     
Station Code      GGI
Station Lat.       28.665  N
Station Long.      77.232  E
Station Height(m)  207.0
Site Class        C   Vs30 between 200 m/sec to 375 m/sec *  
Record Time       11.11.2013 21:22:29.249
Sampling Rate     200. Hz
 Record Duration   81.090 Sec.
 Direction         E-W (E positive)
Max. Acceleration     17.852 cm/sec**2
     
  * For reference see Site Classification link of website 
     
 Base Line Corrected and Low Pass Filtered (Cut Off at 35 Hz) Time History
 Acceleration data in cm/sec**2
    
[...]
      -0.046
      -0.044
      -0.078
      -0.135
      -0.169
      -0.140
      -0.049
       0.060
       0.133
       0.148
       0.125
       0.105
       0.117
       0.151
       0.159
       0.100
      -0.031
      -0.180
      -0.271
      -0.248
      -0.119
       0.055
       0.195
       0.250
       0.215
       0.121
       0.013
      -0.073
      -0.115
      -0.104
      -0.057
      -0.010
      -0.004
      -0.057
      -0.144
      -0.204
      -0.181
      -0.070
       0.074
       0.173
       0.180
       0.107
       0.012
      -0.052
      -0.071
      -0.071
      -0.082
      -0.106
      -0.114
      -0.078
       0.006
       0.110
       0.190
       0.211
       0.169
       0.086
       0.006
      -0.033
      -0.020
       0.018
       0.038
       0.007
      -0.065
      -0.135
      -0.152
      -0.098
       0.002
       0.095
       0.137
       0.125
       0.085
       0.046
       0.019
      -0.001
      -0.020
      -0.034
      -0.035
      -0.027
      -0.022
      -0.029
      -0.043
      -0.044
      -0.017
       0.034
       0.085
       0.104
       0.073
       0.001
      -0.077
      -0.123
      -0.111
      -0.050
       0.029
       0.087
       0.106
       0.092
       0.067
       0.052
       0.056
       0.072
       0.085
       0.077
       0.035
      -0.037
      -0.116
      -0.160
      -0.135
      -0.047
       0.059
       0.120
       0.107
       0.042
      -0.020
      -0.032
       0.012
       0.073
       0.105
       0.088
       0.042
       0.006
       0.004
       0.025
       0.037
       0.015
      -0.038
      -0.090
      -0.114
      -0.103
      -0.076
      -0.056
      -0.051
      -0.056
      -0.061
      -0.057
      -0.040
      -0.007
       0.034
       0.066
       0.070
       0.034
      -0.029
      -0.087
      -0.108
      -0.086
      -0.043
      -0.011
      -0.005
      -0.017
      -0.025
      -0.017
       0.005
       0.027
       0.040
       0.043
       0.044
       0.049
       0.056
       0.060
       0.053
       0.035
       0.008
      -0.018
      -0.031
      -0.021
       0.012
       0.053
       0.087
       0.100
       0.090
       0.062
       0.022
      -0.021
      -0.050
      -0.051
      -0.023
       0.013
       0.030
       0.017
      -0.014
      -0.040
      -0.047
      -0.031
      -0.002
       0.028
       0.045
       0.039
       0.007
      -0.039
      -0.075
      -0.084
      -0.064
      -0.032
      -0.007
       0.001
      -0.004
      -0.014
      -0.021
      -0.020
      -0.009
       0.009
       0.019
       0.009
      -0.020
      -0.051
      -0.057
      -0.025
       0.035
       0.092
       0.119
       0.111
       0.088
       0.071
       0.063
       0.052
       0.029
       0.000
      -0.017
      -0.008
       0.020
       0.047
       0.053
       0.032
      -0.004
      -0.035
      -0.048
      -0.036
      -0.006
       0.024
       0.031
      -0.005
      -0.081
      -0.166
      -0.213
      -0.190
      -0.108
      -0.017
       0.027
       0.003
      -0.065
      -0.129
      -0.148
      -0.112
      -0.043
       0.027
       0.082
       0.125
       0.166
       0.201
       0.210
       0.175
       0.104
       0.027
      -0.019
      -0.019
       0.011
       0.041
       0.055
       0.053
       0.036
       0.004
      -0.035
      -0.053
      -0.018
       0.071
       0.164
       0.192
       0.130
       0.019
      -0.069
      -0.094
      -0.082
      -0.086
      -0.122
      -0.154
      -0.137
      -0.070
      -0.003
       0.022
       0.007
      -0.008
       0.005
       0.034
       0.040
       0.006
      -0.052
      -0.098
      -0.111
      -0.094
      -0.061
      -0.021
       0.021
       0.049
       0.048
       0.017
      -0.019
      -0.035
      -0.020
       0.009
       0.028
       0.026
       0.010
      -0.009
      -0.024
      -0.034
      -0.034
      -0.023
      -0.004
       0.007
      -0.001
      -0.025
      -0.040
      -0.025
       0.024
       0.087
       0.137
       0.149
       0.112
       0.036
      -0.048
      -0.095
      -0.075
       0.008
       0.108
       0.171
       0.169
       0.124
       0.076
       0.050
       0.038
       0.020
      -0.011
      -0.042
      -0.057
      -0.049
      -0.023
       0.008
       0.031
       0.037
       0.024
       0.000
      -0.019
      -0.021
      -0.010
       0.000
      -0.008
      -0.038
      -0.074
      -0.090
      -0.074
      -0.035
       0.002
       0.013
      -0.009
      -0.048
      -0.074
      -0.063
      -0.015
       0.039
       0.059
       0.027
      -0.035
      -0.083
      -0.086
      -0.049
       0.005
       0.050
       0.074
       0.073
       0.045
       0.004
      -0.030
      -0.044
      -0.043
      -0.048
      -0.069
      -0.096
      -0.106
      -0.085
      -0.044
      -0.009
       0.003
      -0.007
      -0.023
      -0.035
      -0.039
      -0.037
      -0.023
       0.008
       0.055
       0.105
       0.137
       0.134
       0.089
       0.014
      -0.063
      -0.110
      -0.102
      -0.041
       0.042
       0.102
       0.110
       0.073
       0.025
      -0.010
      -0.023
      -0.026
      -0.027
      -0.032
      -0.041
      -0.053
      -0.064
      -0.070
      -0.064
      -0.041
      -0.008
       0.023
       0.037
       0.030
       0.009
      -0.011
      -0.020
      -0.021
      -0.021
      -0.027
      -0.040
      -0.058
      -0.073
      -0.076
      -0.057
      -0.014
       0.043
       0.096
       0.129
       0.134
       0.114
       0.073
       0.018
      -0.039
      -0.078
      -0.085
      -0.060
      -0.019
       0.021
       0.051
       0.062
       0.051
       0.016
      -0.028
      -0.055
      -0.044
       0.002
       0.054
       0.075
       0.051
      -0.001
      -0.051
      -0.076
      -0.081
      -0.088
      -0.113
      -0.145
      -0.150
      -0.103
      -0.015
       0.067
       0.096
       0.063
       0.000
      -0.047
      -0.055
      -0.035
      -0.012
       0.010
       0.045
       0.097
       0.133
       0.106
       0.007
      -0.109
      -0.167
      -0.129
      -0.027
       0.068
       0.105
       0.082
       0.031
      -0.012
      -0.029
      -0.020
       0.005
       0.030
       0.040
       0.032
       0.015
       0.000
      -0.010
      -0.023
      -0.038
      -0.040
      -0.016
       0.027
       0.061
       0.060
       0.025
      -0.017
      -0.042
      -0.046
      -0.043
      -0.049
      -0.064
      -0.077
      -0.079
      -0.063
      -0.028
       0.020
       0.061
       0.070
       0.036
      -0.027
      -0.086
      -0.116
      -0.116
      -0.096
      -0.065
      -0.024
       0.023
       0.057
       0.054
       0.013
      -0.037
      -0.054
      -0.022
       0.030
       0.051
       0.019
      -0.042
      -0.084
      -0.080
      -0.041
       0.003
       0.025
       0.024
       0.015
       0.015
       0.030
       0.049
       0.051
       0.024
      -0.021
      -0.051
      -0.035
       0.025
       0.090
       0.119
       0.101
       0.059
       0.027
       0.014
       0.006
      -0.015
      -0.047
      -0.071
      -0.068
      -0.036
      -0.002
       0.002
      -0.035
      -0.092
      -0.122
      -0.094
      -0.022
       0.044
       0.061
       0.028
      -0.011
      -0.014
       0.024
       0.072
       0.091
       0.071
       0.035
       0.011
       0.003
      -0.029
      -0.133
      -0.309
      -0.476
      -0.503
      -0.315
       0.025
       0.322
       0.366
       0.082
      -0.409
      -0.848
      -0.990
      -0.727
      -0.129
       0.608
       1.233
       1.509
       1.275
       0.524
      -0.521
      -1.425
      -1.715
      -1.173
      -0.016
       1.216
       2.010
       2.167
       1.796
       1.091
       0.151
      -0.953
      -1.978
      -2.456
      -1.932
      -0.370
       1.617
       2.987
       2.849
       1.091
      -1.425
      -3.316
      -3.571
      -2.201
      -0.156
       1.388
       1.753
       1.022
      -0.183
      -1.122
      -1.296
      -0.616
       0.608
       1.818
       2.426
       2.081
       0.866
      -0.694
      -1.872
      -2.114
      -1.317
       0.097
       1.355
       1.722
       0.953
      -0.491
      -1.704
      -1.962
      -1.237
      -0.147
       0.584
       0.666
       0.347
       0.109
       0.289
       0.878
       1.545
       1.801
       1.249
      -0.169
      -2.026
      -3.478
      -3.594
      -1.911
       1.092
       4.040
       5.366
       4.273
       1.247
      -2.252
      -4.670
      -5.171
      -3.901
      -1.654
       0.714
       2.634
       3.760
       3.754
       2.346
      -0.247
      -3.018
      -4.515
      -3.767
      -1.022
       2.371
       4.832
       5.366
       3.810
       0.678
      -2.977
      -5.703
      -6.164
      -3.953
      -0.065
       3.563
       5.201
       4.299
       1.608
      -1.450
      -3.544
      -3.885
      -2.400
       0.238
       2.796
       4.023
       3.343
       1.190
      -1.328
      -3.094
      -3.455
      -2.325
      -0.137
       2.214
       3.620
       3.328
       1.490
      -0.850
      -2.455
      -2.705
      -1.879
      -0.774
      -0.048
       0.168
       0.158
       0.223
       0.426
       0.645
       0.744
       0.624
       0.230
      -0.375
      -0.912
      -0.989
      -0.406
       0.613
       1.531
       1.864
       1.463
       0.478
      -0.805
      -1.981
      -2.440
      -1.587
       0.569
       2.986
       4.027
       2.668
      -0.543
      -3.766
      -5.212
      -4.285
      -1.655
       1.441
       3.775
       4.339
       2.639
      -0.799
      -4.301
      -5.840
      -4.357
      -0.510
       3.728
       6.253
       5.922
       3.042
      -0.830
      -3.676
      -4.129
      -2.307
       0.297
       1.922
       1.803
       0.549
      -0.633
      -1.022
      -0.739
      -0.233
       0.309
       0.941
       1.520
       1.594
       0.851
      -0.416
      -1.456
      -1.704
      -1.208
      -0.446
       0.179
       0.575
       0.819
       0.916
       0.788
       0.459
       0.143
       0.044
       0.078
      -0.130
      -0.858
      -1.859
      -2.358
      -1.621
       0.328
       2.508
       3.577
       2.806
       0.609
      -1.809
      -3.303
      -3.391
      -2.256
      -0.410
       1.543
       2.971
       3.352
       2.564
       1.027
      -0.570
      -1.746
      -2.426
      -2.668
      -2.315
      -1.101
       0.881
       2.902
       3.934
       3.292
       1.044
      -2.023
      -4.655
      -5.500
      -3.713
       0.291
       4.593
       6.664
       5.081
       0.744
      -3.622
      -5.463
      -4.176
      -1.211
       1.388
       2.517
       2.354
       1.624
       0.785
      -0.111
      -1.024
      -1.621
      -1.481
      -0.568
       0.568
       1.179
       0.946
       0.269
      -0.112
       0.189
       0.853
       1.171
       0.701
      -0.357
      -1.336
      -1.601
      -0.950
       0.310
       1.545
       2.090
       1.515
      -0.177
      -2.422
      -4.183
      -4.390
      -2.633
       0.369
       3.072
       4.097
       3.158
       1.115
      -0.821
      -1.906
      -1.995
      -1.179
       0.342
       1.993
       2.789
       1.990
      -0.036
      -1.776
      -1.703
       0.336
       2.794
       3.563
       1.677
      -1.868
      -4.807
      -5.263
      -3.062
       0.242
       2.575
       2.829
       1.472
      -0.089
      -0.754
      -0.476
       0.063
       0.308
       0.264
       0.158
      -0.023
      -0.469
      -1.052
      -1.169
      -0.311
       1.238
       2.446
       2.428
       1.264
      -0.131
      -0.942
      -1.170
      -1.379
      -1.835
      -2.060
      -1.318
       0.475
       2.380
       3.093
       2.064
       0.019
      -1.636
      -2.024
      -1.450
      -0.875
      -0.802
      -0.806
      -0.193
       1.012
       1.946
       1.788
       0.641
      -0.568
      -0.990
      -0.554
       0.166
       0.622
       0.690
       0.520
       0.192
      -0.338
      -0.956
      -1.210
      -0.620
       0.764
       2.219
       2.889
       2.464
       1.278
      -0.131
      -1.391
      -2.241
      -2.398
      -1.769
      -0.778
      -0.228
      -0.657
      -1.847
      -2.988
      -3.319
      -2.637
      -1.328
       0.000
       0.942
       1.492
       1.948
       2.638
       3.621
       4.531
       4.731
       3.767
       1.859
       0.015
      -0.494
       0.902
       3.368
       4.934
       3.735
      -0.602
      -6.414
     -10.730
     -10.896
      -6.300
       0.811
       6.251
       6.467
       1.205
      -5.933
      -9.865
      -7.672
      -0.634
       6.840
      10.254
       7.697
       0.624
      -7.198
     -11.716
     -10.664
      -4.737
       2.865
       8.438
      10.076
       8.606
       6.426
       5.254
       4.805
       3.536
       0.576
      -3.183
      -5.822
      -5.988
      -3.734
      -0.201
       3.013
       4.204
       2.044
      -3.435
     -10.144
     -14.598
     -13.860
      -7.334
       2.786
      12.514
      17.852
      16.510
       8.911
      -1.942
     -11.642
     -16.137
     -13.442
      -4.608
       6.541
      14.940
      16.522
      10.297
      -0.700
     -10.448
     -13.062
      -6.605
       5.102
      14.653
      16.065
       8.834
      -2.163
     -10.456
     -12.223
      -8.105
      -2.032
       1.647
       0.897
      -2.960
      -6.540
      -7.048
      -4.180
       0.189
       3.885
       5.887
       6.210
       5.023
       2.366
      -1.304
      -4.677
      -6.044
      -4.449
      -0.568
       3.541
       5.744
       5.141
       2.324
      -1.346
      -4.520
      -6.147
      -5.570
      -2.793
       1.297
       5.181
       7.438
       7.413
       5.363
       2.216
      -0.734
      -2.228
      -1.791
      -0.366
       0.094
      -1.770
      -5.233
      -7.707
      -6.756
      -2.264
       3.214
       6.355
       5.604
       2.129
      -1.506
      -3.413
      -3.174
      -1.145
       2.206
       5.913
       8.030
       6.543
       1.342
      -4.950
      -8.664
      -7.929
      -3.953
       0.349
       2.864
       3.560
       3.642
       3.795
       3.371
       1.193
      -2.985
      -7.815
     -10.994
     -10.536
      -5.786
       2.189
      10.734
      16.344
      16.160
       9.687
      -0.551
     -10.226
     -15.497
     -14.655
      -8.352
       0.934
       9.512
      13.529
      10.815
       2.559
      -6.877
     -12.444
     -11.526
      -5.351
       2.283
       7.760
       9.602
       8.375
       5.299
       1.262
      -2.964
      -6.121
      -6.701
      -4.105
       0.447
       4.404
       5.507
       3.200
      -1.160
      -5.166
      -6.576
      -4.411
       0.376
       5.136
       6.956
       4.671
      -0.083
      -3.907
      -4.184
      -1.111
       2.465
       3.289
       0.254
      -4.665
      -7.810
      -6.544
      -1.277
       4.638
       7.146
       4.401
      -1.701
      -6.668
      -6.642
      -1.332
       5.715
       9.775
       8.415
       3.058
      -2.387
      -4.562
      -2.942
       0.202
       1.908
       0.880
      -1.713
      -3.433
      -2.612
       0.444
       3.862
       5.668
       5.063
       2.659
      -0.274
      -2.737
      -4.351
      -5.056
      -4.737
      -3.325
      -1.206
       0.721
       1.612
       1.410
       0.926
       1.043
       1.745
       1.998
       0.752
      -1.820
      -4.086
      -4.115
      -1.331
       2.779
       5.594
       5.255
       2.018
      -2.009
      -4.516
      -4.583
      -2.896
      -0.638
       1.548
       3.429
       4.395
       3.383
      -0.074
      -4.791
      -8.233
      -8.152
      -4.216
       1.662
       6.471
       7.856
       5.409
       0.850
      -2.980
      -3.764
      -1.089
       3.313
       6.681
       6.979
       4.125
      -0.091
      -3.281
      -3.995
      -2.490
      -0.317
       0.888
       0.571
      -0.433
      -0.707
       0.408
       2.052
       2.441
       0.436
      -3.262
      -6.428
      -6.969
      -4.566
      -0.895
       1.712
       2.015
       0.577
      -0.960
      -1.199
       0.182
       2.459
       4.405
       4.890
       3.416
       0.462
      -2.616
      -4.280
      -3.731
      -1.401
       1.370
       3.208
       3.517
       2.670
       1.529
       0.677
      -0.013
      -1.098
      -2.795
      -4.500
      -5.131
      -3.961
      -1.161
       2.304
       5.128
       6.146
       4.820
       1.634
      -1.962
      -4.297
      -4.464
      -2.812
      -0.588
       0.962
       1.358
       0.963
       0.417
      -0.020
      -0.584
      -1.509
      -2.466
      -2.553
      -0.967
       2.128
       5.288
       6.492
       4.554
       0.199
      -4.181
      -6.052
      -4.437
      -0.527
       3.211
       4.686
       3.400
       0.466
      -2.328
      -3.641
      -3.195
      -1.697
      -0.282
       0.215
      -0.214
      -0.740
      -0.368
       1.157
       3.019
       3.972
       3.365
       1.580
      -0.409
      -1.778
      -2.204
      -1.780
      -0.873
      -0.053
       0.089
      -0.684
      -2.002
      -3.061
      -3.155
      -2.116
      -0.374
       1.331
       2.359
       2.497
       2.036
       1.532
       1.379
       1.484
       1.333
       0.450
      -1.062
      -2.392
      -2.552
      -1.237
       0.776
       2.159
       2.102
       0.934
      -0.257
      -0.555
       0.178
       1.433
       2.613
       3.381
       3.563
       2.918
       1.221
      -1.343
      -3.944
      -5.452
      -5.203
      -3.542
      -1.581
      -0.335
       0.032
       0.171
       0.776
       1.816
       2.539
       2.237
       1.009
      -0.241
      -0.608
      -0.036
       0.599
       0.253
      -1.339
      -3.348
      -4.431
      -3.694
      -1.321
       1.575
       3.658
       4.107
       2.973
       1.064
      -0.536
      -1.091
      -0.650
       0.053
       0.261
      -0.090
      -0.274
       0.477
       2.013
       3.099
       2.416
      -0.115
      -3.020
      -4.379
      -3.354
      -0.774
       1.657
       2.690
       2.244
       1.070
      -0.089
      -1.012
      -1.822
      -2.500
      -2.715
      -2.161
      -1.011
       0.068
       0.386
      -0.246
      -1.374
      -2.175
      -1.921
      -0.426
       1.764
       3.624
       4.271
       3.471
       1.675
      -0.366
      -2.015
      -2.892
      -2.786
      -1.637
       0.276
       2.163
       2.971
       2.123
       0.188
      -1.284
      -0.922
       1.173
       3.307
       3.569
       1.523
      -1.359
      -2.961
      -2.276
      -0.124
       1.645
       1.668
