Origin Time       24/2/2010 19:20:52	
Lat.              28.6 N	
Long.             76.9 E	
Depth (Km)         17.0
Magnitude         2.5
 Region           Rohtak                                                           
 Above details taken from IMD 
   
Station Code      GGI
Station Lat.       28.665
Station Long.      77.232
Station Height(m)  207.0
Site Class        C   Vs30 between 200 m/sec to 375 m/sec *  
Record Time       24.02.2010 19:20:30.894
Sampling Rate     200. Hz
 Record Duration   81.560 Sec.
 Direction         Vert. (Up positive)
Max. Acceleration     -0.745 cm/sec**2
     
  * For reference see Site Classification link of website 
     
 Base Line Corrected and Low Pass Filtered (Cut Off at 35 Hz) Time History
 Acceleration data in cm/sec**2
    
[...]
       0.059
       0.015
      -0.033
      -0.060
      -0.057
      -0.036
      -0.012
       0.002
       0.007
       0.012
       0.021
       0.031
       0.032
       0.022
       0.007
       0.001
       0.006
       0.016
       0.018
       0.007
      -0.015
      -0.041
      -0.063
      -0.072
      -0.063
      -0.038
      -0.007
       0.016
       0.027
       0.026
       0.018
       0.009
       0.004
       0.009
       0.023
       0.036
       0.037
       0.024
       0.005
      -0.007
      -0.004
       0.006
       0.007
      -0.009
      -0.035
      -0.051
      -0.046
      -0.023
       0.002
       0.018
       0.024
       0.028
       0.031
       0.026
       0.006
      -0.026
      -0.056
      -0.064
      -0.048
      -0.025
      -0.011
      -0.006
       0.002
       0.020
       0.038
       0.038
       0.013
      -0.022
      -0.043
      -0.030
       0.010
       0.053
       0.066
       0.039
      -0.010
      -0.050
      -0.058
      -0.039
      -0.013
       0.000
      -0.005
      -0.014
      -0.011
       0.007
       0.025
       0.025
       0.002
      -0.028
      -0.046
      -0.042
      -0.022
       0.000
       0.011
       0.009
      -0.001
      -0.006
      -0.003
       0.005
       0.004
      -0.008
      -0.020
      -0.011
       0.023
       0.064
       0.078
       0.046
      -0.014
      -0.061
      -0.063
      -0.027
       0.013
       0.020
      -0.009
      -0.046
      -0.057
      -0.026
       0.034
       0.093
       0.122
       0.107
       0.058
       0.000
      -0.044
      -0.064
      -0.064
      -0.054
      -0.040
      -0.028
      -0.015
      -0.006
      -0.002
      -0.006
      -0.015
      -0.020
      -0.012
       0.006
       0.026
       0.032
       0.018
      -0.011
      -0.037
      -0.042
      -0.022
       0.008
       0.029
       0.028
       0.012
      -0.005
      -0.011
      -0.003
       0.014
       0.030
       0.037
       0.031
       0.015
      -0.001
      -0.006
       0.006
       0.020
       0.021
      -0.002
      -0.041
      -0.077
      -0.096
      -0.091
      -0.064
      -0.021
       0.027
       0.067
       0.085
       0.074
       0.039
      -0.002
      -0.034
      -0.050
      -0.049
      -0.034
      -0.013
       0.006
       0.016
       0.015
       0.015
       0.022
       0.036
       0.044
       0.035
       0.007
      -0.028
      -0.051
      -0.052
      -0.030
       0.004
       0.029
       0.033
       0.014
      -0.013
      -0.031
      -0.032
      -0.018
       0.003
       0.024
       0.037
       0.034
       0.014
      -0.012
      -0.031
      -0.034
      -0.024
      -0.009
       0.005
       0.017
       0.024
       0.019
       0.000
      -0.025
      -0.034
      -0.017
       0.018
       0.044
       0.044
       0.021
       0.000
      -0.007
      -0.003
      -0.005
      -0.021
      -0.039
      -0.045
      -0.034
      -0.014
       0.000
       0.005
       0.002
       0.003
       0.011
       0.023
       0.031
       0.026
       0.007
      -0.012
      -0.014
       0.006
       0.034
       0.045
       0.024
      -0.021
      -0.064
      -0.077
      -0.048
       0.008
       0.060
       0.082
       0.068
       0.032
      -0.003
      -0.018
      -0.014
      -0.009
      -0.019
      -0.041
      -0.055
      -0.044
      -0.009
       0.024
       0.032
       0.012
      -0.014
      -0.025
      -0.015
      -0.001
      -0.001
      -0.021
      -0.048
      -0.062
      -0.047
      -0.009
       0.031
       0.051
       0.045
       0.023
       0.004
       0.000
       0.006
       0.006
      -0.010
      -0.033
      -0.047
      -0.041
      -0.023
      -0.007
      -0.003
      -0.010
      -0.018
      -0.022
      -0.024
      -0.027
      -0.037
      -0.047
      -0.047
      -0.029
       0.004
       0.037
       0.053
       0.045
       0.026
       0.013
       0.014
       0.018
       0.008
      -0.019
      -0.045
      -0.047
      -0.019
       0.024
       0.060
       0.076
       0.084
       0.102
       0.136
       0.165
       0.158
       0.093
      -0.023
      -0.152
      -0.250
      -0.296
      -0.296
      -0.281
      -0.273
      -0.269
      -0.235
      -0.138
       0.027
       0.217
       0.362
       0.399
       0.308
       0.128
      -0.059
      -0.164
      -0.144
      -0.032
       0.083
       0.108
       0.014
      -0.137
      -0.223
      -0.151
       0.071
       0.325
       0.458
       0.391
       0.168
      -0.076
      -0.211
      -0.199
      -0.107
      -0.047
      -0.086
      -0.206
      -0.321
      -0.346
      -0.261
      -0.118
       0.006
       0.065
       0.069
       0.060
       0.069
       0.097
       0.129
       0.151
       0.159
       0.158
       0.149
       0.140
       0.145
       0.175
       0.214
       0.212
       0.113
      -0.099
      -0.359
      -0.546
      -0.549
      -0.346
      -0.030
       0.243
       0.351
       0.274
       0.101
      -0.039
      -0.065
       0.006
       0.085
       0.084
      -0.022
      -0.183
      -0.316
      -0.353
      -0.275
      -0.109
       0.088
       0.253
       0.344
       0.353
       0.305
       0.238
       0.171
       0.090
      -0.033
      -0.198
      -0.364
      -0.453
      -0.407
      -0.229
       0.005
       0.189
       0.249
       0.188
       0.081
       0.015
       0.024
       0.072
       0.087
       0.033
      -0.057
      -0.109
      -0.074
       0.034
       0.147
       0.195
       0.145
       0.017
      -0.133
      -0.243
      -0.269
      -0.200
      -0.065
       0.077
       0.164
       0.165
       0.100
       0.026
       0.000
       0.028
       0.068
       0.063
      -0.002
      -0.090
      -0.142
      -0.126
      -0.069
      -0.025
      -0.029
      -0.065
      -0.079
      -0.027
       0.082
       0.185
       0.211
       0.137
       0.012
      -0.083
      -0.096
      -0.045
       0.009
       0.012
      -0.030
      -0.066
      -0.046
       0.026
       0.095
       0.098
       0.027
      -0.065
      -0.107
      -0.075
      -0.004
       0.046
       0.039
      -0.013
      -0.074
      -0.109
      -0.108
      -0.080
      -0.040
      -0.003
       0.028
       0.048
       0.049
       0.026
      -0.011
      -0.036
      -0.028
       0.014
       0.064
       0.093
       0.089
       0.061
       0.025
      -0.010
      -0.048
      -0.091
      -0.137
      -0.167
      -0.158
      -0.101
      -0.009
       0.084
       0.139
       0.142
       0.109
       0.074
       0.066
       0.086
       0.106
       0.091
       0.021
      -0.086
      -0.185
      -0.227
      -0.194
      -0.113
      -0.043
      -0.028
      -0.067
      -0.109
      -0.097
      -0.009
       0.117
       0.214
       0.234
       0.179
       0.095
       0.034
       0.008
      -0.022
      -0.109
      -0.254
      -0.378
      -0.379
      -0.220
       0.025
       0.211
       0.238
       0.125
      -0.008
      -0.031
       0.087
       0.260
       0.350
       0.273
       0.066
      -0.143
      -0.230
      -0.159
       0.003
       0.143
       0.170
       0.062
      -0.121
      -0.276
      -0.319
      -0.236
      -0.091
       0.017
       0.028
      -0.041
      -0.107
      -0.086
       0.044
       0.220
       0.336
       0.317
       0.167
      -0.031
      -0.166
      -0.171
      -0.067
       0.053
       0.089
       0.007
      -0.139
      -0.245
      -0.237
      -0.118
       0.045
       0.168
       0.208
       0.170
       0.094
       0.022
      -0.017
      -0.018
      -0.001
       0.008
      -0.009
      -0.041
      -0.060
      -0.041
       0.005
       0.041
       0.027
      -0.040
      -0.117
      -0.146
      -0.097
       0.003
       0.089
       0.104
       0.044
      -0.035
      -0.064
      -0.016
       0.072
       0.134
       0.129
       0.072
       0.016
       0.005
       0.036
       0.063
       0.036
      -0.052
      -0.157
      -0.228
      -0.240
      -0.204
      -0.143
      -0.075
      -0.007
       0.051
       0.089
       0.110
       0.127
       0.143
       0.146
       0.117
       0.059
      -0.002
      -0.036
      -0.035
      -0.021
      -0.021
      -0.045
      -0.070
      -0.061
       0.000
       0.090
       0.157
       0.154
       0.072
      -0.047
      -0.139
      -0.167
      -0.145
      -0.116
      -0.109
      -0.108
      -0.075
       0.013
       0.126
       0.199
       0.172
       0.047
      -0.099
      -0.170
      -0.121
       0.003
       0.105
       0.113
       0.030
      -0.079
      -0.148
      -0.144
      -0.071
       0.050
       0.180
       0.263
       0.245
       0.104
      -0.118
      -0.326
      -0.415
      -0.328
      -0.103
       0.143
       0.287
       0.272
       0.143
       0.010
      -0.033
       0.016
       0.073
       0.044
      -0.089
      -0.238
      -0.278
      -0.153
       0.074
       0.261
       0.292
       0.169
      -0.003
      -0.099
      -0.077
      -0.002
       0.025
      -0.040
      -0.148
      -0.205
      -0.160
      -0.044
       0.058
       0.079
       0.017
      -0.071
      -0.121
      -0.100
      -0.034
       0.026
       0.045
       0.037
       0.045
       0.090
       0.137
       0.116
      -0.006
      -0.172
      -0.264
      -0.192
       0.020
       0.238
       0.319
       0.209
      -0.019
      -0.224
      -0.289
      -0.195
      -0.019
       0.126
       0.163
       0.100
       0.005
      -0.047
      -0.033
       0.018
       0.056
       0.038
      -0.039
      -0.136
      -0.190
      -0.156
      -0.040
       0.091
       0.154
       0.102
      -0.039
      -0.180
      -0.221
      -0.121
       0.075
       0.254
       0.308
       0.211
       0.033
      -0.101
      -0.103
       0.017
       0.155
       0.190
       0.072
      -0.138
      -0.306
      -0.323
      -0.180
       0.030
       0.180
       0.203
       0.113
      -0.018
      -0.123
      -0.163
      -0.130
      -0.045
       0.049
       0.099
       0.072
      -0.015
      -0.097
      -0.107
      -0.028
       0.090
       0.172
       0.175
       0.116
       0.047
       0.015
       0.028
       0.053
       0.039
      -0.036
      -0.138
      -0.198
      -0.169
      -0.069
       0.024
       0.040
      -0.025
      -0.105
      -0.122
      -0.049
       0.069
       0.160
       0.174
       0.113
       0.022
      -0.048
      -0.069
      -0.048
      -0.016
       0.001
      -0.005
      -0.028
      -0.057
      -0.076
      -0.064
      -0.013
       0.064
       0.132
       0.145
       0.091
       0.009
      -0.032
       0.008
       0.098
       0.153
       0.107
      -0.024
      -0.149
      -0.179
      -0.097
       0.017
       0.061
      -0.012
      -0.145
      -0.231
      -0.190
      -0.037
       0.135
       0.217
       0.157
      -0.006
      -0.160
      -0.197
      -0.079
       0.125
       0.282
       0.276
       0.092
      -0.166
      -0.342
      -0.332
      -0.160
       0.042
       0.142
       0.110
       0.029
       0.004
       0.064
       0.133
       0.110
      -0.029
      -0.191
      -0.247
      -0.141
       0.047
       0.163
       0.108
      -0.074
      -0.236
      -0.239
      -0.068
       0.163
       0.305
       0.286
       0.149
       0.006
      -0.055
      -0.037
      -0.008
      -0.038
      -0.128
      -0.213
      -0.209
      -0.086
       0.097
       0.229
       0.226
       0.092
      -0.077
      -0.165
      -0.120
       0.014
       0.132
       0.146
       0.042
      -0.124
      -0.271
      -0.329
      -0.264
      -0.091
       0.120
       0.260
       0.243
       0.074
      -0.136
      -0.243
      -0.167
       0.045
       0.255
       0.337
       0.271
       0.137
       0.039
       0.020
       0.039
       0.015
      -0.100
      -0.273
      -0.406
      -0.405
      -0.256
      -0.040
       0.123
       0.159
       0.081
      -0.028
      -0.075
      -0.016
       0.129
       0.288
       0.376
       0.328
       0.145
      -0.093
      -0.253
      -0.235
      -0.051
       0.172
       0.268
       0.149
      -0.125
      -0.388
      -0.486
      -0.387
      -0.197
      -0.066
      -0.075
      -0.182
      -0.264
      -0.213
      -0.006
       0.277
       0.501
       0.555
       0.414
       0.164
      -0.035
      -0.050
       0.135
       0.391
       0.531
       0.435
       0.136
      -0.211
      -0.437
      -0.469
      -0.360
      -0.224
      -0.147
      -0.144
      -0.168
      -0.164
      -0.116
      -0.056
      -0.041
      -0.100
      -0.203
      -0.268
      -0.217
      -0.030
       0.242
       0.505
       0.672
       0.687
       0.542
       0.271
      -0.052
      -0.333
      -0.494
      -0.498
      -0.364
      -0.155
       0.047
       0.175
       0.187
       0.086
      -0.073
      -0.194
      -0.190
      -0.039
       0.184
       0.339
       0.306
       0.063
      -0.279
      -0.539
      -0.572
      -0.352
       0.019
       0.359
       0.500
       0.382
       0.111
      -0.099
      -0.071
       0.180
       0.443
       0.479
       0.210
      -0.228
      -0.602
      -0.745
      -0.628
      -0.335
       0.005
       0.263
       0.352
       0.261
       0.073
      -0.073
      -0.075
       0.050
       0.179
       0.194
       0.079
      -0.077
      -0.178
      -0.192
      -0.150
      -0.101
      -0.067
      -0.029
       0.041
       0.138
       0.217
       0.226
       0.158
       0.061
      -0.007
      -0.032
      -0.045
      -0.081
      -0.134
      -0.154
      -0.095
       0.046
       0.229
       0.394
       0.478
       0.431
       0.240
      -0.053
      -0.359
      -0.575
      -0.633
      -0.527
      -0.300
      -0.019
       0.238
       0.391
       0.382
       0.209
      -0.056
      -0.309
      -0.461
      -0.474
      -0.351
      -0.118
       0.180
       0.467
       0.637
       0.607
       0.386
       0.098
      -0.088
      -0.084
       0.046
       0.136
       0.054
      -0.198
      -0.477
      -0.597
      -0.453
      -0.099
       0.266
       0.420
       0.254
      -0.135
      -0.495
      -0.583
      -0.324
       0.139
       0.550
       0.705
       0.569
       0.253
      -0.078
      -0.299
      -0.353
      -0.237
       0.012
       0.312
       0.527
       0.524
       0.265
      -0.125
      -0.422
      -0.461
      -0.265
       0.000
       0.176
       0.219
       0.182
       0.113
       0.014
      -0.124
      -0.263
      -0.339
      -0.324
      -0.256
      -0.207
      -0.202
      -0.191
      -0.102
       0.075
       0.263
       0.352
       0.300
       0.173
       0.086
       0.101
       0.181
       0.232
       0.190
       0.067
      -0.070
      -0.159
      -0.181
      -0.146
      -0.076
       0.009
       0.081
       0.107
       0.059
      -0.069
      -0.238
      -0.368
      -0.369
      -0.209
       0.039
       0.232
       0.258
       0.128
      -0.027
      -0.064
       0.056
       0.241
       0.360
       0.348
       0.241
       0.119
       0.043
       0.021
       0.028
       0.028
      -0.015
      -0.116
      -0.245
      -0.323
      -0.265
      -0.052
       0.217
       0.374
       0.300
       0.033
      -0.245
      -0.342
      -0.215
      -0.002
       0.091
      -0.024
      -0.243
      -0.360
      -0.245
       0.040
       0.286
       0.299
       0.075
      -0.183
      -0.223
       0.039
       0.429
       0.650
       0.525
       0.135
      -0.269
      -0.472
      -0.434
      -0.253
      -0.044
       0.132
       0.241
       0.241
       0.114
      -0.086
      -0.236
      -0.231
      -0.070
       0.130
       0.210
       0.087
      -0.175
      -0.394
      -0.396
      -0.147
       0.205
       0.431
       0.382
       0.097
      -0.217
      -0.327
      -0.136
       0.251
       0.591
       0.665
       0.413
      -0.032
      -0.433
      -0.594
      -0.472
      -0.190
       0.058
       0.125
       0.000
      -0.202
      -0.321
      -0.256
      -0.025
       0.266
       0.485
       0.538
       0.401
       0.137
      -0.128
      -0.260
      -0.200
      -0.002
       0.199
       0.277
       0.199
       0.032
      -0.131
      -0.233
      -0.274
      -0.271
      -0.228
      -0.149
      -0.061
      -0.017
      -0.050
      -0.130
      -0.176
      -0.127
       0.004
       0.139
       0.197
       0.164
       0.103
       0.112
       0.242
       0.441
       0.559
       0.449
       0.093
      -0.347
      -0.633
      -0.625
      -0.383
      -0.099
       0.057
       0.049
      -0.041
      -0.103
      -0.079
       0.022
       0.158
       0.276
       0.333
       0.298
       0.167
      -0.026
      -0.206
      -0.282
      -0.201
       0.008
       0.223
       0.306
       0.193
      -0.052
      -0.269
      -0.319
      -0.176
       0.053
       0.218
       0.232
       0.122
      -0.006
      -0.064
      -0.040
       0.005
       0.005
      -0.047
      -0.107
      -0.123
      -0.097
      -0.071
      -0.073
      -0.073
      -0.010
       0.138
       0.308
       0.387
       0.304
       0.091
      -0.132
      -0.247
      -0.214
      -0.082
       0.058
       0.132
       0.113
       0.028
      -0.062
      -0.104
      -0.087
      -0.042
      -0.010
      -0.004
      -0.005
       0.011
       0.047
       0.075
       0.065
       0.014
      -0.041
      -0.053
      -0.016
       0.015
      -0.033
      -0.180
      -0.344
      -0.378
      -0.177
       0.216
       0.599
       0.728
       0.495
       0.025
      -0.395
      -0.507
      -0.263
       0.155
       0.468
       0.495
       0.250
      -0.089
      -0.303
      -0.278
      -0.063
       0.173
       0.262
       0.135
      -0.144
      -0.427
      -0.564
      -0.486
      -0.233
       0.059
       0.240
       0.221
       0.038
      -0.163
      -0.211
      -0.029
       0.295
       0.568
       0.625
       0.443
       0.142
      -0.117
      -0.244
      -0.242
      -0.170
      -0.079
      -0.003
       0.035
       0.025
      -0.019
      -0.073
      -0.120
      -0.159
      -0.170
      -0.113
       0.036
       0.225
       0.336
       0.265
       0.029
      -0.216
      -0.283
      -0.108
       0.184
       0.378
       0.336
       0.093
      -0.176
      -0.293
      -0.195
       0.032
       0.213
       0.208
       0.009
      -0.253
      -0.391
      -0.290
       0.009
       0.337
       0.505
       0.430
       0.183
      -0.072
      -0.187
      -0.125
       0.037
       0.166
       0.154
      -0.014
      -0.250
      -0.404
      -0.365
      -0.147
       0.097
       0.185
       0.049
      -0.196
      -0.340
      -0.255
       0.003
       0.247
       0.316
       0.196
       0.020
      -0.053
       0.037
       0.204
