Origin Time       24/2/2010 19:20:52	
Lat.              28.6 N	
Long.             76.9 E	
Depth (Km)         17.0
Magnitude         2.5
 Region           Rohtak                                                           
 Above details taken from IMD 
     
Station Code      GGI
Station Lat.       28.665  N
Station Long.      77.232  E
Station Height(m)  207.0
Site Class        C   Vs30 between 200 m/sec to 375 m/sec *  
Record Time       24.02.2010 19:20:30.894
Sampling Rate     200. Hz
 Record Duration   81.560 Sec.
 Direction         E-W (E positive)
Max. Acceleration     -3.685 cm/sec**2
     
  * For reference see Site Classification link of website 
     
 Base Line Corrected and Low Pass Filtered (Cut Off at 35 Hz) Time History
 Acceleration data in cm/sec**2
    
[...]
       0.150
       0.058
      -0.051
      -0.102
      -0.060
       0.031
       0.078
       0.028
      -0.079
      -0.145
      -0.101
       0.026
       0.138
       0.160
       0.099
       0.024
      -0.003
       0.022
       0.055
       0.059
       0.036
       0.011
      -0.002
      -0.019
      -0.063
      -0.130
      -0.177
      -0.152
      -0.044
       0.093
       0.173
       0.140
       0.024
      -0.076
      -0.076
       0.019
       0.110
       0.098
      -0.023
      -0.154
      -0.180
      -0.071
       0.094
       0.191
       0.159
       0.039
      -0.072
      -0.097
      -0.033
       0.061
       0.116
       0.099
       0.031
      -0.036
      -0.060
      -0.041
      -0.014
      -0.007
      -0.017
      -0.026
      -0.043
      -0.095
      -0.179
      -0.227
      -0.152
       0.056
       0.284
       0.368
       0.233
      -0.032
      -0.233
      -0.237
      -0.072
       0.098
       0.124
       0.002
      -0.131
      -0.137
      -0.004
       0.137
       0.142
      -0.006
      -0.172
      -0.189
      -0.008
       0.244
       0.365
       0.239
      -0.056
      -0.301
      -0.318
      -0.107
       0.155
       0.253
       0.109
      -0.164
      -0.351
      -0.304
      -0.052
       0.226
       0.345
       0.255
       0.062
      -0.081
      -0.094
      -0.018
       0.042
       0.021
      -0.052
      -0.096
      -0.060
       0.019
       0.048
      -0.033
      -0.178
      -0.259
      -0.169
       0.077
       0.330
       0.412
       0.252
      -0.047
      -0.277
      -0.280
      -0.072
       0.179
       0.292
       0.210
       0.022
      -0.130
      -0.168
      -0.121
      -0.065
      -0.047
      -0.052
      -0.035
       0.020
       0.082
       0.101
       0.060
      -0.002
      -0.020
       0.040
       0.133
       0.159
       0.048
      -0.161
      -0.327
      -0.312
      -0.106
       0.157
       0.307
       0.268
       0.102
      -0.060
      -0.131
      -0.109
      -0.043
       0.024
       0.068
       0.077
       0.036
      -0.054
      -0.166
      -0.242
      -0.221
      -0.079
       0.135
       0.314
       0.350
       0.216
      -0.004
      -0.169
      -0.182
      -0.064
       0.067
       0.091
      -0.013
      -0.155
      -0.217
      -0.143
       0.019
       0.171
       0.241
       0.225
       0.163
       0.093
       0.024
      -0.048
      -0.112
      -0.137
      -0.101
      -0.021
       0.049
       0.058
      -0.001
      -0.083
      -0.134
      -0.131
      -0.090
      -0.039
       0.013
       0.074
       0.136
       0.168
       0.136
       0.042
      -0.076
      -0.166
      -0.192
      -0.152
      -0.076
      -0.004
       0.034
       0.040
       0.034
       0.043
       0.070
       0.090
       0.071
       0.011
      -0.045
      -0.041
       0.037
       0.127
       0.136
       0.018
      -0.172
      -0.312
      -0.301
      -0.142
       0.069
       0.209
       0.227
       0.163
       0.100
       0.086
       0.111
       0.128
       0.106
       0.046
      -0.027
      -0.091
      -0.137
      -0.161
      -0.155
      -0.111
      -0.037
       0.032
       0.055
       0.015
      -0.052
      -0.077
      -0.016
       0.107
       0.212
       0.217
       0.099
      -0.082
      -0.219
      -0.235
      -0.133
       0.006
       0.088
       0.070
      -0.014
      -0.087
      -0.095
      -0.037
       0.042
       0.092
       0.094
       0.067
       0.038
       0.023
       0.014
      -0.008
      -0.047
      -0.086
      -0.099
      -0.073
      -0.026
       0.005
      -0.005
      -0.043
      -0.065
      -0.029
       0.066
       0.177
       0.246
       0.231
       0.128
      -0.033
      -0.195
      -0.300
      -0.304
      -0.208
      -0.055
       0.086
       0.164
       0.165
       0.117
       0.063
       0.040
       0.056
       0.092
       0.117
       0.104
       0.044
      -0.049
      -0.147
      -0.219
      -0.239
      -0.191
      -0.079
       0.057
       0.156
       0.169
       0.098
       0.012
      -0.010
       0.054
       0.151
       0.188
       0.117
      -0.029
      -0.167
      -0.221
      -0.170
      -0.047
       0.084
       0.155
       0.127
       0.007
      -0.140
      -0.230
      -0.208
      -0.090
       0.054
       0.147
       0.150
       0.069
      -0.058
      -0.175
      -0.228
      -0.188
      -0.075
       0.052
       0.142
       0.185
       0.211
       0.243
       0.275
       0.293
       0.301
       0.312
       0.307
       0.213
      -0.033
      -0.405
      -0.756
      -0.901
      -0.756
      -0.412
      -0.073
       0.085
       0.031
      -0.112
      -0.162
       0.002
       0.346
       0.700
       0.862
       0.736
       0.400
       0.055
      -0.118
      -0.073
       0.082
       0.173
       0.080
      -0.204
      -0.580
      -0.885
      -0.963
      -0.739
      -0.278
       0.228
       0.547
       0.546
       0.274
      -0.071
      -0.259
      -0.165
       0.164
       0.540
       0.740
       0.629
       0.252
      -0.179
      -0.411
      -0.320
      -0.022
       0.202
       0.114
      -0.289
      -0.745
      -0.915
      -0.629
      -0.009
       0.608
       0.891
       0.716
       0.233
      -0.244
      -0.453
      -0.347
      -0.103
       0.045
       0.004
      -0.104
      -0.067
       0.219
       0.632
       0.898
       0.791
       0.310
      -0.309
      -0.744
      -0.806
      -0.549
      -0.214
      -0.041
      -0.092
      -0.227
      -0.238
      -0.030
       0.303
       0.567
       0.624
       0.474
       0.226
      -0.015
      -0.205
      -0.348
      -0.444
      -0.470
      -0.397
      -0.227
       0.000
       0.222
       0.382
       0.440
       0.386
       0.242
       0.048
      -0.143
      -0.281
      -0.322
      -0.236
      -0.019
       0.269
       0.510
       0.571
       0.385
       0.006
      -0.412
      -0.695
      -0.747
      -0.594
      -0.350
      -0.120
       0.059
       0.218
       0.381
       0.517
       0.555
       0.446
       0.225
      -0.003
      -0.124
      -0.095
       0.024
       0.114
       0.082
      -0.067
      -0.239
      -0.329
      -0.322
      -0.294
      -0.328
      -0.396
      -0.359
      -0.101
       0.330
       0.711
       0.808
       0.563
       0.141
      -0.208
      -0.333
      -0.259
      -0.104
       0.033
       0.133
       0.201
       0.216
       0.131
      -0.059
      -0.266
      -0.348
      -0.211
       0.091
       0.361
       0.379
       0.070
      -0.426
      -0.824
      -0.877
      -0.533
       0.039
       0.567
       0.839
       0.804
       0.553
       0.218
      -0.112
      -0.395
      -0.586
      -0.613
      -0.424
      -0.056
       0.343
       0.583
       0.555
       0.290
      -0.064
      -0.345
      -0.469
      -0.451
      -0.352
      -0.215
      -0.035
       0.200
       0.455
       0.642
       0.671
       0.532
       0.314
       0.145
       0.088
       0.098
       0.066
      -0.078
      -0.298
      -0.476
      -0.506
      -0.381
      -0.204
      -0.102
      -0.137
      -0.250
      -0.305
      -0.202
       0.041
       0.280
       0.351
       0.197
      -0.074
      -0.259
      -0.203
       0.079
       0.397
       0.512
       0.312
      -0.093
      -0.434
      -0.473
      -0.185
       0.223
       0.460
       0.359
      -0.002
      -0.356
      -0.440
      -0.187
       0.226
       0.497
       0.426
       0.065
      -0.326
      -0.467
      -0.272
       0.094
       0.339
       0.275
      -0.037
      -0.344
      -0.404
      -0.177
       0.163
       0.382
       0.363
       0.172
      -0.011
      -0.037
       0.105
       0.285
       0.334
       0.180
      -0.089
      -0.300
      -0.337
      -0.234
      -0.131
      -0.145
      -0.262
      -0.362
      -0.331
      -0.151
       0.093
       0.293
       0.394
       0.410
       0.383
       0.342
       0.283
       0.187
       0.045
      -0.119
      -0.260
      -0.332
      -0.316
      -0.220
      -0.067
       0.114
       0.281
       0.360
       0.273
       0.004
      -0.340
      -0.556
      -0.473
      -0.100
       0.344
       0.559
       0.371
      -0.126
      -0.621
      -0.790
      -0.513
       0.037
       0.518
       0.650
       0.398
      -0.022
      -0.318
      -0.324
      -0.104
       0.128
       0.184
       0.050
      -0.121
      -0.144
       0.032
       0.276
       0.391
       0.285
       0.052
      -0.103
      -0.042
       0.185
       0.367
       0.300
      -0.045
      -0.484
      -0.746
      -0.669
      -0.318
       0.074
       0.273
       0.207
      -0.005
      -0.165
      -0.142
       0.050
       0.280
       0.413
       0.402
       0.295
       0.173
       0.072
      -0.032
      -0.165
      -0.306
      -0.390
      -0.368
      -0.248
      -0.080
       0.086
       0.213
       0.262
       0.187
      -0.007
      -0.213
      -0.250
       0.000
       0.460
       0.863
       0.920
       0.548
      -0.059
      -0.558
      -0.692
      -0.461
      -0.099
       0.093
      -0.035
      -0.389
      -0.695
      -0.686
      -0.287
       0.321
       0.806
       0.884
       0.516
      -0.063
      -0.492
      -0.533
      -0.237
       0.121
       0.261
       0.123
      -0.112
      -0.195
      -0.034
       0.238
       0.380
       0.258
      -0.049
      -0.316
      -0.359
      -0.174
       0.079
       0.221
       0.188
       0.061
      -0.037
      -0.060
      -0.071
      -0.153
      -0.294
      -0.361
      -0.217
       0.142
       0.541
       0.741
       0.623
       0.286
      -0.026
      -0.115
       0.010
       0.150
       0.094
      -0.180
      -0.469
      -0.503
      -0.193
       0.271
       0.545
       0.388
      -0.149
      -0.742
      -1.008
      -0.754
      -0.097
       0.604
       0.961
       0.789
       0.213
      -0.402
      -0.679
      -0.467
       0.077
       0.605
       0.815
       0.624
       0.178
      -0.281
      -0.568
      -0.613
      -0.437
      -0.107
       0.273
       0.558
       0.601
       0.346
      -0.101
      -0.510
      -0.667
      -0.514
      -0.188
       0.083
       0.131
      -0.034
      -0.238
      -0.275
      -0.059
       0.303
       0.579
       0.580
       0.292
      -0.107
      -0.374
      -0.365
      -0.121
       0.184
       0.376
       0.383
       0.251
       0.068
      -0.109
      -0.268
      -0.410
      -0.510
      -0.516
      -0.368
      -0.060
       0.323
       0.625
       0.704
       0.543
       0.258
       0.017
      -0.089
      -0.086
      -0.073
      -0.109
      -0.169
      -0.173
      -0.079
       0.064
       0.148
       0.095
      -0.068
      -0.212
      -0.205
      -0.022
       0.218
       0.344
       0.274
       0.071
      -0.119
      -0.202
      -0.203
      -0.205
      -0.241
      -0.249
      -0.149
       0.048
       0.209
       0.180
      -0.070
      -0.400
      -0.583
      -0.461
      -0.054
       0.449
       0.805
       0.853
       0.599
       0.205
      -0.114
      -0.218
      -0.119
       0.047
       0.134
       0.088
      -0.029
      -0.114
      -0.111
      -0.052
      -0.026
      -0.110
      -0.302
      -0.513
      -0.613
      -0.525
      -0.289
      -0.026
       0.151
       0.226
       0.266
       0.337
       0.425
       0.440
       0.309
       0.052
      -0.216
      -0.358
      -0.296
      -0.043
       0.313
       0.633
       0.764
       0.596
       0.141
      -0.438
      -0.884
      -0.987
      -0.705
      -0.186
       0.313
       0.566
       0.473
       0.103
      -0.349
      -0.634
      -0.561
      -0.101
       0.557
       1.073
       1.140
       0.684
      -0.067
      -0.708
      -0.909
      -0.631
      -0.135
       0.219
       0.229
      -0.037
      -0.347
      -0.491
      -0.405
      -0.148
       0.181
       0.490
       0.700
       0.735
       0.554
       0.194
      -0.204
      -0.450
      -0.409
      -0.122
       0.188
       0.246
      -0.066
      -0.592
      -0.998
      -0.998
      -0.563
       0.081
       0.623
       0.858
       0.764
       0.460
       0.102
      -0.179
      -0.308
      -0.276
      -0.133
       0.027
       0.119
       0.123
       0.101
       0.133
       0.235
       0.341
       0.368
       0.306
       0.226
       0.200
       0.224
       0.219
       0.123
      -0.030
      -0.126
      -0.072
       0.103
       0.244
       0.176
      -0.161
      -0.668
      -1.148
      -1.443
      -1.528
      -1.494
      -1.427
      -1.296
      -0.960
      -0.298
       0.639
       1.583
       2.186
       2.244
       1.837
       1.271
       0.855
       0.690
       0.646
       0.526
       0.270
      -0.013
      -0.183
      -0.240
      -0.339
      -0.659
      -1.246
      -1.966
      -2.570
      -2.806
      -2.505
      -1.633
      -0.305
       1.228
       2.622
       3.521
       3.663
       2.975
       1.641
       0.081
      -1.170
      -1.661
      -1.234
      -0.130
       1.084
       1.747
       1.415
       0.085
      -1.741
      -3.244
      -3.685
      -2.829
      -1.121
       0.559
       1.426
       1.254
       0.451
      -0.283
      -0.455
      -0.073
       0.460
       0.727
       0.650
       0.521
       0.729
       1.404
       2.251
       2.693
       2.234
       0.817
      -1.064
      -2.588
      -3.055
      -2.300
      -0.785
       0.667
       1.346
       1.024
       0.028
      -1.019
      -1.588
      -1.498
      -0.922
      -0.170
       0.528
       1.096
       1.521
       1.732
       1.585
       0.978
       0.000
      -1.036
      -1.718
      -1.747
      -1.102
      -0.070
       0.880
       1.334
       1.152
       0.531
      -0.152
      -0.599
      -0.758
      -0.761
      -0.733
      -0.661
      -0.445
      -0.063
       0.333
       0.505
       0.329
      -0.075
      -0.407
      -0.411
      -0.069
       0.371
       0.564
       0.314
      -0.249
      -0.720
      -0.691
      -0.077
       0.775
       1.309
       1.172
       0.481
      -0.281
      -0.626
      -0.409
       0.105
       0.467
       0.368
      -0.139
      -0.666
      -0.750
      -0.179
       0.805
       1.600
       1.625
       0.740
      -0.608
      -1.668
      -1.897
      -1.305
      -0.374
       0.347
       0.592
       0.413
       0.002
      -0.449
      -0.727
      -0.587
       0.110
       1.162
       2.000
       2.014
       1.031
      -0.480
      -1.691
      -1.983
      -1.350
      -0.315
       0.506
       0.840
       0.837
       0.795
       0.828
       0.783
       0.469
      -0.089
      -0.629
      -0.887
      -0.814
      -0.568
      -0.330
      -0.146
       0.061
       0.331
       0.569
       0.586
       0.281
      -0.235
      -0.670
      -0.739
      -0.358
       0.304
       0.921
       1.183
       0.939
       0.265
      -0.565
      -1.201
      -1.379
      -1.050
      -0.411
       0.188
       0.425
       0.183
      -0.375
      -0.893
      -1.032
      -0.672
       0.036
       0.776
       1.254
       1.307
       0.915
       0.182
      -0.658
      -1.248
      -1.232
      -0.495
       0.655
       1.561
       1.604
       0.652
      -0.769
      -1.786
      -1.760
      -0.724
       0.662
       1.592
       1.647
       1.016
       0.276
      -0.048
       0.172
       0.634
       0.866
       0.576
      -0.167
      -0.988
      -1.448
      -1.283
      -0.546
       0.410
       1.084
       1.076
       0.338
      -0.761
      -1.624
      -1.793
      -1.234
      -0.329
       0.427
       0.763
       0.739
       0.586
       0.462
       0.368
       0.259
       0.176
       0.227
       0.433
       0.632
       0.587
       0.197
      -0.382
      -0.852
      -0.995
      -0.824
      -0.537
      -0.338
      -0.296
      -0.314
      -0.235
       0.032
       0.424
       0.744
       0.789
       0.498
       0.027
      -0.335
      -0.354
      -0.013
       0.482
       0.846
       0.892
       0.624
       0.211
      -0.129
      -0.257
      -0.188
      -0.060
      -0.017
      -0.100
      -0.245
      -0.370
      -0.470
      -0.618
      -0.874
      -1.180
      -1.352
      -1.175
      -0.571
       0.311
       1.131
       1.544
       1.415
       0.896
       0.317
      -0.034
      -0.062
       0.153
       0.454
       0.706
       0.806
       0.687
       0.343
      -0.140
      -0.597
      -0.883
      -0.967
      -0.939
      -0.917
      -0.930
      -0.904
      -0.748
      -0.458
      -0.137
       0.088
       0.172
       0.187
       0.268
       0.503
       0.845
       1.130
       1.199
       1.035
       0.811
       0.755
       0.954
       1.233
       1.244
       0.703
      -0.388
      -1.687
      -2.668
      -2.892
      -2.252
      -1.050
       0.147
       0.798
       0.667
      -0.043
      -0.789
      -0.984
      -0.365
       0.789
       1.791
       1.986
       1.228
       0.020
      -0.813
      -0.695
       0.287
       1.441
       1.937
       1.364
      -0.025
      -1.505
      -2.340
      -2.193
      -1.253
      -0.068
       0.785
       0.989
       0.603
      -0.027
      -0.493
      -0.555
      -0.247
       0.194
       0.501
       0.525
       0.274
      -0.148
      -0.614
      -0.992
      -1.141
      -0.918
      -0.262
       0.691
       1.569
       1.907
       1.448
       0.385
      -0.701
      -1.207
      -0.929
      -0.191
       0.414
       0.467
       0.003
      -0.551
      -0.715
      -0.305
       0.437
       1.023
       1.077
       0.609
      -0.019
      -0.381
      -0.321
      -0.022
       0.189
       0.130
      -0.130
      -0.386
      -0.494
      -0.459
      -0.366
      -0.261
      -0.110
       0.124
       0.370
       0.436
       0.148
      -0.465
      -1.099
      -1.323
      -0.875
       0.100
       1.077
       1.466
       1.023
       0.051
      -0.771
      -0.857
      -0.141
       0.865
       1.440
       1.170
       0.234
      -0.763
      -1.230
      -0.972
      -0.235
       0.534
       0.989
       1.031
       0.751
       0.307
      -0.150
      -0.473
      -0.537
      -0.322
       0.015
       0.201
       0.033
      -0.442
      -0.942
      -1.148
      -0.928
      -0.407
       0.142
       0.465
       0.454
       0.204
      -0.055
      -0.102
       0.101
       0.372
       0.452
       0.234
      -0.135
      -0.389
      -0.377
      -0.178
       0.006
       0.066
       0.075
       0.165
       0.342
       0.438
       0.279
      -0.105
      -0.434
      -0.376
       0.172
       0.956
       1.492
       1.376
       0.567
      -0.541
      -1.322
      -1.317
      -0.554
       0.435
       0.955
       0.640
      -0.282
      -1.164
      -1.419
