Origin Time       05/3/2012 07:41:05	
Lat.              28.7 N	
Long.             76.6 E	
Depth (Km)         14.0
Magnitude         4.9
 Region           Haryana-Delhi-Border-Region                                      
 Above details taken from IMD 
   
Station Code      GGI
Station Lat.       28.665
Station Long.      77.232
Station Height(m)  207.0
Site Class        C   Vs30 between 200 m/sec to 375 m/sec *  
Record Time       05.03.2012 07:40:54.384
Sampling Rate     200. Hz
 Record Duration   91.865 Sec.
 Direction         Vert. (Up positive)
Max. Acceleration     -2.577 cm/sec**2
     
  * For reference see Site Classification link of website 
     
 Base Line Corrected and Low Pass Filtered (Cut Off at 35 Hz) Time History
 Acceleration data in cm/sec**2
    
[...]
      -0.164
      -0.318
      -0.333
      -0.270
      -0.199
      -0.145
      -0.075
       0.045
       0.193
       0.281
       0.221
       0.004
      -0.268
      -0.439
      -0.408
      -0.207
       0.007
       0.058
      -0.124
      -0.444
      -0.690
      -0.662
      -0.316
       0.197
       0.610
       0.708
       0.465
       0.061
      -0.237
      -0.251
      -0.009
       0.285
       0.407
       0.271
      -0.014
      -0.240
      -0.258
      -0.085
       0.122
       0.180
       0.010
      -0.321
      -0.644
      -0.782
      -0.657
      -0.330
       0.026
       0.228
       0.200
       0.020
      -0.137
      -0.117
       0.108
       0.430
       0.681
       0.738
       0.587
       0.309
       0.027
      -0.151
      -0.171
      -0.049
       0.136
       0.278
       0.297
       0.192
       0.043
      -0.046
      -0.023
       0.079
       0.166
       0.153
       0.012
      -0.206
      -0.398
      -0.455
      -0.323
      -0.052
       0.224
       0.351
       0.253
      -0.029
      -0.361
      -0.602
      -0.673
      -0.590
      -0.433
      -0.290
      -0.199
      -0.128
      -0.010
       0.197
       0.457
       0.675
       0.758
       0.675
       0.474
       0.241
       0.044
      -0.091
      -0.172
      -0.219
      -0.242
      -0.247
      -0.236
      -0.216
      -0.196
      -0.188
      -0.203
      -0.238
      -0.266
      -0.246
      -0.162
      -0.048
       0.026
       0.008
      -0.079
      -0.150
      -0.112
       0.058
       0.292
       0.472
       0.511
       0.407
       0.242
       0.108
       0.049
       0.038
       0.017
      -0.048
      -0.139
      -0.196
      -0.166
      -0.038
       0.135
       0.262
       0.272
       0.166
       0.019
      -0.069
      -0.051
       0.018
       0.021
      -0.120
      -0.365
      -0.563
      -0.567
      -0.349
      -0.031
       0.206
       0.261
       0.166
       0.049
       0.017
       0.084
       0.177
       0.205
       0.129
      -0.019
      -0.171
      -0.273
      -0.315
      -0.317
      -0.300
      -0.265
      -0.196
      -0.087
       0.033
       0.107
       0.090
       0.009
      -0.035
       0.065
       0.313
       0.582
       0.695
       0.570
       0.293
       0.058
       0.018
       0.169
       0.345
       0.345
       0.076
      -0.367
      -0.771
      -0.949
      -0.851
      -0.565
      -0.228
       0.072
       0.308
       0.463
       0.494
       0.359
       0.090
      -0.179
      -0.283
      -0.141
       0.165
       0.432
       0.472
       0.241
      -0.124
      -0.386
      -0.363
      -0.051
       0.378
       0.681
       0.693
       0.423
       0.031
      -0.285
      -0.407
      -0.336
      -0.160
       0.005
       0.062
      -0.039
      -0.269
      -0.520
      -0.651
      -0.574
      -0.327
      -0.053
       0.097
       0.074
      -0.050
      -0.150
      -0.138
      -0.017
       0.146
       0.267
       0.298
       0.246
       0.159
       0.095
       0.090
       0.146
       0.223
       0.262
       0.223
       0.117
       0.003
      -0.053
      -0.021
       0.076
       0.177
       0.230
       0.217
       0.159
       0.092
       0.035
      -0.016
      -0.078
      -0.158
      -0.238
      -0.283
      -0.260
      -0.166
      -0.047
       0.013
      -0.053
      -0.234
      -0.420
      -0.454
      -0.242
       0.170
       0.597
       0.814
       0.694
       0.295
      -0.167
      -0.453
      -0.442
      -0.199
       0.092
       0.257
       0.233
       0.092
      -0.034
      -0.058
       0.011
       0.081
       0.063
      -0.069
      -0.266
      -0.454
      -0.588
      -0.650
      -0.630
      -0.517
      -0.330
      -0.130
       0.012
       0.076
       0.114
       0.198
       0.350
       0.514
       0.598
       0.550
       0.403
       0.241
       0.130
       0.067
      -0.007
      -0.148
      -0.347
      -0.523
      -0.575
      -0.462
      -0.246
      -0.068
      -0.055
      -0.214
      -0.407
      -0.442
      -0.219
       0.176
       0.522
       0.609
       0.388
       0.008
      -0.287
      -0.326
      -0.130
       0.108
       0.177
       0.013
      -0.251
      -0.387
      -0.253
       0.093
       0.434
       0.552
       0.386
       0.084
      -0.100
       0.012
       0.380
       0.765
       0.897
       0.664
       0.184
      -0.290
      -0.549
      -0.534
      -0.335
      -0.098
       0.061
       0.096
       0.019
      -0.109
      -0.210
      -0.219
      -0.134
      -0.027
       0.003
      -0.085
      -0.228
      -0.291
      -0.174
       0.100
       0.388
       0.532
       0.474
       0.291
       0.120
       0.046
       0.056
       0.080
       0.090
       0.130
       0.257
       0.458
       0.621
       0.610
       0.370
      -0.017
      -0.384
      -0.583
      -0.584
      -0.471
      -0.378
      -0.382
      -0.457
      -0.506
      -0.443
      -0.267
      -0.059
       0.085
       0.124
       0.087
       0.025
      -0.035
      -0.088
      -0.121
      -0.095
       0.031
       0.249
       0.492
       0.667
       0.708
       0.612
       0.432
       0.245
       0.110
       0.038
      -0.008
      -0.090
      -0.247
      -0.459
      -0.650
      -0.730
      -0.652
      -0.452
      -0.234
      -0.108
      -0.122
      -0.217
      -0.263
      -0.158
       0.080
       0.306
       0.342
       0.107
      -0.314
      -0.725
      -0.934
      -0.864
      -0.582
      -0.241
       0.009
       0.110
       0.115
       0.149
       0.324
       0.650
       1.007
       1.206
       1.114
       0.752
       0.294
      -0.046
      -0.150
      -0.053
       0.102
       0.170
       0.083
      -0.125
      -0.344
      -0.441
      -0.331
      -0.034
       0.317
       0.534
       0.477
       0.134
      -0.359
      -0.779
      -0.928
      -0.741
      -0.321
       0.112
       0.344
       0.291
       0.051
      -0.165
      -0.175
       0.050
       0.359
       0.526
       0.412
       0.073
      -0.262
      -0.356
      -0.136
       0.237
       0.481
       0.396
       0.007
      -0.452
      -0.708
      -0.634
      -0.325
      -0.011
       0.118
       0.041
      -0.090
      -0.095
       0.069
       0.267
       0.294
       0.063
      -0.302
      -0.549
      -0.497
      -0.180
       0.171
       0.305
       0.141
      -0.179
      -0.401
      -0.350
      -0.046
       0.333
       0.585
       0.610
       0.429
       0.149
      -0.109
      -0.247
      -0.214
      -0.027
       0.222
       0.389
       0.356
       0.106
      -0.247
      -0.519
      -0.562
      -0.346
       0.034
       0.416
       0.641
       0.620
       0.375
       0.043
      -0.170
      -0.114
       0.195
       0.542
       0.645
       0.360
      -0.184
      -0.647
      -0.712
      -0.318
       0.270
       0.635
       0.491
      -0.110
      -0.801
      -1.131
      -0.860
      -0.115
       0.686
       1.089
       0.878
       0.207
      -0.510
      -0.864
      -0.698
      -0.183
       0.334
       0.566
       0.444
       0.116
      -0.188
      -0.305
      -0.205
       0.027
       0.257
       0.357
       0.249
      -0.062
      -0.465
      -0.771
      -0.797
      -0.481
       0.038
       0.471
       0.534
       0.142
      -0.506
      -1.016
      -1.041
      -0.509
       0.311
       0.964
       1.091
       0.663
      -0.005
      -0.455
      -0.393
       0.113
       0.691
       0.925
       0.640
       0.009
      -0.583
      -0.798
      -0.546
      -0.003
       0.528
       0.792
       0.698
       0.323
      -0.146
      -0.506
      -0.623
      -0.487
      -0.226
      -0.031
      -0.047
      -0.261
      -0.506
      -0.569
      -0.346
       0.084
       0.515
       0.738
       0.661
       0.342
      -0.046
      -0.302
      -0.293
      -0.018
       0.387
       0.733
       0.886
       0.834
       0.663
       0.483
       0.368
       0.351
       0.421
       0.526
       0.586
       0.521
       0.306
       0.001
      -0.272
      -0.386
      -0.288
      -0.042
       0.188
       0.237
       0.053
      -0.237
      -0.403
      -0.273
       0.115
       0.518
       0.648
       0.387
      -0.108
      -0.497
      -0.498
      -0.106
       0.389
       0.602
       0.338
      -0.252
      -0.790
      -0.953
      -0.709
      -0.313
      -0.070
      -0.080
      -0.175
      -0.111
       0.173
       0.458
       0.425
      -0.064
      -0.807
      -1.390
      -1.499
      -1.151
      -0.676
      -0.457
      -0.642
      -1.036
      -1.257
      -1.033
      -0.407
       0.301
       0.726
       0.707
       0.355
      -0.056
      -0.293
      -0.297
      -0.169
      -0.059
      -0.047
      -0.101
      -0.120
      -0.027
       0.175
       0.410
       0.578
       0.621
       0.534
       0.343
       0.084
      -0.189
      -0.389
      -0.413
      -0.205
       0.163
       0.491
       0.570
       0.338
      -0.045
      -0.309
      -0.278
      -0.016
       0.220
       0.191
      -0.130
      -0.517
      -0.659
      -0.385
       0.196
       0.784
       1.092
       1.039
       0.765
       0.492
       0.362
       0.376
       0.454
       0.519
       0.530
       0.460
       0.298
       0.072
      -0.132
      -0.220
      -0.151
       0.020
       0.168
       0.172
      -0.022
      -0.365
      -0.723
      -0.948
      -0.954
      -0.778
      -0.568
      -0.489
      -0.603
      -0.805
      -0.878
      -0.655
      -0.148
       0.444
       0.874
       1.019
       0.951
       0.845
       0.819
       0.838
       0.768
       0.522
       0.153
      -0.182
      -0.334
      -0.273
      -0.093
       0.059
       0.097
       0.052
       0.020
       0.055
       0.106
       0.050
      -0.195
      -0.582
      -0.945
      -1.109
      -1.017
      -0.773
      -0.562
      -0.515
      -0.611
      -0.698
      -0.616
      -0.320
       0.099
       0.503
       0.821
       1.080
       1.326
       1.523
       1.537
       1.234
       0.606
      -0.174
      -0.817
      -1.074
      -0.884
      -0.427
      -0.026
       0.051
      -0.214
      -0.574
      -0.690
      -0.390
       0.184
       0.664
       0.733
       0.371
      -0.112
      -0.316
      -0.075
       0.399
       0.675
       0.453
      -0.178
      -0.791
      -0.949
      -0.535
       0.160
       0.661
       0.657
       0.213
      -0.300
      -0.484
      -0.191
       0.391
       0.897
       1.047
       0.819
       0.423
       0.119
       0.038
       0.114
       0.177
       0.095
      -0.124
      -0.368
      -0.539
      -0.632
      -0.712
      -0.809
      -0.849
      -0.707
      -0.327
       0.193
       0.650
       0.880
       0.877
       0.779
       0.736
       0.762
       0.725
       0.474
       0.004
      -0.495
      -0.765
      -0.686
      -0.396
      -0.202
      -0.331
      -0.730
      -1.074
      -1.006
      -0.434
       0.366
       0.924
       0.922
       0.422
      -0.175
      -0.415
      -0.112
       0.537
       1.092
       1.177
       0.718
      -0.024
      -0.639
      -0.833
      -0.593
      -0.165
       0.111
       0.008
      -0.453
      -1.029
      -1.412
      -1.412
      -1.052
      -0.522
      -0.051
       0.216
       0.262
       0.187
       0.141
       0.249
       0.535
       0.898
       1.147
       1.109
       0.751
       0.224
      -0.197
      -0.289
      -0.037
       0.329
       0.476
       0.200
      -0.417
      -1.039
      -1.301
      -1.045
      -0.425
       0.211
       0.565
       0.573
       0.412
       0.325
       0.436
       0.675
       0.843
       0.757
       0.372
      -0.183
      -0.662
      -0.850
      -0.704
      -0.394
      -0.195
      -0.286
      -0.613
      -0.917
      -0.923
      -0.549
       0.044
       0.575
       0.840
       0.826
       0.677
       0.567
       0.585
       0.689
       0.751
       0.640
       0.311
      -0.161
      -0.613
      -0.889
      -0.928
      -0.789
      -0.590
      -0.412
      -0.247
      -0.018
       0.331
       0.766
       1.156
       1.349
       1.272
       0.985
       0.634
       0.338
       0.093
      -0.211
      -0.676
      -1.265
      -1.763
      -1.882
      -1.451
      -0.552
       0.494
       1.290
       1.570
       1.321
       0.760
       0.191
      -0.164
      -0.258
      -0.202
      -0.163
      -0.244
      -0.423
      -0.575
      -0.564
      -0.328
       0.071
       0.477
       0.706
       0.646
       0.325
      -0.084
      -0.358
      -0.371
      -0.188
      -0.026
      -0.091
      -0.406
      -0.759
      -0.830
      -0.413
       0.401
       1.239
       1.656
       1.404
       0.582
      -0.436
      -1.231
      -1.550
      -1.393
      -0.937
      -0.412
       0.009
       0.238
       0.269
       0.155
      -0.003
      -0.095
      -0.068
       0.019
       0.023
      -0.193
      -0.628
      -1.101
      -1.330
      -1.100
      -0.421
       0.437
       1.091
       1.288
       1.088
       0.842
       0.921
       1.407
       1.967
       2.057
       1.320
      -0.112
      -1.647
      -2.577
      -2.504
      -1.566
      -0.324
       0.601
       0.893
       0.677
       0.371
       0.354
       0.699
       1.156
       1.368
       1.152
       0.617
       0.042
      -0.349
      -0.522
      -0.588
      -0.644
      -0.671
      -0.570
      -0.300
       0.030
       0.210
       0.094
      -0.257
      -0.579
      -0.592
      -0.213
       0.359
       0.786
       0.841
       0.564
       0.206
       0.023
       0.087
       0.271
       0.385
       0.325
       0.137
      -0.053
      -0.135
      -0.089
       0.008
       0.038
      -0.089
      -0.383
      -0.769
      -1.128
      -1.367
      -1.440
      -1.334
      -1.054
      -0.642
      -0.195
       0.147
       0.281
       0.216
       0.076
       0.021
       0.145
       0.426
       0.750
       0.983
       1.040
       0.925
       0.726
       0.558
       0.499
       0.552
       0.644
       0.665
       0.516
       0.138
      -0.453
      -1.140
      -1.697
      -1.858
      -1.468
      -0.625
       0.321
       0.953
       1.043
       0.702
       0.278
       0.105
       0.262
       0.549
       0.660
       0.418
      -0.108
      -0.645
      -0.879
      -0.634
       0.005
       0.721
       1.129
       1.013
       0.483
      -0.100
      -0.382
      -0.283
      -0.048
      -0.036
      -0.408
      -0.978
      -1.349
      -1.231
      -0.671
      -0.017
       0.350
       0.295
       0.011
      -0.176
      -0.086
       0.161
       0.266
       0.024
      -0.461
      -0.820
      -0.699
      -0.052
       0.778
       1.290
       1.179
       0.547
      -0.166
      -0.491
      -0.231
       0.416
       0.976
       1.000
       0.361
      -0.628
      -1.376
      -1.389
      -0.615
       0.501
       1.298
       1.329
       0.635
      -0.314
      -0.943
      -0.933
      -0.373
       0.338
       0.773
       0.722
       0.285
      -0.242
      -0.582
      -0.644
      -0.533
      -0.391
      -0.244
       0.006
       0.422
       0.895
       1.172
       1.066
       0.640
       0.191
       0.016
       0.164
       0.399
       0.400
       0.043
      -0.491
      -0.866
      -0.878
      -0.619
      -0.395
      -0.459
      -0.792
      -1.122
      -1.144
      -0.765
      -0.170
       0.314
       0.460
       0.282
       0.003
      -0.138
      -0.051
       0.183
       0.432
       0.639
       0.813
       0.940
       0.919
       0.654
       0.190
      -0.241
      -0.362
      -0.082
       0.403
       0.745
       0.723
       0.419
       0.138
       0.137
       0.407
       0.697
       0.730
       0.429
      -0.049
      -0.442
      -0.575
      -0.452
      -0.214
      -0.029
       0.008
      -0.093
      -0.243
      -0.347
      -0.365
      -0.327
      -0.307
      -0.368
      -0.523
      -0.725
      -0.889
      -0.936
      -0.841
      -0.664
      -0.524
      -0.513
      -0.619
      -0.715
      -0.629
      -0.257
       0.355
       1.007
       1.436
       1.475
       1.170
       0.771
       0.558
       0.620
       0.762
       0.663
       0.162
      -0.558
      -1.083
      -1.090
      -0.608
      -0.010
       0.270
       0.060
      -0.448
      -0.865
      -0.893
      -0.503
       0.084
       0.560
       0.714
       0.533
       0.175
      -0.136
      -0.256
      -0.195
      -0.092
      -0.098
      -0.255
      -0.463
      -0.563
      -0.466
      -0.222
       0.025
       0.155
       0.169
       0.189
       0.337
       0.611
       0.840
       0.799
       0.386
      -0.266
      -0.844
      -1.049
      -0.778
      -0.185
       0.416
       0.736
       0.669
       0.334
      -0.021
      -0.177
      -0.079
       0.140
       0.264
       0.155
      -0.123
      -0.322
      -0.185
       0.341
       1.007
       1.386
       1.180
       0.457
      -0.354
      -0.763
      -0.569
       0.007
       0.509
       0.581
       0.195
      -0.386
      -0.823
      -0.926
      -0.718
      -0.369
      -0.081
       0.006
      -0.145
      -0.466
      -0.808
      -1.019
      -1.007
      -0.769
      -0.358
       0.165
       0.728
       1.221
       1.502
       1.480
       1.210
       0.888
       0.723
       0.772
       0.893
       0.864
       0.567
       0.090
      -0.328
      -0.455
      -0.218
       0.247
       0.670
       0.800
       0.544
       0.030
      -0.477
      -0.730
      -0.661
      -0.410
      -0.225
      -0.299
      -0.650
      -1.122
      -1.491
      -1.586
      -1.359
      -0.871
      -0.224
       0.474
       1.104
       1.523
       1.602
       1.313
       0.789
       0.269
      -0.049
      -0.146
      -0.161
      -0.259
      -0.481
      -0.727
      -0.860
      -0.838
      -0.741
      -0.697
      -0.758
      -0.858
      -0.875
      -0.741
      -0.513
      -0.303
      -0.170
      -0.049
       0.185
       0.580
       1.031
       1.323
       1.300
       0.984
       0.578
       0.324
       0.329
       0.488
       0.560
       0.337
      -0.201
      -0.862
      -1.351
      -1.462
      -1.209
      -0.813
      -0.556
      -0.593
      -0.857
      -1.116
      -1.135
      -0.829
      -0.289
       0.326
       0.904
       1.402
       1.769
       1.896
       1.667
       1.100
       0.420
      -0.025
       0.027
       0.551
       1.210
       1.539
       1.244
       0.400
      -0.596
      -1.281
      -1.419
      -1.126
      -0.757
      -0.636
      -0.846
      -1.204
      -1.415
      -1.272
      -0.764
      -0.055
       0.625
       1.084
       1.238
       1.120
       0.866
       0.652
       0.609
       0.742
       0.926
       0.984
       0.818
       0.487
