Origin Time       05/3/2012 07:41:05	
Lat.              28.7 N	
Long.             76.6 E	
Depth (Km)         14.0
Magnitude         4.9
 Region           Haryana-Delhi-Border-Region                                      
 Above details taken from IMD 
    
Station Code       JAFR
Station Lat.       28.594  N
Station Long.      76.908  E
Station Height(m)  162.0
Site Class        C   Vs30 between 200 m/sec to 375 m/sec *  
Record Time        3/5/2012   7:41:01.000
Sampling Rate     100. Hz
 Record Duration   80.000 Sec.
 Direction         N-S (N positive)
Max. Acceleration  -8.893 cm/sec**2
     
  * For reference see Site Classification link of website 
     
 Base Line Corrected and Low Pass Filtered (Cut Off at 35 Hz) Time History
 Acceleration data in cm/sec**2
    
[...]
   -0.012
   -0.007
    0.007
   -0.003
   -0.008
    0.014
   -0.004
   -0.035
   -0.008
    0.014
   -0.017
   -0.013
    0.024
    0.005
   -0.010
    0.013
   -0.003
   -0.010
    0.030
    0.016
   -0.023
   -0.002
    0.020
    0.018
    0.015
   -0.006
   -0.022
   -0.002
    0.013
    0.013
    0.015
   -0.004
   -0.039
   -0.014
    0.055
    0.042
   -0.029
   -0.036
   -0.007
    0.011
    0.009
   -0.012
    0.009
    0.027
   -0.013
   -0.041
   -0.026
    0.019
    0.037
    0.006
   -0.003
    0.013
   -0.001
   -0.027
   -0.013
    0.014
    0.016
    0.013
   -0.003
   -0.019
   -0.007
    0.000
   -0.016
   -0.013
    0.019
    0.022
    0.002
    0.007
   -0.001
   -0.015
    0.009
    0.020
   -0.016
   -0.018
    0.001
    0.002
    0.020
    0.005
   -0.021
    0.001
   -0.010
   -0.011
    0.027
   -0.003
   -0.034
   -0.003
    0.005
    0.000
    0.017
    0.019
   -0.015
   -0.025
   -0.008
    0.004
    0.018
    0.007
    0.005
    0.008
   -0.005
   -0.009
   -0.004
    0.006
    0.011
    0.008
    0.002
    0.000
    0.004
   -0.010
   -0.012
    0.011
    0.016
    0.007
    0.002
   -0.010
   -0.012
   -0.002
   -0.001
   -0.002
    0.004
    0.018
    0.011
   -0.013
   -0.010
    0.013
    0.012
   -0.010
   -0.010
    0.009
    0.005
   -0.017
   -0.013
    0.012
    0.016
    0.010
    0.009
    0.012
    0.016
   -0.006
   -0.008
    0.022
    0.011
   -0.027
   -0.022
    0.002
    0.001
   -0.001
    0.016
    0.008
   -0.025
   -0.024
    0.002
    0.007
    0.010
    0.022
    0.011
   -0.001
    0.014
    0.016
    0.001
   -0.015
   -0.016
    0.006
    0.009
    0.003
    0.011
    0.006
   -0.005
    0.004
    0.010
    0.013
    0.007
   -0.014
   -0.008
    0.012
    0.002
   -0.004
    0.009
    0.000
   -0.006
   -0.004
   -0.012
   -0.005
    0.006
    0.005
    0.006
    0.005
    0.004
    0.003
    0.002
   -0.001
   -0.006
   -0.013
   -0.006
    0.011
    0.019
    0.005
   -0.007
    0.001
    0.008
    0.006
    0.004
    0.000
    0.005
    0.014
    0.002
   -0.012
   -0.003
    0.008
    0.000
   -0.009
    0.011
    0.017
   -0.011
   -0.009
    0.009
    0.001
   -0.011
   -0.009
   -0.001
   -0.001
   -0.009
    0.004
    0.013
   -0.002
   -0.003
    0.008
    0.009
    0.006
   -0.004
   -0.010
    0.006
    0.010
   -0.011
   -0.009
    0.006
    0.003
   -0.002
   -0.004
   -0.002
    0.007
    0.004
   -0.002
    0.001
    0.003
    0.000
   -0.002
   -0.003
   -0.012
   -0.009
    0.024
    0.031
    0.000
   -0.002
    0.014
   -0.005
   -0.021
   -0.005
    0.001
    0.002
    0.013
    0.010
    0.002
    0.003
   -0.001
   -0.006
   -0.007
   -0.009
   -0.007
   -0.005
    0.000
    0.005
   -0.003
    0.001
    0.016
    0.000
   -0.003
    0.023
    0.013
   -0.014
   -0.002
    0.007
   -0.011
   -0.007
    0.011
    0.011
    0.007
    0.003
   -0.014
   -0.018
    0.001
    0.005
    0.002
    0.010
   -0.004
   -0.018
   -0.003
    0.006
   -0.003
    0.010
    0.028
    0.007
   -0.019
   -0.004
    0.014
    0.004
    0.001
    0.012
    0.005
   -0.007
   -0.011
   -0.013
   -0.002
    0.001
   -0.003
    0.009
    0.014
    0.007
    0.001
   -0.008
   -0.003
    0.005
   -0.007
   -0.007
    0.022
    0.025
   -0.001
   -0.003
    0.003
   -0.006
   -0.007
    0.003
    0.000
   -0.013
   -0.004
    0.017
    0.018
    0.006
    0.003
   -0.002
   -0.014
   -0.006
    0.010
   -0.003
   -0.024
    0.000
    0.031
   -0.002
   -0.031
    0.001
    0.018
    0.000
   -0.002
    0.012
    0.013
   -0.010
   -0.011
    0.016
    0.022
    0.004
   -0.006
   -0.006
    0.001
    0.014
    0.015
   -0.004
   -0.013
   -0.009
    0.008
    0.023
    0.002
   -0.013
   -0.004
   -0.006
   -0.006
   -0.005
   -0.008
    0.014
    0.022
   -0.003
   -0.005
    0.014
    0.016
    0.011
    0.005
   -0.004
   -0.005
    0.002
    0.007
    0.002
   -0.006
   -0.007
    0.005
    0.015
   -0.006
   -0.019
    0.002
    0.007
   -0.003
    0.007
    0.013
   -0.004
   -0.009
    0.018
    0.022
   -0.008
   -0.015
    0.000
    0.000
   -0.006
   -0.001
   -0.001
   -0.001
    0.004
   -0.006
   -0.013
    0.008
    0.017
   -0.001
   -0.006
   -0.001
   -0.016
   -0.016
    0.018
    0.025
   -0.005
   -0.014
    0.000
    0.002
   -0.003
    0.009
    0.017
    0.011
    0.001
   -0.006
   -0.007
   -0.001
   -0.001
   -0.012
   -0.011
   -0.003
    0.000
   -0.002
   -0.003
    0.001
    0.003
   -0.001
    0.003
    0.011
    0.001
   -0.008
    0.000
   -0.004
   -0.012
   -0.009
   -0.003
    0.009
    0.008
   -0.005
    0.006
    0.015
   -0.008
   -0.015
    0.002
   -0.001
   -0.008
    0.005
    0.014
   -0.001
    0.003
    0.024
    0.014
   -0.008
   -0.012
   -0.007
   -0.002
   -0.002
    0.002
    0.008
    0.010
    0.009
    0.008
    0.005
    0.003
   -0.004
   -0.013
   -0.008
    0.004
    0.008
    0.002
    0.001
    0.010
    0.002
    0.000
    0.018
    0.007
   -0.022
   -0.006
    0.020
   -0.002
   -0.011
    0.024
    0.020
   -0.020
   -0.015
    0.012
   -0.004
   -0.013
    0.012
    0.011
    0.002
    0.006
   -0.001
   -0.003
    0.006
    0.000
   -0.011
    0.008
    0.025
    0.007
    0.004
    0.017
    0.000
   -0.015
    0.006
    0.016
   -0.016
   -0.015
    0.024
    0.008
   -0.025
   -0.011
   -0.005
   -0.014
   -0.001
    0.011
    0.001
    0.001
    0.013
    0.009
    0.002
    0.004
   -0.008
   -0.017
    0.012
    0.018
   -0.013
   -0.001
    0.018
   -0.008
   -0.013
    0.009
    0.004
   -0.002
    0.013
   -0.002
   -0.023
   -0.001
    0.015
    0.009
    0.003
   -0.009
   -0.019
   -0.007
    0.010
    0.011
    0.006
   -0.004
   -0.015
   -0.009
    0.006
    0.012
    0.006
   -0.003
   -0.001
    0.007
   -0.003
   -0.017
   -0.001
    0.021
    0.004
   -0.015
   -0.001
    0.010
    0.007
    0.007
    0.005
    0.004
    0.008
    0.003
   -0.011
   -0.011
    0.008
   -0.001
   -0.017
    0.011
    0.016
   -0.015
   -0.001
    0.019
    0.006
    0.001
    0.002
   -0.015
   -0.014
    0.019
    0.014
   -0.013
    0.010
    0.016
   -0.023
   -0.009
    0.027
   -0.002
   -0.025
    0.016
    0.022
   -0.025
   -0.011
    0.028
    0.009
   -0.005
    0.015
    0.010
   -0.017
   -0.003
    0.025
    0.003
   -0.014
    0.006
    0.008
   -0.003
    0.001
    0.000
   -0.005
    0.001
    0.002
    0.000
    0.008
    0.007
   -0.001
    0.010
    0.014
    0.002
   -0.001
   -0.004
   -0.007
    0.014
    0.018
   -0.002
    0.010
    0.015
   -0.008
   -0.006
    0.009
   -0.001
   -0.025
   -0.026
    0.005
    0.028
    0.017
   -0.006
   -0.011
    0.001
   -0.006
   -0.018
    0.014
    0.035
   -0.001
   -0.014
    0.015
    0.012
   -0.008
    0.002
    0.007
   -0.011
   -0.009
    0.006
    0.003
   -0.011
   -0.015
   -0.001
    0.010
    0.006
    0.008
    0.008
    0.001
    0.007
    0.015
    0.002
   -0.013
   -0.013
   -0.008
    0.001
    0.007
   -0.003
   -0.015
    0.000
    0.007
   -0.015
    0.000
    0.026
   -0.006
   -0.025
    0.009
    0.019
   -0.004
   -0.001
    0.019
    0.012
   -0.008
   -0.008
    0.012
    0.012
   -0.006
   -0.008
    0.004
    0.009
   -0.004
   -0.016
    0.007
    0.027
   -0.010
   -0.029
    0.009
    0.016
   -0.012
   -0.002
    0.015
   -0.009
   -0.020
   -0.002
    0.007
    0.012
    0.004
   -0.003
    0.004
   -0.008
   -0.014
    0.010
    0.028
    0.019
    0.006
    0.009
    0.002
   -0.005
    0.006
    0.007
   -0.007
   -0.016
   -0.013
    0.003
    0.009
    0.006
    0.018
    0.014
   -0.014
   -0.014
    0.006
    0.007
   -0.008
   -0.015
   -0.010
    0.000
    0.011
    0.003
   -0.014
    0.003
    0.015
   -0.002
   -0.008
    0.001
    0.012
    0.011
    0.001
    0.004
    0.007
    0.007
    0.008
   -0.009
   -0.017
   -0.004
   -0.003
    0.002
    0.010
    0.002
    0.001
    0.011
    0.009
    0.007
    0.009
    0.004
    0.001
    0.003
    0.007
   -0.004
   -0.019
   -0.005
    0.007
   -0.008
   -0.004
    0.014
    0.005
   -0.011
   -0.009
    0.005
    0.014
    0.016
    0.016
   -0.003
   -0.015
    0.000
    0.005
   -0.001
    0.001
   -0.003
   -0.003
    0.005
    0.002
    0.008
    0.013
   -0.007
   -0.008
    0.014
    0.007
   -0.012
   -0.007
    0.006
    0.006
    0.010
    0.011
   -0.005
   -0.009
    0.001
    0.002
    0.008
    0.023
    0.023
    0.017
    0.019
    0.025
    0.025
    0.024
    0.033
    0.031
    0.017
    0.027
    0.044
    0.037
    0.027
    0.031
    0.032
    0.028
    0.034
    0.046
    0.037
    0.042
    0.079
    0.081
    0.029
   -0.015
    0.015
    0.082
    0.062
    0.004
    0.029
    0.008
   -0.100
   -0.139
   -0.172
   -0.244
   -0.172
   -0.006
    0.035
   -0.014
   -0.044
   -0.006
    0.089
    0.082
    0.064
    0.196
    0.225
    0.125
    0.072
    0.101
    0.228
    0.140
   -0.011
    0.229
    0.307
   -0.005
   -0.080
    0.166
    0.376
    0.339
    0.169
    0.405
    0.872
    0.313
   -0.569
    0.006
    0.670
    0.207
    0.085
    0.309
   -0.213
   -0.823
   -0.688
   -0.245
   -0.504
   -1.296
   -1.022
   -0.226
   -0.753
   -1.249
   -0.389
   -0.102
   -0.768
   -0.206
    1.070
    0.612
   -0.864
   -0.636
    0.827
    0.504
   -0.793
    0.045
    1.257
    0.090
   -1.163
   -0.542
    0.025
    0.099
    0.905
    1.202
    0.201
   -0.478
   -0.300
   -0.334
   -0.896
   -0.651
    0.802
    1.366
    0.541
    0.567
    1.174
   -0.036
   -1.559
   -0.853
   -0.097
   -0.647
   -0.338
    0.480
    0.155
   -0.741
   -0.931
   -0.194
    0.290
    0.061
   -0.174
   -0.044
    0.425
    0.962
    1.130
    0.853
    0.741
    0.702
    0.176
   -0.287
   -0.072
    0.276
   -0.146
   -0.651
   -0.408
   -0.241
   -0.287
   -0.227
   -0.012
    0.544
    0.805
    0.730
    0.598
    0.157
   -0.044
    0.176
    0.245
    0.102
    0.026
   -0.157
   -0.572
   -0.781
   -0.814
   -0.801
   -0.763
   -0.560
    0.298
    0.886
    0.184
   -0.528
    0.022
    0.603
   -0.002
   -0.673
   -0.717
   -0.536
   -0.048
   -0.020
   -0.934
   -1.190
   -0.321
   -0.055
   -0.258
    0.427
    0.795
    0.231
    0.381
    1.212
    1.446
    0.837
    0.227
    0.616
    1.593
    1.386
   -0.431
   -1.388
   -0.392
    0.285
    0.041
   -0.044
   -0.270
   -0.377
    0.068
    0.395
    0.391
    0.116
    0.246
    0.913
    0.644
   -0.457
   -0.541
    0.321
   -0.116
   -1.213
   -0.700
    0.289
    0.417
    0.017
   -0.130
   -0.379
   -1.521
   -1.855
   -1.086
   -0.814
   -0.370
    1.126
    1.688
    0.218
   -0.089
    1.310
    1.220
   -0.432
   -1.271
   -0.417
    0.107
   -0.637
   -0.651
    0.580
    1.359
    1.056
    1.158
    1.398
    0.375
   -0.439
   -0.286
   -0.625
   -1.016
    0.187
    1.308
    0.133
   -1.251
   -1.612
   -1.913
   -1.371
    0.032
    0.544
   -0.576
   -1.488
   -0.866
    0.285
    1.279
    0.512
   -1.542
   -1.461
   -0.240
    0.231
    1.136
    1.908
    1.358
    0.821
    1.175
    1.401
    1.026
    0.144
   -0.810
   -1.131
   -0.792
   -0.174
    0.596
    1.318
    0.963
    0.091
   -0.141
   -0.528
   -0.294
    0.858
    0.524
   -0.840
   -0.989
   -0.446
   -0.164
    0.172
   -0.074
   -1.186
   -0.904
    1.094
    1.644
    0.348
   -0.694
   -1.118
   -0.999
   -0.735
   -1.067
   -0.756
    1.326
    2.962
    1.877
   -0.517
   -1.628
   -0.958
   -0.334
   -0.765
   -0.786
    0.081
    0.977
    1.538
    1.504
    0.746
   -0.803
   -1.745
   -0.573
    0.647
    0.338
    0.182
    0.660
    0.469
   -0.410
   -0.910
   -0.749
   -0.361
   -0.288
    0.035
    1.185
    0.808
   -1.265
   -1.201
    0.019
   -0.533
    0.062
    2.393
    2.092
    0.009
   -0.086
    1.171
    1.156
   -0.474
   -1.220
   -1.078
   -2.028
   -1.645
    0.726
    1.106
    0.097
    0.210
    0.055
   -0.213
    0.314
   -0.161
   -1.391
   -0.674
    1.726
    2.086
   -0.510
   -1.754
    0.692
    1.996
   -1.250
   -3.087
   -0.628
    0.486
   -0.832
   -1.009
    0.325
    0.405
   -1.110
   -0.734
    0.543
   -0.392
   -1.013
    0.123
    0.950
    0.997
    0.743
    0.509
   -0.100
   -0.983
   -0.924
   -0.222
   -0.101
   -0.311
   -0.023
   -0.397
   -1.057
    0.203
    1.173
    0.025
    0.048
    2.009
    1.911
   -0.736
   -1.993
   -0.589
    0.465
   -0.893
   -1.282
    0.953
    2.197
    2.015
    2.269
    2.799
    1.963
   -0.062
   -0.618
   -0.369
   -0.432
   -0.148
   -0.232
   -0.550
   -0.764
   -1.004
   -1.366
   -1.436
    0.183
    1.987
    0.812
   -1.769
   -1.260
    1.243
    0.860
   -0.707
    0.726
    2.198
    0.525
   -0.666
    1.197
    2.363
   -0.135
   -3.777
   -4.670
   -2.259
    0.230
    1.241
    1.358
   -0.272
   -1.849
   -0.907
   -0.104
   -0.793
    0.083
    1.531
   -0.015
   -1.987
   -0.645
    1.904
    2.152
    1.201
    1.198
    0.914
    0.188
    0.240
    0.238
   -0.864
   -2.545
   -3.642
   -2.481
    1.532
    3.814
    2.303
    0.653
   -1.065
   -2.655
   -3.648
   -4.519
   -2.552
    0.855
    1.897
    1.401
    1.443
    1.672
    0.710
   -0.574
   -1.295
   -1.382
   -0.386
    0.447
    0.347
    1.109
    2.833
    2.884
    1.254
    0.107
   -0.227
   -0.216
   -0.211
   -0.111
   -0.291
   -1.057
   -0.690
    0.522
    0.306
   -0.231
    1.209
    2.586
    1.169
   -0.353
    0.170
    0.273
   -0.351
    1.015
    4.488
    7.248
    7.201
    4.580
    1.111
   -2.665
   -6.623
   -8.893
   -8.547
   -5.751
   -1.466
    1.569
    1.881
    0.331
   -1.895
   -3.572
   -3.167
   -1.041
    0.876
    2.202
    3.515
    4.413
    2.692
   -1.806
   -4.620
   -3.014
    0.736
    2.824
    1.719
   -0.003
    0.767
    2.236
    1.635
    1.534
    2.781
    2.490
    1.296
    0.267
   -0.326
    0.003
   -0.978
   -4.163
   -5.038
   -0.915
    2.051
    0.596
   -0.018
    1.540
    3.281
    2.926
   -0.334
   -2.218
   -3.405
   -5.364
   -4.307
   -1.837
   -0.211
    0.520
   -0.491
   -0.679
    0.918
    2.300
    2.911
    3.404
    3.543
    0.954
   -3.459
   -5.342
   -2.774
    1.863
    3.262
    1.746
    2.237
    3.288
    1.894
   -0.497
   -1.961
   -1.276
    0.719
    0.378
   -3.011
   -4.028
    0.315
    5.060
    5.197
    2.147
   -0.209
   -2.228
   -4.631
   -4.137
   -1.265
   -1.029
   -2.257
    0.677
    5.395
    4.855
   -0.431
   -4.303
   -4.151
   -2.283
   -0.421
    1.095
    1.703
    0.347
   -2.478
   -1.896
    1.292
    0.365
   -3.293
   -4.373
   -2.265
    0.267
    2.439
    4.371
    3.387
    0.167
   -2.196
   -1.346
    2.812
    5.372
    3.646
   -1.075
   -5.235
   -4.415
   -0.706
    1.595
    2.950
    3.964
    3.929
    2.531
    0.756
    1.220
    1.464
   -2.219
   -5.500
   -5.332
   -3.695
   -1.941
   -0.729
    0.693
    1.520
    0.687
   -0.066
   -0.316
    0.706
    2.855
    2.323
   -0.184
   -0.006
    2.341
    3.009
    1.862
    1.198
    0.480
   -1.529
   -4.007
   -5.098
   -3.690
   -1.103
    1.558
    3.014
    1.803
   -0.257
   -1.221
   -0.177
    2.302
    3.014
    1.927
    0.696
   -1.381
   -3.340
   -4.129
   -4.239
   -1.796
    2.409
    2.854
    0.429
   -0.047
    0.061
   -1.459
   -3.445
   -3.248
   -0.498
    0.951
    0.892
    2.249
    3.874
    3.025
   -0.093
   -2.488
   -1.948
    0.972
    1.508
   -1.321
   -0.134
    4.532
    5.036
    1.029
   -3.023
   -3.730
   -2.294
   -2.078
   -2.711
   -1.505
    1.707
    2.785
    0.795
    0.513
    2.353
    2.966
    2.353
    1.828
    1.637
    2.499
    4.037
    3.466
   -0.392
   -4.452
   -5.305
   -4.358
   -2.557
    0.351
    0.747
   -1.389
   -3.095
   -2.663
   -0.234
   -0.014
   -1.283
   -0.227
    1.736
    3.069
    3.288
    1.418
   -0.960
   -0.648
    1.380
    1.377
   -0.472
   -0.571
    0.930
    0.361
   -0.105
    2.182
    1.788
   -3.451
   -6.743
   -4.535
   -0.611
    2.720
    4.299
    3.211
    1.667
   -0.053
   -0.879
   -0.424
   -2.030
   -2.993
   -0.692
    2.398
    4.910
    3.653
   -2.100
   -6.718
   -5.214
    0.582
    2.444
   -0.401
    0.647
    5.576
    5.299
   -2.061
   -7.590
   -5.793
   -1.106
    1.794
    1.410
   -0.290
    1.472
    5.147
    5.239
    2.231
    0.418
    0.715
   -0.243
   -1.871
   -1.294
   -2.040
   -5.697
   -6.128
   -1.418
    0.902
   -1.247
   -0.140
    4.373
    5.279
    3.093
    1.388
   -0.666
   -2.322
   -2.706
   -3.412
   -2.051
    1.381
    2.675
    1.855
    0.461
    0.740
    2.023
    0.678
   -1.126
   -1.143
   -0.475
    0.224
   -0.065
   -1.016
   -1.613
   -1.259
    0.833
    3.656
    3.945
   -0.845
   -6.609
   -6.264
   -1.361
    1.820
    2.068
    1.614
    2.484
    3.803
    2.845
    0.726
   -1.893
   -5.836
   -7.179
   -4.539
   -0.779
    2.704
    4.249
    4.092
    3.714
    2.194
   -0.462
   -3.041
   -4.707
   -3.551
   -0.378
    0.531
   -0.445
    0.921
    3.713
    3.502
    0.950
   -0.531
   -1.741
   -2.169
    1.732
    6.621
    5.472
   -0.551
   -4.279
   -3.142
   -1.014
   -0.921
   -0.705
    1.782
    3.554
    2.374
    0.809
    0.698
    0.724
   -0.902
   -4.023
   -5.679
   -3.987
   -1.910
   -2.162
   -2.807
   -0.701
    4.065
    7.023
    5.438
    2.361
    0.217
   -0.842
   -0.172
   -0.348
   -2.462
   -1.231
    2.564
    2.785
    0.122
   -2.051
   -1.927
   -1.183
   -2.593
   -2.359
    1.020
    2.431
    1.289
    0.129
   -1.867
   -4.138
   -3.209
   -0.271
    1.093
    2.334
    3.695
    1.937
   -1.164
   -2.061
   -1.498
   -0.078
    1.840
    2.156
    0.563
   -1.648
   -2.919
   -2.341
   -1.897
   -1.632
    1.684
    5.775
    5.506
    2.490
    1.243
    0.950
   -1.267
   -3.021
   -1.565
    0.576
    0.612
   -0.280
    0.434
    1.167
   -0.264
   -1.346
   -0.549
    0.725
    1.588
    1.506
    0.711
    0.443
    0.553
    0.094
   -0.228
   -0.671
   -1.655
   -1.415
    0.664
    3.081
    2.960
   -0.034
   -2.346
   -2.733
   -2.311
   -1.459
   -1.063
   -0.596
    1.519
    1.140
   -3.066
   -3.264
    1.225
    3.716
    2.330
   -1.057
   -3.725
   -3.893
   -2.490
   -1.430
   -0.833
   -0.357
    0.857
    2.820
    2.378
    0.646
    0.702
    2.024
    4.063
    4.013
    1.709
    0.702
    0.173
   -0.869
   -2.162
   -4.760
   -6.428
   -2.753
    3.000
    3.117
   -0.495
   -1.301
    0.065
   -0.369
   -1.231
    1.123
    3.018
    1.193
    0.237
    1.498
    1.108
   -1.805
   -3.783
   -2.044
    1.052
    2.179
    1.051
   -2.139
   -5.031
   -3.196
    1.679
    3.617
    2.506
    0.463
   -1.639
   -0.835
    1.202
    0.957
    0.469
    0.632
   -0.151
   -1.759
   -2.643
   -2.235
   -0.607
    1.482
    2.568
    2.264
   -0.584
   -3.031
   -0.458
    2.082
    0.247
   -1.641
   -1.237
   -0.541
    0.618
    3.173
    3.756
    1.359
   -0.804
   -1.773
   -1.341
   -1.273
   -2.127
   -0.342
    2.382
    2.318
    1.663
    1.994
    1.469
    0.963
    1.530
    1.125
    0.185
    0.582
    2.137
    2.320
   -0.761
   -4.038
   -4.876
   -4.197
   -3.241
   -2.514
   -1.945
   -1.177
    0.118
    0.915
    1.016
    1.213
    1.841
    3.254
    3.062
    0.634
   -0.719
   -0.592
   -0.130
    0.351
    0.063
   -1.253
   -2.387
   -1.833
   -0.521
