Origin Time       05/3/2012 07:41:05	
Lat.              28.7 N	
Long.             76.6 E	
Depth (Km)         14.0
Magnitude         4.9
 Region           Haryana-Delhi-Border-Region                                      
 Above details taken from IMD 
     
Station Code       JAFR
Station Lat.       28.594  N
Station Long.      76.908  E
Station Height(m)  162.0
Site Class        C   Vs30 between 200 m/sec to 375 m/sec *  
Record Time        3/5/2012   7:41:01.000
Sampling Rate     100. Hz
 Record Duration   80.000 Sec.
 Direction         E-W (E positive)
Max. Acceleration   9.839 cm/sec**2
     
  * For reference see Site Classification link of website 
     
 Base Line Corrected and Low Pass Filtered (Cut Off at 35 Hz) Time History
 Acceleration data in cm/sec**2
    
[...]
   -0.005
   -0.007
    0.014
    0.016
   -0.007
   -0.006
    0.007
    0.001
   -0.003
    0.001
    0.003
    0.009
    0.010
   -0.011
    0.002
    0.033
    0.004
   -0.020
    0.006
    0.019
    0.008
   -0.004
   -0.006
    0.001
   -0.005
   -0.014
   -0.008
   -0.003
    0.008
    0.025
    0.016
   -0.006
   -0.018
   -0.011
    0.015
    0.023
    0.002
   -0.013
   -0.005
   -0.010
   -0.006
    0.015
    0.009
   -0.005
   -0.003
    0.002
    0.007
    0.004
   -0.002
    0.001
    0.001
   -0.005
   -0.009
   -0.016
   -0.011
    0.009
    0.018
    0.009
   -0.013
   -0.010
    0.026
    0.020
   -0.018
   -0.012
    0.010
    0.008
   -0.005
   -0.013
    0.002
    0.013
   -0.001
   -0.004
    0.002
    0.006
    0.017
    0.012
   -0.013
   -0.012
    0.020
    0.030
    0.003
   -0.019
   -0.009
    0.008
   -0.001
   -0.012
    0.001
    0.005
   -0.006
   -0.008
    0.003
    0.007
   -0.006
   -0.007
    0.002
    0.002
    0.007
    0.012
    0.012
    0.000
   -0.008
    0.013
    0.019
   -0.012
   -0.008
    0.011
   -0.024
   -0.017
    0.024
    0.005
   -0.004
    0.004
   -0.014
   -0.015
   -0.002
   -0.001
   -0.003
   -0.002
    0.001
   -0.005
   -0.019
    0.003
    0.027
    0.008
    0.003
    0.025
    0.012
   -0.016
   -0.007
    0.003
   -0.009
   -0.005
    0.005
   -0.001
   -0.007
   -0.008
   -0.009
    0.003
    0.018
    0.009
   -0.005
    0.002
    0.000
   -0.017
   -0.010
    0.020
    0.024
   -0.016
   -0.035
    0.004
    0.031
    0.009
   -0.015
   -0.011
    0.000
    0.006
    0.011
    0.002
   -0.009
    0.001
    0.008
   -0.002
   -0.013
   -0.003
    0.015
    0.011
   -0.001
   -0.009
   -0.011
   -0.001
    0.008
    0.007
   -0.012
   -0.001
    0.031
    0.001
   -0.020
    0.014
    0.017
   -0.005
   -0.011
   -0.009
   -0.002
   -0.001
   -0.012
   -0.011
    0.007
    0.014
    0.003
   -0.008
   -0.005
    0.005
    0.007
    0.003
   -0.004
   -0.014
   -0.007
    0.010
    0.012
    0.001
   -0.014
   -0.004
    0.020
    0.008
   -0.018
   -0.020
   -0.003
    0.013
    0.010
   -0.004
    0.002
    0.013
    0.002
   -0.004
    0.007
    0.012
    0.003
    0.004
    0.015
    0.007
   -0.006
   -0.006
   -0.007
   -0.006
    0.003
    0.002
   -0.010
   -0.015
   -0.003
    0.007
    0.004
   -0.002
   -0.003
    0.005
    0.008
   -0.004
   -0.008
   -0.003
   -0.003
    0.012
    0.030
    0.014
   -0.005
    0.001
    0.006
   -0.003
   -0.013
   -0.008
   -0.006
   -0.004
    0.011
    0.014
    0.005
   -0.003
   -0.007
    0.003
    0.008
   -0.001
   -0.001
    0.004
   -0.002
    0.000
    0.011
    0.003
   -0.005
   -0.001
   -0.002
   -0.002
    0.004
    0.012
    0.004
   -0.008
    0.003
    0.005
   -0.004
   -0.007
   -0.012
   -0.005
    0.009
    0.016
    0.018
    0.008
   -0.007
   -0.006
    0.012
    0.026
    0.017
   -0.008
   -0.011
    0.001
   -0.006
   -0.005
    0.005
    0.003
    0.000
   -0.013
   -0.021
   -0.005
    0.005
    0.002
    0.001
    0.003
    0.012
    0.022
    0.008
   -0.010
   -0.017
   -0.018
    0.006
    0.020
   -0.011
   -0.018
    0.011
    0.013
   -0.003
    0.000
    0.004
   -0.006
   -0.004
    0.006
    0.006
    0.007
    0.017
    0.011
   -0.012
   -0.011
   -0.004
   -0.011
   -0.004
    0.003
   -0.004
   -0.012
   -0.007
    0.006
    0.009
    0.003
   -0.005
   -0.002
    0.004
   -0.004
    0.005
    0.013
    0.009
    0.014
    0.007
   -0.009
   -0.012
   -0.006
   -0.001
    0.005
    0.006
   -0.010
   -0.016
   -0.006
   -0.001
    0.005
    0.000
   -0.011
   -0.001
    0.006
   -0.010
   -0.010
    0.008
    0.016
    0.011
    0.003
    0.001
   -0.001
    0.000
    0.002
    0.003
    0.005
   -0.006
   -0.014
   -0.005
    0.007
    0.006
   -0.019
   -0.025
    0.014
    0.025
   -0.006
   -0.018
   -0.007
    0.001
    0.000
    0.000
   -0.002
   -0.004
    0.007
    0.019
    0.019
    0.005
   -0.011
    0.000
    0.028
    0.028
    0.000
   -0.026
   -0.016
    0.012
   -0.010
   -0.033
    0.008
    0.024
   -0.008
   -0.009
    0.003
   -0.012
   -0.010
    0.009
    0.012
    0.007
   -0.004
   -0.009
    0.006
    0.021
    0.019
    0.006
   -0.010
   -0.017
    0.001
    0.020
    0.018
    0.003
   -0.009
   -0.001
    0.004
   -0.003
   -0.005
   -0.002
    0.008
    0.016
    0.012
   -0.006
   -0.006
    0.008
   -0.002
   -0.011
    0.005
    0.010
   -0.002
    0.001
   -0.001
   -0.019
    0.000
    0.023
    0.015
    0.001
   -0.014
   -0.004
    0.024
    0.019
   -0.003
   -0.001
    0.009
   -0.001
   -0.007
    0.002
    0.007
    0.004
   -0.003
   -0.006
   -0.003
   -0.007
   -0.009
   -0.007
   -0.006
    0.008
    0.020
    0.010
    0.000
   -0.006
   -0.011
    0.002
    0.022
    0.021
   -0.002
   -0.017
   -0.012
    0.011
    0.036
    0.020
   -0.017
   -0.012
    0.009
    0.002
   -0.013
   -0.012
    0.005
    0.015
    0.004
   -0.003
   -0.002
   -0.005
    0.003
    0.013
   -0.009
   -0.020
    0.004
    0.015
    0.014
    0.014
   -0.010
   -0.020
    0.010
    0.021
    0.001
   -0.010
   -0.009
   -0.006
    0.003
    0.009
    0.008
   -0.005
   -0.014
    0.013
    0.026
    0.007
    0.000
    0.002
    0.009
    0.010
   -0.006
   -0.012
   -0.002
    0.009
    0.014
   -0.004
   -0.022
   -0.006
    0.008
   -0.003
   -0.001
    0.007
   -0.005
   -0.014
   -0.002
    0.005
    0.003
    0.006
    0.001
   -0.007
    0.007
    0.020
    0.005
   -0.017
   -0.005
    0.016
    0.003
   -0.011
   -0.005
   -0.001
   -0.007
   -0.011
    0.004
    0.018
    0.009
   -0.001
   -0.001
   -0.003
    0.002
    0.011
    0.015
    0.018
    0.003
   -0.017
   -0.008
    0.002
   -0.002
   -0.003
   -0.009
   -0.005
    0.015
    0.013
    0.001
    0.002
    0.002
    0.004
    0.003
   -0.004
   -0.002
   -0.004
   -0.010
    0.005
    0.015
    0.007
   -0.006
   -0.018
   -0.007
    0.008
    0.003
   -0.004
   -0.008
    0.001
    0.016
    0.005
   -0.008
   -0.002
    0.001
    0.003
   -0.003
   -0.005
    0.011
    0.013
    0.009
    0.015
    0.004
   -0.015
   -0.006
   -0.006
   -0.016
    0.005
    0.015
   -0.007
   -0.007
    0.016
    0.023
    0.021
    0.035
    0.045
    0.037
    0.044
    0.061
    0.056
    0.049
    0.057
    0.057
    0.047
    0.041
    0.040
    0.051
    0.065
    0.065
    0.059
    0.050
    0.068
    0.136
    0.148
    0.055
    0.008
    0.074
    0.119
    0.045
   -0.045
    0.013
    0.118
    0.049
   -0.115
   -0.205
   -0.304
   -0.375
   -0.254
   -0.209
   -0.372
   -0.249
    0.137
    0.192
    0.011
    0.133
    0.500
    0.516
    0.136
    0.091
    0.381
    0.251
   -0.174
   -0.157
    0.304
    0.402
   -0.118
   -0.161
    0.678
    1.012
    0.346
    0.132
    0.965
    1.446
    0.709
   -0.107
    0.255
    1.050
    0.523
   -0.480
    0.083
    0.598
   -0.268
   -0.293
    0.230
   -1.092
   -2.571
   -1.614
   -0.195
   -0.935
   -2.028
   -0.947
    0.152
   -0.956
   -1.019
    1.298
    1.352
   -1.304
   -1.181
    1.462
    1.064
   -1.343
   -0.789
    1.243
    0.279
   -2.143
   -1.397
    0.784
    0.218
   -0.657
    0.853
    1.373
    0.029
    0.281
    1.080
   -0.250
   -1.688
   -0.969
    0.144
   -0.179
   -0.337
    0.533
    0.240
   -1.372
   -1.232
    0.360
    0.331
   -0.511
    0.152
    0.904
    0.292
    0.097
    0.451
    0.161
   -0.227
   -0.189
    0.502
    0.969
   -0.102
   -0.992
    0.220
    1.142
    0.043
   -0.699
   -0.099
    0.382
    0.532
    0.584
    0.119
   -0.250
   -0.446
   -1.324
   -1.647
   -0.552
    0.521
    1.053
    1.531
    1.798
    1.342
    0.191
   -0.692
   -0.818
   -0.705
   -0.798
   -1.093
   -0.923
    0.169
    1.202
    0.763
   -0.283
    0.222
    1.196
    0.820
    0.367
    0.309
    0.225
    0.892
    0.915
   -1.001
   -2.225
   -1.484
   -1.019
   -1.680
   -2.062
   -1.377
   -0.131
    0.541
    0.038
   -0.253
    0.678
    0.749
   -0.562
   -0.458
    0.814
    1.176
    1.091
    0.981
    0.885
    1.306
    1.360
    0.492
    0.330
    1.012
    0.907
    0.535
    0.491
    0.114
    0.263
    0.996
    0.847
    0.021
   -0.504
   -0.245
    0.250
   -0.446
   -1.360
   -0.641
   -0.124
   -0.914
   -0.699
    0.264
   -0.359
   -1.084
    0.074
    0.252
   -1.144
   -0.747
    0.804
    1.075
    0.272
    0.022
    0.220
   -0.923
   -1.521
    0.988
    2.294
   -0.463
   -1.563
    1.018
    1.987
   -0.133
   -1.382
   -0.206
    0.364
   -0.926
   -1.619
   -0.293
    1.148
    0.950
    0.668
    0.740
   -0.308
   -0.775
    0.573
    0.352
   -2.320
   -2.787
   -0.177
    0.893
   -0.214
    0.116
    1.711
    1.300
   -0.175
    0.250
    0.998
   -0.402
   -2.600
   -2.745
   -0.343
    1.155
    0.149
   -0.358
   -0.004
   -0.216
    0.430
    1.448
    0.363
   -1.087
   -0.097
    1.189
    0.216
   -0.120
    1.920
    1.930
   -0.752
   -1.189
    0.782
    0.843
   -1.463
   -2.122
    0.088
    1.606
    0.719
   -0.754
   -1.528
   -0.628
    1.336
    1.415
    0.216
    0.432
    0.525
   -1.024
   -1.655
   -0.422
    0.423
    0.680
    0.940
    0.246
    0.129
    1.764
    2.028
   -0.221
   -1.827
   -1.144
   -0.369
   -0.999
   -1.590
   -0.879
    0.502
    1.195
    0.898
    0.016
   -0.839
   -0.897
   -0.339
    0.144
    0.099
    0.068
    1.539
    2.843
    1.049
   -1.230
   -0.773
   -0.054
   -1.659
   -2.054
    0.789
    1.176
   -1.401
   -0.496
    2.353
    0.800
   -2.180
   -0.214
    3.001
    1.925
    0.015
    0.176
   -0.953
   -2.560
   -1.105
    1.056
    1.562
    1.426
    1.536
    1.245
   -0.532
   -1.811
   -1.168
   -0.884
   -0.830
   -0.277
   -1.239
   -1.180
    1.898
    2.235
   -1.127
   -1.267
    2.157
    2.068
   -2.045
   -3.753
   -1.113
    0.726
   -1.510
   -1.696
    3.249
    4.879
   -0.128
   -4.006
   -2.889
   -2.066
   -3.656
   -2.048
    2.251
    2.174
   -0.356
   -0.272
   -0.003
   -1.320
   -1.785
   -0.353
    1.130
    1.694
    1.823
    1.730
    1.537
    0.554
   -0.377
   -0.786
   -1.268
    0.103
    1.181
   -0.821
   -1.000
    1.492
    0.606
   -2.660
   -2.397
    1.431
    4.080
    2.399
   -0.478
    0.155
    2.294
    1.162
   -1.778
   -2.079
   -0.786
   -0.557
   -0.480
    0.468
    1.436
    1.500
    0.001
   -1.997
   -1.253
    1.346
    1.174
   -1.434
   -1.825
    1.137
    2.892
   -0.082
   -2.265
    0.859
    1.693
   -1.327
    0.551
    3.623
    0.026
   -3.403
   -1.673
   -0.200
   -0.193
    0.098
   -0.181
   -1.109
   -2.322
   -2.425
   -0.375
    1.031
    0.998
    2.160
    3.039
    1.008
   -0.924
   -0.104
    0.609
    0.231
    0.287
    0.024
   -0.001
    0.566
    0.003
   -0.551
    0.190
    0.287
   -0.081
    1.113
    2.012
    0.616
   -0.051
    1.854
    2.176
   -0.738
   -2.181
   -0.265
    1.930
    1.855
    0.734
    0.823
    0.133
   -1.976
   -2.712
   -1.840
   -0.515
   -0.281
   -2.155
   -3.946
   -2.836
   -0.114
    0.377
   -0.920
   -0.730
   -0.358
   -1.826
   -1.938
    0.921
    2.734
    1.182
   -0.806
   -1.404
   -2.366
   -2.292
    1.808
    5.638
    3.703
    0.496
    2.505
    5.266
    2.504
   -1.245
   -1.192
   -0.678
   -2.533
   -4.268
   -2.093
    2.116
    2.425
   -0.236
    0.318
    3.404
    2.771
   -1.331
   -2.990
   -1.496
   -0.953
   -3.312
   -5.907
   -4.548
   -0.451
    1.489
    0.664
    0.019
    0.406
   -0.502
   -3.155
   -3.708
   -1.165
    0.397
    0.010
    0.915
    3.278
    3.825
    1.761
    0.289
    2.567
    5.115
    2.770
   -0.859
   -1.478
    0.122
    1.518
   -0.412
   -1.163
    3.877
    5.713
    0.107
   -2.842
   -0.368
   -0.632
   -4.170
   -4.933
   -2.054
    2.221
    3.742
    1.299
    0.817
    1.733
   -0.293
   -1.376
    0.399
    2.031
    1.936
   -0.533
   -2.935
   -1.653
    0.018
   -3.107
   -6.175
   -4.062
   -1.401
   -1.258
   -2.145
   -2.468
   -0.157
    3.519
    4.918
    3.735
    2.511
    2.691
    2.907
    1.589
   -0.493
   -1.369
   -0.726
   -0.210
    0.146
    1.351
    1.769
    0.687
    0.010
    0.592
    0.639
   -0.911
   -0.304
    2.627
    2.701
    0.431
   -0.519
   -2.138
   -5.201
   -3.508
    2.290
    3.576
   -0.291
   -1.319
    2.109
    2.948
   -0.909
   -3.848
   -0.603
    3.841
    2.274
   -1.135
   -1.088
    1.061
    0.696
   -2.516
   -3.173
   -1.555
   -1.361
   -1.201
    0.139
    0.399
   -1.189
   -1.872
   -1.058
   -0.505
    1.685
    4.466
    3.114
    0.280
   -0.487
   -1.862
   -3.801
   -2.691
    0.430
    1.651
    0.152
   -1.861
   -0.640
    3.261
    4.221
    1.765
   -1.280
   -3.904
   -3.762
   -0.695
    2.530
    4.226
    3.070
   -0.853
   -4.463
   -3.920
   -0.026
    1.847
    1.597
    3.075
    4.725
    5.003
    4.542
    1.152
   -4.172
   -6.709
   -6.293
   -5.401
   -3.264
    1.076
    3.690
    1.134
   -1.666
   -0.555
   -0.409
   -2.615
   -2.158
    1.215
    3.650
    3.597
    2.763
    2.201
   -0.860
   -5.774
   -5.152
    0.595
    2.223
   -0.542
   -0.498
    2.087
    2.188
   -0.386
   -1.840
   -0.026
    1.850
    1.639
    1.115
    0.109
    0.186
    2.744
    2.275
   -2.318
   -4.641
   -2.905
    0.834
    2.571
    0.589
   -0.350
    0.111
   -1.108
   -1.750
    1.506
    5.113
    3.291
   -0.851
   -2.454
   -2.806
   -2.875
   -1.265
    1.279
    3.252
    4.292
    1.522
   -4.895
   -7.952
   -5.830
   -5.348
   -5.157
    2.480
    9.839
    6.958
    1.385
    0.756
    0.284
   -2.132
    0.379
    6.315
    6.716
    2.601
   -0.510
   -3.695
   -8.069
   -8.208
   -2.951
    0.607
   -0.066
   -1.096
    0.500
    3.260
    4.085
    3.133
    0.522
   -4.127
   -6.400
   -2.820
    2.210
    3.942
    3.512
    3.471
    5.144
    7.561
    6.367
    0.068
   -5.502
   -4.658
   -0.840
   -0.476
   -2.047
   -1.561
   -0.118
   -0.704
   -2.526
   -1.708
    1.083
    1.749
    0.217
    0.376
    3.777
    4.886
    0.569
   -2.962
   -2.531
   -1.599
   -2.422
   -3.579
   -2.968
   -2.218
   -1.171
    2.401
    5.620
    5.180
    2.268
    0.115
   -0.049
    0.355
   -0.453
   -1.271
    0.513
    2.276
    1.696
    1.647
    1.035
   -3.720
   -7.529
   -5.412
   -3.329
   -4.210
   -3.544
   -1.599
    0.127
    1.821
    1.404
    1.029
    2.878
    5.027
    7.633
    6.628
    0.221
   -4.366
   -4.865
   -3.086
    1.251
    5.800
    5.639
    0.501
   -4.231
   -5.059
   -2.585
    1.066
    4.200
    5.811
    3.568
   -1.879
   -3.484
    0.538
    2.630
   -0.656
   -3.543
   -1.696
   -0.707
   -3.523
   -3.433
   -0.177
    0.004
   -2.457
   -2.513
    0.463
    2.202
    1.349
    0.438
    0.531
    0.687
    0.508
    1.518
    3.769
    3.708
    0.639
   -3.106
   -6.918
   -7.886
   -3.876
    1.506
    4.688
    4.305
    1.046
   -1.974
   -1.993
    0.912
    3.579
    2.614
   -1.721
   -4.766
   -2.667
    1.252
    1.673
   -0.034
   -1.163
   -1.395
    0.008
    1.349
    0.591
    0.114
    1.334
    1.192
   -0.278
    0.686
    3.325
    3.195
    0.318
   -1.561
   -2.775
   -2.798
    1.633
    5.174
    2.177
   -0.376
    0.296
   -3.790
   -9.242
   -6.259
    1.025
    3.015
   -1.479
   -4.967
   -2.891
    0.564
    3.020
    4.960
    3.785
    0.389
    1.074
    4.895
    4.648
    2.174
    3.148
    3.044
   -1.810
   -4.561
   -3.355
   -3.061
   -3.218
   -2.210
   -0.047
    1.698
    0.716
   -0.230
   -0.698
   -3.287
   -4.043
   -0.492
    2.318
    1.980
    1.307
    1.301
    0.757
   -1.057
   -2.211
   -0.438
    1.658
    1.038
   -0.186
    0.755
    1.700
    0.150
   -1.529
   -0.155
    2.344
    1.530
   -0.915
   -0.314
    2.161
    2.392
    0.471
    0.507
    3.371
    4.220
    0.062
   -4.882
   -4.916
   -1.240
    1.013
    1.020
    0.456
   -0.273
   -0.493
    0.081
    1.076
    0.863
   -1.471
   -2.593
   -2.579
   -3.501
   -1.031
    4.207
    4.891
    2.128
    0.891
    0.105
   -1.062
   -2.893
   -5.562
   -5.087
   -1.633
    1.195
    2.980
    3.101
    2.202
    1.801
    0.757
   -0.899
   -0.397
    1.441
    0.620
   -2.164
   -3.007
   -0.734
    1.838
    0.932
   -2.163
   -3.313
   -2.774
   -2.840
   -2.954
   -1.274
    1.563
    3.747
    4.980
    3.388
   -0.602
   -1.583
    0.938
    3.229
    3.828
    2.944
    1.464
   -0.732
   -3.670
   -4.161
    0.309
    4.777
    3.445
   -1.063
   -4.057
   -4.012
   -2.113
   -1.797
   -1.945
    0.568
    2.298
    0.075
   -2.334
   -1.508
   -0.434
   -0.583
    0.666
    2.967
    4.563
    4.912
    3.778
    0.590
   -2.193
   -1.440
   -0.692
   -2.432
   -3.603
   -3.050
   -2.167
   -0.648
    2.274
    4.156
    2.968
    1.411
    0.706
   -1.572
   -3.687
   -3.480
   -2.038
    0.665
    2.803
    2.584
    0.909
   -1.958
   -3.654
   -1.862
    0.997
    2.834
    1.901
   -1.717
   -2.307
    1.194
    2.989
    0.727
   -1.429
    0.558
    3.204
    1.118
   -1.991
    0.472
    3.268
   -0.253
   -3.970
   -2.683
   -0.283
   -0.212
   -1.098
   -1.085
   -0.134
    2.109
    3.720
    1.935
    0.046
    1.879
    3.069
   -0.426
   -3.109
   -1.108
    1.490
    0.589
   -3.472
   -5.049
   -2.327
   -1.123
   -0.589
    3.474
    4.543
   -0.761
   -3.124
    0.073
    1.965
    1.230
    0.690
    0.539
   -0.540
   -1.451
   -0.861
   -1.124
   -1.483
    1.678
    3.953
    0.233
   -2.329
    1.965
    4.633
    0.496
   -2.626
   -0.931
   -0.633
   -3.551
   -3.293
    1.278
    3.206
    0.407
   -2.231
   -1.393
    2.149
    4.366
    2.284
   -1.292
   -3.057
   -3.154
   -1.381
    0.885
    1.424
    1.066
   -0.770
   -3.011
   -1.154
    2.299
    1.502
   -1.329
   -0.776
    1.385
   -0.373
   -2.567
    1.485
    5.185
    1.298
   -2.778
   -1.912
   -1.146
   -2.286
   -3.016
   -1.546
    2.751
    5.865
    3.821
    0.631
    1.107
    1.662
   -0.302
   -1.688
   -1.734
   -0.277
    1.848
    2.052
    1.021
    0.818
    1.570
    0.575
   -2.873
   -4.487
   -2.707
   -0.231
    1.499
    1.381
   -0.674
   -2.121
   -1.568
    0.643
    2.196
    0.785
   -0.933
   -1.153
   -1.610
   -1.168
   -0.321
   -1.279
   -1.716
   -1.162
   -1.762
   -3.079
   -3.178
   -1.487
    0.816
    3.147
    3.237
    0.338
   -0.735
    0.405
   -0.313
   -0.979
    0.097
    0.615
    2.150
    4.679
    4.592
    2.868
    1.225
   -0.618
   -1.191
   -0.669
   -1.171
   -1.449
   -0.466
    0.202
    0.641
    0.940
    0.058
   -1.426
   -2.356
   -2.303
   -0.719
    0.123
   -1.799
   -1.303
    2.457
    1.870
   -1.270
    1.100
    4.924
    2.887
   -0.601
   -0.333
    0.513
   -1.885
   -5.152
   -4.126
   -0.546
    0.380
   -0.318
    0.385
    1.396
    0.962
    0.491
    1.407
    3.052
    3.860
    2.277
   -0.517
   -0.840
    1.180
    1.439
    0.449
    1.613
    3.220
    1.470
   -2.289
   -3.390
   -1.766
   -1.470
   -3.645
   -4.854
   -2.214
    1.656
    2.305
    0.877
    0.644
    0.710
    0.302
    0.215
    0.055
   -1.458
   -4.261
   -4.925
   -2.492
    0.046
    1.007
    0.439
    0.735
    2.655
    2.505
    0.717
    1.573
    3.525
    2.721
   -0.067
   -1.815
   -1.045
    0.641
    0.961
    0.748
    1.761
    1.895
   -0.531
   -2.294
   -1.451
