Origin Time       05/3/2012 07:41:05	
Lat.              28.7 N	
Long.             76.6 E	
Depth (Km)         14.0
Magnitude         4.9
 Region           Haryana-Delhi-Border-Region                                      
 Above details taken from IMD 
   
Station Code       JAFR
Station Lat.       28.594
Station Long.      76.908
Station Height(m)  162.0
Site Class        C   Vs30 between 200 m/sec to 375 m/sec *  
Record Time        3/5/2012   7:41:01.000
Sampling Rate     100. Hz
 Record Duration   80.000 Sec.
 Direction         Vert. (Up positive)
Max. Acceleration  -8.969 cm/sec**2
     
  * For reference see Site Classification link of website 
     
 Base Line Corrected and Low Pass Filtered (Cut Off at 35 Hz) Time History
 Acceleration data in cm/sec**2
    
[...]
    0.003
    0.005
   -0.001
   -0.006
    0.004
    0.003
   -0.014
   -0.012
   -0.001
    0.005
    0.009
   -0.002
   -0.010
    0.003
    0.014
    0.009
    0.008
    0.012
    0.009
    0.001
    0.003
    0.014
    0.010
   -0.009
   -0.022
   -0.012
    0.022
    0.033
    0.004
   -0.014
   -0.009
   -0.003
   -0.005
    0.004
    0.027
    0.020
   -0.002
   -0.002
    0.002
   -0.006
   -0.008
    0.004
    0.005
   -0.014
   -0.017
   -0.003
   -0.006
   -0.010
   -0.002
    0.001
    0.011
    0.013
   -0.002
    0.007
    0.026
    0.004
   -0.014
    0.007
    0.013
    0.005
    0.007
    0.007
    0.005
    0.009
    0.004
   -0.010
   -0.011
   -0.004
   -0.004
   -0.010
   -0.018
   -0.018
    0.005
    0.033
    0.028
   -0.006
   -0.023
   -0.015
   -0.004
    0.014
    0.022
    0.006
    0.000
    0.013
    0.018
    0.014
    0.011
    0.003
    0.000
   -0.002
   -0.002
    0.007
    0.008
    0.004
    0.003
   -0.004
   -0.010
   -0.010
   -0.004
    0.011
    0.001
   -0.017
    0.005
    0.026
    0.011
    0.000
    0.001
    0.003
    0.006
   -0.003
   -0.003
    0.013
    0.015
    0.011
    0.012
    0.003
   -0.012
   -0.009
    0.000
   -0.006
   -0.015
   -0.012
    0.001
    0.009
   -0.005
   -0.009
    0.011
    0.018
    0.006
    0.010
    0.014
    0.002
    0.005
    0.011
   -0.001
   -0.003
    0.002
   -0.008
   -0.018
   -0.011
    0.002
   -0.009
   -0.019
    0.004
    0.007
   -0.022
   -0.007
    0.026
    0.010
   -0.002
    0.017
    0.014
    0.000
    0.004
    0.008
    0.002
    0.002
    0.004
    0.000
    0.001
    0.016
    0.017
   -0.008
   -0.022
   -0.008
    0.000
   -0.006
   -0.009
    0.002
    0.007
   -0.005
   -0.011
    0.000
    0.008
    0.001
   -0.007
    0.002
    0.010
   -0.002
   -0.012
   -0.005
   -0.002
   -0.010
   -0.002
    0.019
    0.018
    0.000
   -0.002
    0.020
    0.029
    0.008
   -0.009
   -0.010
   -0.008
    0.001
    0.007
   -0.004
   -0.009
   -0.007
   -0.011
   -0.018
   -0.013
    0.007
    0.020
    0.011
   -0.002
   -0.002
    0.004
    0.006
    0.006
    0.005
    0.000
    0.003
    0.006
   -0.014
   -0.014
    0.015
    0.015
    0.000
   -0.001
   -0.002
   -0.005
   -0.002
    0.005
    0.007
    0.010
    0.009
   -0.005
   -0.015
   -0.005
    0.008
    0.014
    0.014
    0.000
   -0.017
   -0.009
    0.011
    0.008
   -0.002
   -0.001
    0.005
    0.003
   -0.008
   -0.017
   -0.008
    0.014
    0.023
    0.009
   -0.009
   -0.012
   -0.006
   -0.002
    0.002
    0.004
    0.003
    0.000
   -0.010
   -0.017
   -0.009
    0.004
    0.007
    0.001
    0.000
    0.004
    0.001
   -0.011
   -0.008
    0.014
    0.016
   -0.005
   -0.014
    0.000
    0.012
    0.007
   -0.007
   -0.008
   -0.004
   -0.003
    0.008
    0.017
   -0.006
   -0.021
   -0.007
   -0.005
   -0.013
    0.003
    0.018
    0.013
    0.008
    0.009
    0.004
   -0.005
   -0.006
   -0.004
   -0.008
   -0.008
    0.003
    0.009
    0.010
    0.005
   -0.007
   -0.004
    0.007
    0.006
   -0.001
   -0.003
    0.001
    0.012
    0.018
    0.000
   -0.008
    0.010
    0.006
   -0.011
   -0.010
   -0.006
    0.013
    0.037
    0.015
   -0.025
   -0.021
   -0.005
   -0.012
    0.000
    0.020
   -0.001
   -0.023
    0.001
    0.016
   -0.006
   -0.004
    0.014
    0.006
    0.003
    0.005
   -0.008
   -0.003
    0.006
   -0.014
   -0.017
    0.010
    0.019
    0.013
    0.017
    0.015
   -0.005
   -0.018
    0.001
    0.016
   -0.005
   -0.002
    0.028
    0.022
    0.000
   -0.003
   -0.009
   -0.023
   -0.014
    0.003
    0.002
   -0.002
    0.004
    0.003
    0.000
    0.008
    0.004
   -0.001
    0.007
   -0.003
   -0.005
    0.018
    0.017
   -0.002
   -0.004
   -0.010
   -0.022
   -0.009
    0.006
   -0.008
   -0.015
   -0.004
   -0.001
    0.003
    0.010
    0.008
    0.004
    0.003
   -0.003
   -0.006
    0.010
    0.015
    0.004
    0.001
    0.005
    0.001
   -0.003
    0.000
    0.009
    0.007
   -0.011
   -0.021
    0.000
    0.015
    0.010
   -0.003
   -0.012
   -0.004
    0.008
    0.006
    0.001
    0.005
    0.010
    0.006
   -0.008
   -0.007
    0.010
   -0.002
   -0.015
    0.006
    0.005
   -0.019
   -0.004
    0.026
    0.018
    0.001
    0.003
   -0.001
    0.008
    0.021
   -0.001
   -0.011
    0.010
    0.003
   -0.008
    0.008
    0.002
   -0.028
   -0.019
    0.018
    0.012
   -0.017
   -0.007
    0.017
    0.009
   -0.001
    0.017
    0.014
   -0.013
   -0.009
    0.007
    0.003
   -0.001
    0.003
    0.002
    0.007
    0.016
    0.013
   -0.003
   -0.019
   -0.021
   -0.005
    0.004
   -0.001
    0.001
    0.001
   -0.012
   -0.021
   -0.015
   -0.008
    0.000
    0.011
    0.010
    0.004
    0.006
    0.009
    0.002
   -0.006
    0.002
    0.014
    0.014
    0.007
    0.004
    0.006
   -0.001
   -0.010
   -0.001
    0.003
   -0.015
   -0.019
    0.004
    0.005
   -0.018
   -0.014
    0.013
    0.014
   -0.010
   -0.009
    0.012
    0.014
    0.002
   -0.004
   -0.007
   -0.011
   -0.007
    0.002
    0.003
   -0.003
    0.005
    0.011
   -0.003
   -0.011
    0.000
    0.005
    0.012
    0.019
    0.005
   -0.008
   -0.007
   -0.005
    0.010
    0.026
   -0.002
   -0.037
   -0.016
    0.013
   -0.006
   -0.014
    0.009
    0.015
    0.003
   -0.004
   -0.006
   -0.005
    0.000
    0.002
   -0.002
   -0.004
    0.007
    0.022
    0.024
    0.017
    0.001
   -0.017
   -0.009
    0.011
    0.004
   -0.003
    0.012
    0.014
    0.000
    0.001
    0.004
   -0.005
   -0.012
   -0.013
   -0.009
   -0.013
   -0.018
   -0.005
    0.008
    0.002
   -0.001
    0.003
   -0.003
   -0.007
    0.010
    0.023
    0.015
    0.011
    0.014
    0.002
   -0.016
   -0.011
    0.009
    0.018
    0.014
    0.005
   -0.003
   -0.005
    0.001
    0.002
    0.001
    0.014
    0.023
    0.010
   -0.006
   -0.004
    0.002
   -0.009
   -0.006
    0.012
    0.004
   -0.017
   -0.021
   -0.010
    0.003
    0.005
    0.004
    0.007
    0.002
   -0.001
    0.004
    0.005
    0.007
    0.005
    0.000
    0.006
    0.010
    0.007
    0.012
    0.018
    0.013
    0.003
   -0.005
   -0.010
   -0.009
    0.005
    0.012
   -0.003
   -0.010
    0.007
    0.010
   -0.004
    0.004
    0.020
    0.012
   -0.007
   -0.015
   -0.003
    0.010
    0.010
    0.007
    0.006
    0.006
   -0.001
   -0.018
   -0.022
   -0.012
   -0.005
    0.003
    0.004
    0.000
    0.010
    0.008
   -0.009
    0.001
    0.014
   -0.002
   -0.006
    0.006
    0.007
    0.016
    0.032
    0.031
    0.034
    0.060
    0.083
    0.096
    0.133
    0.188
    0.238
    0.285
    0.318
    0.328
    0.331
    0.330
    0.318
    0.311
    0.308
    0.288
    0.250
    0.227
    0.292
    0.401
    0.363
    0.224
    0.259
    0.487
    0.610
    0.442
    0.201
    0.084
    0.007
    0.027
    0.135
    0.041
   -0.123
   -0.146
   -0.511
   -1.507
   -2.566
   -3.089
   -2.933
   -2.296
   -1.526
   -0.792
   -0.356
   -0.496
   -0.614
    0.080
    1.263
    1.783
    1.180
    0.569
    0.327
   -0.586
   -1.363
   -0.802
   -0.074
   -0.227
   -0.978
   -1.369
   -0.325
    0.899
    0.507
    0.482
    2.151
    3.059
    2.966
    3.029
    1.396
   -1.750
   -2.716
   -1.028
    0.709
    1.380
    1.694
    1.951
    0.460
   -2.388
   -2.933
   -1.323
   -0.657
   -0.272
    1.475
    2.623
    1.342
   -0.173
    0.904
    2.367
    0.172
   -2.818
   -2.238
   -1.075
   -1.530
   -0.578
    1.114
    0.282
   -0.892
   -0.156
   -0.004
   -0.847
   -0.589
    0.546
    1.345
    1.205
    0.274
   -0.406
   -1.053
   -1.459
   -0.057
    1.517
    1.201
    0.805
    1.462
    1.115
   -0.703
   -2.261
   -3.104
   -2.855
   -1.047
    1.336
    2.553
    1.728
    0.022
   -0.617
    0.025
    0.479
    0.621
    1.127
    1.355
    1.009
    0.063
   -1.641
   -2.677
   -1.732
    0.071
    1.496
    2.643
    2.998
    2.184
    0.658
   -1.300
   -2.613
   -2.991
   -3.328
   -2.497
    0.225
    2.510
    2.653
    1.694
    1.341
    1.351
   -0.139
   -2.650
   -3.451
   -2.189
   -0.157
    1.862
    2.500
    1.947
    2.134
    2.064
   -0.330
   -2.728
   -2.552
   -1.560
   -0.886
   -0.081
   -0.116
   -0.174
    1.132
    1.215
   -0.855
   -1.400
    0.062
    0.425
   -0.180
   -0.155
   -0.065
   -0.081
    0.120
    0.008
    0.142
    1.305
    1.798
    0.582
   -0.514
   -0.718
   -0.471
    0.233
    0.228
   -1.072
   -1.453
   -0.289
    0.000
   -0.631
   -0.329
    0.981
    1.584
    0.535
    0.377
    1.583
    1.260
   -0.241
   -1.409
   -1.817
   -1.009
    0.482
    1.042
   -0.361
   -2.332
   -2.521
   -0.931
    0.141
    0.995
    2.645
    2.327
   -0.164
   -0.876
    0.710
    0.759
   -1.024
   -0.911
    0.294
   -0.119
   -0.769
   -0.525
   -0.127
    0.062
   -0.190
    0.553
    3.072
    3.642
    0.901
   -1.395
   -2.180
   -2.064
    0.423
    3.366
    2.375
   -0.805
   -1.470
   -0.602
   -0.623
   -0.101
    0.630
   -0.333
   -1.394
   -1.440
   -1.024
    0.202
    1.332
    1.113
    1.192
    2.192
    0.462
   -3.417
   -3.721
   -1.157
    0.221
    1.221
    1.843
    1.190
    1.373
    1.140
   -1.800
   -3.932
   -2.438
    0.315
    1.520
    1.085
    0.119
   -0.567
   -0.680
   -0.882
   -0.909
    0.388
    1.929
    2.210
    1.377
    0.034
   -0.860
   -1.256
   -1.754
   -0.962
    1.494
    2.686
    1.815
    0.865
    0.353
    0.131
    0.340
   -0.028
   -0.861
   -0.023
    1.775
    2.078
    1.428
    1.112
    0.254
   -1.535
   -2.526
   -2.013
   -0.692
    0.391
    0.310
   -0.499
   -0.840
   -0.018
    0.756
   -0.112
   -2.136
   -3.704
   -2.935
    0.300
    2.265
    1.231
    0.745
    0.972
   -0.895
   -2.705
   -1.990
   -0.375
    0.302
    0.203
    1.035
    1.856
   -0.519
   -3.428
   -3.077
   -2.026
   -1.437
    0.973
    3.248
    2.287
    0.342
   -0.075
    0.043
   -0.397
   -0.862
   -0.529
   -0.157
    0.192
    1.944
    3.702
    3.206
    1.216
   -2.002
   -4.237
   -1.314
    2.352
    1.878
    0.777
    0.573
    0.703
    0.785
   -1.054
   -2.139
    0.470
    1.697
   -0.474
    0.234
    3.360
    2.596
   -0.254
    0.076
    1.491
   -0.183
   -1.824
    0.167
    1.441
   -0.321
   -0.949
   -0.680
   -1.377
   -1.436
   -0.625
    1.005
    1.735
   -0.505
   -2.088
   -0.626
    0.232
   -0.608
   -1.570
   -2.898
   -2.206
    0.913
    1.625
    0.110
    0.434
    1.037
   -1.109
   -2.482
    0.081
    3.074
    1.563
   -3.447
   -4.495
    0.129
    3.544
    3.179
    2.535
    1.909
   -0.446
   -2.641
   -3.578
   -3.781
   -1.786
    1.617
    3.839
    5.483
    6.807
    5.519
    0.216
   -6.056
   -6.404
   -0.746
    2.294
    0.995
    0.991
    1.114
   -1.197
   -0.289
    5.110
    6.110
    1.164
   -2.227
   -3.310
   -4.145
   -2.970
   -0.716
    0.670
    0.736
   -0.509
    0.397
    3.737
    3.418
   -0.791
   -4.130
   -6.164
   -6.865
   -4.628
   -0.728
    2.352
    3.297
    2.586
    1.799
    0.751
    0.012
    0.443
   -0.115
   -2.338
   -3.756
   -2.484
   -0.166
    0.228
   -0.446
   -0.049
    0.506
   -0.398
   -0.840
    0.727
    1.880
    1.643
    0.155
   -1.330
    0.092
    2.326
    1.104
   -1.597
   -1.235
    1.299
    3.006
    3.699
    3.894
    2.627
    0.033
   -1.041
   -0.239
    0.703
    1.175
    1.213
    0.894
   -0.768
   -2.799
   -3.234
   -1.960
    0.751
    3.040
    4.228
    5.143
    2.963
   -3.323
   -7.441
   -5.795
   -3.617
   -3.350
   -1.068
    3.135
    4.883
    2.479
   -0.542
   -0.352
    0.320
   -2.212
   -3.979
   -1.259
    0.752
   -0.795
   -1.327
    0.126
    1.366
    1.919
    1.490
    0.387
   -0.184
    0.303
    0.871
    0.299
   -1.435
   -3.082
   -3.322
   -1.763
    0.250
    0.689
    0.921
    2.589
    4.093
    4.592
    2.933
   -1.689
   -4.475
   -2.331
   -0.297
   -0.418
    0.886
    3.008
    3.366
    1.074
   -3.035
   -3.895
   -1.586
   -2.800
   -4.379
   -0.517
    4.072
    5.619
    4.854
    2.416
    0.701
   -0.281
   -2.674
   -3.247
   -0.461
   -0.332
   -2.572
   -1.621
    0.738
    2.282
    2.990
    1.532
    0.291
    0.482
   -1.054
   -2.868
   -1.935
   -0.095
    0.423
   -1.204
   -3.797
   -3.601
   -0.434
    1.395
    1.088
    0.911
    0.707
    0.313
    0.736
    2.074
    2.474
    0.420
   -1.496
   -1.476
   -0.501
    0.418
   -0.977
   -3.533
   -2.600
    0.541
    1.384
    2.341
    5.293
    4.772
    0.616
   -1.013
   -0.504
   -1.440
   -1.309
    1.403
    3.687
    3.764
    2.041
    0.642
   -0.761
   -3.471
   -6.029
   -5.420
    0.148
    4.720
    2.491
   -1.771
   -3.282
   -4.576
   -5.793
   -3.130
    1.790
    5.096
    6.376
    5.713
    2.653
   -1.213
   -2.442
   -2.864
   -6.443
   -8.197
   -3.111
    3.462
    5.322
    3.144
   -0.004
   -1.795
   -0.869
    1.132
    2.155
    1.942
    0.536
   -0.340
    1.456
    4.087
    3.613
   -0.333
   -4.943
   -6.878
   -4.881
   -2.005
    0.347
    3.915
    5.748
    3.205
    1.117
    0.812
   -0.779
   -0.978
    0.504
   -0.346
   -1.669
   -1.032
   -0.931
   -1.737
   -0.581
    1.030
    0.381
   -0.365
    0.161
    0.425
   -0.460
   -0.737
   -0.067
   -0.834
   -1.325
   -0.269
    0.349
    0.598
    0.111
   -0.700
    1.919
    5.622
    3.299
   -0.580
   -0.123
   -0.936
   -4.673
   -5.670
   -1.811
    2.954
    4.313
    3.690
    4.489
    5.242
    2.273
   -3.147
   -7.350
   -8.969
   -7.203
   -3.325
    0.826
    5.202
    6.535
    4.703
    3.345
   -0.571
   -5.323
   -3.729
    0.279
    1.079
    1.617
    2.388
    0.868
   -1.368
   -2.607
   -1.823
    1.178
    3.952
    2.886
   -2.340
   -4.707
   -2.928
   -2.775
   -1.850
    2.347
    4.042
    1.794
    1.769
    2.671
   -0.370
   -2.340
    0.515
    3.060
    0.400
   -3.558
   -2.366
    0.656
    0.043
   -1.957
   -1.642
   -0.413
   -0.521
    0.078
    3.048
    4.129
    0.245
   -2.857
   -2.252
   -1.394
    0.260
    2.995
    4.035
    2.159
   -0.520
   -0.458
    1.325
    1.214
   -0.729
   -1.241
   -0.606
   -2.359
   -4.362
   -2.733
    1.263
    4.062
    3.051
   -0.233
   -1.831
   -1.376
   -1.296
   -1.215
    0.643
    3.041
    3.508
    1.733
    0.790
    1.345
   -0.033
   -2.071
   -2.254
   -1.993
   -0.405
    2.239
    1.821
   -0.551
   -0.335
    1.706
    2.131
    0.856
   -0.255
   -0.903
   -0.774
    0.501
    1.515
    0.955
   -0.361
   -0.591
   -2.198
   -6.287
   -5.513
    0.617
    3.426
    2.714
    2.551
    0.584
   -3.826
   -5.693
   -3.390
    0.226
    3.522
    5.117
    4.121
    1.765
   -0.928
   -2.269
   -2.472
   -3.198
   -2.166
    0.526
    0.600
   -1.924
   -2.873
   -0.932
    1.845
    3.719
    4.137
    2.873
   -0.814
   -4.498
   -4.798
   -3.558
   -2.392
    0.392
    4.389
    6.300
    4.742
    1.774
   -0.424
   -2.187
   -4.036
   -3.412
    0.250
    3.059
    2.393
   -0.539
   -1.951
    0.129
    2.133
    0.241
   -1.898
   -0.092
    2.403
    2.298
    0.158
   -2.230
   -2.827
   -0.887
    1.346
    0.614
   -1.462
   -1.553
   -1.327
   -1.722
   -0.216
    2.015
    2.362
    1.710
    0.648
    0.012
    1.060
    2.272
    2.444
    1.366
   -1.053
   -3.244
   -4.359
   -3.870
   -0.890
    2.643
    4.683
    4.306
    0.554
   -3.487
   -3.927
   -2.087
   -0.387
    1.023
    2.281
    2.741
    2.160
    2.046
    3.391
    2.797
   -2.230
   -5.667
   -3.758
   -2.025
   -1.956
   -1.268
   -0.825
    0.562
    3.078
    4.474
    5.124
    3.385
   -1.407
   -2.500
    0.803
    0.224
   -3.119
   -3.270
   -2.681
   -2.475
    0.355
    3.707
    3.928
    1.602
   -1.471
   -2.848
   -1.732
   -2.124
   -4.213
   -2.889
    0.882
    2.728
    2.753
    1.281
   -1.245
   -1.680
   -0.474
   -0.595
    0.374
    2.945
    2.019
   -1.234
   -1.541
    0.824
    2.325
    1.291
    0.002
    0.706
    1.256
   -0.339
   -2.718
   -3.663
   -2.334
   -0.577
    0.104
    0.555
    1.173
    1.439
    0.932
    0.623
    2.294
    3.985
    2.557
    0.412
   -0.130
   -1.196
   -2.143
   -1.178
   -0.687
   -1.316
   -0.875
   -0.517
   -0.783
   -0.009
   -1.089
   -3.577
   -2.327
    0.494
    1.729
    2.167
    1.958
    1.942
    2.264
    1.325
    0.016
   -0.666
   -1.785
   -0.812
    0.857
   -1.281
   -2.496
   -0.690
    0.540
    1.455
    1.678
    0.639
    0.108
    0.331
    0.463
    0.982
    1.363
    0.194
   -1.697
   -2.401
   -1.062
    0.673
    1.138
    1.308
    1.941
    2.705
    1.758
   -2.174
   -5.249
   -5.492
   -5.535
   -3.975
   -0.103
    2.945
    4.869
    5.681
    4.797
    2.660
   -1.358
   -5.436
   -4.868
   -1.037
    0.805
    1.378
    1.947
    1.081
    0.151
   -0.487
   -2.125
   -2.821
   -1.381
   -0.412
   -0.933
   -0.723
    0.233
    0.912
    1.580
    1.089
    1.057
    3.611
    5.078
    2.496
   -1.565
   -3.298
   -3.763
   -5.326
   -5.062
   -0.325
    3.960
    2.958
    1.471
    2.638
    2.403
   -0.327
   -3.183
   -3.239
   -0.792
    0.203
    0.707
    3.063
    2.773
   -0.810
   -1.250
    0.767
    0.388
   -1.780
   -1.441
    3.078
    5.311
    1.810
   -1.294
   -1.257
   -0.945
   -1.309
   -1.534
   -1.860
   -1.076
    0.818
    1.019
    1.550
    3.094
    1.835
   -0.558
   -1.257
   -0.899
    0.178
    0.623
   -0.489
   -1.894
   -2.399
   -1.000
    0.382
   -0.673
   -1.503
    0.210
    2.552
    3.453
    2.637
    0.390
   -2.041
   -3.850
   -4.648
   -1.804
    2.636
    2.343
   -0.793
   -1.014
    1.032
    3.083
    4.592
    2.966
   -1.257
   -2.713
   -1.392
   -0.644
    0.042
    1.065
    0.283
   -1.496
   -1.397
   -0.729
   -1.309
   -2.138
   -1.245
    1.583
    3.108
    2.636
    2.483
    1.199
   -2.893
   -6.083
   -4.641
   -0.515
    1.028
   -1.089
   -1.031
    2.716
    3.920
    2.472
    3.194
    4.096
    1.906
   -1.413
   -4.192
   -5.465
   -3.297
   -0.715
   -0.792
    0.582
    3.635
    3.195
    0.338
   -0.575
    0.870
    1.434
   -1.079
   -2.743
   -1.419
   -1.850
   -3.897
   -3.063
    0.738
    5.406
    6.299
    2.063
   -0.143
    0.357
   -1.006
   -1.514
   -0.952
   -2.663
   -3.766
   -1.412
    1.591
    2.875
    2.844
    1.154
   -1.528
   -1.259
    2.165
    2.576
   -0.382
   -0.718
    0.432
   -0.932
   -2.838
   -2.497
   -0.583
    0.369
    0.329
    1.123
    1.636
    0.793
    0.061
    0.544
    0.841
    0.164
    0.501
    0.534
   -0.683
    0.134
    1.211
   -0.708
   -2.223
   -1.612
   -1.458
   -0.512
    1.352
    0.250
   -1.938
   -0.931
    1.253
    2.036
    2.234
    1.110
   -0.760
   -1.165
   -1.896
   -2.854
   -1.416
    0.361
    0.637
    1.070
    1.201
    0.888
    1.887
    2.370
    0.436
   -2.406
   -3.569
   -2.160
   -0.508
    0.801
    2.407
    2.525
    0.092
   -1.906
    0.199
    2.902
    2.244
    1.473
    1.585
   -0.245
   -3.589
   -5.189
   -2.997
    0.479
    0.842
   -0.581
    1.003
    3.984
    3.553
    1.537
    0.960
   -0.968
   -4.323
   -4.413
   -1.318
    1.118
    1.501
    0.500
    0.239
    2.235
    3.637
    2.577
    1.059
   -0.699
   -2.901
   -3.887
   -3.058
   -1.004
    1.261
    1.630
    1.024
    2.373
    3.251
    1.142
