Origin Time       18/01/2011 20:23:27
Lat.              28.9 N	
Long.             64.0 E	
Depth (Km)          5.0
Magnitude         7.4
 Region           Southwestern-Pakistan                                            
 Above details taken from IMD 
     
Station Code       JAFR
Station Lat.       28.594  N
Station Long.      76.908  E
Station Height(m)  162.0
Site Class        C   Vs30 between 200 m/sec to 375 m/sec *  
Record Time        1/18/2011 ) 20:27:50.0
Sampling Rate     100. Hz
 Record Duration   70.000 Sec.
 Direction         E-W (E positive)
Max. Acceleration  -8.483 cm/sec**2
     
  * For reference see Site Classification link of website 
     
 Base Line Corrected and Low Pass Filtered (Cut Off at 35 Hz) Time History
 Acceleration data in cm/sec**2
    
[...]
   -0.036
   -0.005
    0.028
    0.024
   -0.049
   -0.197
   -0.361
   -0.432
   -0.407
   -0.375
   -0.342
   -0.284
   -0.233
   -0.169
   -0.081
   -0.031
   -0.035
   -0.064
   -0.084
   -0.071
   -0.037
    0.021
    0.161
    0.356
    0.442
    0.378
    0.291
    0.264
    0.268
    0.255
    0.213
    0.137
    0.022
   -0.092
   -0.146
   -0.137
   -0.113
   -0.098
   -0.119
   -0.210
   -0.284
   -0.208
   -0.027
    0.162
    0.364
    0.560
    0.653
    0.614
    0.539
    0.488
    0.387
    0.232
    0.179
    0.305
    0.509
    0.653
    0.676
    0.607
    0.500
    0.415
    0.407
    0.500
    0.646
    0.735
    0.732
    0.694
    0.647
    0.560
    0.384
    0.153
    0.024
    0.065
    0.139
    0.169
    0.239
    0.386
    0.535
    0.607
    0.599
    0.526
    0.404
    0.282
    0.195
    0.134
    0.089
    0.051
    0.022
    0.008
   -0.002
   -0.017
   -0.016
    0.044
    0.149
    0.216
    0.222
    0.223
    0.258
    0.331
    0.392
    0.367
    0.303
    0.254
    0.166
    0.030
   -0.093
   -0.140
   -0.086
   -0.010
    0.010
   -0.007
    0.003
    0.021
   -0.009
   -0.021
    0.081
    0.224
    0.221
    0.024
   -0.198
   -0.315
   -0.353
   -0.307
   -0.127
    0.097
    0.187
    0.119
    0.020
   -0.069
   -0.187
   -0.291
   -0.339
   -0.373
   -0.502
   -0.760
   -0.975
   -1.021
   -0.980
   -0.904
   -0.758
   -0.547
   -0.342
   -0.232
   -0.176
   -0.068
    0.052
    0.067
   -0.001
   -0.040
   -0.023
    0.017
    0.077
    0.107
    0.018
   -0.154
   -0.320
   -0.454
   -0.516
   -0.513
   -0.493
   -0.433
   -0.309
   -0.164
   -0.081
   -0.141
   -0.329
   -0.477
   -0.534
   -0.594
   -0.628
   -0.566
   -0.435
   -0.294
   -0.216
   -0.203
   -0.153
   -0.014
    0.139
    0.199
    0.147
    0.093
    0.099
    0.065
   -0.056
   -0.152
   -0.157
   -0.126
   -0.049
    0.116
    0.318
    0.497
    0.614
    0.663
    0.671
    0.607
    0.410
    0.136
   -0.116
   -0.290
   -0.379
   -0.394
   -0.324
   -0.242
   -0.246
   -0.279
   -0.248
   -0.141
    0.018
    0.165
    0.253
    0.321
    0.394
    0.403
    0.308
    0.193
    0.144
    0.185
    0.283
    0.399
    0.512
    0.620
    0.740
    0.790
    0.657
    0.380
    0.094
   -0.088
   -0.144
   -0.130
   -0.064
    0.075
    0.235
    0.339
    0.399
    0.421
    0.350
    0.226
    0.142
    0.139
    0.210
    0.278
    0.218
   -0.006
   -0.253
   -0.365
   -0.324
   -0.207
   -0.106
   -0.074
   -0.087
   -0.131
   -0.261
   -0.433
   -0.509
   -0.471
   -0.387
   -0.294
   -0.160
    0.061
    0.296
    0.403
    0.359
    0.274
    0.210
    0.171
    0.182
    0.197
    0.153
    0.099
    0.087
    0.091
    0.086
    0.063
   -0.024
   -0.164
   -0.281
   -0.367
   -0.447
   -0.498
   -0.460
   -0.374
   -0.358
   -0.384
   -0.380
   -0.368
   -0.398
   -0.492
   -0.587
   -0.586
   -0.511
   -0.454
   -0.435
   -0.424
   -0.379
   -0.280
   -0.184
   -0.144
   -0.127
   -0.082
   -0.046
   -0.072
   -0.095
   -0.040
    0.032
    0.015
   -0.059
   -0.019
    0.199
    0.416
    0.436
    0.337
    0.342
    0.489
    0.630
    0.623
    0.444
    0.192
   -0.011
   -0.143
   -0.245
   -0.308
   -0.329
   -0.346
   -0.386
   -0.456
   -0.531
   -0.556
   -0.536
   -0.551
   -0.601
   -0.594
   -0.476
   -0.304
   -0.177
   -0.124
   -0.148
   -0.257
   -0.372
   -0.426
   -0.464
   -0.485
   -0.406
   -0.252
   -0.140
   -0.107
   -0.102
   -0.026
    0.153
    0.339
    0.421
    0.365
    0.208
    0.064
    0.073
    0.240
    0.421
    0.456
    0.324
    0.187
    0.217
    0.350
    0.412
    0.400
    0.374
    0.322
    0.246
    0.194
    0.170
    0.149
    0.144
    0.216
    0.339
    0.381
    0.350
    0.368
    0.453
    0.575
    0.672
    0.660
    0.513
    0.265
   -0.023
   -0.243
   -0.301
   -0.198
   -0.029
    0.064
    0.005
   -0.148
   -0.252
   -0.229
   -0.167
   -0.170
   -0.173
   -0.059
    0.132
    0.297
    0.403
    0.412
    0.340
    0.277
    0.232
    0.161
    0.110
    0.161
    0.321
    0.498
    0.555
    0.384
   -0.030
   -0.536
   -0.896
   -1.060
   -1.160
   -1.273
   -1.375
   -1.402
   -1.337
   -1.225
   -1.052
   -0.756
   -0.373
   -0.072
    0.017
   -0.025
   -0.042
    0.035
    0.201
    0.386
    0.553
    0.718
    0.816
    0.828
    0.819
    0.782
    0.715
    0.673
    0.637
    0.513
    0.275
    0.031
   -0.129
   -0.232
   -0.296
   -0.331
   -0.335
   -0.250
   -0.100
    0.056
    0.241
    0.446
    0.558
    0.473
    0.259
    0.092
    0.074
    0.151
    0.160
    0.010
   -0.172
   -0.158
    0.082
    0.386
    0.634
    0.787
    0.843
    0.797
    0.650
    0.461
    0.302
    0.200
    0.135
    0.133
    0.195
    0.225
    0.149
   -0.057
   -0.335
   -0.554
   -0.636
   -0.563
   -0.388
   -0.238
   -0.208
   -0.295
   -0.392
   -0.385
   -0.274
   -0.141
   -0.008
    0.134
    0.266
    0.361
    0.415
    0.466
    0.520
    0.567
    0.624
    0.702
    0.788
    0.794
    0.648
    0.402
    0.133
   -0.115
   -0.285
   -0.354
   -0.336
   -0.266
   -0.207
   -0.147
   -0.048
    0.007
   -0.089
   -0.337
   -0.607
   -0.775
   -0.824
   -0.798
   -0.707
   -0.498
   -0.159
    0.206
    0.465
    0.577
    0.568
    0.530
    0.577
    0.711
    0.840
    0.825
    0.623
    0.374
    0.159
   -0.039
   -0.212
   -0.354
   -0.446
   -0.424
   -0.266
   -0.097
   -0.076
   -0.204
   -0.355
   -0.460
   -0.575
   -0.752
   -0.883
   -0.845
   -0.687
   -0.563
   -0.530
   -0.539
   -0.564
   -0.540
   -0.431
   -0.340
   -0.280
   -0.090
    0.225
    0.410
    0.339
    0.177
    0.085
    0.025
   -0.053
   -0.070
    0.017
    0.141
    0.196
    0.115
   -0.060
   -0.225
   -0.359
   -0.535
   -0.758
   -0.984
   -1.162
   -1.174
   -0.985
   -0.751
   -0.581
   -0.374
   -0.094
    0.120
    0.230
    0.365
    0.528
    0.555
    0.442
    0.393
    0.518
    0.660
    0.590
    0.378
    0.284
    0.279
    0.162
   -0.017
   -0.132
   -0.212
   -0.324
   -0.472
   -0.559
   -0.507
   -0.478
   -0.574
   -0.591
   -0.396
   -0.142
    0.000
   -0.008
   -0.083
   -0.138
   -0.152
   -0.136
   -0.072
    0.077
    0.253
    0.375
    0.538
    0.808
    1.011
    1.029
    0.959
    0.905
    0.902
    0.948
    1.004
    1.033
    1.020
    0.908
    0.728
    0.580
    0.434
    0.261
    0.072
   -0.228
   -0.556
   -0.661
   -0.592
   -0.492
   -0.353
   -0.314
   -0.425
   -0.488
   -0.439
   -0.314
   -0.141
    0.025
    0.273
    0.678
    1.005
    1.029
    0.877
    0.767
    0.683
    0.507
    0.304
    0.255
    0.434
    0.695
    0.810
    0.733
    0.526
    0.201
   -0.151
   -0.331
   -0.218
    0.064
    0.258
    0.272
    0.199
    0.088
   -0.126
   -0.471
   -0.801
   -0.952
   -0.908
   -0.734
   -0.523
   -0.376
   -0.272
   -0.168
   -0.134
   -0.192
   -0.287
   -0.401
   -0.506
   -0.615
   -0.771
   -0.875
   -0.826
   -0.691
   -0.561
   -0.429
   -0.261
   -0.064
    0.120
    0.256
    0.339
    0.324
    0.212
    0.145
    0.163
    0.101
   -0.120
   -0.344
   -0.415
   -0.349
   -0.230
   -0.103
    0.025
    0.126
    0.206
    0.345
    0.516
    0.561
    0.408
    0.220
    0.225
    0.386
    0.485
    0.460
    0.385
    0.344
    0.355
    0.378
    0.317
    0.053
   -0.357
   -0.726
   -0.965
   -1.122
   -1.272
   -1.372
   -1.324
   -1.150
   -0.928
   -0.662
   -0.402
   -0.286
   -0.268
   -0.140
    0.159
    0.510
    0.794
    1.020
    1.269
    1.508
    1.615
    1.581
    1.463
    1.292
    1.157
    1.172
    1.332
    1.466
    1.383
    1.122
    0.857
    0.630
    0.336
   -0.069
   -0.460
   -0.759
   -0.967
   -1.022
   -0.861
   -0.496
    0.010
    0.507
    0.748
    0.614
    0.239
   -0.149
   -0.418
   -0.593
   -0.754
   -0.913
   -1.016
   -0.976
   -0.748
   -0.503
   -0.508
   -0.713
   -0.840
   -0.860
   -0.922
   -1.050
   -1.158
   -1.207
   -1.299
   -1.533
   -1.850
   -2.121
   -2.221
   -2.087
   -1.773
   -1.368
   -0.918
   -0.537
   -0.327
   -0.184
    0.000
    0.088
   -0.030
   -0.209
   -0.358
   -0.601
   -0.942
   -1.192
   -1.250
   -1.050
   -0.539
    0.110
    0.599
    0.772
    0.712
    0.584
    0.412
    0.218
    0.060
   -0.100
   -0.227
   -0.199
   -0.028
    0.140
    0.191
    0.132
    0.031
   -0.113
   -0.320
   -0.580
   -0.836
   -1.004
   -1.114
   -1.262
   -1.425
   -1.478
   -1.364
   -1.139
   -0.900
   -0.681
   -0.313
    0.416
    1.413
    2.340
    2.945
    3.270
    3.451
    3.483
    3.356
    3.164
    3.004
    2.820
    2.472
    1.946
    1.358
    0.906
    0.668
    0.463
    0.198
   -0.094
   -0.389
   -0.668
   -1.020
   -1.472
   -1.877
   -2.167
   -2.360
   -2.492
   -2.544
   -2.341
   -1.821
   -1.138
   -0.388
    0.356
    0.936
    1.278
    1.470
    1.625
    1.776
    2.009
    2.459
    3.077
    3.684
    4.126
    4.267
    4.053
    3.502
    2.693
    1.828
    1.040
    0.224
   -0.661
   -1.431
   -1.985
   -2.339
   -2.445
   -2.242
   -1.779
   -1.199
   -0.680
   -0.385
   -0.292
   -0.239
   -0.210
   -0.304
   -0.552
   -0.885
   -1.187
   -1.317
   -1.221
   -1.048
   -0.952
   -0.917
   -0.865
   -0.757
   -0.642
   -0.588
   -0.527
   -0.301
    0.221
    0.987
    1.782
    2.427
    2.854
    2.970
    2.687
    2.097
    1.356
    0.549
   -0.326
   -1.232
   -1.936
   -2.307
   -2.415
   -2.265
   -1.861
   -1.399
   -1.069
   -0.798
   -0.554
   -0.504
   -0.652
   -0.666
   -0.251
    0.425
    0.876
    0.943
    0.902
    0.877
    0.677
    0.322
    0.070
   -0.047
   -0.233
   -0.615
   -0.972
   -0.891
   -0.301
    0.521
    1.326
    1.969
    2.294
    2.265
    2.083
    1.921
    1.744
    1.526
    1.368
    1.291
    1.160
    0.837
    0.345
   -0.082
   -0.329
   -0.548
   -0.854
   -1.264
   -1.705
   -1.953
   -1.833
   -1.405
   -0.837
   -0.334
   -0.161
   -0.432
   -0.910
   -1.295
   -1.584
   -1.944
   -2.343
   -2.498
   -2.292
   -2.020
   -1.959
   -1.938
   -1.699
   -1.241
   -0.720
   -0.316
   -0.062
    0.091
    0.217
    0.423
    0.758
    1.213
    1.724
    2.206
    2.568
    2.664
    2.379
    1.896
    1.590
    1.432
    1.176
    0.913
    0.864
    1.082
    1.442
    1.757
    1.988
    2.158
    2.154
    1.753
    0.961
    0.219
   -0.122
   -0.182
   -0.217
   -0.381
   -0.657
   -0.862
   -0.930
   -1.051
   -1.330
   -1.459
   -1.138
   -0.511
    0.168
    0.894
    1.631
    2.109
    2.140
    1.824
    1.306
    0.673
    0.102
   -0.290
   -0.612
   -1.044
   -1.563
   -1.902
   -1.786
   -1.171
   -0.260
    0.651
    1.321
    1.593
    1.409
    0.905
    0.431
    0.272
    0.319
    0.258
   -0.024
   -0.408
   -0.785
   -1.107
   -1.373
   -1.633
   -1.894
   -2.182
   -2.491
   -2.604
   -2.386
   -2.011
   -1.667
   -1.421
   -1.282
   -1.130
   -0.819
   -0.314
    0.452
    1.539
    2.765
    3.803
    4.368
    4.234
    3.552
    2.778
    2.115
    1.552
    1.094
    0.686
    0.248
   -0.182
   -0.561
   -0.969
   -1.444
   -1.900
   -2.178
   -2.073
   -1.527
   -0.774
   -0.091
    0.316
    0.230
   -0.240
   -0.650
   -0.855
   -1.047
   -1.336
   -1.646
   -1.871
   -2.075
   -2.456
   -3.068
   -3.657
   -4.000
   -4.265
   -4.542
   -4.537
   -4.065
   -3.291
   -2.447
   -1.622
   -0.888
   -0.384
   -0.178
   -0.119
    0.052
    0.223
    0.013
   -0.409
   -0.547
   -0.427
   -0.277
   -0.081
    0.130
    0.253
    0.279
    0.241
    0.054
   -0.490
   -1.356
   -2.038
   -2.101
   -1.789
   -1.666
   -1.787
   -1.795
   -1.517
   -0.989
   -0.199
    0.762
    1.476
    1.516
    0.844
   -0.057
   -0.609
   -0.755
   -0.736
   -0.685
   -0.720
   -0.963
   -1.411
   -1.874
   -1.969
   -1.518
   -0.753
    0.137
    0.885
    0.955
    0.192
   -0.979
   -2.077
   -2.816
   -3.132
   -3.216
   -3.366
   -3.674
   -3.975
   -4.102
   -3.872
   -3.085
   -1.818
   -0.445
    0.579
    1.074
    1.412
    2.110
    3.263
    4.636
    5.975
    6.918
    7.109
    6.623
    5.888
    5.278
    4.899
    4.670
    4.514
    4.387
    4.365
    4.551
    4.899
    5.282
    5.419
    5.045
    4.230
    3.298
    2.483
    1.813
    1.459
    1.694
    2.388
    3.024
    3.026
    2.097
    0.541
   -1.023
   -2.186
   -2.712
   -2.508
   -1.828
   -1.125
   -0.513
    0.356
    1.689
    3.222
    4.509
    5.305
    5.601
    5.389
    4.743
    4.008
    3.535
    3.327
    3.188
    3.072
    3.133
    3.400
    3.516
    3.208
    2.719
    2.279
    1.751
    1.067
    0.429
   -0.069
   -0.481
   -0.626
   -0.245
    0.446
    0.838
    0.595
   -0.142
   -1.168
   -2.338
   -3.292
   -3.590
   -3.183
   -2.569
   -2.146
   -1.738
   -1.214
   -0.764
   -0.451
   -0.077
    0.372
    0.389
   -0.382
   -1.470
   -2.094
   -1.956
   -1.305
   -0.416
    0.621
    1.512
    1.845
    1.779
    1.871
    2.292
    2.690
    2.638
    2.119
    1.300
    0.177
   -1.074
   -2.081
   -2.757
   -3.351
   -3.870
   -4.017
   -3.868
   -3.810
   -3.843
   -3.667
   -3.355
   -3.283
   -3.393
   -3.334
   -3.164
   -3.330
   -4.034
   -4.878
   -5.371
   -5.392
   -4.978
   -4.154
   -3.093
   -2.120
   -1.349
   -0.708
   -0.298
   -0.173
   -0.133
    0.004
    0.268
    0.671
    1.228
    1.963
    2.837
    3.554
    3.752
    3.332
    2.362
    0.959
   -0.664
   -2.277
   -3.718
   -4.997
   -6.201
   -7.115
   -7.354
   -6.859
   -6.093
   -5.683
   -5.869
   -6.578
   -7.494
   -8.172
   -8.483
   -8.431
   -7.933
   -7.014
   -5.718
   -4.162
   -2.605
   -1.184
   -0.082
    0.508
    0.769
    0.957
    1.111
    1.401
    2.014
    2.624
    2.864
    2.963
    3.226
    3.579
    3.810
    3.824
    3.577
    3.017
    2.001
    0.439
   -1.307
   -2.792
   -3.943
   -4.657
   -4.708
   -4.104
   -3.155
   -2.219
   -1.354
   -0.386
    0.708
    1.647
    2.093
    2.060
    1.823
    1.647
    1.728
    2.024
    2.305
    2.491
    2.653
    2.792
    2.888
    3.003
    3.051
    2.908
    2.746
    2.768
    2.849
    2.798
    2.625
    2.427
    2.319
    2.347
    2.437
    2.680
    3.090
    3.390
    3.595
    3.985
    4.650
    5.417
    6.038
    6.443
    6.565
    6.325
    5.944
    5.735
    5.727
    5.646
    5.260
    4.711
    4.237
    3.710
    2.907
    2.026
    1.422
    1.318
    1.732
    2.260
    2.561
    2.578
    2.333
    2.042
    1.944
    2.087
    2.158
    1.788
    1.153
    0.438
   -0.556
   -1.648
   -2.220
   -2.077
   -1.506
   -0.775
   -0.120
    0.389
    0.916
    1.407
    1.608
    1.469
    1.046
    0.356
   -0.310
   -0.554
   -0.494
   -0.417
   -0.217
    0.125
    0.249
   -0.151
   -1.098
   -2.297
   -3.176
   -3.361
   -2.864
   -1.865
   -0.668
    0.333
    0.883
    0.955
    0.570
   -0.127
   -0.774
   -1.160
   -1.337
   -1.356
   -1.121
   -0.583
   -0.076
    0.007
   -0.197
   -0.353
   -0.427
   -0.460
   -0.309
    0.302
    1.341
    2.199
    2.375
    1.965
    1.370
    1.135
    1.526
    2.034
    1.958
    1.160
   -0.082
   -1.457
   -2.847
   -4.125
   -4.805
   -4.507
   -3.602
   -2.711
   -1.925
   -1.254
   -0.944
   -1.098
   -1.676
   -2.482
   -3.272
   -4.037
   -4.749
   -5.194
   -5.267
   -5.118
   -5.021
   -5.197
   -5.655
   -6.318
   -7.106
   -7.676
   -7.710
   -7.424
   -7.142
   -6.763
   -6.049
   -5.058
   -4.068
   -3.261
   -2.669
   -2.294
   -1.940
   -1.188
    0.112
    1.616
    2.768
    3.268
    3.274
    3.021
    2.558
    1.977
    1.351
    0.498
   -0.585
   -1.378
   -1.535
   -1.438
   -1.567
   -1.901
   -2.260
   -2.522
   -2.598
   -2.594
   -2.581
   -2.476
   -2.281
   -1.977
   -1.575
   -1.242
   -1.009
   -0.719
   -0.217
    0.615
    1.742
    2.810
    3.363
    3.183
    2.476
    1.684
    1.123
    0.961
    1.117
    1.311
    1.615
    2.275
    3.121
    3.798
    4.220
    4.461
    4.333
    3.628
    2.654
    1.898
    1.490
    1.424
    1.664
    1.926
    2.021
    1.960
    1.612
    1.018
    0.609
    0.530
    0.327
   -0.217
   -0.784
   -1.140
   -1.135
   -0.671
    0.024
    0.657
    1.176
    1.659
    2.050
    2.289
    2.551
    2.896
    2.996
    2.605
    1.948
    1.302
    0.651
   -0.144
   -1.148
   -2.217
   -3.064
   -3.449
   -3.442
   -3.353
   -3.235
   -2.966
   -2.543
   -1.856
   -0.817
    0.351
    1.484
    2.586
    3.554
    4.316
    4.794
    4.942
    4.975
    5.006
    4.858
    4.452
    3.958
    3.499
    3.080
    2.831
    2.802
    2.748
    2.588
    2.433
    2.259
    2.137
    2.264
    2.570
    2.860
    3.054
    3.059
    2.756
    2.212
    1.696
    1.441
    1.565
    2.043
    2.737
    3.525
    4.289
    4.909
    5.334
    5.425
    4.897
    3.721
    2.364
    1.286
    0.506
   -0.181
   -0.925
   -1.586
   -1.791
   -1.521
   -1.164
   -0.970
   -0.978
   -1.229
   -1.697
   -2.219
   -2.653
   -2.833
   -2.663
   -2.272
   -1.722
   -1.072
   -0.598
   -0.455
   -0.606
   -1.055
   -1.736
   -2.353
   -2.656
   -2.606
   -2.148
   -1.396
   -0.890
   -1.015
   -1.444
   -1.550
   -1.100
   -0.470
   -0.238
   -0.411
   -0.572
   -0.593
   -0.519
   -0.458
   -0.560
   -0.690
   -0.797
   -1.056
   -1.453
   -1.991
   -2.798
   -3.808
   -4.676
   -5.150
   -5.183
   -4.656
   -3.576
   -2.362
   -1.466
   -0.885
   -0.441
   -0.316
   -0.647
   -0.934
   -0.432
    0.759
    1.618
    1.570
    1.007
    0.442
   -0.042
   -0.686
   -1.679
   -2.956
   -4.286
   -5.429
   -6.228
   -6.558
   -6.471
   -6.203
   -5.778
   -4.949
   -3.623
   -2.082
   -0.703
    0.263
    0.752
    0.898
    0.707
    0.117
   -0.619
   -1.240
   -1.613
   -1.679
   -1.514
   -1.128
   -0.555
   -0.028
    0.100
   -0.379
   -1.207
   -2.059
   -2.879
   -3.405
   -3.300
   -2.740
   -2.215
   -1.966
   -1.816
   -1.570
   -1.188
   -0.728
   -0.394
   -0.247
   -0.255
   -0.409
   -0.694
   -1.172
   -1.601
   -1.584
   -1.148
   -0.620
   -0.375
   -0.575
   -0.915
   -0.942
   -0.511
    0.314
    1.469
    2.637
    3.325
    3.532
    3.769
    4.316
    4.841
    4.884
    4.519
    4.281
    4.354
    4.300
    3.896
    3.485
    3.226
    2.832
    2.093
    1.101
    0.131
   -0.477
   -0.628
   -0.504
   -0.285
   -0.069
    0.147
    0.397
    0.719
    1.160
    1.656
    2.072
    2.330
    2.510
    2.589
    2.324
    1.778
    1.319
    1.117
    1.054
    0.956
    0.757
    0.558
    0.601
    0.935
    1.386
    1.808
    1.888
    1.397
    0.778
    0.697
    1.209
    1.810
    2.105
    2.123
    2.007
    1.796
    1.549
    1.378
    1.375
    1.579
    1.948
    2.339
    2.717
    3.241
    3.817
    4.179
    4.354
    4.412
    4.199
    3.662
    3.059
    2.690
    2.622
    2.779
    3.006
    2.968
    2.488
    1.809
    1.207
    0.723
    0.250
   -0.308
   -0.830
   -0.994
   -0.518
    0.458
    1.227
    1.245
    0.848
    0.714
    0.805
    0.465
   -0.471
   -1.444
   -1.983
   -2.106
   -1.825
   -0.995
    0.064
    0.847
    1.232
    1.234
    1.005
    0.785
    0.554
    0.216
   -0.168
   -0.588
   -1.140
   -1.732
   -2.054
   -1.995
   -1.711
   -1.406
   -1.346
   -1.764
   -2.638
   -3.737
   -4.858
   -5.787
   -6.084
   -5.521
   -4.592
   -3.803
   -3.012
   -2.051
   -1.186
   -0.555
    0.070
