Origin Time       18/01/2011 20:23:27
Lat.              28.9 N	
Long.             64.0 E	
Depth (Km)          5.0
Magnitude         7.4
 Region           Southwestern-Pakistan                                            
 Above details taken from IMD 
   
Station Code       JAFR
Station Lat.       28.594
Station Long.      76.908
Station Height(m)  162.0
Site Class        C   Vs30 between 200 m/sec to 375 m/sec *  
Record Time        1/18/2011 ) 20:27:50.0
Sampling Rate     100. Hz
 Record Duration   70.000 Sec.
 Direction         Vert. (Up positive)
Max. Acceleration  -4.809 cm/sec**2
     
  * For reference see Site Classification link of website 
     
 Base Line Corrected and Low Pass Filtered (Cut Off at 35 Hz) Time History
 Acceleration data in cm/sec**2
    
[...]
   -0.166
    0.002
    0.163
    0.230
    0.208
    0.120
   -0.008
   -0.093
   -0.102
   -0.137
   -0.253
   -0.368
   -0.392
   -0.321
   -0.214
   -0.117
    0.010
    0.217
    0.403
    0.418
    0.294
    0.156
    0.046
   -0.007
    0.011
    0.037
    0.036
    0.055
    0.099
    0.104
    0.075
    0.079
    0.105
    0.094
    0.010
   -0.158
   -0.343
   -0.422
   -0.371
   -0.235
   -0.046
    0.137
    0.237
    0.242
    0.191
    0.122
    0.077
    0.074
    0.074
    0.023
   -0.051
   -0.087
   -0.111
   -0.147
   -0.159
   -0.150
   -0.154
   -0.164
   -0.152
   -0.110
   -0.040
    0.007
   -0.016
   -0.037
    0.078
    0.325
    0.534
    0.612
    0.609
    0.536
    0.381
    0.188
    0.017
   -0.074
   -0.052
    0.036
    0.114
    0.136
    0.092
   -0.032
   -0.245
   -0.483
   -0.675
   -0.754
   -0.641
   -0.374
   -0.111
    0.025
    0.044
    0.057
    0.136
    0.212
    0.168
    0.017
   -0.131
   -0.203
   -0.184
   -0.105
   -0.021
    0.010
    0.024
    0.118
    0.255
    0.295
    0.197
    0.103
    0.157
    0.270
    0.301
    0.248
    0.141
   -0.001
   -0.092
   -0.030
    0.138
    0.231
    0.178
    0.096
    0.076
    0.031
   -0.101
   -0.217
   -0.220
   -0.121
    0.034
    0.200
    0.271
    0.169
   -0.065
   -0.330
   -0.527
   -0.625
   -0.673
   -0.695
   -0.663
   -0.573
   -0.447
   -0.266
   -0.044
    0.128
    0.181
    0.101
   -0.043
   -0.102
   -0.068
   -0.066
   -0.098
   -0.108
   -0.104
   -0.083
   -0.090
   -0.235
   -0.437
   -0.477
   -0.336
   -0.172
   -0.058
    0.064
    0.168
    0.163
    0.131
    0.177
    0.211
    0.179
    0.186
    0.284
    0.387
    0.408
    0.341
    0.195
    0.008
   -0.129
   -0.162
   -0.136
   -0.099
   -0.026
    0.103
    0.238
    0.312
    0.320
    0.284
    0.197
    0.090
    0.047
    0.096
    0.194
    0.267
    0.236
    0.099
   -0.048
   -0.142
   -0.185
   -0.173
   -0.044
    0.236
    0.550
    0.711
    0.694
    0.581
    0.367
    0.125
    0.071
    0.232
    0.409
    0.453
    0.356
    0.175
   -0.017
   -0.136
   -0.182
   -0.265
   -0.418
   -0.546
   -0.572
   -0.503
   -0.349
   -0.143
    0.002
    0.010
   -0.065
   -0.124
   -0.139
   -0.145
   -0.140
   -0.052
    0.135
    0.313
    0.369
    0.286
    0.126
   -0.031
   -0.111
   -0.062
    0.072
    0.188
    0.221
    0.148
   -0.022
   -0.200
   -0.270
   -0.246
   -0.184
   -0.049
    0.143
    0.249
    0.174
   -0.009
   -0.192
   -0.362
   -0.503
   -0.567
   -0.545
   -0.485
   -0.437
   -0.398
   -0.330
   -0.245
   -0.212
   -0.263
   -0.359
   -0.400
   -0.309
   -0.123
    0.062
    0.200
    0.307
    0.386
    0.359
    0.210
    0.117
    0.231
    0.477
    0.699
    0.807
    0.741
    0.486
    0.137
   -0.139
   -0.253
   -0.286
   -0.319
   -0.304
   -0.209
   -0.135
   -0.141
   -0.127
    0.005
    0.189
    0.279
    0.233
    0.171
    0.180
    0.211
    0.174
    0.012
   -0.219
   -0.358
   -0.350
   -0.320
   -0.356
   -0.385
   -0.307
   -0.136
    0.052
    0.169
    0.129
   -0.060
   -0.245
   -0.218
    0.104
    0.537
    0.804
    0.805
    0.598
    0.302
    0.034
   -0.199
   -0.437
   -0.543
   -0.353
   -0.003
    0.279
    0.472
    0.566
    0.461
    0.231
    0.050
   -0.045
   -0.035
    0.111
    0.328
    0.512
    0.634
    0.742
    0.840
    0.822
    0.660
    0.464
    0.271
    0.047
   -0.109
   -0.116
   -0.137
   -0.335
   -0.614
   -0.742
   -0.618
   -0.344
   -0.079
    0.091
    0.183
    0.224
    0.180
    0.047
   -0.098
   -0.186
   -0.204
   -0.154
    0.007
    0.301
    0.633
    0.809
    0.696
    0.364
   -0.006
   -0.313
   -0.538
   -0.642
   -0.585
   -0.422
   -0.292
   -0.208
   -0.058
    0.133
    0.239
    0.249
    0.228
    0.223
    0.269
    0.348
    0.406
    0.392
    0.227
   -0.102
   -0.486
   -0.782
   -0.889
   -0.835
   -0.747
   -0.683
   -0.584
   -0.401
   -0.156
    0.096
    0.248
    0.215
    0.064
   -0.050
   -0.038
    0.048
    0.137
    0.198
    0.152
   -0.005
   -0.110
   -0.086
   -0.050
   -0.065
   -0.068
    0.003
    0.124
    0.211
    0.207
    0.077
   -0.162
   -0.410
   -0.539
   -0.457
   -0.235
   -0.069
   -0.016
    0.006
    0.011
   -0.016
   -0.061
   -0.175
   -0.371
   -0.475
   -0.345
   -0.067
    0.203
    0.396
    0.513
    0.525
    0.363
    0.067
   -0.254
   -0.578
   -0.853
   -0.923
   -0.767
   -0.526
   -0.257
    0.058
    0.269
    0.241
    0.109
    0.034
    0.010
    0.028
    0.108
    0.211
    0.332
    0.541
    0.787
    0.904
    0.839
    0.670
    0.463
    0.259
    0.077
   -0.100
   -0.274
   -0.409
   -0.473
   -0.486
   -0.478
   -0.434
   -0.377
   -0.338
   -0.245
   -0.025
    0.204
    0.190
   -0.090
   -0.339
   -0.332
   -0.098
    0.214
    0.401
    0.305
   -0.017
   -0.338
   -0.513
   -0.537
   -0.440
   -0.269
   -0.065
    0.143
    0.302
    0.382
    0.363
    0.239
    0.098
    0.087
    0.271
    0.520
    0.607
    0.464
    0.229
    0.073
    0.022
   -0.078
   -0.299
   -0.448
   -0.346
   -0.093
    0.098
    0.155
    0.071
   -0.152
   -0.369
   -0.402
   -0.277
   -0.118
    0.037
    0.224
    0.469
    0.728
    0.880
    0.812
    0.554
    0.259
    0.078
    0.059
    0.104
    0.081
   -0.012
   -0.068
   -0.008
    0.171
    0.339
    0.346
    0.235
    0.148
    0.115
    0.087
    0.057
    0.031
   -0.050
   -0.207
   -0.358
   -0.454
   -0.483
   -0.365
   -0.075
    0.214
    0.322
    0.289
    0.189
   -0.017
   -0.323
   -0.603
   -0.728
   -0.677
   -0.543
   -0.422
   -0.373
   -0.414
   -0.464
   -0.413
   -0.274
   -0.138
   -0.049
    0.000
   -0.009
   -0.111
   -0.277
   -0.410
   -0.480
   -0.496
   -0.456
   -0.377
   -0.252
   -0.056
    0.187
    0.398
    0.505
    0.480
    0.379
    0.329
    0.379
    0.417
    0.321
    0.144
    0.023
   -0.006
    0.049
    0.162
    0.244
    0.246
    0.245
    0.305
    0.328
    0.184
   -0.081
   -0.320
   -0.477
   -0.565
   -0.571
   -0.424
   -0.122
    0.196
    0.440
    0.580
    0.584
    0.512
    0.467
    0.453
    0.437
    0.448
    0.542
    0.671
    0.698
    0.538
    0.188
   -0.304
   -0.746
   -0.880
   -0.643
   -0.197
    0.242
    0.539
    0.652
    0.567
    0.319
    0.030
   -0.163
   -0.224
   -0.211
   -0.146
   -0.028
    0.104
    0.206
    0.262
    0.252
    0.167
    0.068
   -0.013
   -0.072
   -0.070
   -0.023
    0.026
    0.125
    0.284
    0.328
    0.121
   -0.160
   -0.205
    0.058
    0.434
    0.750
    0.927
    0.886
    0.614
    0.207
   -0.187
   -0.382
   -0.260
    0.098
    0.469
    0.675
    0.660
    0.470
    0.221
    0.039
   -0.045
   -0.092
   -0.134
   -0.101
    0.072
    0.299
    0.413
    0.336
    0.126
   -0.094
   -0.261
   -0.378
   -0.418
   -0.322
   -0.131
    0.016
    0.034
   -0.094
   -0.355
   -0.622
   -0.701
   -0.552
   -0.326
   -0.174
   -0.139
   -0.179
   -0.268
   -0.428
   -0.635
   -0.820
   -0.862
   -0.661
   -0.327
   -0.092
   -0.044
   -0.100
   -0.185
   -0.306
   -0.512
   -0.747
   -0.849
   -0.767
   -0.594
   -0.401
   -0.218
   -0.082
   -0.024
   -0.033
   -0.075
   -0.181
   -0.371
   -0.521
   -0.450
   -0.180
    0.035
    0.038
   -0.059
   -0.083
    0.011
    0.184
    0.367
    0.445
    0.401
    0.318
    0.219
    0.076
   -0.122
   -0.379
   -0.727
   -1.127
   -1.326
   -1.092
   -0.573
   -0.119
    0.083
    0.078
    0.066
    0.164
    0.220
    0.062
   -0.199
   -0.376
   -0.396
   -0.142
    0.421
    0.978
    1.160
    1.023
    0.845
    0.616
    0.155
   -0.489
   -1.092
   -1.422
   -1.303
   -0.755
   -0.090
    0.319
    0.371
    0.283
    0.297
    0.310
    0.139
   -0.040
   -0.031
    0.126
    0.404
    0.739
    0.901
    0.747
    0.350
   -0.119
   -0.423
   -0.418
   -0.243
   -0.119
   -0.124
   -0.230
   -0.305
   -0.200
    0.036
    0.259
    0.426
    0.510
    0.538
    0.617
    0.691
    0.538
    0.097
   -0.417
   -0.721
   -0.680
   -0.393
   -0.096
    0.113
    0.334
    0.555
    0.573
    0.269
   -0.259
   -0.746
   -0.992
   -0.984
   -0.707
   -0.200
    0.294
    0.553
    0.585
    0.529
    0.514
    0.563
    0.590
    0.577
    0.619
    0.704
    0.753
    0.799
    0.822
    0.732
    0.635
    0.695
    0.877
    1.084
    1.231
    1.205
    1.062
    0.991
    0.956
    0.795
    0.518
    0.263
    0.206
    0.437
    0.784
    0.966
    0.901
    0.736
    0.586
    0.431
    0.240
    0.099
    0.140
    0.345
    0.599
    0.826
    0.870
    0.609
    0.201
   -0.115
   -0.264
   -0.232
   -0.036
    0.183
    0.308
    0.307
    0.203
    0.080
   -0.031
   -0.196
   -0.364
   -0.347
   -0.104
    0.202
    0.475
    0.670
    0.706
    0.620
    0.539
    0.456
    0.237
   -0.104
   -0.354
   -0.406
   -0.346
   -0.276
   -0.265
   -0.379
   -0.593
   -0.703
   -0.562
   -0.358
   -0.389
   -0.647
   -0.848
   -0.803
   -0.617
   -0.514
   -0.618
   -0.890
   -1.173
   -1.307
   -1.235
   -0.971
   -0.617
   -0.325
   -0.079
    0.226
    0.486
    0.534
    0.396
    0.219
    0.094
   -0.017
   -0.195
   -0.471
   -0.787
   -1.022
   -1.067
   -0.884
   -0.565
   -0.323
   -0.287
   -0.327
   -0.244
   -0.054
    0.113
    0.157
   -0.033
   -0.469
   -0.912
   -1.042
   -0.789
   -0.361
    0.063
    0.441
    0.702
    0.709
    0.448
    0.070
   -0.246
   -0.386
   -0.320
   -0.110
    0.136
    0.359
    0.520
    0.550
    0.482
    0.505
    0.711
    0.941
    1.002
    0.853
    0.595
    0.404
    0.331
    0.315
    0.329
    0.365
    0.454
    0.613
    0.718
    0.547
    0.049
   -0.467
   -0.640
   -0.416
    0.042
    0.564
    0.956
    1.056
    0.981
    0.960
    0.953
    0.789
    0.454
    0.047
   -0.308
   -0.507
   -0.565
   -0.588
   -0.593
   -0.474
   -0.249
   -0.147
   -0.320
   -0.677
   -0.981
   -0.997
   -0.724
   -0.354
    0.069
    0.551
    0.903
    0.977
    0.858
    0.740
    0.760
    0.884
    0.953
    0.815
    0.448
   -0.022
   -0.508
   -0.958
   -1.326
   -1.600
   -1.705
   -1.564
   -1.247
   -0.958
   -0.822
   -0.681
   -0.345
    0.068
    0.309
    0.210
   -0.272
   -0.963
   -1.453
   -1.445
   -1.117
   -0.867
   -0.875
   -1.092
   -1.478
   -2.029
   -2.537
   -2.649
   -2.312
   -1.842
   -1.534
   -1.425
   -1.407
   -1.368
   -1.202
   -0.840
   -0.348
    0.062
    0.221
    0.099
   -0.245
   -0.654
   -0.971
   -1.205
   -1.337
   -1.221
   -0.818
   -0.261
    0.244
    0.594
    0.811
    0.799
    0.422
   -0.172
   -0.652
   -0.881
   -0.903
   -0.688
   -0.221
    0.341
    0.738
    0.678
    0.013
   -1.022
   -1.986
   -2.569
   -2.611
   -2.155
   -1.517
   -0.922
   -0.407
   -0.114
   -0.112
   -0.163
   -0.064
    0.174
    0.583
    1.198
    1.791
    2.103
    2.106
    1.825
    1.388
    1.071
    1.021
    1.163
    1.364
    1.552
    1.653
    1.555
    1.180
    0.514
   -0.280
   -0.896
   -1.074
   -0.699
    0.088
    0.939
    1.545
    1.816
    1.826
    1.595
    1.081
    0.439
   -0.032
   -0.236
   -0.285
   -0.255
   -0.133
    0.014
   -0.043
   -0.478
   -1.112
   -1.556
   -1.563
   -1.110
   -0.340
    0.519
    1.307
    2.014
    2.687
    3.198
    3.321
    3.081
    2.804
    2.763
    2.881
    2.965
    3.000
    2.925
    2.507
    1.633
    0.502
   -0.511
   -1.117
   -1.363
   -1.494
   -1.562
   -1.444
   -1.145
   -0.852
   -0.713
   -0.677
   -0.574
   -0.291
    0.132
    0.556
    0.897
    1.099
    1.177
    1.332
    1.721
    2.206
    2.437
    2.122
    1.315
    0.372
   -0.367
   -0.771
   -0.870
   -0.699
   -0.386
   -0.182
   -0.203
   -0.402
   -0.662
   -0.816
   -0.742
   -0.378
    0.085
    0.200
   -0.121
   -0.560
   -0.994
   -1.458
   -1.813
   -1.910
   -1.738
   -1.385
   -1.022
   -0.724
   -0.424
   -0.158
   -0.082
   -0.198
   -0.399
   -0.728
   -1.138
   -1.313
   -1.101
   -0.656
   -0.041
    0.762
    1.484
    1.809
    1.847
    1.858
    1.831
    1.645
    1.348
    1.061
    0.779
    0.415
   -0.125
   -0.814
   -1.260
   -1.058
   -0.411
    0.177
    0.410
    0.127
   -0.572
   -1.228
   -1.494
   -1.435
   -1.256
   -1.096
   -1.046
   -1.028
   -0.788
   -0.214
    0.474
    0.977
    1.209
    1.201
    1.009
    0.696
    0.349
    0.162
    0.216
    0.322
    0.248
    0.020
   -0.171
   -0.230
   -0.076
    0.380
    1.075
    1.805
    2.224
    2.034
    1.321
    0.484
   -0.043
   -0.014
    0.498
    1.176
    1.646
    1.715
    1.461
    1.012
    0.497
    0.108
   -0.078
   -0.124
   -0.075
    0.055
    0.192
    0.291
    0.435
    0.700
    1.082
    1.493
    1.675
    1.517
    1.355
    1.480
    1.702
    1.753
    1.664
    1.484
    1.146
    0.750
    0.549
    0.653
    0.870
    0.878
    0.516
   -0.159
   -0.952
   -1.529
   -1.575
   -1.091
   -0.299
    0.573
    1.209
    1.388
    1.301
    1.258
    1.271
    1.256
    1.343
    1.602
    1.841
    1.799
    1.301
    0.415
   -0.445
   -0.890
   -0.975
   -0.963
   -1.016
   -1.244
   -1.619
   -1.764
   -1.280
   -0.301
    0.614
    0.972
    0.682
    0.054
   -0.546
   -0.950
   -1.123
   -0.997
   -0.511
    0.221
    0.924
    1.367
    1.449
    1.228
    0.952
    0.888
    1.065
    1.209
    1.006
    0.462
   -0.248
   -0.889
   -0.986
   -0.252
    0.894
    1.636
    1.449
    0.384
   -1.101
   -2.471
   -3.437
   -3.913
   -3.859
   -3.314
   -2.461
   -1.765
   -1.716
   -2.328
   -3.308
   -4.301
   -4.809
   -4.577
   -3.918
   -3.257
   -2.676
   -2.140
   -1.689
   -1.291
   -0.979
   -0.938
   -1.222
   -1.616
   -1.768
   -1.481
   -0.872
   -0.233
    0.096
   -0.105
   -0.702
   -1.204
   -1.190
   -0.715
   -0.143
    0.226
    0.147
   -0.517
   -1.527
   -2.439
   -2.965
   -3.070
   -2.918
   -2.675
   -2.431
   -2.239
   -2.137
   -2.175
   -2.278
   -2.312
   -2.252
   -1.996
   -1.542
   -1.265
   -1.389
   -1.577
   -1.430
   -1.012
   -0.570
   -0.197
    0.035
    0.164
    0.395
    0.795
    1.257
    1.632
    1.755
    1.547
    1.168
    0.938
    0.986
    1.194
    1.382
    1.396
    1.247
    1.043
    0.734
    0.300
   -0.148
   -0.637
   -1.205
   -1.623
   -1.584
   -1.100
   -0.610
   -0.466
   -0.529
   -0.575
   -0.587
   -0.437
    0.018
    0.654
    1.351
    2.170
    3.109
    3.943
    4.372
    4.311
    3.916
    3.353
    2.748
    2.348
    2.489
    3.125
    3.760
    4.114
    4.200
    3.920
    3.392
    3.089
    3.121
    3.045
    2.561
    1.884
    1.341
    0.973
    0.631
    0.232
   -0.145
   -0.444
   -0.776
   -1.194
   -1.488
   -1.368
   -0.858
   -0.229
    0.355
    0.774
    0.761
    0.108
   -0.982
   -1.964
   -2.507
   -2.732
   -2.826
   -2.629
   -1.767
   -0.189
    1.602
    3.022
    3.845
    4.067
    3.796
    3.327
    2.949
    2.782
    2.864
    3.150
    3.288
    2.802
    1.830
    1.015
    0.659
    0.558
    0.409
    0.060
   -0.499
   -1.162
   -1.726
   -2.004
   -1.954
   -1.780
   -1.630
   -1.336
   -0.809
   -0.198
    0.313
    0.485
    0.136
   -0.475
   -0.784
   -0.531
    0.030
    0.384
    0.081
   -0.862
   -1.870
   -2.360
   -2.249
   -1.762
   -1.089
   -0.376
    0.275
    0.753
    0.917
    0.812
    0.564
    0.188
   -0.226
   -0.305
    0.214
    0.919
    1.043
    0.401
   -0.381
   -0.776
   -0.939
   -1.176
   -1.501
   -1.823
   -1.990
   -1.805
   -1.413
   -1.204
   -1.235
   -1.353
   -1.576
   -1.905
   -2.177
   -2.221
   -1.972
   -1.427
   -0.587
    0.343
    0.941
    0.950
    0.548
    0.120
   -0.177
   -0.437
   -0.741
   -1.076
   -1.269
   -1.021
   -0.384
    0.176
    0.381
    0.248
   -0.154
   -0.769
   -1.627
   -2.678
   -3.618
   -4.010
   -3.676
   -2.869
   -1.911
   -1.076
   -0.733
   -1.148
   -2.232
   -3.465
   -4.209
   -4.087
   -3.042
   -1.435
   -0.100
    0.280
   -0.088
   -0.564
   -0.930
   -1.126
   -0.942
   -0.444
    0.026
    0.417
    1.129
    2.419
    3.895
    4.751
    4.523
    3.655
    2.889
    2.375
    2.040
    2.064
    2.466
    2.918
    3.144
    2.966
    2.262
    1.188
    0.110
   -0.570
   -0.618
   -0.178
    0.389
    0.833
    1.077
    1.008
    0.693
    0.508
    0.567
    0.620
    0.623
    0.799
    1.158
    1.423
    1.399
    1.013
    0.291
   -0.575
   -1.368
   -1.787
   -1.545
   -0.842
   -0.241
    0.103
    0.417
    0.626
    0.506
    0.130
   -0.269
   -0.476
   -0.384
   -0.064
    0.285
    0.559
    0.824
    1.182
    1.635
    2.015
    2.106
    1.870
    1.350
    0.577
   -0.275
   -0.870
   -0.972
   -0.513
    0.421
    1.426
    2.044
    2.316
    2.615
    2.980
    3.111
    2.900
    2.523
    2.181
    1.968
    1.820
    1.679
    1.605
    1.503
    1.132
    0.559
    0.110
   -0.209
   -0.768
   -1.733
   -2.876
   -3.885
   -4.535
   -4.717
   -4.393
   -3.670
   -2.872
   -2.214
   -1.682
   -1.255
   -0.856
   -0.395
    0.057
    0.403
    0.655
    0.864
    0.970
    0.842
    0.415
   -0.235
   -0.790
   -0.890
   -0.452
    0.370
    1.223
    1.657
    1.454
    0.733
   -0.175
   -0.817
   -0.894
   -0.615
   -0.344
   -0.064
    0.323
    0.522
    0.226
   -0.379
   -0.938
   -1.362
   -1.759
   -2.307
   -2.993
   -3.452
   -3.362
   -2.654
   -1.557
   -0.688
   -0.508
   -0.834
   -1.238
   -1.454
   -1.328
   -0.830
   -0.071
    0.915
    2.046
    2.868
    2.979
    2.556
    1.960
    1.275
    0.485
   -0.312
   -0.979
   -1.513
   -2.045
   -2.523
   -2.619
   -2.272
   -1.901
   -1.782
   -1.814
   -1.907
   -2.065
   -2.091
   -1.736
   -1.157
   -0.676
   -0.352
   -0.099
    0.247
    0.896
    1.751
    2.407
    2.569
    2.255
    1.818
    1.639
    1.687
    1.660
    1.548
    1.749
    2.320
    2.597
    2.229
    1.818
    1.902
    2.228
    2.501
    2.716
    2.597
    1.853
    0.764
   -0.111
   -0.459
   -0.230
    0.565
    1.743
    2.776
    3.101
    2.562
    1.409
    0.036
   -1.081
   -1.498
   -1.197
   -0.637
   -0.327
   -0.483
   -0.926
   -1.230
   -1.361
   -1.758
   -2.373
   -2.607
   -2.242
   -1.469
   -0.411
    0.784
    1.703
    1.897
    1.401
    0.756
    0.442
    0.553
    1.042
    1.930
    3.013
    3.849
    4.257
    4.259
    3.820
    3.040
    2.225
    1.647
    1.364
    1.265
    1.158
    0.925
    0.602
    0.262
    0.028
    0.001
   -0.016
   -0.267
   -0.585
   -0.730
   -0.919
   -1.383
   -1.810
   -1.821
   -1.396
   -0.737
   -0.177
   -0.042
   -0.507
   -1.454
   -2.409
   -2.925
   -2.960
   -2.700
   -2.300
   -1.882
   -1.462
   -0.974
   -0.528
   -0.293
   -0.183
   -0.109
   -0.194
   -0.460
   -0.731
   -0.809
   -0.544
    0.058
    0.730
    1.191
    1.352
    1.176
    0.755
    0.229
   -0.523
   -1.380
   -1.724
   -1.386
   -0.900
   -0.528
   -0.066
    0.401
    0.484
    0.045
   -0.814
   -1.766
   -2.212
   -1.891
   -1.166
   -0.419
    0.273
    0.878
    1.166
    0.903
    0.102
   -1.135
   -2.535
   -3.429
   -3.305
   -2.443
   -1.654
   -1.476
   -1.855
   -2.387
   -2.599
   -2.382
   -2.109
   -2.053
   -1.984
   -1.527
   -0.676
    0.203
    0.745
    0.873
    0.669
    0.189
   -0.258
   -0.285
    0.040
    0.350
    0.404
    0.261
    0.262
    0.574
    0.881
    0.905
    0.761
    0.568
    0.388
    0.463
