Origin Time       16/4/2013 10:44:11	
Lat.              28.0 N	
Long.             62.1 E	
Depth (Km)         46.0
Magnitude         7.8
 Region           Iran-Pakistan-Border-Region                                      
 Above details taken from IMD 
     
Station Code       JAFR
Station Lat.       28.594  N
Station Long.      76.908  E
Station Height(m)  162.0
Site Class        C   Vs30 between 200 m/sec to 375 m/sec *  
Record Time        4/16/2013 6) 10:48:51.
Sampling Rate     200. Hz
 Record Duration  221.000 Sec.
 Direction         E-W (E positive)
Max. Acceleration   2.627 cm/sec**2
     
  * For reference see Site Classification link of website 
     
 Base Line Corrected and Low Pass Filtered (Cut Off at 35 Hz) Time History
 Acceleration data in cm/sec**2
    
[...]
    0.208
    0.222
    0.227
    0.228
    0.234
    0.251
    0.274
    0.299
    0.322
    0.346
    0.378
    0.417
    0.452
    0.471
    0.470
    0.453
    0.426
    0.391
    0.346
    0.296
    0.247
    0.206
    0.169
    0.126
    0.069
    0.006
   -0.053
   -0.097
   -0.128
   -0.149
   -0.167
   -0.182
   -0.197
   -0.214
   -0.234
   -0.252
   -0.266
   -0.280
   -0.303
   -0.337
   -0.379
   -0.413
   -0.429
   -0.427
   -0.419
   -0.419
   -0.433
   -0.459
   -0.488
   -0.514
   -0.535
   -0.557
   -0.582
   -0.610
   -0.637
   -0.657
   -0.664
   -0.658
   -0.643
   -0.631
   -0.627
   -0.632
   -0.636
   -0.632
   -0.615
   -0.582
   -0.533
   -0.471
   -0.404
   -0.344
   -0.297
   -0.258
   -0.221
   -0.180
   -0.136
   -0.093
   -0.051
   -0.002
    0.062
    0.139
    0.217
    0.284
    0.334
    0.371
    0.399
    0.419
    0.427
    0.417
    0.388
    0.343
    0.291
    0.239
    0.186
    0.132
    0.079
    0.031
   -0.009
   -0.039
   -0.058
   -0.062
   -0.048
   -0.013
    0.041
    0.109
    0.183
    0.253
    0.313
    0.359
    0.391
    0.415
    0.438
    0.463
    0.481
    0.474
    0.433
    0.367
    0.294
    0.226
    0.163
    0.096
    0.024
   -0.046
   -0.100
   -0.133
   -0.151
   -0.172
   -0.209
   -0.259
   -0.309
   -0.350
   -0.387
   -0.428
   -0.473
   -0.516
   -0.548
   -0.566
   -0.576
   -0.582
   -0.587
   -0.589
   -0.585
   -0.575
   -0.563
   -0.553
   -0.540
   -0.515
   -0.474
   -0.416
   -0.352
   -0.292
   -0.244
   -0.208
   -0.175
   -0.136
   -0.089
   -0.037
    0.015
    0.067
    0.119
    0.169
    0.212
    0.241
    0.249
    0.238
    0.217
    0.198
    0.187
    0.184
    0.184
    0.177
    0.160
    0.135
    0.109
    0.092
    0.092
    0.110
    0.145
    0.193
    0.253
    0.323
    0.399
    0.478
    0.552
    0.617
    0.666
    0.694
    0.697
    0.670
    0.613
    0.528
    0.424
    0.313
    0.208
    0.118
    0.044
   -0.016
   -0.063
   -0.098
   -0.121
   -0.133
   -0.133
   -0.120
   -0.094
   -0.064
   -0.038
   -0.029
   -0.042
   -0.077
   -0.127
   -0.181
   -0.231
   -0.272
   -0.302
   -0.327
   -0.350
   -0.376
   -0.403
   -0.425
   -0.434
   -0.435
   -0.442
   -0.474
   -0.540
   -0.630
   -0.722
   -0.793
   -0.837
   -0.861
   -0.878
   -0.900
   -0.927
   -0.953
   -0.970
   -0.974
   -0.966
   -0.944
   -0.911
   -0.869
   -0.824
   -0.783
   -0.743
   -0.698
   -0.639
   -0.564
   -0.477
   -0.385
   -0.294
   -0.206
   -0.126
   -0.056
    0.003
    0.054
    0.097
    0.132
    0.160
    0.179
    0.194
    0.204
    0.211
    0.215
    0.216
    0.221
    0.237
    0.269
    0.316
    0.375
    0.438
    0.497
    0.548
    0.592
    0.635
    0.680
    0.725
    0.766
    0.801
    0.829
    0.850
    0.861
    0.864
    0.863
    0.863
    0.868
    0.877
    0.885
    0.893
    0.904
    0.925
    0.960
    1.008
    1.058
    1.103
    1.137
    1.162
    1.185
    1.209
    1.236
    1.267
    1.298
    1.324
    1.336
    1.328
    1.297
    1.243
    1.171
    1.086
    0.992
    0.890
    0.782
    0.671
    0.562
    0.458
    0.356
    0.255
    0.153
    0.052
   -0.048
   -0.145
   -0.237
   -0.322
   -0.394
   -0.448
   -0.484
   -0.502
   -0.506
   -0.503
   -0.496
   -0.486
   -0.473
   -0.455
   -0.428
   -0.389
   -0.341
   -0.291
   -0.253
   -0.239
   -0.255
   -0.290
   -0.320
   -0.324
   -0.303
   -0.280
   -0.280
   -0.306
   -0.331
   -0.323
   -0.264
   -0.174
   -0.089
   -0.039
   -0.029
   -0.044
   -0.066
   -0.088
   -0.112
   -0.141
   -0.175
   -0.213
   -0.257
   -0.308
   -0.364
   -0.414
   -0.448
   -0.461
   -0.458
   -0.453
   -0.450
   -0.442
   -0.416
   -0.366
   -0.298
   -0.228
   -0.168
   -0.124
   -0.094
   -0.076
   -0.070
   -0.081
   -0.109
   -0.150
   -0.196
   -0.237
   -0.264
   -0.268
   -0.248
   -0.215
   -0.189
   -0.184
   -0.193
   -0.199
   -0.188
   -0.163
   -0.137
   -0.120
   -0.110
   -0.101
   -0.093
   -0.093
   -0.107
   -0.135
   -0.169
   -0.205
   -0.243
   -0.292
   -0.354
   -0.427
   -0.499
   -0.564
   -0.620
   -0.672
   -0.724
   -0.777
   -0.821
   -0.844
   -0.834
   -0.790
   -0.719
   -0.629
   -0.526
   -0.407
   -0.274
   -0.133
   -0.001
    0.108
    0.190
    0.248
    0.292
    0.325
    0.350
    0.367
    0.378
    0.390
    0.410
    0.444
    0.496
    0.568
    0.661
    0.773
    0.901
    1.038
    1.174
    1.295
    1.388
    1.448
    1.482
    1.499
    1.511
    1.521
    1.521
    1.503
    1.463
    1.412
    1.361
    1.314
    1.264
    1.201
    1.121
    1.025
    0.923
    0.818
    0.709
    0.594
    0.472
    0.348
    0.227
    0.110
   -0.001
   -0.104
   -0.195
   -0.271
   -0.330
   -0.367
   -0.380
   -0.366
   -0.327
   -0.270
   -0.204
   -0.138
   -0.084
   -0.055
   -0.062
   -0.109
   -0.187
   -0.282
   -0.377
   -0.466
   -0.550
   -0.635
   -0.722
   -0.811
   -0.897
   -0.979
   -1.051
   -1.104
   -1.131
   -1.134
   -1.124
   -1.110
   -1.094
   -1.068
   -1.024
   -0.962
   -0.895
   -0.840
   -0.806
   -0.795
   -0.799
   -0.806
   -0.811
   -0.811
   -0.805
   -0.795
   -0.782
   -0.764
   -0.737
   -0.704
   -0.671
   -0.646
   -0.633
   -0.631
   -0.633
   -0.637
   -0.640
   -0.641
   -0.641
   -0.638
   -0.628
   -0.608
   -0.576
   -0.533
   -0.480
   -0.425
   -0.374
   -0.332
   -0.296
   -0.261
   -0.222
   -0.183
   -0.148
   -0.123
   -0.108
   -0.098
   -0.089
   -0.080
   -0.070
   -0.071
   -0.092
   -0.142
   -0.219
   -0.317
   -0.427
   -0.538
   -0.640
   -0.725
   -0.793
   -0.852
   -0.911
   -0.966
   -1.000
   -0.996
   -0.946
   -0.864
   -0.774
   -0.696
   -0.636
   -0.585
   -0.525
   -0.443
   -0.337
   -0.214
   -0.088
    0.035
    0.153
    0.273
    0.398
    0.523
    0.633
    0.713
    0.758
    0.771
    0.765
    0.745
    0.713
    0.669
    0.619
    0.577
    0.556
    0.562
    0.589
    0.627
    0.667
    0.708
    0.754
    0.813
    0.883
    0.960
    1.031
    1.086
    1.119
    1.135
    1.147
    1.171
    1.222
    1.296
    1.377
    1.436
    1.456
    1.441
    1.408
    1.375
    1.351
    1.334
    1.317
    1.289
    1.250
    1.205
    1.161
    1.126
    1.110
    1.121
    1.163
    1.223
    1.275
    1.295
    1.275
    1.222
    1.155
    1.090
    1.037
    0.996
    0.955
    0.902
    0.830
    0.742
    0.653
    0.577
    0.517
    0.461
    0.386
    0.271
    0.108
   -0.091
   -0.295
   -0.473
   -0.607
   -0.696
   -0.757
   -0.807
   -0.861
   -0.924
   -0.994
   -1.059
   -1.109
   -1.139
   -1.153
   -1.161
   -1.171
   -1.185
   -1.200
   -1.211
   -1.209
   -1.186
   -1.132
   -1.047
   -0.938
   -0.822
   -0.710
   -0.604
   -0.496
   -0.378
   -0.258
   -0.157
   -0.096
   -0.085
   -0.114
   -0.161
   -0.201
   -0.218
   -0.205
   -0.169
   -0.117
   -0.055
    0.017
    0.103
    0.205
    0.320
    0.436
    0.539
    0.616
    0.662
    0.678
    0.669
    0.646
    0.618
    0.594
    0.585
    0.594
    0.622
    0.660
    0.694
    0.711
    0.705
    0.678
    0.639
    0.600
    0.566
    0.536
    0.499
    0.445
    0.373
    0.290
    0.208
    0.131
    0.061
   -0.010
   -0.087
   -0.171
   -0.264
   -0.375
   -0.505
   -0.654
   -0.807
   -0.953
   -1.083
   -1.198
   -1.301
   -1.393
   -1.472
   -1.533
   -1.573
   -1.598
   -1.613
   -1.626
   -1.635
   -1.639
   -1.641
   -1.647
   -1.663
   -1.691
   -1.724
   -1.754
   -1.777
   -1.797
   -1.821
   -1.856
   -1.898
   -1.938
   -1.966
   -1.980
   -1.978
   -1.957
   -1.912
   -1.837
   -1.727
   -1.579
   -1.400
   -1.201
   -1.001
   -0.813
   -0.648
   -0.503
   -0.370
   -0.233
   -0.083
    0.078
    0.240
    0.394
    0.534
    0.662
    0.788
    0.918
    1.058
    1.210
    1.373
    1.546
    1.719
    1.884
    2.034
    2.166
    2.280
    2.378
    2.457
    2.515
    2.551
    2.560
    2.543
    2.502
    2.446
    2.388
    2.339
    2.297
    2.255
    2.208
    2.160
    2.125
    2.114
    2.122
    2.132
    2.124
    2.086
    2.021
    1.935
    1.836
    1.729
    1.612
    1.488
    1.360
    1.238
    1.130
    1.041
    0.966
    0.888
    0.790
    0.663
    0.514
    0.360
    0.212
    0.068
   -0.086
   -0.258
   -0.445
   -0.635
   -0.812
   -0.969
   -1.103
   -1.211
   -1.287
   -1.333
   -1.360
   -1.375
   -1.380
   -1.369
   -1.341
   -1.308
   -1.293
   -1.314
   -1.385
   -1.506
   -1.671
   -1.861
   -2.051
   -2.214
   -2.336
   -2.417
   -2.469
   -2.499
   -2.511
   -2.503
   -2.469
   -2.405
   -2.311
   -2.190
   -2.050
   -1.903
   -1.754
   -1.605
   -1.445
   -1.267
   -1.068
   -0.853
   -0.633
   -0.417
   -0.215
   -0.032
    0.128
    0.267
    0.391
    0.508
    0.624
    0.736
    0.835
    0.912
    0.963
    0.988
    0.993
    0.982
    0.963
    0.943
    0.932
    0.932
    0.941
    0.954
    0.963
    0.966
    0.962
    0.956
    0.954
    0.961
    0.979
    1.004
    1.028
    1.038
    1.020
    0.970
    0.890
    0.797
    0.707
    0.634
    0.581
    0.545
    0.522
    0.511
    0.509
    0.516
    0.531
    0.553
    0.585
    0.624
    0.661
    0.682
    0.671
    0.620
    0.530
    0.412
    0.278
    0.134
   -0.019
   -0.182
   -0.350
   -0.511
   -0.653
   -0.759
   -0.823
   -0.847
   -0.844
   -0.837
   -0.844
   -0.866
   -0.892
   -0.901
   -0.878
   -0.817
   -0.724
   -0.610
   -0.490
   -0.374
   -0.271
   -0.183
   -0.109
   -0.046
    0.010
    0.058
    0.096
    0.116
    0.113
    0.089
    0.056
    0.027
    0.017
    0.033
    0.079
    0.152
    0.244
    0.338
    0.419
    0.484
    0.534
    0.575
    0.605
    0.619
    0.610
    0.579
    0.532
    0.478
    0.425
    0.380
    0.350
    0.342
    0.348
    0.356
    0.350
    0.323
    0.284
    0.249
    0.236
    0.251
    0.287
    0.328
    0.356
    0.359
    0.335
    0.286
    0.219
    0.137
    0.044
   -0.059
   -0.169
   -0.279
   -0.386
   -0.483
   -0.566
   -0.634
   -0.688
   -0.738
   -0.789
   -0.840
   -0.886
   -0.926
   -0.967
   -1.021
   -1.091
   -1.169
   -1.238
   -1.284
   -1.305
   -1.311
   -1.312
   -1.312
   -1.311
   -1.304
   -1.293
   -1.281
   -1.272
   -1.264
   -1.250
   -1.223
   -1.178
   -1.114
   -1.037
   -0.952
   -0.864
   -0.781
   -0.709
   -0.652
   -0.609
   -0.574
   -0.536
   -0.487
   -0.419
   -0.327
   -0.214
   -0.088
    0.038
    0.157
    0.271
    0.388
    0.512
    0.639
    0.757
    0.853
    0.923
    0.972
    1.008
    1.033
    1.048
    1.053
    1.054
    1.055
    1.062
    1.077
    1.099
    1.125
    1.153
    1.181
    1.209
    1.241
    1.281
    1.325
    1.362
    1.381
    1.376
    1.355
    1.328
    1.305
    1.285
    1.263
    1.232
    1.192
    1.152
    1.117
    1.092
    1.076
    1.059
    1.025
    0.961
    0.863
    0.736
    0.592
    0.439
    0.283
    0.126
   -0.030
   -0.179
   -0.313
   -0.423
   -0.500
   -0.540
   -0.542
   -0.510
   -0.454
   -0.381
   -0.297
   -0.205
   -0.113
   -0.028
    0.038
    0.082
    0.103
    0.101
    0.075
    0.022
   -0.051
   -0.136
   -0.217
   -0.288
   -0.343
   -0.386
   -0.420
   -0.449
   -0.475
   -0.504
   -0.542
   -0.595
   -0.659
   -0.732
   -0.809
   -0.890
   -0.976
   -1.057
   -1.115
   -1.130
   -1.093
   -1.013
   -0.912
   -0.810
   -0.717
   -0.631
   -0.548
   -0.461
   -0.373
   -0.287
   -0.210
   -0.143
   -0.085
   -0.034
    0.009
    0.042
    0.060
    0.063
    0.047
    0.008
   -0.062
   -0.156
   -0.256
   -0.334
   -0.368
   -0.353
   -0.301
   -0.227
   -0.146
   -0.061
    0.027
    0.122
    0.228
    0.342
    0.457
    0.560
    0.641
    0.696
    0.733
    0.766
    0.815
    0.887
    0.978
    1.068
    1.136
    1.166
    1.154
    1.105
    1.028
    0.930
    0.814
    0.683
    0.541
    0.396
    0.264
    0.154
    0.072
    0.017
   -0.017
   -0.031
   -0.029
   -0.015
    0.004
    0.019
    0.031
    0.042
    0.058
    0.082
    0.109
    0.139
    0.168
    0.199
    0.235
    0.276
    0.320
    0.358
    0.380
    0.383
    0.369
    0.342
    0.307
    0.267
    0.226
    0.184
    0.141
    0.099
    0.062
    0.036
    0.029
    0.041
    0.070
    0.103
    0.123
    0.116
    0.077
    0.014
   -0.058
   -0.125
   -0.176
   -0.208
   -0.226
   -0.237
   -0.248
   -0.263
   -0.285
   -0.308
   -0.328
   -0.342
   -0.351
   -0.359
   -0.367
   -0.373
   -0.372
   -0.360
   -0.330
   -0.287
   -0.242
   -0.208
   -0.196
   -0.201
   -0.215
   -0.222
   -0.216
   -0.197
   -0.173
   -0.155
   -0.147
   -0.150
   -0.162
   -0.182
   -0.212
   -0.251
   -0.293
   -0.325
   -0.329
   -0.296
   -0.231
   -0.151
   -0.077
   -0.021
    0.016
    0.040
    0.054
    0.061
    0.066
    0.076
    0.101
    0.147
    0.211
    0.280
    0.339
    0.373
    0.371
    0.328
    0.248
    0.135
   -0.008
   -0.183
   -0.384
   -0.597
   -0.799
   -0.970
   -1.104
   -1.201
   -1.272
   -1.326
   -1.375
   -1.433
   -1.508
   -1.597
   -1.684
   -1.749
   -1.778
   -1.776
   -1.759
   -1.743
   -1.736
   -1.737
   -1.738
   -1.731
   -1.711
   -1.680
   -1.644
   -1.614
   -1.592
   -1.575
   -1.550
   -1.510
   -1.451
   -1.380
   -1.306
   -1.231
   -1.153
   -1.064
   -0.955
   -0.823
   -0.667
   -0.492
   -0.307
   -0.125
    0.048
    0.206
    0.347
    0.465
    0.551
    0.605
    0.633
    0.657
    0.693
    0.752
    0.828
    0.906
    0.980
    1.056
    1.151
    1.281
    1.449
    1.646
    1.856
    2.057
    2.237
    2.386
    2.502
    2.583
    2.627
    2.626
    2.580
    2.494
    2.387
    2.277
    2.180
    2.100
    2.033
    1.971
    1.916
    1.873
    1.847
    1.838
    1.831
    1.805
    1.737
    1.617
    1.447
    1.239
    1.010
    0.771
    0.532
    0.299
    0.075
   -0.140
   -0.342
   -0.525
   -0.681
   -0.806
   -0.897
   -0.961
   -1.011
   -1.059
   -1.110
   -1.161
   -1.202
   -1.221
   -1.213
   -1.181
   -1.141
   -1.109
   -1.092
   -1.089
   -1.089
   -1.079
   -1.049
   -1.000
   -0.949
   -0.912
   -0.897
   -0.895
   -0.885
   -0.854
   -0.804
   -0.756
   -0.736
   -0.757
   -0.818
   -0.902
   -0.989
   -1.063
   -1.114
   -1.139
   -1.141
   -1.120
   -1.078
   -1.012
   -0.922
   -0.812
   -0.684
   -0.539
   -0.371
   -0.172
    0.059
    0.309
    0.552
    0.764
    0.935
    1.071
    1.184
    1.283
    1.366
    1.427
    1.460
    1.469
    1.466
    1.465
    1.478
    1.510
    1.555
    1.600
    1.627
    1.619
    1.568
    1.476
    1.358
    1.233
    1.123
    1.034
    0.964
    0.902
    0.836
    0.766
    0.695
    0.632
    0.576
    0.521
    0.455
    0.371
    0.268
    0.155
    0.043
   -0.054
   -0.125
   -0.167
   -0.183
   -0.180
   -0.166
   -0.146
   -0.121
   -0.095
   -0.075
   -0.070
   -0.091
   -0.144
   -0.233
   -0.360
   -0.516
   -0.679
   -0.824
   -0.929
   -0.993
   -1.030
   -1.061
   -1.096
   -1.133
   -1.161
   -1.177
   -1.186
   -1.204
   -1.244
   -1.309
   -1.396
   -1.490
   -1.576
   -1.643
   -1.685
   -1.702
   -1.688
   -1.638
   -1.546
   -1.417
   -1.259
   -1.075
   -0.865
   -0.632
   -0.381
   -0.123
    0.126
    0.356
    0.561
    0.742
    0.897
    1.028
    1.132
    1.209
    1.260
    1.286
    1.291
    1.282
    1.267
    1.252
    1.240
    1.234
    1.242
    1.266
    1.306
    1.355
    1.407
    1.461
    1.518
    1.569
    1.603
    1.607
    1.578
    1.524
    1.458
    1.391
    1.331
    1.277
    1.225
    1.172
    1.124
    1.090
    1.076
    1.085
    1.112
    1.144
    1.168
    1.170
    1.144
    1.089
    1.013
    0.927
    0.843
    0.766
    0.697
    0.631
    0.556
    0.460
    0.335
    0.179
    0.002
   -0.185
   -0.370
   -0.549
   -0.724
   -0.901
   -1.081
   -1.259
   -1.424
   -1.561
   -1.656
   -1.701
   -1.700
   -1.666
   -1.616
   -1.563
   -1.515
   -1.475
   -1.449
   -1.436
   -1.433
   -1.437
   -1.449
   -1.478
   -1.539
   -1.633
   -1.746
   -1.855
   -1.938
   -1.986
   -2.000
   -1.981
   -1.930
   -1.848
   -1.735
   -1.596
   -1.433
   -1.244
   -1.031
   -0.797
   -0.562
   -0.356
   -0.203
   -0.109
   -0.052
   -0.001
    0.062
    0.135
    0.191
    0.199
    0.150
    0.065
   -0.009
   -0.031
    0.012
    0.107
    0.227
    0.355
    0.491
    0.648
    0.833
    1.039
    1.246
    1.432
    1.577
    1.671
    1.709
    1.695
    1.639
    1.557
    1.462
    1.362
    1.257
    1.149
    1.043
    0.940
    0.842
    0.742
    0.638
    0.534
    0.447
    0.393
    0.379
    0.403
    0.452
    0.510
    0.561
    0.597
    0.613
    0.613
    0.595
    0.552
    0.472
    0.348
    0.186
   -0.001
   -0.198
   -0.391
   -0.570
   -0.734
   -0.880
   -1.007
   -1.109
   -1.176
   -1.198
   -1.169
   -1.095
   -0.989
   -0.869
   -0.749
   -0.637
   -0.538
   -0.459
   -0.408
   -0.394
   -0.419
   -0.481
   -0.567
   -0.658
   -0.735
   -0.789
   -0.819
   -0.840
   -0.868
   -0.908
   -0.951
   -0.976
   -0.964
   -0.917
   -0.851
   -0.792
   -0.762
   -0.767
   -0.800
   -0.840
   -0.863
   -0.855
   -0.807
   -0.725
   -0.623
   -0.526
   -0.460
   -0.436
   -0.440
   -0.447
   -0.436
   -0.403
   -0.365
   -0.339
   -0.327
   -0.317
   -0.285
   -0.217
   -0.119
   -0.010
    0.089
    0.168
    0.232
    0.294
    0.365
    0.445
    0.530
    0.615
    0.697
    0.767
    0.814
    0.823
    0.787
    0.713
    0.617
    0.518
    0.432
    0.365
    0.313
    0.271
    0.238
    0.223
    0.241
    0.303
    0.405
    0.530
    0.650
    0.744
    0.806
    0.846
    0.884
    0.938
    1.014
    1.098
    1.166
    1.194
    1.175
    1.122
    1.058
    0.998
    0.950
    0.905
    0.855
    0.787
    0.701
    0.606
    0.518
    0.454
    0.420
    0.400
    0.373
    0.321
    0.246
    0.171
    0.128
    0.129
    0.156
    0.171
    0.146
    0.080
    0.001
   -0.056
   -0.082
   -0.099
   -0.138
   -0.214
   -0.305
   -0.375
   -0.400
   -0.387
   -0.360
   -0.337
   -0.322
   -0.300
   -0.258
   -0.196
   -0.133
   -0.091
   -0.076
   -0.076
   -0.067
   -0.034
    0.025
    0.098
    0.174
    0.247
    0.316
    0.375
    0.406
    0.395
    0.342
    0.274
    0.230
    0.229
    0.262
    0.296
    0.301
    0.273
    0.236
    0.216
    0.224
    0.243
    0.238
    0.186
    0.088
   -0.024
   -0.109
   -0.143
   -0.137
   -0.119
   -0.115
   -0.132
   -0.166
   -0.215
   -0.285
   -0.376
   -0.476
   -0.563
   -0.622
   -0.653
   -0.668
   -0.675
   -0.679
   -0.685
   -0.698
   -0.725
   -0.768
   -0.818
   -0.862
   -0.895
   -0.922
   -0.947
   -0.969
   -0.983
   -0.982
   -0.967
   -0.947
   -0.938
   -0.950
   -0.976
   -0.987
   -0.949
   -0.846
   -0.692
   -0.521
   -0.361
   -0.226
   -0.113
   -0.018
    0.056
    0.100
    0.108
    0.079
    0.021
   -0.053
   -0.124
   -0.176
   -0.206
   -0.223
   -0.238
   -0.256
   -0.269
   -0.268
   -0.250
   -0.217
   -0.171
   -0.106
   -0.014
    0.104
    0.233
    0.353
    0.444
    0.501
    0.532
    0.544
    0.544
    0.532
    0.508
    0.478
    0.448
    0.428
    0.426
    0.442
    0.469
    0.498
    0.526
    0.559
    0.601
    0.649
    0.692
    0.712
    0.695
    0.638
    0.547
    0.440
    0.338
    0.264
    0.237
    0.269
    0.352
    0.458
    0.546
    0.585
    0.569
    0.525
    0.493
    0.499
    0.537
    0.574
