Origin Time       07/09/2011 17:58:18
Lat.              28.6 N	
Long.             77.0 E	
Depth (Km)          8.0
Magnitude         4.2
 Region           DELHI-HARYANA(SONIPAT)-Haryana                                   
 Above details taken from IMD 
     
Station Code       JAFR
Station Lat.       28.594  N
Station Long.      76.908  E
Station Height(m)  162.0
Site Class        C   Vs30 between 200 m/sec to 375 m/sec *  
Record Time        9/7/2011  ) 17:58:13.0
Sampling Rate     100. Hz
 Record Duration   66.000 Sec.
 Direction         E-W (E positive)
Max. Acceleration   6.459 cm/sec**2
     
  * For reference see Site Classification link of website 
     
 Base Line Corrected and Low Pass Filtered (Cut Off at 35 Hz) Time History
 Acceleration data in cm/sec**2
    
[...]
   -0.015
   -0.019
   -0.003
    0.004
   -0.005
   -0.009
   -0.001
    0.010
    0.013
    0.007
    0.006
    0.008
    0.006
    0.003
    0.002
    0.004
    0.006
   -0.001
   -0.006
    0.000
   -0.003
   -0.007
   -0.003
   -0.003
   -0.001
    0.001
   -0.004
   -0.004
    0.000
   -0.002
   -0.003
   -0.002
   -0.005
   -0.004
   -0.001
   -0.002
   -0.003
    0.001
    0.003
   -0.001
    0.006
    0.016
    0.006
   -0.006
    0.000
    0.008
    0.003
   -0.002
    0.003
    0.003
   -0.002
   -0.004
   -0.008
   -0.009
    0.000
   -0.001
   -0.009
   -0.011
   -0.009
   -0.002
   -0.002
   -0.004
    0.008
    0.014
    0.005
   -0.003
    0.003
    0.017
    0.012
   -0.009
   -0.011
    0.002
    0.004
   -0.003
   -0.004
    0.003
    0.004
   -0.006
   -0.011
   -0.002
    0.005
   -0.002
   -0.013
   -0.011
    0.002
    0.005
   -0.003
   -0.003
    0.005
    0.012
    0.011
    0.001
   -0.001
    0.002
    0.000
   -0.004
   -0.003
    0.004
    0.009
    0.002
   -0.009
   -0.007
    0.001
   -0.004
   -0.014
   -0.010
    0.001
    0.003
   -0.001
    0.000
    0.002
    0.004
    0.003
    0.002
    0.004
    0.004
   -0.001
   -0.005
    0.000
    0.003
   -0.002
   -0.006
   -0.005
    0.000
    0.004
   -0.002
   -0.003
    0.002
    0.001
   -0.002
   -0.003
   -0.006
   -0.003
   -0.001
   -0.004
   -0.003
    0.003
    0.007
    0.003
   -0.003
    0.005
    0.008
   -0.002
   -0.003
    0.004
    0.002
   -0.003
   -0.006
   -0.005
    0.001
   -0.003
   -0.010
   -0.009
   -0.002
    0.002
   -0.003
   -0.008
   -0.001
    0.008
    0.008
    0.003
    0.001
    0.005
    0.003
   -0.003
    0.001
    0.005
   -0.001
   -0.006
   -0.006
   -0.001
    0.002
   -0.001
   -0.003
   -0.006
   -0.008
   -0.002
    0.001
   -0.003
    0.001
    0.004
   -0.001
    0.000
    0.003
    0.003
    0.003
    0.002
    0.001
    0.003
    0.005
    0.002
    0.000
   -0.005
   -0.007
    0.002
    0.003
   -0.006
   -0.002
    0.002
   -0.004
   -0.001
    0.003
    0.002
   -0.003
   -0.009
   -0.001
    0.002
   -0.006
   -0.007
   -0.001
    0.000
   -0.002
   -0.001
    0.002
    0.007
    0.005
   -0.004
    0.000
    0.005
    0.000
   -0.003
   -0.002
    0.000
    0.006
    0.004
   -0.005
   -0.002
    0.002
   -0.001
   -0.001
    0.000
    0.001
    0.000
   -0.005
   -0.008
   -0.002
    0.004
    0.002
   -0.001
   -0.001
    0.000
    0.001
    0.001
   -0.001
    0.004
    0.009
    0.001
   -0.003
    0.000
    0.000
   -0.001
   -0.002
   -0.001
    0.003
    0.006
    0.004
   -0.005
   -0.005
    0.004
    0.002
   -0.003
    0.001
    0.001
    0.002
    0.002
   -0.003
   -0.004
   -0.004
   -0.006
   -0.004
    0.000
    0.003
    0.002
   -0.001
    0.000
    0.003
    0.003
   -0.002
   -0.005
    0.004
    0.008
    0.000
   -0.001
    0.001
    0.000
   -0.002
   -0.006
   -0.003
    0.005
    0.003
   -0.001
    0.000
    0.002
    0.001
   -0.001
   -0.005
   -0.002
    0.002
   -0.001
   -0.001
    0.002
    0.004
    0.002
   -0.002
   -0.001
   -0.001
   -0.002
   -0.001
    0.000
   -0.002
   -0.002
    0.004
    0.007
    0.001
   -0.001
    0.002
    0.003
    0.004
    0.003
    0.001
   -0.004
   -0.006
    0.001
    0.000
   -0.010
   -0.005
    0.004
    0.004
    0.001
    0.000
    0.002
    0.008
    0.008
    0.001
   -0.001
    0.003
    0.002
   -0.006
   -0.006
    0.001
    0.002
   -0.003
   -0.007
   -0.005
   -0.003
   -0.006
   -0.005
    0.001
    0.004
    0.007
    0.003
   -0.004
    0.000
    0.007
    0.004
    0.000
    0.004
    0.005
    0.000
   -0.002
   -0.002
   -0.002
   -0.001
    0.000
    0.002
    0.003
    0.001
   -0.003
    0.000
    0.001
   -0.002
    0.003
    0.004
   -0.005
   -0.006
   -0.002
   -0.004
   -0.007
   -0.003
   -0.002
   -0.004
   -0.001
    0.000
    0.001
    0.003
    0.000
   -0.002
    0.005
    0.005
   -0.001
    0.003
    0.009
    0.009
    0.003
   -0.003
   -0.001
    0.002
   -0.004
   -0.005
    0.000
    0.000
    0.002
    0.002
   -0.005
   -0.001
    0.009
    0.004
   -0.004
    0.003
    0.007
   -0.003
   -0.003
    0.002
    0.000
   -0.001
   -0.001
   -0.002
   -0.005
   -0.005
   -0.002
   -0.002
    0.002
    0.006
    0.002
   -0.003
   -0.001
   -0.001
   -0.001
    0.003
    0.004
    0.003
    0.002
    0.003
    0.006
    0.005
    0.002
    0.004
    0.002
   -0.003
   -0.003
   -0.004
   -0.005
   -0.002
    0.002
    0.003
    0.001
   -0.003
   -0.008
   -0.010
   -0.005
    0.000
    0.001
    0.004
    0.004
    0.004
    0.007
    0.007
    0.001
   -0.001
    0.003
    0.006
    0.003
    0.002
    0.001
   -0.001
    0.005
    0.004
   -0.004
    0.002
    0.008
   -0.003
   -0.007
   -0.001
    0.005
    0.001
   -0.009
   -0.012
   -0.004
   -0.001
   -0.005
   -0.003
    0.001
    0.006
    0.004
   -0.002
    0.002
    0.009
    0.004
   -0.001
    0.004
    0.005
    0.004
    0.009
    0.012
    0.004
   -0.002
    0.000
   -0.001
   -0.004
   -0.003
   -0.002
    0.002
    0.006
    0.002
   -0.006
   -0.005
    0.000
   -0.002
   -0.006
   -0.006
   -0.003
    0.001
    0.003
   -0.001
   -0.004
   -0.003
    0.002
    0.007
    0.006
    0.006
    0.006
    0.006
    0.005
    0.000
   -0.002
   -0.002
   -0.002
   -0.003
   -0.005
   -0.003
   -0.002
    0.002
    0.005
    0.002
    0.002
    0.003
   -0.001
    0.000
    0.002
   -0.004
   -0.001
    0.004
   -0.002
    0.000
    0.002
   -0.002
   -0.004
   -0.003
    0.002
    0.003
   -0.001
   -0.002
   -0.002
   -0.005
   -0.003
    0.004
    0.005
    0.000
    0.000
    0.002
   -0.001
   -0.003
    0.000
    0.000
    0.002
    0.004
    0.002
   -0.002
    0.000
    0.001
    0.003
   -0.001
   -0.003
    0.003
    0.002
   -0.005
   -0.002
    0.004
    0.008
    0.003
   -0.005
   -0.002
    0.005
   -0.004
   -0.011
   -0.004
    0.002
    0.001
   -0.001
    0.001
    0.007
    0.002
   -0.004
    0.000
    0.001
    0.000
   -0.003
   -0.005
    0.001
    0.007
    0.006
    0.001
   -0.005
   -0.003
    0.003
    0.002
    0.002
    0.007
    0.006
    0.001
    0.001
   -0.003
   -0.007
   -0.002
    0.001
   -0.004
   -0.003
   -0.002
   -0.002
   -0.003
   -0.005
   -0.001
    0.005
    0.000
   -0.001
    0.003
    0.002
    0.003
    0.004
    0.003
    0.004
    0.001
   -0.002
    0.005
    0.004
   -0.001
    0.000
    0.001
   -0.006
   -0.013
   -0.008
    0.003
    0.007
    0.000
   -0.006
    0.000
    0.006
   -0.001
   -0.006
    0.000
    0.001
    0.000
    0.002
    0.005
    0.003
    0.005
    0.007
   -0.002
   -0.005
   -0.002
   -0.002
   -0.001
    0.002
   -0.002
   -0.003
    0.000
   -0.003
   -0.001
    0.001
   -0.005
   -0.004
    0.001
    0.002
    0.004
    0.004
   -0.001
    0.000
    0.005
    0.004
    0.000
   -0.002
    0.002
    0.009
    0.006
   -0.003
   -0.005
   -0.002
    0.002
    0.001
   -0.002
   -0.003
    0.000
   -0.002
   -0.011
   -0.009
    0.002
    0.005
    0.004
    0.003
    0.005
    0.003
   -0.003
   -0.004
   -0.002
    0.002
    0.002
   -0.001
    0.006
    0.003
   -0.015
   -0.013
    0.006
    0.009
    0.001
    0.001
    0.005
    0.003
   -0.002
   -0.001
    0.007
    0.010
   -0.001
   -0.013
   -0.006
    0.001
   -0.003
   -0.001
    0.005
    0.001
   -0.004
   -0.008
   -0.002
    0.008
    0.001
   -0.005
    0.001
    0.001
   -0.003
   -0.001
    0.004
    0.009
    0.007
    0.001
   -0.003
   -0.005
    0.000
    0.004
    0.000
   -0.006
   -0.006
    0.005
    0.016
    0.011
    0.002
   -0.005
   -0.009
   -0.007
   -0.001
    0.000
   -0.004
   -0.001
    0.001
    0.001
    0.002
    0.005
    0.002
   -0.006
   -0.003
    0.003
    0.001
    0.001
    0.003
    0.005
    0.002
   -0.001
    0.000
    0.005
    0.008
    0.001
   -0.008
   -0.006
   -0.008
   -0.012
   -0.005
    0.003
    0.005
    0.006
    0.007
    0.006
    0.002
   -0.002
   -0.002
    0.005
    0.007
   -0.002
   -0.006
   -0.003
    0.001
    0.001
   -0.007
   -0.008
    0.001
   -0.001
   -0.008
    0.003
    0.005
   -0.007
   -0.004
    0.004
    0.003
    0.002
    0.005
    0.003
   -0.002
   -0.002
    0.003
    0.006
    0.003
    0.000
    0.003
    0.000
   -0.006
   -0.004
    0.003
    0.003
   -0.002
   -0.002
    0.005
    0.010
    0.005
   -0.009
   -0.009
   -0.004
   -0.005
   -0.003
   -0.006
   -0.005
    0.004
    0.000
   -0.006
    0.002
    0.010
    0.012
    0.010
    0.000
   -0.004
    0.003
    0.001
   -0.007
   -0.008
   -0.004
   -0.008
   -0.009
    0.006
    0.016
    0.014
    0.016
    0.018
    0.013
    0.002
   -0.027
   -0.060
   -0.077
   -0.081
   -0.060
    0.001
    0.070
    0.089
    0.035
    0.022
    0.195
    0.379
    0.222
   -0.188
   -0.350
   -0.166
   -0.116
   -0.351
   -0.358
    0.049
    0.396
    0.376
    0.125
   -0.086
   -0.065
    0.188
    0.337
    0.055
   -0.142
   -0.148
   -0.497
   -0.404
    0.168
    0.221
    0.121
   -0.046
   -0.086
    0.267
   -0.161
   -0.754
   -0.076
    0.600
    0.325
   -0.079
   -0.385
   -0.377
    0.304
    0.706
    0.723
    0.974
    0.531
   -0.649
   -1.438
   -1.023
   -0.059
   -0.080
    0.081
    0.628
    0.075
   -0.300
    0.006
    0.113
    0.427
    0.643
    0.177
   -0.056
   -0.323
   -0.807
   -0.334
   -0.168
   -0.157
    0.973
    0.837
   -1.032
   -1.380
    0.516
    1.490
    0.420
   -0.367
    0.557
    0.969
   -1.119
   -1.710
    0.228
    0.210
   -0.712
   -0.033
    0.776
    0.454
   -0.481
   -0.382
    0.553
    0.552
    0.107
    0.015
   -0.407
   -0.600
   -0.119
   -0.195
   -0.202
    0.745
    0.896
   -0.175
   -0.743
    0.168
    1.310
    0.247
   -1.438
   -0.304
    1.023
   -0.235
   -0.874
    0.145
    0.635
    0.386
   -0.438
   -0.976
   -0.495
   -0.060
    0.699
    0.900
   -0.666
   -0.439
    1.092
   -0.259
   -1.512
    0.259
    1.570
    0.563
   -0.426
   -0.002
    0.547
   -0.088
   -1.360
   -1.594
   -0.100
    1.340
    1.311
    0.472
   -0.906
   -1.100
    0.351
    0.634
    0.717
    1.230
    0.240
   -0.913
   -1.212
   -0.432
    0.798
   -0.396
   -1.747
    0.147
    1.416
   -0.266
   -1.368
    0.032
    1.525
    0.551
   -0.581
    0.698
    1.372
   -0.789
   -2.548
   -0.482
    2.812
    1.865
   -1.666
   -1.529
    0.881
    0.150
   -1.574
   -0.259
    1.595
    0.736
   -0.892
   -0.621
    0.275
    0.206
   -0.725
   -0.770
    0.886
    1.110
   -0.209
   -0.377
    0.246
    0.231
   -0.884
   -1.096
    0.570
    1.539
    0.280
   -1.005
    0.200
    1.058
   -1.031
   -1.471
    1.416
    1.791
   -0.588
   -1.420
   -1.067
    0.185
    1.240
    0.501
   -0.006
    0.063
   -0.217
   -0.476
   -0.187
    0.476
   -0.013
   -1.322
   -1.231
    0.578
    1.346
   -0.154
   -0.323
    1.288
    1.285
    0.025
   -0.425
   -0.251
   -0.660
   -0.753
   -0.394
   -0.397
    0.729
    1.067
   -0.719
   -0.756
    0.867
    1.205
    0.297
   -0.708
   -1.016
   -0.491
   -0.017
   -0.424
   -0.648
    0.017
    0.353
    0.523
    1.232
    1.285
   -0.485
   -1.640
    0.132
    1.127
   -0.247
   -0.666
    0.013
   -0.055
   -0.768
   -0.261
    1.288
    0.964
   -0.231
    0.431
    1.027
   -0.154
   -1.798
   -1.674
    0.817
    1.326
   -1.372
   -1.812
    0.820
    2.041
    0.896
   -0.323
   -1.012
   -0.930
    0.062
    0.337
   -0.335
   -0.814
   -0.459
    0.695
    1.325
    0.924
    0.319
   -0.453
   -0.958
   -0.212
    0.568
    0.034
   -0.093
    0.846
    0.101
   -1.260
   -0.043
    1.002
    0.508
    0.411
   -0.718
   -2.027
   -0.490
    1.714
    1.004
   -1.046
   -0.898
    0.931
    1.610
   -0.252
   -2.018
   -0.770
    0.288
   -0.626
   -0.181
    1.600
    1.542
   -0.371
   -1.118
    0.290
    0.822
   -0.837
   -1.302
   -0.196
    0.090
    0.193
    0.367
    0.546
    0.720
    0.161
    0.177
    0.744
   -0.212
   -1.585
   -0.876
    0.564
    0.683
    0.345
   -0.553
   -0.846
    1.214
    1.580
   -1.092
   -1.720
    0.464
    0.955
   -1.149
   -1.030
    2.199
    2.443
   -1.406
   -3.152
   -0.779
    2.179
    2.369
   -0.437
   -1.728
   -0.481
   -0.395
   -0.235
    0.880
    0.664
   -0.429
   -1.022
   -0.136
    0.819
   -0.152
   -0.600
    0.789
    1.556
    0.772
    0.097
   -0.045
   -0.373
   -0.205
   -0.582
   -1.052
    0.154
   -0.018
   -1.089
    0.068
    0.986
    0.883
    1.440
    0.704
   -1.171
   -1.119
   -0.029
    0.494
    0.186
   -0.255
    0.235
    0.348
   -1.008
   -2.563
   -1.225
    0.810
   -1.096
   -2.359
    0.385
    2.108
    0.716
   -0.002
    1.454
    1.828
    0.447
    0.097
    0.186
   -1.332
   -2.568
   -1.883
   -0.762
   -0.396
   -0.670
   -0.171
    1.329
    1.700
    1.113
    1.485
    1.741
    1.346
    2.862
    3.388
   -0.684
   -3.656
   -1.825
    1.324
    1.399
   -1.502
   -3.119
   -3.247
   -1.767
    1.142
    2.050
    2.493
    2.630
    0.029
   -1.921
   -0.355
    3.476
    4.974
    0.386
   -5.257
   -6.091
   -3.418
   -0.888
    0.094
    1.221
    2.073
    0.225
   -2.301
   -1.654
    1.968
    3.914
    1.047
   -2.598
   -1.573
    2.666
    4.135
    1.413
   -0.695
   -0.165
   -0.216
   -2.149
   -3.209
   -1.289
    1.530
    1.864
    0.875
   -0.471
   -4.359
   -6.164
   -0.968
    5.512
    6.158
    1.449
   -1.672
   -0.150
    1.026
   -0.069
   -1.007
   -2.087
   -2.321
    0.242
    1.552
   -0.811
   -2.741
   -1.406
    3.242
    6.459
    3.888
    0.314
   -1.678
   -2.957
   -1.934
   -1.119
   -1.999
   -2.287
   -1.282
    0.264
    0.659
    0.908
    2.453
    2.715
    0.889
   -0.440
   -0.454
   -0.286
   -0.625
   -0.388
    1.149
    0.520
   -2.373
   -0.828
    3.782
    2.853
   -1.433
   -1.046
    2.429
    2.621
   -1.358
   -3.032
    0.302
    0.460
   -3.459
   -3.891
   -1.574
    0.463
    1.273
    0.206
    0.202
    0.825
   -1.190
   -2.713
    0.160
    4.111
    2.223
   -3.813
   -3.939
    1.502
    3.315
    1.415
    0.996
    1.155
    0.109
   -0.644
   -0.810
    0.197
    1.971
    2.294
    0.932
   -1.598
   -2.013
    0.402
    0.662
    0.233
    1.933
    1.536
   -2.743
   -5.917
   -3.333
    1.504
    2.833
    1.317
   -0.409
   -0.574
    0.562
    0.665
    0.588
    1.181
    0.594
   -1.115
   -2.797
   -2.714
   -0.562
    0.131
   -1.237
   -1.056
    1.232
    1.891
    0.545
    0.780
    1.613
    0.868
    0.445
    2.032
    3.020
   -0.171
   -2.825
   -0.550
    1.629
    1.618
   -0.186
   -3.821
   -4.564
   -1.766
    0.746
    2.243
    1.549
   -1.521
   -2.374
    0.748
    2.682
    1.073
   -0.429
   -0.206
    1.125
    3.151
    2.915
   -0.767
   -3.163
   -2.207
   -1.277
   -1.540
   -1.107
    0.866
    2.150
    0.782
   -1.541
   -2.520
   -0.272
    3.592
    2.936
   -1.863
   -3.956
   -1.618
    1.720
    3.261
    2.485
    0.681
   -0.037
   -0.635
   -2.864
   -3.091
    0.207
    2.387
    1.165
   -1.668
   -3.447
   -1.226
    3.501
    4.474
    0.734
   -2.219
   -1.003
    1.434
    1.249
   -0.136
   -0.295
    0.036
    0.006
    0.050
   -1.083
   -2.533
   -1.318
   -0.077
   -0.796
   -0.074
    2.911
    2.557
   -2.204
   -2.957
    0.502
    1.925
    2.187
    2.359
    0.576
   -1.996
   -1.861
   -0.837
   -1.731
   -1.685
   -0.231
    1.194
    3.257
    3.755
    0.696
   -2.251
   -0.762
    2.734
    2.001
   -1.526
   -2.344
   -2.274
   -3.356
   -2.422
    0.935
    2.814
    1.476
   -0.499
   -0.736
    0.415
    1.219
    0.863
   -0.097
   -1.068
   -1.137
   -1.206
   -1.592
    0.290
    2.544
    1.928
    0.706
    0.982
    0.963
   -0.761
   -1.829
   -0.575
    0.294
   -0.437
   -0.253
    1.027
    1.478
    0.568
   -0.785
   -0.173
    1.672
    0.113
   -3.493
   -3.271
   -0.256
    0.702
   -0.327
   -0.113
    1.030
    1.491
    1.924
    1.122
   -0.375
   -0.339
    0.055
    0.056
   -0.548
   -1.277
   -1.049
   -0.616
   -0.211
    0.062
    0.888
    2.615
    2.022
   -0.758
   -1.670
   -0.446
    0.319
   -0.210
   -0.408
    0.201
    0.382
   -0.522
   -1.271
   -1.047
   -1.832
   -2.150
   -0.199
    1.200
    1.269
    0.696
    0.724
    2.271
    2.839
    1.272
   -0.156
   -0.257
   -0.346
   -1.053
   -1.719
   -1.377
   -0.156
    0.457
    0.301
   -0.275
   -0.434
   -0.131
   -0.206
    0.875
    1.192
   -1.105
   -1.534
   -0.010
   -0.100
   -0.572
    0.357
    1.539
    1.531
   -0.106
   -1.254
    0.089
    0.924
    0.114
    0.204
    0.726
   -0.241
   -1.933
   -1.803
   -0.338
    0.846
    1.029
   -0.657
   -1.498
    0.431
    1.989
    1.112
    0.052
    0.381
   -0.112
   -0.265
    1.717
    1.548
   -0.595
   -0.712
   -0.885
   -1.729
   -0.418
    0.815
   -0.571
   -3.017
   -4.052
   -0.585
    4.595
    3.857
   -0.765
   -1.732
    0.697
    2.420
    1.879
    0.584
    0.755
    0.807
   -1.047
   -2.238
   -1.097
   -0.341
   -1.673
   -2.643
   -1.245
    1.456
    2.698
    1.576
   -0.004
   -0.773
    0.382
    1.881
    0.599
   -1.040
   -1.326
   -1.713
   -1.624
   -0.463
    0.847
   -0.028
   -1.690
   -0.039
    2.293
    1.823
    0.348
   -0.215
    0.452
    1.120
    0.969
    0.318
   -1.414
   -2.886
   -1.969
    0.191
    1.416
    0.881
    0.010
   -0.191
   -0.352
   -0.099
    0.234
    0.250
    0.697
    1.172
    0.446
   -1.043
   -1.298
   -0.378
    0.182
   -0.074
    0.076
    0.861
   -0.403
   -1.919
    0.230
    2.928
    2.995
    1.721
    0.011
   -1.269
   -1.347
   -0.853
   -0.103
    0.823
    0.894
   -0.763
   -2.224
   -0.503
    2.443
    1.210
   -2.904
   -2.614
    0.969
    1.660
   -0.096
   -1.852
   -1.166
    1.601
    1.595
   -0.635
   -1.143
   -0.183
   -0.148
   -1.505
   -1.470
    0.456
    1.083
    0.243
    0.783
    2.606
    2.196
   -0.441
   -1.784
   -1.257
    0.309
    1.235
    0.532
    0.520
   -0.156
   -2.724
   -2.650
    0.678
    2.588
    0.638
   -1.020
    1.287
    2.367
   -0.230
   -1.833
   -1.611
   -0.982
    0.120
    0.974
    0.901
   -0.407
   -1.458
   -0.178
    1.178
    0.051
   -1.330
   -0.383
    1.009
    0.528
   -0.376
   -0.434
    0.413
    1.261
    0.286
   -1.278
   -1.189
   -0.349
   -0.263
   -0.138
    0.513
    1.054
    1.062
    0.245
    0.277
    1.320
    1.232
    0.270
   -0.170
    0.624
    0.828
   -0.358
   -0.563
   -0.506
   -0.942
   -0.887
   -0.730
   -0.142
    0.022
   -1.179
   -1.494
    0.112
    1.429
    1.115
   -0.079
   -0.871
    0.023
    0.704
   -0.717
   -0.801
    0.965
    1.034
   -0.441
   -1.513
   -1.098
    0.171
    1.061
    1.600
    0.734
   -1.029
   -1.469
   -0.695
    0.804
    0.846
   -1.003
   -0.504
    1.562
    1.147
   -0.785
   -1.256
   -0.294
    0.301
    0.093
   -0.094
    0.884
    1.069
   -0.800
   -0.781
    0.569
    0.337
    0.105
   -0.181
   -0.331
    0.125
   -0.266
   -0.105
    0.370
   -0.615
   -0.862
    0.135
    0.383
   -0.272
   -1.219
   -0.865
    1.535
    2.390
    0.264
   -0.865
    0.133
    0.701
   -0.621
   -1.632
    0.099
    1.087
   -0.100
   -0.071
    1.009
    1.487
    0.902
   -0.172
   -0.218
    0.132
   -0.730
   -1.459
   -0.268
    0.681
   -0.210
   -0.425
    0.373
   -0.200
   -0.846
    0.320
