Origin Time       07/09/2011 17:58:18
Lat.              28.6 N	
Long.             77.0 E	
Depth (Km)          8.0
Magnitude         4.2
 Region           DELHI-HARYANA(SONIPAT)-Haryana                                   
 Above details taken from IMD 
   
Station Code       JAFR
Station Lat.       28.594
Station Long.      76.908
Station Height(m)  162.0
Site Class        C   Vs30 between 200 m/sec to 375 m/sec *  
Record Time        9/7/2011  ) 17:58:13.0
Sampling Rate     100. Hz
 Record Duration   66.000 Sec.
 Direction         Vert. (Up positive)
Max. Acceleration   5.601 cm/sec**2
     
  * For reference see Site Classification link of website 
     
 Base Line Corrected and Low Pass Filtered (Cut Off at 35 Hz) Time History
 Acceleration data in cm/sec**2
    
[...]
   -0.001
    0.003
    0.003
   -0.003
   -0.009
   -0.006
   -0.001
   -0.003
   -0.006
   -0.005
    0.000
    0.001
    0.000
    0.000
    0.001
    0.002
   -0.002
   -0.003
    0.001
    0.002
    0.003
    0.004
    0.004
    0.006
    0.008
    0.002
    0.000
    0.003
    0.004
    0.001
   -0.002
   -0.001
   -0.001
   -0.004
   -0.006
   -0.004
    0.002
    0.005
   -0.003
   -0.005
   -0.001
   -0.003
   -0.006
   -0.007
   -0.004
    0.000
   -0.001
   -0.003
   -0.001
    0.000
   -0.003
   -0.006
    0.000
    0.008
    0.010
    0.010
    0.009
    0.008
    0.012
    0.011
    0.004
    0.003
    0.003
   -0.002
   -0.003
   -0.005
   -0.008
   -0.008
   -0.008
   -0.008
   -0.005
   -0.004
   -0.008
   -0.014
   -0.011
   -0.002
    0.003
    0.003
    0.002
    0.003
    0.005
    0.007
    0.008
    0.008
    0.005
    0.001
    0.002
    0.006
    0.009
    0.008
    0.003
    0.002
    0.004
    0.005
    0.002
   -0.004
   -0.002
    0.000
   -0.007
   -0.014
   -0.010
   -0.003
   -0.003
   -0.008
   -0.006
    0.001
    0.003
   -0.001
   -0.003
    0.001
    0.005
    0.004
    0.004
    0.009
    0.011
    0.004
   -0.001
    0.005
    0.012
    0.006
   -0.006
   -0.011
   -0.005
    0.000
   -0.003
   -0.004
    0.002
    0.002
   -0.004
   -0.007
   -0.002
    0.000
   -0.006
   -0.008
   -0.003
    0.002
    0.005
    0.005
    0.005
    0.008
    0.007
    0.003
    0.002
    0.003
    0.001
    0.001
   -0.001
   -0.004
   -0.005
   -0.003
   -0.001
   -0.003
   -0.003
    0.001
   -0.002
   -0.006
   -0.004
    0.003
    0.004
    0.000
   -0.001
    0.003
    0.006
    0.004
   -0.001
   -0.002
    0.002
    0.000
   -0.006
   -0.005
   -0.001
   -0.002
   -0.004
   -0.002
    0.004
    0.003
   -0.001
    0.000
    0.004
    0.009
    0.007
   -0.002
   -0.002
    0.002
    0.001
   -0.003
   -0.002
    0.001
    0.001
   -0.001
   -0.005
   -0.004
    0.002
    0.001
   -0.007
   -0.005
   -0.001
   -0.002
   -0.001
   -0.002
   -0.004
    0.000
   -0.002
   -0.005
    0.002
    0.005
    0.000
   -0.001
    0.004
    0.009
    0.006
    0.000
    0.000
    0.003
    0.006
    0.000
   -0.007
   -0.005
   -0.004
   -0.008
   -0.007
   -0.004
    0.000
    0.000
   -0.005
   -0.004
    0.000
   -0.002
   -0.004
   -0.003
    0.003
    0.010
    0.008
    0.004
    0.003
    0.003
    0.001
   -0.006
   -0.005
    0.006
    0.008
    0.002
   -0.005
   -0.004
    0.000
   -0.003
   -0.006
   -0.003
    0.001
    0.001
   -0.004
   -0.006
   -0.003
   -0.002
   -0.005
   -0.003
    0.004
    0.008
    0.003
   -0.005
    0.000
    0.006
    0.000
   -0.004
   -0.001
    0.003
    0.002
   -0.003
    0.000
    0.006
    0.005
   -0.001
   -0.004
   -0.002
   -0.001
   -0.004
   -0.006
   -0.005
   -0.003
   -0.003
   -0.007
   -0.006
   -0.001
    0.001
    0.001
    0.003
    0.005
    0.004
    0.000
   -0.003
   -0.003
    0.002
    0.008
    0.003
   -0.004
    0.001
    0.005
   -0.001
   -0.006
   -0.003
    0.001
    0.001
   -0.004
   -0.002
    0.001
   -0.002
   -0.009
   -0.009
    0.002
    0.005
   -0.001
   -0.001
    0.001
    0.003
    0.001
   -0.002
    0.002
    0.007
    0.004
    0.000
    0.002
    0.007
    0.005
   -0.002
   -0.004
    0.001
    0.003
   -0.001
   -0.004
   -0.003
    0.002
    0.002
   -0.003
   -0.006
   -0.005
    0.000
    0.000
   -0.006
   -0.004
    0.002
    0.000
   -0.005
   -0.003
    0.004
    0.004
   -0.006
   -0.009
    0.002
    0.008
    0.004
   -0.002
    0.001
    0.005
    0.001
   -0.005
    0.000
    0.008
    0.003
   -0.007
   -0.001
    0.009
    0.005
   -0.002
   -0.001
    0.002
    0.002
   -0.004
   -0.003
    0.005
    0.008
    0.000
   -0.009
   -0.005
    0.001
   -0.004
   -0.010
   -0.008
    0.000
    0.005
    0.003
   -0.002
    0.000
    0.004
    0.006
    0.002
    0.000
    0.002
    0.003
   -0.003
   -0.004
    0.000
    0.000
   -0.003
   -0.006
   -0.004
    0.000
    0.001
   -0.001
   -0.004
   -0.001
    0.006
    0.005
    0.001
    0.001
    0.002
    0.000
   -0.002
   -0.001
    0.004
    0.006
    0.000
   -0.006
   -0.002
    0.002
   -0.005
   -0.010
   -0.003
    0.004
    0.001
   -0.004
   -0.003
    0.003
    0.003
   -0.006
   -0.007
    0.004
    0.009
    0.002
   -0.005
    0.000
    0.006
    0.002
   -0.001
    0.003
    0.005
    0.003
   -0.003
   -0.004
    0.000
    0.000
   -0.003
    0.000
    0.009
    0.010
   -0.001
   -0.009
   -0.008
   -0.007
   -0.007
   -0.006
    0.000
    0.005
    0.003
    0.000
   -0.001
    0.002
    0.003
    0.002
    0.002
    0.003
    0.003
    0.001
   -0.004
   -0.006
    0.003
    0.010
    0.000
   -0.009
   -0.005
    0.001
    0.004
    0.001
    0.000
    0.006
    0.005
   -0.003
   -0.002
    0.006
    0.006
   -0.004
   -0.008
   -0.001
    0.006
    0.001
   -0.009
   -0.009
   -0.003
   -0.004
   -0.004
    0.001
    0.007
    0.006
   -0.003
   -0.005
    0.004
    0.007
   -0.002
   -0.006
    0.004
    0.012
    0.006
    0.001
    0.003
    0.004
    0.002
   -0.002
   -0.002
    0.004
    0.001
   -0.007
   -0.007
    0.000
    0.003
   -0.003
   -0.008
   -0.003
    0.002
   -0.003
   -0.005
   -0.004
   -0.004
   -0.003
   -0.003
   -0.001
    0.004
    0.004
    0.002
   -0.003
   -0.002
    0.007
    0.007
    0.002
    0.004
    0.007
    0.004
    0.000
   -0.002
    0.003
    0.008
    0.007
    0.002
   -0.001
    0.002
    0.000
   -0.009
   -0.010
   -0.002
    0.001
   -0.004
   -0.007
   -0.003
    0.003
    0.002
   -0.005
   -0.007
    0.001
    0.006
   -0.002
   -0.008
    0.001
    0.008
    0.002
   -0.005
    0.001
    0.014
    0.012
   -0.001
   -0.002
    0.006
    0.008
    0.000
   -0.006
   -0.002
    0.001
   -0.001
   -0.002
    0.002
    0.006
    0.002
   -0.007
   -0.006
    0.000
    0.003
   -0.002
   -0.005
    0.003
    0.007
    0.002
   -0.001
    0.001
    0.004
    0.004
    0.000
    0.000
    0.001
   -0.005
   -0.010
   -0.008
   -0.003
    0.002
   -0.001
   -0.006
   -0.002
    0.004
    0.002
   -0.003
   -0.001
    0.007
    0.006
    0.001
    0.003
    0.007
    0.005
   -0.001
   -0.005
    0.000
    0.004
    0.001
   -0.003
   -0.004
    0.001
    0.003
   -0.005
   -0.009
   -0.003
   -0.001
   -0.002
   -0.002
    0.002
    0.007
    0.003
   -0.003
   -0.004
    0.000
    0.001
   -0.005
   -0.005
    0.000
    0.001
   -0.002
   -0.002
    0.001
    0.003
    0.000
   -0.004
   -0.001
    0.005
    0.002
   -0.006
   -0.006
    0.003
    0.008
    0.001
   -0.002
    0.002
    0.004
    0.000
   -0.006
   -0.005
    0.002
    0.005
    0.001
   -0.002
    0.003
    0.007
   -0.001
   -0.008
   -0.004
    0.000
   -0.002
   -0.005
   -0.003
    0.005
    0.004
   -0.001
    0.001
    0.004
    0.000
   -0.004
   -0.002
    0.003
    0.006
    0.001
   -0.005
   -0.002
    0.004
    0.001
   -0.007
   -0.006
   -0.001
    0.003
    0.000
   -0.006
   -0.003
    0.005
    0.004
    0.000
   -0.001
    0.003
    0.006
    0.001
   -0.002
    0.001
    0.003
   -0.002
   -0.009
   -0.004
    0.006
    0.004
   -0.005
   -0.007
    0.000
    0.005
   -0.005
   -0.010
    0.003
    0.008
    0.003
    0.001
    0.003
    0.002
   -0.003
   -0.009
   -0.003
    0.007
    0.006
   -0.005
   -0.006
    0.001
    0.001
   -0.002
   -0.004
   -0.003
   -0.001
   -0.004
   -0.008
   -0.001
    0.007
    0.003
    0.001
    0.002
   -0.001
   -0.002
   -0.005
   -0.007
   -0.001
    0.005
    0.004
    0.002
    0.004
    0.008
    0.006
    0.001
   -0.001
    0.001
    0.004
    0.001
   -0.005
   -0.006
   -0.004
   -0.002
    0.002
    0.002
    0.000
   -0.006
   -0.011
   -0.008
    0.004
    0.010
    0.004
   -0.005
   -0.004
   -0.002
   -0.004
    0.001
    0.010
    0.013
    0.005
   -0.005
   -0.005
    0.001
    0.003
    0.004
    0.000
    0.000
    0.003
   -0.001
   -0.004
    0.003
    0.012
    0.009
   -0.006
   -0.011
   -0.003
    0.001
    0.001
   -0.001
    0.002
    0.008
    0.003
   -0.010
   -0.007
    0.000
   -0.003
   -0.010
   -0.008
    0.002
    0.002
   -0.007
   -0.005
    0.007
    0.011
    0.005
    0.000
    0.002
    0.005
    0.007
    0.005
   -0.001
    0.002
    0.010
    0.003
   -0.006
    0.000
    0.006
   -0.001
   -0.011
   -0.007
    0.003
    0.001
   -0.005
   -0.001
    0.001
   -0.006
   -0.009
   -0.005
    0.004
    0.010
    0.006
   -0.003
   -0.002
    0.006
    0.004
   -0.003
    0.005
    0.012
    0.003
   -0.008
   -0.006
    0.002
    0.003
   -0.004
   -0.004
   -0.002
   -0.005
   -0.004
    0.000
    0.003
    0.007
    0.003
   -0.002
   -0.001
    0.001
    0.004
    0.004
    0.001
    0.003
    0.006
    0.005
    0.004
    0.003
    0.003
   -0.001
   -0.008
   -0.008
    0.001
    0.008
    0.002
   -0.015
   -0.018
   -0.007
   -0.001
   -0.002
   -0.004
    0.002
    0.006
    0.001
   -0.001
    0.007
    0.010
    0.006
    0.002
    0.003
    0.008
    0.007
    0.003
    0.007
    0.013
    0.012
    0.000
   -0.011
   -0.008
    0.000
   -0.002
   -0.010
   -0.009
   -0.001
   -0.002
   -0.011
   -0.012
   -0.002
    0.008
    0.013
    0.017
    0.025
    0.027
    0.016
   -0.018
   -0.069
   -0.094
   -0.067
    0.014
    0.162
    0.346
    0.483
    0.495
    0.305
   -0.087
   -0.439
   -0.466
   -0.422
   -0.889
   -1.601
   -1.422
   -0.109
    1.089
    1.387
    1.519
    1.880
    1.485
    0.212
   -0.827
   -1.600
   -1.966
   -1.272
   -0.442
    0.057
    0.679
    0.986
    0.887
    0.458
    0.209
    0.561
   -0.221
   -1.746
   -1.241
    0.246
    0.314
    0.339
    1.659
    1.661
   -0.813
   -2.400
   -1.203
    0.323
    0.471
    0.871
    1.488
    0.935
    0.247
   -0.368
   -1.569
   -2.047
   -0.972
    0.593
    1.454
    1.395
    0.922
    0.093
   -0.920
   -1.044
   -0.233
   -0.058
   -0.562
    0.065
    0.968
    0.698
    0.796
    0.926
   -0.619
   -2.225
   -1.888
   -0.436
   -0.046
   -0.272
    1.405
    2.636
    0.967
   -0.038
    0.264
   -0.619
   -2.352
   -2.420
    0.139
    1.342
    0.419
    1.257
    2.508
    1.002
   -1.179
   -1.197
   -0.475
   -0.578
   -0.826
   -0.609
   -0.172
   -0.540
   -0.505
    1.192
    1.532
   -0.206
   -0.105
    1.746
    1.132
   -1.289
   -1.724
   -0.675
   -0.309
   -0.398
    0.514
    1.488
    0.765
    0.368
    0.456
   -0.982
   -1.605
   -0.174
    0.567
   -0.316
   -0.947
    0.270
    1.703
    0.736
   -0.728
   -0.351
    0.516
    1.024
    0.470
   -1.119
   -1.286
   -0.160
   -0.191
   -1.223
   -1.115
    0.615
    1.574
    0.613
    0.258
    1.141
    0.756
   -0.473
   -0.423
    0.133
   -0.205
   -1.235
   -1.465
   -0.036
    0.952
    0.335
    0.406
    1.636
    1.177
   -1.412
   -2.636
   -1.126
   -0.023
   -0.441
    0.263
    2.029
    2.559
    1.514
   -0.200
   -1.119
   -0.872
   -1.213
   -2.034
   -1.288
    0.535
    1.261
    0.471
    0.403
    1.731
    1.411
   -0.671
   -1.125
    0.199
    0.076
   -1.875
   -1.840
    0.850
    2.388
    1.227
   -0.278
   -0.388
   -0.904
   -2.327
   -1.517
    1.186
    2.444
    1.880
    0.098
   -1.426
   -0.944
   -0.135
   -0.389
   -0.342
    0.835
    1.830
    0.878
   -0.704
   -0.546
   -0.359
   -1.373
   -1.139
    0.180
    0.480
    0.391
    1.057
    1.402
    0.333
   -0.993
   -1.156
   -0.343
   -0.130
   -0.848
   -0.823
    0.256
    1.453
    1.544
    0.631
    0.652
    0.262
   -1.804
   -2.450
   -0.684
    1.333
    1.681
    0.401
   -0.397
   -0.099
   -0.162
   -0.516
    0.547
    0.781
   -1.860
   -2.213
    0.641
    1.353
    0.745
    1.434
    1.523
   -0.577
   -2.417
   -0.512
    1.753
   -0.384
   -2.861
   -1.102
    2.157
    2.443
    0.319
   -0.324
    0.161
   -0.689
   -1.454
   -1.027
   -0.221
    0.775
    0.633
   -0.703
   -0.858
    0.627
    1.976
    1.390
   -0.262
   -0.702
   -0.221
   -0.154
   -0.693
   -0.990
   -0.136
    1.067
    1.342
    1.000
    0.117
   -1.266
   -1.219
    0.207
    0.157
   -1.243
   -0.833
    1.266
    1.619
    0.164
   -0.462
    0.193
    0.625
   -0.391
   -1.670
   -1.578
   -0.578
    0.547
    1.427
    1.503
    0.371
   -0.642
   -0.016
    0.625
   -0.521
   -1.638
   -0.277
    1.556
    0.256
   -2.301
   -1.607
    1.419
    2.288
    0.672
   -0.116
    0.428
   -0.085
   -1.299
   -0.559
    1.041
    0.574
   -0.837
   -0.589
    1.209
    1.816
   -0.368
   -2.114
   -1.130
   -0.281
   -0.762
    0.020
    2.489
    2.951
   -0.260
   -2.537
   -1.382
   -0.709
   -1.077
    0.619
    2.573
    1.449
   -1.229
   -1.697
    0.890
    2.234
   -0.903
   -3.472
   -0.943
    2.117
    1.509
   -0.407
   -0.921
   -0.186
    0.555
    0.785
    0.273
   -1.096
   -1.177
    0.265
    0.104
   -0.490
    0.487
    1.047
    0.551
    0.324
    1.233
    1.602
    0.163
   -1.063
   -1.663
   -2.328
   -2.325
   -0.672
    1.746
    1.275
   -1.751
   -1.732
    1.318
    2.539
    1.813
    1.162
    0.789
   -0.103
   -1.384
   -1.481
   -0.335
    1.121
    0.950
   -1.286
   -1.687
    1.227
    3.924
    2.015
   -3.280
   -4.708
   -1.533
    0.832
    1.002
    0.453
    0.227
   -0.746
   -1.968
    0.037
    3.398
    3.429
    1.554
    1.102
    0.973
   -1.011
   -3.353
   -3.229
   -1.296
   -0.359
   -1.087
   -1.047
    0.853
    2.126
    2.648
    4.067
    3.982
   -0.131
   -3.813
   -1.610
    1.574
   -0.640
   -4.211
   -4.391
   -2.615
   -0.494
    2.462
    5.601
    5.097
    0.091
   -3.548
   -2.635
   -0.419
    0.278
    0.092
    0.451
    0.168
   -1.627
   -2.033
   -0.143
    1.560
    1.700
    0.586
    0.222
    0.547
   -0.558
   -1.903
   -1.201
    1.372
    3.234
    1.846
   -0.857
   -0.941
    0.768
    0.834
   -1.583
   -3.379
   -1.073
    2.011
    0.665
   -2.599
   -2.221
    1.325
    3.091
    2.422
    2.167
    1.810
   -0.732
   -4.095
   -4.171
   -1.518
    0.335
    2.476
    4.006
    1.708
   -2.359
   -3.807
   -1.332
    0.850
   -0.660
   -2.568
   -0.711
    2.805
    3.553
    2.764
    0.759
   -2.373
   -1.836
    0.865
    0.811
   -1.752
   -1.954
    2.438
    2.795
   -2.034
   -1.897
    1.644
    1.785
   -0.386
   -1.400
   -1.030
   -1.366
   -1.482
    0.060
    2.065
    3.332
    3.324
    1.909
   -0.913
   -2.635
   -1.435
   -0.158
   -0.797
   -2.755
   -3.678
   -1.883
    0.897
    3.473
    4.607
    2.660
    0.018
   -0.891
   -1.248
   -1.549
   -0.979
    0.072
    0.750
    1.199
    1.186
   -0.223
   -1.536
   -1.284
   -0.529
    0.144
   -0.303
   -0.889
    1.164
    2.167
   -0.711
   -2.553
   -0.772
    1.792
    1.545
   -0.638
   -0.462
    1.549
    1.827
   -0.302
   -2.255
   -1.726
   -0.067
    0.639
    0.072
   -1.108
   -1.739
   -0.883
    0.628
    0.683
    0.145
    1.765
    4.148
    3.346
   -0.416
   -3.123
   -2.849
   -1.617
   -1.134
    0.177
    1.794
    0.851
   -0.377
    0.908
    1.327
   -1.491
   -3.401
   -1.034
    2.032
    1.110
   -1.018
    0.578
    2.137
    0.873
    1.417
    2.777
    1.185
   -1.385
   -3.108
   -4.182
   -3.916
   -1.635
    1.854
    4.422
    4.326
    1.812
   -1.773
   -3.872
   -2.331
    0.069
    0.011
   -0.969
   -0.457
    1.041
    1.917
    2.657
    2.358
   -0.083
   -1.610
   -1.988
   -2.175
   -0.935
    0.467
    1.232
    0.476
   -0.783
    1.103
    3.008
    0.758
   -2.123
   -0.921
    1.742
    0.475
   -2.412
   -2.253
   -0.179
    1.051
    1.299
    1.567
    1.330
   -0.121
   -1.055
   -0.536
   -0.570
   -1.689
   -1.302
    1.274
    2.155
   -0.025
   -0.670
    1.500
    0.647
   -3.965
   -4.457
   -0.022
    2.822
    2.847
    2.161
    0.791
   -1.791
   -2.739
   -0.459
    0.859
   -0.527
   -1.296
    0.204
    1.907
    2.283
    1.949
    0.927
   -0.579
   -1.574
   -2.100
   -1.590
    0.457
    1.387
   -0.541
   -2.234
   -0.136
    2.967
    1.893
   -1.015
   -0.485
    1.836
    0.781
   -2.187
   -1.714
    0.158
   -0.710
   -1.151
    1.154
    1.854
   -0.627
   -1.120
    1.053
    0.253
   -1.903
   -0.058
    3.022
    2.291
   -0.837
   -1.769
   -1.361
   -1.463
    0.572
    2.741
    0.566
   -1.765
    0.229
    1.485
   -1.223
   -2.155
    0.535
    0.242
   -2.939
   -1.879
    1.444
    1.592
    1.867
    4.154
    3.006
   -2.133
   -4.272
   -1.005
    1.246
   -0.670
   -1.362
    0.657
    1.239
   -0.166
   -0.830
    0.180
    0.413
   -0.203
    0.606
    1.115
    0.169
   -0.647
   -0.562
   -0.331
   -1.244
   -1.337
    0.759
    2.089
    0.955
   -0.607
   -0.158
    1.068
    0.726
   -0.544
   -0.750
    0.135
    0.086
   -0.578
   -0.209
    0.540
   -0.074
   -1.899
   -1.711
    0.621
    1.488
    0.771
    0.362
    0.110
   -1.133
   -2.126
   -0.822
    1.075
    1.421
    0.512
   -0.075
    0.186
    0.090
   -0.205
   -0.549
   -0.060
    1.816
    1.881
   -0.026
   -0.980
   -0.653
   -0.088
   -0.075
    0.374
    0.806
   -1.048
   -2.494
   -0.458
    1.928
    1.225
   -0.454
    0.131
    1.033
   -0.325
   -1.618
   -0.685
   -0.104
   -0.748
    0.056
    1.172
    0.766
    0.108
   -0.045
   -0.107
   -0.871
   -1.137
    0.620
    1.584
    0.017
   -0.659
    0.379
    0.518
    0.436
    1.249
    1.084
   -0.892
   -2.702
   -2.822
   -1.672
    0.050
    1.454
    2.014
    1.974
    1.385
    0.472
   -0.849
   -2.226
   -1.398
    0.993
    0.245
   -2.171
   -0.651
    2.108
    0.827
   -1.423
    0.366
    2.943
    1.548
   -1.158
   -1.407
   -0.084
    0.330
   -0.403
   -0.661
    0.341
    0.995
    0.140
   -0.237
    0.403
    0.448
   -0.612
   -1.732
   -1.419
   -0.677
    0.026
    1.728
    2.438
    0.498
   -1.879
   -2.133
   -0.589
    0.559
    0.825
    1.554
    1.817
    0.101
   -1.149
   -0.513
   -0.182
   -0.543
   -0.620
   -0.652
   -0.929
   -0.113
    2.051
    2.170
    0.047
   -0.778
    0.155
    1.131
    0.102
   -2.275
   -2.266
   -0.123
    0.984
    0.532
    0.202
    1.171
    1.089
   -1.417
   -2.266
    0.101
    1.867
    0.774
   -0.604
    0.089
    0.072
   -1.259
   -0.640
    0.929
    0.556
   -0.897
   -0.484
    1.196
    1.076
   -0.073
   -0.018
    0.965
    0.325
   -1.998
   -1.260
    1.615
    1.269
   -0.743
   -0.869
    0.534
    0.906
   -0.985
   -1.709
    0.420
    1.274
   -0.428
   -1.322
   -0.070
    1.251
    0.682
   -0.672
   -1.105
   -0.950
   -0.710
    0.170
    1.023
    0.825
    0.525
   -0.210
   -0.912
    0.472
    1.319
   -0.099
   -0.200
    1.217
    1.036
   -0.195
   -0.345
    0.271
   -0.025
   -1.781
   -2.847
   -1.217
    0.599
    0.679
    1.550
    2.697
    0.907
   -1.660
   -1.189
    0.578
    0.350
   -0.783
   -0.296
    0.615
    0.044
   -0.120
    0.936
    0.737
   -0.783
   -1.467
   -0.762
    0.224
    0.829
    1.359
    1.239
    0.033
   -1.102
   -1.298
   -0.905
   -0.524
   -0.066
    0.775
    1.364
    1.321
    0.511
   -1.240
   -1.797
   -0.873
   -0.793
   -0.584
    0.136
    0.325
    0.871
    1.282
    0.881
    0.231
   -0.480
   -0.537
    0.026
    0.112
   -0.356
   -0.295
    0.539
    0.646
    0.078
   -0.125
   -0.559
   -1.238
   -1.307
   -0.505
    0.218
    0.827
    2.337
    2.470
   -0.319
   -2.815
   -2.217
    0.425
    1.526
