Origin Time       25/11/2007 23:12:20
Lat.              28.6 N 
Long.             77.0 E 
Depth (Km)         20.3
Magnitude         4.3
 Region           DELHI-HARYANA-BORDER-REGION                                      
 Above details taken from IMD 
     
Station Code       JAFR
Station Lat.       28.594  N
Station Long.      76.908  E
Station Height(m)  164.0
Site Class        C   Vs30 between 200 m/sec to 375 m/sec *  
Record Time        11/25/200 29) 23:12:16
Sampling Rate     100. Hz
 Record Duration   38.000 Sec.
 Direction         E-W (E positive)
Max. Acceleration  38.441 cm/sec**2
     
  * For reference see Site Classification link of website 
     
 Base Line Corrected and Low Pass Filtered (Cut Off at 35 Hz) Time History
 Acceleration data in cm/sec**2
    
[...]
   -0.007
    0.003
    0.006
    0.000
   -0.005
   -0.006
   -0.007
   -0.003
    0.005
   -0.001
   -0.009
   -0.002
    0.009
    0.008
   -0.003
   -0.002
    0.006
    0.005
    0.001
    0.001
   -0.005
   -0.010
    0.001
    0.010
   -0.001
   -0.011
   -0.012
   -0.003
    0.009
    0.004
   -0.004
   -0.006
   -0.002
    0.007
    0.004
   -0.007
   -0.010
   -0.006
   -0.006
   -0.010
   -0.003
    0.000
   -0.010
   -0.004
    0.007
    0.005
   -0.005
   -0.007
    0.002
    0.014
    0.018
    0.006
   -0.010
   -0.012
   -0.006
   -0.001
    0.004
    0.009
    0.012
    0.002
   -0.010
   -0.006
    0.006
    0.007
   -0.001
    0.002
    0.012
    0.014
    0.004
   -0.014
   -0.021
   -0.012
    0.004
    0.008
    0.001
    0.003
    0.003
   -0.008
   -0.003
    0.007
   -0.002
   -0.013
   -0.006
    0.013
    0.021
    0.012
   -0.005
   -0.013
   -0.010
   -0.005
   -0.002
   -0.001
    0.005
    0.010
    0.003
    0.001
    0.006
   -0.005
   -0.014
   -0.006
    0.005
    0.013
    0.016
    0.002
   -0.009
   -0.003
    0.000
   -0.007
   -0.006
    0.004
    0.006
   -0.007
   -0.009
   -0.001
    0.005
    0.007
    0.003
    0.009
    0.007
   -0.006
   -0.001
    0.002
   -0.005
   -0.009
   -0.009
   -0.002
    0.010
    0.010
    0.001
    0.000
    0.002
   -0.003
   -0.003
    0.000
    0.007
    0.010
    0.000
    0.001
    0.002
   -0.008
   -0.002
    0.004
    0.001
    0.001
   -0.002
   -0.002
   -0.002
    0.000
    0.006
    0.007
    0.004
   -0.008
   -0.009
    0.000
    0.001
    0.003
    0.006
    0.000
   -0.005
   -0.004
    0.000
    0.003
    0.006
    0.009
    0.005
   -0.002
   -0.005
   -0.005
    0.004
    0.016
    0.012
    0.000
   -0.004
    0.002
    0.005
    0.004
    0.006
    0.005
   -0.003
   -0.006
    0.003
    0.006
    0.001
    0.004
    0.004
   -0.001
   -0.002
   -0.007
   -0.007
   -0.001
    0.000
    0.001
    0.001
   -0.002
   -0.002
   -0.005
   -0.005
    0.003
    0.006
    0.004
    0.003
    0.003
   -0.006
   -0.008
    0.006
    0.009
    0.004
    0.008
    0.005
   -0.004
   -0.009
   -0.005
    0.003
    0.013
    0.018
    0.010
   -0.008
   -0.016
   -0.008
    0.001
    0.002
    0.006
    0.009
    0.000
   -0.007
   -0.004
    0.007
    0.003
   -0.003
    0.005
    0.000
   -0.001
    0.005
   -0.003
   -0.007
   -0.008
   -0.006
    0.007
    0.007
    0.000
   -0.004
   -0.001
   -0.001
   -0.005
    0.001
    0.005
    0.004
    0.005
    0.003
    0.001
   -0.005
   -0.005
    0.002
    0.002
    0.001
    0.002
   -0.002
   -0.001
    0.005
    0.004
   -0.003
   -0.006
   -0.004
    0.006
    0.014
    0.008
   -0.005
   -0.015
   -0.007
    0.006
    0.009
    0.007
    0.001
   -0.003
   -0.001
    0.003
    0.007
    0.003
    0.002
    0.004
   -0.004
   -0.006
    0.001
    0.007
    0.005
    0.001
    0.000
   -0.006
   -0.006
    0.002
    0.003
    0.004
    0.001
    0.000
   -0.001
   -0.007
   -0.004
    0.002
    0.000
   -0.003
    0.002
    0.003
   -0.002
   -0.003
   -0.005
   -0.002
    0.007
    0.006
   -0.003
   -0.011
   -0.010
    0.005
    0.011
    0.007
    0.003
   -0.004
   -0.001
    0.007
    0.008
    0.002
   -0.002
    0.001
   -0.001
   -0.004
    0.001
    0.004
    0.006
    0.007
    0.002
   -0.002
   -0.007
   -0.006
    0.003
    0.007
    0.006
    0.008
    0.001
   -0.009
   -0.001
    0.013
    0.010
    0.002
   -0.001
   -0.007
   -0.003
    0.004
   -0.002
   -0.008
    0.001
    0.009
    0.007
    0.001
   -0.008
   -0.007
    0.009
    0.011
    0.000
   -0.004
   -0.002
   -0.003
    0.000
    0.012
    0.007
   -0.006
   -0.003
   -0.001
   -0.001
    0.007
    0.009
    0.003
    0.005
    0.003
   -0.013
   -0.015
    0.005
    0.011
    0.001
    0.003
    0.008
    0.003
   -0.001
    0.008
    0.008
   -0.003
   -0.003
    0.002
    0.003
   -0.002
   -0.005
    0.002
    0.003
    0.002
    0.007
    0.005
   -0.001
    0.003
    0.004
   -0.002
   -0.003
   -0.003
   -0.005
    0.004
    0.012
    0.006
   -0.002
   -0.007
   -0.006
    0.003
    0.003
    0.001
   -0.002
   -0.004
    0.003
    0.005
    0.000
   -0.006
   -0.009
   -0.004
    0.010
    0.015
    0.001
   -0.009
   -0.008
   -0.004
    0.000
    0.005
    0.010
    0.007
   -0.001
    0.000
    0.006
    0.003
   -0.006
   -0.003
    0.007
    0.004
   -0.006
   -0.010
   -0.006
    0.005
    0.012
    0.002
   -0.008
   -0.006
   -0.003
    0.003
    0.007
    0.005
    0.009
    0.000
   -0.015
   -0.008
    0.002
    0.008
    0.019
    0.012
   -0.010
   -0.018
   -0.006
    0.006
    0.006
    0.008
    0.006
   -0.003
   -0.005
   -0.002
   -0.001
    0.000
    0.002
   -0.001
    0.001
    0.007
   -0.002
   -0.013
   -0.008
    0.002
    0.007
    0.007
    0.003
   -0.005
   -0.006
    0.004
    0.014
    0.010
   -0.008
   -0.015
   -0.003
    0.009
    0.009
    0.000
   -0.007
   -0.003
    0.003
   -0.003
   -0.003
    0.004
   -0.001
   -0.001
    0.007
    0.004
    0.001
    0.003
    0.000
   -0.001
   -0.001
   -0.002
   -0.002
    0.000
   -0.001
    0.003
    0.007
   -0.002
   -0.008
    0.003
    0.013
    0.006
    0.002
   -0.002
   -0.016
   -0.010
    0.007
    0.019
    0.026
    0.007
   -0.017
   -0.022
   -0.010
    0.006
    0.015
    0.017
    0.004
   -0.013
   -0.011
    0.000
    0.002
    0.011
    0.018
    0.003
   -0.010
   -0.008
    0.002
    0.009
    0.001
   -0.004
    0.007
    0.007
   -0.007
   -0.007
    0.002
    0.000
    0.002
    0.004
   -0.008
   -0.015
   -0.004
    0.006
    0.011
    0.003
   -0.004
    0.005
    0.004
   -0.008
   -0.004
    0.002
   -0.006
   -0.006
    0.007
    0.004
    0.004
    0.011
    0.000
   -0.006
    0.001
    0.002
    0.000
   -0.002
    0.002
    0.006
    0.002
   -0.002
    0.005
    0.010
    0.001
   -0.004
   -0.002
   -0.004
   -0.003
    0.001
   -0.001
    0.002
    0.007
   -0.002
    0.000
    0.008
   -0.006
   -0.010
    0.002
    0.005
    0.010
    0.013
   -0.003
   -0.018
   -0.011
    0.007
    0.019
    0.013
    0.002
    0.001
    0.001
    0.001
    0.004
    0.009
    0.008
   -0.001
   -0.001
    0.002
   -0.002
   -0.003
    0.003
    0.008
    0.006
    0.004
    0.003
   -0.004
   -0.008
   -0.004
    0.000
   -0.002
    0.001
    0.010
    0.005
   -0.004
    0.003
    0.008
   -0.005
   -0.016
   -0.004
    0.014
    0.008
   -0.005
    0.002
    0.009
   -0.002
   -0.008
   -0.004
    0.002
    0.013
    0.011
   -0.004
   -0.009
   -0.003
    0.002
    0.001
    0.003
    0.005
    0.005
    0.004
    0.002
    0.000
   -0.002
   -0.004
    0.003
    0.012
    0.012
    0.004
   -0.005
   -0.011
   -0.005
    0.008
    0.015
    0.014
    0.009
   -0.008
   -0.021
   -0.012
    0.007
    0.008
    0.000
    0.004
    0.006
    0.003
    0.003
   -0.001
   -0.007
   -0.004
   -0.001
    0.000
    0.002
    0.004
   -0.002
   -0.003
    0.002
    0.002
    0.001
   -0.002
    0.003
    0.007
   -0.004
   -0.011
    0.000
    0.013
    0.004
   -0.009
    0.002
    0.004
   -0.001
    0.004
    0.003
    0.008
    0.009
   -0.009
   -0.013
    0.002
    0.006
   -0.002
   -0.001
    0.012
    0.016
    0.004
   -0.013
   -0.015
   -0.002
    0.006
    0.013
    0.012
   -0.002
   -0.004
   -0.003
   -0.004
    0.006
    0.014
    0.006
   -0.002
   -0.002
    0.001
   -0.001
   -0.008
   -0.011
   -0.008
    0.001
    0.021
    0.024
    0.000
   -0.018
   -0.015
   -0.003
    0.005
    0.010
    0.019
    0.022
    0.004
   -0.018
   -0.022
   -0.009
    0.010
    0.020
    0.012
   -0.003
   -0.005
   -0.001
   -0.010
   -0.012
    0.004
    0.015
    0.008
   -0.002
   -0.008
   -0.010
   -0.004
    0.004
    0.013
    0.014
    0.002
   -0.007
   -0.013
   -0.010
    0.010
    0.018
    0.002
   -0.004
    0.007
    0.002
   -0.013
   -0.004
    0.005
    0.003
    0.010
    0.011
   -0.001
   -0.008
   -0.005
    0.006
    0.012
    0.002
   -0.002
    0.010
    0.016
    0.004
   -0.013
   -0.013
    0.000
    0.009
    0.014
    0.010
    0.000
    0.000
    0.001
   -0.006
   -0.005
    0.005
    0.010
    0.015
    0.018
    0.004
   -0.004
   -0.004
   -0.010
    0.000
    0.017
    0.013
    0.007
    0.005
   -0.004
   -0.005
    0.001
   -0.007
   -0.011
    0.005
    0.018
    0.016
    0.003
   -0.006
   -0.002
    0.001
    0.001
    0.007
    0.000
   -0.004
    0.017
    0.021
   -0.001
   -0.010
    0.003
    0.007
    0.004
    0.007
    0.000
   -0.003
    0.011
    0.009
   -0.006
   -0.001
    0.011
    0.011
    0.007
    0.006
    0.007
    0.004
   -0.002
    0.000
    0.008
    0.010
    0.005
    0.001
   -0.001
    0.000
   -0.001
   -0.001
    0.005
    0.003
    0.002
    0.011
    0.003
   -0.010
    0.003
    0.010
   -0.002
   -0.009
   -0.002
    0.004
    0.003
    0.005
    0.007
    0.006
    0.000
   -0.010
   -0.004
    0.008
    0.007
    0.000
   -0.010
   -0.017
   -0.023
   -0.044
   -0.069
   -0.096
   -0.125
   -0.149
   -0.187
   -0.244
   -0.314
   -0.269
   -0.002
    0.385
    0.611
    0.408
    0.215
    0.516
    0.665
   -0.140
   -0.699
    0.330
    0.827
   -0.436
   -1.376
   -0.473
    1.481
    0.906
   -2.258
   -1.998
    2.979
    4.063
   -1.781
   -3.423
    0.863
    1.466
   -0.987
   -2.343
   -1.115
    2.701
    2.228
   -3.113
   -1.802
    2.889
   -0.499
   -3.591
   -0.728
    1.361
    0.301
   -2.685
   -1.658
    2.995
    3.087
   -0.128
    0.244
    3.933
    2.966
   -1.735
   -0.340
    1.968
   -2.024
   -2.450
    1.561
    1.376
   -0.185
   -1.687
   -2.144
    1.910
    2.705
   -1.308
   -1.144
    0.225
   -1.629
   -2.614
   -0.766
    0.443
   -2.913
   -3.695
    3.008
    6.158
    0.927
   -4.146
   -1.520
    4.360
    3.458
   -1.737
   -2.072
    1.429
    0.173
   -3.215
    0.343
    5.023
    3.155
   -1.860
   -4.324
   -0.590
    4.448
    1.794
   -4.902
   -4.878
    2.067
    5.414
    1.310
   -0.309
    0.229
   -5.588
   -6.517
    3.631
    7.606
    1.008
   -4.028
   -4.030
    1.466
    7.193
    2.486
   -4.624
   -5.045
   -3.008
    1.618
    4.418
    0.011
   -3.405
   -2.713
   -2.410
    1.541
    6.175
    0.968
   -4.081
    0.352
    1.724
   -0.975
    1.294
    2.885
   -0.646
   -2.889
    0.022
    2.143
    0.436
   -1.941
   -4.528
   -0.576
    6.520
    3.444
   -1.737
   -1.503
   -1.172
   -0.668
   -0.096
   -0.164
    1.154
   -0.307
   -4.484
   -0.631
    6.056
    4.751
   -0.176
   -5.397
   -3.339
    6.030
    3.803
   -5.272
   -2.896
    1.735
    0.068
   -0.910
   -0.343
    1.100
    2.319
    0.464
   -1.982
   -1.693
    0.572
    0.140
   -1.634
   -0.638
    0.180
   -0.301
   -0.962
   -0.432
    1.464
    1.741
    1.045
    0.766
   -0.129
   -1.866
   -2.106
    0.395
    1.395
    0.257
   -0.889
   -3.074
   -1.995
    3.819
    5.285
    0.630
   -0.908
    0.350
   -2.355
   -2.384
    2.230
    1.664
   -1.634
   -1.616
    0.680
    3.489
    3.291
   -0.573
   -2.760
   -1.683
   -1.515
    0.108
    2.618
   -2.609
   -5.675
    2.690
    5.222
    0.020
    0.963
    0.351
   -4.081
   -2.267
   -1.447
   -2.955
    2.153
    3.293
   -2.329
   -1.021
    3.875
    5.482
    3.714
   -0.549
   -0.680
    0.665
   -3.125
   -3.943
    0.811
    0.592
   -3.281
   -3.022
    0.993
    3.766
   -0.705
   -4.595
    0.309
    4.562
    3.160
    0.749
    1.297
    3.085
    0.655
   -4.593
   -4.891
    0.735
    1.310
   -2.819
    0.446
    3.661
   -2.098
   -3.767
    0.967
   -0.488
   -2.948
   -0.014
    0.938
    1.271
    1.688
   -0.971
    2.486
    8.287
    1.127
   -6.536
    0.028
    3.636
   -3.298
   -3.416
    2.196
   -0.154
   -4.859
   -3.328
   -0.606
    1.900
    4.739
    2.283
   -0.410
    1.227
   -0.154
   -1.526
    2.317
    3.040
    0.102
   -0.718
   -1.153
    0.921
    2.018
   -2.921
   -4.140
    0.022
    1.173
   -0.854
   -1.647
    0.098
    0.949
   -0.533
   -0.304
    3.046
    3.300
   -1.838
   -3.711
   -1.080
   -0.227
    0.760
    0.048
   -3.100
   -0.888
    2.306
    0.905
    0.083
    0.114
   -1.269
   -0.754
    3.020
    3.410
    0.452
    3.356
    4.077
   -5.909
   -7.935
    1.310
    2.800
   -0.461
   -1.686
   -3.398
    0.735
    5.884
    2.255
   -0.470
    0.829
   -1.420
   -1.962
    1.322
   -0.053
   -2.961
   -0.502
    0.656
   -1.523
   -0.265
    1.110
   -0.595
   -1.604
   -0.417
    3.373
    3.280
   -2.335
   -2.302
    2.126
    2.851
    0.567
   -1.688
   -1.389
   -0.394
    0.010
   -0.191
   -4.323
   -5.537
    2.293
    6.405
    3.465
    2.205
   -0.819
   -2.408
    2.620
    1.475
   -4.743
   -2.563
   -1.107
   -4.244
   -0.304
    2.820
    0.932
    3.185
    2.852
   -1.819
   -0.540
    3.256
    1.937
   -1.101
   -2.341
   -1.733
    0.692
    0.728
   -0.339
    2.985
    2.403
   -6.317
   -5.495
    5.274
    2.137
   -5.896
    1.209
    4.993
   -2.907
   -3.672
    1.670
    0.651
   -0.592
    2.986
    1.673
   -1.401
    3.100
    4.399
   -2.452
   -3.239
    0.007
   -2.614
   -1.896
    1.504
    1.198
    2.978
   -0.176
   -6.421
   -1.052
    2.886
   -3.558
   -4.244
   -0.611
    0.229
    4.631
    5.020
   -3.449
   -5.035
    4.484
    7.915
   -2.002
   -5.963
    4.356
    6.018
   -6.126
   -8.600
   -0.984
    1.206
    0.701
   -0.163
   -6.921
  -16.423
  -20.325
  -13.882
   -0.140
    6.446
    0.918
   -3.996
   -5.862
   -5.463
    7.220
   30.178
   38.441
   17.128
   -2.892
    7.171
   24.903
   29.433
   27.021
   15.635
   -2.870
  -12.506
  -12.107
  -12.539
  -15.654
  -18.448
  -24.682
  -29.935
  -19.722
   -3.692
    1.494
    3.044
    5.544
    4.523
   -1.801
   -7.472
    3.518
   19.701
   14.745
    4.080
    6.189
    7.336
    4.095
    2.035
  -10.261
  -26.787
  -21.681
   -8.704
  -13.194
  -13.480
    3.958
   14.859
   13.546
    8.337
   -3.023
   -5.214
    9.716
   12.380
    1.751
    6.848
   17.748
   16.338
    8.839
   -2.090
  -10.551
   -7.770
   -3.201
   -7.971
  -14.169
  -11.577
   -8.174
   -8.709
   -4.056
   -3.122
  -10.897
   -4.475
   16.065
   27.330
   23.618
   12.716
    5.409
    7.741
   14.564
   14.904
    1.119
  -17.601
  -22.945
  -16.696
  -15.958
  -20.931
  -18.109
   -9.362
   -4.833
   -0.229
   11.178
   17.650
    4.572
   -8.221
    1.251
    8.034
   -3.754
   -7.488
    3.549
    6.732
    5.889
   15.300
   20.602
   16.181
   12.972
    7.466
   -2.909
  -10.906
  -15.001
  -16.845
  -15.358
   -8.814
   -0.180
    3.494
    5.666
    9.636
   10.209
   11.063
    9.804
   -2.506
  -14.682
  -14.587
  -12.120
  -14.805
  -14.974
  -12.777
  -12.392
   -7.644
    3.876
   16.554
   23.984
   21.799
   14.766
   11.726
    7.192
   -4.416
  -12.991
  -16.983
  -18.214
  -11.588
   -3.051
    2.655
    5.916
    2.832
   -1.235
   -0.429
    1.509
    5.375
    8.695
    7.976
   11.042
   10.863
   -0.394
   -2.411
    3.299
   -3.663
   -6.763
    1.045
   -1.114
   -3.242
    3.364
   -0.083
   -7.137
   -1.112
    4.697
   -0.697
   -2.313
    6.569
   10.617
    4.156
   -3.278
   -9.391
  -14.387
  -13.643
  -12.294
  -12.735
   -4.393
    7.957
    9.446
    3.310
    0.743
    1.001
    0.673
    5.210
   10.509
    8.176
    8.312
   12.322
    6.720
   -0.342
    1.555
   -0.190
   -5.917
   -3.803
   -3.816
  -12.779
  -16.035
  -12.919
  -11.775
   -6.382
    1.152
    4.296
   10.788
   19.421
   17.741
    9.829
    8.931
    8.233
    0.050
   -4.274
   -5.958
  -12.965
  -14.393
   -7.328
   -4.855
   -4.268
    1.577
    0.620
   -5.865
   -1.589
    5.351
    1.760
   -2.549
    1.051
    3.765
    2.941
    5.253
    5.138
    1.285
    4.663
    8.849
    4.877
    4.710
    7.406
    0.207
   -7.106
   -6.354
   -7.702
  -12.336
  -12.748
  -10.910
   -8.966
   -1.424
    9.657
   14.861
   12.847
    7.915
    0.499
   -5.814
   -3.764
   -0.086
   -2.480
   -0.657
    8.423
    9.811
    0.706
   -1.521
    4.416
   -0.024
  -10.611
  -10.243
   -6.169
   -7.730
   -5.536
   -0.876
   -2.144
   -1.243
    3.234
    4.633
    6.476
    7.978
    3.200
   -2.515
   -3.244
   -2.047
    1.568
    1.570
   -6.208
   -4.629
    4.214
    0.766
   -2.701
    7.077
   12.350
    8.390
   10.550
   15.378
   10.180
   -1.181
   -8.785
  -11.631
  -12.367
  -13.345
  -16.371
  -15.029
   -4.824
    2.400
   -0.075
   -0.299
    4.451
    4.662
    3.538
    5.559
    4.355
    1.616
    4.458
    7.580
    5.279
    3.423
    3.573
    0.155
   -3.247
   -0.190
    1.448
   -4.217
   -5.669
   -1.293
   -1.860
   -4.178
   -2.428
   -0.933
   -1.585
   -1.316
   -1.671
   -4.788
   -5.004
   -2.481
   -3.687
   -1.970
    5.964
    7.848
    3.456
    2.253
    4.699
    7.383
    6.338
    2.022
   -0.926
   -0.315
    2.601
    0.255
   -7.863
   -8.398
   -1.947
   -3.125
   -8.095
   -3.862
    3.273
    1.767
   -1.521
    1.857
    4.380
    2.721
    3.211
    4.370
    3.848
    4.212
    2.981
   -0.249
   -0.758
   -0.599
   -3.516
   -5.991
   -4.530
   -2.839
   -4.835
   -6.372
   -3.520
    0.999
    3.921
    3.265
    0.201
   -0.398
    1.059
    0.301
   -0.007
    2.608
    3.264
    1.322
    2.279
    7.075
    9.179
    6.024
    3.917
    1.823
   -4.140
   -7.319
   -5.922
   -4.787
   -3.676
   -3.243
   -5.477
   -7.564
   -6.992
   -5.838
   -3.812
    2.308
    7.863
    6.996
    5.721
    8.901
    9.034
    3.904
    2.424
    2.042
   -2.699
   -2.819
   -0.813
   -5.811
   -6.426
    2.430
    5.915
    2.225
    2.785
    4.682
   -0.115
   -6.141
   -6.675
   -4.903
   -5.308
   -6.582
   -5.824
   -1.877
    1.954
   -0.365
   -3.257
    0.738
    2.483
    0.297
    4.519
    9.146
    6.521
    3.955
    4.617
    5.924
    6.523
    3.196
   -0.933
   -2.956
   -8.892
  -12.692
   -7.492
   -6.172
  -10.112
   -6.714
    0.372
    3.770
    7.248
   10.681
    7.888
    4.178
    7.528
    8.221
    1.629
   -2.279
   -3.917
   -6.393
   -5.707
   -3.190
   -3.660
   -6.091
   -4.679
   -0.760
   -1.919
   -4.126
    0.073
    3.765
    2.271
    2.355
    5.430
    7.853
   10.086
   10.961
    5.980
   -1.462
   -3.887
   -3.819
   -4.512
   -3.284
   -1.883
   -2.188
   -2.550
   -1.836
    0.471
    0.711
   -2.373
   -3.647
   -1.379
    0.873
    0.080
   -1.591
   -1.929
   -2.193
   -1.965
   -1.686
   -1.487
    1.179
    3.506
    2.465
    1.658
    1.673
    1.921
    3.852
    3.932
    1.487
    0.418
   -0.735
   -2.477
   -1.760
   -1.202
   -3.493
   -3.793
   -0.365
    1.597
    0.314
   -1.595
   -2.639
   -1.435
    2.258
    3.344
    0.067
   -0.191
    3.641
    3.042
   -0.097
    2.520
    3.758
   -2.843
   -6.280
   -3.749
   -3.450
   -2.408
    1.443
    2.459
    3.072
    5.956
    6.151
    3.019
   -0.604
   -4.400
   -5.977
   -4.288
   -3.453
   -4.744
   -5.638
   -4.086
   -0.388
    2.054
    3.245
    5.661
    6.649
    4.273
    2.302
    3.076
    4.306
    2.406
   -1.176
    0.235
    2.120
   -3.626
   -7.410
   -3.896
   -0.707
    0.869
    0.486
   -0.719
    0.745
    0.349
   -1.087
    2.577
    4.464
    0.163
   -1.354
    0.376
   -1.609
   -2.895
   -0.075
    0.237
   -0.834
   -0.402
   -2.465
   -4.464
   -4.191
   -4.237
   -2.729
