Origin Time       25/11/2007 23:12:20
Lat.              28.6 N 
Long.             77.0 E 
Depth (Km)         20.3
Magnitude         4.3
 Region           DELHI-HARYANA-BORDER-REGION                                      
 Above details taken from IMD 
   
Station Code       JAFR
Station Lat.       28.594
Station Long.      76.908
Station Height(m)  164.0
Site Class        C   Vs30 between 200 m/sec to 375 m/sec *  
Record Time        11/25/200 29) 23:12:16
Sampling Rate     100. Hz
 Record Duration   38.000 Sec.
 Direction         Vert. (Up positive)
Max. Acceleration  52.398 cm/sec**2
     
  * For reference see Site Classification link of website 
     
 Base Line Corrected and Low Pass Filtered (Cut Off at 35 Hz) Time History
 Acceleration data in cm/sec**2
    
[...]
   -0.001
    0.011
    0.017
    0.003
   -0.011
   -0.006
    0.006
    0.013
    0.005
   -0.009
   -0.005
    0.012
    0.026
    0.021
    0.001
   -0.015
   -0.014
    0.002
    0.019
    0.025
    0.008
   -0.019
   -0.027
   -0.014
    0.009
    0.016
   -0.001
   -0.006
    0.007
    0.011
    0.002
   -0.011
   -0.011
    0.002
    0.010
    0.014
    0.010
   -0.004
   -0.014
   -0.014
   -0.006
    0.004
    0.010
    0.014
    0.018
    0.019
    0.011
   -0.003
   -0.017
   -0.014
    0.003
    0.011
    0.007
   -0.003
   -0.005
    0.005
    0.000
   -0.004
   -0.002
   -0.002
    0.009
    0.010
   -0.003
   -0.007
    0.001
    0.003
    0.006
    0.005
   -0.007
   -0.006
    0.005
    0.007
    0.001
   -0.006
   -0.006
   -0.001
    0.003
    0.014
    0.017
    0.010
    0.006
    0.004
    0.004
    0.004
   -0.002
   -0.007
   -0.007
    0.004
    0.009
   -0.002
   -0.005
   -0.004
   -0.008
    0.006
    0.014
    0.002
   -0.002
    0.003
   -0.001
   -0.002
    0.003
    0.001
   -0.005
   -0.005
    0.004
    0.012
    0.006
   -0.005
   -0.007
   -0.002
    0.000
    0.001
    0.002
   -0.001
    0.002
    0.004
   -0.003
   -0.005
    0.002
    0.011
    0.012
    0.005
    0.000
   -0.001
   -0.001
   -0.002
    0.001
    0.000
    0.003
    0.007
   -0.003
    0.000
    0.009
   -0.002
   -0.004
    0.006
    0.002
   -0.009
   -0.008
   -0.002
   -0.001
    0.003
    0.002
    0.000
    0.012
    0.009
   -0.007
   -0.005
   -0.002
   -0.007
   -0.004
    0.003
    0.000
   -0.003
    0.001
    0.001
   -0.002
   -0.002
   -0.005
    0.000
    0.008
    0.006
    0.003
    0.002
    0.002
    0.000
   -0.001
    0.002
    0.001
   -0.002
    0.001
    0.001
   -0.002
    0.001
   -0.003
   -0.009
   -0.003
    0.000
   -0.002
    0.002
    0.000
   -0.008
   -0.008
   -0.001
    0.000
   -0.002
   -0.001
    0.004
    0.005
    0.002
    0.001
   -0.001
    0.000
    0.002
    0.004
    0.010
    0.007
   -0.001
   -0.003
    0.000
    0.002
    0.000
   -0.005
   -0.008
   -0.005
    0.003
    0.004
   -0.002
   -0.005
   -0.005
   -0.005
    0.000
    0.005
    0.004
   -0.001
   -0.003
    0.002
    0.002
   -0.002
    0.000
    0.008
    0.007
   -0.001
   -0.003
   -0.001
   -0.001
    0.002
    0.003
   -0.003
   -0.007
   -0.002
    0.008
    0.011
   -0.001
   -0.012
   -0.005
    0.005
    0.005
    0.004
    0.000
   -0.003
   -0.003
   -0.003
    0.002
   -0.001
   -0.006
    0.005
    0.008
    0.000
   -0.001
   -0.005
   -0.006
   -0.001
   -0.005
   -0.007
   -0.003
   -0.002
   -0.002
   -0.001
   -0.005
   -0.006
   -0.005
   -0.002
    0.003
    0.003
    0.002
    0.002
   -0.001
    0.000
    0.000
   -0.001
    0.000
   -0.001
   -0.003
    0.004
    0.008
    0.000
   -0.003
    0.003
   -0.004
   -0.005
    0.002
    0.000
    0.003
    0.006
   -0.001
   -0.002
    0.000
   -0.003
   -0.003
    0.001
    0.004
   -0.001
   -0.005
   -0.002
   -0.004
   -0.004
    0.005
    0.002
    0.000
    0.004
    0.001
   -0.002
   -0.005
   -0.007
   -0.001
    0.002
    0.004
    0.008
    0.006
    0.002
    0.003
    0.006
    0.000
   -0.005
    0.001
    0.003
    0.006
    0.009
   -0.001
   -0.005
   -0.004
   -0.006
   -0.001
    0.000
    0.000
    0.006
    0.002
    0.001
    0.005
    0.003
    0.002
    0.001
   -0.004
   -0.002
   -0.001
   -0.008
   -0.008
    0.001
    0.002
   -0.006
   -0.002
    0.002
   -0.007
   -0.009
    0.002
    0.008
    0.004
   -0.007
   -0.013
   -0.003
    0.004
    0.004
    0.005
   -0.002
   -0.006
   -0.003
   -0.005
   -0.003
    0.002
    0.000
    0.004
    0.018
    0.013
   -0.005
   -0.011
   -0.009
   -0.007
    0.003
    0.011
    0.004
   -0.004
   -0.002
    0.007
    0.002
   -0.017
   -0.019
   -0.002
    0.009
    0.012
    0.011
    0.000
   -0.006
   -0.002
   -0.001
    0.007
    0.010
   -0.005
   -0.009
   -0.004
   -0.005
   -0.006
   -0.003
    0.001
    0.004
    0.005
    0.007
    0.001
   -0.008
   -0.010
   -0.003
    0.004
    0.012
    0.011
   -0.001
   -0.003
    0.003
    0.004
    0.004
   -0.003
   -0.007
   -0.003
   -0.002
   -0.002
    0.007
    0.010
   -0.004
   -0.011
    0.001
    0.006
   -0.002
   -0.005
   -0.003
    0.001
    0.001
   -0.001
   -0.002
   -0.006
   -0.007
   -0.002
    0.008
    0.016
    0.009
   -0.008
   -0.021
   -0.011
    0.008
    0.012
    0.005
    0.000
   -0.003
   -0.004
   -0.005
   -0.012
   -0.010
    0.005
    0.013
    0.017
    0.011
   -0.005
   -0.012
   -0.007
    0.006
    0.014
    0.008
   -0.005
   -0.010
   -0.004
    0.010
    0.014
    0.004
   -0.002
    0.001
    0.000
   -0.005
   -0.008
   -0.004
    0.002
    0.003
    0.004
    0.004
   -0.006
   -0.011
    0.002
    0.014
    0.013
    0.002
   -0.011
   -0.017
   -0.009
    0.012
    0.021
    0.014
    0.001
   -0.008
   -0.005
   -0.003
   -0.004
    0.003
    0.004
   -0.005
   -0.010
   -0.007
   -0.002
    0.000
    0.000
    0.000
    0.006
    0.009
    0.001
   -0.003
   -0.003
   -0.004
   -0.004
    0.002
    0.010
    0.007
   -0.003
   -0.003
   -0.001
   -0.005
   -0.002
    0.003
   -0.003
   -0.007
    0.001
    0.007
    0.004
    0.002
    0.001
    0.003
    0.002
   -0.004
   -0.003
   -0.006
   -0.011
    0.002
    0.008
    0.004
    0.002
   -0.006
   -0.009
   -0.001
    0.002
    0.001
    0.001
   -0.002
   -0.005
    0.000
    0.001
   -0.001
    0.003
    0.002
   -0.003
   -0.004
   -0.005
   -0.004
    0.000
   -0.001
    0.000
    0.006
    0.002
    0.001
    0.005
   -0.003
   -0.008
   -0.004
    0.000
    0.002
   -0.004
   -0.006
    0.002
    0.004
   -0.005
   -0.001
    0.010
    0.007
    0.000
   -0.005
   -0.010
   -0.003
    0.004
    0.001
    0.003
    0.004
   -0.002
    0.000
    0.003
   -0.001
   -0.008
   -0.008
    0.000
    0.004
    0.001
   -0.005
   -0.008
   -0.003
   -0.001
   -0.001
    0.005
    0.008
    0.002
   -0.010
   -0.017
   -0.012
   -0.001
    0.005
    0.005
    0.006
    0.000
   -0.012
   -0.011
   -0.002
    0.004
    0.008
    0.003
   -0.004
   -0.005
   -0.007
   -0.006
    0.000
    0.005
    0.006
    0.003
   -0.007
   -0.009
    0.003
    0.010
   -0.001
   -0.014
   -0.010
   -0.002
    0.005
    0.008
    0.005
   -0.002
   -0.005
   -0.003
   -0.003
   -0.006
    0.002
    0.011
    0.008
    0.004
    0.002
   -0.005
   -0.005
   -0.003
   -0.003
    0.007
    0.018
    0.008
   -0.007
   -0.007
   -0.004
   -0.005
   -0.005
    0.002
    0.011
    0.011
    0.006
   -0.001
   -0.007
   -0.009
   -0.001
    0.012
    0.008
   -0.009
   -0.007
    0.009
    0.002
   -0.010
   -0.004
    0.000
   -0.003
   -0.002
    0.004
    0.011
    0.005
   -0.009
   -0.014
   -0.009
    0.000
    0.009
    0.000
   -0.007
    0.002
    0.009
    0.007
    0.004
    0.001
   -0.005
   -0.007
    0.004
    0.016
    0.005
   -0.003
    0.007
    0.003
   -0.015
   -0.015
    0.000
    0.006
    0.007
    0.009
    0.001
   -0.007
   -0.006
    0.000
    0.005
    0.007
    0.009
    0.010
    0.002
   -0.012
   -0.014
   -0.005
    0.003
    0.007
    0.010
    0.009
    0.001
   -0.002
   -0.001
   -0.006
   -0.007
   -0.008
   -0.006
    0.011
    0.020
    0.011
   -0.002
   -0.013
   -0.016
   -0.006
    0.007
    0.008
    0.001
    0.003
    0.003
   -0.010
   -0.009
    0.008
    0.003
   -0.011
   -0.006
   -0.001
   -0.001
    0.003
    0.005
    0.003
   -0.001
   -0.005
   -0.002
    0.000
   -0.004
   -0.004
    0.002
    0.005
    0.003
   -0.004
   -0.004
   -0.001
    0.000
    0.002
    0.001
   -0.002
    0.001
   -0.002
   -0.018
   -0.022
    0.002
    0.016
    0.009
    0.006
   -0.002
   -0.009
   -0.001
    0.001
   -0.004
    0.006
    0.007
   -0.011
   -0.014
    0.001
    0.004
   -0.003
   -0.006
   -0.003
   -0.002
   -0.006
   -0.011
   -0.002
    0.012
    0.011
   -0.005
   -0.007
    0.005
   -0.001
   -0.014
   -0.005
    0.008
    0.006
    0.001
    0.001
   -0.004
   -0.017
   -0.018
   -0.001
    0.015
    0.007
   -0.009
   -0.009
    0.003
    0.004
   -0.006
   -0.009
    0.003
    0.014
    0.013
    0.003
   -0.007
   -0.010
   -0.010
   -0.001
    0.008
    0.002
    0.001
    0.008
    0.003
   -0.004
   -0.005
   -0.010
   -0.009
   -0.003
   -0.003
   -0.002
   -0.010
   -0.013
    0.007
    0.010
   -0.009
   -0.010
    0.000
   -0.001
   -0.008
   -0.005
    0.002
    0.002
    0.001
    0.005
    0.003
   -0.005
   -0.012
   -0.011
   -0.004
    0.007
    0.013
   -0.002
   -0.015
   -0.005
    0.001
   -0.007
   -0.007
    0.003
    0.008
    0.002
   -0.005
   -0.004
   -0.002
   -0.008
   -0.006
   -0.001
   -0.006
   -0.005
    0.001
    0.002
   -0.001
    0.000
    0.002
   -0.008
   -0.012
    0.006
    0.013
    0.003
   -0.002
   -0.005
   -0.006
   -0.002
   -0.006
   -0.010
   -0.001
    0.004
   -0.005
   -0.011
   -0.001
    0.006
   -0.001
   -0.006
   -0.003
    0.005
    0.005
   -0.004
   -0.003
    0.004
    0.003
   -0.003
    0.003
    0.009
    0.004
    0.003
    0.008
    0.004
   -0.033
   -0.035
    0.014
    0.083
    0.070
   -0.070
    0.056
    0.272
    0.206
   -0.199
   -0.354
    0.503
    0.419
   -0.980
   -0.961
    0.729
    1.091
   -1.457
   -1.521
    1.663
    1.535
   -1.045
   -2.083
    1.150
    3.978
   -1.391
   -4.416
    1.290
    3.135
   -0.439
   -2.079
   -0.060
    2.199
   -0.735
   -1.611
    2.626
    1.121
   -2.591
   -2.466
    0.135
    3.774
    1.484
   -2.234
   -0.530
    0.672
    1.651
    1.656
   -1.131
   -0.409
    0.287
   -2.593
   -3.505
   -1.238
    2.981
    1.916
   -3.134
   -1.155
    0.946
   -0.089
    1.567
    2.105
    0.577
   -2.104
   -3.240
   -0.240
    2.210
    2.481
    0.757
   -2.092
   -1.442
    1.987
    4.260
    3.254
   -2.065
   -4.912
   -1.781
   -0.298
    0.549
    3.615
    1.415
   -3.951
   -3.117
    1.343
    2.495
    0.555
    1.075
    2.334
   -2.521
   -5.440
   -1.262
    1.472
    2.166
    1.689
   -0.199
   -1.044
   -1.215
    1.357
    3.739
   -1.177
   -5.751
   -1.144
    3.750
    2.520
    0.547
   -0.207
   -1.320
   -0.942
    1.415
   -0.402
   -3.747
    0.127
    3.593
    1.633
    0.558
   -1.098
   -2.662
   -0.862
    1.302
    1.742
   -0.531
   -1.871
    0.379
    2.296
    1.523
   -2.184
   -2.396
    0.525
   -2.143
   -3.047
    1.073
    2.436
    2.854
    2.930
    1.590
   -0.280
   -2.693
   -1.877
    0.719
    1.375
    0.299
   -3.345
   -3.535
    3.117
    5.923
    0.257
   -3.644
   -0.411
    1.533
   -1.625
   -3.240
   -0.318
    2.634
    1.284
   -1.701
   -2.649
   -0.086
    3.745
    1.389
   -2.434
   -0.881
   -0.719
   -0.951
    1.164
    1.535
    1.325
   -0.465
   -2.177
    0.893
    3.179
    1.720
    0.176
   -0.395
    0.011
   -1.507
   -3.739
   -0.583
    2.825
    0.065
   -3.419
   -2.647
    2.357
    5.656
    1.260
   -2.883
   -2.151
   -1.937
   -0.771
    0.593
    0.796
    1.797
    0.468
   -0.779
    0.860
    3.039
    3.345
   -1.642
   -4.432
   -0.321
    1.343
   -1.010
   -3.413
   -1.520
    2.747
   -0.121
   -1.362
    4.530
    2.802
   -2.249
    1.216
    2.471
   -2.769
   -3.079
    0.648
    0.727
   -2.047
   -1.533
    2.649
    2.335
   -0.015
    0.111
   -1.323
   -0.471
    2.358
    0.332
   -1.613
   -1.059
   -2.215
   -0.231
    2.897
   -0.477
   -4.266
   -3.765
    1.215
    6.082
    2.093
   -2.514
   -0.095
    1.894
    1.316
    0.126
   -1.028
   -1.703
   -2.400
   -0.880
    0.913
    0.966
    2.293
    1.314
   -1.268
    0.445
    0.588
   -3.021
   -1.203
    3.429
    0.574
   -2.753
    0.947
    1.482
   -1.553
    0.996
    2.716
    0.122
    0.491
    0.278
   -3.182
   -2.964
   -0.061
    1.047
    1.324
    0.449
   -2.725
   -4.361
   -0.839
    2.501
    1.301
    0.873
    2.457
    0.627
   -3.036
   -2.203
    1.051
    1.888
    2.425
    1.824
   -0.274
   -0.040
   -1.777
   -3.182
    2.020
    3.495
   -0.112
    0.855
    1.369
   -0.976
   -0.247
    1.314
    0.502
   -2.171
   -4.476
   -3.015
   -0.144
    0.604
    0.142
   -0.684
   -0.344
    0.460
   -2.267
   -1.837
    5.337
    3.964
   -2.722
    1.519
    6.115
    0.180
   -6.304
   -3.349
    3.402
    3.543
    0.004
   -2.612
   -3.608
   -1.167
    2.239
    3.932
    0.962
   -3.964
   -2.791
   -1.006
   -1.177
    2.556
    3.226
   -1.801
   -3.305
    1.319
    4.556
    0.530
   -1.093
    3.493
    1.027
   -4.102
   -0.695
    1.531
   -1.571
    0.356
    5.746
    1.322
   -7.461
   -2.375
    6.542
    0.766
   -6.862
   -3.360
    0.143
   -0.944
    0.103
    0.720
   -1.511
   -0.077
    4.305
    4.008
    1.101
   -0.930
   -2.160
   -0.203
    0.754
   -1.189
   -0.489
    1.534
    1.619
    0.447
   -0.585
   -0.991
   -0.608
    1.162
    0.181
   -4.041
   -1.071
    6.069
    2.520
   -2.182
    3.497
    2.291
   -7.010
   -4.101
    3.583
    2.033
   -1.455
   -2.793
   -3.324
   -0.628
    2.690
    1.753
    1.970
    3.092
   -4.285
   -8.126
   -0.492
    2.922
    2.462
    3.090
   -0.647
   -1.535
    1.166
   -1.059
   -0.427
    3.521
    2.056
   -0.145
    0.883
    3.405
    3.193
   -1.467
   -6.502
   -8.548
   -2.750
    4.494
    1.067
   -2.094
    5.085
    6.633
   -4.107
  -10.993
  -10.785
   -9.466
    0.258
   10.717
    9.786
   12.287
   16.101
    4.063
  -11.171
  -14.712
  -14.432
  -17.813
  -23.038
  -29.981
  -35.799
  -29.549
   -1.991
   33.285
   51.121
   52.398
   45.694
   35.875
   31.894
   23.571
    6.176
   -1.569
   -3.199
  -15.513
  -26.937
  -27.248
  -28.790
  -32.598
  -25.935
  -14.025
  -11.629
   -4.277
   18.915
   33.940
   36.377
   31.653
   14.035
   -1.947
  -12.398
  -21.434
  -23.041
  -26.351
  -27.297
  -10.434
   12.332
   20.664
   16.818
   15.026
   12.740
    9.169
   11.525
   11.434
    8.122
    1.203
  -16.801
  -30.542
  -30.757
  -22.454
  -10.729
   -8.912
   -8.614
    1.189
    5.625
    6.882
   12.278
   13.086
   15.097
   19.703
   11.726
    0.942
    6.595
   11.990
    1.761
   -4.993
   -4.556
  -11.345
  -16.375
  -12.131
   -6.991
   -3.939
   -4.453
   -5.563
   -2.443
    1.239
    6.667
   11.404
    4.138
   -3.663
    2.889
    6.057
    2.743
   11.075
   15.686
    4.473
   -5.902
   -7.530
   -2.392
   -4.258
  -13.072
   -6.543
    4.819
    5.024
    4.576
    0.991
   -4.795
   -2.963
   -2.933
   -5.181
   -2.574
    0.168
    0.547
   -2.058
   -0.750
    5.246
    5.560
    8.396
   17.388
   16.072
    7.153
    6.185
    4.599
   -6.272
  -11.462
   -8.756
  -12.508
  -21.591
  -26.049
  -23.704
  -16.317
   -4.172
    9.379
   17.338
   17.963
   13.987
    8.886
    4.766
   -0.092
   -4.258
   -2.497
    1.607
   -1.652
   -7.529
   -4.676
    0.442
    1.252
    6.193
   12.996
   13.684
   12.868
    8.834
   -2.049
  -11.518
  -16.438
  -18.955
  -18.815
  -17.035
  -11.840
   -0.927
   12.365
   19.595
   14.774
    5.124
   -1.107
   -1.261
    8.644
   19.379
   18.180
    9.397
    1.249
   -4.492
   -7.888
   -5.052
    1.498
   -1.170
  -11.510
  -15.114
  -13.189
  -12.861
  -12.350
  -15.029
  -15.060
   -0.936
   12.163
   12.969
   11.572
   13.029
   19.358
   25.623
   20.484
    5.866
   -4.615
   -2.032
    2.551
   -2.825
   -9.523
  -14.863
  -20.799
  -16.902
   -6.198
   -1.250
   -0.029
    2.147
    1.206
   -4.369
   -3.175
    6.376
    7.209
    0.815
    2.222
    5.756
    3.131
    0.449
    0.495
    1.517
    0.464
   -3.579
   -1.144
    4.367
    0.338
   -3.158
    3.216
    8.810
    4.114
   -7.293
  -13.799
  -12.921
   -9.963
   -6.215
   -3.131
    1.106
    6.167
    6.690
    8.122
   14.316
   15.846
    9.854
    3.670
    0.736
    0.642
    2.441
    2.451
   -0.826
   -3.164
   -0.365
    5.197
    3.659
   -5.949
  -11.363
  -13.512
  -15.731
   -7.356
    1.869
   -3.784
   -8.498
   -2.035
    2.698
    3.551
    6.563
    9.639
    9.296
    5.716
    4.438
    6.245
    2.714
   -3.049
   -1.783
   -0.231
   -5.223
   -6.811
   -1.982
   -1.005
   -2.410
   -3.081
   -6.159
   -6.395
   -2.299
    0.240
    1.420
    3.353
    4.148
    4.044
    2.321
   -2.629
   -1.560
    5.301
    4.394
    1.246
    4.974
    6.813
    2.393
   -0.799
   -1.073
   -4.870
   -9.917
   -9.626
   -8.677
   -8.030
   -2.925
    2.817
    8.096
   11.098
    6.338
    1.450
    0.763
   -1.583
   -1.555
    3.327
    5.572
    2.403
   -1.369
   -0.083
    1.540
   -2.753
   -4.049
   -2.406
   -7.866
  -11.006
   -4.517
    1.950
    5.663
   10.564
   12.238
    6.145
    1.442
    1.945
   -1.625
   -5.024
   -1.569
    0.379
   -0.650
   -0.006
    0.560
    0.818
   -0.001
   -4.636
   -9.200
   -8.287
   -5.081
   -3.172
   -0.087
    3.538
    4.138
    2.015
    1.103
    1.379
   -2.089
   -6.494
   -4.944
   -1.148
   -1.602
   -2.514
    0.872
    5.448
    8.335
    9.292
    8.655
    7.386
    3.733
   -1.631
   -2.235
    0.570
   -1.816
   -4.855
   -1.231
    0.243
   -5.332
   -8.539
   -2.911
    3.440
    0.556
   -3.359
   -1.797
   -1.702
   -0.420
    3.515
    1.504
   -3.354
   -2.869
    1.565
    3.658
    1.829
    1.262
   -0.260
   -3.727
   -1.700
    0.487
   -0.551
    2.459
    6.865
    9.027
    7.757
    3.159
    1.774
    2.582
   -0.285
   -5.203
   -7.103
   -4.788
   -2.828
   -2.887
   -1.178
    2.589
    2.538
   -1.955
   -2.427
    1.069
   -0.086
   -3.000
   -0.803
    0.146
   -2.735
   -2.806
   -2.215
   -1.762
    1.789
    3.572
    1.488
    0.200
    0.578
    0.712
    1.119
    1.306
    1.446
    3.255
    4.427
    4.097
    3.482
    2.299
    1.258
   -0.730
   -4.094
   -6.485
   -6.518
   -4.558
   -1.979
    0.699
    0.794
   -1.940
   -2.539
   -1.642
   -1.060
    1.044
    4.376
    5.616
    2.316
   -0.504
    1.125
    1.641
   -0.613
   -0.993
   -1.405
   -2.966
   -0.839
    1.693
    1.229
    3.676
    6.308
    1.431
   -3.460
   -0.849
    0.732
   -2.694
   -2.927
   -0.525
   -1.273
   -1.004
    0.890
   -0.685
   -2.748
   -1.235
    1.650
    1.375
   -0.395
    0.378
   -0.748
   -3.130
   -0.850
    3.275
    6.104
    6.297
    4.129
    2.385
   -0.328
   -3.895
   -5.598
   -5.165
   -3.707
   -3.152
   -2.215
    2.115
    7.854
    9.438
    6.142
    2.665
    0.345
   -1.163
   -1.664
   -2.849
   -3.856
   -3.492
   -3.352
   -3.248
   -2.765
   -3.565
   -5.482
   -4.838
    0.460
    4.649
    1.587
   -2.900
   -2.225
   -0.778
   -1.158
   -0.350
    0.297
   -2.052
   -3.636
   -0.329
    3.963
    5.554
    5.719
    5.427
    6.149
    7.504
    5.346
    2.151
    3.001
    1.026
   -6.671
   -9.624
   -4.955
   -1.245
   -3.712
   -5.672
   -2.027
    0.677
    0.783
    2.176
    2.774
    1.572
    1.007
    0.662
   -0.464
   -0.501
    1.797
    0.816
   -4.150
   -2.946
    0.947
   -0.277
    0.852
    3.484
    2.138
    2.494
    3.117
    0.460
   -0.551
    0.374
    0.368
   -1.735
   -4.578
   -4.254
   -1.999
   -1.504
   -2.413
   -1.209
    2.607
    4.025
    3.317
    3.919
    5.300
    6.002
    2.249
   -4.120
   -6.817
   -4.902
   -1.932
   -2.558
   -2.981
   -2.257
   -4.316
   -2.566
    3.448
    6.221
    4.075
    1.219
    2.991
    4.702
    2.263
   -0.218
   -1.326
   -1.382
