Origin Time       05/3/2012 07:41:05	
Lat.              28.7 N	
Long.             76.6 E	
Depth (Km)         14.0
Magnitude         4.9
 Region           Haryana-Delhi-Border-Region                                      
 Above details taken from IMD 
   
Station Code       ZAKI
Station Lat.       28.640
Station Long.      77.230
Station Height(m)  101.0
Site Class        C   Vs30 between 200 m/sec to 375 m/sec *  
Record Time        1/1/1980  19:34:39.000
Sampling Rate     200. Hz
 Record Duration   97.000 Sec.
 Direction         Vert. (Up positive)
Max. Acceleration   7.233 cm/sec**2
     
  * For reference see Site Classification link of website 
     
 Base Line Corrected and Low Pass Filtered (Cut Off at 35 Hz) Time History
 Acceleration data in cm/sec**2
    
[...]
    0.203
    0.701
    1.067
    1.320
    1.482
    1.559
    1.534
    1.371
    1.053
    0.616
    0.152
   -0.258
   -0.603
   -0.938
   -1.303
   -1.659
   -1.893
   -1.919
   -1.748
   -1.458
   -1.102
   -0.665
   -0.122
    0.471
    0.960
    1.196
    1.170
    1.040
    1.019
    1.193
    1.438
    1.510
    1.236
    0.646
   -0.047
   -0.611
   -0.951
   -1.135
   -1.283
   -1.427
   -1.475
   -1.301
   -0.878
   -0.323
    0.183
    0.514
    0.657
    0.685
    0.680
    0.676
    0.645
    0.537
    0.328
    0.056
   -0.194
   -0.333
   -0.325
   -0.214
   -0.110
   -0.122
   -0.288
   -0.548
   -0.773
   -0.840
   -0.687
   -0.352
    0.056
    0.419
    0.657
    0.740
    0.667
    0.446
    0.115
   -0.229
   -0.447
   -0.425
   -0.155
    0.235
    0.566
    0.721
    0.728
    0.718
    0.795
    0.934
    0.979
    0.757
    0.210
   -0.551
   -1.309
   -1.869
   -2.150
   -2.177
   -1.995
   -1.625
   -1.078
   -0.425
    0.196
    0.648
    0.889
    0.999
    1.105
    1.267
    1.422
    1.451
    1.298
    1.018
    0.705
    0.396
    0.063
   -0.315
   -0.669
   -0.862
   -0.798
   -0.519
   -0.195
   -0.005
   -0.002
   -0.084
   -0.088
    0.075
    0.345
    0.564
    0.579
    0.335
   -0.105
   -0.596
   -0.985
   -1.171
   -1.139
   -0.933
   -0.625
   -0.285
    0.024
    0.250
    0.362
    0.367
    0.306
    0.244
    0.229
    0.273
    0.350
    0.416
    0.432
    0.373
    0.242
    0.075
   -0.064
   -0.100
    0.019
    0.291
    0.632
    0.889
    0.892
    0.549
   -0.069
   -0.722
   -1.098
   -0.980
   -0.383
    0.441
    1.133
    1.419
    1.231
    0.711
    0.112
   -0.353
   -0.597
   -0.668
   -0.677
   -0.716
   -0.818
   -0.953
   -1.058
   -1.067
   -0.948
   -0.720
   -0.428
   -0.114
    0.194
    0.466
    0.657
    0.726
    0.660
    0.498
    0.305
    0.143
    0.037
   -0.024
   -0.051
   -0.033
    0.066
    0.272
    0.568
    0.870
    1.061
    1.037
    0.775
    0.359
   -0.063
   -0.359
   -0.491
   -0.517
   -0.526
   -0.544
   -0.513
   -0.359
   -0.089
    0.169
    0.244
    0.047
   -0.343
   -0.718
   -0.853
   -0.655
   -0.205
    0.302
    0.686
    0.873
    0.899
    0.842
    0.763
    0.675
    0.538
    0.296
   -0.067
   -0.495
   -0.888
   -1.177
   -1.342
   -1.371
   -1.212
   -0.801
   -0.171
    0.499
    0.949
    1.015
    0.754
    0.417
    0.260
    0.351
    0.529
    0.555
    0.325
   -0.040
   -0.302
   -0.310
   -0.133
    0.022
   -0.005
   -0.182
   -0.336
   -0.320
   -0.152
    0.025
    0.088
    0.055
    0.055
    0.175
    0.341
    0.362
    0.105
   -0.365
   -0.812
   -1.002
   -0.867
   -0.535
   -0.206
    0.001
    0.095
    0.148
    0.187
    0.171
    0.074
   -0.027
    0.024
    0.341
    0.864
    1.358
    1.544
    1.259
    0.536
   -0.428
   -1.378
   -2.085
   -2.396
   -2.250
   -1.687
   -0.833
    0.122
    0.969
    1.525
    1.697
    1.515
    1.137
    0.790
    0.651
    0.742
    0.896
    0.848
    0.419
   -0.337
   -1.131
   -1.627
   -1.661
   -1.334
   -0.910
   -0.624
   -0.563
   -0.662
   -0.790
   -0.814
   -0.629
   -0.188
    0.470
    1.205
    1.817
    2.133
    2.089
    1.743
    1.209
    0.578
   -0.120
   -0.857
   -1.551
   -2.050
   -2.202
   -1.961
   -1.420
   -0.761
   -0.148
    0.340
    0.698
    0.945
    1.093
    1.156
    1.161
    1.136
    1.086
    0.969
    0.721
    0.305
   -0.233
   -0.762
   -1.121
   -1.197
   -0.984
   -0.578
   -0.129
    0.222
    0.378
    0.305
    0.040
   -0.306
   -0.569
   -0.595
   -0.317
    0.199
    0.775
    1.195
    1.312
    1.121
    0.755
    0.391
    0.139
   -0.004
   -0.105
   -0.219
   -0.359
   -0.530
   -0.757
   -1.070
   -1.444
   -1.758
   -1.822
   -1.481
   -0.718
    0.312
    1.340
    2.088
    2.361
    2.111
    1.461
    0.671
    0.033
   -0.256
   -0.186
    0.076
    0.293
    0.288
    0.037
   -0.342
   -0.679
   -0.861
   -0.884
   -0.831
   -0.796
   -0.811
   -0.824
   -0.731
   -0.452
    0.013
    0.565
    1.057
    1.374
    1.474
    1.374
    1.096
    0.661
    0.127
   -0.372
   -0.676
   -0.715
   -0.587
   -0.497
   -0.605
   -0.888
   -1.167
   -1.248
   -1.072
   -0.737
   -0.398
   -0.133
    0.094
    0.354
    0.630
    0.816
    0.828
    0.726
    0.697
    0.892
    1.263
    1.563
    1.529
    1.086
    0.411
   -0.207
   -0.576
   -0.702
   -0.731
   -0.801
   -0.936
   -1.058
   -1.100
   -1.091
   -1.137
   -1.285
   -1.421
   -1.304
   -0.753
    0.184
    1.217
    1.984
    2.277
    2.130
    1.737
    1.286
    0.852
    0.429
    0.023
   -0.315
   -0.548
   -0.723
   -0.958
   -1.332
   -1.773
   -2.060
   -1.960
   -1.401
   -0.543
    0.313
    0.918
    1.212
    1.317
    1.402
    1.542
    1.678
    1.694
    1.513
    1.146
    0.652
    0.084
   -0.515
   -1.096
   -1.594
   -1.941
   -2.090
   -2.024
   -1.750
   -1.314
   -0.809
   -0.356
   -0.034
    0.178
    0.392
    0.718
    1.140
    1.504
    1.615
    1.392
    0.936
    0.445
    0.059
   -0.204
   -0.393
   -0.512
   -0.489
   -0.264
    0.109
    0.436
    0.499
    0.213
   -0.287
   -0.700
   -0.736
   -0.302
    0.423
    1.078
    1.331
    1.081
    0.511
   -0.061
   -0.391
   -0.441
   -0.339
   -0.236
   -0.193
   -0.180
   -0.175
   -0.220
   -0.380
   -0.646
   -0.888
   -0.936
   -0.733
   -0.394
   -0.124
   -0.033
   -0.015
    0.168
    0.656
    1.319
    1.807
    1.807
    1.279
    0.465
   -0.304
   -0.833
   -1.129
   -1.273
   -1.273
   -1.032
   -0.493
    0.210
    0.770
    0.904
    0.582
    0.062
   -0.289
   -0.244
    0.161
    0.684
    1.054
    1.113
    0.854
    0.373
   -0.202
   -0.751
   -1.198
   -1.522
   -1.747
   -1.888
   -1.904
   -1.719
   -1.301
   -0.725
   -0.144
    0.335
    0.740
    1.197
    1.763
    2.309
    2.573
    2.351
    1.655
    0.699
   -0.230
   -0.896
   -1.147
   -0.914
   -0.263
    0.531
    1.033
    0.868
    0.002
   -1.157
   -1.993
   -2.074
   -1.404
   -0.342
    0.678
    1.371
    1.635
    1.470
    0.943
    0.227
   -0.413
   -0.743
   -0.722
   -0.540
   -0.451
   -0.561
   -0.759
   -0.850
   -0.727
   -0.427
   -0.051
    0.320
    0.636
    0.846
    0.894
    0.794
    0.666
    0.665
    0.822
    0.967
    0.853
    0.390
   -0.243
   -0.727
   -0.855
   -0.663
   -0.359
   -0.144
   -0.105
   -0.227
   -0.467
   -0.774
   -1.059
   -1.174
   -0.974
   -0.424
    0.336
    1.051
    1.483
    1.537
    1.280
    0.868
    0.447
    0.107
   -0.132
   -0.300
   -0.470
   -0.711
   -1.026
   -1.307
   -1.378
   -1.099
   -0.475
    0.322
    1.030
    1.434
    1.476
    1.244
    0.872
    0.435
   -0.059
   -0.592
   -1.090
   -1.453
   -1.620
   -1.587
   -1.390
   -1.061
   -0.628
   -0.135
    0.347
    0.746
    1.023
    1.187
    1.266
    1.256
    1.111
    0.776
    0.253
   -0.363
   -0.904
   -1.207
   -1.186
   -0.881
   -0.437
   -0.046
    0.143
    0.100
   -0.061
   -0.147
   -0.002
    0.395
    0.916
    1.375
    1.628
    1.619
    1.356
    0.884
    0.276
   -0.354
   -0.866
   -1.170
   -1.313
   -1.460
   -1.745
   -2.109
   -2.279
   -1.973
   -1.149
   -0.068
    0.872
    1.417
    1.588
    1.582
    1.547
    1.461
    1.207
    0.751
    0.220
   -0.194
   -0.405
   -0.497
   -0.621
   -0.830
   -1.008
   -0.953
   -0.561
    0.074
    0.708
    1.116
    1.216
    1.072
    0.791
    0.439
    0.050
   -0.298
   -0.436
   -0.179
    0.502
    1.352
    1.901
    1.739
    0.818
   -0.467
   -1.516
   -1.916
   -1.698
   -1.266
   -1.052
   -1.184
   -1.427
   -1.418
   -0.981
   -0.241
    0.527
    1.126
    1.529
    1.781
    1.845
    1.581
    0.897
   -0.089
   -1.058
   -1.673
   -1.795
   -1.533
   -1.109
   -0.669
   -0.223
    0.264
    0.739
    1.046
    1.061
    0.841
    0.619
    0.612
    0.816
    0.983
    0.833
    0.303
   -0.394
   -0.953
   -1.233
   -1.350
   -1.514
   -1.796
   -2.027
   -1.957
   -1.488
   -0.770
   -0.059
    0.503
    0.968
    1.454
    1.946
    2.245
    2.138
    1.625
    0.960
    0.462
    0.263
    0.224
    0.079
   -0.317
   -0.873
   -1.348
   -1.552
   -1.477
   -1.255
   -0.993
   -0.670
   -0.189
    0.464
    1.135
    1.606
    1.793
    1.852
    2.034
    2.420
    2.772
    2.689
    1.956
    0.764
   -0.402
   -1.127
   -1.355
   -1.358
   -1.449
   -1.700
   -1.925
   -1.877
   -1.468
   -0.804
   -0.055
    0.678
    1.345
    1.847
    2.021
    1.784
    1.282
    0.858
    0.808
    1.123
    1.457
    1.376
    0.697
   -0.365
   -1.362
   -1.940
   -2.060
   -1.928
   -1.751
   -1.542
   -1.161
   -0.510
    0.317
    1.077
    1.550
    1.672
    1.512
    1.144
    0.564
   -0.254
   -1.229
   -2.125
   -2.656
   -2.680
   -2.317
   -1.882
   -1.662
   -1.701
   -1.757
   -1.485
   -0.711
    0.410
    1.465
    2.037
    1.950
    1.357
    0.620
    0.098
   -0.021
    0.236
    0.658
    0.941
    0.805
    0.140
   -0.884
   -1.847
   -2.283
   -1.977
   -1.132
   -0.246
    0.241
    0.261
    0.123
    0.201
    0.602
    1.122
    1.491
    1.644
    1.736
    1.911
    2.088
    2.001
    1.436
    0.451
   -0.647
   -1.536
   -2.105
   -2.454
   -2.682
   -2.702
   -2.279
   -1.278
    0.106
    1.363
    1.950
    1.646
    0.715
   -0.256
   -0.720
   -0.504
    0.123
    0.691
    0.876
    0.713
    0.508
    0.540
    0.819
    1.078
    1.004
    0.488
   -0.287
   -0.980
   -1.323
   -1.254
   -0.904
   -0.462
   -0.073
    0.180
    0.249
    0.103
   -0.253
   -0.765
   -1.324
   -1.785
   -1.994
   -1.823
   -1.224
   -0.270
    0.838
    1.816
    2.392
    2.427
    1.999
    1.377
    0.893
    0.751
    0.917
    1.161
    1.217
    0.956
    0.423
   -0.242
   -0.918
   -1.528
   -2.001
   -2.253
   -2.220
   -1.895
   -1.309
   -0.482
    0.565
    1.739
    2.794
    3.384
    3.270
    2.533
    1.598
    0.966
    0.852
    1.009
    0.916
    0.184
   -1.143
   -2.619
   -3.716
   -4.163
   -4.042
   -3.632
   -3.155
   -2.659
   -2.084
   -1.398
   -0.664
    0.030
    0.682
    1.413
    2.358
    3.511
    4.634
    5.346
    5.341
    4.579
    3.317
    1.948
    0.768
   -0.164
   -0.984
   -1.824
   -2.643
   -3.202
   -3.230
   -2.643
   -1.646
   -0.642
   -0.011
    0.083
   -0.262
   -0.779
   -1.182
   -1.266
   -0.957
   -0.300
    0.564
    1.435
    2.110
    2.423
    2.280
    1.683
    0.752
   -0.291
   -1.181
   -1.706
   -1.764
   -1.371
   -0.619
    0.341
    1.295
    1.990
    2.200
    1.843
    1.040
    0.077
   -0.725
   -1.169
   -1.256
   -1.147
   -1.017
   -0.920
   -0.777
   -0.488
   -0.083
    0.251
    0.303
    0.018
   -0.440
   -0.797
   -0.882
   -0.766
   -0.727
   -1.034
   -1.709
   -2.452
   -2.803
   -2.441
   -1.411
   -0.122
    0.891
    1.287
    1.104
    0.699
    0.501
    0.739
    1.341
    2.033
    2.521
    2.634
    2.357
    1.789
    1.091
    0.463
    0.088
    0.046
    0.229
    0.360
    0.139
   -0.561
   -1.612
   -2.704
   -3.520
   -3.868
   -3.717
   -3.153
   -2.316
   -1.351
   -0.360
    0.640
    1.712
    2.909
    4.147
    5.158
    5.603
    5.264
    4.176
    2.606
    0.910
   -0.619
   -1.807
   -2.582
   -2.943
   -2.960
   -2.780
   -2.605
   -2.593
   -2.771
   -3.013
   -3.109
   -2.873
   -2.210
   -1.124
    0.320
    1.996
    3.695
    5.105
    5.889
    5.825
    4.948
    3.559
    2.085
    0.883
    0.088
   -0.382
   -0.708
   -1.022
   -1.349
   -1.640
   -1.849
   -1.959
   -1.969
   -1.852
   -1.552
   -1.029
   -0.331
    0.380
    0.886
    1.033
    0.822
    0.390
   -0.107
   -0.597
   -1.111
   -1.681
   -2.249
   -2.648
   -2.698
   -2.310
   -1.527
   -0.490
    0.614
    1.573
    2.166
    2.220
    1.714
    0.834
   -0.052
   -0.534
   -0.356
    0.430
    1.455
    2.203
    2.284
    1.646
    0.577
   -0.493
   -1.254
   -1.670
   -1.927
   -2.229
   -2.606
   -2.872
   -2.774
   -2.203
   -1.296
   -0.333
    0.484
    1.188
    1.976
    2.969
    4.006
    4.661
    4.512
    3.457
    1.842
    0.278
   -0.729
   -1.060
   -0.984
   -0.922
   -1.159
   -1.711
   -2.349
   -2.732
   -2.560
   -1.729
   -0.415
    0.948
    1.831
    1.883
    1.125
   -0.051
   -1.114
   -1.690
   -1.708
   -1.317
   -0.688
    0.098
    0.992
    1.859
    2.456
    2.539
    2.008
    0.999
   -0.157
   -1.054
   -1.375
   -1.027
   -0.191
    0.763
    1.449
    1.624
    1.238
    0.396
   -0.690
   -1.707
   -2.265
   -2.045
   -1.024
    0.401
    1.540
    1.789
    1.003
   -0.405
   -1.717
   -2.348
   -2.172
   -1.531
   -0.956
   -0.790
   -0.990
   -1.216
   -1.114
   -0.573
    0.210
    0.882
    1.156
    0.956
    0.421
   -0.177
   -0.513
   -0.298
    0.614
    2.102
    3.720
    4.803
    4.755
    3.390
    1.108
   -1.271
   -2.950
   -3.585
   -3.404
   -2.929
   -2.555
   -2.290
   -1.851
   -0.995
    0.192
    1.279
    1.761
    1.420
    0.502
   -0.401
   -0.709
   -0.186
    0.935
    2.123
    2.865
    2.897
    2.239
    1.103
   -0.200
   -1.310
   -1.896
   -1.790
   -1.138
   -0.395
   -0.113
   -0.590
   -1.617
   -2.522
   -2.571
   -1.448
    0.477
    2.344
    3.308
    3.026
    1.822
    0.427
   -0.479
   -0.656
   -0.363
   -0.082
   -0.129
   -0.425
   -0.596
   -0.328
    0.329
    0.946
    0.993
    0.212
   -1.200
   -2.698
   -3.720
   -3.992
   -3.600
   -2.816
   -1.874
   -0.898
   -0.003
    0.625
    0.822
    0.669
    0.588
    1.142
    2.615
    4.692
    6.529
    7.233
    6.429
    4.477
    2.195
    0.311
   -0.966
   -1.925
   -2.953
   -4.105
   -5.011
   -5.215
   -4.629
   -3.657
   -2.825
   -2.289
   -1.677
   -0.473
    1.431
    3.514
    4.962
    5.273
    4.590
    3.493
    2.472
    1.575
    0.515
   -0.910
   -2.505
   -3.750
   -4.190
   -3.768
   -2.837
   -1.835
   -0.933
    0.045
    1.362
    3.021
    4.656
    5.722
    5.830
    4.932
    3.262
    1.151
   -1.097
   -3.197
   -4.856
   -5.821
   -6.000
   -5.513
   -4.641
   -3.683
   -2.826
   -2.072
   -1.251
   -0.112
    1.508
    3.516
    5.479
    6.719
    6.588
    4.814
    1.733
   -1.758
   -4.530
   -5.702
   -5.015
   -2.927
   -0.382
    1.626
    2.488
    2.201
    1.265
    0.334
   -0.177
   -0.258
   -0.164
   -0.106
   -0.046
    0.225
    0.799
    1.438
    1.658
    1.063
   -0.327
   -2.033
   -3.388
   -3.932
   -3.642
   -2.863
   -2.016
   -1.328
   -0.739
   -0.008
    1.073
    2.507
    4.013
    5.100
    5.297
    4.428
    2.754
    0.863
   -0.656
   -1.528
   -1.869
   -2.007
   -2.215
   -2.560
   -2.928
   -3.130
   -2.975
   -2.316
   -1.104
    0.525
    2.212
    3.473
    3.912
    3.420
    2.220
    0.729
   -0.649
   -1.665
   -2.229
   -2.338
   -2.020
   -1.329
   -0.377
    0.662
    1.600
    2.295
    2.684
    2.752
    2.490
    1.893
    1.008
   -0.012
   -0.932
   -1.532
   -1.715
   -1.544
   -1.189
   -0.831
   -0.577
   -0.437
   -0.341
   -0.163
    0.238
    0.957
    1.938
    2.915
    3.491
    3.344
    2.461
    1.193
    0.060
   -0.590
   -0.799
   -0.914
   -1.263
   -1.867
   -2.446
   -2.695
   -2.560
   -2.257
   -2.028
   -1.895
   -1.647
   -1.070
   -0.177
    0.794
    1.570
    2.007
    2.086
    1.803
    1.158
    0.268
   -0.558
   -0.940
   -0.717
   -0.136
    0.266
    0.077
   -0.631
   -1.310
   -1.356
   -0.603
    0.512
    1.290
    1.324
    0.810
    0.343
    0.377
    0.807
    1.058
    0.594
   -0.600
   -1.981
   -2.867
   -2.936
   -2.367
   -1.579
   -0.846
   -0.157
    0.607
    1.405
    1.977
    2.054
    1.648
    1.102
    0.813
    0.847
    0.821
    0.195
   -1.234
   -3.063
   -4.485
   -4.807
   -3.883
   -2.141
   -0.250
    1.272
    2.224
    2.646
    2.656
    2.371
    1.929
    1.480
    1.113
    0.781
    0.364
   -0.146
   -0.519
   -0.397
    0.396
    1.615
    2.676
    3.008
    2.407
    1.123
   -0.347
   -1.548
   -2.217
   -2.286
   -1.842
   -1.101
   -0.376
    0.036
   -0.006
   -0.419
   -0.942
   -1.267
   -1.166
   -0.583
    0.333
    1.264
    1.861
    1.915
    1.490
    0.881
    0.430
    0.281
    0.297
    0.192
   -0.226
   -0.923
   -1.696
   -2.331
   -2.681
   -2.650
   -2.156
   -1.176
    0.154
    1.505
    2.448
    2.677
    2.197
    1.343
    0.577
    0.204
    0.211
    0.345
    0.347
    0.163
   -0.057
   -0.141
   -0.092
   -0.089
   -0.312
   -0.745
   -1.137
   -1.155
   -0.602
    0.439
    1.634
    2.574
    2.986
    2.821
    2.176
    1.163
   -0.138
   -1.589
   -2.915
   -3.773
   -3.964
   -3.589
   -2.961
   -2.336
   -1.711
   -0.910
    0.128
    1.180
    1.873
    2.035
    1.892
    1.900
    2.342
    3.047
    3.497
    3.196
    1.999
    0.130
   -1.997
   -3.950
   -5.307
   -5.670
   -4.806
   -2.863
   -0.453
    1.589
    2.634
    2.590
    1.894
    1.174
    0.846
    0.922
    1.109
    1.079
    0.693
    0.069
   -0.535
   -0.900
   -0.978
   -0.870
   -0.693
   -0.450
   -0.018
    0.730
    1.748
    2.742
    3.264
    2.957
    1.810
    0.234
   -1.124
   -1.743
   -1.529
   -0.850
   -0.299
   -0.347
   -1.109
   -2.314
   -3.456
   -4.008
   -3.617
   -2.253
   -0.245
    1.846
    3.463
    4.292
    4.335
    3.804
    2.924
    1.809
    0.484
   -0.998
   -2.454
   -3.576
   -4.069
   -3.822
   -3.003
   -1.990
   -1.167
   -0.725
   -0.582
   -0.484
   -0.170
    0.504
    1.536
    2.779
    3.940
    4.610
    4.411
    3.243
    1.450
   -0.279
   -1.310
   -1.480
   -1.210
   -1.177
   -1.770
   -2.768
   -3.488
   -3.322
   -2.204
   -0.655
    0.643
    1.360
    1.693
    2.080
    2.737
    3.446
    3.772
    3.456
    2.597
    1.471
    0.251
   -1.071
   -2.475
   -3.702
   -4.307
   -3.988
   -2.884
   -1.521
   -0.436
    0.184
    0.541
    0.925
    1.394
    1.732
    1.696
    1.281
    0.756
    0.445
    0.473
    0.684
    0.798
    0.658
    0.377
    0.264
    0.554
    1.146
    1.589
    1.394
    0.464
   -0.741
   -1.505
   -1.436
   -0.808
   -0.326
   -0.504
   -1.206
   -1.797
   -1.754
   -1.179
   -0.726
   -1.012
   -2.021
   -3.035
   -3.152
   -1.961
    0.149
    2.266
    3.568
    3.796
    3.272
    2.545
    1.977
    1.584
    1.173
    0.580
   -0.183
   -0.956
   -1.565
   -1.916
   -1.993
   -1.781
   -1.246
   -0.410
    0.552
    1.322
    1.602
    1.313
    0.659
   -0.011
   -0.428
   -0.548
   -0.517
   -0.497
   -0.525
   -0.521
   -0.428
   -0.320
   -0.357
   -0.618
   -0.979
   -1.180
   -1.041
   -0.621
   -0.185
   -0.003
   -0.134
   -0.390
   -0.491
   -0.297
    0.077
    0.349
    0.313
    0.035
   -0.178
   -0.030
    0.496
    1.098
    1.386
    1.195
    0.719
    0.349
    0.361
    0.694
    0.998
    0.906
    0.326
   -0.474
   -1.038
   -1.023
   -0.432
    0.409
    1.077
    1.323
    1.191
    0.920
    0.732
    0.674
    0.607
    0.330
   -0.280
   -1.188
   -2.205
   -3.055
   -3.470
   -3.284
   -2.498
   -1.274
    0.124
    1.436
    2.475
    3.149
    3.418
    3.253
    2.653
    1.710
    0.662
   -0.160
   -0.476
   -0.238
    0.316
    0.787
    0.851
    0.441
   -0.243
   -0.896
   -1.314
   -1.492
   -1.569
   -1.682
   -1.849
   -1.947
   -1.807
   -1.325
   -0.544
    0.351
    1.100
    1.499
    1.497
    1.228
    0.909
    0.707
    0.633
    0.575
