Origin Time       05/3/2012 07:41:05	
Lat.              28.7 N	
Long.             76.6 E	
Depth (Km)         14.0
Magnitude         4.9
 Region           Haryana-Delhi-Border-Region                                      
 Above details taken from IMD 
     
Station Code       ZAKI
Station Lat.       28.640  N
Station Long.      77.230  E
Station Height(m)  101.0
Site Class        C   Vs30 between 200 m/sec to 375 m/sec *  
Record Time        1/1/1980  19:34:39.000
Sampling Rate     200. Hz
 Record Duration   97.000 Sec.
 Direction         E-W (E positive)
Max. Acceleration  10.048 cm/sec**2
     
  * For reference see Site Classification link of website 
     
 Base Line Corrected and Low Pass Filtered (Cut Off at 35 Hz) Time History
 Acceleration data in cm/sec**2
    
[...]
   -0.602
    0.014
    0.415
    0.510
    0.378
    0.186
    0.070
    0.054
    0.072
    0.038
   -0.101
   -0.342
   -0.622
   -0.825
   -0.823
   -0.558
   -0.093
    0.412
    0.786
    0.931
    0.850
    0.624
    0.359
    0.162
    0.107
    0.211
    0.413
    0.585
    0.597
    0.402
    0.064
   -0.280
   -0.503
   -0.539
   -0.404
   -0.170
    0.057
    0.187
    0.197
    0.161
    0.186
    0.310
    0.439
    0.410
    0.138
   -0.291
   -0.679
   -0.880
   -0.905
   -0.879
   -0.888
   -0.887
   -0.737
   -0.360
    0.151
    0.577
    0.735
    0.611
    0.350
    0.125
    0.018
    0.008
    0.034
    0.055
    0.042
   -0.035
   -0.179
   -0.332
   -0.389
   -0.288
   -0.069
    0.156
    0.310
    0.419
    0.574
    0.814
    1.049
    1.113
    0.898
    0.448
   -0.064
   -0.459
   -0.666
   -0.740
   -0.764
   -0.748
   -0.609
   -0.255
    0.307
    0.937
    1.439
    1.682
    1.673
    1.520
    1.331
    1.138
    0.890
    0.506
   -0.055
   -0.751
   -1.463
   -2.041
   -2.354
   -2.330
   -1.981
   -1.424
   -0.839
   -0.368
   -0.028
    0.282
    0.645
    1.000
    1.168
    1.026
    0.651
    0.290
    0.139
    0.162
    0.108
   -0.243
   -0.857
   -1.449
   -1.716
   -1.571
   -1.186
   -0.830
   -0.670
   -0.685
   -0.716
   -0.586
   -0.216
    0.328
    0.855
    1.157
    1.142
    0.926
    0.764
    0.853
    1.139
    1.338
    1.168
    0.615
   -0.019
   -0.336
   -0.160
    0.334
    0.782
    0.935
    0.813
    0.601
    0.437
    0.304
    0.112
   -0.160
   -0.422
   -0.566
   -0.588
   -0.607
   -0.741
   -0.978
   -1.141
   -1.021
   -0.538
    0.186
    0.903
    1.403
    1.634
    1.697
    1.716
    1.705
    1.545
    1.100
    0.358
   -0.527
   -1.335
   -1.926
   -2.283
   -2.457
   -2.474
   -2.330
   -2.046
   -1.688
   -1.310
   -0.868
   -0.239
    0.664
    1.765
    2.818
    3.511
    3.612
    3.089
    2.122
    1.027
    0.116
   -0.455
   -0.729
   -0.887
   -1.099
   -1.409
   -1.721
   -1.883
   -1.789
   -1.436
   -0.904
   -0.303
    0.265
    0.714
    0.959
    0.926
    0.614
    0.147
   -0.254
   -0.392
   -0.209
    0.182
    0.582
    0.813
    0.785
    0.509
    0.072
   -0.387
   -0.716
   -0.807
   -0.657
   -0.384
   -0.170
   -0.158
   -0.376
   -0.740
   -1.118
   -1.386
   -1.446
   -1.231
   -0.740
   -0.068
    0.598
    1.065
    1.246
    1.206
    1.121
    1.146
    1.301
    1.448
    1.400
    1.096
    0.686
    0.431
    0.464
    0.655
    0.704
    0.405
   -0.199
   -0.888
   -1.462
   -1.852
   -2.055
   -2.027
   -1.682
   -1.001
   -0.116
    0.746
    1.388
    1.746
    1.884
    1.875
    1.701
    1.263
    0.511
   -0.441
   -1.328
   -1.873
   -1.971
   -1.758
   -1.501
   -1.381
   -1.331
   -1.103
   -0.519
    0.313
    1.044
    1.334
    1.111
    0.609
    0.179
    0.041
    0.170
    0.382
    0.490
    0.412
    0.170
   -0.163
   -0.487
   -0.687
   -0.662
   -0.397
    0.000
    0.351
    0.539
    0.598
    0.658
    0.773
    0.819
    0.581
   -0.013
   -0.744
   -1.209
   -1.110
   -0.476
    0.345
    0.918
    0.984
    0.610
    0.119
   -0.116
    0.092
    0.627
    1.144
    1.280
    0.865
    0.029
   -0.863
   -1.393
   -1.309
   -0.673
    0.173
    0.800
    0.927
    0.545
   -0.135
   -0.837
   -1.354
   -1.584
   -1.504
   -1.143
   -0.607
   -0.085
    0.221
    0.212
   -0.043
   -0.337
   -0.447
   -0.265
    0.144
    0.608
    0.956
    1.089
    0.985
    0.665
    0.200
   -0.289
   -0.662
   -0.826
   -0.790
   -0.647
   -0.495
   -0.366
   -0.217
    0.001
    0.281
    0.564
    0.800
    1.003
    1.211
    1.385
    1.365
    0.970
    0.166
   -0.835
   -1.672
   -2.043
   -1.884
   -1.376
   -0.810
   -0.394
   -0.147
    0.061
    0.351
    0.685
    0.887
    0.816
    0.531
    0.273
    0.249
    0.431
    0.559
    0.376
   -0.110
   -0.596
   -0.711
   -0.311
    0.408
    1.059
    1.319
    1.090
    0.507
   -0.156
   -0.601
   -0.638
   -0.293
    0.177
    0.427
    0.256
   -0.253
   -0.790
   -1.059
   -0.994
   -0.755
   -0.514
   -0.260
    0.155
    0.755
    1.270
    1.286
    0.624
   -0.419
   -1.237
   -1.357
   -0.783
    0.047
    0.622
    0.704
    0.412
    0.046
   -0.132
   -0.034
    0.245
    0.500
    0.551
    0.367
    0.091
   -0.085
   -0.104
   -0.088
   -0.187
   -0.381
   -0.466
   -0.277
    0.106
    0.384
    0.306
   -0.103
   -0.569
   -0.812
   -0.742
   -0.440
   -0.010
    0.498
    1.037
    1.477
    1.639
    1.418
    0.898
    0.326
   -0.024
   -0.006
    0.315
    0.671
    0.711
    0.208
   -0.753
   -1.776
   -2.366
   -2.246
   -1.526
   -0.632
   -0.004
    0.212
    0.225
    0.355
    0.710
    1.101
    1.245
    1.024
    0.533
   -0.039
   -0.534
   -0.838
   -0.888
   -0.724
   -0.534
   -0.547
   -0.828
   -1.170
   -1.248
   -0.910
   -0.319
    0.190
    0.415
    0.434
    0.466
    0.604
    0.706
    0.578
    0.232
   -0.079
   -0.092
    0.207
    0.588
    0.807
    0.784
    0.595
    0.334
    0.026
   -0.355
   -0.827
   -1.348
   -1.794
   -2.004
   -1.846
   -1.279
   -0.384
    0.616
    1.399
    1.697
    1.478
    0.993
    0.601
    0.501
    0.582
    0.561
    0.250
   -0.273
   -0.748
   -0.960
   -0.857
   -0.492
    0.080
    0.806
    1.535
    1.987
    1.908
    1.303
    0.509
   -0.017
   -0.050
    0.229
    0.391
    0.140
   -0.416
   -0.847
   -0.765
   -0.152
    0.609
    1.017
    0.806
    0.098
   -0.717
   -1.273
   -1.445
   -1.357
   -1.186
   -0.975
   -0.635
   -0.133
    0.350
    0.475
    0.039
   -0.768
   -1.408
   -1.393
   -0.686
    0.240
    0.762
    0.581
   -0.068
   -0.629
   -0.655
   -0.114
    0.647
    1.221
    1.443
    1.449
    1.465
    1.566
    1.617
    1.418
    0.918
    0.277
   -0.256
   -0.538
   -0.641
   -0.768
   -1.047
   -1.407
   -1.636
   -1.606
   -1.429
   -1.372
   -1.563
   -1.775
   -1.552
   -0.639
    0.678
    1.682
    1.759
    0.901
   -0.253
   -0.901
   -0.654
    0.251
    1.218
    1.752
    1.715
    1.260
    0.617
   -0.046
   -0.635
   -1.082
   -1.319
   -1.292
   -0.988
   -0.471
    0.102
    0.545
    0.752
    0.792
    0.881
    1.218
    1.808
    2.401
    2.626
    2.224
    1.236
    0.003
   -1.033
   -1.573
   -1.610
   -1.381
   -1.189
   -1.204
   -1.374
   -1.473
   -1.287
   -0.792
   -0.221
    0.084
   -0.063
   -0.523
   -0.896
   -0.803
   -0.164
    0.731
    1.407
    1.502
    0.983
    0.140
   -0.593
   -0.882
   -0.636
    0.001
    0.771
    1.428
    1.792
    1.755
    1.306
    0.555
   -0.271
   -0.908
   -1.188
   -1.121
   -0.877
   -0.670
   -0.641
   -0.802
   -1.055
   -1.253
   -1.260
   -1.025
   -0.618
   -0.216
   -0.009
   -0.064
   -0.255
   -0.336
   -0.107
    0.429
    1.053
    1.461
    1.445
    1.009
    0.359
   -0.223
   -0.535
   -0.550
   -0.385
   -0.189
   -0.011
    0.227
    0.635
    1.189
    1.685
    1.868
    1.664
    1.288
    1.092
    1.282
    1.744
    2.139
    2.165
    1.744
    1.003
    0.122
   -0.776
   -1.591
   -2.192
   -2.440
   -2.300
   -1.904
   -1.454
   -1.036
   -0.538
    0.236
    1.350
    2.606
    3.613
    4.006
    3.670
    2.798
    1.769
    0.922
    0.400
    0.133
   -0.064
   -0.369
   -0.843
   -1.394
   -1.815
   -1.912
   -1.644
   -1.181
   -0.797
   -0.688
   -0.844
   -1.093
   -1.266
   -1.346
   -1.477
   -1.810
   -2.345
   -2.891
   -3.195
   -3.121
   -2.732
   -2.214
   -1.731
   -1.327
   -0.974
   -0.684
   -0.558
   -0.692
   -1.044
   -1.393
   -1.445
   -1.007
   -0.113
    0.991
    1.956
    2.514
    2.628
    2.541
    2.650
    3.217
    4.102
    4.766
    4.630
    3.547
    1.959
    0.582
   -0.147
   -0.369
   -0.580
   -1.106
   -1.751
   -1.969
   -1.388
   -0.222
    0.822
    1.038
    0.225
   -1.195
   -2.506
   -3.191
   -3.207
   -2.882
   -2.549
   -2.249
   -1.762
   -0.906
    0.166
    0.996
    1.179
    0.755
    0.244
    0.243
    0.921
    1.863
    2.415
    2.228
    1.528
    0.909
    0.834
    1.265
    1.719
    1.685
    1.038
    0.135
   -0.463
   -0.393
    0.254
    0.985
    1.227
    0.726
   -0.218
   -0.882
   -0.589
    0.774
    2.583
    3.825
    3.755
    2.376
    0.383
   -1.360
   -2.372
   -2.742
   -2.889
   -3.165
   -3.636
   -4.144
   -4.510
   -4.666
   -4.632
   -4.409
   -3.942
   -3.161
   -2.071
   -0.772
    0.595
    1.941
    3.247
    4.484
    5.500
    6.008
    5.721
    4.565
    2.799
    0.943
   -0.492
   -1.302
   -1.698
   -2.084
   -2.679
   -3.294
   -3.491
   -2.972
   -1.861
   -0.623
    0.283
    0.737
    0.999
    1.438
    2.212
    3.160
    3.952
    4.331
    4.245
    3.827
    3.281
    2.760
    2.298
    1.828
    1.275
    0.634
   -0.034
   -0.706
   -1.489
   -2.578
   -4.080
   -5.808
   -7.243
   -7.760
   -7.004
   -5.143
   -2.791
   -0.631
    0.985
    2.169
    3.275
    4.508
    5.678
    6.296
    5.923
    4.488
    2.327
   -0.046
   -2.228
   -4.052
   -5.486
   -6.460
   -6.835
   -6.526
   -5.646
   -4.498
   -3.416
   -2.579
   -1.935
   -1.265
   -0.355
    0.834
    2.095
    3.069
    3.469
    3.293
    2.854
    2.569
    2.662
    3.022
    3.314
    3.254
    2.785
    2.054
    1.265
    0.580
    0.109
   -0.053
    0.163
    0.764
    1.658
    2.659
    3.524
    3.992
    3.853
    3.026
    1.634
    0.006
   -1.428
   -2.310
   -2.470
   -1.940
   -0.909
    0.307
    1.281
    1.582
    0.999
   -0.267
   -1.637
   -2.475
   -2.478
   -1.848
   -1.138
   -0.895
   -1.333
   -2.227
   -3.045
   -3.243
   -2.566
   -1.183
    0.420
    1.737
    2.510
    2.794
    2.791
    2.621
    2.269
    1.704
    1.023
    0.434
    0.097
   -0.018
   -0.117
   -0.441
   -1.111
   -2.057
   -3.051
   -3.798
   -4.034
   -3.611
   -2.569
   -1.175
    0.127
    0.907
    0.985
    0.560
    0.086
   -0.052
    0.194
    0.547
    0.698
    0.575
    0.342
    0.152
   -0.063
   -0.538
   -1.430
   -2.635
   -3.832
   -4.650
   -4.813
   -4.182
   -2.775
   -0.804
    1.337
    3.227
    4.647
    5.680
    6.546
    7.276
    7.548
    6.870
    5.038
    2.478
    0.124
   -1.149
   -1.094
   -0.193
    0.776
    1.323
    1.468
    1.492
    1.536
    1.451
    1.004
    0.144
   -0.928
   -1.951
   -2.798
   -3.475
   -3.949
   -4.041
   -3.542
   -2.456
   -1.082
    0.149
    0.947
    1.250
    1.097
    0.459
   -0.697
   -2.187
   -3.507
   -4.058
   -3.570
   -2.348
   -1.097
   -0.421
   -0.427
   -0.745
   -0.913
   -0.747
   -0.400
   -0.118
   -0.005
    0.012
    0.050
    0.164
    0.363
    0.657
    1.034
    1.397
    1.598
    1.572
    1.411
    1.261
    1.123
    0.803
    0.113
   -0.880
   -1.801
   -2.184
   -1.765
   -0.612
    0.970
    2.635
    4.102
    5.117
    5.418
    4.821
    3.398
    1.547
   -0.165
   -1.296
   -1.719
   -1.602
   -1.219
   -0.813
   -0.562
   -0.602
   -0.983
   -1.567
   -2.002
   -1.876
   -0.986
    0.464
    1.919
    2.795
    2.834
    2.216
    1.349
    0.523
   -0.267
   -1.219
   -2.453
   -3.801
   -4.850
   -5.192
   -4.701
   -3.608
   -2.287
   -0.947
    0.505
    2.257
    4.200
    5.721
    5.953
    4.407
    1.485
   -1.587
   -3.461
   -3.527
   -2.293
   -1.006
   -0.803
   -1.981
   -3.873
   -5.350
   -5.576
   -4.478
   -2.664
   -0.912
    0.348
    1.185
    1.958
    2.955
    4.174
    5.320
    5.946
    5.674
    4.423
    2.539
    0.709
   -0.381
   -0.446
    0.224
    0.952
    1.129
    0.597
   -0.268
   -0.810
   -0.470
    0.898
    2.902
    4.686
    5.246
    3.909
    0.785
   -3.110
   -6.258
   -7.407
   -6.271
   -3.683
   -1.082
    0.341
    0.286
   -0.603
   -1.271
   -0.979
    0.206
    1.477
    1.841
    0.805
   -1.254
   -3.299
   -4.263
   -3.706
   -2.056
   -0.287
    0.720
    0.688
    0.040
   -0.417
   -0.003
    1.425
    3.355
    4.870
    5.155
    3.980
    1.882
   -0.098
   -1.000
   -0.505
    0.876
    2.108
    2.289
    1.229
   -0.415
   -1.602
   -1.650
   -0.704
    0.444
    1.012
    0.811
    0.276
   -0.019
    0.126
    0.425
    0.416
   -0.154
   -1.187
   -2.385
   -3.468
   -4.297
   -4.811
   -4.918
   -4.468
   -3.394
   -1.915
   -0.551
    0.190
    0.264
    0.253
    0.966
    2.702
    4.796
    5.942
    5.115
    2.391
   -0.989
   -3.371
   -3.701
   -2.090
    0.385
    2.404
    3.175
    2.771
    1.899
    1.300
    1.233
    1.422
    1.440
    1.172
    0.899
    0.972
    1.402
    1.787
    1.651
    0.860
   -0.273
   -1.259
   -1.793
   -1.877
   -1.686
   -1.367
   -1.002
   -0.695
   -0.612
   -0.864
   -1.348
   -1.761
   -1.819
   -1.473
   -0.924
   -0.435
   -0.191
   -0.304
   -0.885
   -1.987
   -3.459
   -4.874
   -5.681
   -5.504
   -4.370
   -2.698
   -1.056
    0.147
    0.849
    1.309
    1.920
    2.965
    4.440
    5.997
    7.106
    7.365
    6.782
    5.779
    4.892
    4.389
    4.125
    3.710
    2.817
    1.358
   -0.517
   -2.511
   -4.251
   -5.373
   -5.638
   -5.027
   -3.725
   -2.040
   -0.368
    0.801
    0.977
   -0.037
   -1.839
   -3.444
   -3.769
   -2.314
    0.444
    3.281
    4.938
    4.848
    3.421
    1.699
    0.673
    0.693
    1.355
    1.867
    1.584
    0.355
   -1.489
   -3.358
   -4.659
   -4.999
   -4.342
   -3.088
   -1.927
   -1.469
   -1.808
   -2.385
   -2.360
   -1.279
    0.493
    1.979
    2.296
    1.259
   -0.593
   -2.490
   -3.945
   -4.827
   -5.056
   -4.343
   -2.342
    0.910
    4.712
    7.959
    9.781
   10.048
    9.298
    8.171
    6.910
    5.346
    3.312
    1.020
   -0.995
   -2.261
   -2.706
   -2.652
   -2.534
   -2.640
   -3.047
   -3.684
   -4.393
   -4.969
   -5.229
   -5.112
   -4.738
   -4.332
   -4.054
   -3.874
   -3.599
   -3.045
   -2.180
   -1.116
    0.006
    1.116
    2.181
    3.130
    3.844
    4.220
    4.256
    4.044
    3.710
    3.361
    3.097
    3.015
    3.170
    3.484
    3.706
    3.535
    2.824
    1.722
    0.594
   -0.195
   -0.493
   -0.417
   -0.266
   -0.368
   -0.892
   -1.720
   -2.484
   -2.812
   -2.614
   -2.180
   -1.982
   -2.290
   -2.900
   -3.211
   -2.653
   -1.176
    0.591
    1.689
    1.460
   -0.018
   -2.021
   -3.649
   -4.278
   -3.699
   -2.064
    0.178
    2.330
    3.669
    3.845
    3.139
    2.264
    1.819
    1.861
    1.958
    1.624
    0.694
   -0.605
   -1.873
   -2.776
   -3.189
   -3.184
   -2.902
   -2.407
   -1.652
   -0.625
    0.450
    1.106
    0.914
   -0.135
   -1.532
   -2.549
   -2.713
   -2.050
   -0.959
    0.112
    0.912
    1.454
    1.916
    2.500
    3.329
    4.392
    5.514
    6.372
    6.592
    5.947
    4.521
    2.697
    0.944
   -0.441
   -1.441
   -2.203
   -2.862
   -3.443
   -3.877
   -4.079
   -3.976
   -3.531
   -2.753
   -1.760
   -0.804
   -0.217
   -0.221
   -0.747
   -1.411
   -1.719
   -1.392
   -0.563
    0.308
    0.747
    0.599
    0.137
   -0.126
    0.214
    1.175
    2.362
    3.191
    3.214
    2.378
    1.101
    0.084
   -0.089
    0.627
    1.619
    2.007
    1.312
   -0.130
   -1.395
   -1.702
   -1.036
   -0.138
    0.099
   -0.701
   -2.190
   -3.611
   -4.293
   -3.956
   -2.736
   -1.061
    0.515
    1.493
    1.637
    1.102
    0.364
   -0.037
    0.235
    1.169
    2.435
    3.500
    3.827
    3.128
    1.576
   -0.203
   -1.454
   -1.745
   -1.244
   -0.572
   -0.347
   -0.746
   -1.412
   -1.742
   -1.349
   -0.379
    0.541
    0.708
   -0.166
   -1.725
   -3.184
   -3.824
   -3.405
   -2.191
   -0.654
    0.838
    2.116
    3.124
    3.840
    4.290
    4.596
    4.922
    5.331
    5.672
    5.626
    4.894
    3.398
    1.340
   -0.863
   -2.700
   -3.732
   -3.793
   -3.106
   -2.211
   -1.680
   -1.823
   -2.547
   -3.429
   -3.922
   -3.660
   -2.749
   -1.805
   -1.559
   -2.228
   -3.192
   -3.422
   -2.385
   -0.582
    0.835
    1.053
    0.267
   -0.542
   -0.423
    0.842
    2.651
    4.026
    4.204
    3.041
    1.064
   -0.801
   -1.677
   -1.164
    0.476
    2.452
    3.833
    4.001
    2.948
    1.232
   -0.364
   -1.283
   -1.439
   -1.149
   -0.830
   -0.750
   -0.999
   -1.587
   -2.452
   -3.314
   -3.641
   -2.914
   -1.094
    1.176
    2.921
    3.511
    3.063
    2.211
    1.488
    0.937
    0.264
   -0.724
   -1.849
   -2.682
   -2.854
   -2.293
   -1.223
    0.018
    1.154
    2.024
    2.559
    2.759
    2.721
    2.615
    2.551
    2.425
    1.940
    0.866
   -0.659
   -2.111
   -2.942
   -3.009
   -2.647
   -2.311
   -2.132
   -1.852
   -1.196
   -0.296
    0.277
   -0.036
   -1.248
   -2.683
   -3.384
   -2.749
   -0.935
    1.241
    2.829
    3.328
    2.932
    2.290
    1.971
    2.076
    2.281
    2.239
    1.932
    1.653
    1.659
    1.834
    1.718
    0.888
   -0.602
   -2.108
   -2.763
   -2.074
   -0.336
    1.471
    2.241
    1.405
   -0.732
   -3.169
   -4.791
   -4.999
   -4.033
   -2.800
   -2.263
   -2.746
   -3.640
   -3.809
   -2.466
    0.146
    2.861
    4.408
    4.263
    2.881
    1.262
    0.308
    0.436
    1.527
    3.049
    4.224
    4.328
    3.097
    0.995
   -0.955
   -1.789
   -1.228
    0.188
    1.533
    2.140
    1.934
    1.290
    0.616
    0.068
   -0.453
   -1.124
   -2.051
   -3.208
   -4.436
   -5.452
   -5.897
   -5.461
   -4.063
   -2.008
    0.051
    1.404
    1.723
    1.323
    0.994
    1.440
    2.721
    4.124
    4.614
    3.546
    1.133
   -1.654
   -3.655
   -4.167
   -3.270
   -1.683
   -0.296
    0.317
    0.142
   -0.353
   -0.552
   -0.070
    1.008
    2.205
    2.976
    3.069
    2.670
    2.233
    2.144
    2.470
    2.978
    3.338
    3.293
    2.690
    1.481
   -0.188
   -1.888
   -3.012
   -3.143
   -2.426
   -1.575
   -1.417
   -2.277
   -3.691
   -4.726
   -4.665
   -3.543
   -2.097
   -1.182
   -1.135
   -1.576
   -1.776
   -1.229
   -0.007
    1.363
    2.337
    2.750
    2.879
    3.177
    3.895
    4.866
    5.599
    5.601
    4.688
    3.082
    1.284
   -0.193
   -1.053
   -1.327
   -1.315
   -1.385
   -1.751
   -2.379
   -3.069
   -3.607
   -3.849
   -3.704
   -3.091
   -1.969
   -0.421
    1.284
    2.751
    3.650
    3.887
    3.638
    3.172
    2.605
    1.817
    0.628
   -0.918
   -2.449
   -3.468
   -3.719
   -3.399
   -3.044
   -3.152
   -3.816
   -4.617
   -4.853
   -3.979
   -1.977
    0.558
    2.684
    3.603
    3.156
    1.998
    1.277
    1.933
    4.022
    6.576
    8.171
    7.853
    5.723
    2.780
    0.194
   -1.360
   -1.902
   -1.891
   -1.860
   -2.175
   -2.928
   -3.915
   -4.696
   -4.813
   -4.108
   -2.910
   -1.890
   -1.604
   -2.057
   -2.664
   -2.670
   -1.731
   -0.179
    1.231
    1.905
    1.828
    1.498
    1.461
    1.881
    2.510
    3.018
    3.322
    3.577
    3.877
    4.005
    3.511
    2.094
   -0.041
   -2.154
   -3.309
   -2.923
   -1.202
    0.814
    1.748
    0.728
   -1.939
   -4.845
   -6.348
   -5.657
   -3.303
   -0.649
    1.114
    1.662
    1.454
    1.104
    0.867
    0.647
    0.386
    0.311
    0.727
    1.567
    2.237
    2.032
    0.781
   -0.888
   -1.948
   -1.730
   -0.401
    1.178
    2.066
    1.831
    0.760
   -0.376
   -0.810
   -0.250
    0.929
    1.899
    1.900
    0.745
   -1.042
   -2.531
   -2.933
   -2.021
   -0.195
    1.798
    3.238
    3.702
    3.150
    1.880
    0.367
   -0.967
   -1.960
   -2.705
