Origin Time       05/3/2012 07:41:05	
Lat.              28.7 N	
Long.             76.6 E	
Depth (Km)         14.0
Magnitude         4.9
 Region           Haryana-Delhi-Border-Region                                      
 Above details taken from IMD 
    
Station Code       ZAKI
Station Lat.       28.640  N
Station Long.      77.230  E
Station Height(m)  101.0
Site Class        C   Vs30 between 200 m/sec to 375 m/sec *  
Record Time        1/1/1980  19:34:39.000
Sampling Rate     200. Hz
 Record Duration   97.000 Sec.
 Direction         N-S (N positive)
Max. Acceleration -11.079 cm/sec**2
     
  * For reference see Site Classification link of website 
     
 Base Line Corrected and Low Pass Filtered (Cut Off at 35 Hz) Time History
 Acceleration data in cm/sec**2
    
[...]
   -2.429
   -1.111
    0.593
    1.861
    2.234
    1.868
    1.289
    0.904
    0.714
    0.423
   -0.167
   -0.908
   -1.404
   -1.361
   -0.832
   -0.129
    0.489
    1.029
    1.669
    2.489
    3.290
    3.715
    3.539
    2.878
    2.108
    1.544
    1.176
    0.695
   -0.178
   -1.355
   -2.356
   -2.654
   -2.130
   -1.232
   -0.658
   -0.811
   -1.497
   -2.113
   -2.172
   -1.675
   -1.053
   -0.748
   -0.856
   -1.120
   -1.203
   -0.970
   -0.536
   -0.118
    0.127
    0.146
   -0.047
   -0.397
   -0.800
   -1.119
   -1.229
   -1.061
   -0.609
    0.076
    0.869
    1.555
    1.901
    1.782
    1.279
    0.639
    0.109
   -0.202
   -0.309
   -0.217
    0.144
    0.816
    1.640
    2.247
    2.292
    1.741
    0.948
    0.425
    0.479
    0.995
    1.517
    1.561
    0.914
   -0.238
   -1.418
   -2.115
   -2.054
   -1.345
   -0.429
    0.178
    0.170
   -0.375
   -1.074
   -1.493
   -1.420
   -0.977
   -0.496
   -0.267
   -0.328
   -0.460
   -0.395
   -0.053
    0.380
    0.598
    0.428
   -0.026
   -0.457
   -0.604
   -0.441
   -0.181
   -0.081
   -0.224
   -0.453
   -0.486
   -0.142
    0.496
    1.109
    1.350
    1.101
    0.568
    0.133
    0.050
    0.240
    0.345
    0.026
   -0.728
   -1.546
   -1.926
   -1.598
   -0.729
    0.203
    0.766
    0.897
    0.912
    1.184
    1.741
    2.164
    1.926
    0.876
   -0.552
   -1.641
   -1.937
   -1.572
   -1.080
   -0.891
   -0.968
   -0.914
   -0.418
    0.396
    1.070
    1.242
    0.982
    0.687
    0.660
    0.804
    0.747
    0.281
   -0.367
   -0.719
   -0.528
   -0.055
    0.153
   -0.204
   -0.865
   -1.218
   -0.858
    0.030
    0.817
    0.979
    0.555
    0.085
    0.100
    0.638
    1.236
    1.371
    0.918
    0.211
   -0.284
   -0.340
   -0.063
    0.274
    0.434
    0.272
   -0.297
   -1.253
   -2.346
   -3.083
   -2.947
   -1.772
    0.052
    1.755
    2.664
    2.603
    1.909
    1.085
    0.427
   -0.100
   -0.690
   -1.438
   -2.205
   -2.683
   -2.590
   -1.843
   -0.628
    0.665
    1.590
    1.847
    1.457
    0.770
    0.263
    0.208
    0.492
    0.730
    0.600
    0.124
   -0.342
   -0.405
    0.034
    0.698
    1.154
    1.143
    0.717
    0.136
   -0.344
   -0.572
   -0.467
    0.007
    0.772
    1.550
    1.930
    1.630
    0.753
   -0.216
   -0.721
   -0.546
    0.024
    0.423
    0.232
   -0.525
   -1.433
   -2.001
   -1.979
   -1.453
   -0.714
   -0.050
    0.408
    0.691
    0.901
    1.072
    1.122
    0.918
    0.410
   -0.287
   -0.915
   -1.210
   -1.061
   -0.591
   -0.110
    0.075
   -0.133
   -0.549
   -0.835
   -0.753
   -0.330
    0.176
    0.482
    0.497
    0.394
    0.478
    0.947
    1.704
    2.354
    2.427
    1.701
    0.413
   -0.836
   -1.442
   -1.194
   -0.409
    0.318
    0.540
    0.238
   -0.269
   -0.654
   -0.844
   -1.005
   -1.296
   -1.681
   -1.951
   -1.915
   -1.547
   -0.966
   -0.319
    0.278
    0.714
    0.841
    0.552
   -0.069
   -0.689
   -0.904
   -0.551
    0.106
    0.543
    0.408
   -0.151
   -0.579
   -0.401
    0.319
    0.969
    0.905
    0.074
   -0.850
   -0.983
    0.022
    1.640
    2.882
    3.077
    2.363
    1.456
    0.961
    0.873
    0.711
    0.095
   -0.813
   -1.436
   -1.343
   -0.675
   -0.051
   -0.038
   -0.684
   -1.518
   -1.973
   -1.848
   -1.416
   -1.104
   -1.063
   -1.042
   -0.694
    0.006
    0.662
    0.805
    0.360
   -0.232
   -0.390
    0.068
    0.730
    0.939
    0.378
   -0.634
   -1.394
   -1.381
   -0.629
    0.370
    1.123
    1.501
    1.717
    1.996
    2.292
    2.347
    2.039
    1.619
    1.544
    2.020
    2.673
    2.728
    1.612
   -0.500
   -2.664
   -3.760
   -3.287
   -1.739
   -0.240
    0.281
   -0.283
   -1.295
   -2.008
   -2.174
   -2.079
   -2.073
   -2.111
   -1.777
   -0.736
    0.824
    2.222
    2.766
    2.277
    1.200
    0.229
   -0.222
   -0.255
   -0.286
   -0.618
   -1.157
   -1.496
   -1.265
   -0.455
    0.530
    1.143
    1.064
    0.423
   -0.294
   -0.593
   -0.310
    0.296
    0.771
    0.841
    0.614
    0.453
    0.627
    1.038
    1.272
    0.948
    0.073
   -0.892
   -1.350
   -1.033
   -0.216
    0.504
    0.685
    0.375
    0.010
   -0.001
    0.362
    0.718
    0.616
   -0.062
   -0.949
   -1.434
   -1.134
   -0.231
    0.618
    0.763
    0.054
   -1.046
   -1.829
   -1.885
   -1.371
   -0.805
   -0.586
   -0.683
   -0.732
   -0.444
    0.085
    0.461
    0.390
   -0.005
   -0.264
   -0.035
    0.538
    0.877
    0.498
   -0.447
   -1.152
   -0.789
    0.712
    2.451
    3.211
    2.455
    0.777
   -0.610
   -0.887
   -0.205
    0.639
    1.030
    1.014
    1.034
    1.276
    1.378
    0.804
   -0.537
   -2.074
   -2.991
   -2.868
   -1.958
   -0.902
   -0.234
   -0.099
   -0.327
   -0.620
   -0.685
   -0.327
    0.408
    1.141
    1.346
    0.808
   -0.060
   -0.448
    0.150
    1.408
    2.388
    2.343
    1.352
    0.176
   -0.500
   -0.651
   -0.780
   -1.280
   -1.992
   -2.381
   -2.087
   -1.242
   -0.264
    0.584
    1.344
    2.085
    2.589
    2.422
    1.395
   -0.064
   -1.097
   -1.107
   -0.307
    0.436
    0.372
   -0.494
   -1.480
   -1.904
   -1.636
   -1.053
   -0.539
   -0.146
    0.255
    0.625
    0.701
    0.333
   -0.216
   -0.423
   -0.013
    0.741
    1.263
    1.234
    0.861
    0.583
    0.557
    0.513
    0.136
   -0.487
   -0.878
   -0.687
   -0.136
    0.113
   -0.405
   -1.447
   -2.207
   -2.003
   -0.878
    0.456
    1.239
    1.265
    0.902
    0.617
    0.512
    0.329
   -0.154
   -0.802
   -1.205
   -1.052
   -0.410
    0.373
    0.991
    1.392
    1.708
    2.024
    2.265
    2.261
    1.886
    1.123
    0.041
   -1.196
   -2.274
   -2.768
   -2.370
   -1.188
    0.178
    0.954
    0.721
   -0.250
   -1.178
   -1.340
   -0.593
    0.575
    1.467
    1.672
    1.247
    0.519
   -0.215
   -0.807
   -1.161
   -1.155
   -0.725
   -0.043
    0.465
    0.375
   -0.403
   -1.522
   -2.435
   -2.758
   -2.438
   -1.641
   -0.559
    0.646
    1.759
    2.472
    2.538
    1.986
    1.178
    0.585
    0.464
    0.687
    0.867
    0.641
   -0.093
   -1.121
   -2.011
   -2.303
   -1.759
   -0.549
    0.784
    1.656
    1.846
    1.627
    1.490
    1.716
    2.164
    2.461
    2.376
    2.002
    1.564
    1.095
    0.370
   -0.814
   -2.271
   -3.419
   -3.672
   -2.924
   -1.657
   -0.557
    0.001
    0.156
    0.256
    0.392
    0.256
   -0.478
   -1.622
   -2.389
   -1.984
   -0.387
    1.415
    2.111
    1.141
   -0.773
   -2.179
   -2.073
   -0.684
    0.828
    1.428
    1.013
    0.311
    0.059
    0.302
    0.456
   -0.010
   -0.974
   -1.726
   -1.609
   -0.638
    0.492
    0.976
    0.567
   -0.254
   -0.720
   -0.443
    0.297
    0.873
    0.917
    0.637
    0.530
    0.817
    1.168
    1.052
    0.346
   -0.441
   -0.620
   -0.036
    0.713
    0.819
    0.068
   -0.906
   -1.203
   -0.534
    0.486
    0.926
    0.445
   -0.418
   -0.815
   -0.443
    0.195
    0.368
   -0.115
   -0.718
   -0.736
    0.003
    0.967
    1.415
    1.061
    0.279
   -0.285
   -0.294
    0.056
    0.317
    0.225
   -0.110
   -0.392
   -0.444
   -0.307
   -0.083
    0.247
    0.782
    1.477
    1.992
    1.868
    0.912
   -0.526
   -1.707
   -1.997
   -1.352
   -0.363
    0.179
   -0.132
   -1.030
   -1.830
   -1.978
   -1.435
   -0.608
    0.069
    0.490
    0.854
    1.330
    1.778
    1.846
    1.380
    0.711
    0.483
    1.087
    2.213
    2.981
    2.619
    1.115
   -0.752
   -2.044
   -2.401
   -2.190
   -1.979
   -1.930
   -1.760
   -1.269
   -0.787
   -0.926
   -1.841
   -2.835
   -2.858
   -1.529
    0.357
    1.438
    1.007
   -0.324
   -1.176
   -0.671
    0.769
    1.832
    1.497
   -0.086
   -1.743
   -2.255
   -1.316
    0.280
    1.307
    1.045
   -0.223
   -1.516
   -1.961
   -1.435
   -0.545
   -0.009
   -0.007
   -0.102
    0.249
    1.105
    1.928
    2.064
    1.348
    0.267
   -0.445
   -0.415
    0.106
    0.514
    0.383
   -0.225
   -0.847
   -0.987
   -0.423
    0.720
    2.081
    3.250
    3.904
    3.927
    3.469
    2.924
    2.739
    3.125
    3.822
    4.171
    3.552
    1.932
    0.034
   -1.113
   -0.962
    0.082
    1.004
    1.086
    0.561
    0.339
    1.021
    2.151
    2.498
    1.172
   -1.455
   -3.936
   -4.903
   -4.159
   -2.752
   -1.971
   -2.238
   -2.882
   -2.951
   -2.217
   -1.415
   -1.508
   -2.745
   -4.374
   -5.251
   -4.730
   -3.058
   -1.011
    0.774
    2.139
    3.195
    3.899
    3.933
    3.025
    1.367
   -0.330
   -1.255
   -1.053
   -0.051
    1.023
    1.580
    1.529
    1.189
    0.887
    0.644
    0.184
   -0.794
   -2.311
   -4.018
   -5.342
   -5.778
   -5.148
   -3.690
   -1.928
   -0.386
    0.686
    1.375
    1.915
    2.433
    2.867
    3.137
    3.318
    3.577
    3.887
    3.876
    3.034
    1.179
   -1.225
   -3.234
   -3.971
   -3.183
   -1.395
    0.428
    1.461
    1.466
    0.844
    0.292
    0.335
    1.006
    1.863
    2.328
    2.129
    1.542
    1.230
    1.695
    2.757
    3.531
    3.059
    1.135
   -1.362
   -3.015
   -2.919
   -1.388
    0.277
    0.814
   -0.041
   -1.446
   -2.241
   -1.916
   -0.926
   -0.156
   -0.085
   -0.433
   -0.537
   -0.068
    0.644
    0.958
    0.584
   -0.126
   -0.540
   -0.409
   -0.166
   -0.529
   -1.767
   -3.338
   -4.282
   -4.035
   -2.925
   -1.907
   -1.790
   -2.626
   -3.745
   -4.302
   -3.873
   -2.646
   -1.173
    0.067
    0.940
    1.628
    2.402
    3.376
    4.392
    5.071
    5.014
    4.055
    2.413
    0.604
   -0.838
   -1.638
   -1.831
   -1.578
   -0.974
   -0.046
    1.057
    1.939
    2.112
    1.380
    0.100
   -0.962
   -1.137
   -0.312
    1.044
    2.307
    3.202
    3.934
    4.887
    6.157
    7.326
    7.661
    6.587
    4.115
    0.929
   -1.977
   -3.894
   -4.808
   -5.276
   -5.827
   -6.363
   -6.130
   -4.386
   -1.256
    2.007
    3.740
    3.081
    0.675
   -1.771
   -2.737
   -1.918
   -0.235
    1.062
    1.342
    0.819
    0.042
   -0.677
   -1.325
   -1.834
   -1.931
   -1.475
   -0.874
   -0.961
   -2.276
   -4.411
   -6.149
   -6.382
   -5.022
   -3.058
   -1.675
   -1.251
   -1.131
   -0.316
    1.641
    4.332
    6.912
    8.721
    9.521
    9.307
    8.082
    5.916
    3.151
    0.391
   -1.849
   -3.468
   -4.699
   -5.683
   -6.193
   -5.855
   -4.641
   -3.084
   -1.928
   -1.527
   -1.572
   -1.407
   -0.632
    0.602
    1.822
    2.693
    3.200
    3.417
    3.222
    2.364
    0.867
   -0.686
   -1.437
   -0.981
    0.140
    0.746
   -0.038
   -2.018
   -4.057
   -4.946
   -4.244
   -2.404
   -0.248
    1.655
    3.172
    4.386
    5.282
    5.667
    5.322
    4.212
    2.594
    0.945
   -0.217
   -0.574
   -0.186
    0.501
    0.901
    0.657
   -0.111
   -0.904
   -1.240
   -1.035
   -0.672
   -0.699
   -1.408
   -2.641
   -3.943
   -4.899
   -5.365
   -5.448
   -5.300
   -4.927
   -4.138
   -2.723
   -0.732
    1.363
    2.836
    3.165
    2.417
    1.208
    0.217
   -0.326
   -0.698
   -1.216
   -1.724
   -1.576
   -0.208
    2.230
    4.815
    6.440
    6.553
    5.446
    3.933
    2.775
    2.275
    2.261
    2.358
    2.302
    2.112
    2.017
    2.212
    2.614
    2.800
    2.264
    0.831
   -1.077
   -2.630
   -3.151
   -2.588
   -1.526
   -0.746
   -0.685
   -1.177
   -1.616
   -1.438
   -0.571
    0.479
    0.954
    0.369
   -1.146
   -2.919
   -4.190
   -4.597
   -4.343
   -3.918
   -3.636
   -3.350
   -2.572
   -0.855
    1.812
    4.829
    7.154
    7.765
    6.257
    3.194
   -0.109
   -2.394
   -3.279
   -3.400
   -3.671
   -4.316
   -4.631
   -3.777
   -1.867
   -0.220
   -0.332
   -2.410
   -4.872
   -5.424
   -2.892
    1.739
    5.990
    7.686
    6.468
    3.852
    1.921
    1.747
    2.751
    3.370
    2.323
   -0.505
   -4.100
   -7.026
   -8.232
   -7.499
   -5.380
   -2.760
   -0.339
    1.623
    3.209
    4.560
    5.686
    6.485
    6.831
    6.593
    5.580
    3.630
    0.893
   -1.921
   -3.691
   -3.525
   -1.482
    1.223
    2.820
    2.063
   -0.909
   -4.594
   -7.053
   -7.163
   -5.272
   -2.815
   -1.198
   -0.797
   -0.800
    0.061
    2.463
    5.931
    9.111
   10.588
    9.623
    6.374
    1.672
   -3.320
   -7.350
   -9.317
   -8.652
   -5.705
   -1.765
    1.500
    2.925
    2.471
    1.142
    0.265
    0.609
    1.943
    3.293
    3.715
    3.015
    1.888
    1.352
    1.906
    3.108
    3.932
    3.607
    2.207
    0.495
   -0.816
   -1.691
   -2.702
   -4.323
   -6.255
   -7.492
   -7.142
   -5.300
   -3.139
   -2.066
   -2.584
   -3.832
   -4.221
   -2.715
    0.292
    3.220
    4.483
    3.635
    1.601
   -0.144
   -0.741
   -0.510
   -0.496
   -1.456
   -3.140
   -4.466
   -4.396
   -2.777
   -0.463
    1.362
    2.097
    2.131
    2.387
    3.381
    4.600
    4.824
    3.190
    0.136
   -2.694
   -3.631
   -2.312
    0.004
    1.498
    1.303
    0.170
   -0.318
    0.791
    2.958
    4.623
    4.520
    2.700
    0.467
   -0.626
    0.105
    2.088
    4.008
    4.737
    3.958
    2.093
   -0.219
   -2.591
   -4.927
   -7.131
   -8.838
   -9.476
   -8.621
   -6.351
   -3.277
   -0.213
    2.270
    4.062
    5.359
    6.325
    6.879
    6.779
    5.873
    4.249
    2.193
    0.068
   -1.717
   -2.726
   -2.630
   -1.460
    0.241
    1.617
    1.961
    1.149
   -0.316
   -1.650
   -2.264
   -2.037
   -1.247
   -0.289
    0.593
    1.414
    2.358
    3.541
    4.748
    5.341
    4.512
    1.802
   -2.436
   -6.999
  -10.298
  -11.079
   -9.005
   -4.845
   -0.144
    3.482
    5.090
    4.755
    3.281
    1.518
   -0.122
   -1.591
   -2.738
   -3.088
   -2.196
   -0.199
    2.087
    3.759
    4.527
    4.784
    4.994
    5.095
    4.564
    3.024
    0.673
   -1.914
   -4.320
   -6.514
   -8.527
   -9.989
  -10.127
   -8.380
   -5.065
   -1.427
    1.124
    1.966
    1.604
    1.114
    1.204
    1.706
    1.865
    1.108
   -0.395
   -1.819
   -2.300
   -1.542
    0.030
    1.603
    2.464
    2.331
    1.449
    0.480
    0.197
    1.035
    2.729
    4.423
    5.305
    5.288
    5.066
    5.393
    6.225
    6.587
    5.383
    2.431
   -1.254
   -4.215
   -5.648
   -5.848
   -5.685
   -5.704
   -5.687
   -5.014
   -3.437
   -1.513
   -0.283
   -0.418
   -1.580
   -2.574
   -2.242
   -0.375
    2.126
    4.010
    4.678
    4.513
    4.253
    4.065
    3.328
    1.428
   -1.241
   -3.222
   -3.142
   -1.061
    1.346
    2.101
    0.643
   -1.621
   -2.489
   -0.850
    2.360
    4.940
    5.192
    3.166
    0.427
   -1.280
   -1.306
   -0.339
    0.409
    0.288
   -0.334
   -0.563
    0.116
    1.340
    2.198
    2.024
    0.905
   -0.500
   -1.577
   -2.196
   -2.602
   -2.948
   -3.020
   -2.470
   -1.315
   -0.150
    0.231
   -0.496
   -1.821
   -2.695
   -2.273
   -0.530
    1.691
    3.230
    3.354
    2.154
    0.354
   -1.261
   -2.319
   -2.900
   -3.228
   -3.412
   -3.457
   -3.438
   -3.520
   -3.737
   -3.800
   -3.236
   -1.831
    0.029
    1.508
    1.902
    1.182
    0.048
   -0.567
   -0.125
    1.232
    2.917
    4.374
    5.394
    6.076
    6.581
    6.917
    6.921
    6.383
    5.219
    3.558
    1.702
   -0.022
   -1.374
   -2.228
   -2.545
   -2.398
   -2.039
   -1.883
   -2.328
   -3.489
   -5.028
   -6.235
   -6.373
   -5.126
   -2.854
   -0.440
    1.206
    1.635
    1.001
   -0.165
   -1.330
   -2.169
   -2.540
   -2.338
   -1.458
    0.047
    1.738
    2.816
    2.560
    0.948
   -1.138
   -2.444
   -2.260
   -0.949
    0.400
    0.922
    0.673
    0.445
    0.890
    1.811
    2.337
    1.820
    0.550
   -0.449
   -0.384
    0.533
    1.259
    0.906
   -0.417
   -1.716
   -2.055
   -1.375
   -0.380
    0.361
    1.098
    2.570
    4.974
    7.391
    8.369
    7.203
    4.611
    2.121
    0.720
    0.084
   -0.895
   -2.832
   -5.049
   -6.037
   -4.775
   -1.713
    1.465
    3.093
    2.703
    1.159
   -0.279
   -1.086
   -1.768
   -3.134
   -5.274
   -7.231
   -7.695
   -6.104
   -3.227
   -0.708
    0.101
   -0.848
   -2.207
   -2.216
   -0.063
    3.390
    6.164
    6.630
    4.762
    2.143
    0.723
    1.365
    3.315
    4.953
    5.089
    3.752
    1.960
    0.811
    0.714
    1.291
    1.793
    1.593
    0.477
   -1.275
   -2.944
   -3.668
   -2.945
   -1.079
    0.837
    1.536
    0.421
   -1.982
   -4.332
   -5.322
   -4.490
   -2.471
   -0.583
   -0.010
   -1.073
   -3.027
   -4.518
   -4.436
   -2.639
   -0.086
    1.746
    1.831
    0.285
   -1.742
   -2.905
   -2.576
   -1.096
    0.739
    2.354
    3.593
    4.389
    4.482
    3.625
    2.068
    0.658
    0.257
    0.936
    1.806
    1.786
    0.676
   -0.526
   -0.469
    1.276
    3.697
    5.111
    4.513
    2.295
   -0.246
   -2.045
   -2.960
   -3.483
   -3.960
   -4.179
   -3.735
   -2.683
   -1.761
   -1.839
   -3.072
   -4.584
   -5.091
   -3.979
   -1.878
   -0.167
    0.172
   -0.615
   -1.255
   -0.531
    1.666
    4.202
    5.583
    5.119
    3.361
    1.533
    0.526
    0.360
    0.492
    0.570
    0.813
    1.613
    2.799
    3.414
    2.457
   -0.018
   -2.544
   -3.209
   -1.256
    2.103
    4.495
    4.208
    1.484
   -1.775
   -3.544
   -3.119
   -1.356
    0.256
    0.756
    0.206
   -0.674
   -1.228
   -1.293
   -1.067
   -0.697
   -0.051
    1.049
    2.379
    3.202
    2.741
    0.917
   -1.331
   -2.585
   -1.991
    0.033
    2.090
    2.869
    2.109
    0.677
   -0.237
   -0.096
    0.628
    0.951
    0.243
   -1.239
   -2.579
   -2.922
   -2.104
   -0.699
    0.444
    0.779
    0.335
   -0.428
   -1.002
   -1.170
   -1.082
   -1.037
   -1.168
   -1.277
   -0.984
   -0.112
    1.061
    1.936
    2.057
    1.525
    0.970
    1.045
    1.837
    2.715
    2.790
    1.630
   -0.368
   -2.281
   -3.339
   -3.415
   -2.940
   -2.407
   -1.945
   -1.339
   -0.436
    0.539
    1.122
    1.114
    0.924
    1.311
    2.666
    4.465
    5.489
    4.706
    2.119
   -1.138
   -3.546
   -4.203
   -3.350
   -2.092
   -1.606
   -2.401
   -4.087
   -5.683
   -6.217
   -5.253
   -3.121
   -0.764
    0.781
    1.008
    0.277
   -0.439
   -0.277
    0.870
    2.316
    3.192
    3.136
    2.483
    1.868
    1.670
    1.812
    1.969
    1.928
    1.746
    1.617
    1.585
    1.348
    0.383
   -1.629
   -4.339
   -6.676
   -7.396
   -5.933
   -2.875
    0.356
    2.409
    2.818
    2.129
    1.347
    1.209
    1.837
    2.873
    3.835
    4.352
    4.230
    3.457
    2.237
    0.979
    0.119
   -0.167
   -0.120
   -0.192
   -0.612
   -1.121
   -1.170
   -0.455
    0.708
    1.547
    1.453
    0.520
   -0.477
   -0.690
    0.105
    1.312
    1.980
    1.544
    0.231
   -1.163
   -1.901
   -1.788
   -1.192
   -0.653
   -0.470
   -0.525
   -0.424
    0.165
    1.170
    2.006
    1.838
    0.144
   -2.774
   -5.747
   -7.342
   -6.805
   -4.644
   -2.310
   -1.134
   -1.339
   -1.908
   -1.423
    0.773
    3.948
    6.361
    6.418
    3.845
    0.017
   -2.859
   -3.188
   -1.037
    2.024
    4.105
    4.254
    2.844
    0.966
   -0.511
   -1.398
   -1.942
   -2.295
   -2.290
   -1.702
   -0.641
    0.397
    0.907
    0.821
    0.560
    0.635
    1.175
    1.846
    2.247
    2.346
    2.451
    2.683
    2.551
    1.269
   -1.302
   -4.034
   -5.113
   -3.549
   -0.289
    2.277
    2.177
   -0.490
   -3.603
