Origin Time       14/03/2010 6:53:21	 UTC
Lat.              31.7 N	
Long.             76.1 E	
Depth (Km)         29.0
Magnitude         4.6
 Region           HIMACHAL-PUNJAB-(HOSHIARPUR)-BORDER                              
 Above details taken from IMD 
    
Station Code      JAL
Station Lat.       31.320  N
Station Long.      75.594  E
Station Height(m)  235.0
Site Class        C   Vs30 between 200 m/sec to 375 m/sec *  
Record Time       14.03.2010 06:53:17.374 UTC
Sampling Rate     200. Hz
 Record Duration   65.435 Sec.
 Direction         N-S (N positive)
Max. Acceleration     -5.330 cm/sec**2
     
  * For reference see Site Classification link of website 
     
 Base Line Corrected and Low Pass Filtered (Cut Off at 35 Hz) Time History
 Acceleration data in cm/sec**2
    
[...]
      -0.748
      -0.780
      -0.801
      -0.768
      -0.649
      -0.455
      -0.238
      -0.055
       0.072
       0.154
       0.212
       0.253
       0.274
       0.279
       0.289
       0.326
       0.397
       0.480
       0.538
       0.543
       0.496
       0.429
       0.381
       0.371
       0.390
       0.414
       0.424
       0.420
       0.408
       0.388
       0.355
       0.305
       0.251
       0.211
       0.203
       0.221
       0.247
       0.257
       0.234
       0.177
       0.103
       0.038
      -0.006
      -0.033
      -0.064
      -0.114
      -0.183
      -0.260
      -0.332
      -0.390
      -0.427
      -0.439
      -0.425
      -0.397
      -0.383
      -0.409
      -0.481
      -0.568
      -0.620
      -0.606
      -0.531
      -0.437
      -0.364
      -0.327
      -0.310
      -0.287
      -0.238
      -0.164
      -0.074
       0.017
       0.092
       0.137
       0.152
       0.158
       0.185
       0.249
       0.342
       0.435
       0.503
       0.550
       0.597
       0.672
       0.785
       0.930
       1.089
       1.236
       1.341
       1.375
       1.322
       1.192
       1.016
       0.835
       0.673
       0.530
       0.382
       0.200
      -0.030
      -0.294
      -0.564
      -0.809
      -1.012
      -1.173
      -1.307
      -1.434
      -1.562
      -1.680
      -1.762
      -1.777
      -1.708
      -1.560
      -1.356
      -1.122
      -0.874
      -0.610
      -0.319
      -0.001
       0.323
       0.616
       0.843
       0.992
       1.077
       1.126
       1.161
       1.194
       1.226
       1.253
       1.267
       1.246
       1.169
       1.017
       0.791
       0.508
       0.198
      -0.093
      -0.318
      -0.446
      -0.480
      -0.460
      -0.435
      -0.430
      -0.440
      -0.443
      -0.424
      -0.391
      -0.364
      -0.352
      -0.350
      -0.341
      -0.313
      -0.275
      -0.244
      -0.232
      -0.239
      -0.251
      -0.249
      -0.220
      -0.162
      -0.087
      -0.013
       0.041
       0.065
       0.055
       0.024
      -0.012
      -0.034
      -0.034
      -0.011
       0.026
       0.071
       0.114
       0.150
       0.173
       0.183
       0.186
       0.190
       0.193
       0.179
       0.124
       0.009
      -0.158
      -0.339
      -0.473
      -0.506
      -0.416
      -0.224
       0.010
       0.210
       0.311
       0.286
       0.156
      -0.023
      -0.184
      -0.279
      -0.287
      -0.212
      -0.069
       0.114
       0.298
       0.442
       0.511
       0.494
       0.405
       0.274
       0.137
       0.025
      -0.043
      -0.065
      -0.055
      -0.032
      -0.001
       0.042
       0.096
       0.138
       0.130
       0.048
      -0.098
      -0.269
      -0.423
      -0.538
      -0.610
      -0.648
      -0.660
      -0.640
      -0.569
      -0.433
      -0.238
      -0.021
       0.164
       0.272
       0.298
       0.274
       0.253
       0.279
       0.362
       0.481
       0.606
       0.711
       0.788
       0.837
       0.853
       0.824
       0.741
       0.615
       0.465
       0.309
       0.150
      -0.014
      -0.184
      -0.351
      -0.508
      -0.645
      -0.749
      -0.811
      -0.824
      -0.798
      -0.754
      -0.712
      -0.684
      -0.660
      -0.624
      -0.562
      -0.472
      -0.360
      -0.235
      -0.101
       0.040
       0.183
       0.314
       0.417
       0.476
       0.495
       0.495
       0.504
       0.540
       0.605
       0.692
       0.792
       0.889
       0.955
       0.952
       0.850
       0.643
       0.363
       0.069
      -0.177
      -0.341
      -0.434
      -0.495
      -0.567
      -0.668
      -0.780
      -0.862
      -0.875
      -0.802
      -0.655
      -0.471
      -0.294
      -0.163
      -0.090
      -0.060
      -0.036
       0.019
       0.121
       0.261
       0.412
       0.544
       0.642
       0.698
       0.715
       0.692
       0.620
       0.486
       0.287
       0.047
      -0.181
      -0.344
      -0.417
      -0.424
      -0.421
      -0.461
      -0.562
      -0.702
      -0.835
      -0.916
      -0.917
      -0.834
      -0.683
      -0.490
      -0.283
      -0.083
       0.095
       0.248
       0.374
       0.480
       0.567
       0.637
       0.687
       0.723
       0.759
       0.814
       0.890
       0.967
       1.011
       0.998
       0.928
       0.813
       0.669
       0.504
       0.326
       0.148
      -0.016
      -0.160
      -0.293
      -0.428
      -0.568
      -0.704
      -0.828
      -0.935
      -1.027
      -1.094
      -1.117
      -1.086
      -1.011
      -0.917
      -0.827
      -0.740
      -0.642
      -0.517
      -0.367
      -0.205
      -0.039
       0.134
       0.331
       0.560
       0.800
       1.004
       1.126
       1.140
       1.055
       0.905
       0.737
       0.587
       0.476
       0.402
       0.348
       0.292
       0.221
       0.132
       0.021
      -0.117
      -0.281
      -0.450
      -0.590
      -0.677
      -0.714
      -0.724
      -0.731
      -0.732
      -0.709
      -0.643
      -0.534
      -0.401
      -0.265
      -0.144
      -0.045
       0.032
       0.096
       0.164
       0.250
       0.354
       0.461
       0.549
       0.605
       0.629
       0.628
       0.612
       0.586
       0.552
       0.503
       0.425
       0.302
       0.135
      -0.049
      -0.200
      -0.272
      -0.253
      -0.181
      -0.117
      -0.115
      -0.184
      -0.299
      -0.416
      -0.498
      -0.521
      -0.475
      -0.367
      -0.229
      -0.109
      -0.047
      -0.049
      -0.082
      -0.101
      -0.083
      -0.026
       0.055
       0.154
       0.268
       0.388
       0.495
       0.567
       0.591
       0.562
       0.482
       0.356
       0.203
       0.048
      -0.083
      -0.179
      -0.242
      -0.279
      -0.295
      -0.294
      -0.288
      -0.288
      -0.302
      -0.330
      -0.358
      -0.371
      -0.356
      -0.308
      -0.236
      -0.150
      -0.061
       0.029
       0.119
       0.204
       0.274
       0.318
       0.334
       0.323
       0.282
       0.208
       0.102
      -0.018
      -0.117
      -0.162
      -0.143
      -0.082
      -0.013
       0.030
       0.028
      -0.018
      -0.090
      -0.158
      -0.199
      -0.203
      -0.174
      -0.121
      -0.048
       0.041
       0.132
       0.204
       0.230
       0.199
       0.127
       0.051
       0.012
       0.034
       0.114
       0.235
       0.371
       0.493
       0.567
       0.559
       0.450
       0.254
       0.018
      -0.198
      -0.352
      -0.441
      -0.495
      -0.548
      -0.610
      -0.660
      -0.665
      -0.604
      -0.479
      -0.304
      -0.103
       0.103
       0.279
       0.390
       0.415
       0.362
       0.272
       0.198
       0.176
       0.211
       0.277
       0.337
       0.360
       0.336
       0.269
       0.183
       0.115
       0.104
       0.167
       0.280
       0.390
       0.438
       0.396
       0.277
       0.124
      -0.015
      -0.108
      -0.146
      -0.139
      -0.102
      -0.055
      -0.018
      -0.012
      -0.048
      -0.129
      -0.238
      -0.348
      -0.430
      -0.470
      -0.466
      -0.421
      -0.338
      -0.227
      -0.112
      -0.023
       0.019
       0.012
      -0.025
      -0.069
      -0.106
      -0.129
      -0.136
      -0.129
      -0.120
      -0.121
      -0.143
      -0.190
      -0.259
      -0.333
      -0.385
      -0.385
      -0.310
      -0.168
       0.007
       0.170
       0.283
       0.330
       0.315
       0.253
       0.169
       0.097
       0.069
       0.098
       0.167
       0.242
       0.288
       0.284
       0.227
       0.136
       0.035
      -0.052
      -0.109
      -0.128
      -0.116
      -0.087
      -0.053
      -0.019
       0.015
       0.049
       0.083
       0.120
       0.173
       0.259
       0.380
       0.514
       0.624
       0.680
       0.675
       0.617
       0.513
       0.365
       0.189
       0.024
      -0.075
      -0.078
      -0.007
       0.076
       0.106
       0.058
      -0.047
      -0.167
      -0.276
      -0.375
      -0.483
      -0.618
      -0.779
      -0.941
      -1.060
      -1.092
      -1.014
      -0.834
      -0.588
      -0.324
      -0.094
       0.062
       0.128
       0.118
       0.076
       0.058
       0.104
       0.218
       0.376
       0.537
       0.668
       0.745
       0.755
       0.696
       0.587
       0.463
       0.362
       0.305
       0.280
       0.256
       0.200
       0.090
      -0.071
      -0.262
      -0.450
      -0.609
      -0.723
      -0.786
      -0.795
      -0.754
      -0.673
      -0.575
      -0.490
      -0.432
      -0.394
      -0.342
      -0.243
      -0.087
       0.107
       0.313
       0.513
       0.700
       0.870
       1.008
       1.092
       1.110
       1.066
       0.970
       0.831
       0.651
       0.441
       0.235
       0.070
      -0.041
      -0.116
      -0.194
      -0.299
      -0.428
      -0.557
      -0.665
      -0.743
      -0.796
      -0.826
      -0.833
      -0.811
      -0.751
      -0.647
      -0.502
      -0.331
      -0.157
       0.004
       0.138
       0.233
       0.271
       0.248
       0.184
       0.117
       0.073
       0.057
       0.052
       0.052
       0.062
       0.094
       0.138
       0.176
       0.197
       0.213
       0.250
       0.315
       0.393
       0.452
       0.473
       0.454
       0.404
       0.340
       0.278
       0.225
       0.172
       0.108
       0.029
      -0.054
      -0.125
      -0.178
      -0.221
      -0.265
      -0.313
      -0.356
      -0.384
      -0.390
      -0.368
      -0.314
      -0.218
      -0.081
       0.077
       0.213
       0.281
       0.258
       0.159
       0.032
      -0.074
      -0.129
      -0.140
      -0.126
      -0.094
      -0.037
       0.047
       0.146
       0.233
       0.287
       0.302
       0.285
       0.240
       0.167
       0.065
      -0.053
      -0.161
      -0.224
      -0.228
      -0.187
      -0.141
      -0.124
      -0.142
      -0.172
      -0.180
      -0.155
      -0.112
      -0.079
      -0.067
      -0.063
      -0.050
      -0.023
       0.005
       0.020
       0.017
       0.012
       0.016
       0.030
       0.042
       0.042
       0.028
       0.008
      -0.016
      -0.054
      -0.117
      -0.200
      -0.281
      -0.331
      -0.333
      -0.291
      -0.223
      -0.142
      -0.047
       0.066
       0.197
       0.324
       0.417
       0.451
       0.425
       0.367
       0.319
       0.307
       0.327
       0.342
       0.306
       0.195
       0.023
      -0.168
      -0.324
      -0.409
      -0.413
      -0.348
      -0.243
      -0.131
      -0.051
      -0.030
      -0.072
      -0.148
      -0.216
      -0.245
      -0.236
      -0.208
      -0.181
      -0.153
      -0.108
      -0.027
       0.100
       0.263
       0.437
       0.585
       0.678
       0.703
       0.677
       0.628
       0.587
       0.570
       0.583
       0.618
       0.648
       0.629
       0.526
       0.345
       0.137
      -0.035
      -0.141
      -0.206
      -0.283
      -0.401
      -0.539
      -0.651
      -0.693
      -0.649
      -0.531
      -0.368
      -0.203
      -0.087
      -0.061
      -0.136
      -0.280
      -0.424
      -0.497
      -0.460
      -0.322
      -0.138
       0.024
       0.119
       0.133
       0.086
       0.003
      -0.094
      -0.189
      -0.265
      -0.302
      -0.287
      -0.222
      -0.127
      -0.026
       0.056
       0.104
       0.103
       0.054
      -0.023
      -0.093
      -0.122
      -0.101
      -0.053
      -0.016
      -0.016
      -0.053
      -0.099
      -0.123
      -0.107
      -0.052
       0.031
       0.140
       0.272
       0.416
       0.548
       0.636
       0.666
       0.646
       0.596
       0.526
       0.434
       0.318
       0.189
       0.071
      -0.010
      -0.046
      -0.048
      -0.032
      -0.013
      -0.001
      -0.008
      -0.040
      -0.098
      -0.171
      -0.250
      -0.332
      -0.422
      -0.516
      -0.594
      -0.624
      -0.583
      -0.479
      -0.351
      -0.247
      -0.194
      -0.186
      -0.193
      -0.191
      -0.173
      -0.151
      -0.137
      -0.124
      -0.094
      -0.041
       0.018
       0.042
       0.002
      -0.099
      -0.221
      -0.313
      -0.343
      -0.313
      -0.259
      -0.231
      -0.273
      -0.394
      -0.568
      -0.745
      -0.873
      -0.924
      -0.889
      -0.770
      -0.575
      -0.317
      -0.029
       0.255
       0.511
       0.736
       0.937
       1.116
       1.264
       1.372
       1.446
       1.502
       1.556
       1.610
       1.660
       1.712
       1.786
       1.906
       2.079
       2.285
       2.495
       2.672
       2.789
       2.829
       2.792
       2.698
       2.578
       2.452
       2.320
       2.152
       1.906
       1.542
       1.043
       0.424
      -0.264
      -0.955
      -1.581
      -2.097
      -2.479
      -2.731
      -2.889
      -3.013
      -3.180
      -3.451
      -3.844
      -4.315
      -4.778
      -5.140
      -5.330
      -5.319
      -5.113
      -4.728
      -4.191
      -3.545
      -2.859
      -2.216
      -1.684
      -1.298
      -1.050
      -0.900
      -0.795
      -0.687
      -0.539
      -0.319
       0.000
       0.437
       0.985
       1.600
       2.205
       2.720
       3.095
       3.326
       3.445
       3.495
       3.498
       3.450
       3.330
       3.124
       2.838
       2.503
       2.161
       1.843
       1.551
       1.263
       0.949
       0.594
       0.216
      -0.151
      -0.475
      -0.744
      -0.976
      -1.195
      -1.407
      -1.592
      -1.713
      -1.742
      -1.669
      -1.508
      -1.280
      -1.018
      -0.757
      -0.538
      -0.391
      -0.310
      -0.254
      -0.150
       0.072
       0.453
       0.978
       1.583
       2.177
       2.681
       3.049
       3.259
       3.290
       3.123
       2.762
       2.263
       1.728
       1.260
       0.912
       0.672
       0.474
       0.242
      -0.081
      -0.516
      -1.044
      -1.614
      -2.154
      -2.596
      -2.899
      -3.059
      -3.101
      -3.062
      -2.978
      -2.872
      -2.745
      -2.580
      -2.359
      -2.072
      -1.731
      -1.365
      -1.010
      -0.687
      -0.400
      -0.133
       0.134
       0.412
       0.694
       0.958
       1.176
       1.334
       1.429
       1.481
       1.514
       1.546
       1.577
       1.592
       1.568
       1.488
       1.346
       1.146
       0.897
       0.609
       0.305
       0.017
      -0.228
      -0.421
      -0.571
      -0.691
      -0.780
      -0.834
      -0.859
      -0.874
      -0.900
      -0.933
      -0.941
      -0.879
      -0.714
      -0.440
      -0.077
       0.329
       0.719
       1.035
       1.237
       1.312
       1.276
       1.180
       1.097
       1.090
       1.174
       1.306
       1.413
       1.441
       1.381
       1.263
       1.119
       0.958
       0.761
       0.498
       0.147
      -0.287
      -0.775
      -1.267
      -1.705
      -2.025
      -2.176
      -2.134
      -1.911
      -1.559
      -1.151
      -0.763
      -0.456
      -0.266
      -0.203
      -0.253
      -0.376
      -0.516
      -0.620
      -0.663
      -0.645
      -0.588
      -0.513
      -0.439
      -0.370
      -0.295
      -0.192
      -0.034
       0.192
       0.484
       0.814
       1.130
       1.364
       1.446
       1.331
       1.022
       0.583
       0.124
      -0.231
      -0.388
      -0.323
      -0.079
       0.256
       0.599
       0.899
       1.133
       1.286
       1.336
       1.263
       1.060
       0.734
       0.304
      -0.202
      -0.734
      -1.214
      -1.559
      -1.716
      -1.683
      -1.493
      -1.182
      -0.784
      -0.339
       0.083
       0.401
       0.556
       0.542
       0.394
       0.164
      -0.095
      -0.332
      -0.501
      -0.575
      -0.562
      -0.506
      -0.459
      -0.447
      -0.468
      -0.507
      -0.548
      -0.587
      -0.616
      -0.621
      -0.591
      -0.520
      -0.400
      -0.216
       0.046
       0.387
       0.780
       1.166
       1.470
       1.623
       1.589
       1.381
       1.060
       0.719
       0.442
       0.277
       0.223
       0.250
       0.322
       0.411
       0.497
       0.556
       0.562
       0.491
       0.329
       0.081
      -0.222
      -0.524
      -0.758
      -0.878
      -0.882
      -0.813
      -0.726
      -0.648
      -0.575
      -0.486
      -0.377
      -0.262
      -0.165
      -0.096
      -0.046
       0.007
       0.082
       0.187
       0.314
       0.450
       0.581
       0.699
       0.791
       0.837
       0.814
       0.712
       0.549
       0.376
       0.241
       0.166
       0.134
       0.111
       0.080
       0.046
       0.025
       0.015
      -0.006
      -0.071
      -0.192
      -0.350
      -0.500
      -0.587
      -0.578
      -0.474
      -0.318
      -0.172
      -0.089
      -0.089
      -0.150
      -0.228
      -0.275
      -0.257
      -0.168
      -0.023
       0.145
       0.299
       0.412
       0.471
       0.483
       0.460
       0.412
       0.347
       0.273
       0.195
       0.111
       0.012
      -0.110
      -0.254
      -0.410
      -0.570
      -0.730
      -0.888
      -1.035
      -1.153
      -1.228
      -1.264
      -1.268
      -1.241
      -1.173
      -1.055
      -0.896
      -0.715
      -0.517
      -0.282
       0.019
       0.383
       0.761
       1.077
       1.269
       1.315
       1.235
       1.074
       0.890
       0.741
       0.679
       0.720
       0.838
       0.966
       1.037
       1.014
       0.910
       0.766
       0.617
       0.470
       0.320
       0.172
       0.047
      -0.040
      -0.113
      -0.222
      -0.401
      -0.631
      -0.845
      -0.979
      -1.012
      -0.975
      -0.919
      -0.876
      -0.856
      -0.863
      -0.899
      -0.965
      -1.045
      -1.093
      -1.056
      -0.900
      -0.646
      -0.360
      -0.118
       0.048
       0.173
       0.323
       0.547
       0.835
       1.127
       1.355
       1.473
       1.464
       1.328
       1.086
       0.779
       0.474
       0.236
       0.097
       0.033
      -0.010
      -0.075
      -0.158
      -0.218
      -0.206
      -0.105
       0.060
       0.240
       0.382
       0.445
       0.407
       0.274
       0.086
      -0.087
      -0.177
      -0.145
      -0.006
       0.184
       0.361
       0.480
       0.536
       0.556
       0.569
       0.584
       0.570
       0.486
       0.303
       0.034
      -0.275
      -0.577
      -0.837
      -1.044
      -1.189
      -1.258
      -1.245
      -1.163
      -1.061
      -1.005
      -1.039
