Origin Time       14/03/2010 6:53:21	
Lat.              31.7 N	
Long.             76.1 E	
Depth (Km)         29.0
Magnitude         4.6
 Region           HIMACHAL-PUNJAB-(HOSHIARPUR)-BORDER                              
 Above details taken from IMD 
   
Station Code      JAL
Station Lat.       31.320
Station Long.      75.594
Station Height(m)  235.0
Site Class        C   Vs30 between 200 m/sec to 375 m/sec *  
Record Time       14.03.2010 06:53:17.374
Sampling Rate     200. Hz
 Record Duration   65.435 Sec.
 Direction         Vert. (Up positive)
Max. Acceleration     10.092 cm/sec**2
     
  * For reference see Site Classification link of website 
     
 Base Line Corrected and Low Pass Filtered (Cut Off at 35 Hz) Time History
 Acceleration data in cm/sec**2
    
[...]
      -0.023
       0.184
       0.334
       0.362
       0.262
       0.099
      -0.035
      -0.078
      -0.037
       0.019
       0.015
      -0.076
      -0.212
      -0.312
      -0.320
      -0.237
      -0.112
      -0.001
       0.066
       0.095
       0.107
       0.119
       0.143
       0.178
       0.206
       0.194
       0.120
      -0.004
      -0.132
      -0.220
      -0.248
      -0.221
      -0.153
      -0.070
      -0.005
       0.018
       0.000
      -0.015
       0.027
       0.139
       0.264
       0.315
       0.240
       0.058
      -0.155
      -0.318
      -0.380
      -0.324
      -0.165
       0.057
       0.271
       0.398
       0.382
       0.226
      -0.001
      -0.205
      -0.309
      -0.288
      -0.170
      -0.017
       0.103
       0.148
       0.123
       0.064
       0.018
       0.013
       0.045
       0.085
       0.094
       0.040
      -0.084
      -0.243
      -0.370
      -0.402
      -0.308
      -0.109
       0.131
       0.326
       0.407
       0.362
       0.233
       0.083
      -0.038
      -0.106
      -0.121
      -0.106
      -0.088
      -0.075
      -0.064
      -0.051
      -0.035
      -0.017
      -0.005
      -0.008
      -0.012
       0.013
       0.080
       0.158
       0.190
       0.137
       0.011
      -0.142
      -0.256
      -0.276
      -0.186
      -0.025
       0.129
       0.204
       0.173
       0.062
      -0.068
      -0.163
      -0.193
      -0.152
      -0.049
       0.092
       0.227
       0.299
       0.277
       0.166
       0.014
      -0.116
      -0.172
      -0.145
      -0.072
      -0.013
      -0.005
      -0.043
      -0.094
      -0.127
      -0.130
      -0.111
      -0.070
      -0.006
       0.078
       0.156
       0.191
       0.163
       0.086
      -0.007
      -0.087
      -0.138
      -0.150
      -0.125
      -0.071
      -0.005
       0.064
       0.121
       0.141
       0.100
       0.002
      -0.104
      -0.159
      -0.133
      -0.041
       0.077
       0.177
       0.222
       0.195
       0.102
      -0.028
      -0.160
      -0.261
      -0.309
      -0.286
      -0.182
       0.003
       0.239
       0.456
       0.557
       0.465
       0.177
      -0.226
      -0.607
      -0.825
      -0.786
      -0.483
       0.003
       0.528
       0.928
       1.061
       0.865
       0.398
      -0.167
      -0.617
      -0.813
      -0.758
      -0.569
      -0.378
      -0.234
      -0.083
       0.152
       0.463
       0.720
       0.764
       0.535
       0.127
      -0.277
      -0.504
      -0.484
      -0.282
      -0.045
       0.102
       0.134
       0.109
       0.097
       0.116
       0.124
       0.061
      -0.081
      -0.234
      -0.304
      -0.250
      -0.123
      -0.011
       0.034
       0.033
       0.035
       0.072
       0.137
       0.200
       0.230
       0.210
       0.138
       0.030
      -0.084
      -0.177
      -0.231
      -0.238
      -0.189
      -0.085
       0.044
       0.151
       0.197
       0.178
       0.121
       0.051
      -0.023
      -0.096
      -0.152
      -0.160
      -0.104
      -0.001
       0.105
       0.163
       0.142
       0.044
      -0.093
      -0.211
      -0.252
      -0.191
      -0.043
       0.132
       0.259
       0.292
       0.229
       0.114
      -0.001
      -0.081
      -0.121
      -0.139
      -0.144
      -0.126
      -0.067
       0.028
       0.119
       0.152
       0.102
      -0.010
      -0.129
      -0.199
      -0.189
      -0.106
       0.009
       0.109
       0.157
       0.142
       0.076
      -0.009
      -0.070
      -0.084
      -0.057
      -0.022
      -0.010
      -0.030
      -0.063
      -0.080
      -0.056
       0.018
       0.118
       0.195
       0.201
       0.129
       0.022
      -0.059
      -0.076
      -0.046
      -0.018
      -0.034
      -0.093
      -0.147
      -0.143
      -0.057
       0.075
       0.185
       0.215
       0.156
       0.042
      -0.086
      -0.203
      -0.288
      -0.310
      -0.237
      -0.066
       0.149
       0.321
       0.378
       0.304
       0.140
      -0.038
      -0.160
      -0.190
      -0.140
      -0.051
       0.028
       0.069
       0.067
       0.027
      -0.040
      -0.114
      -0.158
      -0.142
      -0.069
       0.023
       0.091
       0.114
       0.105
       0.092
       0.089
       0.087
       0.068
       0.026
      -0.020
      -0.044
      -0.036
      -0.011
       0.002
      -0.015
      -0.058
      -0.102
      -0.126
      -0.125
      -0.099
      -0.041
       0.054
       0.163
       0.229
       0.199
       0.073
      -0.080
      -0.168
      -0.143
      -0.033
       0.076
       0.113
       0.067
      -0.009
      -0.051
      -0.036
       0.005
       0.021
      -0.004
      -0.042
      -0.049
      -0.010
       0.043
       0.064
       0.038
      -0.011
      -0.043
      -0.043
      -0.027
      -0.030
      -0.069
      -0.123
      -0.145
      -0.093
       0.035
       0.184
       0.277
       0.260
       0.150
       0.016
      -0.077
      -0.109
      -0.098
      -0.059
       0.001
       0.067
       0.105
       0.082
      -0.010
      -0.133
      -0.224
      -0.227
      -0.130
       0.020
       0.147
       0.198
       0.173
       0.104
       0.029
      -0.038
      -0.095
      -0.137
      -0.140
      -0.078
       0.048
       0.180
       0.228
       0.141
      -0.044
      -0.216
      -0.263
      -0.147
       0.063
       0.245
       0.294
       0.184
      -0.031
      -0.261
      -0.417
      -0.441
      -0.321
      -0.093
       0.162
       0.359
       0.439
       0.399
       0.272
       0.102
      -0.075
      -0.215
      -0.256
      -0.153
       0.061
       0.265
       0.302
       0.091
      -0.291
      -0.641
      -0.737
      -0.475
       0.060
       0.630
       0.975
       0.961
       0.633
       0.155
      -0.292
      -0.593
      -0.713
      -0.677
      -0.533
      -0.329
      -0.104
       0.103
       0.258
       0.334
       0.332
       0.284
       0.229
       0.196
       0.178
       0.139
       0.044
      -0.105
      -0.252
      -0.319
      -0.260
      -0.101
       0.069
       0.153
       0.102
      -0.041
      -0.179
      -0.215
      -0.126
       0.035
       0.178
       0.238
       0.206
       0.119
       0.022
      -0.055
      -0.105
      -0.132
      -0.146
      -0.152
      -0.141
      -0.101
      -0.030
       0.055
       0.124
       0.158
       0.146
       0.091
       0.006
      -0.068
      -0.085
      -0.022
       0.091
       0.190
       0.213
       0.145
       0.019
      -0.111
      -0.190
      -0.184
      -0.093
       0.036
       0.124
       0.108
      -0.008
      -0.148
      -0.207
      -0.128
       0.050
       0.211
       0.242
       0.119
      -0.073
      -0.205
      -0.203
      -0.102
      -0.013
      -0.021
      -0.114
      -0.194
      -0.157
       0.015
       0.241
       0.397
       0.402
       0.256
       0.033
      -0.173
      -0.289
      -0.286
      -0.182
      -0.037
       0.075
       0.104
       0.056
      -0.026
      -0.087
      -0.081
       0.006
       0.139
       0.232
       0.202
       0.037
      -0.176
      -0.299
      -0.248
      -0.056
       0.145
       0.222
       0.139
      -0.023
      -0.141
      -0.147
      -0.068
       0.009
       0.015
      -0.046
      -0.106
      -0.096
       0.003
       0.147
       0.254
       0.263
       0.164
      -0.001
      -0.157
      -0.239
      -0.224
      -0.134
      -0.016
       0.094
       0.173
       0.210
       0.192
       0.119
       0.011
      -0.100
      -0.184
      -0.223
      -0.215
      -0.170
      -0.104
      -0.022
       0.071
       0.158
       0.206
       0.185
       0.097
      -0.012
      -0.084
      -0.095
      -0.071
      -0.061
      -0.089
      -0.131
      -0.133
      -0.052
       0.097
       0.242
       0.292
       0.203
       0.019
      -0.158
      -0.233
      -0.188
      -0.074
       0.040
       0.118
       0.161
       0.170
       0.135
       0.051
      -0.060
      -0.153
      -0.182
      -0.140
      -0.069
      -0.027
      -0.040
      -0.077
      -0.079
      -0.019
       0.075
       0.149
       0.163
       0.122
       0.057
       0.003
      -0.028
      -0.044
      -0.053
      -0.045
      -0.013
       0.024
       0.031
      -0.006
      -0.057
      -0.074
      -0.030
       0.052
       0.116
       0.110
       0.031
      -0.072
      -0.126
      -0.089
       0.010
       0.092
       0.084
      -0.022
      -0.152
      -0.208
      -0.135
       0.039
       0.209
       0.265
       0.168
      -0.020
      -0.177
      -0.207
      -0.109
       0.035
       0.137
       0.161
       0.128
       0.071
      -0.005
      -0.109
      -0.235
      -0.341
      -0.361
      -0.253
      -0.029
       0.237
       0.442
       0.507
       0.411
       0.196
      -0.074
      -0.326
      -0.475
      -0.440
      -0.204
       0.133
       0.405
       0.481
       0.347
       0.088
      -0.186
      -0.380
      -0.430
      -0.313
      -0.092
       0.097
       0.134
       0.030
      -0.079
      -0.064
       0.078
       0.234
       0.292
       0.221
       0.078
      -0.062
      -0.153
      -0.186
      -0.165
      -0.105
      -0.036
       0.002
      -0.009
      -0.039
      -0.036
       0.018
       0.084
       0.105
       0.050
      -0.056
      -0.153
      -0.178
      -0.105
       0.033
       0.149
       0.161
       0.061
      -0.070
      -0.115
      -0.029
       0.120
       0.210
       0.163
       0.007
      -0.160
      -0.239
      -0.193
      -0.055
       0.097
       0.181
       0.153
       0.034
      -0.102
      -0.179
      -0.174
      -0.131
      -0.108
      -0.115
      -0.101
      -0.016
       0.128
       0.254
       0.279
       0.175
      -0.011
      -0.184
      -0.268
      -0.239
      -0.128
       0.008
       0.116
       0.172
       0.177
       0.136
       0.060
      -0.028
      -0.084
      -0.076
      -0.013
       0.052
       0.062
      -0.004
      -0.112
      -0.194
      -0.189
      -0.087
       0.058
       0.159
       0.159
       0.076
      -0.017
      -0.049
      -0.015
       0.022
      -0.005
      -0.096
      -0.182
      -0.186
      -0.091
       0.049
       0.153
       0.169
       0.095
      -0.030
      -0.138
      -0.168
      -0.092
       0.051
       0.178
       0.218
       0.162
       0.059
      -0.033
      -0.089
      -0.112
      -0.108
      -0.074
      -0.029
      -0.008
      -0.043
      -0.118
      -0.170
      -0.131
       0.013
       0.188
       0.280
       0.215
       0.029
      -0.160
      -0.247
      -0.206
      -0.097
      -0.003
       0.037
       0.039
       0.036
       0.042
       0.047
       0.042
       0.040
       0.061
       0.113
       0.167
       0.172
       0.089
      -0.064
      -0.223
      -0.311
      -0.287
      -0.162
       0.005
       0.135
       0.181
       0.149
       0.088
       0.040
       0.016
      -0.005
      -0.039
      -0.078
      -0.096
      -0.079
      -0.044
      -0.023
      -0.034
      -0.064
      -0.083
      -0.066
      -0.013
       0.050
       0.084
       0.072
       0.034
       0.010
       0.024
       0.068
       0.107
       0.109
       0.068
       0.004
      -0.057
      -0.106
      -0.148
      -0.181
      -0.189
      -0.146
      -0.045
       0.089
       0.199
       0.226
       0.150
       0.010
      -0.106
      -0.130
      -0.069
       0.006
       0.024
      -0.025
      -0.089
      -0.103
      -0.048
       0.042
       0.106
       0.104
       0.043
      -0.026
      -0.050
      -0.016
       0.040
       0.064
       0.026
      -0.055
      -0.122
      -0.123
      -0.050
       0.060
       0.138
       0.127
       0.016
      -0.142
      -0.260
      -0.266
      -0.150
       0.038
       0.217
       0.321
       0.316
       0.203
       0.019
      -0.162
      -0.249
      -0.191
      -0.030
       0.119
       0.151
       0.053
      -0.089
      -0.160
      -0.102
       0.043
       0.161
       0.157
       0.023
      -0.144
      -0.213
      -0.119
       0.082
       0.247
       0.249
       0.073
      -0.171
      -0.330
      -0.311
      -0.138
       0.083
       0.230
       0.243
       0.136
      -0.026
      -0.164
      -0.216
      -0.162
      -0.024
       0.138
       0.249
       0.252
       0.138
      -0.041
      -0.195
      -0.243
      -0.167
      -0.025
       0.085
       0.100
       0.021
      -0.096
      -0.186
      -0.215
      -0.194
      -0.178
      -0.227
      -0.371
      -0.580
      -0.782
      -0.910
      -0.952
      -0.952
      -0.963
      -1.003
      -1.033
      -0.985
      -0.819
      -0.549
      -0.228
       0.090
       0.384
       0.667
       0.973
       1.327
       1.727
       2.124
       2.444
       2.602
       2.522
       2.134
       1.418
       0.440
      -0.643
      -1.661
      -2.517
      -3.238
      -3.912
      -4.602
      -5.268
      -5.769
      -5.917
      -5.556
      -4.626
      -3.192
      -1.416
       0.505
       2.413
       4.228
       5.929
       7.488
       8.807
       9.724
      10.092
       9.868
       9.134
       8.042
       6.719
       5.219
       3.529
       1.622
      -0.482
      -2.669
      -4.730
      -6.417
      -7.532
      -7.988
      -7.819
      -7.153
      -6.172
      -5.052
      -3.927
      -2.856
      -1.836
      -0.828
       0.209
       1.280
       2.335
       3.270
       3.950
       4.272
       4.216
       3.851
       3.293
       2.638
       1.903
       1.026
      -0.077
      -1.424
      -2.912
      -4.331
      -5.450
      -6.112
      -6.279
      -6.020
      -5.462
      -4.726
      -3.880
      -2.922
      -1.835
      -0.640
       0.581
       1.736
       2.782
       3.746
       4.670
       5.528
       6.207
       6.580
       6.602
       6.346
       5.929
       5.403
       4.707
       3.727
       2.415
       0.861
      -0.751
      -2.244
      -3.518
      -4.534
      -5.275
      -5.736
      -5.931
      -5.894
      -5.668
      -5.282
      -4.747
      -4.067
      -3.253
      -2.332
      -1.336
      -0.281
       0.824
       1.952
       3.037
       3.981
       4.682
       5.061
       5.083
       4.783
       4.263
       3.654
       3.053
       2.470
       1.832
       1.039
       0.037
      -1.122
      -2.285
      -3.258
      -3.889
      -4.144
      -4.109
      -3.929
      -3.716
      -3.489
      -3.178
      -2.690
      -1.973
      -1.056
      -0.021
       1.026
       1.980
       2.740
       3.221
       3.375
       3.232
       2.902
       2.531
       2.209
       1.904
       1.491
       0.872
       0.073
      -0.753
      -1.411
      -1.793
      -1.932
      -1.963
      -2.008
      -2.079
      -2.082
      -1.898
      -1.484
      -0.917
      -0.347
       0.088
       0.351
       0.507
       0.672
       0.927
       1.277
       1.658
       1.973
       2.141
       2.128
       1.945
       1.613
       1.150
       0.586
      -0.004
      -0.501
      -0.797
      -0.873
      -0.826
      -0.831
      -1.019
      -1.384
      -1.778
      -2.010
      -1.968
      -1.675
      -1.248
      -0.806
      -0.410
      -0.059
       0.252
       0.506
       0.679
       0.784
       0.878
       1.027
       1.258
       1.540
       1.801
       1.950
       1.898
       1.601
       1.090
       0.478
      -0.085
      -0.480
      -0.692
      -0.803
      -0.919
      -1.082
      -1.245
      -1.337
      -1.327
      -1.242
      -1.107
      -0.894
      -0.546
      -0.066
       0.409
       0.680
       0.666
       0.503
       0.432
       0.557
       0.747
       0.778
       0.571
       0.274
       0.114
       0.177
       0.348
       0.433
       0.333
       0.081
      -0.233
      -0.547
      -0.833
      -1.060
      -1.187
      -1.200
      -1.122
      -0.988
      -0.799
      -0.519
      -0.127
       0.329
       0.727
       0.938
       0.918
       0.747
       0.588
       0.596
       0.820
       1.147
       1.353
       1.243
       0.808
       0.266
      -0.095
      -0.147
      -0.025
      -0.003
      -0.244
      -0.670
      -1.043
      -1.193
      -1.148
      -1.048
      -0.970
      -0.869
      -0.681
      -0.446
      -0.277
      -0.243
      -0.284
      -0.264
      -0.072
       0.309
       0.812
       1.309
       1.654
       1.734
       1.545
       1.201
       0.838
       0.512
       0.192
      -0.170
      -0.572
      -0.950
      -1.202
      -1.244
      -1.091
      -0.885
      -0.819
      -0.997
      -1.356
      -1.692
      -1.785
      -1.537
      -1.028
      -0.453
       0.024
       0.382
       0.726
       1.160
       1.679
       2.162
       2.473
       2.555
       2.447
       2.219
       1.907
       1.513
       1.057
       0.590
       0.167
      -0.181
      -0.458
      -0.689
      -0.900
      -1.097
      -1.257
      -1.335
      -1.296
      -1.137
      -0.892
      -0.615
      -0.352
      -0.108
       0.156
       0.484
       0.863
       1.201
       1.349
       1.188
       0.704
       0.008
      -0.722
      -1.331
      -1.746
      -1.970
      -2.043
      -1.995
      -1.834
      -1.559
      -1.191
      -0.785
      -0.404
      -0.091
       0.149
       0.341
       0.515
       0.697
       0.902
       1.131
       1.352
       1.514
       1.571
       1.515
       1.376
       1.202
       1.011
       0.778
       0.451
      -0.008
      -0.580
      -1.172
      -1.653
      -1.920
      -1.925
      -1.679
      -1.229
      -0.657
      -0.071
       0.417
       0.725
       0.826
       0.752
       0.585
       0.431
       0.374
       0.438
       0.571
       0.683
       0.701
       0.611
       0.455
       0.297
       0.188
       0.135
       0.096
       0.000
      -0.200
      -0.482
      -0.760
      -0.926
      -0.920
      -0.755
      -0.508
      -0.268
      -0.092
       0.015
       0.091
       0.184
       0.330
       0.520
       0.702
       0.807
       0.777
       0.615
       0.399
       0.265
       0.318
       0.546
       0.788
       0.824
       0.514
      -0.093
      -0.783
      -1.307
      -1.527
      -1.469
      -1.265
      -1.059
      -0.943
      -0.945
      -1.029
      -1.105
      -1.064
      -0.848
      -0.483
      -0.061
       0.322
       0.604
       0.765
       0.826
       0.858
       0.980
       1.306
       1.849
       2.469
       2.920
       2.977
       2.575
       1.843
       1.022
       0.313
      -0.229
      -0.681
      -1.152
      -1.680
      -2.187
      -2.537
      -2.621
      -2.435
      -2.085
      -1.729
      -1.493
      -1.411
      -1.410
      -1.354
      -1.129
      -0.730
      -0.255
       0.193
       0.609
       1.082
       1.686
       2.371
