Origin Time       14/03/2010 6:53:21	
Lat.              31.7 N	
Long.             76.1 E	
Depth (Km)         29.0
Magnitude         4.6
 Region           HIMACHAL-PUNJAB-(HOSHIARPUR)-BORDER                              
 Above details taken from IMD 
     
Station Code      JAL
Station Lat.       31.320  N
Station Long.      75.594  E
Station Height(m)  235.0
Site Class        C   Vs30 between 200 m/sec to 375 m/sec *  
Record Time       14.03.2010 06:53:17.374
Sampling Rate     200. Hz
 Record Duration   65.435 Sec.
 Direction         E-W (E positive)
Max. Acceleration     -3.785 cm/sec**2
     
  * For reference see Site Classification link of website 
     
 Base Line Corrected and Low Pass Filtered (Cut Off at 35 Hz) Time History
 Acceleration data in cm/sec**2
    
[...]
       0.025
       0.019
       0.010
      -0.002
      -0.013
      -0.019
      -0.023
      -0.028
      -0.031
      -0.024
      -0.003
       0.028
       0.050
       0.048
       0.025
       0.000
      -0.010
       0.000
       0.018
       0.031
       0.037
       0.040
       0.044
       0.045
       0.031
       0.001
      -0.031
      -0.047
      -0.035
      -0.003
       0.029
       0.043
       0.033
       0.009
      -0.014
      -0.022
      -0.015
      -0.002
       0.008
       0.011
       0.008
       0.003
      -0.005
      -0.012
      -0.016
      -0.014
      -0.006
       0.002
       0.004
       0.002
       0.003
       0.012
       0.026
       0.039
       0.042
       0.035
       0.020
       0.000
      -0.025
      -0.049
      -0.060
      -0.051
      -0.025
       0.005
       0.023
       0.023
       0.009
      -0.010
      -0.023
      -0.025
      -0.016
       0.002
       0.022
       0.038
       0.038
       0.022
      -0.005
      -0.028
      -0.037
      -0.032
      -0.022
      -0.015
      -0.013
      -0.008
       0.005
       0.023
       0.035
       0.033
       0.018
       0.007
       0.018
       0.055
       0.104
       0.139
       0.135
       0.086
       0.010
      -0.057
      -0.087
      -0.070
      -0.024
       0.021
       0.039
       0.029
       0.004
      -0.014
      -0.021
      -0.017
      -0.010
      -0.001
       0.009
       0.018
       0.016
      -0.007
      -0.048
      -0.091
      -0.110
      -0.090
      -0.037
       0.025
       0.069
       0.078
       0.051
      -0.001
      -0.057
      -0.092
      -0.089
      -0.050
       0.006
       0.058
       0.088
       0.091
       0.070
       0.038
       0.009
      -0.005
      -0.001
       0.015
       0.031
       0.034
       0.022
       0.003
      -0.008
      -0.001
       0.025
       0.057
       0.077
       0.070
       0.036
      -0.013
      -0.052
      -0.066
      -0.049
      -0.011
       0.029
       0.051
       0.043
       0.005
      -0.046
      -0.089
      -0.106
      -0.093
      -0.060
      -0.023
       0.013
       0.045
       0.070
       0.079
       0.065
       0.030
      -0.016
      -0.057
      -0.078
      -0.072
      -0.040
       0.010
       0.063
       0.099
       0.107
       0.088
       0.058
       0.030
       0.011
      -0.001
      -0.010
      -0.018
      -0.021
      -0.016
      -0.002
       0.010
       0.013
       0.008
       0.004
       0.007
       0.012
       0.008
      -0.009
      -0.027
      -0.027
      -0.003
       0.035
       0.062
       0.065
       0.044
       0.014
      -0.011
      -0.025
      -0.031
      -0.031
      -0.021
       0.001
       0.030
       0.049
       0.049
       0.033
       0.013
       0.003
       0.003
       0.004
      -0.001
      -0.011
      -0.018
      -0.013
       0.007
       0.033
       0.051
       0.051
       0.033
       0.002
      -0.030
      -0.053
      -0.057
      -0.036
       0.006
       0.052
       0.079
       0.072
       0.038
      -0.003
      -0.031
      -0.041
      -0.039
      -0.034
      -0.027
      -0.015
       0.002
       0.019
       0.028
       0.025
       0.012
      -0.006
      -0.020
      -0.023
      -0.014
       0.005
       0.026
       0.040
       0.038
       0.020
      -0.009
      -0.037
      -0.053
      -0.052
      -0.034
      -0.006
       0.024
       0.047
       0.051
       0.034
       0.003
      -0.022
      -0.031
      -0.023
      -0.010
       0.000
       0.005
       0.009
       0.016
       0.026
       0.035
       0.038
       0.030
       0.014
      -0.003
      -0.012
      -0.011
      -0.007
      -0.012
      -0.028
      -0.044
      -0.050
      -0.042
      -0.023
      -0.001
       0.023
       0.044
       0.055
       0.050
       0.031
       0.011
       0.002
       0.007
       0.015
       0.009
      -0.015
      -0.047
      -0.064
      -0.050
      -0.012
       0.029
       0.051
       0.045
       0.021
      -0.007
      -0.028
      -0.034
      -0.025
      -0.004
       0.020
       0.037
       0.037
       0.021
      -0.004
      -0.025
      -0.033
      -0.029
      -0.019
      -0.010
      -0.005
       0.000
       0.009
       0.024
       0.039
       0.045
       0.033
       0.002
      -0.037
      -0.070
      -0.083
      -0.073
      -0.044
      -0.010
       0.017
       0.030
       0.030
       0.024
       0.021
       0.020
       0.015
       0.001
      -0.022
      -0.043
      -0.051
      -0.043
      -0.025
      -0.009
       0.002
       0.010
       0.024
       0.044
       0.060
       0.060
       0.041
       0.012
      -0.013
      -0.027
      -0.032
      -0.035
      -0.035
      -0.023
       0.004
       0.038
       0.056
       0.041
      -0.007
      -0.063
      -0.092
      -0.076
      -0.024
       0.032
       0.066
       0.072
       0.062
       0.050
       0.034
       0.011
      -0.015
      -0.036
      -0.050
      -0.058
      -0.061
      -0.058
      -0.045
      -0.029
      -0.017
      -0.011
      -0.003
       0.020
       0.055
       0.087
       0.098
       0.079
       0.042
       0.002
      -0.030
      -0.048
      -0.048
      -0.030
       0.003
       0.036
       0.056
       0.052
       0.029
      -0.002
      -0.030
      -0.048
      -0.053
      -0.050
      -0.043
      -0.037
      -0.030
      -0.016
       0.006
       0.035
       0.058
       0.068
       0.061
       0.044
       0.026
       0.013
       0.005
       0.001
       0.001
       0.005
       0.011
       0.016
       0.016
       0.012
       0.006
      -0.001
      -0.009
      -0.016
      -0.020
      -0.019
      -0.017
      -0.011
      -0.003
       0.007
       0.015
       0.011
      -0.008
      -0.031
      -0.045
      -0.039
      -0.016
       0.008
       0.021
       0.017
       0.003
      -0.009
      -0.011
      -0.001
       0.014
       0.027
       0.035
       0.039
       0.039
       0.032
       0.016
      -0.007
      -0.026
      -0.030
      -0.015
       0.009
       0.030
       0.038
       0.030
       0.010
      -0.015
      -0.035
      -0.046
      -0.046
      -0.040
      -0.029
      -0.017
      -0.007
       0.001
       0.002
      -0.001
      -0.005
      -0.001
       0.017
       0.045
       0.072
       0.083
       0.071
       0.037
      -0.008
      -0.046
      -0.060
      -0.041
       0.002
       0.048
       0.074
       0.069
       0.041
       0.009
      -0.011
      -0.014
      -0.004
       0.004
       0.003
      -0.009
      -0.025
      -0.034
      -0.030
      -0.019
      -0.010
      -0.007
      -0.007
      -0.003
       0.005
       0.009
       0.001
      -0.016
      -0.029
      -0.028
      -0.013
       0.008
       0.024
       0.025
       0.010
      -0.015
      -0.039
      -0.050
      -0.044
      -0.028
      -0.008
       0.013
       0.035
       0.059
       0.075
       0.074
       0.054
       0.023
      -0.008
      -0.031
      -0.043
      -0.041
      -0.031
      -0.018
      -0.007
       0.002
       0.010
       0.021
       0.033
       0.045
       0.054
       0.060
       0.061
       0.054
       0.033
      -0.002
      -0.041
      -0.072
      -0.082
      -0.074
      -0.055
      -0.033
      -0.013
       0.007
       0.025
       0.038
       0.041
       0.030
       0.010
      -0.008
      -0.017
      -0.016
      -0.008
       0.001
       0.007
       0.007
       0.001
      -0.003
      -0.001
       0.007
       0.013
       0.008
      -0.013
      -0.043
      -0.066
      -0.069
      -0.050
      -0.015
       0.024
       0.053
       0.061
       0.044
       0.010
      -0.023
      -0.037
      -0.023
       0.013
       0.052
       0.074
       0.068
       0.038
       0.000
      -0.028
      -0.035
      -0.026
      -0.009
       0.003
       0.005
       0.001
       0.002
       0.014
       0.034
       0.047
       0.038
       0.003
      -0.042
      -0.071
      -0.065
      -0.027
       0.020
       0.051
       0.058
       0.044
       0.022
      -0.002
      -0.023
      -0.039
      -0.050
      -0.053
      -0.048
      -0.038
      -0.025
      -0.012
       0.002
       0.017
       0.031
       0.042
       0.050
       0.052
       0.047
       0.030
       0.004
      -0.022
      -0.036
      -0.032
      -0.014
       0.007
       0.019
       0.018
       0.009
       0.005
       0.014
       0.034
       0.055
       0.068
       0.070
       0.068
       0.066
       0.062
       0.051
       0.032
       0.014
       0.010
       0.026
       0.052
       0.076
       0.090
       0.095
       0.092
       0.075
       0.041
      -0.012
      -0.075
      -0.132
      -0.167
      -0.174
      -0.163
      -0.154
      -0.155
      -0.160
      -0.145
      -0.094
      -0.003
       0.111
       0.223
       0.312
       0.367
       0.394
       0.407
       0.416
       0.422
       0.407
       0.351
       0.241
       0.088
      -0.083
      -0.242
      -0.369
      -0.463
      -0.536
      -0.597
      -0.642
      -0.659
      -0.641
      -0.585
      -0.497
      -0.384
      -0.263
      -0.153
      -0.074
      -0.028
      -0.001
       0.024
       0.056
       0.086
       0.096
       0.071
       0.010
      -0.071
      -0.146
      -0.188
      -0.174
      -0.099
       0.024
       0.161
       0.279
       0.361
       0.413
       0.458
       0.518
       0.591
       0.656
       0.676
       0.621
       0.486
       0.295
       0.097
      -0.062
      -0.162
      -0.211
      -0.228
      -0.222
      -0.194
      -0.142
      -0.082
      -0.036
      -0.022
      -0.035
      -0.059
      -0.075
      -0.076
      -0.063
      -0.041
      -0.017
      -0.002
      -0.014
      -0.067
      -0.161
      -0.277
      -0.392
      -0.491
      -0.568
      -0.616
      -0.621
      -0.575
      -0.484
      -0.375
      -0.274
      -0.192
      -0.119
      -0.029
       0.093
       0.250
       0.425
       0.602
       0.765
       0.897
       0.985
       1.017
       0.989
       0.904
       0.774
       0.622
       0.470
       0.334
       0.209
       0.078
      -0.081
      -0.270
      -0.472
      -0.653
      -0.781
      -0.845
      -0.849
      -0.813
      -0.754
      -0.681
      -0.595
      -0.493
      -0.377
      -0.264
      -0.174
      -0.123
      -0.103
      -0.089
      -0.048
       0.035
       0.147
       0.253
       0.318
       0.327
       0.294
       0.249
       0.224
       0.234
       0.274
       0.322
       0.354
       0.355
       0.329
       0.285
       0.233
       0.182
       0.138
       0.106
       0.084
       0.067
       0.053
       0.048
       0.060
       0.092
       0.127
       0.141
       0.119
       0.068
       0.018
       0.001
       0.025
       0.073
       0.113
       0.114
       0.065
      -0.030
      -0.156
      -0.295
      -0.433
      -0.554
      -0.646
      -0.695
      -0.697
      -0.659
      -0.601
      -0.545
      -0.499
      -0.449
      -0.367
      -0.235
      -0.056
       0.146
       0.339
       0.502
       0.628
       0.726
       0.800
       0.845
       0.848
       0.810
       0.739
       0.652
       0.550
       0.421
       0.252
       0.047
      -0.171
      -0.368
      -0.525
      -0.638
      -0.702
      -0.698
      -0.613
      -0.464
      -0.303
      -0.189
      -0.132
      -0.092
      -0.015
       0.118
       0.271
       0.393
       0.454
       0.463
       0.438
       0.383
       0.296
       0.180
       0.052
      -0.077
      -0.206
      -0.339
      -0.470
      -0.575
      -0.629
      -0.613
      -0.533
      -0.413
      -0.291
      -0.192
      -0.117
      -0.044
       0.051
       0.175
       0.304
       0.397
       0.423
       0.385
       0.323
       0.282
       0.288
       0.335
       0.397
       0.451
       0.486
       0.500
       0.484
       0.424
       0.314
       0.174
       0.050
      -0.018
      -0.020
       0.015
       0.050
       0.062
       0.054
       0.039
       0.025
       0.012
      -0.001
      -0.005
       0.013
       0.052
       0.091
       0.103
       0.079
       0.033
      -0.007
      -0.017
       0.010
       0.077
       0.186
       0.347
       0.554
       0.776
       0.955
       1.038
       1.009
       0.889
       0.717
       0.514
       0.285
       0.020
      -0.287
      -0.631
      -0.986
      -1.306
      -1.559
      -1.742
      -1.869
      -1.950
      -1.978
      -1.949
      -1.864
      -1.730
      -1.545
      -1.301
      -0.997
      -0.650
      -0.295
       0.013
       0.223
       0.307
       0.278
       0.184
       0.083
       0.010
      -0.035
      -0.072
      -0.116
      -0.166
      -0.212
      -0.246
      -0.255
      -0.229
      -0.167
      -0.082
      -0.001
       0.061
       0.117
       0.208
       0.384
       0.668
       1.035
       1.425
       1.783
       2.086
       2.345
       2.580
       2.790
       2.945
       3.007
       2.949
       2.769
       2.475
       2.080
       1.597
       1.051
       0.475
      -0.101
      -0.664
      -1.224
      -1.789
      -2.348
      -2.867
      -3.296
      -3.598
      -3.758
      -3.785
      -3.701
      -3.527
      -3.275
      -2.950
      -2.551
      -2.075
      -1.527
      -0.926
      -0.306
       0.288
       0.812
       1.238
       1.556
       1.781
       1.944
       2.068
       2.157
       2.190
       2.141
       1.995
       1.760
       1.461
       1.122
       0.768
       0.420
       0.110
      -0.127
      -0.267
      -0.305
      -0.261
      -0.159
      -0.019
       0.143
       0.313
       0.474
       0.614
       0.728
       0.815
       0.864
       0.859
       0.787
       0.650
       0.471
       0.273
       0.071
      -0.132
      -0.344
      -0.570
      -0.812
      -1.059
      -1.286
      -1.458
      -1.539
      -1.505
      -1.359
      -1.125
      -0.847
      -0.571
      -0.336
      -0.158
      -0.033
       0.058
       0.136
       0.211
       0.287
       0.357
       0.418
       0.465
       0.498
       0.513
       0.510
       0.487
       0.437
       0.358
       0.248
       0.116
      -0.017
      -0.127
      -0.193
      -0.202
      -0.154
      -0.061
       0.056
       0.170
       0.266
       0.340
       0.393
       0.423
       0.418
       0.366
       0.261
       0.114
      -0.054
      -0.215
      -0.350
      -0.451
      -0.518
      -0.550
      -0.540
      -0.480
      -0.377
      -0.260
      -0.168
      -0.130
      -0.138
      -0.149
      -0.112
       0.007
       0.204
       0.447
       0.689
       0.884
       1.000
       1.023
       0.959
       0.824
       0.643
       0.444
       0.252
       0.082
      -0.060
      -0.177
      -0.267
      -0.329
      -0.366
      -0.388
      -0.414
      -0.467
      -0.564
      -0.700
      -0.845
      -0.951
      -0.984
      -0.937
      -0.838
      -0.720
      -0.604
      -0.491
      -0.369
      -0.235
      -0.094
       0.039
       0.152
       0.245
       0.328
       0.414
       0.508
       0.600
       0.666
       0.683
       0.654
       0.602
       0.562
       0.557
       0.586
       0.625
       0.644
       0.624
       0.573
       0.519
       0.480
       0.450
       0.389
       0.260
       0.059
      -0.169
      -0.351
      -0.428
      -0.399
      -0.317
      -0.259
      -0.273
      -0.358
      -0.468
      -0.561
      -0.620
      -0.663
      -0.719
      -0.794
      -0.861
      -0.885
      -0.850
      -0.770
      -0.677
      -0.587
      -0.493
      -0.371
      -0.210
      -0.020
       0.170
       0.339
       0.486
       0.636
       0.813
       1.022
       1.241
       1.426
       1.537
       1.551
       1.470
       1.313
       1.097
       0.836
       0.537
       0.216
      -0.099
      -0.365
      -0.537
      -0.589
      -0.534
      -0.424
      -0.322
      -0.265
      -0.254
      -0.257
      -0.244
      -0.204
      -0.146
      -0.098
      -0.084
      -0.119
      -0.206
      -0.341
      -0.503
      -0.663
      -0.781
      -0.832
      -0.818
      -0.773
      -0.736
      -0.727
      -0.732
      -0.717
      -0.654
      -0.530
      -0.350
      -0.128
       0.121
       0.378
       0.624
       0.846
       1.041
       1.214
       1.360
       1.461
       1.493
       1.448
       1.346
       1.219
       1.094
       0.974
       0.844
       0.682
       0.479
       0.234
      -0.039
      -0.316
      -0.567
      -0.763
      -0.885
      -0.932
      -0.920
      -0.874
      -0.820
      -0.783
      -0.777
      -0.804
      -0.858
      -0.928
      -0.994
      -1.028
      -0.993
      -0.871
      -0.688
      -0.510
      -0.411
      -0.424
      -0.523
      -0.644
      -0.725
      -0.727
      -0.631
      -0.440
      -0.170
       0.146
       0.465
       0.730
       0.893
       0.931
       0.859
       0.718
       0.555
       0.402
       0.278
       0.199
       0.179
       0.219
       0.295
       0.369
       0.413
       0.426
       0.431
       0.452
       0.491
       0.530
       0.545
       0.528
       0.493
       0.465
       0.470
       0.513
       0.582
       0.655
       0.705
       0.708
       0.638
       0.478
       0.230
      -0.080
      -0.405
      -0.703
      -0.957
      -1.177
      -1.379
      -1.560
      -1.687
      -1.723
      -1.652
      -1.493
      -1.286
      -1.059
      -0.821
      -0.575
      -0.333
      -0.114
       0.069
       0.226
       0.380
       0.546
       0.720
       0.890
       1.046
       1.188
       1.318
       1.430
       1.515
       1.572
       1.608
       1.634
       1.644
       1.617
       1.527
       1.357
       1.114
       0.818
       0.487
       0.131
      -0.232
      -0.578
      -0.875
      -1.107
      -1.284
      -1.428
      -1.557
      -1.662
      -1.719
      -1.707
      -1.621
      -1.476
      -1.288
      -1.068
      -0.814
      -0.528
      -0.221
       0.091
       0.390
       0.660
       0.884
       1.045
       1.131
       1.137
       1.072
       0.949
       0.787
       0.602
       0.407
       0.209
       0.013
      -0.172
      -0.337
      -0.471
      -0.564
      -0.605
      -0.591
      -0.524
      -0.414
      -0.283
      -0.151
      -0.029
       0.085
       0.201
       0.325
       0.450
       0.562
       0.650
       0.716
       0.766
       0.802
       0.812
       0.777
       0.679
       0.514
       0.299
       0.063
      -0.165
      -0.371
      -0.553
      -0.714
      -0.857
      -0.973
      -1.046
      -1.060
      -1.010
      -0.903
      -0.758
      -0.597
      -0.439
      -0.304
      -0.210
      -0.169
      -0.181
      -0.224
      -0.261
      -0.259
      -0.209
      -0.120
      -0.009
       0.116
       0.248
       0.380
       0.500
       0.598
       0.674
