Origin Time       18/01/2011 20:23:27
Lat.              28.9 N	
Long.             64.0 E	
Depth (Km)          5.0
Magnitude         7.4
 Region           Southwestern-Pakistan                                            
 Above details taken from IMD 
   
Station Code       JAMI
Station Lat.       28.559
Station Long.      77.279
Station Height(m)  153.0
Site Class        C   Vs30 between 200 m/sec to 375 m/sec *  
Record Time        1/18/2011 ) 20:27:20.0
Sampling Rate     200. Hz
 Record Duration  112.000 Sec.
 Direction         Vert. (Up positive)
Max. Acceleration  -4.873 cm/sec**2
     
  * For reference see Site Classification link of website 
     
 Base Line Corrected and Low Pass Filtered (Cut Off at 35 Hz) Time History
 Acceleration data in cm/sec**2
    
[...]
   -0.416
   -0.551
   -0.651
   -0.708
   -0.736
   -0.750
   -0.747
   -0.710
   -0.625
   -0.492
   -0.332
   -0.177
   -0.060
    0.002
    0.016
   -0.004
   -0.054
   -0.134
   -0.234
   -0.324
   -0.379
   -0.400
   -0.408
   -0.417
   -0.425
   -0.420
   -0.397
   -0.364
   -0.326
   -0.275
   -0.195
   -0.075
    0.082
    0.262
    0.440
    0.593
    0.706
    0.776
    0.805
    0.798
    0.759
    0.695
    0.613
    0.517
    0.400
    0.257
    0.093
   -0.079
   -0.250
   -0.408
   -0.539
   -0.625
   -0.653
   -0.621
   -0.538
   -0.418
   -0.281
   -0.149
   -0.033
    0.071
    0.177
    0.289
    0.394
    0.475
    0.527
    0.557
    0.577
    0.584
    0.565
    0.508
    0.421
    0.326
    0.247
    0.193
    0.154
    0.117
    0.072
    0.023
   -0.020
   -0.055
   -0.095
   -0.145
   -0.186
   -0.186
   -0.136
   -0.057
    0.019
    0.075
    0.111
    0.126
    0.116
    0.078
    0.014
   -0.070
   -0.160
   -0.235
   -0.283
   -0.315
   -0.344
   -0.361
   -0.335
   -0.242
   -0.098
    0.061
    0.209
    0.347
    0.482
    0.602
    0.686
    0.723
    0.723
    0.700
    0.653
    0.581
    0.491
    0.391
    0.280
    0.149
    0.002
   -0.141
   -0.259
   -0.344
   -0.395
   -0.406
   -0.365
   -0.273
   -0.146
   -0.013
    0.101
    0.184
    0.235
    0.264
    0.272
    0.248
    0.183
    0.084
   -0.029
   -0.140
   -0.250
   -0.362
   -0.469
   -0.556
   -0.620
   -0.675
   -0.743
   -0.829
   -0.919
   -0.976
   -0.964
   -0.871
   -0.715
   -0.526
   -0.328
   -0.123
    0.090
    0.307
    0.513
    0.690
    0.828
    0.918
    0.950
    0.917
    0.830
    0.711
    0.579
    0.443
    0.306
    0.175
    0.056
   -0.048
   -0.130
   -0.179
   -0.180
   -0.127
   -0.037
    0.060
    0.147
    0.225
    0.315
    0.432
    0.569
    0.700
    0.801
    0.863
    0.888
    0.867
    0.787
    0.655
    0.502
    0.361
    0.247
    0.153
    0.070
   -0.003
   -0.058
   -0.085
   -0.071
   -0.007
    0.096
    0.218
    0.335
    0.445
    0.555
    0.662
    0.741
    0.759
    0.714
    0.637
    0.569
    0.526
    0.499
    0.477
    0.456
    0.441
    0.430
    0.409
    0.368
    0.310
    0.249
    0.204
    0.190
    0.213
    0.270
    0.341
    0.399
    0.420
    0.401
    0.360
    0.326
    0.326
    0.374
    0.463
    0.560
    0.619
    0.617
    0.570
    0.508
    0.457
    0.421
    0.408
    0.426
    0.477
    0.546
    0.607
    0.646
    0.658
    0.644
    0.609
    0.559
    0.507
    0.464
    0.440
    0.436
    0.449
    0.474
    0.507
    0.540
    0.563
    0.567
    0.547
    0.498
    0.412
    0.283
    0.119
   -0.051
   -0.202
   -0.327
   -0.440
   -0.549
   -0.645
   -0.705
   -0.719
   -0.700
   -0.675
   -0.664
   -0.672
   -0.687
   -0.696
   -0.690
   -0.666
   -0.626
   -0.577
   -0.520
   -0.447
   -0.350
   -0.226
   -0.082
    0.081
    0.264
    0.462
    0.653
    0.802
    0.886
    0.902
    0.863
    0.779
    0.654
    0.490
    0.305
    0.119
   -0.058
   -0.232
   -0.409
   -0.574
   -0.703
   -0.779
   -0.800
   -0.767
   -0.687
   -0.582
   -0.476
   -0.375
   -0.267
   -0.145
   -0.026
    0.060
    0.091
    0.076
    0.034
   -0.019
   -0.083
   -0.169
   -0.284
   -0.425
   -0.575
   -0.723
   -0.864
   -1.001
   -1.130
   -1.233
   -1.289
   -1.284
   -1.215
   -1.079
   -0.878
   -0.626
   -0.353
   -0.100
    0.100
    0.238
    0.325
    0.369
    0.371
    0.328
    0.245
    0.123
   -0.043
   -0.256
   -0.502
   -0.747
   -0.955
   -1.100
   -1.168
   -1.152
   -1.065
   -0.926
   -0.765
   -0.604
   -0.458
   -0.332
   -0.228
   -0.148
   -0.089
   -0.053
   -0.043
   -0.064
   -0.116
   -0.191
   -0.275
   -0.354
   -0.408
   -0.426
   -0.403
   -0.340
   -0.245
   -0.124
    0.004
    0.106
    0.158
    0.159
    0.134
    0.102
    0.066
    0.023
   -0.031
   -0.098
   -0.181
   -0.277
   -0.365
   -0.419
   -0.438
   -0.438
   -0.442
   -0.458
   -0.483
   -0.516
   -0.569
   -0.657
   -0.799
   -0.991
   -1.205
   -1.392
   -1.509
   -1.536
   -1.480
   -1.348
   -1.152
   -0.907
   -0.637
   -0.370
   -0.122
    0.103
    0.307
    0.493
    0.665
    0.824
    0.962
    1.056
    1.090
    1.067
    1.011
    0.952
    0.911
    0.898
    0.914
    0.946
    0.977
    0.994
    0.994
    0.966
    0.894
    0.768
    0.605
    0.440
    0.301
    0.192
    0.100
    0.013
   -0.068
   -0.137
   -0.186
   -0.215
   -0.230
   -0.237
   -0.233
   -0.205
   -0.135
   -0.017
    0.142
    0.325
    0.515
    0.707
    0.897
    1.071
    1.203
    1.273
    1.277
    1.220
    1.096
    0.903
    0.649
    0.362
    0.068
   -0.217
   -0.491
   -0.753
   -0.998
   -1.215
   -1.389
   -1.505
   -1.555
   -1.541
   -1.466
   -1.323
   -1.095
   -0.766
   -0.343
    0.142
    0.643
    1.113
    1.521
    1.853
    2.103
    2.251
    2.266
    2.133
    1.881
    1.573
    1.262
    0.959
    0.650
    0.333
    0.035
   -0.203
   -0.364
   -0.453
   -0.486
   -0.464
   -0.374
   -0.199
    0.060
    0.377
    0.715
    1.049
    1.369
    1.672
    1.953
    2.200
    2.403
    2.550
    2.627
    2.619
    2.510
    2.283
    1.922
    1.437
    0.881
    0.317
   -0.215
   -0.710
   -1.160
   -1.540
   -1.821
   -2.008
   -2.120
   -2.167
   -2.127
   -1.974
   -1.695
   -1.298
   -0.811
   -0.274
    0.259
    0.735
    1.116
    1.379
    1.510
    1.498
    1.353
    1.107
    0.797
    0.444
    0.057
   -0.353
   -0.754
   -1.110
   -1.398
   -1.615
   -1.762
   -1.842
   -1.864
   -1.840
   -1.775
   -1.656
   -1.468
   -1.208
   -0.893
   -0.550
   -0.212
    0.086
    0.313
    0.455
    0.519
    0.534
    0.540
    0.557
    0.584
    0.600
    0.576
    0.493
    0.343
    0.129
   -0.141
   -0.440
   -0.725
   -0.949
   -1.082
   -1.124
   -1.088
   -0.984
   -0.817
   -0.598
   -0.360
   -0.141
    0.033
    0.156
    0.236
    0.283
    0.296
    0.266
    0.187
    0.067
   -0.080
   -0.246
   -0.432
   -0.649
   -0.896
   -1.162
   -1.427
   -1.672
   -1.878
   -2.026
   -2.100
   -2.099
   -2.037
   -1.939
   -1.818
   -1.676
   -1.505
   -1.300
   -1.060
   -0.781
   -0.461
   -0.117
    0.214
    0.486
    0.665
    0.747
    0.743
    0.671
    0.556
    0.422
    0.272
    0.082
   -0.185
   -0.550
   -0.990
   -1.451
   -1.882
   -2.253
   -2.545
   -2.736
   -2.810
   -2.764
   -2.624
   -2.422
   -2.181
   -1.913
   -1.623
   -1.313
   -0.980
   -0.628
   -0.271
    0.065
    0.359
    0.596
    0.758
    0.832
    0.813
    0.716
    0.571
    0.399
    0.209
    0.001
   -0.214
   -0.410
   -0.560
   -0.642
   -0.644
   -0.565
   -0.408
   -0.188
    0.071
    0.340
    0.601
    0.848
    1.068
    1.232
    1.317
    1.318
    1.246
    1.105
    0.892
    0.612
    0.293
   -0.039
   -0.374
   -0.711
   -1.039
   -1.340
   -1.609
   -1.861
   -2.109
   -2.340
   -2.522
   -2.622
   -2.624
   -2.528
   -2.355
   -2.136
   -1.903
   -1.671
   -1.435
   -1.181
   -0.899
   -0.595
   -0.293
   -0.017
    0.222
    0.418
    0.572
    0.691
    0.787
    0.877
    0.971
    1.068
    1.153
    1.214
    1.253
    1.275
    1.272
    1.221
    1.109
    0.950
    0.776
    0.616
    0.477
    0.359
    0.260
    0.177
    0.102
    0.025
   -0.058
   -0.147
   -0.245
   -0.354
   -0.464
   -0.557
   -0.626
   -0.687
   -0.764
   -0.868
   -0.984
   -1.092
   -1.175
   -1.220
   -1.201
   -1.090
   -0.876
   -0.583
   -0.250
    0.081
    0.379
    0.630
    0.831
    0.984
    1.083
    1.108
    1.043
    0.892
    0.683
    0.437
    0.160
   -0.141
   -0.444
   -0.721
   -0.955
   -1.144
   -1.280
   -1.339
   -1.285
   -1.093
   -0.766
   -0.333
    0.168
    0.702
    1.241
    1.758
    2.218
    2.589
    2.849
    2.995
    3.031
    2.967
    2.803
    2.547
    2.210
    1.819
    1.398
    0.967
    0.529
    0.090
   -0.330
   -0.687
   -0.934
   -1.053
   -1.067
   -1.029
   -0.976
   -0.909
   -0.807
   -0.665
   -0.505
   -0.353
   -0.213
   -0.065
    0.106
    0.285
    0.423
    0.471
    0.409
    0.257
    0.059
   -0.146
   -0.330
   -0.474
   -0.575
   -0.643
   -0.694
   -0.742
   -0.792
   -0.843
   -0.876
   -0.856
   -0.741
   -0.518
   -0.218
    0.113
    0.451
    0.805
    1.175
    1.523
    1.792
    1.958
    2.049
    2.099
    2.099
    2.000
    1.774
    1.474
    1.197
    0.978
    0.743
    0.423
    0.070
   -0.189
   -0.295
   -0.303
   -0.274
   -0.204
   -0.050
    0.194
    0.493
    0.827
    1.199
    1.569
    1.856
    2.020
    2.106
    2.162
    2.143
    1.977
    1.692
    1.434
    1.318
    1.326
    1.374
    1.427
    1.511
    1.639
    1.783
    1.928
    2.081
    2.224
    2.323
    2.375
    2.412
    2.441
    2.406
    2.258
    2.016
    1.749
    1.488
    1.215
    0.907
    0.564
    0.201
   -0.175
   -0.554
   -0.931
   -1.319
   -1.733
   -2.148
   -2.499
   -2.739
   -2.878
   -2.949
   -2.946
   -2.839
   -2.611
   -2.265
   -1.815
   -1.291
   -0.756
   -0.286
    0.080
    0.354
    0.541
    0.613
    0.550
    0.389
    0.199
    0.017
   -0.142
   -0.237
   -0.210
   -0.056
    0.160
    0.368
    0.571
    0.810
    1.104
    1.431
    1.764
    2.073
    2.316
    2.462
    2.534
    2.571
    2.558
    2.428
    2.147
    1.774
    1.389
    1.006
    0.578
    0.097
   -0.383
   -0.804
   -1.168
   -1.498
   -1.783
   -1.981
   -2.070
   -2.070
   -2.004
   -1.875
   -1.685
   -1.450
   -1.189
   -0.913
   -0.630
   -0.366
   -0.151
    0.002
    0.098
    0.132
    0.078
   -0.104
   -0.432
   -0.880
   -1.370
   -1.813
   -2.166
   -2.443
   -2.675
   -2.871
   -3.025
   -3.137
   -3.204
   -3.191
   -3.048
   -2.756
   -2.350
   -1.865
   -1.306
   -0.668
    0.009
    0.656
    1.238
    1.771
    2.268
    2.685
    2.951
    3.031
    2.949
    2.753
    2.482
    2.163
    1.817
    1.457
    1.097
    0.758
    0.487
    0.330
    0.303
    0.394
    0.575
    0.823
    1.102
    1.355
    1.515
    1.545
    1.463
    1.325
    1.190
    1.092
    1.024
    0.968
    0.913
    0.866
    0.826
    0.779
    0.709
    0.622
    0.540
    0.482
    0.442
    0.391
    0.311
    0.209
    0.103
   -0.004
   -0.119
   -0.242
   -0.362
   -0.465
   -0.540
   -0.581
   -0.592
   -0.599
   -0.640
   -0.732
   -0.858
   -0.995
   -1.131
   -1.259
   -1.344
   -1.342
   -1.242
   -1.084
   -0.903
   -0.688
   -0.408
   -0.074
    0.252
    0.524
    0.752
    0.962
    1.157
    1.327
    1.484
    1.649
    1.810
    1.927
    1.993
    2.053
    2.142
    2.232
    2.269
    2.241
    2.191
    2.153
    2.126
    2.092
    2.046
    1.979
    1.875
    1.738
    1.607
    1.526
    1.499
    1.505
    1.540
    1.617
    1.728
    1.827
    1.864
    1.827
    1.725
    1.559
    1.320
    1.002
    0.608
    0.151
   -0.346
   -0.836
   -1.275
   -1.640
   -1.927
   -2.116
   -2.168
   -2.063
   -1.838
   -1.568
   -1.303
   -1.048
   -0.793
   -0.544
   -0.314
   -0.104
    0.084
    0.232
    0.325
    0.378
    0.409
    0.407
    0.339
    0.211
    0.081
   -0.001
   -0.049
   -0.101
   -0.153
   -0.154
   -0.068
    0.084
    0.249
    0.392
    0.500
    0.578
    0.650
    0.756
    0.922
    1.123
    1.297
    1.395
    1.411
    1.354
    1.215
    0.979
    0.658
    0.298
   -0.049
   -0.356
   -0.613
   -0.805
   -0.921
   -0.954
   -0.901
   -0.760
   -0.536
   -0.256
    0.055
    0.402
    0.806
    1.258
    1.704
    2.086
    2.380
    2.598
    2.752
    2.834
    2.824
    2.697
    2.429
    2.017
    1.490
    0.894
    0.260
   -0.399
   -1.056
   -1.652
   -2.127
   -2.458
   -2.662
   -2.762
   -2.770
   -2.703
   -2.591
   -2.464
   -2.325
   -2.155
   -1.941
   -1.687
   -1.412
   -1.130
   -0.856
   -0.607
   -0.402
   -0.253
   -0.179
   -0.200
   -0.318
   -0.504
   -0.707
   -0.898
   -1.070
   -1.223
   -1.327
   -1.321
   -1.158
   -0.837
   -0.413
    0.036
    0.456
    0.834
    1.186
    1.524
    1.839
    2.121
    2.361
    2.557
    2.700
    2.781
    2.800
    2.765
    2.674
    2.504
    2.228
    1.830
    1.316
    0.705
    0.032
   -0.656
   -1.300
   -1.854
   -2.298
   -2.614
   -2.777
   -2.756
   -2.549
   -2.195
   -1.754
   -1.276
   -0.799
   -0.371
   -0.041
    0.170
    0.281
    0.332
    0.341
    0.297
    0.175
   -0.045
   -0.366
   -0.766
   -1.192
   -1.585
   -1.898
   -2.102
   -2.171
   -2.078
   -1.820
   -1.434
   -0.984
   -0.522
   -0.071
    0.364
    0.767
    1.107
    1.357
    1.510
    1.574
    1.555
    1.449
    1.248
    0.952
    0.574
    0.146
   -0.286
   -0.676
   -0.992
   -1.225
   -1.377
   -1.459
   -1.483
   -1.454
   -1.357
   -1.176
   -0.911
   -0.577
   -0.189
    0.247
    0.704
    1.115
    1.413
    1.572
    1.618
    1.584
    1.476
    1.287
    1.011
    0.655
    0.221
   -0.300
   -0.911
   -1.592
   -2.294
   -2.940
   -3.451
   -3.765
   -3.857
   -3.721
   -3.357
   -2.774
   -2.018
   -1.167
   -0.304
    0.516
    1.262
    1.903
    2.396
    2.707
    2.814
    2.713
    2.405
    1.910
    1.267
    0.531
   -0.242
   -0.999
   -1.696
   -2.303
   -2.818
   -3.262
   -3.646
   -3.939
   -4.085
   -4.047
   -3.838
   -3.507
   -3.106
   -2.665
   -2.209
   -1.767
   -1.372
   -1.055
   -0.826
   -0.674
   -0.580
   -0.531
   -0.533
   -0.581
   -0.651
   -0.708
   -0.740
   -0.760
   -0.792
   -0.846
   -0.921
   -1.025
   -1.182
   -1.425
   -1.774
   -2.215
   -2.710
   -3.207
   -3.665
   -4.054
   -4.362
   -4.592
   -4.751
   -4.845
   -4.873
   -4.827
   -4.693
   -4.458
   -4.114
   -3.675
   -3.174
   -2.643
   -2.105
   -1.571
   -1.058
   -0.578
   -0.117
    0.354
    0.844
    1.320
    1.717
    1.989
    2.119
    2.107
    1.954
    1.658
    1.241
    0.745
    0.224
   -0.265
   -0.670
   -0.954
   -1.103
   -1.124
   -1.037
   -0.874
   -0.681
   -0.503
   -0.363
   -0.252
   -0.140
   -0.011
    0.132
    0.274
    0.395
    0.475
    0.493
    0.425
    0.259
    0.004
   -0.318
   -0.682
   -1.069
   -1.479
   -1.925
   -2.413
   -2.926
   -3.413
   -3.807
   -4.057
   -4.134
   -4.032
   -3.762
   -3.364
   -2.902
   -2.449
   -2.051
   -1.718
   -1.431
   -1.187
   -1.012
   -0.943
   -0.991
   -1.130
   -1.323
   -1.545
   -1.775
   -1.982
   -2.125
   -2.178
   -2.144
   -2.047
   -1.905
   -1.726
   -1.517
   -1.295
   -1.068
   -0.828
   -0.562
   -0.280
   -0.009
    0.241
    0.490
    0.776
    1.119
    1.505
    1.876
    2.162
    2.314
    2.340
    2.295
    2.234
    2.182
    2.145
    2.135
    2.169
    2.245
    2.328
    2.384
    2.419
    2.473
    2.583
    2.737
    2.882
    2.956
    2.927
    2.813
    2.663
    2.525
    2.422
    2.346
    2.276
    2.187
    2.046
    1.812
    1.461
    1.013
    0.541
    0.128
   -0.176
   -0.369
   -0.468
   -0.485
   -0.431
   -0.330
   -0.207
   -0.063
    0.125
    0.361
    0.615
    0.854
    1.078
    1.311
    1.559
    1.800
    1.999
    2.146
    2.248
    2.311
    2.329
    2.302
    2.251
    2.198
    2.135
    2.038
    1.905
    1.769
    1.669
    1.615
    1.588
    1.563
    1.527
    1.467
    1.372
    1.233
    1.053
    0.850
    0.655
    0.521
    0.490
    0.569
    0.717
    0.878
    1.032
    1.206
    1.433
    1.701
    1.958
    2.151
    2.260
    2.293
    2.257
    2.151
    1.982
    1.774
    1.565
    1.383
    1.240
    1.129
    1.050
    1.017
    1.046
    1.143
    1.295
    1.491
    1.719
    1.955
    2.135
    2.168
    1.986
    1.600
    1.104
    0.627
    0.267
    0.054
   -0.038
   -0.053
   -0.025
    0.045
    0.164
    0.329
    0.524
    0.731
    0.941
    1.148
    1.339
    1.494
    1.586
    1.588
    1.488
    1.299
    1.056
    0.804
    0.586
    0.447
    0.416
    0.496
    0.665
    0.889
    1.139
    1.388
    1.614
    1.803
    1.950
    2.053
    2.124
    2.190
    2.278
    2.382
    2.443
    2.386
    2.180
    1.857
    1.484
    1.106
    0.735
    0.364
   -0.009
   -0.377
   -0.718
   -0.998
   -1.181
   -1.246
   -1.190
   -1.017
   -0.736
   -0.368
    0.031
    0.388
    0.654
    0.825
    0.910
    0.896
    0.760
    0.517
    0.240
    0.003
   -0.168
   -0.301
   -0.433
   -0.581
   -0.743
   -0.915
   -1.079
   -1.208
   -1.263
   -1.218
   -1.072
   -0.849
   -0.596
   -0.371
   -0.229
   -0.187
   -0.202
   -0.186
   -0.051
    0.240
    0.651
    1.092
    1.461
    1.682
    1.732
    1.634
    1.435
    1.174
    0.888
    0.618
    0.404
    0.251
    0.139
    0.050
   -0.001
    0.019
    0.139
    0.370
    0.720
    1.174
    1.681
    2.156
    2.514
    2.692
    2.658
    2.406
    1.964
    1.391
    0.765
    0.169
   -0.329
   -0.676
   -0.861
   -0.926
   -0.946
   -0.975
   -1.014
   -1.022
   -0.963
   -0.847
   -0.714
   -0.594
   -0.491
   -0.401
   -0.346
   -0.353
   -0.421
   -0.490
   -0.478
   -0.337
   -0.106
    0.109
    0.198
    0.110
   -0.130
   -0.460
   -0.822
   -1.183
   -1.513
   -1.776
   -1.935
   -1.978
   -1.926
   -1.822
   -1.695
   -1.525
   -1.262
   -0.881
   -0.413
    0.087
    0.571
    1.009
    1.357
    1.548
    1.529
    1.301
    0.921
    0.462
   -0.017
   -0.482
   -0.930
   -1.377
   -1.845
   -2.329
   -2.777
   -3.114
   -3.286
   -3.285
   -3.142
   -2.908
   -2.632
   -2.343
   -2.048
   -1.733
   -1.384
   -1.010
   -0.643
   -0.318
   -0.056
    0.130
    0.222
    0.194
    0.025
   -0.280
   -0.697
   -1.195
   -1.741
   -2.309
   -2.883
   -3.446
   -3.966
   -4.395
   -4.692
   -4.842
   -4.843
   -4.678
   -4.318
   -3.764
   -3.079
   -2.354
   -1.660
   -1.035
   -0.501
   -0.089
    0.181
    0.312
    0.333
    0.286
    0.204
    0.100
   -0.046
   -0.273
   -0.606
   -1.027
   -1.482
   -1.920
   -2.316
   -2.649
   -2.882
   -2.964
   -2.873
   -2.632
   -2.276
   -1.818
   -1.245
   -0.551
    0.229
    1.012
    1.702
    2.238
    2.612
    2.844
    2.947
    2.918
    2.749
    2.449
    2.038
    1.537
    0.964
    0.333
   -0.349
   -1.068
   -1.792
   -2.467
   -3.025
   -3.411
   -3.596
   -3.577
   -3.359
   -2.942
   -2.334
   -1.576
   -0.750
    0.051
    0.763
    1.362
    1.843
    2.197
    2.413
    2.496
    2.453
    2.284
    1.983
    1.560
    1.055
    0.519
   -0.014
   -0.523
   -0.994
   -1.410
   -1.760
   -2.034
   -2.209
   -2.254
   -2.156
   -1.942
   -1.677
   -1.421
   -1.206
   -1.023
   -0.846
   -0.650
   -0.421
   -0.165
    0.084
    0.275
    0.366
    0.337
    0.181
   -0.100
   -0.475
   -0.874
   -1.205
   -1.404
   -1.467
   -1.419
   -1.280
   -1.057
   -0.764
   -0.441
   -0.135
    0.137
    0.393
    0.649
    0.882
    1.039
    1.083
    1.026
    0.910
    0.771
    0.618
    0.450
    0.268
    0.077
   -0.124
   -0.346
   -0.598
   -0.886
   -1.204
   -1.530
   -1.822
   -2.031
   -2.124
   -2.095
   -1.954
   -1.707
   -1.368
   -0.974
   -0.584
   -0.243
    0.039
    0.282
    0.511
    0.752
    1.028
    1.352
    1.711
    2.067
    2.386
    2.649
    2.836
    2.925
    2.903
    2.790
    2.618
    2.401
    2.114
    1.714
    1.167
    0.480
   -0.301
   -1.102
   -1.846
   -2.467
   -2.905
   -3.102
   -3.025
   -2.697
   -2.194
   -1.596
   -0.947
   -0.265
    0.433
    1.116
    1.753
    2.325
    2.830
    3.263
    3.607
    3.826
    3.877
    3.731
    3.405
    2.952
