Origin Time       18/01/2011 20:23:27
Lat.              28.9 N	
Long.             64.0 E	
Depth (Km)          5.0
Magnitude         7.4
 Region           Southwestern-Pakistan                                            
 Above details taken from IMD 
     
Station Code       JAMI
Station Lat.       28.559  N
Station Long.      77.279  E
Station Height(m)  153.0
Site Class        C   Vs30 between 200 m/sec to 375 m/sec *  
Record Time        1/18/2011 ) 20:27:20.0
Sampling Rate     200. Hz
 Record Duration  112.000 Sec.
 Direction         E-W (E positive)
Max. Acceleration  17.481 cm/sec**2
     
  * For reference see Site Classification link of website 
     
 Base Line Corrected and Low Pass Filtered (Cut Off at 35 Hz) Time History
 Acceleration data in cm/sec**2
    
[...]
   -0.608
   -0.546
   -0.466
   -0.372
   -0.274
   -0.182
   -0.105
   -0.048
   -0.008
    0.019
    0.033
    0.041
    0.052
    0.076
    0.113
    0.160
    0.214
    0.271
    0.324
    0.366
    0.392
    0.406
    0.417
    0.431
    0.453
    0.487
    0.538
    0.609
    0.699
    0.801
    0.898
    0.978
    1.030
    1.055
    1.052
    1.019
    0.953
    0.854
    0.723
    0.568
    0.398
    0.223
    0.049
   -0.125
   -0.296
   -0.460
   -0.609
   -0.740
   -0.860
   -0.985
   -1.122
   -1.264
   -1.392
   -1.478
   -1.504
   -1.458
   -1.340
   -1.161
   -0.935
   -0.678
   -0.398
   -0.104
    0.187
    0.458
    0.691
    0.882
    1.035
    1.158
    1.261
    1.353
    1.434
    1.496
    1.527
    1.518
    1.465
    1.371
    1.237
    1.068
    0.873
    0.665
    0.457
    0.256
    0.058
   -0.140
   -0.335
   -0.518
   -0.681
   -0.824
   -0.949
   -1.055
   -1.142
   -1.207
   -1.246
   -1.257
   -1.241
   -1.205
   -1.148
   -1.061
   -0.930
   -0.750
   -0.523
   -0.258
    0.034
    0.343
    0.662
    0.978
    1.272
    1.525
    1.718
    1.842
    1.894
    1.879
    1.805
    1.679
    1.509
    1.305
    1.081
    0.853
    0.637
    0.445
    0.287
    0.173
    0.111
    0.105
    0.160
    0.271
    0.427
    0.605
    0.777
    0.919
    1.015
    1.058
    1.051
    1.005
    0.933
    0.841
    0.730
    0.592
    0.420
    0.214
   -0.022
   -0.278
   -0.540
   -0.794
   -1.028
   -1.230
   -1.394
   -1.514
   -1.582
   -1.591
   -1.536
   -1.420
   -1.256
   -1.069
   -0.892
   -0.750
   -0.650
   -0.586
   -0.551
   -0.550
   -0.590
   -0.672
   -0.790
   -0.936
   -1.097
   -1.259
   -1.408
   -1.542
   -1.665
   -1.785
   -1.906
   -2.025
   -2.138
   -2.239
   -2.324
   -2.391
   -2.444
   -2.486
   -2.514
   -2.520
   -2.499
   -2.443
   -2.354
   -2.232
   -2.084
   -1.915
   -1.731
   -1.531
   -1.312
   -1.068
   -0.800
   -0.510
   -0.200
    0.133
    0.490
    0.863
    1.229
    1.562
    1.839
    2.047
    2.184
    2.252
    2.255
    2.196
    2.082
    1.924
    1.737
    1.531
    1.313
    1.084
    0.843
    0.591
    0.332
    0.076
   -0.163
   -0.376
   -0.554
   -0.698
   -0.811
   -0.903
   -0.979
   -1.040
   -1.086
   -1.118
   -1.139
   -1.146
   -1.132
   -1.090
   -1.018
   -0.922
   -0.814
   -0.703
   -0.591
   -0.474
   -0.347
   -0.213
   -0.075
    0.071
    0.234
    0.418
    0.614
    0.808
    0.986
    1.131
    1.234
    1.295
    1.315
    1.298
    1.243
    1.153
    1.037
    0.907
    0.770
    0.632
    0.498
    0.371
    0.250
    0.131
    0.013
   -0.102
   -0.213
   -0.324
   -0.433
   -0.535
   -0.617
   -0.667
   -0.672
   -0.624
   -0.514
   -0.344
   -0.125
    0.126
    0.396
    0.681
    0.986
    1.313
    1.661
    2.022
    2.387
    2.741
    3.069
    3.355
    3.574
    3.698
    3.707
    3.593
    3.368
    3.055
    2.677
    2.256
    1.810
    1.352
    0.896
    0.455
    0.039
   -0.354
   -0.728
   -1.084
   -1.408
   -1.680
   -1.880
   -1.993
   -2.005
   -1.912
   -1.722
   -1.454
   -1.131
   -0.772
   -0.388
    0.015
    0.434
    0.865
    1.298
    1.713
    2.088
    2.404
    2.662
    2.870
    3.036
    3.158
    3.230
    3.249
    3.213
    3.123
    2.981
    2.796
    2.579
    2.337
    2.074
    1.788
    1.478
    1.143
    0.781
    0.394
   -0.011
   -0.426
   -0.847
   -1.268
   -1.672
   -2.036
   -2.333
   -2.544
   -2.658
   -2.680
   -2.620
   -2.488
   -2.291
   -2.032
   -1.724
   -1.381
   -1.021
   -0.658
   -0.309
    0.013
    0.299
    0.546
    0.759
    0.946
    1.111
    1.251
    1.359
    1.425
    1.444
    1.419
    1.354
    1.256
    1.138
    1.015
    0.904
    0.812
    0.736
    0.660
    0.566
    0.443
    0.291
    0.116
   -0.070
   -0.255
   -0.420
   -0.545
   -0.614
   -0.616
   -0.544
   -0.400
   -0.192
    0.062
    0.349
    0.657
    0.975
    1.288
    1.572
    1.808
    1.987
    2.114
    2.199
    2.241
    2.220
    2.110
    1.894
    1.570
    1.151
    0.654
    0.106
   -0.467
   -1.046
   -1.623
   -2.193
   -2.749
   -3.274
   -3.746
   -4.152
   -4.487
   -4.755
   -4.967
   -5.129
   -5.244
   -5.299
   -5.277
   -5.160
   -4.939
   -4.611
   -4.178
   -3.646
   -3.035
   -2.374
   -1.696
   -1.024
   -0.380
    0.214
    0.736
    1.173
    1.530
    1.822
    2.061
    2.256
    2.402
    2.486
    2.495
    2.423
    2.274
    2.068
    1.832
    1.587
    1.342
    1.092
    0.835
    0.579
    0.341
    0.128
   -0.063
   -0.236
   -0.399
   -0.557
   -0.715
   -0.871
   -1.026
   -1.183
   -1.348
   -1.533
   -1.739
   -1.961
   -2.186
   -2.402
   -2.598
   -2.761
   -2.879
   -2.942
   -2.947
   -2.896
   -2.786
   -2.614
   -2.378
   -2.077
   -1.708
   -1.267
   -0.749
   -0.158
    0.494
    1.193
    1.922
    2.661
    3.382
    4.051
    4.629
    5.089
    5.414
    5.599
    5.643
    5.545
    5.304
    4.918
    4.390
    3.727
    2.947
    2.072
    1.132
    0.153
   -0.840
   -1.825
   -2.781
   -3.697
   -4.559
   -5.350
   -6.042
   -6.606
   -7.025
   -7.289
   -7.396
   -7.340
   -7.114
   -6.721
   -6.181
   -5.522
   -4.773
   -3.955
   -3.094
   -2.220
   -1.369
   -0.570
    0.157
    0.802
    1.367
    1.854
    2.272
    2.624
    2.910
    3.131
    3.284
    3.368
    3.380
    3.324
    3.207
    3.043
    2.843
    2.616
    2.371
    2.117
    1.869
    1.646
    1.453
    1.282
    1.114
    0.933
    0.742
    0.555
    0.387
    0.254
    0.167
    0.135
    0.167
    0.275
    0.463
    0.725
    1.037
    1.368
    1.683
    1.948
    2.134
    2.222
    2.204
    2.084
    1.873
    1.591
    1.264
    0.920
    0.586
    0.281
    0.009
   -0.235
   -0.458
   -0.663
   -0.849
   -1.017
   -1.171
   -1.312
   -1.431
   -1.514
   -1.549
   -1.530
   -1.464
   -1.358
   -1.228
   -1.085
   -0.944
   -0.819
   -0.730
   -0.690
   -0.707
   -0.784
   -0.921
   -1.120
   -1.377
   -1.679
   -2.010
   -2.348
   -2.665
   -2.936
   -3.143
   -3.283
   -3.364
   -3.395
   -3.389
   -3.356
   -3.300
   -3.226
   -3.139
   -3.040
   -2.923
   -2.770
   -2.567
   -2.332
   -2.104
   -1.906
   -1.735
   -1.588
   -1.475
   -1.406
   -1.374
   -1.370
   -1.385
   -1.395
   -1.359
   -1.242
   -1.038
   -0.752
   -0.378
    0.087
    0.621
    1.182
    1.745
    2.302
    2.844
    3.347
    3.792
    4.177
    4.496
    4.725
    4.842
    4.848
    4.765
    4.594
    4.325
    3.962
    3.538
    3.083
    2.613
    2.145
    1.703
    1.310
    0.961
    0.649
    0.381
    0.180
    0.057
    0.003
    0.009
    0.067
    0.161
    0.267
    0.370
    0.466
    0.554
    0.616
    0.634
    0.604
    0.520
    0.373
    0.148
   -0.150
   -0.504
   -0.900
   -1.337
   -1.811
   -2.306
   -2.805
   -3.290
   -3.738
   -4.114
   -4.389
   -4.556
   -4.623
   -4.593
   -4.465
   -4.246
   -3.952
   -3.596
   -3.177
   -2.689
   -2.136
   -1.526
   -0.863
   -0.148
    0.608
    1.385
    2.161
    2.918
    3.631
    4.268
    4.814
    5.283
    5.701
    6.074
    6.392
    6.649
    6.846
    6.984
    7.049
    7.029
    6.925
    6.736
    6.461
    6.092
    5.633
    5.091
    4.473
    3.791
    3.063
    2.310
    1.546
    0.782
    0.035
   -0.673
   -1.318
   -1.892
   -2.396
   -2.834
   -3.209
   -3.518
   -3.756
   -3.914
   -3.990
   -3.978
   -3.870
   -3.651
   -3.314
   -2.866
   -2.331
   -1.736
   -1.101
   -0.443
    0.216
    0.853
    1.461
    2.036
    2.566
    3.025
    3.388
    3.641
    3.777
    3.779
    3.629
    3.323
    2.876
    2.309
    1.646
    0.917
    0.156
   -0.610
   -1.368
   -2.112
   -2.832
   -3.508
   -4.115
   -4.619
   -4.987
   -5.200
   -5.256
   -5.158
   -4.914
   -4.530
   -4.020
   -3.399
   -2.680
   -1.873
   -0.992
   -0.056
    0.905
    1.858
    2.771
    3.614
    4.363
    4.996
    5.496
    5.849
    6.053
    6.118
    6.052
    5.865
    5.562
    5.151
    4.641
    4.048
    3.384
    2.663
    1.900
    1.118
    0.348
   -0.378
   -1.035
   -1.596
   -2.039
   -2.346
   -2.515
   -2.557
   -2.496
   -2.370
   -2.216
   -2.072
   -1.952
   -1.851
   -1.752
   -1.651
   -1.557
   -1.484
   -1.432
   -1.397
   -1.384
   -1.405
   -1.470
   -1.582
   -1.738
   -1.933
   -2.151
   -2.377
   -2.602
   -2.832
   -3.072
   -3.307
   -3.514
   -3.676
   -3.794
   -3.874
   -3.920
   -3.940
   -3.951
   -3.975
   -4.021
   -4.084
   -4.148
   -4.189
   -4.176
   -4.079
   -3.876
   -3.564
   -3.154
   -2.662
   -2.110
   -1.519
   -0.904
   -0.276
    0.360
    0.998
    1.627
    2.231
    2.789
    3.276
    3.659
    3.911
    4.021
    3.995
    3.849
    3.601
    3.270
    2.881
    2.453
    2.002
    1.545
    1.101
    0.679
    0.283
   -0.076
   -0.366
   -0.545
   -0.596
   -0.543
   -0.426
   -0.286
   -0.150
   -0.042
    0.024
    0.048
    0.041
    0.007
   -0.054
   -0.135
   -0.225
   -0.313
   -0.398
   -0.484
   -0.574
   -0.667
   -0.765
   -0.866
   -0.966
   -1.055
   -1.126
   -1.182
   -1.233
   -1.291
   -1.359
   -1.442
   -1.541
   -1.653
   -1.760
   -1.841
   -1.878
   -1.864
   -1.797
   -1.686
   -1.543
   -1.378
   -1.187
   -0.957
   -0.689
   -0.408
   -0.154
    0.036
    0.136
    0.129
    0.009
   -0.212
   -0.511
   -0.856
   -1.217
   -1.565
   -1.888
   -2.186
   -2.466
   -2.727
   -2.962
   -3.165
   -3.335
   -3.469
   -3.559
   -3.594
   -3.565
   -3.462
   -3.271
   -2.977
   -2.572
   -2.056
   -1.437
   -0.724
    0.064
    0.899
    1.737
    2.531
    3.242
    3.843
    4.313
    4.639
    4.816
    4.853
    4.764
    4.559
    4.247
    3.841
    3.356
    2.801
    2.178
    1.491
    0.753
   -0.013
   -0.777
   -1.507
   -2.174
   -2.748
   -3.209
   -3.538
   -3.726
   -3.775
   -3.700
   -3.517
   -3.240
   -2.888
   -2.485
   -2.050
   -1.585
   -1.080
   -0.518
    0.110
    0.801
    1.528
    2.252
    2.934
    3.541
    4.051
    4.445
    4.713
    4.844
    4.832
    4.671
    4.358
    3.897
    3.307
    2.615
    1.854
    1.055
    0.235
   -0.592
   -1.404
   -2.168
   -2.847
   -3.401
   -3.797
   -4.010
   -4.037
   -3.888
   -3.577
   -3.107
   -2.480
   -1.708
   -0.813
    0.167
    1.188
    2.208
    3.185
    4.095
    4.932
    5.696
    6.389
    7.006
    7.532
    7.947
    8.231
    8.361
    8.324
    8.116
    7.749
    7.251
    6.656
    6.005
    5.333
    4.673
    4.064
    3.545
    3.144
    2.866
    2.687
    2.579
    2.521
    2.502
    2.510
    2.528
    2.533
    2.509
    2.447
    2.351
    2.238
    2.126
    2.028
    1.957
    1.932
    1.976
    2.097
    2.281
    2.503
    2.742
    2.998
    3.278
    3.586
    3.919
    4.270
    4.625
    4.971
    5.295
    5.580
    5.810
    5.970
    6.047
    6.027
    5.901
    5.656
    5.287
    4.792
    4.182
    3.474
    2.692
    1.856
    0.991
    0.119
   -0.735
   -1.550
   -2.304
   -2.971
   -3.527
   -3.956
   -4.258
   -4.434
   -4.475
   -4.362
   -4.074
   -3.600
   -2.948
   -2.140
   -1.202
   -0.160
    0.963
    2.132
    3.290
    4.370
    5.298
    6.011
    6.461
    6.618
    6.467
    6.005
    5.233
    4.168
    2.850
    1.342
   -0.286
   -1.959
   -3.610
   -5.175
   -6.593
   -7.810
   -8.781
   -9.482
   -9.909
  -10.072
   -9.982
   -9.649
   -9.092
   -8.341
   -7.436
   -6.421
   -5.335
   -4.203
   -3.036
   -1.839
   -0.616
    0.623
    1.860
    3.067
    4.200
    5.211
    6.053
    6.700
    7.138
    7.366
    7.396
    7.254
    6.985
    6.629
    6.210
    5.727
    5.169
    4.527
    3.799
    2.992
    2.115
    1.189
    0.243
   -0.695
   -1.598
   -2.437
   -3.176
   -3.785
   -4.242
   -4.537
   -4.668
   -4.639
   -4.464
   -4.162
   -3.764
   -3.308
   -2.835
   -2.380
   -1.958
   -1.579
   -1.248
   -0.972
   -0.760
   -0.633
   -0.617
   -0.734
   -0.989
   -1.364
   -1.833
   -2.362
   -2.926
   -3.515
   -4.132
   -4.786
   -5.477
   -6.194
   -6.917
   -7.621
   -8.281
   -8.883
   -9.425
   -9.914
  -10.353
  -10.742
  -11.082
  -11.385
  -11.667
  -11.941
  -12.207
  -12.451
  -12.641
  -12.741
  -12.718
  -12.554
  -12.242
  -11.790
  -11.205
  -10.493
   -9.649
   -8.664
   -7.539
   -6.282
   -4.912
   -3.460
   -1.975
   -0.517
    0.865
    2.152
    3.344
    4.450
    5.475
    6.415
    7.256
    7.972
    8.539
    8.947
    9.192
    9.275
    9.211
    9.038
    8.818
    8.613
    8.465
    8.377
    8.318
    8.234
    8.064
    7.760
    7.289
    6.642
    5.836
    4.915
    3.940
    2.970
    2.038
    1.156
    0.317
   -0.485
   -1.248
   -1.957
   -2.585
   -3.109
   -3.512
   -3.800
   -3.997
   -4.136
   -4.244
   -4.332
   -4.394
   -4.428
   -4.438
   -4.442
   -4.459
   -4.496
   -4.541
   -4.577
   -4.590
   -4.586
   -4.579
   -4.584
   -4.598
   -4.600
   -4.566
   -4.488
   -4.374
   -4.238
   -4.088
   -3.924
   -3.753
   -3.590
   -3.446
   -3.328
   -3.229
   -3.145
   -3.076
   -3.024
   -2.992
   -2.971
   -2.939
   -2.863
   -2.718
   -2.496
   -2.199
   -1.840
   -1.430
   -0.980
   -0.506
   -0.031
    0.412
    0.794
    1.096
    1.318
    1.471
    1.569
    1.619
    1.615
    1.542
    1.378
    1.105
    0.717
    0.217
   -0.384
   -1.067
   -1.817
   -2.612
   -3.431
   -4.243
   -5.014
   -5.711
   -6.305
   -6.767
   -7.073
   -7.200
   -7.122
   -6.822
   -6.291
   -5.542
   -4.598
   -3.487
   -2.235
   -0.860
    0.626
    2.223
    3.934
    5.751
    7.645
    9.562
   11.425
   13.149
   14.654
   15.877
   16.772
   17.311
   17.481
   17.292
   16.777
   15.975
   14.927
   13.669
   12.232
   10.646
    8.934
    7.116
    5.214
    3.248
    1.245
   -0.753
   -2.691
   -4.506
   -6.140
   -7.550
   -8.695
   -9.545
  -10.079
  -10.296
  -10.213
   -9.852
   -9.230
   -8.372
   -7.318
   -6.130
   -4.875
   -3.613
   -2.389
   -1.233
   -0.169
    0.778
    1.576
    2.192
    2.596
    2.781
    2.759
    2.556
    2.211
    1.780
    1.334
    0.931
    0.600
    0.337
    0.121
   -0.067
   -0.247
   -0.437
   -0.648
   -0.881
   -1.122
   -1.351
   -1.538
   -1.652
   -1.665
   -1.566
   -1.367
   -1.089
   -0.754
   -0.362
    0.105
    0.659
    1.291
    1.963
    2.620
    3.211
    3.698
    4.071
    4.345
    4.556
    4.741
    4.931
    5.139
    5.358
    5.566
    5.734
    5.861
    5.971
    6.103
    6.281
    6.504
    6.750
    6.981
    7.159
    7.253
    7.246
    7.136
    6.926
    6.623
    6.246
    5.816
    5.354
    4.874
    4.380
    3.867
    3.319
    2.718
    2.061
    1.362
    0.647
   -0.067
   -0.770
   -1.460
   -2.140
   -2.820
   -3.515
   -4.233
   -4.963
   -5.671
   -6.308
   -6.818
   -7.155
   -7.296
   -7.247
   -7.037
   -6.707
   -6.284
   -5.776
   -5.178
   -4.484
   -3.701
   -2.855
   -1.985
   -1.136
   -0.353
    0.333
    0.904
    1.364
    1.728
    2.016
    2.251
    2.457
    2.662
    2.893
    3.174
    3.518
    3.922
    4.373
    4.844
    5.305
    5.728
    6.085
    6.353
    6.520
    6.582
    6.545
    6.420
    6.220
    5.960
    5.652
    5.309
    4.938
    4.536
    4.093
    3.600
    3.064
    2.514
    1.983
    1.498
    1.071
    0.706
    0.403
    0.150
   -0.067
   -0.264
   -0.449
   -0.627
   -0.801
   -0.965
   -1.114
   -1.237
   -1.331
   -1.399
   -1.445
   -1.468
   -1.459
   -1.402
   -1.282
   -1.096
   -0.868
   -0.657
   -0.536
   -0.564
   -0.757
   -1.091
   -1.521
   -2.007
   -2.522
   -3.046
   -3.571
   -4.084
   -4.570
   -5.005
   -5.362
   -5.632
   -5.817
   -5.928
   -5.968
   -5.919
   -5.754
   -5.436
   -4.948
   -4.301
   -3.532
   -2.687
   -1.803
   -0.904
   -0.005
    0.891
    1.789
    2.693
    3.595
    4.479
    5.313
    6.052
    6.654
    7.089
    7.353
    7.450
    7.388
    7.173
    6.826
    6.381
    5.879
    5.359
    4.852
    4.372
    3.914
    3.467
    3.026
    2.597
    2.196
    1.838
    1.535
    1.284
    1.069
    0.863
    0.646
    0.412
    0.162
   -0.095
   -0.347
   -0.583
   -0.803
   -1.017
   -1.234
   -1.460
   -1.695
   -1.941
   -2.206
   -2.495
   -2.794
   -3.065
   -3.259
   -3.348
   -3.336
   -3.262
   -3.181
   -3.136
   -3.147
   -3.217
   -3.343
   -3.525
   -3.762
   -4.031
   -4.283
   -4.459
   -4.515
   -4.430
   -4.208
   -3.869
   -3.446
   -2.978
   -2.508
   -2.076
   -1.715
   -1.449
   -1.292
   -1.237
   -1.258
   -1.319
   -1.387
   -1.441
   -1.471
   -1.462
   -1.397
   -1.267
   -1.091
   -0.919
   -0.816
   -0.838
   -1.010
   -1.317
   -1.712
   -2.131
   -2.518
   -2.835
   -3.065
   -3.206
   -3.267
   -3.256
   -3.172
   -3.012
   -2.773
   -2.464
   -2.103
   -1.721
   -1.348
   -1.011
   -0.734
   -0.531
   -0.408
   -0.346
   -0.313
   -0.275
   -0.202
   -0.074
    0.116
    0.355
    0.605
    0.820
    0.971
    1.062
    1.119
    1.171
    1.241
    1.339
    1.461
    1.589
    1.689
    1.716
    1.615
    1.344
    0.891
    0.285
   -0.420
   -1.155
   -1.857
   -2.479
   -3.003
   -3.449
   -3.859
   -4.281
   -4.743
   -5.238
   -5.726
   -6.151
   -6.469
   -6.665
   -6.744
   -6.714
   -6.571
   -6.309
   -5.924
   -5.431
   -4.851
   -4.212
   -3.534
   -2.827
   -2.089
   -1.313
   -0.499
    0.327
    1.126
    1.856
    2.482
    2.978
    3.313
    3.464
    3.425
    3.214
    2.866
    2.415
    1.894
    1.330
    0.739
    0.118
   -0.556
   -1.307
   -2.136
   -3.009
   -3.861
   -4.618
   -5.222
   -5.637
   -5.855
   -5.885
   -5.743
   -5.443
   -5.001
   -4.441
   -3.795
   -3.089
   -2.334
   -1.534
   -0.702
    0.142
    0.981
    1.807
    2.613
    3.373
    4.045
    4.577
    4.929
    5.077
    5.020
    4.774
    4.359
    3.790
    3.081
    2.249
    1.327
    0.369
   -0.563
   -1.423
   -2.191
   -2.873
   -3.486
   -4.032
   -4.493
   -4.837
   -5.033
   -5.062
   -4.915
   -4.590
   -4.082
   -3.384
   -2.489
   -1.409
   -0.175
    1.160
    2.539
    3.913
    5.249
    6.520
    7.694
    8.732
    9.594
   10.243
   10.662
   10.853
   10.839
   10.643
   10.292
    9.810
    9.229
    8.582
    7.887
    7.148
    6.368
    5.556
    4.730
    3.905
    3.095
    2.322
    1.607
    0.972
    0.427
   -0.032
   -0.424
   -0.774
   -1.108
   -1.438
   -1.771
   -2.101
   -2.407
   -2.646
   -2.773
   -2.749
   -2.561
   -2.216
   -1.738
   -1.155
   -0.503
    0.180
    0.849
    1.454
    1.956
    2.328
    2.566
    2.683
    2.702
    2.641
    2.517
    2.341
    2.126
    1.880
    1.600
    1.276
    0.900
    0.477
    0.023
   -0.439
   -0.876
   -1.245
   -1.502
   -1.611
   -1.558
   -1.358
   -1.058
   -0.725
   -0.427
   -0.210
   -0.094
   -0.078
   -0.148
   -0.293
   -0.508
   -0.783
   -1.105
   -1.451
   -1.800
   -2.134
   -2.443
   -2.715
   -2.939
   -3.104
   -3.202
   -3.224
   -3.160
   -3.008
   -2.767
   -2.445
   -2.053
   -1.606
   -1.119
   -0.606
   -0.075
    0.466
    1.012
    1.549
    2.059
    2.522
    2.925
    3.268
    3.561
    3.820
    4.056
    4.272
    4.461
    4.627
    4.780
    4.931
    5.063
    5.135
    5.092
    4.901
    4.556
    4.073
    3.489
    2.846
    2.180
    1.525
    0.907
    0.357
   -0.102
   -0.472
   -0.779
   -1.063
   -1.355
   -1.662
   -1.968
   -2.232
   -2.410
   -2.468
   -2.392
   -2.184
   -1.859
   -1.451
   -1.010
   -0.592
   -0.239
    0.028
    0.211
    0.327
