Origin Time       18/01/2011 20:23:27
Lat.              28.9 N	
Long.             64.0 E	
Depth (Km)          5.0
Magnitude         7.4
 Region           Southwestern-Pakistan                                            
 Above details taken from IMD 
    
Station Code       JAMI
Station Lat.       28.559  N
Station Long.      77.279  E
Station Height(m)  153.0
Site Class        C   Vs30 between 200 m/sec to 375 m/sec *  
Record Time        1/18/2011 ) 20:27:20.0
Sampling Rate     200. Hz
 Record Duration  112.000 Sec.
 Direction         N-S (N positive)
Max. Acceleration  11.598 cm/sec**2
     
  * For reference see Site Classification link of website 
     
 Base Line Corrected and Low Pass Filtered (Cut Off at 35 Hz) Time History
 Acceleration data in cm/sec**2
    
[...]
   -0.996
   -0.884
   -0.778
   -0.677
   -0.574
   -0.468
   -0.363
   -0.267
   -0.190
   -0.129
   -0.075
   -0.016
    0.054
    0.137
    0.222
    0.287
    0.305
    0.262
    0.163
    0.029
   -0.118
   -0.261
   -0.392
   -0.501
   -0.578
   -0.618
   -0.619
   -0.588
   -0.523
   -0.424
   -0.292
   -0.138
    0.027
    0.192
    0.346
    0.477
    0.582
    0.666
    0.736
    0.791
    0.816
    0.803
    0.754
    0.685
    0.616
    0.554
    0.499
    0.446
    0.390
    0.320
    0.224
    0.097
   -0.048
   -0.190
   -0.318
   -0.433
   -0.535
   -0.618
   -0.679
   -0.725
   -0.764
   -0.796
   -0.818
   -0.840
   -0.877
   -0.931
   -0.987
   -1.022
   -1.025
   -0.999
   -0.945
   -0.863
   -0.752
   -0.614
   -0.456
   -0.286
   -0.111
    0.064
    0.229
    0.372
    0.482
    0.550
    0.566
    0.521
    0.418
    0.273
    0.116
   -0.028
   -0.137
   -0.205
   -0.234
   -0.230
   -0.198
   -0.141
   -0.059
    0.042
    0.155
    0.272
    0.386
    0.488
    0.565
    0.612
    0.639
    0.660
    0.688
    0.728
    0.777
    0.828
    0.865
    0.871
    0.828
    0.724
    0.552
    0.316
    0.032
   -0.266
   -0.541
   -0.769
   -0.943
   -1.066
   -1.141
   -1.164
   -1.137
   -1.073
   -0.993
   -0.917
   -0.863
   -0.847
   -0.879
   -0.958
   -1.077
   -1.225
   -1.386
   -1.535
   -1.639
   -1.683
   -1.669
   -1.618
   -1.541
   -1.445
   -1.336
   -1.222
   -1.107
   -0.994
   -0.891
   -0.819
   -0.788
   -0.791
   -0.795
   -0.767
   -0.687
   -0.550
   -0.371
   -0.180
   -0.001
    0.157
    0.303
    0.444
    0.578
    0.700
    0.810
    0.918
    1.035
    1.165
    1.313
    1.483
    1.677
    1.886
    2.097
    2.293
    2.462
    2.587
    2.657
    2.667
    2.623
    2.533
    2.406
    2.245
    2.048
    1.796
    1.475
    1.081
    0.624
    0.123
   -0.409
   -0.952
   -1.487
   -1.995
   -2.463
   -2.886
   -3.267
   -3.615
   -3.937
   -4.231
   -4.479
   -4.668
   -4.801
   -4.885
   -4.918
   -4.884
   -4.766
   -4.557
   -4.262
   -3.889
   -3.438
   -2.907
   -2.302
   -1.642
   -0.948
   -0.225
    0.527
    1.299
    2.063
    2.784
    3.445
    4.043
    4.580
    5.051
    5.450
    5.774
    6.022
    6.191
    6.284
    6.307
    6.262
    6.139
    5.922
    5.614
    5.233
    4.795
    4.304
    3.765
    3.187
    2.590
    1.996
    1.423
    0.889
    0.395
   -0.076
   -0.543
   -1.006
   -1.447
   -1.852
   -2.217
   -2.539
   -2.810
   -3.016
   -3.156
   -3.237
   -3.271
   -3.270
   -3.247
   -3.210
   -3.156
   -3.078
   -2.977
   -2.859
   -2.728
   -2.575
   -2.394
   -2.185
   -1.959
   -1.718
   -1.460
   -1.187
   -0.904
   -0.623
   -0.354
   -0.105
    0.122
    0.333
    0.539
    0.746
    0.953
    1.158
    1.363
    1.567
    1.765
    1.951
    2.125
    2.296
    2.467
    2.635
    2.788
    2.906
    2.971
    2.965
    2.882
    2.735
    2.545
    2.331
    2.105
    1.877
    1.673
    1.517
    1.416
    1.349
    1.285
    1.209
    1.123
    1.028
    0.922
    0.798
    0.649
    0.463
    0.234
   -0.026
   -0.291
   -0.529
   -0.717
   -0.838
   -0.876
   -0.825
   -0.699
   -0.527
   -0.342
   -0.168
   -0.019
    0.098
    0.176
    0.204
    0.172
    0.084
   -0.043
   -0.178
   -0.295
   -0.375
   -0.412
   -0.406
   -0.368
   -0.317
   -0.274
   -0.252
   -0.252
   -0.261
   -0.265
   -0.253
   -0.222
   -0.172
   -0.111
   -0.045
    0.021
    0.085
    0.149
    0.216
    0.285
    0.359
    0.442
    0.542
    0.659
    0.783
    0.901
    1.000
    1.070
    1.106
    1.114
    1.100
    1.064
    1.000
    0.903
    0.779
    0.634
    0.463
    0.250
   -0.020
   -0.350
   -0.733
   -1.158
   -1.617
   -2.091
   -2.555
   -2.976
   -3.324
   -3.580
   -3.740
   -3.805
   -3.780
   -3.677
   -3.522
   -3.344
   -3.158
   -2.960
   -2.741
   -2.501
   -2.238
   -1.943
   -1.610
   -1.250
   -0.881
   -0.516
   -0.153
    0.209
    0.557
    0.881
    1.178
    1.449
    1.686
    1.880
    2.021
    2.103
    2.121
    2.072
    1.966
    1.817
    1.638
    1.423
    1.153
    0.814
    0.412
   -0.023
   -0.456
   -0.862
   -1.238
   -1.591
   -1.925
   -2.237
   -2.518
   -2.762
   -2.947
   -3.046
   -3.039
   -2.926
   -2.719
   -2.429
   -2.066
   -1.649
   -1.214
   -0.787
   -0.384
   -0.004
    0.358
    0.704
    1.035
    1.347
    1.620
    1.831
    1.966
    2.030
    2.039
    2.005
    1.924
    1.787
    1.586
    1.322
    1.005
    0.648
    0.274
   -0.091
   -0.426
   -0.725
   -0.993
   -1.244
   -1.493
   -1.752
   -2.023
   -2.298
   -2.568
   -2.831
   -3.096
   -3.374
   -3.666
   -3.958
   -4.222
   -4.426
   -4.551
   -4.590
   -4.548
   -4.424
   -4.220
   -3.943
   -3.607
   -3.222
   -2.794
   -2.332
   -1.851
   -1.359
   -0.849
   -0.304
    0.284
    0.914
    1.574
    2.258
    2.966
    3.700
    4.450
    5.204
    5.938
    6.616
    7.193
    7.633
    7.922
    8.072
    8.095
    8.001
    7.798
    7.500
    7.122
    6.668
    6.125
    5.482
    4.726
    3.854
    2.875
    1.805
    0.671
   -0.505
   -1.698
   -2.873
   -3.993
   -5.024
   -5.949
   -6.761
   -7.456
   -8.031
   -8.485
   -8.823
   -9.047
   -9.155
   -9.137
   -8.974
   -8.643
   -8.129
   -7.439
   -6.593
   -5.612
   -4.513
   -3.318
   -2.055
   -0.760
    0.527
    1.767
    2.924
    3.966
    4.867
    5.615
    6.209
    6.658
    6.975
    7.167
    7.234
    7.179
    7.014
    6.753
    6.400
    5.946
    5.369
    4.647
    3.779
    2.785
    1.706
    0.596
   -0.484
   -1.468
   -2.301
   -2.950
   -3.411
   -3.692
   -3.806
   -3.767
   -3.595
   -3.311
   -2.936
   -2.492
   -2.000
   -1.478
   -0.934
   -0.366
    0.239
    0.889
    1.587
    2.319
    3.061
    3.793
    4.510
    5.205
    5.857
    6.434
    6.917
    7.298
    7.567
    7.705
    7.694
    7.529
    7.210
    6.745
    6.158
    5.480
    4.723
    3.878
    2.938
    1.930
    0.879
   -0.213
   -1.339
   -2.460
   -3.536
   -4.568
   -5.559
   -6.471
   -7.252
   -7.890
   -8.399
   -8.768
   -8.970
   -9.029
   -9.022
   -8.988
   -8.886
   -8.668
   -8.347
   -7.950
   -7.455
   -6.810
   -6.012
   -5.103
   -4.108
   -3.019
   -1.860
   -0.689
    0.452
    1.569
    2.658
    3.668
    4.545
    5.292
    5.942
    6.498
    6.931
    7.238
    7.450
    7.586
    7.624
    7.538
    7.326
    6.990
    6.520
    5.917
    5.221
    4.473
    3.680
    2.837
    1.976
    1.159
    0.431
   -0.197
   -0.715
   -1.101
   -1.355
   -1.505
   -1.563
   -1.495
   -1.266
   -0.890
   -0.410
    0.154
    0.799
    1.498
    2.209
    2.909
    3.600
    4.260
    4.832
    5.269
    5.567
    5.734
    5.750
    5.584
    5.235
    4.723
    4.058
    3.242
    2.289
    1.235
    0.104
   -1.109
   -2.396
   -3.711
   -4.988
   -6.187
   -7.301
   -8.318
   -9.208
   -9.941
  -10.506
  -10.883
  -11.034
  -10.932
  -10.591
  -10.051
   -9.334
   -8.441
   -7.387
   -6.211
   -4.955
   -3.649
   -2.324
   -1.027
    0.206
    1.372
    2.488
    3.570
    4.617
    5.620
    6.560
    7.409
    8.135
    8.715
    9.129
    9.354
    9.372
    9.187
    8.816
    8.270
    7.555
    6.691
    5.721
    4.689
    3.616
    2.512
    1.400
    0.309
   -0.755
   -1.814
   -2.877
   -3.922
   -4.915
   -5.834
   -6.669
   -7.387
   -7.943
   -8.296
   -8.433
   -8.359
   -8.085
   -7.645
   -7.091
   -6.473
   -5.824
   -5.158
   -4.491
   -3.827
   -3.154
   -2.446
   -1.697
   -0.920
   -0.136
    0.649
    1.436
    2.221
    2.985
    3.705
    4.351
    4.891
    5.310
    5.610
    5.811
    5.934
    5.996
    6.011
    5.977
    5.873
    5.662
    5.315
    4.818
    4.176
    3.412
    2.559
    1.663
    0.754
   -0.155
   -1.066
   -1.975
   -2.866
   -3.713
   -4.494
   -5.200
   -5.833
   -6.397
   -6.889
   -7.296
   -7.598
   -7.783
   -7.849
   -7.814
   -7.701
   -7.522
   -7.256
   -6.871
   -6.368
   -5.787
   -5.158
   -4.476
   -3.734
   -2.957
   -2.190
   -1.453
   -0.736
   -0.029
    0.654
    1.306
    1.940
    2.568
    3.175
    3.739
    4.261
    4.764
    5.256
    5.717
    6.117
    6.436
    6.654
    6.743
    6.682
    6.465
    6.110
    5.640
    5.085
    4.475
    3.833
    3.165
    2.461
    1.719
    0.958
    0.203
   -0.529
   -1.229
   -1.887
   -2.488
   -3.020
   -3.475
   -3.841
   -4.114
   -4.302
   -4.427
   -4.492
   -4.480
   -4.370
   -4.171
   -3.910
   -3.596
   -3.209
   -2.734
   -2.187
   -1.602
   -0.999
   -0.385
    0.222
    0.798
    1.328
    1.810
    2.231
    2.563
    2.799
    2.974
    3.136
    3.307
    3.483
    3.661
    3.837
    3.992
    4.086
    4.082
    3.966
    3.735
    3.385
    2.909
    2.321
    1.652
    0.930
    0.177
   -0.580
   -1.300
   -1.943
   -2.491
   -2.947
   -3.313
   -3.580
   -3.745
   -3.818
   -3.809
   -3.713
   -3.519
   -3.233
   -2.881
   -2.493
   -2.099
   -1.727
   -1.397
   -1.106
   -0.836
   -0.583
   -0.367
   -0.215
   -0.130
   -0.092
   -0.079
   -0.071
   -0.050
   -0.003
    0.070
    0.164
    0.275
    0.403
    0.536
    0.665
    0.792
    0.944
    1.150
    1.427
    1.793
    2.272
    2.888
    3.639
    4.491
    5.394
    6.294
    7.138
    7.873
    8.448
    8.825
    8.990
    8.941
    8.686
    8.240
    7.622
    6.854
    5.955
    4.945
    3.850
    2.700
    1.523
    0.326
   -0.890
   -2.112
   -3.305
   -4.427
   -5.451
   -6.366
   -7.171
   -7.866
   -8.451
   -8.924
   -9.279
   -9.502
   -9.580
   -9.501
   -9.249
   -8.821
   -8.239
   -7.543
   -6.779
   -5.983
   -5.182
   -4.388
   -3.602
   -2.812
   -2.015
   -1.225
   -0.464
    0.254
    0.926
    1.553
    2.128
    2.638
    3.058
    3.352
    3.487
    3.452
    3.266
    2.969
    2.612
    2.253
    1.944
    1.721
    1.597
    1.551
    1.538
    1.520
    1.485
    1.446
    1.423
    1.421
    1.427
    1.424
    1.399
    1.350
    1.295
    1.255
    1.245
    1.257
    1.270
    1.268
    1.239
    1.175
    1.066
    0.910
    0.702
    0.434
    0.097
   -0.299
   -0.722
   -1.130
   -1.484
   -1.747
   -1.882
   -1.862
   -1.693
   -1.412
   -1.060
   -0.670
   -0.255
    0.187
    0.673
    1.202
    1.736
    2.216
    2.590
    2.844
    2.974
    2.978
    2.863
    2.664
    2.431
    2.199
    1.972
    1.735
    1.472
    1.166
    0.791
    0.326
   -0.241
   -0.904
   -1.646
   -2.442
   -3.249
   -4.017
   -4.703
   -5.282
   -5.748
   -6.112
   -6.392
   -6.603
   -6.750
   -6.822
   -6.797
   -6.650
   -6.363
   -5.926
   -5.331
   -4.570
   -3.637
   -2.538
   -1.299
    0.032
    1.385
    2.675
    3.823
    4.765
    5.462
    5.906
    6.137
    6.236
    6.298
    6.386
    6.521
    6.687
    6.847
    6.949
    6.929
    6.729
    6.317
    5.697
    4.907
    4.006
    3.061
    2.131
    1.262
    0.493
   -0.142
   -0.626
   -0.969
   -1.211
   -1.396
   -1.561
   -1.738
   -1.948
   -2.200
   -2.478
   -2.741
   -2.935
   -3.012
   -2.946
   -2.750
   -2.469
   -2.156
   -1.849
   -1.562
   -1.298
   -1.059
   -0.853
   -0.680
   -0.526
   -0.365
   -0.166
    0.095
    0.434
    0.866
    1.400
    2.020
    2.677
    3.298
    3.820
    4.200
    4.408
    4.420
    4.229
    3.858
    3.356
    2.768
    2.129
    1.465
    0.800
    0.147
   -0.493
   -1.120
   -1.736
   -2.344
   -2.960
   -3.598
   -4.263
   -4.948
   -5.631
   -6.274
   -6.820
   -7.207
   -7.397
   -7.383
   -7.175
   -6.793
   -6.261
   -5.616
   -4.898
   -4.153
   -3.424
   -2.749
   -2.139
   -1.573
   -1.015
   -0.435
    0.176
    0.815
    1.474
    2.131
    2.760
    3.346
    3.888
    4.385
    4.828
    5.203
    5.506
    5.747
    5.943
    6.114
    6.275
    6.425
    6.551
    6.630
    6.632
    6.519
    6.253
    5.810
    5.201
    4.464
    3.646
    2.793
    1.947
    1.144
    0.406
   -0.268
   -0.883
   -1.441
   -1.935
   -2.353
   -2.687
   -2.934
   -3.100
   -3.201
   -3.257
   -3.292
   -3.326
   -3.373
   -3.439
   -3.528
   -3.642
   -3.761
   -3.840
   -3.825
   -3.682
   -3.407
   -3.020
   -2.568
   -2.116
   -1.734
   -1.457
   -1.273
   -1.146
   -1.040
   -0.928
   -0.792
   -0.618
   -0.406
   -0.158
    0.120
    0.414
    0.686
    0.885
    0.969
    0.910
    0.697
    0.336
   -0.139
   -0.663
   -1.169
   -1.606
   -1.949
   -2.185
   -2.321
   -2.374
   -2.365
   -2.308
   -2.212
   -2.092
   -1.963
   -1.833
   -1.696
   -1.540
   -1.355
   -1.140
   -0.908
   -0.670
   -0.419
   -0.131
    0.225
    0.665
    1.182
    1.755
    2.339
    2.874
    3.299
    3.569
    3.658
    3.553
    3.250
    2.773
    2.171
    1.509
    0.840
    0.205
   -0.372
   -0.871
   -1.282
   -1.606
   -1.852
   -2.030
   -2.154
   -2.243
   -2.314
   -2.377
   -2.437
   -2.498
   -2.566
   -2.634
   -2.676
   -2.645
   -2.495
   -2.196
   -1.747
   -1.178
   -0.548
    0.071
    0.610
    1.023
    1.283
    1.388
    1.352
    1.207
    0.990
    0.742
    0.508
    0.333
    0.248
    0.255
    0.335
    0.465
    0.637
    0.846
    1.091
    1.371
    1.683
    2.010
    2.321
    2.593
    2.816
    2.996
    3.141
    3.259
    3.356
    3.419
    3.424
    3.339
    3.137
    2.791
    2.282
    1.613
    0.819
   -0.041
   -0.906
   -1.727
   -2.471
   -3.118
   -3.662
   -4.090
   -4.371
   -4.453
   -4.303
   -3.932
   -3.392
   -2.749
   -2.061
   -1.358
   -0.634
    0.138
    0.995
    1.959
    3.034
    4.203
    5.429
    6.660
    7.838
    8.911
    9.838
   10.593
   11.153
   11.495
   11.598
   11.446
   11.034
   10.363
    9.452
    8.347
    7.119
    5.838
    4.555
    3.306
    2.111
    0.975
   -0.115
   -1.167
   -2.164
   -3.075
   -3.886
   -4.607
   -5.254
   -5.830
   -6.325
   -6.723
   -7.008
   -7.155
   -7.141
   -6.950
   -6.596
   -6.114
   -5.551
   -4.944
   -4.315
   -3.662
   -2.965
   -2.196
   -1.346
   -0.439
    0.469
    1.310
    2.026
    2.575
    2.930
    3.082
    3.044
    2.848
    2.534
    2.143
    1.710
    1.270
    0.849
    0.455
    0.076
   -0.301
   -0.680
   -1.060
   -1.436
   -1.801
   -2.141
   -2.448
   -2.732
   -3.014
   -3.299
   -3.565
   -3.769
   -3.861
   -3.799
   -3.560
   -3.153
   -2.619
   -2.001
   -1.336
   -0.657
   -0.006
    0.574
    1.056
    1.425
    1.670
    1.785
    1.780
    1.678
    1.498
    1.257
    0.980
    0.706
    0.464
    0.266
    0.106
   -0.029
   -0.157
   -0.304
   -0.488
   -0.716
   -0.983
   -1.270
   -1.543
   -1.763
   -1.897
   -1.930
   -1.860
   -1.700
   -1.493
   -1.307
   -1.205
   -1.200
   -1.258
   -1.329
   -1.382
   -1.415
   -1.442
   -1.488
   -1.579
   -1.742
   -1.995
   -2.331
   -2.712
   -3.074
   -3.351
   -3.505
   -3.533
   -3.450
   -3.268
   -2.993
   -2.619
   -2.148
   -1.600
   -1.021
   -0.464
    0.034
    0.451
    0.770
    0.984
    1.104
    1.158
    1.163
    1.119
    1.011
    0.841
    0.630
    0.404
    0.177
   -0.051
   -0.296
   -0.578
   -0.908
   -1.286
   -1.705
   -2.166
   -2.670
   -3.204
   -3.733
   -4.205
   -4.569
   -4.787
   -4.843
   -4.748
   -4.537
   -4.267
   -3.985
   -3.708
   -3.425
   -3.114
   -2.762
   -2.367
   -1.918
   -1.404
   -0.823
   -0.193
    0.448
    1.053
    1.587
    2.027
    2.366
    2.601
    2.729
    2.744
    2.661
    2.522
    2.377
    2.263
    2.198
    2.185
    2.215
    2.268
    2.310
    2.303
    2.222
    2.063
    1.846
    1.613
    1.413
    1.280
    1.212
    1.191
    1.201
    1.232
    1.276
    1.329
    1.391
    1.460
    1.541
    1.648
    1.815
    2.078
    2.449
    2.909
    3.425
    3.959
    4.472
    4.927
    5.286
    5.515
    5.579
    5.460
    5.152
    4.667
    4.029
    3.283
    2.498
    1.760
    1.142
    0.675
    0.347
    0.110
   -0.102
   -0.352
   -0.686
   -1.108
   -1.590
   -2.087
   -2.560
   -2.980
   -3.322
   -3.575
   -3.737
   -3.823
   -3.846
   -3.817
   -3.755
   -3.691
   -3.660
   -3.665
   -3.679
   -3.654
   -3.543
   -3.314
   -2.943
   -2.429
   -1.797
   -1.098
   -0.401
    0.235
    0.780
    1.235
    1.621
    1.964
    2.279
    2.574
    2.857
    3.152
    3.485
    3.878
    4.314
    4.739
    5.085
    5.306
    5.396
    5.363
    5.203
    4.903
    4.461
    3.911
    3.315
    2.735
    2.213
    1.765
    1.390
    1.073
    0.792
    0.518
    0.232
   -0.071
   -0.379
   -0.672
   -0.932
   -1.145
   -1.306
   -1.405
   -1.418
   -1.313
   -1.076
   -0.732
   -0.327
    0.089
    0.479
    0.810
    1.058
    1.224
    1.330
    1.406
    1.459
    1.484
    1.479
    1.459
    1.447
    1.469
    1.535
    1.636
    1.741
    1.812
    1.828
    1.791
    1.714
    1.608
    1.487
    1.371
    1.276
    1.209
    1.176
    1.184
    1.236
    1.317
    1.394
    1.433
    1.414
    1.328
    1.177
    0.978
    0.754
    0.527
    0.303
    0.085
   -0.113
   -0.272
   -0.386
   -0.481
   -0.598
   -0.776
   -1.037
   -1.393
   -1.837
   -2.336
   -2.829
   -3.248
   -3.538
   -3.668
   -3.638
   -3.471
   -3.211
   -2.908
   -2.591
   -2.264
   -1.927
   -1.594
   -1.292
   -1.044
   -0.856
   -0.720
   -0.629
   -0.578
   -0.546
   -0.492
   -0.370
   -0.151
    0.157
    0.518
    0.876
    1.173
    1.363
    1.432
    1.389
    1.245
    0.999
    0.653
    0.223
   -0.253
   -0.735
   -1.195
   -1.612
   -1.972
   -2.264
   -2.485
   -2.632
   -2.694
   -2.657
   -2.515
   -2.271
   -1.935
   -1.509
   -1.007
   -0.461
    0.078
    0.566
    0.983
    1.340
    1.662
    1.972
    2.264
    2.509
    2.668
    2.720
    2.654
    2.467
    2.160
    1.748
    1.261
    0.730
    0.171
   -0.407
   -0.994
   -1.576
   -2.143
   -2.692
   -3.221
   -3.730
   -4.221
   -4.688
   -5.106
   -5.437
   -5.649
   -5.739
   -5.716
   -5.592
   -5.367
   -5.039
   -4.609
   -4.076
   -3.442
   -2.721
   -1.941
   -1.137
   -0.344
    0.399
    1.050
    1.575
    1.968
    2.243
    2.417
    2.493
    2.465
    2.314
    2.024
    1.584
    1.010
    0.333
   -0.410
   -1.184
   -1.956
   -2.690
   -3.364
   -3.978
   -4.541
   -5.046
   -5.467
   -5.768
   -5.927
   -5.952
   -5.868
   -5.712
   -5.519
   -5.307
   -5.067
   -4.773
   -4.389
   -3.888
   -3.245
   -2.444
   -1.489
   -0.417
    0.709
    1.828
    2.905
    3.922
    4.870
    5.738
    6.527
    7.242
    7.883
    8.430
    8.847
    9.101
    9.175
    9.069
    8.791
    8.353
    7.771
    7.073
    6.289
    5.447
    4.563
    3.641
    2.692
    1.737
    0.812
   -0.045
   -0.817
   -1.510
   -2.140
   -2.720
   -3.241
   -3.679
   -4.003
   -4.191
   -4.246
   -4.189
   -4.047
   -3.847
   -3.608
   -3.340
   -3.036
   -2.679
   -2.260
   -1.774
   -1.215
   -0.567
    0.181
    1.012
    1.881
    2.732
    3.517
    4.198
    4.747
    5.155
    5.439
    5.636
    5.784
    5.915
    6.038
    6.143
    6.204
    6.206
    6.148
    6.032
    5.848
    5.580
    5.218
    4.763
    4.217
    3.583
    2.875
    2.130
    1.395
    0.718
    0.129
   -0.367
   -0.784
   -1.144
   -1.463
   -1.741
   -1.968
   -2.131
   -2.211
   -2.187
   -2.045
   -1.784
   -1.418
   -0.966
   -0.445
    0.117
    0.669
    1.154
    1.530
    1.788
    1.945
    2.031
    2.070
    2.076
    2.047
    1.978
    1.868
    1.719
    1.522
    1.255
    0.889
    0.417
   -0.149
   -0.791
   -1.485
   -2.193
