Origin Time       24/2/2010 19:20:52	
Lat.              28.6 N	
Long.             76.9 E	
Depth (Km)         17.0
Magnitude         2.5
 Region           Rohtak                                                           
 Above details taken from IMD 
     
Station Code       JAMI
Station Lat.       28.559  N
Station Long.      77.279  E
Station Height(m)  153.0
Site Class        C   Vs30 between 200 m/sec to 375 m/sec *  
Record Time        2/24/2010 ) 19:20:12.0
Sampling Rate     200. Hz
 Record Duration  101.000 Sec.
 Direction         E-W (E positive)
Max. Acceleration -10.910 cm/sec**2
     
  * For reference see Site Classification link of website 
     
 Base Line Corrected and Low Pass Filtered (Cut Off at 35 Hz) Time History
 Acceleration data in cm/sec**2
    
[...]
    0.015
    0.006
   -0.012
   -0.025
   -0.028
   -0.028
   -0.034
   -0.041
   -0.038
   -0.018
    0.009
    0.024
    0.020
    0.007
    0.003
    0.011
    0.017
    0.010
   -0.005
   -0.011
   -0.002
    0.017
    0.032
    0.037
    0.035
    0.031
    0.027
    0.019
    0.006
   -0.007
   -0.013
   -0.014
   -0.014
   -0.017
   -0.021
   -0.021
   -0.014
   -0.005
   -0.002
   -0.009
   -0.021
   -0.027
   -0.023
   -0.010
    0.002
    0.007
    0.009
    0.013
    0.022
    0.027
    0.022
    0.011
    0.003
    0.003
    0.010
    0.014
    0.012
    0.009
    0.015
    0.029
    0.042
    0.042
    0.029
    0.011
   -0.004
   -0.011
   -0.012
   -0.007
    0.002
    0.008
    0.009
    0.004
   -0.004
   -0.009
   -0.010
   -0.007
   -0.004
   -0.001
    0.003
    0.008
    0.008
    0.000
   -0.013
   -0.022
   -0.024
   -0.025
   -0.031
   -0.041
   -0.048
   -0.044
   -0.029
   -0.008
    0.012
    0.027
    0.035
    0.033
    0.021
    0.004
   -0.009
   -0.011
   -0.002
    0.011
    0.026
    0.040
    0.048
    0.048
    0.040
    0.028
    0.013
   -0.004
   -0.021
   -0.034
   -0.038
   -0.034
   -0.025
   -0.013
    0.000
    0.018
    0.037
    0.047
    0.039
    0.016
   -0.006
   -0.014
   -0.008
    0.002
    0.007
    0.010
    0.016
    0.025
    0.032
    0.031
    0.020
    0.007
   -0.003
   -0.009
   -0.015
   -0.023
   -0.029
   -0.027
   -0.014
    0.004
    0.020
    0.028
    0.024
    0.008
   -0.016
   -0.040
   -0.055
   -0.057
   -0.048
   -0.033
   -0.016
    0.004
    0.027
    0.049
    0.057
    0.047
    0.025
    0.002
   -0.017
   -0.033
   -0.045
   -0.046
   -0.030
   -0.005
    0.020
    0.034
    0.038
    0.037
    0.029
    0.016
   -0.001
   -0.010
   -0.005
    0.006
    0.012
    0.006
   -0.006
   -0.011
   -0.010
   -0.008
   -0.013
   -0.017
   -0.015
   -0.007
    0.002
    0.006
    0.009
    0.012
    0.016
    0.017
    0.018
    0.021
    0.026
    0.027
    0.022
    0.014
    0.009
    0.009
    0.006
   -0.004
   -0.014
   -0.015
   -0.007
   -0.001
    0.000
    0.001
    0.006
    0.008
   -0.004
   -0.028
   -0.048
   -0.049
   -0.031
   -0.005
    0.017
    0.034
    0.046
    0.049
    0.037
    0.012
   -0.010
   -0.016
   -0.008
   -0.001
   -0.006
   -0.015
   -0.018
   -0.014
   -0.012
   -0.020
   -0.033
   -0.041
   -0.039
   -0.032
   -0.026
   -0.022
   -0.017
   -0.006
    0.006
    0.013
    0.012
    0.004
   -0.003
   -0.005
    0.001
    0.015
    0.035
    0.055
    0.072
    0.081
    0.080
    0.062
    0.029
   -0.006
   -0.026
   -0.027
   -0.018
   -0.012
   -0.013
   -0.012
   -0.002
    0.011
    0.015
    0.003
   -0.013
   -0.018
   -0.013
   -0.012
   -0.021
   -0.032
   -0.027
   -0.004
    0.020
    0.026
    0.015
   -0.001
   -0.010
   -0.013
   -0.016
   -0.022
   -0.022
   -0.008
    0.020
    0.049
    0.066
    0.065
    0.049
    0.026
    0.002
   -0.020
   -0.038
   -0.050
   -0.050
   -0.034
   -0.007
    0.016
    0.025
    0.021
    0.018
    0.017
    0.009
   -0.015
   -0.045
   -0.057
   -0.042
   -0.011
    0.013
    0.020
    0.018
    0.022
    0.032
    0.035
    0.024
    0.008
    0.002
    0.009
    0.019
    0.021
    0.017
    0.013
    0.010
    0.006
   -0.002
   -0.013
   -0.023
   -0.027
   -0.025
   -0.018
   -0.010
   -0.006
   -0.007
   -0.012
   -0.017
   -0.021
   -0.027
   -0.036
   -0.046
   -0.044
   -0.025
    0.004
    0.030
    0.045
    0.053
    0.058
    0.060
    0.053
    0.039
    0.028
    0.033
    0.049
    0.064
    0.064
    0.051
    0.035
    0.022
    0.004
   -0.025
   -0.063
   -0.093
   -0.102
   -0.089
   -0.062
   -0.029
    0.002
    0.030
    0.049
    0.057
    0.049
    0.022
   -0.018
   -0.054
   -0.070
   -0.061
   -0.034
    0.000
    0.031
    0.061
    0.089
    0.107
    0.099
    0.061
    0.008
   -0.034
   -0.055
   -0.059
   -0.053
   -0.040
   -0.017
    0.009
    0.025
    0.020
   -0.004
   -0.031
   -0.048
   -0.054
   -0.056
   -0.055
   -0.041
   -0.010
    0.033
    0.070
    0.088
    0.083
    0.059
    0.025
   -0.012
   -0.042
   -0.056
   -0.049
   -0.022
    0.013
    0.041
    0.052
    0.042
    0.020
   -0.004
   -0.024
   -0.038
   -0.046
   -0.043
   -0.029
   -0.005
    0.023
    0.049
    0.066
    0.072
    0.059
    0.025
   -0.027
   -0.077
   -0.105
   -0.103
   -0.080
   -0.048
   -0.010
    0.032
    0.068
    0.085
    0.079
    0.057
    0.033
    0.015
    0.003
   -0.007
   -0.014
   -0.014
   -0.006
    0.005
    0.012
    0.010
    0.001
   -0.012
   -0.023
   -0.028
   -0.027
   -0.019
   -0.006
    0.011
    0.030
    0.046
    0.048
    0.029
   -0.003
   -0.032
   -0.048
   -0.055
   -0.060
   -0.060
   -0.042
   -0.005
    0.033
    0.049
    0.038
    0.023
    0.021
    0.027
    0.018
   -0.010
   -0.034
   -0.028
    0.001
    0.023
    0.020
    0.004
   -0.004
    0.001
    0.001
   -0.015
   -0.036
   -0.041
   -0.021
    0.010
    0.033
    0.037
    0.027
    0.013
   -0.002
   -0.016
   -0.030
   -0.043
   -0.051
   -0.049
   -0.034
   -0.013
   -0.001
   -0.002
   -0.002
    0.015
    0.042
    0.055
    0.037
    0.008
   -0.001
    0.020
    0.046
    0.044
    0.015
   -0.013
   -0.013
    0.002
    0.005
   -0.013
   -0.031
   -0.022
    0.008
    0.034
    0.035
    0.020
    0.010
    0.012
    0.017
    0.013
   -0.003
   -0.024
   -0.035
   -0.034
   -0.029
   -0.032
   -0.048
   -0.061
   -0.052
   -0.020
    0.014
    0.027
    0.022
    0.024
    0.049
    0.081
    0.085
    0.051
    0.005
   -0.019
   -0.018
   -0.018
   -0.035
   -0.055
   -0.051
   -0.020
    0.011
    0.018
    0.006
   -0.001
    0.012
    0.035
    0.048
    0.039
    0.016
   -0.004
   -0.012
   -0.010
   -0.007
   -0.008
   -0.014
   -0.017
   -0.015
   -0.012
   -0.018
   -0.036
   -0.052
   -0.046
   -0.013
    0.026
    0.045
    0.044
    0.043
    0.051
    0.056
    0.033
   -0.017
   -0.065
   -0.076
   -0.052
   -0.024
   -0.018
   -0.021
   -0.003
    0.043
    0.087
    0.094
    0.059
    0.014
   -0.008
   -0.004
    0.010
    0.016
    0.016
    0.023
    0.044
    0.069
    0.076
    0.052
    0.005
   -0.039
   -0.062
   -0.064
   -0.065
   -0.076
   -0.086
   -0.073
   -0.027
    0.026
    0.051
    0.032
   -0.007
   -0.032
   -0.036
   -0.041
   -0.065
   -0.090
   -0.082
   -0.031
    0.038
    0.082
    0.077
    0.039
   -0.002
   -0.028
   -0.047
   -0.071
   -0.101
   -0.123
   -0.115
   -0.062
    0.033
    0.144
    0.237
    0.285
    0.287
    0.261
    0.212
    0.122
   -0.032
   -0.230
   -0.391
   -0.418
   -0.265
    0.018
    0.318
    0.529
    0.605
    0.544
    0.351
    0.041
   -0.339
   -0.692
   -0.901
   -0.882
   -0.630
   -0.228
    0.205
    0.568
    0.797
    0.861
    0.742
    0.455
    0.061
   -0.351
   -0.703
   -0.943
   -1.034
   -0.934
   -0.630
   -0.184
    0.274
    0.618
    0.796
    0.820
    0.704
    0.445
    0.091
   -0.212
   -0.304
   -0.155
    0.093
    0.251
    0.259
    0.201
    0.180
    0.203
    0.205
    0.143
    0.029
   -0.117
   -0.303
   -0.521
   -0.702
   -0.742
   -0.598
   -0.330
   -0.058
    0.129
    0.218
    0.250
    0.260
    0.243
    0.174
    0.063
   -0.022
   -0.007
    0.109
    0.243
    0.305
    0.287
    0.262
    0.283
    0.299
    0.199
   -0.070
   -0.438
   -0.763
   -0.920
   -0.832
   -0.479
    0.054
    0.563
    0.820
    0.753
    0.495
    0.236
    0.029
   -0.195
   -0.448
   -0.599
   -0.520
   -0.252
    0.026
    0.202
    0.318
    0.427
    0.448
    0.241
   -0.178
   -0.597
   -0.796
   -0.727
   -0.483
   -0.132
    0.308
    0.768
    1.073
    1.059
    0.725
    0.233
   -0.222
   -0.511
   -0.586
   -0.466
   -0.220
    0.058
    0.319
    0.555
    0.721
    0.671
    0.271
   -0.401
   -1.013
   -1.225
   -0.986
   -0.555
   -0.219
   -0.044
    0.084
    0.224
    0.286
    0.175
   -0.033
   -0.140
   -0.042
    0.161
    0.285
    0.253
    0.156
    0.134
    0.232
    0.367
    0.419
    0.338
    0.158
   -0.053
   -0.244
   -0.370
   -0.373
   -0.221
    0.024
    0.216
    0.237
    0.119
    0.008
    0.022
    0.125
    0.182
    0.127
    0.043
    0.044
    0.124
    0.152
    0.034
   -0.183
   -0.372
   -0.470
   -0.533
   -0.625
   -0.701
   -0.611
   -0.269
    0.203
    0.538
    0.558
    0.333
    0.075
   -0.080
   -0.166
   -0.242
   -0.250
   -0.067
    0.316
    0.728
    0.973
    1.006
    0.913
    0.741
    0.418
   -0.118
   -0.758
   -1.251
   -1.394
   -1.182
   -0.744
   -0.216
    0.316
    0.759
    0.992
    0.938
    0.621
    0.144
   -0.368
   -0.797
   -1.021
   -0.959
   -0.637
   -0.189
    0.243
    0.590
    0.824
    0.904
    0.782
    0.479
    0.113
   -0.199
   -0.427
   -0.597
   -0.678
   -0.561
   -0.204
    0.222
    0.441
    0.361
    0.191
    0.195
    0.353
    0.371
    0.056
   -0.418
   -0.676
   -0.546
   -0.202
    0.064
    0.139
    0.112
    0.092
    0.096
    0.122
    0.223
    0.399
    0.496
    0.317
   -0.105
   -0.466
   -0.498
   -0.276
   -0.125
   -0.217
   -0.369
   -0.290
    0.038
    0.330
    0.336
    0.117
   -0.057
   -0.032
    0.089
    0.130
    0.073
    0.048
    0.123
    0.201
    0.157
    0.013
   -0.083
   -0.047
    0.039
    0.038
   -0.056
   -0.108
   -0.013
    0.144
    0.168
   -0.012
   -0.231
   -0.262
   -0.086
    0.070
    0.000
   -0.222
   -0.315
   -0.135
    0.129
    0.176
   -0.038
   -0.226
   -0.122
    0.183
    0.328
    0.115
   -0.253
   -0.407
   -0.230
    0.063
    0.236
    0.305
    0.430
    0.617
    0.665
    0.436
    0.071
   -0.157
   -0.175
   -0.172
   -0.322
   -0.528
   -0.555
   -0.355
   -0.138
   -0.078
   -0.071
    0.097
    0.409
    0.579
    0.387
   -0.029
   -0.321
   -0.300
   -0.099
    0.030
   -0.016
   -0.154
   -0.268
   -0.332
   -0.365
   -0.340
   -0.190
    0.102
    0.442
    0.658
    0.605
    0.283
   -0.121
   -0.318
   -0.144
    0.277
    0.624
    0.675
    0.495
    0.307
    0.200
    0.044
   -0.288
   -0.678
   -0.853
   -0.698
   -0.420
   -0.331
   -0.497
   -0.657
   -0.507
   -0.047
    0.410
    0.557
    0.393
    0.195
    0.202
    0.386
    0.525
    0.464
    0.260
    0.088
    0.046
    0.089
    0.128
    0.130
    0.109
    0.063
   -0.003
   -0.038
    0.017
    0.111
    0.075
   -0.178
   -0.497
   -0.594
   -0.362
   -0.012
    0.138
    0.012
   -0.158
   -0.123
    0.079
    0.178
   -0.008
   -0.349
   -0.538
   -0.413
   -0.099
    0.147
    0.199
    0.123
    0.040
   -0.013
   -0.050
   -0.035
    0.104
    0.331
    0.455
    0.315
   -0.005
   -0.194
   -0.042
    0.299
    0.453
    0.247
   -0.072
   -0.121
    0.165
    0.455
    0.416
    0.081
   -0.250
   -0.390
   -0.437
   -0.536
   -0.625
   -0.500
   -0.110
    0.331
    0.564
    0.533
    0.364
    0.166
   -0.069
   -0.347
   -0.555
   -0.553
   -0.342
   -0.083
    0.084
    0.154
    0.204
    0.257
    0.276
    0.235
    0.157
    0.051
   -0.105
   -0.288
   -0.351
   -0.137
    0.303
    0.668
    0.652
    0.255
   -0.222
   -0.487
   -0.511
   -0.450
   -0.395
   -0.297
   -0.119
    0.059
    0.145
    0.188
    0.306
    0.478
    0.518
    0.311
    0.010
   -0.114
    0.010
    0.162
    0.113
   -0.084
   -0.189
   -0.115
   -0.047
   -0.160
   -0.348
   -0.345
   -0.103
    0.127
    0.138
    0.053
    0.133
    0.371
    0.463
    0.238
   -0.070
   -0.106
    0.100
    0.126
   -0.300
   -0.880
   -1.031
   -0.555
    0.136
    0.484
    0.347
    0.031
   -0.131
   -0.069
    0.111
    0.317
    0.488
    0.538
    0.410
    0.188
    0.025
   -0.038
   -0.116
   -0.280
   -0.423
   -0.380
   -0.187
   -0.078
   -0.210
   -0.441
   -0.468
   -0.177
    0.239
    0.516
    0.601
    0.613
    0.581
    0.374
   -0.056
   -0.472
   -0.549
   -0.262
    0.036
    0.010
   -0.261
   -0.377
   -0.095
    0.381
    0.637
    0.506
    0.211
    0.051
    0.060
    0.037
   -0.144
   -0.374
   -0.473
   -0.410
   -0.300
   -0.214
   -0.101
    0.099
    0.337
    0.506
    0.561
    0.519
    0.369
    0.064
   -0.349
   -0.679
   -0.733
   -0.524
   -0.248
   -0.061
    0.066
    0.218
    0.336
    0.253
   -0.055
   -0.358
   -0.399
   -0.185
    0.042
    0.111
    0.101
    0.188
    0.393
    0.565
    0.587
    0.487
    0.333
    0.099
   -0.258
   -0.622
   -0.723
   -0.411
    0.117
    0.440
    0.323
   -0.054
   -0.281
   -0.138
    0.205
    0.401
    0.295
    0.048
   -0.081
   -0.030
    0.021
   -0.110
   -0.384
   -0.603
   -0.643
   -0.593
   -0.612
   -0.691
   -0.624
   -0.239
    0.363
    0.855
    0.967
    0.709
    0.324
    0.059
    0.014
    0.154
    0.395
    0.641
    0.779
    0.699
    0.384
   -0.026
   -0.302
   -0.322
   -0.229
   -0.295
   -0.592
   -0.849
   -0.736
   -0.275
    0.139
    0.175
   -0.060
   -0.175
    0.018
    0.267
    0.194
   -0.208
   -0.523
   -0.376
    0.127
    0.528
    0.543
    0.354
    0.335
    0.585
    0.820
    0.688
    0.118
   -0.626
   -1.175
   -1.307
   -1.039
   -0.549
   -0.037
    0.389
    0.721
    0.959
    1.026
    0.805
    0.297
   -0.313
   -0.795
   -1.053
   -1.123
   -0.996
   -0.574
    0.155
    0.941
    1.379
    1.231
    0.609
   -0.147
   -0.743
   -1.063
   -1.112
   -0.923
   -0.577
   -0.223
    0.005
    0.116
    0.272
    0.646
    1.296
    2.157
    3.108
    4.015
    4.752
    5.239
    5.436
    5.255
    4.475
    2.836
    0.301
   -2.791
   -5.858
   -8.396
  -10.128
  -10.910
  -10.629
   -9.333
   -7.432
   -5.593
   -4.280
   -3.382
   -2.355
   -0.766
    1.324
    3.469
    5.196
    6.206
    6.359
    5.713
    4.660
    3.843
    3.733
    4.231
    4.773
    4.876
    4.515
    3.951
    3.333
    2.624
    1.860
    1.259
    0.921
    0.521
   -0.452
   -2.020
   -3.425
   -3.739
   -2.832
   -1.590
   -1.083
   -1.589
   -2.548
   -3.350
   -3.913
   -4.416
   -4.720
   -4.429
   -3.539
   -2.716
   -2.640
   -3.116
   -3.111
   -1.772
    0.708
    3.318
    5.168
    6.043
    6.166
    5.760
    4.978
    4.025
    3.056
    1.956
    0.455
   -1.401
   -3.006
   -3.557
   -2.722
   -0.917
    1.023
    2.405
    2.950
    2.694
    1.793
    0.480
   -0.886
   -1.867
   -2.185
   -1.922
   -1.458
   -1.156
   -1.099
   -1.125
   -1.088
   -1.056
   -1.210
   -1.580
   -1.906
   -1.816
   -1.189
   -0.310
    0.351
    0.528
    0.351
    0.205
    0.436
    1.150
    2.182
    3.167
    3.670
    3.365
    2.200
    0.446
   -1.409
   -2.855
   -3.535
   -3.323
   -2.288
   -0.633
    1.351
    3.241
    4.459
    4.383
    2.709
   -0.150
   -3.031
   -4.605
   -4.248
   -2.465
   -0.464
    0.711
    0.723
   -0.135
   -1.315
   -2.246
   -2.431
   -1.652
   -0.191
    1.235
    1.969
    1.931
    1.620
    1.566
    1.794
    1.892
    1.557
    0.989
    0.649
    0.735
    1.001
    1.087
    0.884
    0.496
   -0.010
   -0.631
   -1.206
   -1.390
   -1.002
   -0.324
    0.126
    0.133
   -0.012
    0.068
    0.328
    0.316
   -0.305
   -1.373
   -2.408
   -3.050
   -3.205
   -2.873
   -2.012
   -0.649
    1.021
    2.692
    4.018
    4.584
    3.975
    2.152
   -0.184
   -1.859
   -2.129
   -1.395
   -0.868
   -1.391
   -2.597
   -3.307
   -2.707
   -1.044
    0.755
    1.904
    2.124
    1.480
    0.276
   -0.820
   -0.930
    0.333
    2.295
    3.605
    3.417
    2.136
    0.891
    0.338
    0.169
   -0.217
   -0.836
   -1.134
   -0.784
   -0.150
    0.175
    0.134
    0.249
    0.883
    1.665
    1.803
    0.941
   -0.467
   -1.638
   -2.178
   -2.239
   -2.151
   -2.111
   -2.228
   -2.613
   -3.244
   -3.774
   -3.666
   -2.620
   -0.836
    1.160
    2.893
    4.097
    4.644
    4.485
    3.706
    2.534
    1.181
   -0.259
   -1.706
   -2.889
   -3.359
   -2.820
   -1.457
    0.144
    1.451
    2.313
    2.814
    2.937
    2.548
    1.710
    0.839
    0.366
    0.287
    0.231
   -0.038
   -0.339
   -0.401
   -0.293
   -0.328
   -0.585
   -0.778
   -0.722
   -0.746
   -1.374
   -2.575
   -3.537
   -3.374
   -2.002
   -0.218
    1.096
    1.709
    1.958
    2.139
    2.154
    1.742
    0.845
   -0.341
   -1.541
   -2.472
   -2.803
   -2.299
   -1.132
    0.085
    0.740
    0.766
    0.674
    0.996
    1.724
    2.297
    2.125
    1.110
   -0.262
   -1.247
   -1.324
   -0.531
    0.566
    1.287
    1.310
    0.815
    0.208
   -0.204
   -0.292
   -0.027
    0.489
    0.933
    0.917
    0.363
   -0.336
   -0.675
   -0.558
   -0.348
   -0.388
   -0.608
   -0.696
   -0.539
   -0.344
   -0.318
   -0.409
   -0.431
   -0.348
   -0.298
   -0.369
   -0.477
   -0.524
   -0.574
   -0.777
   -1.115
   -1.327
   -1.122
   -0.470
    0.330
    0.845
    0.795
    0.239
   -0.430
   -0.711
   -0.334
    0.544
    1.500
    2.221
    2.689
    2.991
    3.038
    2.609
    1.681
    0.573
   -0.333
   -0.950
   -1.430
   -1.797
   -1.820
   -1.357
   -0.707
   -0.416
   -0.720
   -1.297
   -1.646
   -1.597
   -1.367
   -1.196
   -1.105
   -1.012
   -0.903
   -0.799
   -0.622
   -0.260
    0.260
    0.759
    1.125
    1.465
    1.943
    2.500
    2.842
    2.772
    2.448
    2.194
    2.081
    1.830
    1.192
    0.347
   -0.216
   -0.239
   -0.022
   -0.164
   -1.014
   -2.410
   -3.859
   -4.841
   -4.984
   -4.166
   -2.644
   -1.021
    0.088
    0.492
    0.509
    0.600
    0.945
    1.379
    1.660
    1.690
    1.493
    1.097
    0.548
    0.036
   -0.121
    0.245
    0.892
    1.286
    1.074
    0.460
    0.033
    0.187
    0.723
    1.057
    0.819
    0.214
   -0.228
   -0.227
    0.003
    0.070
   -0.138
   -0.393
   -0.475
   -0.435
   -0.472
   -0.651
   -0.846
   -0.938
   -0.948
   -0.952
   -0.953
   -0.897
   -0.778
   -0.629
   -0.419
   -0.045
    0.499
    0.990
    1.109
    0.761
    0.225
   -0.095
   -0.053
    0.141
    0.187
   -0.007
   -0.299
   -0.486
   -0.406
    0.073
    0.956
    1.945
    2.455
    2.022
    0.788
   -0.505
   -1.138
   -1.076
   -0.943
   -1.320
   -2.095
   -2.548
   -2.057
   -0.705
    0.772
    1.590
    1.508
    0.943
    0.564
    0.728
    1.214
    1.465
    1.110
    0.302
   -0.444
   -0.696
   -0.424
    0.061
    0.377
    0.314
   -0.049
   -0.359
   -0.233
    0.353
    0.856
    0.508
   -0.931
   -2.728
   -3.632
   -2.927
   -1.073
    0.713
    1.496
    1.267
    0.688
    0.395
    0.564
    0.927
    1.032
    0.563
   -0.374
   -1.205
   -1.270
   -0.429
    0.753
    1.527
    1.666
    1.579
    1.720
    2.008
    1.930
    1.154
   -0.114
   -1.402
   -2.426
   -3.152
   -3.493
   -3.219
   -2.258
   -0.971
    0.073
    0.590
    0.746
    0.803
    0.752
    0.442
   -0.021
   -0.207
    0.188
    0.945
    1.496
    1.506
    1.184
    0.991
    1.125
    1.353
    1.313
    0.894
    0.304
   -0.172
   -0.406
   -0.453
   -0.433
   -0.453
   -0.586
   -0.819
   -1.018
   -1.008
   -0.741
   -0.386
   -0.199
   -0.308
   -0.639
   -1.037
   -1.395
   -1.646
   -1.703
   -1.503
   -1.110
   -0.670
   -0.222
    0.350
    1.085
    1.718
    1.856
    1.452
    0.974
    0.969
    1.463
    1.944
    1.973
    1.682
    1.528
    1.646
    1.631
    1.068
    0.102
   -0.693
   -0.993
   -1.052
   -1.286
   -1.685
   -1.886
   -1.753
   -1.618
   -1.795
   -2.068
   -1.941
   -1.361
   -0.889
   -1.004
