Origin Time       1/5/2013 06:57:12	 
Lat.              33.1 N	
Long.             75.8 E	
Depth (Km)         15.0
Magnitude         5.8
 Region           JK-HP-Border                                                     
 Above details taken from IMD 
     
Station Code      JMU
Station Lat.       32.732  N
Station Long.      74.874  E
Station Height(m)  361.0
Site Class        B   Vs30 between 375 m/sec to 700 m/sec *  
Record Time       01.05.2013 06:57:06.234
Sampling Rate     200. Hz
 Record Duration  111.850 Sec.
 Direction         E-W (E positive)
Max. Acceleration     -4.429 cm/sec**2
     
  * For reference see Site Classification link of website 
     
 Base Line Corrected and Low Pass Filtered (Cut Off at 35 Hz) Time History
 Acceleration data in cm/sec**2
    
[...]
       0.707
       0.686
       0.680
       0.717
       0.817
       0.969
       1.130
       1.258
       1.325
       1.324
       1.267
       1.185
       1.119
       1.088
       1.079
       1.070
       1.053
       1.037
       1.035
       1.058
       1.113
       1.191
       1.272
       1.336
       1.377
       1.395
       1.391
       1.359
       1.296
       1.197
       1.063
       0.905
       0.750
       0.625
       0.531
       0.441
       0.319
       0.158
      -0.004
      -0.104
      -0.088
       0.048
       0.255
       0.463
       0.615
       0.684
       0.663
       0.556
       0.383
       0.180
      -0.022
      -0.204
      -0.357
      -0.482
      -0.590
      -0.707
      -0.850
      -1.013
      -1.162
      -1.258
      -1.281
      -1.228
      -1.109
      -0.947
      -0.777
      -0.635
      -0.539
      -0.482
      -0.449
      -0.426
      -0.404
      -0.367
      -0.300
      -0.200
      -0.094
      -0.027
      -0.041
      -0.148
      -0.316
      -0.489
      -0.624
      -0.711
      -0.763
      -0.791
      -0.812
      -0.847
      -0.920
      -1.039
      -1.191
      -1.345
      -1.445
      -1.432
      -1.280
      -1.017
      -0.699
      -0.370
      -0.057
       0.209
       0.394
       0.491
       0.528
       0.555
       0.616
       0.715
       0.820
       0.875
       0.839
       0.718
       0.554
       0.393
       0.262
       0.178
       0.153
       0.177
       0.221
       0.262
       0.291
       0.308
       0.312
       0.298
       0.273
       0.244
       0.207
       0.147
       0.049
      -0.089
      -0.252
      -0.396
      -0.459
      -0.384
      -0.151
       0.215
       0.651
       1.077
       1.412
       1.597
       1.603
       1.443
       1.159
       0.818
       0.509
       0.317
       0.288
       0.403
       0.587
       0.740
       0.782
       0.682
       0.462
       0.186
      -0.079
      -0.296
      -0.464
      -0.589
      -0.670
      -0.692
      -0.646
      -0.547
      -0.433
      -0.364
      -0.393
      -0.528
      -0.719
      -0.877
      -0.928
      -0.845
      -0.647
      -0.372
      -0.069
       0.215
       0.426
       0.512
       0.434
       0.195
      -0.148
      -0.497
      -0.772
      -0.955
      -1.080
      -1.207
      -1.389
      -1.652
      -1.979
      -2.313
      -2.578
      -2.711
      -2.681
      -2.494
      -2.199
      -1.871
      -1.570
      -1.304
      -1.044
      -0.767
      -0.479
      -0.206
       0.025
       0.188
       0.262
       0.250
       0.177
       0.076
      -0.019
      -0.078
      -0.091
      -0.085
      -0.109
      -0.189
      -0.301
      -0.396
      -0.422
      -0.353
      -0.187
       0.049
       0.313
       0.567
       0.784
       0.948
       1.056
       1.130
       1.218
       1.353
       1.521
       1.662
       1.710
       1.630
       1.435
       1.179
       0.927
       0.727
       0.576
       0.427
       0.226
      -0.054
      -0.393
      -0.741
      -1.043
      -1.261
      -1.400
      -1.493
      -1.570
      -1.638
      -1.678
      -1.672
      -1.620
      -1.546
      -1.489
      -1.483
      -1.537
      -1.627
      -1.705
      -1.727
      -1.680
      -1.577
      -1.437
      -1.266
      -1.067
      -0.834
      -0.563
      -0.248
       0.101
       0.454
       0.765
       0.977
       1.050
       0.982
       0.825
       0.663
       0.551
       0.498
       0.483
       0.495
       0.520
       0.530
       0.483
       0.353
       0.141
      -0.116
      -0.356
      -0.511
      -0.543
      -0.459
      -0.292
      -0.082
       0.129
       0.289
       0.359
       0.345
       0.297
       0.282
       0.350
       0.520
       0.766
       1.023
       1.216
       1.294
       1.249
       1.091
       0.848
       0.567
       0.310
       0.123
       0.015
      -0.040
      -0.079
      -0.123
      -0.168
      -0.188
      -0.174
      -0.170
      -0.265
      -0.529
      -0.953
      -1.442
      -1.868
      -2.135
      -2.224
      -2.190
      -2.119
      -2.068
      -2.035
      -1.970
      -1.827
      -1.589
      -1.267
      -0.871
      -0.407
       0.114
       0.665
       1.194
       1.642
       1.970
       2.184
       2.313
       2.375
       2.353
       2.215
       1.956
       1.620
       1.277
       0.994
       0.807
       0.711
       0.668
       0.622
       0.534
       0.394
       0.232
       0.104
       0.069
       0.165
       0.389
       0.697
       1.032
       1.353
       1.640
       1.879
       2.063
       2.197
       2.284
       2.309
       2.235
       2.039
       1.746
       1.433
       1.183
       1.037
       0.964
       0.865
       0.635
       0.230
      -0.297
      -0.834
      -1.275
      -1.554
      -1.660
      -1.632
      -1.541
      -1.451
      -1.394
      -1.370
      -1.368
      -1.365
      -1.327
      -1.231
      -1.091
      -0.958
      -0.885
      -0.898
      -0.984
      -1.094
      -1.144
      -1.071
      -0.873
      -0.625
      -0.423
      -0.325
      -0.325
      -0.361
      -0.355
      -0.258
      -0.085
       0.099
       0.234
       0.300
       0.325
       0.366
       0.478
       0.690
       0.980
       1.283
       1.528
       1.681
       1.757
       1.803
       1.863
       1.958
       2.059
       2.093
       1.967
       1.628
       1.092
       0.447
      -0.180
      -0.675
      -0.977
      -1.107
      -1.138
      -1.146
      -1.168
      -1.186
      -1.147
      -0.997
      -0.715
      -0.340
       0.046
       0.341
       0.472
       0.423
       0.240
       0.000
      -0.216
      -0.365
      -0.461
      -0.559
      -0.697
      -0.867
      -1.016
      -1.104
      -1.127
      -1.105
      -1.058
      -0.988
      -0.886
      -0.736
      -0.525
      -0.264
       0.013
       0.262
       0.449
       0.555
       0.568
       0.500
       0.386
       0.280
       0.229
       0.262
       0.376
       0.526
       0.640
       0.651
       0.535
       0.299
      -0.031
      -0.411
      -0.776
      -1.068
      -1.259
      -1.350
      -1.350
      -1.270
      -1.123
      -0.920
      -0.670
      -0.391
      -0.110
       0.145
       0.378
       0.623
       0.910
       1.242
       1.587
       1.901
       2.129
       2.220
       2.137
       1.859
       1.394
       0.792
       0.163
      -0.348
      -0.628
      -0.653
      -0.489
      -0.253
      -0.056
       0.041
       0.044
       0.010
       0.001
       0.047
       0.139
       0.250
       0.363
       0.477
       0.607
       0.762
       0.923
       1.028
       1.016
       0.874
       0.667
       0.505
       0.469
       0.562
       0.720
       0.867
       0.962
       1.021
       1.084
       1.173
       1.264
       1.315
       1.293
       1.200
       1.061
       0.911
       0.800
       0.793
       0.945
       1.268
       1.708
       2.172
       2.572
       2.850
       2.997
       3.031
       2.973
       2.818
       2.547
       2.148
       1.637
       1.042
       0.401
      -0.222
      -0.740
      -1.080
      -1.219
      -1.194
      -1.079
      -0.954
      -0.858
      -0.774
      -0.644
      -0.435
      -0.176
       0.069
       0.248
       0.345
       0.357
       0.286
       0.131
      -0.119
      -0.479
      -0.936
      -1.417
      -1.799
      -1.969
      -1.876
      -1.553
      -1.105
      -0.661
      -0.303
      -0.033
       0.204
       0.459
       0.739
       1.019
       1.267
       1.458
       1.572
       1.607
       1.576
       1.499
       1.393
       1.273
       1.151
       1.032
       0.915
       0.805
       0.717
       0.665
       0.639
       0.605
       0.522
       0.355
       0.091
      -0.245
      -0.591
      -0.874
      -1.037
      -1.057
      -0.942
      -0.725
      -0.455
      -0.188
       0.044
       0.246
       0.443
       0.649
       0.854
       1.027
       1.130
       1.140
       1.053
       0.898
       0.727
       0.586
       0.486
       0.399
       0.286
       0.132
      -0.023
      -0.102
      -0.037
       0.169
       0.428
       0.613
       0.630
       0.476
       0.226
      -0.015
      -0.166
      -0.208
      -0.189
      -0.192
      -0.279
      -0.474
      -0.769
      -1.128
      -1.490
      -1.783
      -1.965
      -2.043
      -2.059
      -2.058
      -2.065
      -2.078
      -2.066
      -1.986
      -1.826
      -1.619
      -1.422
      -1.274
      -1.174
      -1.102
      -1.035
      -0.961
      -0.886
      -0.831
      -0.806
      -0.801
      -0.805
      -0.824
      -0.884
      -1.001
      -1.172
      -1.381
      -1.604
      -1.793
      -1.894
      -1.880
      -1.764
      -1.589
      -1.389
      -1.180
      -0.956
      -0.706
      -0.424
      -0.135
       0.118
       0.287
       0.344
       0.286
       0.143
      -0.031
      -0.175
      -0.264
      -0.329
      -0.433
      -0.632
      -0.941
      -1.326
      -1.708
      -1.996
      -2.134
      -2.139
      -2.082
      -2.036
      -2.030
      -2.036
      -2.007
      -1.896
      -1.678
      -1.351
      -0.946
      -0.528
      -0.184
       0.009
       0.018
      -0.118
      -0.298
      -0.414
      -0.401
      -0.267
      -0.058
       0.182
       0.433
       0.692
       0.952
       1.196
       1.390
       1.501
       1.514
       1.463
       1.417
       1.447
       1.591
       1.848
       2.181
       2.511
       2.740
       2.786
       2.619
       2.267
       1.799
       1.315
       0.904
       0.603
       0.384
       0.178
      -0.083
      -0.432
      -0.856
      -1.289
      -1.649
      -1.890
      -2.035
      -2.136
      -2.224
      -2.285
      -2.293
      -2.226
      -2.079
      -1.868
      -1.623
      -1.374
      -1.129
      -0.885
      -0.645
      -0.423
      -0.228
      -0.057
       0.088
       0.202
       0.276
       0.311
       0.313
       0.286
       0.236
       0.164
       0.057
      -0.113
      -0.366
      -0.690
      -1.041
      -1.346
      -1.515
      -1.476
      -1.209
      -0.770
      -0.267
       0.199
       0.568
       0.844
       1.075
       1.323
       1.615
       1.916
       2.147
       2.228
       2.122
       1.849
       1.476
       1.090
       0.770
       0.556
       0.436
       0.362
       0.272
       0.127
      -0.074
      -0.286
      -0.436
      -0.457
      -0.337
      -0.127
       0.086
       0.237
       0.318
       0.365
       0.435
       0.558
       0.711
       0.821
       0.816
       0.680
       0.466
       0.255
       0.100
      -0.001
      -0.096
      -0.234
      -0.413
      -0.553
      -0.539
      -0.300
       0.146
       0.708
       1.276
       1.766
       2.144
       2.422
       2.635
       2.807
       2.939
       3.036
       3.110
       3.160
       3.141
       2.974
       2.588
       1.964
       1.156
       0.283
      -0.523
      -1.182
      -1.696
      -2.115
      -2.474
      -2.765
      -2.965
      -3.067
      -3.094
      -3.095
      -3.123
      -3.200
      -3.297
      -3.350
      -3.303
      -3.132
      -2.854
      -2.517
      -2.197
      -1.962
      -1.833
      -1.766
      -1.682
      -1.514
      -1.238
      -0.876
      -0.484
      -0.127
       0.144
       0.304
       0.346
       0.271
       0.095
      -0.137
      -0.355
      -0.485
      -0.466
      -0.279
       0.040
       0.402
       0.706
       0.888
       0.957
       0.984
       1.055
       1.213
       1.433
       1.629
       1.709
       1.637
       1.461
       1.282
       1.175
       1.141
       1.110
       0.998
       0.766
       0.453
       0.160
      -0.002
       0.022
       0.205
       0.462
       0.702
       0.872
       0.970
       1.026
       1.076
       1.137
       1.183
       1.163
       1.038
       0.803
       0.485
       0.143
      -0.152
      -0.346
      -0.432
      -0.443
      -0.411
      -0.344
      -0.246
      -0.151
      -0.119
      -0.204
      -0.430
      -0.760
      -1.089
      -1.273
      -1.198
      -0.843
      -0.288
       0.330
       0.867
       1.224
       1.375
       1.368
       1.272
       1.130
       0.946
       0.714
       0.442
       0.164
      -0.080
      -0.256
      -0.358
      -0.403
      -0.395
      -0.297
      -0.052
       0.377
       0.974
       1.676
       2.397
       3.052
       3.571
       3.910
       4.054
       4.008
       3.798
       3.484
       3.154
       2.888
       2.723
       2.657
       2.662
       2.701
       2.725
       2.683
       2.540
       2.295
       1.991
       1.706
       1.531
       1.526
       1.688
       1.935
       2.147
       2.222
       2.119
       1.872
       1.562
       1.269
       1.023
       0.798
       0.545
       0.245
      -0.079
      -0.381
      -0.643
      -0.897
      -1.211
      -1.633
      -2.146
      -2.657
      -3.034
      -3.179
      -3.086
      -2.839
      -2.567
      -2.390
      -2.389
      -2.573
      -2.875
      -3.175
      -3.357
      -3.358
      -3.191
      -2.930
      -2.680
      -2.532
      -2.528
      -2.669
      -2.935
      -3.292
      -3.688
      -4.050
      -4.313
      -4.429
      -4.364
      -4.106
      -3.670
      -3.106
      -2.470
      -1.803
      -1.145
      -0.556
      -0.107
       0.149
       0.215
       0.153
       0.068
       0.056
       0.134
       0.218
       0.187
      -0.021
      -0.365
      -0.727
      -0.983
      -1.062
      -0.971
      -0.779
      -0.550
      -0.295
       0.015
       0.389
       0.787
       1.134
       1.362
       1.443
       1.395
       1.277
       1.148
       1.039
       0.951
       0.891
       0.903
       1.045
       1.336
       1.729
       2.120
       2.392
       2.472
       2.362
       2.132
       1.879
       1.667
       1.516
       1.407
       1.311
       1.194
       1.022
       0.771
       0.438
       0.056
      -0.324
      -0.655
      -0.916
      -1.119
      -1.289
      -1.436
      -1.528
      -1.502
      -1.303
      -0.925
      -0.431
       0.079
       0.509
       0.805
       0.964
       1.016
       0.987
       0.891
       0.750
       0.612
       0.527
       0.501
       0.495
       0.456
       0.361
       0.227
       0.104
       0.045
       0.082
       0.201
       0.369
       0.580
       0.868
       1.276
       1.805
       2.397
       2.950
       3.353
       3.536
       3.505
       3.328
       3.090
       2.851
       2.639
       2.461
       2.314
       2.181
       2.054
       1.929
       1.797
       1.638
       1.444
       1.241
       1.077
       0.992
       1.003
       1.106
       1.265
       1.414
       1.476
       1.394
       1.161
       0.815
       0.418
       0.032
      -0.314
      -0.635
      -0.961
      -1.293
      -1.586
      -1.772
      -1.797
      -1.646
      -1.349
      -0.978
      -0.622
      -0.348
      -0.170
      -0.072
      -0.030
      -0.040
      -0.109
      -0.243
      -0.434
      -0.647
      -0.832
      -0.949
      -1.004
      -1.050
      -1.157
      -1.362
      -1.647
      -1.939
      -2.144
      -2.198
      -2.089
      -1.867
      -1.598
      -1.321
      -1.028
      -0.685
      -0.277
       0.161
       0.540
       0.755
       0.743
       0.532
       0.237
      -0.007
      -0.121
      -0.125
      -0.106
      -0.161
      -0.335
      -0.599
      -0.865
      -1.037
      -1.071
      -0.983
      -0.820
      -0.634
      -0.465
      -0.345
      -0.288
      -0.302
      -0.398
      -0.579
      -0.829
      -1.118
      -1.424
      -1.746
      -2.087
      -2.440
      -2.775
      -3.042
      -3.178
      -3.157
      -3.022
      -2.873
      -2.791
      -2.778
      -2.764
      -2.671
      -2.468
      -2.175
      -1.842
      -1.514
      -1.208
      -0.923
      -0.684
      -0.550
      -0.576
      -0.754
      -1.008
      -1.241
      -1.391
      -1.439
      -1.405
      -1.311
      -1.165
      -0.961
      -0.704
      -0.436
      -0.217
      -0.090
      -0.054
      -0.070
      -0.076
      -0.011
       0.159
       0.415
       0.691
       0.918
       1.068
       1.154
       1.202
       1.231
       1.261
       1.314
       1.412
       1.562
       1.746
       1.910
       1.986
       1.929
       1.750
       1.502
       1.248
       1.017
       0.802
       0.592
       0.405
       0.289
       0.297
       0.441
       0.664
       0.853
       0.909
       0.809
       0.622
       0.456
       0.390
       0.443
       0.585
       0.771
       0.963
       1.154
       1.352
       1.557
       1.738
       1.856
       1.898
       1.891
       1.871
       1.862
       1.865
       1.873
       1.867
       1.840
       1.794
       1.729
       1.624
       1.446
       1.190
       0.897
       0.634
       0.449
       0.344
       0.271
       0.155
      -0.050
      -0.325
      -0.596
      -0.803
      -0.949
      -1.093
      -1.287
      -1.529
      -1.759
      -1.890
      -1.863
      -1.703
      -1.507
      -1.382
      -1.366
      -1.409
      -1.416
      -1.306
      -1.064
      -0.753
      -0.485
      -0.360
      -0.399
      -0.547
      -0.722
      -0.871
      -0.981
      -1.076
      -1.180
      -1.308
      -1.447
      -1.577
      -1.694
      -1.811
      -1.936
      -2.053
      -2.123
      -2.105
      -1.974
      -1.728
      -1.394
      -1.024
      -0.682
      -0.429
      -0.312
      -0.350
      -0.511
      -0.705
      -0.816
      -0.766
      -0.567
      -0.315
      -0.133
      -0.093
      -0.182
      -0.316
      -0.398
      -0.381
      -0.287
      -0.176
      -0.074
       0.056
       0.283
       0.643
       1.104
       1.568
       1.917
       2.068
       2.018
       1.836
       1.620
       1.438
       1.309
       1.212
       1.111
       0.968
       0.770
       0.538
       0.319
       0.149
       0.051
       0.020
       0.030
       0.042
       0.033
       0.018
       0.029
       0.078
       0.155
       0.241
       0.329
       0.418
       0.515
       0.634
       0.783
       0.928
       1.013
       1.002
       0.927
       0.871
       0.915
       1.083
       1.321
       1.519
       1.568
       1.430
       1.162
       0.875
       0.653
       0.504
       0.372
       0.184
      -0.100
      -0.452
      -0.791
      -1.043
      -1.178
      -1.212
      -1.175
      -1.097
      -1.019
      -0.975
      -0.984
      -1.040
      -1.131
      -1.250
      -1.386
      -1.523
      -1.644
      -1.738
      -1.799
      -1.826
      -1.821
      -1.794
      -1.753
      -1.693
      -1.600
      -1.453
      -1.228
      -0.899
      -0.456
       0.082
       0.666
       1.229
       1.699
       2.017
       2.157
       2.137
       2.015
       1.856
       1.709
       1.592
       1.502
       1.422
       1.325
       1.190
