Origin Time       24/2/2010 19:20:52	
Lat.              28.6 N	
Long.             76.9 E	
Depth (Km)         17.0
Magnitude         2.5
 Region           Rohtak                                                           
 Above details taken from IMD 
   
Station Code       JAMI
Station Lat.       28.559
Station Long.      77.279
Station Height(m)  153.0
Site Class        C   Vs30 between 200 m/sec to 375 m/sec *  
Record Time        2/24/2010 ) 19:20:12.0
Sampling Rate     200. Hz
 Record Duration  101.000 Sec.
 Direction         Vert. (Up positive)
Max. Acceleration  -7.811 cm/sec**2
     
  * For reference see Site Classification link of website 
     
 Base Line Corrected and Low Pass Filtered (Cut Off at 35 Hz) Time History
 Acceleration data in cm/sec**2
    
[...]
    0.002
   -0.014
   -0.020
   -0.033
   -0.055
   -0.068
   -0.056
   -0.022
    0.012
    0.031
    0.038
    0.041
    0.037
    0.017
   -0.013
   -0.028
   -0.010
    0.024
    0.041
    0.021
   -0.017
   -0.037
   -0.023
    0.003
    0.009
   -0.011
   -0.032
   -0.033
   -0.022
   -0.019
   -0.024
   -0.018
    0.010
    0.042
    0.052
    0.040
    0.028
    0.028
    0.031
    0.017
   -0.011
   -0.027
   -0.012
    0.019
    0.034
    0.022
    0.002
    0.000
    0.014
    0.020
    0.007
   -0.018
   -0.037
   -0.044
   -0.041
   -0.032
   -0.019
   -0.003
    0.014
    0.035
    0.059
    0.076
    0.063
    0.015
   -0.042
   -0.069
   -0.055
   -0.027
   -0.020
   -0.033
   -0.030
    0.009
    0.056
    0.069
    0.043
    0.012
    0.002
   -0.003
   -0.024
   -0.056
   -0.063
   -0.031
    0.013
    0.028
    0.010
   -0.009
   -0.004
    0.010
    0.001
   -0.029
   -0.045
   -0.024
    0.016
    0.032
    0.014
   -0.005
    0.005
    0.035
    0.049
    0.028
   -0.011
   -0.035
   -0.031
   -0.012
    0.002
    0.003
   -0.001
    0.002
    0.012
    0.025
    0.031
    0.021
    0.000
   -0.017
   -0.012
    0.009
    0.023
    0.012
   -0.014
   -0.027
   -0.016
    0.000
    0.000
   -0.014
   -0.019
   -0.005
    0.008
    0.000
   -0.019
   -0.016
    0.020
    0.055
    0.046
   -0.004
   -0.043
   -0.030
    0.016
    0.040
    0.012
   -0.033
   -0.044
   -0.013
    0.019
    0.016
   -0.016
   -0.040
   -0.032
   -0.004
    0.013
    0.002
   -0.020
   -0.026
   -0.002
    0.036
    0.059
    0.054
    0.031
    0.014
    0.016
    0.021
    0.004
   -0.036
   -0.068
   -0.057
   -0.014
    0.018
    0.010
   -0.016
   -0.019
    0.003
    0.013
   -0.018
   -0.068
   -0.088
   -0.056
   -0.006
    0.018
    0.013
    0.015
    0.048
    0.085
    0.085
    0.037
   -0.021
   -0.045
   -0.033
   -0.012
   -0.001
    0.006
    0.021
    0.040
    0.053
    0.050
    0.031
    0.001
   -0.033
   -0.061
   -0.073
   -0.070
   -0.062
   -0.055
   -0.042
   -0.012
    0.026
    0.045
    0.030
    0.001
   -0.009
    0.009
    0.023
    0.001
   -0.041
   -0.056
   -0.021
    0.030
    0.048
    0.030
    0.018
    0.039
    0.068
    0.053
   -0.017
   -0.089
   -0.104
   -0.063
   -0.020
   -0.018
   -0.036
   -0.027
    0.022
    0.068
    0.065
    0.013
   -0.041
   -0.055
   -0.029
    0.003
    0.011
   -0.006
   -0.017
    0.005
    0.054
    0.086
    0.066
    0.003
   -0.055
   -0.064
   -0.031
   -0.003
   -0.014
   -0.046
   -0.049
   -0.003
    0.057
    0.080
    0.061
    0.039
    0.040
    0.038
   -0.005
   -0.080
   -0.132
   -0.114
   -0.039
    0.034
    0.063
    0.057
    0.047
    0.048
    0.039
    0.002
   -0.048
   -0.079
   -0.079
   -0.062
   -0.050
   -0.045
   -0.027
    0.016
    0.069
    0.099
    0.085
    0.038
   -0.011
   -0.035
   -0.035
   -0.032
   -0.033
   -0.027
   -0.002
    0.032
    0.047
    0.031
    0.001
   -0.013
   -0.009
   -0.012
   -0.043
   -0.081
   -0.085
   -0.039
    0.023
    0.053
    0.045
    0.035
    0.053
    0.075
    0.053
   -0.019
   -0.096
   -0.125
   -0.101
   -0.057
   -0.022
    0.007
    0.046
    0.096
    0.131
    0.121
    0.066
   -0.007
   -0.063
   -0.086
   -0.082
   -0.070
   -0.061
   -0.044
   -0.001
    0.063
    0.108
    0.095
    0.035
   -0.016
   -0.015
    0.017
    0.019
   -0.026
   -0.061
   -0.029
    0.049
    0.086
    0.036
   -0.045
   -0.066
   -0.013
    0.026
   -0.023
   -0.123
   -0.159
   -0.078
    0.047
    0.099
    0.057
    0.003
    0.012
    0.061
    0.070
    0.008
   -0.070
   -0.086
   -0.033
    0.030
    0.039
   -0.005
   -0.046
   -0.037
    0.021
    0.079
    0.087
    0.038
   -0.023
   -0.040
   -0.009
    0.019
   -0.006
   -0.063
   -0.073
   -0.002
    0.084
    0.087
   -0.009
   -0.105
   -0.105
   -0.026
    0.024
   -0.017
   -0.089
   -0.080
    0.029
    0.139
    0.148
    0.067
   -0.005
   -0.002
    0.033
    0.020
   -0.057
   -0.127
   -0.119
   -0.039
    0.045
    0.072
    0.043
    0.007
    0.004
    0.028
    0.035
   -0.009
   -0.080
   -0.112
   -0.063
    0.029
    0.080
    0.047
   -0.020
   -0.032
    0.027
    0.079
    0.045
   -0.058
   -0.126
   -0.092
   -0.001
    0.050
    0.031
    0.001
    0.019
    0.065
    0.073
    0.018
   -0.050
   -0.070
   -0.043
   -0.017
   -0.022
   -0.043
   -0.044
   -0.014
    0.027
    0.056
    0.062
    0.047
    0.018
   -0.006
   -0.012
   -0.009
   -0.023
   -0.063
   -0.090
   -0.058
    0.027
    0.097
    0.098
    0.048
    0.015
    0.024
    0.028
   -0.025
   -0.117
   -0.167
   -0.126
   -0.033
    0.033
    0.044
    0.047
    0.091
    0.152
    0.159
    0.083
   -0.028
   -0.098
   -0.099
   -0.065
   -0.042
   -0.038
   -0.028
    0.011
    0.066
    0.099
    0.080
    0.013
   -0.061
   -0.095
   -0.075
   -0.031
   -0.009
   -0.021
   -0.028
    0.014
    0.095
    0.138
    0.086
   -0.030
   -0.110
   -0.097
   -0.030
    0.001
   -0.033
   -0.071
   -0.040
    0.054
    0.128
    0.117
    0.058
    0.065
    0.223
    0.503
    0.771
    0.867
    0.697
    0.264
   -0.328
   -0.933
   -1.416
   -1.695
   -1.726
   -1.468
   -0.902
   -0.110
    0.673
    1.147
    1.145
    0.781
    0.375
    0.200
    0.274
    0.395
    0.371
    0.203
    0.050
    0.039
    0.155
    0.292
    0.386
    0.458
    0.525
    0.512
    0.298
   -0.141
   -0.658
   -1.004
   -1.021
   -0.767
   -0.485
   -0.411
   -0.600
   -0.877
   -0.969
   -0.689
   -0.061
    0.695
    1.277
    1.468
    1.285
    0.964
    0.751
    0.663
    0.499
    0.141
   -0.223
   -0.283
   -0.035
    0.100
   -0.297
   -1.110
   -1.716
   -1.623
   -0.996
   -0.447
   -0.328
   -0.375
   -0.075
    0.703
    1.556
    1.955
    1.704
    1.005
    0.179
   -0.576
   -1.161
   -1.450
   -1.267
   -0.511
    0.667
    1.805
    2.294
    1.736
    0.276
   -1.421
   -2.590
   -2.844
   -2.293
   -1.280
   -0.107
    0.993
    1.771
    1.996
    1.604
    0.756
   -0.235
   -0.993
   -1.165
   -0.607
    0.429
    1.376
    1.778
    1.634
    1.237
    0.727
   -0.033
   -1.045
   -1.845
   -1.854
   -1.084
   -0.296
   -0.261
   -0.947
   -1.572
   -1.455
   -0.665
    0.207
    0.713
    0.864
    0.906
    1.014
    1.216
    1.410
    1.380
    0.925
    0.129
   -0.564
   -0.718
   -0.365
    0.020
    0.063
   -0.138
   -0.258
   -0.233
   -0.303
   -0.581
   -0.820
   -0.733
   -0.409
   -0.180
   -0.155
   -0.086
    0.223
    0.583
    0.654
    0.419
    0.214
    0.268
    0.407
    0.334
    0.084
   -0.003
    0.236
    0.518
    0.422
   -0.093
   -0.610
   -0.714
   -0.451
   -0.250
   -0.429
   -0.844
   -1.085
   -0.952
   -0.619
   -0.331
   -0.075
    0.341
    0.939
    1.435
    1.529
    1.277
    1.033
    0.996
    0.895
    0.294
   -0.789
   -1.715
   -1.787
   -0.940
    0.177
    0.805
    0.704
    0.225
   -0.179
   -0.397
   -0.611
   -0.910
   -1.100
   -0.942
   -0.470
    0.026
    0.311
    0.433
    0.597
    0.858
    1.012
    0.850
    0.452
    0.127
    0.044
    0.054
   -0.054
   -0.207
   -0.106
    0.336
    0.743
    0.609
   -0.125
   -0.950
   -1.293
   -1.046
   -0.543
   -0.102
    0.213
    0.405
    0.325
   -0.177
   -0.923
   -1.398
   -1.151
   -0.190
    1.026
    1.923
    2.123
    1.586
    0.593
   -0.368
   -0.880
   -0.874
   -0.650
   -0.521
   -0.469
   -0.240
    0.215
    0.553
    0.440
    0.047
   -0.114
    0.124
    0.320
    0.031
   -0.515
   -0.643
   -0.117
    0.477
    0.410
   -0.272
   -0.779
   -0.534
    0.139
    0.462
    0.164
   -0.295
   -0.415
   -0.244
   -0.074
    0.144
    0.708
    1.483
    1.742
    0.951
   -0.469
   -1.483
   -1.538
   -1.036
   -0.664
   -0.505
   -0.102
    0.705
    1.369
    1.238
    0.390
   -0.410
   -0.580
   -0.294
   -0.112
   -0.230
   -0.324
   -0.089
    0.316
    0.495
    0.357
    0.196
    0.232
    0.267
   -0.030
   -0.598
   -0.958
   -0.783
   -0.353
   -0.256
   -0.636
   -0.913
   -0.399
    0.843
    1.913
    1.919
    0.871
   -0.326
   -0.764
   -0.357
    0.242
    0.425
    0.199
   -0.018
    0.001
    0.074
   -0.041
   -0.260
   -0.282
   -0.038
    0.130
   -0.131
   -0.685
   -1.005
   -0.800
   -0.375
   -0.216
   -0.340
   -0.301
    0.161
    0.692
    0.772
    0.444
    0.308
    0.719
    1.238
    1.146
    0.384
   -0.320
   -0.336
    0.083
    0.116
   -0.588
   -1.426
   -1.511
   -0.679
    0.323
    0.635
    0.109
   -0.661
   -0.981
   -0.623
    0.124
    0.781
    1.043
    0.937
    0.686
    0.440
    0.160
   -0.207
   -0.488
   -0.369
    0.192
    0.751
    0.773
    0.250
   -0.256
   -0.303
   -0.143
   -0.378
   -1.104
   -1.643
   -1.296
   -0.214
    0.693
    0.735
    0.176
   -0.130
    0.253
    0.895
    1.075
    0.624
    0.033
   -0.171
    0.009
    0.167
    0.061
   -0.135
   -0.164
   -0.108
   -0.273
   -0.700
   -1.015
   -0.863
   -0.332
    0.213
    0.622
    1.020
    1.337
    1.095
   -0.037
   -1.509
   -2.101
   -1.129
    0.662
    1.725
    1.295
    0.153
   -0.358
    0.118
    0.643
    0.216
   -0.968
   -1.709
   -1.153
    0.292
    1.451
    1.587
    0.948
    0.216
   -0.276
   -0.673
   -1.095
   -1.305
   -0.976
   -0.179
    0.596
    0.931
    0.866
    0.695
    0.500
    0.104
   -0.491
   -0.855
   -0.553
    0.235
    0.759
    0.497
   -0.216
   -0.579
   -0.317
   -0.025
   -0.356
   -1.067
   -1.211
   -0.333
    0.858
    1.250
    0.607
   -0.213
   -0.331
    0.187
    0.618
    0.561
    0.289
    0.176
    0.175
    0.048
   -0.118
    0.014
    0.435
    0.597
    0.041
   -0.956
   -1.600
   -1.410
   -0.624
    0.212
    0.779
    1.006
    0.805
    0.113
   -0.787
   -1.275
   -0.932
   -0.030
    0.669
    0.662
    0.184
   -0.129
    0.068
    0.561
    0.949
    1.049
    0.878
    0.431
   -0.251
   -0.829
   -0.794
   -0.069
    0.651
    0.507
   -0.505
   -1.387
   -1.229
   -0.265
    0.450
    0.322
   -0.195
   -0.383
   -0.226
   -0.240
   -0.517
   -0.496
    0.165
    0.891
    0.838
    0.088
   -0.328
    0.230
    1.092
    1.118
    0.211
   -0.542
   -0.303
    0.437
    0.554
   -0.217
   -0.981
   -0.864
   -0.071
    0.499
    0.384
   -0.079
   -0.430
   -0.648
   -0.864
   -0.881
   -0.398
    0.380
    0.786
    0.463
   -0.151
   -0.353
   -0.020
    0.362
    0.474
    0.591
    1.033
    1.465
    1.169
    0.029
   -1.134
   -1.420
   -0.844
   -0.212
   -0.095
   -0.272
   -0.269
   -0.127
   -0.265
   -0.684
   -0.735
    0.040
    1.072
    1.225
    0.167
   -1.059
   -1.130
    0.045
    1.214
    1.209
    0.198
   -0.650
   -0.542
    0.207
    0.765
    0.757
    0.425
    0.085
   -0.214
   -0.470
   -0.504
   -0.175
    0.310
    0.542
    0.355
   -0.033
   -0.389
   -0.748
   -1.165
   -1.328
   -0.748
    0.538
    1.719
    1.895
    1.000
   -0.162
   -0.789
   -0.812
   -0.672
   -0.605
   -0.421
    0.004
    0.356
    0.236
   -0.245
   -0.538
   -0.340
    0.066
    0.250
    0.203
    0.225
    0.380
    0.369
    0.035
   -0.263
   -0.011
    0.743
    1.280
    0.954
   -0.050
   -0.877
   -0.915
   -0.395
   -0.038
   -0.227
   -0.650
   -0.725
   -0.282
    0.258
    0.378
    0.060
   -0.196
    0.036
    0.604
    0.939
    0.699
    0.162
   -0.114
    0.045
    0.241
   -0.005
   -0.660
   -1.170
   -1.052
   -0.398
    0.264
    0.573
    0.685
    0.938
    1.258
    1.123
    0.229
   -0.934
   -1.429
   -0.875
    0.041
    0.261
   -0.411
   -0.998
   -0.483
    0.885
    1.752
    1.199
   -0.209
   -1.165
   -1.159
   -0.879
   -1.094
   -1.608
   -1.579
   -0.668
    0.498
    1.046
    0.780
    0.260
    0.135
    0.577
    1.299
    1.857
    1.879
    1.257
    0.330
   -0.237
   -0.031
    0.621
    0.900
    0.328
   -0.758
   -1.601
   -1.799
   -1.567
   -1.317
   -1.173
   -1.006
   -0.754
   -0.468
   -0.091
    0.528
    1.263
    1.595
    1.105
    0.028
   -0.860
   -0.905
   -0.037
    1.371
    2.824
    3.767
    3.547
    1.770
   -1.122
   -3.798
   -4.848
   -3.806
   -1.416
    0.979
    2.279
    2.065
    0.605
   -1.326
   -2.774
   -3.069
   -2.183
   -0.606
    1.133
    2.700
    3.718
    3.584
    1.880
   -0.954
   -3.562
   -4.564
   -3.603
   -1.538
    0.361
    1.390
    1.698
    1.822
    2.063
    2.230
    1.893
    0.891
   -0.333
   -0.930
   -0.303
    1.266
    2.665
    2.815
    1.666
    0.264
   -0.367
   -0.421
   -1.076
   -2.867
   -4.552
   -4.138
   -1.198
    2.148
    3.017
    0.587
   -3.086
   -5.125
   -4.454
   -2.204
    0.109
    2.089
    3.969
    5.331
    5.182
    3.358
    1.168
    0.156
    0.492
    1.030
    0.875
    0.319
    0.020
   -0.238
   -1.358
   -3.524
   -5.555
   -6.025
   -4.795
   -3.029
   -1.764
   -0.901
    0.236
    1.762
    3.063
    3.645
    3.739
    3.893
    4.244
    4.400
    3.920
    2.694
    0.944
   -0.887
   -2.247
   -2.715
   -2.329
   -1.632
   -1.261
   -1.495
   -2.218
   -3.208
   -4.257
   -4.988
   -4.768
   -3.049
    0.098
    3.763
    6.539
    7.258
    5.673
    2.614
   -0.531
   -2.565
   -2.952
   -1.843
    0.103
    1.938
    2.761
    2.191
    0.664
   -0.876
   -1.709
   -1.784
   -1.395
   -0.637
    0.532
    1.650
    1.648
   -0.124
   -2.757
   -4.191
   -3.163
   -0.597
    1.297
    1.331
    0.437
    0.297
    1.212
    1.818
    0.980
   -0.575
   -1.025
    0.321
    2.170
    2.867
    2.335
    1.774
    1.588
    0.545
   -2.434
   -6.166
   -7.811
   -5.821
   -1.699
    1.590
    2.590
    2.260
    2.158
    2.543
    2.640
    2.195
    1.904
    2.212
    2.417
    1.543
   -0.242
   -1.735
   -2.231
   -2.328
   -2.894
   -3.725
   -3.765
   -2.541
   -0.785
    0.509
    1.164
    1.613
    1.990
    2.006
    1.690
    1.640
    2.177
    2.615
    1.943
    0.189
   -1.417
   -1.866
   -1.533
   -1.473
   -1.855
   -1.783
   -0.772
    0.275
    0.118
   -1.110
   -1.887
   -1.098
    0.699
    2.165
    2.908
    3.614
    4.409
    3.958
    1.017
   -3.346
   -6.038
   -4.952
   -1.293
    1.617
    1.734
   -0.003
   -1.357
   -1.499
   -1.407
   -1.890
   -2.169
   -0.965
    1.513
    3.486
    3.580
    2.263
    1.013
    0.494
    0.132
   -0.619
   -1.234
   -0.825
    0.454
    1.369
    1.129
    0.394
    0.341
    1.017
    1.182
   -0.108
   -2.163
   -3.282
   -2.598
   -0.936
    0.247
    0.405
    0.110
   -0.033
   -0.107
   -0.393
   -0.640
   -0.295
    0.658
    1.522
    1.657
    1.100
    0.275
   -0.584
   -1.374
   -1.671
   -0.880
    0.927
    2.589
    2.757
    1.299
   -0.498
   -1.322
   -1.189
   -1.112
   -1.592
   -1.903
   -1.083
    0.699
    2.173
    2.320
    1.295
   -0.070
   -1.232
   -2.017
   -2.051
   -0.806
    1.541
    3.711
    4.226
    2.710
    0.090
   -2.393
   -4.092
   -4.821
   -4.259
   -2.113
    0.992
    3.315
    3.286
    1.047
   -1.572
   -2.682
   -1.846
   -0.079
    1.337
    1.898
    1.955
    2.120
    2.678
    3.419
    3.799
    3.296
    1.763
   -0.438
   -2.673
   -4.404
   -5.336
   -5.303
   -4.272
   -2.523
   -0.616
    1.009
    2.245
    2.982
    2.765
    1.238
   -1.000
   -2.431
   -1.926
    0.052
    1.868
    2.367
    1.833
    1.231
    0.894
    0.372
   -0.569
   -1.331
   -1.113
    0.080
    1.343
    1.705
    0.871
   -0.713
   -2.230
   -2.911
   -2.434
   -1.191
   -0.035
    0.508
    0.726
    1.208
    1.922
    2.157
    1.497
    0.514
    0.148
    0.547
    0.911
    0.515
   -0.461
   -1.296
   -1.676
   -1.893
   -2.174
   -2.235
   -1.717
   -0.782
    0.079
    0.711
    1.367
    2.069
    2.293
    1.570
    0.252
   -0.689
   -0.676
   -0.082
    0.336
    0.323
    0.192
    0.164
    0.071
   -0.210
   -0.400
   -0.195
    0.191
    0.251
   -0.078
   -0.237
    0.218
    0.933
    1.092
    0.398
   -0.525
   -0.860
   -0.537
   -0.231
   -0.508
   -1.190
   -1.641
   -1.474
   -0.847
   -0.148
    0.394
    0.721
    0.760
    0.471
    0.108
    0.188
    0.949
    1.900
    2.173
    1.432
    0.246
   -0.572
   -0.826
   -0.917
   -1.081
   -1.036
   -0.514
    0.150
    0.316
   -0.117
   -0.507
   -0.279
    0.264
    0.217
   -0.809
   -2.077
   -2.369
   -1.204
    0.729
    2.266
    2.749
    2.291
    1.344
    0.281
   -0.601
   -0.921
   -0.348
    0.973
    2.231
    2.434
    1.233
   -0.754
   -2.504
   -3.425
   -3.544
   -3.001
   -1.727
    0.163
    1.899
    2.454
    1.545
   -0.025
   -1.173
   -1.500
   -1.267
   -0.656
    0.502
    2.128
    3.411
    3.405
    2.115
    0.592
   -0.215
   -0.386
   -0.583
   -0.962
   -0.997
   -0.409
    0.159
   -0.277
   -1.831
   -3.376
   -3.521
   -1.937
    0.328
    1.791
    1.749
    0.693
   -0.271
   -0.372
    0.303
    1.106
    1.564
    1.761
    1.993
    2.178
    1.852
    0.758
   -0.754
   -2.065
   -2.882
   -3.261
   -3.113
   -2.089
   -0.216
    1.619
    2.296
    1.674
    0.833
    0.846
    1.515
    1.679
    0.707
   -0.721
   -1.465
   -1.202
   -0.577
   -0.255
   -0.284
   -0.404
   -0.583
   -0.887
   -1.031
   -0.515
    0.630
    1.577
    1.488
    0.469
   -0.530
   -0.771
   -0.407
   -0.023
    0.196
    0.493
    0.896
    1.005
    0.585
    0.057
    0.020
    0.379
    0.341
   -0.558
   -1.690
   -1.940
   -1.022
    0.132
    0.439
   -0.119
   -0.591
   -0.263
    0.554
    1.011
    0.774
    0.313
    0.216
    0.493
    0.697
    0.534
    0.117
   -0.304
   -0.567
   -0.538
   -0.089
    0.633
    1.098
    0.827
   -0.039
   -0.818
   -1.041
   -0.934
   -0.986
   -1.214
   -1.160
   -0.621
   -0.075
   -0.130
   -0.702
   -1.029
   -0.527
    0.584
    1.623
    2.216
    2.475
    2.493
    2.031
    0.922
   -0.388
   -1.068
   -0.809
   -0.225
   -0.124
   -0.518
   -0.703
   -0.349
   -0.088
   -0.689
   -1.818
   -2.175
   -1.087
    0.452
    0.829
   -0.209
   -1.209
   -0.799
    0.645
    1.593
    1.355
    0.835
    1.116
    1.874
    1.803
    0.490
   -0.892
   -1.112
   -0.509
   -0.428
   -1.221
   -1.662
   -0.646
    1.116
    1.778
    0.576
   -1.274
   -2.074
   -1.519
   -0.627
   -0.136
    0.293
    1.122
    1.864
    1.575
    0.258
   -0.911
   -0.919
   -0.060
    0.599
    0.594
    0.419
    0.600
    0.894
    0.668
   -0.223
   -1.244
   -1.764
   -1.546
   -0.721
    0.349
    1.038
    0.714
   -0.559
   -1.762
   -1.814
   -0.804
    0.098
    0.138
    0.007
    0.893
    2.703
    3.880
    3.214
    1.331
   -0.121
   -0.508
   -0.735
   -1.640
   -2.599
   -2.350
   -0.894
    0.260
   -0.008
   -0.954
   -1.010
    0.029
    0.707
   -0.014
   -1.150
   -0.854
    1.129
    2.955
    2.866
    1.256
    0.021
    0.144
    0.701
    0.390
   -0.632
   -1.110
   -0.562
    0.016
   -0.441
   -1.559
   -2.016
   -1.302
   -0.323
   -0.126
   -0.551
   -0.574
    0.237
    1.161
    1.301
    0.729
    0.300
    0.503
    0.882
    0.713
   -0.031
   -0.660
   -0.641
   -0.172
    0.183
    0.208
    0.162
    0.268
    0.350
    0.107
   -0.391
   -0.669
   -0.358
    0.377
    0.996
    1.084
    0.619
   -0.163
   -0.974
   -1.513
   -1.493
   -0.811
    0.254
    1.134
    1.367
    0.944
    0.245
   -0.325
   -0.599
   -0.614
   -0.456
   -0.221
   -0.046
   -0.074
   -0.324
   -0.624
   -0.720
   -0.465
    0.060
