Origin Time       1/5/2013 06:57:12	 
Lat.              33.1 N	
Long.             75.8 E	
Depth (Km)         15.0
Magnitude         5.8
 Region           JK-HP-Border                                                     
 Above details taken from IMD 
   
Station Code      JMU
Station Lat.       32.732
Station Long.      74.874
Station Height(m)  361.0
Site Class        B   Vs30 between 375 m/sec to 700 m/sec *  
Record Time       01.05.2013 06:57:06.234
Sampling Rate     200. Hz
 Record Duration  111.850 Sec.
 Direction         Vert. (Up positive)
Max. Acceleration     -4.253 cm/sec**2
     
  * For reference see Site Classification link of website 
     
 Base Line Corrected and Low Pass Filtered (Cut Off at 35 Hz) Time History
 Acceleration data in cm/sec**2
    
[...]
       0.795
       1.247
       1.391
       1.218
       0.825
       0.359
      -0.031
      -0.240
      -0.233
      -0.058
       0.187
       0.390
       0.449
       0.320
       0.051
      -0.231
      -0.398
      -0.393
      -0.248
      -0.064
       0.029
      -0.075
      -0.387
      -0.791
      -1.104
      -1.164
      -0.893
      -0.323
       0.414
       1.127
       1.634
       1.811
       1.606
       1.038
       0.204
      -0.727
      -1.563
      -2.136
      -2.334
      -2.120
      -1.553
      -0.791
      -0.048
       0.491
       0.739
       0.733
       0.613
       0.534
       0.576
       0.714
       0.855
       0.907
       0.818
       0.598
       0.311
       0.048
      -0.127
      -0.221
      -0.289
      -0.400
      -0.596
      -0.884
      -1.230
      -1.561
      -1.789
      -1.831
      -1.644
      -1.237
      -0.672
      -0.036
       0.581
       1.086
       1.382
       1.401
       1.163
       0.789
       0.455
       0.306
       0.405
       0.697
       1.031
       1.211
       1.095
       0.668
       0.046
      -0.572
      -0.988
      -1.079
      -0.853
      -0.424
       0.048
       0.420
       0.597
       0.546
       0.312
      -0.011
      -0.315
      -0.511
      -0.520
      -0.295
       0.149
       0.722
       1.293
       1.739
       1.970
       1.944
       1.690
       1.301
       0.890
       0.539
       0.286
       0.114
      -0.041
      -0.259
      -0.570
      -0.929
      -1.240
      -1.403
      -1.353
      -1.077
      -0.644
      -0.179
       0.196
       0.421
       0.507
       0.506
       0.473
       0.446
       0.429
       0.404
       0.372
       0.365
       0.421
       0.550
       0.730
       0.912
       1.035
       1.059
       0.994
       0.906
       0.870
       0.918
       1.032
       1.157
       1.225
       1.175
       0.985
       0.677
       0.302
      -0.086
      -0.438
      -0.721
      -0.920
      -1.036
      -1.070
      -1.029
      -0.936
      -0.827
      -0.729
      -0.653
      -0.591
      -0.521
      -0.421
      -0.290
      -0.168
      -0.119
      -0.178
      -0.306
      -0.410
      -0.402
      -0.251
      -0.005
       0.227
       0.340
       0.295
       0.117
      -0.131
      -0.393
      -0.626
      -0.799
      -0.894
      -0.898
      -0.798
      -0.601
      -0.369
      -0.207
      -0.188
      -0.297
      -0.428
      -0.439
      -0.213
       0.273
       0.915
       1.506
       1.842
       1.811
       1.429
       0.817
       0.156
      -0.385
      -0.716
      -0.835
      -0.801
      -0.700
      -0.623
      -0.637
      -0.743
      -0.859
      -0.878
      -0.722
      -0.366
       0.162
       0.781
       1.372
       1.816
       2.030
       1.976
       1.663
       1.158
       0.574
       0.046
      -0.317
      -0.460
      -0.411
      -0.275
      -0.186
      -0.214
      -0.310
      -0.361
      -0.283
      -0.078
       0.170
       0.359
       0.430
       0.399
       0.336
       0.309
       0.330
       0.356
       0.322
       0.176
      -0.089
      -0.435
      -0.795
      -1.111
      -1.326
      -1.387
      -1.255
      -0.946
      -0.530
      -0.104
       0.257
       0.509
       0.624
       0.584
       0.390
       0.077
      -0.274
      -0.534
      -0.566
      -0.295
       0.253
       0.950
       1.611
       2.052
       2.163
       1.934
       1.434
       0.757
       0.003
      -0.718
      -1.295
      -1.655
      -1.784
      -1.726
      -1.565
      -1.389
      -1.251
      -1.118
      -0.902
      -0.535
      -0.032
       0.507
       0.934
       1.113
       0.970
       0.532
      -0.083
      -0.717
      -1.220
      -1.478
      -1.451
      -1.189
      -0.808
      -0.421
      -0.094
       0.152
       0.328
       0.478
       0.657
       0.895
       1.157
       1.364
       1.425
       1.278
       0.917
       0.414
      -0.114
      -0.571
      -0.928
      -1.195
      -1.388
      -1.505
      -1.541
      -1.481
      -1.314
      -1.060
      -0.770
      -0.501
      -0.276
      -0.083
       0.099
       0.271
       0.399
       0.427
       0.322
       0.113
      -0.104
      -0.223
      -0.182
       0.016
       0.308
       0.587
       0.733
       0.679
       0.446
       0.145
      -0.073
      -0.075
       0.187
       0.655
       1.179
       1.588
       1.758
       1.652
       1.317
       0.844
       0.331
      -0.148
      -0.542
      -0.801
      -0.897
      -0.859
      -0.768
      -0.715
      -0.748
      -0.856
      -0.980
      -1.045
      -0.996
      -0.832
      -0.593
      -0.336
      -0.110
       0.051
       0.136
       0.180
       0.252
       0.420
       0.695
       1.006
       1.214
       1.174
       0.831
       0.285
      -0.267
      -0.652
      -0.817
      -0.815
      -0.729
      -0.623
      -0.514
      -0.397
      -0.280
      -0.213
      -0.239
      -0.334
      -0.384
      -0.266
       0.068
       0.545
       1.011
       1.308
       1.362
       1.228
       1.041
       0.913
       0.869
       0.868
       0.849
       0.761
       0.570
       0.263
      -0.150
      -0.642
      -1.143
      -1.537
      -1.696
      -1.568
      -1.233
      -0.860
      -0.602
      -0.513
      -0.522
      -0.499
      -0.346
      -0.081
       0.191
       0.372
       0.460
       0.528
       0.645
       0.796
       0.884
       0.794
       0.494
       0.081
      -0.257
      -0.352
      -0.143
       0.313
       0.903
       1.520
       2.106
       2.617
       2.984
       3.076
       2.755
       1.970
       0.816
      -0.495
      -1.708
      -2.614
      -3.091
      -3.114
      -2.729
      -2.033
      -1.170
      -0.336
       0.274
       0.545
       0.512
       0.349
       0.294
       0.527
       1.068
       1.762
       2.366
       2.675
       2.600
       2.159
       1.436
       0.545
      -0.394
      -1.252
      -1.890
      -2.173
      -2.028
      -1.509
      -0.799
      -0.122
       0.362
       0.613
       0.696
       0.714
       0.720
       0.668
       0.467
       0.091
      -0.373
      -0.773
      -0.984
      -0.968
      -0.788
      -0.573
      -0.449
      -0.457
      -0.551
      -0.657
      -0.740
      -0.810
      -0.904
      -1.055
      -1.264
      -1.489
      -1.670
      -1.783
      -1.859
      -1.950
      -2.077
      -2.210
      -2.281
      -2.204
      -1.904
      -1.364
      -0.644
       0.136
       0.837
       1.335
       1.576
       1.598
       1.507
       1.388
       1.252
       1.052
       0.751
       0.375
       0.021
      -0.177
      -0.119
       0.213
       0.738
       1.318
       1.810
       2.106
       2.152
       1.962
       1.598
       1.141
       0.674
       0.269
      -0.020
      -0.184
      -0.272
      -0.369
      -0.556
      -0.873
      -1.297
      -1.740
      -2.079
      -2.197
      -2.017
      -1.523
      -0.787
       0.031
       0.730
       1.150
       1.242
       1.077
       0.804
       0.578
       0.481
       0.486
       0.507
       0.486
       0.433
       0.392
       0.379
       0.360
       0.272
       0.070
      -0.224
      -0.530
      -0.762
      -0.891
      -0.951
      -0.985
      -1.011
      -1.011
      -0.952
      -0.807
      -0.577
      -0.312
      -0.077
       0.093
       0.207
       0.278
       0.304
       0.289
       0.265
       0.282
       0.373
       0.533
       0.701
       0.765
       0.621
       0.256
      -0.243
      -0.738
      -1.126
      -1.369
      -1.486
      -1.510
      -1.434
      -1.196
      -0.729
      -0.058
       0.662
       1.216
       1.444
       1.316
       0.940
       0.505
       0.187
       0.073
       0.145
       0.332
       0.565
       0.783
       0.939
       0.988
       0.890
       0.617
       0.167
      -0.416
      -1.047
      -1.619
      -2.030
      -2.196
      -2.074
      -1.671
      -1.046
      -0.285
       0.515
       1.238
       1.757
       1.968
       1.833
       1.410
       0.860
       0.392
       0.180
       0.278
       0.601
       0.981
       1.224
       1.173
       0.750
      -0.013
      -0.979
      -1.941
      -2.668
      -2.956
      -2.696
      -1.929
      -0.835
       0.339
       1.353
       2.039
       2.313
       2.180
       1.702
       0.980
       0.155
      -0.592
      -1.098
      -1.297
      -1.250
      -1.100
      -0.984
      -0.965
      -1.007
      -1.011
      -0.900
      -0.692
      -0.485
      -0.375
      -0.398
      -0.539
      -0.763
      -1.025
      -1.275
      -1.450
      -1.464
      -1.222
      -0.677
       0.093
       0.878
       1.437
       1.624
       1.461
       1.116
       0.802
       0.649
       0.643
       0.673
       0.652
       0.571
       0.457
       0.315
       0.111
      -0.179
      -0.530
      -0.846
      -0.997
      -0.886
      -0.536
      -0.088
       0.286
       0.483
       0.491
       0.353
       0.111
      -0.210
      -0.577
      -0.921
      -1.135
      -1.130
      -0.909
      -0.559
      -0.190
       0.142
       0.439
       0.731
       1.017
       1.227
       1.239
       0.952
       0.382
      -0.312
      -0.913
      -1.276
      -1.401
      -1.411
      -1.453
      -1.587
      -1.748
      -1.788
      -1.577
      -1.089
      -0.413
       0.292
       0.878
       1.280
       1.521
       1.655
       1.706
       1.669
       1.552
       1.398
       1.255
       1.145
       1.059
       0.956
       0.780
       0.485
       0.076
      -0.368
      -0.730
      -0.892
      -0.794
      -0.466
      -0.023
       0.383
       0.623
       0.622
       0.363
      -0.095
      -0.628
      -1.109
      -1.475
      -1.742
      -1.929
      -2.013
      -1.930
      -1.619
      -1.049
      -0.255
       0.649
       1.498
       2.139
       2.492
       2.548
       2.347
       1.940
       1.365
       0.655
      -0.116
      -0.801
      -1.240
      -1.362
      -1.240
      -1.053
      -0.984
      -1.123
      -1.424
      -1.716
      -1.794
      -1.535
      -0.967
      -0.233
       0.488
       1.044
       1.345
       1.364
       1.126
       0.695
       0.185
      -0.257
      -0.505
      -0.524
      -0.376
      -0.168
       0.020
       0.157
       0.250
       0.328
       0.423
       0.551
       0.713
       0.901
       1.088
       1.210
       1.175
       0.902
       0.383
      -0.267
      -0.831
      -1.084
      -0.931
      -0.475
       0.052
       0.442
       0.625
       0.659
       0.649
       0.667
       0.724
       0.790
       0.853
       0.942
       1.083
       1.232
       1.266
       1.062
       0.604
       0.022
      -0.461
      -0.657
      -0.542
      -0.277
      -0.086
      -0.094
      -0.269
      -0.493
      -0.661
      -0.732
      -0.711
      -0.608
      -0.409
      -0.083
       0.352
       0.789
       1.080
       1.146
       1.043
       0.920
       0.933
       1.155
       1.544
       1.974
       2.307
       2.464
       2.419
       2.152
       1.638
       0.909
       0.101
      -0.570
      -0.891
      -0.758
      -0.242
       0.438
       1.033
       1.404
       1.557
       1.567
       1.482
       1.301
       1.013
       0.647
       0.288
       0.047
      -0.020
       0.028
       0.047
      -0.091
      -0.404
      -0.786
      -1.075
      -1.153
      -1.018
      -0.775
      -0.559
      -0.434
      -0.371
      -0.294
      -0.150
       0.072
       0.352
       0.664
       0.987
       1.288
       1.513
       1.579
       1.416
       1.014
       0.436
      -0.217
      -0.851
      -1.415
      -1.904
      -2.332
      -2.680
      -2.871
      -2.805
      -2.428
      -1.775
      -0.968
      -0.166
       0.506
       1.022
       1.448
       1.852
       2.225
       2.473
       2.484
       2.202
       1.659
       0.965
       0.254
      -0.370
      -0.867
      -1.223
      -1.417
      -1.420
      -1.236
      -0.930
      -0.618
      -0.417
      -0.388
      -0.489
      -0.589
      -0.547
      -0.303
       0.108
       0.605
       1.094
       1.462
       1.580
       1.339
       0.707
      -0.234
      -1.271
      -2.113
      -2.497
      -2.324
      -1.687
      -0.816
       0.033
       0.654
       0.943
       0.908
       0.623
       0.199
      -0.228
      -0.485
      -0.409
       0.065
       0.855
       1.767
       2.568
       3.073
       3.202
       2.998
       2.579
       2.065
       1.537
       1.038
       0.594
       0.206
      -0.144
      -0.478
      -0.799
      -1.086
      -1.298
      -1.391
      -1.355
      -1.235
      -1.112
      -1.037
      -0.998
      -0.919
      -0.707
      -0.312
       0.229
       0.798
       1.264
       1.546
       1.633
       1.537
       1.269
       0.840
       0.296
      -0.272
      -0.736
      -0.980
      -0.967
      -0.758
      -0.475
      -0.233
      -0.085
      -0.027
      -0.022
      -0.036
      -0.047
      -0.036
       0.046
       0.277
       0.719
       1.356
       2.098
       2.812
       3.368
       3.654
       3.597
       3.173
       2.397
       1.313
       0.003
      -1.391
      -2.683
      -3.679
      -4.229
      -4.253
      -3.764
      -2.878
      -1.781
      -0.677
       0.248
       0.869
       1.162
       1.227
       1.232
       1.312
       1.503
       1.749
       1.938
       1.962
       1.777
       1.434
       1.034
       0.643
       0.256
      -0.171
      -0.652
      -1.126
      -1.467
      -1.539
      -1.284
      -0.788
      -0.250
       0.122
       0.191
      -0.072
      -0.586
      -1.168
      -1.593
      -1.678
      -1.360
      -0.718
       0.066
       0.784
       1.287
       1.541
       1.582
       1.448
       1.144
       0.669
       0.068
      -0.558
      -1.078
      -1.404
      -1.547
      -1.623
      -1.783
      -2.087
      -2.437
      -2.625
      -2.456
      -1.884
      -1.056
      -0.235
       0.345
       0.599
       0.606
       0.522
       0.480
       0.525
       0.606
       0.610
       0.438
       0.058
      -0.493
      -1.134
      -1.765
      -2.268
      -2.519
      -2.426
      -1.968
      -1.222
      -0.362
       0.413
       0.952
       1.205
       1.196
       0.987
       0.667
       0.358
       0.196
       0.279
       0.623
       1.145
       1.667
       1.972
       1.902
       1.444
       0.739
      -0.006
      -0.616
      -1.012
      -1.215
      -1.302
      -1.323
      -1.268
      -1.100
      -0.838
      -0.583
      -0.459
      -0.532
      -0.759
      -0.976
      -0.978
      -0.646
      -0.040
       0.634
       1.146
       1.345
       1.189
       0.732
       0.083
      -0.628
      -1.290
      -1.810
      -2.106
      -2.117
      -1.847
      -1.370
      -0.811
      -0.313
       0.005
       0.083
      -0.028
      -0.188
      -0.243
      -0.103
       0.225
       0.640
       0.984
       1.128
       1.039
       0.803
       0.574
       0.499
       0.662
       1.044
       1.523
       1.933
       2.143
       2.101
       1.828
       1.384
       0.848
       0.300
      -0.187
      -0.537
      -0.682
      -0.591
      -0.303
       0.077
       0.426
       0.650
       0.715
       0.657
       0.561
       0.504
       0.515
       0.569
       0.615
       0.601
       0.491
       0.267
      -0.073
      -0.528
      -1.085
      -1.689
      -2.228
      -2.563
      -2.587
      -2.275
      -1.697
      -1.010
      -0.413
      -0.070
      -0.034
      -0.245
      -0.566
      -0.846
      -0.957
      -0.838
      -0.496
       0.004
       0.571
       1.092
       1.449
       1.551
       1.382
       0.997
       0.491
      -0.024
      -0.450
      -0.731
      -0.869
      -0.897
      -0.847
      -0.757
      -0.687
      -0.688
      -0.742
      -0.739
      -0.551
      -0.111
       0.525
       1.183
       1.643
       1.757
       1.542
       1.160
       0.812
       0.617
       0.566
       0.554
       0.460
       0.248
      -0.003
      -0.165
      -0.159
       0.001
       0.249
       0.523
       0.787
       1.032
       1.253
       1.420
       1.459
       1.287
       0.873
       0.277
      -0.371
      -0.910
      -1.203
      -1.181
      -0.873
      -0.402
       0.042
       0.261
       0.120
      -0.379
      -1.083
      -1.742
      -2.120
      -2.094
      -1.687
      -1.048
      -0.397
       0.073
       0.277
       0.253
       0.114
      -0.031
      -0.130
      -0.197
      -0.283
      -0.420
      -0.586
      -0.727
      -0.788
      -0.749
      -0.637
      -0.522
      -0.484
      -0.545
      -0.631
      -0.623
      -0.461
      -0.189
       0.095
       0.327
       0.514
       0.710
       0.952
       1.200
       1.326
       1.180
       0.671
      -0.163
      -1.142
      -1.990
      -2.461
      -2.462
      -2.080
      -1.497
      -0.871
      -0.317
       0.075
       0.249
       0.231
       0.120
       0.028
       0.013
       0.077
       0.191
       0.316
       0.424
       0.495
       0.522
       0.491
       0.382
       0.177
      -0.132
      -0.514
      -0.887
      -1.153
      -1.274
      -1.304
      -1.329
      -1.366
      -1.350
      -1.212
      -0.945
      -0.608
      -0.296
      -0.102
      -0.083
      -0.214
      -0.390
      -0.490
      -0.440
      -0.239
       0.050
       0.332
       0.519
       0.541
       0.355
      -0.040
      -0.577
      -1.116
      -1.511
      -1.676
      -1.595
      -1.290
      -0.806
      -0.216
       0.368
       0.828
       1.065
       1.038
       0.790
       0.453
       0.200
       0.162
       0.348
       0.642
       0.872
       0.924
       0.815
       0.665
       0.595
       0.637
       0.722
       0.735
       0.566
       0.155
      -0.468
      -1.182
      -1.829
      -2.290
      -2.502
      -2.436
      -2.089
      -1.500
      -0.784
      -0.125
       0.287
       0.343
       0.084
      -0.327
      -0.699
      -0.897
      -0.861
      -0.585
      -0.115
       0.449
       0.979
       1.348
       1.456
       1.255
       0.788
       0.210
      -0.265
      -0.469
      -0.352
       0.006
       0.432
       0.731
       0.763
       0.498
      -0.001
      -0.632
      -1.283
      -1.843
      -2.213
      -2.327
      -2.163
      -1.755
      -1.202
      -0.653
      -0.242
      -0.024
       0.040
       0.026
       0.011
       0.054
       0.192
       0.423
       0.723
       1.059
       1.376
       1.592
       1.616
       1.400
       0.973
       0.430
      -0.100
      -0.485
      -0.644
      -0.569
      -0.322
       0.001
       0.306
       0.518
       0.595
       0.531
       0.346
       0.065
      -0.270
      -0.598
      -0.852
      -0.989
      -0.992
      -0.866
      -0.625
      -0.304
       0.052
       0.397
       0.697
       0.936
       1.113
