Origin Time       1/7/2012 04:13:52	  UTC
Lat.              25.7 N	
Long.             94.6 E	
Depth (Km)         50.0
Magnitude         5.8
 Region           Phek-Nagaland                                                    
 Above details taken from IMD 
    
Station Code      JHR
Station Lat.       26.759  N
Station Long.      94.206  E
Station Height(m)   94.0
Site Class        C   Vs30 between 200 m/sec to 375 m/sec *  
Record Time       01.07.2012 04:14:00.764 UTC
Sampling Rate     200. Hz
 Record Duration   97.290 Sec.
 Direction         N-S (N positive)
Max. Acceleration     14.670 cm/sec**2
     
  * For reference see Site Classification link of website 
     
 Base Line Corrected and Low Pass Filtered (Cut Off at 35 Hz) Time History
 Acceleration data in cm/sec**2
    
[...]
       0.261
       0.233
       0.259
       0.323
       0.410
       0.504
       0.583
       0.627
       0.628
       0.579
       0.471
       0.289
       0.034
      -0.271
      -0.586
      -0.870
      -1.100
      -1.271
      -1.388
      -1.462
      -1.495
      -1.486
      -1.429
      -1.311
      -1.115
      -0.837
      -0.501
      -0.166
       0.091
       0.213
       0.186
       0.040
      -0.167
      -0.378
      -0.554
      -0.679
      -0.757
      -0.794
      -0.787
      -0.726
      -0.604
      -0.430
      -0.234
      -0.060
       0.051
       0.076
       0.020
      -0.086
      -0.207
      -0.316
      -0.397
      -0.441
      -0.435
      -0.365
      -0.223
      -0.011
       0.255
       0.555
       0.871
       1.184
       1.472
       1.705
       1.856
       1.920
       1.915
       1.861
       1.765
       1.619
       1.413
       1.150
       0.845
       0.518
       0.194
      -0.095
      -0.314
      -0.434
      -0.448
      -0.381
      -0.273
      -0.164
      -0.082
      -0.045
      -0.061
      -0.134
      -0.244
      -0.349
      -0.393
      -0.336
      -0.165
       0.107
       0.443
       0.802
       1.141
       1.421
       1.604
       1.668
       1.604
       1.423
       1.145
       0.795
       0.405
       0.005
      -0.374
      -0.703
      -0.962
      -1.140
      -1.241
      -1.283
      -1.289
      -1.279
      -1.266
      -1.258
      -1.259
      -1.260
      -1.253
      -1.240
      -1.230
      -1.234
      -1.244
      -1.232
      -1.167
      -1.033
      -0.833
      -0.589
      -0.330
      -0.071
       0.187
       0.451
       0.715
       0.955
       1.126
       1.189
       1.121
       0.925
       0.634
       0.297
      -0.030
      -0.303
      -0.503
      -0.642
      -0.744
      -0.827
      -0.882
      -0.892
      -0.848
      -0.775
      -0.717
      -0.711
      -0.753
      -0.799
      -0.797
      -0.722
      -0.592
      -0.447
      -0.323
      -0.225
      -0.134
      -0.023
       0.125
       0.306
       0.510
       0.729
       0.956
       1.179
       1.370
       1.504
       1.576
       1.600
       1.591
       1.555
       1.487
       1.382
       1.250
       1.117
       1.012
       0.954
       0.940
       0.946
       0.936
       0.866
       0.711
       0.473
       0.189
      -0.083
      -0.288
      -0.392
      -0.392
      -0.310
      -0.185
      -0.062
       0.017
       0.026
      -0.027
      -0.101
      -0.141
      -0.119
      -0.050
       0.020
       0.043
      -0.006
      -0.122
      -0.283
      -0.457
      -0.621
      -0.761
      -0.861
      -0.903
      -0.867
      -0.750
      -0.568
      -0.351
      -0.130
       0.062
       0.195
       0.246
       0.199
       0.055
      -0.161
      -0.401
      -0.616
      -0.768
      -0.850
      -0.873
      -0.849
      -0.781
      -0.667
      -0.515
      -0.347
      -0.193
      -0.078
      -0.022
      -0.040
      -0.141
      -0.319
      -0.553
      -0.801
      -1.013
      -1.143
      -1.158
      -1.062
      -0.888
      -0.685
      -0.492
      -0.321
      -0.164
      -0.023
       0.082
       0.119
       0.076
      -0.022
      -0.120
      -0.156
      -0.101
       0.037
       0.219
       0.405
       0.567
       0.691
       0.772
       0.806
       0.789
       0.723
       0.625
       0.518
       0.426
       0.380
       0.406
       0.512
       0.670
       0.811
       0.862
       0.787
       0.609
       0.395
       0.213
       0.097
       0.043
       0.037
       0.068
       0.126
       0.196
       0.257
       0.304
       0.344
       0.389
       0.427
       0.433
       0.383
       0.274
       0.132
      -0.008
      -0.112
      -0.166
      -0.169
      -0.128
      -0.043
       0.078
       0.215
       0.328
       0.367
       0.299
       0.125
      -0.122
      -0.392
      -0.644
      -0.854
      -1.006
      -1.095
      -1.113
      -1.059
      -0.941
      -0.772
      -0.572
      -0.361
      -0.161
       0.007
       0.119
       0.162
       0.143
       0.081
       0.000
      -0.079
      -0.143
      -0.184
      -0.203
      -0.205
      -0.190
      -0.144
      -0.054
       0.081
       0.234
       0.358
       0.395
       0.301
       0.070
      -0.257
      -0.611
      -0.913
      -1.104
      -1.154
      -1.063
      -0.851
      -0.548
      -0.193
       0.168
       0.480
       0.700
       0.799
       0.781
       0.678
       0.553
       0.477
       0.495
       0.599
       0.733
       0.833
       0.861
       0.813
       0.695
       0.514
       0.278
      -0.003
      -0.310
      -0.627
      -0.936
      -1.205
      -1.395
      -1.476
      -1.448
      -1.336
      -1.169
      -0.963
      -0.718
      -0.440
      -0.142
       0.157
       0.442
       0.709
       0.956
       1.173
       1.341
       1.437
       1.455
       1.410
       1.346
       1.317
       1.360
       1.478
       1.642
       1.813
       1.953
       2.027
       1.997
       1.834
       1.538
       1.147
       0.724
       0.334
       0.020
      -0.202
      -0.352
      -0.471
      -0.608
      -0.796
      -1.037
      -1.299
      -1.536
      -1.713
      -1.812
      -1.829
      -1.754
      -1.584
      -1.334
      -1.048
      -0.778
      -0.574
      -0.470
      -0.486
      -0.615
      -0.820
      -1.051
      -1.263
      -1.430
      -1.549
      -1.635
      -1.722
      -1.851
      -2.056
      -2.342
      -2.676
      -2.999
      -3.249
      -3.378
      -3.364
      -3.207
      -2.918
      -2.517
      -2.028
      -1.485
      -0.938
      -0.440
      -0.022
       0.316
       0.599
       0.850
       1.074
       1.271
       1.446
       1.624
       1.830
       2.085
       2.396
       2.760
       3.163
       3.566
       3.908
       4.115
       4.134
       3.953
       3.599
       3.121
       2.571
       2.001
       1.462
       0.997
       0.629
       0.355
       0.154
      -0.006
      -0.152
      -0.301
      -0.451
      -0.590
      -0.706
      -0.797
      -0.874
      -0.950
      -1.027
      -1.083
      -1.078
      -0.977
      -0.772
      -0.484
      -0.149
       0.197
       0.540
       0.881
       1.234
       1.605
       1.976
       2.302
       2.516
       2.559
       2.397
       2.037
       1.527
       0.944
       0.369
      -0.136
      -0.544
      -0.851
      -1.067
      -1.217
      -1.338
      -1.473
      -1.646
      -1.842
      -2.018
      -2.125
      -2.140
      -2.078
      -1.988
      -1.923
      -1.912
      -1.943
      -1.963
      -1.916
      -1.767
      -1.525
      -1.230
      -0.926
      -0.643
      -0.392
      -0.176
       0.002
       0.136
       0.215
       0.231
       0.192
       0.120
       0.054
       0.030
       0.077
       0.209
       0.435
       0.744
       1.099
       1.441
       1.702
       1.831
       1.806
       1.635
       1.370
       1.096
       0.908
       0.870
       0.984
       1.190
       1.399
       1.519
       1.483
       1.257
       0.844
       0.294
      -0.303
      -0.846
      -1.261
      -1.523
      -1.647
      -1.655
      -1.555
      -1.351
      -1.062
      -0.735
      -0.431
      -0.210
      -0.101
      -0.099
      -0.177
      -0.305
      -0.457
      -0.598
      -0.683
      -0.666
      -0.528
      -0.288
       0.014
       0.336
       0.655
       0.956
       1.232
       1.470
       1.672
       1.847
       2.005
       2.145
       2.247
       2.298
       2.294
       2.237
       2.141
       2.022
       1.905
       1.808
       1.741
       1.695
       1.648
       1.568
       1.412
       1.150
       0.779
       0.335
      -0.132
      -0.584
      -0.999
      -1.371
      -1.695
      -1.961
      -2.148
      -2.242
      -2.249
      -2.197
      -2.133
      -2.103
      -2.137
      -2.236
      -2.364
      -2.463
      -2.474
      -2.370
      -2.159
      -1.879
      -1.577
      -1.302
      -1.098
      -1.001
      -1.038
      -1.205
      -1.464
      -1.735
      -1.916
      -1.925
      -1.737
      -1.394
      -0.985
      -0.598
      -0.288
      -0.073
       0.056
       0.130
       0.195
       0.312
       0.539
       0.917
       1.463
       2.170
       3.012
       3.938
       4.853
       5.629
       6.143
       6.320
       6.157
       5.712
       5.075
       4.340
       3.579
       2.821
       2.062
       1.289
       0.511
      -0.246
      -0.955
      -1.594
      -2.155
      -2.632
      -3.014
      -3.281
      -3.405
      -3.362
      -3.150
      -2.804
      -2.390
      -1.987
      -1.648
      -1.377
      -1.129
      -0.852
      -0.519
      -0.154
       0.170
       0.364
       0.364
       0.163
      -0.187
      -0.601
      -1.008
      -1.371
      -1.682
      -1.931
      -2.081
      -2.075
      -1.866
      -1.459
      -0.915
      -0.330
       0.197
       0.588
       0.799
       0.828
       0.709
       0.504
       0.277
       0.072
      -0.089
      -0.208
      -0.299
      -0.386
      -0.479
      -0.563
      -0.593
      -0.518
      -0.303
       0.050
       0.508
       1.014
       1.517
       1.988
       2.426
       2.843
       3.238
       3.571
       3.767
       3.751
       3.489
       3.004
       2.365
       1.652
       0.935
       0.255
      -0.361
      -0.889
      -1.295
      -1.541
      -1.590
      -1.421
      -1.035
      -0.464
       0.248
       1.053
       1.892
       2.675
       3.275
       3.555
       3.417
       2.840
       1.882
       0.657
      -0.691
      -2.010
      -3.151
      -3.980
      -4.390
      -4.327
      -3.805
      -2.902
      -1.752
      -0.527
       0.587
       1.427
       1.908
       2.051
       1.984
       1.893
       1.947
       2.225
       2.672
       3.113
       3.335
       3.175
       2.572
       1.564
       0.251
      -1.244
      -2.796
      -4.283
      -5.578
      -6.561
      -7.148
      -7.318
      -7.120
      -6.647
      -5.999
      -5.270
      -4.547
      -3.918
      -3.450
      -3.164
      -3.013
      -2.891
      -2.683
      -2.323
      -1.826
      -1.276
      -0.775
      -0.395
      -0.167
      -0.086
      -0.132
      -0.266
      -0.430
      -0.558
      -0.598
      -0.530
      -0.371
      -0.165
       0.039
       0.204
       0.326
       0.438
       0.608
       0.910
       1.381
       1.988
       2.625
       3.161
       3.494
       3.575
       3.407
       3.046
       2.606
       2.259
       2.183
       2.489
       3.174
       4.134
       5.219
       6.289
       7.233
       7.967
       8.436
       8.613
       8.492
       8.067
       7.318
       6.241
       4.889
       3.394
       1.923
       0.599
      -0.530
      -1.484
      -2.292
      -2.958
      -3.446
      -3.716
      -3.746
      -3.551
      -3.175
      -2.677
      -2.113
      -1.537
      -0.992
      -0.518
      -0.139
       0.125
       0.257
       0.250
       0.132
      -0.035
      -0.170
      -0.224
      -0.204
      -0.158
      -0.145
      -0.212
      -0.391
      -0.696
      -1.114
      -1.592
      -2.050
      -2.419
      -2.667
      -2.803
      -2.856
      -2.853
      -2.816
      -2.762
      -2.717
      -2.710
      -2.762
      -2.876
      -3.023
      -3.148
      -3.193
      -3.117
      -2.920
      -2.653
      -2.401
      -2.246
      -2.234
      -2.359
      -2.565
      -2.774
      -2.912
      -2.932
      -2.827
      -2.621
      -2.363
      -2.114
      -1.942
      -1.909
      -2.042
      -2.302
      -2.588
      -2.788
      -2.854
      -2.848
      -2.903
      -3.142
      -3.582
      -4.099
      -4.475
      -4.484
      -4.000
      -3.031
      -1.704
      -0.198
       1.317
       2.710
       3.888
       4.789
       5.383
       5.690
       5.804
       5.885
       6.132
       6.705
       7.667
       8.947
      10.371
      11.713
      12.779
      13.443
      13.645
      13.363
      12.599
      11.386
       9.823
       8.069
       6.317
       4.745
       3.478
       2.565
       1.981
       1.646
       1.445
       1.259
       1.014
       0.696
       0.355
       0.054
      -0.164
      -0.309
      -0.429
      -0.579
      -0.780
      -1.005
      -1.189
      -1.257
      -1.157
      -0.873
      -0.424
       0.159
       0.839
       1.566
       2.247
       2.748
       2.929
       2.688
       2.004
       0.933
      -0.420
      -1.931
      -3.491
      -5.003
      -6.367
      -7.481
      -8.264
      -8.690
      -8.799
      -8.691
      -8.499
      -8.360
      -8.375
      -8.584
      -8.951
      -9.382
      -9.773
     -10.065
     -10.257
     -10.385
     -10.480
     -10.528
     -10.468
     -10.227
      -9.761
      -9.082
      -8.258
      -7.390
      -6.589
      -5.949
      -5.530
      -5.347
      -5.369
      -5.537
      -5.778
      -6.015
      -6.175
      -6.186
      -5.985
      -5.520
      -4.753
      -3.660
      -2.243
      -0.535
       1.388
       3.429
       5.487
       7.464
       9.273
      10.835
      12.087
      12.997
      13.573
      13.863
      13.944
      13.915
      13.875
      13.903
      14.034
      14.252
      14.497
      14.670
      14.645
      14.279
      13.449
      12.097
      10.261
       8.076
       5.750
       3.528
       1.627
       0.203
      -0.682
      -1.057
      -1.039
      -0.813
      -0.588
      -0.540
      -0.758
      -1.229
      -1.854
      -2.487
      -2.986
      -3.271
      -3.341
      -3.272
      -3.186
      -3.209
      -3.410
      -3.764
      -4.153
      -4.418
      -4.423
      -4.108
      -3.506
      -2.725
      -1.923
      -1.265
      -0.885
      -0.854
      -1.158
      -1.694
      -2.284
      -2.714
      -2.793
      -2.396
      -1.498
      -0.185
       1.342
       2.800
       3.885
       4.372
       4.179
       3.377
       2.139
       0.664
      -0.852
      -2.223
      -3.277
      -3.894
      -4.056
      -3.854
      -3.445
      -2.968
      -2.486
      -1.970
      -1.358
      -0.624
       0.195
       1.028
       1.814
       2.520
       3.117
       3.554
       3.768
       3.712
       3.385
       2.838
       2.162
       1.450
       0.756
       0.073
      -0.664
      -1.547
      -2.642
      -3.950
      -5.389
      -6.816
      -8.084
      -9.084
      -9.760
     -10.096
     -10.095
      -9.787
      -9.233
      -8.517
      -7.710
      -6.841
      -5.901
      -4.865
      -3.713
      -2.440
      -1.056
       0.417
       1.961
       3.573
       5.250
       6.954
       8.584
      10.012
      11.137
      11.918
      12.359
      12.463
      12.194
      11.484
      10.262
       8.480
       6.123
       3.223
      -0.113
      -3.647
      -7.009
      -9.784
     -11.664
     -12.550
     -12.552
     -11.884
     -10.758
      -9.335
      -7.736
      -6.067
      -4.423
      -2.862
      -1.361
       0.180
       1.870
       3.740
       5.707
       7.610
       9.266
      10.505
      11.164
      11.113
      10.285
       8.726
       6.630
       4.313
       2.136
       0.405
      -0.720
      -1.259
      -1.382
      -1.326
      -1.286
      -1.347
      -1.496
      -1.677
      -1.860
      -2.065
      -2.315
      -2.588
      -2.780
      -2.746
      -2.383
      -1.689
      -0.751
       0.300
       1.347
       2.295
       3.064
       3.578
       3.794
       3.734
       3.478
       3.081
       2.508
       1.669
       0.540
      -0.755
      -1.997
      -3.019
      -3.810
      -4.495
      -5.186
      -5.863
      -6.407
      -6.727
      -6.847
      -6.845
      -6.731
      -6.401
      -5.725
      -4.688
      -3.427
      -2.150
      -1.014
      -0.075
       0.673
       1.224
       1.559
       1.707
       1.801
       2.046
       2.590
       3.424
       4.412
       5.418
       6.401
       7.362
       8.235
       8.855
       9.065
       8.878
       8.506
       8.206
       8.078
       7.990
       7.701
       7.056
       6.102
       5.012
       3.931
       2.877
       1.775
       0.567
      -0.706
      -1.924
      -2.955
      -3.716
      -4.174
      -4.330
      -4.232
      -4.009
      -3.862
      -3.964
      -4.359
      -4.946
      -5.586
      -6.217
      -6.867
      -7.563
      -8.232
      -8.722
      -8.927
      -8.869
      -8.684
      -8.512
      -8.394
      -8.256
      -7.980
      -7.510
      -6.878
      -6.159
      -5.398
      -4.575
      -3.646
      -2.598
      -1.472
      -0.341
       0.738
       1.735
       2.620
       3.357
       3.947
       4.466
       5.040
       5.750
       6.564
       7.359
       8.016
       8.475
       8.712
       8.689
       8.345
       7.648
       6.659
       5.544
       4.520
       3.764
       3.338
       3.175
       3.129
       3.053
       2.852
       2.469
       1.863
       1.008
      -0.082
      -1.331
      -2.633
      -3.881
      -4.981
      -5.821
      -6.275
      -6.244
      -5.719
      -4.792
      -3.617
      -2.353
      -1.137
      -0.080
       0.727
       1.238
       1.466
       1.483
       1.388
       1.268
       1.177
       1.155
       1.242
       1.486
       1.913
       2.508
       3.211
       3.931
       4.566
       5.019
       5.206
       5.091
       4.710
       4.183
       3.668
       3.283
       3.040
       2.842
       2.548
       2.053
       1.330
       0.422
      -0.594
      -1.632
      -2.604
      -3.431
      -4.063
      -4.494
      -4.756
      -4.902
      -4.979
      -5.021
      -5.056
      -5.104
      -5.188
      -5.325
      -5.520
      -5.759
      -6.008
      -6.231
      -6.408
      -6.545
      -6.677
      -6.854
      -7.118
      -7.485
      -7.925
      -8.361
      -8.690
      -8.812
      -8.650
      -8.173
      -7.400
      -6.407
      -5.310
      -4.233
      -3.266
      -2.442
      -1.731
      -1.066
      -0.370
       0.414
       1.335
       2.448
       3.807
       5.418
       7.197
       8.973
      10.540
      11.747
      12.539
      12.955
      13.066
      12.933
      12.584
      12.037
      11.316
      10.447
       9.451
       8.324
       7.048
       5.612
       4.048
       2.451
       0.965
      -0.259
      -1.110
      -1.543
      -1.590
      -1.341
      -0.925
      -0.483
      -0.137
       0.044
       0.062
      -0.017
      -0.092
      -0.073
       0.079
       0.351
       0.684
       1.000
       1.223
       1.304
       1.240
       1.091
       0.955
       0.921
       1.020
       1.212
       1.418
       1.556
       1.566
       1.412
       1.079
       0.578
      -0.066
      -0.815
      -1.639
      -2.500
      -3.339
      -4.056
      -4.532
      -4.669
      -4.436
      -3.883
      -3.125
      -2.327
      -1.670
      -1.310
      -1.333
      -1.722
      -2.372
      -3.126
      -3.835
      -4.399
      -4.781
