Origin Time       11/5/2012 18:41:28	 UTC
Lat.              26.6 N	
Long.             93.0 E	
Depth (Km)         20.0
Magnitude         5.4
 Region           Assam                                                            
 Above details taken from IMD 
    
Station Code      JHR
Station Lat.       26.759  N
Station Long.      94.206  E
Station Height(m)   82.0
Site Class        C   Vs30 between 200 m/sec to 375 m/sec *  
Record Time       11.05.2012 12:41:44.039 UTC
Sampling Rate     200. Hz
 Record Duration   81.480 Sec.
 Direction         N-S (N positive)
Max. Acceleration     -7.195 cm/sec**2
     
  * For reference see Site Classification link of website 
     
 Base Line Corrected and Low Pass Filtered (Cut Off at 35 Hz) Time History
 Acceleration data in cm/sec**2
    
[...]
       0.032
       0.052
       0.077
       0.118
       0.186
       0.282
       0.392
       0.492
       0.551
       0.550
       0.483
       0.363
       0.216
       0.071
      -0.048
      -0.137
      -0.209
      -0.280
      -0.356
      -0.427
      -0.477
      -0.492
      -0.466
      -0.403
      -0.315
      -0.222
      -0.148
      -0.111
      -0.114
      -0.138
      -0.153
      -0.141
      -0.101
      -0.048
       0.000
       0.036
       0.068
       0.110
       0.172
       0.244
       0.303
       0.328
       0.315
       0.277
       0.231
       0.183
       0.132
       0.076
       0.023
      -0.015
      -0.030
      -0.032
      -0.035
      -0.053
      -0.089
      -0.135
      -0.176
      -0.199
      -0.191
      -0.150
      -0.086
      -0.026
      -0.003
      -0.036
      -0.114
      -0.194
      -0.224
      -0.174
      -0.054
       0.089
       0.191
       0.213
       0.151
       0.045
      -0.054
      -0.110
      -0.118
      -0.094
      -0.060
      -0.035
      -0.029
      -0.042
      -0.063
      -0.071
      -0.058
      -0.034
      -0.027
      -0.051
      -0.097
      -0.128
      -0.113
      -0.043
       0.062
       0.173
       0.259
       0.304
       0.306
       0.278
       0.238
       0.201
       0.173
       0.152
       0.125
       0.082
       0.027
      -0.022
      -0.047
      -0.048
      -0.045
      -0.061
      -0.102
      -0.158
      -0.206
      -0.231
      -0.233
      -0.227
      -0.221
      -0.216
      -0.208
      -0.193
      -0.162
      -0.100
       0.002
       0.135
       0.273
       0.378
       0.430
       0.427
       0.395
       0.360
       0.333
       0.299
       0.241
       0.157
       0.066
      -0.008
      -0.056
      -0.089
      -0.128
      -0.186
      -0.254
      -0.302
      -0.301
      -0.244
      -0.159
      -0.086
      -0.058
      -0.087
      -0.160
      -0.243
      -0.296
      -0.292
      -0.234
      -0.151
      -0.074
      -0.015
       0.036
       0.094
       0.159
       0.214
       0.234
       0.202
       0.119
       0.003
      -0.119
      -0.212
      -0.247
      -0.218
      -0.145
      -0.056
       0.022
       0.078
       0.113
       0.132
       0.146
       0.160
       0.176
       0.194
       0.219
       0.259
       0.314
       0.368
       0.389
       0.350
       0.239
       0.082
      -0.067
      -0.159
      -0.170
      -0.114
      -0.020
       0.079
       0.163
       0.219
       0.247
       0.249
       0.230
       0.190
       0.130
       0.055
      -0.019
      -0.071
      -0.091
      -0.085
      -0.077
      -0.085
      -0.113
      -0.142
      -0.150
      -0.123
      -0.069
      -0.015
       0.014
       0.007
      -0.028
      -0.074
      -0.123
      -0.174
      -0.225
      -0.269
      -0.292
      -0.287
      -0.266
      -0.246
      -0.244
      -0.255
      -0.266
      -0.273
      -0.285
      -0.301
      -0.295
      -0.235
      -0.110
       0.050
       0.191
       0.272
       0.281
       0.237
       0.170
       0.103
       0.051
       0.022
       0.019
       0.038
       0.069
       0.097
       0.111
       0.102
       0.067
       0.005
      -0.085
      -0.192
      -0.292
      -0.345
      -0.317
      -0.198
      -0.017
       0.173
       0.314
       0.373
       0.356
       0.299
       0.249
       0.236
       0.265
       0.316
       0.356
       0.355
       0.297
       0.194
       0.078
      -0.008
      -0.036
      -0.008
       0.044
       0.076
       0.065
       0.024
      -0.012
      -0.016
       0.005
       0.020
      -0.004
      -0.080
      -0.199
      -0.333
      -0.456
      -0.544
      -0.575
      -0.536
      -0.435
      -0.298
      -0.159
      -0.037
       0.070
       0.164
       0.236
       0.268
       0.254
       0.203
       0.136
       0.082
       0.064
       0.090
       0.145
       0.192
       0.198
       0.154
       0.078
       0.003
      -0.047
      -0.067
      -0.067
      -0.061
      -0.060
      -0.065
      -0.072
      -0.077
      -0.084
      -0.093
      -0.098
      -0.080
      -0.032
       0.029
       0.067
       0.052
      -0.014
      -0.098
      -0.159
      -0.170
      -0.134
      -0.077
      -0.027
       0.001
       0.004
      -0.008
      -0.019
      -0.016
       0.008
       0.046
       0.082
       0.104
       0.112
       0.117
       0.128
       0.143
       0.152
       0.135
       0.075
      -0.028
      -0.152
      -0.265
      -0.339
      -0.366
      -0.355
      -0.323
      -0.279
      -0.222
      -0.136
      -0.011
       0.144
       0.294
       0.388
       0.385
       0.279
       0.100
      -0.089
      -0.229
      -0.287
      -0.266
      -0.201
      -0.133
      -0.081
      -0.038
       0.017
       0.096
       0.193
       0.295
       0.389
       0.459
       0.483
       0.438
       0.323
       0.159
      -0.011
      -0.146
      -0.214
      -0.203
      -0.127
      -0.020
       0.069
       0.105
       0.092
       0.064
       0.056
       0.070
       0.069
       0.016
      -0.092
      -0.216
      -0.304
      -0.326
      -0.296
      -0.246
      -0.202
      -0.162
      -0.112
      -0.049
       0.009
       0.037
       0.021
      -0.039
      -0.126
      -0.209
      -0.249
      -0.215
      -0.102
       0.063
       0.229
       0.338
       0.356
       0.287
       0.173
       0.067
      -0.002
      -0.033
      -0.038
      -0.029
      -0.007
       0.036
       0.112
       0.224
       0.354
       0.458
       0.489
       0.424
       0.287
       0.129
      -0.008
      -0.118
      -0.215
      -0.304
      -0.367
      -0.375
      -0.317
      -0.200
      -0.048
       0.109
       0.239
       0.315
       0.331
       0.301
       0.249
       0.186
       0.107
       0.003
      -0.121
      -0.235
      -0.303
      -0.306
      -0.250
      -0.156
      -0.048
       0.053
       0.122
       0.138
       0.085
      -0.037
      -0.205
      -0.364
      -0.451
      -0.428
      -0.313
      -0.161
      -0.036
       0.028
       0.035
       0.016
       0.010
       0.034
       0.085
       0.139
       0.171
       0.171
       0.145
       0.113
       0.098
       0.110
       0.135
       0.144
       0.116
       0.063
       0.023
       0.027
       0.075
       0.127
       0.128
       0.042
      -0.122
      -0.308
      -0.442
      -0.471
      -0.380
      -0.204
      -0.005
       0.154
       0.240
       0.255
       0.215
       0.143
       0.072
       0.037
       0.070
       0.170
       0.308
       0.437
       0.511
       0.503
       0.408
       0.245
       0.056
      -0.113
      -0.225
      -0.276
      -0.284
      -0.273
      -0.252
      -0.215
      -0.158
      -0.086
      -0.009
       0.076
       0.175
       0.273
       0.328
       0.293
       0.157
      -0.047
      -0.261
      -0.436
      -0.556
      -0.622
      -0.625
      -0.541
      -0.344
      -0.044
       0.300
       0.603
       0.786
       0.818
       0.724
       0.552
       0.348
       0.137
      -0.060
      -0.223
      -0.345
      -0.432
      -0.496
      -0.530
      -0.507
      -0.398
      -0.201
       0.041
       0.242
       0.322
       0.252
       0.075
      -0.122
      -0.259
      -0.301
      -0.257
      -0.165
      -0.077
      -0.033
      -0.042
      -0.081
      -0.113
      -0.114
      -0.091
      -0.061
      -0.036
      -0.011
       0.021
       0.051
       0.049
      -0.013
      -0.130
      -0.262
      -0.350
      -0.353
      -0.272
      -0.143
      -0.011
       0.092
       0.156
       0.185
       0.193
       0.206
       0.241
       0.289
       0.313
       0.266
       0.123
      -0.104
      -0.370
      -0.616
      -0.789
      -0.871
      -0.888
      -0.894
      -0.935
      -1.015
      -1.099
      -1.142
      -1.125
      -1.062
      -0.993
      -0.957
      -0.973
      -1.034
      -1.104
      -1.141
      -1.117
      -1.044
      -0.966
      -0.919
      -0.901
      -0.856
      -0.721
      -0.477
      -0.168
       0.120
       0.319
       0.416
       0.449
       0.478
       0.552
       0.686
       0.863
       1.046
       1.205
       1.332
       1.441
       1.541
       1.616
       1.622
       1.514
       1.279
       0.948
       0.587
       0.272
       0.057
      -0.045
      -0.066
      -0.058
      -0.072
      -0.132
      -0.228
      -0.331
      -0.407
      -0.442
      -0.448
      -0.458
      -0.493
      -0.546
      -0.592
      -0.612
      -0.613
      -0.601
      -0.560
      -0.446
      -0.220
       0.118
       0.520
       0.910
       1.229
       1.445
       1.565
       1.605
       1.578
       1.483
       1.317
       1.092
       0.840
       0.594
       0.378
       0.197
       0.053
      -0.059
      -0.144
      -0.212
      -0.280
      -0.356
      -0.442
      -0.544
      -0.670
      -0.827
      -1.003
      -1.175
      -1.328
      -1.462
      -1.579
      -1.668
      -1.704
      -1.660
      -1.522
      -1.308
      -1.051
      -0.779
      -0.491
      -0.167
       0.201
       0.585
       0.937
       1.217
       1.412
       1.528
       1.573
       1.556
       1.488
       1.387
       1.273
       1.167
       1.081
       1.014
       0.949
       0.870
       0.777
       0.688
       0.623
       0.575
       0.511
       0.391
       0.198
      -0.044
      -0.291
      -0.495
      -0.617
      -0.634
      -0.546
      -0.383
      -0.198
      -0.050
       0.025
       0.030
       0.009
       0.014
       0.076
       0.187
       0.317
       0.438
       0.539
       0.624
       0.694
       0.742
       0.749
       0.688
       0.536
       0.302
       0.041
      -0.165
      -0.256
      -0.246
      -0.210
      -0.243
      -0.393
      -0.635
      -0.890
      -1.076
      -1.139
      -1.075
      -0.916
      -0.703
      -0.469
      -0.231
      -0.002
       0.209
       0.397
       0.565
       0.711
       0.808
       0.814
       0.700
       0.474
       0.178
      -0.124
      -0.380
      -0.571
      -0.716
      -0.846
      -0.970
      -1.065
      -1.088
      -1.005
      -0.822
      -0.592
      -0.397
      -0.308
      -0.363
      -0.562
      -0.881
      -1.291
      -1.762
      -2.251
      -2.684
      -2.968
      -3.013
      -2.773
      -2.259
      -1.539
      -0.717
       0.094
       0.793
       1.327
       1.689
       1.895
       1.958
       1.879
       1.680
       1.420
       1.184
       1.048
       1.048
       1.189
       1.451
       1.811
       2.230
       2.659
       3.050
       3.372
       3.620
       3.781
       3.809
       3.622
       3.137
       2.322
       1.232
       0.001
      -1.198
      -2.219
      -2.984
      -3.492
      -3.787
      -3.913
      -3.890
      -3.723
      -3.425
      -3.036
      -2.625
      -2.254
      -1.956
      -1.719
      -1.516
      -1.322
      -1.119
      -0.888
      -0.592
      -0.192
       0.329
       0.949
       1.617
       2.278
       2.891
       3.420
       3.826
       4.066
       4.118
       4.006
       3.791
       3.538
       3.279
       2.999
       2.654
       2.192
       1.600
       0.913
       0.202
      -0.474
      -1.102
      -1.704
      -2.294
      -2.840
      -3.275
      -3.536
      -3.600
      -3.490
      -3.256
      -2.957
      -2.636
      -2.304
      -1.939
      -1.500
      -0.941
      -0.248
       0.544
       1.355
       2.086
       2.658
       3.028
       3.192
       3.184
       3.066
       2.916
       2.789
       2.696
       2.592
       2.401
       2.058
       1.542
       0.880
       0.132
      -0.636
      -1.362
      -1.989
      -2.469
      -2.776
      -2.920
      -2.948
      -2.914
      -2.846
      -2.730
      -2.535
      -2.253
      -1.913
      -1.552
      -1.170
      -0.720
      -0.146
       0.574
       1.405
       2.272
       3.107
       3.862
       4.503
       4.982
       5.239
       5.237
       4.988
       4.543
       3.942
       3.190
       2.284
       1.263
       0.243
      -0.623
      -1.207
      -1.479
      -1.520
      -1.486
      -1.531
      -1.733
      -2.076
      -2.487
      -2.873
      -3.155
      -3.278
      -3.210
      -2.945
      -2.521
      -2.027
      -1.582
      -1.271
      -1.110
      -1.060
      -1.086
      -1.173
      -1.315
      -1.483
      -1.609
      -1.614
      -1.455
      -1.159
      -0.802
      -0.455
      -0.143
       0.147
       0.431
       0.715
       0.998
       1.297
       1.632
       2.011
       2.406
       2.753
       2.971
       2.990
       2.767
       2.298
       1.626
       0.852
       0.111
      -0.464
      -0.803
      -0.920
      -0.897
      -0.833
      -0.787
      -0.763
      -0.717
      -0.612
      -0.445
      -0.253
      -0.079
       0.056
       0.166
       0.293
       0.488
       0.798
       1.236
       1.746
       2.200
       2.440
       2.364
       1.974
       1.390
       0.785
       0.314
       0.066
       0.053
       0.228
       0.493
       0.719
       0.773
       0.561
       0.054
      -0.728
      -1.744
      -2.943
      -4.237
      -5.485
      -6.497
      -7.096
      -7.195
      -6.829
      -6.139
      -5.290
      -4.399
      -3.516
      -2.639
      -1.764
      -0.898
      -0.066
       0.708
       1.413
       2.046
       2.592
       3.017
       3.263
       3.286
       3.087
       2.725
       2.305
       1.914
       1.583
       1.263
       0.876
       0.380
      -0.188
      -0.710
      -1.045
      -1.082
      -0.782
      -0.197
       0.534
       1.221
       1.677
       1.782
       1.537
       1.061
       0.537
       0.136
      -0.057
      -0.066
       0.015
       0.090
       0.126
       0.170
       0.322
       0.680
       1.294
       2.126
       3.049
       3.866
       4.380
       4.482
       4.200
       3.675
       3.072
       2.478
       1.870
       1.147
       0.223
      -0.909
      -2.164
      -3.407
      -4.502
      -5.347
      -5.871
      -6.035
      -5.831
      -5.293
      -4.497
      -3.541
      -2.510
      -1.457
      -0.416
       0.572
       1.439
       2.103
       2.498
       2.604
       2.438
       2.049
       1.509
       0.918
       0.390
       0.030
      -0.097
       0.026
       0.373
       0.891
       1.520
       2.198
       2.850
       3.399
       3.773
       3.925
       3.835
       3.493
       2.893
       2.037
       0.956
      -0.287
      -1.603
      -2.894
      -4.069
      -5.053
      -5.783
      -6.191
      -6.206
      -5.786
      -4.964
      -3.867
      -2.692
      -1.646
      -0.869
      -0.394
      -0.141
       0.029
       0.243
       0.554
       0.925
       1.264
       1.484
       1.550
       1.500
       1.424
       1.427
       1.587
       1.925
       2.386
       2.859
       3.230
       3.430
       3.433
       3.240
       2.863
       2.340
       1.754
       1.211
       0.797
       0.523
       0.327
       0.116
      -0.161
      -0.483
      -0.786
      -1.024
      -1.211
      -1.418
      -1.746
      -2.264
      -2.954
      -3.676
      -4.207
      -4.327
      -3.915
      -3.011
      -1.800
      -0.544
       0.508
       1.193
       1.459
       1.354
       0.997
       0.538
       0.119
      -0.145
      -0.180
       0.031
       0.436
       0.934
       1.416
       1.805
       2.062
       2.166
       2.087
       1.794
       1.276
       0.568
      -0.253
      -1.076
      -1.773
      -2.215
      -2.305
      -2.030
      -1.503
      -0.940
      -0.569
      -0.513
      -0.747
      -1.128
      -1.480
      -1.666
      -1.625
      -1.386
      -1.048
      -0.734
      -0.532
      -0.446
      -0.401
      -0.302
      -0.095
       0.192
       0.469
       0.643
       0.677
       0.613
       0.545
       0.567
       0.728
       0.995
       1.265
       1.402
       1.302
       0.951
       0.444
      -0.054
      -0.371
      -0.400
      -0.135
       0.329
       0.834
       1.232
       1.446
       1.493
       1.446
       1.370
       1.288
       1.191
       1.075
       0.951
       0.828
       0.687
       0.489
       0.213
      -0.105
      -0.386
      -0.575
      -0.689
      -0.807
      -1.006
      -1.305
      -1.653
      -1.958
      -2.137
      -2.151
      -2.030
      -1.851
      -1.708
      -1.664
      -1.725
      -1.843
      -1.937
      -1.935
      -1.780
      -1.422
      -0.833
      -0.033
       0.878
       1.739
       2.390
       2.738
       2.801
       2.698
       2.582
       2.549
       2.578
       2.564
       2.399
       2.060
       1.620
       1.193
       0.856
       0.607
       0.383
       0.107
      -0.255
      -0.670
      -1.054
      -1.312
      -1.387
      -1.301
      -1.160
      -1.108
      -1.249
      -1.570
      -1.941
      -2.178
      -2.151
      -1.851
      -1.376
      -0.860
      -0.407
      -0.069
       0.145
       0.252
       0.298
       0.350
       0.477
       0.716
       1.046
       1.400
       1.701
       1.896
       1.972
       1.926
       1.752
       1.450
       1.054
       0.641
       0.296
       0.074
      -0.027
      -0.040
       0.014
       0.140
       0.345
       0.590
       0.789
       0.845
       0.705
       0.376
      -0.089
      -0.618
      -1.126
      -1.539
      -1.811
      -1.953
      -2.013
      -2.034
      -2.022
      -1.935
      -1.714
      -1.318
      -0.751
      -0.063
       0.649
       1.259
       1.636
       1.691
       1.424
       0.921
       0.313
      -0.273
      -0.740
      -1.027
      -1.130
      -1.103
      -1.032
      -0.976
      -0.926
      -0.817
      -0.590
      -0.240
       0.175
       0.570
       0.854
       0.943
       0.780
       0.372
      -0.186
      -0.725
      -1.068
      -1.098
      -0.796
      -0.219
       0.542
       1.393
       2.217
       2.853
       3.110
       2.859
       2.123
       1.100
       0.087
      -0.656
      -1.005
      -0.998
      -0.767
      -0.460
      -0.175
       0.029
       0.111
       0.033
      -0.218
      -0.605
      -1.034
      -1.386
      -1.555
      -1.484
      -1.183
      -0.728
      -0.226
       0.217
       0.529
       0.693
       0.737
       0.698
       0.590
       0.401
       0.126
      -0.193
      -0.478
      -0.649
      -0.678
      -0.593
      -0.449
      -0.288
      -0.133
      -0.016
       0.009
      -0.101
      -0.329
      -0.587
      -0.767
      -0.813
      -0.743
      -0.609
      -0.447
      -0.264
      -0.066
       0.105
       0.188
       0.156
       0.050
      -0.055
      -0.108
      -0.101
      -0.050
       0.044
       0.201
       0.443
       0.769
       1.150
       1.547
       1.914
       2.196
       2.324
       2.241
       1.923
       1.401
       0.749
       0.071
      -0.518
      -0.917
