Origin Time       1/7/2012 04:13:52	 
Lat.              25.7 N	
Long.             94.6 E	
Depth (Km)         50.0
Magnitude         5.8
 Region           Phek-Nagaland                                                    
 Above details taken from IMD 
   
Station Code      JHR
Station Lat.       26.759
Station Long.      94.206
Station Height(m)   94.0
Site Class        C   Vs30 between 200 m/sec to 375 m/sec *  
Record Time       01.07.2012 04:14:00.764
Sampling Rate     200. Hz
 Record Duration   97.290 Sec.
 Direction         Vert. (Up positive)
Max. Acceleration    -10.267 cm/sec**2
     
  * For reference see Site Classification link of website 
     
 Base Line Corrected and Low Pass Filtered (Cut Off at 35 Hz) Time History
 Acceleration data in cm/sec**2
    
[...]
      -0.599
      -0.316
      -0.026
       0.216
       0.352
       0.332
       0.145
      -0.172
      -0.538
      -0.846
      -0.996
      -0.923
      -0.641
      -0.265
       0.008
      -0.009
      -0.387
      -1.019
      -1.655
      -2.006
      -1.883
      -1.308
      -0.524
       0.139
       0.450
       0.407
       0.197
       0.040
       0.053
       0.207
       0.396
       0.535
       0.611
       0.656
       0.687
       0.690
       0.657
       0.611
       0.587
       0.575
       0.497
       0.265
      -0.133
      -0.572
      -0.840
      -0.751
      -0.263
       0.494
       1.301
       1.953
       2.344
       2.475
       2.408
       2.198
       1.866
       1.421
       0.890
       0.316
      -0.281
      -0.899
      -1.499
      -1.966
      -2.135
      -1.900
      -1.300
      -0.531
       0.137
       0.477
       0.411
       0.046
      -0.395
      -0.703
      -0.792
      -0.723
      -0.651
      -0.735
      -1.033
      -1.447
      -1.761
      -1.794
      -1.530
      -1.111
      -0.723
      -0.476
      -0.370
      -0.322
      -0.218
       0.041
       0.479
       1.024
       1.534
       1.861
       1.915
       1.700
       1.308
       0.890
       0.602
       0.548
       0.713
       0.965
       1.117
       1.033
       0.704
       0.225
      -0.276
      -0.709
      -1.049
      -1.305
      -1.480
      -1.549
      -1.472
      -1.230
      -0.849
      -0.391
       0.060
       0.406
       0.537
       0.372
      -0.097
      -0.782
      -1.513
      -2.086
      -2.343
      -2.238
      -1.850
      -1.328
      -0.785
      -0.246
       0.314
       0.881
       1.350
       1.586
       1.535
       1.277
       0.962
       0.714
       0.586
       0.587
       0.710
       0.924
       1.146
       1.252
       1.134
       0.776
       0.293
      -0.114
      -0.267
      -0.110
       0.268
       0.703
       1.049
       1.220
       1.194
       0.994
       0.687
       0.371
       0.121
      -0.056
      -0.214
      -0.408
      -0.634
      -0.819
      -0.873
      -0.750
      -0.488
      -0.169
       0.138
       0.405
       0.613
       0.729
       0.716
       0.572
       0.350
       0.134
       0.002
      -0.013
       0.063
       0.166
       0.242
       0.286
       0.337
       0.424
       0.521
       0.554
       0.466
       0.267
       0.015
      -0.241
      -0.493
      -0.758
      -1.024
      -1.246
      -1.363
      -1.331
      -1.138
      -0.805
      -0.381
       0.073
       0.508
       0.893
       1.209
       1.407
       1.390
       1.048
       0.366
      -0.496
      -1.258
      -1.691
      -1.736
      -1.494
      -1.124
      -0.749
      -0.431
      -0.158
       0.135
       0.482
       0.796
       0.892
       0.642
       0.134
      -0.354
      -0.548
      -0.385
      -0.052
       0.161
       0.050
      -0.384
      -0.984
      -1.552
      -1.961
      -2.157
      -2.103
      -1.746
      -1.059
      -0.104
       0.949
       1.852
       2.358
       2.303
       1.715
       0.860
       0.141
      -0.103
       0.223
       0.942
       1.706
       2.147
       2.035
       1.388
       0.457
      -0.426
      -1.052
      -1.413
      -1.606
      -1.677
      -1.549
      -1.114
      -0.381
       0.449
       1.050
       1.131
       0.592
      -0.431
      -1.636
      -2.692
      -3.363
      -3.549
      -3.250
      -2.511
      -1.442
      -0.255
       0.758
       1.349
       1.458
       1.256
       1.029
       1.014
       1.299
       1.814
       2.393
       2.856
       3.072
       2.988
       2.622
       2.050
       1.388
       0.759
       0.261
      -0.057
      -0.185
      -0.139
       0.052
       0.328
       0.559
       0.541
       0.072
      -0.920
      -2.278
      -3.638
      -4.570
      -4.762
      -4.167
      -3.032
      -1.782
      -0.816
      -0.321
      -0.227
      -0.310
      -0.360
      -0.284
      -0.102
       0.128
       0.393
       0.725
       1.174
       1.751
       2.400
       2.975
       3.265
       3.090
       2.429
       1.484
       0.572
      -0.076
      -0.437
      -0.623
      -0.713
      -0.676
      -0.444
      -0.037
       0.394
       0.638
       0.552
       0.143
      -0.436
      -0.969
      -1.285
      -1.321
      -1.125
      -0.815
      -0.504
      -0.236
       0.029
       0.359
       0.765
       1.153
       1.394
       1.415
       1.256
       1.030
       0.838
       0.700
       0.564
       0.367
       0.115
      -0.106
      -0.202
      -0.140
       0.043
       0.285
       0.523
       0.688
       0.723
       0.620
       0.439
       0.264
       0.115
      -0.070
      -0.387
      -0.879
      -1.504
      -2.141
      -2.639
      -2.868
      -2.763
      -2.350
      -1.724
      -1.004
      -0.305
       0.251
       0.533
       0.455
       0.055
      -0.487
      -0.936
      -1.117
      -0.968
      -0.510
       0.182
       0.981
       1.702
       2.162
       2.273
       2.079
       1.701
       1.251
       0.801
       0.403
       0.099
      -0.081
      -0.127
      -0.061
       0.060
       0.154
       0.142
      -0.019
      -0.328
      -0.742
      -1.178
      -1.515
      -1.638
      -1.508
      -1.201
      -0.875
      -0.682
      -0.691
      -0.870
      -1.109
      -1.272
      -1.248
      -0.993
      -0.519
       0.128
       0.890
       1.667
       2.279
       2.493
       2.123
       1.172
      -0.101
      -1.268
      -1.927
      -1.922
      -1.414
      -0.757
      -0.267
      -0.051
      -0.010
       0.016
       0.101
       0.205
       0.251
       0.218
       0.163
       0.180
       0.358
       0.750
       1.339
       2.024
       2.652
       3.083
       3.235
       3.087
       2.686
       2.148
       1.624
       1.233
       0.991
       0.818
       0.589
       0.201
      -0.377
      -1.087
      -1.800
      -2.373
      -2.695
      -2.708
      -2.405
      -1.839
      -1.139
      -0.458
       0.113
       0.561
       0.890
       1.043
       0.949
       0.611
       0.143
      -0.277
      -0.478
      -0.355
       0.084
       0.707
       1.298
       1.650
       1.631
       1.202
       0.429
      -0.516
      -1.364
      -1.833
      -1.747
      -1.134
      -0.211
       0.715
       1.373
       1.602
       1.339
       0.610
      -0.474
      -1.708
      -2.854
      -3.716
      -4.194
      -4.271
      -3.981
      -3.409
      -2.688
      -1.971
      -1.384
      -1.005
      -0.870
      -0.970
      -1.220
      -1.462
      -1.528
      -1.321
      -0.821
      -0.050
       0.924
       1.948
       2.783
       3.215
       3.188
       2.854
       2.486
       2.339
       2.520
       2.956
       3.461
       3.857
       4.061
       4.056
       3.828
       3.327
       2.528
       1.503
       0.446
      -0.395
      -0.830
      -0.818
      -0.499
      -0.137
       0.003
      -0.221
      -0.771
      -1.480
      -2.180
      -2.782
      -3.262
      -3.574
      -3.621
      -3.320
      -2.697
      -1.920
      -1.217
      -0.776
      -0.682
      -0.905
      -1.322
      -1.769
      -2.100
      -2.228
      -2.121
      -1.774
      -1.179
      -0.339
       0.706
       1.845
       2.908
       3.700
       4.079
       4.027
       3.669
       3.212
       2.849
       2.665
       2.611
       2.541
       2.302
       1.837
       1.232
       0.666
       0.291
       0.132
       0.064
      -0.095
      -0.445
      -0.928
      -1.374
      -1.644
      -1.730
      -1.732
      -1.750
      -1.792
      -1.786
      -1.628
      -1.239
      -0.609
       0.154
       0.824
       1.145
       0.969
       0.346
      -0.517
      -1.373
      -2.050
      -2.489
      -2.702
      -2.688
      -2.379
      -1.681
      -0.586
       0.743
       2.003
       2.865
       3.117
       2.777
       2.114
       1.503
       1.176
       1.078
       0.964
       0.676
       0.314
       0.153
       0.406
       1.050
       1.835
       2.431
       2.604
       2.316
       1.719
       1.041
       0.463
       0.048
      -0.251
      -0.538
      -0.903
      -1.363
      -1.847
      -2.251
      -2.488
      -2.514
      -2.323
      -1.965
      -1.547
      -1.175
      -0.860
      -0.516
      -0.045
       0.540
       1.087
       1.399
       1.357
       0.973
       0.345
      -0.415
      -1.211
      -1.927
      -2.411
      -2.528
      -2.248
      -1.671
      -0.962
      -0.269
       0.284
       0.571
       0.478
      -0.030
      -0.827
      -1.630
      -2.118
      -2.072
      -1.456
      -0.390
       0.916
       2.208
       3.215
       3.709
       3.577
       2.830
       1.563
      -0.074
      -1.842
      -3.392
      -4.344
      -4.444
      -3.699
      -2.364
      -0.822
       0.572
       1.580
       2.126
       2.282
       2.192
       1.975
       1.679
       1.337
       1.033
       0.899
       1.032
       1.391
       1.772
       1.864
       1.375
       0.189
      -1.526
      -3.336
      -4.715
      -5.294
      -5.013
      -4.106
      -2.939
      -1.842
      -1.004
      -0.452
      -0.085
       0.226
       0.544
       0.846
       1.096
       1.326
       1.636
       2.122
       2.789
       3.517
       4.103
       4.360
       4.215
       3.742
       3.105
       2.457
       1.882
       1.400
       1.013
       0.720
       0.496
       0.277
      -0.029
      -0.496
      -1.152
      -1.977
      -2.891
      -3.730
      -4.273
      -4.331
      -3.849
      -2.928
      -1.775
      -0.620
       0.331
       0.938
       1.159
       1.059
       0.785
       0.519
       0.417
       0.555
       0.900
       1.317
       1.654
       1.830
       1.847
       1.721
       1.402
       0.804
      -0.074
      -1.032
      -1.716
      -1.824
      -1.331
      -0.531
       0.133
       0.333
       0.005
      -0.660
      -1.352
      -1.806
      -1.915
      -1.743
      -1.421
      -0.999
      -0.393
       0.496
       1.601
       2.630
       3.213
       3.132
       2.458
       1.509
       0.685
       0.288
       0.384
       0.782
       1.149
       1.198
       0.836
       0.164
      -0.635
      -1.414
      -2.105
      -2.697
      -3.177
      -3.507
      -3.654
      -3.642
      -3.569
      -3.544
      -3.606
      -3.693
      -3.684
      -3.479
      -3.060
      -2.497
      -1.901
      -1.329
      -0.725
       0.059
       1.150
       2.536
       4.038
       5.345
       6.107
       6.062
       5.154
       3.596
       1.797
       0.211
      -0.818
      -1.141
      -0.830
      -0.106
       0.800
       1.779
       2.855
       4.051
       5.230
       6.067
       6.199
       5.457
       4.004
       2.287
       0.824
      -0.036
      -0.264
      -0.121
      -0.011
      -0.271
      -1.035
      -2.192
      -3.444
      -4.434
      -4.885
      -4.722
      -4.072
      -3.162
      -2.196
      -1.311
      -0.611
      -0.206
      -0.187
      -0.556
      -1.163
      -1.720
      -1.936
      -1.677
      -1.068
      -0.432
      -0.115
      -0.296
      -0.885
      -1.571
      -2.006
      -2.021
      -1.698
      -1.253
      -0.852
      -0.533
      -0.246
       0.070
       0.448
       0.875
       1.268
       1.475
       1.359
       0.915
       0.332
      -0.100
      -0.160
       0.183
       0.785
       1.453
       2.045
       2.479
       2.678
       2.549
       2.051
       1.246
       0.292
      -0.632
      -1.388
      -1.886
      -2.098
      -2.043
      -1.773
      -1.333
      -0.750
      -0.058
       0.661
       1.273
       1.640
       1.694
       1.475
       1.134
       0.871
       0.826
       0.982
       1.167
       1.183
       0.971
       0.637
       0.312
       0.034
      -0.236
      -0.499
      -0.675
      -0.686
      -0.547
      -0.389
      -0.396
      -0.686
      -1.226
      -1.832
      -2.294
      -2.535
      -2.664
      -2.846
      -3.109
      -3.294
      -3.193
      -2.740
      -2.071
      -1.401
      -0.871
      -0.470
      -0.113
       0.241
       0.554
       0.801
       1.037
       1.350
       1.761
       2.223
       2.701
       3.213
       3.776
       4.345
       4.803
       5.026
       4.954
       4.621
       4.167
       3.797
       3.679
       3.857
       4.204
       4.420
       4.101
       2.915
       0.817
      -1.858
      -4.513
      -6.528
      -7.499
      -7.389
      -6.508
      -5.320
      -4.161
      -3.114
      -2.132
      -1.262
      -0.681
      -0.518
      -0.687
      -0.929
      -1.004
      -0.835
      -0.513
      -0.180
       0.088
       0.311
       0.523
       0.712
       0.815
       0.769
       0.531
       0.091
      -0.496
      -1.083
      -1.478
      -1.557
      -1.352
      -1.015
      -0.691
      -0.446
      -0.301
      -0.282
      -0.368
      -0.418
      -0.179
       0.537
       1.651
       2.778
       3.445
       3.390
       2.725
       1.866
       1.312
       1.397
       2.127
       3.191
       4.138
       4.592
       4.402
       3.638
       2.468
       1.016
      -0.677
      -2.621
      -4.781
      -6.981
      -8.871
     -10.048
     -10.267
      -9.574
      -8.264
      -6.700
      -5.171
      -3.845
      -2.759
      -1.818
      -0.839
       0.357
       1.847
       3.544
       5.179
       6.373
       6.798
       6.346
       5.156
       3.543
       1.899
       0.620
      -0.025
      -0.046
       0.241
       0.439
       0.374
       0.187
       0.111
       0.159
       0.061
      -0.473
      -1.421
      -2.370
      -2.766
      -2.290
      -1.033
       0.653
       2.428
       4.111
       5.622
       6.832
       7.524
       7.517
       6.868
       5.919
       5.052
       4.332
       3.403
       1.827
      -0.442
      -2.944
      -5.077
      -6.564
      -7.520
      -8.104
      -8.202
      -7.551
      -6.166
      -4.552
      -3.383
      -2.953
      -2.943
      -2.727
      -1.898
      -0.529
       1.022
       2.482
       3.835
       5.181
       6.496
       7.549
       8.074
       8.018
       7.608
       7.135
       6.628
       5.758
       4.106
       1.605
      -1.261
      -3.719
      -5.207
      -5.701
      -5.584
      -5.249
      -4.828
      -4.298
      -3.751
      -3.458
      -3.614
      -4.065
      -4.370
      -4.177
      -3.537
      -2.833
      -2.390
      -2.168
      -1.829
      -1.066
       0.112
       1.388
       2.395
       2.940
       2.982
       2.444
       1.195
      -0.693
      -2.698
      -4.005
      -4.048
      -2.947
      -1.374
       0.036
       1.151
       2.260
       3.565
       4.813
       5.439
       5.062
       3.861
       2.468
       1.488
       1.094
       1.006
       0.806
       0.288
      -0.434
      -1.079
      -1.469
      -1.654
      -1.805
      -1.994
      -2.121
      -2.023
      -1.617
      -0.887
       0.166
       1.460
       2.711
       3.524
       3.742
       3.705
       4.048
       5.128
       6.637
       7.803
       7.975
       7.054
       5.452
       3.717
       2.208
       1.006
       0.045
      -0.735
      -1.357
      -1.894
      -2.508
      -3.324
      -4.264
      -5.072
      -5.554
      -5.753
      -5.876
      -6.062
      -6.253
      -6.285
      -6.047
      -5.547
      -4.865
      -4.087
      -3.280
      -2.531
      -1.957
      -1.665
      -1.663
      -1.820
      -1.927
      -1.781
      -1.230
      -0.190
       1.324
       3.132
       4.908
       6.292
       7.067
       7.267
       7.160
       7.081
       7.220
       7.508
       7.701
       7.599
       7.180
       6.542
       5.734
       4.674
       3.225
       1.359
      -0.743
      -2.740
      -4.300
      -5.264
      -5.691
      -5.774
      -5.728
      -5.721
      -5.843
      -6.081
      -6.327
      -6.442
      -6.343
      -6.019
      -5.471
      -4.640
      -3.431
      -1.825
       0.009
       1.715
       2.908
       3.400
       3.305
       2.923
       2.511
       2.143
       1.759
       1.286
       0.686
      -0.068
      -0.996
      -2.039
      -3.017
      -3.691
      -3.898
      -3.634
      -3.017
      -2.185
      -1.217
      -0.140
       0.984
       2.000
       2.707
       2.987
       2.922
       2.777
       2.848
       3.255
       3.854
       4.358
       4.546
       4.377
       3.932
       3.277
       2.410
       1.331
       0.146
      -0.949
      -1.776
      -2.279
      -2.519
      -2.600
      -2.578
      -2.444
      -2.171
      -1.790
      -1.417
      -1.193
      -1.181
      -1.320
      -1.502
      -1.673
      -1.833
      -1.971
      -2.025
      -1.940
      -1.713
      -1.389
      -1.035
      -0.725
      -0.491
      -0.269
       0.094
       0.723
       1.609
       2.589
       3.430
       3.935
       4.039
       3.820
       3.432
       2.996
       2.558
       2.138
       1.809
       1.682
       1.818
       2.161
       2.526
       2.651
       2.303
       1.418
       0.173
      -1.087
      -2.064
      -2.655
      -2.912
      -2.908
      -2.681
      -2.291
      -1.865
      -1.560
      -1.464
      -1.552
      -1.742
      -1.977
      -2.227
      -2.409
      -2.357
      -1.935
      -1.178
      -0.305
       0.432
       0.916
       1.171
       1.268
       1.254
       1.166
       1.040
       0.898
       0.751
       0.624
       0.560
       0.572
       0.624
       0.664
       0.662
       0.619
       0.559
       0.535
       0.602
       0.758
       0.908
       0.917
       0.694
       0.224
      -0.438
      -1.183
      -1.861
      -2.331
      -2.533
      -2.504
      -2.321
      -2.047
      -1.718
      -1.378
      -1.077
      -0.822
      -0.542
      -0.122
       0.508
       1.297
       2.087
       2.704
       3.036
       3.067
       2.838
       2.408
       1.820
       1.098
       0.268
      -0.623
      -1.477
      -2.153
      -2.508
      -2.475
      -2.103
      -1.541
      -0.970
      -0.531
      -0.288
      -0.238
      -0.332
      -0.491
      -0.635
      -0.728
      -0.807
      -0.942
      -1.165
      -1.435
      -1.676
      -1.827
      -1.846
      -1.686
      -1.300
      -0.679
       0.116
       0.957
       1.697
       2.235
       2.559
       2.737
       2.854
       2.955
       3.038
       3.075
       3.025
       2.834
       2.463
       1.939
       1.372
       0.895
       0.563
       0.290
      -0.097
      -0.739
      -1.639
      -2.624
      -3.409
      -3.735
      -3.501
      -2.814
      -1.915
      -1.052
      -0.381
       0.047
       0.263
       0.333
       0.337
       0.346
       0.425
       0.628
       0.960
       1.334
       1.592
       1.618
       1.447
       1.247
       1.171
       1.208
       1.169
       0.833
       0.099
      -0.966
      -2.179
      -3.324
      -4.202
