Origin Time       14/7/2012 19:55:18	
Lat.              25.5 N	
Long.             94.2 E	
Depth (Km)         35.0
Magnitude         5.5
 Region           Kohima-Nagaland                                                  
 Above details taken from IMD 
     
Station Code      JHR
Station Lat.       26.759  N
Station Long.      94.206  E
Station Height(m)   94.0
Site Class        C   Vs30 between 200 m/sec to 375 m/sec *  
Record Time       14.07.2012 19:55:30.044
Sampling Rate     200. Hz
 Record Duration  128.870 Sec.
 Direction         E-W (E positive)
Max. Acceleration    -37.763 cm/sec**2
     
  * For reference see Site Classification link of website 
     
 Base Line Corrected and Low Pass Filtered (Cut Off at 35 Hz) Time History
 Acceleration data in cm/sec**2
    
[...]
      -0.033
       0.067
       0.173
       0.268
       0.350
       0.417
       0.455
       0.440
       0.364
       0.245
       0.130
       0.062
       0.056
       0.091
       0.131
       0.150
       0.152
       0.160
       0.189
       0.229
       0.255
       0.246
       0.196
       0.105
      -0.033
      -0.229
      -0.481
      -0.762
      -1.022
      -1.203
      -1.273
      -1.229
      -1.092
      -0.890
      -0.651
      -0.409
      -0.195
      -0.039
       0.049
       0.076
       0.064
       0.045
       0.049
       0.104
       0.226
       0.410
       0.633
       0.860
       1.058
       1.205
       1.292
       1.326
       1.320
       1.295
       1.258
       1.197
       1.089
       0.915
       0.688
       0.448
       0.244
       0.111
       0.047
       0.017
      -0.031
      -0.135
      -0.309
      -0.525
      -0.729
      -0.861
      -0.884
      -0.800
      -0.645
      -0.459
      -0.261
      -0.054
       0.157
       0.348
       0.488
       0.556
       0.554
       0.505
       0.422
       0.307
       0.152
      -0.033
      -0.219
      -0.373
      -0.467
      -0.488
      -0.429
      -0.285
      -0.067
       0.187
       0.400
       0.481
       0.370
       0.086
      -0.273
      -0.569
      -0.690
      -0.604
      -0.366
      -0.086
       0.121
       0.179
       0.071
      -0.164
      -0.452
      -0.710
      -0.874
      -0.927
      -0.891
      -0.799
      -0.673
      -0.517
      -0.336
      -0.154
      -0.012
       0.050
       0.016
      -0.087
      -0.208
      -0.298
      -0.335
      -0.331
      -0.321
      -0.333
      -0.373
      -0.420
      -0.448
      -0.452
      -0.449
      -0.450
      -0.441
      -0.386
      -0.265
      -0.100
       0.054
       0.142
       0.147
       0.094
       0.019
      -0.059
      -0.141
      -0.225
      -0.291
      -0.309
      -0.260
      -0.150
      -0.004
       0.152
       0.297
       0.409
       0.463
       0.441
       0.355
       0.250
       0.180
       0.163
       0.168
       0.146
       0.070
      -0.033
      -0.103
      -0.095
      -0.007
       0.108
       0.181
       0.161
       0.048
      -0.117
      -0.275
      -0.375
      -0.401
      -0.374
      -0.334
      -0.315
      -0.327
      -0.350
      -0.340
      -0.260
      -0.100
       0.107
       0.307
       0.450
       0.516
       0.511
       0.463
       0.406
       0.373
       0.384
       0.439
       0.517
       0.588
       0.626
       0.628
       0.610
       0.593
       0.581
       0.553
       0.479
       0.344
       0.154
      -0.061
      -0.262
      -0.415
      -0.502
      -0.529
      -0.519
      -0.494
      -0.467
      -0.433
      -0.380
      -0.298
      -0.190
      -0.076
       0.016
       0.055
       0.017
      -0.099
      -0.264
      -0.428
      -0.539
      -0.562
      -0.491
      -0.345
      -0.160
       0.027
       0.183
       0.288
       0.339
       0.348
       0.336
       0.329
       0.338
       0.350
       0.331
       0.254
       0.117
      -0.041
      -0.165
      -0.207
      -0.150
      -0.018
       0.147
       0.294
       0.378
       0.366
       0.252
       0.062
      -0.151
      -0.326
      -0.417
      -0.417
      -0.353
      -0.265
      -0.184
      -0.114
      -0.048
       0.016
       0.076
       0.131
       0.189
       0.258
       0.336
       0.405
       0.446
       0.447
       0.420
       0.384
       0.352
       0.325
       0.295
       0.261
       0.238
       0.247
       0.301
       0.394
       0.495
       0.570
       0.595
       0.575
       0.532
       0.497
       0.501
       0.565
       0.696
       0.873
       1.051
       1.169
       1.177
       1.065
       0.868
       0.649
       0.468
       0.353
       0.302
       0.292
       0.294
       0.278
       0.228
       0.152
       0.076
       0.029
       0.023
       0.048
       0.068
       0.040
      -0.065
      -0.245
      -0.469
      -0.683
      -0.831
      -0.876
      -0.811
      -0.657
      -0.451
      -0.231
      -0.029
       0.137
       0.253
       0.304
       0.277
       0.168
       0.002
      -0.176
      -0.318
      -0.400
      -0.421
      -0.396
      -0.335
      -0.247
      -0.147
      -0.068
      -0.049
      -0.110
      -0.230
      -0.350
      -0.407
      -0.370
      -0.260
      -0.139
      -0.072
      -0.098
      -0.214
      -0.382
      -0.557
      -0.713
      -0.853
      -0.994
      -1.138
      -1.257
      -1.300
      -1.229
      -1.042
      -0.776
      -0.480
      -0.197
       0.043
       0.217
       0.304
       0.300
       0.213
       0.054
      -0.176
      -0.486
      -0.862
      -1.247
      -1.543
      -1.655
      -1.544
      -1.252
      -0.870
      -0.488
      -0.165
       0.077
       0.233
       0.314
       0.333
       0.309
       0.255
       0.182
       0.092
      -0.001
      -0.062
      -0.042
       0.100
       0.362
       0.679
       0.946
       1.064
       0.987
       0.749
       0.436
       0.150
      -0.038
      -0.107
      -0.083
      -0.023
       0.014
      -0.011
      -0.108
      -0.262
      -0.455
      -0.667
      -0.873
      -1.033
      -1.102
      -1.049
      -0.884
      -0.654
      -0.426
      -0.253
      -0.158
      -0.137
      -0.166
      -0.221
      -0.275
      -0.305
      -0.296
      -0.243
      -0.151
      -0.033
       0.092
       0.189
       0.222
       0.163
       0.028
      -0.122
      -0.199
      -0.133
       0.086
       0.410
       0.763
       1.080
       1.327
       1.505
       1.622
       1.682
       1.687
       1.644
       1.566
       1.465
       1.338
       1.179
       0.993
       0.802
       0.635
       0.512
       0.430
       0.364
       0.284
       0.166
       0.011
      -0.164
      -0.330
      -0.454
      -0.503
      -0.457
      -0.328
      -0.166
      -0.044
      -0.027
      -0.139
      -0.351
      -0.585
      -0.738
      -0.721
      -0.486
      -0.053
       0.480
       0.958
       1.222
       1.177
       0.830
       0.289
      -0.291
      -0.774
      -1.096
      -1.269
      -1.352
      -1.393
      -1.400
      -1.341
      -1.175
      -0.891
      -0.526
      -0.155
       0.148
       0.345
       0.436
       0.441
       0.378
       0.257
       0.092
      -0.093
      -0.272
      -0.439
      -0.615
      -0.825
      -1.072
      -1.322
      -1.528
      -1.663
      -1.729
      -1.745
      -1.723
      -1.664
      -1.567
      -1.427
      -1.221
      -0.906
      -0.441
       0.176
       0.872
       1.521
       1.990
       2.204
       2.173
       1.976
       1.721
       1.505
       1.383
       1.355
       1.369
       1.357
       1.263
       1.077
       0.830
       0.582
       0.396
       0.306
       0.305
       0.346
       0.368
       0.325
       0.212
       0.078
       0.000
       0.041
       0.212
       0.465
       0.705
       0.840
       0.820
       0.649
       0.371
       0.042
      -0.291
      -0.598
      -0.864
      -1.100
      -1.332
      -1.592
      -1.907
      -2.291
      -2.747
      -3.258
      -3.781
      -4.246
      -4.576
      -4.720
      -4.681
      -4.513
      -4.285
      -4.037
      -3.760
      -3.421
      -2.984
      -2.445
      -1.834
      -1.206
      -0.621
      -0.116
       0.311
       0.688
       1.041
       1.377
       1.684
       1.941
       2.135
       2.269
       2.356
       2.410
       2.441
       2.454
       2.450
       2.428
       2.393
       2.353
       2.327
       2.350
       2.464
       2.706
       3.082
       3.555
       4.060
       4.544
       4.988
       5.395
       5.760
       6.052
       6.217
       6.210
       6.008
       5.622
       5.082
       4.427
       3.703
       2.972
       2.299
       1.738
       1.318
       1.057
       0.971
       1.083
       1.400
       1.890
       2.458
       2.958
       3.214
       3.066
       2.415
       1.255
      -0.311
      -2.098
      -3.881
      -5.450
      -6.650
      -7.400
      -7.700
      -7.615
      -7.247
      -6.697
      -6.039
      -5.319
      -4.572
      -3.837
      -3.147
      -2.523
      -1.968
      -1.482
      -1.082
      -0.820
      -0.763
      -0.947
      -1.351
      -1.897
      -2.478
      -2.985
      -3.336
      -3.500
      -3.499
      -3.398
      -3.253
      -3.084
      -2.868
      -2.572
      -2.191
      -1.756
      -1.311
      -0.876
      -0.447
      -0.013
       0.418
       0.821
       1.168
       1.454
       1.682
       1.845
       1.924
       1.901
       1.791
       1.650
       1.551
       1.533
       1.583
       1.658
       1.732
       1.823
       1.972
       2.209
       2.522
       2.873
       3.235
       3.612
       4.025
       4.473
       4.906
       5.233
       5.360
       5.233
       4.843
       4.222
       3.420
       2.497
       1.525
       0.589
      -0.233
      -0.887
      -1.357
      -1.660
      -1.832
      -1.911
      -1.932
      -1.928
      -1.936
      -1.988
      -2.091
      -2.211
      -2.263
      -2.141
      -1.763
      -1.118
      -0.292
       0.539
       1.146
       1.327
       0.991
       0.201
      -0.848
      -1.916
      -2.814
      -3.455
      -3.844
      -4.011
      -3.952
      -3.619
      -2.962
      -1.990
      -0.799
       0.439
       1.526
       2.287
       2.591
       2.362
       1.588
       0.343
      -1.194
      -2.748
      -4.017
      -4.751
      -4.829
      -4.275
      -3.213
      -1.814
      -0.255
       1.294
       2.669
       3.738
       4.435
       4.766
       4.781
       4.543
       4.105
       3.530
       2.893
       2.280
       1.760
       1.366
       1.093
       0.912
       0.796
       0.715
       0.634
       0.508
       0.293
      -0.026
      -0.424
      -0.834
      -1.170
      -1.356
      -1.346
      -1.148
      -0.835
      -0.539
      -0.419
      -0.607
      -1.148
      -1.971
      -2.896
      -3.678
      -4.079
      -3.936
      -3.208
      -1.975
      -0.425
       1.189
       2.591
       3.535
       3.848
       3.453
       2.385
       0.779
      -1.148
      -3.121
      -4.870
      -6.176
      -6.909
      -7.035
      -6.595
      -5.676
      -4.392
      -2.882
      -1.305
       0.169
       1.378
       2.197
       2.555
       2.457
       1.970
       1.209
       0.313
      -0.570
      -1.300
      -1.776
      -1.961
      -1.900
      -1.697
      -1.479
      -1.353
      -1.370
      -1.500
      -1.644
      -1.680
      -1.527
      -1.188
      -0.735
      -0.272
       0.116
       0.388
       0.541
       0.586
       0.522
       0.337
       0.021
      -0.422
      -0.964
      -1.551
      -2.108
      -2.552
      -2.816
      -2.864
      -2.700
      -2.363
      -1.914
      -1.409
      -0.894
      -0.390
       0.091
       0.540
       0.920
       1.167
       1.205
       0.983
       0.502
      -0.182
      -0.976
      -1.767
      -2.440
      -2.901
      -3.091
      -3.007
      -2.701
      -2.257
      -1.762
      -1.273
      -0.811
      -0.373
       0.062
       0.515
       0.993
       1.474
       1.902
       2.209
       2.356
       2.348
       2.233
       2.074
       1.918
       1.778
       1.628
       1.436
       1.188
       0.917
       0.698
       0.611
       0.695
       0.924
       1.220
       1.512
       1.781
       2.072
       2.452
       2.962
       3.568
       4.164
       4.614
       4.811
       4.715
       4.358
       3.809
       3.133
       2.373
       1.553
       0.690
      -0.195
      -1.084
      -1.955
      -2.779
      -3.509
      -4.093
      -4.487
      -4.658
      -4.571
      -4.180
      -3.442
      -2.357
      -1.003
       0.464
       1.852
       2.997
       3.807
       4.282
       4.497
       4.578
       4.656
       4.824
       5.100
       5.435
       5.759
       6.028
       6.232
       6.387
       6.500
       6.562
       6.546
       6.421
       6.173
       5.804
       5.336
       4.805
       4.269
       3.789
       3.409
       3.131
       2.918
       2.705
       2.432
       2.056
       1.570
       1.010
       0.471
       0.094
       0.047
       0.467
       1.419
       2.868
       4.681
       6.653
       8.551
      10.158
      11.313
      11.944
      12.081
      11.851
      11.426
      10.968
      10.580
      10.305
      10.140
      10.068
      10.056
      10.053
       9.967
       9.674
       9.032
       7.925
       6.308
       4.243
       1.886
      -0.543
      -2.818
      -4.755
      -6.252
      -7.281
      -7.853
      -7.966
      -7.595
      -6.710
      -5.316
      -3.477
      -1.317
       1.012
       3.356
       5.583
       7.603
       9.375
      10.908
      12.240
      13.392
      14.336
      14.984
      15.229
      14.994
      14.256
      13.026
      11.314
       9.103
       6.363
       3.097
      -0.614
      -4.591
      -8.597
     -12.402
     -15.832
     -18.761
     -21.084
     -22.727
     -23.712
     -24.215
     -24.531
     -24.969
     -25.721
     -26.796
     -28.072
     -29.428
     -30.854
     -32.427
     -34.163
     -35.877
     -37.200
     -37.763
     -37.371
     -36.047
     -33.973
     -31.411
     -28.641
     -25.886
     -23.240
     -20.662
     -18.040
     -15.275
     -12.317
      -9.161
      -5.850
      -2.494
       0.719
       3.554
       5.804
       7.352
       8.185
       8.363
       7.966
       7.085
       5.847
       4.444
       3.118
       2.076
       1.409
       1.072
       0.979
       1.109
       1.528
       2.275
       3.250
       4.229
       5.008
       5.523
       5.849
       6.110
       6.413
       6.846
       7.498
       8.441
       9.683
      11.134
      12.635
      14.025
      15.204
      16.138
      16.845
      17.370
      17.788
      18.185
      18.593
      18.941
      19.085
      18.928
      18.500
      17.918
      17.254
      16.438
      15.306
      13.734
      11.729
       9.405
       6.913
       4.389
       1.968
      -0.190
      -1.937
      -3.190
      -3.978
      -4.411
      -4.603
      -4.620
      -4.485
      -4.231
      -3.951
      -3.766
      -3.749
      -3.867
      -3.989
      -3.969
      -3.717
      -3.236
      -2.603
      -1.941
      -1.409
      -1.174
      -1.350
      -1.919
      -2.719
      -3.521
      -4.149
      -4.542
      -4.735
      -4.797
      -4.778
      -4.694
      -4.526
      -4.233
      -3.778
      -3.151
      -2.399
      -1.628
      -0.968
      -0.519
      -0.315
      -0.328
      -0.511
      -0.842
      -1.329
      -1.992
      -2.846
      -3.877
      -5.023
      -6.159
      -7.108
      -7.684
      -7.729
      -7.156
      -5.969
      -4.270
      -2.242
      -0.126
       1.826
       3.387
       4.405
       4.834
       4.752
       4.329
       3.757
       3.167
       2.598
       2.013
       1.356
       0.604
      -0.212
      -1.030
      -1.774
      -2.373
      -2.752
      -2.831
      -2.558
      -1.946
      -1.079
      -0.065
       1.028
       2.182
       3.378
       4.547
       5.578
       6.356
       6.817
       6.949
       6.763
       6.282
       5.541
       4.627
       3.678
       2.845
       2.231
       1.843
       1.603
       1.391
       1.098
       0.656
       0.046
      -0.703
      -1.523
      -2.330
      -3.060
      -3.696
      -4.269
      -4.809
      -5.313
      -5.740
      -6.039
      -6.166
      -6.082
      -5.752
      -5.163
      -4.356
      -3.424
      -2.466
      -1.527
      -0.588
       0.394
       1.439
       2.514
       3.552
       4.485
       5.274
       5.906
       6.378
       6.700
       6.897
       7.019
       7.111
       7.175
       7.155
       6.976
       6.592
       6.028
       5.357
       4.637
       3.877
       3.050
       2.178
       1.369
       0.782
       0.527
       0.578
       0.782
       0.944
       0.918
       0.646
       0.144
      -0.535
      -1.322
      -2.131
      -2.850
      -3.349
      -3.524
      -3.340
      -2.849
      -2.167
      -1.425
      -0.728
      -0.145
       0.306
       0.658
       0.986
       1.367
       1.836
       2.355
       2.817
       3.098
       3.112
       2.840
       2.324
       1.638
       0.865
       0.099
      -0.557
      -1.005
      -1.180
      -1.078
      -0.748
      -0.264
       0.306
       0.911
       1.513
       2.070
       2.528
       2.830
       2.926
       2.792
       2.429
       1.863
       1.129
       0.265
      -0.688
      -1.675
      -2.622
      -3.447
      -4.074
      -4.464
      -4.637
      -4.676
      -4.713
      -4.873
      -5.213
      -5.677
      -6.104
      -6.287
      -6.067
      -5.408
      -4.409
      -3.259
      -2.162
      -1.281
      -0.722
      -0.534
      -0.710
      -1.177
      -1.808
      -2.462
      -3.026
      -3.444
      -3.700
      -3.775
      -3.638
      -3.267
      -2.687
      -1.985
      -1.294
      -0.750
      -0.469
      -0.519
      -0.908
      -1.577
      -2.395
      -3.175
      -3.710
      -3.815
      -3.375
      -2.381
      -0.942
       0.733
       2.379
       3.748
       4.660
       5.036
       4.875
       4.227
       3.185
       1.886
       0.528
      -0.676
      -1.566
      -2.089
      -2.293
      -2.245
      -1.978
      -1.495
      -0.814
      -0.009
       0.816
       1.554
       2.123
       2.456
       2.506
       2.291
       1.928
       1.626
       1.600
       1.966
       2.686
       3.604
       4.548
       5.406
       6.123
       6.653
       6.931
       6.897
       6.551
       5.975
       5.291
       4.615
       4.031
       3.610
       3.419
       3.506
       3.874
       4.459
       5.152
       5.814
       6.298
       6.469
       6.227
       5.549
       4.514
       3.300
       2.126
       1.174
       0.528
       0.165
      -0.022
      -0.165
      -0.379
      -0.728
      -1.216
      -1.802
      -2.433
      -3.073
      -3.710
      -4.349
      -4.987
      -5.597
      -6.138
      -6.564
      -6.840
      -6.948
      -6.879
      -6.639
      -6.256
      -5.782
      -5.291
      -4.845
      -4.465
      -4.120
      -3.745
      -3.283
      -2.721
      -2.087
      -1.421
      -0.748
      -0.065
       0.655
       1.435
       2.269
       3.102
       3.834
       4.358
       4.602
       4.554
       4.254
       3.764
       3.150
       2.467
       1.766
       1.080
       0.415
      -0.255
      -0.963
      -1.717
      -2.478
      -3.180
      -3.753
      -4.144
      -4.320
      -4.258
      -3.946
      -3.400
      -2.682
      -1.895
      -1.150
      -0.519
      -0.018
       0.368
       0.664
       0.885
       1.049
       1.177
       1.282
       1.344
       1.306
       1.115
       0.771
       0.359
       0.014
      -0.152
      -0.107
