Origin Time       11/5/2012 18:41:28	
Lat.              26.6 N	
Long.             93.0 E	
Depth (Km)         20.0
Magnitude         5.4
 Region           Assam                                                            
 Above details taken from IMD 
     
Station Code      JHR
Station Lat.       26.759  N
Station Long.      94.206  E
Station Height(m)   82.0
Site Class        C   Vs30 between 200 m/sec to 375 m/sec *  
Record Time       11.05.2012 12:41:44.039
Sampling Rate     200. Hz
 Record Duration   81.480 Sec.
 Direction         E-W (E positive)
Max. Acceleration     -7.471 cm/sec**2
     
  * For reference see Site Classification link of website 
     
 Base Line Corrected and Low Pass Filtered (Cut Off at 35 Hz) Time History
 Acceleration data in cm/sec**2
    
[...]
      -0.276
      -0.343
      -0.297
      -0.156
       0.023
       0.188
       0.308
       0.367
       0.340
       0.215
       0.016
      -0.196
      -0.348
      -0.401
      -0.361
      -0.269
      -0.172
      -0.102
      -0.059
      -0.025
       0.015
       0.063
       0.101
       0.109
       0.081
       0.037
       0.009
       0.023
       0.072
       0.113
       0.095
      -0.008
      -0.165
      -0.306
      -0.360
      -0.303
      -0.161
       0.011
       0.168
       0.285
       0.352
       0.355
       0.286
       0.154
      -0.001
      -0.125
      -0.167
      -0.118
      -0.015
       0.083
       0.134
       0.131
       0.097
       0.057
       0.030
       0.020
       0.018
       0.015
       0.007
       0.001
       0.007
       0.037
       0.098
       0.188
       0.290
       0.363
       0.366
       0.285
       0.143
      -0.013
      -0.146
      -0.244
      -0.322
      -0.393
      -0.454
      -0.481
      -0.441
      -0.324
      -0.146
       0.046
       0.205
       0.305
       0.348
       0.356
       0.349
       0.330
       0.293
       0.236
       0.167
       0.105
       0.066
       0.046
       0.022
      -0.028
      -0.103
      -0.174
      -0.201
      -0.162
      -0.074
       0.024
       0.092
       0.100
       0.039
      -0.083
      -0.241
      -0.394
      -0.489
      -0.484
      -0.368
      -0.175
       0.025
       0.164
       0.207
       0.172
       0.107
       0.067
       0.074
       0.104
       0.110
       0.053
      -0.067
      -0.196
      -0.263
      -0.217
      -0.061
       0.146
       0.315
       0.377
       0.312
       0.157
      -0.018
      -0.144
      -0.181
      -0.142
      -0.075
      -0.037
      -0.045
      -0.069
      -0.053
       0.031
       0.154
       0.248
       0.258
       0.181
       0.065
      -0.023
      -0.049
      -0.030
      -0.016
      -0.046
      -0.113
      -0.183
      -0.220
      -0.213
      -0.176
      -0.133
      -0.108
      -0.118
      -0.171
      -0.253
      -0.330
      -0.362
      -0.329
      -0.244
      -0.139
      -0.039
       0.052
       0.143
       0.241
       0.340
       0.425
       0.478
       0.485
       0.444
       0.364
       0.277
       0.221
       0.222
       0.270
       0.314
       0.300
       0.218
       0.119
       0.069
       0.083
       0.109
       0.075
      -0.037
      -0.175
      -0.256
      -0.240
      -0.156
      -0.071
      -0.034
      -0.051
      -0.098
      -0.152
      -0.196
      -0.222
      -0.218
      -0.189
      -0.155
      -0.136
      -0.139
      -0.146
      -0.134
      -0.088
      -0.021
       0.038
       0.069
       0.075
       0.087
       0.124
       0.179
       0.223
       0.227
       0.185
       0.121
       0.072
       0.069
       0.114
       0.183
       0.235
       0.236
       0.178
       0.075
      -0.030
      -0.092
      -0.088
      -0.038
       0.004
      -0.002
      -0.053
      -0.110
      -0.138
      -0.140
      -0.155
      -0.212
      -0.302
      -0.372
      -0.369
      -0.289
      -0.184
      -0.127
      -0.157
      -0.250
      -0.341
      -0.368
      -0.311
      -0.190
      -0.041
       0.115
       0.267
       0.403
       0.502
       0.542
       0.511
       0.418
       0.280
       0.117
      -0.050
      -0.200
      -0.295
      -0.299
      -0.188
       0.027
       0.299
       0.553
       0.713
       0.724
       0.572
       0.297
      -0.013
      -0.253
      -0.354
      -0.314
      -0.191
      -0.061
       0.026
       0.064
       0.071
       0.053
       0.002
      -0.097
      -0.234
      -0.368
      -0.442
      -0.420
      -0.308
      -0.153
      -0.028
       0.006
      -0.062
      -0.179
      -0.262
      -0.245
      -0.128
       0.027
       0.140
       0.156
       0.062
      -0.111
      -0.307
      -0.462
      -0.514
      -0.429
      -0.225
       0.029
       0.235
       0.322
       0.286
       0.183
       0.076
      -0.008
      -0.086
      -0.187
      -0.311
      -0.421
      -0.467
      -0.420
      -0.295
      -0.149
      -0.043
      -0.008
      -0.026
      -0.050
      -0.040
       0.009
       0.078
       0.148
       0.221
       0.305
       0.393
       0.469
       0.525
       0.575
       0.635
       0.697
       0.720
       0.655
       0.477
       0.219
      -0.033
      -0.185
      -0.192
      -0.083
       0.069
       0.197
       0.270
       0.284
       0.236
       0.130
      -0.009
      -0.133
      -0.187
      -0.153
      -0.066
       0.002
      -0.004
      -0.090
      -0.216
      -0.326
      -0.374
      -0.348
      -0.279
      -0.218
      -0.206
      -0.236
      -0.256
      -0.210
      -0.077
       0.101
       0.248
       0.294
       0.227
       0.089
      -0.065
      -0.212
      -0.359
      -0.520
      -0.679
      -0.795
      -0.823
      -0.741
      -0.552
      -0.291
      -0.010
       0.231
       0.379
       0.402
       0.304
       0.131
      -0.044
      -0.142
      -0.113
       0.036
       0.240
       0.409
       0.478
       0.440
       0.330
       0.193
       0.059
      -0.056
      -0.136
      -0.157
      -0.096
       0.052
       0.251
       0.431
       0.525
       0.504
       0.399
       0.269
       0.161
       0.076
      -0.014
      -0.124
      -0.229
      -0.272
      -0.222
      -0.112
      -0.028
      -0.031
      -0.099
      -0.129
      -0.038
       0.163
       0.351
       0.385
       0.214
      -0.077
      -0.328
      -0.420
      -0.345
      -0.189
      -0.039
       0.075
       0.175
       0.276
       0.357
       0.374
       0.306
       0.177
       0.035
      -0.087
      -0.187
      -0.277
      -0.356
      -0.401
      -0.386
      -0.309
      -0.201
      -0.108
      -0.060
      -0.062
      -0.092
      -0.124
      -0.150
      -0.184
      -0.247
      -0.328
      -0.364
      -0.269
      -0.004
       0.368
       0.701
       0.854
       0.780
       0.546
       0.272
       0.043
      -0.120
      -0.227
      -0.270
      -0.227
      -0.096
       0.081
       0.245
       0.356
       0.419
       0.452
       0.452
       0.388
       0.234
       0.012
      -0.202
      -0.327
      -0.331
      -0.252
      -0.164
      -0.130
      -0.160
      -0.215
      -0.230
      -0.158
      -0.002
       0.174
       0.278
       0.247
       0.099
      -0.076
      -0.175
      -0.143
      -0.009
       0.144
       0.224
       0.177
       0.005
      -0.242
      -0.487
      -0.657
      -0.705
      -0.624
      -0.460
      -0.284
      -0.162
      -0.108
      -0.086
      -0.041
       0.055
       0.184
       0.306
       0.393
       0.446
       0.477
       0.500
       0.516
       0.519
       0.508
       0.478
       0.421
       0.326
       0.194
       0.052
      -0.060
      -0.113
      -0.116
      -0.094
      -0.069
      -0.046
      -0.020
       0.002
       0.003
      -0.028
      -0.087
      -0.143
      -0.151
      -0.089
       0.013
       0.081
       0.051
      -0.069
      -0.208
      -0.281
      -0.262
      -0.193
      -0.147
      -0.168
      -0.238
      -0.303
      -0.315
      -0.257
      -0.144
      -0.003
       0.133
       0.228
       0.253
       0.208
       0.130
       0.082
       0.107
       0.193
       0.262
       0.230
       0.083
      -0.097
      -0.188
      -0.118
       0.087
       0.330
       0.510
       0.574
       0.536
       0.454
       0.390
       0.376
       0.403
       0.433
       0.422
       0.341
       0.194
       0.030
      -0.078
      -0.067
       0.069
       0.260
       0.395
       0.376
       0.169
      -0.184
      -0.576
      -0.877
      -0.980
      -0.856
      -0.586
      -0.325
      -0.215
      -0.297
      -0.490
      -0.668
      -0.749
      -0.737
      -0.684
      -0.628
      -0.570
      -0.505
      -0.462
      -0.487
      -0.591
      -0.717
      -0.771
      -0.694
      -0.508
      -0.286
      -0.086
       0.084
       0.242
       0.379
       0.459
       0.458
       0.411
       0.393
       0.451
       0.556
       0.615
       0.545
       0.352
       0.130
      -0.010
      -0.033
      -0.003
      -0.023
      -0.136
      -0.290
      -0.374
      -0.308
      -0.099
       0.160
       0.343
       0.357
       0.190
      -0.087
      -0.356
      -0.523
      -0.562
      -0.526
      -0.503
      -0.549
      -0.644
      -0.706
      -0.655
      -0.467
      -0.182
       0.130
       0.416
       0.645
       0.801
       0.871
       0.865
       0.826
       0.822
       0.894
       1.031
       1.186
       1.309
       1.372
       1.359
       1.256
       1.063
       0.813
       0.568
       0.387
       0.296
       0.273
       0.278
       0.276
       0.259
       0.227
       0.167
       0.060
      -0.090
      -0.238
      -0.319
      -0.294
      -0.189
      -0.084
      -0.069
      -0.192
      -0.431
      -0.710
      -0.940
      -1.062
      -1.064
      -0.956
      -0.746
      -0.435
      -0.046
       0.362
       0.706
       0.919
       0.992
       0.981
       0.966
       1.001
       1.084
       1.170
       1.213
       1.203
       1.163
       1.120
       1.090
       1.064
       1.034
       0.995
       0.956
       0.933
       0.940
       0.978
       1.029
       1.052
       1.005
       0.870
       0.660
       0.410
       0.164
      -0.046
      -0.214
      -0.357
      -0.498
      -0.636
      -0.736
      -0.754
      -0.670
      -0.512
      -0.346
      -0.237
      -0.208
      -0.232
      -0.259
      -0.267
      -0.278
      -0.342
      -0.485
      -0.688
      -0.893
      -1.052
      -1.164
      -1.280
      -1.459
      -1.721
      -2.017
      -2.246
      -2.315
      -2.184
      -1.880
      -1.478
      -1.058
      -0.673
      -0.355
      -0.117
       0.040
       0.130
       0.173
       0.188
       0.176
       0.126
       0.033
      -0.077
      -0.148
      -0.110
       0.090
       0.456
       0.923
       1.371
       1.673
       1.760
       1.649
       1.420
       1.148
       0.856
       0.522
       0.124
      -0.322
      -0.767
      -1.158
      -1.470
      -1.706
      -1.884
      -2.010
      -2.085
      -2.121
      -2.141
      -2.164
      -2.173
      -2.123
      -1.979
      -1.759
      -1.531
      -1.351
      -1.211
      -1.034
      -0.739
      -0.301
       0.223
       0.737
       1.172
       1.517
       1.799
       2.044
       2.237
       2.342
       2.344
       2.284
       2.242
       2.306
       2.523
       2.887
       3.341
       3.795
       4.156
       4.363
       4.390
       4.239
       3.912
       3.409
       2.740
       1.949
       1.127
       0.394
      -0.161
      -0.529
      -0.785
      -1.037
      -1.343
      -1.671
      -1.912
      -1.954
      -1.751
      -1.357
      -0.892
      -0.492
      -0.252
      -0.217
      -0.376
      -0.683
      -1.069
      -1.467
      -1.825
      -2.112
      -2.309
      -2.401
      -2.371
      -2.192
      -1.842
      -1.331
      -0.723
      -0.138
       0.292
       0.468
       0.354
      -0.024
      -0.598
      -1.284
      -2.006
      -2.714
      -3.383
      -4.000
      -4.528
      -4.888
      -4.977
      -4.723
      -4.142
      -3.331
      -2.407
      -1.459
      -0.550
       0.255
       0.884
       1.307
       1.572
       1.796
       2.092
       2.499
       2.968
       3.410
       3.765
       4.027
       4.211
       4.315
       4.302
       4.141
       3.858
       3.532
       3.239
       2.987
       2.694
       2.256
       1.627
       0.840
      -0.052
      -1.032
      -2.096
      -3.189
      -4.165
      -4.826
      -5.027
      -4.751
      -4.110
      -3.293
      -2.488
      -1.846
      -1.456
      -1.343
      -1.457
      -1.686
      -1.902
      -2.017
      -1.984
      -1.769
      -1.321
      -0.595
       0.388
       1.514
       2.613
       3.545
       4.258
       4.769
       5.097
       5.212
       5.050
       4.588
       3.887
       3.056
       2.174
       1.265
       0.340
      -0.537
      -1.257
      -1.745
      -2.030
      -2.238
      -2.497
      -2.827
      -3.122
      -3.224
      -3.040
      -2.596
      -2.001
      -1.373
      -0.792
      -0.311
       0.016
       0.132
       0.014
      -0.291
      -0.661
      -0.928
      -0.935
      -0.583
       0.130
       1.106
       2.167
       3.100
       3.718
       3.914
       3.696
       3.166
       2.459
       1.675
       0.843
      -0.058
      -1.036
      -2.038
      -2.959
      -3.682
      -4.121
      -4.241
      -4.063
      -3.662
      -3.156
      -2.664
      -2.255
      -1.920
      -1.601
      -1.243
      -0.832
      -0.386
       0.073
       0.544
       1.021
       1.480
       1.880
       2.199
       2.453
       2.685
       2.926
       3.153
       3.279
       3.196
       2.842
       2.260
       1.589
       0.971
       0.477
       0.084
      -0.273
      -0.629
      -0.952
      -1.177
      -1.275
      -1.298
      -1.351
      -1.512
      -1.772
      -2.071
      -2.389
      -2.798
      -3.415
      -4.295
      -5.355
      -6.386
      -7.150
      -7.471
      -7.289
      -6.644
      -5.639
      -4.412
      -3.088
      -1.748
      -0.407
       0.949
       2.313
       3.611
       4.722
       5.539
       6.024
       6.228
       6.250
       6.192
       6.139
       6.154
       6.266
       6.440
       6.566
       6.510
       6.199
       5.677
       5.071
       4.501
       4.004
       3.513
       2.911
       2.099
       1.053
      -0.159
      -1.407
      -2.543
      -3.456
      -4.102
      -4.518
      -4.777
      -4.923
      -4.910
      -4.614
      -3.915
      -2.795
      -1.380
       0.097
       1.395
       2.343
       2.869
       2.963
       2.652
       1.991
       1.083
       0.070
      -0.893
      -1.677
      -2.197
      -2.435
      -2.428
      -2.256
      -1.988
      -1.657
      -1.272
      -0.873
      -0.580
      -0.567
      -0.986
      -1.858
      -3.015
      -4.129
      -4.837
      -4.899
      -4.289
      -3.192
      -1.914
      -0.761
       0.057
       0.478
       0.578
       0.525
       0.509
       0.679
       1.094
       1.698
       2.349
       2.903
       3.284
       3.504
       3.618
       3.666
       3.653
       3.576
       3.444
       3.274
       3.061
       2.764
       2.322
       1.714
       0.977
       0.192
      -0.568
      -1.270
      -1.912
      -2.488
      -2.973
      -3.330
      -3.549
      -3.653
      -3.673
      -3.584
      -3.291
      -2.695
      -1.800
      -0.748
       0.249
       1.022
       1.517
       1.775
       1.857
       1.801
       1.640
       1.451
       1.380
       1.593
       2.172
       3.045
       4.012
       4.855
       5.432
       5.694
       5.629
       5.207
       4.392
       3.198
       1.722
       0.130
      -1.408
      -2.762
      -3.842
      -4.569
      -4.871
      -4.704
      -4.086
      -3.105
      -1.911
      -0.683
       0.412
       1.252
       1.776
       1.977
       1.875
       1.497
       0.863
      -0.003
      -1.028
      -2.046
      -2.834
      -3.202
      -3.112
      -2.711
      -2.253
      -1.950
      -1.851
      -1.837
      -1.725
      -1.396
      -0.857
      -0.202
       0.454
       1.010
       1.380
       1.492
       1.304
       0.826
       0.135
      -0.633
      -1.324
      -1.817
      -2.062
      -2.064
      -1.859
      -1.492
      -1.007
      -0.436
       0.202
       0.893
       1.599
       2.233
       2.648
       2.673
       2.191
       1.242
       0.056
      -1.015
      -1.639
      -1.636
      -1.017
       0.054
       1.322
       2.514
       3.388
       3.794
       3.708
       3.234
       2.548
       1.821
       1.152
       0.551
      -0.017
      -0.575
      -1.094
      -1.499
      -1.690
      -1.596
      -1.209
      -0.610
       0.037
       0.531
       0.707
       0.508
       0.015
      -0.578
      -1.041
      -1.207
      -1.035
      -0.623
      -0.157
       0.173
       0.254
       0.087
      -0.221
      -0.523
      -0.720
      -0.810
      -0.882
      -1.028
      -1.260
      -1.490
      -1.585
      -1.457
      -1.120
      -0.678
      -0.255
       0.082
       0.342
       0.576
       0.807
       1.002
       1.101
       1.066
       0.907
       0.652
       0.315
      -0.118
      -0.649
      -1.225
      -1.737
      -2.054
      -2.084
      -1.812
      -1.293
      -0.613
       0.124
       0.801
       1.294
       1.498
       1.387
       1.035
       0.585
       0.182
      -0.094
      -0.223
      -0.209
      -0.027
       0.374
       1.017
       1.833
       2.642
       3.201
       3.298
       2.837
       1.876
       0.619
      -0.645
      -1.638
      -2.182
      -2.250
      -1.939
      -1.399
      -0.766
      -0.144
       0.362
       0.635
       0.563
       0.106
      -0.660
      -1.566
      -2.406
      -3.000
      -3.221
      -3.007
      -2.369
      -1.397
      -0.261
       0.806
       1.563
       1.851
       1.675
       1.217
       0.744
       0.480
       0.488
       0.653
       0.742
       0.541
      -0.006
      -0.739
      -1.349
      -1.534
      -1.146
      -0.267
       0.829
       1.798
       2.368
       2.437
       2.078
       1.462
       0.776
       0.171
      -0.257
      -0.487
      -0.572
      -0.613
      -0.691
      -0.806
      -0.863
      -0.724
      -0.300
       0.389
       1.215
       2.003
       2.593
       2.879
       2.815
       2.408
       1.715
       0.829
      -0.134
      -1.057
      -1.828
      -2.352
      -2.552
      -2.390
      -1.886
      -1.133
      -0.292
       0.443
       0.887
       0.912
       0.477
      -0.343
      -1.379
      -2.418
      -3.257
      -3.738
      -3.754
      -3.270
      -2.343
      -1.135
       0.135
       1.276
       2.182
       2.847
       3.314
       3.623
       3.777
       3.740
       3.454
       2.874
       2.000
       0.906
      -0.244
      -1.218
      -1.779
      -1.789
      -1.283
      -0.482
       0.301
       0.786
       0.829
       0.453
      -0.196
      -0.911
      -1.501
      -1.850
      -1.948
      -1.862
      -1.666
      -1.383
      -0.993
      -0.484
       0.087
       0.595
       0.920
       1.041
       1.063
       1.140
       1.343
       1.569
       1.594
       1.239
       0.521
      -0.327
      -0.972
      -1.166
      -0.868
      -0.256
       0.366
       0.719
       0.664
       0.249
      -0.348
      -0.924
      -1.349
      -1.596
      -1.708
      -1.719
      -1.611
      -1.344
      -0.928
      -0.471
      -0.134
      -0.032
      -0.159
      -0.399
      -0.606
      -0.690
      -0.636
      -0.482
      -0.279
      -0.072
       0.099
       0.206
       0.257
