Origin Time       14/7/2012 19:55:18	
Lat.              25.5 N	
Long.             94.2 E	
Depth (Km)         35.0
Magnitude         5.5
 Region           Kohima-Nagaland                                                  
 Above details taken from IMD 
   
Station Code      JHR
Station Lat.       26.759
Station Long.      94.206
Station Height(m)   94.0
Site Class        C   Vs30 between 200 m/sec to 375 m/sec *  
Record Time       14.07.2012 19:55:30.044
Sampling Rate     200. Hz
 Record Duration  128.870 Sec.
 Direction         Vert. (Up positive)
Max. Acceleration     -9.010 cm/sec**2
     
  * For reference see Site Classification link of website 
     
 Base Line Corrected and Low Pass Filtered (Cut Off at 35 Hz) Time History
 Acceleration data in cm/sec**2
    
[...]
      -0.251
      -0.394
      -0.305
      -0.032
       0.290
       0.498
       0.463
       0.139
      -0.413
      -1.039
      -1.540
      -1.757
      -1.634
      -1.227
      -0.651
      -0.019
       0.576
       1.058
       1.360
       1.439
       1.293
       0.962
       0.514
       0.037
      -0.380
      -0.666
      -0.795
      -0.803
      -0.767
      -0.758
      -0.807
      -0.898
      -0.984
      -1.020
      -0.968
      -0.824
      -0.618
      -0.404
      -0.223
      -0.080
       0.036
       0.125
       0.174
       0.178
       0.154
       0.137
       0.160
       0.237
       0.352
       0.463
       0.525
       0.521
       0.457
       0.327
       0.094
      -0.256
      -0.663
      -0.986
      -1.080
      -0.893
      -0.491
      -0.007
       0.422
       0.706
       0.823
       0.803
       0.705
       0.578
       0.449
       0.326
       0.219
       0.143
       0.108
       0.103
       0.117
       0.154
       0.218
       0.297
       0.365
       0.407
       0.437
       0.473
       0.516
       0.535
       0.494
       0.373
       0.177
      -0.068
      -0.321
      -0.540
      -0.678
      -0.685
      -0.523
      -0.213
       0.144
       0.382
       0.368
       0.087
      -0.337
      -0.722
      -0.933
      -0.954
      -0.853
      -0.714
      -0.559
      -0.355
      -0.069
       0.266
       0.550
       0.682
       0.629
       0.433
       0.167
      -0.122
      -0.410
      -0.664
      -0.816
      -0.778
      -0.482
       0.063
       0.748
       1.390
       1.807
       1.908
       1.727
       1.392
       1.045
       0.771
       0.566
       0.373
       0.154
      -0.050
      -0.153
      -0.091
       0.109
       0.338
       0.477
       0.458
       0.305
       0.113
      -0.015
      -0.041
      -0.004
       0.026
       0.025
       0.019
       0.036
       0.056
       0.021
      -0.098
      -0.260
      -0.370
      -0.331
      -0.109
       0.231
       0.540
       0.654
       0.485
       0.068
      -0.462
      -0.959
      -1.328
      -1.548
      -1.643
      -1.636
      -1.535
      -1.334
      -1.050
      -0.731
      -0.452
      -0.268
      -0.183
      -0.136
      -0.042
       0.141
       0.362
       0.518
       0.537
       0.443
       0.336
       0.318
       0.425
       0.610
       0.781
       0.847
       0.770
       0.589
       0.383
       0.210
       0.059
      -0.133
      -0.406
      -0.718
      -0.957
      -1.020
      -0.887
      -0.620
      -0.299
       0.033
       0.361
       0.670
       0.927
       1.099
       1.168
       1.129
       0.995
       0.801
       0.598
       0.425
       0.283
       0.146
      -0.010
      -0.175
      -0.306
      -0.345
      -0.251
      -0.023
       0.274
       0.529
       0.631
       0.524
       0.229
      -0.177
      -0.609
      -0.992
      -1.277
      -1.430
      -1.428
      -1.251
      -0.894
      -0.386
       0.202
       0.774
       1.247
       1.576
       1.760
       1.804
       1.696
       1.403
       0.898
       0.177
      -0.716
      -1.676
      -2.538
      -3.129
      -3.330
      -3.110
      -2.520
      -1.676
      -0.732
       0.166
       0.927
       1.532
       1.975
       2.215
       2.187
       1.864
       1.314
       0.670
       0.063
      -0.431
      -0.781
      -0.964
      -0.947
      -0.728
      -0.375
      -0.024
       0.191
       0.196
      -0.007
      -0.366
      -0.798
      -1.199
      -1.473
      -1.573
      -1.539
      -1.467
      -1.442
      -1.482
      -1.534
      -1.513
      -1.358
      -1.058
      -0.653
      -0.204
       0.249
       0.697
       1.143
       1.568
       1.907
       2.082
       2.047
       1.819
       1.474
       1.100
       0.759
       0.470
       0.228
       0.025
      -0.146
      -0.293
      -0.419
      -0.512
      -0.532
      -0.434
      -0.199
       0.145
       0.525
       0.853
       1.054
       1.078
       0.909
       0.575
       0.161
      -0.200
      -0.382
      -0.327
      -0.078
       0.257
       0.571
       0.805
       0.955
       1.038
       1.054
       0.969
       0.731
       0.320
      -0.200
      -0.695
      -1.031
      -1.141
      -1.053
      -0.852
      -0.622
      -0.407
      -0.200
       0.024
       0.279
       0.532
       0.710
       0.744
       0.612
       0.359
       0.069
      -0.183
      -0.358
      -0.448
      -0.453
      -0.373
      -0.215
      -0.016
       0.158
       0.238
       0.187
       0.020
      -0.194
      -0.365
      -0.422
      -0.347
      -0.180
       0.011
       0.174
       0.288
       0.348
       0.363
       0.355
       0.362
       0.424
       0.559
       0.757
       0.977
       1.151
       1.186
       0.991
       0.531
      -0.136
      -0.856
      -1.442
      -1.737
      -1.677
      -1.291
      -0.684
       0.006
       0.637
       1.087
       1.270
       1.143
       0.710
       0.038
      -0.734
      -1.416
      -1.834
      -1.916
      -1.716
      -1.369
      -1.003
      -0.680
      -0.415
      -0.216
      -0.087
      -0.011
       0.069
       0.215
       0.436
       0.667
       0.799
       0.743
       0.471
       0.024
      -0.505
      -1.005
      -1.363
      -1.492
      -1.361
      -1.003
      -0.511
      -0.001
       0.425
       0.694
       0.769
       0.655
       0.407
       0.102
      -0.199
      -0.480
      -0.741
      -0.973
      -1.141
      -1.207
      -1.152
      -0.969
      -0.653
      -0.211
       0.334
       0.940
       1.561
       2.153
       2.643
       2.917
       2.852
       2.386
       1.579
       0.616
      -0.271
      -0.899
      -1.200
      -1.225
      -1.098
      -0.954
      -0.889
      -0.941
      -1.102
      -1.323
      -1.521
      -1.578
      -1.382
      -0.891
      -0.180
       0.585
       1.224
       1.626
       1.768
       1.703
       1.513
       1.273
       1.026
       0.782
       0.535
       0.290
       0.071
      -0.089
      -0.166
      -0.172
      -0.158
      -0.186
      -0.284
      -0.426
      -0.541
      -0.559
      -0.436
      -0.163
       0.249
       0.779
       1.391
       2.018
       2.555
       2.892
       2.976
       2.847
       2.615
       2.376
       2.151
       1.900
       1.575
       1.175
       0.732
       0.273
      -0.207
      -0.738
      -1.340
      -1.991
      -2.623
      -3.134
      -3.404
      -3.331
      -2.874
      -2.092
      -1.137
      -0.182
       0.663
       1.371
       1.946
       2.355
       2.531
       2.436
       2.128
       1.754
       1.483
       1.441
       1.662
       2.076
       2.523
       2.804
       2.763
       2.336
       1.545
       0.449
      -0.867
      -2.264
      -3.534
      -4.459
      -4.901
      -4.848
      -4.385
      -3.629
      -2.700
      -1.738
      -0.909
      -0.377
      -0.243
      -0.490
      -0.991
      -1.572
      -2.080
      -2.415
      -2.506
      -2.319
      -1.893
      -1.367
      -0.921
      -0.665
      -0.593
      -0.637
      -0.744
      -0.893
      -1.055
      -1.183
      -1.250
      -1.289
      -1.343
      -1.386
      -1.294
      -0.927
      -0.255
       0.590
       1.369
       1.870
       2.025
       1.950
       1.872
       1.996
       2.379
       2.918
       3.429
       3.760
       3.844
       3.675
       3.278
       2.695
       1.973
       1.161
       0.293
      -0.592
      -1.438
      -2.184
      -2.779
      -3.164
      -3.231
      -2.845
      -1.937
      -0.614
       0.818
       1.979
       2.599
       2.637
       2.246
       1.638
       0.961
       0.286
      -0.321
      -0.739
      -0.843
      -0.614
      -0.181
       0.258
       0.544
       0.614
       0.460
       0.082
      -0.493
      -1.174
      -1.815
      -2.271
      -2.455
      -2.341
      -1.930
      -1.241
      -0.335
       0.664
       1.589
       2.280
       2.637
       2.642
       2.339
       1.792
       1.057
       0.185
      -0.760
      -1.684
      -2.467
      -2.989
      -3.158
      -2.941
      -2.392
      -1.644
      -0.879
      -0.259
       0.124
       0.274
       0.251
       0.128
      -0.050
      -0.257
      -0.462
      -0.611
      -0.630
      -0.456
      -0.064
       0.514
       1.208
       1.939
       2.604
       3.053
       3.119
       2.704
       1.856
       0.752
      -0.413
      -1.508
      -2.451
      -3.153
      -3.483
      -3.304
      -2.565
      -1.362
       0.070
       1.439
       2.506
       3.148
       3.335
       3.097
       2.511
       1.705
       0.862
       0.173
      -0.215
      -0.251
      -0.002
       0.358
       0.616
       0.608
       0.313
      -0.139
      -0.544
      -0.743
      -0.717
      -0.576
      -0.474
      -0.497
      -0.618
      -0.754
      -0.862
      -0.953
      -1.042
      -1.094
      -1.052
      -0.920
      -0.784
      -0.742
      -0.804
      -0.874
      -0.821
      -0.580
      -0.172
       0.333
       0.859
       1.324
       1.639
       1.747
       1.655
       1.414
       1.045
       0.527
      -0.116
      -0.747
      -1.151
      -1.184
      -0.862
      -0.328
       0.263
       0.806
       1.222
       1.406
       1.240
       0.664
      -0.263
      -1.364
      -2.426
      -3.305
      -3.981
      -4.506
      -4.895
      -5.059
      -4.865
      -4.246
      -3.267
      -2.085
      -0.881
       0.184
       0.988
       1.464
       1.622
       1.533
       1.296
       1.024
       0.803
       0.668
       0.591
       0.528
       0.468
       0.441
       0.476
       0.574
       0.715
       0.864
       0.966
       0.928
       0.648
       0.109
      -0.551
      -1.066
      -1.194
      -0.882
      -0.289
       0.330
       0.786
       1.024
       1.085
       1.022
       0.871
       0.685
       0.546
       0.530
       0.657
       0.883
       1.143
       1.397
       1.626
       1.826
       1.990
       2.114
       2.195
       2.234
       2.259
       2.336
       2.544
       2.914
       3.388
       3.816
       4.015
       3.848
       3.283
       2.391
       1.304
       0.182
      -0.821
      -1.575
      -1.997
      -2.070
      -1.855
      -1.488
      -1.149
      -0.979
      -1.003
      -1.108
      -1.121
      -0.939
      -0.598
      -0.242
      -0.025
      -0.014
      -0.181
      -0.450
      -0.765
      -1.113
      -1.499
      -1.899
      -2.216
      -2.294
      -2.000
      -1.302
      -0.309
       0.783
       1.769
       2.510
       2.951
       3.096
       2.975
       2.623
       2.098
       1.496
       0.917
       0.404
      -0.095
      -0.659
      -1.293
      -1.887
      -2.287
      -2.414
      -2.320
      -2.141
      -1.991
      -1.903
      -1.842
      -1.765
      -1.647
      -1.478
      -1.237
      -0.886
      -0.404
       0.175
       0.768
       1.306
       1.798
       2.300
       2.814
       3.235
       3.420
       3.318
       3.011
       2.644
       2.311
       2.009
       1.693
       1.336
       0.928
       0.424
      -0.276
      -1.249
      -2.427
      -3.584
      -4.467
      -4.948
      -5.042
      -4.810
      -4.290
      -3.542
      -2.726
      -2.088
      -1.806
      -1.864
      -2.073
      -2.252
      -2.371
      -2.521
      -2.751
      -2.947
      -2.898
      -2.475
      -1.737
      -0.868
       0.003
       0.883
       1.825
       2.797
       3.668
       4.314
       4.716
       4.938
       5.023
       4.950
       4.674
       4.192
       3.527
       2.685
       1.637
       0.397
      -0.914
      -2.082
      -2.920
      -3.386
      -3.586
      -3.703
      -3.915
      -4.339
      -4.993
      -5.759
      -6.380
      -6.562
      -6.124
      -5.073
      -3.545
      -1.729
       0.149
       1.819
       3.051
       3.770
       4.089
       4.208
       4.284
       4.392
       4.547
       4.742
       4.978
       5.271
       5.585
       5.736
       5.451
       4.598
       3.360
       2.075
       0.891
      -0.345
      -1.796
      -3.295
      -4.374
      -4.645
      -4.125
      -3.233
      -2.490
      -2.201
      -2.335
      -2.627
      -2.799
      -2.691
      -2.262
      -1.543
      -0.618
       0.374
       1.275
       2.026
       2.717
       3.479
       4.270
       4.797
       4.731
       4.023
       2.998
       2.106
       1.554
       1.213
       0.865
       0.521
       0.434
       0.814
       1.587
       2.472
       3.245
       3.859
       4.335
       4.607
       4.542
       4.101
       3.411
       2.666
       1.969
       1.305
       0.641
      -0.001
      -0.610
      -1.313
      -2.308
      -3.616
      -4.905
      -5.672
      -5.645
      -4.992
      -4.148
      -3.436
      -2.884
      -2.377
      -1.945
      -1.830
      -2.229
      -3.004
      -3.671
      -3.745
      -3.098
      -2.006
      -0.885
       0.001
       0.633
       1.145
       1.658
       2.175
       2.593
       2.830
       2.917
       2.954
       2.968
       2.866
       2.577
       2.178
       1.825
       1.533
       1.096
       0.261
      -0.996
      -2.421
      -3.709
      -4.784
      -5.824
      -7.001
      -8.200
      -9.010
      -9.005
      -8.056
      -6.406
      -4.475
      -2.589
      -0.859
       0.750
       2.235
       3.457
       4.197
       4.338
       4.015
       3.591
       3.449
       3.737
       4.264
       4.632
       4.490
       3.729
       2.475
       0.982
      -0.483
      -1.708
      -2.597
      -3.172
      -3.522
      -3.726
      -3.821
      -3.847
      -3.887
      -4.035
      -4.296
      -4.519
      -4.453
      -3.862
      -2.647
      -0.908
       1.084
       2.988
       4.508
       5.472
       5.882
       5.937
       5.976
       6.282
       6.865
       7.430
       7.628
       7.362
       6.829
       6.279
       5.776
       5.202
       4.463
       3.621
       2.816
       2.087
       1.307
       0.315
      -0.884
      -2.077
      -3.005
      -3.562
      -3.822
      -3.911
      -3.888
      -3.763
      -3.621
      -3.641
      -3.973
      -4.564
      -5.123
      -5.312
      -4.987
      -4.298
      -3.542
      -2.913
      -2.406
      -1.925
      -1.436
      -0.980
      -0.552
      -0.036
       0.683
       1.553
       2.326
       2.730
       2.666
       2.253
       1.695
       1.137
       0.605
       0.064
      -0.481
      -0.945
      -1.234
      -1.338
      -1.344
      -1.342
      -1.345
      -1.310
      -1.228
      -1.174
      -1.253
      -1.527
      -1.970
      -2.488
      -2.958
      -3.272
      -3.365
      -3.203
      -2.778
      -2.132
      -1.390
      -0.753
      -0.407
      -0.427
      -0.717
      -1.043
      -1.124
      -0.761
       0.055
       1.153
       2.299
       3.323
       4.156
       4.791
       5.219
       5.409
       5.312
       4.895
       4.197
       3.344
       2.514
       1.842
       1.339
       0.909
       0.434
      -0.133
      -0.745
      -1.316
      -1.782
      -2.148
      -2.462
      -2.766
      -3.043
      -3.231
      -3.289
      -3.239
      -3.148
      -3.037
      -2.833
      -2.399
      -1.630
      -0.522
       0.822
       2.242
       3.582
       4.716
       5.534
       5.925
       5.803
       5.164
       4.123
       2.867
       1.581
       0.409
      -0.524
      -1.117
      -1.339
      -1.293
      -1.187
      -1.232
      -1.517
      -1.966
      -2.400
      -2.636
      -2.550
      -2.066
      -1.130
       0.257
       1.988
       3.843
       5.563
       6.937
       7.846
       8.248
       8.148
       7.561
       6.504
       5.033
       3.298
       1.552
       0.056
      -1.069
      -1.908
      -2.656
      -3.442
      -4.231
      -4.882
      -5.300
      -5.523
      -5.679
      -5.864
      -6.051
      -6.090
      -5.800
      -5.088
      -4.004
      -2.708
      -1.385
      -0.189
       0.760
       1.352
       1.512
       1.276
       0.808
       0.316
      -0.081
      -0.382
      -0.606
      -0.700
      -0.577
      -0.228
       0.247
       0.736
       1.209
       1.706
       2.236
       2.711
       2.984
       2.910
       2.400
       1.453
       0.208
      -1.029
      -1.860
      -2.003
      -1.477
      -0.618
       0.114
       0.404
       0.226
      -0.240
      -0.809
      -1.435
      -2.157
      -2.937
      -3.578
      -3.838
      -3.612
      -2.988
      -2.142
      -1.200
      -0.210
       0.783
       1.688
       2.390
       2.810
       2.921
       2.733
       2.291
       1.698
       1.137
       0.831
       0.929
       1.399
       2.029
       2.553
       2.809
       2.823
       2.745
       2.705
       2.713
       2.668
       2.455
       2.047
       1.509
       0.936
       0.393
      -0.095
      -0.528
      -0.926
      -1.314
      -1.687
      -1.974
      -2.073
      -1.951
      -1.716
      -1.562
      -1.625
      -1.864
      -2.097
      -2.142
      -1.926
      -1.475
      -0.843
      -0.074
       0.762
       1.528
       2.059
       2.264
       2.199
       2.010
       1.805
       1.577
       1.242
       0.746
       0.116
      -0.569
      -1.230
      -1.797
      -2.190
      -2.322
      -2.147
      -1.720
      -1.198
      -0.761
      -0.509
      -0.397
      -0.281
      -0.037
       0.361
       0.855
       1.383
       1.933
       2.506
       3.052
       3.450
       3.566
       3.352
       2.887
       2.340
       1.858
       1.482
       1.134
       0.684
       0.045
      -0.772
      -1.665
      -2.503
      -3.204
      -3.768
      -4.255
      -4.725
      -5.184
      -5.564
      -5.769
      -5.728
      -5.424
      -4.883
      -4.144
      -3.257
      -2.302
      -1.394
      -0.640
      -0.080
       0.347
       0.773
       1.332
       2.094
       3.023
       3.976
       4.760
       5.210
       5.248
       4.893
       4.225
       3.350
       2.365
       1.346
       0.349
      -0.570
      -1.328
      -1.811
      -1.913
      -1.596
      -0.951
      -0.205
       0.360
       0.524
       0.234
      -0.394
      -1.153
      -1.835
      -2.286
      -2.424
      -2.258
      -1.899
      -1.535
      -1.345
      -1.402
      -1.633
      -1.862
      -1.929
      -1.781
      -1.477
      -1.122
      -0.796
      -0.529
      -0.317
      -0.127
       0.088
       0.370
       0.729
       1.119
       1.447
       1.618
       1.600
       1.455
       1.303
       1.241
       1.295
       1.433
       1.608
       1.781
       1.910
       1.943
       1.863
       1.728
       1.684
       1.884
       2.367
       2.994
       3.510
       3.697
       3.497
       3.018
       2.437
       1.890
       1.415
       0.984
       0.561
       0.154
      -0.199
      -0.475
      -0.698
      -0.926
      -1.199
      -1.503
      -1.761
      -1.880
      -1.821
