Origin Time       1/7/2012 04:13:52	 
Lat.              25.7 N	
Long.             94.6 E	
Depth (Km)         50.0
Magnitude         5.8
 Region           Phek-Nagaland                                                    
 Above details taken from IMD 
     
Station Code      JHR
Station Lat.       26.759  N
Station Long.      94.206  E
Station Height(m)   94.0
Site Class        C   Vs30 between 200 m/sec to 375 m/sec *  
Record Time       01.07.2012 04:14:00.764
Sampling Rate     200. Hz
 Record Duration   97.290 Sec.
 Direction         E-W (E positive)
Max. Acceleration     29.982 cm/sec**2
     
  * For reference see Site Classification link of website 
     
 Base Line Corrected and Low Pass Filtered (Cut Off at 35 Hz) Time History
 Acceleration data in cm/sec**2
    
[...]
       1.500
       1.631
       1.713
       1.766
       1.818
       1.886
       1.959
       2.002
       1.969
       1.816
       1.526
       1.119
       0.649
       0.181
      -0.232
      -0.566
      -0.818
      -0.987
      -1.060
      -1.010
      -0.823
      -0.515
      -0.142
       0.224
       0.512
       0.658
       0.623
       0.402
       0.054
      -0.299
      -0.513
      -0.491
      -0.239
       0.132
       0.475
       0.678
       0.710
       0.610
       0.458
       0.347
       0.358
       0.514
       0.758
       0.963
       0.996
       0.808
       0.464
       0.101
      -0.166
      -0.328
      -0.474
      -0.714
      -1.085
      -1.518
      -1.882
      -2.066
      -2.034
      -1.831
      -1.543
      -1.263
      -1.071
      -1.011
      -1.071
      -1.168
      -1.180
      -1.019
      -0.695
      -0.318
      -0.017
       0.145
       0.208
       0.267
       0.392
       0.579
       0.781
       0.964
       1.131
       1.303
       1.468
       1.572
       1.544
       1.359
       1.068
       0.762
       0.511
       0.319
       0.144
      -0.044
      -0.222
      -0.338
      -0.362
      -0.315
      -0.262
      -0.256
      -0.300
      -0.350
      -0.347
      -0.252
      -0.059
       0.214
       0.520
       0.793
       0.955
       0.961
       0.815
       0.569
       0.301
       0.076
      -0.074
      -0.158
      -0.221
      -0.325
      -0.525
      -0.841
      -1.225
      -1.563
      -1.726
      -1.639
      -1.326
      -0.896
      -0.471
      -0.117
       0.173
       0.444
       0.721
       0.986
       1.191
       1.300
       1.306
       1.223
       1.074
       0.890
       0.719
       0.624
       0.658
       0.819
       1.031
       1.166
       1.111
       0.835
       0.405
      -0.050
      -0.408
      -0.599
      -0.620
      -0.528
      -0.409
      -0.333
      -0.328
      -0.377
      -0.450
      -0.535
      -0.647
      -0.811
      -1.024
      -1.249
      -1.430
      -1.532
      -1.549
      -1.491
      -1.373
      -1.214
      -1.051
      -0.931
      -0.878
      -0.867
      -0.825
      -0.685
      -0.430
      -0.101
       0.240
       0.551
       0.817
       1.029
       1.170
       1.228
       1.217
       1.170
       1.117
       1.063
       0.991
       0.884
       0.742
       0.594
       0.481
       0.436
       0.469
       0.560
       0.679
       0.791
       0.860
       0.847
       0.726
       0.502
       0.226
      -0.021
      -0.172
      -0.207
      -0.163
      -0.098
      -0.054
      -0.045
      -0.058
      -0.069
      -0.056
      -0.011
       0.063
       0.157
       0.258
       0.353
       0.426
       0.468
       0.480
       0.473
       0.452
       0.403
       0.297
       0.113
      -0.140
      -0.415
      -0.649
      -0.807
      -0.901
      -0.966
      -1.014
      -1.026
      -0.978
      -0.879
      -0.771
      -0.682
      -0.590
      -0.439
      -0.193
       0.114
       0.386
       0.532
       0.522
       0.393
       0.216
       0.048
      -0.082
      -0.159
      -0.183
      -0.165
      -0.136
      -0.131
      -0.161
      -0.196
      -0.177
      -0.056
       0.166
       0.443
       0.699
       0.856
       0.842
       0.611
       0.164
      -0.431
      -1.043
      -1.521
      -1.755
      -1.721
      -1.475
      -1.112
      -0.720
      -0.358
      -0.064
       0.138
       0.246
       0.288
       0.310
       0.345
       0.389
       0.399
       0.337
       0.215
       0.104
       0.096
       0.240
       0.509
       0.831
       1.144
       1.425
       1.667
       1.842
       1.894
       1.784
       1.527
       1.195
       0.866
       0.590
       0.388
       0.268
       0.233
       0.261
       0.292
       0.256
       0.118
      -0.094
      -0.310
      -0.467
      -0.565
      -0.655
      -0.791
      -0.977
      -1.166
      -1.299
      -1.352
      -1.347
      -1.315
      -1.264
      -1.173
      -1.019
      -0.820
      -0.640
      -0.550
      -0.585
      -0.709
      -0.840
      -0.893
      -0.824
      -0.644
      -0.407
      -0.180
      -0.013
       0.073
       0.081
       0.033
      -0.036
      -0.084
      -0.069
       0.027
       0.177
       0.316
       0.373
       0.315
       0.173
       0.026
      -0.036
       0.048
       0.290
       0.653
       1.054
       1.395
       1.584
       1.571
       1.362
       1.013
       0.606
       0.200
      -0.189
      -0.580
      -0.977
      -1.333
      -1.564
      -1.598
      -1.435
      -1.169
      -0.947
      -0.892
      -1.036
      -1.312
      -1.611
      -1.847
      -1.982
      -2.018
      -1.958
      -1.802
      -1.554
      -1.240
      -0.900
      -0.563
      -0.224
       0.136
       0.513
       0.860
       1.120
       1.271
       1.363
       1.482
       1.682
       1.930
       2.131
       2.201
       2.133
       1.987
       1.830
       1.688
       1.559
       1.437
       1.334
       1.257
       1.188
       1.092
       0.937
       0.735
       0.531
       0.380
       0.303
       0.274
       0.242
       0.160
       0.009
      -0.196
      -0.419
      -0.618
      -0.750
      -0.772
      -0.651
      -0.388
      -0.039
       0.297
       0.529
       0.616
       0.577
       0.456
       0.284
       0.083
      -0.117
      -0.261
      -0.299
      -0.223
      -0.078
       0.069
       0.186
       0.273
       0.327
       0.311
       0.173
      -0.095
      -0.428
      -0.709
      -0.845
      -0.819
      -0.688
      -0.539
      -0.445
      -0.446
      -0.553
      -0.748
      -0.973
      -1.147
      -1.195
      -1.086
      -0.837
      -0.484
      -0.054
       0.442
       0.969
       1.441
       1.733
       1.748
       1.477
       1.014
       0.492
       0.020
      -0.348
      -0.604
      -0.756
      -0.826
      -0.856
      -0.899
      -1.001
      -1.167
      -1.355
      -1.507
      -1.597
      -1.659
      -1.761
      -1.956
      -2.230
      -2.520
      -2.750
      -2.875
      -2.879
      -2.762
      -2.526
      -2.193
      -1.809
      -1.435
      -1.105
      -0.826
      -0.588
      -0.393
      -0.241
      -0.108
       0.070
       0.361
       0.780
       1.274
       1.746
       2.119
       2.378
       2.561
       2.708
       2.820
       2.856
       2.763
       2.523
       2.166
       1.752
       1.345
       0.980
       0.662
       0.362
       0.038
      -0.345
      -0.774
      -1.171
      -1.434
      -1.501
      -1.403
      -1.253
      -1.165
      -1.185
      -1.266
      -1.326
      -1.308
      -1.224
      -1.138
      -1.115
      -1.188
      -1.341
      -1.530
      -1.699
      -1.794
      -1.759
      -1.557
      -1.178
      -0.649
      -0.021
       0.658
       1.358
       2.071
       2.780
       3.438
       3.976
       4.326
       4.460
       4.398
       4.212
       4.001
       3.850
       3.807
       3.865
       3.969
       4.033
       3.964
       3.690
       3.185
       2.479
       1.651
       0.801
       0.017
      -0.653
      -1.201
      -1.640
      -1.991
      -2.277
      -2.527
      -2.766
      -3.006
      -3.255
      -3.521
      -3.817
      -4.146
      -4.485
      -4.786
      -4.989
      -5.050
      -4.952
      -4.720
      -4.398
      -4.026
      -3.613
      -3.148
      -2.614
      -2.015
      -1.376
      -0.733
      -0.108
       0.502
       1.112
       1.727
       2.322
       2.844
       3.241
       3.499
       3.646
       3.744
       3.848
       3.976
       4.101
       4.174
       4.155
       4.036
       3.843
       3.622
       3.417
       3.226
       3.004
       2.689
       2.264
       1.789
       1.371
       1.102
       0.983
       0.912
       0.727
       0.294
      -0.427
      -1.369
      -2.400
      -3.377
      -4.187
      -4.750
      -5.014
      -4.954
      -4.598
      -4.045
      -3.456
      -3.004
      -2.815
      -2.918
      -3.231
      -3.599
      -3.872
      -3.964
      -3.883
      -3.702
      -3.497
      -3.298
      -3.074
      -2.759
      -2.295
      -1.673
      -0.928
      -0.117
       0.713
       1.526
       2.300
       3.035
       3.756
       4.506
       5.306
       6.120
       6.836
       7.315
       7.461
       7.273
       6.829
       6.229
       5.552
       4.855
       4.187
       3.592
       3.074
       2.588
       2.070
       1.481
       0.846
       0.241
      -0.258
      -0.619
      -0.859
      -1.021
      -1.145
      -1.264
      -1.418
      -1.661
      -2.040
      -2.555
      -3.137
      -3.651
      -3.943
      -3.897
      -3.487
      -2.792
      -1.969
      -1.191
      -0.583
      -0.194
      -0.015
      -0.017
      -0.172
      -0.435
      -0.725
      -0.927
      -0.937
      -0.700
      -0.233
       0.377
       0.996
       1.475
       1.706
       1.659
       1.399
       1.039
       0.668
       0.281
      -0.206
      -0.884
      -1.767
      -2.752
      -3.657
      -4.290
      -4.499
      -4.224
      -3.506
      -2.496
      -1.417
      -0.477
       0.214
       0.691
       1.074
       1.467
       1.878
       2.227
       2.416
       2.410
       2.252
       2.027
       1.797
       1.558
       1.252
       0.806
       0.175
      -0.627
      -1.522
      -2.385
      -3.074
      -3.487
      -3.593
      -3.420
      -3.014
      -2.404
      -1.611
      -0.678
       0.306
       1.220
       1.963
       2.497
       2.841
       3.027
       3.054
       2.903
       2.580
       2.146
       1.713
       1.401
       1.299
       1.429
       1.733
       2.083
       2.328
       2.354
       2.146
       1.809
       1.520
       1.428
       1.556
       1.784
       1.913
       1.778
       1.331
       0.646
      -0.134
      -0.876
      -1.514
      -2.036
      -2.441
      -2.698
      -2.750
      -2.560
      -2.155
      -1.642
      -1.179
      -0.913
      -0.922
      -1.187
      -1.623
      -2.129
      -2.644
      -3.151
      -3.647
      -4.101
      -4.442
      -4.599
      -4.556
      -4.386
      -4.217
      -4.171
      -4.290
      -4.514
      -4.700
      -4.675
      -4.295
      -3.504
      -2.385
      -1.160
      -0.105
       0.583
       0.891
       0.984
       1.104
       1.434
       2.026
       2.801
       3.615
       4.327
       4.847
       5.128
       5.142
       4.877
       4.356
       3.683
       3.031
       2.595
       2.502
       2.748
       3.209
       3.714
       4.144
       4.488
       4.822
       5.235
       5.745
       6.272
       6.671
       6.789
       6.529
       5.886
       4.954
       3.908
       2.944
       2.190
       1.662
       1.291
       1.000
       0.761
       0.579
       0.414
       0.137
      -0.442
      -1.476
      -2.980
      -4.786
      -6.591
      -8.065
      -8.962
      -9.177
      -8.748
      -7.807
      -6.511
      -4.995
      -3.361
      -1.704
      -0.143
       1.191
       2.193
       2.833
       3.165
       3.300
       3.344
       3.349
       3.304
       3.164
       2.898
       2.506
       2.015
       1.456
       0.857
       0.249
      -0.333
      -0.849
      -1.270
      -1.578
      -1.760
      -1.797
      -1.662
      -1.339
      -0.847
      -0.257
       0.325
       0.803
       1.147
       1.410
       1.689
       2.051
       2.474
       2.838
       2.966
       2.688
       1.892
       0.564
      -1.196
      -3.189
      -5.170
      -6.924
      -8.312
      -9.288
      -9.878
     -10.146
     -10.189
     -10.115
     -10.023
      -9.952
      -9.853
      -9.605
      -9.079
      -8.217
      -7.084
      -5.856
      -4.745
      -3.896
      -3.333
      -2.971
      -2.696
      -2.420
      -2.096
      -1.697
      -1.182
      -0.504
       0.372
       1.443
       2.672
       4.019
       5.465
       7.016
       8.660
      10.337
      11.928
      13.283
      14.271
      14.814
      14.909
      14.608
      14.010
      13.246
      12.460
      11.765
      11.209
      10.765
      10.364
       9.941
       9.459
       8.919
       8.345
       7.760
       7.166
       6.536
       5.821
       4.968
       3.952
       2.795
       1.568
       0.355
      -0.779
      -1.817
      -2.778
      -3.698
      -4.627
      -5.625
      -6.760
      -8.081
      -9.572
     -11.115
     -12.486
     -13.415
     -13.681
     -13.195
     -12.018
     -10.341
      -8.399
      -6.394
      -4.434
      -2.539
      -0.699
       1.063
       2.680
       4.070
       5.170
       5.956
       6.446
       6.712
       6.893
       7.157
       7.615
       8.222
       8.770
       8.972
       8.601
       7.550
       5.813
       3.440
       0.526
      -2.758
      -6.146
      -9.311
     -11.947
     -13.863
     -15.034
     -15.592
     -15.757
     -15.759
     -15.771
     -15.893
     -16.152
     -16.515
     -16.899
     -17.204
     -17.352
     -17.325
     -17.129
     -16.724
     -15.999
     -14.818
     -13.109
     -10.891
      -8.236
      -5.209
      -1.852
       1.796
       5.662
       9.632
      13.566
      17.325
      20.785
      23.825
      26.328
      28.194
      29.385
      29.945
      29.982
      29.622
      28.957
      28.026
      26.810
      25.235
      23.191
      20.571
      17.337
      13.557
       9.404
       5.094
       0.823
      -3.257
      -7.033
     -10.414
     -13.343
     -15.800
     -17.791
     -19.303
     -20.274
     -20.614
     -20.274
     -19.313
     -17.883
     -16.149
     -14.211
     -12.095
      -9.842
      -7.594
      -5.574
      -3.974
      -2.821
      -1.963
      -1.167
      -0.250
       0.826
       1.945
       2.908
       3.543
       3.813
       3.831
       3.779
       3.792
       3.911
       4.137
       4.520
       5.186
       6.240
       7.654
       9.246
      10.776
      12.072
      13.083
      13.812
      14.220
      14.179
      13.514
      12.111
       9.981
       7.238
       4.024
       0.464
      -3.290
      -7.006
     -10.374
     -13.114
     -15.085
     -16.322
     -16.962
     -17.134
     -16.879
     -16.152
     -14.894
     -13.101
     -10.862
      -8.346
      -5.766
      -3.323
      -1.175
       0.578
       1.890
       2.762
       3.234
       3.373
       3.261
       2.970
       2.556
       2.076
       1.596
       1.179
       0.848
       0.580
       0.327
       0.052
      -0.266
      -0.643
      -1.086
      -1.571
      -2.022
      -2.315
      -2.321
      -1.965
      -1.278
      -0.397
       0.500
       1.283
       1.924
       2.477
       3.020
       3.592
       4.176
       4.709
       5.113
       5.313
       5.246
       4.850
       4.073
       2.908
       1.442
      -0.143
      -1.644
      -2.947
      -4.058
      -5.055
      -5.974
      -6.731
      -7.129
      -6.932
      -5.977
      -4.264
      -1.993
       0.480
       2.741
       4.462
       5.516
       5.996
       6.144
       6.216
       6.342
       6.436
       6.223
       5.387
       3.776
       1.519
      -1.027
      -3.482
      -5.610
      -7.326
      -8.584
      -9.291
      -9.356
      -8.796
      -7.783
      -6.549
      -5.236
      -3.834
      -2.262
      -0.524
       1.204
       2.638
       3.567
       4.003
       4.181
       4.406
       4.857
       5.512
       6.211
       6.794
       7.157
       7.219
       6.884
       6.084
       4.869
       3.442
       2.078
       0.994
       0.271
      -0.109
      -0.192
      -0.018
       0.353
       0.811
       1.224
       1.492
       1.566
       1.421
       1.007
       0.249
      -0.900
      -2.387
      -4.029
      -5.560
      -6.741
      -7.453
      -7.703
      -7.556
      -7.052
      -6.214
      -5.109
      -3.871
      -2.633
      -1.404
      -0.034
       1.677
       3.826
       6.310
       8.849
      11.093
      12.738
      13.611
      13.691
      13.083
      11.954
      10.482
       8.806
       7.035
       5.269
       3.620
       2.192
       1.007
      -0.017
      -1.023
      -2.107
      -3.239
      -4.276
      -5.065
      -5.546
      -5.765
      -5.804
      -5.707
      -5.493
      -5.228
      -5.061
      -5.152
      -5.567
      -6.232
      -6.984
      -7.675
      -8.230
      -8.650
      -8.957
      -9.145
      -9.163
      -8.958
      -8.518
      -7.871
      -7.038
      -6.009
      -4.772
      -3.370
      -1.899
      -0.465
       0.868
       2.073
       3.145
       4.079
       4.875
       5.554
       6.161
       6.735
       7.278
       7.753
       8.096
       8.242
       8.124
       7.667
       6.806
       5.532
       3.927
       2.134
       0.291
      -1.521
      -3.265
      -4.885
      -6.266
      -7.258
      -7.746
      -7.714
      -7.233
      -6.409
      -5.328
      -4.067
      -2.724
      -1.409
      -0.181
       0.990
       2.186
       3.430
       4.611
       5.525
       6.010
       6.057
       5.791
       5.361
       4.853
       4.289
       3.710
       3.244
       3.064
       3.284
       3.858
       4.593
       5.231
       5.565
       5.495
       5.030
       4.249
       3.275
       2.245
       1.291
       0.495
      -0.137
      -0.671
      -1.191
      -1.738
      -2.293
      -2.804
      -3.225
      -3.524
      -3.660
      -3.579
      -3.240
      -2.684
      -2.057
      -1.567
      -1.388
      -1.564
      -2.002
      -2.541
      -3.047
      -3.441
      -3.672
      -3.669
      -3.334
      -2.589
      -1.444
      -0.021
       1.484
       2.880
       4.047
       4.955
       5.608
       5.986
       6.020
       5.631
       4.794
       3.571
       2.082
       0.437
      -1.313
      -3.177
      -5.177
      -7.304
      -9.501
     -11.652
     -13.594
     -15.141
     -16.130
     -16.475
     -16.201
     -15.444
     -14.406
     -13.296
     -12.275
     -11.423
     -10.726
     -10.080
      -9.315
      -8.248
      -6.767
      -4.893
      -2.773
      -0.599
       1.478
       3.393
       5.134
       6.682
       7.984
       8.990
       9.725
      10.314
      10.930
      11.684
      12.542
      13.333
      13.852
      13.976
      13.719
      13.184
      12.493
      11.730
      10.954
      10.216
       9.560
       8.989
       8.447
       7.836
       7.083
       6.175
       5.161
       4.092
       2.993
       1.866
       0.737
      -0.298
      -1.087
      -1.482
      -1.415
      -0.954
      -0.296
       0.291
       0.551
       0.332
      -0.357
      -1.337
      -2.315
      -2.993
      -3.172
      -2.814
      -2.033
      -1.044
      -0.087
       0.649
       1.058
       1.116
       0.851
       0.334
      -0.333
      -1.041
      -1.704
      -2.279
      -2.746
      -3.075
      -3.218
      -3.140
      -2.869
      -2.520
      -2.260
      -2.221
      -2.431
      -2.803
      -3.194
      -3.485
