Origin Time       11/5/2012 18:41:28	
Lat.              26.6 N	
Long.             93.0 E	
Depth (Km)         20.0
Magnitude         5.4
 Region           Assam                                                            
 Above details taken from IMD 
   
Station Code      JHR
Station Lat.       26.759
Station Long.      94.206
Station Height(m)   82.0
Site Class        C   Vs30 between 200 m/sec to 375 m/sec *  
Record Time       11.05.2012 12:41:44.039
Sampling Rate     200. Hz
 Record Duration   81.480 Sec.
 Direction         Vert. (Up positive)
Max. Acceleration     -4.763 cm/sec**2
     
  * For reference see Site Classification link of website 
     
 Base Line Corrected and Low Pass Filtered (Cut Off at 35 Hz) Time History
 Acceleration data in cm/sec**2
    
[...]
       0.404
       0.364
       0.250
       0.094
      -0.045
      -0.111
      -0.091
      -0.027
       0.020
       0.030
       0.039
       0.085
       0.154
       0.205
       0.215
       0.208
       0.201
       0.170
       0.083
      -0.052
      -0.171
      -0.202
      -0.122
       0.013
       0.103
       0.072
      -0.064
      -0.201
      -0.222
      -0.091
       0.119
       0.284
       0.322
       0.265
       0.233
       0.321
       0.493
       0.600
       0.505
       0.211
      -0.144
      -0.397
      -0.464
      -0.373
      -0.217
      -0.097
      -0.079
      -0.171
      -0.324
      -0.457
      -0.510
      -0.482
      -0.433
      -0.417
      -0.410
      -0.328
      -0.124
       0.121
       0.249
       0.169
      -0.039
      -0.185
      -0.134
       0.097
       0.367
       0.539
       0.565
       0.486
       0.365
       0.217
       0.006
      -0.271
      -0.525
      -0.610
      -0.441
      -0.081
       0.304
       0.568
       0.664
       0.622
       0.488
       0.286
       0.028
      -0.257
      -0.502
      -0.626
      -0.595
      -0.478
      -0.400
      -0.436
      -0.547
      -0.633
      -0.617
      -0.486
      -0.275
      -0.046
       0.145
       0.280
       0.381
       0.468
       0.513
       0.461
       0.280
      -0.004
      -0.301
      -0.494
      -0.505
      -0.339
      -0.085
       0.139
       0.254
       0.251
       0.192
       0.149
       0.142
       0.123
       0.045
      -0.054
      -0.058
       0.120
       0.437
       0.722
       0.793
       0.602
       0.294
       0.101
       0.159
       0.383
       0.551
       0.512
       0.334
       0.232
       0.348
       0.603
       0.750
       0.582
       0.120
      -0.395
      -0.666
      -0.559
      -0.171
       0.250
       0.486
       0.469
       0.268
      -0.008
      -0.304
      -0.623
      -0.975
      -1.325
      -1.577
      -1.604
      -1.312
      -0.726
      -0.032
       0.518
       0.758
       0.702
       0.488
       0.233
      -0.027
      -0.286
      -0.491
      -0.560
      -0.467
      -0.277
      -0.089
       0.041
       0.112
       0.146
       0.160
       0.153
       0.101
      -0.023
      -0.204
      -0.375
      -0.452
      -0.384
      -0.170
       0.162
       0.550
       0.886
       1.060
       1.033
       0.860
       0.649
       0.488
       0.406
       0.366
       0.290
       0.117
      -0.132
      -0.365
      -0.483
      -0.450
      -0.299
      -0.109
       0.020
       0.007
      -0.155
      -0.387
      -0.567
      -0.616
      -0.537
      -0.405
      -0.314
      -0.336
      -0.469
      -0.644
      -0.769
      -0.786
      -0.679
      -0.457
      -0.128
       0.269
       0.644
       0.877
       0.884
       0.680
       0.387
       0.176
       0.164
       0.346
       0.603
       0.797
       0.871
       0.884
       0.943
       1.086
       1.215
       1.150
       0.781
       0.182
      -0.403
      -0.724
      -0.701
      -0.453
      -0.184
      -0.034
      -0.012
      -0.036
      -0.023
       0.032
       0.044
      -0.084
      -0.361
      -0.664
      -0.822
      -0.749
      -0.507
      -0.250
      -0.094
      -0.060
      -0.117
      -0.260
      -0.500
      -0.800
      -1.034
      -1.064
      -0.850
      -0.489
      -0.144
       0.074
       0.172
       0.251
       0.393
       0.572
       0.678
       0.651
       0.575
       0.608
       0.832
       1.150
       1.340
       1.191
       0.648
      -0.133
      -0.852
      -1.271
      -1.371
      -1.312
      -1.210
      -1.000
      -0.532
       0.213
       1.054
       1.710
       1.951
       1.697
       1.061
       0.304
      -0.318
      -0.695
      -0.881
      -0.988
      -1.065
      -1.087
      -1.008
      -0.816
      -0.545
      -0.258
      -0.007
       0.189
       0.352
       0.546
       0.834
       1.211
       1.544
       1.638
       1.388
       0.881
       0.335
      -0.074
      -0.322
      -0.497
      -0.667
      -0.818
      -0.879
      -0.820
      -0.697
      -0.604
      -0.596
      -0.643
      -0.670
      -0.614
      -0.455
      -0.209
       0.093
       0.425
       0.751
       1.008
       1.109
       0.991
       0.663
       0.207
      -0.249
      -0.578
      -0.693
      -0.578
      -0.287
       0.099
       0.497
       0.810
       0.917
       0.726
       0.279
      -0.216
      -0.498
      -0.431
      -0.108
       0.214
       0.305
       0.122
      -0.175
      -0.365
      -0.343
      -0.174
      -0.020
      -0.003
      -0.132
      -0.312
      -0.415
      -0.360
      -0.178
       0.002
       0.027
      -0.159
      -0.474
      -0.749
      -0.830
      -0.669
      -0.342
      -0.002
       0.224
       0.318
       0.362
       0.444
       0.540
       0.543
       0.394
       0.168
       0.003
      -0.048
      -0.062
      -0.138
      -0.276
      -0.357
      -0.259
       0.027
       0.378
       0.626
       0.676
       0.537
       0.262
      -0.108
      -0.518
      -0.852
      -0.979
      -0.858
      -0.579
      -0.277
      -0.024
       0.220
       0.548
       0.985
       1.418
       1.653
       1.564
       1.211
       0.793
       0.495
       0.362
       0.327
       0.305
       0.258
       0.185
       0.090
      -0.051
      -0.292
      -0.676
      -1.152
      -1.537
      -1.607
      -1.268
      -0.655
      -0.040
       0.341
       0.400
       0.182
      -0.190
      -0.562
      -0.817
      -0.932
      -0.974
      -1.002
      -0.979
      -0.779
      -0.305
       0.389
       1.084
       1.502
       1.493
       1.132
       0.661
       0.312
       0.158
       0.124
       0.101
       0.043
      -0.030
      -0.083
      -0.104
      -0.108
      -0.099
      -0.056
       0.062
       0.275
       0.572
       0.909
       1.217
       1.413
       1.436
       1.273
       0.957
       0.519
      -0.011
      -0.578
      -1.091
      -1.459
      -1.629
      -1.569
      -1.257
      -0.721
      -0.101
       0.388
       0.586
       0.513
       0.349
       0.277
       0.344
       0.444
       0.437
       0.284
       0.069
      -0.102
      -0.221
      -0.380
      -0.640
      -0.928
      -1.054
      -0.848
      -0.270
       0.548
       1.352
       1.875
       1.960
       1.657
       1.175
       0.716
       0.321
      -0.133
      -0.781
      -1.611
      -2.425
      -2.944
      -2.960
      -2.449
      -1.602
      -0.739
      -0.136
       0.136
       0.240
       0.417
       0.767
       1.145
       1.299
       1.107
       0.689
       0.294
       0.087
       0.042
       0.010
      -0.107
      -0.256
      -0.275
      -0.057
       0.326
       0.664
       0.778
       0.647
       0.386
       0.140
       0.014
       0.049
       0.198
       0.345
       0.394
       0.365
       0.392
       0.605
       0.995
       1.384
       1.518
       1.239
       0.607
      -0.145
      -0.788
      -1.230
      -1.495
      -1.611
      -1.559
      -1.325
      -0.940
      -0.479
      -0.031
       0.304
       0.438
       0.324
      -0.008
      -0.474
      -0.983
      -1.457
      -1.826
      -2.015
      -1.951
      -1.584
      -0.916
      -0.057
       0.788
       1.414
       1.720
       1.731
       1.532
       1.211
       0.850
       0.519
       0.252
       0.050
      -0.082
      -0.108
       0.005
       0.212
       0.360
       0.265
      -0.153
      -0.778
      -1.346
      -1.604
      -1.464
      -1.036
      -0.541
      -0.154
       0.113
       0.400
       0.860
       1.484
       2.067
       2.342
       2.181
       1.686
       1.092
       0.590
       0.222
      -0.099
      -0.455
      -0.828
      -1.113
      -1.228
      -1.202
      -1.161
      -1.209
      -1.336
      -1.396
      -1.186
      -0.573
       0.388
       1.427
       2.167
       2.330
       1.910
       1.148
       0.331
      -0.407
      -1.095
      -1.759
      -2.309
      -2.576
      -2.456
      -1.986
      -1.316
      -0.623
      -0.033
       0.416
       0.767
       1.083
       1.383
       1.618
       1.718
       1.667
       1.530
       1.398
       1.311
       1.228
       1.062
       0.757
       0.347
      -0.039
      -0.247
      -0.189
       0.101
       0.490
       0.806
       0.878
       0.592
      -0.049
      -0.889
      -1.686
      -2.217
      -2.366
      -2.141
      -1.654
      -1.069
      -0.540
      -0.154
       0.060
       0.103
      -0.009
      -0.222
      -0.445
      -0.592
      -0.609
      -0.465
      -0.129
       0.395
       1.007
       1.511
       1.696
       1.451
       0.853
       0.152
      -0.354
      -0.496
      -0.317
       0.015
       0.346
       0.586
       0.648
       0.412
      -0.193
      -1.072
      -1.936
      -2.433
      -2.330
      -1.645
      -0.627
       0.380
       1.112
       1.491
       1.612
       1.628
       1.634
       1.628
       1.555
       1.369
       1.067
       0.682
       0.271
      -0.117
      -0.460
      -0.781
      -1.131
      -1.534
      -1.914
      -2.103
      -1.943
      -1.405
      -0.601
       0.288
       1.085
       1.639
       1.859
       1.753
       1.425
       1.011
       0.621
       0.320
       0.145
       0.094
       0.122
       0.155
       0.140
       0.065
      -0.064
      -0.244
      -0.470
      -0.693
      -0.813
      -0.754
      -0.551
      -0.343
      -0.243
      -0.264
      -0.364
      -0.541
      -0.827
      -1.190
      -1.499
      -1.633
      -1.568
      -1.345
      -0.984
      -0.478
       0.137
       0.774
       1.335
       1.750
       1.970
       1.980
       1.814
       1.539
       1.224
       0.940
       0.750
       0.669
       0.622
       0.494
       0.249
      -0.015
      -0.139
      -0.048
       0.163
       0.272
       0.095
      -0.365
      -0.916
      -1.328
      -1.512
      -1.561
      -1.649
      -1.876
      -2.183
      -2.373
      -2.213
      -1.566
      -0.472
       0.857
       2.113
       2.987
       3.264
       2.905
       2.065
       1.015
       0.014
      -0.767
      -1.215
      -1.244
      -0.824
      -0.028
       0.956
       1.892
       2.570
       2.881
       2.837
       2.530
       2.051
       1.450
       0.748
      -0.025
      -0.830
      -1.626
      -2.352
      -2.930
      -3.319
      -3.565
      -3.753
      -3.904
      -3.932
      -3.701
      -3.121
      -2.188
      -0.999
       0.273
       1.448
       2.405
       3.080
       3.430
       3.433
       3.120
       2.587
       1.968
       1.395
       0.952
       0.649
       0.462
       0.377
       0.389
       0.451
       0.483
       0.454
       0.430
       0.470
       0.504
       0.345
      -0.155
      -0.961
      -1.853
      -2.530
      -2.747
      -2.418
      -1.651
      -0.691
       0.196
       0.824
       1.115
       1.073
       0.763
       0.325
      -0.043
      -0.177
      -0.080
       0.059
       0.030
      -0.182
      -0.367
      -0.297
       0.054
       0.493
       0.788
       0.843
       0.730
       0.598
       0.568
       0.661
       0.786
       0.795
       0.599
       0.248
      -0.102
      -0.327
      -0.471
      -0.718
      -1.234
      -1.986
      -2.687
      -2.947
      -2.520
      -1.484
      -0.210
       0.879
       1.542
       1.769
       1.670
       1.356
       0.903
       0.362
      -0.247
      -0.911
      -1.561
      -2.039
      -2.137
      -1.723
      -0.845
       0.268
       1.310
       2.067
       2.488
       2.632
       2.541
       2.212
       1.658
       0.992
       0.402
       0.068
       0.050
       0.230
       0.361
       0.226
      -0.214
      -0.816
      -1.370
      -1.720
      -1.784
      -1.580
      -1.264
      -1.081
      -1.168
      -1.381
      -1.414
      -1.091
      -0.544
      -0.073
       0.102
      -0.039
      -0.358
      -0.662
      -0.779
      -0.633
      -0.269
       0.206
       0.742
       1.371
       2.142
       3.002
       3.750
       4.103
       3.869
       3.104
       2.108
       1.231
       0.644
       0.308
       0.104
      -0.048
      -0.196
      -0.411
      -0.770
      -1.283
      -1.854
      -2.339
      -2.635
      -2.735
      -2.714
      -2.669
      -2.656
      -2.659
      -2.596
      -2.372
      -1.932
      -1.282
      -0.466
       0.472
       1.478
       2.445
       3.186
       3.518
       3.389
       2.940
       2.422
       2.061
       1.936
       1.932
       1.791
       1.280
       0.357
      -0.793
      -1.877
      -2.657
      -3.028
      -3.010
      -2.709
      -2.270
      -1.824
      -1.455
      -1.180
      -0.938
      -0.626
      -0.196
       0.263
       0.565
       0.574
       0.297
      -0.151
      -0.634
      -1.015
      -1.146
      -0.904
      -0.270
       0.653
       1.686
       2.634
       3.324
       3.631
       3.532
       3.121
       2.560
       2.013
       1.588
       1.287
       0.987
       0.530
      -0.113
      -0.755
      -1.092
      -0.926
      -0.321
       0.427
       0.948
       0.992
       0.517
      -0.374
      -1.536
      -2.812
      -3.970
      -4.702
      -4.763
      -4.148
      -3.132
      -2.125
      -1.441
      -1.147
      -1.089
      -1.040
      -0.837
      -0.440
       0.074
       0.569
       0.931
       1.156
       1.348
       1.621
       1.977
       2.314
       2.538
       2.655
       2.722
       2.727
       2.545
       2.063
       1.370
       0.780
       0.611
       0.915
       1.409
       1.672
       1.410
       0.593
      -0.571
      -1.762
      -2.675
      -3.129
      -3.085
      -2.623
      -1.889
      -1.072
      -0.394
      -0.056
      -0.137
      -0.493
      -0.794
      -0.715
      -0.178
       0.574
       1.170
       1.383
       1.239
       0.891
       0.441
      -0.091
      -0.700
      -1.322
      -1.833
      -2.093
      -2.015
      -1.614
      -0.998
      -0.315
       0.311
       0.791
       1.056
       1.067
       0.846
       0.488
       0.122
      -0.148
      -0.245
      -0.111
       0.255
       0.741
       1.135
       1.245
       1.025
       0.582
       0.072
      -0.365
      -0.604
      -0.528
      -0.121
       0.455
       0.931
       1.101
       0.948
       0.615
       0.293
       0.115
       0.106
       0.194
       0.267
       0.257
       0.167
       0.058
       0.008
       0.098
       0.354
       0.684
       0.887
       0.813
       0.501
       0.127
      -0.197
      -0.510
      -0.887
      -1.273
      -1.484
      -1.353
      -0.873
      -0.231
       0.274
       0.384
       0.016
      -0.693
      -1.453
      -1.955
      -2.013
      -1.652
      -1.074
      -0.497
      -0.034
       0.296
       0.494
       0.568
       0.576
       0.616
       0.748
       0.927
       1.039
       0.982
       0.735
       0.384
       0.109
       0.093
       0.392
       0.877
       1.310
       1.472
       1.241
       0.622
      -0.237
      -1.064
      -1.573
      -1.609
      -1.224
      -0.622
      -0.060
       0.257
       0.263
       0.082
      -0.037
       0.123
       0.598
       1.206
       1.618
       1.515
       0.786
      -0.351
      -1.425
      -1.975
      -1.818
      -1.111
      -0.199
       0.597
       1.099
       1.277
       1.188
       0.910
       0.513
       0.076
      -0.290
      -0.488
      -0.523
      -0.530
      -0.661
      -0.948
      -1.276
      -1.487
      -1.498
      -1.334
      -1.086
      -0.840
      -0.643
      -0.499
      -0.381
      -0.244
      -0.035
       0.257
       0.576
       0.810
       0.853
       0.643
       0.184
      -0.419
      -0.939
      -1.109
      -0.786
      -0.069
       0.761
       1.430
       1.802
       1.872
       1.695
       1.354
       0.974
       0.692
       0.577
       0.557
       0.461
       0.151
      -0.340
      -0.800
      -0.978
      -0.771
      -0.302
       0.183
       0.486
       0.566
       0.500
       0.350
       0.087
      -0.372
      -1.025
      -1.705
      -2.142
      -2.109
      -1.554
      -0.632
       0.364
       1.154
       1.640
       1.939
       2.222
       2.514
       2.635
       2.352
       1.575
       0.434
      -0.769
      -1.686
      -2.061
      -1.843
      -1.199
      -0.407
       0.294
       0.781
       1.024
       1.044
       0.895
       0.620
       0.215
      -0.345
      -1.009
      -1.617
      -1.990
      -2.023
      -1.736
      -1.247
      -0.749
      -0.453
      -0.498
      -0.858
      -1.330
      -1.641
      -1.596
      -1.180
      -0.544
       0.103
       0.613
       0.926
       1.036
       0.961
       0.779
       0.640
       0.697
       0.980
       1.356
       1.613
       1.610
       1.347
       0.928
       0.471
       0.079
      -0.129
      -0.043
       0.330
       0.807
       1.147
       1.245
       1.178
       1.066
       0.921
       0.648
       0.167
      -0.488
      -1.189
      -1.789
      -2.185
      -2.340
      -2.291
      -2.142
      -2.008
      -1.939
      -1.873
      -1.686
      -1.296
      -0.726
      -0.066
       0.585
       1.165
       1.638
       1.986
       2.185
       2.206
       2.038
       1.703
       1.259
       0.779
       0.335
      -0.035
      -0.329
      -0.533
      -0.574
      -0.372
       0.048
       0.532
       0.898
       1.028
       0.866
       0.396
      -0.327
      -1.137
      -1.800
      -2.123
      -2.047
      -1.656
      -1.113
      -0.540
       0.047
       0.658
       1.191
       1.426
       1.222
       0.702
       0.208
       0.064
       0.369
       0.966
       1.552
       1.840
       1.675
       1.086
       0.231
      -0.700
      -1.550
      -2.206
      -2.582
      -2.625
      -2.339
      -1.806
      -1.178
      -0.609
      -0.176
       0.149
       0.439
       0.712
       0.893
       0.883
       0.658
       0.309
       0.003
      -0.130
      -0.088
       0.010
       0.038
      -0.026
      -0.091
      -0.043
       0.165
       0.482
       0.787
       0.969
       1.000
       0.951
       0.904
       0.860
       0.743
       0.488
       0.129
      -0.217
      -0.432
      -0.470
      -0.359
      -0.179
      -0.038
      -0.048
      -0.241
      -0.512
      -0.668
      -0.598
      -0.376
      -0.192
      -0.178
      -0.328
      -0.530
      -0.660
      -0.648
      -0.518
      -0.354
      -0.221
      -0.114
       0.028
       0.255
       0.574
       0.947
       1.285
       1.456
       1.331
       0.851
       0.075
      -0.820
      -1.590
      -2.001
      -1.912
      -1.341
      -0.449
       0.519
       1.322
       1.795
       1.866
       1.570
       1.026
       0.400
      -0.166
      -0.595
      -0.876
      -1.027
      -1.075
      -1.056
      -0.996
      -0.882
      -0.660
