Origin Time       14/7/2012 19:55:18	 UTC
Lat.              25.5 N	
Long.             94.2 E	
Depth (Km)         35.0
Magnitude         5.5
 Region           Kohima-Nagaland                                                  
 Above details taken from IMD 
    
Station Code      JHR
Station Lat.       26.759  N
Station Long.      94.206  E
Station Height(m)   94.0
Site Class        C   Vs30 between 200 m/sec to 375 m/sec *  
Record Time       14.07.2012 19:55:30.044 UTC
Sampling Rate     200. Hz
 Record Duration  128.870 Sec.
 Direction         N-S (N positive)
Max. Acceleration     27.110 cm/sec**2
     
  * For reference see Site Classification link of website 
     
 Base Line Corrected and Low Pass Filtered (Cut Off at 35 Hz) Time History
 Acceleration data in cm/sec**2
    
[...]
       0.052
       0.100
       0.151
       0.214
       0.307
       0.431
       0.569
       0.691
       0.766
       0.776
       0.720
       0.611
       0.477
       0.349
       0.250
       0.192
       0.173
       0.181
       0.197
       0.205
       0.201
       0.187
       0.166
       0.139
       0.104
       0.060
       0.006
      -0.058
      -0.130
      -0.205
      -0.277
      -0.337
      -0.372
      -0.375
      -0.347
      -0.298
      -0.251
      -0.224
      -0.224
      -0.245
      -0.272
      -0.289
      -0.277
      -0.216
      -0.092
       0.096
       0.323
       0.547
       0.723
       0.813
       0.798
       0.685
       0.505
       0.301
       0.111
      -0.047
      -0.181
      -0.304
      -0.428
      -0.549
      -0.654
      -0.732
      -0.778
      -0.800
      -0.807
      -0.806
      -0.800
      -0.782
      -0.747
      -0.695
      -0.635
      -0.583
      -0.542
      -0.504
      -0.447
      -0.352
      -0.209
      -0.030
       0.160
       0.330
       0.453
       0.521
       0.547
       0.556
       0.567
       0.583
       0.585
       0.553
       0.480
       0.381
       0.285
       0.220
       0.196
       0.201
       0.208
       0.193
       0.146
       0.074
      -0.009
      -0.089
      -0.152
      -0.188
      -0.187
      -0.144
      -0.057
       0.064
       0.201
       0.331
       0.432
       0.498
       0.533
       0.550
       0.563
       0.576
       0.591
       0.600
       0.591
       0.549
       0.463
       0.343
       0.218
       0.121
       0.074
       0.073
       0.096
       0.119
       0.125
       0.111
       0.083
       0.053
       0.034
       0.037
       0.066
       0.112
       0.155
       0.167
       0.123
       0.014
      -0.149
      -0.335
      -0.506
      -0.635
      -0.717
      -0.764
      -0.800
      -0.840
      -0.880
      -0.888
      -0.821
      -0.652
      -0.394
      -0.099
       0.163
       0.327
       0.357
       0.251
       0.039
      -0.221
      -0.462
      -0.628
      -0.684
      -0.633
      -0.505
      -0.351
      -0.211
      -0.113
      -0.071
      -0.088
      -0.163
      -0.286
      -0.439
      -0.596
      -0.732
      -0.825
      -0.864
      -0.847
      -0.775
      -0.655
      -0.494
      -0.297
      -0.072
       0.165
       0.385
       0.556
       0.652
       0.662
       0.594
       0.468
       0.316
       0.173
       0.065
       0.012
       0.025
       0.110
       0.263
       0.466
       0.687
       0.884
       1.018
       1.055
       0.981
       0.801
       0.541
       0.243
      -0.048
      -0.299
      -0.492
      -0.619
      -0.678
      -0.664
      -0.585
      -0.462
      -0.325
      -0.202
      -0.103
      -0.030
       0.020
       0.044
       0.043
       0.022
       0.002
      -0.004
       0.009
       0.035
       0.065
       0.100
       0.143
       0.193
       0.239
       0.258
       0.223
       0.120
      -0.043
      -0.238
      -0.426
      -0.572
      -0.656
      -0.674
      -0.635
      -0.556
      -0.447
      -0.321
      -0.192
      -0.075
       0.020
       0.093
       0.148
       0.179
       0.179
       0.143
       0.079
       0.004
      -0.066
      -0.117
      -0.141
      -0.136
      -0.102
      -0.042
       0.037
       0.126
       0.214
       0.293
       0.359
       0.402
       0.408
       0.366
       0.276
       0.162
       0.065
       0.019
       0.029
       0.077
       0.134
       0.188
       0.249
       0.333
       0.448
       0.597
       0.771
       0.960
       1.142
       1.296
       1.403
       1.461
       1.477
       1.468
       1.452
       1.444
       1.445
       1.440
       1.396
       1.277
       1.071
       0.802
       0.526
       0.300
       0.161
       0.111
       0.123
       0.166
       0.216
       0.275
       0.360
       0.494
       0.682
       0.906
       1.119
       1.269
       1.314
       1.246
       1.090
       0.890
       0.686
       0.507
       0.361
       0.250
       0.178
       0.148
       0.160
       0.206
       0.269
       0.322
       0.331
       0.261
       0.097
      -0.147
      -0.433
      -0.715
      -0.951
      -1.117
      -1.206
      -1.222
      -1.183
      -1.117
      -1.057
      -1.030
      -1.042
      -1.080
      -1.122
      -1.149
      -1.161
      -1.170
      -1.190
      -1.226
      -1.274
      -1.329
      -1.386
      -1.437
      -1.465
      -1.459
      -1.419
      -1.358
      -1.293
      -1.230
      -1.161
      -1.068
      -0.937
      -0.762
      -0.551
      -0.325
      -0.108
       0.072
       0.205
       0.296
       0.364
       0.420
       0.458
       0.459
       0.404
       0.294
       0.149
       0.008
      -0.084
      -0.088
       0.030
       0.280
       0.649
       1.094
       1.540
       1.898
       2.092
       2.086
       1.899
       1.602
       1.282
       1.012
       0.829
       0.731
       0.684
       0.648
       0.588
       0.493
       0.376
       0.266
       0.189
       0.152
       0.141
       0.129
       0.089
       0.009
      -0.108
      -0.245
      -0.381
      -0.492
      -0.552
      -0.540
      -0.444
      -0.266
      -0.033
       0.219
       0.447
       0.614
       0.695
       0.679
       0.566
       0.366
       0.095
      -0.230
      -0.588
      -0.958
      -1.315
      -1.625
      -1.852
      -1.960
      -1.932
      -1.784
      -1.560
      -1.319
      -1.111
      -0.960
      -0.870
      -0.831
      -0.837
      -0.878
      -0.936
      -0.984
      -0.990
      -0.938
      -0.833
      -0.706
      -0.596
      -0.528
      -0.504
      -0.505
      -0.500
      -0.470
      -0.413
      -0.352
      -0.324
      -0.347
      -0.406
      -0.454
      -0.434
      -0.311
      -0.089
       0.187
       0.455
       0.663
       0.777
       0.782
       0.678
       0.476
       0.196
      -0.137
      -0.491
      -0.819
      -1.062
      -1.165
      -1.097
      -0.864
      -0.511
      -0.115
       0.238
       0.482
       0.589
       0.569
       0.449
       0.253
      -0.008
      -0.325
      -0.671
      -0.990
      -1.205
      -1.255
      -1.116
      -0.818
      -0.431
      -0.044
       0.265
       0.439
       0.451
       0.302
       0.026
      -0.316
      -0.654
      -0.927
      -1.099
      -1.164
      -1.132
      -1.016
      -0.821
      -0.543
      -0.185
       0.218
       0.596
       0.853
       0.909
       0.729
       0.341
      -0.174
      -0.701
      -1.119
      -1.333
      -1.299
      -1.036
      -0.612
      -0.111
       0.405
       0.919
       1.440
       1.979
       2.520
       3.011
       3.372
       3.523
       3.422
       3.081
       2.561
       1.957
       1.365
       0.863
       0.503
       0.301
       0.247
       0.315
       0.475
       0.703
       0.980
       1.284
       1.578
       1.820
       1.981
       2.054
       2.066
       2.069
       2.127
       2.298
       2.610
       3.048
       3.553
       4.041
       4.422
       4.622
       4.589
       4.306
       3.792
       3.102
       2.311
       1.489
       0.681
      -0.092
      -0.821
      -1.489
      -2.058
      -2.472
      -2.672
      -2.624
      -2.338
      -1.865
      -1.286
      -0.683
      -0.129
       0.321
       0.639
       0.820
       0.882
       0.843
       0.720
       0.528
       0.286
       0.025
      -0.226
      -0.448
      -0.639
      -0.812
      -0.992
      -1.215
      -1.518
      -1.929
      -2.451
      -3.059
      -3.698
      -4.302
      -4.807
      -5.168
      -5.360
      -5.372
      -5.197
      -4.834
      -4.298
      -3.635
      -2.918
      -2.239
      -1.683
      -1.306
      -1.123
      -1.103
      -1.189
      -1.318
      -1.438
      -1.516
      -1.531
      -1.458
      -1.268
      -0.939
      -0.473
       0.077
       0.617
       1.035
       1.243
       1.207
       0.954
       0.552
       0.077
      -0.409
      -0.866
      -1.282
      -1.658
      -1.999
      -2.293
      -2.494
      -2.537
      -2.357
      -1.920
      -1.239
      -0.385
       0.527
       1.371
       2.048
       2.513
       2.779
       2.911
       2.981
       3.037
       3.083
       3.088
       3.028
       2.905
       2.751
       2.608
       2.511
       2.470
       2.468
       2.464
       2.396
       2.189
       1.780
       1.139
       0.286
      -0.717
      -1.775
      -2.776
      -3.602
      -4.142
      -4.303
      -4.027
      -3.310
      -2.209
      -0.842
       0.650
       2.127
       3.466
       4.549
       5.270
       5.539
       5.307
       4.576
       3.401
       1.896
       0.218
      -1.447
      -2.908
      -3.998
      -4.609
      -4.696
      -4.284
      -3.453
      -2.333
      -1.094
       0.081
       1.029
       1.634
       1.853
       1.719
       1.329
       0.819
       0.332
      -0.016
      -0.158
      -0.083
       0.174
       0.545
       0.946
       1.281
       1.466
       1.443
       1.194
       0.732
       0.093
      -0.674
      -1.501
      -2.298
      -2.957
      -3.365
      -3.431
      -3.106
      -2.402
      -1.396
      -0.218
       0.966
       1.991
       2.722
       3.076
       3.017
       2.560
       1.778
       0.815
      -0.136
      -0.875
      -1.259
      -1.240
      -0.874
      -0.292
       0.347
       0.891
       1.226
       1.288
       1.070
       0.613
      -0.002
      -0.658
      -1.225
      -1.584
      -1.663
      -1.459
      -1.029
      -0.460
       0.160
       0.750
       1.231
       1.520
       1.539
       1.240
       0.629
      -0.230
      -1.232
      -2.260
      -3.207
      -3.980
      -4.505
      -4.733
      -4.646
      -4.259
      -3.612
      -2.769
      -1.811
      -0.819
       0.131
       0.984
       1.693
       2.219
       2.535
       2.643
       2.585
       2.441
       2.299
       2.219
       2.212
       2.235
       2.212
       2.062
       1.741
       1.259
       0.685
       0.115
      -0.346
      -0.617
      -0.664
      -0.510
      -0.227
       0.095
       0.380
       0.595
       0.757
       0.915
       1.106
       1.331
       1.545
       1.681
       1.685
       1.535
       1.248
       0.875
       0.495
       0.196
       0.053
       0.092
       0.275
       0.502
       0.644
       0.588
       0.270
      -0.305
      -1.065
      -1.891
      -2.658
      -3.284
      -3.736
      -4.024
      -4.174
      -4.211
      -4.158
      -4.034
      -3.859
      -3.649
      -3.417
      -3.194
      -3.034
      -3.004
      -3.152
      -3.472
      -3.892
      -4.309
      -4.621
      -4.775
      -4.767
      -4.632
      -4.414
      -4.140
      -3.817
      -3.440
      -3.001
      -2.504
      -1.973
      -1.455
      -1.002
      -0.656
      -0.433
      -0.317
      -0.275
      -0.268
      -0.259
      -0.226
      -0.173
      -0.125
      -0.122
      -0.188
      -0.316
      -0.463
      -0.574
      -0.617
      -0.588
      -0.504
      -0.376
      -0.202
       0.037
       0.360
       0.772
       1.254
       1.775
       2.313
       2.862
       3.429
       4.016
       4.611
       5.196
       5.756
       6.291
       6.811
       7.322
       7.805
       8.205
       8.438
       8.423
       8.120
       7.551
       6.798
       5.965
       5.152
       4.441
       3.903
       3.607
       3.598
       3.873
       4.375
       5.022
       5.740
       6.491
       7.256
       8.018
       8.753
       9.436
      10.064
      10.647
      11.181
      11.639
      11.972
      12.132
      12.088
      11.823
      11.329
      10.606
       9.673
       8.584
       7.439
       6.358
       5.455
       4.818
       4.487
       4.446
       4.624
       4.918
       5.232
       5.513
       5.744
       5.933
       6.087
       6.208
       6.303
       6.389
       6.482
       6.582
       6.660
       6.654
       6.480
       6.045
       5.264
       4.080
       2.489
       0.555
      -1.591
      -3.780
      -5.846
      -7.652
      -9.117
     -10.230
     -11.044
     -11.649
     -12.120
     -12.469
     -12.651
     -12.607
     -12.319
     -11.838
     -11.257
     -10.676
     -10.188
      -9.891
      -9.903
     -10.339
     -11.264
     -12.656
     -14.411
     -16.377
     -18.392
     -20.313
     -22.022
     -23.436
     -24.506
     -25.215
     -25.558
     -25.535
     -25.129
     -24.311
     -23.056
     -21.374
     -19.322
     -16.990
     -14.463
     -11.822
      -9.160
      -6.612
      -4.341
      -2.515
      -1.260
      -0.635
      -0.635
      -1.203
      -2.256
      -3.673
      -5.285
      -6.877
      -8.243
      -9.260
      -9.942
     -10.417
     -10.833
     -11.251
     -11.622
     -11.848
     -11.869
     -11.689
     -11.320
     -10.722
      -9.807
      -8.513
      -6.889
      -5.091
      -3.290
      -1.579
       0.028
       1.547
       2.978
       4.307
       5.542
       6.718
       7.885
       9.088
      10.374
      11.802
      13.427
      15.258
      17.192
      19.037
      20.613
      21.867
      22.891
      23.826
      24.746
      25.611
      26.317
      26.787
      27.030
      27.110
      27.063
      26.837
      26.323
      25.452
      24.255
      22.823
      21.209
      19.384
      17.286
      14.907
      12.323
       9.674
       7.117
       4.806
       2.876
       1.417
       0.443
      -0.105
      -0.312
      -0.235
       0.102
       0.672
       1.401
       2.164
       2.828
       3.307
       3.568
       3.597
       3.364
       2.850
       2.083
       1.156
       0.192
      -0.717
      -1.539
      -2.284
      -2.972
      -3.622
      -4.264
      -4.952
      -5.745
      -6.688
      -7.797
      -9.067
     -10.476
     -11.997
     -13.592
     -15.204
     -16.754
     -18.167
     -19.407
     -20.487
     -21.413
     -22.124
     -22.498
     -22.420
     -21.834
     -20.748
     -19.189
     -17.162
     -14.650
     -11.644
      -8.192
      -4.416
      -0.488
       3.409
       7.115
      10.497
      13.443
      15.867
      17.709
      18.931
      19.503
      19.417
      18.701
      17.413
      15.609
      13.318
      10.564
       7.434
       4.144
       1.024
      -1.574
      -3.408
      -4.436
      -4.797
      -4.721
      -4.416
      -4.003
      -3.522
      -2.990
      -2.454
      -2.011
      -1.761
      -1.739
      -1.881
      -2.060
      -2.151
      -2.092
      -1.884
      -1.549
      -1.088
      -0.487
       0.227
       0.958
       1.558
       1.906
       1.974
       1.846
       1.672
       1.600
       1.714
       2.021
       2.484
       3.042
       3.606
       4.030
       4.128
       3.750
       2.863
       1.573
       0.072
      -1.450
      -2.852
      -4.054
      -5.006
      -5.675
      -6.047
      -6.131
      -5.956
      -5.539
      -4.878
      -3.970
      -2.856
      -1.617
      -0.344
       0.897
       2.065
       3.094
       3.875
       4.285
       4.252
       3.796
       3.020
       2.049
       0.992
      -0.051
      -0.972
      -1.660
      -2.056
      -2.190
      -2.156
      -2.053
      -1.934
      -1.802
      -1.640
      -1.424
      -1.131
      -0.747
      -0.277
       0.254
       0.802
       1.318
       1.758
       2.097
       2.328
       2.452
       2.464
       2.360
       2.150
       1.876
       1.606
       1.418
       1.368
       1.475
       1.713
       2.015
       2.295
       2.459
       2.429
       2.177
       1.734
       1.191
       0.675
       0.308
       0.164
       0.236
       0.431
       0.606
       0.619
       0.380
      -0.137
      -0.900
      -1.832
      -2.825
      -3.768
      -4.569
      -5.186
      -5.634
      -5.961
      -6.208
      -6.368
      -6.372
      -6.105
      -5.456
      -4.359
      -2.827
      -0.956
       1.097
       3.139
       4.974
       6.421
       7.337
       7.641
       7.331
       6.476
       5.201
       3.673
       2.078
       0.600
      -0.609
      -1.460
      -1.945
      -2.122
      -2.095
      -1.993
      -1.951
      -2.090
      -2.470
      -3.059
      -3.746
      -4.390
      -4.858
      -5.046
      -4.896
      -4.405
      -3.635
      -2.700
      -1.739
      -0.880
      -0.206
       0.261
       0.549
       0.700
       0.733
       0.630
       0.346
      -0.152
      -0.858
      -1.720
      -2.653
      -3.557
      -4.346
      -4.958
      -5.359
      -5.532
      -5.473
      -5.191
      -4.708
      -4.076
      -3.394
      -2.794
      -2.391
      -2.219
      -2.195
      -2.153
      -1.923
      -1.409
      -0.620
       0.347
       1.351
       2.252
       2.948
       3.414
       3.710
       3.966
       4.330
       4.902
       5.699
       6.650
       7.644
       8.575
       9.358
       9.914
      10.169
      10.069
       9.620
       8.892
       7.994
       7.032
       6.083
       5.195
       4.399
       3.715
       3.142
       2.654
       2.211
       1.769
       1.292
       0.754
       0.126
      -0.618
      -1.492
      -2.479
      -3.503
      -4.446
      -5.176
      -5.589
      -5.643
      -5.353
      -4.786
      -4.047
      -3.265
      -2.566
      -2.042
      -1.738
      -1.648
      -1.726
      -1.898
      -2.073
      -2.172
      -2.143
      -1.959
      -1.617
      -1.121
      -0.485
       0.250
       1.011
       1.697
       2.209
       2.487
       2.523
       2.362
       2.076
       1.744
       1.433
       1.195
       1.059
       1.031
       1.086
       1.176
       1.250
       1.269
       1.226
       1.136
       1.032
       0.957
       0.944
       1.000
       1.103
       1.198
       1.217
       1.098
       0.801
       0.315
      -0.342
      -1.126
      -1.968
      -2.776
      -3.452
      -3.907
      -4.089
      -3.986
      -3.632
      -3.094
      -2.460
      -1.814
      -1.211
      -0.669
      -0.173
       0.290
       0.722
       1.114
       1.473
       1.825
       2.203
       2.627
       3.091
       3.569
       4.023
       4.407
       4.672
       4.780
       4.715
       4.496
       4.167
       3.794
       3.444
       3.176
       3.026
       3.001
       3.075
       3.199
       3.316
       3.382
       3.383
       3.332
       3.250
       3.138
       2.972
       2.709
       2.319
       1.801
       1.180
       0.505
      -0.167
      -0.778
      -1.290
      -1.708
      -2.080
      -2.481
      -2.980
      -3.600
      -4.302
      -4.989
      -5.536
      -5.834
      -5.817
      -5.485
      -4.883
      -4.087
      -3.191
      -2.298
      -1.511
      -0.925
      -0.607
      -0.589
      -0.862
      -1.377
      -2.040
      -2.723
      -3.291
      -3.643
      -3.738
      -3.604
      -3.329
      -3.034
      -2.829
      -2.776
      -2.883
      -3.122
      -3.447
      -3.804
