Origin Time       2/8/2013 21:37:40	  UTC
Lat.              33.4 N	
Long.             75.9 E	
Depth (Km)         20.0
Magnitude         5.2
 Region           KISHTWAR-JK                                                      
 Above details taken from IMD 
    
Station Code      JMU
Station Lat.       32.732  N
Station Long.      74.874  E
Station Height(m)  361.0
Site Class        B   Vs30 between 375 m/sec to 700 m/sec *  
Record Time       02.08.2013 21:37:54.369 UTC
Sampling Rate     200. Hz
 Record Duration   85.710 Sec.
 Direction         N-S (N positive)
Max. Acceleration     -2.272 cm/sec**2
     
  * For reference see Site Classification link of website 
     
 Base Line Corrected and Low Pass Filtered (Cut Off at 35 Hz) Time History
 Acceleration data in cm/sec**2
    
[...]
      -0.511
      -0.448
      -0.381
      -0.316
      -0.252
      -0.184
      -0.101
       0.001
       0.121
       0.253
       0.388
       0.512
       0.602
       0.644
       0.639
       0.602
       0.551
       0.499
       0.453
       0.412
       0.362
       0.290
       0.188
       0.059
      -0.085
      -0.218
      -0.310
      -0.337
      -0.296
      -0.203
      -0.090
       0.012
       0.076
       0.102
       0.108
       0.120
       0.151
       0.203
       0.273
       0.355
       0.439
       0.511
       0.563
       0.585
       0.570
       0.520
       0.447
       0.367
       0.288
       0.205
       0.109
      -0.011
      -0.161
      -0.332
      -0.498
      -0.634
      -0.729
      -0.785
      -0.806
      -0.799
      -0.774
      -0.740
      -0.697
      -0.642
      -0.573
      -0.481
      -0.359
      -0.208
      -0.041
       0.125
       0.279
       0.415
       0.528
       0.615
       0.675
       0.709
       0.721
       0.718
       0.709
       0.694
       0.656
       0.583
       0.472
       0.337
       0.194
       0.059
      -0.057
      -0.153
      -0.230
      -0.290
      -0.324
      -0.325
      -0.292
      -0.231
      -0.154
      -0.079
      -0.027
      -0.014
      -0.044
      -0.106
      -0.185
      -0.261
      -0.316
      -0.346
      -0.364
      -0.387
      -0.425
      -0.479
      -0.544
      -0.611
      -0.669
      -0.707
      -0.718
      -0.699
      -0.646
      -0.560
      -0.447
      -0.316
      -0.167
       0.003
       0.190
       0.391
       0.596
       0.792
       0.952
       1.063
       1.123
       1.149
       1.151
       1.133
       1.095
       1.033
       0.943
       0.828
       0.700
       0.573
       0.454
       0.349
       0.262
       0.193
       0.134
       0.077
       0.022
      -0.031
      -0.083
      -0.141
      -0.208
      -0.289
      -0.384
      -0.486
      -0.577
      -0.638
      -0.665
      -0.659
      -0.625
      -0.568
      -0.499
      -0.433
      -0.381
      -0.357
      -0.370
      -0.420
      -0.490
      -0.551
      -0.580
      -0.564
      -0.497
      -0.385
      -0.249
      -0.106
       0.031
       0.153
       0.253
       0.323
       0.367
       0.390
       0.398
       0.397
       0.391
       0.378
       0.344
       0.280
       0.188
       0.079
      -0.041
      -0.169
      -0.301
      -0.432
      -0.553
      -0.651
      -0.715
      -0.737
      -0.723
      -0.682
      -0.617
      -0.530
      -0.422
      -0.294
      -0.147
       0.016
       0.185
       0.354
       0.525
       0.698
       0.864
       1.005
       1.110
       1.170
       1.184
       1.149
       1.068
       0.940
       0.763
       0.544
       0.305
       0.070
      -0.142
      -0.325
      -0.473
      -0.583
      -0.656
      -0.697
      -0.708
      -0.695
      -0.663
      -0.618
      -0.561
      -0.497
      -0.435
      -0.378
      -0.317
      -0.242
      -0.152
      -0.058
       0.028
       0.094
       0.131
       0.137
       0.118
       0.081
       0.031
      -0.027
      -0.088
      -0.144
      -0.188
      -0.215
      -0.214
      -0.179
      -0.115
      -0.030
       0.066
       0.164
       0.251
       0.318
       0.366
       0.402
       0.432
       0.454
       0.468
       0.470
       0.453
       0.413
       0.355
       0.282
       0.194
       0.093
      -0.018
      -0.133
      -0.250
      -0.362
      -0.458
      -0.527
      -0.568
      -0.585
      -0.579
      -0.545
      -0.482
      -0.389
      -0.266
      -0.121
       0.030
       0.168
       0.280
       0.365
       0.429
       0.481
       0.528
       0.567
       0.580
       0.547
       0.461
       0.322
       0.139
      -0.078
      -0.306
      -0.523
      -0.710
      -0.853
      -0.946
      -0.987
      -0.985
      -0.947
      -0.882
      -0.793
      -0.689
      -0.577
      -0.461
      -0.346
      -0.239
      -0.148
      -0.070
      -0.001
       0.058
       0.102
       0.133
       0.157
       0.184
       0.225
       0.289
       0.377
       0.480
       0.580
       0.664
       0.720
       0.746
       0.750
       0.752
       0.771
       0.815
       0.874
       0.930
       0.963
       0.951
       0.888
       0.788
       0.672
       0.559
       0.456
       0.363
       0.271
       0.166
       0.035
      -0.118
      -0.278
      -0.424
      -0.535
      -0.598
      -0.610
      -0.581
      -0.523
      -0.444
      -0.345
      -0.230
      -0.099
       0.045
       0.198
       0.345
       0.473
       0.576
       0.655
       0.711
       0.739
       0.736
       0.692
       0.599
       0.458
       0.283
       0.096
      -0.088
      -0.258
      -0.407
      -0.531
      -0.633
      -0.719
      -0.794
      -0.862
      -0.925
      -0.976
      -0.997
      -0.970
      -0.892
      -0.779
      -0.655
      -0.541
      -0.447
      -0.370
      -0.301
      -0.230
      -0.163
      -0.111
      -0.078
      -0.063
      -0.063
      -0.076
      -0.091
      -0.095
      -0.079
      -0.038
       0.027
       0.113
       0.210
       0.310
       0.402
       0.476
       0.520
       0.530
       0.519
       0.504
       0.498
       0.504
       0.516
       0.523
       0.508
       0.459
       0.382
       0.294
       0.209
       0.131
       0.060
      -0.007
      -0.072
      -0.129
      -0.167
      -0.179
      -0.176
      -0.172
      -0.179
      -0.200
      -0.234
      -0.277
      -0.319
      -0.353
      -0.379
      -0.406
      -0.435
      -0.463
      -0.483
      -0.492
      -0.484
      -0.460
      -0.430
      -0.407
      -0.405
      -0.436
      -0.506
      -0.608
      -0.713
      -0.784
      -0.796
      -0.750
      -0.654
      -0.524
      -0.375
      -0.219
      -0.065
       0.080
       0.206
       0.306
       0.382
       0.442
       0.495
       0.554
       0.628
       0.716
       0.796
       0.839
       0.823
       0.743
       0.606
       0.428
       0.236
       0.050
      -0.118
      -0.259
      -0.362
      -0.417
      -0.422
      -0.387
      -0.325
      -0.253
      -0.187
      -0.138
      -0.107
      -0.084
      -0.068
      -0.061
      -0.065
      -0.079
      -0.099
      -0.119
      -0.131
      -0.132
      -0.125
      -0.116
      -0.104
      -0.088
      -0.071
      -0.061
      -0.060
      -0.067
      -0.081
      -0.097
      -0.108
      -0.107
      -0.097
      -0.087
      -0.085
      -0.092
      -0.102
      -0.098
      -0.056
       0.038
       0.173
       0.321
       0.458
       0.575
       0.681
       0.786
       0.897
       1.006
       1.092
       1.136
       1.132
       1.080
       0.986
       0.862
       0.730
       0.603
       0.484
       0.358
       0.212
       0.040
      -0.156
      -0.367
      -0.573
      -0.750
      -0.883
      -0.965
      -0.996
      -0.980
      -0.927
      -0.845
      -0.734
      -0.591
      -0.418
      -0.225
      -0.026
       0.161
       0.314
       0.412
       0.449
       0.428
       0.359
       0.256
       0.137
       0.020
      -0.086
      -0.179
      -0.252
      -0.297
      -0.308
      -0.284
      -0.225
      -0.142
      -0.052
       0.025
       0.078
       0.107
       0.113
       0.098
       0.076
       0.061
       0.067
       0.100
       0.155
       0.221
       0.277
       0.301
       0.285
       0.233
       0.155
       0.065
      -0.018
      -0.084
      -0.130
      -0.160
      -0.173
      -0.163
      -0.135
      -0.102
      -0.080
      -0.083
      -0.114
      -0.165
      -0.217
      -0.253
      -0.273
      -0.292
      -0.327
      -0.388
      -0.479
      -0.595
      -0.723
      -0.849
      -0.968
      -1.073
      -1.161
      -1.230
      -1.278
      -1.298
      -1.280
      -1.212
      -1.090
      -0.924
      -0.728
      -0.519
      -0.321
      -0.151
      -0.005
       0.135
       0.292
       0.481
       0.705
       0.949
       1.184
       1.386
       1.543
       1.658
       1.733
       1.771
       1.771
       1.729
       1.642
       1.512
       1.348
       1.161
       0.956
       0.739
       0.527
       0.340
       0.191
       0.084
       0.011
      -0.042
      -0.094
      -0.149
      -0.199
      -0.221
      -0.200
      -0.135
      -0.035
       0.081
       0.186
       0.260
       0.298
       0.310
       0.305
       0.288
       0.257
       0.208
       0.136
       0.045
      -0.050
      -0.128
      -0.176
      -0.192
      -0.178
      -0.142
      -0.100
      -0.066
      -0.044
      -0.032
      -0.029
      -0.039
      -0.065
      -0.108
      -0.174
      -0.261
      -0.356
      -0.436
      -0.488
      -0.504
      -0.486
      -0.440
      -0.379
      -0.320
      -0.268
      -0.220
      -0.162
      -0.077
       0.045
       0.202
       0.376
       0.545
       0.700
       0.836
       0.948
       1.026
       1.063
       1.054
       0.997
       0.894
       0.753
       0.583
       0.389
       0.170
      -0.070
      -0.324
      -0.588
      -0.852
      -1.100
      -1.314
      -1.483
      -1.605
      -1.680
      -1.711
      -1.700
      -1.652
      -1.566
      -1.442
      -1.291
      -1.124
      -0.946
      -0.761
      -0.575
      -0.407
      -0.274
      -0.194
      -0.177
      -0.223
      -0.311
      -0.412
      -0.493
      -0.531
      -0.513
      -0.441
      -0.334
      -0.212
      -0.086
       0.041
       0.166
       0.292
       0.426
       0.573
       0.717
       0.829
       0.880
       0.857
       0.763
       0.619
       0.455
       0.299
       0.163
       0.050
      -0.039
      -0.100
      -0.128
      -0.115
      -0.053
       0.065
       0.234
       0.439
       0.662
       0.887
       1.096
       1.279
       1.433
       1.561
       1.663
       1.735
       1.774
       1.782
       1.753
       1.688
       1.592
       1.476
       1.348
       1.214
       1.074
       0.925
       0.756
       0.556
       0.326
       0.072
      -0.193
      -0.455
      -0.691
      -0.876
      -0.999
      -1.072
      -1.114
      -1.144
      -1.178
      -1.217
      -1.255
      -1.285
      -1.303
      -1.312
      -1.311
      -1.298
      -1.270
      -1.230
      -1.180
      -1.120
      -1.053
      -0.985
      -0.914
      -0.836
      -0.744
      -0.633
      -0.494
      -0.320
      -0.116
       0.107
       0.334
       0.548
       0.734
       0.881
       0.990
       1.070
       1.124
       1.154
       1.163
       1.158
       1.141
       1.109
       1.054
       0.970
       0.850
       0.698
       0.532
       0.376
       0.242
       0.135
       0.053
      -0.010
      -0.060
      -0.107
      -0.150
      -0.180
      -0.184
      -0.154
      -0.093
      -0.018
       0.043
       0.066
       0.048
       0.000
      -0.059
      -0.114
      -0.150
      -0.160
      -0.146
      -0.124
      -0.110
      -0.114
      -0.138
      -0.174
      -0.205
      -0.220
      -0.227
      -0.239
      -0.264
      -0.294
      -0.308
      -0.287
      -0.215
      -0.092
       0.057
       0.197
       0.295
       0.336
       0.323
       0.271
       0.205
       0.140
       0.078
       0.008
      -0.080
      -0.192
      -0.328
      -0.481
      -0.632
      -0.754
      -0.824
      -0.833
      -0.781
      -0.670
      -0.504
      -0.286
      -0.017
       0.293
       0.617
       0.920
       1.175
       1.371
       1.507
       1.590
       1.626
       1.616
       1.548
       1.410
       1.200
       0.934
       0.637
       0.336
       0.048
      -0.218
      -0.470
      -0.714
      -0.951
      -1.173
      -1.377
      -1.552
      -1.677
      -1.724
      -1.683
      -1.565
      -1.394
      -1.197
      -0.990
      -0.779
      -0.566
      -0.356
      -0.164
      -0.008
       0.110
       0.190
       0.231
       0.221
       0.154
       0.034
      -0.123
      -0.294
      -0.447
      -0.556
      -0.605
      -0.594
      -0.526
      -0.409
      -0.257
      -0.089
       0.079
       0.233
       0.361
       0.460
       0.540
       0.618
       0.707
       0.808
       0.907
       0.981
       1.004
       0.959
       0.859
       0.732
       0.608
       0.496
       0.398
       0.306
       0.213
       0.115
       0.015
      -0.075
      -0.144
      -0.183
      -0.186
      -0.157
      -0.113
      -0.072
      -0.045
      -0.030
      -0.025
      -0.029
      -0.037
      -0.043
      -0.043
      -0.032
      -0.001
       0.053
       0.128
       0.213
       0.299
       0.377
       0.434
       0.459
       0.447
       0.403
       0.337
       0.260
       0.184
       0.114
       0.036
      -0.067
      -0.204
      -0.367
      -0.543
      -0.714
      -0.863
      -0.964
      -0.998
      -0.954
      -0.829
      -0.636
      -0.399
      -0.141
       0.125
       0.397
       0.675
       0.957
       1.238
       1.509
       1.750
       1.937
       2.059
       2.113
       2.101
       2.029
       1.906
       1.744
       1.548
       1.310
       1.028
       0.702
       0.337
      -0.057
      -0.466
      -0.874
      -1.264
      -1.614
      -1.902
      -2.105
      -2.223
      -2.272
      -2.270
      -2.225
      -2.138
      -2.004
      -1.818
      -1.583
      -1.310
      -1.019
      -0.727
      -0.452
      -0.213
      -0.027
       0.103
       0.189
       0.244
       0.276
       0.291
       0.295
       0.290
       0.271
       0.238
       0.191
       0.132
       0.061
      -0.022
      -0.119
      -0.232
      -0.358
      -0.485
      -0.601
      -0.703
      -0.792
      -0.863
      -0.904
      -0.905
      -0.863
      -0.775
      -0.645
      -0.479
      -0.282
      -0.059
       0.185
       0.435
       0.668
       0.863
       1.002
       1.074
       1.071
       1.001
       0.887
       0.757
       0.636
       0.540
       0.469
       0.409
       0.343
       0.268
       0.191
       0.122
       0.067
       0.025
      -0.013
      -0.064
      -0.135
      -0.218
      -0.295
      -0.351
      -0.391
      -0.428
      -0.478
      -0.551
      -0.644
      -0.736
      -0.805
      -0.839
      -0.840
      -0.818
      -0.773
      -0.710
      -0.635
      -0.560
      -0.496
      -0.449
      -0.414
      -0.374
      -0.314
      -0.232
      -0.139
      -0.044
       0.044
       0.116
       0.167
       0.198
       0.219
       0.235
       0.240
       0.225
       0.182
       0.106
       0.001
      -0.116
      -0.222
      -0.302
      -0.351
      -0.372
      -0.370
      -0.357
      -0.345
      -0.343
      -0.354
      -0.378
      -0.405
      -0.413
      -0.382
      -0.306
      -0.196
      -0.070
       0.060
       0.185
       0.297
       0.399
       0.492
       0.578
       0.652
       0.714
       0.772
       0.829
       0.888
       0.953
       1.026
       1.103
       1.172
       1.226
       1.262
       1.280
       1.282
       1.271
       1.249
       1.213
       1.155
       1.069
       0.951
       0.798
       0.614
       0.414
       0.219
       0.040
      -0.118
      -0.255
      -0.371
      -0.469
      -0.555
      -0.624
      -0.667
      -0.673
      -0.642
      -0.581
      -0.503
      -0.424
      -0.361
      -0.327
      -0.326
      -0.360
      -0.424
      -0.503
      -0.579
      -0.650
      -0.723
      -0.808
      -0.906
      -1.006
      -1.088
      -1.133
      -1.125
      -1.069
      -0.979
      -0.870
      -0.750
      -0.625
      -0.494
      -0.355
      -0.208
      -0.057
       0.083
       0.204
       0.302
       0.377
       0.427
       0.462
       0.491
       0.524
       0.566
       0.625
       0.708
       0.809
       0.908
       0.988
       1.038
       1.061
       1.071
       1.088
       1.127
       1.192
       1.270
       1.348
       1.414
       1.450
       1.446
       1.397
       1.309
       1.185
       1.029
       0.850
       0.665
       0.493
       0.351
       0.249
       0.193
       0.179
       0.196
       0.232
       0.280
       0.329
       0.376
       0.424
       0.483
       0.551
       0.612
       0.650
       0.656
       0.621
       0.543
       0.422
       0.267
       0.092
      -0.093
      -0.287
      -0.492
      -0.719
      -0.966
      -1.211
      -1.412
      -1.529
      -1.539
      -1.446
      -1.278
      -1.077
      -0.878
      -0.698
      -0.533
      -0.378
      -0.233
      -0.102
       0.016
       0.120
       0.206
       0.267
       0.295
       0.277
       0.202
       0.074
      -0.095
      -0.292
      -0.502
      -0.709
      -0.898
      -1.063
      -1.202
      -1.316
      -1.397
      -1.440
      -1.445
      -1.412
      -1.344
      -1.248
      -1.125
      -0.972
      -0.784
      -0.568
      -0.337
      -0.104
       0.122
       0.337
       0.535
       0.714
       0.877
       1.021
       1.139
       1.230
       1.295
       1.337
       1.358
       1.360
       1.345
       1.309
       1.251
       1.175
       1.089
       0.994
       0.889
       0.769
       0.637
       0.493
       0.342
       0.195
       0.063
      -0.046
      -0.132
      -0.195
      -0.232
      -0.246
      -0.239
      -0.209
      -0.152
      -0.062
       0.055
       0.195
       0.349
       0.506
       0.651
       0.772
       0.860
       0.908
       0.913
       0.881
       0.827
       0.770
       0.720
       0.684
       0.655
       0.619
       0.566
       0.497
       0.431
       0.377
       0.335
       0.297
       0.255
       0.200
       0.133
       0.065
       0.010
      -0.030
      -0.069
      -0.126
      -0.213
      -0.334
      -0.482
      -0.643
      -0.796
      -0.928
      -1.034
      -1.114
      -1.169
      -1.202
      -1.217
      -1.206
      -1.159
      -1.071
      -0.947
      -0.798
      -0.638
      -0.483
      -0.349
      -0.242
      -0.151
      -0.063
       0.032
       0.137
       0.248
       0.353
       0.435
       0.486
       0.510
       0.514
       0.503
       0.483
       0.457
       0.426
       0.388
       0.349
       0.319
       0.302
       0.298
       0.306
       0.324
       0.345
       0.349
       0.320
       0.252
       0.152
       0.037
      -0.067
      -0.137
      -0.166
      -0.166
      -0.155
      -0.157
      -0.187
      -0.251
      -0.336
      -0.417
      -0.468
      -0.472
      -0.414
      -0.291
      -0.112
       0.097
       0.305
       0.485
       0.617
       0.692
       0.716
       0.703
       0.665
       0.604
       0.519
       0.400
       0.234
       0.010
      -0.268
      -0.580
      -0.898
      -1.187
      -1.413
      -1.552
      -1.606
      -1.596
      -1.545
      -1.465
      -1.359
      -1.227
      -1.070
      -0.891
      -0.705
      -0.527
      -0.365
      -0.214
      -0.072
       0.054
       0.152
       0.214
       0.230
