Origin Time       21/3/2011 09:48:59 
Lat.              36.5 N 
Long.             70.9 E 
Depth (Km)        166.0
Magnitude         5.7
 Region           Hindukush-Region-Afganistan                                      
 Above details taken from IMD 
     
Station Code      JMU
Station Lat.       32.732  N
Station Long.      74.874  E
Station Height(m)  361.0
Site Class        B   Vs30 between 375 m/sec to 700 m/sec *  
Record Time       21.03.2011 09:50:43.624
Sampling Rate     200. Hz
 Record Duration   81.245 Sec.
 Direction         E-W (E positive)
Max. Acceleration      2.382 cm/sec**2
     
  * For reference see Site Classification link of website 
     
 Base Line Corrected and Low Pass Filtered (Cut Off at 35 Hz) Time History
 Acceleration data in cm/sec**2
    
[...]
       0.089
       0.079
       0.080
       0.089
       0.100
       0.106
       0.105
       0.099
       0.092
       0.087
       0.085
       0.081
       0.073
       0.062
       0.053
       0.050
       0.051
       0.052
       0.050
       0.045
       0.039
       0.031
       0.018
       0.001
      -0.019
      -0.033
      -0.036
      -0.028
      -0.012
       0.008
       0.029
       0.050
       0.067
       0.080
       0.084
       0.082
       0.074
       0.065
       0.057
       0.050
       0.041
       0.025
       0.001
      -0.022
      -0.035
      -0.035
      -0.030
      -0.026
      -0.028
      -0.031
      -0.028
      -0.018
      -0.003
       0.009
       0.014
       0.010
       0.001
      -0.015
      -0.038
      -0.069
      -0.107
      -0.146
      -0.179
      -0.199
      -0.208
      -0.210
      -0.206
      -0.197
      -0.180
      -0.155
      -0.125
      -0.094
      -0.064
      -0.033
       0.004
       0.043
       0.078
       0.103
       0.116
       0.119
       0.116
       0.109
       0.098
       0.082
       0.062
       0.041
       0.025
       0.022
       0.030
       0.043
       0.051
       0.050
       0.043
       0.038
       0.038
       0.038
       0.030
       0.007
      -0.026
      -0.061
      -0.088
      -0.105
      -0.113
      -0.115
      -0.114
      -0.108
      -0.100
      -0.091
      -0.083
      -0.074
      -0.060
      -0.035
      -0.002
       0.033
       0.059
       0.074
       0.081
       0.088
       0.096
       0.101
       0.095
       0.078
       0.062
       0.055
       0.058
       0.064
       0.062
       0.052
       0.044
       0.047
       0.064
       0.090
       0.114
       0.127
       0.126
       0.118
       0.110
       0.107
       0.105
       0.099
       0.084
       0.066
       0.051
       0.046
       0.050
       0.059
       0.065
       0.067
       0.060
       0.044
       0.023
       0.003
      -0.008
      -0.009
      -0.006
      -0.010
      -0.029
      -0.059
      -0.091
      -0.115
      -0.130
      -0.138
      -0.145
      -0.154
      -0.162
      -0.163
      -0.154
      -0.137
      -0.117
      -0.102
      -0.094
      -0.091
      -0.092
      -0.098
      -0.110
      -0.128
      -0.150
      -0.166
      -0.171
      -0.158
      -0.128
      -0.087
      -0.044
      -0.006
       0.025
       0.048
       0.063
       0.071
       0.071
       0.065
       0.059
       0.053
       0.047
       0.034
       0.014
      -0.007
      -0.023
      -0.029
      -0.025
      -0.015
      -0.003
       0.013
       0.035
       0.068
       0.108
       0.149
       0.183
       0.207
       0.220
       0.223
       0.217
       0.204
       0.179
       0.145
       0.106
       0.069
       0.037
       0.007
      -0.024
      -0.054
      -0.076
      -0.084
      -0.085
      -0.089
      -0.106
      -0.133
      -0.161
      -0.182
      -0.195
      -0.206
      -0.216
      -0.220
      -0.217
      -0.209
      -0.206
      -0.219
      -0.250
      -0.291
      -0.328
      -0.352
      -0.358
      -0.353
      -0.343
      -0.329
      -0.308
      -0.279
      -0.244
      -0.213
      -0.193
      -0.184
      -0.178
      -0.165
      -0.142
      -0.113
      -0.086
      -0.064
      -0.043
      -0.014
       0.027
       0.077
       0.128
       0.170
       0.202
       0.228
       0.252
       0.275
       0.295
       0.313
       0.334
       0.358
       0.379
       0.386
       0.370
       0.331
       0.276
       0.218
       0.167
       0.125
       0.087
       0.048
       0.011
      -0.019
      -0.033
      -0.031
      -0.017
      -0.006
      -0.003
      -0.010
      -0.018
      -0.024
      -0.026
      -0.026
      -0.023
      -0.009
       0.024
       0.073
       0.125
       0.162
       0.177
       0.177
       0.172
       0.165
       0.153
       0.131
       0.100
       0.073
       0.059
       0.059
       0.064
       0.067
       0.065
       0.064
       0.066
       0.068
       0.063
       0.047
       0.025
       0.006
      -0.005
      -0.010
      -0.014
      -0.023
      -0.037
      -0.052
      -0.065
      -0.076
      -0.085
      -0.093
      -0.098
      -0.101
      -0.099
      -0.093
      -0.084
      -0.074
      -0.069
      -0.070
      -0.071
      -0.070
      -0.071
      -0.082
      -0.107
      -0.143
      -0.175
      -0.194
      -0.205
      -0.216
      -0.233
      -0.254
      -0.271
      -0.282
      -0.289
      -0.298
      -0.305
      -0.305
      -0.290
      -0.261
      -0.225
      -0.187
      -0.149
      -0.107
      -0.058
      -0.002
       0.056
       0.112
       0.158
       0.193
       0.219
       0.245
       0.273
       0.301
       0.323
       0.334
       0.340
       0.346
       0.356
       0.368
       0.372
       0.365
       0.349
       0.329
       0.308
       0.285
       0.260
       0.237
       0.220
       0.212
       0.210
       0.206
       0.195
       0.176
       0.151
       0.124
       0.102
       0.088
       0.080
       0.074
       0.067
       0.058
       0.049
       0.040
       0.033
       0.032
       0.038
       0.054
       0.077
       0.101
       0.124
       0.142
       0.154
       0.160
       0.160
       0.156
       0.151
       0.145
       0.140
       0.136
       0.133
       0.133
       0.136
       0.138
       0.140
       0.139
       0.138
       0.135
       0.125
       0.105
       0.073
       0.038
       0.007
      -0.015
      -0.034
      -0.057
      -0.086
      -0.114
      -0.130
      -0.132
      -0.128
      -0.127
      -0.134
      -0.144
      -0.149
      -0.145
      -0.136
      -0.131
      -0.130
      -0.132
      -0.130
      -0.121
      -0.105
      -0.088
      -0.074
      -0.062
      -0.045
      -0.020
       0.010
       0.034
       0.045
       0.043
       0.039
       0.040
       0.045
       0.044
       0.029
       0.003
      -0.022
      -0.039
      -0.046
      -0.048
      -0.054
      -0.068
      -0.086
      -0.102
      -0.112
      -0.121
      -0.136
      -0.163
      -0.198
      -0.232
      -0.264
      -0.295
      -0.332
      -0.371
      -0.406
      -0.428
      -0.433
      -0.431
      -0.429
      -0.430
      -0.424
      -0.401
      -0.357
      -0.303
      -0.254
      -0.218
      -0.196
      -0.182
      -0.171
      -0.158
      -0.140
      -0.117
      -0.090
      -0.064
      -0.040
      -0.019
      -0.001
       0.011
       0.022
       0.038
       0.065
       0.108
       0.158
       0.206
       0.244
       0.275
       0.309
       0.349
       0.395
       0.440
       0.482
       0.522
       0.561
       0.597
       0.627
       0.653
       0.683
       0.722
       0.769
       0.812
       0.835
       0.829
       0.799
       0.758
       0.720
       0.688
       0.652
       0.601
       0.533
       0.457
       0.385
       0.325
       0.274
       0.227
       0.181
       0.140
       0.103
       0.068
       0.033
      -0.004
      -0.037
      -0.061
      -0.074
      -0.083
      -0.096
      -0.118
      -0.147
      -0.174
      -0.189
      -0.192
      -0.188
      -0.184
      -0.180
      -0.171
      -0.151
      -0.119
      -0.081
      -0.045
      -0.016
       0.007
       0.027
       0.042
       0.050
       0.049
       0.041
       0.031
       0.023
       0.018
       0.015
       0.009
      -0.002
      -0.015
      -0.025
      -0.030
      -0.033
      -0.042
      -0.063
      -0.093
      -0.122
      -0.136
      -0.126
      -0.095
      -0.052
      -0.007
       0.037
       0.080
       0.117
       0.140
       0.143
       0.132
       0.120
       0.116
       0.114
       0.103
       0.073
       0.031
      -0.007
      -0.026
      -0.026
      -0.019
      -0.019
      -0.026
      -0.030
      -0.019
       0.012
       0.056
       0.101
       0.137
       0.163
       0.180
       0.189
       0.188
       0.172
       0.140
       0.095
       0.048
       0.005
      -0.037
      -0.082
      -0.137
      -0.197
      -0.256
      -0.308
      -0.355
      -0.400
      -0.446
      -0.486
      -0.509
      -0.508
      -0.486
      -0.454
      -0.423
      -0.397
      -0.374
      -0.356
      -0.345
      -0.346
      -0.358
      -0.373
      -0.377
      -0.358
      -0.317
      -0.265
      -0.213
      -0.168
      -0.126
      -0.084
      -0.038
       0.006
       0.044
       0.074
       0.105
       0.146
       0.199
       0.261
       0.323
       0.382
       0.438
       0.493
       0.544
       0.584
       0.607
       0.613
       0.612
       0.614
       0.625
       0.639
       0.647
       0.639
       0.617
       0.587
       0.553
       0.514
       0.469
       0.418
       0.367
       0.322
       0.282
       0.244
       0.202
       0.156
       0.110
       0.070
       0.031
      -0.015
      -0.068
      -0.123
      -0.165
      -0.188
      -0.196
      -0.199
      -0.202
      -0.201
      -0.190
      -0.166
      -0.129
      -0.081
      -0.029
       0.018
       0.054
       0.079
       0.092
       0.097
       0.093
       0.082
       0.070
       0.065
       0.071
       0.081
       0.085
       0.078
       0.062
       0.048
       0.042
       0.041
       0.041
       0.039
       0.037
       0.036
       0.032
       0.017
      -0.020
      -0.084
      -0.173
      -0.277
      -0.387
      -0.501
      -0.617
      -0.736
      -0.854
      -0.968
      -1.073
      -1.168
      -1.254
      -1.333
      -1.406
      -1.473
      -1.532
      -1.578
      -1.608
      -1.622
      -1.618
      -1.595
      -1.550
      -1.482
      -1.397
      -1.302
      -1.207
      -1.112
      -1.013
      -0.904
      -0.782
      -0.652
      -0.517
      -0.377
      -0.227
      -0.068
       0.096
       0.258
       0.413
       0.560
       0.699
       0.824
       0.929
       1.014
       1.088
       1.164
       1.250
       1.342
       1.423
       1.482
       1.517
       1.537
       1.550
       1.558
       1.552
       1.527
       1.485
       1.433
       1.377
       1.311
       1.228
       1.121
       0.991
       0.844
       0.690
       0.535
       0.378
       0.216
       0.056
      -0.085
      -0.189
      -0.248
      -0.271
      -0.272
      -0.265
      -0.257
      -0.249
      -0.241
      -0.232
      -0.221
      -0.210
      -0.200
      -0.190
      -0.183
      -0.184
      -0.199
      -0.231
      -0.279
      -0.336
      -0.399
      -0.470
      -0.550
      -0.638
      -0.725
      -0.798
      -0.844
      -0.859
      -0.849
      -0.821
      -0.784
      -0.742
      -0.698
      -0.656
      -0.622
      -0.599
      -0.584
      -0.567
      -0.540
      -0.505
      -0.466
      -0.429
      -0.390
      -0.343
      -0.282
      -0.214
      -0.151
      -0.107
      -0.084
      -0.074
      -0.060
      -0.033
       0.008
       0.054
       0.097
       0.135
       0.168
       0.202
       0.237
       0.273
       0.306
       0.335
       0.363
       0.393
       0.421
       0.440
       0.442
       0.427
       0.398
       0.359
       0.314
       0.262
       0.198
       0.122
       0.040
      -0.041
      -0.115
      -0.179
      -0.238
      -0.291
      -0.333
      -0.356
      -0.356
      -0.339
      -0.315
      -0.294
      -0.280
      -0.273
      -0.276
      -0.294
      -0.330
      -0.382
      -0.440
      -0.495
      -0.547
      -0.599
      -0.651
      -0.704
      -0.749
      -0.780
      -0.792
      -0.789
      -0.773
      -0.744
      -0.694
      -0.615
      -0.505
      -0.366
      -0.207
      -0.035
       0.145
       0.330
       0.516
       0.696
       0.861
       1.006
       1.134
       1.250
       1.359
       1.460
       1.548
       1.611
       1.638
       1.621
       1.554
       1.437
       1.275
       1.081
       0.871
       0.658
       0.449
       0.244
       0.037
      -0.175
      -0.392
      -0.603
      -0.792
      -0.950
      -1.076
      -1.171
      -1.232
      -1.254
      -1.228
      -1.159
      -1.059
      -0.941
      -0.814
      -0.677
      -0.530
      -0.378
      -0.233
      -0.107
      -0.004
       0.080
       0.148
       0.204
       0.248
       0.287
       0.328
       0.381
       0.449
       0.532
       0.627
       0.733
       0.851
       0.986
       1.144
       1.319
       1.497
       1.659
       1.789
       1.882
       1.941
       1.972
       1.973
       1.932
       1.839
       1.693
       1.505
       1.293
       1.072
       0.844
       0.607
       0.361
       0.112
      -0.132
      -0.366
      -0.591
      -0.811
      -1.023
      -1.214
      -1.372
      -1.496
      -1.592
      -1.676
      -1.754
      -1.819
      -1.862
      -1.877
      -1.871
      -1.862
      -1.860
      -1.866
      -1.872
      -1.870
      -1.857
      -1.838
      -1.819
      -1.803
      -1.785
      -1.759
      -1.724
      -1.679
      -1.621
      -1.545
      -1.445
      -1.320
      -1.170
      -0.998
      -0.802
      -0.575
      -0.316
      -0.025
       0.283
       0.592
       0.885
       1.153
       1.399
       1.625
       1.832
       2.012
       2.159
       2.267
       2.339
       2.377
       2.382
       2.356
       2.302
       2.226
       2.139
       2.043
       1.941
       1.833
       1.721
       1.613
       1.516
       1.433
       1.360
       1.290
       1.216
       1.134
       1.050
       0.966
       0.883
       0.800
       0.714
       0.625
       0.537
       0.453
       0.369
       0.280
       0.178
       0.062
      -0.062
      -0.188
      -0.313
      -0.441
      -0.576
      -0.720
      -0.868
      -1.015
      -1.153
      -1.280
      -1.395
      -1.492
      -1.566
      -1.612
      -1.630
      -1.622
      -1.596
      -1.560
      -1.516
      -1.463
      -1.396
      -1.315
      -1.225
      -1.131
      -1.042
      -0.962
      -0.892
      -0.834
      -0.788
      -0.753
      -0.727
      -0.701
      -0.671
      -0.635
      -0.595
      -0.553
      -0.511
      -0.466
      -0.412
      -0.348
      -0.274
      -0.192
      -0.096
       0.020
       0.160
       0.324
       0.500
       0.676
       0.837
       0.976
       1.096
       1.201
       1.300
       1.393
       1.478
       1.551
       1.612
       1.658
       1.683
       1.683
       1.660
       1.621
       1.575
       1.524
       1.460
       1.372
       1.256
       1.121
       0.986
       0.867
       0.767
       0.683
       0.603
       0.520
       0.427
       0.324
       0.206
       0.071
      -0.082
      -0.245
      -0.409
      -0.561
      -0.702
      -0.837
      -0.976
      -1.119
      -1.259
      -1.383
      -1.482
      -1.555
      -1.608
      -1.645
      -1.666
      -1.670
      -1.655
      -1.625
      -1.587
      -1.542
      -1.487
      -1.414
      -1.320
      -1.206
      -1.074
      -0.928
      -0.769
      -0.593
      -0.399
      -0.186
       0.040
       0.269
       0.493
       0.708
       0.911
       1.099
       1.266
       1.402
       1.500
       1.554
       1.560
       1.513
       1.413
       1.265
       1.082
       0.882
       0.677
       0.475
       0.280
       0.090
      -0.092
      -0.258
      -0.400
      -0.513
      -0.595
      -0.651
      -0.682
      -0.688
      -0.671
      -0.638
      -0.600
      -0.566
      -0.539
      -0.517
      -0.492
      -0.461
      -0.427
      -0.396
      -0.369
      -0.341
      -0.303
      -0.250
      -0.188
      -0.129
      -0.082
      -0.048
      -0.020
       0.012
       0.052
       0.103
       0.160
       0.219
       0.273
       0.318
       0.353
       0.376
       0.390
       0.394
       0.393
       0.389
       0.380
       0.364
       0.338
       0.307
       0.282
       0.274
       0.288
       0.316
       0.349
       0.380
       0.407
       0.429
       0.444
       0.444
       0.424
       0.383
       0.326
       0.258
       0.180
       0.089
      -0.017
      -0.140
      -0.275
      -0.413
      -0.546
      -0.669
      -0.780
      -0.880
      -0.967
      -1.035
      -1.084
      -1.115
      -1.136
      -1.146
      -1.141
      -1.113
      -1.059
      -0.987
      -0.904
      -0.809
      -0.697
      -0.560
      -0.396
      -0.208
      -0.002
       0.215
       0.437
       0.656
       0.857
       1.024
       1.146
       1.221
       1.258
       1.271
       1.268
       1.246
       1.199
       1.120
       1.016
       0.904
       0.797
       0.702
       0.616
       0.537
       0.469
       0.421
       0.396
       0.388
       0.393
       0.408
       0.438
       0.484
       0.537
       0.579
       0.589
       0.555
       0.474
       0.356
       0.210
       0.043
      -0.136
      -0.316
      -0.483
      -0.624
      -0.736
      -0.825
      -0.897
      -0.953
      -0.985
      -0.987
      -0.958
      -0.903
      -0.832
      -0.746
      -0.641
      -0.508
      -0.348
      -0.174
      -0.005
       0.142
       0.258
       0.346
       0.408
       0.447
       0.458
       0.438
       0.391
       0.328
       0.261
       0.194
       0.126
       0.052
      -0.030
      -0.115
      -0.194
      -0.259
      -0.307
      -0.338
      -0.355
      -0.355
      -0.337
      -0.298
      -0.242
      -0.178
      -0.116
      -0.061
      -0.014
       0.024
       0.051
       0.063
       0.053
       0.026
      -0.007
      -0.034
      -0.054
      -0.074
      -0.102
      -0.142
      -0.185
      -0.218
      -0.234
      -0.231
      -0.210
      -0.169
      -0.109
      -0.032
       0.056
       0.148
       0.239
       0.333
       0.433
       0.540
       0.647
       0.747
       0.830
       0.893
       0.940
       0.976
       0.999
       1.001
       0.973
       0.917
       0.844
       0.763
       0.676
       0.580
       0.472
       0.356
       0.247
       0.153
       0.074
       0.002
      -0.069
      -0.133
      -0.179
      -0.191
      -0.167
      -0.115
      -0.051
       0.017
       0.084
       0.153
       0.222
       0.286
       0.339
       0.380
       0.414
       0.445
       0.473
       0.488
       0.478
       0.439
       0.377
       0.308
       0.244
       0.184
       0.121
       0.047
      -0.035
      -0.111
      -0.171
      -0.215
      -0.251
      -0.289
      -0.328
      -0.363
      -0.385
      -0.392
      -0.390
      -0.388
      -0.394
      -0.409
      -0.434
      -0.467
      -0.514
      -0.574
      -0.645
      -0.719
      -0.792
      -0.862
      -0.931
      -0.998
      -1.056
      -1.094
      -1.109
      -1.104
      -1.088
      -1.067
      -1.036
      -0.988
      -0.921
      -0.837
      -0.740
      -0.632
      -0.514
      -0.383
      -0.242
      -0.096
       0.045
       0.171
       0.277
       0.362
       0.431
       0.488
       0.533
       0.562
       0.568
       0.552
