Origin Time       2/8/2013 21:37:40	 
Lat.              33.4 N	
Long.             75.9 E	
Depth (Km)         20.0
Magnitude         5.2
 Region           KISHTWAR-JK                                                      
 Above details taken from IMD 
     
Station Code      JMU
Station Lat.       32.732  N
Station Long.      74.874  E
Station Height(m)  361.0
Site Class        B   Vs30 between 375 m/sec to 700 m/sec *  
Record Time       02.08.2013 21:37:54.369
Sampling Rate     200. Hz
 Record Duration   85.710 Sec.
 Direction         E-W (E positive)
Max. Acceleration     -2.249 cm/sec**2
     
  * For reference see Site Classification link of website 
     
 Base Line Corrected and Low Pass Filtered (Cut Off at 35 Hz) Time History
 Acceleration data in cm/sec**2
    
[...]
      -0.275
      -0.215
      -0.185
      -0.173
      -0.160
      -0.133
      -0.093
      -0.047
      -0.002
       0.035
       0.056
       0.050
       0.014
      -0.042
      -0.102
      -0.149
      -0.173
      -0.174
      -0.165
      -0.164
      -0.183
      -0.222
      -0.267
      -0.298
      -0.287
      -0.219
      -0.098
       0.051
       0.195
       0.310
       0.376
       0.385
       0.346
       0.274
       0.190
       0.107
       0.034
      -0.030
      -0.095
      -0.178
      -0.289
      -0.421
      -0.556
      -0.670
      -0.740
      -0.754
      -0.720
      -0.654
      -0.568
      -0.467
      -0.352
      -0.228
      -0.097
       0.035
       0.162
       0.271
       0.356
       0.418
       0.461
       0.495
       0.529
       0.568
       0.606
       0.628
       0.622
       0.588
       0.534
       0.471
       0.407
       0.346
       0.285
       0.220
       0.157
       0.106
       0.071
       0.050
       0.045
       0.062
       0.108
       0.181
       0.272
       0.365
       0.441
       0.484
       0.487
       0.449
       0.376
       0.280
       0.181
       0.097
       0.027
      -0.045
      -0.137
      -0.263
      -0.424
      -0.612
      -0.806
      -0.978
      -1.107
      -1.185
      -1.212
      -1.192
      -1.132
      -1.038
      -0.912
      -0.755
      -0.577
      -0.401
      -0.250
      -0.139
      -0.078
      -0.061
      -0.075
      -0.102
      -0.125
      -0.136
      -0.128
      -0.106
      -0.081
      -0.068
      -0.069
      -0.071
      -0.058
      -0.019
       0.046
       0.130
       0.222
       0.319
       0.428
       0.560
       0.722
       0.904
       1.089
       1.260
       1.401
       1.502
       1.556
       1.559
       1.507
       1.394
       1.221
       0.997
       0.735
       0.455
       0.183
      -0.055
      -0.246
      -0.390
      -0.496
      -0.574
      -0.632
      -0.678
      -0.707
      -0.711
      -0.681
      -0.615
      -0.517
      -0.392
      -0.256
      -0.125
      -0.014
       0.071
       0.123
       0.137
       0.112
       0.049
      -0.045
      -0.162
      -0.289
      -0.408
      -0.513
      -0.606
      -0.690
      -0.766
      -0.832
      -0.881
      -0.906
      -0.896
      -0.850
      -0.776
      -0.682
      -0.571
      -0.447
      -0.318
      -0.189
      -0.072
       0.023
       0.087
       0.123
       0.142
       0.157
       0.172
       0.187
       0.203
       0.215
       0.212
       0.187
       0.139
       0.072
      -0.007
      -0.088
      -0.166
      -0.236
      -0.291
      -0.321
      -0.314
      -0.267
      -0.186
      -0.078
       0.053
       0.201
       0.346
       0.464
       0.534
       0.549
       0.520
       0.476
       0.441
       0.427
       0.425
       0.423
       0.408
       0.372
       0.312
       0.233
       0.147
       0.065
      -0.003
      -0.052
      -0.078
      -0.084
      -0.075
      -0.051
      -0.003
       0.066
       0.143
       0.202
       0.224
       0.201
       0.143
       0.071
       0.011
      -0.027
      -0.043
      -0.048
      -0.048
      -0.052
      -0.067
      -0.085
      -0.091
      -0.071
      -0.028
       0.019
       0.047
       0.042
       0.001
      -0.060
      -0.119
      -0.158
      -0.169
      -0.149
      -0.100
      -0.031
       0.036
       0.084
       0.101
       0.086
       0.046
      -0.001
      -0.038
      -0.064
      -0.092
      -0.135
      -0.198
      -0.276
      -0.357
      -0.426
      -0.468
      -0.473
      -0.437
      -0.358
      -0.238
      -0.085
       0.088
       0.265
       0.427
       0.558
       0.641
       0.670
       0.652
       0.593
       0.499
       0.376
       0.233
       0.085
      -0.059
      -0.186
      -0.283
      -0.345
      -0.374
      -0.373
      -0.347
      -0.300
      -0.239
      -0.168
      -0.087
       0.001
       0.088
       0.167
       0.235
       0.286
       0.309
       0.294
       0.235
       0.128
      -0.023
      -0.204
      -0.387
      -0.537
      -0.626
      -0.634
      -0.566
      -0.443
      -0.298
      -0.154
      -0.026
       0.076
       0.142
       0.169
       0.161
       0.124
       0.069
       0.008
      -0.043
      -0.071
      -0.068
      -0.034
       0.024
       0.087
       0.139
       0.172
       0.194
       0.219
       0.261
       0.334
       0.443
       0.577
       0.711
       0.822
       0.899
       0.937
       0.939
       0.913
       0.872
       0.825
       0.781
       0.741
       0.704
       0.665
       0.614
       0.544
       0.461
       0.366
       0.259
       0.136
      -0.007
      -0.171
      -0.351
      -0.531
      -0.691
      -0.825
      -0.939
      -1.042
      -1.134
      -1.211
      -1.264
      -1.285
      -1.275
      -1.240
      -1.192
      -1.140
      -1.088
      -1.034
      -0.975
      -0.902
      -0.801
      -0.670
      -0.520
      -0.370
      -0.236
      -0.128
      -0.044
       0.033
       0.123
       0.240
       0.381
       0.537
       0.689
       0.819
       0.909
       0.953
       0.952
       0.913
       0.840
       0.746
       0.649
       0.567
       0.516
       0.504
       0.525
       0.562
       0.595
       0.615
       0.627
       0.639
       0.647
       0.643
       0.622
       0.584
       0.535
       0.488
       0.452
       0.428
       0.408
       0.383
       0.347
       0.298
       0.236
       0.168
       0.098
       0.033
      -0.023
      -0.058
      -0.065
      -0.050
      -0.043
      -0.077
      -0.174
      -0.332
      -0.527
      -0.722
      -0.879
      -0.977
      -1.016
      -1.018
      -1.003
      -0.986
      -0.964
      -0.912
      -0.801
      -0.620
      -0.385
      -0.128
       0.119
       0.335
       0.511
       0.655
       0.780
       0.893
       0.982
       1.027
       1.004
       0.903
       0.724
       0.485
       0.222
      -0.028
      -0.238
      -0.388
      -0.470
      -0.491
      -0.473
      -0.442
      -0.419
      -0.412
      -0.414
      -0.410
      -0.384
      -0.333
      -0.267
      -0.200
      -0.141
      -0.093
      -0.061
      -0.045
      -0.047
      -0.068
      -0.114
      -0.185
      -0.268
      -0.346
      -0.402
      -0.427
      -0.415
      -0.369
      -0.301
      -0.228
      -0.168
      -0.138
      -0.148
      -0.194
      -0.262
      -0.337
      -0.412
      -0.489
      -0.573
      -0.670
      -0.775
      -0.872
      -0.934
      -0.939
      -0.879
      -0.762
      -0.605
      -0.433
      -0.264
      -0.108
       0.035
       0.165
       0.277
       0.364
       0.423
       0.458
       0.479
       0.497
       0.514
       0.517
       0.482
       0.387
       0.224
       0.000
      -0.263
      -0.534
      -0.777
      -0.965
      -1.084
      -1.129
      -1.104
      -1.022
      -0.909
      -0.789
      -0.671
      -0.552
      -0.417
      -0.247
      -0.032
       0.224
       0.495
       0.750
       0.966
       1.138
       1.277
       1.407
       1.548
       1.696
       1.825
       1.903
       1.909
       1.839
       1.706
       1.531
       1.344
       1.164
       1.001
       0.854
       0.720
       0.588
       0.453
       0.317
       0.194
       0.103
       0.056
       0.055
       0.090
       0.138
       0.174
       0.185
       0.173
       0.148
       0.122
       0.099
       0.080
       0.058
       0.026
      -0.019
      -0.071
      -0.129
      -0.193
      -0.261
      -0.322
      -0.366
      -0.388
      -0.392
      -0.387
      -0.381
      -0.384
      -0.399
      -0.430
      -0.478
      -0.542
      -0.615
      -0.686
      -0.744
      -0.784
      -0.803
      -0.794
      -0.757
      -0.699
      -0.631
      -0.560
      -0.486
      -0.404
      -0.303
      -0.176
      -0.029
       0.117
       0.236
       0.308
       0.329
       0.301
       0.237
       0.157
       0.077
       0.011
      -0.029
      -0.040
      -0.025
       0.000
       0.020
       0.033
       0.040
       0.043
       0.038
       0.015
      -0.039
      -0.132
      -0.258
      -0.400
      -0.540
      -0.667
      -0.775
      -0.863
      -0.934
      -0.989
      -1.017
      -0.995
      -0.900
      -0.726
      -0.488
      -0.211
       0.074
       0.342
       0.573
       0.754
       0.878
       0.940
       0.944
       0.899
       0.814
       0.693
       0.540
       0.363
       0.175
      -0.011
      -0.176
      -0.305
      -0.396
      -0.463
      -0.522
      -0.583
      -0.643
      -0.693
      -0.721
      -0.718
      -0.692
      -0.665
      -0.660
      -0.688
      -0.744
      -0.811
      -0.869
      -0.898
      -0.891
      -0.855
      -0.798
      -0.721
      -0.625
      -0.518
      -0.410
      -0.300
      -0.180
      -0.044
       0.114
       0.287
       0.458
       0.603
       0.707
       0.766
       0.791
       0.799
       0.813
       0.842
       0.878
       0.899
       0.888
       0.840
       0.766
       0.676
       0.583
       0.502
       0.448
       0.430
       0.447
       0.489
       0.528
       0.535
       0.493
       0.408
       0.303
       0.206
       0.139
       0.111
       0.116
       0.128
       0.121
       0.071
      -0.034
      -0.196
      -0.400
      -0.620
      -0.828
      -1.005
      -1.134
      -1.198
      -1.181
      -1.075
      -0.883
      -0.621
      -0.321
      -0.017
       0.268
       0.526
       0.751
       0.932
       1.053
       1.106
       1.096
       1.041
       0.967
       0.892
       0.817
       0.731
       0.621
       0.488
       0.353
       0.243
       0.187
       0.194
       0.255
       0.349
       0.456
       0.566
       0.675
       0.775
       0.862
       0.936
       0.994
       1.032
       1.044
       1.025
       0.972
       0.881
       0.757
       0.606
       0.434
       0.243
       0.031
      -0.196
      -0.424
      -0.636
      -0.812
      -0.937
      -1.011
      -1.052
      -1.083
      -1.114
      -1.139
      -1.141
      -1.107
      -1.032
      -0.932
      -0.835
      -0.766
      -0.727
      -0.709
      -0.690
      -0.650
      -0.576
      -0.473
      -0.358
      -0.253
      -0.175
      -0.133
      -0.130
      -0.152
      -0.176
      -0.180
      -0.149
      -0.084
       0.004
       0.090
       0.152
       0.178
       0.176
       0.165
       0.163
       0.183
       0.228
       0.292
       0.360
       0.422
       0.474
       0.512
       0.528
       0.523
       0.502
       0.476
       0.455
       0.444
       0.441
       0.441
       0.434
       0.414
       0.382
       0.341
       0.290
       0.232
       0.177
       0.134
       0.109
       0.103
       0.114
       0.133
       0.139
       0.114
       0.047
      -0.059
      -0.195
      -0.346
      -0.489
      -0.608
      -0.691
      -0.731
      -0.725
      -0.682
      -0.622
      -0.566
      -0.523
      -0.492
      -0.462
      -0.419
      -0.358
      -0.284
      -0.210
      -0.148
      -0.104
      -0.075
      -0.057
      -0.041
      -0.016
       0.022
       0.068
       0.112
       0.148
       0.175
       0.194
       0.206
       0.216
       0.228
       0.236
       0.234
       0.219
       0.186
       0.130
       0.056
      -0.017
      -0.066
      -0.071
      -0.020
       0.085
       0.226
       0.375
       0.506
       0.616
       0.712
       0.805
       0.902
       0.999
       1.081
       1.132
       1.141
       1.109
       1.042
       0.951
       0.844
       0.735
       0.635
       0.551
       0.481
       0.418
       0.351
       0.272
       0.181
       0.089
       0.005
      -0.073
      -0.158
      -0.259
      -0.381
      -0.521
      -0.661
      -0.777
      -0.849
      -0.873
      -0.862
      -0.835
      -0.804
      -0.776
      -0.745
      -0.701
      -0.639
      -0.562
      -0.473
      -0.368
      -0.248
      -0.126
      -0.023
       0.049
       0.090
       0.113
       0.137
       0.172
       0.216
       0.250
       0.255
       0.225
       0.156
       0.050
      -0.086
      -0.237
      -0.389
      -0.536
      -0.678
      -0.818
      -0.957
      -1.096
      -1.226
      -1.328
      -1.386
      -1.392
      -1.346
      -1.245
      -1.091
      -0.887
      -0.647
      -0.391
      -0.140
       0.087
       0.286
       0.463
       0.624
       0.770
       0.892
       0.983
       1.037
       1.050
       1.027
       0.980
       0.923
       0.863
       0.800
       0.734
       0.661
       0.580
       0.494
       0.412
       0.340
       0.280
       0.232
       0.198
       0.178
       0.163
       0.140
       0.102
       0.056
       0.016
       0.007
       0.049
       0.146
       0.281
       0.425
       0.550
       0.637
       0.674
       0.660
       0.608
       0.535
       0.461
       0.408
       0.398
       0.441
       0.526
       0.629
       0.719
       0.775
       0.784
       0.746
       0.664
       0.539
       0.369
       0.153
      -0.095
      -0.360
      -0.626
      -0.881
      -1.112
      -1.318
      -1.507
      -1.687
      -1.861
      -2.023
      -2.156
      -2.239
      -2.249
      -2.169
      -1.997
      -1.741
      -1.416
      -1.043
      -0.648
      -0.259
       0.096
       0.392
       0.611
       0.751
       0.826
       0.862
       0.880
       0.895
       0.920
       0.959
       1.007
       1.045
       1.050
       0.995
       0.869
       0.684
       0.484
       0.315
       0.200
       0.137
       0.100
       0.057
      -0.017
      -0.131
      -0.276
      -0.439
      -0.608
      -0.767
      -0.889
      -0.947
      -0.919
      -0.807
      -0.632
      -0.428
      -0.226
      -0.042
       0.129
       0.297
       0.462
       0.616
       0.743
       0.823
       0.845
       0.802
       0.704
       0.562
       0.388
       0.190
      -0.016
      -0.216
      -0.397
      -0.552
      -0.674
      -0.754
      -0.787
      -0.765
      -0.692
      -0.579
      -0.452
      -0.331
      -0.224
      -0.124
      -0.021
       0.093
       0.224
       0.366
       0.507
       0.639
       0.762
       0.875
       0.969
       1.026
       1.035
       0.992
       0.901
       0.781
       0.656
       0.548
       0.460
       0.378
       0.281
       0.152
      -0.015
      -0.216
      -0.435
      -0.655
      -0.859
      -1.030
      -1.151
      -1.212
      -1.215
      -1.171
      -1.092
      -0.992
      -0.881
      -0.761
      -0.623
      -0.467
      -0.304
      -0.156
      -0.043
       0.024
       0.045
       0.030
      -0.005
      -0.050
      -0.100
      -0.155
      -0.212
      -0.267
      -0.326
      -0.397
      -0.484
      -0.590
      -0.709
      -0.826
      -0.921
      -0.980
      -1.003
      -0.996
      -0.962
      -0.896
      -0.797
      -0.662
      -0.491
      -0.283
      -0.049
       0.197
       0.438
       0.657
       0.839
       0.979
       1.079
       1.147
       1.190
       1.221
       1.252
       1.285
       1.315
       1.327
       1.314
       1.284
       1.258
       1.261
       1.309
       1.399
       1.510
       1.618
       1.706
       1.762
       1.774
       1.737
       1.655
       1.537
       1.382
       1.185
       0.942
       0.665
       0.375
       0.102
      -0.132
      -0.325
      -0.485
      -0.624
      -0.739
      -0.822
      -0.864
      -0.866
      -0.834
      -0.774
      -0.693
      -0.594
      -0.487
      -0.390
      -0.329
      -0.321
      -0.367
      -0.447
      -0.543
      -0.640
      -0.739
      -0.849
      -0.989
      -1.166
      -1.366
      -1.564
      -1.735
      -1.858
      -1.926
      -1.938
      -1.906
      -1.841
      -1.749
      -1.634
      -1.496
      -1.332
      -1.135
      -0.901
      -0.637
      -0.363
      -0.100
       0.130
       0.317
       0.465
       0.593
       0.714
       0.831
       0.936
       1.022
       1.084
       1.123
       1.142
       1.145
       1.137
       1.117
       1.087
       1.054
       1.029
       1.021
       1.038
       1.084
       1.156
       1.242
       1.331
       1.420
       1.507
       1.591
       1.662
       1.714
       1.736
       1.718
       1.651
       1.537
       1.378
       1.173
       0.921
       0.631
       0.314
      -0.016
      -0.343
      -0.651
      -0.930
      -1.179
      -1.397
      -1.577
      -1.709
      -1.785
      -1.807
      -1.786
      -1.737
      -1.673
      -1.604
      -1.530
      -1.448
      -1.354
      -1.243
      -1.106
      -0.941
      -0.755
      -0.561
      -0.370
      -0.194
      -0.047
       0.058
       0.117
       0.141
       0.150
       0.165
       0.198
       0.246
       0.292
       0.318
       0.318
       0.295
       0.250
       0.186
       0.104
       0.003
      -0.118
      -0.257
      -0.400
      -0.526
      -0.620
      -0.669
      -0.667
      -0.613
      -0.518
      -0.395
      -0.254
      -0.103
       0.052
       0.210
       0.368
       0.516
       0.643
       0.740
       0.805
       0.844
       0.863
       0.867
       0.864
       0.859
       0.854
       0.843
       0.818
       0.768
       0.689
       0.585
       0.469
       0.358
       0.259
       0.172
       0.094
       0.018
      -0.063
      -0.151
      -0.240
      -0.319
      -0.381
      -0.420
      -0.436
      -0.431
      -0.410
      -0.378
      -0.337
      -0.290
      -0.236
      -0.164
      -0.055
       0.112
       0.336
       0.589
       0.833
       1.031
       1.163
       1.229
       1.240
       1.209
       1.142
       1.048
       0.938
       0.817
       0.681
       0.522
       0.337
       0.133
      -0.081
      -0.296
      -0.495
      -0.658
      -0.773
      -0.834
      -0.849
      -0.837
      -0.813
      -0.779
      -0.720
      -0.626
      -0.508
      -0.395
      -0.311
      -0.267
      -0.263
      -0.291
      -0.340
      -0.396
      -0.448
      -0.488
      -0.510
      -0.516
      -0.516
      -0.515
      -0.515
      -0.512
      -0.500
      -0.468
      -0.406
      -0.317
      -0.222
      -0.150
      -0.118
      -0.124
      -0.155
      -0.200
      -0.257
      -0.331
      -0.429
      -0.550
      -0.686
      -0.828
      -0.971
      -1.109
      -1.225
      -1.300
      -1.325
      -1.303
      -1.239
      -1.144
      -1.024
      -0.879
      -0.709
      -0.515
      -0.306
      -0.095
       0.107
       0.295
       0.467
       0.626
       0.778
       0.923
       1.048
       1.137
       1.180
       1.177
       1.131
       1.053
       0.951
       0.837
       0.713
       0.582
       0.447
       0.309
       0.166
       0.014
      -0.141
      -0.292
      -0.437
      -0.570
      -0.687
      -0.776
      -0.825
      -0.820
      -0.746
      -0.602
      -0.407
      -0.190
