Origin Time       21/3/2011 09:48:59 
Lat.              36.5 N 
Long.             70.9 E 
Depth (Km)        166.0
Magnitude         5.7
 Region           Hindukush-Region-Afganistan                                      
 Above details taken from IMD 
   
Station Code      JMU
Station Lat.       32.732
Station Long.      74.874
Station Height(m)  361.0
Site Class        B   Vs30 between 375 m/sec to 700 m/sec *  
Record Time       21.03.2011 09:50:43.624
Sampling Rate     200. Hz
 Record Duration   81.245 Sec.
 Direction         Vert. (Up positive)
Max. Acceleration      0.832 cm/sec**2
     
  * For reference see Site Classification link of website 
     
 Base Line Corrected and Low Pass Filtered (Cut Off at 35 Hz) Time History
 Acceleration data in cm/sec**2
    
[...]
       0.309
       0.267
       0.190
       0.100
       0.020
      -0.033
      -0.054
      -0.045
      -0.013
       0.038
       0.103
       0.175
       0.242
       0.290
       0.311
       0.307
       0.289
       0.272
       0.265
       0.267
       0.277
       0.291
       0.307
       0.319
       0.314
       0.284
       0.233
       0.174
       0.123
       0.084
       0.057
       0.034
       0.011
      -0.013
      -0.038
      -0.064
      -0.097
      -0.138
      -0.190
      -0.245
      -0.294
      -0.326
      -0.335
      -0.326
      -0.307
      -0.286
      -0.263
      -0.235
      -0.205
      -0.181
      -0.171
      -0.175
      -0.183
      -0.184
      -0.172
      -0.154
      -0.137
      -0.124
      -0.111
      -0.090
      -0.057
      -0.010
       0.045
       0.104
       0.161
       0.218
       0.276
       0.340
       0.409
       0.479
       0.544
       0.595
       0.628
       0.641
       0.633
       0.603
       0.552
       0.486
       0.414
       0.342
       0.266
       0.178
       0.076
      -0.035
      -0.144
      -0.242
      -0.325
      -0.392
      -0.442
      -0.471
      -0.479
      -0.471
      -0.459
      -0.452
      -0.454
      -0.462
      -0.471
      -0.473
      -0.461
      -0.433
      -0.395
      -0.359
      -0.337
      -0.338
      -0.364
      -0.411
      -0.472
      -0.536
      -0.588
      -0.613
      -0.603
      -0.555
      -0.474
      -0.368
      -0.245
      -0.117
       0.008
       0.124
       0.227
       0.321
       0.409
       0.494
       0.573
       0.638
       0.686
       0.719
       0.740
       0.740
       0.711
       0.648
       0.558
       0.461
       0.377
       0.314
       0.269
       0.237
       0.213
       0.195
       0.182
       0.171
       0.157
       0.138
       0.111
       0.077
       0.040
       0.004
      -0.029
      -0.061
      -0.101
      -0.149
      -0.199
      -0.239
      -0.256
      -0.250
      -0.227
      -0.194
      -0.156
      -0.122
      -0.097
      -0.091
      -0.106
      -0.138
      -0.174
      -0.207
      -0.233
      -0.260
      -0.291
      -0.332
      -0.386
      -0.455
      -0.533
      -0.612
      -0.679
      -0.724
      -0.737
      -0.711
      -0.642
      -0.536
      -0.406
      -0.269
      -0.138
      -0.022
       0.072
       0.141
       0.184
       0.203
       0.208
       0.209
       0.211
       0.209
       0.192
       0.152
       0.093
       0.022
      -0.057
      -0.142
      -0.234
      -0.336
      -0.446
      -0.549
      -0.626
      -0.661
      -0.650
      -0.607
      -0.550
      -0.489
      -0.426
      -0.355
      -0.280
      -0.207
      -0.137
      -0.062
       0.030
       0.141
       0.264
       0.383
       0.480
       0.547
       0.583
       0.588
       0.565
       0.515
       0.448
       0.380
       0.331
       0.312
       0.324
       0.359
       0.410
       0.473
       0.546
       0.625
       0.699
       0.754
       0.780
       0.783
       0.776
       0.767
       0.754
       0.725
       0.672
       0.591
       0.486
       0.360
       0.220
       0.072
      -0.072
      -0.201
      -0.305
      -0.383
      -0.441
      -0.487
      -0.533
      -0.586
      -0.643
      -0.693
      -0.730
      -0.756
      -0.775
      -0.789
      -0.788
      -0.761
      -0.709
      -0.640
      -0.577
      -0.533
      -0.507
      -0.488
      -0.464
      -0.435
      -0.408
      -0.391
      -0.386
      -0.384
      -0.380
      -0.371
      -0.358
      -0.346
      -0.331
      -0.305
      -0.259
      -0.190
      -0.109
      -0.031
       0.035
       0.086
       0.127
       0.160
       0.178
       0.178
       0.160
       0.134
       0.110
       0.099
       0.104
       0.122
       0.149
       0.178
       0.203
       0.220
       0.228
       0.230
       0.234
       0.249
       0.281
       0.329
       0.386
       0.443
       0.495
       0.541
       0.573
       0.577
       0.544
       0.476
       0.390
       0.304
       0.229
       0.166
       0.110
       0.056
       0.005
      -0.045
      -0.097
      -0.154
      -0.218
      -0.290
      -0.362
      -0.418
      -0.443
      -0.430
      -0.384
      -0.316
      -0.235
      -0.151
      -0.071
      -0.004
       0.043
       0.064
       0.061
       0.046
       0.033
       0.030
       0.039
       0.056
       0.078
       0.102
       0.119
       0.123
       0.117
       0.111
       0.116
       0.138
       0.180
       0.240
       0.311
       0.378
       0.425
       0.447
       0.444
       0.423
       0.388
       0.334
       0.260
       0.174
       0.090
       0.020
      -0.033
      -0.075
      -0.115
      -0.154
      -0.187
      -0.205
      -0.208
      -0.205
      -0.205
      -0.208
      -0.210
      -0.203
      -0.192
      -0.182
      -0.182
      -0.190
      -0.200
      -0.208
      -0.213
      -0.219
      -0.234
      -0.257
      -0.284
      -0.312
      -0.338
      -0.365
      -0.394
      -0.426
      -0.459
      -0.491
      -0.521
      -0.550
      -0.577
      -0.597
      -0.603
      -0.593
      -0.569
      -0.534
      -0.493
      -0.451
      -0.412
      -0.376
      -0.338
      -0.289
      -0.229
      -0.164
      -0.106
      -0.057
      -0.020
       0.002
       0.000
      -0.026
      -0.068
      -0.106
      -0.122
      -0.105
      -0.060
       0.005
       0.081
       0.160
       0.234
       0.296
       0.341
       0.372
       0.397
       0.426
       0.464
       0.510
       0.559
       0.602
       0.633
       0.654
       0.668
       0.677
       0.683
       0.681
       0.664
       0.626
       0.564
       0.476
       0.363
       0.230
       0.086
      -0.050
      -0.160
      -0.235
      -0.279
      -0.305
      -0.323
      -0.337
      -0.348
      -0.355
      -0.358
      -0.361
      -0.361
      -0.353
      -0.329
      -0.281
      -0.213
      -0.138
      -0.071
      -0.018
       0.024
       0.059
       0.088
       0.110
       0.128
       0.152
       0.190
       0.244
       0.304
       0.355
       0.389
       0.407
       0.412
       0.406
       0.385
       0.345
       0.286
       0.216
       0.147
       0.089
       0.042
      -0.002
      -0.049
      -0.101
      -0.153
      -0.199
      -0.236
      -0.272
      -0.315
      -0.372
      -0.436
      -0.489
      -0.517
      -0.517
      -0.492
      -0.451
      -0.399
      -0.340
      -0.281
      -0.230
      -0.196
      -0.180
      -0.173
      -0.163
      -0.142
      -0.116
      -0.093
      -0.076
      -0.066
      -0.061
      -0.067
      -0.091
      -0.135
      -0.188
      -0.234
      -0.257
      -0.248
      -0.210
      -0.154
      -0.090
      -0.024
       0.042
       0.106
       0.163
       0.205
       0.229
       0.237
       0.242
       0.254
       0.275
       0.293
       0.300
       0.295
       0.290
       0.298
       0.325
       0.369
       0.420
       0.475
       0.534
       0.598
       0.665
       0.726
       0.769
       0.787
       0.778
       0.748
       0.704
       0.647
       0.569
       0.467
       0.341
       0.204
       0.066
      -0.066
      -0.190
      -0.303
      -0.398
      -0.466
      -0.501
      -0.504
      -0.483
      -0.449
      -0.409
      -0.367
      -0.323
      -0.276
      -0.232
      -0.197
      -0.175
      -0.164
      -0.156
      -0.141
      -0.118
      -0.092
      -0.068
      -0.051
      -0.040
      -0.037
      -0.040
      -0.047
      -0.055
      -0.058
      -0.053
      -0.038
      -0.016
       0.008
       0.027
       0.035
       0.030
       0.015
      -0.001
      -0.009
      -0.008
      -0.003
       0.001
       0.004
       0.004
      -0.003
      -0.024
      -0.060
      -0.103
      -0.142
      -0.173
      -0.202
      -0.231
      -0.255
      -0.262
      -0.255
      -0.242
      -0.237
      -0.240
      -0.242
      -0.239
      -0.237
      -0.245
      -0.267
      -0.297
      -0.319
      -0.326
      -0.317
      -0.297
      -0.272
      -0.246
      -0.221
      -0.195
      -0.162
      -0.115
      -0.058
       0.006
       0.077
       0.164
       0.270
       0.383
       0.475
       0.523
       0.526
       0.500
       0.461
       0.412
       0.355
       0.292
       0.234
       0.191
       0.169
       0.160
       0.156
       0.151
       0.148
       0.148
       0.151
       0.156
       0.167
       0.185
       0.209
       0.238
       0.276
       0.324
       0.377
       0.423
       0.454
       0.468
       0.469
       0.457
       0.434
       0.397
       0.352
       0.309
       0.276
       0.250
       0.221
       0.178
       0.122
       0.056
      -0.015
      -0.091
      -0.166
      -0.233
      -0.282
      -0.307
      -0.307
      -0.287
      -0.257
      -0.224
      -0.193
      -0.168
      -0.149
      -0.136
      -0.128
      -0.122
      -0.114
      -0.098
      -0.074
      -0.050
      -0.036
      -0.043
      -0.074
      -0.121
      -0.176
      -0.230
      -0.281
      -0.326
      -0.362
      -0.383
      -0.381
      -0.356
      -0.316
      -0.278
      -0.254
      -0.252
      -0.266
      -0.287
      -0.300
      -0.300
      -0.290
      -0.276
      -0.263
      -0.247
      -0.224
      -0.197
      -0.172
      -0.153
      -0.140
      -0.123
      -0.097
      -0.061
      -0.021
       0.016
       0.050
       0.081
       0.109
       0.137
       0.168
       0.207
       0.250
       0.289
       0.315
       0.319
       0.297
       0.249
       0.182
       0.114
       0.064
       0.046
       0.061
       0.097
       0.138
       0.173
       0.201
       0.219
       0.221
       0.203
       0.168
       0.128
       0.099
       0.092
       0.110
       0.145
       0.186
       0.219
       0.236
       0.230
       0.200
       0.150
       0.088
       0.027
      -0.024
      -0.059
      -0.083
      -0.101
      -0.115
      -0.119
      -0.112
      -0.105
      -0.109
      -0.125
      -0.144
      -0.156
      -0.154
      -0.142
      -0.126
      -0.103
      -0.067
      -0.008
       0.075
       0.172
       0.266
       0.345
       0.401
       0.431
       0.431
       0.402
       0.348
       0.274
       0.189
       0.105
       0.033
      -0.020
      -0.055
      -0.079
      -0.100
      -0.120
      -0.141
      -0.162
      -0.182
      -0.197
      -0.201
      -0.187
      -0.147
      -0.085
      -0.013
       0.048
       0.084
       0.089
       0.066
       0.024
      -0.025
      -0.069
      -0.098
      -0.101
      -0.074
      -0.024
       0.036
       0.087
       0.111
       0.099
       0.052
      -0.017
      -0.096
      -0.180
      -0.265
      -0.347
      -0.415
      -0.458
      -0.477
      -0.477
      -0.467
      -0.450
      -0.428
      -0.399
      -0.367
      -0.333
      -0.304
      -0.280
      -0.260
      -0.236
      -0.198
      -0.144
      -0.080
      -0.021
       0.020
       0.033
       0.020
      -0.010
      -0.043
      -0.069
      -0.077
      -0.056
      -0.002
       0.076
       0.161
       0.233
       0.283
       0.312
       0.328
       0.335
       0.340
       0.348
       0.363
       0.385
       0.406
       0.413
       0.400
       0.367
       0.322
       0.275
       0.233
       0.200
       0.175
       0.152
       0.126
       0.095
       0.064
       0.038
       0.020
       0.006
      -0.008
      -0.020
      -0.033
      -0.049
      -0.075
      -0.107
      -0.138
      -0.158
      -0.170
      -0.184
      -0.209
      -0.243
      -0.276
      -0.300
      -0.311
      -0.315
      -0.312
      -0.301
      -0.280
      -0.247
      -0.205
      -0.156
      -0.103
      -0.058
      -0.030
      -0.021
      -0.026
      -0.040
      -0.058
      -0.080
      -0.104
      -0.128
      -0.149
      -0.167
      -0.188
      -0.212
      -0.236
      -0.250
      -0.249
      -0.233
      -0.210
      -0.181
      -0.147
      -0.117
      -0.100
      -0.099
      -0.104
      -0.101
      -0.081
      -0.042
       0.015
       0.089
       0.179
       0.277
       0.368
       0.437
       0.479
       0.496
       0.494
       0.480
       0.461
       0.442
       0.428
       0.418
       0.405
       0.380
       0.340
       0.281
       0.206
       0.122
       0.046
      -0.010
      -0.040
      -0.045
      -0.030
       0.002
       0.052
       0.114
       0.171
       0.206
       0.211
       0.192
       0.162
       0.126
       0.084
       0.031
      -0.032
      -0.101
      -0.175
      -0.258
      -0.348
      -0.442
      -0.536
      -0.619
      -0.686
      -0.730
      -0.754
      -0.759
      -0.749
      -0.722
      -0.677
      -0.612
      -0.532
      -0.448
      -0.371
      -0.310
      -0.265
      -0.234
      -0.212
      -0.195
      -0.181
      -0.164
      -0.138
      -0.103
      -0.062
      -0.019
       0.018
       0.043
       0.055
       0.053
       0.044
       0.038
       0.049
       0.085
       0.143
       0.212
       0.277
       0.328
       0.361
       0.381
       0.401
       0.430
       0.471
       0.517
       0.563
       0.610
       0.663
       0.724
       0.784
       0.823
       0.832
       0.811
       0.775
       0.732
       0.684
       0.629
       0.565
       0.494
       0.417
       0.332
       0.240
       0.141
       0.041
      -0.051
      -0.129
      -0.187
      -0.220
      -0.232
      -0.228
      -0.215
      -0.199
      -0.182
      -0.167
      -0.154
      -0.145
      -0.136
      -0.130
      -0.132
      -0.153
      -0.202
      -0.277
      -0.363
      -0.441
      -0.497
      -0.526
      -0.526
      -0.500
      -0.450
      -0.380
      -0.300
      -0.223
      -0.161
      -0.120
      -0.097
      -0.084
      -0.071
      -0.054
      -0.033
      -0.016
      -0.009
      -0.012
      -0.019
      -0.021
      -0.016
      -0.006
       0.008
       0.030
       0.061
       0.098
       0.123
       0.120
       0.079
       0.009
      -0.078
      -0.168
      -0.253
      -0.330
      -0.394
      -0.446
      -0.485
      -0.514
      -0.529
      -0.528
      -0.504
      -0.456
      -0.387
      -0.307
      -0.227
      -0.160
      -0.112
      -0.078
      -0.052
      -0.025
       0.007
       0.045
       0.091
       0.147
       0.210
       0.270
       0.317
       0.342
       0.345
       0.332
       0.311
       0.292
       0.279
       0.269
       0.259
       0.247
       0.236
       0.226
       0.212
       0.188
       0.149
       0.102
       0.061
       0.041
       0.045
       0.065
       0.087
       0.107
       0.126
       0.152
       0.189
       0.232
       0.269
       0.292
       0.301
       0.300
       0.288
       0.261
       0.216
       0.158
       0.095
       0.036
      -0.019
      -0.065
      -0.101
      -0.120
      -0.122
      -0.106
      -0.080
      -0.052
      -0.034
      -0.030
      -0.038
      -0.050
      -0.059
      -0.064
      -0.072
      -0.089
      -0.111
      -0.125
      -0.123
      -0.106
      -0.084
      -0.059
      -0.025
       0.022
       0.081
       0.140
       0.188
       0.215
       0.221
       0.216
       0.206
       0.195
       0.180
       0.158
       0.124
       0.082
       0.036
      -0.008
      -0.049
      -0.084
      -0.111
      -0.129
      -0.137
      -0.135
      -0.127
      -0.122
      -0.125
      -0.141
      -0.170
      -0.213
      -0.265
      -0.323
      -0.382
      -0.434
      -0.477
      -0.506
      -0.514
      -0.498
      -0.462
      -0.419
      -0.379
      -0.345
      -0.310
      -0.266
      -0.206
      -0.133
      -0.052
       0.031
       0.112
       0.181
       0.228
       0.249
       0.245
       0.221
       0.186
       0.144
       0.103
       0.069
       0.049
       0.047
       0.061
       0.085
       0.111
       0.130
       0.138
       0.140
       0.143
       0.149
       0.156
       0.161
       0.170
       0.188
       0.216
       0.242
       0.248
       0.228
       0.189
       0.141
       0.090
       0.039
      -0.009
      -0.043
      -0.048
      -0.021
       0.030
       0.089
       0.143
       0.187
       0.226
       0.268
       0.316
       0.369
       0.423
       0.475
       0.519
       0.550
       0.566
       0.564
       0.543
       0.501
       0.438
       0.359
       0.274
       0.192
       0.117
       0.050
      -0.009
      -0.058
      -0.090
      -0.102
      -0.098
      -0.086
      -0.074
      -0.068
      -0.073
      -0.090
      -0.121
      -0.159
      -0.199
      -0.232
      -0.248
      -0.240
      -0.205
      -0.156
      -0.110
      -0.082
      -0.070
      -0.068
      -0.074
      -0.089
      -0.117
      -0.151
      -0.176
      -0.184
      -0.179
      -0.175
      -0.181
      -0.197
      -0.210
      -0.208
      -0.190
      -0.160
      -0.126
      -0.090
      -0.053
      -0.016
       0.014
       0.028
       0.017
      -0.019
      -0.069
      -0.120
      -0.161
      -0.191
      -0.211
      -0.225
      -0.231
      -0.229
      -0.218
      -0.195
      -0.161
      -0.114
      -0.054
       0.018
       0.095
       0.169
       0.228
       0.269
       0.288
       0.285
       0.262
       0.224
       0.177
       0.129
       0.090
       0.064
       0.054
       0.054
       0.058
       0.064
       0.070
       0.081
       0.094
       0.100
       0.087
       0.051
      -0.001
      -0.057
      -0.101
      -0.128
      -0.138
      -0.134
      -0.109
      -0.058
       0.019
       0.106
       0.184
       0.238
       0.262
       0.260
       0.242
       0.220
       0.195
       0.170
       0.145
       0.120
       0.098
       0.076
       0.049
       0.013
      -0.035
      -0.089
      -0.143
      -0.187
      -0.215
      -0.222
      -0.209
      -0.181
      -0.147
      -0.115
      -0.092
      -0.082
      -0.085
      -0.096
      -0.107
      -0.111
      -0.106
      -0.093
      -0.075
      -0.051
      -0.019
       0.019
       0.062
       0.105
       0.149
       0.195
       0.242
       0.282
       0.312
       0.325
       0.322
       0.308
       0.289
       0.270
       0.249
       0.226
       0.201
       0.179
       0.167
       0.163
       0.159
       0.141
       0.103
       0.053
       0.004
      -0.034
      -0.059
      -0.080
      -0.102
      -0.133
      -0.169
      -0.209
      -0.246
      -0.279
      -0.304
      -0.314
      -0.302
      -0.265
      -0.210
      -0.148
      -0.084
      -0.017
       0.052
       0.111
       0.145
       0.147
       0.121
       0.082
       0.044
       0.012
      -0.018
      -0.051
      -0.087
      -0.119
      -0.138
      -0.138
      -0.116
      -0.080
      -0.042
      -0.011
       0.011
       0.029
       0.049
       0.071
       0.086
       0.087
       0.077
       0.059
       0.038
