Origin Time       21/3/2011 09:48:59  UTC
Lat.              36.5 N 
Long.             70.9 E 
Depth (Km)        166.0
Magnitude         5.7
 Region           Hindukush-Region-Afganistan                                      
 Above details taken from IMD 
    
Station Code      JMU
Station Lat.       32.732  N
Station Long.      74.874  E
Station Height(m)  361.0
Site Class        B   Vs30 between 375 m/sec to 700 m/sec *  
Record Time       21.03.2011 09:50:43.624 UTC
Sampling Rate     200. Hz
 Record Duration   81.245 Sec.
 Direction         N-S (N positive)
Max. Acceleration      2.403 cm/sec**2
     
  * For reference see Site Classification link of website 
     
 Base Line Corrected and Low Pass Filtered (Cut Off at 35 Hz) Time History
 Acceleration data in cm/sec**2
    
[...]
       0.075
       0.049
       0.016
      -0.024
      -0.063
      -0.095
      -0.118
      -0.135
      -0.150
      -0.165
      -0.177
      -0.184
      -0.183
      -0.178
      -0.171
      -0.167
      -0.164
      -0.159
      -0.151
      -0.139
      -0.127
      -0.116
      -0.106
      -0.093
      -0.074
      -0.049
      -0.022
       0.007
       0.037
       0.072
       0.112
       0.149
       0.177
       0.191
       0.195
       0.195
       0.196
       0.197
       0.188
       0.164
       0.129
       0.098
       0.081
       0.076
       0.066
       0.038
      -0.008
      -0.057
      -0.091
      -0.105
      -0.104
      -0.100
      -0.100
      -0.103
      -0.104
      -0.101
      -0.094
      -0.092
      -0.098
      -0.105
      -0.102
      -0.084
      -0.054
      -0.025
      -0.006
       0.004
       0.014
       0.030
       0.051
       0.065
       0.067
       0.060
       0.054
       0.058
       0.070
       0.082
       0.089
       0.089
       0.085
       0.076
       0.065
       0.055
       0.052
       0.063
       0.087
       0.116
       0.140
       0.151
       0.147
       0.131
       0.107
       0.083
       0.067
       0.059
       0.057
       0.054
       0.047
       0.031
       0.004
      -0.036
      -0.085
      -0.136
      -0.177
      -0.202
      -0.210
      -0.211
      -0.213
      -0.219
      -0.226
      -0.228
      -0.225
      -0.218
      -0.212
      -0.207
      -0.197
      -0.170
      -0.124
      -0.067
      -0.014
       0.021
       0.037
       0.038
       0.038
       0.043
       0.059
       0.083
       0.108
       0.125
       0.128
       0.115
       0.092
       0.069
       0.052
       0.044
       0.041
       0.039
       0.034
       0.027
       0.022
       0.023
       0.029
       0.039
       0.049
       0.056
       0.060
       0.061
       0.055
       0.041
       0.022
       0.004
      -0.006
      -0.009
      -0.011
      -0.022
      -0.042
      -0.065
      -0.079
      -0.077
      -0.059
      -0.038
      -0.023
      -0.018
      -0.018
      -0.015
      -0.004
       0.011
       0.024
       0.029
       0.027
       0.022
       0.017
       0.012
       0.003
      -0.011
      -0.027
      -0.038
      -0.039
      -0.028
      -0.011
       0.004
       0.009
       0.005
      -0.003
      -0.007
      -0.003
       0.009
       0.026
       0.043
       0.060
       0.074
       0.082
       0.083
       0.077
       0.068
       0.064
       0.070
       0.082
       0.090
       0.084
       0.069
       0.053
       0.047
       0.052
       0.065
       0.078
       0.089
       0.097
       0.105
       0.108
       0.102
       0.083
       0.057
       0.032
       0.015
       0.004
      -0.007
      -0.022
      -0.038
      -0.050
      -0.051
      -0.040
      -0.026
      -0.019
      -0.023
      -0.035
      -0.047
      -0.053
      -0.057
      -0.068
      -0.089
      -0.113
      -0.129
      -0.134
      -0.133
      -0.135
      -0.140
      -0.140
      -0.125
      -0.096
      -0.058
      -0.021
       0.011
       0.036
       0.057
       0.075
       0.093
       0.113
       0.139
       0.172
       0.204
       0.223
       0.222
       0.205
       0.183
       0.165
       0.155
       0.149
       0.144
       0.138
       0.129
       0.116
       0.097
       0.071
       0.040
       0.007
      -0.028
      -0.064
      -0.099
      -0.125
      -0.135
      -0.128
      -0.108
      -0.084
      -0.062
      -0.044
      -0.028
      -0.012
       0.006
       0.026
       0.053
       0.086
       0.122
       0.150
       0.161
       0.151
       0.127
       0.101
       0.084
       0.076
       0.069
       0.056
       0.035
       0.007
      -0.022
      -0.052
      -0.087
      -0.127
      -0.167
      -0.195
      -0.205
      -0.201
      -0.196
      -0.204
      -0.224
      -0.248
      -0.266
      -0.275
      -0.278
      -0.281
      -0.282
      -0.278
      -0.265
      -0.244
      -0.220
      -0.197
      -0.173
      -0.141
      -0.096
      -0.039
       0.023
       0.080
       0.132
       0.184
       0.243
       0.306
       0.365
       0.407
       0.429
       0.438
       0.443
       0.448
       0.452
       0.451
       0.440
       0.420
       0.390
       0.352
       0.308
       0.261
       0.210
       0.157
       0.104
       0.049
      -0.004
      -0.056
      -0.103
      -0.142
      -0.170
      -0.188
      -0.201
      -0.214
      -0.226
      -0.232
      -0.231
      -0.224
      -0.217
      -0.217
      -0.220
      -0.222
      -0.219
      -0.209
      -0.196
      -0.175
      -0.141
      -0.086
      -0.014
       0.064
       0.130
       0.175
       0.201
       0.215
       0.229
       0.245
       0.257
       0.255
       0.237
       0.208
       0.175
       0.143
       0.108
       0.065
       0.013
      -0.036
      -0.072
      -0.089
      -0.093
      -0.095
      -0.106
      -0.126
      -0.149
      -0.171
      -0.188
      -0.202
      -0.215
      -0.227
      -0.234
      -0.231
      -0.221
      -0.212
      -0.211
      -0.222
      -0.242
      -0.263
      -0.282
      -0.300
      -0.324
      -0.353
      -0.376
      -0.381
      -0.365
      -0.335
      -0.303
      -0.271
      -0.234
      -0.187
      -0.129
      -0.069
      -0.014
       0.033
       0.079
       0.128
       0.180
       0.225
       0.255
       0.265
       0.266
       0.269
       0.281
       0.301
       0.319
       0.330
       0.330
       0.323
       0.312
       0.298
       0.277
       0.245
       0.209
       0.178
       0.161
       0.155
       0.147
       0.129
       0.102
       0.080
       0.075
       0.086
       0.105
       0.121
       0.131
       0.140
       0.153
       0.169
       0.181
       0.176
       0.149
       0.105
       0.057
       0.021
      -0.001
      -0.016
      -0.035
      -0.062
      -0.092
      -0.117
      -0.138
      -0.158
      -0.178
      -0.190
      -0.185
      -0.161
      -0.123
      -0.081
      -0.044
      -0.011
       0.020
       0.051
       0.082
       0.113
       0.148
       0.189
       0.233
       0.269
       0.288
       0.285
       0.265
       0.236
       0.204
       0.169
       0.121
       0.049
      -0.046
      -0.151
      -0.252
      -0.343
      -0.433
      -0.532
      -0.636
      -0.731
      -0.800
      -0.840
      -0.858
      -0.866
      -0.866
      -0.852
      -0.813
      -0.749
      -0.669
      -0.588
      -0.511
      -0.437
      -0.358
      -0.274
      -0.195
      -0.130
      -0.087
      -0.060
      -0.042
      -0.029
      -0.020
      -0.017
      -0.018
      -0.017
      -0.010
       0.005
       0.021
       0.034
       0.041
       0.049
       0.066
       0.094
       0.130
       0.167
       0.200
       0.232
       0.268
       0.307
       0.344
       0.369
       0.381
       0.384
       0.384
       0.383
       0.377
       0.361
       0.340
       0.325
       0.322
       0.329
       0.332
       0.323
       0.305
       0.289
       0.283
       0.287
       0.289
       0.280
       0.259
       0.234
       0.212
       0.196
       0.182
       0.166
       0.147
       0.128
       0.110
       0.094
       0.079
       0.063
       0.045
       0.024
       0.002
      -0.016
      -0.027
      -0.032
      -0.036
      -0.041
      -0.047
      -0.049
      -0.046
      -0.040
      -0.036
      -0.035
      -0.033
      -0.029
      -0.021
      -0.013
      -0.008
      -0.008
      -0.011
      -0.016
      -0.022
      -0.030
      -0.041
      -0.052
      -0.057
      -0.053
      -0.040
      -0.027
      -0.024
      -0.039
      -0.076
      -0.132
      -0.201
      -0.281
      -0.370
      -0.463
      -0.556
      -0.642
      -0.713
      -0.766
      -0.806
      -0.837
      -0.863
      -0.882
      -0.890
      -0.882
      -0.856
      -0.809
      -0.745
      -0.672
      -0.597
      -0.526
      -0.460
      -0.394
      -0.324
      -0.245
      -0.159
      -0.069
       0.020
       0.103
       0.180
       0.251
       0.319
       0.379
       0.428
       0.461
       0.480
       0.489
       0.496
       0.500
       0.499
       0.489
       0.465
       0.426
       0.373
       0.307
       0.227
       0.140
       0.054
      -0.021
      -0.078
      -0.118
      -0.150
      -0.185
      -0.231
      -0.288
      -0.348
      -0.401
      -0.437
      -0.457
      -0.463
      -0.461
      -0.453
      -0.438
      -0.416
      -0.385
      -0.336
      -0.262
      -0.160
      -0.035
       0.099
       0.230
       0.355
       0.480
       0.612
       0.751
       0.890
       1.020
       1.137
       1.240
       1.331
       1.403
       1.450
       1.467
       1.451
       1.410
       1.356
       1.298
       1.239
       1.175
       1.100
       1.015
       0.923
       0.830
       0.734
       0.625
       0.499
       0.362
       0.228
       0.108
       0.001
      -0.108
      -0.234
      -0.385
      -0.552
      -0.714
      -0.858
      -0.978
      -1.078
      -1.163
      -1.231
      -1.278
      -1.305
      -1.319
      -1.326
      -1.326
      -1.310
      -1.266
      -1.190
      -1.086
      -0.966
      -0.842
      -0.724
      -0.612
      -0.506
      -0.403
      -0.308
      -0.225
      -0.156
      -0.097
      -0.044
       0.006
       0.046
       0.068
       0.071
       0.064
       0.061
       0.068
       0.074
       0.066
       0.040
       0.008
      -0.013
      -0.012
       0.006
       0.029
       0.051
       0.076
       0.112
       0.164
       0.224
       0.284
       0.333
       0.370
       0.393
       0.404
       0.403
       0.394
       0.382
       0.373
       0.368
       0.368
       0.368
       0.363
       0.352
       0.337
       0.323
       0.314
       0.308
       0.305
       0.303
       0.310
       0.327
       0.354
       0.384
       0.414
       0.441
       0.466
       0.489
       0.514
       0.538
       0.555
       0.557
       0.538
       0.501
       0.453
       0.402
       0.355
       0.311
       0.271
       0.234
       0.202
       0.168
       0.129
       0.080
       0.024
      -0.034
      -0.085
      -0.127
      -0.161
      -0.192
      -0.221
      -0.243
      -0.256
      -0.258
      -0.255
      -0.251
      -0.243
      -0.222
      -0.178
      -0.110
      -0.024
       0.068
       0.152
       0.226
       0.296
       0.366
       0.434
       0.495
       0.547
       0.596
       0.652
       0.720
       0.796
       0.866
       0.917
       0.942
       0.947
       0.941
       0.929
       0.912
       0.884
       0.837
       0.770
       0.684
       0.582
       0.467
       0.337
       0.193
       0.037
      -0.126
      -0.292
      -0.456
      -0.616
      -0.769
      -0.922
      -1.082
      -1.249
      -1.417
      -1.571
      -1.700
      -1.795
      -1.859
      -1.894
      -1.907
      -1.901
      -1.878
      -1.840
      -1.783
      -1.706
      -1.608
      -1.491
      -1.360
      -1.217
      -1.061
      -0.892
      -0.714
      -0.528
      -0.335
      -0.125
       0.106
       0.356
       0.611
       0.853
       1.072
       1.268
       1.447
       1.609
       1.746
       1.847
       1.908
       1.934
       1.931
       1.901
       1.833
       1.719
       1.561
       1.375
       1.181
       0.984
       0.775
       0.541
       0.280
       0.001
      -0.278
      -0.541
      -0.783
      -1.006
      -1.214
      -1.409
      -1.587
      -1.743
      -1.876
      -1.986
      -2.076
      -2.143
      -2.179
      -2.183
      -2.161
      -2.124
      -2.078
      -2.020
      -1.943
      -1.838
      -1.707
      -1.557
      -1.398
      -1.234
      -1.062
      -0.875
      -0.667
      -0.438
      -0.194
       0.053
       0.297
       0.535
       0.766
       0.984
       1.185
       1.366
       1.531
       1.687
       1.837
       1.979
       2.105
       2.209
       2.286
       2.338
       2.369
       2.376
       2.359
       2.320
       2.266
       2.207
       2.145
       2.073
       1.978
       1.855
       1.706
       1.541
       1.371
       1.203
       1.038
       0.879
       0.724
       0.573
       0.421
       0.265
       0.104
      -0.057
      -0.209
      -0.344
      -0.457
      -0.551
      -0.627
      -0.686
      -0.723
      -0.736
      -0.722
      -0.685
      -0.631
      -0.564
      -0.487
      -0.402
      -0.311
      -0.214
      -0.117
      -0.028
       0.043
       0.089
       0.110
       0.110
       0.086
       0.023
      -0.089
      -0.252
      -0.448
      -0.658
      -0.865
      -1.067
      -1.266
      -1.462
      -1.652
      -1.829
      -1.986
      -2.118
      -2.220
      -2.288
      -2.321
      -2.319
      -2.286
      -2.226
      -2.144
      -2.040
      -1.908
      -1.748
      -1.560
      -1.355
      -1.146
      -0.944
      -0.750
      -0.564
      -0.386
      -0.217
      -0.060
       0.083
       0.217
       0.352
       0.493
       0.639
       0.788
       0.941
       1.103
       1.278
       1.465
       1.654
       1.833
       1.990
       2.124
       2.233
       2.319
       2.378
       2.403
       2.394
       2.357
       2.299
       2.221
       2.116
       1.971
       1.781
       1.554
       1.303
       1.045
       0.784
       0.517
       0.241
      -0.041
      -0.325
      -0.603
      -0.874
      -1.136
      -1.384
      -1.604
      -1.784
      -1.914
      -1.996
      -2.035
      -2.036
      -1.998
      -1.917
      -1.790
      -1.625
      -1.437
      -1.239
      -1.038
      -0.830
      -0.609
      -0.376
      -0.141
       0.080
       0.270
       0.424
       0.545
       0.646
       0.733
       0.805
       0.860
       0.898
       0.922
       0.930
       0.917
       0.879
       0.819
       0.746
       0.671
       0.597
       0.523
       0.451
       0.383
       0.323
       0.271
       0.221
       0.163
       0.089
       0.000
      -0.095
      -0.186
      -0.270
      -0.353
      -0.444
      -0.543
      -0.642
      -0.731
      -0.809
      -0.890
      -0.985
      -1.096
      -1.206
      -1.294
      -1.348
      -1.372
      -1.375
      -1.363
      -1.332
      -1.278
      -1.205
      -1.120
      -1.030
      -0.933
      -0.818
      -0.670
      -0.484
      -0.268
      -0.037
       0.192
       0.409
       0.612
       0.803
       0.986
       1.159
       1.320
       1.464
       1.586
       1.682
       1.744
       1.770
       1.764
       1.736
       1.694
       1.636
       1.555
       1.445
       1.312
       1.168
       1.028
       0.899
       0.781
       0.669
       0.563
       0.461
       0.373
       0.306
       0.267
       0.250
       0.244
       0.238
       0.228
       0.221
       0.220
       0.222
       0.214
       0.184
       0.127
       0.050
      -0.041
      -0.143
      -0.260
      -0.391
      -0.530
      -0.661
      -0.773
      -0.861
      -0.932
      -0.990
      -1.040
      -1.080
      -1.105
      -1.107
      -1.081
      -1.024
      -0.938
      -0.822
      -0.682
      -0.530
      -0.380
      -0.246
      -0.135
      -0.041
       0.047
       0.134
       0.217
       0.288
       0.340
       0.371
       0.381
       0.373
       0.344
       0.294
       0.225
       0.153
       0.094
       0.056
       0.031
       0.008
      -0.021
      -0.050
      -0.071
      -0.081
      -0.089
      -0.106
      -0.132
      -0.157
      -0.167
      -0.161
      -0.149
      -0.141
      -0.141
      -0.141
      -0.137
      -0.126
      -0.114
      -0.104
      -0.092
      -0.069
      -0.027
       0.038
       0.115
       0.189
       0.246
       0.278
       0.285
       0.277
       0.264
       0.255
       0.252
       0.256
       0.263
       0.263
       0.242
       0.187
       0.096
      -0.020
      -0.138
      -0.239
      -0.316
      -0.374
      -0.420
      -0.458
      -0.488
      -0.513
      -0.539
      -0.570
      -0.607
      -0.641
      -0.661
      -0.659
      -0.634
      -0.594
      -0.545
      -0.486
      -0.409
      -0.313
      -0.204
      -0.094
       0.011
       0.116
       0.233
       0.368
       0.521
       0.682
       0.841
       0.990
       1.125
       1.242
       1.337
       1.411
       1.467
       1.507
       1.535
       1.550
       1.548
       1.520
       1.460
       1.366
       1.237
       1.083
       0.911
       0.731
       0.550
       0.376
       0.214
       0.069
      -0.059
      -0.172
      -0.275
      -0.370
      -0.456
      -0.529
      -0.583
      -0.615
      -0.636
      -0.657
      -0.687
      -0.720
      -0.751
      -0.776
      -0.799
      -0.830
      -0.871
      -0.921
      -0.975
      -1.029
      -1.076
      -1.112
      -1.135
      -1.153
      -1.177
      -1.210
      -1.244
      -1.265
      -1.259
      -1.226
      -1.174
      -1.109
      -1.027
      -0.917
      -0.777
      -0.614
      -0.442
      -0.273
      -0.112
       0.044
       0.194
       0.333
       0.448
       0.528
       0.565
       0.563
       0.532
       0.488
       0.442
       0.397
       0.349
       0.298
       0.246
       0.202
       0.174
       0.167
       0.179
       0.205
       0.243
       0.296
       0.368
       0.451
       0.533
       0.596
       0.633
       0.655
       0.677
       0.705
       0.731
       0.737
       0.715
       0.670
       0.616
       0.555
       0.482
       0.387
       0.269
       0.138
       0.010
      -0.106
      -0.207
      -0.297
      -0.381
      -0.454
      -0.502
      -0.512
      -0.479
      -0.411
      -0.320
      -0.217
      -0.106
       0.016
       0.148
       0.282
       0.405
       0.506
       0.584
       0.646
       0.693
       0.723
       0.722
       0.683
       0.604
       0.494
       0.366
       0.233
       0.103
      -0.017
      -0.122
      -0.211
      -0.286
      -0.352
      -0.408
      -0.455
      -0.488
      -0.504
      -0.502
      -0.485
      -0.456
      -0.416
      -0.363
      -0.298
      -0.228
      -0.166
      -0.119
      -0.091
      -0.074
      -0.061
      -0.046
      -0.028
      -0.014
      -0.008
      -0.016
      -0.037
      -0.070
      -0.114
      -0.170
      -0.238
      -0.314
      -0.387
      -0.443
      -0.478
      -0.496
      -0.503
      -0.505
      -0.502
      -0.491
      -0.471
      -0.439
      -0.391
      -0.322
      -0.230
      -0.119
      -0.002
       0.107
       0.195
       0.257
       0.293
       0.310
       0.316
       0.315
       0.310
       0.294
       0.266
       0.227
       0.177
       0.119
       0.054
      -0.020
      -0.101
      -0.185
      -0.263
      -0.327
      -0.375
      -0.407
      -0.425
      -0.429
      -0.412
      -0.375
      -0.321
      -0.259
      -0.195
      -0.128
      -0.056
