Origin Time       2/8/2013 21:37:40	 
Lat.              33.4 N	
Long.             75.9 E	
Depth (Km)         20.0
Magnitude         5.2
 Region           KISHTWAR-JK                                                      
 Above details taken from IMD 
   
Station Code      JMU
Station Lat.       32.732
Station Long.      74.874
Station Height(m)  361.0
Site Class        B   Vs30 between 375 m/sec to 700 m/sec *  
Record Time       02.08.2013 21:37:54.369
Sampling Rate     200. Hz
 Record Duration   85.710 Sec.
 Direction         Vert. (Up positive)
Max. Acceleration     -1.969 cm/sec**2
     
  * For reference see Site Classification link of website 
     
 Base Line Corrected and Low Pass Filtered (Cut Off at 35 Hz) Time History
 Acceleration data in cm/sec**2
    
[...]
       0.684
       0.681
       0.618
       0.501
       0.340
       0.152
      -0.041
      -0.209
      -0.334
      -0.418
      -0.475
      -0.500
      -0.480
      -0.404
      -0.274
      -0.104
       0.082
       0.253
       0.380
       0.450
       0.460
       0.399
       0.261
       0.062
      -0.163
      -0.371
      -0.522
      -0.586
      -0.559
      -0.468
      -0.348
      -0.221
      -0.093
       0.032
       0.141
       0.221
       0.258
       0.238
       0.165
       0.062
      -0.047
      -0.154
      -0.265
      -0.379
      -0.484
      -0.569
      -0.619
      -0.615
      -0.544
      -0.410
      -0.224
      -0.002
       0.243
       0.483
       0.687
       0.832
       0.905
       0.898
       0.812
       0.660
       0.460
       0.230
      -0.002
      -0.190
      -0.289
      -0.286
      -0.205
      -0.084
       0.038
       0.120
       0.133
       0.064
      -0.082
      -0.288
      -0.522
      -0.731
      -0.856
      -0.861
      -0.742
      -0.523
      -0.256
      -0.016
       0.131
       0.164
       0.111
       0.024
      -0.040
      -0.032
       0.072
       0.258
       0.482
       0.689
       0.824
       0.842
       0.727
       0.509
       0.247
      -0.003
      -0.202
      -0.319
      -0.341
      -0.281
      -0.169
      -0.043
       0.061
       0.102
       0.055
      -0.071
      -0.235
      -0.382
      -0.466
      -0.459
      -0.365
      -0.216
      -0.049
       0.115
       0.267
       0.400
       0.503
       0.572
       0.609
       0.605
       0.557
       0.474
       0.378
       0.288
       0.218
       0.180
       0.179
       0.207
       0.251
       0.298
       0.335
       0.341
       0.296
       0.201
       0.072
      -0.067
      -0.186
      -0.253
      -0.250
      -0.184
      -0.083
       0.026
       0.125
       0.198
       0.233
       0.229
       0.193
       0.129
       0.045
      -0.043
      -0.118
      -0.179
      -0.233
      -0.283
      -0.325
      -0.353
      -0.362
      -0.338
      -0.264
      -0.142
       0.006
       0.155
       0.281
       0.366
       0.405
       0.414
       0.408
       0.388
       0.339
       0.251
       0.122
      -0.043
      -0.229
      -0.409
      -0.559
      -0.667
      -0.730
      -0.744
      -0.705
      -0.620
      -0.507
      -0.378
      -0.240
      -0.099
       0.045
       0.205
       0.391
       0.597
       0.791
       0.933
       0.986
       0.921
       0.738
       0.467
       0.161
      -0.127
      -0.356
      -0.490
      -0.514
      -0.448
      -0.336
      -0.223
      -0.143
      -0.123
      -0.173
      -0.273
      -0.379
      -0.443
      -0.423
      -0.295
      -0.065
       0.221
       0.492
       0.687
       0.772
       0.744
       0.630
       0.482
       0.352
       0.262
       0.209
       0.170
       0.123
       0.040
      -0.093
      -0.271
      -0.471
      -0.669
      -0.840
      -0.955
      -0.993
      -0.956
      -0.866
      -0.750
      -0.623
      -0.492
      -0.343
      -0.153
       0.090
       0.354
       0.576
       0.698
       0.691
       0.563
       0.351
       0.116
      -0.080
      -0.202
      -0.239
      -0.196
      -0.089
       0.042
       0.145
       0.180
       0.127
      -0.006
      -0.182
      -0.332
      -0.388
      -0.317
      -0.135
       0.111
       0.362
       0.570
       0.703
       0.766
       0.774
       0.743
       0.676
       0.583
       0.473
       0.343
       0.185
      -0.002
      -0.206
      -0.413
      -0.607
      -0.765
      -0.867
      -0.907
      -0.893
      -0.829
      -0.716
      -0.561
      -0.379
      -0.183
       0.019
       0.214
       0.380
       0.499
       0.551
       0.513
       0.379
       0.170
      -0.064
      -0.268
      -0.399
      -0.433
      -0.373
      -0.259
      -0.137
      -0.036
       0.038
       0.084
       0.098
       0.078
       0.033
      -0.026
      -0.077
      -0.084
      -0.020
       0.116
       0.290
       0.456
       0.577
       0.630
       0.613
       0.546
       0.455
       0.350
       0.238
       0.139
       0.082
       0.085
       0.137
       0.214
       0.282
       0.308
       0.274
       0.183
       0.053
      -0.097
      -0.246
      -0.368
      -0.441
      -0.467
      -0.467
      -0.460
      -0.455
      -0.456
      -0.464
      -0.472
      -0.465
      -0.432
      -0.361
      -0.238
      -0.052
       0.181
       0.419
       0.609
       0.709
       0.690
       0.558
       0.348
       0.113
      -0.113
      -0.310
      -0.464
      -0.561
      -0.597
      -0.578
      -0.517
      -0.434
      -0.362
      -0.331
      -0.345
      -0.380
      -0.406
      -0.411
      -0.393
      -0.356
      -0.308
      -0.247
      -0.158
      -0.033
       0.117
       0.257
       0.355
       0.391
       0.357
       0.262
       0.134
       0.009
      -0.087
      -0.140
      -0.139
      -0.076
       0.039
       0.180
       0.315
       0.415
       0.454
       0.418
       0.316
       0.175
       0.027
      -0.102
      -0.187
      -0.212
      -0.185
      -0.133
      -0.080
      -0.041
      -0.018
      -0.012
      -0.015
      -0.028
      -0.058
      -0.113
      -0.185
      -0.251
      -0.296
      -0.314
      -0.304
      -0.266
      -0.213
      -0.165
      -0.128
      -0.103
      -0.093
      -0.112
      -0.167
      -0.249
      -0.335
      -0.391
      -0.385
      -0.309
      -0.188
      -0.060
       0.056
       0.166
       0.277
       0.383
       0.473
       0.531
       0.548
       0.521
       0.467
       0.405
       0.340
       0.263
       0.174
       0.092
       0.036
       0.016
       0.022
       0.024
      -0.020
      -0.141
      -0.329
      -0.543
      -0.730
      -0.850
      -0.875
      -0.795
      -0.622
      -0.384
      -0.116
       0.147
       0.364
       0.496
       0.529
       0.478
       0.372
       0.244
       0.123
       0.035
      -0.017
      -0.036
      -0.030
      -0.011
      -0.004
      -0.037
      -0.110
      -0.198
      -0.265
      -0.291
      -0.267
      -0.201
      -0.119
      -0.050
      -0.008
       0.006
      -0.007
      -0.050
      -0.116
      -0.188
      -0.245
      -0.266
      -0.240
      -0.171
      -0.090
      -0.031
      -0.010
      -0.015
      -0.028
      -0.037
      -0.034
      -0.011
       0.026
       0.069
       0.120
       0.195
       0.301
       0.438
       0.596
       0.761
       0.910
       1.019
       1.070
       1.049
       0.943
       0.750
       0.492
       0.208
      -0.068
      -0.316
      -0.511
      -0.630
      -0.668
      -0.640
      -0.572
      -0.480
      -0.379
      -0.269
      -0.134
       0.046
       0.272
       0.520
       0.748
       0.908
       0.956
       0.865
       0.642
       0.321
      -0.063
      -0.472
      -0.859
      -1.165
      -1.350
      -1.404
      -1.345
      -1.204
      -1.025
      -0.836
      -0.644
      -0.438
      -0.215
       0.015
       0.234
       0.422
       0.551
       0.602
       0.570
       0.468
       0.313
       0.126
      -0.057
      -0.190
      -0.248
      -0.231
      -0.152
      -0.032
       0.109
       0.250
       0.378
       0.482
       0.547
       0.564
       0.542
       0.499
       0.440
       0.354
       0.224
       0.054
      -0.139
      -0.319
      -0.444
      -0.482
      -0.440
      -0.350
      -0.245
      -0.142
      -0.051
       0.016
       0.058
       0.082
       0.102
       0.136
       0.199
       0.293
       0.394
       0.460
       0.457
       0.376
       0.225
       0.029
      -0.169
      -0.324
      -0.421
      -0.468
      -0.472
      -0.426
      -0.313
      -0.128
       0.130
       0.445
       0.785
       1.104
       1.358
       1.508
       1.516
       1.362
       1.057
       0.640
       0.161
      -0.325
      -0.754
      -1.061
      -1.204
      -1.175
      -1.002
      -0.746
      -0.484
      -0.286
      -0.177
      -0.140
      -0.140
      -0.147
      -0.139
      -0.108
      -0.067
      -0.039
      -0.044
      -0.099
      -0.220
      -0.420
      -0.682
      -0.959
      -1.189
      -1.315
      -1.297
      -1.121
      -0.817
      -0.441
      -0.050
       0.311
       0.609
       0.822
       0.945
       0.995
       0.991
       0.954
       0.909
       0.869
       0.822
       0.751
       0.647
       0.522
       0.384
       0.229
       0.057
      -0.121
      -0.286
      -0.426
      -0.531
      -0.599
      -0.643
      -0.673
      -0.684
      -0.655
      -0.568
      -0.420
      -0.224
      -0.015
       0.158
       0.248
       0.242
       0.164
       0.042
      -0.100
      -0.240
      -0.349
      -0.403
      -0.399
      -0.349
      -0.281
      -0.231
      -0.223
      -0.252
      -0.288
      -0.297
      -0.253
      -0.139
       0.053
       0.312
       0.608
       0.915
       1.202
       1.439
       1.602
       1.692
       1.732
       1.737
       1.701
       1.610
       1.449
       1.213
       0.897
       0.514
       0.085
      -0.368
      -0.820
      -1.235
      -1.569
      -1.781
      -1.849
      -1.772
      -1.565
      -1.271
      -0.936
      -0.589
      -0.250
       0.052
       0.275
       0.392
       0.410
       0.371
       0.322
       0.299
       0.306
       0.311
       0.277
       0.188
       0.053
      -0.107
      -0.271
      -0.413
      -0.509
      -0.544
      -0.508
      -0.391
      -0.185
       0.089
       0.374
       0.607
       0.746
       0.776
       0.708
       0.572
       0.400
       0.214
       0.033
      -0.116
      -0.206
      -0.228
      -0.202
      -0.160
      -0.136
      -0.159
      -0.237
      -0.344
      -0.432
      -0.463
      -0.420
      -0.302
      -0.115
       0.119
       0.356
       0.550
       0.660
       0.659
       0.538
       0.310
       0.009
      -0.320
      -0.630
      -0.869
      -0.994
      -0.995
      -0.892
      -0.724
      -0.527
      -0.338
      -0.178
      -0.044
       0.079
       0.195
       0.291
       0.353
       0.387
       0.407
       0.424
       0.447
       0.473
       0.488
       0.474
       0.432
       0.377
       0.317
       0.244
       0.156
       0.063
      -0.015
      -0.053
      -0.033
       0.047
       0.166
       0.286
       0.381
       0.446
       0.483
       0.497
       0.493
       0.478
       0.448
       0.397
       0.333
       0.272
       0.223
       0.179
       0.130
       0.073
      -0.003
      -0.109
      -0.253
      -0.427
      -0.622
      -0.822
      -0.992
      -1.084
      -1.060
      -0.908
      -0.644
      -0.306
       0.055
       0.385
       0.660
       0.878
       1.044
       1.154
       1.203
       1.187
       1.102
       0.946
       0.739
       0.515
       0.299
       0.095
      -0.101
      -0.287
      -0.454
      -0.592
      -0.684
      -0.721
      -0.709
      -0.671
      -0.624
      -0.568
      -0.498
      -0.408
      -0.296
      -0.165
      -0.037
       0.058
       0.106
       0.118
       0.117
       0.129
       0.176
       0.278
       0.430
       0.612
       0.804
       0.986
       1.127
       1.181
       1.117
       0.934
       0.655
       0.322
      -0.021
      -0.335
      -0.607
      -0.852
      -1.085
      -1.309
      -1.502
      -1.628
      -1.644
      -1.520
      -1.264
      -0.916
      -0.518
      -0.107
       0.280
       0.603
       0.838
       0.980
       1.038
       1.028
       0.974
       0.898
       0.809
       0.698
       0.560
       0.399
       0.225
       0.050
      -0.102
      -0.210
      -0.275
      -0.317
      -0.351
      -0.378
      -0.392
      -0.392
      -0.388
      -0.389
      -0.403
      -0.426
      -0.440
      -0.420
      -0.369
      -0.311
      -0.273
      -0.272
      -0.313
      -0.393
      -0.491
      -0.573
      -0.606
      -0.573
      -0.467
      -0.292
      -0.074
       0.144
       0.321
       0.435
       0.482
       0.477
       0.447
       0.428
       0.440
       0.492
       0.587
       0.725
       0.881
       1.009
       1.063
       1.018
       0.873
       0.644
       0.368
       0.086
      -0.177
      -0.412
      -0.607
      -0.738
      -0.775
      -0.699
      -0.515
      -0.250
       0.043
       0.309
       0.519
       0.676
       0.788
       0.852
       0.850
       0.763
       0.571
       0.275
      -0.088
      -0.461
      -0.796
      -1.076
      -1.295
      -1.440
      -1.488
      -1.415
      -1.208
      -0.875
      -0.463
      -0.036
       0.351
       0.670
       0.908
       1.054
       1.100
       1.047
       0.905
       0.693
       0.450
       0.217
       0.019
      -0.144
      -0.277
      -0.368
      -0.407
      -0.388
      -0.324
      -0.243
      -0.184
      -0.177
      -0.215
      -0.255
      -0.245
      -0.158
       0.001
       0.200
       0.390
       0.528
       0.603
       0.629
       0.622
       0.588
       0.543
       0.524
       0.562
       0.663
       0.794
       0.895
       0.894
       0.743
       0.441
       0.025
      -0.450
      -0.932
      -1.367
      -1.704
      -1.908
      -1.969
      -1.892
      -1.693
      -1.410
      -1.103
      -0.820
      -0.582
      -0.387
      -0.226
      -0.082
       0.067
       0.239
       0.445
       0.679
       0.918
       1.113
       1.216
       1.209
       1.116
       0.968
       0.785
       0.580
       0.369
       0.171
       0.006
      -0.106
      -0.161
      -0.182
      -0.210
      -0.274
      -0.366
      -0.457
      -0.516
      -0.523
      -0.474
      -0.387
      -0.278
      -0.152
       0.000
       0.170
       0.319
       0.396
       0.372
       0.252
       0.070
      -0.119
      -0.270
      -0.374
      -0.450
      -0.511
      -0.550
      -0.549
      -0.499
      -0.406
      -0.286
      -0.166
      -0.069
       0.002
       0.066
       0.136
       0.208
       0.265
       0.295
       0.292
       0.254
       0.181
       0.076
      -0.059
      -0.221
      -0.390
      -0.539
      -0.653
      -0.734
      -0.786
      -0.807
      -0.793
      -0.747
      -0.673
      -0.579
      -0.485
      -0.412
      -0.355
      -0.281
      -0.154
       0.035
       0.265
       0.500
       0.696
       0.816
       0.843
       0.784
       0.656
       0.478
       0.287
       0.127
       0.032
       0.010
       0.054
       0.138
       0.225
       0.276
       0.271
       0.215
       0.123
       0.008
      -0.121
      -0.254
      -0.390
      -0.532
      -0.672
      -0.789
      -0.869
      -0.909
      -0.905
      -0.841
      -0.704
      -0.489
      -0.206
       0.123
       0.460
       0.757
       0.981
       1.117
       1.162
       1.127
       1.040
       0.939
       0.844
       0.741
       0.607
       0.429
       0.204
      -0.057
      -0.328
      -0.573
      -0.759
      -0.872
      -0.903
      -0.855
      -0.739
      -0.582
      -0.404
      -0.227
      -0.075
       0.030
       0.083
       0.097
       0.086
       0.052
       0.000
      -0.053
      -0.088
      -0.097
      -0.082
      -0.048
      -0.005
       0.028
       0.039
       0.017
      -0.046
      -0.157
      -0.304
      -0.461
      -0.601
      -0.709
      -0.768
      -0.769
      -0.719
      -0.644
      -0.567
      -0.492
      -0.410
      -0.316
      -0.204
      -0.076
       0.054
       0.165
       0.243
       0.285
       0.282
       0.220
       0.092
      -0.090
      -0.299
      -0.498
      -0.642
      -0.690
      -0.634
      -0.489
      -0.284
      -0.044
       0.197
       0.393
       0.510
       0.545
       0.523
       0.483
       0.456
       0.459
       0.485
       0.510
       0.516
       0.497
       0.451
       0.372
       0.264
       0.141
       0.015
      -0.106
      -0.207
      -0.270
      -0.292
      -0.294
      -0.298
      -0.314
      -0.336
      -0.352
      -0.345
      -0.307
      -0.246
      -0.190
      -0.156
      -0.140
      -0.124
      -0.094
      -0.037
       0.052
       0.162
       0.268
       0.346
       0.385
       0.382
       0.336
       0.260
       0.173
       0.090
       0.014
      -0.058
      -0.124
      -0.183
      -0.236
      -0.284
      -0.318
      -0.335
      -0.332
      -0.297
      -0.205
      -0.043
       0.175
       0.423
       0.676
       0.916
       1.125
       1.286
       1.376
       1.366
       1.236
       0.989
       0.659
       0.292
      -0.067
      -0.374
      -0.588
      -0.690
      -0.685
      -0.589
      -0.423
      -0.220
      -0.035
       0.082
       0.110
       0.065
      -0.014
      -0.079
      -0.098
      -0.072
      -0.026
       0.020
       0.059
       0.085
       0.071
      -0.009
      -0.167
      -0.383
      -0.610
      -0.779
      -0.823
      -0.714
      -0.472
      -0.152
       0.181
       0.465
       0.645
       0.688
       0.592
       0.382
       0.096
      -0.209
      -0.478
      -0.674
      -0.786
      -0.813
      -0.751
      -0.611
      -0.423
      -0.222
      -0.037
       0.116
       0.229
       0.305
       0.360
       0.408
       0.456
       0.513
       0.591
       0.690
       0.786
       0.840
       0.805
       0.643
       0.343
      -0.048
      -0.436
      -0.719
      -0.836
      -0.768
      -0.532
      -0.175
       0.233
       0.616
       0.905
       1.044
       1.009
       0.826
       0.565
       0.307
       0.113
       0.012
       0.001
       0.047
       0.100
       0.120
       0.088
      -0.003
      -0.149
      -0.329
      -0.498
      -0.607
      -0.628
      -0.557
      -0.416
      -0.242
      -0.085
       0.024
       0.073
       0.064
       0.004
      -0.087
      -0.182
      -0.252
      -0.284
      -0.266
      -0.200
      -0.105
      -0.015
       0.042
       0.061
       0.046
       0.005
      -0.053
      -0.104
      -0.126
      -0.096
       0.002
       0.179
       0.416
       0.665
       0.873
       1.005
       1.042
       0.982
       0.842
       0.663
       0.487
       0.343
       0.250
       0.208
       0.197
       0.182
       0.133
       0.043
      -0.082
      -0.227
      -0.365
      -0.462
      -0.496
      -0.463
      -0.374
      -0.244
      -0.088
       0.070
       0.217
       0.348
       0.458
       0.540
       0.588
       0.598
       0.562
       0.465
       0.305
       0.104
      -0.103
      -0.283
      -0.410
      -0.471
      -0.480
      -0.469
      -0.467
      -0.482
      -0.516
      -0.567
      -0.627
      -0.671
      -0.676
      -0.621
      -0.491
      -0.279
      -0.007
       0.268
       0.476
       0.571
       0.538
       0.395
       0.180
      -0.059
      -0.287
      -0.485
      -0.641
      -0.737
      -0.761
      -0.726
      -0.657
      -0.582
      -0.526
