Origin Time       05/3/2012 07:41:05	
Lat.              28.7 N	
Long.             76.6 E	
Depth (Km)         14.0
Magnitude         4.9
 Region           Haryana-Delhi-Border-Region                                      
 Above details taken from IMD 
   
Station Code       JNU 
Station Lat.       28.542
Station Long.      77.165
Station Height(m)  213.0
Site Class        A   Vs30 between 700 m/sec to 1620 m/sec * 
Record Time        3/5/2012   7:41:20.000
Sampling Rate     200. Hz
 Record Duration   67.000 Sec.
 Direction         Vert. (Up positive)
Max. Acceleration  32.296 cm/sec**2
     
  * For reference see Site Classification link of website 
     
 Base Line Corrected and Low Pass Filtered (Cut Off at 35 Hz) Time History
 Acceleration data in cm/sec**2
    
    0.401
    0.934
    1.374
    1.908
    2.675
    3.561
    4.179
    4.065
    2.952
    0.987
   -1.211
   -2.744
   -2.886
   -1.574
    0.461
    2.100
    2.536
    1.738
    0.364
   -0.758
   -1.151
   -0.898
   -0.475
   -0.376
   -0.765
   -1.403
   -1.913
   -2.155
   -2.299
   -2.471
   -2.393
   -1.520
    0.310
    2.364
    3.288
    2.097
   -0.917
   -4.209
   -5.959
   -5.265
   -2.681
    0.238
    2.028
    2.223
    1.452
    0.745
    0.680
    1.095
    1.491
    1.624
    1.665
    1.844
    2.033
    1.763
    0.688
   -0.943
   -2.304
   -2.547
   -1.494
    0.155
    1.296
    1.251
    0.244
   -0.835
   -1.159
   -0.549
    0.508
    1.277
    1.216
    0.201
   -1.444
   -3.085
   -4.039
   -3.865
   -2.513
   -0.333
    2.006
    3.677
    4.003
    2.876
    0.989
   -0.436
   -0.416
    1.045
    2.860
    3.560
    2.249
   -0.867
   -4.640
   -7.569
   -8.446
   -6.861
   -3.415
    0.494
    3.329
    4.186
    3.165
    1.120
   -0.906
   -2.097
   -2.023
   -0.719
    1.252
    2.933
    3.408
    2.313
    0.106
   -2.109
   -3.116
   -2.223
    0.368
    3.648
    6.310
    7.379
    6.643
    4.641
    2.283
    0.351
   -0.794
   -1.179
   -1.032
   -0.662
   -0.404
   -0.523
   -1.041
   -1.630
   -1.777
   -1.166
    0.004
    1.078
    1.384
    0.714
   -0.541
   -1.704
   -2.242
   -1.990
   -1.059
    0.337
    1.919
    3.249
    3.782
    3.143
    1.432
   -0.734
   -2.535
   -3.366
   -3.087
   -2.030
   -0.800
    0.016
    0.132
   -0.338
   -1.064
   -1.768
   -2.294
   -2.466
   -2.059
   -1.056
    0.089
    0.619
    0.079
   -1.184
   -2.172
   -1.969
   -0.425
    1.752
    3.495
    4.036
    3.274
    1.709
    0.093
   -0.951
   -1.150
   -0.593
    0.381
    1.291
    1.644
    1.126
   -0.172
   -1.676
   -2.581
   -2.321
   -0.953
    0.858
    2.215
    2.465
    1.505
   -0.183
   -1.764
   -2.482
   -2.096
   -1.037
   -0.145
   -0.111
   -1.037
   -2.400
   -3.416
   -3.484
   -2.423
   -0.433
    2.044
    4.404
    5.959
    6.138
    4.798
    2.446
    0.086
   -1.316
   -1.427
   -0.693
    0.085
    0.371
    0.154
   -0.279
   -0.678
   -0.915
   -0.880
   -0.491
    0.136
    0.622
    0.574
   -0.050
   -0.823
   -1.157
   -0.777
    0.088
    0.940
    1.398
    1.401
    1.124
    0.777
    0.491
    0.314
    0.277
    0.414
    0.644
    0.671
    0.138
   -0.983
   -2.140
   -2.465
   -1.431
    0.631
    2.662
    3.556
    2.870
    1.018
   -1.077
   -2.567
   -3.078
   -2.732
   -1.895
   -0.929
   -0.132
    0.218
   -0.031
   -0.688
   -1.174
   -0.900
    0.208
    1.591
    2.503
    2.602
    2.105
    1.442
    0.867
    0.389
   -0.013
   -0.221
   -0.065
    0.459
    1.047
    1.222
    0.705
   -0.279
   -1.099
   -1.214
   -0.653
   -0.013
    0.048
   -0.625
   -1.566
   -2.168
   -2.259
   -2.175
   -2.256
   -2.345
   -1.853
   -0.379
    1.745
    3.578
    4.272
    3.664
    2.208
    0.466
   -1.239
   -2.697
   -3.546
   -3.299
   -1.765
    0.556
    2.545
    3.122
    1.975
   -0.226
   -2.296
   -3.253
   -2.774
   -1.202
    0.685
    1.989
    2.060
    0.877
   -0.835
   -1.961
   -1.675
    0.003
    2.216
    3.809
    4.005
    2.747
    0.564
   -1.785
   -3.590
   -4.319
   -3.733
   -2.036
    0.083
    1.702
    2.140
    1.336
   -0.115
   -1.302
   -1.517
   -0.695
    0.480
    0.985
    0.233
   -1.346
   -2.505
   -2.124
   -0.153
    2.279
    3.700
    3.371
    1.692
   -0.300
   -1.807
   -2.698
   -3.181
   -3.181
   -2.242
   -0.129
    2.549
    4.495
    4.654
    3.100
    1.010
   -0.282
   -0.335
    0.172
    0.197
   -0.630
   -1.676
   -1.950
   -1.082
    0.326
    1.299
    1.351
    0.770
    0.172
   -0.158
   -0.486
   -1.284
   -2.637
   -3.976
   -4.383
   -3.250
   -0.780
    2.033
    3.965
    4.246
    2.875
    0.454
   -2.120
   -3.847
   -3.876
   -1.972
    1.113
    3.897
    5.023
    4.041
    1.560
   -1.220
   -3.174
   -3.738
   -2.992
   -1.404
    0.539
    2.483
    4.069
    4.809
    4.295
    2.623
    0.575
   -0.786
   -0.852
    0.070
    1.000
    1.036
   -0.023
   -1.631
   -2.954
   -3.408
   -2.905
   -1.776
   -0.515
    0.462
    0.921
    0.778
    0.063
   -0.999
   -1.902
   -1.997
   -0.928
    1.009
    2.984
    4.199
    4.350
    3.620
    2.373
    0.925
   -0.459
   -1.483
   -1.874
   -1.614
   -1.148
   -1.220
   -2.249
   -3.745
   -4.426
   -3.176
   -0.110
    3.254
    4.983
    4.117
    1.368
   -1.405
   -2.502
   -1.480
    0.689
    2.419
    2.603
    1.245
   -0.740
   -2.283
   -2.800
   -2.321
   -1.237
   -0.091
    0.497
   -0.003
   -1.638
   -3.729
   -5.150
   -4.970
   -2.936
    0.481
    4.312
    7.353
    8.502
    7.243
    4.066
    0.399
   -2.161
   -2.848
   -2.153
   -1.312
   -1.312
   -2.242
   -3.424
   -4.079
   -3.929
   -3.254
   -2.434
   -1.513
   -0.253
    1.378
    2.891
    3.536
    2.895
    1.239
   -0.637
   -1.890
   -2.049
   -1.169
    0.249
    1.509
    2.034
    1.651
    0.682
   -0.204
   -0.373
    0.365
    1.576
    2.400
    2.072
    0.469
   -1.715
   -3.372
   -3.741
   -2.918
   -1.659
   -0.625
    0.157
    1.112
    2.437
    3.657
    3.887
    2.581
    0.129
   -2.187
   -2.958
   -1.651
    0.931
    3.255
    4.254
    4.011
    3.308
    2.667
    1.982
    1.051
    0.192
    0.132
    1.271
    3.173
    4.822
    5.361
    4.675
    3.383
    2.322
    1.946
    2.097
    2.314
    2.363
    2.444
    2.867
    3.594
    4.164
    4.114
    3.406
    2.424
    1.590
    1.052
    0.703
    0.409
    0.143
   -0.089
   -0.358
   -0.762
   -1.260
   -1.607
   -1.523
   -0.978
   -0.384
   -0.491
   -1.915
   -4.510
   -7.099
   -8.060
   -6.543
   -3.346
   -0.523
    0.133
   -1.536
   -4.026
   -5.466
   -4.999
   -3.138
   -1.052
    0.399
    1.059
    1.171
    0.859
   -0.042
   -1.665
   -3.717
   -5.536
   -6.590
   -6.878
   -6.764
   -6.442
   -5.722
   -4.423
   -2.904
   -2.044
   -2.574
   -4.403
   -6.556
   -7.796
   -7.366
   -5.333
   -2.449
    0.196
    1.506
    0.756
   -1.944
   -5.386
   -7.665
   -7.293
   -4.293
   -0.266
    2.802
    3.977
    3.750
    3.180
    2.811
    2.478
    1.951
    1.532
    1.914
    3.544
    6.128
    8.677
   10.042
    9.633
    7.871
    5.982
    5.140
    5.534
    6.175
    5.741
    3.749
    0.971
   -1.278
   -2.249
   -2.159
   -1.577
   -0.594
    1.256
    4.248
    7.751
   10.302
   10.465
    7.747
    2.942
   -2.301
   -6.383
   -8.611
   -9.475
  -10.098
  -11.248
  -12.630
  -13.023
  -11.185
   -6.798
   -0.772
    5.260
    9.796
   12.087
   12.170
   10.492
    7.607
    4.194
    1.190
   -0.372
    0.132
    2.434
    5.349
    7.344
    7.391
    5.565
    2.945
    0.830
   -0.150
   -0.363
   -0.705
   -1.823
   -3.678
   -5.630
   -6.812
   -6.545
   -4.699
   -1.846
    0.953
    2.668
    2.822
    1.653
   -0.158
   -1.926
   -3.229
   -3.982
   -4.399
   -4.885
   -5.749
   -6.831
   -7.388
   -6.536
   -4.005
   -0.509
    2.635
    4.340
    4.308
    3.010
    1.313
    0.103
   -0.053
    0.841
    2.257
    3.519
    4.170
    4.008
    3.003
    1.353
   -0.379
   -1.461
   -1.575
   -1.152
   -0.952
   -1.195
   -1.216
   -0.125
    2.213
    4.944
    6.898
    7.369
    6.285
    3.881
    0.491
   -3.347
   -6.801
   -9.016
   -9.596
   -8.839
   -7.475
   -6.107
   -4.838
   -3.307
   -1.083
    1.877
    4.985
    7.214
    7.707
    6.388
    4.075
    1.923
    0.616
    0.041
   -0.301
   -0.698
   -1.154
   -1.778
   -2.937
   -4.799
   -6.800
   -7.776
   -6.809
   -4.020
   -0.572
    2.146
    3.487
    3.894
    4.366
    5.556
    7.296
    8.886
    9.712
    9.580
    8.551
    6.648
    3.851
    0.432
   -2.729
   -4.338
   -3.536
   -0.870
    1.615
    1.639
   -1.556
   -6.491
  -10.503
  -11.597
   -9.577
   -5.785
   -2.039
    0.354
    0.991
    0.201
   -1.356
   -2.890
   -3.470
   -2.204
    1.163
    5.679
    9.456
   10.861
    9.751
    7.590
    6.251
    6.534
    7.630
    7.937
    6.423
    3.417
    0.271
   -1.673
   -1.973
   -1.261
   -0.696
   -1.085
   -2.292
   -3.402
   -3.583
   -2.900
   -2.337
   -2.998
   -5.213
   -8.301
  -11.123
  -12.881
  -13.494
  -13.315
  -12.590
  -11.260
   -9.373
   -7.600
   -7.051
   -8.240
  -10.197
  -10.858
   -8.647
   -3.854
    1.507
    5.265
    6.654
    6.647
    6.983
    8.913
   12.659
   17.747
   23.465
   28.830
   32.296
   32.060
   27.177
   18.616
    9.099
    1.579
   -2.542
   -4.049
   -4.987
   -6.959
   -9.975
  -12.597
  -13.175
  -11.190
   -7.745
   -4.871
   -4.183
   -5.886
   -8.865
  -11.629
  -13.228
  -13.426
  -12.294
   -9.854
   -6.188
   -1.811
    2.195
    4.533
    4.302
    1.456
   -3.121
   -7.860
  -10.980
  -11.219
   -8.611
   -4.696
   -1.678
   -0.896
   -1.804
   -2.429
   -1.016
    2.577
    6.896
   10.180
   11.675
   11.951
   12.132
   12.862
   13.867
   14.362
   13.842
   12.501
   10.915
    9.361
    7.511
    4.808
    1.151
   -2.766
   -5.724
   -6.715
   -5.741
   -4.130
   -3.864
   -6.152
  -10.339
  -14.248
  -15.820
  -14.613
  -11.879
   -9.315
   -7.741
   -6.787
   -5.550
   -3.398
   -0.296
    3.369
    7.114
   10.549
   13.419
   15.501
   16.419
   15.645
   12.863
    8.426
    3.443
   -0.711
   -3.086
   -3.598
   -2.995
   -2.416
   -2.693
   -3.766
   -4.692
   -4.384
   -2.551
   -0.067
    1.615
    1.603
    0.278
   -1.090
   -1.509
   -1.061
   -0.589
   -0.716
   -1.262
   -1.531
   -1.021
    0.168
    1.432
    2.104
    1.919
    1.177
    0.427
   -0.059
   -0.549
   -1.589
   -3.473
   -5.871
   -7.906
   -8.691
   -7.917
   -6.025
   -3.826
   -1.938
   -0.540
    0.457
    1.133
    1.495
    1.674
    2.082
    3.150
    4.797
    6.202
    6.329
    4.831
    2.494
    0.721
    0.465
    1.569
    3.022
    3.777
    3.394
    2.052
    0.134
   -2.060
   -4.210
   -5.783
   -6.163
   -5.074
   -2.876
   -0.418
    1.442
    2.274
    2.173
    1.528
    0.671
   -0.319
   -1.456
   -2.496
   -2.832
   -1.886
    0.340
    3.116
    5.312
    5.905
    4.416
    1.235
   -2.407
   -5.082
   -6.156
   -6.279
   -6.749
   -8.194
   -9.821
  -10.013
   -7.723
   -3.345
    1.645
    5.796
    8.549
   10.276
   11.591
   12.524
   12.330
   10.297
    6.765
    3.192
    0.963
    0.063
   -1.000
   -3.805
   -8.352
  -12.694
  -14.283
  -11.921
   -6.708
   -1.248
    2.161
    2.950
    2.281
    1.803
    2.282
    3.251
    3.836
    3.767
    3.496
    3.409
    3.170
    2.021
   -0.234
   -2.700
   -3.996
   -3.388
   -1.366
    0.782
    1.842
    1.256
   -0.836
   -3.800
   -6.669
   -8.332
   -7.959
   -5.535
   -2.063
    0.943
    2.398
    2.317
    1.660
    1.572
    2.648
    4.731
    7.272
    9.757
   11.768
   12.737
   11.851
    8.433
    2.639
   -4.133
   -9.630
  -11.905
  -10.518
   -6.858
   -3.205
   -1.238
   -1.141
   -1.880
   -2.237
   -1.694
   -0.589
    0.405
    0.946
    1.333
    2.192
    3.703
    5.062
    4.911
    2.652
   -0.582
   -2.488
   -1.420
    2.163
    6.034
    8.017
    7.499
    5.342
    2.578
   -0.536
   -4.197
   -8.074
  -10.959
  -11.505
   -9.313
   -5.355
   -1.420
    0.974
    1.496
    1.156
    1.472
    3.146
    5.367
    6.515
    5.620
    3.133
    0.316
   -1.941
   -3.605
   -4.907
   -5.565
   -4.851
   -2.477
    0.706
    3.029
    3.158
    1.117
   -1.681
   -3.407
   -3.041
   -0.991
    1.332
    2.640
    2.655
    2.016
    1.442
    1.097
    0.730
    0.231
   -0.187
   -0.343
   -0.394
   -0.652
   -1.241
   -2.020
   -2.705
   -2.891
   -2.137
   -0.384
    1.642
    2.679
    1.841
   -0.659
   -3.623
   -5.638
   -5.899
   -4.607
   -2.725
   -1.251
   -0.629
   -0.728
   -1.222
   -1.775
   -1.918
   -1.064
    1.028
    3.734
    5.728
    5.922
    4.370
    2.217
    0.792
    0.694
    1.609
    2.740
    3.374
    3.190
    2.276
    0.922
   -0.608
   -2.080
   -3.103
   -3.099
   -1.699
    0.697
    2.826
    3.302
    1.672
   -1.148
   -3.461
   -3.888
   -2.204
    0.602
    2.944
    3.490
    1.784
   -1.631
   -5.513
   -8.413
   -9.165
   -7.326
   -3.378
    1.463
    5.774
    8.456
    8.999
    7.514
    4.731
    1.943
    0.630
    1.652
    4.524
    7.471
    8.420
    6.283
    1.667
   -3.465
   -6.941
   -7.574
   -5.671
   -2.636
   -0.044
    1.122
    0.696
   -0.853
   -2.701
   -3.957
   -4.033
   -3.028
   -1.775
   -1.321
   -2.166
   -3.895
   -5.503
   -6.071
   -5.247
   -3.240
   -0.482
    2.587
    5.417
    7.237
    7.363
    5.819
    3.562
    1.850
    1.252
    1.300
    1.081
    0.114
   -1.298
   -2.406
   -2.588
   -1.669
    0.112
    2.284
    4.276
    5.482
    5.378
    3.734
    0.838
   -2.465
   -5.111
   -6.398
   -6.362
   -5.575
   -4.524
   -3.211
   -1.415
    0.686
    2.320
    2.644
    1.510
   -0.291
   -1.551
   -1.450
    0.035
    2.297
    4.496
    5.867
    5.889
    4.493
    2.181
   -0.158
   -1.747
   -2.289
   -1.949
   -1.135
   -0.387
   -0.266
   -1.053
   -2.459
   -3.755
   -4.264
   -3.777
   -2.525
   -0.862
    0.931
    2.620
    3.983
    4.885
    5.257
    4.924
    3.593
    1.255
   -1.382
   -3.087
   -2.973
   -1.242
    0.907
    2.143
    1.944
    0.839
   -0.210
   -0.688
   -0.831
   -1.158
   -1.794
   -2.253
   -1.864
   -0.423
    1.559
    3.230
    4.064
    4.250
    4.391
    4.713
    4.551
    2.804
   -0.867
   -5.224
   -7.916
   -7.061
   -2.770
    2.608
    5.863
    5.025
    0.676
   -4.516
   -7.688
   -7.644
   -5.286
   -2.479
   -0.516
    0.395
    0.474
   -0.361
   -2.292
   -4.797
   -6.493
   -6.120
   -3.753
   -0.839
    1.092
    1.707
    1.819
    2.227
    2.828
    2.858
    1.898
    0.544
   -0.008
    0.909
    2.690
    3.868
    3.287
    1.049
   -1.541
   -2.945
   -2.489
   -0.719
    1.226
    2.594
    3.394
    3.912
    4.048
    3.268
    1.258
   -1.478
   -3.750
   -4.486
   -3.596
   -2.065
   -1.039
   -0.677
   -0.043
    1.688
    3.985
    5.137
    3.785
    0.245
   -3.673
   -6.022
   -5.919
   -3.740
   -0.596
    2.233
    3.709
    3.450
    2.020
    0.648
    0.391
    1.437
    3.168
    4.759
    5.622
    5.462
    4.170
    1.853
   -1.032
   -3.649
   -5.069
   -4.759
   -2.957
   -0.646
    0.836
    0.417
   -2.118
   -5.886
   -9.258
  -10.702
   -9.594
   -6.448
   -2.445
    1.350
    4.506
    7.161
    9.533
   11.508
   12.707
   12.859
   12.003
   10.324
    7.869
    4.558
    0.505
   -3.752
   -7.413
   -9.789
  -10.562
   -9.897
   -8.429
   -7.007
   -6.222
   -6.039
   -5.886
   -5.190
   -3.884
   -2.421
   -1.329
   -0.732
   -0.266
    0.588
    2.103
    4.152
    6.327
    8.106
    8.972
    8.579
    6.981
    4.761
    2.787
    1.687
    1.420
    1.300
    0.442
   -1.634
   -4.624
   -7.523
   -9.136
   -8.740
   -6.529
   -3.475
   -0.689
    1.151
    1.873
    1.615
    0.786
    0.140
    0.532
    2.316
    4.902
    6.934
    7.065
    4.858
    1.129
   -2.602
   -5.137
   -6.191
   -6.095
   -5.112
   -3.221
   -0.600
    1.897
    3.161
    2.913
    2.188
    2.471
    4.268
    6.578
    7.766
    6.885
    4.237
    0.903
   -2.028
   -3.862
   -4.292
   -3.365
   -1.593
    0.044
    0.499
   -0.731
   -3.294
   -6.195
   -8.255
   -8.480
   -6.393
   -2.409
    2.054
    5.094
    5.336
    2.733
   -1.397
   -5.028
   -6.349
   -4.530
   -0.102
    5.223
    9.309
   10.630
    9.017
    5.654
    2.317
    0.332
   -0.085
    0.317
    0.579
    0.220
   -0.673
   -1.843
   -3.134
   -4.356
   -5.108
   -5.051
   -4.426
   -4.080
   -4.670
   -5.754
   -5.907
   -4.015
   -0.566
    2.511
    3.523
    2.577
    1.383
    1.548
    3.207
    5.265
    6.632
    6.943
    6.254
    4.553
    1.916
   -1.015
   -3.120
   -3.571
   -2.527
   -0.990
    0.010
    0.099
   -0.448
   -1.207
   -2.028
   -2.981
   -3.916
   -4.168
   -2.839
    0.429
    4.807
    8.466
    9.672
    8.008
    4.701
    1.675
    0.107
   -0.284
   -0.625
   -1.687
   -3.331
   -4.929
   -6.052
   -6.683
   -6.934
   -6.705
   -5.660
   -3.559
   -0.712
    1.911
    3.205
    2.839
    1.669
    1.103
    1.893
    3.539
    4.919
    5.433
    5.417
    5.470
    5.593
    5.110
    3.399
    0.657
   -2.049
   -3.485
   -3.147
   -1.617
   -0.082
    0.561
    0.282
   -0.233
   -0.281
    0.222
    0.694
    0.438
   -0.771
   -2.539
   -4.161
   -5.051
   -5.017
   -4.256
   -3.137
   -1.978
   -0.937
   -0.047
    0.642
    0.902
    0.298
   -1.495
   -4.150
   -6.516
   -7.205
   -5.539
   -1.987
    2.278
    6.169
    9.083
   10.678
   10.592
    8.593
    5.041
    1.018
   -2.117
   -3.441
   -2.850
   -0.962
    1.233
    2.652
    2.418
    0.283
   -3.038
   -6.060
   -7.261
   -5.962
   -2.772
    0.749
    3.017
    3.301
    2.006
    0.241
   -0.967
   -1.229
   -0.778
   -0.051
    0.671
    1.244
    1.402
    0.747
   -0.840
   -2.769
   -3.979
   -3.789
   -2.500
   -1.052
   -0.107
    0.422
    0.981
    1.732
    2.434
    2.819
    2.903
    2.913
    3.009
    3.104
    2.887
    2.005
    0.340
   -1.713
   -3.252
   -3.333
   -1.696
    0.798
    2.497
    2.009
   -0.746
   -4.299
   -6.522
   -6.084
   -3.381
   -0.145
    1.937
    2.320
    1.585
    0.683
    0.228
    0.280
    0.553
    0.734
    0.628
    0.205
   -0.355
   -0.665
   -0.371
    0.539
    1.720
    2.762
    3.393
    3.452
    2.874
    1.754
    0.365
   -0.928
   -1.729
   -1.771
   -1.200
   -0.684
   -0.996
   -2.291
   -3.786
   -4.336
   -3.488
   -2.012
   -1.297
   -2.008
   -3.267
   -3.222
   -0.619
    3.970
    8.356
   10.319
    9.263
    6.537
    4.141
    3.037
    2.581
    1.512
   -0.559
   -2.713
   -3.734
   -3.387
   -2.629
   -2.684
   -3.995
   -5.978
   -7.539
   -7.780
   -6.467
   -4.161
   -1.897
   -0.511
   -0.114
   -0.183
   -0.165
    0.038
    0.175
    0.163
    0.389
    1.442
    3.540
    6.238
    8.660
    9.979
    9.662
    7.465
    3.618
   -0.834
   -4.194
   -5.088
   -3.494
   -0.872
    0.791
    0.308
   -1.966
   -4.475
   -5.655
   -5.007
   -3.196
   -1.301
   -0.055
    0.396
    0.390
    0.562
    1.486
    3.108
    4.454
    4.198
    1.851
   -1.563
   -4.164
   -4.634
   -3.042
   -0.471
    1.891
    3.331
    3.609
    2.705
    0.701
   -2.098
   -4.928
   -6.575
   -5.882
   -2.595
    2.103
    6.036
    7.322
    5.515
    1.677
   -2.484
   -5.511
   -6.598
   -5.650
   -3.273
   -0.632
    1.006
    0.876
   -0.869
   -3.181
   -4.555
   -3.743
   -0.514
    3.988
    7.764
    9.219
    8.116
    5.351
    2.002
   -1.188
   -3.588
   -4.553
   -3.858
   -2.097
   -0.363
    0.507
    0.364
   -0.381
   -1.103
   -1.233
   -0.478
    1.009
    2.687
    3.917
    4.230
    3.388
    1.445
   -1.033
   -2.916
   -3.078
   -1.292
    1.483
    3.782
    4.687
    4.375
    3.785
    3.707
    4.063
    3.960
    2.499
   -0.374
   -3.721
   -6.245
   -7.118
   -6.356
   -4.572
   -2.463
   -0.478
    1.158
    2.299
    2.776
    2.368
    0.914
   -1.316
   -3.343
   -3.890
   -2.410
    0.210
    2.175
    2.234
    0.703
   -0.979
   -1.627
   -1.192
   -0.443
   -0.056
   -0.064
   -0.041
    0.360
    1.032
    1.494
    1.322
    0.568
   -0.218
   -0.376
    0.363
    1.717
