Origin Time       05/3/2012 07:41:05	
Lat.              28.7 N	
Long.             76.6 E	
Depth (Km)         14.0
Magnitude         4.9
 Region           Haryana-Delhi-Border-Region                                      
 Above details taken from IMD 
    
Station Code       JNU 
Station Lat.       28.542  N
Station Long.      77.165  E
Station Height(m)  213.0
Site Class        A   Vs30 between 700 m/sec to 1620 m/sec * 
Record Time        3/5/2012   7:41:20.000
Sampling Rate     200. Hz
 Record Duration   67.000 Sec.
 Direction         N-S (N positive)
Max. Acceleration  35.396 cm/sec**2
     
  * For reference see Site Classification link of website 
     
 Base Line Corrected and Low Pass Filtered (Cut Off at 35 Hz) Time History
 Acceleration data in cm/sec**2
    
    0.182
   -0.672
   -1.834
   -2.757
   -3.046
   -2.708
   -2.029
   -1.261
   -0.489
    0.232
    0.712
    0.685
    0.053
   -0.892
   -1.541
   -1.357
   -0.326
    0.963
    1.738
    1.658
    1.030
    0.447
    0.228
    0.193
   -0.046
   -0.593
   -1.075
   -0.950
   -0.066
    1.082
    1.712
    1.446
    0.653
    0.026
   -0.193
   -0.475
   -1.385
   -2.688
   -3.233
   -1.897
    1.233
    4.616
    6.265
    5.195
    2.106
   -1.209
   -3.174
   -3.395
   -2.611
   -1.808
   -1.316
   -0.667
    0.748
    2.867
    4.778
    5.374
    4.252
    2.077
    0.088
   -0.806
   -0.573
    0.154
    0.746
    1.052
    1.331
    1.808
    2.343
    2.486
    1.835
    0.399
   -1.336
   -2.670
   -3.104
   -2.586
   -1.481
   -0.340
    0.353
    0.347
   -0.316
   -1.359
   -2.382
   -2.959
   -2.750
   -1.671
   -0.024
    1.576
    2.485
    2.402
    1.570
    0.685
    0.516
    1.437
    3.109
    4.565
    4.750
    3.234
    0.580
   -2.012
   -3.584
   -4.054
   -4.003
   -3.846
   -3.298
   -1.800
    0.538
    2.626
    3.197
    1.965
   -0.044
   -1.340
   -1.189
   -0.106
    0.686
    0.292
   -1.193
   -2.854
   -3.736
   -3.547
   -2.741
   -2.010
   -1.694
   -1.606
   -1.321
   -0.584
    0.465
    1.358
    1.619
    1.124
    0.263
   -0.294
   -0.080
    0.789
    1.647
    1.748
    0.827
   -0.647
   -1.784
   -1.949
   -1.271
   -0.539
   -0.553
   -1.491
   -2.822
   -3.772
   -3.884
   -3.211
   -2.089
   -0.806
    0.531
    1.844
    2.903
    3.414
    3.315
    2.953
    2.821
    3.084
    3.425
    3.403
    2.924
    2.289
    1.808
    1.448
    0.894
   -0.089
   -1.403
   -2.663
   -3.480
   -3.720
   -3.575
   -3.355
   -3.145
   -2.646
   -1.417
    0.619
    2.887
    4.408
    4.454
    3.074
    1.059
   -0.645
   -1.551
   -1.751
   -1.550
   -1.038
   -0.042
    1.550
    3.462
    5.065
    5.796
    5.582
    4.879
    4.219
    3.687
    2.827
    1.132
   -1.330
   -3.748
   -5.114
   -4.983
   -3.760
   -2.263
   -1.077
   -0.334
   -0.032
   -0.368
   -1.554
   -3.282
   -4.551
   -4.248
   -2.069
    1.074
    3.631
    4.513
    3.783
    2.403
    1.304
    0.680
    0.087
   -0.878
   -2.088
   -3.012
   -3.256
   -2.905
   -2.361
   -1.900
   -1.412
   -0.556
    0.787
    2.199
    2.898
    2.328
    0.704
   -1.054
   -2.004
   -1.885
   -1.165
   -0.433
    0.148
    0.747
    1.381
    1.707
    1.377
    0.503
   -0.346
   -0.660
   -0.484
   -0.377
   -0.831
   -1.694
   -2.194
   -1.620
   -0.043
    1.617
    2.329
    1.813
    0.664
   -0.353
   -1.054
   -1.840
   -3.037
   -4.343
   -4.935
   -4.133
   -2.022
    0.478
    2.117
    2.061
    0.429
   -1.741
   -3.115
   -2.896
   -1.302
    0.677
    2.046
    2.440
    2.137
    1.570
    0.895
    0.012
   -1.096
   -2.107
   -2.456
   -1.752
   -0.158
    1.617
    2.779
    3.013
    2.702
    2.593
    3.147
    4.079
    4.509
    3.668
    1.596
   -0.795
   -2.400
   -2.761
   -2.348
   -2.011
   -2.129
   -2.309
   -1.918
   -0.877
    0.134
    0.285
   -0.595
   -1.756
   -2.051
   -0.786
    1.793
    4.712
    6.913
    7.769
    7.182
    5.445
    3.108
    0.829
   -0.878
   -1.877
   -2.389
   -2.749
   -3.169
   -3.681
   -4.174
   -4.422
   -4.127
   -3.056
   -1.231
    0.967
    2.883
    3.870
    3.649
    2.554
    1.426
    1.123
    1.904
    3.140
    3.695
    2.822
    0.892
   -0.775
   -1.012
    0.082
    1.124
    0.696
   -1.283
   -3.460
   -4.345
   -3.695
   -2.601
   -2.265
   -2.748
   -2.948
   -1.807
    0.525
    2.708
    3.395
    2.394
    0.754
   -0.204
   -0.019
    0.576
    0.358
   -1.268
   -3.690
   -5.538
   -5.781
   -4.489
   -2.648
   -1.217
   -0.328
    0.618
    2.078
    3.636
    4.218
    3.140
    0.975
   -0.660
   -0.326
    2.018
    4.865
    6.265
    5.284
    2.581
   -0.311
   -2.232
   -3.021
   -3.166
   -3.082
   -2.828
   -2.414
   -2.120
   -2.343
   -3.156
   -4.114
   -4.540
   -3.976
   -2.409
   -0.174
    2.251
    4.381
    5.781
    6.100
    5.204
    3.349
    1.192
   -0.507
   -1.343
   -1.495
   -1.486
   -1.675
   -1.968
   -1.999
   -1.516
   -0.579
    0.540
    1.543
    2.153
    2.069
    1.073
   -0.659
   -2.356
   -2.944
   -1.819
    0.553
    2.832
    3.739
    2.902
    0.927
   -1.238
   -2.977
   -4.171
   -4.849
   -4.798
   -3.590
   -1.083
    2.084
    4.593
    5.241
    3.827
    1.388
   -0.434
   -0.425
    1.406
    3.779
    4.991
    4.197
    2.114
    0.486
    0.653
    2.431
    4.231
    4.311
    2.084
   -1.517
   -4.838
   -6.673
   -6.853
   -5.938
   -4.531
   -2.963
   -1.490
   -0.477
   -0.161
   -0.269
   -0.110
    0.769
    2.041
    2.868
    2.764
    2.093
    1.598
    1.536
    1.417
    0.626
   -0.807
   -2.109
   -2.427
   -1.564
   -0.139
    0.903
    0.961
    0.133
   -0.922
   -1.454
   -1.090
   -0.017
    1.212
    2.091
    2.450
    2.392
    1.994
    1.146
   -0.296
   -2.185
   -3.974
   -4.993
   -4.913
   -3.969
   -2.739
   -1.684
   -0.921
   -0.391
   -0.138
   -0.297
   -0.822
   -1.331
   -1.311
   -0.487
    1.014
    2.796
    4.408
    5.468
    5.751
    5.316
    4.590
    4.186
    4.439
    5.023
    5.120
    4.106
    2.149
    0.179
   -0.773
   -0.322
    0.959
    1.879
    1.443
   -0.377
   -2.549
   -3.784
   -3.642
   -2.853
   -2.468
   -2.717
   -2.836
   -1.987
   -0.225
    1.487
    2.141
    1.508
    0.232
   -0.762
   -0.992
   -0.719
   -0.585
   -0.950
   -1.565
   -1.905
   -1.774
   -1.519
   -1.584
   -1.977
   -2.301
   -2.315
   -2.260
   -2.514
   -3.008
   -3.199
   -2.703
   -1.835
   -1.374
   -1.749
   -2.580
   -3.075
   -2.821
   -2.114
   -1.517
   -1.196
   -0.768
    0.209
    1.606
    2.602
    2.258
    0.337
   -2.361
   -4.516
   -5.263
   -4.721
   -3.629
   -2.509
   -1.258
    0.453
    2.453
    3.861
    3.686
    1.745
   -0.921
   -2.540
   -1.698
    1.741
    6.513
   10.731
   13.020
   13.193
   12.030
   10.489
    9.060
    7.692
    6.196
    4.657
    3.489
    3.082
    3.352
    3.606
    2.924
    0.865
   -2.039
   -4.483
   -5.212
   -3.862
   -1.185
    1.460
    2.945
    2.981
    2.129
    1.197
    0.520
   -0.281
   -1.809
   -4.154
   -6.648
   -8.377
   -8.925
   -8.646
   -8.242
   -8.120
   -8.105
   -7.699
   -6.572
   -4.864
   -3.098
   -1.780
   -0.984
   -0.308
    0.724
    2.175
    3.529
    3.988
    3.007
    0.721
   -2.010
   -3.990
   -4.362
   -3.127
   -1.038
    1.070
    2.948
    4.996
    7.615
   10.436
   12.177
   11.410
    7.659
    1.856
   -4.275
   -9.329
  -12.820
  -14.875
  -15.537
  -14.455
  -11.217
   -5.962
    0.259
    5.660
    8.438
    7.723
    4.156
   -0.457
   -4.337
   -6.828
   -8.440
   -9.807
  -10.620
   -9.641
   -5.862
    0.345
    7.282
   13.146
   17.161
   19.532
   20.436
   19.405
   15.895
   10.428
    4.939
    1.696
    1.668
    3.822
    5.951
    6.168
    3.847
   -0.482
   -5.762
  -10.751
  -13.960
  -13.845
   -9.671
   -2.496
    4.815
    9.013
    8.424
    3.902
   -1.961
   -6.676
   -9.243
  -10.069
   -9.788
   -8.356
   -5.397
   -1.324
    2.155
    2.975
    0.408
   -4.045
   -7.482
   -7.536
   -3.954
    1.341
    5.706
    7.617
    7.466
    6.742
    6.453
    6.327
    5.522
    3.965
    2.794
    3.419
    6.215
   10.151
   13.564
   15.151
   14.346
   11.148
    5.917
   -0.623
   -7.368
  -13.055
  -16.664
  -17.746
  -16.509
  -13.710
  -10.408
   -7.619
   -5.951
   -5.437
   -5.671
   -6.092
   -6.121
   -5.103
   -2.428
    1.996
    7.248
   11.514
   13.028
   11.216
    7.064
    2.352
   -1.527
   -4.141
   -5.676
   -6.313
   -6.037
   -4.979
   -3.744
   -3.196
   -3.733
   -4.724
   -4.770
   -2.694
    1.526
    6.687
   11.137
   13.652
   13.765
   11.617
    7.731
    2.915
   -1.793
   -5.279
   -6.617
   -5.393
   -2.011
    2.220
    5.450
    6.037
    3.282
   -2.211
   -8.734
  -14.225
  -17.249
  -17.652
  -16.359
  -14.442
  -12.271
   -9.485
   -5.749
   -1.468
    2.320
    4.825
    6.353
    8.226
   11.688
   16.684
   21.542
   23.914
   22.278
   16.934
    9.877
    3.734
    0.505
    0.787
    3.716
    7.441
    9.854
    9.388
    5.687
   -0.164
   -6.085
   -9.971
  -10.677
   -8.459
   -4.680
   -0.984
    1.540
    2.662
    2.671
    1.759
   -0.287
   -3.759
   -8.414
  -13.226
  -16.822
  -18.200
  -17.144
  -14.167
  -10.240
   -6.502
   -3.930
   -3.058
   -3.910
   -6.183
   -9.423
  -12.923
  -15.451
  -15.269
  -10.816
   -1.785
   10.228
   22.199
   31.112
   35.396
   35.347
   32.417
   28.070
   23.078
   17.567
   11.545
    5.400
    0.015
   -3.602
   -4.989
   -4.730
   -4.268
   -4.966
   -7.074
   -9.574
  -11.127
  -11.309
  -11.009
  -11.647
  -13.911
  -17.033
  -19.137
  -18.387
  -14.174
   -7.617
   -1.073
    3.141
    4.081
    2.670
    0.936
    0.437
    1.089
    1.360
   -0.249
   -3.699
   -7.169
   -8.350
   -6.225
   -1.896
    2.215
    4.070
    3.237
    0.786
   -1.778
   -3.506
   -4.254
   -4.320
   -3.977
   -3.185
   -1.622
    1.021
    4.640
    8.509
   11.558
   13.059
   13.199
   12.927
   13.041
   13.275
   12.372
    9.224
    4.120
   -1.104
   -4.230
   -4.239
   -2.005
    0.406
    1.223
    0.082
   -2.013
   -3.690
   -4.199
   -3.622
   -2.348
   -0.593
    1.553
    3.765
    5.390
    5.796
    4.868
    3.181
    1.736
    1.371
    2.159
    3.250
    3.441
    2.122
   -0.205
   -2.309
   -3.120
   -2.401
   -0.806
    0.531
    0.608
   -0.927
   -3.523
   -5.957
   -7.107
   -6.813
   -6.119
   -6.499
   -8.501
  -10.905
  -11.310
   -7.957
   -1.378
    5.663
   10.123
   10.957
    9.662
    8.607
    8.797
    9.157
    7.873
    4.361
   -0.054
   -3.269
   -4.100
   -2.906
   -0.844
    1.212
    2.989
    4.404
    5.201
    5.119
    4.220
    2.829
    1.048
   -1.474
   -4.948
   -8.533
  -10.293
   -8.594
   -3.944
    0.627
    1.520
   -2.483
   -8.946
  -13.578
  -13.645
   -9.948
   -5.674
   -3.422
   -3.333
   -3.809
   -3.578
   -2.841
   -2.561
   -2.973
   -2.997
   -1.190
    2.786
    7.665
   11.500
   13.022
   12.187
    9.714
    6.433
    3.102
    0.597
   -0.179
    1.155
    4.030
    7.228
    9.612
   10.570
    9.896
    7.581
    3.923
   -0.291
   -4.105
   -7.055
   -9.367
  -11.357
  -12.767
  -12.798
  -10.822
   -7.093
   -2.875
    0.132
    0.817
   -0.510
   -2.287
   -3.002
   -2.534
   -2.100
   -2.792
   -4.281
   -5.066
   -3.978
   -1.378
    1.079
    1.865
    0.911
   -0.233
    0.433
    3.735
    8.560
   12.602
   14.038
   12.795
   10.439
    8.901
    9.162
   10.822
   12.574
   13.011
   11.298
    7.512
    2.662
   -1.720
   -4.411
   -5.238
   -5.062
   -4.983
   -5.457
   -6.075
   -6.108
   -5.299
   -4.268
   -4.274
   -6.435
  -10.855
  -16.264
  -20.516
  -21.701
  -19.237
  -14.181
   -8.516
   -3.927
   -0.936
    1.114
    3.292
    6.045
    8.675
    9.846
    8.768
    6.070
    3.559
    3.011
    4.960
    8.360
   11.327
   12.359
   11.063
    7.907
    3.507
   -1.613
   -6.519
   -9.466
   -8.643
   -3.785
    2.975
    8.147
    9.151
    5.967
    0.933
   -2.980
   -4.041
   -2.526
   -0.125
    1.361
    1.074
   -0.711
   -3.173
   -5.604
   -7.525
   -8.353
   -7.294
   -3.872
    1.264
    6.182
    8.671
    7.796
    4.575
    1.062
   -1.296
   -2.366
   -2.616
   -2.130
   -0.624
    1.759
    4.073
    5.134
    4.340
    1.976
   -1.074
   -3.787
   -5.344
   -5.371
   -4.063
   -2.094
   -0.311
    0.635
    0.603
    0.041
   -0.292
    0.096
    0.972
    1.504
    1.008
   -0.328
   -1.549
   -1.867
   -1.504
   -1.490
   -2.497
   -3.977
   -4.628
   -3.692
   -1.626
    0.580
    2.505
    4.537
    7.064
    9.527
   10.323
    7.842
    1.958
   -5.269
  -10.533
  -11.390
   -7.971
   -2.864
    0.768
    1.327
   -0.422
   -2.320
   -2.645
   -1.363
    0.154
    0.597
    0.020
   -0.282
    0.851
    3.173
    5.124
    5.191
    3.254
    0.693
   -0.804
   -0.606
    0.566
    1.568
    1.915
    1.905
    1.899
    1.776
    1.259
    0.556
    0.319
    0.831
    1.344
    0.504
   -2.351
   -6.269
   -9.215
   -9.657
   -7.650
   -4.448
   -1.224
    1.612
    3.920
    5.076
    4.186
    1.207
   -2.349
   -4.202
   -3.099
    0.047
    2.898
    3.674
    2.519
    1.031
    0.593
    1.210
    1.924
    2.079
    1.929
    2.015
    2.241
    1.874
    0.532
   -1.024
   -1.369
    0.165
    2.616
    4.199
    4.088
    3.258
    3.404
    5.034
    6.796
    6.811
    4.579
    1.478
   -0.571
   -0.835
   -0.304
   -0.687
   -2.907
   -6.393
   -9.571
  -10.988
  -10.125
   -7.440
   -3.941
   -0.789
    0.995
    0.933
   -0.449
   -1.681
   -1.273
    1.048
    3.984
    5.638
    4.973
    2.530
   -0.043
   -1.123
   -0.067
    2.514
    5.228
    6.768
    6.657
    5.383
    3.856
    2.552
    1.082
   -1.318
   -4.735
   -7.937
   -8.946
   -6.559
   -1.605
    3.254
    5.156
    2.929
   -2.093
   -6.942
   -8.947
   -7.290
   -3.084
    1.803
    5.920
    8.488
    9.039
    7.330
    3.736
   -0.552
   -4.085
   -6.094
   -6.833
   -7.002
   -6.898
   -6.190
   -4.494
   -2.043
    0.260
    1.454
    1.285
    0.534
    0.627
    2.595
    5.975
    8.592
    7.874
    3.004
   -3.911
   -8.995
   -9.397
   -5.424
   -0.146
    3.112
    3.141
    1.158
   -0.850
   -1.947
   -2.586
   -3.426
   -4.152
   -3.675
   -1.457
    1.586
    3.753
    4.195
    3.833
    4.498
    7.001
   10.101
   11.482
    9.790
    5.768
    1.534
   -1.197
   -2.244
   -2.597
   -3.175
   -3.906
   -3.817
   -2.066
    0.857
    2.883
    1.606
   -3.645
  -10.557
  -14.809
  -12.945
   -5.111
    4.650
   11.031
   11.021
    5.608
   -1.524
   -6.854
   -8.928
   -8.126
   -5.375
   -1.579
    1.967
    3.433
    1.475
   -3.383
   -8.576
  -11.020
   -9.183
   -4.058
    1.630
    5.286
    5.960
    4.558
    2.768
    1.584
    0.618
   -1.165
   -3.917
   -6.123
   -5.586
   -1.440
    4.742
    9.895
   11.690
   10.119
    7.187
    5.184
    5.075
    6.188
    7.086
    6.630
    4.465
    1.053
   -2.467
   -4.690
   -4.743
   -2.998
   -0.980
   -0.370
   -1.944
   -5.247
   -9.088
  -12.232
  -13.730
  -13.018
  -10.196
   -6.319
   -3.041
   -1.477
   -1.188
   -0.433
    2.299
    6.795
   11.107
   13.176
   12.690
   11.400
   11.527
   13.698
   16.375
   17.184
   14.715
    9.262
    2.274
   -4.647
  -10.374
  -14.366
  -16.517
  -16.941
  -15.744
  -12.957
   -8.812
   -4.182
   -0.609
    0.482
   -1.032
   -3.577
   -4.887
   -3.644
   -0.271
    3.774
    7.376
   10.469
   13.379
   15.664
   15.896
   12.916
    7.430
    2.141
   -0.095
    1.440
    4.704
    6.514
    4.963
    0.623
   -4.262
   -7.638
   -8.964
   -9.129
   -9.321
   -9.924
  -10.302
   -9.497
   -7.177
   -4.110
   -1.748
   -1.167
   -2.127
   -3.082
   -2.248
    0.998
    5.492
    8.968
    9.574
    7.010
    2.511
   -2.080
   -5.278
   -6.381
   -5.461
   -3.306
   -1.229
   -0.427
   -1.183
   -2.688
   -3.758
   -3.735
   -2.775
   -1.471
   -0.373
    0.182
   -0.015
   -1.090
   -2.874
   -4.600
   -4.997
   -3.078
    0.886
    5.169
    7.603
    7.089
    4.376
    1.460
    0.146
    0.907
    2.798
    4.334
    4.568
    3.551
    1.987
    0.617
   -0.129
   -0.140
    0.432
    1.265
    2.094
    2.901
    3.713
    4.126
    3.304
    0.785
   -2.627
   -5.058
   -4.986
   -2.612
    0.168
    1.156
   -0.610
   -4.308
   -7.920
   -9.421
   -7.906
   -4.095
    0.185
    3.295
    4.910
    6.017
    7.770
   10.185
   11.857
   11.058
    7.312
    2.008
   -2.550
   -4.861
   -5.203
   -5.011
   -5.346
   -5.987
   -5.991
   -4.971
   -3.608
   -2.940
   -3.370
   -4.411
   -5.115
   -4.599
   -2.471
    0.806
    3.857
    5.051
    3.698
    0.870
   -1.104
   -0.361
    2.804
    5.822
    5.799
    2.101
   -2.808
   -5.303
   -3.721
    0.130
    2.509
    1.004
   -3.362
   -7.009
   -6.884
   -3.075
    1.344
    3.070
    1.481
   -0.876
   -0.629
    3.306
    8.689
   11.951
   11.275
    7.912
    4.714
    3.520
    3.885
    3.977
    2.429
   -0.590
   -3.726
   -5.623
   -5.875
   -5.144
   -4.473
   -4.408
   -4.641
   -4.449
   -3.477
   -2.083
   -0.972
   -0.566
   -0.788
   -1.403
   -2.351
   -3.570
   -4.541
   -4.272
   -2.052
    1.635
    5.051
    6.307
    4.769
    1.593
   -1.127
   -1.936
   -1.015
    0.251
    0.682
    0.327
    0.116
    0.621
    1.305
    1.170
    0.146
   -0.342
    1.522
    6.039
   11.176
   13.781
   11.872
    6.124
   -0.591
   -5.102
   -5.854
   -3.630
   -0.660
    1.133
    1.247
    0.192
   -1.706
   -4.766
   -9.140
  -13.711
  -16.167
  -14.476
   -8.491
   -0.231
    7.328
   11.885
   12.670
   10.193
    5.592
    0.252
   -4.265
   -6.428
   -5.369
   -1.627
    2.713
    5.036
    3.881
   -0.023
   -4.352
   -6.891
   -6.841
   -4.796
   -1.843
    1.120
    3.470
    4.784
    4.914
    4.057
    2.633
    1.128
    0.096
    0.095
    1.267
    2.911
    3.764
    2.999
    0.993
   -0.930
   -1.513
   -0.478
    1.235
    2.065
    0.975
   -1.589
   -3.841
   -4.038
   -1.930
    1.096
    3.242
    3.607
    2.519
    0.903
   -0.498
   -1.367
   -1.553
   -0.902
    0.502
    2.046
    2.818
    2.366
    1.223
    0.527
    1.015
    2.412
    3.722
    4.023
    3.083
    1.351
   -0.518
   -2.117
   -3.422
   -4.631
   -5.828
   -6.663
   -6.372
   -4.334
   -0.901
    2.301
    3.233
    1.008
   -3.211
   -6.939
   -8.178
   -6.669
   -3.621
   -0.466
    2.124
    4.316
    6.545
    8.776
   10.132
    9.225
    5.170
   -1.341
   -7.908
  -11.721
  -11.472
   -8.296
   -4.792
   -2.910
   -2.550
   -2.138
   -0.479
    1.999
    3.826
    4.183
    3.848
    4.299
    5.865
    7.025
    5.750
    1.583
   -3.645
   -7.117
   -7.010
   -3.447
    1.954
    7.056
   10.003
    9.802
    6.765
    2.457
   -1.135
   -2.762
   -2.517
   -1.504
   -1.011
   -1.709
   -3.299
   -4.882
   -5.850
   -6.434
   -7.198
   -7.983
   -7.599
   -4.837
    0.219
    5.948
   10.219
   11.734
   10.684
    8.441
    6.633
    6.130
    6.566
    6.660
    5.129
    1.635
   -2.844
   -6.572
   -8.245
   -7.836
   -6.340
   -4.742
   -3.272
   -1.592
    0.476
    2.500
    3.681
    3.531
    2.346
    1.034
    0.354
    0.156
   -0.564
   -2.680
   -5.858
   -8.511
   -8.909
   -6.417
   -1.934
    2.602
    5.204
    4.852
    2.039
   -1.529
   -4.001
   -4.463
   -3.123
   -0.623
    2.498
    5.473
    6.849
    5.105
    0.195
   -5.680
   -9.244
   -8.490
   -4.208
    0.594
    2.934
    1.953
   -0.810
   -3.058
   -3.633
   -2.961
   -1.940
   -0.767
    1.054
    3.758
    6.634
    8.377
    8.186
    6.536
    4.801
    4.073
    4.307
    4.529
    3.713
    1.503
   -1.665
   -4.895
   -7.363
   -8.723
   -9.076
   -8.552
   -7.139
   -5.065
   -3.095
   -2.097
   -2.136
   -2.153
   -0.830
    2.120
    5.611
    8.106
    8.792
    7.969
    6.490
    4.939
    3.352
    1.613
   -0.035
   -0.936
   -0.499
    1.225
    3.361
    4.587
    3.834
    0.968
   -2.951
   -6.129
   -7.039
   -5.334
   -1.988
    1.470
    4.098
    6.025
    7.765
    9.042
    8.568
    5.270
   -0.340
   -6.243
  -10.387
  -11.970
  -11.444
   -9.737
   -7.707
   -6.014
   -4.970
   -4.275
