Origin Time       05/3/2012 07:41:05	
Lat.              28.7 N	
Long.             76.6 E	
Depth (Km)         14.0
Magnitude         4.9
 Region           Haryana-Delhi-Border-Region                                      
 Above details taken from IMD 
     
Station Code       JNU 
Station Lat.       28.542  N
Station Long.      77.165  E
Station Height(m)  213.0
Site Class        A   Vs30 between 700 m/sec to 1620 m/sec * 
Record Time        3/5/2012   7:41:20.000
Sampling Rate     200. Hz
 Record Duration   67.000 Sec.
 Direction         E-W (E positive)
Max. Acceleration -28.389 cm/sec**2
     
  * For reference see Site Classification link of website 
     
 Base Line Corrected and Low Pass Filtered (Cut Off at 35 Hz) Time History
 Acceleration data in cm/sec**2
    
   -0.536
   -0.101
    0.111
   -0.287
   -1.399
   -2.827
   -3.852
   -3.942
   -3.152
   -2.045
   -1.222
   -0.901
   -0.862
   -0.733
   -0.304
    0.302
    0.690
    0.486
   -0.310
   -1.221
   -1.583
   -1.035
    0.184
    1.375
    1.842
    1.335
    0.179
   -0.996
   -1.714
   -1.917
   -1.788
   -1.337
   -0.251
    1.716
    4.156
    5.926
    5.876
    3.859
    1.067
   -0.757
   -0.663
    0.771
    1.962
    1.662
   -0.075
   -2.072
   -3.116
   -2.949
   -2.283
   -1.945
   -2.004
   -1.734
   -0.434
    1.704
    3.561
    3.996
    2.879
    1.283
    0.610
    1.427
    3.011
    3.988
    3.470
    1.720
   -0.144
   -1.070
   -0.805
    0.072
    0.689
    0.527
   -0.293
   -1.206
   -1.664
   -1.482
   -0.905
   -0.406
   -0.363
   -0.812
   -1.414
   -1.685
   -1.302
   -0.270
    1.157
    2.612
    3.650
    3.781
    2.710
    0.677
   -1.485
   -2.786
   -2.702
   -1.459
    0.181
    1.376
    1.590
    0.819
   -0.426
   -1.395
   -1.598
   -1.180
   -0.758
   -0.779
   -1.033
   -0.898
   -0.110
    0.791
    0.936
    0.037
   -1.247
   -1.895
   -1.427
   -0.293
    0.566
    0.537
   -0.184
   -0.825
   -0.751
   -0.028
    0.630
    0.492
   -0.548
   -1.892
   -2.788
   -3.029
   -3.113
   -3.676
   -4.750
   -5.581
   -5.246
   -3.474
   -0.927
    1.296
    2.409
    2.326
    1.529
    0.674
    0.269
    0.541
    1.352
    2.180
    2.307
    1.315
   -0.447
   -1.939
   -2.187
   -1.122
    0.331
    1.060
    0.713
   -0.141
   -0.690
   -0.638
   -0.282
    0.017
    0.270
    0.751
    1.573
    2.493
    3.099
    3.132
    2.646
    2.003
    1.698
    2.040
    2.840
    3.409
    2.977
    1.255
   -1.332
   -3.875
   -5.474
   -5.629
   -4.379
   -2.210
    0.153
    2.030
    3.067
    3.310
    3.039
    2.510
    1.865
    1.218
    0.734
    0.561
    0.693
    0.959
    1.197
    1.419
    1.761
    2.264
    2.730
    2.811
    2.245
    1.019
   -0.630
   -2.267
   -3.330
   -3.358
   -2.346
   -0.909
    0.077
    0.157
   -0.397
   -0.977
   -1.286
   -1.510
   -1.883
   -2.248
   -2.164
   -1.405
   -0.237
    0.844
    1.601
    2.209
    2.923
    3.656
    3.931
    3.248
    1.469
   -1.049
   -3.599
   -5.368
   -5.745
   -4.612
   -2.473
   -0.207
    1.388
    1.939
    1.490
    0.313
   -1.193
   -2.477
   -2.951
   -2.329
   -0.904
    0.603
    1.566
    1.871
    1.859
    1.905
    2.090
    2.164
    1.744
    0.599
   -1.110
   -2.822
   -3.876
   -3.931
   -3.166
   -2.090
   -1.155
   -0.499
    0.003
    0.529
    1.154
    1.843
    2.486
    2.861
    2.614
    1.426
   -0.634
   -2.902
   -4.373
   -4.369
   -3.117
   -1.694
   -1.269
   -2.208
   -3.774
   -4.694
   -4.169
   -2.472
   -0.632
    0.474
    0.826
    1.142
    2.103
    3.656
    4.976
    5.096
    3.649
    1.179
   -1.183
   -2.414
   -2.164
   -0.838
    0.832
    2.358
    3.708
    4.920
    5.568
    4.771
    1.956
   -2.270
   -6.128
   -7.772
   -6.610
   -3.683
   -0.808
    0.739
    0.952
    0.789
    1.187
    2.244
    3.224
    3.339
    2.535
    1.552
    1.252
    1.904
    3.045
    3.898
    3.854
    2.719
    0.735
   -1.498
   -3.215
   -3.833
   -3.244
   -1.872
   -0.427
    0.453
    0.484
   -0.184
   -1.080
   -1.640
   -1.483
   -0.633
    0.453
    1.152
    1.103
    0.466
   -0.201
   -0.351
    0.189
    1.152
    2.023
    2.347
    2.054
    1.609
    1.756
    2.826
    4.161
    4.398
    2.580
   -0.831
   -4.115
   -5.616
   -5.078
   -3.735
   -3.016
   -3.099
   -2.733
   -0.613
    2.973
    5.901
    5.836
    2.276
   -2.880
   -6.740
   -7.479
   -5.362
   -2.159
    0.266
    1.088
    0.733
    0.232
    0.289
    0.773
    0.976
    0.351
   -0.993
   -2.448
   -3.432
   -3.714
   -3.308
   -2.214
   -0.358
    2.179
    4.853
    6.668
    6.698
    4.787
    1.853
   -0.575
   -1.337
   -0.370
    1.409
    2.862
    3.322
    2.767
    1.597
    0.329
   -0.669
   -1.365
   -2.017
   -2.863
   -3.803
   -4.422
   -4.291
   -3.280
   -1.646
    0.125
    1.610
    2.693
    3.546
    4.300
    4.710
    4.236
    2.501
   -0.270
   -3.228
   -5.272
   -5.586
   -4.013
   -1.122
    2.030
    4.291
    4.802
    3.275
    0.176
   -3.301
   -5.652
   -5.831
   -3.961
   -1.342
    0.445
    0.697
    0.021
   -0.361
    0.181
    1.089
    1.157
   -0.260
   -2.507
   -4.048
   -3.675
   -1.421
    1.563
    3.955
    5.170
    5.530
    5.700
    5.966
    5.971
    5.062
    2.949
    0.114
   -2.366
   -3.466
   -2.867
   -1.180
    0.432
    1.029
    0.471
   -0.682
   -1.774
   -2.517
   -2.915
   -2.916
   -2.331
   -1.153
    0.149
    0.817
    0.402
   -0.775
   -1.818
   -1.967
   -1.189
   -0.139
    0.432
    0.233
   -0.469
   -1.150
   -1.343
   -0.761
    0.620
    2.417
    3.852
    4.165
    3.189
    1.488
   -0.121
   -1.140
   -1.556
   -1.614
   -1.584
   -1.668
   -1.946
   -2.310
   -2.500
   -2.321
   -1.859
   -1.445
   -1.331
   -1.374
   -1.119
   -0.300
    0.770
    1.391
    1.091
    0.022
   -1.209
   -1.984
   -2.001
   -1.356
   -0.471
    0.166
    0.371
    0.439
    0.856
    1.761
    2.667
    2.821
    1.909
    0.428
   -0.703
   -0.960
   -0.691
   -0.768
   -1.709
   -3.139
   -4.069
   -3.688
   -1.975
    0.295
    2.093
    2.821
    2.635
    2.138
    1.719
    1.203
    0.193
   -1.270
   -2.431
   -2.310
   -0.581
    1.923
    3.627
    3.308
    1.050
   -1.726
   -3.221
   -2.498
   -0.028
    2.821
    4.856
    5.781
    6.085
    6.367
    6.811
    7.164
    7.075
    6.369
    5.059
    3.225
    1.003
   -1.290
   -3.122
   -3.986
   -3.761
   -2.787
   -1.543
   -0.285
    0.930
    1.954
    2.440
    2.164
    1.453
    1.160
    2.038
    3.977
    5.862
    6.385
    5.176
    3.150
    1.626
    1.040
    0.549
   -1.049
   -3.958
   -6.930
   -8.184
   -6.872
   -3.787
   -0.726
    0.862
    0.787
   -0.088
   -0.787
   -0.961
   -0.818
   -0.545
   -0.016
    0.894
    1.865
    2.221
    1.527
   -0.030
   -1.850
   -3.431
   -4.578
   -5.232
   -5.321
   -4.860
   -4.132
   -3.595
   -3.495
   -3.525
   -2.975
   -1.426
    0.632
    1.975
    1.665
   -0.004
   -1.632
   -1.977
   -1.185
   -0.676
   -1.692
   -3.959
   -5.825
   -5.727
   -3.546
   -0.714
    0.872
    0.175
   -2.310
   -4.913
   -5.896
   -4.560
   -1.544
    1.866
    4.804
    7.299
    9.791
   12.174
   13.413
   12.239
    8.354
    2.970
   -1.878
   -4.635
   -5.008
   -3.748
   -1.919
   -0.297
    0.835
    1.570
    2.048
    2.148
    1.534
    0.156
   -1.225
   -1.277
    0.839
    4.445
    7.413
    7.477
    3.847
   -2.124
   -7.743
  -10.635
  -10.085
   -7.169
   -3.749
   -1.253
   -0.123
   -0.069
   -0.581
   -1.233
   -1.711
   -1.744
   -1.058
    0.528
    2.789
    4.845
    5.493
    4.167
    1.701
   -0.062
    0.265
    2.391
    4.577
    5.124
    3.716
    1.491
   -0.071
   -0.331
    0.248
    0.834
    1.060
    1.110
    1.144
    0.800
   -0.514
   -2.780
   -4.957
   -5.677
   -4.497
   -2.427
   -1.109
   -1.390
   -2.739
   -4.056
   -4.886
   -5.719
   -7.118
   -8.704
   -9.134
   -7.180
   -2.947
    1.820
    4.689
    4.166
    0.830
   -3.008
   -4.925
   -3.982
   -1.042
    2.225
    4.512
    5.200
    3.969
    0.614
   -4.437
   -9.523
  -12.138
  -10.518
   -5.126
    1.480
    6.499
    8.844
    9.504
   10.143
   11.387
   12.366
   11.720
    8.946
    4.896
    1.148
   -1.011
   -1.203
    0.073
    1.877
    3.293
    3.716
    2.963
    1.292
   -0.627
   -1.883
   -1.725
   -0.090
    2.219
    4.097
    5.084
    5.719
    6.832
    8.444
    9.433
    8.349
    4.589
   -1.076
   -6.894
  -11.034
  -12.434
  -11.233
   -8.668
   -6.492
   -6.122
   -7.900
  -10.820
  -12.951
  -12.428
   -8.523
   -2.137
    4.618
    9.524
   11.424
   10.827
    9.544
    9.368
   10.558
   11.474
    9.977
    5.491
   -0.258
   -4.592
   -5.985
   -4.923
   -2.984
   -1.380
   -0.383
    0.148
    0.074
   -0.987
   -2.964
   -4.961
   -5.920
   -5.767
   -5.726
   -7.231
  -10.429
  -13.782
  -15.214
  -13.690
   -9.831
   -5.220
   -1.213
    1.708
    3.716
    4.998
    5.360
    4.431
    2.215
   -0.568
   -2.718
   -3.217
   -1.838
    0.725
    3.313
    5.024
    5.693
    5.877
    6.466
    8.166
   11.086
   14.600
   17.667
   19.441
   19.682
   18.563
   16.116
   12.013
    5.976
   -1.633
   -9.725
  -17.010
  -22.595
  -26.156
  -27.684
  -27.212
  -24.841
  -20.977
  -16.437
  -12.139
   -8.568
   -5.549
   -2.549
    0.880
    4.997
    9.971
   15.705
   21.429
   25.622
   26.692
   24.046
   18.677
   12.703
    8.118
    5.756
    5.195
    5.524
    6.076
    6.528
    6.517
    5.492
    3.074
   -0.510
   -4.495
   -8.078
  -10.772
  -12.207
  -11.687
   -8.231
   -1.380
    7.841
   16.729
   21.946
   21.270
   14.931
    5.527
   -3.617
  -10.486
  -15.273
  -19.428
  -23.779
  -27.424
  -28.389
  -25.470
  -19.620
  -13.645
  -10.396
  -10.887
  -13.844
  -16.895
  -18.205
  -17.188
  -14.070
   -9.157
   -2.756
    4.348
   10.741
   15.046
   16.826
   16.777
   16.081
   15.676
   16.086
   17.523
   19.661
   21.318
   20.822
   17.231
   11.404
    5.766
    2.775
    3.317
    6.194
    8.956
    9.434
    6.940
    2.468
   -2.138
   -5.428
   -7.215
   -8.464
  -10.292
  -12.869
  -15.107
  -15.327
  -12.406
   -6.604
    0.341
    5.871
    7.773
    5.301
   -0.420
   -7.007
  -12.026
  -14.013
  -12.855
   -9.563
   -5.734
   -2.922
   -2.082
   -3.206
   -5.343
   -7.076
   -7.227
   -5.344
   -1.716
    2.929
    7.738
   12.006
   15.400
   17.944
   19.605
   19.845
   17.809
   13.173
    6.881
    0.952
   -2.680
   -3.414
   -2.299
   -1.096
   -0.876
   -1.358
   -1.486
   -0.635
    0.764
    1.692
    1.542
    0.597
   -0.523
   -1.861
   -4.333
   -8.664
  -14.056
  -18.169
  -18.752
  -15.432
   -9.912
   -4.419
   -0.125
    2.955
    4.898
    5.242
    3.697
    1.266
    0.096
    1.740
    5.504
    8.764
    9.189
    6.790
    3.817
    2.653
    3.750
    5.479
    5.863
    4.462
    2.661
    2.217
    3.575
    5.575
    6.662
    6.180
    4.552
    2.525
    0.508
   -1.490
   -3.533
   -5.441
   -6.631
   -6.299
   -4.027
   -0.516
    2.288
    2.102
   -2.199
   -9.664
  -17.708
  -23.568
  -25.612
  -23.669
  -18.515
  -11.219
   -2.919
    5.005
   10.858
   13.215
   11.954
    8.700
    5.929
    5.325
    6.757
    8.668
    9.423
    8.459
    6.431
    4.421
    2.931
    1.479
   -0.860
   -4.431
   -8.382
  -11.005
  -10.785
   -7.368
   -1.756
    4.294
    9.113
   11.638
   11.522
    9.092
    5.286
    1.498
   -0.836
   -0.770
    1.759
    5.792
    9.556
   11.171
    9.641
    5.435
    0.112
   -4.744
   -8.325
  -10.534
  -11.406
  -10.840
   -8.936
   -6.468
   -4.780
   -4.901
   -6.646
   -8.657
   -9.505
   -8.877
   -7.721
   -7.093
   -6.858
   -5.599
   -1.951
    3.879
    9.808
   13.202
   12.739
    9.265
    5.037
    2.021
    0.653
    0.018
   -0.814
   -1.702
   -1.682
   -0.187
    2.145
    3.941
    4.304
    3.440
    2.187
    1.178
    0.622
    0.737
    1.951
    4.378
    7.188
    8.950
    8.851
    7.551
    6.586
    6.804
    7.449
    6.930
    4.513
    1.128
   -1.538
   -2.708
   -3.255
   -4.900
   -8.708
  -14.127
  -19.081
  -20.942
  -17.980
  -10.643
   -1.701
    5.326
    8.519
    8.726
    8.437
    9.356
   10.921
   11.065
    8.256
    2.844
   -3.287
   -8.064
  -10.307
   -9.980
   -7.824
   -4.854
   -2.003
    0.035
    0.861
    0.524
   -0.321
   -0.707
   -0.118
    0.948
    1.322
    0.190
   -2.211
   -4.847
   -6.710
   -7.281
   -6.404
   -4.049
   -0.401
    3.891
    7.746
   10.132
   10.685
    9.929
    8.852
    8.083
    7.408
    6.121
    3.877
    1.060
   -1.714
   -4.239
   -6.699
   -9.204
  -11.528
  -13.183
  -13.545
  -11.994
   -8.312
   -3.211
    1.676
    4.748
    5.633
    5.438
    5.652
    6.771
    8.033
    8.468
    8.007
    7.457
    7.502
    7.872
    7.530
    5.624
    2.321
   -1.233
   -3.697
   -4.360
   -3.389
   -1.443
    0.789
    2.647
    3.340
    2.139
   -1.030
   -5.191
   -8.657
   -9.941
   -8.676
   -5.927
   -3.606
   -3.242
   -4.898
   -7.205
   -8.574
   -8.496
   -7.703
   -7.173
   -7.139
   -7.105
   -6.645
   -5.828
   -4.755
   -2.910
    0.618
    6.040
   12.046
   16.263
   16.786
   13.523
    8.265
    3.513
    1.079
    1.440
    3.978
    7.529
   10.729
   12.272
   11.394
    8.372
    4.461
    1.055
   -1.260
   -2.887
   -4.478
   -6.077
   -7.039
   -6.736
   -5.314
   -3.837
   -3.632
   -5.263
   -7.911
   -9.795
   -9.394
   -6.504
   -2.299
    1.484
    3.478
    3.228
    1.349
   -0.746
   -1.622
   -0.779
    0.926
    1.907
    1.145
   -0.954
   -2.919
   -3.413
   -2.293
   -0.724
   -0.249
   -1.428
   -3.082
   -2.884
    0.858
    7.488
   13.864
   16.211
   12.653
    4.480
   -4.728
  -11.315
  -13.425
  -11.461
   -7.177
   -2.315
    2.177
    5.922
    8.378
    8.569
    5.823
    0.909
   -3.717
   -5.276
   -2.809
    1.768
    4.968
    4.514
    1.124
   -2.331
   -3.383
   -1.762
    0.906
    2.755
    3.019
    2.232
    1.565
    1.937
    3.421
    5.186
    6.000
    4.903
    1.620
   -3.395
   -9.048
  -13.732
  -15.773
  -14.268
   -9.769
   -4.131
    0.471
    2.704
    2.649
    1.465
    0.516
    0.623
    1.832
    3.550
    4.797
    4.563
    2.349
   -1.311
   -4.885
   -6.613
   -5.469
   -1.599
    3.841
    9.023
   11.934
   11.269
    7.381
    2.305
   -1.512
   -2.826
   -2.207
   -1.195
   -0.845
   -0.946
   -0.466
    1.245
    3.565
    4.870
    3.870
    0.883
   -2.105
   -2.731
    0.057
    5.249
   10.479
   13.500
   13.238
    9.860
    4.231
   -2.467
   -8.807
  -13.328
  -15.094
  -14.135
  -11.284
   -7.585
   -3.860
   -0.829
    0.586
   -0.486
   -3.956
   -8.179
  -10.623
   -9.502
   -4.973
    1.049
    6.079
    8.252
    7.021
    3.448
   -0.085
   -1.059
    1.559
    6.513
   11.031
   12.579
   10.334
    5.509
    0.492
   -2.649
   -3.384
   -2.856
   -2.854
   -4.397
   -6.949
   -8.795
   -8.252
   -4.832
    0.430
    5.554
    8.621
    8.634
    5.926
    1.934
   -1.671
   -3.982
   -5.100
   -5.435
   -4.970
   -3.385
   -0.743
    2.223
    4.539
    5.563
    5.165
    3.638
    1.714
    0.443
    0.550
    1.674
    2.438
    1.585
   -0.828
   -3.363
   -4.415
   -3.574
   -1.923
   -1.156
   -2.362
   -5.343
   -8.762
  -10.918
  -10.688
   -8.135
   -4.458
   -1.295
    0.221
    0.094
   -0.547
   -0.164
    2.095
    5.678
    8.920
   10.192
    9.068
    6.614
    4.526
    3.784
    4.008
    4.053
    3.214
    1.845
    0.812
    0.416
    0.013
   -1.249
   -3.371
   -5.278
   -5.702
   -4.337
   -2.187
   -0.809
   -1.115
   -2.717
   -4.303
   -4.651
   -3.419
   -1.182
    1.128
    2.918
    4.270
    5.639
    7.147
    8.145
    7.545
    4.738
    0.278
   -4.345
   -7.640
   -8.851
   -8.014
   -5.697
   -2.870
   -0.751
   -0.286
   -1.446
   -3.142
   -4.048
   -3.682
   -2.739
   -2.276
   -2.532
   -2.614
   -1.468
    0.933
    3.504
    5.133
    5.792
    6.502
    8.150
   10.324
   11.385
    9.836
    5.721
    0.717
   -3.136
   -4.809
   -4.615
   -3.512
   -2.236
   -0.972
    0.343
    1.553
    2.199
    1.883
    0.652
   -1.008
   -2.478
   -3.232
   -2.907
   -1.394
    0.998
    3.595
    5.624
    6.459
    5.714
    3.387
    0.070
   -3.163
   -5.420
   -6.669
   -7.614
   -8.739
   -9.515
   -8.757
   -5.918
   -2.065
    0.650
    0.714
   -1.433
   -3.819
   -4.667
   -3.675
   -1.643
    0.794
    3.594
    6.500
    8.439
    8.366
    6.741
    5.605
    6.755
    9.826
   12.335
   11.675
    7.170
    0.444
   -5.935
  -10.110
  -11.546
  -10.654
   -8.305
   -5.670
   -3.910
   -3.476
   -3.669
   -3.304
   -1.991
   -0.584
   -0.175
   -0.760
   -1.121
   -0.056
    2.452
    5.374
    7.658
    8.871
    8.988
    7.937
    5.614
    2.246
   -1.418
   -4.300
   -5.349
   -4.086
   -1.140
    1.834
    3.161
    2.387
    0.627
   -0.336
    0.552
    2.900
    5.259
    6.110
    4.664
    1.131
   -3.464
   -7.674
  -10.190
  -10.399
   -8.561
   -5.480
   -2.033
    1.021
    3.024
    3.587
    2.957
    2.005
    1.624
    2.101
    3.101
    4.120
    4.866
    5.249
    5.175
    4.373
    2.474
   -0.623
   -4.322
   -7.392
   -8.683
   -7.932
   -5.900
   -3.727
   -2.042
   -0.560
    1.441
    4.143
    6.677
    7.654
    6.306
    3.159
   -0.386
   -3.123
   -4.706
   -5.416
   -5.445
   -4.595
   -2.669
   -0.042
    2.331
    3.540
    3.356
    2.277
    1.037
    0.020
   -0.982
   -2.448
   -4.480
   -6.425
   -7.164
   -5.843
   -2.432
    2.251
    6.826
    9.699
    9.588
    6.312
    1.271
   -3.070
   -4.636
   -3.151
   -0.378
    1.164
    0.073
   -2.963
   -5.825
   -6.631
   -4.972
   -1.800
    1.562
    4.148
    5.373
    4.883
    2.756
   -0.178
   -2.540
   -3.155
   -1.730
    1.115
    4.326
    6.868
    7.990
    7.415
    5.459
    2.863
    0.337
   -1.819
   -3.684
   -5.383
   -6.821
   -7.675
   -7.545
   -6.136
   -3.508
   -0.333
    2.109
    2.524
    0.635
   -2.258
   -4.008
   -3.288
   -0.712
    1.750
    2.585
    2.048
    1.660
    2.509
    4.165
    5.295
    5.166
    4.347
    3.856
    3.836
    3.382
    1.666
   -0.976
   -3.081
   -3.144
   -0.868
    2.394
    4.410
    3.610
    0.287
   -3.468
   -5.212
   -4.030
   -1.407
   -0.207
   -2.360
   -7.129
  -11.542
  -12.624
   -9.494
   -3.789
    1.654
    4.685
    4.953
    3.664
    2.421
    2.140
    2.798
    3.898
    4.976
    5.666
    5.486
    3.820
    0.369
   -4.155
   -7.855
   -8.611
   -5.773
   -1.137
    2.093
    1.798
   -1.340
   -4.538
   -5.252
   -2.936
    1.065
    4.888
    7.315
    7.987
    7.093
    5.137
    2.812
    0.827
   -0.264
   -0.111
    1.345
    3.623
    5.615
    6.121
    4.718
    2.013
   -1.057
   -3.979
   -6.556
   -8.305
   -8.447
   -6.741
   -4.066
   -1.812
   -0.686
   -0.289
    0.237
    1.331
    2.714
    3.758
    4.057
    3.751
    3.397
    3.537
    4.279
    5.141
    5.258
    3.868
    0.852
   -3.064
   -6.569
   -8.307
   -7.503
   -4.482
   -0.735
    1.817
    2.049
    0.380
   -1.733
   -3.147
   -3.899
   -4.713
   -5.829
   -6.587
   -6.198
   -4.603
   -2.375
    0.032
    2.566
    5.076
    6.825
    6.796
    4.611
    1.207
   -1.413
   -1.367
    1.733
    6.240
    9.363
    9.053
    5.504
    0.991
   -1.907
   -2.199
   -0.852
    0.478
    0.949
    0.866
    0.790
    0.605
   -0.450
   -2.925
   -6.360
   -9.284
  -10.091
   -8.203
   -4.572
   -1.015
    1.127
    1.772
    1.672
    1.491
    1.454
    1.581
    1.922
    2.576
    3.584
    4.669
    4.976
    3.349
   -0.668
   -5.965
  -10.251
  -11.593
   -9.701
   -5.833
   -1.625
    1.979
    4.903
    7.376
    9.336
   10.249
    9.414
    6.537
    2.167
   -2.364
   -5.466
   -5.988
   -3.813
   -0.100
    3.035
    3.523
    0.690
   -3.958
   -7.419
   -7.215
   -3.305
    1.731
    4.589
    3.776
    0.689
   -1.562
   -0.551
    3.640
    8.412
   10.538
    8.566
    3.763
   -1.177
   -4.338
   -5.583
   -5.700
   -5.083
   -3.558
   -1.241
    0.966
    2.000
    1.655
    0.830
    0.793
    2.193
    4.574
    6.671
