Origin Time       24/2/2010 19:20:52	
Lat.              28.6 N	
Long.             76.9 E	
Depth (Km)         17.0
Magnitude         2.5
 Region           Rohtak                                                           
 Above details taken from IMD 
     
Station Code       JNU 
Station Lat.       28.589  N
Station Long.      77.168  E
Station Height(m)  170.0
Site Class        A   Vs30 between 700 m/sec to 1620 m/sec * 
Record Time        2/24/2010 ) 19:20:09.0
Sampling Rate     200. Hz
 Record Duration  102.000 Sec.
 Direction         E-W (E positive)
Max. Acceleration  26.413 cm/sec**2
     
  * For reference see Site Classification link of website 
     
 Base Line Corrected and Low Pass Filtered (Cut Off at 35 Hz) Time History
 Acceleration data in cm/sec**2
    
[...]
    0.005
   -0.001
   -0.010
   -0.016
   -0.014
   -0.010
   -0.007
   -0.006
   -0.002
    0.005
    0.009
    0.005
   -0.003
   -0.009
   -0.008
    0.000
    0.006
    0.007
    0.003
   -0.002
   -0.005
   -0.005
   -0.002
    0.004
    0.008
    0.008
    0.001
   -0.006
   -0.008
   -0.004
    0.002
    0.004
    0.002
    0.000
    0.000
   -0.001
   -0.007
   -0.012
   -0.011
   -0.003
    0.004
    0.004
   -0.002
   -0.004
    0.000
    0.004
    0.003
   -0.002
   -0.007
   -0.010
   -0.013
   -0.016
   -0.018
   -0.018
   -0.013
   -0.007
   -0.006
   -0.009
   -0.011
   -0.007
    0.001
    0.004
    0.001
   -0.004
   -0.007
   -0.006
   -0.004
   -0.003
   -0.003
   -0.002
   -0.001
    0.000
    0.001
    0.003
    0.006
    0.006
    0.005
    0.001
   -0.002
   -0.002
   -0.002
   -0.002
   -0.003
   -0.001
    0.003
    0.008
    0.007
   -0.001
   -0.009
   -0.011
   -0.004
    0.003
    0.004
    0.001
   -0.001
    0.001
    0.005
    0.007
    0.004
    0.001
    0.000
    0.000
   -0.001
   -0.005
   -0.010
   -0.010
   -0.004
    0.005
    0.010
    0.008
    0.002
   -0.002
   -0.004
   -0.004
   -0.005
   -0.008
   -0.011
   -0.016
   -0.018
   -0.012
   -0.001
    0.007
    0.007
   -0.001
   -0.010
   -0.014
   -0.011
   -0.004
    0.000
   -0.002
   -0.007
   -0.009
   -0.007
   -0.003
   -0.003
   -0.005
   -0.003
    0.004
    0.009
    0.009
    0.003
   -0.004
   -0.009
   -0.008
   -0.002
    0.006
    0.011
    0.009
    0.000
   -0.008
   -0.009
   -0.002
    0.006
    0.010
    0.009
    0.008
    0.010
    0.010
    0.003
   -0.007
   -0.014
   -0.010
    0.001
    0.012
    0.014
    0.009
    0.001
   -0.004
   -0.002
    0.003
    0.009
    0.010
    0.006
   -0.001
   -0.006
   -0.004
    0.003
    0.011
    0.013
    0.007
   -0.002
   -0.008
   -0.007
   -0.002
    0.001
   -0.001
   -0.003
    0.000
    0.005
    0.007
    0.003
    0.001
    0.003
    0.007
    0.006
   -0.002
   -0.012
   -0.018
   -0.018
   -0.014
   -0.010
   -0.009
   -0.006
    0.002
    0.010
    0.011
    0.002
   -0.011
   -0.019
   -0.017
   -0.007
    0.000
    0.000
   -0.007
   -0.013
   -0.011
    0.000
    0.014
    0.020
    0.018
    0.013
    0.010
    0.010
    0.008
    0.005
    0.002
    0.000
    0.000
    0.000
    0.001
    0.003
    0.006
    0.008
    0.007
    0.002
   -0.005
   -0.010
   -0.010
   -0.006
   -0.001
    0.001
    0.001
   -0.001
   -0.002
   -0.003
   -0.001
    0.002
    0.001
   -0.008
   -0.020
   -0.026
   -0.019
   -0.003
    0.007
    0.001
   -0.017
   -0.029
   -0.024
   -0.006
    0.011
    0.014
    0.004
   -0.010
   -0.017
   -0.015
   -0.012
   -0.011
   -0.011
   -0.008
    0.000
    0.009
    0.014
    0.013
    0.009
    0.006
    0.005
    0.004
    0.001
   -0.003
   -0.005
    0.000
    0.007
    0.010
    0.007
    0.004
    0.007
    0.013
    0.016
    0.010
    0.001
   -0.003
    0.002
    0.010
    0.010
    0.001
   -0.011
   -0.014
   -0.006
    0.007
    0.017
    0.017
    0.010
    0.000
   -0.006
   -0.008
   -0.008
   -0.011
   -0.012
   -0.008
    0.000
    0.004
   -0.002
   -0.015
   -0.022
   -0.017
   -0.007
    0.002
    0.006
    0.006
    0.005
    0.002
   -0.004
   -0.012
   -0.017
   -0.014
   -0.002
    0.011
    0.017
    0.012
    0.002
   -0.006
   -0.006
    0.001
    0.009
    0.011
    0.008
    0.005
    0.004
    0.004
    0.003
    0.003
    0.006
    0.013
    0.017
    0.014
    0.005
   -0.004
   -0.006
    0.000
    0.010
    0.016
    0.012
    0.000
   -0.010
   -0.010
    0.000
    0.011
    0.011
    0.002
   -0.008
   -0.012
   -0.011
   -0.012
   -0.013
   -0.012
   -0.006
    0.001
    0.002
    0.001
    0.001
    0.004
    0.006
    0.005
    0.000
   -0.004
   -0.002
    0.002
    0.003
   -0.004
   -0.012
   -0.014
   -0.005
    0.008
    0.017
    0.015
    0.006
   -0.001
    0.000
    0.006
    0.012
    0.013
    0.007
   -0.003
   -0.009
   -0.006
    0.002
    0.012
    0.019
    0.020
    0.013
   -0.003
   -0.019
   -0.024
   -0.011
    0.011
    0.025
    0.018
   -0.004
   -0.020
   -0.016
    0.004
    0.021
    0.021
    0.007
   -0.008
   -0.011
   -0.002
    0.011
    0.017
    0.010
   -0.004
   -0.014
   -0.014
   -0.006
    0.001
    0.003
   -0.002
   -0.007
   -0.009
   -0.007
   -0.007
   -0.009
   -0.009
   -0.005
   -0.001
   -0.003
   -0.009
   -0.010
   -0.002
    0.010
    0.014
    0.005
   -0.008
   -0.016
   -0.012
    0.000
    0.011
    0.011
    0.000
   -0.014
   -0.018
   -0.006
    0.013
    0.027
    0.023
    0.006
   -0.012
   -0.018
   -0.011
    0.001
    0.006
    0.005
    0.003
    0.002
    0.004
    0.005
    0.007
    0.011
    0.012
    0.009
    0.005
    0.002
    0.000
   -0.007
   -0.020
   -0.029
   -0.027
   -0.013
    0.004
    0.014
    0.014
    0.009
    0.002
   -0.004
   -0.011
   -0.016
   -0.015
   -0.010
   -0.008
   -0.012
   -0.019
   -0.018
   -0.007
    0.005
    0.010
    0.010
    0.011
    0.011
    0.006
   -0.006
   -0.015
   -0.011
    0.005
    0.018
    0.019
    0.006
   -0.009
   -0.017
   -0.013
   -0.001
    0.015
    0.027
    0.029
    0.017
   -0.003
   -0.018
   -0.016
   -0.001
    0.014
    0.018
    0.009
   -0.005
   -0.014
   -0.009
    0.006
    0.021
    0.024
    0.012
   -0.004
   -0.015
   -0.017
   -0.012
   -0.003
    0.005
    0.008
   -0.001
   -0.014
   -0.022
   -0.018
   -0.005
    0.004
    0.002
   -0.007
   -0.013
   -0.007
    0.006
    0.012
    0.004
   -0.008
   -0.013
   -0.003
    0.013
    0.023
    0.024
    0.017
    0.007
   -0.001
   -0.007
   -0.012
   -0.012
   -0.003
    0.008
    0.015
    0.012
    0.007
    0.006
    0.008
    0.007
   -0.001
   -0.009
   -0.010
   -0.005
   -0.001
    0.001
    0.000
   -0.002
   -0.002
    0.003
    0.011
    0.014
    0.010
    0.004
    0.003
    0.003
   -0.003
   -0.016
   -0.027
   -0.027
   -0.014
    0.004
    0.014
    0.009
   -0.004
   -0.012
   -0.006
    0.007
    0.018
    0.019
    0.007
   -0.011
   -0.025
   -0.027
   -0.015
    0.003
    0.012
    0.009
   -0.002
   -0.011
   -0.011
   -0.006
    0.000
    0.002
    0.001
    0.001
    0.001
    0.000
    0.000
    0.005
    0.012
    0.011
   -0.004
   -0.023
   -0.029
   -0.014
    0.011
    0.027
    0.023
    0.005
   -0.007
   -0.001
    0.012
    0.014
    0.001
   -0.013
   -0.014
   -0.003
    0.007
    0.010
    0.010
    0.012
    0.011
    0.005
   -0.001
    0.000
    0.004
    0.004
   -0.002
   -0.008
   -0.009
   -0.002
    0.005
    0.007
   -0.001
   -0.010
   -0.014
   -0.009
   -0.001
    0.003
    0.003
    0.002
   -0.001
   -0.007
   -0.010
   -0.007
    0.000
    0.002
    0.001
    0.002
    0.007
    0.010
    0.004
   -0.008
   -0.018
   -0.017
   -0.006
    0.004
    0.003
   -0.011
   -0.024
   -0.020
    0.001
    0.022
    0.025
    0.009
   -0.010
   -0.013
    0.000
    0.014
    0.013
    0.000
   -0.007
    0.000
    0.011
    0.013
    0.004
   -0.006
   -0.006
    0.003
    0.014
    0.018
    0.011
   -0.004
   -0.015
   -0.014
   -0.002
    0.007
    0.005
   -0.004
   -0.007
    0.000
    0.010
    0.009
   -0.004
   -0.015
   -0.013
   -0.002
    0.004
   -0.006
   -0.025
   -0.033
   -0.021
    0.001
    0.011
    0.003
   -0.010
   -0.012
    0.001
    0.017
    0.018
    0.005
   -0.014
   -0.022
   -0.014
    0.001
    0.010
    0.005
   -0.011
   -0.025
   -0.024
   -0.008
    0.011
    0.019
    0.010
   -0.010
   -0.023
   -0.019
    0.000
    0.019
    0.022
    0.008
   -0.010
   -0.017
   -0.008
    0.007
    0.017
    0.016
    0.006
   -0.002
   -0.001
    0.008
    0.014
    0.009
   -0.005
   -0.011
   -0.002
    0.011
    0.013
    0.000
   -0.015
   -0.018
   -0.005
    0.010
    0.009
   -0.010
   -0.033
   -0.042
   -0.033
   -0.018
   -0.013
   -0.013
    0.006
    0.075
    0.197
    0.327
    0.373
    0.256
   -0.017
   -0.313
   -0.436
   -0.270
    0.100
    0.407
    0.396
    0.042
   -0.406
   -0.626
   -0.505
   -0.237
   -0.122
   -0.266
   -0.450
   -0.327
    0.237
    0.994
    1.443
    1.188
    0.242
   -0.912
   -1.579
   -1.314
   -0.275
    0.857
    1.365
    1.013
    0.148
   -0.649
   -1.002
   -0.908
   -0.588
   -0.253
    0.013
    0.233
    0.433
    0.570
    0.542
    0.306
   -0.012
   -0.158
    0.029
    0.395
    0.560
    0.301
   -0.157
   -0.338
   -0.040
    0.379
    0.375
   -0.160
   -0.755
   -0.869
   -0.448
    0.107
    0.399
    0.345
    0.065
   -0.306
   -0.616
   -0.617
   -0.143
    0.575
    0.947
    0.574
   -0.224
   -0.602
   -0.062
    0.905
    1.237
    0.395
   -1.031
   -1.865
   -1.444
   -0.191
    0.827
    0.899
    0.282
   -0.149
    0.142
    0.750
    0.763
   -0.184
   -1.402
   -1.786
   -0.888
    0.678
    1.794
    1.762
    0.823
   -0.152
   -0.489
   -0.269
   -0.082
   -0.252
   -0.467
   -0.249
    0.344
    0.698
    0.332
   -0.545
   -1.234
   -1.204
   -0.540
    0.231
    0.677
    0.783
    0.785
    0.758
    0.495
   -0.163
   -0.970
   -1.397
   -1.110
   -0.311
    0.434
    0.685
    0.483
    0.249
    0.316
    0.538
    0.452
   -0.159
   -0.907
   -1.128
   -0.535
    0.501
    1.319
    1.513
    1.107
    0.380
   -0.349
   -0.862
   -1.107
   -1.119
   -0.849
   -0.233
    0.507
    0.834
    0.394
   -0.487
   -0.989
   -0.596
    0.369
    1.058
    0.888
    0.041
   -0.723
   -0.757
   -0.116
    0.527
    0.571
    0.090
   -0.274
    0.001
    0.713
    1.056
    0.427
   -0.865
   -1.749
   -1.355
    0.094
    1.383
    1.388
    0.130
   -1.216
   -1.394
   -0.214
    1.271
    1.745
    0.808
   -0.734
   -1.653
   -1.324
   -0.081
    1.213
    1.815
    1.429
    0.221
   -1.250
   -2.169
   -1.891
   -0.465
    1.255
    2.169
    1.744
    0.375
   -0.961
   -1.442
   -0.936
   -0.030
    0.444
    0.108
   -0.590
   -0.796
   -0.129
    0.856
    1.167
    0.366
   -0.952
   -1.678
   -1.158
    0.313
    1.764
    2.265
    1.582
    0.294
   -0.762
   -1.187
   -1.173
   -1.034
   -0.728
    0.032
    1.182
    2.000
    1.628
    0.012
   -1.778
   -2.356
   -1.284
    0.505
    1.596
    1.330
    0.145
   -1.035
   -1.522
   -1.151
   -0.206
    0.716
    1.003
    0.539
   -0.075
   -0.054
    0.660
    1.190
    0.596
   -1.023
   -2.403
   -2.179
   -0.183
    2.226
    3.193
    1.953
   -0.453
   -2.054
   -1.662
    0.132
    1.534
    1.120
   -0.902
   -2.777
   -2.673
   -0.336
    2.574
    3.864
    2.660
    0.049
   -1.954
   -2.068
   -0.690
    0.566
    0.371
   -1.057
   -2.132
   -1.471
    0.682
    2.610
    2.705
    0.897
   -1.389
   -2.554
   -2.072
   -0.658
    0.549
    0.932
    0.677
    0.368
    0.432
    0.888
    1.370
    1.334
    0.476
   -0.849
   -1.732
   -1.474
   -0.291
    0.888
    1.311
    0.958
    0.259
   -0.490
   -1.229
   -1.769
   -1.659
   -0.662
    0.761
    1.642
    1.317
    0.083
   -1.004
   -1.033
    0.014
    1.271
    1.686
    0.857
   -0.589
   -1.469
   -1.095
    0.085
    0.955
    0.851
    0.114
   -0.460
   -0.517
   -0.365
   -0.414
   -0.610
   -0.512
    0.108
    0.856
    1.028
    0.350
   -0.669
   -1.154
   -0.659
    0.402
    1.124
    0.948
    0.171
   -0.343
   -0.053
    0.646
    0.790
   -0.078
   -1.283
   -1.625
   -0.632
    0.874
    1.551
    0.864
   -0.417
   -1.055
   -0.621
    0.162
    0.326
   -0.249
   -0.770
   -0.476
    0.541
    1.453
    1.524
    0.770
   -0.162
   -0.693
   -0.824
   -0.949
   -1.191
   -1.088
   -0.151
    1.256
    1.889
    0.802
   -1.369
   -2.670
   -1.746
    0.626
    2.260
    1.825
    0.113
   -0.954
   -0.320
    1.282
    2.206
    1.496
   -0.360
   -1.987
   -2.261
   -1.111
    0.450
    1.106
    0.343
   -1.046
   -1.657
   -0.838
    0.679
    1.616
    1.484
    0.834
    0.318
   -0.035
   -0.461
   -0.802
   -0.639
   -0.004
    0.449
    0.167
   -0.604
   -1.037
   -0.644
    0.242
    0.872
    0.765
    0.017
   -0.805
   -1.014
   -0.300
    0.907
    1.647
    1.244
   -0.006
   -1.060
   -1.116
   -0.340
    0.415
    0.534
    0.168
   -0.126
   -0.048
    0.278
    0.636
    0.884
    0.825
    0.218
   -0.870
   -1.838
   -1.935
   -0.977
    0.372
    1.126
    0.804
   -0.207
   -0.996
   -0.801
    0.423
    1.833
    2.195
    0.880
   -1.350
   -2.712
   -1.989
    0.150
    1.675
    1.234
   -0.466
   -1.456
   -0.600
    1.286
    2.369
    1.632
   -0.279
   -1.836
   -2.000
   -0.874
    0.635
    1.588
    1.608
    0.987
    0.329
   -0.004
   -0.159
   -0.492
   -1.050
   -1.440
   -1.281
   -0.645
    0.071
    0.600
    0.942
    1.115
    0.954
    0.254
   -0.881
   -1.907
   -2.129
   -1.236
    0.370
    1.790
    2.257
    1.672
    0.614
   -0.155
   -0.263
    0.032
    0.114
   -0.380
   -1.197
   -1.690
   -1.343
   -0.161
    1.270
    2.069
    1.618
    0.085
   -1.565
   -2.242
   -1.580
   -0.228
    0.737
    0.747
    0.202
    0.039
    0.733
    1.737
    1.966
    0.869
   -0.936
   -2.082
   -1.696
   -0.348
    0.445
   -0.138
   -1.165
   -0.882
    1.196
    3.384
    3.327
    0.483
   -3.110
   -4.581
   -2.763
    0.831
    3.341
    3.013
    0.637
   -1.325
   -1.214
    0.206
    0.745
   -0.654
   -2.632
   -2.862
   -0.736
    1.652
    1.465
   -1.849
   -5.648
   -6.368
   -2.791
    2.796
    6.603
    6.574
    3.958
    2.005
    3.139
    7.011
   10.881
   11.669
    7.929
    0.424
   -8.714
  -17.230
  -23.263
  -24.978
  -20.501
   -9.291
    6.018
   19.782
   26.413
   24.034
   15.318
    4.664
   -5.234
  -13.874
  -20.485
  -22.316
  -16.460
   -3.482
   11.418
   21.570
   23.525
   18.903
   12.001
    5.794
    0.099
   -6.682
  -14.411
  -20.115
  -20.158
  -13.403
   -2.408
    8.094
   13.919
   13.467
    8.135
    1.133
   -4.560
   -7.822
   -9.271
   -9.584
   -8.105
   -3.398
    4.667
   13.555
   19.146
   18.443
   11.489
    1.052
   -9.100
  -15.771
  -17.215
  -13.570
   -6.887
   -0.214
    4.142
    5.842
    6.009
    5.526
    4.072
    0.963
   -3.288
   -6.691
   -7.264
   -4.718
   -0.644
    2.776
    4.395
    4.820
    5.568
    7.228
    8.366
    6.583
    1.162
   -5.301
   -8.512
   -6.279
   -0.806
    2.995
    1.814
   -3.058
   -6.853
   -5.655
   -0.050
    5.186
    5.259
   -0.167
   -6.334
   -7.429
   -1.773
    6.611
   11.434
    9.303
    2.046
   -5.339
   -8.617
   -6.809
   -1.991
    2.683
    4.998
    4.447
    1.787
   -1.741
   -4.921
   -6.796
   -6.766
   -4.698
   -1.027
    3.220
    6.603
    7.787
    6.249
    2.753
   -0.811
   -2.246
   -0.331
    4.001
    7.748
    7.777
    3.344
   -3.147
   -8.054
   -9.344
   -7.714
   -5.235
   -3.240
   -1.572
    0.378
    2.287
    2.855
    1.225
   -1.651
   -3.296
   -1.575
    3.436
    9.105
   11.720
    8.873
    1.338
   -6.884
  -10.914
   -8.528
   -2.005
    3.638
    4.692
    1.485
   -2.565
   -4.343
   -3.463
   -1.735
   -0.904
   -1.224
   -1.851
   -1.968
   -1.265
    0.278
    2.535
    4.964
    6.497
    6.160
    3.996
    1.186
   -0.939
   -1.828
   -1.592
   -0.368
    1.692
    3.799
    4.485
    2.768
   -0.638
   -3.588
   -4.262
   -2.752
   -0.874
   -0.413
   -1.650
   -3.493
   -4.728
   -4.990
   -4.660
   -4.100
   -3.219
   -1.661
    0.810
    3.980
    6.847
    7.789
    5.785
    1.781
   -1.624
   -2.368
   -0.757
    1.099
    1.530
    0.732
    0.072
    0.339
    0.896
    0.538
   -0.991
   -2.580
   -2.866
   -1.548
    0.485
    2.026
    2.396
    1.701
    0.626
   -0.020
    0.100
    0.458
    0.043
   -1.589
   -3.651
   -4.637
   -3.543
   -0.693
    2.528
    4.725
    5.283
    4.277
    2.116
   -0.383
   -2.022
   -2.067
   -1.191
   -1.075
   -2.652
   -4.853
   -5.470
   -3.409
    0.050
    2.433
    2.425
    0.929
   -0.024
    0.755
    2.549
    3.427
    2.144
   -0.321
   -1.288
    0.999
    5.093
    7.145
    4.511
   -1.375
   -6.022
   -5.898
   -1.450
    3.511
    5.047
    1.945
   -3.734
   -8.279
   -8.864
   -5.362
   -0.218
    3.492
    4.295
    3.065
    1.732
    1.323
    1.288
    0.574
   -0.980
   -2.385
   -2.394
   -0.607
    2.066
    3.932
    3.690
    1.406
   -1.582
   -3.788
   -4.558
   -4.019
   -2.532
   -0.505
    1.489
    2.814
    3.150
    2.754
    2.195
    1.755
    1.215
    0.282
   -0.869
   -1.575
   -1.292
   -0.234
    0.666
    0.536
   -0.652
   -2.025
   -2.453
   -1.426
    0.364
    1.419
    0.823
   -0.625
   -0.986
    0.739
    3.194
    3.797
    1.405
   -2.341
   -4.443
   -3.353
   -0.358
    1.806
    1.597
   -0.091
   -1.103
   -0.161
    2.104
    3.806
    3.314
    0.482
   -3.086
   -5.043
   -4.062
   -0.995
    1.796
    2.482
    1.188
   -0.517
   -1.295
   -0.996
   -0.147
    0.911
    1.989
    2.503
    1.711
   -0.245
   -1.998
   -2.205
   -1.005
    0.171
    0.192
   -0.714
   -1.467
   -1.331
   -0.448
    0.529
    1.072
    1.098
    0.829
    0.474
    0.128
   -0.037
    0.309
    1.293
    2.365
    2.445
    0.935
   -1.266
   -2.194
   -0.800
    1.576
    2.264
    0.087
   -3.156
   -4.433
   -2.627
    0.469
    2.255
    1.884
    0.550
   -0.301
   -0.467
   -0.657
   -1.166
   -1.360
   -0.567
    0.879
    1.811
    1.398
   -0.013
   -1.232
   -1.324
   -0.325
    1.024
    2.013
    2.323
    1.885
    0.750
   -0.835
   -2.319
   -3.011
   -2.511
   -1.066
    0.536
    1.513
    1.649
    1.361
    1.187
    1.221
    1.059
    0.241
   -1.243
   -2.709
   -3.070
   -1.785
    0.260
    1.178
   -0.077
   -2.245
   -2.661
   -0.042
    3.737
    5.109
    2.328
   -2.532
   -5.248
   -3.288
    1.844
    5.941
    5.764
    1.688
   -2.879
   -4.529
   -2.542
    0.953
    3.067
    2.518
    0.408
   -1.073
   -0.701
    0.832
    1.796
    1.097
   -0.796
   -2.418
   -2.666
   -1.581
   -0.040
    1.025
    1.117
    0.214
   -1.337
   -2.835
   -3.381
   -2.434
   -0.357
    1.695
    2.651
    2.323
    1.347
    0.416
   -0.316
   -1.089
   -1.879
   -2.110
   -1.133
    1.023
    3.433
    4.770
    4.188
    1.986
   -0.519
   -1.940
   -1.809
   -0.761
    0.183
    0.460
    0.152
   -0.439
   -1.113
   -1.658
   -1.687
   -0.954
    0.144
    0.712
    0.247
   -0.784
   -1.485
   -1.453
   -0.870
    0.142
    1.732
    3.669
    4.848
    3.971
    0.909
   -2.767
   -4.793
   -3.996
   -1.219
    1.448
    2.287
    0.919
   -1.766
   -4.092
   -4.363
   -2.020
    1.648
    4.324
    4.574
    2.926
    1.009
   -0.172
   -0.843
   -1.496
   -1.904
   -1.458
   -0.177
    1.077
    1.409
    0.649
   -0.621
   -1.513
   -1.302
    0.131
    2.039
    3.177
    2.754
    1.045
   -0.959
   -2.364
   -2.809
   -2.333
   -1.166
    0.249
    1.299
    1.530
    0.994
    0.189
   -0.420
   -0.764
   -1.023
   -1.202
   -1.004
   -0.211
    0.900
    1.643
    1.493
    0.592
   -0.351
   -0.723
   -0.563
   -0.373
   -0.430
   -0.464
   -0.032
    0.885
    1.676
    1.543
    0.271
   -1.393
   -2.198
   -1.429
    0.407
    1.979
    2.275
    1.389
    0.192
   -0.629
   -1.045
   -1.294
   -1.383
   -1.178
   -0.778
   -0.505
   -0.501
   -0.462
    0.111
    1.267
    2.313
    2.329
    1.042
   -0.812
   -2.039
   -1.967
   -0.972
   -0.070
    0.034
   -0.432
   -0.563
    0.256
    1.566
    2.164
    1.382
   -0.067
   -0.737
