Origin Time       24/2/2010 19:20:52	
Lat.              28.6 N	
Long.             76.9 E	
Depth (Km)         17.0
Magnitude         2.5
 Region           Rohtak                                                           
 Above details taken from IMD 
   
Station Code       JNU 
Station Lat.       28.589
Station Long.      77.168
Station Height(m)  170.0
Site Class        A   Vs30 between 700 m/sec to 1620 m/sec * 
Record Time        2/24/2010 ) 19:20:09.0
Sampling Rate     200. Hz
 Record Duration  102.000 Sec.
 Direction         Vert. (Up positive)
Max. Acceleration  12.871 cm/sec**2
     
  * For reference see Site Classification link of website 
     
 Base Line Corrected and Low Pass Filtered (Cut Off at 35 Hz) Time History
 Acceleration data in cm/sec**2
    
[...]
   -0.005
   -0.010
   -0.012
   -0.009
   -0.002
    0.007
    0.012
    0.010
    0.003
   -0.003
   -0.005
   -0.006
   -0.007
   -0.006
   -0.003
    0.000
    0.001
   -0.001
   -0.005
   -0.009
   -0.010
   -0.008
   -0.005
   -0.004
   -0.004
   -0.001
    0.002
    0.002
   -0.005
   -0.012
   -0.014
   -0.009
    0.000
    0.006
    0.005
    0.000
   -0.004
   -0.007
   -0.007
   -0.006
   -0.002
    0.003
    0.006
    0.005
    0.002
   -0.001
   -0.002
   -0.002
   -0.002
   -0.001
    0.000
   -0.001
   -0.002
   -0.003
   -0.003
   -0.004
   -0.005
   -0.004
   -0.001
    0.001
    0.001
    0.001
   -0.001
   -0.004
   -0.006
   -0.006
   -0.007
   -0.007
   -0.006
   -0.002
    0.002
    0.003
   -0.001
   -0.006
   -0.009
   -0.010
   -0.009
   -0.008
   -0.007
   -0.004
    0.001
    0.003
    0.000
   -0.009
   -0.017
   -0.014
   -0.003
    0.008
    0.011
    0.007
   -0.001
   -0.006
   -0.006
   -0.003
    0.000
    0.002
    0.003
    0.004
    0.003
    0.000
   -0.005
   -0.007
   -0.005
    0.000
    0.003
    0.002
    0.000
   -0.002
   -0.003
   -0.005
   -0.009
   -0.013
   -0.013
   -0.008
    0.001
    0.006
    0.005
   -0.001
   -0.008
   -0.013
   -0.013
   -0.009
   -0.003
    0.000
   -0.001
   -0.003
   -0.004
   -0.003
   -0.002
   -0.003
   -0.006
   -0.008
   -0.009
   -0.006
   -0.003
   -0.004
   -0.009
   -0.013
   -0.013
   -0.006
    0.003
    0.010
    0.011
    0.006
   -0.002
   -0.007
   -0.007
   -0.006
   -0.005
   -0.005
   -0.003
    0.000
    0.004
    0.006
    0.004
   -0.002
   -0.008
   -0.009
   -0.004
    0.003
    0.008
    0.011
    0.010
    0.007
    0.003
   -0.001
   -0.004
   -0.007
   -0.009
   -0.009
   -0.005
   -0.001
    0.000
   -0.002
   -0.004
   -0.006
   -0.008
   -0.010
   -0.012
   -0.013
   -0.012
   -0.009
   -0.004
   -0.002
   -0.004
   -0.009
   -0.011
   -0.007
   -0.001
    0.004
    0.004
    0.000
   -0.004
   -0.004
    0.000
    0.001
   -0.002
   -0.007
   -0.007
   -0.002
    0.005
    0.011
    0.012
    0.007
    0.001
   -0.003
   -0.004
   -0.003
   -0.001
    0.001
    0.002
    0.000
   -0.003
   -0.004
   -0.003
   -0.003
   -0.006
   -0.009
   -0.008
   -0.003
    0.002
    0.004
    0.002
   -0.003
   -0.008
   -0.012
   -0.012
   -0.009
   -0.006
   -0.006
   -0.007
   -0.008
   -0.008
   -0.006
   -0.002
    0.000
   -0.002
   -0.007
   -0.010
   -0.009
   -0.006
   -0.002
    0.001
    0.002
   -0.001
   -0.006
   -0.011
   -0.013
   -0.011
   -0.004
    0.005
    0.013
    0.012
    0.004
   -0.006
   -0.010
   -0.008
   -0.004
    0.001
    0.005
    0.008
    0.009
    0.007
    0.002
   -0.004
   -0.008
   -0.005
    0.002
    0.007
    0.008
    0.004
   -0.002
   -0.009
   -0.012
   -0.010
   -0.005
   -0.003
   -0.006
   -0.011
   -0.012
   -0.009
   -0.004
    0.000
   -0.002
   -0.008
   -0.012
   -0.011
   -0.004
    0.001
    0.000
   -0.006
   -0.010
   -0.011
   -0.010
   -0.007
   -0.002
    0.002
    0.004
    0.005
    0.002
   -0.003
   -0.006
   -0.005
   -0.003
   -0.004
   -0.009
   -0.011
   -0.006
    0.002
    0.007
    0.006
   -0.001
   -0.008
   -0.009
   -0.003
    0.005
    0.006
   -0.001
   -0.010
   -0.012
   -0.007
   -0.001
    0.001
   -0.002
   -0.006
   -0.008
   -0.008
   -0.006
   -0.005
   -0.005
   -0.005
   -0.004
   -0.003
   -0.005
   -0.010
   -0.012
   -0.011
   -0.005
    0.002
    0.005
    0.001
   -0.007
   -0.014
   -0.015
   -0.010
   -0.003
    0.003
    0.006
    0.004
    0.000
   -0.006
   -0.009
   -0.009
   -0.005
    0.001
    0.003
    0.001
   -0.002
   -0.003
   -0.001
    0.000
   -0.004
   -0.009
   -0.009
   -0.001
    0.009
    0.015
    0.011
   -0.002
   -0.014
   -0.016
   -0.007
    0.005
    0.012
    0.011
    0.005
   -0.002
   -0.009
   -0.012
   -0.010
   -0.005
    0.000
    0.001
   -0.001
   -0.003
   -0.005
   -0.003
    0.000
    0.001
   -0.001
   -0.006
   -0.008
   -0.008
   -0.007
   -0.007
   -0.007
   -0.005
   -0.002
    0.002
    0.005
    0.006
    0.004
   -0.001
   -0.006
   -0.008
   -0.008
   -0.005
    0.001
    0.007
    0.011
    0.011
    0.005
   -0.004
   -0.012
   -0.015
   -0.010
   -0.003
    0.001
    0.001
   -0.003
   -0.007
   -0.009
   -0.009
   -0.005
    0.001
    0.003
    0.002
   -0.001
   -0.004
   -0.007
   -0.008
   -0.006
   -0.005
   -0.005
   -0.007
   -0.006
   -0.001
    0.002
    0.003
    0.001
   -0.002
   -0.005
   -0.008
   -0.008
   -0.006
   -0.007
   -0.011
   -0.014
   -0.012
   -0.004
    0.003
    0.003
   -0.003
   -0.010
   -0.011
   -0.005
    0.001
    0.004
    0.004
    0.004
    0.003
    0.000
   -0.003
   -0.004
    0.000
    0.007
    0.012
    0.012
    0.006
   -0.004
   -0.011
   -0.012
   -0.009
   -0.003
    0.002
    0.007
    0.009
    0.007
   -0.001
   -0.009
   -0.015
   -0.014
   -0.008
    0.002
    0.007
    0.003
   -0.007
   -0.016
   -0.018
   -0.013
   -0.007
   -0.003
   -0.001
    0.001
    0.003
    0.001
   -0.005
   -0.013
   -0.020
   -0.020
   -0.012
   -0.003
    0.004
    0.008
    0.008
    0.005
    0.000
   -0.007
   -0.013
   -0.014
   -0.008
    0.001
    0.009
    0.009
    0.004
    0.000
   -0.002
   -0.005
   -0.009
   -0.012
   -0.009
    0.000
    0.011
    0.016
    0.013
    0.003
   -0.008
   -0.013
   -0.009
   -0.001
    0.005
    0.006
    0.003
    0.000
   -0.004
   -0.007
   -0.007
   -0.005
   -0.001
    0.003
    0.004
    0.002
    0.001
    0.001
    0.003
    0.001
   -0.004
   -0.009
   -0.009
   -0.005
    0.002
    0.007
    0.008
    0.002
   -0.007
   -0.015
   -0.016
   -0.014
   -0.011
   -0.010
   -0.008
   -0.002
    0.005
    0.009
    0.007
    0.002
   -0.001
    0.002
    0.006
    0.007
    0.002
   -0.004
   -0.004
   -0.001
    0.002
    0.001
   -0.001
    0.002
    0.009
    0.015
    0.013
    0.001
   -0.013
   -0.020
   -0.016
   -0.006
    0.002
    0.004
    0.003
    0.002
   -0.001
   -0.005
   -0.006
   -0.001
    0.009
    0.016
    0.012
    0.000
   -0.014
   -0.017
   -0.008
    0.003
    0.008
    0.004
   -0.002
   -0.002
    0.001
    0.004
    0.004
    0.000
   -0.004
   -0.006
   -0.006
   -0.006
   -0.005
   -0.003
    0.001
    0.005
    0.005
    0.002
    0.000
   -0.001
   -0.004
   -0.006
   -0.006
   -0.003
    0.000
    0.003
    0.007
    0.012
    0.014
    0.006
   -0.010
   -0.026
   -0.029
   -0.015
    0.008
    0.023
    0.021
    0.008
   -0.004
   -0.010
   -0.010
   -0.008
   -0.006
   -0.006
   -0.008
   -0.010
   -0.008
   -0.001
    0.005
    0.007
    0.001
   -0.007
   -0.013
   -0.011
   -0.001
    0.009
    0.012
    0.006
   -0.003
   -0.012
   -0.017
   -0.016
   -0.007
    0.004
    0.008
    0.005
    0.001
    0.001
    0.002
    0.000
   -0.007
   -0.012
   -0.011
   -0.006
    0.001
    0.008
    0.011
    0.011
    0.008
    0.004
   -0.001
   -0.006
   -0.007
   -0.002
    0.006
    0.013
    0.012
    0.003
   -0.008
   -0.013
   -0.007
    0.004
    0.010
    0.007
   -0.001
   -0.005
   -0.004
   -0.002
   -0.001
   -0.003
   -0.007
   -0.010
   -0.010
   -0.006
   -0.001
    0.001
   -0.003
   -0.007
   -0.006
   -0.003
   -0.001
   -0.002
   -0.004
   -0.003
    0.001
    0.003
   -0.003
   -0.011
   -0.012
   -0.003
    0.008
    0.009
    0.001
   -0.008
   -0.006
    0.004
    0.013
    0.013
    0.002
   -0.008
   -0.010
   -0.004
    0.003
    0.003
   -0.002
   -0.007
   -0.006
    0.002
    0.013
    0.016
    0.009
   -0.004
   -0.010
   -0.005
    0.004
    0.007
    0.002
   -0.007
   -0.009
   -0.004
    0.006
    0.012
    0.008
   -0.003
   -0.012
   -0.013
   -0.007
    0.000
    0.002
   -0.003
   -0.009
   -0.012
   -0.008
    0.001
    0.006
    0.001
   -0.009
   -0.012
   -0.005
    0.005
    0.009
    0.002
   -0.008
   -0.013
   -0.009
   -0.001
    0.002
   -0.006
   -0.020
   -0.031
   -0.039
   -0.052
   -0.085
   -0.143
   -0.205
   -0.226
   -0.148
    0.056
    0.338
    0.567
    0.583
    0.312
   -0.148
   -0.550
   -0.651
   -0.380
    0.104
    0.519
    0.659
    0.507
    0.191
   -0.147
   -0.424
   -0.604
   -0.640
   -0.491
   -0.160
    0.281
    0.716
    0.980
    0.883
    0.318
   -0.545
   -1.240
   -1.294
   -0.617
    0.388
    1.145
    1.313
    0.938
    0.277
   -0.415
   -0.949
   -1.153
   -0.887
   -0.184
    0.642
    1.098
    0.829
   -0.073
   -1.063
   -1.494
   -1.064
   -0.028
    0.987
    1.424
    1.136
    0.399
   -0.347
   -0.791
   -0.831
   -0.504
    0.038
    0.523
    0.660
    0.392
   -0.012
   -0.216
   -0.153
   -0.031
   -0.036
   -0.112
   -0.078
    0.103
    0.223
    0.048
   -0.373
   -0.659
   -0.458
    0.179
    0.797
    0.931
    0.516
   -0.072
   -0.384
   -0.329
   -0.238
   -0.455
   -0.840
   -0.818
   -0.041
    1.063
    1.591
    1.062
   -0.074
   -0.885
   -0.826
   -0.141
    0.473
    0.513
    0.027
   -0.542
   -0.815
   -0.782
   -0.625
   -0.349
    0.239
    1.118
    1.779
    1.600
    0.505
   -0.859
   -1.647
   -1.508
   -0.785
   -0.129
    0.078
   -0.024
   -0.009
    0.372
    0.934
    1.255
    1.118
    0.715
    0.377
    0.171
   -0.145
   -0.749
   -1.427
   -1.694
   -1.240
   -0.257
    0.670
    1.003
    0.649
   -0.023
   -0.512
   -0.523
   -0.090
    0.496
    0.875
    0.888
    0.651
    0.332
   -0.117
   -0.812
   -1.492
   -1.503
   -0.489
    0.999
    1.831
    1.344
   -0.020
   -1.131
   -1.170
   -0.245
    0.815
    1.198
    0.720
   -0.146
   -0.801
   -1.048
   -1.085
   -1.059
   -0.776
    0.041
    1.243
    2.161
    2.102
    0.970
   -0.586
   -1.640
   -1.649
   -0.808
    0.164
    0.624
    0.486
    0.159
    0.043
    0.145
    0.176
   -0.066
   -0.473
   -0.739
   -0.640
   -0.196
    0.389
    0.900
    1.189
    1.135
    0.644
   -0.243
   -1.256
   -1.937
   -1.827
   -0.766
    0.849
    2.147
    2.306
    1.182
   -0.543
   -1.884
   -2.218
   -1.525
   -0.190
    1.258
    2.242
    2.238
    1.117
   -0.615
   -2.055
   -2.473
   -1.714
   -0.170
    1.453
    2.396
    2.190
    0.952
   -0.634
   -1.737
   -1.920
   -1.335
   -0.465
    0.324
    0.970
    1.483
    1.645
    1.109
   -0.152
   -1.561
   -2.225
   -1.622
   -0.069
    1.448
    1.987
    1.315
    0.004
   -1.034
   -1.201
   -0.622
    0.032
    0.221
    0.027
   -0.057
    0.255
    0.756
    0.990
    0.623
   -0.310
   -1.330
   -1.722
   -1.083
    0.232
    1.307
    1.418
    0.651
   -0.207
   -0.381
    0.203
    0.868
    0.829
   -0.090
   -1.308
   -2.013
   -1.815
   -0.928
    0.136
    0.934
    1.293
    1.287
    1.097
    0.830
    0.406
   -0.289
   -1.087
   -1.511
   -1.184
   -0.248
    0.695
    1.100
    0.939
    0.594
    0.368
    0.182
   -0.196
   -0.742
   -1.117
   -1.014
   -0.487
    0.138
    0.581
    0.772
    0.753
    0.551
    0.181
   -0.287
   -0.711
   -0.907
   -0.741
   -0.259
    0.266
    0.524
    0.414
    0.116
   -0.079
    0.018
    0.359
    0.690
    0.731
    0.377
   -0.218
   -0.692
   -0.732
   -0.369
   -0.012
   -0.065
   -0.455
   -0.652
   -0.271
    0.431
    0.812
    0.575
    0.084
   -0.084
    0.196
    0.504
    0.405
   -0.091
   -0.572
   -0.652
   -0.325
    0.063
    0.163
   -0.059
   -0.283
   -0.142
    0.391
    0.878
    0.800
    0.131
   -0.578
   -0.770
   -0.447
   -0.104
   -0.152
   -0.492
   -0.657
   -0.332
    0.299
    0.729
    0.658
    0.308
    0.137
    0.289
    0.412
    0.064
   -0.711
   -1.294
   -1.041
    0.080
    1.358
    1.907
    1.410
    0.332
   -0.565
   -0.909
   -0.941
   -1.034
   -1.083
   -0.562
    0.685
    1.863
    1.802
    0.229
   -1.777
   -2.752
   -2.148
   -0.601
    0.861
    1.675
    1.881
    1.720
    1.252
    0.424
   -0.598
   -1.305
   -1.153
   -0.105
    1.136
    1.526
    0.497
   -1.464
   -3.048
   -3.079
   -1.420
    0.934
    2.695
    3.194
    2.551
    1.239
   -0.316
   -1.694
   -2.383
   -2.051
   -0.919
    0.319
    1.003
    0.938
    0.387
   -0.188
   -0.347
    0.078
    0.770
    1.096
    0.683
   -0.170
   -0.765
   -0.739
   -0.382
   -0.186
   -0.223
   -0.141
    0.232
    0.489
    0.057
   -0.995
   -1.737
   -1.209
    0.510
    2.190
    2.551
    1.470
    0.035
   -0.634
   -0.477
   -0.326
   -0.758
   -1.356
   -1.232
   -0.182
    0.918
    0.979
   -0.101
   -1.192
   -1.030
    0.467
    2.071
    2.453
    1.472
    0.146
   -0.563
   -0.682
   -0.901
   -1.538
   -2.067
   -1.720
   -0.370
    1.311
    2.427
    2.480
    1.488
   -0.178
   -1.911
   -2.981
   -2.871
   -1.630
    0.109
    1.551
    2.226
    2.119
    1.489
    0.662
   -0.065
   -0.481
   -0.541
   -0.351
   -0.072
    0.120
    0.059
   -0.252
   -0.522
   -0.355
    0.266
    0.780
    0.531
   -0.549
   -1.801
   -2.339
   -1.748
   -0.356
    1.083
    1.925
    1.953
    1.381
    0.689
    0.332
    0.412
    0.595
    0.452
   -0.083
   -0.660
   -0.935
   -0.878
   -0.673
   -0.481
   -0.320
   -0.156
   -0.077
   -0.283
   -0.836
   -1.411
   -1.377
   -0.290
    1.586
    3.272
    3.719
    2.622
    0.644
   -1.199
   -2.370
   -2.976
   -3.158
   -2.610
   -0.938
    1.555
    3.639
    3.969
    2.229
   -0.547
   -2.718
   -3.164
   -1.977
   -0.285
    0.703
    0.702
    0.471
    0.836
    1.665
    1.983
    1.167
   -0.170
   -0.705
    0.163
    1.583
    2.113
    1.208
   -0.326
   -1.246
   -1.084
   -0.509
   -0.603
   -1.839
   -3.723
   -5.351
   -6.228
   -6.358
   -5.716
   -3.957
   -0.775
    3.542
    8.017
   11.440
   12.871
   11.867
    8.482
    3.295
   -2.565
   -7.583
  -10.193
   -9.238
   -4.723
    1.568
    6.556
    7.743
    5.077
    0.772
   -2.890
   -5.372
   -7.369
   -8.895
   -8.626
   -5.467
   -0.440
    3.592
    4.421
    2.645
    1.107
    2.046
    4.822
    6.554
    5.110
    1.401
   -1.446
   -1.305
    0.734
    1.605
   -0.340
   -3.428
   -4.367
   -1.749
    2.323
    4.059
    1.430
   -3.887
   -7.814
   -7.319
   -2.926
    2.000
    4.469
    4.379
    3.810
    4.173
    4.573
    3.085
   -0.752
   -4.993
   -6.842
   -5.091
   -1.045
    2.736
    4.474
    4.201
    3.122
    2.192
    1.344
   -0.055
   -2.208
   -4.437
   -5.678
   -5.369
   -3.885
   -2.189
   -1.071
   -0.594
   -0.131
    1.042
    3.017
    5.018
    5.914
    5.108
    3.065
    0.937
   -0.428
   -1.066
   -1.491
   -1.864
   -1.786
   -0.945
    0.246
    0.912
    0.599
   -0.287
   -0.948
   -0.999
   -0.735
   -0.669
   -0.950
   -1.227
   -1.017
   -0.185
    0.929
    1.741
    1.824
    1.163
    0.081
   -1.016
   -1.750
   -1.760
   -0.811
    0.872
    2.427
    2.808
    1.651
   -0.267
   -1.616
   -1.679
   -0.922
   -0.433
   -0.813
   -1.647
   -2.020
   -1.462
   -0.344
    0.542
    0.782
    0.712
    0.960
    1.683
    2.351
    2.315
    1.471
    0.293
   -0.619
   -0.931
   -0.716
   -0.370
   -0.368
   -0.886
   -1.560
   -1.687
   -0.853
    0.621
    1.889
    2.293
    1.850
    1.051
    0.252
   -0.556
   -1.428
   -2.148
   -2.368
   -1.971
   -1.153
   -0.163
    0.822
    1.543
    1.621
    0.916
   -0.112
   -0.624
   -0.074
    1.298
    2.645
    3.116
    2.366
    0.715
   -1.106
   -2.411
   -2.939
   -2.914
   -2.690
   -2.330
   -1.611
   -0.441
    0.825
    1.674
    1.977
    2.030
    2.078
    1.966
    1.370
    0.248
   -1.005
   -1.834
   -1.919
   -1.362
   -0.525
    0.243
    0.755
    0.941
    0.773
    0.273
   -0.447
   -1.204
   -1.749
   -1.754
   -1.003
    0.264
    1.384
    1.839
    1.738
    1.574
    1.546
    1.300
    0.427
   -0.917
   -1.972
   -1.993
   -0.928
    0.476
    1.266
    1.043
    0.218
   -0.428
   -0.453
   -0.173
   -0.340
   -1.272
   -2.308
   -2.325
   -0.934
    0.986
    2.068
    1.686
    0.422
   -0.560
   -0.536
    0.308
    1.229
    1.588
    1.291
    0.785
    0.650
    1.005
    1.307
    0.887
   -0.268
   -1.351
   -1.561
   -1.042
   -0.727
   -1.274
   -2.357
   -3.024
   -2.666
   -1.471
   -0.030
    1.151
    1.810
    1.886
    1.469
    0.791
    0.182
   -0.056
    0.130
    0.465
    0.584
    0.402
    0.263
    0.674
    1.673
    2.528
    2.273
    0.665
   -1.456
   -2.868
   -2.989
   -2.141
   -1.025
   -0.115
    0.507
    0.907
    1.006
    0.605
   -0.283
   -1.218
   -1.541
   -0.859
    0.529
    1.709
    1.826
    0.845
   -0.337
   -0.681
    0.015
    0.920
    0.981
   -0.010
   -1.208
   -1.551
   -0.705
    0.673
    1.475
    1.003
   -0.489
   -1.881
   -1.990
   -0.646
    1.027
    1.583
    0.604
   -0.934
   -1.688
   -1.196
   -0.039
    0.944
    1.400
    1.480
    1.352
    0.950
    0.215
   -0.597
   -1.026
   -0.858
   -0.320
    0.191
    0.426
    0.327
   -0.035
   -0.518
   -0.972
   -1.274
   -1.287
   -0.824
    0.154
    1.285
    1.955
    1.802
    0.961
   -0.109
   -0.926
   -1.198
   -0.901
   -0.268
    0.358
    0.715
    0.741
    0.565
    0.418
    0.434
    0.463
    0.154
   -0.645
   -1.619
   -2.139
   -1.711
   -0.377
    1.235
    2.313
    2.357
    1.409
   -0.057
   -1.419
   -2.151
   -1.949
   -0.827
    0.826
    2.257
    2.554
    1.228
   -1.115
   -2.821
   -2.418
   -0.084
    2.226
    2.439
    0.363
   -2.050
   -2.565
   -0.766
    1.704
    2.769
    1.663
   -0.665
   -2.488
   -2.591
   -1.051
    0.957
    2.178
    2.139
    1.178
   -0.112
   -1.273
   -1.956
   -1.869
   -0.942
    0.475
    1.651
    1.873
    0.961
   -0.481
   -1.417
   -1.219
   -0.218
    0.601
    0.521
   -0.234
   -0.787
   -0.559
    0.189
    0.780
    0.949
    1.042
    1.409
    1.814
    1.627
    0.578
   -0.833
   -1.737
   -1.723
   -1.191
   -0.830
   -0.885
   -1.018
   -0.781
   -0.122
    0.544
    0.756
    0.490
    0.211
    0.372
    0.835
    0.928
    0.230
   -0.826
   -1.319
   -0.796
    0.293
    1.053
    0.931
    0.141
   -0.597
   -0.679
   -0.136
    0.389
    0.274
   -0.430
   -1.008
   -0.746
    0.366
    1.575
    2.040
    1.521
    0.420
   -0.713
   -1.594
   -2.111
   -2.060
   -1.248
    0.136
    1.442
    2.011
    1.675
    0.820
    0.074
   -0.139
    0.128
    0.409
    0.234
   -0.455
   -1.250
   -1.630
   -1.378
   -0.687
    0.051
    0.525
    0.627
    0.396
   -0.069
   -0.529
   -0.578
    0.030
    0.971
    1.479
    1.096
    0.202
   -0.354
   -0.115
    0.524
    0.712
   -0.019
   -1.298
   -2.243
   -2.203
   -1.235
    0.058
    1.029
    1.351
    1.123
    0.770
    0.711
    0.956
    1.046
    0.543
   -0.433
   -1.222
   -1.271
   -0.692
   -0.090
    0.107
   -0.037
   -0.239
   -0.341
   -0.315
   -0.097
    0.330
    0.741
    0.845
    0.638
    0.395
    0.318
    0.314
    0.202
   -0.015
   -0.222
   -0.349
   -0.389
   -0.372
   -0.370
   -0.489
   -0.745
   -0.963
   -0.885
   -0.442
    0.124
    0.475
    0.541
    0.548
    0.656
    0.681
    0.278
   -0.554
   -1.254
   -1.093
    0.084
    1.503
    2.031
    1.221
   -0.216
   -1.096
   -0.930
   -0.290
   -0.016
   -0.242
   -0.298
    0.377
    1.406
    1.767
    0.902
   -0.631
   -1.696
   -1.677
   -0.954
   -0.402
   -0.486
   -0.835
   -0.672
    0.342
    1.672
    2.333
    1.777
    0.391
   -0.847
   -1.182
   -0.640
    0.130
    0.478
    0.244
   -0.230
   -0.508
   -0.454
   -0.270
   -0.217
   -0.333
   -0.439
   -0.350
   -0.010
    0.475
    0.872
