Origin Time       16/4/2013 10:44:11	
Lat.              28.0 N	
Long.             62.1 E	
Depth (Km)         46.0
Magnitude         7.8
 Region           Iran-Pakistan-Border-Region                                      
 Above details taken from IMD 
    
Station Code       JAFR
Station Lat.       28.594  N
Station Long.      76.908  E
Station Height(m)  162.0
Site Class        C   Vs30 between 200 m/sec to 375 m/sec *  
Record Time        4/16/2013 6) 10:48:51.
Sampling Rate     200. Hz
 Record Duration  221.000 Sec.
 Direction         N-S (N positive)
Max. Acceleration   2.327 cm/sec**2
     
  * For reference see Site Classification link of website 
     
 Base Line Corrected and Low Pass Filtered (Cut Off at 35 Hz) Time History
 Acceleration data in cm/sec**2
    
[...]
   -0.633
   -0.675
   -0.735
   -0.808
   -0.878
   -0.933
   -0.963
   -0.972
   -0.971
   -0.972
   -0.977
   -0.979
   -0.974
   -0.967
   -0.968
   -0.986
   -1.019
   -1.057
   -1.088
   -1.104
   -1.101
   -1.081
   -1.046
   -1.002
   -0.951
   -0.895
   -0.835
   -0.768
   -0.690
   -0.600
   -0.501
   -0.402
   -0.308
   -0.224
   -0.150
   -0.089
   -0.044
   -0.016
   -0.010
   -0.024
   -0.053
   -0.089
   -0.122
   -0.150
   -0.171
   -0.187
   -0.199
   -0.205
   -0.199
   -0.180
   -0.149
   -0.109
   -0.065
   -0.016
    0.034
    0.085
    0.134
    0.179
    0.219
    0.254
    0.278
    0.291
    0.295
    0.301
    0.316
    0.340
    0.362
    0.369
    0.350
    0.308
    0.251
    0.190
    0.134
    0.085
    0.047
    0.024
    0.014
    0.019
    0.034
    0.057
    0.085
    0.114
    0.137
    0.151
    0.154
    0.148
    0.140
    0.132
    0.126
    0.122
    0.119
    0.116
    0.114
    0.118
    0.130
    0.155
    0.198
    0.256
    0.326
    0.406
    0.493
    0.586
    0.679
    0.761
    0.827
    0.875
    0.913
    0.953
    1.005
    1.072
    1.147
    1.215
    1.265
    1.297
    1.319
    1.343
    1.373
    1.405
    1.433
    1.450
    1.455
    1.449
    1.437
    1.425
    1.414
    1.404
    1.391
    1.375
    1.358
    1.345
    1.341
    1.345
    1.349
    1.346
    1.335
    1.318
    1.299
    1.278
    1.251
    1.219
    1.179
    1.132
    1.080
    1.026
    0.977
    0.939
    0.913
    0.897
    0.881
    0.857
    0.819
    0.765
    0.698
    0.623
    0.547
    0.475
    0.412
    0.357
    0.309
    0.266
    0.228
    0.194
    0.165
    0.140
    0.117
    0.099
    0.086
    0.076
    0.067
    0.055
    0.039
    0.014
   -0.022
   -0.071
   -0.129
   -0.193
   -0.253
   -0.300
   -0.330
   -0.342
   -0.337
   -0.318
   -0.286
   -0.249
   -0.213
   -0.186
   -0.169
   -0.157
   -0.140
   -0.114
   -0.080
   -0.045
   -0.012
    0.022
    0.061
    0.104
    0.144
    0.171
    0.180
    0.171
    0.147
    0.112
    0.067
    0.022
   -0.014
   -0.034
   -0.044
   -0.052
   -0.070
   -0.101
   -0.140
   -0.179
   -0.217
   -0.256
   -0.305
   -0.368
   -0.444
   -0.530
   -0.619
   -0.706
   -0.792
   -0.877
   -0.962
   -1.043
   -1.116
   -1.175
   -1.217
   -1.243
   -1.255
   -1.259
   -1.261
   -1.263
   -1.266
   -1.267
   -1.265
   -1.260
   -1.254
   -1.250
   -1.250
   -1.253
   -1.253
   -1.243
   -1.218
   -1.183
   -1.144
   -1.111
   -1.092
   -1.085
   -1.083
   -1.078
   -1.067
   -1.054
   -1.044
   -1.042
   -1.048
   -1.064
   -1.088
   -1.116
   -1.140
   -1.153
   -1.150
   -1.129
   -1.096
   -1.051
   -0.995
   -0.927
   -0.847
   -0.759
   -0.674
   -0.597
   -0.530
   -0.469
   -0.406
   -0.336
   -0.255
   -0.163
   -0.057
    0.061
    0.187
    0.307
    0.406
    0.477
    0.525
    0.561
    0.592
    0.622
    0.648
    0.667
    0.678
    0.680
    0.677
    0.667
    0.652
    0.632
    0.610
    0.589
    0.570
    0.554
    0.539
    0.530
    0.536
    0.561
    0.602
    0.647
    0.680
    0.693
    0.685
    0.664
    0.636
    0.606
    0.576
    0.543
    0.506
    0.467
    0.430
    0.398
    0.374
    0.354
    0.335
    0.314
    0.289
    0.262
    0.232
    0.202
    0.171
    0.142
    0.113
    0.084
    0.053
    0.020
   -0.014
   -0.045
   -0.071
   -0.088
   -0.091
   -0.076
   -0.045
    0.001
    0.056
    0.114
    0.170
    0.217
    0.252
    0.276
    0.293
    0.312
    0.340
    0.380
    0.431
    0.485
    0.534
    0.573
    0.599
    0.612
    0.613
    0.602
    0.577
    0.537
    0.483
    0.428
    0.385
    0.366
    0.367
    0.371
    0.368
    0.361
    0.370
    0.413
    0.496
    0.603
    0.713
    0.810
    0.892
    0.963
    1.026
    1.072
    1.093
    1.083
    1.043
    0.981
    0.906
    0.826
    0.739
    0.639
    0.524
    0.398
    0.273
    0.163
    0.075
    0.014
   -0.018
   -0.023
   -0.008
    0.019
    0.052
    0.092
    0.145
    0.215
    0.296
    0.372
    0.425
    0.442
    0.423
    0.380
    0.325
    0.266
    0.200
    0.119
    0.017
   -0.109
   -0.251
   -0.396
   -0.531
   -0.646
   -0.737
   -0.805
   -0.851
   -0.876
   -0.875
   -0.846
   -0.794
   -0.731
   -0.673
   -0.627
   -0.596
   -0.575
   -0.561
   -0.551
   -0.546
   -0.540
   -0.528
   -0.503
   -0.461
   -0.402
   -0.333
   -0.264
   -0.203
   -0.154
   -0.119
   -0.095
   -0.079
   -0.063
   -0.042
   -0.008
    0.039
    0.095
    0.152
    0.209
    0.265
    0.323
    0.384
    0.443
    0.492
    0.524
    0.540
    0.541
    0.530
    0.506
    0.462
    0.399
    0.323
    0.245
    0.176
    0.118
    0.068
    0.023
   -0.020
   -0.061
   -0.093
   -0.108
   -0.103
   -0.080
   -0.043
   -0.004
    0.032
    0.060
    0.085
    0.114
    0.151
    0.199
    0.252
    0.301
    0.342
    0.370
    0.388
    0.396
    0.393
    0.380
    0.355
    0.318
    0.265
    0.191
    0.099
   -0.005
   -0.110
   -0.206
   -0.295
   -0.377
   -0.449
   -0.507
   -0.541
   -0.545
   -0.520
   -0.476
   -0.429
   -0.395
   -0.379
   -0.377
   -0.386
   -0.408
   -0.448
   -0.509
   -0.585
   -0.658
   -0.714
   -0.749
   -0.769
   -0.778
   -0.777
   -0.760
   -0.728
   -0.685
   -0.638
   -0.590
   -0.543
   -0.494
   -0.442
   -0.384
   -0.317
   -0.240
   -0.157
   -0.077
   -0.013
    0.019
    0.016
   -0.017
   -0.068
   -0.125
   -0.183
   -0.240
   -0.296
   -0.350
   -0.405
   -0.462
   -0.525
   -0.591
   -0.656
   -0.710
   -0.750
   -0.772
   -0.780
   -0.774
   -0.755
   -0.723
   -0.681
   -0.635
   -0.590
   -0.548
   -0.511
   -0.480
   -0.456
   -0.445
   -0.449
   -0.470
   -0.501
   -0.538
   -0.577
   -0.615
   -0.651
   -0.679
   -0.690
   -0.676
   -0.638
   -0.582
   -0.520
   -0.466
   -0.431
   -0.418
   -0.423
   -0.441
   -0.468
   -0.508
   -0.565
   -0.638
   -0.719
   -0.796
   -0.859
   -0.900
   -0.916
   -0.905
   -0.869
   -0.815
   -0.752
   -0.689
   -0.626
   -0.553
   -0.460
   -0.341
   -0.204
   -0.064
    0.060
    0.163
    0.243
    0.309
    0.370
    0.433
    0.497
    0.553
    0.588
    0.592
    0.568
    0.524
    0.472
    0.417
    0.360
    0.292
    0.207
    0.101
   -0.022
   -0.150
   -0.262
   -0.338
   -0.365
   -0.345
   -0.288
   -0.206
   -0.103
    0.017
    0.148
    0.281
    0.403
    0.502
    0.569
    0.600
    0.598
    0.571
    0.524
    0.459
    0.379
    0.287
    0.189
    0.096
    0.012
   -0.062
   -0.126
   -0.176
   -0.205
   -0.210
   -0.196
   -0.176
   -0.160
   -0.154
   -0.155
   -0.157
   -0.159
   -0.164
   -0.183
   -0.227
   -0.305
   -0.414
   -0.542
   -0.673
   -0.788
   -0.871
   -0.917
   -0.927
   -0.906
   -0.857
   -0.787
   -0.699
   -0.598
   -0.484
   -0.357
   -0.217
   -0.064
    0.095
    0.256
    0.413
    0.564
    0.704
    0.828
    0.931
    1.008
    1.054
    1.064
    1.039
    0.985
    0.909
    0.822
    0.733
    0.652
    0.587
    0.544
    0.530
    0.546
    0.585
    0.635
    0.680
    0.710
    0.726
    0.740
    0.760
    0.787
    0.812
    0.823
    0.816
    0.797
    0.778
    0.768
    0.771
    0.787
    0.814
    0.846
    0.879
    0.907
    0.928
    0.944
    0.962
    0.991
    1.031
    1.080
    1.127
    1.164
    1.186
    1.192
    1.179
    1.147
    1.098
    1.037
    0.967
    0.893
    0.820
    0.757
    0.711
    0.684
    0.676
    0.678
    0.682
    0.676
    0.651
    0.602
    0.527
    0.430
    0.317
    0.194
    0.066
   -0.066
   -0.203
   -0.335
   -0.451
   -0.543
   -0.605
   -0.640
   -0.654
   -0.652
   -0.634
   -0.599
   -0.546
   -0.472
   -0.377
   -0.262
   -0.129
    0.013
    0.153
    0.277
    0.377
    0.446
    0.483
    0.489
    0.469
    0.430
    0.376
    0.312
    0.241
    0.166
    0.089
    0.012
   -0.058
   -0.110
   -0.141
   -0.152
   -0.158
   -0.170
   -0.196
   -0.237
   -0.291
   -0.354
   -0.418
   -0.474
   -0.515
   -0.536
   -0.542
   -0.537
   -0.526
   -0.508
   -0.482
   -0.448
   -0.410
   -0.370
   -0.328
   -0.277
   -0.211
   -0.132
   -0.050
    0.023
    0.079
    0.116
    0.129
    0.117
    0.083
    0.039
    0.000
   -0.026
   -0.041
   -0.053
   -0.064
   -0.067
   -0.049
   -0.004
    0.063
    0.136
    0.197
    0.236
    0.248
    0.231
    0.189
    0.128
    0.054
   -0.027
   -0.119
   -0.226
   -0.351
   -0.491
   -0.638
   -0.785
   -0.928
   -1.061
   -1.183
   -1.290
   -1.379
   -1.448
   -1.492
   -1.508
   -1.496
   -1.466
   -1.433
   -1.409
   -1.399
   -1.393
   -1.380
   -1.352
   -1.307
   -1.251
   -1.187
   -1.117
   -1.038
   -0.951
   -0.856
   -0.760
   -0.666
   -0.584
   -0.517
   -0.465
   -0.425
   -0.392
   -0.364
   -0.344
   -0.332
   -0.322
   -0.303
   -0.268
   -0.210
   -0.128
   -0.020
    0.111
    0.263
    0.430
    0.609
    0.798
    0.990
    1.171
    1.327
    1.445
    1.524
    1.567
    1.582
    1.575
    1.551
    1.516
    1.479
    1.451
    1.445
    1.468
    1.523
    1.605
    1.704
    1.808
    1.908
    1.993
    2.058
    2.093
    2.092
    2.047
    1.954
    1.814
    1.634
    1.428
    1.217
    1.022
    0.856
    0.719
    0.601
    0.489
    0.375
    0.265
    0.171
    0.103
    0.064
    0.044
    0.030
    0.012
   -0.014
   -0.046
   -0.078
   -0.099
   -0.096
   -0.061
    0.008
    0.103
    0.211
    0.321
    0.420
    0.495
    0.535
    0.539
    0.516
    0.476
    0.429
    0.382
    0.335
    0.286
    0.233
    0.171
    0.099
    0.015
   -0.081
   -0.191
   -0.318
   -0.467
   -0.633
   -0.805
   -0.970
   -1.114
   -1.231
   -1.320
   -1.385
   -1.429
   -1.449
   -1.440
   -1.396
   -1.318
   -1.211
   -1.087
   -0.953
   -0.818
   -0.687
   -0.575
   -0.492
   -0.451
   -0.458
   -0.512
   -0.611
   -0.745
   -0.902
   -1.068
   -1.231
   -1.385
   -1.529
   -1.660
   -1.774
   -1.868
   -1.935
   -1.973
   -1.979
   -1.954
   -1.895
   -1.800
   -1.672
   -1.521
   -1.357
   -1.195
   -1.044
   -0.909
   -0.789
   -0.678
   -0.568
   -0.454
   -0.335
   -0.218
   -0.111
   -0.025
    0.039
    0.087
    0.135
    0.200
    0.288
    0.393
    0.499
    0.591
    0.667
    0.735
    0.807
    0.891
    0.983
    1.071
    1.145
    1.201
    1.239
    1.262
    1.269
    1.259
    1.230
    1.188
    1.142
    1.098
    1.058
    1.018
    0.969
    0.910
    0.848
    0.794
    0.756
    0.735
    0.729
    0.730
    0.734
    0.736
    0.735
    0.736
    0.746
    0.767
    0.800
    0.833
    0.858
    0.866
    0.858
    0.838
    0.817
    0.803
    0.806
    0.828
    0.867
    0.912
    0.952
    0.982
    0.997
    0.996
    0.971
    0.915
    0.827
    0.705
    0.558
    0.395
    0.229
    0.076
   -0.057
   -0.163
   -0.242
   -0.293
   -0.318
   -0.317
   -0.293
   -0.253
   -0.210
   -0.176
   -0.153
   -0.140
   -0.130
   -0.121
   -0.118
   -0.128
   -0.156
   -0.200
   -0.253
   -0.308
   -0.367
   -0.435
   -0.524
   -0.640
   -0.781
   -0.938
   -1.103
   -1.268
   -1.428
   -1.578
   -1.711
   -1.823
   -1.912
   -1.977
   -2.012
   -2.018
   -2.001
   -1.969
   -1.927
   -1.870
   -1.792
   -1.691
   -1.572
   -1.444
   -1.314
   -1.183
   -1.046
   -0.898
   -0.738
   -0.578
   -0.431
   -0.314
   -0.227
   -0.157
   -0.086
    0.002
    0.108
    0.226
    0.349
    0.472
    0.587
    0.681
    0.743
    0.768
    0.761
    0.725
    0.660
    0.561
    0.427
    0.263
    0.084
   -0.097
   -0.266
   -0.420
   -0.561
   -0.690
   -0.805
   -0.896
   -0.954
   -0.975
   -0.963
   -0.926
   -0.877
   -0.824
   -0.776
   -0.740
   -0.721
   -0.719
   -0.725
   -0.728
   -0.720
   -0.700
   -0.671
   -0.634
   -0.588
   -0.530
   -0.455
   -0.363
   -0.257
   -0.143
   -0.023
    0.100
    0.221
    0.329
    0.413
    0.464
    0.485
    0.479
    0.449
    0.393
    0.310
    0.200
    0.072
   -0.060
   -0.179
   -0.271
   -0.325
   -0.334
   -0.294
   -0.208
   -0.080
    0.082
    0.270
    0.474
    0.679
    0.869
    1.028
    1.146
    1.223
    1.267
    1.295
    1.323
    1.357
    1.395
    1.428
    1.452
    1.466
    1.476
    1.487
    1.501
    1.519
    1.539
    1.560
    1.579
    1.596
    1.610
    1.616
    1.604
    1.558
    1.471
    1.348
    1.206
    1.068
    0.945
    0.832
    0.715
    0.580
    0.422
    0.250
    0.080
   -0.073
   -0.205
   -0.319
   -0.424
   -0.522
   -0.610
   -0.684
   -0.740
   -0.780
   -0.808
   -0.830
   -0.852
   -0.885
   -0.936
   -1.002
   -1.075
   -1.138
   -1.179
   -1.195
   -1.186
   -1.152
   -1.088
   -0.983
   -0.833
   -0.643
   -0.424
   -0.195
    0.032
    0.246
    0.441
    0.612
    0.757
    0.869
    0.946
    0.983
    0.979
    0.931
    0.840
    0.716
    0.574
    0.435
    0.314
    0.216
    0.141
    0.079
    0.026
   -0.023
   -0.069
   -0.117
   -0.169
   -0.225
   -0.284
   -0.340
   -0.390
   -0.429
   -0.451
   -0.449
   -0.419
   -0.367
   -0.303
   -0.246
   -0.214
   -0.218
   -0.261
   -0.335
   -0.427
   -0.519
   -0.599
   -0.659
   -0.702
   -0.728
   -0.741
   -0.737
   -0.717
   -0.686
   -0.654
   -0.634
   -0.634
   -0.651
   -0.679
   -0.708
   -0.733
   -0.751
   -0.762
   -0.767
   -0.766
   -0.755
   -0.723
   -0.663
   -0.572
   -0.458
   -0.338
   -0.225
   -0.123
   -0.026
    0.079
    0.198
    0.327
    0.450
    0.552
    0.624
    0.671
    0.705
    0.739
    0.780
    0.832
    0.899
    0.983
    1.088
    1.218
    1.374
    1.549
    1.729
    1.896
    2.036
    2.141
    2.215
    2.267
    2.305
    2.327
    2.323
    2.282
    2.200
    2.081
    1.937
    1.780
    1.622
    1.472
    1.336
    1.219
    1.118
    1.030
    0.950
    0.872
    0.796
    0.717
    0.629
    0.526
    0.403
    0.263
    0.122
   -0.004
   -0.101
   -0.172
   -0.231
   -0.297
   -0.379
   -0.480
   -0.593
   -0.709
   -0.819
   -0.918
   -0.999
   -1.057
   -1.087
   -1.088
   -1.065
   -1.028
   -0.989
   -0.956
   -0.935
   -0.925
   -0.926
   -0.933
   -0.939
   -0.935
   -0.915
   -0.874
   -0.809
   -0.720
   -0.611
   -0.493
   -0.379
   -0.282
   -0.211
   -0.164
   -0.136
   -0.117
   -0.106
   -0.104
   -0.118
   -0.152
   -0.205
   -0.266
   -0.322
   -0.361
   -0.372
   -0.353
   -0.305
   -0.235
   -0.153
   -0.072
   -0.001
    0.055
    0.089
    0.096
    0.074
    0.022
   -0.054
   -0.143
   -0.238
   -0.333
   -0.425
   -0.515
   -0.601
   -0.677
   -0.735
   -0.765
   -0.764
   -0.732
   -0.680
   -0.616
   -0.545
   -0.472
   -0.396
   -0.323
   -0.257
   -0.203
   -0.163
   -0.133
   -0.103
   -0.064
   -0.017
    0.027
    0.055
    0.055
    0.027
   -0.019
   -0.065
   -0.103
   -0.134
   -0.170
   -0.229
   -0.323
   -0.453
   -0.609
   -0.773
   -0.930
   -1.074
   -1.208
   -1.334
   -1.450
   -1.546
   -1.613
   -1.642
   -1.637
   -1.608
   -1.569
   -1.532
   -1.505
   -1.488
   -1.476
   -1.458
   -1.420
   -1.350
   -1.240
   -1.091
   -0.909
   -0.708
   -0.504
   -0.314
   -0.151
   -0.023
    0.068
    0.127
    0.164
    0.190
    0.219
    0.259
    0.313
    0.376
    0.443
    0.503
    0.551
    0.580
    0.590
    0.584
    0.572
    0.568
    0.582
    0.616
    0.666
    0.725
    0.784
    0.833
    0.864
    0.872
    0.857
    0.824
    0.783
    0.745
    0.721
    0.721
    0.748
    0.804
    0.879
    0.959
    1.032
    1.087
    1.119
    1.131
    1.128
    1.118
    1.103
    1.083
    1.051
    1.005
    0.941
    0.861
    0.766
    0.664
    0.565
    0.482
    0.420
    0.374
    0.332
    0.283
    0.220
    0.142
    0.046
   -0.071
   -0.210
   -0.366
   -0.525
   -0.668
   -0.788
   -0.882
   -0.958
   -1.023
   -1.085
   -1.147
   -1.204
   -1.241
   -1.241
   -1.194
   -1.103
   -0.985
   -0.858
   -0.732
   -0.612
   -0.500
   -0.400
   -0.320
   -0.264
   -0.227
   -0.200
   -0.168
   -0.120
   -0.049
    0.044
    0.150
    0.255
    0.349
    0.424
    0.481
    0.527
    0.566
    0.596
    0.611
    0.605
    0.584
    0.561
    0.552
    0.564
    0.596
    0.637
    0.673
    0.694
    0.701
    0.703
    0.719
    0.759
    0.820
    0.888
    0.946
    0.983
    1.000
    0.998
    0.976
    0.929
    0.859
    0.778
    0.701
    0.634
    0.578
    0.525
    0.467
    0.400
    0.323
    0.235
    0.137
    0.033
   -0.066
   -0.151
   -0.207
   -0.227
   -0.207
   -0.147
   -0.055
    0.059
    0.187
    0.324
    0.465
    0.602
    0.721
    0.810
    0.859
    0.868
    0.838
    0.772
    0.674
    0.556
    0.435
    0.329
    0.253
    0.211
    0.194
    0.186
    0.171
    0.140
    0.092
    0.039
   -0.005
   -0.031
   -0.031
   -0.007
    0.041
    0.111
    0.201
    0.305
    0.416
    0.524
    0.621
    0.700
    0.763
    0.816
    0.871
    0.932
    0.996
    1.050
    1.079
    1.073
    1.033
    0.967
    0.893
    0.828
    0.788
    0.780
    0.806
    0.863
    0.944
    1.045
    1.161
    1.284
    1.404
    1.507
    1.581
    1.614
    1.607
    1.566
    1.502
    1.418
    1.314
    1.182
    1.024
    0.849
    0.677
    0.521
    0.386
    0.265
    0.146
    0.027
   -0.095
   -0.222
   -0.359
   -0.514
   -0.692
   -0.888
   -1.089
   -1.272
   -1.415
   -1.506
   -1.548
   -1.551
   -1.536
   -1.520
   -1.512
   -1.509
   -1.506
   -1.493
   -1.464
   -1.423
   -1.373
   -1.318
   -1.256
   -1.184
   -1.102
   -1.018
   -0.943
   -0.891
   -0.868
   -0.877
   -0.911
   -0.961
   -1.012
   -1.046
   -1.051
   -1.025
   -0.983
   -0.949
   -0.943
   -0.971
   -1.021
   -1.077
   -1.125
   -1.165
   -1.199
   -1.221
   -1.220
   -1.188
   -1.127
   -1.055
   -0.989
   -0.933
   -0.881
   -0.821
   -0.748
   -0.665
   -0.579
   -0.490
   -0.395
   -0.299
   -0.215
   -0.156
   -0.128
   -0.119
   -0.115
   -0.106
   -0.096
   -0.092
   -0.089
   -0.070
   -0.019
    0.061
    0.147
    0.208
    0.230
    0.224
    0.214
    0.216
    0.230
    0.240
    0.231
    0.203
    0.168
    0.139
    0.121
    0.110
    0.096
    0.075
    0.050
    0.021
   -0.013
   -0.058
   -0.120
   -0.202
   -0.303
   -0.416
   -0.535
   -0.654
   -0.770
   -0.883
   -0.988
   -1.081
   -1.162
   -1.233
   -1.296
   -1.348
   -1.374
   -1.355
   -1.279
   -1.148
   -0.975
   -0.777
   -0.565
   -0.352
   -0.147
    0.036
    0.180
    0.275
    0.315
    0.305
    0.251
    0.160
    0.040
   -0.097
   -0.235
   -0.355
   -0.440
   -0.483
   -0.483
   -0.450
   -0.396
   -0.335
   -0.276
   -0.224
   -0.179
   -0.138
   -0.101
   -0.070
   -0.053
   -0.054
   -0.072
   -0.100
   -0.126
   -0.145
   -0.155
   -0.152
   -0.134
   -0.096
   -0.031
    0.063
    0.184
    0.320
    0.455
    0.574
    0.668
    0.736
    0.781
    0.803
    0.803
    0.782
    0.744
    0.692
    0.631
    0.565
    0.500
    0.442
    0.393
    0.355
    0.327
    0.305
    0.281
    0.250
    0.215
    0.187
    0.177
    0.189
    0.215
    0.240
    0.252
    0.245
    0.225
    0.202
    0.185
    0.176
    0.171
    0.155
    0.113
    0.035
   -0.075
   -0.201
   -0.327
   -0.440
   -0.535
   -0.612
   -0.670
   -0.706
   -0.712
   -0.682
   -0.613
   -0.510
   -0.384
   -0.247
   -0.114
   -0.001
    0.081
    0.130
    0.153
    0.164
    0.175
    0.188
    0.203
    0.216
    0.229
    0.246
    0.268
    0.297
    0.335
    0.388
    0.465
    0.571
    0.695
    0.820
    0.931
    1.025
