Origin Time       04/04/2011 11:31:40 UTC
Lat.              29.6 N	
Long.             80.8 E	
Depth (Km)         10.0
Magnitude         5.7
 Region           NEPAL-INDIA-BORDER-REGION                                        
 Above details taken from IMD 
    
Station Code      JSH
Station Lat.       30.546  N
Station Long.      79.555  E
Station Height(m) 1919.0
Site Class        A   Vs30 between 700 m/sec to 1400 m/sec * 
Record Time       04.04.2011 11:31:55.504 UTC
Sampling Rate     200. Hz
 Record Duration   97.205 Sec.
 Direction         N-S (N positive)
Max. Acceleration     10.275 cm/sec**2
     
  * For reference see Site Classification link of website 
     
 Base Line Corrected and Low Pass Filtered (Cut Off at 35 Hz) Time History
 Acceleration data in cm/sec**2
    
[...]
       1.098
       1.319
       1.559
       1.797
       2.007
       2.168
       2.270
       2.314
       2.302
       2.239
       2.127
       1.972
       1.795
       1.624
       1.492
       1.421
       1.413
       1.445
       1.478
       1.472
       1.397
       1.247
       1.037
       0.794
       0.547
       0.319
       0.120
      -0.051
      -0.205
      -0.350
      -0.488
      -0.608
      -0.696
      -0.744
      -0.754
      -0.735
      -0.700
      -0.666
      -0.656
      -0.692
      -0.783
      -0.921
      -1.078
      -1.221
      -1.329
      -1.394
      -1.422
      -1.425
      -1.411
      -1.388
      -1.357
      -1.311
      -1.242
      -1.140
      -1.009
      -0.865
      -0.729
      -0.623
      -0.555
      -0.526
      -0.532
      -0.562
      -0.601
      -0.632
      -0.639
      -0.617
      -0.569
      -0.506
      -0.431
      -0.340
      -0.224
      -0.083
       0.078
       0.249
       0.422
       0.591
       0.745
       0.872
       0.964
       1.016
       1.034
       1.025
       0.991
       0.930
       0.842
       0.728
       0.594
       0.449
       0.300
       0.158
       0.038
      -0.046
      -0.079
      -0.055
       0.026
       0.156
       0.319
       0.494
       0.661
       0.804
       0.914
       0.990
       1.033
       1.045
       1.036
       1.014
       0.988
       0.965
       0.949
       0.947
       0.975
       1.052
       1.184
       1.360
       1.552
       1.731
       1.873
       1.972
       2.032
       2.061
       2.064
       2.041
       1.985
       1.894
       1.763
       1.588
       1.366
       1.103
       0.816
       0.533
       0.281
       0.074
      -0.089
      -0.217
      -0.315
      -0.388
      -0.437
      -0.464
      -0.482
      -0.506
      -0.553
      -0.642
      -0.788
      -1.000
      -1.281
      -1.622
      -2.003
      -2.398
      -2.776
      -3.110
      -3.376
      -3.559
      -3.653
      -3.659
      -3.587
      -3.450
      -3.256
      -3.007
      -2.703
      -2.352
      -1.971
      -1.586
      -1.226
      -0.913
      -0.657
      -0.458
      -0.310
      -0.206
      -0.138
      -0.095
      -0.062
      -0.025
       0.026
       0.096
       0.184
       0.285
       0.391
       0.489
       0.564
       0.605
       0.611
       0.582
       0.519
       0.422
       0.283
       0.096
      -0.137
      -0.402
      -0.673
      -0.921
      -1.126
      -1.283
      -1.396
      -1.467
      -1.485
      -1.434
      -1.296
      -1.069
      -0.765
      -0.404
      -0.003
       0.430
       0.893
       1.377
       1.861
       2.321
       2.734
       3.082
       3.358
       3.560
       3.694
       3.777
       3.831
       3.877
       3.924
       3.971
       4.014
       4.054
       4.090
       4.123
       4.146
       4.145
       4.104
       4.008
       3.847
       3.621
       3.339
       3.019
       2.681
       2.343
       2.015
       1.700
       1.394
       1.089
       0.785
       0.487
       0.201
      -0.067
      -0.313
      -0.536
      -0.733
      -0.909
      -1.069
      -1.218
      -1.352
      -1.463
      -1.540
      -1.585
      -1.610
      -1.635
      -1.677
      -1.748
      -1.848
      -1.967
      -2.086
      -2.183
      -2.239
      -2.243
      -2.188
      -2.077
      -1.919
      -1.730
      -1.529
      -1.331
      -1.148
      -0.986
      -0.847
      -0.736
      -0.661
      -0.633
      -0.661
      -0.756
      -0.919
      -1.138
      -1.392
      -1.657
      -1.907
      -2.124
      -2.296
      -2.412
      -2.469
      -2.464
      -2.405
      -2.300
      -2.160
      -1.997
      -1.824
      -1.655
      -1.500
      -1.361
      -1.236
      -1.122
      -1.018
      -0.931
      -0.863
      -0.810
      -0.757
      -0.687
      -0.591
      -0.470
      -0.326
      -0.161
       0.031
       0.259
       0.520
       0.800
       1.072
       1.303
       1.471
       1.564
       1.579
       1.519
       1.387
       1.189
       0.933
       0.633
       0.302
      -0.048
      -0.405
      -0.762
      -1.118
      -1.474
      -1.833
      -2.195
      -2.553
      -2.896
      -3.202
      -3.456
      -3.650
      -3.788
      -3.880
      -3.927
      -3.920
      -3.842
      -3.679
      -3.430
      -3.107
      -2.729
      -2.315
      -1.879
      -1.433
      -0.982
      -0.530
      -0.083
       0.347
       0.740
       1.078
       1.349
       1.549
       1.684
       1.762
       1.789
       1.769
       1.710
       1.623
       1.526
       1.433
       1.358
       1.316
       1.323
       1.391
       1.528
       1.730
       1.987
       2.290
       2.637
       3.026
       3.453
       3.908
       4.370
       4.817
       5.231
       5.609
       5.957
       6.280
       6.577
       6.831
       7.020
       7.125
       7.136
       7.049
       6.867
       6.589
       6.210
       5.718
       5.099
       4.353
       3.506
       2.606
       1.713
       0.879
       0.140
      -0.490
      -1.009
      -1.424
      -1.745
      -1.984
      -2.147
      -2.237
      -2.257
      -2.223
      -2.163
      -2.119
      -2.130
      -2.218
      -2.382
      -2.603
      -2.850
      -3.087
      -3.287
      -3.428
      -3.497
      -3.485
      -3.387
      -3.202
      -2.932
      -2.593
      -2.211
      -1.823
      -1.467
      -1.182
      -0.997
      -0.927
      -0.969
      -1.108
      -1.324
      -1.607
      -1.946
      -2.326
      -2.722
      -3.101
      -3.428
      -3.678
      -3.841
      -3.924
      -3.947
      -3.931
      -3.890
      -3.829
      -3.751
      -3.660
      -3.558
      -3.450
      -3.342
      -3.244
      -3.171
      -3.130
      -3.123
      -3.149
      -3.203
      -3.281
      -3.382
      -3.497
      -3.614
      -3.717
      -3.794
      -3.833
      -3.822
      -3.747
      -3.592
      -3.341
      -2.990
      -2.547
      -2.028
      -1.454
      -0.845
      -0.220
       0.401
       1.002
       1.571
       2.100
       2.583
       3.014
       3.388
       3.702
       3.955
       4.146
       4.271
       4.327
       4.320
       4.265
       4.184
       4.101
       4.037
       4.011
       4.040
       4.144
       4.336
       4.619
       4.978
       5.386
       5.807
       6.204
       6.545
       6.803
       6.952
       6.970
       6.840
       6.553
       6.113
       5.549
       4.904
       4.235
       3.586
       2.988
       2.455
       1.985
       1.573
       1.207
       0.873
       0.563
       0.271
      -0.008
      -0.273
      -0.525
      -0.765
      -0.991
      -1.196
      -1.367
      -1.488
      -1.546
      -1.543
      -1.494
      -1.425
      -1.359
      -1.319
      -1.328
      -1.408
      -1.581
      -1.857
      -2.230
      -2.684
      -3.195
      -3.739
      -4.298
      -4.852
      -5.376
      -5.842
      -6.219
      -6.480
      -6.595
      -6.541
      -6.298
      -5.859
      -5.236
      -4.458
      -3.566
      -2.597
      -1.585
      -0.560
       0.450
       1.418
       2.319
       3.143
       3.885
       4.540
       5.100
       5.551
       5.881
       6.082
       6.163
       6.145
       6.061
       5.935
       5.775
       5.569
       5.293
       4.931
       4.483
       3.966
       3.410
       2.838
       2.255
       1.647
       0.993
       0.279
      -0.492
      -1.307
      -2.143
      -2.978
      -3.791
      -4.566
      -5.296
      -5.973
      -6.580
      -7.094
      -7.489
      -7.752
      -7.890
      -7.929
      -7.892
      -7.794
      -7.634
      -7.407
      -7.115
      -6.777
      -6.421
      -6.072
      -5.737
      -5.411
      -5.073
      -4.698
      -4.262
      -3.754
      -3.177
      -2.542
      -1.864
      -1.158
      -0.432
       0.305
       1.049
       1.801
       2.562
       3.333
       4.108
       4.878
       5.628
       6.340
       6.995
       7.573
       8.061
       8.453
       8.746
       8.930
       8.978
       8.850
       8.509
       7.943
       7.164
       6.206
       5.107
       3.903
       2.629
       1.329
       0.052
      -1.147
      -2.221
      -3.132
      -3.849
      -4.345
      -4.600
      -4.605
      -4.378
      -3.963
      -3.417
      -2.794
      -2.129
      -1.443
      -0.747
      -0.053
       0.633
       1.299
       1.931
       2.512
       3.020
       3.439
       3.765
       4.003
       4.163
       4.251
       4.260
       4.171
       3.962
       3.628
       3.189
       2.679
       2.136
       1.598
       1.104
       0.693
       0.391
       0.203
       0.109
       0.081
       0.102
       0.168
       0.277
       0.416
       0.556
       0.658
       0.695
       0.657
       0.548
       0.376
       0.143
      -0.148
      -0.489
      -0.859
      -1.231
      -1.576
      -1.871
      -2.096
      -2.240
      -2.304
      -2.299
      -2.247
      -2.167
      -2.062
      -1.921
      -1.733
      -1.496
      -1.223
      -0.927
      -0.614
      -0.275
       0.099
       0.510
       0.945
       1.375
       1.765
       2.082
       2.301
       2.406
       2.398
       2.290
       2.105
       1.862
       1.579
       1.265
       0.929
       0.585
       0.257
      -0.027
      -0.244
      -0.387
      -0.465
      -0.504
      -0.534
      -0.582
      -0.670
      -0.811
      -1.009
      -1.259
      -1.549
      -1.864
      -2.193
      -2.524
      -2.844
      -3.129
      -3.341
      -3.442
      -3.400
      -3.204
      -2.858
      -2.376
      -1.781
      -1.098
      -0.366
       0.369
       1.060
       1.669
       2.168
       2.533
       2.739
       2.759
       2.571
       2.165
       1.555
       0.780
      -0.108
      -1.047
      -1.980
      -2.860
      -3.653
      -4.345
      -4.940
      -5.454
      -5.908
      -6.325
      -6.716
      -7.080
      -7.397
      -7.644
      -7.804
      -7.876
      -7.865
      -7.772
      -7.587
      -7.292
      -6.873
      -6.323
      -5.654
      -4.885
      -4.043
      -3.149
      -2.212
      -1.231
      -0.216
       0.807
       1.796
       2.709
       3.526
       4.241
       4.859
       5.371
       5.759
       6.007
       6.121
       6.139
       6.111
       6.072
       6.025
       5.948
       5.820
       5.627
       5.365
       5.032
       4.629
       4.170
       3.675
       3.165
       2.664
       2.197
       1.792
       1.485
       1.297
       1.231
       1.268
       1.370
       1.497
       1.611
       1.676
       1.666
       1.567
       1.389
       1.167
       0.950
       0.780
       0.676
       0.634
       0.635
       0.659
       0.690
       0.727
       0.766
       0.803
       0.820
       0.791
       0.687
       0.481
       0.155
      -0.298
      -0.875
      -1.556
      -2.306
      -3.074
      -3.811
      -4.467
      -5.002
      -5.376
      -5.542
      -5.455
      -5.088
      -4.450
      -3.586
      -2.553
      -1.404
      -0.184
       1.062
       2.266
       3.345
       4.207
       4.784
       5.047
       5.011
       4.715
       4.211
       3.552
       2.797
       2.015
       1.263
       0.576
      -0.044
      -0.604
      -1.101
      -1.517
      -1.833
      -2.039
      -2.143
      -2.162
      -2.104
      -1.965
      -1.743
      -1.452
      -1.137
      -0.868
      -0.706
      -0.664
      -0.697
      -0.728
      -0.700
      -0.607
      -0.490
      -0.407
      -0.392
      -0.431
      -0.461
      -0.394
      -0.166
       0.235
       0.767
       1.363
       1.964
       2.539
       3.073
       3.548
       3.946
       4.252
       4.472
       4.622
       4.716
       4.746
       4.695
       4.549
       4.311
       4.007
       3.663
       3.293
       2.890
       2.446
       1.966
       1.476
       1.008
       0.584
       0.199
      -0.169
      -0.545
      -0.934
      -1.321
      -1.679
      -1.981
      -2.215
      -2.385
      -2.503
      -2.579
      -2.619
      -2.623
      -2.587
      -2.506
      -2.381
      -2.220
      -2.036
      -1.841
      -1.650
      -1.474
      -1.325
      -1.206
      -1.117
      -1.052
      -1.008
      -0.977
      -0.955
      -0.939
      -0.924
      -0.911
      -0.901
      -0.904
      -0.932
      -0.995
      -1.101
      -1.248
      -1.431
      -1.634
      -1.837
      -2.021
      -2.168
      -2.268
      -2.322
      -2.343
      -2.347
      -2.355
      -2.378
      -2.422
      -2.488
      -2.576
      -2.691
      -2.845
      -3.049
      -3.308
      -3.608
      -3.921
      -4.210
      -4.438
      -4.579
      -4.622
      -4.561
      -4.401
      -4.154
      -3.842
      -3.498
      -3.161
      -2.870
      -2.650
      -2.510
      -2.442
      -2.418
      -2.410
      -2.392
      -2.348
      -2.265
      -2.121
      -1.889
      -1.542
      -1.070
      -0.484
       0.187
       0.908
       1.646
       2.370
       3.052
       3.672
       4.217
       4.681
       5.067
       5.371
       5.587
       5.715
       5.763
       5.755
       5.728
       5.719
       5.762
       5.888
       6.124
       6.486
       6.971
       7.550
       8.175
       8.787
       9.332
       9.773
      10.086
      10.257
      10.275
      10.130
       9.821
       9.354
       8.744
       8.017
       7.203
       6.332
       5.436
       4.545
       3.688
       2.892
       2.180
       1.565
       1.050
       0.628
       0.290
       0.028
      -0.157
      -0.269
      -0.318
      -0.328
      -0.335
      -0.377
      -0.486
      -0.682
      -0.970
      -1.338
      -1.766
      -2.230
      -2.712
      -3.196
      -3.669
      -4.112
      -4.511
      -4.856
      -5.150
      -5.400
      -5.617
      -5.811
      -5.993
      -6.178
      -6.382
      -6.616
      -6.885
      -7.179
      -7.467
      -7.706
      -7.855
      -7.885
      -7.791
      -7.577
      -7.255
      -6.828
      -6.300
      -5.678
      -4.976
      -4.217
      -3.430
      -2.645
      -1.893
      -1.203
      -0.595
      -0.072
       0.379
       0.778
       1.140
       1.465
       1.741
       1.956
       2.109
       2.205
       2.258
       2.276
       2.264
       2.216
       2.121
       1.963
       1.729
       1.413
       1.023
       0.586
       0.139
      -0.282
      -0.650
      -0.956
      -1.206
      -1.413
      -1.592
      -1.755
      -1.907
      -2.044
      -2.158
      -2.247
      -2.316
      -2.386
      -2.478
      -2.606
      -2.763
      -2.928
      -3.073
      -3.175
      -3.223
      -3.214
      -3.149
      -3.026
      -2.841
      -2.597
      -2.304
      -1.987
      -1.676
      -1.403
      -1.187
      -1.034
      -0.932
      -0.856
      -0.781
      -0.687
      -0.563
      -0.402
      -0.198
       0.055
       0.362
       0.728
       1.154
       1.638
       2.171
       2.736
       3.307
       3.856
       4.359
       4.794
       5.146
       5.405
       5.569
       5.635
       5.604
       5.475
       5.255
       4.970
       4.660
       4.372
       4.142
       3.976
       3.867
       3.799
       3.767
       3.768
       3.796
       3.836
       3.863
       3.853
       3.784
       3.638
       3.408
       3.097
       2.713
       2.272
       1.791
       1.293
       0.806
       0.356
      -0.042
      -0.385
      -0.680
      -0.935
      -1.152
      -1.325
      -1.451
      -1.540
      -1.616
      -1.704
      -1.815
      -1.944
      -2.072
      -2.182
      -2.271
      -2.344
      -2.413
      -2.493
      -2.593
      -2.724
      -2.890
      -3.088
      -3.301
      -3.503
      -3.671
      -3.799
      -3.890
      -3.959
      -4.010
      -4.037
      -4.014
      -3.907
      -3.683
      -3.326
      -2.841
      -2.255
      -1.603
      -0.922
      -0.240
       0.417
       1.020
       1.539
       1.941
       2.203
       2.314
       2.275
       2.096
       1.796
       1.402
       0.950
       0.481
       0.037
      -0.349
      -0.656
      -0.873
      -1.000
      -1.044
      -1.020
      -0.945
      -0.834
      -0.703
      -0.561
      -0.412
      -0.254
      -0.075
       0.140
       0.409
       0.745
       1.150
       1.615
       2.128
       2.670
       3.218
       3.743
       4.214
       4.602
       4.890
       5.067
       5.134
       5.098
       4.978
       4.792
       4.554
       4.268
       3.931
       3.538
       3.089
       2.594
       2.072
       1.541
       1.008
       0.476
      -0.054
      -0.567
      -1.039
      -1.440
      -1.752
      -1.967
      -2.089
      -2.131
      -2.115
      -2.064
      -1.993
      -1.905
      -1.792
      -1.638
      -1.432
      -1.175
      -0.877
      -0.556
      -0.225
       0.107
       0.443
       0.780
       1.108
       1.402
       1.633
       1.780
       1.834
       1.800
       1.686
       1.502
       1.256
       0.960
       0.630
       0.282
      -0.066
      -0.407
      -0.738
      -1.058
      -1.364
      -1.652
      -1.915
      -2.148
      -2.343
      -2.489
      -2.568
      -2.566
      -2.482
      -2.327
      -2.127
      -1.912
      -1.703
      -1.507
      -1.314
      -1.108
      -0.881
      -0.640
      -0.410
      -0.223
      -0.101
      -0.048
      -0.046
      -0.069
      -0.098
      -0.131
      -0.173
      -0.224
      -0.274
      -0.309
      -0.328
      -0.341
      -0.370
      -0.428
      -0.515
      -0.620
      -0.722
      -0.801
      -0.844
      -0.846
      -0.805
      -0.721
      -0.590
      -0.412
      -0.188
       0.068
       0.338
       0.602
       0.847
       1.070
       1.270
       1.445
       1.585
       1.686
       1.753
       1.801
       1.844
       1.885
       1.907
       1.892
       1.830
       1.732
       1.618
       1.510
       1.416
       1.331
       1.239
       1.124
       0.977
       0.799
       0.606
       0.408
       0.201
      -0.041
      -0.354
      -0.767
      -1.282
      -1.875
      -2.511
      -3.162
      -3.812
      -4.451
      -5.062
      -5.621
      -6.098
      -6.469
      -6.718
      -6.826
      -6.773
      -6.546
      -6.148
      -5.605
      -4.958
      -4.252
      -3.532
      -2.835
      -2.189
      -1.607
      -1.096
      -0.656
      -0.288
       0.008
       0.237
       0.413
       0.561
       0.710
       0.891
       1.121
       1.407
       1.738
       2.093
       2.448
       2.778
       3.068
       3.313
       3.515
       3.676
       3.797
       3.873
       3.903
       3.892
       3.852
       3.795
       3.730
       3.667
       3.613
       3.575
       3.553
       3.541
       3.530
       3.505
       3.455
       3.369
       3.242
       3.077
       2.880
       2.661
       2.429
       2.191
       1.962
       1.759
       1.608
       1.532
       1.547
       1.655
       1.838
       2.068
       2.309
       2.530
       2.703
       2.804
       2.817
