Origin Time       04/09/2008 12:53:21
Lat.              30.1°N 
Long.             80.4°E 
Depth (Km)         10.0
Magnitude         5.1
 Region           INDIA(UTTARAKHAND)-TIBET-BORDER-REGION                           
 Above details taken from IMD 
   
Station Code      JSH
Station Lat.       30.546
Station Long.      79.555
Station Height(m) 1919.0
Site Class        A   Vs30 between 700 m/sec to 1400 m/sec * 
Record Time       04.09.2008 12:53:18.134
Sampling Rate     200. Hz
 Record Duration   68.510 Sec.
 Direction         Vert. (Up positive)
Max. Acceleration     -4.852 cm/sec**2
     
  * For reference see Site Classification link of website 
     
 Base Line Corrected and Low Pass Filtered (Cut Off at 35 Hz) Time History
 Acceleration data in cm/sec**2
    
[...]
       0.135
       0.294
       0.432
       0.554
       0.654
       0.725
       0.766
       0.778
       0.757
       0.698
       0.599
       0.461
       0.295
       0.115
      -0.059
      -0.205
      -0.305
      -0.345
      -0.327
      -0.272
      -0.225
      -0.234
      -0.332
      -0.520
      -0.746
      -0.922
      -0.967
      -0.868
      -0.692
      -0.542
      -0.491
      -0.531
      -0.596
      -0.605
      -0.511
      -0.313
      -0.055
       0.184
       0.320
       0.316
       0.208
       0.086
       0.029
       0.069
       0.177
       0.305
       0.408
       0.459
       0.448
       0.377
       0.256
       0.112
      -0.024
      -0.128
      -0.197
      -0.243
      -0.282
      -0.323
      -0.359
      -0.364
      -0.309
      -0.184
      -0.010
       0.164
       0.296
       0.379
       0.433
       0.475
       0.488
       0.424
       0.255
       0.024
      -0.171
      -0.236
      -0.155
       0.008
       0.153
       0.197
       0.111
      -0.071
      -0.260
      -0.353
      -0.301
      -0.151
      -0.016
       0.012
      -0.070
      -0.168
      -0.161
       0.014
       0.317
       0.621
       0.775
       0.703
       0.457
       0.200
       0.110
       0.268
       0.595
       0.895
       0.976
       0.773
       0.390
       0.029
      -0.131
      -0.047
       0.181
       0.378
       0.399
       0.211
      -0.102
      -0.399
      -0.577
      -0.631
      -0.634
      -0.656
      -0.708
      -0.739
      -0.694
      -0.560
      -0.379
      -0.230
      -0.195
      -0.309
      -0.517
      -0.688
      -0.688
      -0.483
      -0.177
       0.049
       0.062
      -0.121
      -0.343
      -0.407
      -0.212
       0.179
       0.573
       0.771
       0.692
       0.421
       0.162
       0.109
       0.325
       0.699
       1.015
       1.080
       0.845
       0.436
       0.074
      -0.056
       0.078
       0.346
       0.541
       0.514
       0.253
      -0.118
      -0.421
      -0.530
      -0.434
      -0.232
      -0.055
       0.009
      -0.050
      -0.181
      -0.322
      -0.416
      -0.420
      -0.318
      -0.142
       0.025
       0.088
       0.007
      -0.175
      -0.349
      -0.408
      -0.305
      -0.084
       0.148
       0.279
       0.257
       0.115
      -0.048
      -0.131
      -0.083
       0.063
       0.208
       0.246
       0.126
      -0.111
      -0.360
      -0.513
      -0.516
      -0.394
      -0.227
      -0.099
      -0.048
      -0.055
      -0.078
      -0.091
      -0.093
      -0.086
      -0.058
       0.008
       0.114
       0.228
       0.298
       0.276
       0.148
      -0.048
      -0.226
      -0.285
      -0.165
       0.090
       0.350
       0.484
       0.450
       0.309
       0.162
       0.072
       0.039
       0.017
      -0.039
      -0.143
      -0.266
      -0.362
      -0.395
      -0.345
      -0.206
       0.003
       0.225
       0.373
       0.369
       0.198
      -0.074
      -0.331
      -0.479
      -0.488
      -0.392
      -0.252
      -0.117
      -0.013
       0.047
       0.058
       0.022
      -0.032
      -0.067
      -0.051
       0.016
       0.116
       0.224
       0.312
       0.358
       0.351
       0.292
       0.201
       0.099
       0.002
      -0.075
      -0.119
      -0.116
      -0.058
       0.040
       0.151
       0.237
       0.274
       0.252
       0.171
       0.033
      -0.145
      -0.329
      -0.477
      -0.566
      -0.601
      -0.595
      -0.554
      -0.474
      -0.356
      -0.232
      -0.160
      -0.184
      -0.293
      -0.409
      -0.429
      -0.304
      -0.083
       0.114
       0.179
       0.099
      -0.033
      -0.082
       0.037
       0.296
       0.580
       0.762
       0.784
       0.689
       0.582
       0.560
       0.656
       0.818
       0.940
       0.930
       0.768
       0.521
       0.288
       0.135
       0.070
       0.050
       0.027
      -0.042
      -0.179
      -0.372
      -0.557
      -0.642
      -0.567
      -0.364
      -0.144
      -0.019
      -0.023
      -0.109
      -0.201
      -0.248
      -0.217
      -0.089
       0.131
       0.382
       0.562
       0.598
       0.497
       0.340
       0.203
       0.108
       0.023
      -0.072
      -0.144
      -0.136
      -0.024
       0.151
       0.304
       0.355
       0.259
       0.039
      -0.218
      -0.391
      -0.399
      -0.251
      -0.041
       0.119
       0.167
       0.107
      -0.021
      -0.166
      -0.279
      -0.325
      -0.300
      -0.255
      -0.265
      -0.355
      -0.459
      -0.466
      -0.319
      -0.072
       0.134
       0.169
       0.001
      -0.280
      -0.515
      -0.567
      -0.396
      -0.072
       0.262
       0.469
       0.496
       0.404
       0.315
       0.330
       0.460
       0.635
       0.753
       0.743
       0.599
       0.379
       0.179
       0.080
       0.107
       0.211
       0.289
       0.235
       0.005
      -0.353
      -0.720
      -0.971
      -1.039
      -0.933
      -0.724
      -0.518
      -0.418
      -0.464
      -0.610
      -0.749
      -0.788
      -0.695
      -0.501
      -0.268
      -0.066
       0.051
       0.069
       0.028
      -0.004
       0.024
       0.101
       0.159
       0.141
       0.054
      -0.042
      -0.096
      -0.106
      -0.093
      -0.073
      -0.046
      -0.017
       0.010
       0.043
       0.103
       0.197
       0.301
       0.379
       0.407
       0.395
       0.379
       0.386
       0.408
       0.393
       0.294
       0.113
      -0.082
      -0.211
      -0.240
      -0.203
      -0.165
      -0.161
      -0.175
      -0.170
      -0.134
      -0.090
      -0.070
      -0.082
      -0.107
      -0.107
      -0.058
       0.032
       0.112
       0.117
       0.018
      -0.140
      -0.276
      -0.330
      -0.301
      -0.212
      -0.074
       0.111
       0.314
       0.478
       0.550
       0.522
       0.428
       0.313
       0.200
       0.095
      -0.003
      -0.084
      -0.144
      -0.189
      -0.227
      -0.260
      -0.279
      -0.274
      -0.231
      -0.142
      -0.007
       0.158
       0.309
       0.384
       0.342
       0.207
       0.062
      -0.002
       0.037
       0.121
       0.160
       0.091
      -0.076
      -0.283
      -0.459
      -0.563
      -0.582
      -0.517
      -0.359
      -0.107
       0.207
       0.501
       0.663
       0.621
       0.401
       0.132
      -0.030
       0.016
       0.254
       0.568
       0.803
       0.836
       0.626
       0.248
      -0.134
      -0.344
      -0.297
      -0.038
       0.291
       0.535
       0.596
       0.468
       0.233
       0.011
      -0.111
      -0.129
      -0.125
      -0.204
      -0.415
      -0.705
      -0.956
      -1.069
      -1.040
      -0.955
      -0.913
      -0.945
      -0.997
      -0.976
      -0.828
      -0.572
      -0.287
      -0.060
       0.064
       0.106
       0.150
       0.292
       0.574
       0.942
       1.282
       1.499
       1.571
       1.535
       1.427
       1.261
       1.048
       0.827
       0.652
       0.551
       0.482
       0.345
       0.048
      -0.424
      -0.982
      -1.490
      -1.844
      -2.027
      -2.101
      -2.145
      -2.182
      -2.165
      -2.028
      -1.735
      -1.299
      -0.760
      -0.163
       0.430
       0.951
       1.354
       1.643
       1.861
       2.051
       2.197
       2.224
       2.060
       1.716
       1.313
       1.007
       0.882
       0.881
       0.852
       0.650
       0.239
      -0.287
      -0.761
      -1.026
      -1.009
      -0.768
      -0.475
      -0.340
      -0.486
      -0.879
      -1.348
      -1.686
      -1.763
      -1.573
      -1.226
      -0.891
      -0.719
      -0.763
      -0.935
      -1.038
      -0.873
      -0.360
       0.391
       1.130
       1.602
       1.697
       1.503
       1.234
       1.106
       1.241
       1.614
       2.056
       2.319
       2.225
       1.804
       1.296
       0.996
       1.049
       1.361
       1.677
       1.734
       1.400
       0.724
      -0.105
      -0.848
      -1.327
      -1.515
      -1.533
      -1.569
      -1.748
      -2.055
      -2.356
      -2.491
      -2.370
      -2.018
      -1.562
      -1.171
      -0.978
      -0.996
      -1.106
      -1.125
      -0.936
      -0.562
      -0.140
       0.177
       0.308
       0.279
       0.199
       0.195
       0.344
       0.634
       0.977
       1.258
       1.388
       1.337
       1.162
       0.967
       0.846
       0.819
       0.837
       0.815
       0.678
       0.400
       0.025
      -0.342
      -0.583
      -0.655
      -0.622
      -0.600
      -0.666
      -0.824
      -1.031
      -1.228
      -1.334
      -1.250
      -0.908
      -0.333
       0.354
       0.991
       1.456
       1.689
       1.681
       1.458
       1.098
       0.715
       0.410
       0.211
       0.063
      -0.106
      -0.325
      -0.563
      -0.765
      -0.892
      -0.954
      -1.007
      -1.122
      -1.325
      -1.558
      -1.691
      -1.597
      -1.249
      -0.741
      -0.232
       0.157
       0.406
       0.567
       0.688
       0.749
       0.676
       0.405
      -0.043
      -0.532
      -0.876
      -0.935
      -0.684
      -0.218
       0.307
       0.734
       0.966
       1.009
       0.961
       0.929
       0.957
       1.006
       1.017
       0.955
       0.814
       0.589
       0.289
      -0.035
      -0.292
      -0.407
      -0.396
      -0.360
      -0.403
      -0.525
      -0.615
      -0.547
      -0.280
       0.130
       0.574
       0.938
       1.124
       1.081
       0.854
       0.593
       0.478
       0.596
       0.876
       1.128
       1.164
       0.895
       0.383
      -0.194
      -0.631
      -0.792
      -0.674
      -0.406
      -0.192
      -0.194
      -0.432
      -0.768
      -1.013
      -1.058
      -0.937
      -0.774
      -0.682
      -0.699
      -0.778
      -0.831
      -0.774
      -0.587
      -0.322
      -0.065
       0.123
       0.244
       0.322
       0.353
       0.280
       0.046
      -0.337
      -0.749
      -1.029
      -1.074
      -0.905
      -0.637
      -0.390
      -0.206
      -0.030
       0.246
       0.696
       1.283
       1.848
       2.194
       2.220
       2.010
       1.781
       1.733
       1.907
       2.151
       2.222
       1.940
       1.303
       0.486
      -0.263
      -0.750
      -0.922
      -0.865
      -0.740
      -0.702
      -0.830
      -1.101
      -1.410
      -1.630
      -1.677
      -1.547
      -1.311
      -1.074
      -0.921
      -0.875
      -0.893
      -0.889
      -0.793
      -0.594
      -0.346
      -0.135
      -0.040
      -0.082
      -0.194
      -0.245
      -0.097
       0.302
       0.883
       1.481
       1.901
       2.006
       1.787
       1.365
       0.931
       0.644
       0.555
       0.598
       0.640
       0.574
       0.374
       0.099
      -0.159
      -0.342
      -0.462
      -0.592
      -0.789
      -1.034
      -1.235
      -1.308
      -1.251
      -1.148
      -1.091
      -1.122
      -1.223
      -1.336
      -1.387
      -1.316
      -1.104
      -0.778
      -0.387
       0.045
       0.510
       0.980
       1.387
       1.632
       1.646
       1.438
       1.104
       0.772
       0.530
       0.395
       0.321
       0.251
       0.157
       0.043
      -0.070
      -0.184
      -0.337
      -0.585
      -0.944
      -1.347
      -1.643
      -1.684
      -1.413
      -0.909
      -0.340
       0.136
       0.451
       0.635
       0.762
       0.872
       0.949
       0.946
       0.832
       0.630
       0.414
       0.279
       0.316
       0.561
       0.959
       1.365
       1.602
       1.556
       1.230
       0.731
       0.205
      -0.217
      -0.467
      -0.535
      -0.470
      -0.360
      -0.304
      -0.372
      -0.561
      -0.805
      -1.009
      -1.113
      -1.136
      -1.153
      -1.225
      -1.334
      -1.388
      -1.286
      -0.984
      -0.513
       0.044
       0.594
       1.059
       1.395
       1.587
       1.659
       1.657
       1.612
       1.511
       1.320
       1.036
       0.716
       0.426
       0.186
      -0.036
      -0.263
      -0.478
      -0.648
      -0.755
      -0.805
      -0.813
      -0.804
      -0.819
      -0.891
      -1.021
      -1.163
      -1.261
      -1.293
      -1.279
      -1.251
      -1.220
      -1.164
      -1.053
      -0.879
      -0.654
      -0.402
      -0.146
       0.104
       0.368
       0.693
       1.107
       1.553
       1.876
       1.892
       1.506
       0.787
      -0.053
      -0.739
      -1.057
      -0.946
      -0.540
      -0.105
       0.085
      -0.093
      -0.550
      -1.040
      -1.313
      -1.247
      -0.892
      -0.409
       0.040
       0.360
       0.547
       0.657
       0.750
       0.841
       0.888
       0.824
       0.630
       0.377
       0.207
       0.265
       0.624
       1.251
       2.023
       2.772
       3.356
       3.691
       3.761
       3.597
       3.258
       2.803
       2.266
       1.643
       0.920
       0.115
      -0.704
      -1.460
      -2.124
      -2.732
      -3.334
      -3.923
      -4.429
      -4.764
      -4.852
      -4.637
      -4.077
      -3.207
      -2.176
      -1.196
      -0.421
       0.123
       0.499
       0.768
       0.963
       1.116
       1.270
       1.443
       1.583
       1.612
       1.500
       1.299
       1.085
       0.872
       0.614
       0.283
      -0.062
      -0.301
      -0.341
      -0.184
       0.086
       0.356
       0.533
       0.566
       0.456
       0.256
       0.059
      -0.058
      -0.103
      -0.183
      -0.414
      -0.820
      -1.292
      -1.653
      -1.756
      -1.557
      -1.136
      -0.657
      -0.289
      -0.116
      -0.092
      -0.072
       0.079
       0.388
       0.755
       1.028
       1.105
       1.003
       0.827
       0.699
       0.690
       0.799
       0.975
       1.136
       1.208
       1.142
       0.933
       0.617
       0.251
      -0.106
      -0.408
      -0.613
      -0.682
      -0.593
      -0.366
      -0.071
       0.212
       0.453
       0.696
       1.014
       1.444
       1.934
       2.352
       2.534
       2.356
       1.805
       1.005
       0.179
      -0.459
      -0.812
      -0.934
      -0.967
      -1.033
      -1.166
      -1.319
      -1.426
      -1.447
      -1.391
      -1.295
      -1.195
      -1.091
      -0.937
      -0.660
      -0.227
       0.295
       0.737
       0.909
       0.734
       0.316
      -0.116
      -0.367
      -0.395
      -0.311
      -0.273
      -0.373
      -0.596
      -0.871
      -1.128
      -1.320
      -1.401
      -1.340
      -1.138
      -0.832
      -0.476
      -0.119
       0.196
       0.430
       0.548
       0.546
       0.460
       0.361
       0.309
       0.317
       0.347
       0.348
       0.288
       0.162
      -0.011
      -0.183
      -0.279
      -0.220
       0.019
       0.374
       0.712
       0.895
       0.847
       0.577
       0.165
      -0.272
      -0.630
      -0.855
      -0.962
      -1.026
      -1.126
      -1.279
      -1.421
      -1.450
      -1.316
      -1.056
      -0.764
      -0.523
      -0.363
      -0.266
      -0.195
      -0.112
       0.013
       0.214
       0.506
       0.871
       1.260
       1.615
       1.896
       2.072
       2.118
       2.005
       1.729
       1.323
       0.851
       0.366
      -0.113
      -0.576
      -0.993
      -1.306
      -1.473
      -1.486
      -1.366
      -1.140
      -0.826
      -0.454
      -0.088
       0.184
       0.310
       0.319
       0.291
       0.298
       0.364
       0.480
       0.624
       0.767
       0.886
       0.981
       1.078
       1.189
       1.288
       1.316
       1.217
       0.981
       0.654
       0.318
       0.043
      -0.139
      -0.241
      -0.303
      -0.378
      -0.510
      -0.701
      -0.907
      -1.055
      -1.088
      -1.013
      -0.894
      -0.806
      -0.781
      -0.799
      -0.824
      -0.840
      -0.854
      -0.874
      -0.904
      -0.937
      -0.965
      -0.970
      -0.920
      -0.774
      -0.509
      -0.139
       0.273
       0.639
       0.886
       0.987
       0.981
       0.951
       0.971
       1.081
       1.278
       1.512
       1.706
       1.797
       1.796
       1.798
       1.893
       2.066
       2.183
       2.080
       1.686
       1.081
       0.445
      -0.045
      -0.305
      -0.364
      -0.326
      -0.316
      -0.422
      -0.655
      -0.934
      -1.126
      -1.131
      -0.941
      -0.642
      -0.356
      -0.185
      -0.178
      -0.337
      -0.623
      -0.972
      -1.309
      -1.567
      -1.709
      -1.737
      -1.684
      -1.586
      -1.468
      -1.349
      -1.253
      -1.198
      -1.159
      -1.051
      -0.775
      -0.298
       0.301
       0.862
       1.242
       1.409
       1.458
       1.532
       1.717
       1.977
       2.178
       2.163
       1.847
       1.282
       0.639
       0.123
      -0.143
      -0.166
      -0.059
       0.040
       0.033
      -0.103
      -0.311
      -0.490
      -0.563
      -0.535
      -0.503
      -0.579
      -0.799
      -1.091
      -1.320
      -1.378
      -1.250
      -1.008
      -0.759
      -0.593
      -0.557
      -0.647
      -0.814
      -0.980
      -1.072
      -1.051
      -0.919
      -0.707
      -0.461
      -0.222
      -0.016
       0.159
       0.322
       0.484
       0.643
       0.789
       0.915
       1.022
       1.106
       1.156
       1.150
       1.072
       0.926
       0.747
       0.592
       0.505
       0.481
       0.461
       0.378
       0.212
       0.009
      -0.154
      -0.214
      -0.152
       0.023
       0.290
       0.629
       1.008
       1.376
       1.662
       1.796
       1.728
       1.461
       1.054
       0.601
       0.189
      -0.144
      -0.418
      -0.684
      -0.981
      -1.290
      -1.530
      -1.596
      -1.430
      -1.071
      -0.654
      -0.343
      -0.238
      -0.317
      -0.458
      -0.521
      -0.449
      -0.291
      -0.151
      -0.103
      -0.146
      -0.225
      -0.284
      -0.310
      -0.332
      -0.396
      -0.522
      -0.686
      -0.820
      -0.850
      -0.732
      -0.473
      -0.139
       0.180
       0.404
       0.493
       0.453
       0.312
       0.108
      -0.124
      -0.343
      -0.509
      -0.603
      -0.643
      -0.672
      -0.721
      -0.791
      -0.853
      -0.882
      -0.869
      -0.810
      -0.699
      -0.529
      -0.296
      -0.008
       0.316
       0.641
       0.923
       1.124
       1.225
       1.233
       1.176
       1.091
       1.012
       0.961
       0.956
       1.023
       1.178
       1.392
       1.564
       1.561
       1.316
       0.897
       0.484
       0.258
       0.292
       0.518
       0.788
       0.964
       0.978
