Origin Time       04/04/2011 11:31:40
Lat.              29.6 N	
Long.             80.8 E	
Depth (Km)         10.0
Magnitude         5.7
 Region           NEPAL-INDIA-BORDER-REGION                                        
 Above details taken from IMD 
     
Station Code      JSH
Station Lat.       30.546  N
Station Long.      79.555  E
Station Height(m) 1919.0
Site Class        A   Vs30 between 700 m/sec to 1400 m/sec * 
Record Time       04.04.2011 11:31:55.504
Sampling Rate     200. Hz
 Record Duration   97.205 Sec.
 Direction         E-W (E positive)
Max. Acceleration     10.911 cm/sec**2
     
  * For reference see Site Classification link of website 
     
 Base Line Corrected and Low Pass Filtered (Cut Off at 35 Hz) Time History
 Acceleration data in cm/sec**2
    
[...]
      -0.779
      -0.902
      -0.993
      -1.058
      -1.107
      -1.147
      -1.184
      -1.214
      -1.230
      -1.220
      -1.175
      -1.095
      -0.988
      -0.866
      -0.741
      -0.617
      -0.499
      -0.388
      -0.286
      -0.192
      -0.103
      -0.016
       0.074
       0.172
       0.278
       0.383
       0.470
       0.526
       0.547
       0.542
       0.524
       0.503
       0.483
       0.459
       0.428
       0.389
       0.346
       0.301
       0.255
       0.203
       0.148
       0.096
       0.053
       0.021
      -0.002
      -0.023
      -0.045
      -0.067
      -0.088
      -0.102
      -0.102
      -0.082
      -0.041
       0.012
       0.060
       0.092
       0.102
       0.095
       0.074
       0.041
      -0.006
      -0.068
      -0.139
      -0.209
      -0.273
      -0.329
      -0.383
      -0.443
      -0.511
      -0.584
      -0.656
      -0.724
      -0.790
      -0.855
      -0.919
      -0.974
      -1.012
      -1.022
      -0.998
      -0.936
      -0.833
      -0.690
      -0.508
      -0.293
      -0.050
       0.209
       0.469
       0.713
       0.925
       1.104
       1.253
       1.380
       1.485
       1.561
       1.601
       1.602
       1.569
       1.507
       1.417
       1.296
       1.139
       0.951
       0.744
       0.533
       0.328
       0.131
      -0.062
      -0.247
      -0.411
      -0.535
      -0.602
      -0.608
      -0.557
      -0.463
      -0.334
      -0.178
      -0.004
       0.177
       0.346
       0.489
       0.600
       0.679
       0.734
       0.774
       0.805
       0.829
       0.843
       0.840
       0.813
       0.759
       0.681
       0.578
       0.449
       0.285
       0.083
      -0.155
      -0.418
      -0.690
      -0.955
      -1.202
      -1.423
      -1.610
      -1.754
      -1.849
      -1.892
      -1.891
      -1.860
      -1.809
      -1.735
      -1.628
      -1.480
      -1.292
      -1.077
      -0.848
      -0.617
      -0.393
      -0.179
       0.023
       0.208
       0.366
       0.488
       0.566
       0.608
       0.626
       0.636
       0.643
       0.647
       0.645
       0.633
       0.615
       0.592
       0.564
       0.527
       0.473
       0.402
       0.316
       0.219
       0.118
       0.016
      -0.081
      -0.162
      -0.216
      -0.238
      -0.232
      -0.213
      -0.198
      -0.204
      -0.238
      -0.298
      -0.374
      -0.447
      -0.499
      -0.524
      -0.527
      -0.527
      -0.540
      -0.575
      -0.631
      -0.696
      -0.759
      -0.808
      -0.839
      -0.850
      -0.840
      -0.809
      -0.757
      -0.689
      -0.614
      -0.540
      -0.466
      -0.388
      -0.302
      -0.205
      -0.103
      -0.002
       0.091
       0.175
       0.257
       0.343
       0.438
       0.535
       0.623
       0.695
       0.750
       0.787
       0.802
       0.787
       0.742
       0.678
       0.620
       0.589
       0.593
       0.623
       0.665
       0.705
       0.738
       0.759
       0.768
       0.764
       0.752
       0.737
       0.722
       0.707
       0.693
       0.683
       0.679
       0.680
       0.680
       0.672
       0.658
       0.644
       0.631
       0.609
       0.567
       0.499
       0.411
       0.321
       0.252
       0.224
       0.248
       0.323
       0.438
       0.581
       0.733
       0.875
       0.985
       1.047
       1.050
       0.995
       0.885
       0.729
       0.534
       0.309
       0.067
      -0.180
      -0.417
      -0.629
      -0.804
      -0.933
      -1.018
      -1.061
      -1.069
      -1.046
      -0.997
      -0.934
      -0.869
      -0.816
      -0.780
      -0.761
      -0.757
      -0.765
      -0.787
      -0.821
      -0.858
      -0.885
      -0.889
      -0.863
      -0.812
      -0.748
      -0.685
      -0.636
      -0.608
      -0.602
      -0.622
      -0.666
      -0.732
      -0.810
      -0.887
      -0.956
      -1.009
      -1.046
      -1.066
      -1.072
      -1.062
      -1.034
      -0.989
      -0.927
      -0.858
      -0.788
      -0.722
      -0.659
      -0.595
      -0.527
      -0.453
      -0.369
      -0.273
      -0.165
      -0.050
       0.059
       0.151
       0.220
       0.264
       0.286
       0.292
       0.295
       0.310
       0.350
       0.427
       0.544
       0.705
       0.905
       1.141
       1.403
       1.682
       1.965
       2.236
       2.479
       2.681
       2.833
       2.931
       2.974
       2.959
       2.885
       2.748
       2.551
       2.301
       2.011
       1.687
       1.330
       0.937
       0.509
       0.064
      -0.373
      -0.775
      -1.126
      -1.422
      -1.667
      -1.863
      -2.005
      -2.083
      -2.091
      -2.030
      -1.908
      -1.736
      -1.527
      -1.300
      -1.070
      -0.853
      -0.661
      -0.498
      -0.361
      -0.243
      -0.134
      -0.027
       0.076
       0.166
       0.228
       0.254
       0.253
       0.244
       0.242
       0.252
       0.263
       0.264
       0.249
       0.216
       0.168
       0.104
       0.023
      -0.076
      -0.189
      -0.314
      -0.445
      -0.571
      -0.683
      -0.776
      -0.853
      -0.917
      -0.969
      -1.004
      -1.012
      -0.992
      -0.949
      -0.899
      -0.848
      -0.794
      -0.724
      -0.626
      -0.495
      -0.342
      -0.176
      -0.005
       0.170
       0.357
       0.561
       0.782
       1.007
       1.219
       1.402
       1.544
       1.643
       1.705
       1.737
       1.740
       1.711
       1.648
       1.562
       1.471
       1.394
       1.340
       1.302
       1.264
       1.215
       1.156
       1.091
       1.032
       0.986
       0.954
       0.927
       0.894
       0.842
       0.762
       0.648
       0.501
       0.322
       0.117
      -0.107
      -0.340
      -0.575
      -0.805
      -1.033
      -1.260
      -1.486
      -1.703
      -1.896
      -2.049
      -2.150
      -2.195
      -2.190
      -2.139
      -2.040
      -1.881
      -1.653
      -1.356
      -1.011
      -0.653
      -0.316
      -0.020
       0.226
       0.422
       0.566
       0.657
       0.698
       0.694
       0.653
       0.579
       0.471
       0.333
       0.170
      -0.005
      -0.173
      -0.313
      -0.408
      -0.453
      -0.455
      -0.426
      -0.380
      -0.328
      -0.274
      -0.222
      -0.171
      -0.125
      -0.086
      -0.050
      -0.003
       0.070
       0.175
       0.316
       0.491
       0.699
       0.936
       1.192
       1.450
       1.690
       1.895
       2.057
       2.170
       2.229
       2.236
       2.192
       2.096
       1.948
       1.750
       1.511
       1.249
       0.980
       0.717
       0.456
       0.190
      -0.093
      -0.396
      -0.722
      -1.069
      -1.433
      -1.807
      -2.174
      -2.516
      -2.815
      -3.067
      -3.275
      -3.449
      -3.596
      -3.713
      -3.791
      -3.815
      -3.774
      -3.666
      -3.495
      -3.271
      -2.996
      -2.668
      -2.292
      -1.882
      -1.466
      -1.071
      -0.718
      -0.413
      -0.160
       0.036
       0.162
       0.201
       0.143
      -0.011
      -0.244
      -0.528
      -0.833
      -1.134
      -1.409
      -1.641
      -1.813
      -1.908
      -1.914
      -1.827
      -1.654
      -1.403
      -1.083
      -0.699
      -0.256
       0.241
       0.785
       1.362
       1.953
       2.532
       3.072
       3.556
       3.975
       4.329
       4.617
       4.828
       4.948
       4.962
       4.864
       4.656
       4.347
       3.955
       3.503
       3.015
       2.515
       2.022
       1.556
       1.130
       0.757
       0.442
       0.187
      -0.010
      -0.148
      -0.224
      -0.237
      -0.190
      -0.094
       0.033
       0.172
       0.311
       0.446
       0.582
       0.723
       0.869
       1.011
       1.132
       1.220
       1.261
       1.250
       1.181
       1.047
       0.835
       0.539
       0.157
      -0.300
      -0.814
      -1.359
      -1.905
      -2.422
      -2.891
      -3.296
      -3.631
      -3.889
      -4.062
      -4.144
      -4.134
      -4.033
      -3.839
      -3.550
      -3.163
      -2.686
      -2.135
      -1.536
      -0.917
      -0.305
       0.279
       0.825
       1.333
       1.804
       2.232
       2.594
       2.865
       3.022
       3.057
       2.981
       2.812
       2.571
       2.269
       1.905
       1.474
       0.978
       0.429
      -0.155
      -0.754
      -1.351
      -1.929
      -2.471
      -2.953
      -3.343
      -3.611
      -3.732
      -3.697
      -3.520
      -3.225
      -2.843
      -2.394
      -1.894
      -1.365
      -0.834
      -0.340
       0.088
       0.436
       0.713
       0.935
       1.113
       1.245
       1.326
       1.348
       1.315
       1.237
       1.128
       1.003
       0.877
       0.763
       0.666
       0.586
       0.518
       0.460
       0.411
       0.374
       0.349
       0.334
       0.330
       0.345
       0.384
       0.445
       0.515
       0.574
       0.610
       0.621
       0.607
       0.564
       0.481
       0.346
       0.164
      -0.045
      -0.250
      -0.418
      -0.529
      -0.571
      -0.536
      -0.420
      -0.223
       0.050
       0.385
       0.765
       1.168
       1.569
       1.944
       2.272
       2.536
       2.725
       2.835
       2.859
       2.797
       2.640
       2.384
       2.026
       1.582
       1.080
       0.561
       0.055
      -0.417
      -0.846
      -1.228
      -1.552
      -1.804
      -1.972
      -2.049
      -2.036
      -1.938
      -1.755
      -1.481
      -1.114
      -0.660
      -0.143
       0.400
       0.926
       1.396
       1.782
       2.060
       2.210
       2.221
       2.085
       1.806
       1.394
       0.861
       0.222
      -0.509
      -1.312
      -2.152
      -2.977
      -3.722
      -4.331
      -4.765
      -5.003
      -5.036
      -4.862
      -4.480
      -3.903
      -3.155
      -2.278
      -1.319
      -0.324
       0.667
       1.613
       2.471
       3.196
       3.756
       4.146
       4.385
       4.508
       4.533
       4.452
       4.239
       3.877
       3.380
       2.792
       2.157
       1.503
       0.839
       0.172
      -0.473
      -1.062
      -1.556
      -1.935
      -2.188
      -2.315
      -2.317
      -2.197
      -1.968
      -1.648
      -1.256
      -0.810
      -0.332
       0.155
       0.627
       1.065
       1.460
       1.810
       2.115
       2.380
       2.603
       2.784
       2.919
       3.006
       3.040
       3.020
       2.943
       2.809
       2.621
       2.381
       2.093
       1.760
       1.394
       1.016
       0.651
       0.321
       0.047
      -0.156
      -0.277
      -0.317
      -0.291
      -0.217
      -0.109
       0.027
       0.181
       0.332
       0.444
       0.483
       0.431
       0.294
       0.091
      -0.164
      -0.473
      -0.853
      -1.319
      -1.865
      -2.463
      -3.069
      -3.645
      -4.172
      -4.642
      -5.047
      -5.366
      -5.578
      -5.669
      -5.648
      -5.530
      -5.327
      -5.030
      -4.611
      -4.039
      -3.298
      -2.398
      -1.375
      -0.270
       0.887
       2.077
       3.291
       4.509
       5.695
       6.793
       7.751
       8.529
       9.108
       9.480
       9.646
       9.604
       9.358
       8.914
       8.287
       7.484
       6.516
       5.393
       4.141
       2.811
       1.469
       0.186
      -0.989
      -2.031
      -2.942
      -3.729
      -4.392
      -4.913
      -5.263
      -5.417
      -5.369
      -5.135
      -4.748
      -4.238
      -3.639
      -2.990
      -2.347
      -1.773
      -1.321
      -1.014
      -0.842
      -0.775
      -0.787
      -0.870
      -1.031
      -1.273
      -1.586
      -1.942
      -2.309
      -2.662
      -2.981
      -3.246
      -3.433
      -3.511
      -3.456
      -3.252
      -2.902
      -2.424
      -1.844
      -1.187
      -0.472
       0.283
       1.044
       1.758
       2.366
       2.830
       3.136
       3.294
       3.308
       3.167
       2.848
       2.331
       1.622
       0.750
      -0.241
      -1.306
      -2.405
      -3.498
      -4.537
      -5.465
      -6.233
      -6.801
      -7.151
      -7.284
      -7.207
      -6.929
      -6.460
      -5.819
      -5.039
      -4.174
      -3.283
      -2.418
      -1.607
      -0.854
      -0.159
       0.463
       0.980
       1.358
       1.584
       1.673
       1.645
       1.506
       1.250
       0.869
       0.375
      -0.191
      -0.776
      -1.333
      -1.839
      -2.292
      -2.695
      -3.036
      -3.284
      -3.401
      -3.352
      -3.120
      -2.719
      -2.193
      -1.607
      -1.024
      -0.486
      -0.019
       0.356
       0.615
       0.733
       0.695
       0.514
       0.217
      -0.164
      -0.610
      -1.109
      -1.641
      -2.165
      -2.622
      -2.955
      -3.116
      -3.070
      -2.803
      -2.319
      -1.641
      -0.801
       0.178
       1.288
       2.513
       3.813
       5.115
       6.345
       7.454
       8.425
       9.261
       9.952
      10.473
      10.796
      10.911
      10.835
      10.594
      10.194
       9.626
       8.879
       7.972
       6.960
       5.919
       4.909
       3.957
       3.060
       2.206
       1.397
       0.653
       0.009
      -0.508
      -0.877
      -1.083
      -1.119
      -0.993
      -0.728
      -0.365
       0.052
       0.478
       0.881
       1.246
       1.566
       1.830
       2.015
       2.085
       2.011
       1.782
       1.413
       0.937
       0.389
      -0.198
      -0.792
      -1.364
      -1.892
      -2.361
      -2.768
      -3.113
      -3.398
      -3.610
      -3.726
      -3.722
      -3.582
      -3.310
      -2.924
      -2.452
      -1.924
      -1.371
      -0.826
      -0.322
       0.115
       0.468
       0.715
       0.829
       0.785
       0.571
       0.204
      -0.278
      -0.822
      -1.385
      -1.944
      -2.491
      -3.023
      -3.527
      -3.976
      -4.343
      -4.604
      -4.748
      -4.763
      -4.626
      -4.307
      -3.783
      -3.059
      -2.176
      -1.188
      -0.147
       0.908
       1.944
       2.920
       3.790
       4.512
       5.064
       5.448
       5.681
       5.784
       5.767
       5.640
       5.409
       5.083
       4.680
       4.215
       3.704
       3.156
       2.568
       1.927
       1.216
       0.428
      -0.422
      -1.300
      -2.163
      -2.973
      -3.697
      -4.312
      -4.797
      -5.140
      -5.332
      -5.368
      -5.254
      -4.998
      -4.615
      -4.122
      -3.537
      -2.883
      -2.190
      -1.494
      -0.831
      -0.229
       0.294
       0.725
       1.061
       1.301
       1.447
       1.505
       1.486
       1.406
       1.291
       1.167
       1.055
       0.967
       0.900
       0.848
       0.804
       0.766
       0.738
       0.729
       0.742
       0.767
       0.786
       0.784
       0.755
       0.709
       0.656
       0.604
       0.550
       0.489
       0.418
       0.339
       0.255
       0.170
       0.074
      -0.050
      -0.226
      -0.473
      -0.794
      -1.172
      -1.578
      -1.976
      -2.339
      -2.648
      -2.884
      -3.027
      -3.055
      -2.951
      -2.712
      -2.349
      -1.884
      -1.339
      -0.743
      -0.126
       0.483
       1.059
       1.586
       2.052
       2.451
       2.778
       3.029
       3.200
       3.281
       3.256
       3.106
       2.815
       2.372
       1.779
       1.056
       0.233
      -0.649
      -1.552
      -2.447
      -3.308
      -4.104
      -4.803
      -5.373
      -5.792
      -6.059
      -6.187
      -6.195
      -6.102
      -5.923
      -5.668
      -5.348
      -4.978
      -4.574
      -4.155
      -3.735
      -3.321
      -2.911
      -2.494
      -2.060
      -1.603
      -1.123
      -0.635
      -0.150
       0.323
       0.786
       1.242
       1.687
       2.105
       2.477
       2.787
       3.035
       3.228
       3.377
       3.485
       3.561
       3.614
       3.669
       3.749
       3.869
       4.026
       4.201
       4.367
       4.504
       4.599
       4.643
       4.623
       4.531
       4.365
       4.136
       3.856
       3.535
       3.176
       2.778
       2.346
       1.888
       1.419
       0.959
       0.534
       0.170
      -0.110
      -0.296
      -0.396
      -0.423
      -0.390
      -0.298
      -0.140
       0.097
       0.415
       0.797
       1.208
       1.610
       1.960
       2.228
       2.390
       2.435
       2.366
       2.198
       1.956
       1.668
       1.362
       1.057
       0.765
       0.497
       0.257
       0.049
      -0.133
      -0.301
      -0.468
      -0.641
      -0.828
      -1.036
      -1.271
      -1.535
      -1.816
      -2.091
      -2.332
      -2.515
      -2.626
      -2.659
      -2.615
      -2.502
      -2.326
      -2.098
      -1.832
      -1.542
      -1.246
      -0.962
      -0.703
      -0.479
      -0.290
      -0.128
       0.021
       0.174
       0.335
       0.495
       0.634
       0.733
       0.778
       0.762
       0.683
       0.545
       0.364
       0.167
      -0.015
      -0.161
      -0.271
      -0.369
      -0.491
      -0.666
      -0.915
      -1.238
      -1.625
      -2.060
      -2.519
      -2.979
      -3.420
      -3.818
      -4.150
      -4.394
      -4.526
      -4.531
      -4.405
      -4.158
      -3.811
      -3.388
      -2.914
      -2.413
      -1.912
      -1.435
      -0.999
      -0.607
      -0.256
       0.061
       0.344
       0.589
       0.790
       0.947
       1.062
       1.145
       1.214
       1.294
       1.406
       1.564
       1.766
       1.997
       2.240
       2.488
       2.745
       3.018
       3.306
       3.592
       3.854
       4.072
       4.237
       4.348
       4.406
       4.405
       4.343
       4.216
       4.027
       3.777
       3.472
       3.122
       2.738
       2.333
       1.914
       1.484
       1.050
       0.621
       0.204
      -0.197
      -0.585
      -0.959
      -1.313
      -1.629
      -1.891
      -2.087
      -2.219
      -2.296
      -2.323
      -2.306
      -2.248
      -2.160
      -2.059
      -1.963
      -1.882
      -1.811
      -1.733
      -1.627
      -1.476
      -1.285
      -1.074
      -0.872
      -0.703
      -0.573
      -0.478
      -0.415
      -0.390
      -0.414
      -0.491
      -0.616
      -0.773
      -0.943
      -1.110
      -1.262
      -1.392
      -1.500
      -1.589
      -1.661
      -1.716
      -1.745
      -1.744
      -1.713
      -1.661
      -1.592
      -1.509
      -1.412
      -1.306
      -1.204
      -1.119
      -1.060
      -1.024
      -0.998
      -0.969
      -0.922
      -0.851
      -0.749
      -0.607
      -0.418
      -0.180
