Origin Time       04/04/2011 11:31:40
Lat.              29.6 N	
Long.             80.8 E	
Depth (Km)         10.0
Magnitude         5.7
 Region           NEPAL-INDIA-BORDER-REGION                                        
 Above details taken from IMD 
   
Station Code      JSH
Station Lat.       30.546
Station Long.      79.555
Station Height(m) 1919.0
Site Class        A   Vs30 between 700 m/sec to 1400 m/sec * 
Record Time       04.04.2011 11:31:55.504
Sampling Rate     200. Hz
 Record Duration   97.205 Sec.
 Direction         Vert. (Up positive)
Max. Acceleration     -5.597 cm/sec**2
     
  * For reference see Site Classification link of website 
     
 Base Line Corrected and Low Pass Filtered (Cut Off at 35 Hz) Time History
 Acceleration data in cm/sec**2
    
[...]
      -0.116
      -0.082
      -0.058
      -0.042
      -0.028
      -0.013
      -0.001
       0.005
       0.002
      -0.007
      -0.022
      -0.035
      -0.039
      -0.019
       0.037
       0.133
       0.256
       0.378
       0.467
       0.501
       0.478
       0.414
       0.335
       0.265
       0.216
       0.193
       0.190
       0.203
       0.223
       0.242
       0.255
       0.261
       0.272
       0.302
       0.363
       0.451
       0.540
       0.592
       0.577
       0.492
       0.360
       0.215
       0.087
      -0.010
      -0.081
      -0.140
      -0.208
      -0.298
      -0.409
      -0.522
      -0.604
      -0.627
      -0.586
      -0.500
      -0.407
      -0.339
      -0.306
      -0.291
      -0.260
      -0.182
      -0.049
       0.122
       0.297
       0.444
       0.549
       0.621
       0.673
       0.703
       0.693
       0.622
       0.488
       0.317
       0.152
       0.030
      -0.032
      -0.045
      -0.035
      -0.029
      -0.045
      -0.085
      -0.143
      -0.209
      -0.282
      -0.363
      -0.454
      -0.556
      -0.657
      -0.738
      -0.773
      -0.750
      -0.679
      -0.589
      -0.512
      -0.467
      -0.451
      -0.444
      -0.421
      -0.361
      -0.262
      -0.142
      -0.033
       0.034
       0.048
       0.020
      -0.023
      -0.050
      -0.044
      -0.005
       0.051
       0.104
       0.144
       0.178
       0.219
       0.276
       0.333
       0.358
       0.314
       0.185
      -0.023
      -0.282
      -0.552
      -0.789
      -0.955
      -1.021
      -0.983
      -0.859
      -0.685
      -0.499
      -0.324
      -0.163
      -0.013
       0.129
       0.249
       0.325
       0.329
       0.253
       0.117
      -0.037
      -0.157
      -0.209
      -0.189
      -0.114
      -0.013
       0.094
       0.202
       0.321
       0.461
       0.614
       0.746
       0.817
       0.800
       0.705
       0.567
       0.431
       0.326
       0.257
       0.214
       0.176
       0.129
       0.077
       0.040
       0.042
       0.094
       0.179
       0.265
       0.316
       0.314
       0.262
       0.178
       0.088
       0.013
      -0.037
      -0.060
      -0.064
      -0.057
      -0.050
      -0.043
      -0.033
      -0.016
       0.001
       0.010
      -0.001
      -0.030
      -0.064
      -0.085
      -0.076
      -0.032
       0.042
       0.134
       0.238
       0.349
       0.472
       0.614
       0.780
       0.966
       1.148
       1.280
       1.315
       1.223
       1.016
       0.743
       0.468
       0.242
       0.083
      -0.020
      -0.099
      -0.186
      -0.300
      -0.439
      -0.580
      -0.692
      -0.757
      -0.774
      -0.752
      -0.706
      -0.645
      -0.576
      -0.504
      -0.435
      -0.382
      -0.349
      -0.336
      -0.333
      -0.329
      -0.319
      -0.303
      -0.279
      -0.241
      -0.184
      -0.106
      -0.012
       0.083
       0.165
       0.224
       0.252
       0.250
       0.225
       0.190
       0.156
       0.127
       0.093
       0.050
       0.002
      -0.042
      -0.073
      -0.095
      -0.119
      -0.156
      -0.208
      -0.264
      -0.303
      -0.308
      -0.276
      -0.222
      -0.173
      -0.157
      -0.187
      -0.260
      -0.359
      -0.466
      -0.565
      -0.648
      -0.705
      -0.730
      -0.725
      -0.697
      -0.658
      -0.622
      -0.594
      -0.575
      -0.559
      -0.539
      -0.512
      -0.482
      -0.460
      -0.457
      -0.465
      -0.460
      -0.413
      -0.308
      -0.160
      -0.004
       0.124
       0.210
       0.265
       0.310
       0.363
       0.436
       0.527
       0.623
       0.705
       0.755
       0.769
       0.757
       0.734
       0.709
       0.683
       0.648
       0.600
       0.540
       0.472
       0.404
       0.345
       0.305
       0.290
       0.298
       0.327
       0.375
       0.445
       0.537
       0.644
       0.749
       0.831
       0.869
       0.851
       0.780
       0.671
       0.547
       0.423
       0.303
       0.184
       0.070
      -0.017
      -0.052
      -0.015
       0.093
       0.246
       0.403
       0.523
       0.572
       0.535
       0.425
       0.283
       0.166
       0.113
       0.134
       0.206
       0.295
       0.370
       0.414
       0.421
       0.396
       0.355
       0.317
       0.300
       0.312
       0.342
       0.372
       0.374
       0.329
       0.230
       0.085
      -0.082
      -0.242
      -0.369
      -0.447
      -0.475
      -0.472
      -0.467
      -0.483
      -0.526
      -0.577
      -0.604
      -0.589
      -0.542
      -0.503
      -0.527
      -0.652
      -0.878
      -1.161
      -1.422
      -1.590
      -1.633
      -1.570
      -1.463
      -1.374
      -1.341
      -1.359
      -1.402
      -1.440
      -1.454
      -1.436
      -1.389
      -1.319
      -1.231
      -1.122
      -0.988
      -0.829
      -0.655
      -0.490
      -0.360
      -0.277
      -0.234
      -0.205
      -0.161
      -0.082
       0.026
       0.146
       0.257
       0.351
       0.436
       0.532
       0.649
       0.783
       0.916
       1.024
       1.087
       1.092
       1.038
       0.939
       0.822
       0.724
       0.674
       0.681
       0.735
       0.811
       0.888
       0.948
       0.983
       0.989
       0.975
       0.958
       0.954
       0.962
       0.970
       0.953
       0.892
       0.779
       0.621
       0.439
       0.266
       0.128
       0.027
      -0.064
      -0.190
      -0.375
      -0.610
      -0.848
      -1.042
      -1.161
      -1.203
      -1.184
      -1.123
      -1.042
      -0.951
      -0.857
      -0.755
      -0.640
      -0.515
      -0.389
      -0.280
      -0.205
      -0.178
      -0.204
      -0.278
      -0.387
      -0.513
      -0.644
      -0.770
      -0.880
      -0.961
      -1.002
      -0.998
      -0.955
      -0.886
      -0.807
      -0.728
      -0.648
      -0.558
      -0.447
      -0.313
      -0.164
      -0.017
       0.116
       0.223
       0.297
       0.335
       0.344
       0.333
       0.315
       0.295
       0.270
       0.231
       0.175
       0.101
       0.017
      -0.063
      -0.122
      -0.138
      -0.098
       0.004
       0.159
       0.340
       0.516
       0.660
       0.762
       0.822
       0.854
       0.867
       0.874
       0.876
       0.872
       0.855
       0.825
       0.794
       0.784
       0.825
       0.937
       1.123
       1.363
       1.611
       1.817
       1.946
       1.996
       1.992
       1.968
       1.944
       1.920
       1.873
       1.778
       1.630
       1.444
       1.250
       1.079
       0.942
       0.830
       0.724
       0.605
       0.467
       0.321
       0.181
       0.061
      -0.038
      -0.118
      -0.182
      -0.230
      -0.259
      -0.278
      -0.307
      -0.374
      -0.498
      -0.685
      -0.921
      -1.183
      -1.444
      -1.681
      -1.879
      -2.031
      -2.138
      -2.203
      -2.227
      -2.208
      -2.149
      -2.064
      -1.973
      -1.897
      -1.852
      -1.837
      -1.839
      -1.842
      -1.832
      -1.805
      -1.758
      -1.689
      -1.586
      -1.434
      -1.217
      -0.931
      -0.591
      -0.232
       0.096
       0.353
       0.517
       0.596
       0.621
       0.635
       0.667
       0.718
       0.766
       0.783
       0.756
       0.699
       0.640
       0.608
       0.615
       0.647
       0.679
       0.688
       0.670
       0.647
       0.651
       0.700
       0.784
       0.869
       0.915
       0.898
       0.824
       0.727
       0.651
       0.628
       0.664
       0.742
       0.835
       0.924
       1.008
       1.099
       1.208
       1.333
       1.451
       1.527
       1.533
       1.457
       1.312
       1.133
       0.965
       0.836
       0.747
       0.667
       0.551
       0.371
       0.134
      -0.130
      -0.380
      -0.589
      -0.743
      -0.847
      -0.916
      -0.970
      -1.027
      -1.098
      -1.189
      -1.309
      -1.466
      -1.661
      -1.876
      -2.071
      -2.202
      -2.238
      -2.179
      -2.048
      -1.888
      -1.742
      -1.638
      -1.578
      -1.535
      -1.467
      -1.349
      -1.180
      -0.983
      -0.785
      -0.599
      -0.423
      -0.256
      -0.109
      -0.003
       0.040
       0.018
      -0.049
      -0.121
      -0.160
      -0.142
      -0.062
       0.072
       0.252
       0.472
       0.718
       0.962
       1.165
       1.292
       1.330
       1.301
       1.250
       1.229
       1.273
       1.391
       1.559
       1.730
       1.852
       1.894
       1.862
       1.792
       1.730
       1.703
       1.711
       1.736
       1.751
       1.741
       1.705
       1.654
       1.603
       1.561
       1.530
       1.504
       1.474
       1.435
       1.385
       1.322
       1.243
       1.146
       1.034
       0.916
       0.799
       0.682
       0.558
       0.426
       0.302
       0.207
       0.159
       0.148
       0.150
       0.138
       0.099
       0.032
      -0.062
      -0.192
      -0.368
      -0.590
      -0.842
      -1.100
      -1.346
      -1.576
      -1.791
      -1.993
      -2.184
      -2.362
      -2.530
      -2.683
      -2.801
      -2.855
      -2.814
      -2.669
      -2.436
      -2.150
      -1.851
      -1.564
      -1.296
      -1.039
      -0.784
      -0.538
      -0.335
      -0.227
      -0.254
      -0.428
      -0.715
      -1.057
      -1.388
      -1.663
      -1.866
      -2.011
      -2.124
      -2.224
      -2.313
      -2.373
      -2.394
      -2.381
      -2.358
      -2.350
      -2.355
      -2.340
      -2.252
      -2.042
      -1.694
      -1.232
      -0.709
      -0.185
       0.295
       0.719
       1.094
       1.428
       1.713
       1.922
       2.024
       2.000
       1.852
       1.610
       1.315
       1.010
       0.723
       0.463
       0.222
      -0.013
      -0.247
      -0.471
      -0.663
      -0.804
      -0.888
      -0.918
      -0.900
      -0.835
      -0.727
      -0.583
      -0.411
      -0.213
       0.016
       0.280
       0.562
       0.835
       1.076
       1.281
       1.462
       1.633
       1.792
       1.921
       2.005
       2.047
       2.061
       2.060
       2.050
       2.032
       2.010
       2.010
       2.067
       2.202
       2.398
       2.609
       2.776
       2.858
       2.838
       2.722
       2.531
       2.287
       2.010
       1.713
       1.411
       1.128
       0.894
       0.742
       0.693
       0.750
       0.900
       1.114
       1.350
       1.564
       1.720
       1.800
       1.808
       1.766
       1.693
       1.596
       1.463
       1.276
       1.025
       0.723
       0.397
       0.080
      -0.209
      -0.466
      -0.699
      -0.916
      -1.116
      -1.291
      -1.425
      -1.507
      -1.532
      -1.508
      -1.446
      -1.358
      -1.244
      -1.103
      -0.936
      -0.755
      -0.581
      -0.425
      -0.292
      -0.176
      -0.074
       0.004
       0.037
      -0.004
      -0.138
      -0.358
      -0.636
      -0.926
      -1.194
      -1.420
      -1.607
      -1.761
      -1.891
      -2.000
      -2.078
      -2.113
      -2.101
      -2.062
      -2.037
      -2.064
      -2.157
      -2.288
      -2.398
      -2.437
      -2.387
      -2.279
      -2.174
      -2.130
      -2.176
      -2.296
      -2.445
      -2.576
      -2.657
      -2.681
      -2.656
      -2.596
      -2.510
      -2.396
      -2.251
      -2.073
      -1.865
      -1.632
      -1.379
      -1.107
      -0.812
      -0.490
      -0.138
       0.241
       0.636
       1.033
       1.416
       1.780
       2.120
       2.430
       2.691
       2.877
       2.975
       2.989
       2.937
       2.829
       2.662
       2.416
       2.074
       1.634
       1.122
       0.583
       0.069
      -0.372
      -0.710
      -0.932
      -1.042
      -1.060
      -1.005
      -0.892
      -0.720
      -0.484
      -0.182
       0.175
       0.554
       0.918
       1.242
       1.524
       1.786
       2.055
       2.335
       2.608
       2.832
       2.974
       3.030
       3.021
       2.981
       2.940
       2.918
       2.925
       2.955
       2.979
       2.956
       2.853
       2.665
       2.420
       2.164
       1.929
       1.717
       1.501
       1.248
       0.952
       0.642
       0.378
       0.220
       0.190
       0.257
       0.358
       0.426
       0.419
       0.336
       0.202
       0.052
      -0.098
      -0.253
      -0.429
      -0.633
      -0.854
      -1.061
      -1.218
      -1.300
      -1.304
      -1.248
      -1.176
      -1.133
      -1.151
      -1.232
      -1.352
      -1.471
      -1.552
      -1.573
      -1.521
      -1.384
      -1.147
      -0.794
      -0.336
       0.189
       0.730
       1.258
       1.775
       2.304
       2.858
       3.414
       3.918
       4.309
       4.547
       4.621
       4.548
       4.345
       4.021
       3.578
       3.027
       2.391
       1.697
       0.961
       0.185
      -0.623
      -1.438
      -2.218
      -2.931
      -3.570
      -4.147
      -4.670
      -5.117
      -5.442
      -5.597
      -5.559
      -5.332
      -4.944
      -4.446
      -3.896
      -3.345
      -2.809
      -2.275
      -1.710
      -1.091
      -0.417
       0.283
       0.952
       1.522
       1.939
       2.174
       2.231
       2.141
       1.946
       1.691
       1.410
       1.121
       0.824
       0.507
       0.162
      -0.201
      -0.558
      -0.885
      -1.173
      -1.427
      -1.655
      -1.872
      -2.088
      -2.305
      -2.514
      -2.698
      -2.838
      -2.911
      -2.900
      -2.803
      -2.642
      -2.459
      -2.296
      -2.181
      -2.126
      -2.139
      -2.221
      -2.351
      -2.485
      -2.567
      -2.566
      -2.482
      -2.338
      -2.162
      -1.968
      -1.759
      -1.537
      -1.310
      -1.083
      -0.859
      -0.639
      -0.429
      -0.237
      -0.069
       0.081
       0.233
       0.417
       0.668
       1.008
       1.431
       1.907
       2.400
       2.871
       3.284
       3.598
       3.779
       3.813
       3.716
       3.522
       3.256
       2.931
       2.560
       2.161
       1.767
       1.409
       1.111
       0.875
       0.677
       0.470
       0.202
      -0.161
      -0.621
      -1.142
      -1.670
      -2.147
      -2.531
      -2.804
      -2.964
      -3.022
      -2.983
      -2.847
      -2.614
      -2.283
      -1.852
      -1.307
      -0.640
       0.142
       1.006
       1.897
       2.754
       3.529
       4.188
       4.705
       5.066
       5.273
       5.347
       5.304
       5.145
       4.853
       4.416
       3.847
       3.188
       2.495
       1.810
       1.156
       0.534
      -0.047
      -0.568
      -1.015
      -1.392
      -1.739
      -2.105
      -2.529
      -3.006
      -3.494
      -3.925
      -4.244
      -4.420
      -4.458
      -4.387
      -4.246
      -4.066
      -3.872
      -3.680
      -3.504
      -3.341
      -3.181
      -3.017
      -2.860
      -2.724
      -2.604
      -2.468
      -2.273
      -2.010
      -1.717
      -1.468
      -1.328
      -1.325
      -1.434
      -1.587
      -1.698
      -1.703
      -1.579
      -1.347
      -1.051
      -0.739
      -0.445
      -0.182
       0.068
       0.336
       0.642
       0.978
       1.316
       1.639
       1.961
       2.310
       2.700
       3.110
       3.489
       3.797
       4.019
       4.163
       4.249
       4.298
       4.335
       4.382
       4.439
       4.478
       4.459
       4.370
       4.242
       4.127
       4.056
       4.009
       3.929
       3.759
       3.473
       3.076
       2.592
       2.045
       1.459
       0.860
       0.267
      -0.304
      -0.849
      -1.363
      -1.826
      -2.199
      -2.435
      -2.515
      -2.449
      -2.267
      -1.983
      -1.601
      -1.125
      -0.581
      -0.017
       0.514
       0.961
       1.286
       1.456
       1.452
       1.271
       0.924
       0.435
      -0.161
      -0.817
      -1.480
      -2.106
      -2.669
      -3.150
      -3.540
      -3.832
      -4.023
      -4.116
      -4.125
      -4.060
      -3.918
      -3.681
      -3.337
      -2.897
      -2.401
      -1.915
      -1.510
      -1.227
      -1.051
      -0.923
      -0.771
      -0.560
      -0.292
       0.001
       0.280
       0.513
       0.683
       0.804
       0.919
       1.088
       1.354
       1.710
       2.099
       2.430
       2.624
       2.647
       2.523
       2.315
       2.095
       1.904
       1.746
       1.597
       1.430
       1.228
       0.983
       0.702
       0.407
       0.133
      -0.087
      -0.233
      -0.304
      -0.299
      -0.207
      -0.013
       0.287
       0.669
       1.086
       1.483
       1.818
       2.077
       2.276
       2.439
       2.574
       2.658
       2.646
       2.505
       2.234
       1.873
       1.481
       1.119
       0.822
       0.600
       0.444
       0.335
       0.264
       0.227
       0.224
       0.244
       0.267
       0.270
       0.243
       0.191
       0.117
       0.021
      -0.103
      -0.257
      -0.438
      -0.634
      -0.837
      -1.047
      -1.269
      -1.508
      -1.757
      -2.001
      -2.224
      -2.416
      -2.569
      -2.674
      -2.728
      -2.737
      -2.712
      -2.662
      -2.590
      -2.496
      -2.387
      -2.284
      -2.212
      -2.192
      -2.219
      -2.266
      -2.288
      -2.236
      -2.085
      -1.841
      -1.542
      -1.243
      -0.978
      -0.742
      -0.496
      -0.205
       0.134
       0.484
       0.791
       1.017
       1.150
       1.200
       1.176
       1.080
       0.914
       0.691
       0.439
       0.181
      -0.069
      -0.304
      -0.512
      -0.675
      -0.774
      -0.800
      -0.754
      -0.643
      -0.474
      -0.257
      -0.010
       0.236
       0.453
       0.628
       0.771
       0.910
       1.074
       1.271
       1.482
       1.668
       1.797
       1.866
       1.904
       1.957
       2.069
       2.264
       2.545
       2.893
       3.276
       3.662
       4.021
       4.322
       4.527
       4.591
       4.479
       4.179
       3.713
       3.132
       2.506
       1.902
       1.365
       0.904
       0.503
       0.139
      -0.198
      -0.505
      -0.771
      -0.989
      -1.162
      -1.298
      -1.405
      -1.487
      -1.543
      -1.567
      -1.559
      -1.529
      -1.504
      -1.524
      -1.622
      -1.812
      -2.074
      -2.361
      -2.618
      -2.799
      -2.884
      -2.879
      -2.813
      -2.728
      -2.666
      -2.658
      -2.724
      -2.864
      -3.060
      -3.277
      -3.477
      -3.638
      -3.758
      -3.853
      -3.941
      -4.032
      -4.118
      -4.170
      -4.150
      -4.022
