Origin Time       04/09/2008 12:53:21 UTC
Lat.              30.1°N 
Long.             80.4°E 
Depth (Km)         10.0
Magnitude         5.1
 Region           INDIA(UTTARAKHAND)-TIBET-BORDER-REGION                           
 Above details taken from IMD 
    
Station Code      JSH
Station Lat.       30.546  N
Station Long.      79.555  E
Station Height(m) 1919.0
Site Class        A   Vs30 between 700 m/sec to 1400 m/sec * 
Record Time       04.09.2008 12:53:18.134 UTC
Sampling Rate     200. Hz
 Record Duration   68.510 Sec.
 Direction         N-S (N positive)
Max. Acceleration      4.920 cm/sec**2
     
  * For reference see Site Classification link of website 
     
 Base Line Corrected and Low Pass Filtered (Cut Off at 35 Hz) Time History
 Acceleration data in cm/sec**2
    
[...]
       1.091
       1.017
       0.903
       0.748
       0.567
       0.376
       0.182
      -0.019
      -0.236
      -0.459
      -0.647
      -0.751
      -0.743
      -0.638
      -0.487
      -0.353
      -0.276
      -0.269
      -0.320
      -0.408
      -0.502
      -0.568
      -0.583
      -0.550
      -0.489
      -0.427
      -0.370
      -0.304
      -0.211
      -0.088
       0.048
       0.173
       0.261
       0.298
       0.274
       0.196
       0.090
      -0.006
      -0.062
      -0.069
      -0.045
      -0.012
       0.018
       0.045
       0.068
       0.077
       0.061
       0.020
      -0.036
      -0.084
      -0.102
      -0.075
      -0.001
       0.105
       0.224
       0.335
       0.425
       0.493
       0.535
       0.544
       0.510
       0.422
       0.283
       0.114
      -0.060
      -0.220
      -0.359
      -0.476
      -0.564
      -0.615
      -0.635
      -0.643
      -0.665
      -0.709
      -0.755
      -0.769
      -0.723
      -0.616
      -0.466
      -0.298
      -0.133
       0.016
       0.133
       0.203
       0.224
       0.209
       0.184
       0.171
       0.176
       0.191
       0.208
       0.224
       0.242
       0.262
       0.281
       0.305
       0.347
       0.416
       0.497
       0.547
       0.521
       0.399
       0.210
       0.007
      -0.165
      -0.290
      -0.369
      -0.399
      -0.377
      -0.314
      -0.245
      -0.207
      -0.208
      -0.215
      -0.186
      -0.102
       0.018
       0.138
       0.231
       0.284
       0.300
       0.283
       0.242
       0.196
       0.163
       0.155
       0.161
       0.161
       0.132
       0.068
      -0.020
      -0.109
      -0.175
      -0.205
      -0.202
      -0.186
      -0.181
      -0.205
      -0.255
      -0.312
      -0.353
      -0.365
      -0.351
      -0.319
      -0.281
      -0.252
      -0.247
      -0.274
      -0.326
      -0.380
      -0.412
      -0.403
      -0.345
      -0.241
      -0.112
       0.009
       0.090
       0.116
       0.099
       0.075
       0.071
       0.094
       0.126
       0.139
       0.112
       0.044
      -0.053
      -0.155
      -0.233
      -0.270
      -0.260
      -0.214
      -0.147
      -0.070
       0.014
       0.104
       0.192
       0.269
       0.326
       0.358
       0.369
       0.368
       0.369
       0.389
       0.435
       0.504
       0.577
       0.637
       0.676
       0.698
       0.710
       0.717
       0.721
       0.721
       0.717
       0.704
       0.678
       0.639
       0.590
       0.530
       0.451
       0.341
       0.199
       0.045
      -0.088
      -0.180
      -0.238
      -0.293
      -0.381
      -0.513
      -0.675
      -0.838
      -0.972
      -1.054
      -1.068
      -1.011
      -0.903
      -0.777
      -0.670
      -0.596
      -0.540
      -0.472
      -0.370
      -0.239
      -0.106
      -0.004
       0.039
       0.019
      -0.044
      -0.109
      -0.128
      -0.073
       0.042
       0.168
       0.250
       0.258
       0.205
       0.136
       0.094
       0.102
       0.152
       0.213
       0.254
       0.263
       0.256
       0.258
       0.283
       0.319
       0.334
       0.299
       0.206
       0.069
      -0.084
      -0.229
      -0.346
      -0.426
      -0.467
      -0.477
      -0.470
      -0.454
      -0.427
      -0.382
      -0.314
      -0.231
      -0.145
      -0.066
       0.002
       0.057
       0.093
       0.099
       0.068
       0.011
      -0.041
      -0.058
      -0.028
       0.035
       0.102
       0.146
       0.163
       0.163
       0.169
       0.199
       0.263
       0.355
       0.449
       0.510
       0.513
       0.464
       0.388
       0.309
       0.230
       0.137
       0.017
      -0.129
      -0.277
      -0.399
      -0.481
      -0.522
      -0.530
      -0.501
      -0.424
      -0.299
      -0.142
       0.011
       0.126
       0.196
       0.235
       0.257
       0.265
       0.247
       0.196
       0.119
       0.028
      -0.068
      -0.163
      -0.246
      -0.303
      -0.323
      -0.313
      -0.293
      -0.281
      -0.279
      -0.280
      -0.275
      -0.261
      -0.240
      -0.207
      -0.154
      -0.079
       0.009
       0.095
       0.169
       0.225
       0.263
       0.276
       0.262
       0.229
       0.197
       0.181
       0.173
       0.155
       0.112
       0.053
       0.005
      -0.005
       0.027
       0.084
       0.147
       0.210
       0.273
       0.332
       0.373
       0.385
       0.371
       0.342
       0.309
       0.277
       0.247
       0.226
       0.222
       0.237
       0.263
       0.292
       0.318
       0.337
       0.343
       0.320
       0.261
       0.172
       0.081
       0.018
      -0.002
       0.013
       0.033
       0.032
      -0.006
      -0.076
      -0.167
      -0.265
      -0.360
      -0.442
      -0.505
      -0.546
      -0.568
      -0.573
      -0.557
      -0.513
      -0.444
      -0.363
      -0.288
      -0.222
      -0.158
      -0.088
      -0.016
       0.051
       0.111
       0.172
       0.239
       0.302
       0.343
       0.350
       0.325
       0.286
       0.246
       0.209
       0.172
       0.138
       0.112
       0.097
       0.083
       0.053
      -0.002
      -0.070
      -0.129
      -0.161
      -0.170
      -0.176
      -0.199
      -0.239
      -0.274
      -0.275
      -0.226
      -0.131
      -0.011
       0.106
       0.198
       0.250
       0.260
       0.236
       0.195
       0.159
       0.139
       0.132
       0.122
       0.094
       0.043
      -0.024
      -0.088
      -0.123
      -0.105
      -0.028
       0.083
       0.181
       0.214
       0.152
       0.007
      -0.175
      -0.339
      -0.445
      -0.483
      -0.465
      -0.411
      -0.333
      -0.229
      -0.087
       0.102
       0.328
       0.563
       0.758
       0.864
       0.851
       0.720
       0.506
       0.259
       0.023
      -0.177
      -0.335
      -0.456
      -0.542
      -0.578
      -0.542
      -0.423
      -0.232
      -0.006
       0.209
       0.378
       0.479
       0.510
       0.479
       0.402
       0.300
       0.188
       0.066
      -0.075
      -0.237
      -0.406
      -0.553
      -0.657
      -0.716
      -0.737
      -0.719
      -0.659
      -0.561
      -0.454
      -0.376
      -0.353
      -0.380
      -0.436
      -0.499
      -0.562
      -0.625
      -0.681
      -0.717
      -0.725
      -0.713
      -0.693
      -0.668
      -0.614
      -0.504
      -0.330
      -0.112
       0.112
       0.312
       0.480
       0.614
       0.707
       0.746
       0.727
       0.659
       0.565
       0.470
       0.398
       0.370
       0.399
       0.486
       0.620
       0.784
       0.956
       1.116
       1.240
       1.301
       1.278
       1.156
       0.937
       0.645
       0.326
       0.029
      -0.206
      -0.375
      -0.498
      -0.599
      -0.692
      -0.774
      -0.845
      -0.911
      -0.977
      -1.035
      -1.060
      -1.028
      -0.932
      -0.781
      -0.588
      -0.366
      -0.131
       0.090
       0.268
       0.389
       0.458
       0.490
       0.489
       0.449
       0.363
       0.237
       0.088
      -0.057
      -0.182
      -0.273
      -0.324
      -0.317
      -0.239
      -0.085
       0.122
       0.334
       0.493
       0.559
       0.520
       0.401
       0.241
       0.083
      -0.048
      -0.146
      -0.224
      -0.295
      -0.351
      -0.356
      -0.259
      -0.036
       0.284
       0.628
       0.917
       1.111
       1.224
       1.295
       1.357
       1.405
       1.412
       1.348
       1.206
       0.997
       0.735
       0.431
       0.095
      -0.256
      -0.600
      -0.918
      -1.208
      -1.485
      -1.765
      -2.048
      -2.305
      -2.490
      -2.563
      -2.510
      -2.344
      -2.089
      -1.760
      -1.360
      -0.890
      -0.365
       0.176
       0.684
       1.115
       1.447
       1.676
       1.808
       1.848
       1.803
       1.687
       1.524
       1.334
       1.125
       0.891
       0.630
       0.365
       0.125
      -0.074
      -0.263
      -0.492
      -0.795
      -1.151
      -1.496
      -1.764
      -1.915
      -1.934
      -1.819
      -1.576
      -1.235
      -0.851
      -0.487
      -0.185
       0.046
       0.216
       0.334
       0.400
       0.431
       0.472
       0.589
       0.829
       1.191
       1.623
       2.060
       2.458
       2.799
       3.075
       3.270
       3.362
       3.333
       3.170
       2.863
       2.412
       1.844
       1.225
       0.647
       0.188
      -0.120
      -0.312
      -0.471
      -0.696
      -1.057
      -1.561
      -2.150
      -2.725
      -3.191
      -3.502
      -3.678
      -3.784
      -3.877
      -3.958
      -3.964
      -3.803
      -3.413
      -2.789
      -1.991
      -1.121
      -0.291
       0.402
       0.912
       1.245
       1.451
       1.585
       1.686
       1.768
       1.832
       1.891
       1.971
       2.103
       2.305
       2.566
       2.832
       3.021
       3.053
       2.889
       2.551
       2.111
       1.650
       1.210
       0.787
       0.340
      -0.172
      -0.751
      -1.352
      -1.899
      -2.320
      -2.585
      -2.708
      -2.730
      -2.691
      -2.605
      -2.455
      -2.197
      -1.783
      -1.195
      -0.473
       0.287
       0.972
       1.495
       1.831
       2.014
       2.097
       2.116
       2.064
       1.905
       1.609
       1.171
       0.617
       0.000
      -0.616
      -1.170
      -1.624
      -1.971
      -2.221
      -2.376
      -2.423
      -2.344
      -2.137
      -1.828
      -1.460
      -1.084
      -0.747
      -0.484
      -0.303
      -0.187
      -0.101
      -0.018
       0.057
       0.107
       0.118
       0.101
       0.084
       0.096
       0.163
       0.300
       0.521
       0.820
       1.167
       1.507
       1.785
       1.967
       2.053
       2.061
       2.010
       1.897
       1.708
       1.434
       1.079
       0.662
       0.213
      -0.243
      -0.684
      -1.092
      -1.452
      -1.761
      -2.016
      -2.204
      -2.291
      -2.232
      -1.990
      -1.570
      -1.027
      -0.452
       0.071
       0.506
       0.866
       1.174
       1.424
       1.567
       1.544
       1.330
       0.952
       0.481
       0.010
      -0.371
      -0.589
      -0.606
      -0.440
      -0.165
       0.115
       0.324
       0.432
       0.457
       0.433
       0.395
       0.374
       0.386
       0.418
       0.425
       0.367
       0.244
       0.102
      -0.012
      -0.098
      -0.203
      -0.375
      -0.606
      -0.824
      -0.939
      -0.906
      -0.742
      -0.513
      -0.295
      -0.140
      -0.057
      -0.011
       0.056
       0.201
       0.435
       0.720
       0.987
       1.178
       1.267
       1.264
       1.197
       1.085
       0.941
       0.776
       0.603
       0.432
       0.258
       0.060
      -0.188
      -0.494
      -0.832
      -1.154
      -1.409
      -1.563
      -1.601
      -1.519
      -1.325
      -1.045
      -0.725
      -0.425
      -0.192
      -0.051
       0.003
      -0.012
      -0.078
      -0.176
      -0.278
      -0.348
      -0.349
      -0.262
      -0.094
       0.125
       0.366
       0.619
       0.888
       1.171
       1.436
       1.627
       1.690
       1.604
       1.379
       1.043
       0.624
       0.151
      -0.330
      -0.766
      -1.111
      -1.355
      -1.525
      -1.664
      -1.806
      -1.957
      -2.092
      -2.177
      -2.188
      -2.122
      -1.999
      -1.848
      -1.684
      -1.490
      -1.219
      -0.815
      -0.255
       0.431
       1.168
       1.869
       2.466
       2.923
       3.234
       3.407
       3.462
       3.421
       3.308
       3.140
       2.934
       2.701
       2.450
       2.176
       1.865
       1.491
       1.044
       0.538
       0.018
      -0.468
      -0.888
      -1.241
      -1.544
      -1.803
      -2.010
      -2.146
      -2.206
      -2.199
      -2.141
      -2.043
      -1.907
      -1.729
      -1.501
      -1.223
      -0.906
      -0.575
      -0.261
      -0.001
       0.177
       0.258
       0.250
       0.189
       0.128
       0.126
       0.234
       0.479
       0.849
       1.291
       1.717
       2.028
       2.146
       2.034
       1.696
       1.169
       0.510
      -0.220
      -0.967
      -1.686
      -2.330
      -2.849
      -3.190
      -3.312
      -3.209
      -2.916
      -2.498
      -2.022
      -1.530
      -1.028
      -0.491
       0.115
       0.816
       1.592
       2.376
       3.066
       3.572
       3.857
       3.943
       3.893
       3.753
       3.529
       3.188
       2.700
       2.077
       1.368
       0.631
      -0.097
      -0.791
      -1.424
      -1.959
      -2.359
      -2.613
      -2.735
      -2.746
      -2.655
      -2.465
      -2.197
      -1.896
      -1.627
      -1.444
      -1.374
      -1.415
      -1.547
      -1.733
      -1.921
      -2.047
      -2.058
      -1.935
      -1.681
      -1.306
      -0.812
      -0.202
       0.517
       1.323
       2.182
       3.044
       3.837
       4.469
       4.850
       4.920
       4.660
       4.098
       3.289
       2.301
       1.206
       0.085
      -0.978
      -1.903
      -2.636
      -3.158
      -3.475
      -3.598
      -3.533
      -3.286
      -2.888
      -2.395
      -1.870
      -1.359
      -0.876
      -0.429
      -0.033
       0.283
       0.503
       0.640
       0.732
       0.821
       0.930
       1.049
       1.147
       1.190
       1.159
       1.073
       0.986
       0.966
       1.053
       1.231
       1.425
       1.531
       1.470
       1.219
       0.819
       0.349
      -0.111
      -0.512
      -0.841
      -1.117
      -1.365
      -1.595
      -1.797
      -1.939
      -1.984
      -1.900
      -1.675
      -1.319
      -0.860
      -0.336
       0.213
       0.745
       1.221
       1.610
       1.885
       2.023
       2.014
       1.871
       1.636
       1.373
       1.138
       0.963
       0.840
       0.736
       0.611
       0.441
       0.240
       0.054
      -0.065
      -0.098
      -0.079
      -0.072
      -0.122
      -0.234
      -0.377
      -0.526
      -0.677
      -0.849
      -1.058
      -1.302
      -1.558
      -1.779
      -1.911
      -1.905
      -1.753
      -1.493
      -1.194
      -0.917
      -0.683
      -0.471
      -0.257
      -0.036
       0.180
       0.381
       0.573
       0.762
       0.932
       1.044
       1.055
       0.949
       0.740
       0.465
       0.174
      -0.080
      -0.242
      -0.272
      -0.159
       0.080
       0.398
       0.741
       1.060
       1.328
       1.536
       1.687
       1.785
       1.829
       1.802
       1.679
       1.436
       1.061
       0.563
      -0.032
      -0.684
      -1.346
      -1.974
      -2.534
      -3.009
      -3.395
      -3.687
      -3.867
      -3.902
      -3.755
      -3.413
      -2.891
      -2.230
      -1.477
      -0.664
       0.190
       1.076
       1.972
       2.833
       3.588
       4.156
       4.480
       4.551
       4.419
       4.160
       3.846
       3.518
       3.179
       2.811
       2.394
       1.920
       1.402
       0.870
       0.354
      -0.127
      -0.573
      -0.996
      -1.410
      -1.816
      -2.200
      -2.530
      -2.765
      -2.864
      -2.812
      -2.631
      -2.376
      -2.102
      -1.833
      -1.565
      -1.296
      -1.055
      -0.899
      -0.860
      -0.914
      -0.980
      -0.972
      -0.846
      -0.606
      -0.279
       0.116
       0.560
       1.018
       1.440
       1.782
       2.040
       2.237
       2.399
       2.518
       2.556
       2.475
       2.268
       1.960
       1.583
       1.160
       0.708
       0.245
      -0.202
      -0.601
      -0.934
      -1.192
      -1.383
      -1.520
      -1.608
      -1.638
      -1.592
      -1.463
      -1.268
      -1.049
      -0.860
      -0.735
      -0.685
      -0.694
      -0.745
      -0.820
      -0.899
      -0.941
      -0.898
      -0.742
      -0.497
      -0.242
      -0.076
      -0.073
      -0.242
      -0.519
      -0.794
      -0.949
      -0.912
      -0.680
      -0.309
       0.116
       0.526
       0.883
       1.175
       1.402
       1.568
       1.665
       1.684
       1.615
       1.450
       1.192
       0.851
       0.443
      -0.009
      -0.485
      -0.965
      -1.426
      -1.848
      -2.212
      -2.508
      -2.735
      -2.896
      -2.994
      -3.027
      -2.974
      -2.808
      -2.492
      -2.000
      -1.334
      -0.532
       0.339
       1.203
       1.993
       2.660
       3.164
       3.487
       3.628
       3.617
       3.501
       3.334
       3.162
       3.015
       2.912
       2.855
       2.831
       2.807
       2.742
       2.597
       2.348
       1.992
       1.545
       1.038
       0.510
       0.004
      -0.444
      -0.810
      -1.096
      -1.328
      -1.556
      -1.832
      -2.189
      -2.626
      -3.106
      -3.576
      -3.985
      -4.286
      -4.451
      -4.465
      -4.339
      -4.102
      -3.776
      -3.355
      -2.805
      -2.091
      -1.218
      -0.245
       0.732
       1.608
       2.319
       2.862
       3.281
       3.624
       3.904
       4.091
       4.136
       4.018
       3.769
       3.465
       3.189
       2.995
       2.876
       2.772
       2.606
       2.327
       1.941
       1.513
       1.123
       0.818
       0.588
       0.375
       0.112
      -0.239
      -0.666
      -1.114
      -1.521
      -1.856
      -2.127
      -2.364
      -2.583
      -2.766
      -2.871
      -2.866
      -2.741
      -2.516
      -2.225
      -1.895
      -1.540
      -1.160
      -0.753
      -0.326
       0.089
       0.440
       0.686
       0.817
       0.860
       0.853
       0.808
       0.710
       0.537
       0.288
      -0.007
      -0.304
      -0.567
      -0.778
      -0.934
      -1.032
      -1.073
      -1.060
      -1.007
      -0.934
      -0.853
      -0.765
      -0.661
      -0.538
      -0.411
      -0.296
      -0.201
      -0.120
      -0.045
       0.027
       0.085
       0.112
       0.090
       0.001
      -0.176
      -0.450
      -0.809
      -1.213
      -1.595
      -1.887
      -2.029
      -1.985
      -1.742
      -1.312
      -0.731
      -0.053
       0.669
       1.383
       2.049
       2.620
       3.045
       3.269
       3.257
       3.011
       2.574
       2.019
       1.422
       0.847
       0.339
      -0.064
      -0.332
      -0.448
      -0.416
      -0.266
      -0.040
       0.214
       0.456
       0.661
       0.816
       0.910
       0.921
       0.825
       0.608
       0.278
      -0.127
      -0.558
      -0.962
      -1.294
      -1.522
      -1.637
      -1.649
      -1.588
      -1.482
      -1.345
      -1.172
      -0.947
