Origin Time       04/09/2008 12:53:21
Lat.              30.1°N 
Long.             80.4°E 
Depth (Km)         10.0
Magnitude         5.1
 Region           INDIA(UTTARAKHAND)-TIBET-BORDER-REGION                           
 Above details taken from IMD 
     
Station Code      JSH
Station Lat.       30.546  N
Station Long.      79.555  E
Station Height(m) 1919.0
Site Class        A   Vs30 between 700 m/sec to 1400 m/sec * 
Record Time       04.09.2008 12:53:18.134
Sampling Rate     200. Hz
 Record Duration   68.510 Sec.
 Direction         E-W (E positive)
Max. Acceleration     -5.717 cm/sec**2
     
  * For reference see Site Classification link of website 
     
 Base Line Corrected and Low Pass Filtered (Cut Off at 35 Hz) Time History
 Acceleration data in cm/sec**2
    
[...]
      -0.165
      -0.260
      -0.326
      -0.324
      -0.239
      -0.092
       0.067
       0.185
       0.237
       0.239
       0.231
       0.249
       0.295
       0.335
       0.317
       0.209
       0.027
      -0.163
      -0.288
      -0.317
      -0.288
      -0.273
      -0.309
      -0.373
      -0.404
      -0.366
      -0.279
      -0.201
      -0.178
      -0.209
      -0.258
      -0.287
      -0.289
      -0.286
      -0.303
      -0.330
      -0.329
      -0.255
      -0.104
       0.085
       0.248
       0.342
       0.363
       0.340
       0.301
       0.259
       0.206
       0.133
       0.044
      -0.042
      -0.109
      -0.150
      -0.174
      -0.196
      -0.220
      -0.242
      -0.249
      -0.235
      -0.215
      -0.218
      -0.263
      -0.344
      -0.424
      -0.461
      -0.425
      -0.318
      -0.174
      -0.039
       0.044
       0.061
       0.038
       0.032
       0.096
       0.240
       0.420
       0.565
       0.628
       0.617
       0.573
       0.534
       0.501
       0.452
       0.372
       0.274
       0.186
       0.125
       0.078
       0.023
      -0.047
      -0.109
      -0.126
      -0.074
       0.032
       0.142
       0.201
       0.178
       0.088
      -0.029
      -0.128
      -0.191
      -0.231
      -0.284
      -0.367
      -0.466
      -0.538
      -0.544
      -0.484
      -0.397
      -0.334
      -0.311
      -0.298
      -0.251
      -0.153
      -0.032
       0.064
       0.110
       0.123
       0.140
       0.181
       0.236
       0.275
       0.277
       0.246
       0.203
       0.178
       0.192
       0.242
       0.300
       0.325
       0.294
       0.226
       0.167
       0.153
       0.176
       0.196
       0.191
       0.179
       0.205
       0.290
       0.401
       0.475
       0.465
       0.378
       0.268
       0.188
       0.156
       0.145
       0.109
       0.027
      -0.079
      -0.150
      -0.139
      -0.054
       0.041
       0.070
       0.003
      -0.122
      -0.235
      -0.295
      -0.316
      -0.338
      -0.385
      -0.439
      -0.469
      -0.461
      -0.426
      -0.387
      -0.352
      -0.311
      -0.251
      -0.168
      -0.080
      -0.017
       0.000
      -0.028
      -0.071
      -0.091
      -0.069
      -0.018
       0.037
       0.088
       0.158
       0.277
       0.450
       0.638
       0.789
       0.872
       0.891
       0.874
       0.842
       0.796
       0.718
       0.584
       0.385
       0.128
      -0.157
      -0.428
      -0.650
      -0.806
      -0.908
      -0.982
      -1.048
      -1.108
      -1.150
      -1.155
      -1.104
      -0.991
      -0.829
      -0.651
      -0.500
      -0.394
      -0.324
      -0.261
      -0.190
      -0.112
      -0.042
       0.006
       0.029
       0.025
       0.000
      -0.027
      -0.031
       0.001
       0.051
       0.087
       0.092
       0.077
       0.072
       0.096
       0.161
       0.273
       0.435
       0.636
       0.834
       0.977
       1.032
       1.016
       0.980
       0.962
       0.953
       0.903
       0.771
       0.571
       0.362
       0.203
       0.106
       0.029
      -0.077
      -0.223
      -0.378
      -0.496
      -0.549
      -0.543
      -0.498
      -0.437
      -0.369
      -0.286
      -0.173
      -0.026
       0.131
       0.258
       0.331
       0.362
       0.388
       0.432
       0.478
       0.490
       0.438
       0.320
       0.154
      -0.041
      -0.250
      -0.455
      -0.634
      -0.755
      -0.801
      -0.781
      -0.725
      -0.668
      -0.623
      -0.569
      -0.473
      -0.314
      -0.115
       0.075
       0.207
       0.271
       0.293
       0.304
       0.310
       0.279
       0.180
       0.025
      -0.123
      -0.188
      -0.139
      -0.015
       0.108
       0.176
       0.194
       0.217
       0.300
       0.448
       0.616
       0.738
       0.776
       0.745
       0.688
       0.643
       0.617
       0.591
       0.552
       0.514
       0.507
       0.539
       0.579
       0.563
       0.443
       0.228
      -0.011
      -0.184
      -0.239
      -0.197
      -0.124
      -0.083
      -0.086
      -0.112
      -0.144
      -0.188
      -0.260
      -0.355
      -0.432
      -0.454
      -0.417
      -0.365
      -0.356
      -0.423
      -0.549
      -0.685
      -0.778
      -0.804
      -0.770
      -0.705
      -0.633
      -0.564
      -0.493
      -0.418
      -0.352
      -0.322
      -0.347
      -0.405
      -0.442
      -0.408
      -0.313
      -0.234
      -0.257
      -0.401
      -0.586
      -0.689
      -0.631
      -0.433
      -0.190
       0.002
       0.101
       0.129
       0.122
       0.097
       0.042
      -0.059
      -0.188
      -0.301
      -0.352
      -0.337
      -0.295
      -0.280
      -0.312
      -0.370
      -0.412
      -0.407
      -0.354
      -0.267
      -0.170
      -0.084
      -0.016
       0.043
       0.120
       0.235
       0.389
       0.554
       0.703
       0.833
       0.968
       1.133
       1.315
       1.461
       1.508
       1.430
       1.256
       1.039
       0.821
       0.612
       0.408
       0.206
       0.016
      -0.160
      -0.319
      -0.458
      -0.563
      -0.629
      -0.668
      -0.709
      -0.771
      -0.844
      -0.904
      -0.929
      -0.909
      -0.842
      -0.720
      -0.545
      -0.335
      -0.127
       0.043
       0.164
       0.248
       0.312
       0.359
       0.387
       0.411
       0.455
       0.530
       0.612
       0.666
       0.686
       0.704
       0.764
       0.872
       1.002
       1.117
       1.195
       1.226
       1.203
       1.119
       0.983
       0.818
       0.644
       0.473
       0.315
       0.181
       0.086
       0.024
      -0.031
      -0.115
      -0.242
      -0.397
      -0.541
      -0.636
      -0.658
      -0.603
      -0.490
      -0.362
      -0.274
      -0.260
      -0.313
      -0.390
      -0.446
      -0.463
      -0.467
      -0.504
      -0.613
      -0.802
      -1.042
      -1.284
      -1.480
      -1.602
      -1.642
      -1.610
      -1.509
      -1.327
      -1.049
      -0.685
      -0.277
       0.119
       0.454
       0.701
       0.841
       0.868
       0.800
       0.688
       0.590
       0.546
       0.557
       0.600
       0.648
       0.672
       0.653
       0.590
       0.516
       0.484
       0.530
       0.645
       0.786
       0.923
       1.059
       1.216
       1.400
       1.568
       1.655
       1.605
       1.411
       1.119
       0.799
       0.497
       0.211
      -0.104
      -0.499
      -0.972
      -1.466
      -1.897
      -2.212
      -2.414
      -2.547
      -2.633
      -2.649
      -2.535
      -2.251
      -1.826
      -1.349
      -0.920
      -0.588
      -0.340
      -0.139
       0.025
       0.123
       0.115
       0.006
      -0.137
      -0.202
      -0.083
       0.257
       0.764
       1.306
       1.751
       2.034
       2.167
       2.199
       2.154
       2.022
       1.797
       1.504
       1.186
       0.860
       0.506
       0.098
      -0.353
      -0.798
      -1.186
      -1.497
      -1.746
      -1.961
      -2.163
      -2.349
      -2.491
      -2.528
      -2.396
      -2.077
      -1.623
      -1.130
      -0.677
      -0.281
       0.095
       0.493
       0.930
       1.397
       1.881
       2.367
       2.818
       3.158
       3.299
       3.194
       2.871
       2.421
       1.943
       1.502
       1.128
       0.822
       0.559
       0.289
      -0.047
      -0.487
      -1.025
      -1.611
      -2.174
      -2.633
      -2.927
      -3.029
      -2.960
      -2.778
      -2.550
      -2.309
      -2.041
      -1.701
      -1.256
      -0.717
      -0.143
       0.377
       0.761
       0.977
       1.060
       1.096
       1.164
       1.289
       1.432
       1.533
       1.571
       1.576
       1.595
       1.637
       1.666
       1.625
       1.496
       1.321
       1.170
       1.083
       1.033
       0.941
       0.736
       0.402
      -0.007
      -0.409
      -0.740
      -0.977
      -1.137
      -1.244
      -1.311
      -1.333
      -1.307
      -1.250
      -1.197
      -1.179
      -1.188
      -1.163
      -1.017
      -0.690
      -0.192
       0.391
       0.949
       1.402
       1.732
       1.952
       2.071
       2.077
       1.958
       1.721
       1.397
       1.016
       0.592
       0.117
      -0.424
      -1.027
      -1.660
      -2.267
      -2.787
      -3.172
      -3.393
      -3.435
      -3.296
      -2.982
      -2.510
      -1.906
      -1.210
      -0.485
       0.192
       0.744
       1.126
       1.342
       1.436
       1.473
       1.520
       1.627
       1.799
       1.981
       2.078
       2.010
       1.763
       1.405
       1.034
       0.733
       0.534
       0.431
       0.407
       0.453
       0.566
       0.741
       0.958
       1.179
       1.357
       1.454
       1.454
       1.353
       1.144
       0.799
       0.274
      -0.458
      -1.370
      -2.370
      -3.334
      -4.151
      -4.764
      -5.158
      -5.332
      -5.275
      -4.970
      -4.422
      -3.674
      -2.792
      -1.847
      -0.884
       0.071
       0.999
       1.868
       2.624
       3.198
       3.538
       3.638
       3.559
       3.415
       3.313
       3.297
       3.320
       3.277
       3.069
       2.665
       2.110
       1.487
       0.865
       0.270
      -0.287
      -0.783
      -1.167
      -1.404
      -1.515
      -1.579
      -1.682
      -1.860
      -2.082
      -2.281
      -2.401
      -2.401
      -2.256
      -1.951
      -1.500
      -0.947
      -0.344
       0.272
       0.885
       1.481
       2.026
       2.477
       2.807
       3.014
       3.101
       3.061
       2.891
       2.603
       2.232
       1.812
       1.366
       0.902
       0.423
      -0.060
      -0.530
      -0.968
      -1.362
      -1.713
      -2.040
      -2.364
      -2.692
      -3.000
      -3.237
      -3.352
      -3.320
      -3.153
      -2.887
      -2.568
      -2.230
      -1.882
      -1.508
      -1.081
      -0.589
      -0.047
       0.511
       1.054
       1.554
       1.992
       2.348
       2.612
       2.794
       2.913
       2.978
       2.984
       2.921
       2.807
       2.694
       2.631
       2.626
       2.628
       2.555
       2.354
       2.039
       1.683
       1.366
       1.120
       0.911
       0.658
       0.293
      -0.201
      -0.774
      -1.350
      -1.869
      -2.324
      -2.748
      -3.179
      -3.622
      -4.034
      -4.342
      -4.476
      -4.393
      -4.083
      -3.554
      -2.835
      -1.985
      -1.090
      -0.235
       0.530
       1.202
       1.794
       2.298
       2.677
       2.896
       2.957
       2.903
       2.785
       2.632
       2.446
       2.205
       1.875
       1.423
       0.846
       0.189
      -0.468
      -1.052
      -1.515
      -1.825
      -1.951
      -1.872
      -1.610
      -1.241
      -0.853
      -0.503
      -0.211
       0.011
       0.139
       0.155
       0.078
      -0.029
      -0.105
      -0.130
      -0.124
      -0.110
      -0.085
      -0.025
       0.075
       0.187
       0.269
       0.302
       0.299
       0.280
       0.246
       0.176
       0.053
      -0.123
      -0.324
      -0.507
      -0.630
      -0.663
      -0.598
      -0.446
      -0.220
       0.074
       0.440
       0.863
       1.285
       1.615
       1.772
       1.736
       1.552
       1.295
       1.016
       0.726
       0.420
       0.116
      -0.141
      -0.309
      -0.383
      -0.403
      -0.424
      -0.487
      -0.595
      -0.725
      -0.853
      -0.970
      -1.092
      -1.237
      -1.412
      -1.586
      -1.703
      -1.700
      -1.546
      -1.252
      -0.852
      -0.386
       0.113
       0.604
       1.041
       1.380
       1.600
       1.710
       1.733
       1.682
       1.547
       1.308
       0.949
       0.479
      -0.050
      -0.553
      -0.947
      -1.190
      -1.300
      -1.328
      -1.319
      -1.288
      -1.248
      -1.230
      -1.277
      -1.396
      -1.519
      -1.521
      -1.311
      -0.902
      -0.426
      -0.046
       0.139
       0.143
       0.058
      -0.016
      -0.027
       0.030
       0.133
       0.257
       0.376
       0.466
       0.495
       0.428
       0.248
      -0.035
      -0.367
      -0.666
      -0.856
      -0.905
      -0.844
      -0.746
      -0.678
      -0.658
      -0.655
      -0.630
      -0.557
      -0.431
      -0.246
       0.007
       0.334
       0.726
       1.156
       1.582
       1.958
       2.241
       2.415
       2.502
       2.558
       2.635
       2.741
       2.825
       2.815
       2.662
       2.364
       1.940
       1.398
       0.717
      -0.128
      -1.122
      -2.186
      -3.196
      -4.020
      -4.565
      -4.794
      -4.714
      -4.366
      -3.809
      -3.099
      -2.284
      -1.401
      -0.485
       0.430
       1.317
       2.172
       2.995
       3.766
       4.420
       4.859
       4.998
       4.816
       4.356
       3.700
       2.921
       2.068
       1.164
       0.226
      -0.732
      -1.693
      -2.634
      -3.523
      -4.322
      -4.990
      -5.476
      -5.717
      -5.655
      -5.265
      -4.585
      -3.703
      -2.720
      -1.705
      -0.688
       0.317
       1.289
       2.192
       2.987
       3.651
       4.176
       4.563
       4.811
       4.913
       4.864
       4.666
       4.331
       3.885
       3.372
       2.840
       2.323
       1.827
       1.347
       0.888
       0.484
       0.174
      -0.026
      -0.147
      -0.249
      -0.378
      -0.543
      -0.707
      -0.826
      -0.883
      -0.915
      -0.995
      -1.186
      -1.501
      -1.885
      -2.260
      -2.575
      -2.832
      -3.060
      -3.281
      -3.478
      -3.600
      -3.603
      -3.482
      -3.271
      -3.003
      -2.667
      -2.209
      -1.578
      -0.783
       0.092
       0.932
       1.660
       2.268
       2.797
       3.274
       3.675
       3.931
       3.965
       3.747
       3.312
       2.744
       2.129
       1.515
       0.903
       0.281
      -0.340
      -0.919
      -1.397
      -1.737
      -1.929
      -1.983
      -1.905
      -1.687
      -1.320
      -0.816
      -0.221
       0.407
       1.025
       1.619
       2.185
       2.696
       3.089
       3.290
       3.242
       2.938
       2.415
       1.728
       0.941
       0.111
      -0.699
      -1.432
      -2.039
      -2.492
      -2.786
      -2.935
      -2.966
      -2.896
      -2.726
      -2.437
      -2.015
      -1.466
      -0.827
      -0.154
       0.502
       1.098
       1.601
       1.982
       2.205
       2.238
       2.060
       1.674
       1.127
       0.498
      -0.124
      -0.662
      -1.071
      -1.340
      -1.472
      -1.479
      -1.381
      -1.200
      -0.961
      -0.688
      -0.402
      -0.130
       0.097
       0.259
       0.359
       0.421
       0.470
       0.515
       0.556
       0.590
       0.614
       0.631
       0.638
       0.629
       0.600
       0.551
       0.481
       0.376
       0.207
      -0.055
      -0.415
      -0.841
      -1.272
      -1.648
      -1.925
      -2.089
      -2.152
      -2.141
      -2.080
      -1.977
      -1.829
      -1.627
      -1.372
      -1.080
      -0.761
      -0.409
      -0.006
       0.456
       0.950
       1.418
       1.801
       2.069
       2.222
       2.266
       2.190
       1.962
       1.560
       1.005
       0.370
      -0.238
      -0.730
      -1.066
      -1.271
      -1.406
      -1.530
      -1.666
      -1.789
      -1.849
      -1.802
      -1.640
      -1.386
      -1.081
      -0.764
      -0.470
      -0.232
      -0.084
      -0.058
      -0.169
      -0.391
      -0.660
      -0.901
      -1.064
      -1.146
      -1.178
      -1.183
      -1.136
      -0.968
      -0.609
      -0.042
       0.674
       1.435
       2.143
       2.742
       3.221
       3.583
       3.830
       3.956
       3.965
       3.881
       3.737
       3.563
       3.375
       3.167
       2.910
       2.563
       2.101
       1.540
       0.941
       0.374
      -0.128
      -0.578
      -1.011
      -1.437
      -1.822
      -2.116
      -2.295
      -2.382
      -2.421
      -2.439
      -2.427
      -2.359
      -2.226
      -2.045
      -1.846
      -1.649
      -1.451
      -1.239
      -1.006
      -0.761
      -0.521
      -0.302
      -0.108
       0.073
       0.261
       0.469
       0.689
       0.890
       1.029
       1.075
       1.020
       0.880
       0.688
       0.483
       0.301
       0.170
       0.103
       0.108
       0.181
       0.303
       0.429
       0.505
       0.488
       0.380
       0.228
       0.099
       0.041
       0.055
       0.108
       0.157
       0.179
       0.176
       0.157
       0.124
       0.073
       0.012
      -0.035
      -0.036
       0.022
       0.128
       0.255
       0.382
       0.504
       0.615
       0.700
       0.715
       0.611
       0.350
      -0.065
      -0.586
      -1.133
      -1.625
      -2.015
      -2.288
      -2.453
      -2.524
      -2.511
      -2.426
      -2.289
      -2.119
      -1.920
      -1.683
      -1.397
      -1.063
      -0.702
      -0.333
       0.030
       0.392
       0.760
       1.135
       1.503
       1.839
       2.111
       2.287
       2.337
       2.249
       2.031
       1.719
       1.356
       0.979
       0.607
       0.256
      -0.060
      -0.326
      -0.544
      -0.729
      -0.901
      -1.066
      -1.214
      -1.331
      -1.413
      -1.464
      -1.478
      -1.431
      -1.289
      -1.038
      -0.696
      -0.306
       0.094
       0.492
       0.898
       1.327
       1.785
       2.266
       2.758
       3.245
       3.701
       4.083
       4.352
       4.484
       4.478
       4.355
       4.128
       3.793
       3.322
       2.685
       1.875
       0.925
      -0.094
      -1.095
      -2.007
      -2.791
      -3.437
      -3.950
      -4.339
      -4.616
      -4.791
      -4.861
      -4.803
      -4.591
      -4.216
      -3.712
      -3.142
      -2.559
      -1.987
      -1.416
      -0.831
      -0.233
       0.353
       0.897
       1.382
       1.803
       2.157
       2.432
       2.599
       2.630
       2.513
       2.260
       1.910
       1.518
       1.132
       0.777
       0.450
       0.141
      -0.150
      -0.404
      -0.600
      -0.734
      -0.819
      -0.881
      -0.941
      -1.011
      -1.089
      -1.164
      -1.224
      -1.261
      -1.277
      -1.287
      -1.306
      -1.334
      -1.358
      -1.356
      -1.314
      -1.240
      -1.164
      -1.118
      -1.116
      -1.144
      -1.156
      -1.097
      -0.921
      -0.611
      -0.193
       0.286
       0.769
       1.219
       1.611
       1.928
       2.149
       2.261
       2.265
       2.179
       2.026
       1.823
