Origin Time       21/9/2009 9:43:47	  UTC
Lat.              30.9 N	
Long.             79.1 E	
Depth (Km)         13.0
Magnitude         4.7
 Region           UTTARKASHI-UTTARAKHAND                                           
 Above details taken from IMD 
    
Station Code      JUB
Station Lat.       31.110  N
Station Long.      77.663  E
Station Height(m) 1931.0
Site Class        A   Vs30 between 700 m/sec to 1400 m/sec * 
Record Time       21.09.2009 09:44:15.869 UTC
Sampling Rate     200. Hz
 Record Duration   72.035 Sec.
 Direction         N-S (N positive)
Max. Acceleration      8.621 cm/sec**2
     
  * For reference see Site Classification link of website 
     
 Base Line Corrected and Low Pass Filtered (Cut Off at 35 Hz) Time History
 Acceleration data in cm/sec**2
    
[...]
       0.490
       0.291
       0.141
       0.087
       0.118
       0.176
       0.195
       0.142
       0.024
      -0.132
      -0.299
      -0.447
      -0.543
      -0.561
      -0.501
      -0.394
      -0.278
      -0.184
      -0.122
      -0.087
      -0.067
      -0.054
      -0.048
      -0.050
      -0.055
      -0.039
       0.033
       0.180
       0.375
       0.551
       0.631
       0.584
       0.441
       0.276
       0.150
       0.079
       0.045
       0.019
      -0.010
      -0.042
      -0.071
      -0.091
      -0.095
      -0.078
      -0.054
      -0.049
      -0.090
      -0.175
      -0.273
      -0.341
      -0.358
      -0.333
      -0.294
      -0.266
      -0.250
      -0.233
      -0.196
      -0.130
      -0.027
       0.117
       0.300
       0.498
       0.663
       0.739
       0.691
       0.524
       0.277
       0.004
      -0.251
      -0.457
      -0.585
      -0.606
      -0.505
      -0.301
      -0.053
       0.160
       0.281
       0.307
       0.285
       0.285
       0.347
       0.452
       0.526
       0.479
       0.260
      -0.104
      -0.508
      -0.821
      -0.949
      -0.879
      -0.678
      -0.447
      -0.262
      -0.148
      -0.088
      -0.042
       0.023
       0.128
       0.274
       0.443
       0.594
       0.678
       0.657
       0.525
       0.313
       0.078
      -0.113
      -0.205
      -0.182
      -0.074
       0.050
       0.114
       0.077
      -0.041
      -0.173
      -0.255
      -0.261
      -0.220
      -0.180
      -0.173
      -0.192
      -0.206
      -0.184
      -0.120
      -0.035
       0.040
       0.090
       0.125
       0.164
       0.215
       0.261
       0.288
       0.299
       0.315
       0.356
       0.414
       0.439
       0.372
       0.185
      -0.087
      -0.354
      -0.523
      -0.555
      -0.489
      -0.411
      -0.389
      -0.435
      -0.492
      -0.479
      -0.334
      -0.056
       0.296
       0.619
       0.812
       0.820
       0.655
       0.400
       0.163
       0.024
      -0.014
      -0.023
      -0.096
      -0.275
      -0.513
      -0.703
      -0.752
      -0.636
      -0.404
      -0.139
       0.081
       0.216
       0.268
       0.274
       0.284
       0.342
       0.463
       0.626
       0.780
       0.857
       0.805
       0.606
       0.290
      -0.072
      -0.394
      -0.602
      -0.657
      -0.572
      -0.407
      -0.248
      -0.166
      -0.179
      -0.246
      -0.299
      -0.298
      -0.249
      -0.189
      -0.150
      -0.133
      -0.114
      -0.063
       0.027
       0.139
       0.238
       0.285
       0.259
       0.169
       0.059
      -0.012
       0.000
       0.096
       0.229
       0.333
       0.368
       0.336
       0.275
       0.215
       0.158
       0.076
      -0.054
      -0.215
      -0.356
      -0.424
      -0.398
      -0.305
      -0.191
      -0.097
      -0.035
       0.001
       0.028
       0.059
       0.101
       0.149
       0.181
       0.169
       0.096
      -0.022
      -0.141
      -0.212
      -0.202
      -0.106
       0.061
       0.266
       0.464
       0.608
       0.659
       0.606
       0.468
       0.281
       0.085
      -0.089
      -0.222
      -0.320
      -0.405
      -0.495
      -0.582
      -0.622
      -0.568
      -0.403
      -0.168
       0.063
       0.214
       0.256
       0.208
       0.120
       0.031
      -0.048
      -0.116
      -0.167
      -0.178
      -0.139
      -0.063
       0.022
       0.098
       0.165
       0.236
       0.318
       0.406
       0.492
       0.564
       0.596
       0.550
       0.397
       0.142
      -0.160
      -0.420
      -0.567
      -0.591
      -0.542
      -0.489
      -0.457
      -0.412
      -0.286
      -0.050
       0.251
       0.508
       0.619
       0.553
       0.366
       0.162
       0.037
       0.027
       0.105
       0.201
       0.235
       0.156
      -0.028
      -0.252
      -0.426
      -0.493
      -0.464
      -0.399
      -0.355
      -0.343
      -0.319
      -0.243
      -0.115
       0.014
       0.088
       0.090
       0.059
       0.052
       0.095
       0.171
       0.241
       0.291
       0.345
       0.429
       0.526
       0.570
       0.493
       0.286
       0.009
      -0.254
      -0.452
      -0.582
      -0.675
      -0.757
      -0.831
      -0.879
      -0.857
      -0.717
      -0.428
      -0.013
       0.442
       0.819
       1.027
       1.046
       0.932
       0.775
       0.648
       0.578
       0.540
       0.488
       0.379
       0.198
      -0.037
      -0.287
      -0.507
      -0.664
      -0.746
      -0.754
      -0.705
      -0.619
      -0.510
      -0.385
      -0.250
      -0.127
      -0.049
      -0.037
      -0.074
      -0.106
      -0.073
       0.044
       0.211
       0.371
       0.490
       0.571
       0.629
       0.668
       0.666
       0.600
       0.465
       0.273
       0.035
      -0.242
      -0.537
      -0.801
      -0.970
      -1.003
      -0.905
      -0.725
      -0.509
      -0.273
      -0.011
       0.278
       0.553
       0.752
       0.832
       0.807
       0.733
       0.659
       0.583
       0.465
       0.272
       0.012
      -0.260
      -0.485
      -0.627
      -0.686
      -0.686
      -0.658
      -0.613
      -0.538
      -0.404
      -0.192
       0.080
       0.362
       0.596
       0.746
       0.808
       0.792
       0.707
       0.553
       0.340
       0.099
      -0.124
      -0.297
      -0.417
      -0.510
      -0.602
      -0.699
      -0.772
      -0.777
      -0.685
      -0.506
      -0.294
      -0.112
       0.005
       0.073
       0.137
       0.232
       0.355
       0.479
       0.579
       0.655
       0.717
       0.769
       0.791
       0.760
       0.668
       0.522
       0.342
       0.145
      -0.053
      -0.234
      -0.387
      -0.521
      -0.671
      -0.875
      -1.132
      -1.387
      -1.537
      -1.490
      -1.211
      -0.750
      -0.214
       0.280
       0.660
       0.912
       1.055
       1.119
       1.127
       1.108
       1.088
       1.076
       1.042
       0.928
       0.680
       0.302
      -0.147
      -0.581
      -0.926
      -1.137
      -1.190
      -1.089
      -0.871
      -0.610
      -0.396
      -0.289
      -0.282
      -0.307
      -0.277
      -0.149
       0.048
       0.233
       0.326
       0.305
       0.214
       0.123
       0.069
       0.042
       0.014
      -0.009
       0.021
       0.152
       0.379
       0.637
       0.835
       0.916
       0.879
       0.762
       0.608
       0.442
       0.268
       0.087
      -0.102
      -0.300
      -0.502
      -0.694
      -0.859
      -0.972
      -1.017
      -0.985
      -0.875
      -0.687
      -0.428
      -0.120
       0.195
       0.465
       0.643
       0.708
       0.670
       0.564
       0.429
       0.296
       0.177
       0.074
      -0.002
      -0.024
       0.041
       0.192
       0.380
       0.514
       0.515
       0.369
       0.135
      -0.098
      -0.262
      -0.342
      -0.371
      -0.391
      -0.434
      -0.509
      -0.604
      -0.695
      -0.749
      -0.740
      -0.655
      -0.492
      -0.265
      -0.001
       0.251
       0.432
       0.506
       0.493
       0.463
       0.487
       0.581
       0.696
       0.756
       0.715
       0.578
       0.388
       0.200
       0.053
      -0.039
      -0.094
      -0.154
      -0.259
      -0.409
      -0.563
      -0.657
      -0.652
      -0.545
      -0.370
      -0.184
      -0.053
      -0.034
      -0.133
      -0.291
      -0.398
      -0.357
      -0.143
       0.178
       0.500
       0.733
       0.849
       0.868
       0.814
       0.687
       0.473
       0.179
      -0.139
      -0.399
      -0.537
      -0.548
      -0.479
      -0.403
      -0.376
      -0.414
      -0.500
      -0.589
      -0.628
      -0.581
      -0.453
      -0.292
      -0.163
      -0.107
      -0.104
      -0.095
      -0.022
       0.123
       0.299
       0.448
       0.548
       0.621
       0.708
       0.824
       0.942
       1.007
       0.969
       0.814
       0.567
       0.276
      -0.005
      -0.243
      -0.436
      -0.607
      -0.779
      -0.954
      -1.091
      -1.136
      -1.053
      -0.853
      -0.588
      -0.316
      -0.070
       0.147
       0.345
       0.523
       0.656
       0.712
       0.672
       0.551
       0.397
       0.263
       0.179
       0.137
       0.104
       0.049
      -0.025
      -0.088
      -0.105
      -0.061
       0.024
       0.104
       0.134
       0.083
      -0.058
      -0.270
      -0.507
      -0.701
      -0.779
      -0.695
      -0.468
      -0.185
       0.029
       0.084
      -0.015
      -0.162
      -0.217
      -0.092
       0.184
       0.494
       0.710
       0.764
       0.679
       0.531
       0.397
       0.311
       0.270
       0.250
       0.217
       0.135
      -0.021
      -0.245
      -0.483
      -0.655
      -0.704
      -0.637
      -0.517
      -0.420
      -0.383
      -0.387
      -0.385
      -0.333
      -0.213
      -0.033
       0.181
       0.398
       0.587
       0.725
       0.794
       0.787
       0.700
       0.548
       0.359
       0.178
       0.043
      -0.037
      -0.082
      -0.134
      -0.230
      -0.382
      -0.563
      -0.715
      -0.772
      -0.698
      -0.511
      -0.282
      -0.100
      -0.015
      -0.015
      -0.042
      -0.031
       0.050
       0.189
       0.339
       0.447
       0.483
       0.451
       0.379
       0.292
       0.188
       0.050
      -0.121
      -0.285
      -0.386
      -0.384
      -0.289
      -0.150
      -0.023
       0.057
       0.071
       0.015
      -0.099
      -0.237
      -0.335
      -0.341
      -0.248
      -0.105
       0.019
       0.084
       0.101
       0.110
       0.143
       0.205
       0.277
       0.344
       0.405
       0.461
       0.494
       0.470
       0.356
       0.156
      -0.084
      -0.297
      -0.436
      -0.493
      -0.497
      -0.484
      -0.476
      -0.469
      -0.442
      -0.369
      -0.231
      -0.027
       0.223
       0.477
       0.687
       0.806
       0.803
       0.667
       0.406
       0.045
      -0.375
      -0.793
      -1.133
      -1.331
      -1.357
      -1.229
      -1.006
      -0.738
      -0.441
      -0.098
       0.316
       0.785
       1.255
       1.645
       1.887
       1.941
       1.804
       1.502
       1.085
       0.617
       0.163
      -0.233
      -0.562
      -0.848
      -1.118
      -1.371
      -1.567
      -1.648
      -1.574
      -1.347
      -1.001
      -0.589
      -0.167
       0.213
       0.512
       0.715
       0.836
       0.913
       0.977
       1.035
       1.068
       1.044
       0.947
       0.788
       0.603
       0.427
       0.282
       0.158
       0.025
      -0.142
      -0.350
      -0.583
      -0.815
      -1.029
      -1.218
      -1.374
      -1.469
      -1.460
      -1.321
      -1.072
      -0.776
      -0.498
      -0.256
      -0.012
       0.292
       0.675
       1.086
       1.424
       1.594
       1.563
       1.371
       1.105
       0.851
       0.653
       0.509
       0.378
       0.210
      -0.024
      -0.306
      -0.571
      -0.745
      -0.788
      -0.722
      -0.611
      -0.518
      -0.466
      -0.446
      -0.435
      -0.418
      -0.391
      -0.350
      -0.287
      -0.194
      -0.071
       0.083
       0.276
       0.512
       0.780
       1.044
       1.245
       1.336
       1.296
       1.143
       0.910
       0.631
       0.331
       0.027
      -0.266
      -0.534
      -0.765
      -0.944
      -1.063
      -1.127
      -1.159
      -1.187
      -1.221
      -1.240
      -1.205
      -1.085
      -0.870
      -0.575
      -0.225
       0.136
       0.448
       0.649
       0.706
       0.650
       0.559
       0.520
       0.579
       0.717
       0.863
       0.930
       0.865
       0.661
       0.363
       0.040
      -0.233
      -0.390
      -0.391
      -0.233
       0.046
       0.383
       0.709
       0.977
       1.172
       1.299
       1.367
       1.378
       1.339
       1.251
       1.096
       0.824
       0.371
      -0.273
      -1.022
      -1.699
      -2.118
      -2.183
      -1.936
      -1.537
      -1.176
      -0.993
      -1.021
      -1.183
      -1.341
      -1.355
      -1.152
      -0.755
      -0.260
       0.205
       0.543
       0.733
       0.821
       0.901
       1.062
       1.361
       1.806
       2.350
       2.892
       3.286
       3.389
       3.120
       2.500
       1.645
       0.698
      -0.230
      -1.097
      -1.906
      -2.672
      -3.398
      -4.070
      -4.647
      -5.050
      -5.167
      -4.890
      -4.178
      -3.094
      -1.784
      -0.415
       0.885
       2.050
       3.054
       3.886
       4.531
       4.971
       5.189
       5.174
       4.923
       4.450
       3.796
       3.024
       2.200
       1.359
       0.492
      -0.429
      -1.414
      -2.431
      -3.422
      -4.331
      -5.121
      -5.762
      -6.218
      -6.446
      -6.407
      -6.085
      -5.491
      -4.647
      -3.580
      -2.318
      -0.893
       0.641
       2.219
       3.769
       5.226
       6.525
       7.586
       8.315
       8.621
       8.448
       7.789
       6.689
       5.240
       3.570
       1.827
       0.132
      -1.449
      -2.913
      -4.286
      -5.565
      -6.692
      -7.569
      -8.099
      -8.222
      -7.922
      -7.226
      -6.193
      -4.912
      -3.491
      -2.017
      -0.529
       0.993
       2.577
       4.199
       5.742
       7.026
       7.882
       8.225
       8.089
       7.586
       6.823
       5.851
       4.651
       3.195
       1.508
      -0.299
      -2.059
      -3.618
      -4.895
      -5.890
      -6.647
      -7.185
      -7.467
      -7.419
      -6.979
      -6.140
      -4.947
      -3.483
      -1.849
      -0.157
       1.484
       2.989
       4.319
       5.462
       6.404
       7.096
       7.466
       7.453
       7.047
       6.288
       5.227
       3.909
       2.370
       0.666
      -1.110
      -2.828
      -4.348
      -5.561
      -6.407
      -6.876
      -6.995
      -6.801
      -6.321
      -5.565
      -4.542
      -3.277
      -1.830
      -0.295
       1.216
       2.609
       3.828
       4.859
       5.692
       6.295
       6.600
       6.536
       6.063
       5.195
       3.999
       2.585
       1.099
      -0.295
      -1.459
      -2.325
      -2.917
      -3.332
      -3.683
      -4.034
      -4.360
      -4.569
      -4.556
      -4.273
      -3.749
      -3.074
      -2.334
      -1.568
      -0.770
       0.067
       0.909
       1.685
       2.327
       2.804
       3.123
       3.306
       3.374
       3.348
       3.259
       3.138
       2.990
       2.772
       2.418
       1.869
       1.108
       0.161
      -0.917
      -2.055
      -3.163
      -4.126
      -4.814
      -5.128
      -5.043
      -4.622
      -3.983
      -3.243
      -2.478
      -1.716
      -0.960
      -0.206
       0.556
       1.341
       2.167
       3.030
       3.884
       4.637
       5.172
       5.382
       5.207
       4.652
       3.774
       2.660
       1.420
       0.176
      -0.962
      -1.933
      -2.770
      -3.575
      -4.432
      -5.309
      -6.038
      -6.385
      -6.179
      -5.398
      -4.173
      -2.721
      -1.252
       0.109
       1.347
       2.526
       3.709
       4.861
       5.818
       6.363
       6.345
       5.781
       4.845
       3.766
       2.705
       1.696
       0.681
      -0.408
      -1.573
      -2.730
      -3.747
      -4.502
      -4.929
      -5.025
      -4.829
      -4.393
      -3.763
      -2.985
      -2.102
      -1.159
      -0.197
       0.749
       1.643
       2.444
       3.103
       3.579
       3.843
       3.887
       3.724
       3.394
       2.950
       2.445
       1.918
       1.382
       0.831
       0.251
      -0.368
      -1.018
      -1.665
      -2.268
      -2.793
      -3.232
      -3.572
      -3.769
      -3.741
      -3.412
      -2.781
      -1.945
      -1.060
      -0.268
       0.368
       0.873
       1.317
       1.765
       2.222
       2.626
       2.871
       2.866
       2.577
       2.031
       1.291
       0.435
      -0.446
      -1.235
      -1.807
      -2.075
      -2.020
      -1.696
      -1.196
      -0.610
       0.003
       0.624
       1.254
       1.884
       2.475
       2.960
       3.268
       3.344
       3.157
       2.692
       1.959
       1.010
      -0.039
      -1.032
      -1.835
      -2.389
      -2.728
      -2.944
      -3.112
      -3.257
      -3.351
      -3.350
      -3.219
      -2.932
      -2.469
      -1.821
      -1.012
      -0.114
       0.777
       1.569
       2.195
       2.602
       2.745
       2.600
       2.202
       1.648
       1.072
       0.575
       0.182
      -0.146
      -0.453
      -0.738
      -0.941
      -0.984
      -0.816
      -0.443
       0.080
       0.678
       1.280
       1.820
       2.219
       2.387
       2.250
       1.796
       1.095
       0.264
      -0.590
      -1.402
      -2.132
      -2.730
      -3.130
      -3.289
      -3.227
      -3.024
      -2.743
      -2.371
      -1.812
      -0.959
       0.200
       1.541
       2.831
       3.826
       4.368
       4.428
       4.089
       3.484
       2.739
       1.931
       1.086
       0.211
      -0.661
      -1.458
      -2.090
      -2.497
      -2.683
      -2.696
      -2.590
      -2.397
      -2.140
      -1.854
      -1.596
      -1.427
      -1.380
      -1.449
      -1.581
      -1.690
      -1.668
      -1.409
      -0.839
       0.047
       1.166
       2.378
       3.533
       4.525
       5.308
       5.870
       6.187
       6.188
       5.760
       4.805
       3.330
       1.494
      -0.420
      -2.118
      -3.425
      -4.332
      -4.944
      -5.355
      -5.558
      -5.450
      -4.931
      -4.015
      -2.866
      -1.735
      -0.842
      -0.286
      -0.024
       0.072
       0.133
       0.232
       0.373
       0.535
       0.721
       0.981
       1.376
       1.922
       2.553
       3.135
       3.512
       3.572
       3.298
       2.793
       2.235
       1.776
       1.447
       1.133
       0.667
      -0.046
      -0.955
      -1.891
      -2.670
      -3.182
      -3.427
      -3.477
      -3.412
      -3.262
      -3.002
      -2.583
      -1.983
      -1.244
      -0.466
       0.235
       0.786
       1.203
       1.582
       2.043
       2.647
       3.363
       4.076
       4.652
       4.987
       5.022
       4.723
       4.068
       3.048
       1.682
       0.036
      -1.775
      -3.601
      -5.283
      -6.672
      -7.646
      -8.122
      -8.068
      -7.521
      -6.586
      -5.401
      -4.072
      -2.617
      -0.985
       0.861
       2.845
       4.753
       6.318
       7.343
       7.776
       7.700
       7.251
       6.559
       5.728
