Origin Time       14/03/2010 6:53:21	
Lat.              31.7 N	
Long.             76.1 E	
Depth (Km)         29.0
Magnitude         4.6
 Region           HIMACHAL-PUNJAB-(HOSHIARPUR)-BORDER                              
 Above details taken from IMD 
     
Station Code      JUB
Station Lat.       31.110  N
Station Long.      77.663  E
Station Height(m) 1931.0
Site Class        A   Vs30 between 700 m/sec to 1400 m/sec * 
Record Time       14.03.2010 06:53:58.904
Sampling Rate     200. Hz
 Record Duration   64.995 Sec.
 Direction         E-W (E positive)
Max. Acceleration      2.671 cm/sec**2
     
  * For reference see Site Classification link of website 
     
 Base Line Corrected and Low Pass Filtered (Cut Off at 35 Hz) Time History
 Acceleration data in cm/sec**2
    
[...]
       0.142
       0.148
       0.131
       0.087
       0.023
      -0.046
      -0.107
      -0.145
      -0.151
      -0.125
      -0.076
      -0.027
       0.002
       0.004
      -0.011
      -0.022
      -0.007
       0.035
       0.091
       0.133
       0.143
       0.115
       0.059
      -0.002
      -0.047
      -0.067
      -0.071
      -0.079
      -0.101
      -0.131
      -0.147
      -0.129
      -0.066
       0.033
       0.142
       0.224
       0.252
       0.219
       0.135
       0.026
      -0.078
      -0.147
      -0.165
      -0.134
      -0.069
       0.002
       0.051
       0.059
       0.030
      -0.020
      -0.065
      -0.090
      -0.083
      -0.046
       0.004
       0.046
       0.062
       0.058
       0.055
       0.074
       0.124
       0.189
       0.235
       0.231
       0.170
       0.075
      -0.016
      -0.074
      -0.088
      -0.077
      -0.071
      -0.098
      -0.161
      -0.236
      -0.286
      -0.286
      -0.237
      -0.159
      -0.079
      -0.015
       0.038
       0.099
       0.178
       0.268
       0.342
       0.373
       0.348
       0.273
       0.172
       0.074
      -0.003
      -0.055
      -0.087
      -0.104
      -0.109
      -0.103
      -0.090
      -0.074
      -0.066
      -0.078
      -0.111
      -0.150
      -0.173
      -0.159
      -0.105
      -0.026
       0.044
       0.075
       0.059
       0.020
      -0.002
       0.025
       0.102
       0.203
       0.284
       0.313
       0.282
       0.212
       0.133
       0.068
       0.018
      -0.025
      -0.072
      -0.128
      -0.189
      -0.242
      -0.276
      -0.289
      -0.285
      -0.271
      -0.250
      -0.216
      -0.159
      -0.074
       0.034
       0.141
       0.221
       0.257
       0.249
       0.208
       0.154
       0.107
       0.080
       0.077
       0.090
       0.110
       0.127
       0.133
       0.125
       0.107
       0.085
       0.063
       0.037
       0.003
      -0.043
      -0.099
      -0.159
      -0.211
      -0.248
      -0.272
      -0.289
      -0.295
      -0.279
      -0.229
      -0.147
      -0.041
       0.070
       0.165
       0.228
       0.247
       0.220
       0.158
       0.077
       0.001
      -0.047
      -0.056
      -0.029
       0.022
       0.078
       0.122
       0.143
       0.140
       0.120
       0.088
       0.051
       0.015
      -0.014
      -0.041
      -0.070
      -0.100
      -0.117
      -0.106
      -0.062
       0.001
       0.061
       0.094
       0.093
       0.067
       0.041
       0.036
       0.059
       0.101
       0.137
       0.142
       0.104
       0.032
      -0.047
      -0.110
      -0.150
      -0.171
      -0.178
      -0.176
      -0.167
      -0.157
      -0.151
      -0.157
      -0.172
      -0.181
      -0.164
      -0.111
      -0.033
       0.049
       0.118
       0.169
       0.210
       0.251
       0.294
       0.328
       0.337
       0.313
       0.257
       0.182
       0.097
       0.007
      -0.087
      -0.180
      -0.261
      -0.312
      -0.318
      -0.284
      -0.230
      -0.181
      -0.148
      -0.122
      -0.091
      -0.041
       0.024
       0.090
       0.138
       0.155
       0.140
       0.100
       0.048
       0.004
      -0.011
       0.007
       0.047
       0.086
       0.107
       0.108
       0.096
       0.081
       0.067
       0.050
       0.023
      -0.018
      -0.067
      -0.114
      -0.150
      -0.170
      -0.171
      -0.153
      -0.126
      -0.097
      -0.067
      -0.036
      -0.004
       0.024
       0.044
       0.056
       0.063
       0.070
       0.086
       0.115
       0.152
       0.184
       0.199
       0.182
       0.132
       0.060
      -0.011
      -0.057
      -0.071
      -0.060
      -0.040
      -0.027
      -0.035
      -0.072
      -0.133
      -0.197
      -0.235
      -0.220
      -0.147
      -0.034
       0.083
       0.177
       0.234
       0.255
       0.242
       0.203
       0.149
       0.101
       0.072
       0.063
       0.063
       0.053
       0.020
      -0.038
      -0.111
      -0.177
      -0.218
      -0.223
      -0.186
      -0.115
      -0.035
       0.026
       0.049
       0.036
       0.002
      -0.035
      -0.061
      -0.069
      -0.065
      -0.055
      -0.048
      -0.046
      -0.046
      -0.042
      -0.024
       0.013
       0.064
       0.114
       0.151
       0.165
       0.150
       0.098
       0.012
      -0.090
      -0.174
      -0.205
      -0.158
      -0.036
       0.129
       0.290
       0.402
       0.438
       0.398
       0.300
       0.178
       0.057
      -0.054
      -0.158
      -0.255
      -0.334
      -0.378
      -0.384
      -0.357
      -0.306
      -0.232
      -0.131
      -0.001
       0.145
       0.273
       0.333
       0.294
       0.162
      -0.021
      -0.197
      -0.314
      -0.344
      -0.295
      -0.193
      -0.070
       0.048
       0.147
       0.222
       0.273
       0.306
       0.330
       0.345
       0.344
       0.316
       0.251
       0.146
       0.009
      -0.141
      -0.285
      -0.410
      -0.503
      -0.544
      -0.512
      -0.398
      -0.220
      -0.021
       0.143
       0.229
       0.231
       0.178
       0.118
       0.085
       0.086
       0.108
       0.128
       0.124
       0.090
       0.035
      -0.024
      -0.073
      -0.101
      -0.102
      -0.074
      -0.023
       0.038
       0.091
       0.111
       0.081
      -0.002
      -0.112
      -0.209
      -0.255
      -0.230
      -0.145
      -0.034
       0.062
       0.114
       0.120
       0.096
       0.067
       0.044
       0.032
       0.024
       0.017
       0.011
       0.015
       0.030
       0.047
       0.048
       0.019
      -0.037
      -0.103
      -0.151
      -0.156
      -0.108
      -0.022
       0.066
       0.118
       0.117
       0.066
      -0.008
      -0.074
      -0.110
      -0.109
      -0.076
      -0.028
       0.015
       0.035
       0.025
      -0.002
      -0.028
      -0.042
      -0.045
      -0.041
      -0.030
      -0.011
       0.017
       0.055
       0.096
       0.134
       0.158
       0.167
       0.161
       0.147
       0.133
       0.126
       0.127
       0.122
       0.095
       0.033
      -0.063
      -0.175
      -0.277
      -0.340
      -0.345
      -0.294
      -0.215
      -0.140
      -0.088
      -0.055
      -0.018
       0.046
       0.148
       0.270
       0.380
       0.444
       0.443
       0.380
       0.269
       0.137
       0.008
      -0.099
      -0.175
      -0.215
      -0.220
      -0.198
      -0.162
      -0.128
      -0.108
      -0.106
      -0.113
      -0.110
      -0.078
      -0.005
       0.101
       0.215
       0.305
       0.343
       0.321
       0.255
       0.178
       0.113
       0.064
       0.020
      -0.031
      -0.093
      -0.161
      -0.232
      -0.302
      -0.370
      -0.430
      -0.466
      -0.455
      -0.381
      -0.246
      -0.077
       0.088
       0.215
       0.289
       0.317
       0.321
       0.318
       0.315
       0.312
       0.308
       0.304
       0.297
       0.280
       0.239
       0.160
       0.032
      -0.138
      -0.325
      -0.496
      -0.617
      -0.671
      -0.652
      -0.565
      -0.427
      -0.258
      -0.078
       0.090
       0.227
       0.319
       0.362
       0.355
       0.302
       0.218
       0.127
       0.053
       0.009
      -0.019
      -0.055
      -0.121
      -0.217
      -0.318
      -0.388
      -0.404
      -0.362
      -0.279
      -0.179
      -0.077
       0.018
       0.109
       0.202
       0.297
       0.378
       0.419
       0.396
       0.304
       0.165
       0.021
      -0.077
      -0.096
      -0.033
       0.085
       0.217
       0.323
       0.384
       0.401
       0.388
       0.361
       0.321
       0.255
       0.147
      -0.005
      -0.176
      -0.322
      -0.401
      -0.397
      -0.330
      -0.238
      -0.150
      -0.075
      -0.012
       0.039
       0.079
       0.111
       0.138
       0.159
       0.167
       0.152
       0.106
       0.031
      -0.054
      -0.125
      -0.161
      -0.161
      -0.139
      -0.115
      -0.109
      -0.127
      -0.164
      -0.205
      -0.238
      -0.259
      -0.268
      -0.270
      -0.267
      -0.254
      -0.215
      -0.129
       0.007
       0.166
       0.307
       0.396
       0.427
       0.421
       0.403
       0.379
       0.329
       0.226
       0.066
      -0.121
      -0.289
      -0.399
      -0.436
      -0.405
      -0.324
      -0.217
      -0.105
      -0.001
       0.089
       0.165
       0.227
       0.270
       0.280
       0.244
       0.159
       0.043
      -0.076
      -0.174
      -0.246
      -0.298
      -0.341
      -0.375
      -0.390
      -0.368
      -0.297
      -0.179
      -0.022
       0.158
       0.339
       0.495
       0.612
       0.680
       0.696
       0.657
       0.562
       0.426
       0.273
       0.122
      -0.018
      -0.151
      -0.287
      -0.428
      -0.558
      -0.647
      -0.665
      -0.598
      -0.456
      -0.269
      -0.077
       0.086
       0.211
       0.310
       0.398
       0.479
       0.542
       0.576
       0.585
       0.588
       0.609
       0.655
       0.699
       0.693
       0.595
       0.398
       0.129
      -0.167
      -0.454
      -0.714
      -0.944
      -1.141
      -1.297
      -1.393
      -1.417
      -1.379
      -1.299
      -1.194
      -1.061
      -0.884
      -0.647
      -0.343
       0.019
       0.416
       0.822
       1.202
       1.518
       1.729
       1.808
       1.752
       1.580
       1.325
       1.022
       0.704
       0.393
       0.100
      -0.172
      -0.419
      -0.630
      -0.797
      -0.918
      -0.996
      -1.044
      -1.074
      -1.092
      -1.087
      -1.037
      -0.923
      -0.741
      -0.497
      -0.209
       0.101
       0.408
       0.689
       0.923
       1.090
       1.185
       1.214
       1.200
       1.160
       1.100
       1.011
       0.873
       0.665
       0.380
       0.030
      -0.358
      -0.752
      -1.119
      -1.426
      -1.638
      -1.729
      -1.693
      -1.540
      -1.292
      -0.979
      -0.622
      -0.238
       0.159
       0.550
       0.904
       1.199
       1.424
       1.577
       1.654
       1.651
       1.563
       1.386
       1.118
       0.766
       0.345
      -0.116
      -0.581
      -1.004
      -1.343
      -1.570
      -1.673
      -1.651
      -1.507
      -1.255
      -0.920
      -0.535
      -0.136
       0.238
       0.553
       0.784
       0.922
       0.977
       0.972
       0.938
       0.897
       0.854
       0.795
       0.701
       0.561
       0.374
       0.153
      -0.080
      -0.300
      -0.479
      -0.597
      -0.642
      -0.615
      -0.532
      -0.421
      -0.303
      -0.186
      -0.059
       0.091
       0.266
       0.443
       0.573
       0.608
       0.525
       0.344
       0.112
      -0.120
      -0.318
      -0.471
      -0.587
      -0.678
      -0.744
      -0.778
      -0.774
      -0.734
      -0.664
      -0.570
      -0.446
      -0.289
      -0.099
       0.116
       0.338
       0.545
       0.714
       0.828
       0.875
       0.843
       0.726
       0.529
       0.265
      -0.044
      -0.366
      -0.663
      -0.897
      -1.036
      -1.058
      -0.959
      -0.749
      -0.462
      -0.137
       0.185
       0.475
       0.720
       0.921
       1.087
       1.222
       1.312
       1.331
       1.260
       1.090
       0.823
       0.469
       0.049
      -0.406
      -0.848
      -1.216
      -1.455
      -1.530
      -1.448
      -1.243
      -0.966
      -0.662
      -0.366
      -0.103
       0.106
       0.241
       0.286
       0.237
       0.114
      -0.036
      -0.164
      -0.223
      -0.187
      -0.046
       0.194
       0.514
       0.882
       1.256
       1.587
       1.827
       1.934
       1.876
       1.629
       1.192
       0.598
      -0.087
      -0.782
      -1.417
      -1.940
      -2.313
      -2.504
      -2.488
      -2.260
      -1.848
      -1.309
      -0.714
      -0.117
       0.450
       0.964
       1.398
       1.720
       1.903
       1.944
       1.866
       1.714
       1.530
       1.330
       1.103
       0.826
       0.479
       0.062
      -0.401
      -0.861
      -1.254
      -1.537
      -1.705
      -1.793
      -1.843
      -1.871
      -1.850
      -1.730
      -1.471
      -1.077
      -0.597
      -0.093
       0.388
       0.826
       1.213
       1.538
       1.782
       1.917
       1.908
       1.735
       1.401
       0.941
       0.413
      -0.113
      -0.576
      -0.932
      -1.161
      -1.254
      -1.214
      -1.053
      -0.791
      -0.450
      -0.054
       0.362
       0.750
       1.056
       1.242
       1.297
       1.232
       1.072
       0.843
       0.569
       0.270
      -0.024
      -0.273
      -0.450
      -0.546
      -0.582
      -0.582
      -0.565
      -0.536
      -0.497
      -0.464
      -0.467
      -0.546
      -0.720
      -0.968
      -1.235
      -1.453
      -1.563
      -1.536
      -1.369
      -1.082
      -0.692
      -0.209
       0.354
       0.966
       1.572
       2.101
       2.485
       2.671
       2.633
       2.374
       1.926
       1.341
       0.692
       0.060
      -0.486
      -0.899
      -1.161
      -1.280
      -1.284
      -1.224
      -1.156
      -1.119
      -1.117
      -1.119
      -1.072
      -0.926
      -0.660
      -0.289
       0.149
       0.616
       1.073
       1.476
       1.768
       1.893
       1.817
       1.543
       1.125
       0.643
       0.176
      -0.228
      -0.561
      -0.834
      -1.065
      -1.264
      -1.425
      -1.522
      -1.519
      -1.392
      -1.146
      -0.822
      -0.478
      -0.165
       0.092
       0.302
       0.490
       0.682
       0.887
       1.102
       1.304
       1.451
       1.487
       1.366
       1.081
       0.669
       0.198
      -0.257
      -0.647
      -0.949
      -1.167
      -1.309
      -1.383
      -1.394
      -1.341
      -1.216
      -1.017
      -0.750
      -0.441
      -0.123
       0.170
       0.414
       0.597
       0.717
       0.781
       0.797
       0.771
       0.715
       0.638
       0.546
       0.429
       0.277
       0.093
      -0.098
      -0.258
      -0.346
      -0.334
      -0.220
      -0.030
       0.188
       0.377
       0.494
       0.511
       0.432
       0.281
       0.098
      -0.077
      -0.209
      -0.283
      -0.306
      -0.295
      -0.260
      -0.203
      -0.127
      -0.040
       0.049
       0.132
       0.208
       0.272
       0.321
       0.359
       0.400
       0.449
       0.497
       0.513
       0.456
       0.300
       0.059
      -0.221
      -0.488
      -0.709
      -0.875
      -0.986
      -1.031
      -0.992
      -0.849
      -0.597
      -0.256
       0.132
       0.513
       0.831
       1.028
       1.060
       0.908
       0.591
       0.166
      -0.284
      -0.673
      -0.935
      -1.045
      -1.017
      -0.888
      -0.694
      -0.461
      -0.207
       0.056
       0.316
       0.553
       0.740
       0.848
       0.867
       0.801
       0.664
       0.479
       0.271
       0.072
      -0.089
      -0.195
      -0.249
      -0.269
      -0.281
      -0.298
      -0.317
      -0.321
      -0.297
      -0.237
      -0.138
      -0.007
       0.144
       0.297
       0.430
       0.523
       0.564
       0.551
       0.491
       0.393
       0.262
       0.103
      -0.060
      -0.187
      -0.232
      -0.167
      -0.006
       0.194
       0.347
       0.378
       0.262
       0.032
      -0.243
      -0.495
      -0.687
      -0.824
      -0.929
      -1.012
      -1.049
      -0.990
      -0.795
      -0.467
      -0.062
       0.337
       0.648
       0.833
       0.903
       0.909
       0.907
       0.923
       0.952
       0.960
       0.911
       0.781
       0.572
       0.303
       0.003
      -0.294
      -0.549
      -0.718
      -0.771
      -0.704
      -0.540
      -0.323
      -0.101
       0.092
       0.238
       0.331
       0.363
       0.321
       0.197
       0.002
      -0.237
      -0.479
      -0.679
      -0.803
      -0.834
      -0.774
      -0.630
      -0.412
      -0.138
       0.160
       0.438
       0.654
       0.777
       0.796
       0.728
       0.611
       0.486
       0.383
       0.310
       0.251
       0.166
       0.012
      -0.235
      -0.558
      -0.896
      -1.172
      -1.321
      -1.322
      -1.195
      -0.985
      -0.731
      -0.454
      -0.162
       0.127
       0.389
       0.600
       0.751
       0.849
       0.906
       0.930
       0.916
       0.853
       0.743
       0.603
       0.453
       0.295
       0.121
      -0.085
      -0.324
      -0.574
      -0.798
      -0.946
      -0.983
      -0.896
      -0.699
      -0.428
      -0.129
       0.149
       0.376
       0.544
       0.654
       0.713
       0.719
       0.678
       0.603
       0.516
       0.440
       0.386
       0.337
       0.260
       0.119
      -0.092
      -0.349
      -0.607
      -0.814
      -0.932
      -0.939
      -0.837
      -0.644
      -0.386
      -0.092
       0.208
       0.480
       0.694
       0.820
       0.846
       0.784
       0.672
       0.553
       0.453
       0.371
       0.293
       0.202
       0.087
      -0.053
      -0.205
      -0.347
      -0.454
      -0.509
      -0.512
      -0.482
      -0.453
      -0.455
      -0.499
      -0.564
      -0.607
      -0.582
      -0.457
      -0.238
       0.034
       0.310
       0.551
       0.747
       0.900
       1.006
       1.047
       0.998
       0.835
       0.553
       0.181
      -0.229
      -0.617
      -0.935
      -1.149
      -1.238
      -1.187
      -0.992
      -0.675
      -0.290
       0.077
       0.345
       0.468
       0.452
       0.336
       0.173
       0.010
      -0.117
      -0.185
      -0.182
      -0.115
      -0.011
       0.098
       0.191
       0.280
       0.405
       0.602
       0.876
       1.187
       1.453
       1.580
       1.499
       1.198
       0.721
       0.147
      -0.440
      -0.980
      -1.446
      -1.841
      -2.169
      -2.413
      -2.521
      -2.426
      -2.087
      -1.519
      -0.799
      -0.037
       0.663
       1.233
       1.641
       1.877
       1.939
       1.838
       1.610
       1.305
       0.978
       0.666
       0.379
       0.111
      -0.144
      -0.381
      -0.586
      -0.751
      -0.870
      -0.940
      -0.954
      -0.902
      -0.784
      -0.606
      -0.388
      -0.154
       0.074
       0.287
       0.487
       0.670
       0.812
       0.870
       0.805
       0.600
       0.282
      -0.083
      -0.416
      -0.652
      -0.764
      -0.756
      -0.643
      -0.449
      -0.198
       0.073
       0.325
       0.517
       0.624
       0.641
       0.581
       0.469
       0.329
