Origin Time       1/5/2013 06:57:12	  UTC
Lat.              33.1 N	
Long.             75.8 E	
Depth (Km)         15.0
Magnitude         5.8
 Region           JK-HP-Border                                                     
 Above details taken from IMD 
    
Station Code      JUB
Station Lat.       31.110  N
Station Long.      77.663  E
Station Height(m) 1931.0
Site Class        A   Vs30 between 700 m/sec to 1400 m/sec * 
Record Time       01.05.2013 06:58:03.844 UTC
Sampling Rate     200. Hz
 Record Duration  120.355 Sec.
 Direction         N-S (N positive)
Max. Acceleration     -9.087 cm/sec**2
     
  * For reference see Site Classification link of website 
     
 Base Line Corrected and Low Pass Filtered (Cut Off at 35 Hz) Time History
 Acceleration data in cm/sec**2
    
[...]
       0.276
       0.052
      -0.171
      -0.381
      -0.561
      -0.686
      -0.734
      -0.696
      -0.589
      -0.445
      -0.297
      -0.160
      -0.032
       0.087
       0.190
       0.260
       0.291
       0.297
       0.299
       0.318
       0.360
       0.422
       0.493
       0.561
       0.606
       0.608
       0.560
       0.470
       0.363
       0.256
       0.151
       0.030
      -0.122
      -0.303
      -0.486
      -0.634
      -0.720
      -0.727
      -0.655
      -0.508
      -0.304
      -0.076
       0.137
       0.302
       0.418
       0.505
       0.593
       0.690
       0.774
       0.806
       0.759
       0.635
       0.473
       0.325
       0.224
       0.170
       0.148
       0.140
       0.144
       0.160
       0.184
       0.201
       0.186
       0.110
      -0.051
      -0.308
      -0.649
      -1.038
      -1.427
      -1.770
      -2.047
      -2.259
      -2.413
      -2.500
      -2.493
      -2.361
      -2.090
      -1.686
      -1.160
      -0.517
       0.232
       1.053
       1.869
       2.581
       3.108
       3.413
       3.514
       3.455
       3.273
       2.978
       2.549
       1.965
       1.232
       0.398
      -0.450
      -1.218
      -1.841
      -2.296
      -2.593
      -2.746
      -2.747
      -2.564
      -2.168
      -1.557
      -0.770
       0.121
       1.035
       1.905
       2.685
       3.352
       3.901
       4.335
       4.645
       4.806
       4.775
       4.508
       3.993
       3.256
       2.360
       1.378
       0.376
      -0.598
      -1.509
      -2.330
      -3.052
      -3.681
      -4.239
      -4.744
      -5.188
      -5.528
      -5.697
      -5.631
      -5.310
      -4.767
      -4.077
      -3.334
      -2.615
      -1.963
      -1.379
      -0.840
      -0.314
       0.210
       0.720
       1.186
       1.581
       1.901
       2.166
       2.402
       2.624
       2.832
       3.011
       3.143
       3.219
       3.231
       3.161
       2.982
       2.660
       2.182
       1.565
       0.856
       0.110
      -0.624
      -1.312
      -1.929
      -2.449
      -2.831
      -3.022
      -2.972
      -2.659
      -2.108
      -1.406
      -0.670
      -0.005
       0.539
       0.979
       1.372
       1.771
       2.193
       2.619
       3.016
       3.353
       3.597
       3.700
       3.593
       3.202
       2.486
       1.472
       0.264
      -0.988
      -2.141
      -3.110
      -3.882
      -4.494
      -4.981
      -5.342
      -5.537
      -5.516
      -5.257
      -4.775
      -4.112
      -3.316
      -2.426
      -1.474
      -0.486
       0.507
       1.459
       2.314
       3.024
       3.561
       3.931
       4.162
       4.281
       4.301
       4.214
       4.006
       3.673
       3.227
       2.696
       2.113
       1.516
       0.939
       0.411
      -0.060
      -0.486
      -0.902
      -1.344
      -1.815
      -2.274
      -2.643
      -2.843
      -2.840
      -2.662
      -2.379
      -2.069
      -1.776
      -1.506
      -1.249
      -0.992
      -0.730
      -0.460
      -0.183
       0.090
       0.333
       0.505
       0.576
       0.551
       0.478
       0.420
       0.421
       0.490
       0.605
       0.740
       0.884
       1.031
       1.178
       1.309
       1.398
       1.415
       1.340
       1.168
       0.917
       0.619
       0.306
      -0.006
      -0.313
      -0.608
      -0.859
      -1.011
      -1.011
      -0.838
      -0.523
      -0.122
       0.312
       0.757
       1.215
       1.680
       2.122
       2.490
       2.733
       2.820
       2.740
       2.490
       2.074
       1.508
       0.823
       0.072
      -0.686
      -1.389
      -1.979
      -2.405
      -2.631
      -2.640
      -2.452
      -2.131
      -1.766
      -1.452
      -1.241
      -1.131
      -1.065
      -0.972
      -0.804
      -0.562
      -0.297
      -0.085
       0.016
      -0.019
      -0.175
      -0.412
      -0.685
      -0.946
      -1.152
      -1.265
      -1.261
      -1.150
      -0.972
      -0.790
      -0.645
      -0.536
      -0.419
      -0.236
       0.042
       0.396
       0.774
       1.122
       1.410
       1.629
       1.789
       1.899
       1.975
       2.029
       2.070
       2.087
       2.049
       1.915
       1.664
       1.309
       0.893
       0.474
       0.090
      -0.242
      -0.531
      -0.787
      -1.011
      -1.188
      -1.302
      -1.346
      -1.331
      -1.288
      -1.252
      -1.248
      -1.271
      -1.275
      -1.200
      -1.002
      -0.694
      -0.345
      -0.047
       0.132
       0.182
       0.149
       0.101
       0.097
       0.164
       0.302
       0.490
       0.700
       0.893
       1.030
       1.086
       1.042
       0.876
       0.563
       0.091
      -0.509
      -1.155
      -1.740
      -2.177
      -2.435
      -2.534
      -2.518
      -2.418
      -2.241
      -1.962
      -1.544
      -0.969
      -0.258
       0.527
       1.306
       2.010
       2.599
       3.057
       3.379
       3.566
       3.623
       3.562
       3.391
       3.107
       2.691
       2.122
       1.398
       0.554
      -0.345
      -1.224
      -2.020
      -2.692
      -3.219
      -3.596
      -3.822
      -3.900
      -3.838
      -3.646
      -3.328
      -2.883
      -2.305
      -1.595
      -0.773
       0.121
       1.024
       1.866
       2.582
       3.135
       3.519
       3.757
       3.873
       3.870
       3.728
       3.415
       2.915
       2.241
       1.430
       0.531
      -0.405
      -1.324
      -2.164
      -2.860
      -3.356
      -3.630
      -3.695
      -3.590
      -3.357
      -3.021
      -2.597
      -2.097
      -1.543
      -0.956
      -0.343
       0.312
       1.036
       1.834
       2.651
       3.371
       3.862
       4.035
       3.890
       3.510
       3.009
       2.473
       1.928
       1.357
       0.752
       0.145
      -0.393
      -0.795
      -1.043
      -1.178
      -1.271
      -1.381
      -1.516
      -1.639
      -1.689
      -1.615
      -1.406
      -1.091
      -0.726
      -0.370
      -0.056
       0.206
       0.417
       0.573
       0.652
       0.630
       0.502
       0.292
       0.054
      -0.152
      -0.280
      -0.321
      -0.303
      -0.275
      -0.276
      -0.322
      -0.405
      -0.501
      -0.592
      -0.674
      -0.752
      -0.823
      -0.864
      -0.847
      -0.749
      -0.568
      -0.323
      -0.043
       0.244
       0.517
       0.752
       0.924
       1.013
       1.010
       0.930
       0.796
       0.638
       0.477
       0.328
       0.203
       0.117
       0.087
       0.122
       0.220
       0.357
       0.504
       0.641
       0.772
       0.914
       1.082
       1.270
       1.448
       1.575
       1.603
       1.484
       1.186
       0.706
       0.081
      -0.622
      -1.328
      -1.975
      -2.528
      -2.972
      -3.309
      -3.538
      -3.638
      -3.564
      -3.253
      -2.662
      -1.806
      -0.779
       0.277
       1.223
       1.980
       2.540
       2.947
       3.242
       3.434
       3.492
       3.371
       3.046
       2.530
       1.868
       1.114
       0.316
      -0.493
      -1.284
      -2.022
      -2.668
      -3.185
      -3.548
      -3.757
      -3.821
      -3.752
      -3.550
      -3.203
      -2.701
      -2.046
      -1.259
      -0.373
       0.571
       1.521
       2.416
       3.189
       3.774
       4.127
       4.244
       4.154
       3.915
       3.581
       3.179
       2.715
       2.187
       1.601
       0.974
       0.319
      -0.353
      -1.028
      -1.687
      -2.300
      -2.822
      -3.196
      -3.371
      -3.327
      -3.089
      -2.721
      -2.293
      -1.853
      -1.415
      -0.964
      -0.478
       0.048
       0.585
       1.078
       1.468
       1.722
       1.851
       1.894
       1.894
       1.877
       1.839
       1.757
       1.610
       1.401
       1.166
       0.963
       0.834
       0.766
       0.685
       0.493
       0.136
      -0.357
      -0.887
      -1.337
      -1.639
      -1.786
      -1.824
      -1.807
      -1.778
      -1.765
      -1.782
      -1.829
      -1.882
      -1.897
      -1.818
      -1.615
      -1.294
      -0.903
      -0.501
      -0.128
       0.226
       0.608
       1.074
       1.638
       2.254
       2.830
       3.263
       3.478
       3.448
       3.188
       2.739
       2.157
       1.496
       0.806
       0.133
      -0.484
      -1.027
      -1.503
      -1.944
      -2.389
      -2.851
      -3.285
      -3.589
      -3.645
      -3.373
      -2.773
      -1.916
      -0.907
       0.163
       1.236
       2.277
       3.243
       4.069
       4.677
       4.991
       4.965
       4.593
       3.906
       2.959
       1.821
       0.578
      -0.668
      -1.803
      -2.720
      -3.355
      -3.707
      -3.834
      -3.813
      -3.702
      -3.518
      -3.251
      -2.887
      -2.418
      -1.843
      -1.164
      -0.409
       0.361
       1.052
       1.576
       1.887
       1.996
       1.960
       1.853
       1.728
       1.599
       1.449
       1.258
       1.036
       0.824
       0.656
       0.539
       0.462
       0.409
       0.365
       0.316
       0.249
       0.152
       0.015
      -0.161
      -0.363
      -0.571
      -0.766
      -0.941
      -1.094
      -1.214
      -1.259
      -1.159
      -0.858
      -0.379
       0.167
       0.623
       0.872
       0.902
       0.796
       0.663
       0.573
       0.539
       0.536
       0.517
       0.434
       0.260
       0.017
      -0.229
      -0.409
      -0.482
      -0.463
      -0.405
      -0.374
      -0.407
      -0.486
      -0.551
      -0.533
      -0.406
      -0.207
      -0.027
       0.047
      -0.018
      -0.177
      -0.345
      -0.446
      -0.449
      -0.371
      -0.253
      -0.136
      -0.048
      -0.007
      -0.015
      -0.062
      -0.123
      -0.163
      -0.151
      -0.062
       0.112
       0.366
       0.679
       1.011
       1.312
       1.526
       1.607
       1.530
       1.302
       0.956
       0.540
       0.086
      -0.404
      -0.934
      -1.484
      -1.990
      -2.361
      -2.519
      -2.431
      -2.118
      -1.639
      -1.059
      -0.433
       0.194
       0.771
       1.240
       1.547
       1.680
       1.677
       1.612
       1.548
       1.496
       1.415
       1.232
       0.893
       0.394
      -0.207
      -0.806
      -1.301
      -1.629
      -1.791
      -1.836
      -1.824
      -1.785
      -1.715
      -1.591
      -1.395
      -1.123
      -0.778
      -0.353
       0.164
       0.771
       1.434
       2.088
       2.663
       3.109
       3.412
       3.589
       3.668
       3.661
       3.555
       3.310
       2.883
       2.253
       1.440
       0.503
      -0.482
      -1.442
      -2.330
      -3.118
      -3.789
      -4.325
      -4.702
      -4.896
      -4.900
      -4.720
      -4.366
      -3.846
      -3.164
      -2.346
      -1.452
      -0.559
       0.266
       0.991
       1.629
       2.205
       2.742
       3.239
       3.685
       4.060
       4.340
       4.499
       4.506
       4.332
       3.964
       3.404
       2.677
       1.818
       0.865
      -0.136
      -1.113
      -1.968
      -2.605
      -2.987
      -3.169
      -3.258
      -3.339
      -3.414
      -3.410
      -3.248
      -2.886
      -2.335
      -1.623
      -0.775
       0.188
       1.214
       2.205
       3.042
       3.621
       3.878
       3.798
       3.419
       2.823
       2.116
       1.389
       0.694
       0.058
      -0.509
      -0.997
      -1.397
      -1.691
      -1.869
      -1.935
      -1.913
      -1.833
      -1.719
      -1.574
      -1.384
      -1.127
      -0.791
      -0.394
       0.011
       0.352
       0.557
       0.586
       0.440
       0.159
      -0.185
      -0.517
      -0.779
      -0.947
      -1.022
      -1.023
      -0.972
      -0.888
      -0.777
      -0.628
      -0.426
      -0.170
       0.112
       0.370
       0.557
       0.659
       0.708
       0.770
       0.899
       1.102
       1.329
       1.501
       1.546
       1.435
       1.196
       0.881
       0.521
       0.104
      -0.391
      -0.945
      -1.484
      -1.913
      -2.154
      -2.176
      -2.002
      -1.692
      -1.314
      -0.906
      -0.469
       0.016
       0.548
       1.090
       1.585
       1.973
       2.208
       2.265
       2.146
       1.875
       1.494
       1.059
       0.635
       0.279
       0.014
      -0.172
      -0.310
      -0.415
      -0.473
      -0.451
      -0.324
      -0.100
       0.162
       0.374
       0.465
       0.421
       0.281
       0.124
       0.016
      -0.019
      -0.023
      -0.079
      -0.258
      -0.579
      -1.017
      -1.511
      -1.996
      -2.422
      -2.778
      -3.087
      -3.367
      -3.591
      -3.687
      -3.564
      -3.155
      -2.450
      -1.494
      -0.366
       0.846
       2.070
       3.249
       4.327
       5.249
       5.975
       6.497
       6.831
       6.989
       6.943
       6.631
       5.983
       4.963
       3.599
       1.979
       0.224
      -1.541
      -3.217
      -4.744
      -6.098
      -7.264
      -8.207
      -8.850
      -9.087
      -8.834
      -8.070
      -6.862
      -5.338
      -3.643
      -1.905
      -0.226
       1.327
       2.712
       3.909
       4.911
       5.717
       6.327
       6.743
       6.968
       7.002
       6.839
       6.459
       5.831
       4.933
       3.762
       2.359
       0.814
      -0.743
      -2.170
      -3.354
      -4.248
      -4.875
      -5.299
      -5.585
      -5.768
      -5.848
      -5.803
      -5.600
      -5.202
      -4.567
      -3.656
      -2.463
      -1.039
       0.505
       2.022
       3.375
       4.463
       5.240
       5.699
       5.872
       5.807
       5.566
       5.206
       4.763
       4.253
       3.675
       3.012
       2.233
       1.302
       0.204
      -1.017
      -2.255
      -3.381
      -4.300
      -4.986
      -5.454
      -5.727
      -5.807
      -5.693
      -5.383
      -4.880
      -4.174
      -3.246
      -2.077
      -0.680
       0.882
       2.483
       3.960
       5.163
       5.992
       6.414
       6.451
       6.152
       5.574
       4.766
       3.767
       2.613
       1.349
       0.037
      -1.243
      -2.414
      -3.431
      -4.293
      -5.040
      -5.715
      -6.323
      -6.798
      -7.020
      -6.870
      -6.284
      -5.276
      -3.914
      -2.294
      -0.521
       1.295
       3.023
       4.538
       5.745
       6.619
       7.200
       7.546
       7.683
       7.582
       7.179
       6.413
       5.273
       3.818
       2.159
       0.432
      -1.242
      -2.777
      -4.125
      -5.255
      -6.135
      -6.720
      -6.970
      -6.878
      -6.485
      -5.863
      -5.084
      -4.194
      -3.198
      -2.089
      -0.867
       0.446
       1.796
       3.105
       4.275
       5.202
       5.797
       6.012
       5.851
       5.373
       4.666
       3.820
       2.906
       1.961
       1.003
       0.050
      -0.872
      -1.724
      -2.455
      -3.013
      -3.346
      -3.427
      -3.276
      -2.957
      -2.553
      -2.120
      -1.672
      -1.193
      -0.679
      -0.165
       0.283
       0.598
       0.742
       0.724
       0.593
       0.421
       0.268
       0.161
       0.091
       0.022
      -0.074
      -0.206
      -0.350
      -0.473
      -0.547
      -0.569
      -0.548
      -0.481
      -0.344
      -0.103
       0.242
       0.636
       0.976
       1.151
       1.097
       0.830
       0.430
       0.009
      -0.331
      -0.526
      -0.556
      -0.437
      -0.221
       0.027
       0.245
       0.390
       0.448
       0.411
       0.272
       0.021
      -0.332
      -0.752
      -1.168
      -1.495
      -1.649
      -1.569
      -1.222
      -0.607
       0.239
       1.235
       2.268
       3.201
       3.892
       4.230
       4.162
       3.721
       3.018
       2.203
       1.411
       0.722
       0.161
      -0.280
      -0.611
      -0.831
      -0.943
      -0.969
      -0.955
      -0.956
      -1.010
      -1.119
      -1.254
      -1.381
      -1.485
      -1.590
      -1.736
      -1.949
      -2.204
      -2.434
      -2.556
      -2.521
      -2.330
      -2.026
      -1.671
      -1.317
      -1.000
      -0.734
      -0.522
      -0.364
      -0.257
      -0.185
      -0.112
       0.014
       0.238
       0.563
       0.937
       1.282
       1.548
       1.757
       1.998
       2.369
       2.901
       3.521
       4.076
       4.400
       4.391
       4.038
       3.410
       2.617
       1.767
       0.941
       0.181
      -0.499
      -1.103
      -1.630
      -2.078
      -2.450
      -2.773
      -3.097
      -3.466
      -3.872
      -4.237
      -4.425
      -4.310
      -3.835
      -3.051
      -2.089
      -1.107
      -0.229
       0.478
       1.004
       1.374
       1.620
       1.766
       1.816
       1.765
       1.608
       1.365
       1.083
       0.828
       0.656
       0.595
       0.632
       0.723
       0.808
       0.838
       0.796
       0.708
       0.621
       0.567
       0.525
       0.432
       0.218
      -0.148
      -0.632
      -1.155
      -1.629
      -1.997
      -2.239
      -2.342
      -2.275
      -1.984
      -1.433
      -0.650
       0.265
       1.178
       1.991
       2.670
       3.230
       3.678
       3.973
       4.039
       3.814
       3.302
       2.579
       1.758
       0.927
       0.120
      -0.668
      -1.437
      -2.161
      -2.791
      -3.293
      -3.663
      -3.894
      -3.958
      -3.818
      -3.472
      -2.977
      -2.411
      -1.837
      -1.269
      -0.687
      -0.076
       0.535
       1.073
       1.463
       1.686
       1.810
       1.955
       2.212
       2.577
       2.939
       3.146
       3.071
       2.677
       2.018
       1.191
       0.282
      -0.648
      -1.546
      -2.353
      -2.999
      -3.423
      -3.590
      -3.510
      -3.232
      -2.823
      -2.320
      -1.704
      -0.924
       0.047
       1.137
       2.181
       2.997
       3.495
       3.711
       3.752
       3.715
       3.642
       3.508
       3.243
       2.774
       2.064
       1.136
       0.066
      -1.051
      -2.130
      -3.123
      -3.996
      -4.707
      -5.181
      -5.333
      -5.108
      -4.523
      -3.677
      -2.708
      -1.739
      -0.832
       0.004
       0.780
       1.489
       2.106
       2.610
       2.999
       3.260
       3.355
       3.233
       2.881
       2.365
       1.797
       1.267
       0.790
       0.335
      -0.121
      -0.562
      -0.941
      -1.202
      -1.293
      -1.191
      -0.915
      -0.517
      -0.057
       0.416
       0.857
       1.217
       1.452
       1.548
       1.529
       1.427
       1.247
       0.966
       0.566
       0.070
      -0.455
