Origin Time       14/03/2010 6:53:21	
Lat.              31.7 N	
Long.             76.1 E	
Depth (Km)         29.0
Magnitude         4.6
 Region           HIMACHAL-PUNJAB-(HOSHIARPUR)-BORDER                              
 Above details taken from IMD 
   
Station Code      JUB
Station Lat.       31.110
Station Long.      77.663
Station Height(m) 1931.0
Site Class        A   Vs30 between 700 m/sec to 1400 m/sec * 
Record Time       14.03.2010 06:53:58.904
Sampling Rate     200. Hz
 Record Duration   64.995 Sec.
 Direction         Vert. (Up positive)
Max. Acceleration      1.586 cm/sec**2
     
  * For reference see Site Classification link of website 
     
 Base Line Corrected and Low Pass Filtered (Cut Off at 35 Hz) Time History
 Acceleration data in cm/sec**2
    
[...]
      -0.048
       0.055
       0.161
       0.260
       0.336
       0.364
       0.326
       0.212
       0.037
      -0.165
      -0.347
      -0.465
      -0.493
      -0.426
      -0.286
      -0.103
       0.083
       0.236
       0.336
       0.379
       0.372
       0.314
       0.194
       0.006
      -0.227
      -0.440
      -0.561
      -0.547
      -0.415
      -0.231
      -0.071
       0.019
       0.036
       0.010
      -0.022
      -0.041
      -0.045
      -0.039
      -0.019
       0.024
       0.087
       0.149
       0.176
       0.150
       0.080
       0.000
      -0.051
      -0.054
      -0.019
       0.026
       0.059
       0.073
       0.075
       0.071
       0.059
       0.032
      -0.009
      -0.047
      -0.058
      -0.032
       0.022
       0.078
       0.113
       0.123
       0.123
       0.133
       0.155
       0.168
       0.141
       0.064
      -0.040
      -0.128
      -0.154
      -0.102
       0.007
       0.124
       0.195
       0.190
       0.116
       0.014
      -0.066
      -0.097
      -0.077
      -0.025
       0.030
       0.068
       0.083
       0.081
       0.070
       0.058
       0.047
       0.038
       0.040
       0.056
       0.079
       0.091
       0.074
       0.027
      -0.032
      -0.077
      -0.085
      -0.053
       0.012
       0.091
       0.160
       0.193
       0.174
       0.103
       0.001
      -0.100
      -0.175
      -0.212
      -0.224
      -0.240
      -0.288
      -0.373
      -0.471
      -0.536
      -0.531
      -0.449
      -0.314
      -0.166
      -0.036
       0.066
       0.151
       0.230
       0.307
       0.366
       0.394
       0.391
       0.373
       0.356
       0.338
       0.295
       0.190
       0.003
      -0.250
      -0.519
      -0.736
      -0.852
      -0.859
      -0.778
      -0.634
      -0.437
      -0.189
       0.087
       0.339
       0.516
       0.589
       0.573
       0.508
       0.436
       0.376
       0.333
       0.306
       0.297
       0.307
       0.337
       0.382
       0.423
       0.431
       0.380
       0.261
       0.085
      -0.129
      -0.365
      -0.600
      -0.796
      -0.909
      -0.907
      -0.789
      -0.596
      -0.391
      -0.239
      -0.170
      -0.169
      -0.186
      -0.158
      -0.046
       0.152
       0.398
       0.636
       0.808
       0.872
       0.819
       0.660
       0.429
       0.170
      -0.062
      -0.214
      -0.256
      -0.193
      -0.064
       0.082
       0.205
       0.277
       0.276
       0.184
      -0.001
      -0.251
      -0.506
      -0.692
      -0.743
      -0.632
      -0.389
      -0.097
       0.146
       0.271
       0.267
       0.175
       0.066
       0.004
       0.023
       0.123
       0.268
       0.410
       0.501
       0.516
       0.455
       0.340
       0.191
       0.022
      -0.166
      -0.364
      -0.553
      -0.699
      -0.772
      -0.759
      -0.665
      -0.507
      -0.306
      -0.080
       0.146
       0.338
       0.460
       0.494
       0.458
       0.393
       0.340
       0.319
       0.332
       0.367
       0.407
       0.433
       0.425
       0.364
       0.245
       0.070
      -0.146
      -0.377
      -0.592
      -0.758
      -0.850
      -0.864
      -0.813
      -0.722
      -0.614
      -0.500
      -0.369
      -0.200
       0.022
       0.280
       0.524
       0.694
       0.741
       0.656
       0.463
       0.205
      -0.076
      -0.339
      -0.544
      -0.642
      -0.596
      -0.395
      -0.080
       0.259
       0.518
       0.631
       0.596
       0.471
       0.337
       0.253
       0.242
       0.285
       0.346
       0.393
       0.405
       0.376
       0.307
       0.205
       0.079
      -0.056
      -0.181
      -0.277
      -0.328
      -0.320
      -0.245
      -0.101
       0.089
       0.286
       0.441
       0.519
       0.516
       0.452
       0.351
       0.233
       0.108
      -0.016
      -0.125
      -0.202
      -0.232
      -0.217
      -0.173
      -0.129
      -0.122
      -0.182
      -0.312
      -0.483
      -0.645
      -0.751
      -0.775
      -0.717
      -0.599
      -0.456
      -0.320
      -0.210
      -0.122
      -0.032
       0.087
       0.259
       0.492
       0.772
       1.052
       1.255
       1.294
       1.124
       0.766
       0.312
      -0.123
      -0.446
      -0.618
      -0.646
      -0.565
      -0.418
      -0.249
      -0.094
       0.023
       0.086
       0.082
       0.000
      -0.167
      -0.407
      -0.682
      -0.932
      -1.095
      -1.131
      -1.030
      -0.809
      -0.492
      -0.102
       0.337
       0.777
       1.149
       1.384
       1.447
       1.351
       1.143
       0.863
       0.531
       0.146
      -0.287
      -0.736
      -1.135
      -1.405
      -1.488
      -1.373
      -1.100
      -0.738
      -0.353
       0.017
       0.357
       0.660
       0.907
       1.065
       1.103
       1.014
       0.817
       0.556
       0.285
       0.052
      -0.116
      -0.215
      -0.258
      -0.263
      -0.241
      -0.190
      -0.111
      -0.005
       0.114
       0.225
       0.308
       0.352
       0.349
       0.290
       0.169
      -0.015
      -0.235
      -0.447
      -0.594
      -0.627
      -0.526
      -0.305
      -0.008
       0.304
       0.567
       0.727
       0.753
       0.642
       0.427
       0.157
      -0.119
      -0.361
      -0.547
      -0.663
      -0.706
      -0.689
      -0.632
      -0.551
      -0.449
      -0.318
      -0.151
       0.050
       0.268
       0.472
       0.618
       0.664
       0.597
       0.445
       0.273
       0.152
       0.119
       0.168
       0.258
       0.341
       0.372
       0.318
       0.167
      -0.065
      -0.329
      -0.560
      -0.705
      -0.743
      -0.697
      -0.630
      -0.612
      -0.682
      -0.822
      -0.960
      -1.005
      -0.896
      -0.622
      -0.222
       0.245
       0.710
       1.112
       1.398
       1.535
       1.516
       1.361
       1.112
       0.806
       0.469
       0.118
      -0.224
      -0.526
      -0.755
      -0.888
      -0.919
      -0.854
      -0.712
      -0.510
      -0.266
       0.000
       0.263
       0.484
       0.627
       0.666
       0.600
       0.450
       0.254
       0.059
      -0.093
      -0.177
      -0.191
      -0.156
      -0.102
      -0.062
      -0.062
      -0.104
      -0.166
      -0.205
      -0.180
      -0.074
       0.088
       0.241
       0.306
       0.229
       0.015
      -0.273
      -0.531
      -0.661
      -0.607
      -0.376
      -0.027
       0.348
       0.650
       0.802
       0.772
       0.586
       0.319
       0.070
      -0.077
      -0.084
       0.033
       0.214
       0.393
       0.522
       0.579
       0.558
       0.464
       0.307
       0.108
      -0.097
      -0.272
      -0.386
      -0.434
      -0.435
      -0.423
      -0.425
      -0.443
      -0.451
      -0.414
      -0.318
      -0.178
      -0.040
       0.053
       0.080
       0.055
       0.021
       0.020
       0.064
       0.120
       0.130
       0.046
      -0.138
      -0.375
      -0.588
      -0.698
      -0.653
      -0.446
      -0.119
       0.252
       0.588
       0.829
       0.935
       0.877
       0.642
       0.247
      -0.234
      -0.681
      -0.971
      -1.033
      -0.866
      -0.536
      -0.139
       0.232
       0.506
       0.636
       0.609
       0.443
       0.192
      -0.070
      -0.266
      -0.347
      -0.301
      -0.161
       0.011
       0.152
       0.225
       0.236
       0.217
       0.200
       0.200
       0.206
       0.201
       0.172
       0.110
       0.014
      -0.116
      -0.269
      -0.418
      -0.519
      -0.532
      -0.436
      -0.251
      -0.034
       0.142
       0.230
       0.226
       0.165
       0.089
       0.022
      -0.034
      -0.082
      -0.111
      -0.093
       0.007
       0.202
       0.464
       0.728
       0.910
       0.939
       0.783
       0.455
       0.013
      -0.457
      -0.855
      -1.100
      -1.158
      -1.047
      -0.827
      -0.566
      -0.310
      -0.082
       0.114
       0.267
       0.360
       0.382
       0.339
       0.259
       0.183
       0.145
       0.157
       0.197
       0.227
       0.213
       0.148
       0.046
      -0.066
      -0.168
      -0.237
      -0.250
      -0.185
      -0.035
       0.180
       0.415
       0.605
       0.686
       0.612
       0.381
       0.035
      -0.346
      -0.687
      -0.935
      -1.071
      -1.088
      -0.988
      -0.774
      -0.467
      -0.109
       0.234
       0.497
       0.642
       0.677
       0.643
       0.588
       0.538
       0.493
       0.450
       0.411
       0.388
       0.380
       0.358
       0.276
       0.094
      -0.184
      -0.498
      -0.752
      -0.850
      -0.740
      -0.433
       0.001
       0.453
       0.801
       0.947
       0.847
       0.528
       0.075
      -0.390
      -0.747
      -0.908
      -0.839
      -0.569
      -0.173
       0.255
       0.632
       0.903
       1.041
       1.042
       0.921
       0.702
       0.419
       0.107
      -0.191
      -0.421
      -0.541
      -0.531
      -0.419
      -0.269
      -0.160
      -0.142
      -0.212
      -0.318
      -0.376
      -0.321
      -0.136
       0.139
       0.416
       0.603
       0.632
       0.492
       0.220
      -0.116
      -0.441
      -0.688
      -0.806
      -0.779
      -0.622
      -0.378
      -0.098
       0.175
       0.410
       0.586
       0.678
       0.671
       0.560
       0.359
       0.089
      -0.221
      -0.538
      -0.826
      -1.047
      -1.162
      -1.143
      -0.976
      -0.664
      -0.242
       0.231
       0.681
       1.039
       1.261
       1.328
       1.248
       1.049
       0.768
       0.448
       0.123
      -0.188
      -0.484
      -0.766
      -1.021
      -1.218
      -1.315
      -1.275
      -1.079
      -0.742
      -0.317
       0.113
       0.462
       0.667
       0.713
       0.625
       0.461
       0.282
       0.139
       0.066
       0.077
       0.162
       0.288
       0.403
       0.452
       0.398
       0.234
      -0.016
      -0.303
      -0.573
      -0.771
      -0.850
      -0.775
      -0.540
      -0.188
       0.202
       0.535
       0.739
       0.793
       0.722
       0.579
       0.416
       0.276
       0.181
       0.140
       0.144
       0.166
       0.165
       0.102
      -0.040
      -0.238
      -0.438
      -0.573
      -0.595
      -0.491
      -0.290
      -0.047
       0.180
       0.351
       0.450
       0.482
       0.454
       0.371
       0.228
       0.028
      -0.214
      -0.466
      -0.695
      -0.864
      -0.945
      -0.910
      -0.743
      -0.451
      -0.068
       0.349
       0.741
       1.052
       1.240
       1.280
       1.171
       0.941
       0.644
       0.345
       0.086
      -0.122
      -0.295
      -0.451
      -0.594
      -0.707
      -0.771
      -0.773
      -0.720
      -0.626
      -0.509
      -0.388
      -0.278
      -0.180
      -0.076
       0.064
       0.260
       0.489
       0.683
       0.764
       0.690
       0.476
       0.186
      -0.103
      -0.335
      -0.484
      -0.550
      -0.539
      -0.453
      -0.286
      -0.045
       0.236
       0.496
       0.661
       0.688
       0.579
       0.381
       0.152
      -0.064
      -0.251
      -0.411
      -0.547
      -0.645
      -0.670
      -0.583
      -0.380
      -0.109
       0.143
       0.288
       0.286
       0.157
      -0.031
      -0.195
      -0.264
      -0.211
      -0.052
       0.162
       0.369
       0.520
       0.585
       0.553
       0.429
       0.230
      -0.010
      -0.248
      -0.443
      -0.557
      -0.574
      -0.501
      -0.377
      -0.241
      -0.113
       0.013
       0.150
       0.294
       0.422
       0.515
       0.571
       0.592
       0.578
       0.522
       0.420
       0.284
       0.139
       0.004
      -0.118
      -0.241
      -0.375
      -0.509
      -0.613
      -0.645
      -0.580
      -0.417
      -0.183
       0.076
       0.307
       0.465
       0.524
       0.484
       0.371
       0.225
       0.084
      -0.027
      -0.102
      -0.144
      -0.162
      -0.159
      -0.128
      -0.065
       0.026
       0.126
       0.212
       0.264
       0.274
       0.251
       0.215
       0.182
       0.152
       0.108
       0.023
      -0.117
      -0.293
      -0.454
      -0.545
      -0.539
      -0.450
      -0.330
      -0.233
      -0.192
      -0.198
      -0.211
      -0.177
      -0.058
       0.150
       0.401
       0.610
       0.684
       0.572
       0.298
      -0.047
      -0.339
      -0.483
      -0.448
      -0.274
      -0.048
       0.142
       0.253
       0.297
       0.323
       0.372
       0.429
       0.426
       0.289
       0.000
      -0.373
      -0.708
      -0.892
      -0.876
      -0.687
      -0.405
      -0.113
       0.139
       0.345
       0.511
       0.633
       0.691
       0.658
       0.521
       0.284
      -0.038
      -0.416
      -0.802
      -1.127
      -1.322
      -1.344
      -1.200
      -0.936
      -0.611
      -0.275
       0.056
       0.392
       0.743
       1.091
       1.386
       1.566
       1.586
       1.427
       1.100
       0.647
       0.142
      -0.324
      -0.672
      -0.859
      -0.895
      -0.829
      -0.717
      -0.595
      -0.459
      -0.286
      -0.054
       0.229
       0.517
       0.734
       0.810
       0.713
       0.466
       0.134
      -0.199
      -0.458
      -0.603
      -0.637
      -0.585
      -0.480
      -0.350
      -0.217
      -0.102
      -0.020
       0.028
       0.051
       0.068
       0.099
       0.160
       0.249
       0.349
       0.428
       0.455
       0.414
       0.318
       0.208
       0.138
       0.150
       0.247
       0.380
       0.456
       0.379
       0.105
      -0.319
      -0.771
      -1.106
      -1.227
      -1.115
      -0.825
      -0.457
      -0.107
       0.159
       0.315
       0.362
       0.320
       0.222
       0.114
       0.045
       0.049
       0.129
       0.258
       0.400
       0.517
       0.571
       0.520
       0.337
       0.043
      -0.275
      -0.497
      -0.531
      -0.369
      -0.091
       0.173
       0.311
       0.282
       0.132
      -0.041
      -0.136
      -0.096
       0.074
       0.311
       0.519
       0.601
       0.498
       0.209
      -0.205
      -0.637
      -0.968
      -1.106
      -1.010
      -0.713
      -0.302
       0.114
       0.442
       0.629
       0.670
       0.601
       0.475
       0.333
       0.191
       0.048
      -0.102
      -0.249
      -0.376
      -0.468
      -0.514
      -0.511
      -0.451
      -0.327
      -0.139
       0.094
       0.326
       0.505
       0.587
       0.558
       0.435
       0.245
       0.018
      -0.220
      -0.437
      -0.593
      -0.647
      -0.577
      -0.394
      -0.137
       0.135
       0.367
       0.519
       0.566
       0.500
       0.336
       0.111
      -0.112
      -0.269
      -0.319
      -0.264
      -0.149
      -0.032
       0.045
       0.081
       0.102
       0.132
       0.178
       0.222
       0.241
       0.223
       0.169
       0.081
      -0.046
      -0.224
      -0.454
      -0.709
      -0.924
      -1.019
      -0.925
      -0.623
      -0.155
       0.388
       0.892
       1.255
       1.410
       1.337
       1.065
       0.663
       0.221
      -0.167
      -0.438
      -0.573
      -0.604
      -0.594
      -0.595
      -0.616
      -0.623
      -0.566
      -0.422
      -0.213
       0.001
       0.163
       0.249
       0.279
       0.294
       0.322
       0.363
       0.397
       0.402
       0.370
       0.297
       0.170
      -0.032
      -0.308
      -0.599
      -0.793
      -0.781
      -0.522
      -0.089
       0.359
       0.656
       0.713
       0.561
       0.322
       0.130
       0.050
       0.058
       0.074
       0.030
      -0.086
      -0.231
      -0.339
      -0.360
      -0.288
      -0.158
      -0.030
       0.043
       0.044
      -0.009
      -0.080
      -0.143
      -0.191
      -0.224
      -0.243
      -0.239
      -0.203
      -0.129
      -0.019
       0.119
       0.274
       0.427
       0.555
       0.637
       0.657
       0.604
       0.482
       0.308
       0.107
      -0.105
      -0.334
      -0.588
      -0.848
      -1.058
      -1.153
      -1.089
      -0.871
      -0.545
      -0.185
       0.136
       0.366
       0.493
       0.539
       0.540
       0.528
       0.517
       0.510
       0.508
       0.510
       0.510
       0.482
       0.387
       0.196
      -0.092
      -0.431
      -0.742
      -0.947
      -1.000
      -0.904
      -0.694
      -0.403
      -0.058
       0.319
       0.700
       1.036
       1.270
       1.348
       1.246
       0.980
       0.608
       0.203
      -0.174
      -0.483
      -0.710
      -0.860
      -0.943
      -0.962
      -0.906
      -0.756
      -0.510
      -0.194
       0.141
       0.444
       0.679
       0.830
       0.886
       0.837
       0.671
       0.391
       0.023
      -0.375
      -0.729
      -0.972
      -1.067
      -1.015
      -0.841
      -0.577
      -0.252
       0.100
       0.438
       0.705
       0.848
       0.838
       0.689
       0.456
       0.208
      -0.007
      -0.177
      -0.320
      -0.444
      -0.530
      -0.535
      -0.430
      -0.225
       0.024
       0.248
       0.389
       0.430
       0.385
       0.295
       0.197
       0.113
       0.038
      -0.050
      -0.170
      -0.320
      -0.464
      -0.547
      -0.519
      -0.360
      -0.096
       0.213
       0.492
       0.678
       0.739
       0.674
       0.507
       0.281
       0.046
      -0.148
      -0.272
      -0.328
      -0.340
      -0.338
      -0.330
      -0.307
      -0.254
      -0.173
      -0.081
       0.006
       0.084
       0.162
       0.236
       0.281
       0.259
       0.144
      -0.056
      -0.294
      -0.497
      -0.593
      -0.539
      -0.341
      -0.044
       0.287
       0.584
       0.792
       0.881
       0.847
       0.713
       0.516
       0.285
       0.045
      -0.184
      -0.379
      -0.514
      -0.566
      -0.519
      -0.369
      -0.131
       0.150
       0.409
       0.575
       0.601
       0.483
       0.260
      -0.003
      -0.245
      -0.422
      -0.515
      -0.529
      -0.488
      -0.424
      -0.366
      -0.324
      -0.282
      -0.207
      -0.070
       0.134
       0.381
       0.624
       0.815
       0.913
       0.885
       0.709
       0.384
      -0.062
      -0.564
      -1.024
      -1.338
      -1.418
      -1.232
      -0.815
      -0.262
       0.308
       0.780
       1.076
       1.157
       1.031
       0.740
       0.366
       0.010
      -0.229
      -0.301
      -0.231
      -0.109
      -0.043
      -0.099
      -0.270
      -0.485
      -0.651
      -0.702
