Origin Time       28/5/2010 07:25:06	 UTC
Lat.              31.2 N	
Long.             77.9 E	
Depth (Km)         43.0
Magnitude         4.8
 Region           Himachal                                                         
 Above details taken from USGS
    
Station Code      JUB
Station Lat.       31.110  N
Station Long.      77.663  E
Station Height(m) 1931.0
Site Class        A   Vs30 between 700 m/sec to 1400 m/sec * 
Record Time       28.05.2010 07:24:37.729 UTC
Sampling Rate     200. Hz
 Record Duration  107.730 Sec.
 Direction         N-S (N positive)
Max. Acceleration     41.668 cm/sec**2
     
  * For reference see Site Classification link of website 
     
 Base Line Corrected and Low Pass Filtered (Cut Off at 35 Hz) Time History
 Acceleration data in cm/sec**2
    
[...]
       0.002
       0.000
      -0.001
       0.000
       0.000
      -0.004
      -0.009
      -0.012
      -0.009
      -0.004
       0.000
      -0.001
      -0.005
      -0.009
      -0.009
      -0.004
       0.002
       0.003
      -0.001
      -0.007
      -0.011
      -0.007
       0.002
       0.009
       0.011
       0.008
       0.003
       0.000
      -0.001
      -0.001
      -0.003
      -0.006
      -0.007
      -0.004
       0.001
       0.008
       0.013
       0.015
       0.014
       0.007
      -0.003
      -0.012
      -0.014
      -0.007
       0.003
       0.007
       0.003
      -0.004
      -0.007
      -0.002
       0.006
       0.009
       0.004
      -0.004
      -0.008
      -0.008
      -0.005
      -0.005
      -0.008
      -0.009
      -0.005
       0.004
       0.013
       0.020
       0.022
       0.018
       0.013
       0.008
       0.005
       0.006
       0.008
       0.009
       0.009
       0.005
      -0.004
      -0.013
      -0.018
      -0.018
      -0.011
      -0.004
       0.000
       0.002
       0.006
       0.011
       0.016
       0.015
       0.008
       0.000
      -0.003
      -0.002
       0.001
       0.003
       0.003
       0.002
       0.002
       0.003
       0.002
       0.000
       0.000
       0.003
       0.010
       0.017
       0.019
       0.015
       0.007
       0.001
      -0.003
      -0.005
      -0.005
      -0.004
      -0.002
       0.002
       0.008
       0.016
       0.023
       0.027
       0.023
       0.014
       0.003
      -0.003
      -0.002
       0.003
       0.007
       0.010
       0.009
       0.007
       0.004
       0.000
      -0.003
      -0.007
      -0.011
      -0.013
      -0.011
      -0.005
       0.003
       0.008
       0.007
       0.002
      -0.002
      -0.001
       0.005
       0.012
       0.016
       0.016
       0.011
       0.004
      -0.002
      -0.006
      -0.006
      -0.004
      -0.002
       0.000
       0.002
       0.009
       0.019
       0.029
       0.035
       0.035
       0.029
       0.021
       0.015
       0.016
       0.024
       0.035
       0.046
       0.052
       0.050
       0.042
       0.030
       0.020
       0.014
       0.010
       0.004
      -0.006
      -0.017
      -0.028
      -0.037
      -0.043
      -0.044
      -0.043
      -0.039
      -0.035
      -0.032
      -0.035
      -0.047
      -0.062
      -0.057
      -0.006
       0.087
       0.185
       0.236
       0.216
       0.154
       0.114
       0.150
       0.267
       0.426
       0.566
       0.635
       0.609
       0.507
       0.405
       0.392
       0.507
       0.695
       0.841
       0.866
       0.782
       0.660
       0.547
       0.427
       0.244
      -0.040
      -0.407
      -0.783
      -1.053
      -1.112
      -0.935
      -0.627
      -0.416
      -0.536
      -1.080
      -1.891
      -2.610
      -2.881
      -2.589
      -1.948
      -1.359
      -1.127
      -1.244
      -1.405
      -1.241
      -0.604
       0.323
       1.172
       1.659
       1.771
       1.735
       1.819
       2.127
       2.512
       2.656
       2.271
       1.330
       0.173
      -0.647
      -0.727
      -0.129
       0.661
       1.130
       1.134
       0.933
       0.859
       0.950
       0.895
       0.310
      -0.913
      -2.456
      -3.725
      -4.159
      -3.503
      -1.947
      -0.100
       1.227
       1.406
       0.389
      -1.151
      -2.150
      -1.806
      -0.130
       2.037
       3.573
       3.787
       2.756
       1.096
      -0.516
      -1.686
      -2.317
      -2.458
      -2.167
      -1.480
      -0.457
       0.752
       1.888
       2.650
       2.822
       2.372
       1.471
       0.422
      -0.470
      -1.044
      -1.346
      -1.539
      -1.704
      -1.720
      -1.378
      -0.626
       0.314
       1.112
       1.596
       1.846
       2.022
       2.114
       1.892
       1.133
      -0.087
      -1.337
      -2.075
      -1.986
      -1.134
       0.095
       1.151
       1.502
       0.866
      -0.596
      -2.287
      -3.440
      -3.507
      -2.421
      -0.600
       1.268
       2.491
       2.609
       1.595
      -0.035
      -1.367
      -1.534
      -0.260
       1.926
       3.977
       4.901
       4.227
       2.163
      -0.542
      -2.920
      -4.180
      -4.024
      -2.718
      -0.906
       0.696
       1.496
       1.110
      -0.508
      -2.874
      -4.973
      -5.662
      -4.331
      -1.364
       2.011
       4.391
       4.976
       3.939
       2.196
       0.775
       0.242
       0.524
       1.146
       1.596
       1.581
       1.092
       0.362
      -0.227
      -0.328
       0.130
       0.813
       1.155
       0.764
      -0.267
      -1.415
      -2.146
      -2.314
      -2.205
      -2.180
      -2.265
      -2.102
      -1.325
       0.031
       1.484
       2.430
       2.508
       1.727
       0.369
      -1.195
      -2.631
      -3.660
      -4.013
      -3.432
      -1.786
       0.759
       3.670
       6.182
       7.542
       7.258
       5.264
       1.976
      -1.799
      -5.090
      -7.099
      -7.490
      -6.494
      -4.741
      -2.898
      -1.344
      -0.094
       1.005
       2.053
       3.033
       3.874
       4.466
       4.632
       4.246
       3.438
       2.609
       2.086
       1.724
       0.949
      -0.712
      -3.079
      -5.271
      -6.206
      -5.238
      -2.526
       0.962
       3.792
       4.674
       3.190
       0.194
      -2.539
      -3.378
      -1.912
       0.784
       2.940
       3.319
       1.989
       0.109
      -1.011
      -0.833
       0.126
       0.796
       0.453
      -0.667
      -1.540
      -1.237
       0.195
       1.653
       1.816
       0.242
      -2.207
      -3.936
      -3.698
      -1.416
       1.749
       4.073
       4.261
       2.205
      -0.986
      -3.684
      -4.709
      -3.878
      -1.890
       0.196
       1.503
       1.696
       1.134
       0.696
       1.188
       2.639
       4.090
       4.223
       2.475
      -0.321
      -2.445
      -2.610
      -0.962
       1.084
       1.966
       1.071
      -0.982
      -2.954
      -3.890
      -3.655
      -2.800
      -2.029
      -1.698
      -1.658
      -1.409
      -0.437
       1.466
       4.022
       6.479
       7.853
       7.377
       4.990
       1.486
      -1.883
      -4.110
      -4.886
      -4.512
      -3.462
      -2.064
      -0.538
       0.735
       1.157
       0.280
      -1.673
      -3.675
      -4.418
      -3.198
      -0.498
       2.234
       3.552
       3.036
       1.554
       0.496
       0.591
       1.361
       1.693
       0.952
      -0.435
      -1.439
      -1.381
      -0.488
       0.400
       0.569
      -0.060
      -0.997
      -1.639
      -1.642
      -0.989
       0.121
       1.371
       2.328
       2.517
       1.613
      -0.321
      -2.725
      -4.652
      -5.154
      -3.847
      -1.262
       1.420
       3.163
       3.715
       3.508
       3.011
       2.319
       1.388
       0.461
       0.045
       0.407
       1.190
       1.626
       1.165
      -0.088
      -1.497
      -2.444
      -2.788
      -2.864
      -3.050
      -3.327
      -3.245
      -2.329
      -0.590
       1.335
       2.588
       2.741
       2.132
       1.536
       1.484
       1.854
       2.117
       1.951
       1.550
       1.332
       1.398
       1.325
       0.509
      -1.265
      -3.490
      -5.137
      -5.237
      -3.511
      -0.597
       2.324
       4.240
       4.817
       4.351
       3.314
       1.960
       0.296
      -1.622
      -3.385
      -4.259
      -3.650
      -1.690
       0.578
       1.701
       0.774
      -1.785
      -4.314
      -4.948
      -2.929
       0.806
       4.242
       5.619
       4.500
       1.924
      -0.343
      -0.895
       0.519
       2.900
       4.615
       4.389
       2.090
      -1.214
      -4.011
      -5.369
      -5.431
      -5.036
      -4.832
      -4.671
      -3.787
      -1.599
       1.552
       4.394
       5.548
       4.490
       1.884
      -0.898
      -2.542
      -2.293
      -0.137
       3.128
       6.008
       6.901
       5.048
       1.212
      -2.612
      -4.413
      -3.453
      -0.694
       1.913
       2.706
       1.283
      -1.420
      -3.873
      -4.962
      -4.558
      -3.400
      -2.458
      -2.248
      -2.498
      -2.348
      -0.978
       1.700
       4.741
       6.537
       5.820
       2.720
      -0.987
      -2.916
      -1.785
       1.560
       4.734
       5.582
       3.672
       0.366
      -2.433
      -3.683
      -3.637
      -3.193
      -2.946
      -2.787
      -2.240
      -1.008
       0.799
       2.786
       4.403
       5.004
       4.078
       1.717
      -1.126
      -3.109
      -3.438
      -2.437
      -1.207
      -0.710
      -1.036
      -1.361
      -0.613
       1.555
       4.233
       5.747
       4.954
       2.261
      -0.620
      -2.064
      -1.871
      -1.334
      -1.975
      -4.101
      -6.492
      -7.465
      -6.226
      -3.316
       0.032
       2.821
       4.759
       6.097
       7.146
       7.826
       7.580
       5.825
       2.624
      -1.086
      -4.026
      -5.395
      -5.171
      -3.806
      -1.900
      -0.227
       0.296
      -0.828
      -2.959
      -4.409
      -3.633
      -0.593
       3.010
       4.965
       4.207
       1.557
      -0.990
      -1.761
      -0.547
       1.387
       2.342
       1.481
      -0.589
      -2.379
      -2.719
      -1.560
       0.269
       1.926
       3.095
       3.799
       4.010
       3.651
       2.849
       1.885
       0.792
      -0.805
      -3.215
      -6.027
      -8.067
      -8.170
      -6.104
      -2.847
       0.023
       1.329
       0.956
      -0.181
      -0.756
       0.199
       2.738
       5.909
       8.259
       8.699
       7.160
       4.537
       1.929
      -0.182
      -2.101
      -4.288
      -6.588
      -8.077
      -7.751
      -5.449
      -2.188
       0.430
       1.313
       0.622
      -0.404
      -0.403
       1.136
       3.601
       5.775
       6.622
       5.763
       3.476
       0.450
      -2.502
      -4.716
      -5.886
      -6.022
      -5.167
      -3.202
      -0.057
       3.774
       6.966
       7.831
       5.425
       0.558
      -4.251
      -6.137
      -3.779
       1.620
       7.057
       9.612
       8.128
       3.691
      -1.118
      -3.613
      -2.412
       1.702
       6.064
       7.636
       4.931
      -1.019
      -7.466
     -11.899
     -13.618
     -13.759
     -13.962
     -14.910
     -15.913
     -15.682
     -13.469
      -9.637
      -5.302
      -1.503
       1.443
       4.016
       7.072
      11.257
      16.560
      22.218
      26.995
      29.702
      29.711
      27.214
      23.066
      18.178
      12.802
       6.339
      -1.940
     -11.741
     -21.302
     -28.293
     -31.414
     -31.265
     -29.679
     -28.098
     -26.396
     -23.128
     -16.898
      -7.709
       2.711
      11.734
      17.200
      18.489
      16.702
      13.915
      11.986
      11.618
      12.227
      12.578
      11.670
       9.339
       6.319
       3.809
       2.718
       2.997
       3.555
       2.940
       0.415
      -3.406
      -6.946
      -8.861
      -9.076
      -8.775
      -9.331
     -11.147
     -13.369
     -14.534
     -13.453
      -9.741
      -4.005
       2.182
       6.727
       8.040
       6.092
       2.618
       0.139
       0.472
       3.776
       8.672
      13.185
      15.797
      15.950
      13.805
       9.709
       3.951
      -2.978
      -9.957
     -15.182
     -16.789
     -13.926
      -7.587
      -0.451
       4.449
       5.479
       3.298
       0.158
      -1.826
      -2.039
      -1.323
      -0.824
      -0.941
      -1.330
      -1.707
      -2.344
      -3.585
      -4.960
      -5.044
      -2.524
       2.412
       7.728
      10.732
       9.918
       5.982
       1.201
      -2.318
      -4.088
      -5.211
      -6.943
      -9.224
     -10.651
      -9.880
      -6.975
      -3.339
      -0.436
       1.355
       2.745
       4.673
       7.436
      10.395
      12.246
      11.756
       8.700
       4.368
       1.019
       0.450
       2.814
       6.695
      10.282
      12.518
      13.337
      13.035
      11.556
       8.401
       3.165
      -3.879
     -11.743
     -19.167
     -25.011
     -28.282
     -28.050
     -23.769
     -15.950
      -6.551
       1.584
       6.168
       6.747
       4.710
       2.052
       0.108
      -0.694
      -0.244
       1.614
       4.728
       8.173
      10.480
      10.563
       8.534
       5.608
       3.123
       1.621
       0.870
       0.666
       1.321
       3.128
       5.370
       6.142
       3.527
      -2.733
     -10.495
     -16.182
     -16.837
     -11.854
      -3.329
       5.024
       9.654
       8.814
       3.486
      -2.813
      -5.659
      -2.342
       6.060
      14.893
      18.727
      14.924
       5.355
      -4.988
     -11.247
     -11.332
      -6.481
      -0.150
       3.659
       2.072
      -5.245
     -15.535
     -23.964
     -26.040
     -20.180
      -8.862
       2.510
       8.613
       7.585
       2.609
       0.208
       5.807
      19.364
      34.414
      41.668
      34.979
      15.603
      -8.214
     -25.997
     -30.867
     -22.745
      -7.517
       6.592
      13.108
      10.057
       0.425
      -9.767
     -14.920
     -12.987
      -6.387
      -0.096
       1.799
      -1.206
      -5.829
      -7.441
      -3.472
       4.688
      12.812
      17.078
      16.669
      13.595
      10.231
       7.165
       3.379
      -1.747
      -7.051
     -10.339
     -10.383
      -7.957
      -4.968
      -2.821
      -1.696
      -1.170
      -1.157
      -1.975
      -3.490
      -4.487
      -3.365
       0.246
       4.591
       6.808
       5.179
       0.636
      -3.844
      -5.420
      -3.357
       0.619
       3.553
       3.086
      -1.122
      -7.048
     -11.345
     -11.436
      -7.328
      -1.636
       2.456
       3.745
       3.859
       5.561
       9.993
      15.312
      18.005
      15.737
       9.261
       1.811
      -3.313
      -4.892
      -4.226
      -3.927
      -6.080
     -10.757
     -15.647
     -17.274
     -13.479
      -5.565
       1.932
       4.356
       0.644
      -5.634
      -8.984
      -6.099
       2.039
      11.301
      17.211
      17.160
      11.141
       1.550
      -7.493
     -11.545
      -8.118
       1.288
      11.379
      16.270
      13.690
       6.731
       1.348
       1.553
       6.379
      11.129
      11.526
       6.989
       0.412
      -4.888
      -8.029
     -10.744
     -15.020
     -20.613
     -24.758
     -24.164
     -17.447
      -6.103
       6.363
      16.110
      20.320
      17.893
       9.781
      -0.945
      -9.829
     -12.941
      -9.247
      -1.578
       5.170
       7.619
       6.322
       4.684
       5.348
       7.591
       8.290
       5.285
      -0.303
      -4.989
      -5.957
      -3.323
       0.232
       1.828
       0.577
      -2.097
      -3.906
      -3.499
      -1.225
       1.449
       2.972
       2.258
      -1.247
      -7.233
     -13.793
     -17.409
     -14.693
      -5.143
       7.519
      17.213
      19.559
      14.874
       7.620
       2.907
       3.036
       6.552
       9.881
       9.808
       5.167
      -2.899
     -11.733
     -18.397
     -20.853
     -18.771
     -13.639
      -7.969
      -3.911
      -2.212
      -2.208
      -2.657
      -2.563
      -1.393
       1.189
       5.533
      11.723
      18.874
      24.667
      26.010
      20.939
      10.481
      -1.323
      -9.701
     -12.097
      -9.499
      -5.231
      -2.364
      -1.837
      -2.584
      -3.188
      -3.340
      -3.844
      -5.461
      -7.948
     -10.179
     -10.964
      -9.750
      -6.877
      -3.505
      -1.139
      -0.675
      -1.487
      -1.569
       1.002
       6.376
      12.552
      16.758
      17.449
      15.180
      11.758
       8.694
       6.446
       4.756
       3.210
       1.359
      -1.261
      -4.752
      -8.425
     -10.975
     -11.324
      -9.382
      -6.059
      -2.674
      -0.398
      -0.032
      -1.811
      -5.013
      -7.789
      -7.931
      -4.552
       0.689
       4.336
       3.800
      -0.271
      -4.305
      -4.814
      -1.407
       3.020
       5.080
       4.019
       2.331
       3.424
       8.567
      15.726
      21.082
      21.758
      17.570
      10.675
       3.749
      -1.729
      -5.879
      -9.519
     -13.015
     -15.973
     -17.888
     -18.811
     -19.176
     -18.988
     -17.421
     -13.530
      -7.513
      -1.180
       3.114
       4.338
       3.826
       4.414
       8.196
      14.614
      20.523
      22.339
      18.685
      11.425
       4.317
       0.440
       0.389
       2.297
       3.316
       1.434
      -3.410
      -9.433
     -14.163
     -15.915
     -14.641
     -11.632
      -8.469
      -6.130
      -4.827
      -4.329
      -4.218
      -3.896
      -2.680
      -0.180
       3.345
       7.044
       9.978
      11.660
      12.225
      12.153
      11.790
      11.072
       9.673
       7.397
       4.423
       1.216
      -1.760
      -4.234
      -6.182
      -7.838
      -9.602
     -11.694
     -13.642
     -14.140
     -11.699
      -5.881
       1.819
       8.315
      10.512
       7.230
       0.242
      -6.432
      -8.858
      -5.765
       0.507
       5.636
       6.445
       3.143
      -1.023
      -2.350
       0.559
       5.946
      10.433
      11.577
       9.453
       6.182
       4.016
       3.660
       4.125
       3.955
       2.488
       0.058
      -2.743
      -5.720
      -8.918
     -11.951
     -13.741
     -13.168
     -10.090
      -5.716
      -1.868
       0.269
       0.796
       0.698
       0.933
       1.887
       3.502
       5.636
       8.124
      10.512
      11.938
      11.531
       9.157
       5.801
       3.028
       1.803
       1.609
       0.763
      -2.225
      -7.304
     -12.644
     -15.739
     -15.024
     -10.865
      -5.325
      -0.933
       0.733
      -0.224
      -2.335
      -3.839
      -3.702
      -1.905
       1.028
       4.613
       8.469
      11.902
      13.719
      12.795
       9.062
       3.963
      -0.262
      -2.030
      -1.445
      -0.065
       0.305
      -1.193
      -4.154
      -7.456
     -10.053
     -11.442
     -11.669
     -11.082
     -10.069
      -8.843
      -7.297
      -5.014
      -1.573
       2.916
       7.441
      10.376
      10.487
       7.978
       4.657
       2.884
       3.972
       7.213
      10.303
      10.918
       8.339
       3.931
       0.090
      -1.556
      -1.251
      -0.653
      -1.261
      -3.155
      -5.142
      -6.029
      -5.745
      -5.214
      -5.227
      -5.543
      -5.144
      -3.357
      -0.634
       1.782
       2.934
       2.892
       2.538
       2.723
