Origin Time       1/5/2013 06:57:12	 
Lat.              33.1 N	
Long.             75.8 E	
Depth (Km)         15.0
Magnitude         5.8
 Region           JK-HP-Border                                                     
 Above details taken from IMD 
   
Station Code      JUB
Station Lat.       31.110
Station Long.      77.663
Station Height(m) 1931.0
Site Class        A   Vs30 between 700 m/sec to 1400 m/sec * 
Record Time       01.05.2013 06:58:03.844
Sampling Rate     200. Hz
 Record Duration  120.355 Sec.
 Direction         Vert. (Up positive)
Max. Acceleration      3.350 cm/sec**2
     
  * For reference see Site Classification link of website 
     
 Base Line Corrected and Low Pass Filtered (Cut Off at 35 Hz) Time History
 Acceleration data in cm/sec**2
    
[...]
      -0.116
       0.029
       0.285
       0.611
       0.960
       1.295
       1.590
       1.816
       1.947
       1.961
       1.852
       1.636
       1.352
       1.051
       0.790
       0.617
       0.552
       0.579
       0.645
       0.681
       0.643
       0.521
       0.342
       0.147
      -0.033
      -0.187
      -0.324
      -0.466
      -0.632
      -0.822
      -1.006
      -1.135
      -1.165
      -1.076
      -0.882
      -0.622
      -0.346
      -0.103
       0.071
       0.159
       0.167
       0.121
       0.064
       0.043
       0.091
       0.212
       0.373
       0.513
       0.563
       0.478
       0.268
      -0.006
      -0.258
      -0.420
      -0.470
      -0.434
      -0.360
      -0.296
      -0.270
      -0.282
      -0.309
      -0.328
      -0.331
      -0.327
      -0.321
      -0.295
      -0.215
      -0.064
       0.133
       0.320
       0.442
       0.477
       0.442
       0.373
       0.300
       0.243
       0.219
       0.241
       0.318
       0.443
       0.582
       0.689
       0.720
       0.660
       0.523
       0.345
       0.158
      -0.021
      -0.178
      -0.298
      -0.350
      -0.309
      -0.179
      -0.010
       0.105
       0.086
      -0.083
      -0.333
      -0.553
      -0.653
      -0.603
      -0.430
      -0.184
       0.088
       0.354
       0.583
       0.735
       0.763
       0.646
       0.406
       0.104
      -0.188
      -0.423
      -0.578
      -0.633
      -0.559
      -0.345
      -0.022
       0.316
       0.564
       0.660
       0.630
       0.562
       0.542
       0.593
       0.660
       0.667
       0.579
       0.428
       0.279
       0.169
       0.077
      -0.050
      -0.250
      -0.513
      -0.793
      -1.031
      -1.186
      -1.234
      -1.172
      -1.021
      -0.819
      -0.619
      -0.462
      -0.369
      -0.334
      -0.338
      -0.358
      -0.364
      -0.323
      -0.213
      -0.041
       0.152
       0.319
       0.438
       0.518
       0.577
       0.600
       0.531
       0.308
      -0.079
      -0.564
      -1.035
      -1.388
      -1.570
      -1.595
      -1.519
      -1.398
      -1.250
      -1.058
      -0.805
      -0.506
      -0.217
      -0.003
       0.102
       0.111
       0.064
       0.003
      -0.046
      -0.065
      -0.023
       0.122
       0.400
       0.808
       1.307
       1.838
       2.342
       2.760
       3.039
       3.126
       2.979
       2.585
       1.971
       1.199
       0.355
      -0.467
      -1.169
      -1.663
      -1.884
      -1.809
      -1.470
      -0.959
      -0.414
       0.021
       0.245
       0.240
       0.074
      -0.140
      -0.311
      -0.405
      -0.438
      -0.433
      -0.393
      -0.306
      -0.182
      -0.059
       0.029
       0.096
       0.201
       0.388
       0.626
       0.801
       0.800
       0.592
       0.246
      -0.120
      -0.427
      -0.666
      -0.879
      -1.105
      -1.344
      -1.545
      -1.638
      -1.567
      -1.336
      -0.999
      -0.627
      -0.266
       0.077
       0.402
       0.691
       0.902
       0.997
       0.971
       0.860
       0.732
       0.660
       0.701
       0.873
       1.151
       1.477
       1.765
       1.922
       1.869
       1.575
       1.085
       0.503
      -0.040
      -0.448
      -0.684
      -0.777
      -0.793
      -0.799
      -0.833
      -0.876
      -0.869
      -0.754
      -0.523
      -0.221
       0.079
       0.323
       0.471
       0.493
       0.359
       0.065
      -0.337
      -0.735
      -0.999
      -1.039
      -0.842
      -0.466
      -0.010
       0.425
       0.765
       0.989
       1.125
       1.217
       1.279
       1.282
       1.170
       0.912
       0.522
       0.060
      -0.396
      -0.778
      -1.037
      -1.152
      -1.139
      -1.046
      -0.941
      -0.899
      -0.971
      -1.168
      -1.439
      -1.678
      -1.765
      -1.624
      -1.275
      -0.831
      -0.433
      -0.176
      -0.077
      -0.097
      -0.187
      -0.303
      -0.391
      -0.384
      -0.225
       0.089
       0.497
       0.901
       1.214
       1.402
       1.488
       1.531
       1.576
       1.625
       1.642
       1.578
       1.404
       1.116
       0.709
       0.179
      -0.445
      -1.076
      -1.590
      -1.873
      -1.884
      -1.665
      -1.333
      -1.023
      -0.822
      -0.724
      -0.654
      -0.528
      -0.313
      -0.037
       0.247
       0.494
       0.699
       0.882
       1.062
       1.233
       1.361
       1.409
       1.357
       1.206
       0.983
       0.733
       0.497
       0.304
       0.154
       0.020
      -0.145
      -0.381
      -0.701
      -1.077
      -1.438
      -1.686
      -1.727
      -1.517
      -1.083
      -0.514
       0.068
       0.552
       0.870
       1.012
       1.026
       0.986
       0.954
       0.946
       0.944
       0.925
       0.900
       0.893
       0.908
       0.909
       0.851
       0.725
       0.578
       0.469
       0.421
       0.395
       0.319
       0.122
      -0.230
      -0.733
      -1.341
      -1.978
      -2.537
      -2.911
      -3.019
      -2.838
      -2.405
      -1.812
      -1.179
      -0.617
      -0.204
       0.040
       0.149
       0.195
       0.254
       0.384
       0.608
       0.905
       1.215
       1.453
       1.541
       1.450
       1.209
       0.901
       0.618
       0.419
       0.308
       0.238
       0.146
      -0.016
      -0.254
      -0.524
      -0.748
      -0.831
      -0.702
      -0.340
       0.201
       0.800
       1.323
       1.685
       1.862
       1.867
       1.732
       1.506
       1.245
       0.960
       0.592
       0.060
      -0.607
      -1.215
      -1.501
      -1.353
      -0.932
      -0.526
      -0.291
      -0.175
      -0.078
       0.002
      -0.018
      -0.190
      -0.482
      -0.797
      -1.037
      -1.175
      -1.240
      -1.245
      -1.143
      -0.880
      -0.486
      -0.083
       0.199
       0.312
       0.323
       0.354
       0.511
       0.806
       1.130
       1.296
       1.158
       0.739
       0.242
      -0.107
      -0.269
      -0.427
      -0.783
      -1.333
      -1.868
      -2.167
      -2.165
      -1.952
      -1.650
      -1.301
      -0.859
      -0.279
       0.388
       0.989
       1.367
       1.470
       1.369
       1.182
       0.979
       0.761
       0.497
       0.176
      -0.160
      -0.437
      -0.592
      -0.617
      -0.558
      -0.478
      -0.401
      -0.294
      -0.100
       0.206
       0.572
       0.891
       1.066
       1.079
       0.989
       0.892
       0.857
       0.885
       0.923
       0.897
       0.767
       0.538
       0.248
      -0.078
      -0.432
      -0.798
      -1.120
      -1.309
      -1.292
      -1.062
      -0.688
      -0.280
       0.061
       0.281
       0.374
       0.372
       0.331
       0.311
       0.361
       0.496
       0.690
       0.888
       1.017
       1.011
       0.830
       0.489
       0.057
      -0.373
      -0.720
      -0.947
      -1.056
      -1.063
      -0.982
      -0.822
      -0.607
      -0.379
      -0.187
      -0.054
       0.030
       0.094
       0.152
       0.189
       0.169
       0.064
      -0.120
      -0.341
      -0.536
      -0.640
      -0.616
      -0.463
      -0.221
       0.049
       0.296
       0.491
       0.622
       0.683
       0.667
       0.575
       0.420
       0.223
       0.012
      -0.189
      -0.356
      -0.476
      -0.541
      -0.544
      -0.477
      -0.329
      -0.093
       0.216
       0.567
       0.918
       1.228
       1.460
       1.578
       1.563
       1.427
       1.219
       1.015
       0.888
       0.866
       0.915
       0.939
       0.834
       0.545
       0.099
      -0.412
      -0.892
      -1.284
      -1.578
      -1.790
      -1.937
      -2.028
      -2.064
      -2.028
      -1.895
      -1.642
      -1.265
      -0.783
      -0.234
       0.328
       0.834
       1.209
       1.392
       1.353
       1.118
       0.779
       0.462
       0.259
       0.191
       0.225
       0.307
       0.380
       0.379
       0.235
      -0.087
      -0.547
      -1.052
      -1.504
      -1.840
      -2.045
      -2.146
      -2.179
      -2.149
      -2.020
      -1.735
      -1.251
      -0.567
       0.260
       1.123
       1.892
       2.465
       2.803
       2.920
       2.842
       2.588
       2.186
       1.677
       1.097
       0.463
      -0.216
      -0.916
      -1.580
      -2.126
      -2.461
      -2.520
      -2.287
      -1.807
      -1.172
      -0.513
       0.035
       0.381
       0.505
       0.441
       0.238
      -0.053
      -0.353
      -0.572
      -0.635
      -0.497
      -0.146
       0.387
       1.005
       1.558
       1.900
       1.971
       1.807
       1.508
       1.180
       0.906
       0.725
       0.618
       0.548
       0.493
       0.455
       0.433
       0.404
       0.340
       0.220
       0.041
      -0.184
      -0.428
      -0.659
      -0.865
      -1.058
      -1.242
      -1.374
      -1.387
      -1.242
      -0.960
      -0.597
      -0.205
       0.181
       0.532
       0.800
       0.932
       0.894
       0.717
       0.479
       0.247
       0.030
      -0.199
      -0.466
      -0.780
      -1.112
      -1.388
      -1.511
      -1.413
      -1.089
      -0.580
       0.076
       0.848
       1.662
       2.374
       2.824
       2.921
       2.675
       2.162
       1.490
       0.765
       0.080
      -0.485
      -0.876
      -1.085
      -1.162
      -1.197
      -1.267
      -1.389
      -1.508
      -1.558
      -1.500
      -1.318
      -1.001
      -0.567
      -0.074
       0.394
       0.767
       1.015
       1.136
       1.153
       1.101
       1.009
       0.887
       0.706
       0.422
       0.010
      -0.490
      -0.984
      -1.369
      -1.578
      -1.599
      -1.455
      -1.178
      -0.799
      -0.340
       0.162
       0.653
       1.079
       1.404
       1.612
       1.682
       1.569
       1.225
       0.657
      -0.039
      -0.696
      -1.152
      -1.327
      -1.232
      -0.927
      -0.476
       0.064
       0.611
       1.049
       1.265
       1.198
       0.872
       0.378
      -0.156
      -0.618
      -0.944
      -1.130
      -1.218
      -1.261
      -1.296
      -1.323
      -1.317
      -1.253
      -1.120
      -0.917
      -0.636
      -0.249
       0.264
       0.864
       1.432
       1.800
       1.830
       1.495
       0.912
       0.309
      -0.068
      -0.090
       0.179
       0.523
       0.738
       0.773
       0.723
       0.678
       0.595
       0.348
      -0.095
      -0.603
      -0.996
      -1.196
      -1.241
      -1.205
      -1.136
      -1.050
      -0.948
      -0.819
      -0.648
      -0.420
      -0.122
       0.225
       0.563
       0.821
       0.957
       0.964
       0.845
       0.586
       0.182
      -0.324
      -0.836
      -1.230
      -1.418
      -1.372
      -1.121
      -0.716
      -0.214
       0.320
       0.806
       1.155
       1.299
       1.217
       0.938
       0.535
       0.105
      -0.246
      -0.443
      -0.466
      -0.343
      -0.130
       0.118
       0.347
       0.509
       0.558
       0.480
       0.321
       0.187
       0.186
       0.362
       0.660
       0.972
       1.195
       1.266
       1.169
       0.925
       0.590
       0.247
      -0.005
      -0.084
       0.040
       0.325
       0.667
       0.940
       1.047
       0.954
       0.682
       0.294
      -0.140
      -0.553
      -0.897
      -1.136
      -1.247
      -1.224
      -1.088
      -0.881
      -0.667
      -0.519
      -0.486
      -0.574
      -0.746
      -0.951
      -1.146
      -1.302
      -1.383
      -1.344
      -1.151
      -0.800
      -0.332
       0.185
       0.674
       1.063
       1.300
       1.365
       1.289
       1.140
       0.989
       0.867
       0.751
       0.585
       0.312
      -0.083
      -0.563
      -1.035
      -1.380
      -1.490
      -1.302
      -0.820
      -0.125
       0.629
       1.256
       1.607
       1.622
       1.354
       0.941
       0.537
       0.251
       0.123
       0.120
       0.174
       0.217
       0.200
       0.092
      -0.127
      -0.458
      -0.870
      -1.289
      -1.630
      -1.823
      -1.832
      -1.645
      -1.255
      -0.685
      -0.014
       0.618
       1.063
       1.224
       1.085
       0.700
       0.165
      -0.401
      -0.874
      -1.153
      -1.193
      -1.016
      -0.686
      -0.280
       0.133
       0.498
       0.764
       0.899
       0.900
       0.796
       0.636
       0.454
       0.251
      -0.002
      -0.331
      -0.727
      -1.137
      -1.488
      -1.730
      -1.841
      -1.811
      -1.608
      -1.186
      -0.535
       0.279
       1.123
       1.855
       2.376
       2.650
       2.683
       2.500
       2.144
       1.670
       1.146
       0.641
       0.206
      -0.131
      -0.374
      -0.546
      -0.670
      -0.755
      -0.787
      -0.760
      -0.700
      -0.688
      -0.817
      -1.130
      -1.569
      -1.987
      -2.221
      -2.171
      -1.825
      -1.241
      -0.499
       0.322
       1.152
       1.929
       2.593
       3.085
       3.350
       3.339
       3.017
       2.388
       1.523
       0.558
      -0.352
      -1.101
      -1.668
      -2.098
      -2.439
      -2.678
      -2.736
      -2.524
      -2.013
      -1.271
      -0.442
       0.314
       0.878
       1.198
       1.286
       1.199
       1.012
       0.797
       0.612
       0.499
       0.479
       0.545
       0.668
       0.810
       0.951
       1.091
       1.236
       1.370
       1.456
       1.451
       1.326
       1.070
       0.684
       0.179
      -0.409
      -1.007
      -1.526
      -1.890
      -2.057
      -2.025
      -1.814
      -1.464
      -1.027
      -0.574
      -0.174
       0.114
       0.248
       0.211
       0.026
      -0.242
      -0.505
      -0.673
      -0.674
      -0.461
      -0.022
       0.602
       1.306
       1.928
       2.306
       2.373
       2.191
       1.875
       1.439
       0.756
      -0.257
      -1.364
      -2.017
      -1.799
      -0.946
      -0.278
      -0.466
      -1.386
      -2.249
      -2.328
      -1.519
      -0.294
       0.747
       1.297
       1.432
       1.401
       1.349
       1.216
       0.886
       0.355
      -0.235
      -0.692
      -0.888
      -0.824
      -0.632
      -0.491
      -0.483
      -0.528
      -0.473
      -0.245
       0.083
       0.361
       0.474
       0.398
       0.176
      -0.139
      -0.506
      -0.874
      -1.151
      -1.231
      -1.065
      -0.728
      -0.388
      -0.177
      -0.077
       0.051
       0.294
       0.534
       0.525
       0.136
      -0.491
      -1.029
      -1.190
      -0.891
      -0.280
       0.369
       0.830
       1.034
       1.030
       0.883
       0.630
       0.317
       0.036
      -0.116
      -0.104
       0.028
       0.181
       0.261
       0.237
       0.160
       0.135
       0.242
       0.479
       0.750
       0.925
       0.914
       0.722
       0.405
      -0.003
      -0.506
      -1.068
      -1.521
      -1.610
      -1.194
      -0.428
       0.303
       0.708
       0.826
       0.935
       1.234
       1.663
       1.987
       2.001
       1.652
       1.043
       0.348
      -0.272
      -0.722
      -0.966
      -1.004
      -0.871
      -0.629
      -0.355
      -0.111
       0.050
       0.080
      -0.043
      -0.272
      -0.496
      -0.602
      -0.547
      -0.371
      -0.167
      -0.037
      -0.047
      -0.211
      -0.486
      -0.787
      -1.013
      -1.074
      -0.926
      -0.590
      -0.158
       0.244
       0.506
       0.576
       0.467
       0.242
      -0.021
      -0.250
      -0.392
      -0.414
      -0.307
      -0.087
       0.213
       0.557
       0.913
       1.255
       1.543
       1.722
       1.736
       1.552
       1.173
       0.650
       0.075
      -0.438
      -0.787
      -0.922
      -0.863
      -0.679
      -0.444
      -0.213
      -0.007
       0.165
       0.288
       0.327
       0.242
       0.021
      -0.294
      -0.614
      -0.848
      -0.957
      -0.969
      -0.963
      -1.008
      -1.125
      -1.283
      -1.407
      -1.415
      -1.248
      -0.907
      -0.445
       0.055
       0.511
       0.868
       1.109
       1.247
       1.303
       1.281
       1.165
       0.927
       0.558
       0.101
      -0.335
      -0.604
      -0.612
      -0.391
      -0.074
       0.220
       0.481
       0.779
       1.117
       1.332
       1.221
       0.800
       0.364
       0.238
       0.462
       0.760
       0.805
       0.491
      -0.019
      -0.472
      -0.728
      -0.820
      -0.833
      -0.781
      -0.623
      -0.361
      -0.077
       0.099
       0.067
      -0.180
      -0.540
      -0.862
      -1.024
      -0.971
      -0.721
      -0.352
       0.024
       0.325
       0.556
       0.765
       0.958
       1.062
       0.987
       0.713
       0.305
      -0.133
      -0.513
      -0.768
      -0.842
      -0.706
      -0.388
       0.011
       0.343
       0.478
       0.358
       0.004
      -0.508
      -1.083
      -1.622
      -2.023
      -2.205
      -2.135
      -1.847
      -1.428
      -0.984
      -0.600
      -0.310
      -0.103
       0.055
       0.194
       0.347
       0.559
       0.885
       1.349
       1.904
       2.422
       2.748
       2.778
       2.515
       2.048
       1.494
       0.940
       0.431
      -0.019
      -0.419
      -0.796
      -1.180
      -1.562
      -1.861
      -1.941
      -1.694
      -1.127
      -0.386
       0.315
       0.800
       1.012
       1.009
       0.892
       0.738
       0.582
       0.453
       0.403
       0.500
       0.775
       1.174
       1.562
       1.780
       1.726
       1.407
       0.928
       0.434
       0.033
      -0.244
      -0.440
      -0.635
      -0.904
      -1.282
      -1.750
      -2.240
      -2.651
      -2.868
      -2.777
      -2.301
      -1.457
      -0.379
       0.707
       1.571
       2.079
       2.222
       2.085
       1.790
       1.452
       1.168
       0.996
       0.934
       0.902
       0.783
       0.501
       0.082
      -0.356
      -0.680
      -0.816
      -0.769
      -0.595
      -0.367
      -0.174
      -0.105
      -0.217
      -0.491
      -0.824
      -1.086
      -1.172
      -1.057
      -0.795
      -0.484
      -0.223
      -0.068
      -0.018
      -0.015
       0.033
       0.218
       0.585
       1.104
       1.672
       2.145
       2.382
       2.292
       1.863
       1.159
       0.285
      -0.643
      -1.512
      -2.210
      -2.652
      -2.815
      -2.750
      -2.551
      -2.303
      -2.030
      -1.698
      -1.249
      -0.650
       0.057
       0.754
       1.286
       1.547
       1.535
       1.352
       1.135
       0.987
       0.933
