Origin Time       14/03/2010 6:53:21	 UTC
Lat.              31.7 N	
Long.             76.1 E	
Depth (Km)         29.0
Magnitude         4.6
 Region           HIMACHAL-PUNJAB-(HOSHIARPUR)-BORDER                              
 Above details taken from IMD 
    
Station Code      JUB
Station Lat.       31.110  N
Station Long.      77.663  E
Station Height(m) 1931.0
Site Class        A   Vs30 between 700 m/sec to 1400 m/sec * 
Record Time       14.03.2010 06:53:58.904 UTC
Sampling Rate     200. Hz
 Record Duration   64.995 Sec.
 Direction         N-S (N positive)
Max. Acceleration      3.280 cm/sec**2
     
  * For reference see Site Classification link of website 
     
 Base Line Corrected and Low Pass Filtered (Cut Off at 35 Hz) Time History
 Acceleration data in cm/sec**2
    
[...]
      -0.377
      -0.336
      -0.279
      -0.219
      -0.169
      -0.128
      -0.087
      -0.036
       0.028
       0.099
       0.173
       0.247
       0.315
       0.368
       0.390
       0.371
       0.319
       0.263
       0.232
       0.242
       0.281
       0.321
       0.333
       0.301
       0.222
       0.106
      -0.034
      -0.181
      -0.315
      -0.423
      -0.499
      -0.547
      -0.573
      -0.581
      -0.562
      -0.512
      -0.434
      -0.345
      -0.261
      -0.185
      -0.103
       0.000
       0.129
       0.271
       0.392
       0.460
       0.455
       0.383
       0.277
       0.181
       0.129
       0.119
       0.125
       0.111
       0.068
       0.018
      -0.002
       0.029
       0.099
       0.171
       0.210
       0.206
       0.170
       0.119
       0.060
      -0.021
      -0.145
      -0.326
      -0.546
      -0.759
      -0.904
      -0.937
      -0.855
      -0.696
      -0.519
      -0.370
      -0.259
      -0.155
      -0.018
       0.172
       0.394
       0.603
       0.753
       0.826
       0.833
       0.803
       0.761
       0.716
       0.662
       0.586
       0.488
       0.381
       0.288
       0.229
       0.211
       0.227
       0.255
       0.273
       0.264
       0.221
       0.145
       0.040
      -0.090
      -0.235
      -0.386
      -0.531
      -0.665
      -0.784
      -0.873
      -0.904
      -0.839
      -0.648
      -0.332
       0.082
       0.542
       0.992
       1.373
       1.626
       1.704
       1.597
       1.345
       1.033
       0.742
       0.517
       0.341
       0.165
      -0.054
      -0.322
      -0.610
      -0.877
      -1.087
      -1.221
      -1.263
      -1.209
      -1.079
      -0.915
      -0.769
      -0.676
      -0.638
      -0.628
      -0.614
      -0.574
      -0.501
      -0.394
      -0.258
      -0.102
       0.062
       0.220
       0.367
       0.503
       0.628
       0.741
       0.825
       0.856
       0.809
       0.673
       0.465
       0.216
      -0.040
      -0.277
      -0.480
      -0.633
      -0.717
      -0.719
      -0.642
      -0.509
      -0.352
      -0.191
      -0.036
       0.113
       0.246
       0.345
       0.392
       0.385
       0.330
       0.236
       0.100
      -0.085
      -0.323
      -0.594
      -0.853
      -1.042
      -1.108
      -1.034
      -0.839
      -0.571
      -0.290
      -0.042
       0.154
       0.311
       0.463
       0.651
       0.892
       1.170
       1.437
       1.637
       1.722
       1.676
       1.508
       1.238
       0.886
       0.465
      -0.006
      -0.492
      -0.935
      -1.271
      -1.452
      -1.476
      -1.381
      -1.224
      -1.047
      -0.860
      -0.653
      -0.415
      -0.158
       0.091
       0.301
       0.455
       0.552
       0.600
       0.601
       0.548
       0.433
       0.264
       0.070
      -0.108
      -0.235
      -0.310
      -0.357
      -0.412
      -0.489
      -0.568
      -0.604
      -0.555
      -0.409
      -0.181
       0.102
       0.424
       0.777
       1.147
       1.499
       1.778
       1.923
       1.894
       1.679
       1.305
       0.825
       0.316
      -0.147
      -0.507
      -0.753
      -0.923
      -1.079
      -1.269
      -1.492
      -1.692
      -1.797
      -1.752
      -1.554
      -1.240
      -0.863
      -0.469
      -0.079
       0.299
       0.658
       0.982
       1.246
       1.435
       1.548
       1.593
       1.577
       1.500
       1.352
       1.130
       0.837
       0.497
       0.136
      -0.226
      -0.577
      -0.918
      -1.249
      -1.563
      -1.832
      -2.009
      -2.044
      -1.913
      -1.634
      -1.258
      -0.848
      -0.447
      -0.071
       0.280
       0.605
       0.895
       1.139
       1.337
       1.501
       1.654
       1.806
       1.937
       1.996
       1.924
       1.679
       1.264
       0.726
       0.142
      -0.409
      -0.872
      -1.227
      -1.485
      -1.670
      -1.798
      -1.863
      -1.846
      -1.724
      -1.492
      -1.166
      -0.783
      -0.385
      -0.013
       0.310
       0.571
       0.764
       0.879
       0.916
       0.883
       0.799
       0.685
       0.551
       0.394
       0.212
       0.006
      -0.209
      -0.409
      -0.563
      -0.648
      -0.653
      -0.586
      -0.467
      -0.323
      -0.178
      -0.052
       0.043
       0.099
       0.117
       0.105
       0.075
       0.047
       0.038
       0.064
       0.135
       0.251
       0.395
       0.536
       0.635
       0.659
       0.595
       0.458
       0.281
       0.101
      -0.058
      -0.181
      -0.257
      -0.277
      -0.232
      -0.128
       0.014
       0.159
       0.275
       0.339
       0.343
       0.290
       0.188
       0.056
      -0.077
      -0.181
      -0.239
      -0.252
      -0.237
      -0.212
      -0.182
      -0.145
      -0.099
      -0.057
      -0.037
      -0.058
      -0.119
      -0.211
      -0.317
      -0.428
      -0.534
      -0.624
      -0.672
      -0.654
      -0.553
      -0.374
      -0.137
       0.129
       0.392
       0.621
       0.783
       0.857
       0.846
       0.778
       0.693
       0.615
       0.538
       0.437
       0.291
       0.105
      -0.098
      -0.299
      -0.492
      -0.679
      -0.854
      -0.995
      -1.072
      -1.065
      -0.963
      -0.768
      -0.488
      -0.144
       0.226
       0.569
       0.830
       0.969
       0.979
       0.883
       0.726
       0.554
       0.401
       0.282
       0.192
       0.110
       0.016
      -0.097
      -0.213
      -0.303
      -0.345
      -0.340
      -0.311
      -0.287
      -0.285
      -0.296
      -0.293
      -0.248
      -0.151
      -0.011
       0.142
       0.274
       0.355
       0.372
       0.332
       0.260
       0.188
       0.139
       0.123
       0.134
       0.164
       0.210
       0.264
       0.306
       0.302
       0.221
       0.067
      -0.118
      -0.270
      -0.338
      -0.319
      -0.249
      -0.180
      -0.145
      -0.150
      -0.183
      -0.234
      -0.310
      -0.437
      -0.633
      -0.895
      -1.172
      -1.381
      -1.430
      -1.257
      -0.861
      -0.307
       0.304
       0.876
       1.348
       1.696
       1.925
       2.053
       2.097
       2.060
       1.927
       1.676
       1.305
       0.843
       0.346
      -0.132
      -0.564
      -0.948
      -1.281
      -1.548
      -1.716
      -1.760
      -1.684
      -1.529
      -1.348
      -1.174
      -1.011
      -0.834
      -0.616
      -0.344
      -0.025
       0.322
       0.670
       0.991
       1.257
       1.450
       1.569
       1.625
       1.635
       1.600
       1.497
       1.297
       0.986
       0.577
       0.109
      -0.367
      -0.815
      -1.215
      -1.568
      -1.880
      -2.150
      -2.358
      -2.462
      -2.413
      -2.175
      -1.743
      -1.153
      -0.469
       0.228
       0.857
       1.353
       1.679
       1.838
       1.862
       1.804
       1.709
       1.596
       1.463
       1.294
       1.088
       0.867
       0.669
       0.529
       0.449
       0.392
       0.292
       0.091
      -0.237
      -0.659
      -1.099
      -1.466
      -1.700
      -1.782
      -1.734
      -1.596
      -1.405
      -1.193
      -0.972
      -0.737
      -0.467
      -0.136
       0.262
       0.707
       1.144
       1.504
       1.719
       1.750
       1.598
       1.308
       0.952
       0.611
       0.344
       0.167
       0.058
      -0.031
      -0.137
      -0.273
      -0.421
      -0.550
      -0.630
      -0.649
      -0.616
      -0.554
      -0.484
      -0.411
      -0.328
      -0.233
      -0.140
      -0.078
      -0.075
      -0.131
      -0.214
      -0.265
      -0.233
      -0.098
       0.118
       0.354
       0.537
       0.606
       0.538
       0.350
       0.091
      -0.179
      -0.396
      -0.512
      -0.505
      -0.386
      -0.200
      -0.014
       0.114
       0.152
       0.116
       0.053
       0.017
       0.036
       0.099
       0.169
       0.202
       0.182
       0.126
       0.075
       0.069
       0.121
       0.222
       0.347
       0.465
       0.541
       0.550
       0.482
       0.351
       0.192
       0.042
      -0.078
      -0.167
      -0.239
      -0.309
      -0.384
      -0.465
      -0.549
      -0.627
      -0.691
      -0.735
      -0.760
      -0.767
      -0.755
      -0.708
      -0.602
      -0.420
      -0.170
       0.108
       0.355
       0.515
       0.559
       0.499
       0.379
       0.255
       0.176
       0.171
       0.245
       0.381
       0.550
       0.721
       0.863
       0.943
       0.923
       0.778
       0.504
       0.133
      -0.273
      -0.644
      -0.926
      -1.095
      -1.158
      -1.139
      -1.058
      -0.921
      -0.728
      -0.480
      -0.196
       0.098
       0.376
       0.622
       0.832
       1.005
       1.134
       1.201
       1.189
       1.100
       0.956
       0.793
       0.644
       0.523
       0.422
       0.315
       0.168
      -0.044
      -0.320
      -0.631
      -0.931
      -1.167
      -1.309
      -1.351
      -1.317
      -1.247
      -1.176
      -1.118
      -1.064
      -0.992
      -0.877
      -0.702
      -0.460
      -0.151
       0.216
       0.625
       1.048
       1.451
       1.796
       2.046
       2.175
       2.160
       1.987
       1.655
       1.186
       0.627
       0.047
      -0.490
      -0.936
      -1.269
      -1.487
      -1.596
      -1.603
      -1.511
      -1.326
      -1.068
      -0.773
      -0.481
      -0.224
      -0.009
       0.177
       0.343
       0.478
       0.545
       0.501
       0.333
       0.075
      -0.197
      -0.395
      -0.463
      -0.403
      -0.268
      -0.119
       0.015
       0.151
       0.331
       0.583
       0.889
       1.183
       1.382
       1.416
       1.257
       0.935
       0.526
       0.121
      -0.206
      -0.423
      -0.539
      -0.585
      -0.588
      -0.569
      -0.548
      -0.553
      -0.613
      -0.729
      -0.858
      -0.933
      -0.897
      -0.748
      -0.538
      -0.350
      -0.239
      -0.213
      -0.230
      -0.227
      -0.156
       0.004
       0.232
       0.475
       0.670
       0.771
       0.773
       0.704
       0.612
       0.536
       0.495
       0.484
       0.490
       0.497
       0.491
       0.460
       0.396
       0.296
       0.161
       0.007
      -0.141
      -0.250
      -0.301
      -0.295
      -0.268
      -0.264
      -0.311
      -0.398
      -0.483
      -0.516
      -0.470
      -0.359
      -0.228
      -0.129
      -0.103
      -0.158
      -0.277
      -0.417
      -0.528
      -0.569
      -0.519
      -0.378
      -0.165
       0.097
       0.393
       0.705
       1.009
       1.260
       1.399
       1.370
       1.139
       0.724
       0.192
      -0.357
      -0.820
      -1.129
      -1.263
      -1.240
      -1.094
      -0.857
      -0.556
      -0.223
       0.100
       0.371
       0.562
       0.683
       0.766
       0.838
       0.902
       0.921
       0.850
       0.669
       0.402
       0.104
      -0.174
      -0.413
      -0.622
      -0.802
      -0.930
      -0.963
      -0.861
      -0.627
      -0.304
       0.036
       0.327
       0.526
       0.617
       0.616
       0.548
       0.436
       0.283
       0.083
      -0.164
      -0.429
      -0.659
      -0.799
      -0.816
      -0.698
      -0.456
      -0.110
       0.300
       0.713
       1.059
       1.279
       1.344
       1.260
       1.048
       0.733
       0.346
      -0.073
      -0.462
      -0.759
      -0.920
      -0.939
      -0.855
      -0.734
      -0.643
      -0.620
      -0.654
      -0.694
      -0.668
      -0.524
      -0.258
       0.077
       0.389
       0.599
       0.677
       0.648
       0.575
       0.516
       0.503
       0.527
       0.552
       0.538
       0.460
       0.318
       0.133
      -0.063
      -0.237
      -0.375
      -0.475
      -0.555
      -0.630
      -0.698
      -0.739
      -0.727
      -0.649
      -0.517
      -0.366
      -0.230
      -0.133
      -0.077
      -0.045
      -0.001
       0.097
       0.276
       0.531
       0.811
       1.042
       1.154
       1.110
       0.926
       0.662
       0.393
       0.172
       0.012
      -0.118
      -0.259
      -0.450
      -0.705
      -1.014
      -1.335
      -1.603
      -1.739
      -1.682
      -1.404
      -0.934
      -0.344
       0.269
       0.813
       1.223
       1.474
       1.580
       1.581
       1.530
       1.466
       1.410
       1.346
       1.226
       0.985
       0.582
       0.032
      -0.590
      -1.180
      -1.648
      -1.939
      -2.040
      -1.961
      -1.731
      -1.398
      -1.029
      -0.689
      -0.420
      -0.216
      -0.029
       0.196
       0.485
       0.823
       1.169
       1.484
       1.745
       1.937
       2.042
       2.037
       1.905
       1.644
       1.273
       0.825
       0.326
      -0.204
      -0.756
      -1.313
      -1.851
      -2.328
      -2.697
      -2.911
      -2.938
      -2.768
      -2.409
      -1.881
      -1.212
      -0.442
       0.380
       1.197
       1.949
       2.579
       3.037
       3.280
       3.277
       3.013
       2.503
       1.793
       0.957
       0.092
      -0.711
      -1.379
      -1.879
      -2.206
      -2.372
      -2.379
      -2.229
      -1.936
      -1.536
      -1.084
      -0.625
      -0.179
       0.252
       0.659
       1.003
       1.225
       1.280
       1.179
       0.992
       0.816
       0.721
       0.716
       0.756
       0.780
       0.746
       0.649
       0.500
       0.304
       0.051
      -0.269
      -0.647
      -1.036
      -1.365
      -1.563
      -1.601
      -1.499
      -1.319
      -1.120
      -0.927
      -0.717
      -0.450
      -0.099
       0.324
       0.769
       1.165
       1.455
       1.609
       1.628
       1.535
       1.355
       1.108
       0.810
       0.470
       0.098
      -0.289
      -0.673
      -1.031
      -1.340
      -1.569
      -1.672
      -1.600
      -1.327
      -0.875
      -0.320
       0.232
       0.693
       1.028
       1.253
       1.410
       1.529
       1.599
       1.581
       1.426
       1.109
       0.650
       0.117
      -0.401
      -0.827
      -1.132
      -1.329
      -1.448
      -1.513
      -1.518
      -1.446
      -1.287
      -1.043
      -0.729
      -0.353
       0.078
       0.554
       1.042
       1.479
       1.787
       1.902
       1.809
       1.552
       1.208
       0.851
       0.508
       0.160
      -0.220
      -0.635
      -1.041
      -1.366
      -1.538
      -1.520
      -1.314
      -0.968
      -0.561
      -0.175
       0.138
       0.378
       0.584
       0.796
       1.013
       1.183
       1.225
       1.087
       0.772
       0.335
      -0.150
      -0.622
      -1.049
      -1.404
      -1.654
      -1.750
      -1.648
      -1.340
      -0.870
      -0.322
       0.205
       0.640
       0.948
       1.130
       1.207
       1.211
       1.173
       1.123
       1.071
       1.007
       0.904
       0.737
       0.505
       0.235
      -0.024
      -0.227
      -0.355
      -0.428
      -0.488
      -0.582
      -0.727
      -0.906
      -1.075
      -1.188
      -1.217
      -1.153
      -1.005
      -0.789
      -0.524
      -0.232
       0.065
       0.345
       0.595
       0.810
       0.987
       1.122
       1.206
       1.230
       1.194
       1.108
       0.979
       0.811
       0.590
       0.300
      -0.057
      -0.446
      -0.799
      -1.043
      -1.136
      -1.089
      -0.960
      -0.820
      -0.725
      -0.688
      -0.686
      -0.672
      -0.600
      -0.452
      -0.244
      -0.025
       0.149
       0.246
       0.272
       0.273
       0.311
       0.430
       0.635
       0.889
       1.130
       1.293
       1.328
       1.203
       0.910
       0.473
      -0.050
      -0.588
      -1.063
      -1.410
      -1.576
      -1.533
      -1.286
      -0.890
      -0.438
      -0.027
       0.278
       0.462
       0.549
       0.577
       0.579
       0.581
       0.594
       0.614
       0.612
       0.546
       0.378
       0.099
      -0.259
      -0.628
      -0.927
      -1.083
      -1.062
      -0.872
      -0.564
      -0.209
       0.118
       0.365
       0.507
       0.545
       0.495
       0.386
       0.258
       0.154
       0.106
       0.121
       0.172
       0.218
       0.222
       0.173
       0.081
      -0.024
      -0.108
      -0.143
      -0.123
      -0.067
      -0.015
      -0.001
      -0.034
      -0.089
      -0.123
      -0.107
      -0.043
       0.029
       0.069
       0.055
       0.000
      -0.072
      -0.142
      -0.204
      -0.252
      -0.273
      -0.246
      -0.164
      -0.053
       0.039
       0.062
       0.003
      -0.111
      -0.219
      -0.260
      -0.185
       0.023
       0.344
       0.717
       1.051
       1.256
       1.285
       1.147
       0.886
       0.552
       0.174
      -0.226
      -0.611
      -0.921
      -1.100
      -1.137
      -1.077
      -0.996
      -0.953
      -0.954
      -0.953
      -0.887
      -0.719
      -0.449
      -0.106
       0.274
       0.662
       1.029
       1.339
       1.554
       1.648
       1.611
       1.458
       1.215
       0.904
       0.536
       0.116
      -0.340
      -0.792
      -1.175
      -1.421
      -1.488
      -1.377
      -1.146
      -0.878
      -0.655
      -0.514
      -0.434
      -0.357
      -0.212
       0.039
       0.387
       0.770
       1.101
       1.298
       1.315
       1.162
       0.904
       0.631
       0.422
       0.307
       0.264
       0.231
       0.143
      -0.040
      -0.310
      -0.612
      -0.856
      -0.947
      -0.834
      -0.541
      -0.171
       0.143
       0.299
       0.275
       0.128
      -0.055
      -0.204
      -0.303
      -0.377
      -0.462
      -0.566
      -0.665
      -0.715
      -0.682
      -0.565
      -0.397
      -0.224
      -0.082
       0.026
       0.126
       0.248
       0.409
       0.603
       0.808
       1.002
       1.171
       1.297
       1.354
       1.304
       1.112
       0.774
       0.326
      -0.155
      -0.589
      -0.917
      -1.121
      -1.213
      -1.211
      -1.132
      -0.992
      -0.816
      -0.640
      -0.500
      -0.419
      -0.399
      -0.416
      -0.426
      -0.375
      -0.223
       0.042
       0.395
       0.783
       1.151
       1.452
       1.652
       1.723
       1.638
       1.384
       0.971
       0.443
      -0.132
      -0.675
      -1.114
      -1.406
      -1.535
      -1.517
      -1.392
      -1.215
      -1.041
      -0.902
      -0.792
      -0.663
      -0.443
      -0.082
       0.406
       0.942
       1.406
       1.689
       1.737
       1.557
       1.213
       0.798
       0.406
       0.112
      -0.048
      -0.094
      -0.085
