Origin Time       28/5/2010 07:25:06	
Lat.              31.2 N	
Long.             77.9 E	
Depth (Km)         43.0
Magnitude         4.8
 Region           Himachal                                                         
 Above details taken from USGS
   
Station Code      JUB
Station Lat.       31.110
Station Long.      77.663
Station Height(m) 1931.0
Site Class        A   Vs30 between 700 m/sec to 1400 m/sec * 
Record Time       28.05.2010 07:24:37.729
Sampling Rate     200. Hz
 Record Duration  107.730 Sec.
 Direction         Vert. (Up positive)
Max. Acceleration     37.848 cm/sec**2
     
  * For reference see Site Classification link of website 
     
 Base Line Corrected and Low Pass Filtered (Cut Off at 35 Hz) Time History
 Acceleration data in cm/sec**2
    
[...]
      -0.002
      -0.001
      -0.008
      -0.020
      -0.026
      -0.025
      -0.019
      -0.015
      -0.014
      -0.014
      -0.012
      -0.008
      -0.006
      -0.006
      -0.006
      -0.007
      -0.006
      -0.004
      -0.003
      -0.004
      -0.008
      -0.012
      -0.013
      -0.009
       0.000
       0.007
       0.011
       0.009
       0.005
      -0.002
      -0.009
      -0.013
      -0.013
      -0.011
      -0.008
      -0.007
      -0.008
      -0.011
      -0.013
      -0.013
      -0.010
      -0.005
       0.001
       0.002
       0.000
      -0.003
      -0.001
       0.004
       0.008
       0.006
      -0.001
      -0.009
      -0.010
      -0.005
       0.003
       0.008
       0.008
       0.005
       0.004
       0.006
       0.008
       0.005
      -0.002
      -0.009
      -0.015
      -0.016
      -0.012
      -0.003
       0.010
       0.019
       0.017
       0.005
      -0.012
      -0.022
      -0.020
      -0.008
       0.003
       0.007
       0.004
      -0.001
      -0.002
      -0.003
      -0.005
      -0.011
      -0.017
      -0.017
      -0.013
      -0.003
       0.008
       0.017
       0.019
       0.011
       0.000
      -0.007
      -0.005
       0.002
       0.006
       0.003
      -0.005
      -0.011
      -0.013
      -0.012
      -0.009
      -0.005
      -0.001
       0.002
       0.002
      -0.001
      -0.005
      -0.008
      -0.009
      -0.006
      -0.002
       0.002
       0.004
       0.004
       0.002
      -0.003
      -0.008
      -0.009
      -0.004
       0.007
       0.018
       0.023
       0.017
       0.006
      -0.003
      -0.003
       0.004
       0.012
       0.013
       0.006
      -0.003
      -0.008
      -0.006
       0.001
       0.006
       0.006
       0.000
      -0.008
      -0.014
      -0.016
      -0.014
      -0.008
       0.001
       0.011
       0.015
       0.009
      -0.002
      -0.012
      -0.013
      -0.004
       0.008
       0.014
       0.014
       0.009
       0.006
       0.007
       0.009
       0.012
       0.012
       0.009
       0.005
      -0.002
      -0.008
      -0.014
      -0.017
      -0.016
      -0.010
       0.001
       0.014
       0.022
       0.023
       0.017
       0.009
       0.004
       0.001
       0.002
       0.005
       0.010
       0.018
       0.028
       0.034
       0.030
       0.017
       0.000
      -0.011
      -0.011
      -0.005
       0.003
       0.006
       0.003
      -0.005
      -0.015
      -0.027
      -0.036
      -0.039
      -0.036
      -0.030
      -0.027
      -0.032
      -0.043
      -0.055
      -0.060
      -0.055
      -0.041
      -0.015
       0.022
       0.066
       0.106
       0.124
       0.114
       0.078
       0.032
      -0.008
      -0.033
      -0.041
      -0.041
      -0.042
      -0.048
      -0.037
       0.026
       0.157
       0.307
       0.359
       0.191
      -0.211
      -0.703
      -1.040
      -1.035
      -0.679
      -0.145
       0.336
       0.593
       0.560
       0.259
      -0.229
      -0.798
      -1.339
      -1.754
      -1.949
      -1.830
      -1.352
      -0.583
       0.282
       0.999
       1.368
       1.277
       0.739
      -0.051
      -0.702
      -0.790
      -0.128
       1.055
       2.213
       2.792
       2.544
       1.645
       0.584
      -0.083
      -0.017
       0.734
       1.782
       2.655
       3.100
       3.176
       3.038
       2.605
       1.488
      -0.643
      -3.519
      -6.112
      -7.124
      -5.855
      -2.729
       0.943
       3.783
       5.096
       5.023
       4.104
       2.665
       0.582
      -2.358
      -5.791
      -8.510
      -9.034
      -6.694
      -2.341
       2.007
       4.360
       3.929
       1.483
      -1.239
      -2.579
      -1.796
       0.719
       3.833
       6.336
       7.436
       6.877
       4.757
       1.368
      -2.761
      -6.734
      -9.363
      -9.595
      -7.083
      -2.526
       2.517
       6.319
       7.845
       7.201
       5.352
       3.306
       1.460
      -0.412
      -2.611
      -4.989
      -6.871
      -7.412
      -6.090
      -3.063
       0.770
       4.148
       6.120
       6.491
       5.673
       4.131
       2.042
      -0.589
      -3.581
      -6.384
      -8.201
      -8.374
      -6.743
      -3.726
      -0.097
       3.322
       5.856
       7.061
       6.797
       5.297
       3.148
       1.117
      -0.147
      -0.460
      -0.292
      -0.568
      -2.062
      -4.705
      -7.353
      -8.334
      -6.490
      -1.949
       3.953
       9.378
      12.694
      12.873
       9.734
       4.125
      -2.172
      -7.068
      -9.116
      -8.140
      -5.111
      -1.489
       1.405
       2.730
       2.313
       0.722
      -0.968
      -1.783
      -1.396
      -0.185
       1.120
       1.789
       1.328
      -0.250
      -2.220
      -3.379
      -2.788
      -0.478
       2.511
       4.749
       5.201
       3.688
       0.929
      -1.823
      -3.395
      -3.285
      -1.859
      -0.049
       1.187
       1.261
       0.097
      -1.882
      -3.870
      -4.956
      -4.486
      -2.364
       0.884
       4.257
       6.650
       7.340
       6.332
       4.258
       1.873
      -0.426
      -2.637
      -4.810
      -6.745
      -7.971
      -7.946
      -6.314
      -3.116
       1.115
       5.443
       8.768
      10.161
       9.233
       6.354
       2.513
      -1.162
      -3.909
      -5.517
      -6.133
      -5.999
      -5.372
      -4.551
      -3.755
      -2.874
      -1.448
       0.944
       4.162
       7.302
       9.031
       8.372
       5.509
       1.858
      -0.872
      -1.880
      -1.732
      -1.765
      -3.025
      -5.452
      -7.776
      -8.153
      -5.316
       0.367
       6.739
      11.015
      11.526
       8.576
       3.783
      -1.212
      -5.416
      -8.318
      -9.540
      -8.847
      -6.428
      -2.965
       0.640
       3.635
       5.618
       6.574
       6.739
       6.305
       5.143
       2.861
      -0.740
      -5.151
      -9.097
     -11.131
     -10.517
      -7.633
      -3.534
       0.841
       5.042
       8.793
      11.531
      12.416
      10.869
       7.048
       1.848
      -3.449
      -7.592
      -9.740
      -9.729
      -7.999
      -5.154
      -1.589
       2.384
       6.116
       8.540
       8.662
       6.188
       1.789
      -3.128
      -6.957
      -8.565
      -7.776
      -5.354
      -2.420
       0.307
       2.800
       5.260
       7.365
       8.109
       6.516
       2.607
      -2.271
      -6.088
      -7.337
      -5.922
      -3.020
      -0.094
       1.954
       2.873
       2.694
       1.477
      -0.586
      -2.885
      -4.288
      -3.595
      -0.427
       4.223
       8.360
      10.057
       8.507
       4.366
      -0.806
      -5.470
      -8.672
      -9.957
      -9.087
      -6.061
      -1.465
       3.335
       6.622
       7.265
       5.464
       2.563
       0.025
      -1.525
      -2.459
      -3.442
      -4.525
      -4.876
      -3.556
      -0.637
       2.590
       4.628
       5.002
       4.479
       4.154
       4.375
       4.468
       3.382
       0.583
      -3.521
      -7.781
     -10.825
     -11.573
      -9.554
      -5.042
       0.917
       6.687
      10.580
      11.524
       9.350
       4.667
      -1.274
      -6.671
      -9.612
      -8.967
      -5.167
      -0.072
       4.132
       6.118
       5.824
       4.117
       2.188
       0.990
       0.771
       0.984
       0.818
      -0.027
      -1.137
      -1.969
      -2.440
      -2.809
      -3.098
      -2.906
      -1.913
      -0.401
       0.928
       1.634
       1.848
       1.933
       2.028
       2.059
       1.985
       1.730
       0.905
      -1.000
      -3.862
      -6.473
      -7.158
      -5.019
      -0.587
       4.562
       8.583
       9.938
       7.853
       2.812
      -3.354
      -8.228
     -10.090
      -8.703
      -5.137
      -1.015
       2.250
       3.972
       4.331
       4.007
       3.586
       3.306
       3.270
       3.596
       4.127
       4.042
       2.095
      -2.315
      -8.084
     -12.599
     -13.351
      -9.641
      -2.963
       3.973
       8.684
      10.000
       8.424
       5.626
       3.279
       1.967
       0.976
      -0.805
      -3.606
      -6.289
      -7.145
      -5.305
      -1.542
       2.207
       4.202
       4.084
       3.002
       2.566
       3.405
       4.566
       4.341
       1.739
      -2.745
      -7.567
     -11.133
     -12.393
     -10.824
      -6.378
       0.207
       7.177
      12.306
      14.060
      12.352
       8.247
       3.098
      -2.059
      -6.541
      -9.821
     -11.445
     -11.122
      -8.831
      -4.850
       0.176
       5.148
       8.724
       9.918
       8.709
       6.034
       3.110
       0.670
      -1.285
      -3.107
      -4.949
      -6.499
      -7.136
      -6.355
      -4.178
      -1.284
       1.331
       3.081
       4.337
       6.102
       8.857
      11.635
      12.361
       9.339
       2.736
      -5.193
     -11.450
     -14.237
     -13.875
     -11.921
      -9.509
      -6.603
      -2.633
       2.499
       8.067
      12.786
      15.232
      14.347
      10.121
       4.018
      -1.607
      -4.942
      -5.801
      -5.410
      -5.277
      -6.185
      -7.843
      -9.072
      -8.408
      -5.093
       0.130
       5.288
       8.573
       9.662
       9.616
       9.436
       8.847
       6.702
       2.464
      -2.949
      -7.745
     -10.411
     -10.310
      -7.635
      -3.351
       0.819
       2.991
       2.354
      -0.112
      -2.409
      -3.138
      -2.289
      -0.616
       1.252
       2.884
       3.725
       3.407
       2.386
       1.689
       1.751
       1.802
       0.664
      -1.929
      -4.937
      -6.803
      -6.507
      -4.030
      -0.222
       3.525
       5.800
       6.005
       4.900
       3.929
       3.663
       3.063
       0.629
      -3.695
      -7.897
      -9.303
      -6.706
      -1.314
       4.112
       6.981
       6.209
       2.588
      -1.751
      -4.478
      -4.282
      -1.492
       2.256
       5.056
       5.800
       4.616
       2.444
       0.192
      -1.835
      -3.827
      -5.881
      -7.489
      -7.627
      -5.522
      -1.495
       2.919
       5.806
       6.063
       4.106
       1.630
       0.548
       1.673
       4.013
       5.383
       4.039
       0.048
      -4.761
      -8.167
      -9.004
      -7.602
      -5.141
      -2.588
      -0.012
       3.249
       7.606
      12.178
      14.693
      12.841
       6.240
      -2.670
      -9.913
     -12.590
     -10.637
      -6.350
      -2.472
      -0.647
      -1.121
      -3.136
      -5.214
      -5.491
      -2.662
       2.900
       9.048
      13.131
      13.470
       9.877
       3.356
      -4.216
     -10.400
     -13.038
     -11.433
      -6.807
      -1.394
       3.040
       5.882
       7.240
       7.299
       6.224
       4.427
       2.553
       1.098
       0.087
      -0.814
      -1.883
      -2.975
      -3.522
      -2.967
      -1.256
       0.950
       2.477
       2.196
      -0.152
      -3.457
      -5.783
      -5.808
      -3.855
      -1.415
       0.285
       1.101
       1.440
       1.413
       0.935
       0.550
       1.506
       4.496
       8.364
      10.529
       9.092
       4.536
      -0.795
      -4.875
      -7.490
      -9.657
     -11.898
     -13.322
     -12.351
      -8.148
      -1.366
       6.163
      12.254
      15.238
      14.656
      11.473
       7.444
       3.899
       0.892
      -2.490
      -6.905
     -11.671
     -14.847
     -14.545
     -10.445
      -4.262
       1.158
       3.438
       1.893
      -2.204
      -6.336
      -8.038
      -6.047
      -0.715
       6.413
      13.442
      18.839
      21.602
      21.013
      16.578
       8.497
      -1.697
     -11.027
     -15.980
     -14.355
      -6.946
       2.500
       9.399
      10.895
       6.874
      -0.866
      -9.943
     -18.068
     -23.158
     -23.578
     -18.760
      -9.741
       0.977
      10.341
      15.968
      16.975
      14.083
       9.100
       4.127
       0.751
      -0.444
       0.181
       1.791
       3.514
       4.585
       4.431
       2.925
       0.631
      -1.380
      -2.148
      -1.450
       0.040
       1.173
       1.039
      -0.416
      -2.364
      -3.849
      -4.680
      -5.381
      -6.089
      -5.880
      -3.776
      -0.434
       1.739
       0.638
      -3.413
      -7.817
      -9.888
      -8.656
      -4.704
       0.946
       7.195
      12.525
      15.258
      14.643
      11.450
       7.146
       2.584
      -2.233
      -7.147
     -11.028
     -12.308
     -10.338
      -6.007
      -0.967
       3.675
       7.884
      12.113
      16.371
      19.766
      20.809
      18.195
      11.606
       2.112
      -8.079
     -16.400
     -20.865
     -20.817
     -17.165
     -11.883
      -6.849
      -2.754
       0.931
       4.805
       8.366
      10.089
       8.780
       4.882
       0.376
      -2.716
      -3.850
      -4.096
      -4.898
      -6.793
      -9.300
     -11.852
     -14.434
     -16.951
     -18.049
     -15.220
      -6.706
       6.556
      20.984
      32.351
      37.848
      36.714
      29.639
      18.070
       4.084
      -9.590
     -20.024
     -25.058
     -24.207
     -18.848
     -11.551
      -4.910
      -0.419
       1.945
       3.091
       3.589
       2.987
       0.342
      -4.583
     -10.630
     -15.774
     -18.320
     -17.615
     -13.664
      -6.496
       3.430
      13.927
      20.891
      20.585
      12.825
       1.963
      -5.710
      -6.093
       0.422
       9.963
      18.082
      22.158
      21.952
      18.648
      13.562
       7.407
       0.333
      -7.447
     -14.962
     -20.406
     -22.071
     -19.696
     -14.824
      -9.499
      -4.539
       0.604
       6.203
      10.958
      12.838
      11.147
       7.307
       3.488
       0.791
      -1.074
      -2.718
      -4.275
      -5.716
      -7.302
      -9.122
     -10.335
      -9.487
      -5.900
      -0.558
       4.577
       8.044
       9.605
       9.771
       9.064
       7.841
       6.405
       4.912
       3.240
       1.218
      -1.067
      -3.394
      -5.749
      -8.086
      -9.601
      -8.694
      -4.274
       2.657
       8.863
      10.696
       6.614
      -1.517
      -9.432
     -13.146
     -11.293
      -5.433
       1.628
       7.799
      12.237
      14.396
      13.141
       7.377
      -2.249
     -12.557
     -19.269
     -19.708
     -14.484
      -6.868
      -0.449
       3.034
       4.121
       4.332
       4.727
       5.554
       6.575
       7.150
       6.321
       3.632
       0.103
      -2.068
      -1.276
       1.944
       5.335
       6.987
       6.856
       6.197
       5.719
       4.687
       1.959
      -2.261
      -5.989
      -6.926
      -4.436
      -0.217
       2.830
       2.616
      -0.671
      -4.713
      -6.872
      -6.386
      -4.940
      -4.747
      -5.775
      -5.274
      -0.736
       6.707
      12.549
      12.904
       7.855
       0.684
      -5.537
     -10.004
     -13.324
     -15.665
     -16.222
     -14.065
      -8.946
      -1.329
       7.899
      17.533
      26.053
      31.677
      32.470
      26.874
      14.955
      -0.450
     -14.400
     -22.650
     -24.371
     -22.129
     -19.050
     -16.062
     -11.927
      -5.707
       1.303
       6.267
       7.240
       4.807
       1.542
       0.027
       1.215
       4.220
       7.203
       8.402
       6.909
       3.199
      -0.886
      -3.099
      -2.295
       0.706
       3.738
       4.867
       3.460
       0.013
      -4.531
      -9.049
     -12.231
     -12.933
     -10.781
      -6.348
      -0.758
       4.644
       8.309
       8.817
       5.892
       1.181
      -2.387
      -2.519
       0.903
       6.051
      10.672
      13.242
      12.947
       9.357
       2.718
      -5.559
     -13.101
     -17.481
     -17.165
     -12.141
      -4.185
       3.626
       8.500
       9.752
       9.114
       8.816
       9.127
       8.025
       3.608
      -3.398
      -9.957
     -13.520
     -14.036
     -12.955
     -10.831
      -6.759
      -0.314
       6.665
      10.850
      10.041
       4.866
      -1.921
      -7.425
      -9.927
      -8.958
      -4.979
       0.775
       6.616
      11.147
      13.835
      14.782
      14.074
      11.621
       7.712
       3.427
       0.113
      -1.713
      -2.780
      -4.189
      -6.229
      -8.260
      -9.631
     -10.297
     -10.393
      -9.660
      -7.776
      -5.104
      -2.580
      -0.692
       1.155
       3.961
       7.844
      11.543
      13.242
      11.936
       8.143
       3.481
      -0.376
      -2.541
      -3.054
      -2.441
      -1.144
       0.666
       2.782
       4.584
       5.125
       3.701
       0.415
      -3.699
      -7.085
      -8.457
      -7.584
      -5.500
      -3.810
      -3.565
      -4.617
      -5.990
      -6.830
      -6.936
      -6.365
      -4.791
      -1.619
       3.086
       8.013
      11.195
      11.373
       8.880
       5.303
       2.266
       0.389
      -0.787
      -2.035
      -3.597
      -4.961
      -5.304
      -4.145
      -1.682
       1.327
       3.900
       5.109
       4.376
       1.842
      -1.464
      -4.030
      -4.689
      -3.298
      -0.802
       1.328
       1.942
       0.877
      -0.994
      -2.381
      -2.482
      -1.503
      -0.381
       0.142
       0.317
       1.251
       3.731
       7.083
       9.318
       8.707
       5.358
       1.235
      -1.475
      -2.063
      -1.522
      -1.304
      -2.015
      -3.215
      -4.083
      -4.033
      -2.848
      -0.633
       2.150
       4.696
       6.121
       5.882
       4.015
       1.065
      -2.211
      -5.090
      -6.946
      -7.243
      -5.717
      -2.692
       0.808
       3.375
       3.864
       2.028
      -1.190
      -3.997
      -4.706
      -2.787
       0.739
       3.927
       5.178
       4.286
       2.446
       1.179
       1.079
       1.483
       1.256
      -0.150
      -2.286
      -4.154
      -4.922
      -4.326
      -2.653
      -0.560
       1.171
       1.946
       1.656
       0.744
      -0.031
      -0.025
       0.924
       2.446
       3.897
       4.738
       4.748
       3.964
       2.532
       0.656
      -1.352
      -3.068
      -4.102
      -4.305
      -3.873
      -3.244
      -2.879
      -3.031
      -3.541
      -3.805
      -3.138
      -1.413
       0.604
       1.737
       1.394
       0.142
      -0.755
      -0.401
       1.148
       3.259
       5.371
       7.063
       7.712
       6.617
       3.791
       0.467
      -1.614
      -1.737
      -0.995
      -1.360
      -3.869
      -7.737
     -11.119
     -12.498
     -11.348
      -7.892
      -2.704
       3.362
       9.078
      12.983
      13.901
      11.621
