Origin Time       1/5/2013 06:57:12	 
Lat.              33.1 N	
Long.             75.8 E	
Depth (Km)         15.0
Magnitude         5.8
 Region           JK-HP-Border                                                     
 Above details taken from IMD 
     
Station Code      JUB
Station Lat.       31.110  N
Station Long.      77.663  E
Station Height(m) 1931.0
Site Class        A   Vs30 between 700 m/sec to 1400 m/sec * 
Record Time       01.05.2013 06:58:03.844
Sampling Rate     200. Hz
 Record Duration  120.355 Sec.
 Direction         E-W (E positive)
Max. Acceleration      5.861 cm/sec**2
     
  * For reference see Site Classification link of website 
     
 Base Line Corrected and Low Pass Filtered (Cut Off at 35 Hz) Time History
 Acceleration data in cm/sec**2
    
[...]
       2.045
       2.365
       2.646
       2.873
       3.024
       3.073
       3.001
       2.804
       2.498
       2.120
       1.714
       1.328
       0.997
       0.737
       0.540
       0.376
       0.202
      -0.025
      -0.343
      -0.773
      -1.319
      -1.965
      -2.665
      -3.352
      -3.946
      -4.374
      -4.587
      -4.574
      -4.359
      -3.986
      -3.499
      -2.921
      -2.260
      -1.517
      -0.709
       0.124
       0.933
       1.675
       2.331
       2.901
       3.381
       3.747
       3.954
       3.958
       3.748
       3.357
       2.838
       2.243
       1.600
       0.918
       0.204
      -0.527
      -1.248
      -1.929
      -2.538
      -3.041
      -3.392
      -3.551
      -3.501
      -3.263
      -2.887
      -2.418
      -1.881
      -1.276
      -0.598
       0.141
       0.899
       1.605
       2.183
       2.570
       2.745
       2.727
       2.564
       2.306
       1.995
       1.656
       1.310
       0.980
       0.689
       0.442
       0.221
      -0.002
      -0.242
      -0.484
      -0.692
      -0.839
      -0.930
      -0.986
      -1.018
      -1.008
      -0.922
      -0.743
      -0.484
      -0.187
       0.100
       0.332
       0.478
       0.526
       0.484
       0.387
       0.279
       0.195
       0.141
       0.093
       0.017
      -0.100
      -0.240
      -0.361
      -0.419
      -0.384
      -0.249
      -0.035
       0.214
       0.441
       0.595
       0.640
       0.569
       0.402
       0.175
      -0.069
      -0.292
      -0.469
      -0.596
      -0.687
      -0.762
      -0.825
      -0.862
      -0.854
      -0.810
      -0.776
      -0.812
      -0.950
      -1.169
      -1.399
      -1.560
      -1.604
      -1.529
      -1.360
      -1.128
      -0.852
      -0.546
      -0.225
       0.093
       0.390
       0.649
       0.860
       1.018
       1.127
       1.197
       1.240
       1.259
       1.244
       1.179
       1.050
       0.861
       0.630
       0.376
       0.117
      -0.132
      -0.347
      -0.489
      -0.521
      -0.425
      -0.217
       0.064
       0.374
       0.675
       0.938
       1.139
       1.262
       1.304
       1.286
       1.243
       1.211
       1.207
       1.218
       1.219
       1.198
       1.168
       1.160
       1.197
       1.271
       1.344
       1.362
       1.281
       1.080
       0.760
       0.329
      -0.192
      -0.779
      -1.392
      -1.985
      -2.511
      -2.928
      -3.209
      -3.332
      -3.288
      -3.088
      -2.778
      -2.431
      -2.114
      -1.853
      -1.618
      -1.343
      -0.978
      -0.520
      -0.013
       0.482
       0.926
       1.314
       1.662
       1.977
       2.240
       2.410
       2.448
       2.342
       2.118
       1.815
       1.466
       1.082
       0.663
       0.221
      -0.217
      -0.620
      -0.973
      -1.270
      -1.503
      -1.643
      -1.653
      -1.515
      -1.244
      -0.884
      -0.487
      -0.090
       0.277
       0.596
       0.854
       1.044
       1.167
       1.233
       1.252
       1.237
       1.197
       1.134
       1.039
       0.907
       0.734
       0.527
       0.295
       0.045
      -0.222
      -0.508
      -0.806
      -1.109
      -1.410
      -1.697
      -1.956
      -2.163
      -2.286
      -2.290
      -2.155
      -1.898
      -1.566
      -1.214
      -0.869
      -0.502
      -0.053
       0.525
       1.229
       1.998
       2.740
       3.361
       3.786
       3.972
       3.903
       3.581
       3.018
       2.223
       1.217
       0.056
      -1.155
      -2.270
      -3.149
      -3.696
      -3.891
      -3.775
      -3.424
      -2.917
      -2.304
      -1.614
      -0.870
      -0.115
       0.586
       1.163
       1.568
       1.789
       1.846
       1.771
       1.589
       1.312
       0.944
       0.498
      -0.007
      -0.539
      -1.057
      -1.513
      -1.863
      -2.078
      -2.147
      -2.066
      -1.840
      -1.478
      -0.999
      -0.435
       0.176
       0.791
       1.364
       1.856
       2.243
       2.525
       2.724
       2.863
       2.946
       2.949
       2.836
       2.581
       2.185
       1.679
       1.124
       0.587
       0.123
      -0.251
      -0.559
      -0.853
      -1.182
      -1.568
      -1.994
      -2.417
      -2.781
      -3.040
      -3.171
      -3.161
      -3.003
      -2.693
      -2.236
      -1.637
      -0.902
      -0.056
       0.839
       1.682
       2.364
       2.811
       3.016
       3.034
       2.946
       2.814
       2.643
       2.391
       2.007
       1.467
       0.807
       0.108
      -0.543
      -1.093
      -1.540
      -1.917
      -2.254
      -2.546
      -2.747
      -2.799
      -2.665
      -2.355
      -1.917
      -1.405
      -0.864
      -0.317
       0.211
       0.693
       1.093
       1.388
       1.574
       1.671
       1.704
       1.693
       1.637
       1.521
       1.322
       1.015
       0.584
       0.038
      -0.585
      -1.213
      -1.751
      -2.117
      -2.276
      -2.256
      -2.132
      -1.970
      -1.788
      -1.548
      -1.190
      -0.682
      -0.043
       0.652
       1.299
       1.793
       2.063
       2.091
       1.922
       1.646
       1.366
       1.159
       1.055
       1.036
       1.064
       1.099
       1.123
       1.131
       1.111
       1.032
       0.855
       0.561
       0.173
      -0.252
      -0.645
      -0.961
      -1.187
      -1.330
      -1.389
      -1.350
      -1.201
      -0.950
      -0.636
      -0.311
      -0.020
       0.222
       0.427
       0.617
       0.802
       0.966
       1.065
       1.047
       0.882
       0.580
       0.195
      -0.201
      -0.564
      -0.891
      -1.216
      -1.573
      -1.976
      -2.413
      -2.839
      -3.186
      -3.372
      -3.334
      -3.051
      -2.553
      -1.895
      -1.124
      -0.264
       0.655
       1.565
       2.373
       2.990
       3.356
       3.453
       3.307
       2.976
       2.517
       1.983
       1.433
       0.936
       0.547
       0.289
       0.130
       0.007
      -0.142
      -0.340
      -0.571
      -0.802
      -1.000
      -1.147
      -1.236
      -1.274
      -1.270
      -1.224
      -1.109
      -0.879
      -0.496
       0.036
       0.653
       1.257
       1.759
       2.091
       2.212
       2.112
       1.809
       1.347
       0.783
       0.192
      -0.338
      -0.725
      -0.911
      -0.878
      -0.647
      -0.280
       0.141
       0.537
       0.845
       1.032
       1.082
       0.992
       0.769
       0.425
      -0.027
      -0.571
      -1.176
      -1.783
      -2.299
      -2.626
      -2.698
      -2.508
      -2.119
      -1.627
      -1.128
      -0.686
      -0.324
      -0.030
       0.226
       0.464
       0.673
       0.822
       0.875
       0.828
       0.712
       0.578
       0.473
       0.434
       0.481
       0.623
       0.856
       1.159
       1.490
       1.781
       1.958
       1.963
       1.780
       1.431
       0.962
       0.427
      -0.120
      -0.619
      -1.024
      -1.313
      -1.501
      -1.622
      -1.706
      -1.761
      -1.779
      -1.752
      -1.682
      -1.570
      -1.405
      -1.158
      -0.808
      -0.365
       0.124
       0.595
       1.011
       1.369
       1.693
       1.993
       2.243
       2.394
       2.398
       2.234
       1.915
       1.476
       0.957
       0.398
      -0.164
      -0.686
      -1.126
      -1.451
      -1.643
      -1.704
      -1.646
      -1.478
      -1.211
      -0.871
      -0.502
      -0.160
       0.105
       0.262
       0.310
       0.263
       0.145
      -0.027
      -0.237
      -0.469
      -0.692
      -0.869
      -0.968
      -0.988
      -0.967
      -0.968
      -1.047
      -1.210
      -1.406
      -1.550
      -1.564
      -1.401
      -1.045
      -0.500
       0.217
       1.063
       1.960
       2.792
       3.449
       3.857
       4.000
       3.893
       3.561
       3.031
       2.342
       1.564
       0.780
       0.052
      -0.605
      -1.219
      -1.806
      -2.337
      -2.732
      -2.917
      -2.881
      -2.677
      -2.381
      -2.056
      -1.740
      -1.445
      -1.166
      -0.885
      -0.575
      -0.213
       0.213
       0.696
       1.223
       1.776
       2.335
       2.874
       3.349
       3.702
       3.867
       3.776
       3.382
       2.671
       1.673
       0.470
      -0.816
      -2.049
      -3.110
      -3.910
      -4.388
      -4.517
      -4.306
      -3.805
      -3.100
      -2.289
      -1.465
      -0.699
      -0.038
       0.487
       0.850
       1.035
       1.059
       0.971
       0.841
       0.721
       0.623
       0.537
       0.463
       0.435
       0.491
       0.639
       0.832
       1.013
       1.148
       1.238
       1.295
       1.308
       1.244
       1.059
       0.733
       0.286
      -0.226
      -0.723
      -1.137
      -1.438
      -1.641
      -1.775
      -1.854
      -1.857
      -1.751
      -1.517
      -1.189
      -0.846
      -0.577
      -0.433
      -0.413
      -0.473
      -0.547
      -0.567
      -0.481
      -0.269
       0.042
       0.395
       0.726
       0.989
       1.170
       1.290
       1.392
       1.525
       1.721
       1.969
       2.219
       2.404
       2.481
       2.453
       2.360
       2.242
       2.113
       1.971
       1.801
       1.578
       1.271
       0.857
       0.335
      -0.273
      -0.926
      -1.577
      -2.188
      -2.730
      -3.191
      -3.572
      -3.887
      -4.143
      -4.328
      -4.402
      -4.309
      -3.994
      -3.425
      -2.603
      -1.563
      -0.367
       0.907
       2.171
       3.337
       4.315
       5.025
       5.400
       5.413
       5.081
       4.465
       3.640
       2.678
       1.646
       0.600
      -0.408
      -1.338
      -2.159
      -2.840
      -3.345
      -3.633
      -3.682
      -3.493
      -3.098
      -2.546
      -1.893
      -1.199
      -0.511
       0.136
       0.716
       1.215
       1.618
       1.904
       2.054
       2.058
       1.926
       1.697
       1.424
       1.163
       0.959
       0.836
       0.797
       0.825
       0.883
       0.925
       0.907
       0.799
       0.587
       0.272
      -0.131
      -0.596
      -1.083
      -1.541
      -1.923
      -2.194
      -2.328
      -2.299
      -2.090
      -1.710
      -1.204
      -0.649
      -0.112
       0.380
       0.847
       1.321
       1.805
       2.258
       2.604
       2.767
       2.700
       2.394
       1.881
       1.212
       0.453
      -0.331
      -1.071
      -1.708
      -2.198
      -2.525
      -2.701
      -2.762
      -2.756
      -2.724
      -2.673
      -2.571
      -2.371
      -2.053
      -1.644
      -1.191
      -0.712
      -0.178
       0.454
       1.177
       1.914
       2.555
       3.005
       3.209
       3.152
       2.865
       2.416
       1.892
       1.370
       0.908
       0.538
       0.274
       0.111
       0.035
       0.020
       0.035
       0.046
       0.021
      -0.062
      -0.215
      -0.429
      -0.676
      -0.916
      -1.121
      -1.285
      -1.407
      -1.463
      -1.402
      -1.174
      -0.765
      -0.220
       0.382
       0.966
       1.482
       1.899
       2.178
       2.263
       2.112
       1.725
       1.154
       0.485
      -0.179
      -0.744
      -1.135
      -1.327
      -1.350
      -1.279
      -1.200
      -1.177
      -1.237
      -1.380
      -1.595
      -1.870
      -2.181
      -2.482
      -2.692
      -2.730
      -2.549
      -2.178
      -1.710
      -1.250
      -0.859
      -0.524
      -0.185
       0.210
       0.667
       1.143
       1.581
       1.942
       2.227
       2.469
       2.706
       2.949
       3.176
       3.357
       3.469
       3.503
       3.445
       3.268
       2.955
       2.523
       2.022
       1.511
       1.024
       0.565
       0.122
      -0.323
      -0.793
      -1.313
      -1.900
      -2.534
      -3.155
      -3.687
      -4.065
      -4.261
      -4.279
      -4.135
      -3.828
      -3.334
      -2.615
      -1.653
      -0.471
       0.851
       2.188
       3.387
       4.301
       4.812
       4.844
       4.373
       3.425
       2.085
       0.496
      -1.164
      -2.706
      -3.964
      -4.824
      -5.229
      -5.179
      -4.719
      -3.925
      -2.890
      -1.707
      -0.455
       0.798
       1.983
       3.015
       3.797
       4.244
       4.319
       4.050
       3.535
       2.906
       2.288
       1.765
       1.363
       1.067
       0.857
       0.726
       0.675
       0.691
       0.725
       0.703
       0.554
       0.238
      -0.230
      -0.794
      -1.371
      -1.884
      -2.268
      -2.483
      -2.506
      -2.336
      -1.988
      -1.500
      -0.929
      -0.346
       0.172
       0.556
       0.762
       0.785
       0.665
       0.471
       0.274
       0.124
       0.039
       0.012
       0.013
      -0.004
      -0.089
      -0.272
      -0.547
      -0.881
      -1.233
      -1.585
      -1.938
      -2.285
      -2.581
      -2.734
      -2.632
      -2.191
      -1.385
      -0.262
       1.071
       2.469
       3.774
       4.840
       5.556
       5.861
       5.744
       5.231
       4.369
       3.231
       1.916
       0.557
      -0.710
      -1.779
      -2.611
      -3.228
      -3.668
      -3.949
      -4.047
      -3.931
      -3.595
      -3.077
      -2.446
      -1.769
      -1.097
      -0.454
       0.155
       0.745
       1.338
       1.929
       2.474
       2.893
       3.106
       3.074
       2.814
       2.389
       1.869
       1.297
       0.674
      -0.024
      -0.820
      -1.707
      -2.634
      -3.513
      -4.238
      -4.714
      -4.881
      -4.724
      -4.269
      -3.577
      -2.722
      -1.770
      -0.764
       0.271
       1.311
       2.315
       3.214
       3.914
       4.330
       4.424
       4.226
       3.829
       3.342
       2.858
       2.422
       2.038
       1.675
       1.296
       0.881
       0.440
       0.008
      -0.380
      -0.703
      -0.966
      -1.198
      -1.449
      -1.775
      -2.211
      -2.732
      -3.245
      -3.617
      -3.749
      -3.617
      -3.268
      -2.774
      -2.160
      -1.393
      -0.417
       0.765
       2.044
       3.222
       4.113
       4.633
       4.810
       4.704
       4.331
       3.675
       2.759
       1.685
       0.609
      -0.334
      -1.083
      -1.652
      -2.072
      -2.359
      -2.510
      -2.520
      -2.388
      -2.128
      -1.761
      -1.323
      -0.869
      -0.467
      -0.173
       0.002
       0.085
       0.110
       0.100
       0.069
       0.037
       0.030
       0.078
       0.207
       0.432
       0.755
       1.157
       1.582
       1.936
       2.119
       2.073
       1.819
       1.446
       1.068
       0.769
       0.565
       0.417
       0.268
       0.087
      -0.114
      -0.289
      -0.381
      -0.357
      -0.239
      -0.097
      -0.023
      -0.088
      -0.321
      -0.703
      -1.172
      -1.651
      -2.073
      -2.387
      -2.554
      -2.548
      -2.350
      -1.957
      -1.392
      -0.710
       0.007
       0.679
       1.252
       1.718
       2.092
       2.377
       2.539
       2.512
       2.242
       1.725
       1.013
       0.193
      -0.640
      -1.397
      -1.995
      -2.351
      -2.412
      -2.177
      -1.708
      -1.100
      -0.447
       0.180
       0.743
       1.221
       1.594
       1.829
       1.868
       1.645
       1.122
       0.333
      -0.611
      -1.553
      -2.334
      -2.832
      -2.991
      -2.821
      -2.383
      -1.758
      -1.028
      -0.261
       0.477
       1.116
       1.581
       1.804
       1.757
       1.472
       1.038
       0.576
       0.195
      -0.029
      -0.067
       0.066
       0.330
       0.663
       0.995
       1.260
       1.405
       1.406
       1.258
       0.972
       0.563
       0.053
      -0.530
      -1.150
      -1.760
      -2.297
      -2.689
      -2.879
      -2.853
      -2.634
      -2.268
      -1.801
      -1.259
      -0.656
      -0.007
       0.653
       1.268
       1.758
       2.050
       2.097
       1.913
       1.568
       1.169
       0.820
       0.594
       0.530
       0.634
       0.884
       1.242
       1.660
       2.082
       2.448
       2.690
       2.730
       2.505
       1.991
       1.223
       0.288
      -0.707
      -1.670
      -2.537
      -3.253
      -3.754
      -3.980
      -3.898
      -3.533
      -2.954
      -2.248
      -1.488
      -0.722
       0.024
       0.723
       1.351
       1.879
       2.278
       2.521
       2.589
       2.476
       2.194
       1.771
       1.252
       0.710
       0.229
      -0.122
      -0.319
      -0.392
      -0.399
      -0.402
      -0.453
      -0.594
      -0.854
      -1.226
      -1.651
      -2.039
      -2.308
      -2.408
      -2.325
      -2.075
      -1.689
      -1.186
      -0.566
       0.176
       1.030
       1.956
       2.879
       3.698
       4.303
       4.597
       4.514
       4.032
       3.188
       2.065
       0.776
      -0.576
      -1.897
      -3.096
      -4.076
      -4.744
      -5.040
      -4.950
      -4.500
      -3.751
      -2.779
      -1.671
      -0.508
       0.643
       1.720
       2.661
       3.410
       3.934
       4.243
       4.383
       4.415
       4.379
       4.280
       4.096
       3.797
       3.364
       2.790
       2.082
       1.252
       0.329
      -0.642
      -1.599
      -2.486
      -3.268
      -3.947
      -4.539
      -5.054
      -5.468
      -5.715
      -5.709
      -5.367
      -4.648
      -3.573
      -2.229
      -0.752
       0.703
       2.001
       3.043
       3.769
       4.153
       4.196
       3.934
       3.440
       2.809
       2.123
       1.430
       0.752
       0.100
      -0.509
      -1.047
      -1.487
      -1.810
      -2.016
      -2.126
      -2.168
      -2.171
      -2.145
      -2.078
      -1.934
      -1.660
      -1.202
      -0.539
       0.291
       1.192
       2.035
       2.723
       3.224
       3.566
       3.786
       3.882
       3.807
       3.507
       2.971
       2.253
       1.446
       0.638
      -0.128
      -0.851
      -1.554
      -2.244
      -2.890
      -3.426
      -3.770
      -3.866
      -3.715
      -3.372
      -2.919
      -2.423
      -1.906
      -1.350
      -0.726
      -0.027
       0.714
       1.425
       2.029
       2.473
       2.750
       2.892
       2.941
       2.917
       2.807
       2.571
       2.173
       1.604
       0.896
       0.107
      -0.688
      -1.419
      -2.032
      -2.496
      -2.807
      -2.989
      -3.077
      -3.106
      -3.080
      -2.968
      -2.710
      -2.257
      -1.614
      -0.843
      -0.040
       0.712
       1.368
       1.921
       2.374
       2.721
       2.941
       3.002
       2.882
