Origin Time       21/9/2009 9:43:47	 
Lat.              30.9 N	
Long.             79.1 E	
Depth (Km)         13.0
Magnitude         4.7
 Region           UTTARKASHI-UTTARAKHAND                                           
 Above details taken from IMD 
   
Station Code      JUB
Station Lat.       31.110
Station Long.      77.663
Station Height(m) 1931.0
Site Class        A   Vs30 between 700 m/sec to 1400 m/sec * 
Record Time       21.09.2009 09:44:15.869
Sampling Rate     200. Hz
 Record Duration   72.035 Sec.
 Direction         Vert. (Up positive)
Max. Acceleration     -3.418 cm/sec**2
     
  * For reference see Site Classification link of website 
     
 Base Line Corrected and Low Pass Filtered (Cut Off at 35 Hz) Time History
 Acceleration data in cm/sec**2
    
[...]
       0.012
       0.077
       0.135
       0.195
       0.252
       0.270
       0.207
       0.070
      -0.073
      -0.138
      -0.105
      -0.035
      -0.020
      -0.096
      -0.212
      -0.269
      -0.203
      -0.025
       0.188
       0.341
       0.365
       0.255
       0.068
      -0.104
      -0.210
      -0.264
      -0.316
      -0.386
      -0.431
      -0.378
      -0.176
       0.150
       0.504
       0.757
       0.807
       0.630
       0.288
      -0.098
      -0.402
      -0.557
      -0.561
      -0.448
      -0.261
      -0.035
       0.184
       0.346
       0.416
       0.399
       0.329
       0.242
       0.145
       0.034
      -0.085
      -0.186
      -0.241
      -0.247
      -0.229
      -0.217
      -0.221
      -0.237
      -0.258
      -0.281
      -0.301
      -0.302
      -0.264
      -0.178
      -0.047
       0.113
       0.270
       0.392
       0.466
       0.505
       0.534
       0.548
       0.496
       0.317
       0.003
      -0.356
      -0.611
      -0.645
      -0.445
      -0.107
       0.228
       0.446
       0.495
       0.394
       0.200
      -0.021
      -0.223
      -0.392
      -0.522
      -0.590
      -0.550
      -0.366
      -0.061
       0.282
       0.559
       0.704
       0.711
       0.615
       0.457
       0.267
       0.059
      -0.156
      -0.356
      -0.496
      -0.520
      -0.402
      -0.173
       0.078
       0.248
       0.276
       0.171
      -0.001
      -0.163
      -0.257
      -0.261
      -0.185
      -0.056
       0.084
       0.192
       0.220
       0.135
      -0.073
      -0.369
      -0.670
      -0.867
      -0.868
      -0.650
      -0.271
       0.160
       0.531
       0.771
       0.862
       0.823
       0.693
       0.511
       0.312
       0.122
      -0.044
      -0.186
      -0.312
      -0.420
      -0.485
      -0.463
      -0.316
      -0.052
       0.257
       0.497
       0.566
       0.419
       0.098
      -0.289
      -0.617
      -0.788
      -0.765
      -0.577
      -0.304
      -0.047
       0.114
       0.148
       0.070
      -0.075
      -0.230
      -0.339
      -0.347
      -0.214
       0.060
       0.418
       0.760
       0.982
       1.025
       0.890
       0.632
       0.330
       0.048
      -0.177
      -0.346
      -0.471
      -0.552
      -0.562
      -0.468
      -0.267
       0.001
       0.259
       0.424
       0.436
       0.271
      -0.034
      -0.375
      -0.618
      -0.656
      -0.470
      -0.134
       0.228
       0.502
       0.613
       0.539
       0.307
      -0.007
      -0.285
      -0.411
      -0.326
      -0.063
       0.272
       0.552
       0.681
       0.620
       0.381
       0.013
      -0.420
      -0.833
      -1.127
      -1.209
      -1.041
      -0.676
      -0.251
       0.095
       0.300
       0.408
       0.505
       0.628
       0.725
       0.710
       0.542
       0.262
      -0.041
      -0.288
      -0.447
      -0.524
      -0.535
      -0.485
      -0.361
      -0.158
       0.106
       0.385
       0.614
       0.740
       0.727
       0.562
       0.259
      -0.133
      -0.520
      -0.792
      -0.865
      -0.716
      -0.391
       0.023
       0.433
       0.760
       0.940
       0.937
       0.755
       0.446
       0.094
      -0.236
      -0.527
      -0.795
      -1.038
      -1.205
      -1.225
      -1.056
      -0.724
      -0.304
       0.116
       0.476
       0.756
       0.960
       1.099
       1.165
       1.132
       0.964
       0.643
       0.190
      -0.330
      -0.817
      -1.171
      -1.319
      -1.230
      -0.926
      -0.477
       0.005
       0.395
       0.593
       0.561
       0.335
       0.011
      -0.294
      -0.483
      -0.507
      -0.376
      -0.148
       0.103
       0.332
       0.535
       0.730
       0.904
       0.994
       0.918
       0.654
       0.280
      -0.062
      -0.252
      -0.269
      -0.181
      -0.090
      -0.070
      -0.152
      -0.322
      -0.538
      -0.732
      -0.830
      -0.775
      -0.557
      -0.228
       0.113
       0.347
       0.394
       0.251
       0.001
      -0.230
      -0.336
      -0.286
      -0.119
       0.106
       0.341
       0.556
       0.711
       0.742
       0.588
       0.246
      -0.195
      -0.579
      -0.752
      -0.649
      -0.329
       0.062
       0.356
       0.437
       0.285
      -0.020
      -0.330
      -0.492
      -0.432
      -0.186
       0.121
       0.353
       0.440
       0.404
       0.316
       0.239
       0.184
       0.119
       0.004
      -0.168
      -0.358
      -0.491
      -0.503
      -0.371
      -0.130
       0.139
       0.345
       0.418
       0.345
       0.170
      -0.030
      -0.179
      -0.240
      -0.225
      -0.174
      -0.121
      -0.077
      -0.031
       0.019
       0.042
      -0.009
      -0.160
      -0.385
      -0.604
      -0.719
      -0.676
      -0.486
      -0.218
       0.051
       0.282
       0.481
       0.670
       0.846
       0.971
       1.006
       0.944
       0.805
       0.607
       0.348
       0.026
      -0.324
      -0.633
      -0.831
      -0.881
      -0.784
      -0.556
      -0.227
       0.158
       0.523
       0.776
       0.842
       0.697
       0.377
      -0.036
      -0.451
      -0.789
      -0.989
      -1.007
      -0.835
      -0.528
      -0.194
       0.052
       0.151
       0.130
       0.067
       0.035
       0.056
       0.105
       0.153
       0.199
       0.275
       0.401
       0.544
       0.612
       0.514
       0.229
      -0.165
      -0.530
      -0.763
      -0.840
      -0.793
      -0.650
      -0.397
      -0.015
       0.453
       0.879
       1.099
       1.002
       0.591
      -0.022
      -0.660
      -1.139
      -1.325
      -1.178
      -0.769
      -0.240
       0.269
       0.670
       0.936
       1.068
       1.071
       0.954
       0.744
       0.494
       0.267
       0.119
       0.076
       0.120
       0.195
       0.235
       0.201
       0.097
      -0.046
      -0.208
      -0.397
      -0.629
      -0.886
      -1.096
      -1.163
      -1.034
      -0.736
      -0.369
      -0.036
       0.213
       0.389
       0.530
       0.649
       0.714
       0.671
       0.490
       0.202
      -0.105
      -0.320
      -0.367
      -0.253
      -0.064
       0.076
       0.079
      -0.074
      -0.320
      -0.557
      -0.685
      -0.643
      -0.429
      -0.103
       0.235
       0.489
       0.607
       0.596
       0.501
       0.373
       0.238
       0.103
      -0.025
      -0.128
      -0.180
      -0.156
      -0.042
       0.153
       0.392
       0.606
       0.721
       0.690
       0.523
       0.274
       0.006
      -0.252
      -0.510
      -0.775
      -0.999
      -1.072
      -0.893
      -0.445
       0.159
       0.738
       1.126
       1.255
       1.158
       0.928
       0.656
       0.395
       0.162
      -0.036
      -0.187
      -0.269
      -0.289
      -0.296
      -0.361
      -0.512
      -0.689
      -0.772
      -0.668
      -0.398
      -0.096
       0.075
       0.027
      -0.209
      -0.522
      -0.797
      -0.953
      -0.949
      -0.781
      -0.471
      -0.068
       0.370
       0.793
       1.172
       1.485
       1.694
       1.742
       1.587
       1.236
       0.758
       0.254
      -0.177
      -0.470
      -0.612
      -0.650
      -0.669
      -0.746
      -0.898
      -1.069
      -1.163
      -1.091
      -0.820
      -0.384
       0.128
       0.604
       0.941
       1.074
       0.988
       0.729
       0.382
       0.053
      -0.172
      -0.247
      -0.183
      -0.043
       0.070
       0.043
      -0.197
      -0.633
      -1.118
      -1.433
      -1.394
      -0.965
      -0.268
       0.494
       1.139
       1.566
       1.750
       1.715
       1.501
       1.151
       0.710
       0.230
      -0.223
      -0.575
      -0.770
      -0.803
      -0.733
      -0.657
      -0.650
      -0.722
      -0.826
      -0.904
      -0.928
      -0.902
      -0.839
      -0.729
      -0.546
      -0.267
       0.102
       0.519
       0.909
       1.193
       1.317
       1.280
       1.127
       0.911
       0.663
       0.386
       0.094
      -0.177
      -0.393
      -0.550
      -0.666
      -0.749
      -0.777
      -0.712
      -0.525
      -0.221
       0.146
       0.475
       0.657
       0.620
       0.384
       0.054
      -0.227
      -0.355
      -0.317
      -0.185
      -0.071
      -0.063
      -0.191
      -0.416
      -0.640
      -0.749
      -0.662
      -0.362
       0.109
       0.671
       1.233
       1.695
       1.955
       1.933
       1.603
       1.012
       0.263
      -0.516
      -1.199
      -1.688
      -1.924
      -1.899
      -1.647
      -1.217
      -0.647
       0.034
       0.773
       1.449
       1.892
       1.943
       1.542
       0.766
      -0.184
      -1.053
      -1.615
      -1.749
      -1.477
      -0.947
      -0.362
       0.120
       0.440
       0.617
       0.694
       0.690
       0.607
       0.452
       0.255
       0.062
      -0.085
      -0.154
      -0.126
      -0.017
       0.117
       0.194
       0.169
       0.079
       0.019
       0.053
       0.162
       0.286
       0.403
       0.552
       0.755
       0.943
       0.983
       0.779
       0.364
      -0.117
      -0.514
      -0.756
      -0.857
      -0.872
      -0.852
      -0.824
      -0.797
      -0.759
      -0.685
      -0.556
      -0.386
      -0.221
      -0.106
      -0.053
      -0.036
      -0.035
      -0.067
      -0.183
      -0.411
      -0.703
      -0.930
      -0.944
      -0.670
      -0.154
       0.456
       0.987
       1.317
       1.420
       1.347
       1.176
       0.963
       0.722
       0.439
       0.112
      -0.232
      -0.547
      -0.789
      -0.948
      -1.038
      -1.074
      -1.055
      -0.966
      -0.796
      -0.550
      -0.262
       0.022
       0.253
       0.401
       0.461
       0.450
       0.394
       0.311
       0.210
       0.104
       0.022
      -0.010
       0.001
       0.027
       0.058
       0.141
       0.352
       0.706
       1.111
       1.393
       1.387
       1.046
       0.461
      -0.197
      -0.784
      -1.257
      -1.645
      -1.974
      -2.198
      -2.212
      -1.925
      -1.330
      -0.536
       0.279
       0.933
       1.299
       1.335
       1.089
       0.680
       0.270
       0.011
      -0.012
       0.196
       0.541
       0.895
       1.137
       1.195
       1.061
       0.788
       0.460
       0.146
      -0.132
      -0.373
      -0.551
      -0.593
      -0.440
      -0.125
       0.199
       0.353
       0.250
      -0.060
      -0.436
      -0.741
      -0.881
      -0.816
      -0.552
      -0.148
       0.284
       0.628
       0.822
       0.863
       0.777
       0.596
       0.355
       0.111
      -0.074
      -0.166
      -0.177
      -0.163
      -0.182
      -0.270
      -0.423
      -0.614
      -0.795
      -0.896
      -0.847
      -0.615
      -0.230
       0.214
       0.599
       0.829
       0.857
       0.698
       0.422
       0.128
      -0.091
      -0.174
      -0.103
       0.111
       0.425
       0.759
       1.007
       1.072
       0.909
       0.545
       0.052
      -0.492
      -1.016
      -1.448
      -1.707
      -1.723
      -1.466
      -0.967
      -0.318
       0.356
       0.934
       1.349
       1.589
       1.663
       1.562
       1.265
       0.800
       0.289
      -0.083
      -0.172
       0.030
       0.377
       0.644
       0.638
       0.283
      -0.357
      -1.118
      -1.799
      -2.233
      -2.333
      -2.098
      -1.602
      -0.964
      -0.320
       0.216
       0.572
       0.716
       0.642
       0.364
      -0.061
      -0.520
      -0.850
      -0.879
      -0.511
       0.206
       1.070
       1.793
       2.140
       2.024
       1.524
       0.825
       0.127
      -0.418
      -0.732
      -0.806
      -0.687
      -0.455
      -0.187
       0.069
       0.282
       0.399
       0.334
       0.024
      -0.490
      -1.044
      -1.418
      -1.443
      -1.074
      -0.404
       0.372
       0.999
       1.253
       1.032
       0.438
      -0.251
      -0.717
      -0.763
      -0.405
       0.158
       0.665
       0.925
       0.882
       0.611
       0.257
      -0.037
      -0.191
      -0.214
      -0.185
      -0.195
      -0.289
      -0.443
      -0.583
      -0.627
      -0.520
      -0.266
       0.058
       0.328
       0.431
       0.323
       0.049
      -0.298
      -0.624
      -0.859
      -0.960
      -0.898
      -0.662
      -0.245
       0.338
       1.030
       1.719
       2.257
       2.513
       2.425
       2.017
       1.389
       0.675
       0.004
      -0.539
      -0.932
      -1.214
      -1.435
      -1.621
      -1.758
      -1.822
      -1.808
      -1.709
      -1.488
      -1.092
      -0.516
       0.140
       0.712
       1.061
       1.152
       1.036
       0.776
       0.417
       0.009
      -0.371
      -0.630
      -0.708
      -0.595
      -0.325
       0.056
       0.494
       0.924
       1.278
       1.496
       1.535
       1.374
       1.019
       0.535
       0.050
      -0.296
      -0.448
      -0.502
      -0.659
      -1.098
      -1.827
      -2.654
      -3.270
      -3.418
      -3.001
      -2.112
      -0.971
       0.156
       1.040
       1.568
       1.765
       1.765
       1.718
       1.710
       1.748
       1.809
       1.874
       1.928
       1.924
       1.779
       1.424
       0.855
       0.141
      -0.607
      -1.285
      -1.815
      -2.147
      -2.263
      -2.173
      -1.911
      -1.516
      -1.027
      -0.503
      -0.035
       0.286
       0.407
       0.344
       0.165
      -0.042
      -0.195
      -0.217
      -0.057
       0.285
       0.733
       1.155
       1.432
       1.506
       1.393
       1.165
       0.922
       0.765
       0.759
       0.880
       1.016
       1.014
       0.769
       0.282
      -0.353
      -0.986
      -1.463
      -1.676
      -1.610
      -1.363
      -1.095
      -0.954
      -0.998
      -1.185
      -1.393
      -1.477
      -1.317
      -0.871
      -0.189
       0.620
       1.441
       2.184
       2.774
       3.139
       3.222
       3.018
       2.587
       2.014
       1.367
       0.670
      -0.060
      -0.787
      -1.455
      -2.021
      -2.462
      -2.764
      -2.898
      -2.822
      -2.503
      -1.942
      -1.182
      -0.314
       0.523
       1.171
       1.513
       1.518
       1.249
       0.828
       0.402
       0.099
       0.012
       0.163
       0.501
       0.923
       1.315
       1.601
       1.749
       1.747
       1.560
       1.134
       0.455
      -0.395
      -1.235
      -1.862
      -2.150
      -2.099
      -1.803
      -1.383
      -0.940
      -0.534
      -0.198
       0.050
       0.191
       0.209
       0.113
      -0.045
      -0.183
      -0.236
      -0.197
      -0.122
      -0.066
      -0.034
       0.038
       0.231
       0.584
       1.058
       1.552
       1.945
       2.144
       2.116
       1.888
       1.519
       1.065
       0.553
      -0.018
      -0.657
      -1.339
      -1.986
      -2.485
      -2.760
      -2.834
      -2.799
      -2.722
      -2.556
      -2.175
      -1.500
      -0.590
       0.373
       1.192
       1.742
       2.001
       2.017
       1.883
       1.700
       1.555
       1.494
       1.507
       1.551
       1.561
       1.475
       1.237
       0.823
       0.252
      -0.410
      -1.098
      -1.777
      -2.422
      -2.968
      -3.284
      -3.222
      -2.702
      -1.766
      -0.571
       0.660
       1.695
       2.354
       2.557
       2.350
       1.879
       1.326
       0.832
       0.462
       0.208
       0.030
      -0.106
      -0.212
      -0.285
      -0.333
      -0.385
      -0.469
      -0.577
      -0.650
      -0.594
      -0.344
       0.078
       0.552
       0.897
       0.947
       0.621
      -0.051
      -0.937
      -1.843
      -2.565
      -2.932
      -2.858
      -2.365
      -1.554
      -0.552
       0.525
       1.570
       2.453
       3.026
       3.164
       2.830
       2.108
       1.186
       0.296
      -0.351
      -0.624
      -0.510
      -0.123
       0.331
       0.635
       0.641
       0.322
      -0.235
      -0.885
      -1.472
      -1.867
      -1.993
      -1.843
      -1.488
      -1.062
      -0.722
      -0.589
      -0.688
      -0.924
      -1.119
      -1.094
      -0.755
      -0.125
       0.691
       1.568
       2.386
       3.005
       3.257
       2.992
       2.190
       1.013
      -0.254
      -1.335
      -2.080
      -2.475
      -2.564
      -2.374
      -1.891
      -1.107
      -0.080
       1.047
       2.083
       2.848
       3.223
       3.160
       2.687
       1.902
       0.945
      -0.028
      -0.891
      -1.564
      -2.020
      -2.270
      -2.351
      -2.320
      -2.241
      -2.151
      -2.036
      -1.828
      -1.448
      -0.864
      -0.127
       0.644
       1.326
       1.852
       2.220
       2.452
       2.535
       2.412
       2.029
       1.412
       0.691
       0.054
      -0.352
      -0.502
      -0.485
      -0.424
      -0.393
      -0.411
      -0.476
      -0.598
      -0.773
      -0.950
      -1.038
      -0.977
      -0.784
      -0.553
      -0.379
      -0.294
      -0.266
      -0.243
      -0.194
      -0.120
      -0.030
       0.075
       0.199
       0.364
       0.607
       0.959
       1.400
       1.835
       2.116
       2.113
       1.773
       1.151
       0.384
      -0.369
      -0.970
      -1.323
      -1.377
      -1.144
      -0.717
      -0.256
       0.074
       0.165
       0.004
      -0.331
      -0.708
      -0.994
      -1.127
      -1.134
      -1.091
      -1.033
      -0.913
      -0.632
      -0.128
       0.565
       1.321
       1.985
       2.431
       2.591
       2.447
       2.021
       1.362
       0.534
      -0.381
      -1.274
      -2.000
      -2.399
      -2.359
      -1.896
      -1.191
      -0.531
      -0.177
      -0.237
      -0.635
      -1.162
      -1.590
      -1.750
      -1.573
      -1.084
      -0.377
       0.421
       1.174
       1.767
       2.129
       2.240
       2.124
       1.838
       1.454
       1.050
       0.704
       0.476
       0.386
       0.384
       0.361
       0.211
      -0.102
      -0.528
      -0.954
      -1.255
      -1.327
      -1.117
      -0.651
      -0.037
       0.563
       0.991
       1.127
       0.911
       0.365
      -0.371
      -1.065
      -1.492
      -1.554
      -1.330
      -0.998
      -0.703
      -0.488
      -0.317
      -0.148
       0.022
       0.179
       0.326
       0.489
       0.693
       0.943
       1.211
       1.443
       1.551
       1.427
       0.990
       0.242
      -0.680
      -1.522
      -2.001
      -1.943
      -1.378
      -0.519
       0.352
       1.000
       1.302
       1.238
       0.855
       0.249
      -0.444
      -1.050
