Origin Time       28/5/2010 07:25:06	
Lat.              31.2 N	
Long.             77.9 E	
Depth (Km)         43.0
Magnitude         4.8
 Region           Himachal                                                         
 Above details taken from USGS
     
Station Code      JUB
Station Lat.       31.110  N
Station Long.      77.663  E
Station Height(m) 1931.0
Site Class        A   Vs30 between 700 m/sec to 1400 m/sec * 
Record Time       28.05.2010 07:24:37.729
Sampling Rate     200. Hz
 Record Duration  107.730 Sec.
 Direction         E-W (E positive)
Max. Acceleration    -39.177 cm/sec**2
     
  * For reference see Site Classification link of website 
     
 Base Line Corrected and Low Pass Filtered (Cut Off at 35 Hz) Time History
 Acceleration data in cm/sec**2
    
[...]
       0.012
       0.001
      -0.007
      -0.009
      -0.005
       0.000
       0.002
       0.003
       0.005
       0.007
       0.006
      -0.002
      -0.013
      -0.021
      -0.019
      -0.007
       0.008
       0.018
       0.017
       0.007
      -0.004
      -0.008
      -0.004
       0.004
       0.009
       0.010
       0.008
       0.007
       0.005
       0.004
       0.003
       0.001
       0.000
       0.000
       0.001
       0.004
       0.008
       0.010
       0.009
       0.007
       0.003
      -0.002
      -0.003
      -0.001
       0.004
       0.006
       0.003
      -0.004
      -0.013
      -0.019
      -0.020
      -0.015
      -0.004
       0.007
       0.015
       0.017
       0.016
       0.014
       0.012
       0.011
       0.009
       0.009
       0.012
       0.016
       0.019
       0.018
       0.013
       0.008
       0.005
       0.004
       0.003
       0.001
       0.000
       0.002
       0.005
       0.008
       0.009
       0.008
       0.005
       0.002
      -0.001
      -0.002
       0.000
       0.007
       0.014
       0.019
       0.018
       0.012
       0.006
       0.003
       0.002
       0.001
      -0.002
      -0.006
      -0.006
      -0.003
       0.002
       0.008
       0.011
       0.013
       0.013
       0.014
       0.013
       0.009
       0.003
       0.001
       0.004
       0.011
       0.015
       0.012
       0.006
       0.002
       0.003
       0.006
       0.008
       0.007
       0.004
       0.003
       0.003
       0.003
       0.003
       0.004
       0.006
       0.009
       0.013
       0.015
       0.012
       0.005
      -0.003
      -0.009
      -0.009
       0.000
       0.012
       0.022
       0.022
       0.013
       0.002
      -0.003
      -0.002
       0.002
       0.004
       0.002
      -0.001
      -0.004
      -0.006
      -0.008
      -0.009
      -0.008
      -0.007
      -0.004
       0.000
       0.008
       0.019
       0.026
       0.024
       0.013
       0.001
      -0.005
      -0.002
       0.006
       0.011
       0.011
       0.006
       0.001
      -0.003
      -0.002
       0.002
       0.008
       0.012
       0.015
       0.013
       0.009
       0.004
      -0.001
      -0.003
      -0.005
      -0.005
      -0.003
       0.000
       0.003
       0.004
       0.002
      -0.001
      -0.001
       0.002
       0.008
       0.015
       0.019
       0.018
       0.013
       0.008
       0.006
       0.006
       0.008
       0.011
       0.015
       0.019
       0.020
       0.017
       0.012
       0.009
       0.009
       0.012
       0.015
       0.018
       0.020
       0.021
       0.021
       0.019
       0.016
       0.013
       0.012
       0.014
       0.017
       0.019
       0.020
       0.016
       0.011
       0.008
       0.011
       0.019
       0.028
       0.031
       0.027
       0.018
       0.010
       0.007
       0.010
       0.016
       0.022
       0.025
       0.024
       0.021
       0.018
       0.017
       0.017
       0.014
       0.008
       0.002
      -0.002
       0.000
       0.004
       0.010
       0.016
       0.022
       0.027
       0.028
       0.023
       0.015
       0.012
       0.015
       0.018
       0.017
       0.010
       0.005
       0.004
       0.009
       0.015
       0.016
       0.012
       0.004
      -0.001
      -0.003
      -0.001
       0.003
       0.009
       0.017
       0.026
       0.028
       0.023
       0.014
       0.006
       0.004
       0.006
       0.006
       0.002
      -0.002
       0.000
       0.007
       0.014
       0.012
       0.002
      -0.009
      -0.012
      -0.006
       0.004
       0.010
       0.011
       0.010
       0.008
       0.006
       0.002
      -0.001
      -0.001
       0.005
       0.013
       0.021
       0.026
       0.028
       0.028
       0.023
       0.012
      -0.002
      -0.012
      -0.010
       0.003
       0.019
       0.028
       0.026
       0.016
       0.006
       0.000
       0.001
       0.004
       0.007
       0.007
       0.005
       0.003
       0.005
       0.010
       0.014
       0.014
       0.010
       0.003
      -0.001
      -0.002
       0.001
       0.007
       0.014
       0.018
       0.016
       0.008
      -0.002
      -0.004
       0.003
       0.014
       0.019
       0.014
       0.005
      -0.001
       0.000
       0.004
       0.006
       0.005
       0.002
       0.000
       0.001
       0.005
       0.009
       0.014
       0.017
       0.020
       0.021
       0.019
       0.015
       0.012
       0.015
       0.025
       0.038
       0.049
       0.053
       0.050
       0.040
       0.029
       0.018
       0.007
      -0.004
      -0.012
      -0.016
      -0.019
      -0.018
      -0.009
       0.014
       0.045
       0.055
       0.017
      -0.071
      -0.166
      -0.208
      -0.160
      -0.046
       0.075
       0.158
       0.198
       0.214
       0.210
       0.169
       0.072
      -0.063
      -0.176
      -0.193
      -0.070
       0.179
       0.481
       0.733
       0.855
       0.826
       0.676
       0.469
       0.284
       0.194
       0.237
       0.381
       0.529
       0.583
       0.508
       0.342
       0.150
      -0.035
      -0.215
      -0.402
      -0.589
      -0.739
      -0.796
      -0.713
      -0.499
      -0.274
      -0.254
      -0.641
      -1.443
      -2.370
      -2.936
      -2.759
      -1.849
      -0.629
       0.350
       0.808
       0.884
       0.934
       1.147
       1.346
       1.142
       0.334
      -0.802
      -1.602
      -1.457
      -0.297
       1.303
       2.494
       2.710
       1.987
       0.844
      -0.112
      -0.543
      -0.473
      -0.136
       0.244
       0.583
       0.904
       1.204
       1.333
       1.026
       0.104
      -1.290
      -2.648
      -3.342
      -2.997
      -1.727
      -0.075
       1.286
       1.897
       1.707
       1.013
       0.219
      -0.403
      -0.805
      -1.076
      -1.283
      -1.370
      -1.177
      -0.545
       0.522
       1.764
       2.734
       3.028
       2.516
       1.392
       0.022
      -1.255
      -2.208
      -2.695
      -2.603
      -1.870
      -0.592
       0.900
       2.088
       2.496
       1.971
       0.803
      -0.425
      -1.153
      -1.137
      -0.544
       0.190
       0.640
       0.612
       0.188
      -0.373
      -0.773
      -0.817
      -0.522
      -0.132
       0.055
      -0.055
      -0.238
      -0.136
       0.374
       0.994
       1.201
       0.688
      -0.346
      -1.320
      -1.691
      -1.309
      -0.423
       0.571
       1.351
       1.738
       1.665
       1.186
       0.485
      -0.167
      -0.540
      -0.566
      -0.368
      -0.215
      -0.379
      -0.954
      -1.693
      -2.068
      -1.582
      -0.156
       1.726
       3.261
       3.755
       2.951
       1.117
      -1.088
      -2.901
      -3.770
      -3.544
      -2.430
      -0.841
       0.712
       1.686
       1.656
       0.593
      -0.969
      -2.103
      -1.955
      -0.239
       2.547
       5.312
       6.871
       6.495
       4.255
       0.972
      -2.171
      -4.155
      -4.580
      -3.821
      -2.786
      -2.318
      -2.623
      -3.156
      -3.058
      -1.802
       0.418
       2.774
       4.250
       4.187
       2.624
       0.267
      -1.885
      -2.990
      -2.669
      -1.070
       1.209
       3.313
       4.420
       4.077
       2.438
       0.215
      -1.649
      -2.429
      -1.964
      -0.680
       0.730
       1.713
       2.013
       1.562
       0.389
      -1.288
      -2.937
      -3.850
      -3.565
      -2.261
      -0.712
       0.199
       0.084
      -0.677
      -1.211
      -0.808
       0.497
       1.884
       2.315
       1.288
      -0.780
      -2.789
      -3.604
      -2.703
      -0.440
       2.172
       4.006
       4.386
       3.358
       1.549
      -0.217
      -1.299
      -1.464
      -0.917
      -0.146
       0.354
       0.376
       0.135
       0.135
       0.787
       1.986
       3.014
       2.969
       1.511
      -0.704
      -2.382
      -2.548
      -1.289
       0.335
       1.118
       0.554
      -0.885
      -2.168
      -2.436
      -1.545
      -0.105
       0.965
       1.027
       0.082
      -1.310
      -2.393
      -2.625
      -1.917
      -0.619
       0.732
       1.732
       2.329
       2.763
       3.261
       3.700
       3.586
       2.438
       0.313
      -2.017
      -3.421
      -3.113
      -1.207
       1.260
       2.914
       2.815
       0.935
      -1.933
      -4.645
      -6.237
      -6.223
      -4.633
      -1.922
       1.137
       3.623
       4.799
       4.503
       3.251
       1.837
       0.708
      -0.280
      -1.428
      -2.550
      -2.887
      -1.766
       0.603
       3.048
       4.243
       3.730
       2.210
       0.824
       0.110
      -0.363
      -1.371
      -3.039
      -4.498
      -4.577
      -2.928
      -0.494
       1.207
       1.341
       0.407
      -0.329
      -0.019
       1.060
       1.872
       1.623
       0.436
      -0.809
      -1.259
      -0.752
       0.141
       0.674
       0.571
       0.208
       0.206
       0.809
       1.612
       1.825
       0.889
      -1.037
      -3.078
      -4.188
      -3.819
      -2.204
      -0.077
       1.855
       3.180
       3.682
       3.203
       1.784
      -0.086
      -1.536
      -1.840
      -0.990
       0.239
       0.894
       0.576
      -0.299
      -0.921
      -0.748
       0.144
       1.214
       1.878
       1.837
       1.133
      -0.008
      -1.303
      -2.417
      -2.949
      -2.587
      -1.372
       0.204
       1.453
       1.888
       1.436
       0.365
      -0.874
      -1.733
      -1.697
      -0.591
       1.138
       2.565
       2.888
       1.988
       0.442
      -0.982
      -1.806
      -1.910
      -1.333
      -0.202
       1.126
       1.997
       1.748
       0.243
      -1.813
      -3.192
      -2.962
      -1.191
       1.043
       2.371
       2.044
       0.375
      -1.554
      -2.665
      -2.505
      -1.329
       0.244
       1.607
       2.363
       2.412
       1.968
       1.433
       1.107
       0.950
       0.713
       0.315
       0.025
       0.146
       0.533
       0.533
      -0.426
      -2.107
      -3.383
      -3.034
      -0.796
       2.268
       4.426
       4.441
       2.343
      -0.712
      -3.250
      -4.327
      -3.878
      -2.500
      -0.956
       0.177
       0.637
       0.494
       0.144
       0.124
       0.688
       1.470
       1.636
       0.565
      -1.494
      -3.395
      -3.832
      -2.295
       0.504
       3.089
       4.226
       3.748
       2.562
       1.853
       2.088
       2.629
       2.280
       0.326
      -2.794
      -5.711
      -7.002
      -6.044
      -3.319
      -0.111
       2.184
       2.779
       1.930
       0.759
       0.509
       1.637
       3.434
       4.547
       4.051
       2.167
       0.037
      -1.267
      -1.592
      -1.657
      -2.204
      -3.191
      -3.824
      -3.335
      -1.711
       0.298
       1.774
       2.188
       1.528
       0.142
      -1.414
      -2.466
      -2.430
      -1.134
       0.958
       2.888
       3.741
       3.290
       2.170
       1.338
       1.209
       1.314
       0.868
      -0.292
      -1.385
      -1.381
      -0.056
       1.619
       2.178
       0.808
      -2.070
      -5.135
      -6.974
      -6.751
      -4.556
      -1.421
       1.111
       1.915
       1.126
       0.051
       0.071
       1.506
       3.499
       4.879
       5.056
       4.235
       3.074
       2.244
       2.111
       2.495
       2.636
       1.627
      -0.848
      -4.057
      -6.550
      -7.086
      -5.468
      -2.690
      -0.297
       0.603
       0.037
      -0.909
      -0.951
       0.316
       1.998
       2.612
       1.441
      -0.681
      -1.955
      -1.124
       1.454
       4.098
       5.110
       3.925
       1.308
      -1.306
      -2.705
      -2.481
      -1.081
       0.583
       1.657
       1.702
       0.792
      -0.577
      -1.742
      -2.224
      -2.006
      -1.512
      -1.260
      -1.454
      -1.824
      -1.826
      -1.064
       0.342
       1.717
       2.254
       1.694
       0.673
       0.311
       1.245
       2.923
       3.864
       2.801
      -0.213
      -3.690
      -5.693
      -5.174
      -2.643
       0.249
       1.865
       1.643
       0.313
      -0.825
      -0.962
      -0.325
       0.193
      -0.066
      -0.919
      -1.504
      -1.027
       0.598
       2.694
       4.288
       4.691
       3.823
       2.181
       0.536
      -0.466
      -0.627
      -0.257
       0.066
      -0.134
      -0.994
      -2.284
      -3.540
      -4.268
      -4.221
      -3.619
      -3.058
      -3.090
      -3.776
      -4.686
      -5.382
      -5.902
      -6.710
      -8.146
      -9.905
     -11.064
     -10.634
      -8.173
      -4.036
       0.877
       5.650
       9.853
      13.710
      17.792
      22.400
      27.081
      30.714
      32.200
      31.217
      28.345
      24.410
      19.697
      13.829
       6.390
      -2.394
     -11.613
     -20.194
     -27.403
     -32.950
     -36.781
     -38.881
     -39.177
     -37.474
     -33.453
     -26.902
     -18.113
      -8.144
       1.430
       9.166
      14.397
      17.393
      18.941
      19.608
      19.233
      17.100
      12.756
       6.883
       1.434
      -1.306
      -0.128
       4.300
       9.890
      14.393
      16.438
      15.770
      12.912
       8.800
       4.563
       1.257
      -0.549
      -1.066
      -1.155
      -1.817
      -3.678
      -6.766
     -10.574
     -14.273
     -17.003
     -18.271
     -18.268
     -17.827
     -17.864
     -18.591
     -19.152
     -18.113
     -14.457
      -8.277
      -0.676
       6.945
      13.641
      19.197
      23.730
      26.952
      27.867
      25.433
      19.779
      12.783
       7.225
       4.994
       5.811
       7.493
       7.482
       4.444
      -1.102
      -7.335
     -12.362
     -15.300
     -16.572
     -17.272
     -18.119
     -18.886
     -18.792
     -17.401
     -15.016
     -12.164
      -8.810
      -4.257
       2.050
       9.637
      16.921
      22.042
      23.929
      22.767
      19.626
      15.585
      11.136
       6.342
       1.542
      -2.320
      -4.242
      -4.038
      -2.515
      -0.715
       0.907
       2.435
       3.702
       3.767
       1.385
      -3.832
     -10.556
     -16.010
     -17.409
     -13.788
      -6.917
      -0.398
       2.690
       1.881
      -0.540
      -1.545
       0.115
       2.969
       4.150
       1.771
      -3.612
      -9.443
     -12.902
     -12.545
      -8.890
      -3.832
       0.654
       3.679
       5.695
       7.640
       9.776
      11.311
      11.103
       8.746
       5.055
       1.664
       0.067
       0.707
       2.633
       4.056
       3.650
       1.704
       0.094
       0.799
       4.108
       8.140
      10.247
       8.980
       4.809
      -0.815
      -6.739
     -12.298
     -16.584
     -18.153
     -15.952
     -10.578
      -4.375
      -0.040
       1.047
      -0.607
      -3.387
      -5.832
      -7.338
      -7.916
      -7.469
      -5.405
      -1.143
       4.842
      10.595
      13.731
      13.350
      10.947
       9.136
       9.226
      10.024
       9.057
       4.944
      -1.324
      -7.126
      -9.978
      -8.843
      -4.274
       2.183
       8.631
      13.175
      14.266
      11.379
       5.737
       0.144
      -2.600
      -1.819
       0.205
      -0.198
      -5.110
     -13.004
     -19.488
     -20.434
     -15.201
      -7.411
      -2.477
      -3.567
      -9.068
     -13.641
     -12.162
      -3.494
       8.798
      19.028
      22.984
      20.015
      12.774
       5.398
       1.375
       1.971
       5.719
       9.253
       9.298
       4.803
      -2.286
      -8.341
     -10.609
      -9.079
      -6.187
      -4.653
      -5.361
      -7.079
      -8.001
      -7.448
      -6.068
      -4.612
      -2.778
       0.498
       5.588
      11.162
      14.834
      14.991
      12.087
       8.164
       5.081
       3.171
       1.575
      -0.317
      -2.044
      -2.891
      -3.364
      -5.390
     -10.578
     -18.144
     -24.707
     -26.450
     -21.879
     -12.797
      -2.777
       5.381
      11.032
      15.076
      18.371
      20.716
      21.036
      18.323
      12.607
       5.387
      -0.779
      -3.512
      -2.065
       2.046
       5.849
       6.684
       3.754
      -1.608
      -7.064
     -10.924
     -13.045
     -14.252
     -14.856
     -13.819
      -9.678
      -2.538
       5.018
       9.439
       8.991
       5.165
       1.255
      -0.538
      -0.705
      -1.307
      -3.376
      -5.404
      -4.477
       0.796
       8.220
      13.067
      11.822
       5.455
      -0.975
      -2.432
       1.765
       7.339
       8.766
       3.939
      -4.276
     -10.663
     -11.854
      -8.513
      -4.027
      -1.314
      -0.664
      -0.226
       1.716
       4.914
       7.323
       6.876
       3.173
      -2.282
      -7.194
      -9.812
      -9.563
      -6.989
      -3.434
      -0.626
       0.110
      -1.138
      -2.504
      -1.520
       2.667
       8.093
      11.328
      10.484
       7.020
       4.429
       4.949
       7.376
       8.049
       4.130
      -3.722
     -11.505
     -14.657
     -11.257
      -3.338
       4.487
       8.014
       5.917
       0.109
      -6.030
     -10.048
     -11.654
     -12.111
     -12.622
     -13.134
     -12.366
      -8.806
      -1.907
       7.244
      16.090
      21.628
      21.921
      17.333
      10.557
       5.121
       3.261
       4.732
       7.440
       9.166
       8.780
       6.132
       1.385
      -5.062
     -11.982
     -17.138
     -18.348
     -15.217
      -9.869
      -5.632
      -4.490
      -5.442
      -5.389
      -2.003
       3.903
       8.786
       9.382
       5.602
       0.541
      -2.374
      -2.275
      -1.041
      -0.925
      -2.263
      -3.459
      -2.874
      -0.381
       2.900
       5.981
       8.754
      11.395
      13.400
      13.540
      10.867
       5.671
      -0.503
      -5.744
      -8.752
      -9.299
      -8.102
      -6.325
      -4.970
      -4.454
      -4.640
      -5.253
      -6.251
      -7.710
      -9.348
     -10.278
      -9.423
      -6.312
      -1.536
       3.554
       7.627
      10.026
      10.983
      11.383
      12.186
      13.699
      15.161
      15.120
      12.520
       7.704
       2.436
      -1.287
      -2.820
      -3.552
      -5.920
     -11.286
     -18.320
     -23.396
     -23.005
     -16.472
      -6.765
       1.406
       4.818
       3.774
       1.392
       0.826
       2.830
       5.644
       7.043
       6.467
       5.291
       5.231
       6.602
       8.037
       7.780
       5.222
       1.325
