Origin Time       21/9/2009 9:43:47	 
Lat.              30.9 N	
Long.             79.1 E	
Depth (Km)         13.0
Magnitude         4.7
 Region           UTTARKASHI-UTTARAKHAND                                           
 Above details taken from IMD 
     
Station Code      JUB
Station Lat.       31.110  N
Station Long.      77.663  E
Station Height(m) 1931.0
Site Class        A   Vs30 between 700 m/sec to 1400 m/sec * 
Record Time       21.09.2009 09:44:15.869
Sampling Rate     200. Hz
 Record Duration   72.035 Sec.
 Direction         E-W (E positive)
Max. Acceleration     -8.540 cm/sec**2
     
  * For reference see Site Classification link of website 
     
 Base Line Corrected and Low Pass Filtered (Cut Off at 35 Hz) Time History
 Acceleration data in cm/sec**2
    
[...]
       0.187
       0.038
      -0.123
      -0.309
      -0.513
      -0.700
      -0.822
      -0.845
      -0.765
      -0.603
      -0.385
      -0.131
       0.143
       0.412
       0.639
       0.782
       0.812
       0.731
       0.577
       0.404
       0.256
       0.149
       0.078
       0.025
      -0.037
      -0.130
      -0.261
      -0.412
      -0.547
      -0.621
      -0.598
      -0.473
      -0.273
      -0.037
       0.209
       0.457
       0.695
       0.885
       0.961
       0.867
       0.589
       0.180
      -0.269
      -0.672
      -0.981
      -1.175
      -1.231
      -1.131
      -0.890
      -0.573
      -0.271
      -0.037
       0.133
       0.286
       0.461
       0.653
       0.822
       0.929
       0.962
       0.930
       0.845
       0.705
       0.504
       0.252
      -0.023
      -0.286
      -0.509
      -0.683
      -0.810
      -0.886
      -0.888
      -0.779
      -0.543
      -0.211
       0.144
       0.439
       0.615
       0.657
       0.587
       0.449
       0.294
       0.158
       0.055
      -0.030
      -0.118
      -0.214
      -0.285
      -0.281
      -0.174
       0.006
       0.183
       0.283
       0.272
       0.164
       0.009
      -0.137
      -0.237
      -0.274
      -0.249
      -0.180
      -0.092
      -0.011
       0.047
       0.076
       0.078
       0.054
       0.014
      -0.028
      -0.052
      -0.049
      -0.020
       0.028
       0.083
       0.127
       0.145
       0.127
       0.072
      -0.003
      -0.069
      -0.088
      -0.038
       0.067
       0.183
       0.251
       0.236
       0.140
       0.004
      -0.126
      -0.220
      -0.284
      -0.343
      -0.405
      -0.448
      -0.436
      -0.337
      -0.155
       0.073
       0.297
       0.473
       0.576
       0.596
       0.527
       0.374
       0.162
      -0.071
      -0.276
      -0.417
      -0.476
      -0.459
      -0.395
      -0.318
      -0.252
      -0.199
      -0.143
      -0.058
       0.070
       0.222
       0.347
       0.394
       0.346
       0.230
       0.101
       0.008
      -0.025
      -0.004
       0.041
       0.072
       0.061
       0.005
      -0.069
      -0.119
      -0.105
      -0.016
       0.118
       0.236
       0.280
       0.224
       0.084
      -0.088
      -0.225
      -0.285
      -0.259
      -0.178
      -0.087
      -0.030
      -0.036
      -0.112
      -0.224
      -0.306
      -0.296
      -0.180
      -0.008
       0.138
       0.208
       0.212
       0.211
       0.252
       0.330
       0.401
       0.429
       0.414
       0.380
       0.346
       0.305
       0.228
       0.095
      -0.092
      -0.308
      -0.524
      -0.715
      -0.852
      -0.893
      -0.793
      -0.551
      -0.233
       0.040
       0.165
       0.111
      -0.052
      -0.203
      -0.247
      -0.167
      -0.022
       0.123
       0.247
       0.373
       0.525
       0.686
       0.796
       0.795
       0.665
       0.447
       0.216
       0.032
      -0.088
      -0.165
      -0.228
      -0.290
      -0.347
      -0.383
      -0.388
      -0.360
      -0.302
      -0.211
      -0.086
       0.060
       0.194
       0.273
       0.260
       0.144
      -0.053
      -0.281
      -0.477
      -0.593
      -0.608
      -0.542
      -0.437
      -0.339
      -0.265
      -0.195
      -0.080
       0.111
       0.361
       0.606
       0.768
       0.803
       0.723
       0.578
       0.424
       0.296
       0.192
       0.096
      -0.015
      -0.153
      -0.319
      -0.492
      -0.638
      -0.716
      -0.698
      -0.577
      -0.367
      -0.107
       0.138
       0.298
       0.329
       0.235
       0.070
      -0.088
      -0.182
      -0.195
      -0.155
      -0.099
      -0.045
       0.009
       0.076
       0.160
       0.256
       0.348
       0.417
       0.447
       0.435
       0.388
       0.313
       0.211
       0.086
      -0.051
      -0.185
      -0.305
      -0.408
      -0.494
      -0.559
      -0.588
      -0.559
      -0.465
      -0.327
      -0.194
      -0.107
      -0.076
      -0.075
      -0.067
      -0.027
       0.042
       0.123
       0.204
       0.292
       0.394
       0.498
       0.567
       0.555
       0.437
       0.222
      -0.041
      -0.279
      -0.424
      -0.444
      -0.359
      -0.227
      -0.112
      -0.055
      -0.055
      -0.079
      -0.091
      -0.070
      -0.024
       0.019
       0.027
      -0.017
      -0.099
      -0.172
      -0.188
      -0.127
      -0.007
       0.129
       0.244
       0.323
       0.368
       0.382
       0.351
       0.250
       0.067
      -0.173
      -0.405
      -0.558
      -0.597
      -0.540
      -0.446
      -0.372
      -0.334
      -0.300
      -0.214
      -0.040
       0.211
       0.485
       0.708
       0.826
       0.820
       0.719
       0.580
       0.453
       0.354
       0.259
       0.132
      -0.046
      -0.251
      -0.435
      -0.548
      -0.580
      -0.554
      -0.510
      -0.468
      -0.420
      -0.340
      -0.206
      -0.022
       0.181
       0.352
       0.440
       0.411
       0.270
       0.076
      -0.074
      -0.092
       0.043
       0.269
       0.484
       0.602
       0.604
       0.517
       0.377
       0.193
      -0.049
      -0.357
      -0.694
      -0.985
      -1.155
      -1.179
      -1.082
      -0.914
      -0.719
      -0.517
      -0.316
      -0.125
       0.039
       0.163
       0.253
       0.344
       0.470
       0.642
       0.832
       0.994
       1.087
       1.092
       1.005
       0.840
       0.619
       0.375
       0.149
      -0.029
      -0.160
      -0.270
      -0.387
      -0.507
      -0.596
      -0.615
      -0.561
      -0.468
      -0.389
      -0.353
      -0.349
      -0.347
      -0.332
      -0.318
      -0.323
      -0.336
      -0.308
      -0.180
       0.069
       0.407
       0.748
       1.002
       1.118
       1.104
       1.005
       0.857
       0.659
       0.398
       0.076
      -0.268
      -0.581
      -0.828
      -1.007
      -1.141
      -1.242
      -1.307
      -1.322
      -1.282
      -1.180
      -1.002
      -0.732
      -0.372
       0.043
       0.447
       0.771
       0.966
       1.028
       0.990
       0.905
       0.813
       0.733
       0.667
       0.609
       0.552
       0.492
       0.426
       0.346
       0.244
       0.129
       0.028
      -0.027
      -0.032
      -0.024
      -0.064
      -0.201
      -0.436
      -0.718
      -0.962
      -1.085
      -1.037
      -0.824
      -0.504
      -0.169
       0.085
       0.210
       0.228
       0.212
       0.236
       0.323
       0.437
       0.522
       0.544
       0.501
       0.411
       0.292
       0.152
       0.008
      -0.103
      -0.147
      -0.126
      -0.095
      -0.125
      -0.254
      -0.460
      -0.670
      -0.808
      -0.839
      -0.775
      -0.653
      -0.492
      -0.288
      -0.035
       0.246
       0.499
       0.666
       0.714
       0.656
       0.538
       0.412
       0.304
       0.216
       0.136
       0.061
      -0.010
      -0.079
      -0.145
      -0.207
      -0.260
      -0.300
      -0.319
      -0.297
      -0.212
      -0.052
       0.170
       0.405
       0.585
       0.649
       0.576
       0.401
       0.195
       0.038
      -0.030
      -0.016
       0.026
       0.037
      -0.010
      -0.105
      -0.217
      -0.328
      -0.436
      -0.537
      -0.614
      -0.633
      -0.569
      -0.438
      -0.300
      -0.214
      -0.198
      -0.207
      -0.177
      -0.073
       0.094
       0.284
       0.463
       0.612
       0.731
       0.817
       0.855
       0.822
       0.697
       0.479
       0.193
      -0.113
      -0.374
      -0.534
      -0.571
      -0.520
      -0.447
      -0.410
      -0.422
      -0.447
      -0.432
      -0.344
      -0.196
      -0.047
       0.038
       0.020
      -0.090
      -0.236
      -0.340
      -0.332
      -0.182
       0.093
       0.435
       0.769
       1.022
       1.145
       1.120
       0.960
       0.691
       0.347
      -0.030
      -0.385
      -0.660
      -0.821
      -0.866
      -0.822
      -0.728
      -0.619
      -0.507
      -0.385
      -0.239
      -0.069
       0.113
       0.291
       0.446
       0.558
       0.603
       0.562
       0.434
       0.242
       0.028
      -0.147
      -0.232
      -0.199
      -0.063
       0.115
       0.261
       0.326
       0.316
       0.284
       0.285
       0.332
       0.384
       0.364
       0.202
      -0.124
      -0.573
      -1.062
      -1.503
      -1.844
      -2.057
      -2.112
      -1.963
      -1.573
      -0.952
      -0.178
       0.616
       1.293
       1.758
       1.983
       2.011
       1.914
       1.759
       1.575
       1.354
       1.081
       0.762
       0.448
       0.208
       0.089
       0.076
       0.098
       0.075
      -0.035
      -0.219
      -0.424
      -0.598
      -0.735
      -0.873
      -1.057
      -1.293
      -1.533
      -1.699
      -1.741
      -1.667
      -1.530
      -1.378
      -1.217
      -1.017
      -0.754
      -0.425
      -0.051
       0.346
       0.741
       1.110
       1.429
       1.688
       1.889
       2.028
       2.091
       2.048
       1.872
       1.569
       1.185
       0.789
       0.436
       0.148
      -0.081
      -0.268
      -0.434
      -0.618
      -0.865
      -1.205
      -1.609
      -1.997
      -2.263
      -2.334
      -2.192
      -1.861
      -1.369
      -0.746
      -0.031
       0.707
       1.387
       1.939
       2.320
       2.509
       2.500
       2.303
       1.950
       1.490
       0.981
       0.479
       0.034
      -0.301
      -0.485
      -0.512
      -0.443
      -0.393
      -0.463
      -0.684
      -0.989
      -1.271
      -1.444
      -1.490
      -1.448
      -1.375
      -1.300
      -1.215
      -1.093
      -0.921
      -0.707
      -0.468
      -0.221
       0.028
       0.280
       0.542
       0.810
       1.066
       1.283
       1.444
       1.543
       1.578
       1.539
       1.410
       1.186
       0.893
       0.589
       0.328
       0.125
      -0.065
      -0.311
      -0.641
      -1.015
      -1.341
      -1.538
      -1.586
      -1.516
      -1.361
      -1.118
      -0.757
      -0.282
       0.240
       0.711
       1.059
       1.276
       1.391
       1.425
       1.364
       1.159
       0.759
       0.159
      -0.569
      -1.294
      -1.878
      -2.240
      -2.376
      -2.331
      -2.144
      -1.822
      -1.358
      -0.767
      -0.094
       0.597
       1.252
       1.826
       2.283
       2.594
       2.753
       2.766
       2.642
       2.373
       1.948
       1.379
       0.713
       0.032
      -0.575
      -1.040
      -1.333
      -1.467
      -1.486
      -1.452
      -1.414
      -1.389
      -1.347
      -1.239
      -1.025
      -0.708
      -0.334
       0.011
       0.237
       0.294
       0.202
       0.030
      -0.152
      -0.306
      -0.423
      -0.496
      -0.509
      -0.450
      -0.322
      -0.134
       0.110
       0.416
       0.780
       1.167
       1.504
       1.701
       1.693
       1.466
       1.054
       0.510
      -0.114
      -0.774
      -1.424
      -2.010
      -2.469
      -2.749
      -2.830
      -2.732
      -2.487
      -2.108
      -1.579
      -0.881
      -0.014
       0.984
       2.036
       3.042
       3.888
       4.466
       4.704
       4.588
       4.181
       3.588
       2.903
       2.157
       1.327
       0.387
      -0.631
      -1.640
      -2.536
      -3.264
      -3.831
      -4.277
      -4.603
      -4.759
      -4.664
      -4.268
      -3.573
      -2.637
      -1.547
      -0.401
       0.707
       1.690
       2.476
       3.017
       3.298
       3.346
       3.218
       2.977
       2.671
       2.322
       1.928
       1.488
       1.015
       0.541
       0.096
      -0.300
      -0.630
      -0.873
      -1.007
      -1.027
      -0.962
      -0.868
      -0.811
      -0.844
      -0.990
      -1.226
      -1.491
      -1.697
      -1.761
      -1.635
      -1.333
      -0.918
      -0.462
      -0.007
       0.442
       0.892
       1.339
       1.752
       2.077
       2.253
       2.250
       2.085
       1.816
       1.511
       1.218
       0.950
       0.693
       0.424
       0.144
      -0.111
      -0.288
      -0.356
      -0.345
      -0.341
      -0.461
      -0.795
      -1.363
      -2.085
      -2.801
      -3.344
      -3.604
      -3.581
      -3.365
      -3.074
      -2.785
      -2.489
      -2.120
      -1.600
      -0.889
      -0.001
       0.999
       2.010
       2.918
       3.640
       4.150
       4.482
       4.693
       4.816
       4.835
       4.706
       4.394
       3.910
       3.290
       2.575
       1.779
       0.892
      -0.103
      -1.197
      -2.333
      -3.415
      -4.343
      -5.058
      -5.551
      -5.841
      -5.952
      -5.896
      -5.661
      -5.215
      -4.518
      -3.543
      -2.308
      -0.867
       0.699
       2.304
       3.870
       5.313
       6.533
       7.410
       7.835
       7.755
       7.213
       6.326
       5.227
       4.005
       2.682
       1.223
      -0.410
      -2.213
      -4.095
      -5.882
      -7.348
      -8.278
      -8.540
      -8.135
      -7.193
      -5.921
      -4.532
      -3.169
      -1.878
      -0.610
       0.713
       2.123
       3.549
       4.838
       5.821
       6.391
       6.541
       6.340
       5.891
       5.282
       4.578
       3.827
       3.060
       2.289
       1.495
       0.643
      -0.297
      -1.323
      -2.394
      -3.443
      -4.403
      -5.227
      -5.882
      -6.333
      -6.534
      -6.452
      -6.087
      -5.472
      -4.638
      -3.593
      -2.323
      -0.832
       0.825
       2.523
       4.098
       5.391
       6.286
       6.741
       6.778
       6.463
       5.858
       5.004
       3.924
       2.667
       1.324
       0.016
      -1.154
      -2.121
      -2.863
      -3.376
      -3.664
      -3.727
      -3.580
      -3.253
      -2.808
      -2.311
      -1.817
      -1.358
      -0.947
      -0.599
      -0.323
      -0.105
       0.096
       0.344
       0.673
       1.060
       1.438
       1.743
       1.959
       2.105
       2.205
       2.251
       2.198
       1.983
       1.558
       0.920
       0.114
      -0.786
      -1.694
      -2.528
      -3.202
      -3.631
      -3.749
      -3.523
      -2.966
      -2.142
      -1.170
      -0.198
       0.631
       1.232
       1.600
       1.793
       1.896
       1.970
       2.016
       1.975
       1.773
       1.390
       0.910
       0.500
       0.330
       0.467
       0.825
       1.207
       1.405
       1.306
       0.929
       0.377
      -0.238
      -0.857
      -1.459
      -2.000
      -2.387
      -2.513
      -2.327
      -1.877
      -1.282
      -0.665
      -0.102
       0.396
       0.850
       1.274
       1.642
       1.892
       1.954
       1.783
       1.379
       0.790
       0.108
      -0.553
      -1.086
      -1.417
      -1.527
      -1.439
      -1.198
      -0.856
      -0.472
      -0.124
       0.109
       0.186
       0.147
       0.083
       0.066
       0.077
       0.013
      -0.227
      -0.655
      -1.162
      -1.576
      -1.752
      -1.627
      -1.209
      -0.545
       0.305
       1.249
       2.169
       2.947
       3.503
       3.809
       3.855
       3.633
       3.148
       2.451
       1.656
       0.907
       0.306
      -0.155
      -0.592
      -1.152
      -1.913
      -2.814
      -3.685
      -4.327
      -4.608
      -4.509
      -4.099
      -3.477
      -2.733
      -1.938
      -1.139
      -0.362
       0.390
       1.119
       1.808
       2.416
       2.897
       3.207
       3.318
       3.217
       2.904
       2.405
       1.773
       1.096
       0.470
      -0.036
      -0.413
      -0.702
      -0.964
      -1.239
      -1.512
      -1.713
      -1.747
      -1.563
      -1.204
      -0.802
      -0.511
      -0.417
      -0.487
      -0.597
      -0.612
      -0.468
      -0.199
       0.103
       0.353
       0.511
       0.580
       0.563
       0.435
       0.150
      -0.291
      -0.796
      -1.196
      -1.336
      -1.161
      -0.742
      -0.204
       0.359
       0.934
       1.548
       2.194
       2.785
       3.180
       3.260
       2.986
       2.398
       1.572
       0.588
      -0.478
      -1.558
      -2.586
      -3.503
      -4.259
      -4.817
      -5.156
      -5.270
      -5.154
      -4.788
      -4.136
      -3.151
      -1.809
      -0.155
       1.677
       3.487
       5.067
       6.243
       6.901
       6.990
       6.531
       5.622
       4.433
       3.165
       1.998
       1.036
       0.294
      -0.274
      -0.714
      -1.040
      -1.232
      -1.285
      -1.251
      -1.241
      -1.372
      -1.689
      -2.132
      -2.580
      -2.937
      -3.181
      -3.349
      -3.466
      -3.502
      -3.371
      -2.978
      -2.275
      -1.292
      -0.139
       1.028
       2.052
       2.814
       3.269
       3.446
       3.420
       3.263
       3.012
       2.677
       2.266
       1.819
       1.401
       1.080
       0.873
       0.741
       0.606
       0.393
       0.048
      -0.462
      -1.145
      -1.954
      -2.773
      -3.436
      -3.789
      -3.765
      -3.412
      -2.851
      -2.199
      -1.499
      -0.727
       0.145
       1.090
       2.017
       2.827
       3.458
       3.906
       4.195
       4.324
       4.242
       3.866
       3.147
       2.115
       0.896
      -0.330
      -1.401
      -2.242
      -2.881
      -3.399
      -3.847
      -4.198
      -4.364
      -4.249
      -3.813
      -3.099
      -2.209
      -1.267
      -0.374
       0.404
       1.028
       1.481
       1.760
       1.889
       1.913
       1.894
       1.896
       1.956
       2.076
       2.232
       2.396
       2.538
       2.594
       2.463
       2.046
       1.330
       0.426
      -0.470
      -1.173
      -1.597
      -1.780
      -1.842
      -1.905
      -2.047
      -2.285
      -2.590
      -2.895
      -3.098
      -3.084
      -2.764
      -2.122
      -1.234
      -0.239
       0.729
       1.577
       2.260
       2.741
       2.980
       2.961
       2.721
       2.365
       2.015
       1.754
       1.577
       1.406
       1.151
       0.775
       0.327
      -0.096
      -0.414
      -0.616
      -0.772
      -1.003
      -1.415
      -2.031
      -2.766
      -3.458
      -3.942
      -4.120
      -3.982
      -3.573
      -2.943
      -2.102
      -1.038
       0.250
       1.698
       3.152
       4.402
       5.245
       5.567
       5.378
       4.783
       3.908
       2.852
       1.696
       0.536
      -0.510
      -1.352
      -1.983
      -2.480
      -2.929
      -3.345
      -3.635
      -3.671
      -3.392
      -2.857
      -2.198
      -1.522
      -0.864
      -0.209
       0.445
       1.053
       1.533
