Origin Time       4/2/2011 13:53:39	  UTC
Lat.              24.8 N	
Long.             94.6 E	
Depth (Km)         30.0
Magnitude         6.4
 Region           Myanmar-India-Border                                             
 Above details taken from IMD 
    
Station Code      JWI
Station Lat.       30.203  N
Station Long.      74.947  E
Station Height(m)  221.0
Site Class        B   Vs30 between 375 m/sec to 700 m/sec *  
Record Time       04.02.2011 13:54:18.124 UTC
Sampling Rate     200. Hz
 Record Duration   93.050 Sec.
 Direction         N-S (N positive)
Max. Acceleration     29.328 cm/sec**2
     
  * For reference see Site Classification link of website 
     
 Base Line Corrected and Low Pass Filtered (Cut Off at 35 Hz) Time History
 Acceleration data in cm/sec**2
    
[...]
      -1.124
      -1.157
      -0.984
      -0.562
       0.076
       0.805
       1.433
       1.770
       1.720
       1.329
       0.750
       0.149
      -0.361
      -0.720
      -0.924
      -1.048
      -1.245
      -1.653
      -2.244
      -2.763
      -2.816
      -2.107
      -0.646
       1.224
       3.016
       4.342
       5.035
       5.093
       4.570
       3.513
       1.988
       0.163
      -1.647
      -3.068
      -3.884
      -4.188
      -4.288
      -4.419
      -4.529
      -4.325
      -3.523
      -2.087
      -0.279
       1.493
       2.899
       3.832
       4.391
       4.737
       4.933
       4.884
       4.408
       3.380
       1.855
       0.060
      -1.715
      -3.254
      -4.470
      -5.344
      -5.801
      -5.684
      -4.867
      -3.386
      -1.450
       0.673
       2.744
       4.551
       5.861
       6.430
       6.072
       4.766
       2.720
       0.359
      -1.818
      -3.454
      -4.474
      -5.065
      -5.473
      -5.769
      -5.772
      -5.171
      -3.777
      -1.700
       0.677
       2.887
       4.588
       5.658
       6.139
       6.094
       5.521
       4.389
       2.718
       0.635
      -1.639
      -3.805
      -5.525
      -6.489
      -6.510
      -5.581
      -3.874
      -1.706
       0.524
       2.474
       4.019
       5.287
       6.468
       7.548
       8.184
       7.853
       6.191
       3.248
      -0.515
      -4.463
      -8.028
     -10.780
     -12.372
     -12.525
     -11.158
      -8.508
      -5.068
      -1.352
       2.319
       5.828
       9.066
      11.737
      13.355
      13.450
      11.815
       8.617
       4.336
      -0.387
      -4.902
      -8.686
     -11.424
     -12.971
     -13.260
     -12.239
      -9.916
      -6.447
      -2.166
       2.446
       6.849
      10.541
      13.152
      14.470
      14.392
      12.894
      10.072
       6.232
       1.912
      -2.248
      -5.729
      -8.320
     -10.111
     -11.280
     -11.848
     -11.611
     -10.345
      -8.074
      -5.154
      -2.067
       0.859
       3.545
       6.003
       8.115
       9.549
       9.882
       8.831
       6.471
       3.268
      -0.122
      -3.155
      -5.546
      -7.209
      -8.122
      -8.265
      -7.640
      -6.281
      -4.295
      -1.892
       0.646
       3.081
       5.284
       7.202
       8.765
       9.858
      10.334
      10.025
       8.779
       6.562
       3.576
       0.284
      -2.716
      -4.902
      -6.004
      -6.082
      -5.459
      -4.520
      -3.522
      -2.526
      -1.479
      -0.356
       0.767
       1.734
       2.387
       2.627
       2.446
       1.897
       1.069
       0.099
      -0.777
      -1.252
      -1.087
      -0.280
       0.890
       1.986
       2.594
       2.472
       1.593
       0.115
      -1.721
      -3.681
      -5.560
      -7.112
      -8.003
      -7.881
      -6.573
      -4.235
      -1.335
       1.533
       3.874
       5.426
       6.169
       6.193
       5.546
       4.210
       2.223
      -0.183
      -2.596
      -4.576
      -5.799
      -6.100
      -5.478
      -4.123
      -2.376
      -0.579
       1.082
       2.627
       4.186
       5.827
       7.392
       8.469
       8.552
       7.302
       4.759
       1.392
      -2.029
      -4.699
      -6.115
      -6.266
      -5.550
      -4.461
      -3.336
      -2.314
      -1.430
      -0.679
      -0.003
       0.712
       1.583
       2.646
       3.807
       4.823
       5.375
       5.207
       4.256
       2.678
       0.747
      -1.256
      -3.079
      -4.487
      -5.282
      -5.356
      -4.790
      -3.894
      -3.115
      -2.786
      -2.882
      -3.044
      -2.899
      -2.404
      -1.854
      -1.566
      -1.538
      -1.381
      -0.595
       1.055
       3.315
       5.572
       7.205
       7.851
       7.420
       5.969
       3.676
       0.923
      -1.708
      -3.628
      -4.495
      -4.350
      -3.556
      -2.568
      -1.690
      -0.939
      -0.097
       1.109
       2.801
       4.812
       6.696
       7.914
       8.107
       7.258
       5.595
       3.361
       0.663
      -2.444
      -5.766
      -8.845
     -11.052
     -11.850
     -11.060
      -8.944
      -6.057
      -2.974
      -0.097
       2.332
       4.093
       4.978
       4.953
       4.332
       3.696
       3.525
       3.827
       4.108
       3.732
       2.417
       0.446
      -1.548
      -3.042
      -3.935
      -4.490
      -5.001
      -5.454
      -5.476
      -4.642
      -2.896
      -0.704
       1.282
       2.779
       4.092
       5.772
       8.058
      10.630
      12.818
      13.960
      13.599
      11.524
       7.818
       2.914
      -2.463
      -7.496
     -11.513
     -14.119
     -15.153
     -14.579
     -12.417
      -8.807
      -4.135
       0.956
       5.741
       9.653
      12.376
      13.774
      13.812
      12.560
      10.246
       7.236
       3.920
       0.572
      -2.753
      -6.187
      -9.878
     -13.757
     -17.400
     -20.107
     -21.157
     -20.135
     -17.135
     -12.699
      -7.509
      -2.089
       3.252
       8.237
      12.461
      15.425
      16.717
      16.145
      13.795
      10.034
       5.482
       0.902
      -2.970
      -5.589
      -6.702
      -6.378
      -4.931
      -2.782
      -0.311
       2.228
       4.711
       7.073
       9.173
      10.710
      11.303
      10.718
       9.023
       6.502
       3.392
      -0.289
      -4.608
      -9.388
     -14.003
     -17.528
     -19.178
     -18.698
     -16.430
     -13.040
      -9.150
      -5.134
      -1.166
       2.626
       6.079
       9.019
      11.303
      12.809
      13.408
      13.012
      11.641
       9.447
       6.631
       3.338
      -0.345
      -4.301
      -8.289
     -11.943
     -14.853
     -16.643
     -17.010
     -15.768
     -12.925
      -8.734
      -3.625
       1.947
       7.616
      13.067
      17.907
      21.609
      23.606
      23.523
      21.363
      17.507
      12.487
       6.718
       0.447
      -6.049
     -12.212
     -17.178
     -20.066
     -20.406
     -18.411
     -14.929
     -11.072
      -7.729
      -5.223
      -3.309
      -1.475
       0.678
       3.202
       5.797
       7.998
       9.432
      10.008
       9.926
       9.511
       9.010
       8.488
       7.859
       6.944
       5.519
       3.375
       0.457
      -2.977
      -6.309
      -8.777
      -9.868
      -9.584
      -8.353
      -6.651
      -4.718
      -2.607
      -0.455
       1.354
       2.353
       2.343
       1.603
       0.743
       0.326
       0.558
       1.247
       1.961
       2.219
       1.673
       0.253
      -1.742
      -3.712
      -4.983
      -5.125
      -4.148
      -2.436
      -0.472
       1.384
       2.911
       3.920
       4.277
       4.075
       3.717
       3.739
       4.440
       5.648
       6.808
       7.328
       6.923
       5.711
       4.021
       2.088
      -0.109
      -2.749
      -5.924
      -9.464
     -12.956
     -15.904
     -17.891
     -18.661
     -18.092
     -16.119
     -12.690
      -7.842
      -1.845
       4.685
      10.845
      15.698
      18.585
      19.327
      18.201
      15.744
      12.512
       8.943
       5.352
       1.967
      -1.063
      -3.716
      -6.070
      -8.158
      -9.826
     -10.792
     -10.885
     -10.230
      -9.152
      -7.876
      -6.337
      -4.290
      -1.610
       1.489
       4.470
       6.676
       7.609
       7.115
       5.393
       2.826
      -0.200
      -3.340
      -6.195
      -8.241
      -8.917
      -7.902
      -5.371
      -1.998
       1.363
       4.088
       5.994
       7.241
       8.073
       8.587
       8.685
       8.217
       7.163
       5.709
       4.119
       2.571
       1.085
      -0.374
      -1.729
      -2.739
      -3.176
      -3.096
      -2.887
      -2.983
      -3.479
      -3.999
      -3.976
      -3.126
      -1.713
      -0.368
       0.356
       0.319
      -0.260
      -1.089
      -2.011
      -2.961
      -3.800
      -4.279
      -4.256
      -3.975
      -4.049
      -4.994
      -6.654
      -8.090
      -8.134
      -6.176
      -2.496
       2.076
       6.763
      11.133
      14.931
      17.819
      19.366
      19.289
      17.625
      14.674
      10.802
       6.323
       1.542
      -3.118
      -7.099
      -9.875
     -11.176
     -11.078
      -9.902
      -8.040
      -5.812
      -3.406
      -0.902
       1.639
       4.081
       6.180
       7.582
       7.851
       6.559
       3.509
      -1.038
      -6.307
     -11.212
     -14.714
     -16.185
     -15.604
     -13.486
     -10.545
      -7.351
      -4.211
      -1.281
       1.312
       3.513
       5.431
       7.324
       9.441
      11.869
      14.491
      17.001
      18.916
      19.581
      18.299
      14.674
       8.984
       2.265
      -4.062
      -8.835
     -11.633
     -12.771
     -12.891
     -12.458
     -11.531
      -9.858
      -7.176
      -3.490
       0.863
       5.341
       9.381
      12.470
      14.169
      14.204
      12.603
       9.689
       5.869
       1.438
      -3.408
      -8.392
     -13.043
     -16.750
     -18.916
     -19.126
     -17.321
     -13.915
      -9.787
      -6.051
      -3.642
      -2.906
      -3.452
      -4.380
      -4.738
      -3.928
      -1.844
       1.225
       4.785
       8.318
      11.384
      13.659
      14.909
      14.947
      13.655
      11.043
       7.294
       2.789
      -1.868
      -5.895
      -8.497
      -9.112
      -7.615
      -4.364
      -0.087
       4.372
       8.328
      11.373
      13.271
      13.823
      12.945
      10.922
       8.496
       6.535
       5.499
       5.143
       4.717
       3.469
       1.064
      -2.363
      -6.412
     -10.594
     -14.318
     -16.855
     -17.597
     -16.519
     -14.422
     -12.587
     -12.008
     -12.742
     -13.871
     -14.109
     -12.612
      -9.400
      -5.128
      -0.469
       4.330
       9.366
      14.632
      19.646
      23.484
      25.163
      24.083
      20.230
      14.123
       6.604
      -1.384
      -8.956
     -15.314
     -19.726
     -21.597
     -20.676
     -17.288
     -12.337
      -6.997
      -2.206
       1.719
       5.104
       8.517
      12.190
      15.718
      18.263
      19.056
      17.777
      14.599
      10.035
       4.784
      -0.393
      -4.803
      -7.993
      -9.867
     -10.663
     -10.777
     -10.510
      -9.959
      -9.155
      -8.271
      -7.619
      -7.400
      -7.462
      -7.333
      -6.503
      -4.686
      -1.927
       1.439
       4.874
       7.729
       9.416
       9.636
       8.557
       6.783
       5.084
       4.058
       3.943
       4.687
       6.095
       7.892
       9.671
      10.866
      10.865
       9.259
       6.069
       1.789
      -2.820
      -7.036
     -10.362
     -12.491
     -13.171
     -12.161
      -9.406
      -5.288
      -0.714
       3.163
       5.466
       5.991
       5.196
       3.820
       2.457
       1.355
       0.464
      -0.395
      -1.380
      -2.587
      -4.104
      -6.054
      -8.490
     -11.180
     -13.525
     -14.810
     -14.657
     -13.279
     -11.281
      -9.166
      -6.970
      -4.321
      -0.856
       3.340
       7.649
      11.247
      13.554
      14.473
      14.322
      13.632
      12.939
      12.610
      12.708
      12.986
      13.012
      12.359
      10.778
       8.327
       5.400
       2.580
       0.367
      -1.098
      -2.096
      -3.127
      -4.529
      -6.208
      -7.701
      -8.548
      -8.626
      -8.154
      -7.416
      -6.521
      -5.409
      -4.043
      -2.562
      -1.278
      -0.537
      -0.518
      -1.124
      -2.075
      -3.140
      -4.248
      -5.375
      -6.364
      -6.932
      -6.879
      -6.269
      -5.427
      -4.751
      -4.484
      -4.557
      -4.625
      -4.293
      -3.331
      -1.714
       0.507
       3.288
       6.506
       9.822
      12.635
      14.209
      13.961
      11.798
       8.295
       4.503
       1.440
      -0.383
      -1.068
      -1.099
      -1.003
      -1.094
      -1.354
      -1.482
      -1.121
      -0.160
       1.135
       2.278
       2.885
       2.882
       2.436
       1.705
       0.628
      -1.039
      -3.478
      -6.553
      -9.754
     -12.398
     -13.923
     -14.115
     -13.127
     -11.317
      -9.040
      -6.528
      -3.918
      -1.297
       1.304
       3.904
       6.448
       8.627
       9.891
       9.771
       8.255
       5.882
       3.409
       1.360
      -0.158
      -1.274
      -2.015
      -2.156
      -1.359
       0.549
       3.370
       6.527
       9.241
      10.795
      10.816
       9.411
       7.103
       4.535
       2.125
      -0.103
      -2.392
      -4.948
      -7.700
     -10.259
     -12.017
     -12.374
     -11.057
      -8.365
      -5.045
      -1.814
       1.064
       3.729
       6.313
       8.650
      10.359
      11.090
      10.600
       8.705
       5.332
       0.742
      -4.348
      -8.970
     -12.385
     -14.460
     -15.597
     -16.234
     -16.344
     -15.430
     -13.013
      -9.118
      -4.278
       0.893
       6.104
      11.383
      16.770
      22.004
      26.424
      29.135
      29.328
      26.613
      21.204
      13.887
       5.772
      -2.042
      -8.737
     -13.896
     -17.437
     -19.453
     -20.043
     -19.243
     -17.040
     -13.445
      -8.582
      -2.780
       3.390
       9.185
      13.854
      16.795
      17.687
      16.514
      13.488
       8.908
       3.120
      -3.379
      -9.793
     -15.068
     -18.215
     -18.755
     -16.972
     -13.731
      -9.961
      -6.185
      -2.472
       1.211
       4.642
       7.350
       8.962
       9.490
       9.247
       8.485
       7.157
       5.060
       2.215
      -0.918
      -3.628
      -5.404
      -6.258
      -6.596
      -6.729
      -6.504
      -5.401
      -3.001
       0.675
       5.198
      10.007
      14.573
      18.323
      20.493
      20.212
      16.920
      10.830
       3.016
      -5.016
     -11.950
     -17.065
     -20.251
     -21.786
     -22.021
     -21.053
     -18.582
     -14.165
      -7.769
      -0.143
       7.377
      13.492
      17.494
      19.374
      19.531
      18.402
      16.277
      13.299
       9.539
       5.048
      -0.054
      -5.473
     -10.691
     -15.020
     -17.703
     -18.029
     -15.543
     -10.377
      -3.486
       3.517
       8.959
      11.794
      11.925
      10.019
       6.980
       3.466
      -0.239
      -4.004
      -7.542
     -10.335
     -11.848
     -11.837
     -10.500
      -8.334
      -5.827
      -3.194
      -0.378
       2.697
       5.829
       8.457
       9.902
       9.789
       8.329
       6.205
       4.112
       2.328
       0.724
      -0.861
      -2.340
      -3.486
      -4.249
      -4.889
      -5.726
      -6.725
      -7.361
      -7.019
      -5.619
      -3.842
      -2.640
      -2.432
      -2.717
      -2.451
      -0.836
       2.133
       5.726
       8.954
      11.019
      11.518
      10.458
       8.210
       5.344
       2.353
      -0.510
      -3.105
      -5.178
      -6.370
      -6.517
      -5.860
      -4.865
      -3.766
      -2.279
       0.174
       3.870
       8.282
      12.178
      14.307
      14.146
      12.119
       9.158
       6.020
       2.920
      -0.309
      -3.726
      -6.942
      -9.264
     -10.180
      -9.727
      -8.422
      -6.857
      -5.351
      -3.904
      -2.412
      -0.931
       0.243
       0.767
       0.545
      -0.152
      -0.880
      -1.330
      -1.502
      -1.639
      -2.022
      -2.757
      -3.650
      -4.278
      -4.169
      -2.978
      -0.596
       2.747
       6.413
       9.475
      11.093
      10.971
       9.525
       7.559
       5.685
       3.952
       1.974
      -0.573
      -3.523
      -6.202
      -7.863
      -8.251
      -7.829
      -7.427
      -7.551
      -7.888
      -7.438
      -5.244
      -1.178
       3.820
       8.297
      11.176
      12.271
      12.078
      11.146
       9.631
       7.359
       4.198
       0.365
      -3.548
      -6.803
      -8.879
      -9.747
      -9.865
      -9.800
      -9.765
      -9.448
      -8.276
      -5.861
      -2.286
       1.881
       5.796
       8.670
      10.101
      10.214
       9.463
       8.257
       6.714
       4.714
       2.161
      -0.780
      -3.662
      -5.980
      -7.454
      -8.129
      -8.200
      -7.767
      -6.789
      -5.241
      -3.309
      -1.416
      -0.035
       0.588
       0.610
       0.503
       0.742
       1.495
       2.568
       3.616
       4.415
       4.954
       5.251
       5.108
       4.107
       1.940
      -1.141
      -4.201
      -6.070
      -6.097
      -4.638
      -2.819
      -1.725
      -1.649
      -2.003
      -1.905
      -0.913
       0.715
       2.333
       3.405
       3.706
       3.230
       2.074
       0.490
      -1.103
      -2.313
      -3.052
      -3.581
      -4.235
      -5.109
      -5.986
      -6.482
      -6.195
      -4.819
      -2.299
       1.039
       4.549
       7.540
       9.564
      10.542
      10.690
      10.358
       9.888
       9.505
       9.246
       8.924
       8.191
       6.740
       4.523
       1.847
      -0.747
      -2.756
      -4.011
      -4.807
      -5.746
      -7.293
      -9.333
     -11.092
     -11.627
     -10.501
      -8.072
      -5.129
      -2.295
       0.247
       2.539
       4.533
       6.014
       6.781
       6.856
       6.516
       6.109
       5.781
       5.290
       4.061
       1.499
      -2.565
      -7.546
     -12.211
     -15.247
     -15.951
     -14.533
     -11.828
      -8.696
      -5.607
      -2.642
       0.253
       3.085
       5.806
       8.377
      10.722
      12.622
      13.679
      13.426
      11.558
       8.105
       3.433
      -1.887
      -7.146
     -11.477
     -13.924
     -13.753
     -10.857
      -5.882
       0.068
       5.944
      11.122
      15.370
      18.539
      20.306
      20.251
      18.153
      14.186
       8.795
       2.481
      -4.239
     -10.687
     -15.994
     -19.395
     -20.634
     -20.111
     -18.585
     -16.687
     -14.581
     -12.027
      -8.707
      -4.546
       0.196
       5.082
       9.708
      13.753
      16.831
      18.352
      17.690
      14.620
       9.654
       3.911
      -1.378
      -5.329
      -7.522
      -7.906
      -6.713
      -4.478
      -2.006
      -0.127
       0.710
       0.708
       0.557
       0.920
       1.984
       3.454
       4.881
       5.976
       6.649
       6.853
       6.393
       4.910
       2.098
      -1.971
      -6.680
     -11.063
     -14.206
     -15.557
     -14.988
     -12.681
      -9.031
      -4.605
      -0.115
       3.669
       6.122
       6.979
       6.393
       4.724
       2.278
      -0.728
      -3.983
      -6.992
      -9.261
     -10.573
     -11.015
