Origin Time       4/2/2011 13:53:39	 
Lat.              24.8 N	
Long.             94.6 E	
Depth (Km)         30.0
Magnitude         6.4
 Region           Myanmar-India-Border                                             
 Above details taken from IMD 
     
Station Code      JWI
Station Lat.       30.203  N
Station Long.      74.947  E
Station Height(m)  221.0
Site Class        B   Vs30 between 375 m/sec to 700 m/sec *  
Record Time       04.02.2011 13:54:18.124
Sampling Rate     200. Hz
 Record Duration   93.050 Sec.
 Direction         E-W (E positive)
Max. Acceleration    -35.119 cm/sec**2
     
  * For reference see Site Classification link of website 
     
 Base Line Corrected and Low Pass Filtered (Cut Off at 35 Hz) Time History
 Acceleration data in cm/sec**2
    
[...]
      -1.794
      -1.878
      -1.694
      -1.331
      -0.869
      -0.358
       0.200
       0.820
       1.469
       2.004
       2.204
       1.905
       1.164
       0.282
      -0.352
      -0.523
      -0.324
      -0.075
      -0.069
      -0.352
      -0.722
      -0.917
      -0.846
      -0.631
      -0.459
      -0.395
      -0.353
      -0.230
      -0.048
       0.047
      -0.043
      -0.227
      -0.275
      -0.036
       0.377
       0.663
       0.605
       0.276
      -0.045
      -0.153
      -0.071
       0.033
       0.054
       0.035
       0.066
       0.148
       0.155
      -0.040
      -0.421
      -0.807
      -0.973
      -0.805
      -0.360
       0.204
       0.740
       1.160
       1.409
       1.401
       1.037
       0.298
      -0.648
      -1.461
      -1.814
      -1.600
      -0.986
      -0.233
       0.506
       1.200
       1.790
       2.080
       1.860
       1.143
       0.253
      -0.378
      -0.535
      -0.333
      -0.035
       0.186
       0.287
       0.219
      -0.117
      -0.727
      -1.410
      -1.865
      -1.931
      -1.674
      -1.236
      -0.652
       0.135
       1.069
       1.853
       2.079
       1.539
       0.450
      -0.659
      -1.312
      -1.402
      -1.179
      -0.952
      -0.818
      -0.667
      -0.422
      -0.225
      -0.327
      -0.761
      -1.204
      -1.239
      -0.779
      -0.170
       0.172
       0.199
       0.268
       0.744
       1.595
       2.402
       2.719
       2.394
       1.593
       0.606
      -0.342
      -1.138
      -1.719
      -2.023
      -2.009
      -1.697
      -1.177
      -0.574
      -0.008
       0.435
       0.723
       0.872
       0.935
       0.991
       1.144
       1.505
       2.115
       2.841
       3.337
       3.167
       2.048
       0.074
      -2.243
      -4.204
      -5.265
      -5.280
      -4.461
      -3.127
      -1.505
       0.256
       1.931
       3.165
       3.648
       3.355
       2.614
       1.883
       1.408
       1.070
       0.550
      -0.328
      -1.396
      -2.256
      -2.596
      -2.400
      -1.867
      -1.186
      -0.442
       0.272
       0.776
       0.927
       0.845
       0.896
       1.358
       2.089
       2.570
       2.353
       1.460
       0.367
      -0.408
      -0.689
      -0.665
      -0.632
      -0.732
      -0.906
      -1.014
      -0.978
      -0.810
      -0.564
      -0.305
      -0.108
      -0.072
      -0.265
      -0.627
      -0.946
      -0.949
      -0.476
       0.424
       1.528
       2.541
       3.206
       3.353
       2.924
       1.984
       0.730
      -0.545
      -1.566
      -2.189
      -2.444
      -2.465
      -2.388
      -2.275
      -2.096
      -1.780
      -1.288
      -0.658
       0.020
       0.668
       1.264
       1.817
       2.318
       2.693
       2.801
       2.469
       1.594
       0.267
      -1.168
      -2.229
      -2.567
      -2.206
      -1.518
      -0.929
      -0.600
      -0.368
       0.003
       0.544
       1.044
       1.274
       1.190
       0.926
       0.616
       0.282
      -0.113
      -0.537
      -0.879
      -1.048
      -1.057
      -0.980
      -0.850
      -0.619
      -0.215
       0.354
       0.957
       1.398
       1.528
       1.336
       0.931
       0.442
      -0.064
      -0.572
      -1.054
      -1.429
      -1.600
      -1.524
      -1.258
      -0.936
      -0.690
      -0.567
      -0.502
      -0.382
      -0.149
       0.147
       0.381
       0.452
       0.350
       0.148
      -0.024
      -0.044
       0.145
       0.469
       0.749
       0.828
       0.722
       0.606
       0.635
       0.762
       0.794
       0.594
       0.229
      -0.116
      -0.334
      -0.493
      -0.744
      -1.123
      -1.456
      -1.465
      -0.988
      -0.134
       0.785
       1.465
       1.794
       1.859
       1.783
       1.583
       1.179
       0.543
      -0.183
      -0.768
      -1.077
      -1.175
      -1.196
      -1.166
      -0.977
      -0.564
      -0.056
       0.285
       0.290
       0.042
      -0.204
      -0.242
      -0.065
       0.197
       0.430
       0.591
       0.637
       0.462
      -0.021
      -0.729
      -1.373
      -1.597
      -1.196
      -0.254
       0.896
       1.830
       2.231
       2.001
       1.246
       0.175
      -0.976
      -1.933
      -2.376
      -2.068
      -1.059
       0.243
       1.257
       1.567
       1.148
       0.338
      -0.392
      -0.680
      -0.428
       0.179
       0.757
       0.929
       0.560
      -0.145
      -0.785
      -1.042
      -0.862
      -0.430
      -0.015
       0.187
       0.129
      -0.067
      -0.189
      -0.093
       0.169
       0.366
       0.264
      -0.167
      -0.704
      -1.028
      -0.967
      -0.599
      -0.124
       0.327
       0.742
       1.102
       1.304
       1.239
       0.959
       0.682
       0.620
       0.783
       0.980
       1.010
       0.844
       0.623
       0.490
       0.437
       0.307
      -0.032
      -0.534
      -0.968
      -1.095
      -0.860
      -0.440
      -0.102
       0.005
      -0.047
      -0.062
       0.066
       0.242
       0.271
       0.074
      -0.201
      -0.281
       0.003
       0.564
       1.093
       1.265
       0.948
       0.276
      -0.487
      -1.182
      -1.827
      -2.437
      -2.823
      -2.664
      -1.850
      -0.694
       0.273
       0.753
       0.898
       1.064
       1.401
       1.737
       1.839
       1.701
       1.510
       1.377
       1.191
       0.785
       0.191
      -0.335
      -0.557
      -0.508
      -0.483
      -0.755
      -1.286
      -1.720
      -1.675
      -1.068
      -0.156
       0.704
       1.307
       1.625
       1.643
       1.285
       0.535
      -0.386
      -1.067
      -1.193
      -0.824
      -0.363
      -0.215
      -0.462
      -0.870
      -1.187
      -1.352
      -1.428
      -1.386
      -1.071
      -0.394
       0.497
       1.295
       1.784
       1.995
       2.084
       2.090
       1.854
       1.219
       0.279
      -0.595
      -1.030
      -0.967
      -0.695
      -0.586
      -0.792
      -1.160
      -1.394
      -1.270
      -0.745
       0.059
       0.918
       1.606
       1.978
       2.017
       1.780
       1.317
       0.644
      -0.203
      -1.100
      -1.865
      -2.342
      -2.488
      -2.374
      -2.119
      -1.800
      -1.373
      -0.688
       0.378
       1.740
       3.057
       3.910
       4.078
       3.667
       2.977
       2.265
       1.624
       1.021
       0.399
      -0.281
      -1.059
      -1.982
      -3.052
      -4.141
      -4.955
      -5.159
      -4.595
      -3.414
      -1.949
      -0.457
       1.003
       2.409
       3.566
       4.128
       3.870
       2.913
       1.655
       0.490
      -0.383
      -0.902
      -1.010
      -0.663
       0.023
       0.714
       1.018
       0.737
      -0.018
      -0.920
      -1.642
      -2.024
      -2.087
      -1.899
      -1.461
      -0.708
       0.351
       1.537
       2.538
       3.060
       2.960
       2.298
       1.292
       0.234
      -0.621
      -1.130
      -1.276
      -1.124
      -0.784
      -0.395
      -0.099
      -0.001
      -0.148
      -0.521
      -1.039
      -1.545
      -1.816
      -1.617
      -0.829
       0.408
       1.681
       2.504
       2.601
       2.059
       1.226
       0.464
      -0.026
      -0.237
      -0.290
      -0.346
      -0.502
      -0.696
      -0.700
      -0.286
       0.578
       1.655
       2.586
       3.116
       3.210
       3.005
       2.688
       2.423
       2.293
       2.214
       1.874
       0.817
      -1.262
      -4.210
      -7.354
      -9.830
     -11.025
     -10.754
      -9.114
      -6.302
      -2.654
       1.228
       4.550
       6.671
       7.461
       7.317
       6.844
       6.441
       6.141
       5.756
       5.126
       4.229
       3.117
       1.813
       0.299
      -1.431
      -3.361
      -5.427
      -7.443
      -9.009
      -9.578
      -8.723
      -6.429
      -3.162
       0.331
       3.322
       5.310
       6.128
       5.955
       5.226
       4.370
       3.557
       2.649
       1.442
      -0.038
      -1.477
      -2.498
      -2.922
      -2.833
      -2.410
      -1.757
      -0.865
       0.283
       1.606
       2.921
       4.017
       4.715
       4.888
       4.457
       3.417
       1.869
      -0.001
      -2.003
      -3.998
      -5.851
      -7.333
      -8.079
      -7.717
      -6.083
      -3.358
      -0.004
       3.447
       6.542
       8.902
      10.151
       9.923
       8.022
       4.602
       0.224
      -4.303
      -8.220
     -11.083
     -12.777
     -13.288
     -12.488
     -10.192
      -6.447
      -1.707
       3.315
       7.945
      11.718
      14.337
      15.580
      15.320
      13.614
      10.770
       7.266
       3.530
      -0.258
      -4.144
      -8.108
     -11.750
     -14.287
     -14.953
     -13.463
     -10.177
      -5.836
      -1.154
       3.346
       7.197
       9.798
      10.517
       9.081
       5.911
       2.013
      -1.578
      -4.359
      -6.452
      -8.156
      -9.435
      -9.855
      -9.039
      -7.127
      -4.742
      -2.448
      -0.253
       2.309
       5.538
       9.041
      11.862
      13.154
      12.719
      10.965
       8.428
       5.429
       2.156
      -1.009
      -3.366
      -4.245
      -3.540
      -1.902
      -0.348
       0.400
       0.282
      -0.285
      -0.865
      -1.319
      -1.785
      -2.432
      -3.259
      -4.079
      -4.629
      -4.687
      -4.100
      -2.791
      -0.796
       1.658
       4.147
       6.148
       7.185
       6.978
       5.547
       3.233
       0.569
      -1.955
      -4.112
      -5.947
      -7.573
      -8.913
      -9.603
      -9.195
      -7.527
      -4.933
      -2.064
       0.552
       2.774
       4.698
       6.299
       7.305
       7.429
       6.658
       5.277
       3.680
       2.201
       1.081
       0.452
       0.265
       0.284
       0.229
      -0.057
      -0.575
      -1.263
      -2.017
      -2.592
      -2.572
      -1.596
       0.252
       2.293
       3.569
       3.451
       2.002
      -0.180
      -2.416
      -4.234
      -5.302
      -5.277
      -3.917
      -1.371
       1.681
       4.305
       5.775
       5.851
       4.672
       2.486
      -0.477
      -3.851
      -6.934
      -8.784
      -8.678
      -6.636
      -3.525
      -0.590
       1.262
       1.894
       1.790
       1.564
       1.570
       1.874
       2.467
       3.437
       4.874
       6.593
       7.987
       8.218
       6.699
       3.490
      -0.694
      -4.872
      -8.244
     -10.351
     -10.936
      -9.843
      -7.173
      -3.514
       0.124
       2.764
       3.936
       3.785
       2.808
       1.549
       0.463
      -0.083
       0.130
       1.044
       2.243
       3.077
       2.957
       1.665
      -0.542
      -3.086
      -5.369
      -6.989
      -7.802
      -7.883
      -7.447
      -6.724
      -5.810
      -4.598
      -2.866
      -0.470
       2.534
       5.931
       9.462
      12.875
      15.846
      17.846
      18.124
      15.981
      11.232
       4.527
      -2.797
      -9.304
     -14.055
     -16.810
     -17.802
     -17.415
     -15.990
     -13.757
     -10.776
      -6.938
      -2.138
       3.463
       9.331
      14.758
      19.181
      22.320
      24.009
      23.942
      21.645
      16.751
       9.383
       0.365
      -8.908
     -16.900
     -22.454
     -25.110
     -25.095
     -23.062
     -19.785
     -15.971
     -12.174
      -8.747
      -5.761
      -2.961
       0.106
       3.757
       7.854
      11.800
      14.865
      16.566
      16.788
      15.631
      13.269
       9.982
       6.237
       2.579
      -0.621
      -3.239
      -5.235
      -6.491
      -6.940
      -6.837
      -6.756
      -7.149
      -7.859
      -8.123
      -7.123
      -4.641
      -1.244
       2.084
       4.511
       5.695
       5.770
       5.132
       4.234
       3.435
       2.886
       2.427
       1.582
      -0.228
      -3.293
      -7.277
     -11.240
     -14.054
     -14.895
     -13.444
      -9.797
      -4.344
       2.187
       8.704
      14.039
      17.501
      19.223
      19.826
      19.668
      18.425
      15.488
      10.768
       5.005
      -0.757
      -6.001
     -10.980
     -16.147
     -21.326
     -25.429
     -26.936
     -24.728
     -18.654
      -9.561
       1.096
      11.722
      20.888
      27.448
      30.572
      29.822
      25.285
      17.653
       8.132
      -1.861
     -11.058
     -18.557
     -23.803
     -26.496
     -26.585
     -24.366
     -20.501
     -15.821
     -10.968
      -6.102
      -0.923
       4.974
      11.622
      18.444
      24.366
      28.153
      28.778
      25.733
      19.291
      10.596
       1.380
      -6.689
     -12.668
     -16.556
     -18.926
     -20.322
     -20.847
     -20.174
     -17.840
     -13.615
      -7.742
      -0.949
       5.821
      11.828
      16.824
      20.977
      24.509
      27.383
      29.293
      29.902
      29.007
      26.504
      22.269
      16.243
       8.674
       0.229
      -8.259
     -16.181
     -23.271
     -29.283
     -33.573
     -35.119
     -33.125
     -27.744
     -20.224
     -12.274
      -5.186
       0.549
       4.930
       7.948
       9.455
       9.413
       8.111
       6.031
       3.500
       0.543
      -2.915
      -6.706
     -10.341
     -13.231
     -14.940
     -15.201
     -13.771
     -10.380
      -4.907
       2.351
      10.577
      18.589
      25.111
      28.991
      29.388
      26.069
      19.750
      12.101
       5.120
       0.161
      -2.694
      -4.395
      -5.996
      -7.799
      -9.204
      -9.276
      -7.472
      -3.929
       0.768
       6.013
      11.334
      16.190
      19.702
      20.790
      18.738
      13.756
       6.977
      -0.207
      -6.931
     -13.099
     -18.934
     -24.303
     -28.454
     -30.403
     -29.633
     -26.547
     -22.298
     -18.105
     -14.569
     -11.463
      -8.153
      -4.255
       0.013
       4.062
       7.435
      10.039
      11.866
      12.576
      11.517
       8.304
       3.422
      -1.767
      -5.721
      -7.525
      -7.215
      -5.482
      -3.108
      -0.581
       1.948
       4.478
       6.971
       9.367
      11.734
      14.359
      17.567
      21.351
      25.058
      27.444
      27.197
      23.688
      17.425
       9.830
       2.429
      -3.923
      -9.243
     -13.976
     -18.298
     -21.715
     -23.270
     -22.230
     -18.753
     -13.987
      -9.489
      -6.359
      -4.732
      -3.921
      -3.001
      -1.328
       1.284
       4.613
       8.074
      10.721
      11.481
       9.701
       5.658
       0.476
      -4.626
      -9.092
     -13.035
     -16.492
     -18.864
     -19.241
     -17.306
     -13.798
      -9.934
      -6.385
      -2.841
       1.384
       6.410
      11.537
      15.885
      19.121
      21.434
      22.885
      23.007
      21.168
      17.303
      12.194
       6.996
       2.484
      -1.311
      -4.802
      -8.243
     -11.360
     -13.467
     -13.895
     -12.345
      -8.965
      -4.250
       1.031
       5.875
       9.254
      10.521
       9.737
       7.617
       5.070
       2.732
       0.779
      -0.983
      -2.952
      -5.558
      -8.988
     -12.837
     -16.047
     -17.443
     -16.542
     -13.880
     -10.477
      -6.963
      -3.261
       0.934
       5.517
       9.876
      13.346
      15.556
      16.326
      15.417
      12.623
       8.160
       2.821
      -2.362
      -6.669
      -9.885
     -12.017
     -12.885
     -12.057
      -9.202
      -4.497
       1.302
       7.151
      12.135
      15.732
      17.817
      18.448
      17.604
      15.129
      10.996
       5.693
       0.321
      -3.859
      -6.217
      -7.226
      -8.093
      -9.729
     -11.888
     -13.279
     -12.594
      -9.529
      -4.909
       0.081
       4.700
       8.718
      11.859
      13.471
      12.933
      10.402
       6.991
       4.067
       2.260
       1.103
      -0.414
      -2.961
      -6.426
     -10.191
     -13.720
     -16.847
     -19.484
     -21.125
     -20.750
     -17.390
     -10.957
      -2.633
       5.598
      12.011
      16.001
      18.107
      19.238
      19.793
      19.410
      17.492
      13.958
       9.484
       4.987
       0.883
      -3.101
      -7.335
     -11.520
     -14.588
     -15.443
     -13.877
     -10.827
      -7.700
      -5.343
      -3.484
      -1.087
       2.732
       7.978
      13.756
      18.816
      22.079
      22.787
      20.459
      15.042
       7.277
      -1.247
      -8.687
     -13.858
     -16.740
     -18.187
     -19.160
     -20.127
     -20.980
     -21.342
     -20.896
     -19.500
     -17.095
     -13.580
      -8.784
      -2.576
       4.900
      12.992
      20.526
      26.111
      28.622
      27.594
      23.333
      16.754
       9.035
       1.250
      -5.854
     -11.827
     -16.325
     -19.010
     -19.681
     -18.475
     -15.843
     -12.214
      -7.679
      -2.078
       4.538
      11.557
      17.964
      22.875
      25.916
      27.069
      26.267
      23.298
      18.196
      11.665
       4.933
      -0.933
      -5.665
      -9.842
     -14.304
     -19.343
     -24.218
     -27.382
     -27.403
     -24.008
     -18.432
     -12.682
      -8.254
      -5.348
      -3.188
      -1.027
       1.177
       2.924
       3.818
       3.928
       3.563
       2.843
       1.600
      -0.302
      -2.579
      -4.505
      -5.281
      -4.500
      -2.396
       0.230
       2.353
       3.214
       2.701
       1.394
       0.214
      -0.087
       0.775
       2.704
       5.546
       9.204
      13.338
      16.934
      18.443
      16.776
      12.425
       7.563
       4.671
       4.662
       6.145
       6.558
       4.300
       0.009
      -4.064
      -5.962
      -5.481
      -3.960
      -2.799
      -2.228
      -1.438
       0.255
       2.518
       4.233
       4.473
       3.171
       0.946
      -1.533
      -3.963
      -6.327
      -8.606
     -10.646
     -12.252
     -13.376
     -14.209
     -15.077
     -16.135
     -17.045
     -16.922
     -14.777
     -10.288
      -4.320
       1.367
       5.140
       6.485
       6.169
       5.497
       5.381
       5.962
       6.886
       7.764
       8.419
       8.832
       9.007
       8.885
       8.381
       7.497
       6.446
       5.625
       5.429
       6.034
       7.308
       8.883
      10.279
      10.997
      10.603
       8.806
       5.537
       1.018
      -4.169
      -9.081
     -12.618
     -13.935
     -12.855
      -9.936
      -6.136
      -2.366
       0.721
       2.680
       3.274
       2.648
       1.443
       0.529
       0.436
       0.961
       1.298
       0.607
      -1.459
      -4.578
      -7.980
     -10.834
     -12.634
