Origin Time       4/2/2011 13:53:39	 
Lat.              24.8 N	
Long.             94.6 E	
Depth (Km)         30.0
Magnitude         6.4
 Region           Myanmar-India-Border                                             
 Above details taken from IMD 
   
Station Code      JWI
Station Lat.       30.203
Station Long.      74.947
Station Height(m)  221.0
Site Class        B   Vs30 between 375 m/sec to 700 m/sec *  
Record Time       04.02.2011 13:54:18.124
Sampling Rate     200. Hz
 Record Duration   93.050 Sec.
 Direction         Vert. (Up positive)
Max. Acceleration     14.172 cm/sec**2
     
  * For reference see Site Classification link of website 
     
 Base Line Corrected and Low Pass Filtered (Cut Off at 35 Hz) Time History
 Acceleration data in cm/sec**2
    
[...]
      -2.701
      -3.194
      -2.169
       0.303
       3.019
       4.503
       4.071
       2.266
       0.363
      -0.588
      -0.435
       0.170
       0.406
      -0.098
      -1.064
      -1.786
      -1.600
      -0.332
       1.479
       2.866
       3.101
       2.251
       1.066
       0.310
       0.169
       0.253
       0.040
      -0.694
      -1.713
      -2.472
      -2.477
      -1.649
      -0.402
       0.657
       1.157
       1.197
       1.209
       1.536
       2.045
       2.161
       1.382
      -0.200
      -1.912
      -3.016
      -3.188
      -2.578
      -1.572
      -0.575
       0.144
       0.543
       0.793
       1.105
       1.518
       1.826
       1.715
       1.007
      -0.115
      -1.100
      -1.344
      -0.669
       0.488
       1.387
       1.554
       1.091
       0.494
       0.211
       0.291
       0.400
       0.141
      -0.572
      -1.396
      -1.814
      -1.574
      -0.905
      -0.327
      -0.215
      -0.507
      -0.797
      -0.720
      -0.265
       0.252
       0.525
       0.541
       0.531
       0.706
       1.085
       1.501
       1.678
       1.344
       0.437
      -0.746
      -1.692
      -2.047
      -1.835
      -1.335
      -0.790
      -0.228
       0.473
       1.356
       2.150
       2.315
       1.488
      -0.045
      -1.424
      -1.902
      -1.464
      -0.765
      -0.475
      -0.697
      -0.965
      -0.729
       0.102
       1.086
       1.661
       1.622
       1.159
       0.538
      -0.098
      -0.612
      -0.778
      -0.454
       0.191
       0.754
       0.902
       0.580
      -0.048
      -0.752
      -1.324
      -1.594
      -1.476
      -1.024
      -0.413
       0.155
       0.555
       0.802
       1.001
       1.206
       1.316
       1.137
       0.575
      -0.246
      -1.019
      -1.402
      -1.176
      -0.394
       0.569
       1.176
       1.049
       0.235
      -0.779
      -1.373
      -1.225
      -0.566
       0.000
       0.011
      -0.466
      -0.894
      -0.716
       0.179
       1.335
       2.006
       1.665
       0.402
      -1.113
      -2.115
      -2.312
      -2.012
      -1.674
      -1.363
      -0.723
       0.511
       2.064
       3.242
       3.463
       2.621
       1.045
      -0.710
      -2.045
      -2.489
      -1.935
      -0.765
       0.284
       0.549
      -0.095
      -1.073
      -1.489
      -0.842
       0.533
       1.712
       1.911
       1.075
      -0.120
      -0.788
      -0.460
       0.615
       1.654
       1.861
       0.969
      -0.487
      -1.433
      -1.024
       0.574
       2.138
       2.315
       0.759
      -1.561
      -3.169
      -3.231
      -2.052
      -0.643
       0.128
       0.114
      -0.184
      -0.137
       0.521
       1.547
       2.350
       2.305
       1.136
      -0.784
      -2.550
      -3.283
      -2.712
      -1.268
       0.295
       1.369
       1.773
       1.753
       1.748
       2.031
       2.458
       2.535
       1.782
       0.179
      -1.657
      -2.836
      -2.889
      -2.159
      -1.402
      -1.007
      -0.691
       0.014
       1.075
       1.894
       1.904
       1.171
       0.363
       0.152
       0.656
       1.412
       1.827
       1.617
       0.899
      -0.033
      -0.962
      -1.812
      -2.534
      -3.000
      -3.054
      -2.663
      -1.964
      -1.143
      -0.333
       0.370
       0.871
       1.166
       1.395
       1.680
       1.894
       1.709
       0.948
      -0.131
      -0.937
      -0.961
      -0.156
       0.990
       1.775
       1.795
       1.233
       0.695
       0.684
       1.188
       1.677
       1.530
       0.514
      -1.034
      -2.481
      -3.331
      -3.453
      -3.013
      -2.269
      -1.413
      -0.498
       0.549
       1.750
       2.890
       3.569
       3.494
       2.703
       1.495
       0.189
      -1.013
      -2.009
      -2.723
      -3.025
      -2.720
      -1.717
      -0.288
       0.908
       1.219
       0.507
      -0.671
      -1.421
      -1.144
       0.001
       1.192
       1.586
       0.987
       0.006
      -0.439
       0.147
       1.432
       2.463
       2.364
       1.030
      -0.749
      -1.862
      -1.704
      -0.545
       0.742
       1.318
       0.910
      -0.027
      -0.669
      -0.485
       0.293
       0.906
       0.787
       0.027
      -0.834
      -1.348
      -1.423
      -1.219
      -0.941
      -0.743
      -0.661
      -0.539
      -0.100
       0.766
       1.771
       2.367
       2.171
       1.285
       0.197
      -0.624
      -1.072
      -1.384
      -1.796
      -2.230
      -2.367
      -1.988
      -1.192
      -0.286
       0.467
       0.972
       1.252
       1.317
       1.103
       0.558
      -0.185
      -0.760
      -0.777
      -0.154
       0.758
       1.375
       1.280
       0.542
      -0.294
      -0.616
      -0.284
       0.219
       0.241
      -0.411
      -1.281
      -1.655
      -1.128
       0.109
       1.384
       1.949
       1.448
       0.155
      -1.183
      -1.821
      -1.482
      -0.516
       0.373
       0.642
       0.279
      -0.279
      -0.542
      -0.309
       0.293
       0.972
       1.401
       1.290
       0.542
      -0.524
      -1.192
      -0.815
       0.534
       1.924
       2.217
       0.998
      -1.044
      -2.634
      -2.878
      -1.887
      -0.586
       0.120
       0.059
      -0.222
      -0.091
       0.610
       1.569
       2.343
       2.583
       2.077
       0.829
      -0.771
      -1.975
      -2.109
      -1.127
       0.222
       0.882
       0.303
      -1.118
      -2.378
      -2.678
      -1.948
      -0.720
       0.390
       1.056
       1.279
       1.196
       0.936
       0.621
       0.443
       0.568
       0.924
       1.127
       0.770
      -0.200
      -1.409
      -2.314
      -2.507
      -1.886
      -0.716
       0.479
       1.225
       1.443
       1.464
       1.683
       2.186
       2.654
       2.576
       1.587
      -0.202
      -2.123
      -3.290
      -3.175
      -1.952
      -0.327
       0.953
       1.537
       1.564
       1.381
       1.143
       0.709
      -0.069
      -0.982
      -1.527
      -1.328
      -0.479
       0.536
       1.192
       1.226
       0.711
      -0.020
      -0.569
      -0.713
      -0.610
      -0.742
      -1.485
      -2.592
      -3.152
      -2.247
       0.166
       2.971
       4.569
       4.019
       1.754
      -0.719
      -1.926
      -1.507
      -0.387
       0.086
      -0.693
      -2.089
      -2.817
      -2.052
      -0.128
       1.778
       2.633
       2.334
       1.627
       1.341
       1.641
       1.927
       1.434
       0.004
      -1.664
      -2.580
      -2.338
      -1.455
      -0.855
      -1.041
      -1.729
      -2.178
      -1.802
      -0.573
       0.997
       2.179
       2.473
       1.908
       0.999
       0.361
       0.230
       0.306
       0.107
      -0.454
      -0.893
      -0.640
       0.309
       1.304
       1.641
       1.205
       0.501
       0.110
       0.111
       0.012
      -0.746
      -2.148
      -3.449
      -3.700
      -2.487
      -0.219
       2.168
       3.732
       3.939
       2.876
       1.236
      -0.025
      -0.282
       0.302
       0.850
       0.399
      -1.354
      -3.740
      -5.539
      -5.819
      -4.553
      -2.522
      -0.678
       0.454
       0.956
       1.321
       2.027
       3.106
       3.985
       3.862
       2.395
       0.118
      -1.816
      -2.337
      -1.115
       1.194
       3.242
       3.760
       2.399
       0.001
      -2.008
      -2.642
      -1.980
      -0.952
      -0.553
      -1.087
      -1.941
      -2.047
      -0.728
       1.696
       4.064
       5.174
       4.503
       2.320
      -0.646
      -3.508
      -5.420
      -5.899
      -5.124
      -3.799
      -2.587
      -1.681
      -0.875
       0.109
       1.363
       2.659
       3.503
       3.474
       2.634
       1.545
       0.814
       0.649
       0.846
       1.042
       0.960
       0.564
       0.125
      -0.018
       0.099
      -0.011
      -0.731
      -1.718
      -2.047
      -1.084
       0.838
       2.584
       3.018
       1.747
      -0.608
      -2.735
      -3.424
      -2.390
      -0.508
       0.828
       0.727
      -0.561
      -1.899
      -2.141
      -1.008
       0.678
       1.600
       0.984
      -0.748
      -2.291
      -2.468
      -1.078
       1.073
       2.836
       3.458
       2.895
       1.673
       0.508
      -0.084
       0.017
       0.580
       1.224
       1.590
       1.441
       0.728
      -0.390
      -1.611
      -2.614
      -3.121
      -2.964
      -2.227
      -1.349
      -0.893
      -1.060
      -1.437
      -1.334
      -0.371
       1.236
       2.841
       3.738
       3.525
       2.385
       1.003
       0.006
      -0.568
      -1.143
      -1.947
      -2.689
      -2.891
      -2.371
      -1.326
      -0.119
       0.896
       1.459
       1.477
       1.032
       0.312
      -0.427
      -0.873
      -0.766
      -0.037
       1.190
       2.721
       4.209
       4.999
       4.347
       2.081
      -1.033
      -3.772
      -5.336
      -5.700
      -5.240
      -4.276
      -3.023
      -1.764
      -0.849
      -0.476
      -0.531
      -0.665
      -0.569
      -0.222
       0.128
       0.299
       0.487
       1.125
       2.366
       3.792
       4.724
       4.788
       4.115
       3.104
       2.088
       1.149
       0.106
      -1.305
      -3.125
      -5.004
      -6.367
      -6.721
      -5.829
      -3.787
      -1.069
       1.628
       3.733
       5.011
       5.394
       4.760
       3.077
       0.748
      -1.350
      -2.307
      -1.764
      -0.196
       1.349
       1.950
       1.462
       0.534
      -0.062
      -0.098
       0.110
       0.271
       0.550
       1.394
       2.960
       4.690
       5.506
       4.610
       2.308
       0.030
      -0.750
       0.145
       1.347
       1.153
      -0.918
      -3.681
      -5.299
      -4.751
      -2.554
      -0.335
       0.369
      -0.746
      -2.502
      -3.189
      -2.004
       0.270
       1.974
       1.987
       0.590
      -0.864
      -1.087
       0.163
       2.018
       3.349
       3.695
       3.365
       2.761
       1.860
       0.492
      -1.087
      -2.239
      -2.551
      -2.185
      -1.530
      -0.709
       0.420
       1.851
       3.188
       3.855
       3.502
       2.251
       0.609
      -0.873
      -1.880
      -2.300
      -2.002
      -0.867
       0.839
       2.299
       2.629
       1.618
      -0.093
      -1.555
      -2.145
      -1.800
      -0.890
       0.003
       0.406
       0.293
       0.175
       0.713
       2.104
       3.786
       4.766
       4.357
       2.712
       0.709
      -0.748
      -1.386
      -1.604
      -1.962
      -2.674
      -3.470
      -3.780
      -3.056
      -1.168
       1.329
       3.408
       4.246
       3.786
       2.647
       1.490
       0.497
      -0.576
      -1.879
      -3.021
      -3.232
      -2.093
      -0.117
       1.551
       2.097
       1.683
       1.089
       0.833
       0.779
       0.584
       0.302
       0.348
       0.925
       1.689
       2.099
       2.027
       1.887
       2.166
       2.871
       3.480
       3.423
       2.593
       1.422
       0.474
      -0.044
      -0.427
      -1.203
      -2.716
      -4.867
      -7.161
      -8.926
      -9.532
      -8.556
      -5.955
      -2.237
       1.595
       4.490
       5.973
       6.418
       6.625
       7.033
       7.295
       6.662
       4.790
       2.209
      -0.001
      -1.020
      -0.887
      -0.374
      -0.292
      -0.899
      -1.891
      -2.806
      -3.364
      -3.497
      -3.243
      -2.678
      -1.917
      -1.112
      -0.458
      -0.176
      -0.417
      -1.067
      -1.664
      -1.587
      -0.447
       1.590
       3.735
       4.872
       4.174
       1.775
      -1.131
      -3.040
      -3.232
      -2.172
      -0.904
      -0.142
       0.057
      -0.058
      -0.374
      -0.965
      -1.825
      -2.678
      -3.106
      -2.875
      -2.103
      -1.071
       0.089
       1.467
       3.068
       4.454
       4.761
       3.260
       0.053
      -3.744
      -6.645
      -7.741
      -7.109
      -5.390
      -3.168
      -0.818
       1.236
       2.438
       2.449
       1.547
       0.548
       0.182
       0.479
       0.798
       0.486
      -0.510
      -1.623
      -2.155
      -1.758
      -0.614
       0.676
       1.394
       1.117
      -0.037
      -1.546
      -2.896
      -3.836
      -4.294
      -4.188
      -3.469
      -2.304
      -1.098
      -0.300
      -0.209
      -0.879
      -1.996
      -2.816
      -2.474
      -0.633
       2.076
       4.345
       5.084
       4.175
       2.394
       0.616
      -0.904
      -2.487
      -4.415
      -6.481
      -8.082
      -8.558
      -7.435
      -4.632
      -0.748
       2.903
       4.880
       4.595
       2.848
       1.319
       1.283
       2.636
       4.046
       4.132
       2.638
       0.628
      -0.483
      -0.229
       0.458
       0.093
      -1.976
      -4.941
      -7.205
      -7.629
      -6.147
      -3.366
       0.115
       3.940
       7.797
      11.225
      13.583
      14.172
      12.515
       8.745
       3.764
      -1.088
      -4.653
      -6.420
      -6.595
      -5.813
      -4.667
      -3.380
      -1.848
      -0.014
       1.821
       3.027
       3.039
       1.796
      -0.113
      -1.792
      -2.667
      -2.893
      -3.169
      -4.074
      -5.442
      -6.342
      -5.821
      -3.783
      -1.118
       1.063
       2.265
       2.697
       2.782
       2.799
       2.949
       3.436
       4.231
       4.763
       4.146
       2.052
      -0.515
      -1.534
       0.530
       5.251
      10.253
      12.869
      12.005
       8.632
       4.687
       1.585
      -0.411
      -1.830
      -3.309
      -5.102
      -6.848
      -7.633
      -6.502
      -3.256
       1.102
       4.764
       6.226
       5.324
       3.345
       2.024
       2.150
       2.991
       3.068
       1.513
      -1.274
      -4.108
      -5.951
      -6.490
      -6.138
      -5.596
      -5.293
      -5.062
      -4.386
      -2.975
      -1.152
       0.308
       0.729
       0.034
      -1.197
      -2.197
      -2.608
      -2.596
      -2.396
      -1.915
      -0.945
       0.329
       1.317
       1.598
       1.333
       0.953
       0.544
      -0.302
      -2.003
      -4.419
      -6.720
      -7.719
      -6.477
      -2.950
       1.731
       5.794
       7.989
       8.436
       8.347
       8.854
       9.983
      10.622
       9.445
       6.031
       1.297
      -3.063
      -5.592
      -5.791
      -4.226
      -2.185
      -1.024
      -1.375
      -2.749
      -4.011
      -4.378
      -3.930
      -3.204
      -2.506
      -1.716
      -0.613
       0.787
       2.167
       3.016
       2.824
       1.389
      -0.891
      -3.103
      -4.442
      -4.907
      -5.299
      -6.375
      -7.950
      -8.943
      -8.414
      -6.529
      -4.415
      -3.067
      -2.505
      -2.003
      -0.976
       0.493
       1.852
       2.601
       2.713
       2.737
       3.481
       5.356
       7.880
       9.837
       9.963
       7.632
       3.270
      -1.560
      -4.659
      -4.434
      -1.193
       2.825
       5.084
       4.763
       3.277
       2.829
       4.402
       6.969
       8.482
       7.604
       4.696
       1.405
      -0.567
      -0.522
       0.938
       2.358
       2.362
       0.577
      -2.115
      -4.305
      -5.130
      -4.729
      -3.850
      -3.268
      -3.521
      -4.818
      -6.866
      -8.805
      -9.643
      -8.973
      -7.204
      -5.014
      -2.721
      -0.419
       1.442
       2.117
       1.492
       0.666
       1.125
       3.127
       5.113
       4.951
       1.963
      -2.169
      -4.560
      -3.488
       0.126
       3.523
       4.479
       3.023
       1.013
       0.252
       1.058
       2.399
       3.092
       2.830
       2.234
       2.095
       2.611
       3.330
       3.787
       4.071
       4.656
       5.736
       6.893
       7.459
       7.085
       5.879
       4.149
       2.195
       0.330
      -1.083
      -1.775
      -1.791
      -1.526
      -1.519
      -2.113
      -3.213
      -4.310
      -4.811
      -4.456
      -3.529
      -2.698
      -2.577
      -3.292
      -4.351
      -4.915
      -4.302
      -2.443
      -0.088
       1.470
       1.231
      -0.600
      -2.537
      -2.900
      -1.199
       1.447
       3.210
       2.935
       0.971
      -1.083
      -1.522
       0.164
       2.843
       4.593
       4.164
       1.780
      -1.264
      -3.632
      -4.661
      -4.422
      -3.364
      -1.871
      -0.015
       2.314
       4.984
       7.376
       8.699
       8.625
       7.583
       6.405
       5.671
       5.286
       4.543
       2.609
      -0.790
      -4.925
      -8.255
      -9.252
      -7.427
      -3.857
      -0.755
      -0.123
      -2.347
      -5.849
      -8.199
      -7.829
      -5.010
      -1.488
       0.798
       1.033
       0.034
      -0.399
       1.048
       4.026
       6.629
       6.760
       3.735
      -1.059
      -4.943
      -5.715
      -3.201
       0.576
       2.852
       2.084
      -1.116
      -4.680
      -6.630
      -6.278
      -4.411
      -2.556
      -1.803
      -1.995
      -1.997
      -0.870
       1.184
       3.076
       3.944
       3.927
       3.933
       4.776
       6.398
       7.737
       7.406
       4.846
       0.996
      -2.318
      -3.859
      -3.917
      -3.829
      -4.628
      -6.136
      -7.172
      -6.532
      -3.923
      -0.235
       2.999
       4.589
       4.411
       3.338
       2.507
       2.544
       3.299
       4.105
       4.252
       3.386
       1.678
      -0.248
      -1.585
      -1.746
      -0.806
       0.342
       0.463
      -1.038
      -3.433
      -5.068
      -4.594
      -2.044
       1.075
       2.691
       1.510
      -2.008
      -5.739
      -7.217
      -5.365
      -1.352
       2.133
       2.671
      -0.249
      -4.780
      -7.822
      -7.086
      -2.780
       2.449
       5.455
       4.931
       2.210
      -0.038
       0.064
       2.442
       5.492
       7.360
       7.037
       4.722
       1.508
      -1.310
      -2.868
      -2.989
      -2.065
      -0.786
       0.115
       0.166
      -0.609
      -1.714
      -2.441
      -2.151
      -0.564
       1.865
       3.886
       4.238
       2.894
       1.392
       1.574
       3.881
       6.952
       8.756
       7.948
       4.419
      -0.813
      -5.932
      -9.018
      -9.083
      -6.731
      -3.678
      -1.496
      -0.630
      -0.370
       0.427
       2.418
       5.161
       7.286
       7.428
       5.273
       1.776
      -1.605
      -3.938
      -5.262
      -6.276
      -7.675
      -9.610
     -11.499
     -12.307
