Origin Time       05/3/2012 07:41:05	 UTC
Lat.              28.7 N	
Long.             76.6 E	
Depth (Km)         14.0
Magnitude         4.9
 Region           Haryana-Delhi-Border-Region                                      
 Above details taken from IMD 
    
Station Code      KAI
Station Lat.       29.801  N
Station Long.      76.418  E
Station Height(m)  256.0
Site Class        C   Vs30 between 200 m/sec to 375 m/sec *  
Record Time       05.03.2012 07:41:29.199 UTC
Sampling Rate     200. Hz
 Record Duration   65.820 Sec.
 Direction         N-S (N positive)
Max. Acceleration     -6.717 cm/sec**2
     
  * For reference see Site Classification link of website 
     
 Base Line Corrected and Low Pass Filtered (Cut Off at 35 Hz) Time History
 Acceleration data in cm/sec**2
    
[...]
       0.239
       0.225
       0.189
       0.098
      -0.046
      -0.211
      -0.358
      -0.473
      -0.559
      -0.623
      -0.655
      -0.630
      -0.527
      -0.359
      -0.169
      -0.013
       0.071
       0.063
      -0.032
      -0.191
      -0.367
      -0.500
      -0.547
      -0.510
      -0.425
      -0.341
      -0.281
      -0.234
      -0.178
      -0.102
      -0.013
       0.074
       0.157
       0.244
       0.337
       0.431
       0.515
       0.576
       0.605
       0.599
       0.557
       0.491
       0.424
       0.392
       0.417
       0.486
       0.548
       0.543
       0.447
       0.293
       0.145
       0.051
       0.022
       0.037
       0.078
       0.140
       0.224
       0.309
       0.355
       0.322
       0.206
       0.048
      -0.099
      -0.201
      -0.265
      -0.323
      -0.405
      -0.517
      -0.641
      -0.748
      -0.824
      -0.866
      -0.880
      -0.858
      -0.789
      -0.669
      -0.522
      -0.387
      -0.290
      -0.219
      -0.131
       0.000
       0.148
       0.239
       0.199
       0.009
      -0.278
      -0.564
      -0.770
      -0.870
      -0.891
      -0.866
      -0.795
      -0.658
      -0.452
      -0.213
       0.007
       0.175
       0.294
       0.389
       0.482
       0.584
       0.691
       0.791
       0.865
       0.884
       0.819
       0.662
       0.433
       0.175
      -0.063
      -0.238
      -0.314
      -0.269
      -0.110
       0.122
       0.364
       0.554
       0.667
       0.713
       0.729
       0.742
       0.756
       0.756
       0.725
       0.655
       0.550
       0.415
       0.255
       0.080
      -0.095
      -0.257
      -0.397
      -0.522
      -0.641
      -0.748
      -0.808
      -0.775
      -0.628
      -0.393
      -0.138
       0.064
       0.167
       0.170
       0.112
       0.047
       0.024
       0.063
       0.153
       0.255
       0.313
       0.290
       0.196
       0.079
      -0.015
      -0.084
      -0.157
      -0.262
      -0.391
      -0.509
      -0.582
      -0.597
      -0.557
      -0.462
      -0.302
      -0.074
       0.189
       0.417
       0.539
       0.521
       0.391
       0.226
       0.108
       0.081
       0.138
       0.228
       0.288
       0.265
       0.143
      -0.055
      -0.264
      -0.403
      -0.407
      -0.265
      -0.031
       0.204
       0.362
       0.422
       0.426
       0.435
       0.482
       0.548
       0.586
       0.562
       0.470
       0.327
       0.145
      -0.077
      -0.340
      -0.632
      -0.911
      -1.130
      -1.260
      -1.298
      -1.258
      -1.141
      -0.936
      -0.634
      -0.260
       0.113
       0.394
       0.518
       0.484
       0.352
       0.190
       0.030
      -0.132
      -0.313
      -0.505
      -0.670
      -0.768
      -0.777
      -0.702
      -0.564
      -0.382
      -0.174
       0.035
       0.221
       0.378
       0.527
       0.696
       0.895
       1.092
       1.224
       1.233
       1.107
       0.887
       0.643
       0.435
       0.303
       0.277
       0.384
       0.622
       0.942
       1.254
       1.474
       1.572
       1.571
       1.517
       1.428
       1.280
       1.035
       0.676
       0.233
      -0.241
      -0.701
      -1.129
      -1.514
      -1.837
      -2.058
      -2.143
      -2.088
      -1.921
      -1.684
      -1.403
      -1.096
      -0.787
      -0.522
      -0.351
      -0.297
      -0.344
      -0.443
      -0.541
      -0.606
      -0.641
      -0.675
      -0.729
      -0.803
      -0.881
      -0.961
      -1.053
      -1.168
      -1.282
      -1.337
      -1.256
      -0.983
      -0.516
       0.090
       0.752
       1.393
       1.959
       2.416
       2.740
       2.922
       2.977
       2.937
       2.825
       2.642
       2.367
       1.985
       1.500
       0.933
       0.324
      -0.274
      -0.783
      -1.120
      -1.226
      -1.095
      -0.783
      -0.378
       0.026
       0.360
       0.581
       0.668
       0.618
       0.453
       0.219
      -0.017
      -0.206
      -0.348
      -0.498
      -0.728
      -1.076
      -1.520
      -1.976
      -2.343
      -2.553
      -2.600
      -2.521
      -2.366
      -2.158
      -1.893
      -1.568
      -1.197
      -0.816
      -0.460
      -0.144
       0.128
       0.351
       0.498
       0.547
       0.499
       0.397
       0.307
       0.282
       0.334
       0.437
       0.547
       0.632
       0.677
       0.671
       0.606
       0.495
       0.384
       0.340
       0.416
       0.615
       0.882
       1.140
       1.342
       1.497
       1.656
       1.851
       2.063
       2.227
       2.284
       2.209
       2.021
       1.756
       1.451
       1.137
       0.837
       0.575
       0.362
       0.201
       0.093
       0.047
       0.080
       0.199
       0.383
       0.596
       0.809
       1.001
       1.157
       1.252
       1.260
       1.166
       0.980
       0.726
       0.429
       0.098
      -0.267
      -0.657
      -1.043
      -1.385
      -1.651
      -1.833
      -1.941
      -1.986
      -1.964
      -1.858
      -1.656
      -1.372
      -1.066
      -0.829
      -0.740
      -0.826
      -1.048
      -1.320
      -1.565
      -1.753
      -1.903
      -2.043
      -2.163
      -2.213
      -2.138
      -1.920
      -1.597
      -1.233
      -0.877
      -0.536
      -0.182
       0.204
       0.607
       0.976
       1.263
       1.451
       1.556
       1.607
       1.631
       1.646
       1.669
       1.708
       1.775
       1.888
       2.055
       2.257
       2.435
       2.505
       2.402
       2.111
       1.670
       1.151
       0.624
       0.134
      -0.293
      -0.640
      -0.889
      -1.031
      -1.066
      -1.012
      -0.907
      -0.796
      -0.714
      -0.658
      -0.586
      -0.452
      -0.264
      -0.104
      -0.093
      -0.315
      -0.761
      -1.347
      -1.975
      -2.584
      -3.151
      -3.662
      -4.097
      -4.425
      -4.617
      -4.657
      -4.548
      -4.307
      -3.947
      -3.473
      -2.869
      -2.128
      -1.278
      -0.403
       0.369
       0.908
       1.131
       1.041
       0.720
       0.297
      -0.095
      -0.371
      -0.503
      -0.515
      -0.437
      -0.282
      -0.043
       0.278
       0.658
       1.064
       1.476
       1.903
       2.364
       2.852
       3.308
       3.643
       3.791
       3.744
       3.546
       3.259
       2.945
       2.661
       2.459
       2.359
       2.319
       2.241
       2.016
       1.585
       0.972
       0.280
      -0.354
      -0.809
      -1.006
      -0.926
      -0.604
      -0.119
       0.414
       0.861
       1.095
       1.031
       0.672
       0.120
      -0.467
      -0.939
      -1.216
      -1.303
      -1.256
      -1.139
      -0.986
      -0.787
      -0.503
      -0.094
       0.439
       1.032
       1.572
       1.944
       2.087
       2.009
       1.753
       1.349
       0.810
       0.170
      -0.494
      -1.067
      -1.450
      -1.611
      -1.589
      -1.447
      -1.210
      -0.854
      -0.345
       0.298
       0.994
       1.636
       2.152
       2.528
       2.782
       2.923
       2.938
       2.821
       2.610
       2.384
       2.223
       2.158
       2.157
       2.161
       2.111
       1.970
       1.712
       1.325
       0.815
       0.218
      -0.411
      -1.017
      -1.568
      -2.066
      -2.538
      -3.015
      -3.493
      -3.910
      -4.166
      -4.171
      -3.902
      -3.405
      -2.762
      -2.043
      -1.302
      -0.602
      -0.026
       0.339
       0.445
       0.300
      -0.028
      -0.444
      -0.858
      -1.210
      -1.475
      -1.653
      -1.753
      -1.777
      -1.711
      -1.534
      -1.224
      -0.776
      -0.207
       0.437
       1.076
       1.605
       1.934
       2.026
       1.909
       1.651
       1.323
       0.974
       0.616
       0.246
      -0.139
      -0.512
      -0.814
      -0.980
      -0.972
      -0.804
      -0.542
      -0.271
      -0.064
       0.029
      -0.034
      -0.291
      -0.750
      -1.348
      -1.942
      -2.367
      -2.512
      -2.367
      -2.007
      -1.535
      -1.016
      -0.463
       0.141
       0.802
       1.486
       2.120
       2.618
       2.897
       2.903
       2.621
       2.085
       1.378
       0.627
      -0.037
      -0.519
      -0.797
      -0.916
      -0.941
      -0.907
      -0.805
      -0.602
      -0.280
       0.134
       0.578
       0.974
       1.270
       1.448
       1.495
       1.389
       1.097
       0.605
      -0.057
      -0.802
      -1.514
      -2.087
      -2.464
      -2.648
      -2.673
      -2.565
      -2.326
      -1.953
      -1.481
      -0.991
      -0.581
      -0.299
      -0.114
       0.051
       0.242
       0.423
       0.500
       0.390
       0.076
      -0.386
      -0.893
      -1.328
      -1.591
      -1.602
      -1.322
      -0.773
      -0.047
       0.732
       1.460
       2.084
       2.591
       2.978
       3.220
       3.275
       3.101
       2.687
       2.077
       1.371
       0.704
       0.206
      -0.025
       0.046
       0.385
       0.908
       1.516
       2.124
       2.665
       3.083
       3.324
       3.328
       3.041
       2.443
       1.571
       0.516
      -0.612
      -1.707
      -2.669
      -3.392
      -3.774
      -3.769
      -3.435
      -2.926
      -2.425
      -2.051
      -1.810
      -1.623
      -1.411
      -1.142
      -0.820
      -0.426
       0.098
       0.792
       1.572
       2.196
       2.363
       1.905
       0.909
      -0.321
      -1.439
      -2.226
      -2.640
      -2.754
      -2.665
      -2.451
      -2.174
      -1.896
      -1.673
      -1.510
      -1.330
      -0.991
      -0.357
       0.608
       1.795
       2.982
       3.912
       4.382
       4.292
       3.663
       2.619
       1.358
       0.105
      -0.950
      -1.694
      -2.097
      -2.169
      -1.917
      -1.354
      -0.541
       0.392
       1.272
       1.954
       2.385
       2.598
       2.655
       2.577
       2.339
       1.916
       1.348
       0.754
       0.277
       0.019
      -0.016
       0.093
       0.234
       0.326
       0.340
       0.291
       0.208
       0.133
       0.134
       0.272
       0.553
       0.881
       1.099
       1.076
       0.782
       0.303
      -0.223
      -0.677
      -1.007
      -1.211
      -1.312
      -1.344
      -1.355
      -1.415
      -1.601
      -1.957
      -2.452
      -2.984
      -3.419
      -3.650
      -3.619
      -3.295
      -2.660
      -1.734
      -0.618
       0.503
       1.422
       2.021
       2.334
       2.512
       2.721
       3.022
       3.342
       3.522
       3.400
       2.871
       1.910
       0.578
      -0.968
      -2.499
      -3.762
      -4.563
      -4.816
      -4.550
      -3.868
      -2.907
      -1.799
      -0.674
       0.346
       1.156
       1.692
       1.950
       1.996
       1.937
       1.883
       1.886
       1.913
       1.856
       1.583
       1.017
       0.208
      -0.656
      -1.321
      -1.571
      -1.323
      -0.647
       0.276
       1.228
       1.996
       2.399
       2.308
       1.691
       0.654
      -0.571
      -1.698
      -2.504
      -2.902
      -2.955
      -2.807
      -2.594
      -2.381
      -2.162
      -1.908
      -1.598
      -1.217
      -0.725
      -0.071
       0.747
       1.626
       2.380
       2.824
       2.865
       2.525
       1.916
       1.185
       0.473
      -0.098
      -0.434
      -0.483
      -0.262
       0.124
       0.505
       0.710
       0.621
       0.213
      -0.449
      -1.232
      -1.982
      -2.568
      -2.899
      -2.927
      -2.642
      -2.084
      -1.350
      -0.579
       0.089
       0.569
       0.862
       1.041
       1.202
       1.404
       1.628
       1.797
       1.821
       1.665
       1.374
       1.032
       0.703
       0.399
       0.105
      -0.165
      -0.359
      -0.419
      -0.325
      -0.105
       0.188
       0.504
       0.814
       1.097
       1.327
       1.458
       1.444
       1.272
       0.996
       0.732
       0.622
       0.766
       1.179
       1.790
       2.487
       3.173
       3.783
       4.258
       4.509
       4.410
       3.835
       2.727
       1.156
      -0.674
      -2.494
      -4.067
      -5.258
      -6.032
      -6.431
      -6.533
      -6.422
      -6.149
      -5.708
      -5.051
      -4.140
      -3.005
      -1.762
      -0.571
       0.438
       1.205
       1.736
       2.059
       2.181
       2.098
       1.824
       1.427
       1.026
       0.742
       0.629
       0.641
       0.665
       0.630
       0.572
       0.614
       0.846
       1.233
       1.626
       1.862
       1.874
       1.718
       1.525
       1.402
       1.371
       1.357
       1.232
       0.901
       0.372
      -0.232
      -0.745
      -1.053
      -1.154
      -1.114
      -0.969
      -0.679
      -0.165
       0.595
       1.491
       2.305
       2.815
       2.907
       2.620
       2.087
       1.436
       0.732
      -0.015
      -0.811
      -1.658
      -2.552
      -3.489
      -4.448
      -5.365
      -6.126
      -6.607
      -6.717
      -6.420
      -5.727
      -4.683
      -3.374
      -1.933
      -0.525
       0.710
       1.696
       2.434
       2.989
       3.440
       3.844
       4.195
       4.426
       4.438
       4.170
       3.651
       2.986
       2.308
       1.708
       1.221
       0.841
       0.561
       0.377
       0.281
       0.261
       0.312
       0.441
       0.658
       0.938
       1.210
       1.386
       1.433
       1.397
       1.371
       1.408
       1.472
       1.460
       1.285
       0.927
       0.435
      -0.110
      -0.632
      -1.051
      -1.265
      -1.161
      -0.692
       0.033
       0.737
       1.092
       0.898
       0.182
      -0.832
      -1.865
      -2.716
      -3.307
      -3.649
      -3.782
      -3.749
      -3.599
      -3.393
      -3.175
      -2.950
      -2.689
      -2.369
      -1.994
      -1.586
      -1.150
      -0.656
      -0.052
       0.693
       1.547
       2.417
       3.174
       3.695
       3.887
       3.704
       3.167
       2.359
       1.413
       0.468
      -0.364
      -1.021
      -1.489
      -1.779
      -1.891
      -1.795
      -1.456
      -0.881
      -0.141
       0.633
       1.302
       1.766
       1.988
       1.978
       1.769
       1.404
       0.952
       0.514
       0.184
      -0.014
      -0.157
      -0.375
      -0.762
      -1.305
      -1.892
      -2.364
      -2.591
      -2.522
      -2.188
      -1.681
      -1.100
      -0.512
       0.056
       0.594
       1.050
       1.302
       1.209
       0.709
      -0.098
      -0.957
      -1.567
      -1.753
      -1.562
      -1.239
      -1.055
      -1.134
      -1.391
      -1.608
      -1.587
      -1.246
      -0.634
       0.129
       0.914
       1.615
       2.154
       2.487
       2.623
       2.630
       2.607
       2.623
       2.653
       2.581
       2.272
       1.666
       0.838
      -0.015
      -0.662
      -0.937
      -0.808
      -0.384
       0.128
       0.517
       0.652
       0.551
       0.364
       0.281
       0.417
       0.746
       1.121
       1.367
       1.377
       1.156
       0.786
       0.366
      -0.029
      -0.365
      -0.637
      -0.867
      -1.089
      -1.339
      -1.631
      -1.957
      -2.275
      -2.534
      -2.699
      -2.771
      -2.777
      -2.730
      -2.605
      -2.350
      -1.924
      -1.331
      -0.617
       0.165
       0.969
       1.759
       2.492
       3.117
       3.586
       3.872
       3.967
       3.877
       3.629
       3.272
       2.856
       2.404
       1.904
       1.340
       0.742
       0.201
      -0.158
      -0.260
      -0.132
       0.102
       0.287
       0.323
       0.203
      -0.011
      -0.235
      -0.405
      -0.494
      -0.515
      -0.502
      -0.491
      -0.490
      -0.488
      -0.475
      -0.475
      -0.542
      -0.726
      -1.029
      -1.377
      -1.656
      -1.773
      -1.714
      -1.533
      -1.316
      -1.123
      -0.961
      -0.795
      -0.596
      -0.384
      -0.230
      -0.208
      -0.335
      -0.551
      -0.765
      -0.929
      -1.072
      -1.262
      -1.527
      -1.808
      -1.985
      -1.949
      -1.662
      -1.172
      -0.585
      -0.018
       0.439
       0.751
       0.938
       1.057
       1.160
       1.262
       1.328
       1.293
       1.102
       0.762
       0.348
      -0.016
      -0.225
      -0.237
      -0.099
       0.095
       0.260
       0.371
       0.454
       0.528
       0.567
       0.513
       0.333
       0.052
      -0.264
      -0.570
      -0.872
      -1.201
      -1.550
      -1.841
      -1.953
      -1.788
      -1.343
      -0.718
      -0.084
       0.394
       0.634
       0.676
       0.666
       0.787
       1.154
       1.747
       2.417
       2.962
       3.232
       3.200
       2.952
       2.614
       2.278
       1.969
       1.668
       1.346
       0.992
       0.607
       0.198
      -0.231
      -0.668
      -1.081
      -1.407
      -1.579
      -1.556
      -1.350
      -1.032
      -0.696
      -0.414
      -0.213
      -0.083
       0.005
       0.074
       0.137
       0.193
       0.238
       0.266
       0.285
       0.302
       0.315
       0.305
       0.243
       0.107
      -0.117
      -0.430
      -0.806
      -1.175
      -1.445
      -1.559
      -1.537
      -1.458
      -1.387
      -1.321
      -1.198
      -0.973
      -0.677
      -0.407
      -0.241
      -0.171
      -0.103
       0.060
       0.336
       0.646
       0.868
       0.917
       0.773
       0.474
       0.081
      -0.332
      -0.675
      -0.853
      -0.798
      -0.506
      -0.046
       0.468
       0.920
       1.232
       1.395
       1.459
       1.496
       1.534
       1.533
       1.411
       1.103
       0.609
      -0.005
      -0.627
      -1.131
      -1.392
      -1.316
      -0.896
      -0.241
       0.463
       1.061
       1.515
       1.890
       2.262
       2.619
       2.856
       2.849
       2.534
       1.944
       1.175
       0.336
      -0.491
      -1.263
      -1.953
      -2.544
      -3.012
      -3.331
      -3.492
      -3.511
      -3.430
      -3.299
      -3.149
      -2.979
      -2.755
      -2.428
      -1.950
      -1.322
      -0.607
       0.086
       0.652
       1.020
       1.153
       1.031
       0.655
       0.081
      -0.570
      -1.125
      -1.433
      -1.416
      -1.092
      -0.532
       0.174
       0.939
       1.678
       2.327
       2.873
       3.348
       3.790
       4.186
       4.451
       4.458
       4.103
       3.363
       2.323
       1.158
       0.075
      -0.736
      -1.149
      -1.137
      -0.771
      -0.206
       0.375
       0.809
       0.994
       0.910
