Origin Time       05/3/2012 07:41:05	
Lat.              28.7 N	
Long.             76.6 E	
Depth (Km)         14.0
Magnitude         4.9
 Region           Haryana-Delhi-Border-Region                                      
 Above details taken from IMD 
     
Station Code      KAI
Station Lat.       29.801  N
Station Long.      76.418  E
Station Height(m)  256.0
Site Class        C   Vs30 between 200 m/sec to 375 m/sec *  
Record Time       05.03.2012 07:41:29.199
Sampling Rate     200. Hz
 Record Duration   65.820 Sec.
 Direction         E-W (E positive)
Max. Acceleration     -8.299 cm/sec**2
     
  * For reference see Site Classification link of website 
     
 Base Line Corrected and Low Pass Filtered (Cut Off at 35 Hz) Time History
 Acceleration data in cm/sec**2
    
[...]
       0.189
       0.142
       0.068
      -0.014
      -0.086
      -0.132
      -0.141
      -0.103
      -0.005
       0.158
       0.372
       0.595
       0.760
       0.818
       0.753
       0.592
       0.382
       0.164
      -0.036
      -0.206
      -0.330
      -0.394
      -0.388
      -0.324
      -0.236
      -0.169
      -0.154
      -0.193
      -0.261
      -0.315
      -0.325
      -0.289
      -0.237
      -0.205
      -0.220
      -0.278
      -0.354
      -0.416
      -0.450
      -0.454
      -0.424
      -0.352
      -0.235
      -0.089
       0.053
       0.160
       0.228
       0.275
       0.326
       0.389
       0.451
       0.491
       0.499
       0.487
       0.466
       0.434
       0.375
       0.271
       0.122
      -0.039
      -0.159
      -0.189
      -0.115
       0.036
       0.209
       0.354
       0.446
       0.479
       0.458
       0.393
       0.300
       0.198
       0.106
       0.036
      -0.014
      -0.054
      -0.091
      -0.124
      -0.149
      -0.174
      -0.214
      -0.280
      -0.358
      -0.427
      -0.467
      -0.478
      -0.469
      -0.450
      -0.424
      -0.395
      -0.371
      -0.369
      -0.400
      -0.457
      -0.516
      -0.547
      -0.530
      -0.459
      -0.353
      -0.243
      -0.154
      -0.090
      -0.025
       0.069
       0.198
       0.338
       0.456
       0.526
       0.545
       0.517
       0.448
       0.344
       0.214
       0.078
      -0.043
      -0.132
      -0.172
      -0.150
      -0.056
       0.100
       0.299
       0.514
       0.722
       0.902
       1.024
       1.054
       0.976
       0.803
       0.572
       0.319
       0.062
      -0.200
      -0.464
      -0.710
      -0.907
      -1.032
      -1.083
      -1.069
      -1.000
      -0.877
      -0.698
      -0.479
      -0.252
      -0.058
       0.072
       0.135
       0.153
       0.161
       0.185
       0.227
       0.266
       0.273
       0.224
       0.125
       0.013
      -0.067
      -0.087
      -0.059
      -0.025
      -0.027
      -0.085
      -0.186
      -0.300
      -0.394
      -0.432
      -0.387
      -0.244
      -0.023
       0.222
       0.420
       0.525
       0.531
       0.474
       0.402
       0.349
       0.323
       0.314
       0.307
       0.295
       0.275
       0.253
       0.240
       0.248
       0.275
       0.303
       0.312
       0.285
       0.216
       0.111
      -0.012
      -0.126
      -0.218
      -0.294
      -0.383
      -0.513
      -0.682
      -0.852
      -0.959
      -0.953
      -0.828
      -0.626
      -0.413
      -0.243
      -0.140
      -0.091
      -0.060
      -0.005
       0.093
       0.230
       0.377
       0.505
       0.596
       0.644
       0.645
       0.599
       0.517
       0.416
       0.309
       0.197
       0.070
      -0.082
      -0.245
      -0.384
      -0.454
      -0.424
      -0.291
      -0.080
       0.158
       0.369
       0.512
       0.571
       0.557
       0.491
       0.393
       0.279
       0.162
       0.058
      -0.017
      -0.054
      -0.066
      -0.078
      -0.115
      -0.184
      -0.274
      -0.371
      -0.460
      -0.524
      -0.536
      -0.467
      -0.307
      -0.069
       0.200
       0.442
       0.601
       0.648
       0.581
       0.427
       0.226
       0.005
      -0.214
      -0.419
      -0.594
      -0.721
      -0.784
      -0.779
      -0.713
      -0.599
      -0.457
      -0.303
      -0.145
       0.015
       0.173
       0.309
       0.388
       0.390
       0.328
       0.246
       0.192
       0.191
       0.236
       0.300
       0.366
       0.425
       0.470
       0.482
       0.439
       0.334
       0.182
       0.020
      -0.118
      -0.212
      -0.268
      -0.306
      -0.346
      -0.394
      -0.449
      -0.508
      -0.573
      -0.634
      -0.667
      -0.633
      -0.499
      -0.261
       0.041
       0.335
       0.550
       0.647
       0.627
       0.514
       0.342
       0.137
      -0.072
      -0.249
      -0.352
      -0.360
      -0.285
      -0.160
      -0.021
       0.117
       0.249
       0.371
       0.471
       0.535
       0.549
       0.497
       0.378
       0.213
       0.039
      -0.114
      -0.239
      -0.349
      -0.458
      -0.557
      -0.618
      -0.615
      -0.548
      -0.450
      -0.367
      -0.323
      -0.305
      -0.282
      -0.233
      -0.157
      -0.074
      -0.007
       0.027
       0.019
      -0.028
      -0.102
      -0.185
      -0.262
      -0.317
      -0.328
      -0.276
      -0.154
       0.019
       0.203
       0.351
       0.438
       0.460
       0.430
       0.359
       0.255
       0.128
       0.006
      -0.068
      -0.050
       0.080
       0.298
       0.545
       0.763
       0.916
       0.998
       1.021
       0.990
       0.905
       0.763
       0.582
       0.400
       0.261
       0.187
       0.157
       0.123
       0.041
      -0.095
      -0.253
      -0.375
      -0.411
      -0.339
      -0.170
       0.061
       0.304
       0.511
       0.646
       0.695
       0.663
       0.574
       0.456
       0.341
       0.254
       0.206
       0.192
       0.195
       0.189
       0.152
       0.081
      -0.007
      -0.092
      -0.164
      -0.238
      -0.333
      -0.461
      -0.610
      -0.759
      -0.891
      -1.006
      -1.106
      -1.183
      -1.216
      -1.189
      -1.101
      -0.973
      -0.830
      -0.701
      -0.600
      -0.528
      -0.470
      -0.404
      -0.320
      -0.222
      -0.119
      -0.014
       0.092
       0.192
       0.273
       0.326
       0.358
       0.397
       0.469
       0.575
       0.672
       0.694
       0.591
       0.374
       0.113
      -0.099
      -0.187
      -0.130
       0.046
       0.282
       0.515
       0.696
       0.804
       0.845
       0.849
       0.847
       0.858
       0.878
       0.888
       0.863
       0.786
       0.651
       0.469
       0.264
       0.055
      -0.148
      -0.346
      -0.541
      -0.735
      -0.925
      -1.105
      -1.266
      -1.397
      -1.488
      -1.545
      -1.584
      -1.616
      -1.627
      -1.574
      -1.409
      -1.116
      -0.723
      -0.297
       0.097
       0.412
       0.637
       0.782
       0.878
       0.954
       1.031
       1.106
       1.158
       1.166
       1.130
       1.082
       1.068
       1.126
       1.274
       1.501
       1.770
       2.017
       2.168
       2.160
       1.971
       1.623
       1.174
       0.687
       0.211
      -0.228
      -0.621
      -0.969
      -1.275
      -1.537
      -1.741
      -1.861
      -1.875
      -1.786
      -1.629
      -1.451
      -1.283
      -1.134
      -1.008
      -0.915
      -0.872
      -0.885
      -0.940
      -1.008
      -1.062
      -1.084
      -1.071
      -1.025
      -0.944
      -0.820
      -0.645
      -0.433
      -0.217
      -0.037
       0.085
       0.163
       0.236
       0.332
       0.446
       0.535
       0.551
       0.474
       0.329
       0.164
       0.027
      -0.059
      -0.093
      -0.070
       0.026
       0.212
       0.493
       0.849
       1.246
       1.635
       1.961
       2.169
       2.220
       2.104
       1.851
       1.519
       1.166
       0.830
       0.530
       0.281
       0.106
       0.026
       0.037
       0.109
       0.192
       0.246
       0.245
       0.181
       0.052
      -0.142
      -0.392
      -0.671
      -0.936
      -1.136
      -1.240
      -1.243
      -1.165
      -1.026
      -0.832
      -0.576
      -0.252
       0.126
       0.526
       0.914
       1.263
       1.551
       1.751
       1.839
       1.806
       1.673
       1.475
       1.243
       0.982
       0.668
       0.273
      -0.207
      -0.737
      -1.259
      -1.720
      -2.091
      -2.360
      -2.517
      -2.554
      -2.478
      -2.320
      -2.116
      -1.885
      -1.621
      -1.303
      -0.926
      -0.508
      -0.080
       0.342
       0.763
       1.191
       1.612
       1.975
       2.210
       2.267
       2.142
       1.874
       1.509
       1.073
       0.566
      -0.013
      -0.632
      -1.225
      -1.709
      -2.023
      -2.147
      -2.100
      -1.923
      -1.656
      -1.331
      -0.969
      -0.574
      -0.136
       0.352
       0.879
       1.400
       1.852
       2.169
       2.306
       2.252
       2.030
       1.695
       1.314
       0.944
       0.620
       0.341
       0.087
      -0.166
      -0.420
      -0.649
      -0.817
      -0.909
      -0.939
      -0.945
      -0.963
      -1.011
      -1.095
      -1.212
      -1.362
      -1.540
      -1.736
      -1.927
      -2.081
      -2.155
      -2.107
      -1.910
      -1.571
      -1.128
      -0.644
      -0.182
       0.201
       0.466
       0.590
       0.584
       0.485
       0.359
       0.263
       0.235
       0.291
       0.443
       0.716
       1.127
       1.649
       2.196
       2.664
       2.977
       3.112
       3.079
       2.891
       2.559
       2.108
       1.586
       1.060
       0.582
       0.174
      -0.162
      -0.425
      -0.597
      -0.651
      -0.568
      -0.340
       0.023
       0.491
       1.013
       1.526
       1.958
       2.245
       2.328
       2.172
       1.768
       1.140
       0.340
      -0.562
      -1.490
      -2.363
      -3.105
      -3.647
      -3.944
      -3.992
      -3.821
      -3.484
      -3.032
      -2.512
      -1.970
      -1.471
      -1.083
      -0.859
      -0.794
      -0.822
      -0.845
      -0.794
      -0.672
      -0.552
      -0.529
      -0.665
      -0.958
      -1.353
      -1.765
      -2.097
      -2.251
      -2.139
      -1.706
      -0.953
       0.043
       1.144
       2.185
       3.023
       3.576
       3.839
       3.868
       3.733
       3.488
       3.170
       2.821
       2.504
       2.296
       2.256
       2.386
       2.622
       2.858
       3.003
       3.021
       2.939
       2.817
       2.704
       2.610
       2.512
       2.374
       2.180
       1.934
       1.643
       1.298
       0.885
       0.404
      -0.120
      -0.643
      -1.127
      -1.558
      -1.947
      -2.308
      -2.638
      -2.921
      -3.154
      -3.368
      -3.615
      -3.922
      -4.270
      -4.593
      -4.827
      -4.946
      -4.965
      -4.911
      -4.787
      -4.557
      -4.161
      -3.559
      -2.768
      -1.862
      -0.939
      -0.075
       0.697
       1.362
       1.889
       2.221
       2.313
       2.180
       1.905
       1.617
       1.428
       1.402
       1.546
       1.836
       2.229
       2.668
       3.079
       3.383
       3.526
       3.498
       3.341
       3.132
       2.961
       2.897
       2.962
       3.117
       3.273
       3.326
       3.193
       2.845
       2.305
       1.626
       0.858
       0.046
      -0.766
      -1.522
      -2.161
      -2.638
      -2.941
      -3.087
      -3.107
      -3.030
      -2.878
      -2.677
      -2.464
      -2.285
      -2.173
      -2.137
      -2.166
      -2.249
      -2.385
      -2.572
      -2.792
      -3.011
      -3.197
      -3.335
      -3.422
      -3.446
      -3.378
      -3.167
      -2.769
      -2.168
      -1.390
      -0.503
       0.396
       1.199
       1.814
       2.179
       2.274
       2.132
       1.835
       1.494
       1.214
       1.058
       1.031
       1.089
       1.169
       1.217
       1.204
       1.135
       1.037
       0.936
       0.845
       0.763
       0.683
       0.609
       0.554
       0.531
       0.538
       0.558
       0.561
       0.519
       0.422
       0.280
       0.130
       0.016
      -0.024
       0.021
       0.122
       0.230
       0.302
       0.325
       0.325
       0.344
       0.400
       0.469
       0.496
       0.434
       0.280
       0.085
      -0.077
      -0.142
      -0.086
       0.064
       0.243
       0.378
       0.415
       0.341
       0.184
      -0.005
      -0.186
      -0.361
      -0.563
      -0.825
      -1.138
      -1.446
      -1.660
      -1.698
      -1.516
      -1.129
      -0.600
       0.001
       0.620
       1.225
       1.783
       2.237
       2.515
       2.564
       2.373
       1.983
       1.467
       0.909
       0.393
      -0.010
      -0.259
      -0.365
      -0.394
      -0.439
      -0.570
      -0.799
      -1.069
      -1.280
      -1.333
      -1.163
      -0.765
      -0.210
       0.377
       0.838
       1.041
       0.918
       0.479
      -0.203
      -1.022
      -1.863
      -2.607
      -3.127
      -3.301
      -3.040
      -2.348
      -1.355
      -0.295
       0.581
       1.096
       1.192
       0.917
       0.390
      -0.238
      -0.810
      -1.190
      -1.277
      -1.024
      -0.454
       0.344
       1.229
       2.053
       2.712
       3.172
       3.461
       3.641
       3.760
       3.833
       3.838
       3.728
       3.442
       2.923
       2.145
       1.147
       0.040
      -1.020
      -1.884
      -2.448
      -2.662
      -2.521
      -2.054
      -1.324
      -0.433
       0.491
       1.330
       2.007
       2.498
       2.810
       2.953
       2.919
       2.669
       2.159
       1.364
       0.298
      -0.978
      -2.375
      -3.792
      -5.134
      -6.320
      -7.285
      -7.966
      -8.299
      -8.227
      -7.723
      -6.804
      -5.525
      -3.960
      -2.196
      -0.339
       1.481
       3.114
       4.422
       5.311
       5.740
       5.719
       5.302
       4.578
       3.665
       2.688
       1.764
       0.984
       0.406
       0.058
      -0.068
      -0.015
       0.155
       0.375
       0.579
       0.706
       0.685
       0.455
      -0.003
      -0.629
      -1.290
      -1.826
      -2.116
      -2.111
      -1.816
      -1.251
      -0.432
       0.613
       1.803
       3.002
       4.057
       4.835
       5.238
       5.188
       4.626
       3.554
       2.078
       0.411
      -1.182
      -2.453
      -3.237
      -3.475
      -3.211
      -2.571
      -1.736
      -0.911
      -0.287
       0.000
      -0.110
      -0.603
      -1.404
      -2.390
      -3.405
      -4.291
      -4.920
      -5.205
      -5.083
      -4.498
      -3.412
      -1.849
       0.066
       2.111
       4.033
       5.618
       6.731
       7.310
       7.353
       6.901
       6.027
       4.829
       3.426
       1.955
       0.551
      -0.682
      -1.689
      -2.437
      -2.880
      -2.957
      -2.640
      -1.993
      -1.173
      -0.385
       0.186
       0.437
       0.362
       0.043
      -0.386
      -0.779
      -1.009
      -1.009
      -0.780
      -0.380
       0.119
       0.664
       1.248
       1.882
       2.567
       3.249
       3.820
       4.132
       4.043
       3.454
       2.340
       0.777
      -1.065
      -2.956
      -4.662
      -6.000
      -6.853
      -7.170
      -6.954
      -6.258
      -5.184
      -3.878
      -2.503
      -1.217
      -0.152
       0.600
       0.991
       1.034
       0.814
       0.468
       0.138
      -0.085
      -0.193
      -0.235
      -0.258
      -0.261
      -0.188
       0.027
       0.407
       0.909
       1.439
       1.888
       2.171
       2.243
       2.103
       1.772
       1.295
       0.737
       0.179
      -0.304
      -0.677
      -0.943
      -1.115
      -1.178
      -1.077
      -0.749
      -0.165
       0.630
       1.508
       2.295
       2.850
       3.122
       3.151
       3.014
       2.770
       2.447
       2.062
       1.650
       1.251
       0.880
       0.508
       0.074
      -0.470
      -1.129
      -1.850
      -2.532
      -3.046
      -3.257
      -3.074
      -2.486
      -1.589
      -0.571
       0.332
       0.895
       0.987
       0.619
      -0.061
      -0.846
      -1.576
      -2.192
      -2.714
      -3.157
      -3.486
      -3.625
      -3.511
      -3.137
      -2.561
      -1.884
      -1.215
      -0.641
      -0.209
       0.079
       0.257
       0.370
       0.462
       0.559
       0.679
       0.843
       1.076
       1.402
       1.806
       2.217
       2.524
       2.634
       2.537
       2.312
       2.082
       1.934
       1.874
       1.842
       1.777
       1.651
       1.475
       1.263
       1.017
       0.737
       0.440
       0.164
      -0.041
      -0.125
      -0.049
       0.220
       0.687
       1.312
       1.987
       2.547
       2.833
       2.747
       2.298
       1.572
       0.682
      -0.281
      -1.254
      -2.178
      -2.969
      -3.532
      -3.798
      -3.749
      -3.421
      -2.871
      -2.158
      -1.341
      -0.499
       0.251
       0.774
       0.961
       0.800
       0.399
      -0.057
      -0.391
      -0.507
      -0.419
      -0.210
       0.033
       0.262
       0.478
       0.710
       0.996
       1.369
       1.849
       2.419
       3.010
       3.517
       3.849
       3.965
       3.881
       3.633
       3.231
       2.647
       1.863
       0.918
      -0.074
      -0.983
      -1.721
      -2.280
      -2.702
      -3.045
      -3.357
      -3.667
      -3.990
      -4.310
      -4.577
      -4.710
      -4.624
      -4.259
      -3.609
      -2.730
      -1.734
      -0.760
       0.059
       0.638
       0.957
       1.059
       1.030
       0.969
       0.971
       1.092
       1.346
       1.707
       2.115
       2.478
       2.680
       2.603
       2.181
       1.438
       0.500
      -0.438
      -1.170
      -1.555
      -1.551
      -1.221
      -0.684
      -0.064
       0.547
       1.089
       1.518
       1.789
       1.851
       1.671
       1.270
       0.732
       0.193
      -0.215
      -0.419
      -0.436
      -0.361
      -0.318
      -0.404
      -0.671
      -1.117
      -1.677
      -2.216
      -2.548
      -2.506
      -2.035
      -1.247
      -0.377
       0.324
       0.692
       0.696
       0.397
      -0.107
      -0.729
      -1.392
      -2.008
      -2.469
      -2.664
      -2.516
      -2.008
      -1.190
      -0.161
       0.954
       2.010
       2.851
       3.330
       3.358
       2.947
       2.218
       1.358
       0.548
      -0.103
      -0.579
      -0.924
      -1.190
      -1.400
      -1.554
      -1.648
      -1.697
      -1.725
      -1.737
      -1.693
      -1.514
      -1.120
      -0.496
       0.265
       0.981
       1.444
       1.510
       1.158
       0.497
      -0.292
      -1.010
      -1.503
      -1.679
      -1.523
      -1.082
      -0.445
       0.294
       1.063
       1.819
       2.526
       3.132
       3.569
       3.777
       3.733
       3.466
       3.039
       2.520
       1.957
       1.378
       0.815
       0.322
      -0.029
      -0.186
      -0.157
      -0.014
       0.153
       0.294
       0.423
       0.586
       0.815
       1.098
       1.399
       1.677
       1.905
       2.052
       2.066
       1.876
       1.417
       0.667
      -0.332
      -1.479
      -2.639
      -3.680
      -4.512
      -5.113
      -5.532
      -5.857
      -6.165
      -6.479
