Origin Time       05/3/2012 07:41:05	
Lat.              28.7 N	
Long.             76.6 E	
Depth (Km)         14.0
Magnitude         4.9
 Region           Haryana-Delhi-Border-Region                                      
 Above details taken from IMD 
   
Station Code      KAI
Station Lat.       29.801
Station Long.      76.418
Station Height(m)  256.0
Site Class        C   Vs30 between 200 m/sec to 375 m/sec *  
Record Time       05.03.2012 07:41:29.199
Sampling Rate     200. Hz
 Record Duration   65.820 Sec.
 Direction         Vert. (Up positive)
Max. Acceleration      6.957 cm/sec**2
     
  * For reference see Site Classification link of website 
     
 Base Line Corrected and Low Pass Filtered (Cut Off at 35 Hz) Time History
 Acceleration data in cm/sec**2
    
[...]
       1.106
       0.951
       0.763
       0.608
       0.417
       0.060
      -0.522
      -1.215
      -1.784
      -2.032
      -1.932
      -1.623
      -1.285
      -1.010
      -0.776
      -0.522
      -0.218
       0.117
       0.435
       0.679
       0.822
       0.874
       0.877
       0.867
       0.856
       0.840
       0.815
       0.768
       0.674
       0.508
       0.282
       0.055
      -0.120
      -0.246
      -0.376
      -0.554
      -0.751
      -0.881
      -0.859
      -0.662
      -0.336
       0.027
       0.323
       0.465
       0.418
       0.228
       0.012
      -0.108
      -0.085
       0.029
       0.136
       0.187
       0.205
       0.244
       0.321
       0.399
       0.430
       0.399
       0.322
       0.215
       0.078
      -0.090
      -0.264
      -0.401
      -0.466
      -0.452
      -0.364
      -0.204
       0.012
       0.236
       0.388
       0.413
       0.327
       0.210
       0.150
       0.184
       0.281
       0.367
       0.374
       0.284
       0.131
      -0.031
      -0.164
      -0.271
      -0.364
      -0.442
      -0.494
      -0.513
      -0.508
      -0.493
      -0.463
      -0.402
      -0.301
      -0.177
      -0.062
       0.024
       0.082
       0.117
       0.111
       0.033
      -0.118
      -0.290
      -0.390
      -0.339
      -0.124
       0.178
       0.436
       0.536
       0.445
       0.229
       0.005
      -0.129
      -0.143
      -0.071
       0.037
       0.151
       0.261
       0.342
       0.345
       0.235
       0.035
      -0.158
      -0.227
      -0.120
       0.108
       0.341
       0.487
       0.531
       0.534
       0.567
       0.658
       0.770
       0.825
       0.761
       0.558
       0.246
      -0.125
      -0.508
      -0.855
      -1.114
      -1.231
      -1.174
      -0.954
      -0.640
      -0.350
      -0.212
      -0.307
      -0.616
      -1.009
      -1.307
      -1.378
      -1.206
      -0.883
      -0.523
      -0.173
       0.200
       0.633
       1.095
       1.473
       1.657
       1.627
       1.462
       1.273
       1.116
       0.979
       0.833
       0.661
       0.469
       0.261
       0.041
      -0.176
      -0.365
      -0.523
      -0.671
      -0.819
      -0.934
      -0.957
      -0.872
      -0.736
      -0.640
      -0.631
      -0.669
      -0.657
      -0.524
      -0.272
       0.038
       0.341
       0.596
       0.769
       0.813
       0.689
       0.421
       0.119
      -0.069
      -0.046
       0.168
       0.439
       0.598
       0.549
       0.326
       0.059
      -0.138
      -0.245
      -0.322
      -0.430
      -0.564
      -0.671
      -0.694
      -0.621
      -0.480
      -0.300
      -0.096
       0.127
       0.337
       0.470
       0.459
       0.285
       0.015
      -0.205
      -0.215
       0.062
       0.558
       1.081
       1.424
       1.483
       1.295
       0.983
       0.664
       0.379
       0.099
      -0.207
      -0.535
      -0.836
      -1.059
      -1.170
      -1.160
      -1.031
      -0.805
      -0.542
      -0.348
      -0.327
      -0.510
      -0.825
      -1.127
      -1.274
      -1.181
      -0.841
      -0.310
       0.299
       0.854
       1.266
       1.538
       1.740
       1.922
       2.028
       1.925
       1.525
       0.884
       0.184
      -0.388
      -0.739
      -0.887
      -0.903
      -0.863
      -0.825
      -0.836
      -0.903
      -0.975
      -0.962
      -0.814
      -0.567
      -0.325
      -0.172
      -0.111
      -0.083
      -0.033
       0.034
       0.064
       0.016
      -0.098
      -0.215
      -0.273
      -0.247
      -0.152
      -0.016
       0.138
       0.302
       0.461
       0.596
       0.687
       0.742
       0.792
       0.865
       0.943
       0.966
       0.883
       0.729
       0.630
       0.704
       0.936
       1.140
       1.077
       0.633
      -0.102
      -0.902
      -1.558
      -1.970
      -2.132
      -2.065
      -1.794
      -1.362
      -0.848
      -0.338
       0.116
       0.511
       0.864
       1.180
       1.437
       1.618
       1.722
       1.744
       1.651
       1.421
       1.085
       0.739
       0.482
       0.340
       0.251
       0.116
      -0.150
      -0.564
      -1.059
      -1.510
      -1.807
      -1.935
      -1.977
      -2.037
      -2.142
      -2.233
      -2.228
      -2.110
      -1.920
      -1.694
      -1.404
      -0.979
      -0.374
       0.369
       1.135
       1.794
       2.264
       2.512
       2.527
       2.305
       1.877
       1.338
       0.839
       0.519
       0.431
       0.500
       0.556
       0.424
       0.025
      -0.563
      -1.154
      -1.577
      -1.798
      -1.919
      -2.064
      -2.251
      -2.378
      -2.310
      -1.993
      -1.475
      -0.840
      -0.140
       0.609
       1.379
       2.092
       2.635
       2.930
       2.992
       2.932
       2.864
       2.820
       2.738
       2.531
       2.156
       1.624
       0.970
       0.227
      -0.545
      -1.247
      -1.775
      -2.069
      -2.142
      -2.043
      -1.821
      -1.493
      -1.062
      -0.554
      -0.058
       0.302
       0.438
       0.364
       0.188
       0.024
      -0.091
      -0.203
      -0.374
      -0.620
      -0.895
      -1.144
      -1.347
      -1.515
      -1.643
      -1.684
      -1.568
      -1.274
      -0.864
      -0.460
      -0.155
       0.051
       0.242
       0.497
       0.810
       1.108
       1.327
       1.469
       1.573
       1.653
       1.668
       1.562
       1.341
       1.075
       0.845
       0.674
       0.521
       0.335
       0.118
      -0.066
      -0.145
      -0.103
      -0.005
       0.045
      -0.002
      -0.098
      -0.123
       0.020
       0.334
       0.727
       1.087
       1.332
       1.414
       1.303
       0.988
       0.506
      -0.054
      -0.568
      -0.920
      -1.051
      -0.987
      -0.809
      -0.598
      -0.396
      -0.210
      -0.049
       0.067
       0.121
       0.126
       0.098
       0.023
      -0.153
      -0.482
      -0.954
      -1.477
      -1.916
      -2.160
      -2.177
      -2.011
      -1.739
      -1.404
      -1.000
      -0.517
       0.017
       0.537
       0.999
       1.423
       1.848
       2.267
       2.593
       2.699
       2.498
       1.998
       1.293
       0.503
      -0.299
      -1.090
      -1.861
      -2.545
      -3.019
      -3.167
      -2.977
      -2.555
      -2.064
      -1.630
      -1.299
      -1.066
      -0.907
      -0.784
      -0.636
      -0.386
       0.011
       0.538
       1.119
       1.678
       2.182
       2.650
       3.091
       3.451
       3.618
       3.499
       3.091
       2.486
       1.794
       1.075
       0.356
      -0.318
      -0.873
      -1.254
      -1.479
      -1.631
      -1.813
      -2.079
      -2.398
      -2.663
      -2.764
      -2.656
      -2.370
      -1.956
      -1.431
      -0.796
      -0.102
       0.533
       1.000
       1.287
       1.475
       1.639
       1.754
       1.705
       1.390
       0.826
       0.181
      -0.309
      -0.476
      -0.325
      -0.016
       0.255
       0.400
       0.484
       0.639
       0.946
       1.367
       1.764
       1.973
       1.894
       1.545
       1.055
       0.580
       0.209
      -0.066
      -0.299
      -0.524
      -0.738
      -0.928
      -1.093
      -1.243
      -1.385
      -1.529
      -1.676
      -1.809
      -1.893
      -1.914
      -1.899
      -1.878
      -1.838
      -1.712
      -1.439
      -1.028
      -0.551
      -0.077
       0.383
       0.860
       1.377
       1.896
       2.332
       2.607
       2.693
       2.610
       2.382
       2.005
       1.458
       0.746
      -0.095
      -0.994
      -1.831
      -2.425
      -2.599
      -2.301
      -1.676
      -0.993
      -0.479
      -0.202
      -0.090
      -0.030
       0.062
       0.221
       0.431
       0.634
       0.773
       0.852
       0.963
       1.213
       1.622
       2.071
       2.362
       2.349
       2.015
       1.459
       0.811
       0.149
      -0.495
      -1.093
      -1.572
      -1.837
      -1.821
      -1.531
      -1.050
      -0.510
      -0.046
       0.261
       0.397
       0.393
       0.269
       0.014
      -0.378
      -0.857
      -1.316
      -1.648
      -1.796
      -1.737
      -1.430
      -0.816
       0.103
       1.168
       2.067
       2.484
       2.304
       1.704
       1.047
       0.644
       0.574
       0.679
       0.713
       0.505
       0.047
      -0.515
      -0.981
      -1.217
      -1.238
      -1.168
      -1.116
      -1.087
      -1.017
      -0.896
      -0.808
      -0.857
      -1.033
      -1.178
      -1.082
      -0.633
       0.109
       0.947
       1.670
       2.153
       2.389
       2.453
       2.438
       2.401
       2.340
       2.202
       1.929
       1.489
       0.888
       0.160
      -0.645
      -1.459
      -2.197
      -2.767
      -3.086
      -3.117
      -2.890
      -2.500
      -2.050
      -1.589
      -1.120
      -0.658
      -0.280
      -0.092
      -0.123
      -0.248
      -0.237
       0.093
       0.736
       1.486
       2.075
       2.352
       2.345
       2.185
       1.980
       1.749
       1.442
       0.983
       0.322
      -0.534
      -1.499
      -2.426
      -3.168
      -3.612
      -3.678
      -3.310
      -2.529
      -1.499
      -0.490
       0.280
       0.795
       1.227
       1.758
       2.405
       3.000
       3.303
       3.144
       2.498
       1.490
       0.345
      -0.677
      -1.361
      -1.592
      -1.370
      -0.792
      -0.013
       0.773
       1.361
       1.585
       1.376
       0.819
       0.128
      -0.470
      -0.857
      -1.061
      -1.174
      -1.225
      -1.141
      -0.811
      -0.187
       0.670
       1.605
       2.405
       2.864
       2.857
       2.391
       1.597
       0.650
      -0.316
      -1.222
      -1.995
      -2.549
      -2.813
      -2.791
      -2.560
      -2.215
      -1.812
      -1.368
      -0.917
      -0.518
      -0.221
      -0.005
       0.213
       0.508
       0.874
       1.223
       1.449
       1.488
       1.346
       1.075
       0.741
       0.401
       0.088
      -0.178
      -0.381
      -0.509
      -0.571
      -0.592
      -0.595
      -0.574
      -0.503
      -0.359
      -0.150
       0.082
       0.272
       0.349
       0.264
       0.032
      -0.253
      -0.457
      -0.495
      -0.378
      -0.183
       0.045
       0.324
       0.682
       1.076
       1.391
       1.518
       1.431
       1.188
       0.873
       0.510
       0.049
      -0.572
      -1.320
      -2.015
      -2.420
      -2.415
      -2.092
      -1.690
      -1.423
      -1.338
      -1.318
      -1.184
      -0.811
      -0.173
       0.675
       1.627
       2.544
       3.272
       3.695
       3.808
       3.718
       3.546
       3.299
       2.844
       2.047
       0.940
      -0.221
      -1.095
      -1.488
      -1.488
      -1.409
      -1.576
      -2.130
      -2.980
      -3.907
      -4.705
      -5.234
      -5.387
      -5.063
      -4.210
      -2.899
      -1.322
       0.307
       1.852
       3.246
       4.401
       5.145
       5.309
       4.886
       4.104
       3.284
       2.612
       2.029
       1.353
       0.510
      -0.354
      -0.993
      -1.301
      -1.426
      -1.649
      -2.144
      -2.819
      -3.374
      -3.530
      -3.217
      -2.578
      -1.788
      -0.897
       0.134
       1.272
       2.316
       2.997
       3.185
       2.954
       2.481
       1.886
       1.203
       0.467
      -0.199
      -0.630
      -0.720
      -0.509
      -0.189
      -0.026
      -0.224
      -0.796
      -1.519
      -2.038
      -2.070
      -1.567
      -0.709
       0.243
       1.102
       1.782
       2.213
       2.283
       1.906
       1.148
       0.254
      -0.495
      -0.961
      -1.202
      -1.359
      -1.503
      -1.602
      -1.612
      -1.563
      -1.543
      -1.601
      -1.666
      -1.572
      -1.193
      -0.543
       0.223
       0.944
       1.582
       2.239
       3.017
       3.854
       4.495
       4.653
       4.221
       3.332
       2.230
       1.101
       0.025
      -0.957
      -1.770
      -2.337
      -2.633
      -2.702
      -2.585
      -2.263
      -1.675
      -0.792
       0.300
       1.389
       2.203
       2.529
       2.319
       1.696
       0.869
       0.019
      -0.766
      -1.455
      -2.035
      -2.483
      -2.794
      -2.982
      -3.050
      -2.946
      -2.581
      -1.893
      -0.907
       0.256
       1.419
       2.407
       3.077
       3.327
       3.119
       2.507
       1.650
       0.762
       0.002
      -0.596
      -1.075
      -1.442
      -1.614
      -1.502
      -1.127
      -0.664
      -0.349
      -0.360
      -0.726
      -1.327
      -1.944
      -2.360
      -2.457
      -2.250
      -1.829
      -1.237
      -0.412
       0.750
       2.236
       3.808
       5.050
       5.581
       5.268
       4.282
       2.948
       1.528
       0.089
      -1.422
      -3.002
      -4.471
      -5.538
      -6.000
      -5.872
      -5.338
      -4.563
      -3.567
      -2.261
      -0.586
       1.376
       3.391
       5.150
       6.381
       6.957
       6.925
       6.427
       5.598
       4.541
       3.383
       2.308
       1.470
       0.891
       0.459
       0.034
      -0.453
      -1.000
      -1.587
      -2.200
      -2.814
      -3.387
      -3.885
      -4.317
      -4.729
      -5.152
      -5.516
      -5.637
      -5.309
      -4.460
      -3.243
      -1.960
      -0.895
      -0.168
       0.277
       0.605
       0.986
       1.507
       2.126
       2.691
       3.041
       3.132
       3.065
       2.998
       3.011
       3.049
       2.975
       2.664
       2.085
       1.315
       0.507
      -0.196
      -0.757
      -1.271
      -1.869
      -2.565
      -3.188
      -3.465
      -3.211
      -2.443
      -1.369
      -0.247
       0.744
       1.563
       2.251
       2.825
       3.195
       3.172
       2.591
       1.465
       0.047
      -1.267
      -2.131
      -2.397
      -2.125
      -1.491
      -0.686
       0.160
       0.995
       1.823
       2.631
       3.352
       3.873
       4.094
       3.966
       3.494
       2.731
       1.787
       0.811
      -0.080
      -0.880
      -1.678
      -2.528
      -3.343
      -3.915
      -4.065
      -3.782
      -3.220
      -2.584
      -1.984
      -1.396
      -0.737
       0.023
       0.806
       1.455
       1.812
       1.779
       1.350
       0.608
      -0.313
      -1.270
      -2.132
      -2.771
      -3.079
      -3.019
      -2.648
      -2.066
      -1.326
      -0.416
       0.648
       1.728
       2.595
       3.055
       3.060
       2.684
       2.022
       1.128
       0.045
      -1.106
      -2.103
      -2.703
      -2.785
      -2.430
      -1.855
      -1.252
      -0.669
      -0.026
       0.750
       1.611
       2.399
       2.954
       3.209
       3.202
       3.037
       2.836
       2.710
       2.728
       2.884
       3.067
       3.085
       2.722
       1.840
       0.483
      -1.119
      -2.655
      -3.894
      -4.760
      -5.282
      -5.492
      -5.369
      -4.888
      -4.093
      -3.102
      -2.045
      -0.966
       0.189
       1.480
       2.841
       4.058
       4.876
       5.165
       4.972
       4.445
       3.707
       2.782
       1.622
       0.230
      -1.240
      -2.507
      -3.327
      -3.654
      -3.623
      -3.382
      -2.954
      -2.289
      -1.411
      -0.486
       0.261
       0.699
       0.837
       0.755
       0.496
       0.044
      -0.593
      -1.277
      -1.742
      -1.748
      -1.262
      -0.464
       0.424
       1.316
       2.244
       3.182
       3.904
       4.081
       3.521
       2.354
       0.976
      -0.201
      -0.971
      -1.379
      -1.566
      -1.616
      -1.522
      -1.283
      -0.982
      -0.754
      -0.682
      -0.747
      -0.883
      -1.051
      -1.258
      -1.507
      -1.748
      -1.887
      -1.849
      -1.631
      -1.290
      -0.896
      -0.469
       0.032
       0.657
       1.386
       2.091
       2.585
       2.739
       2.567
       2.210
       1.829
       1.487
       1.105
       0.540
      -0.269
      -1.194
      -1.946
      -2.251
      -2.014
      -1.343
      -0.432
       0.556
       1.512
       2.329
       2.873
       3.000
       2.615
       1.734
       0.539
      -0.635
      -1.452
      -1.764
      -1.701
      -1.540
      -1.480
      -1.524
      -1.532
      -1.368
      -0.987
      -0.419
       0.279
       1.061
       1.862
       2.552
       2.928
       2.811
       2.212
       1.423
       0.880
       0.864
       1.249
       1.554
       1.269
       0.214
      -1.340
      -2.869
      -3.928
      -4.366
      -4.284
      -3.851
      -3.166
      -2.274
      -1.266
      -0.318
       0.380
       0.758
       0.920
       1.042
       1.208
       1.319
       1.194
       0.758
       0.155
      -0.325
      -0.425
      -0.079
       0.569
       1.249
       1.688
       1.715
       1.342
       0.780
       0.346
       0.277
       0.559
       0.927
       1.060
       0.821
       0.350
      -0.066
      -0.224
      -0.142
       0.002
       0.050
      -0.026
      -0.144
      -0.207
      -0.175
      -0.062
       0.087
       0.206
       0.204
      -0.015
      -0.476
      -1.068
      -1.548
      -1.674
      -1.355
      -0.692
       0.124
       0.944
       1.691
       2.309
       2.717
       2.848
       2.711
       2.378
       1.886
       1.172
       0.136
      -1.196
      -2.594
      -3.726
      -4.372
      -4.568
      -4.530
      -4.440
      -4.287
      -3.908
      -3.179
      -2.146
      -0.970
       0.227
       1.439
       2.689
       3.869
       4.713
       4.942
       4.473
       3.490
       2.326
       1.259
       0.393
      -0.318
      -0.968
      -1.616
      -2.240
      -2.737
      -2.942
      -2.686
      -1.897
      -0.664
       0.766
       2.093
       3.085
       3.648
       3.798
       3.602
       3.133
       2.469
       1.695
       0.894
       0.125
      -0.590
      -1.253
      -1.861
      -2.372
      -2.712
      -2.818
      -2.704
      -2.477
      -2.299
      -2.292
      -2.462
      -2.684
      -2.775
      -2.605
      -2.181
      -1.641
      -1.148
      -0.775
      -0.453
      -0.046
       0.533
       1.244
       1.954
       2.542
       2.970
       3.267
       3.425
       3.339
       2.881
       2.058
       1.105
       0.379
       0.125
       0.302
       0.644
       0.891
       0.982
       1.024
       1.107
       1.166
       1.033
       0.578
      -0.193
      -1.151
      -2.116
      -2.907
      -3.372
      -3.438
      -3.152
      -2.672
      -2.182
      -1.771
      -1.375
      -0.840
      -0.067
       0.879
       1.791
       2.448
