Origin Time       05/3/2012 07:41:05	
Lat.              28.7 N	
Long.             76.6 E	
Depth (Km)         14.0
Magnitude         4.9
 Region           Haryana-Delhi-Border-Region                                      
 Above details taken from IMD 
   
Station Code      ANC
Station Lat.       28.539
Station Long.      77.264
Station Height(m)  231.0
Site Class        C   Vs30 between 200 m/sec to 375 m/sec *  
Record Time       05.03.2012 07:40:47.719
Sampling Rate     200. Hz
 Record Duration  108.840 Sec.
 Direction         Vert. (Up positive)
Max. Acceleration     -5.752 cm/sec**2
     
  * For reference see Site Classification link of website 
     
 Base Line Corrected and Low Pass Filtered (Cut Off at 35 Hz) Time History
 Acceleration data in cm/sec**2
    
[...]
      -1.565
      -1.003
       0.112
       1.441
       2.575
       3.170
       3.054
       2.300
       1.195
       0.106
      -0.694
      -1.128
      -1.277
      -1.244
      -1.044
      -0.597
       0.157
       1.095
       1.864
       2.035
       1.404
       0.219
      -0.893
      -1.307
      -0.828
       0.162
       0.956
       0.979
       0.141
      -1.132
      -2.163
      -2.405
      -1.731
      -0.491
       0.684
       1.223
       0.908
      -0.047
      -1.177
      -2.048
      -2.423
      -2.254
      -1.596
      -0.593
       0.488
       1.269
       1.394
       0.728
      -0.534
      -1.897
      -2.758
      -2.677
      -1.629
      -0.039
       1.445
       2.322
       2.489
       2.206
       1.834
       1.573
       1.381
       1.070
       0.471
      -0.441
      -1.516
      -2.474
      -3.021
      -2.970
      -2.324
      -1.283
      -0.179
       0.642
       0.931
       0.620
      -0.154
      -1.094
      -1.832
      -2.054
      -1.621
      -0.629
       0.611
       1.702
       2.354
       2.538
       2.491
       2.541
       2.867
       3.372
       3.772
       3.792
       3.312
       2.381
       1.165
      -0.100
      -1.129
      -1.651
      -1.526
      -0.828
       0.179
       1.137
       1.724
       1.745
       1.182
       0.188
      -0.977
      -2.051
      -2.855
      -3.306
      -3.381
      -3.082
      -2.455
      -1.611
      -0.711
       0.107
       0.768
       1.250
       1.534
       1.566
       1.278
       0.656
      -0.206
      -1.095
      -1.746
      -1.943
      -1.602
      -0.811
       0.196
       1.145
       1.839
       2.261
       2.540
       2.799
       2.976
       2.792
       1.938
       0.355
      -1.631
      -3.460
      -4.660
      -5.075
      -4.839
      -4.161
      -3.162
      -1.897
      -0.494
       0.789
       1.661
       1.954
       1.700
       1.104
       0.440
      -0.053
      -0.246
      -0.164
       0.029
       0.147
       0.112
       0.023
       0.084
       0.435
       1.019
       1.576
       1.791
       1.481
       0.724
      -0.160
      -0.775
      -0.866
      -0.461
       0.148
       0.589
       0.626
       0.264
      -0.289
      -0.759
      -0.921
      -0.659
       0.008
       0.925
       1.805
       2.316
       2.218
       1.505
       0.428
      -0.623
      -1.326
      -1.561
      -1.393
      -0.960
      -0.359
       0.368
       1.179
       1.985
       2.678
       3.194
       3.518
       3.609
       3.305
       2.367
       0.695
      -1.449
      -3.427
      -4.516
      -4.326
      -3.053
      -1.377
      -0.067
       0.451
       0.266
      -0.187
      -0.473
      -0.417
      -0.146
       0.065
       0.003
      -0.340
      -0.757
      -0.937
      -0.660
       0.044
       0.902
       1.559
       1.782
       1.536
       0.911
       0.010
      -1.048
      -2.061
      -2.727
      -2.760
      -2.080
      -0.899
       0.348
       1.194
       1.329
       0.719
      -0.353
      -1.370
      -1.791
      -1.337
      -0.169
       1.180
       2.098
       2.229
       1.618
       0.609
      -0.392
      -1.128
      -1.559
      -1.788
      -1.933
      -2.017
      -1.937
      -1.543
      -0.782
       0.187
       1.023
       1.386
       1.147
       0.452
      -0.400
      -1.143
      -1.631
      -1.773
      -1.462
      -0.606
       0.718
       2.175
       3.259
       3.546
       2.928
       1.660
       0.207
      -0.961
      -1.521
      -1.383
      -0.707
       0.139
       0.748
       0.904
       0.716
       0.532
       0.672
       1.170
       1.739
       1.970
       1.598
       0.660
      -0.535
      -1.563
      -2.091
      -2.014
      -1.481
      -0.782
      -0.184
       0.193
       0.379
       0.469
       0.521
       0.522
       0.430
       0.252
       0.076
       0.020
       0.140
       0.360
       0.498
       0.356
      -0.173
      -1.046
      -2.067
      -2.931
      -3.318
      -3.003
      -1.957
      -0.389
       1.303
       2.679
       3.425
       3.462
       2.921
       2.020
       0.942
      -0.174
      -1.141
      -1.670
      -1.456
      -0.395
       1.224
       2.757
       3.497
       3.066
       1.624
      -0.248
      -1.902
      -2.949
      -3.362
      -3.317
      -2.952
      -2.252
      -1.133
       0.361
       1.934
       3.097
       3.398
       2.671
       1.169
      -0.519
      -1.734
      -2.066
      -1.548
      -0.617
       0.136
       0.278
      -0.229
      -1.026
      -1.581
      -1.525
      -0.878
       0.007
       0.733
       1.148
       1.361
       1.512
       1.549
       1.239
       0.401
      -0.857
      -2.112
      -2.826
      -2.651
      -1.636
      -0.217
       1.019
       1.652
       1.622
       1.190
       0.736
       0.520
       0.573
       0.734
       0.794
       0.639
       0.307
      -0.065
      -0.364
      -0.592
      -0.835
      -1.127
      -1.349
      -1.267
      -0.718
       0.232
       1.292
       2.097
       2.379
       2.032
       1.124
      -0.119
      -1.345
      -2.147
      -2.200
      -1.423
      -0.074
       1.310
       2.155
       2.143
       1.379
       0.303
      -0.582
      -0.981
      -0.923
      -0.658
      -0.441
      -0.361
      -0.311
      -0.121
       0.273
       0.741
       1.030
       0.918
       0.335
      -0.605
      -1.642
      -2.434
      -2.670
      -2.210
      -1.193
       0.011
       0.987
       1.461
       1.358
       0.766
      -0.096
      -0.882
      -1.195
      -0.787
       0.245
       1.443
       2.215
       2.162
       1.291
      -0.003
      -1.154
      -1.730
      -1.639
      -1.121
      -0.541
      -0.147
       0.023
       0.057
       0.048
       0.052
       0.128
       0.342
       0.691
       1.050
       1.198
       0.948
       0.289
      -0.567
      -1.264
      -1.499
      -1.193
      -0.531
       0.190
       0.757
       1.136
       1.379
       1.474
       1.320
       0.855
       0.208
      -0.307
      -0.377
       0.079
       0.812
       1.368
       1.361
       0.722
      -0.233
      -0.979
      -1.106
      -0.569
       0.282
       0.907
       0.881
       0.140
      -0.985
      -1.936
      -2.236
      -1.745
      -0.721
       0.334
       0.938
       0.847
       0.132
      -0.863
      -1.631
      -1.692
      -0.823
       0.746
       2.343
       3.144
       2.644
       1.009
      -0.949
      -2.225
      -2.215
      -1.071
       0.437
       1.449
       1.534
       0.863
      -0.033
      -0.657
      -0.813
      -0.594
      -0.212
       0.171
       0.514
       0.840
       1.138
       1.295
       1.134
       0.535
      -0.455
      -1.590
      -2.530
      -2.986
      -2.835
      -2.149
      -1.147
      -0.123
       0.655
       1.035
       1.019
       0.707
       0.209
      -0.390
      -0.981
      -1.352
      -1.214
      -0.371
       1.076
       2.674
       3.792
       3.953
       3.095
       1.572
      -0.077
      -1.423
      -2.296
      -2.716
      -2.743
      -2.387
      -1.661
      -0.692
       0.272
       0.977
       1.305
       1.300
       1.091
       0.812
       0.590
       0.546
       0.753
       1.145
       1.505
       1.568
       1.187
       0.418
      -0.499
      -1.250
      -1.575
      -1.382
      -0.792
      -0.088
       0.444
       0.680
       0.723
       0.791
       1.004
       1.237
       1.174
       0.542
      -0.659
      -2.089
      -3.214
      -3.552
      -2.899
      -1.432
       0.355
       1.858
       2.620
       2.502
       1.662
       0.405
      -0.966
      -2.153
      -2.809
      -2.607
      -1.470
       0.228
       1.760
       2.444
       2.061
       0.961
      -0.223
      -0.998
      -1.250
      -1.170
      -0.990
      -0.786
      -0.486
      -0.022
       0.546
       1.034
       1.244
       1.083
       0.607
      -0.003
      -0.525
      -0.793
      -0.774
      -0.577
      -0.361
      -0.221
      -0.143
      -0.068
       0.016
       0.078
       0.127
       0.249
       0.528
       0.908
       1.164
       1.057
       0.544
      -0.144
      -0.634
      -0.654
      -0.203
       0.464
       0.998
       1.143
       0.844
       0.229
      -0.465
      -0.996
      -1.194
      -1.014
      -0.539
       0.064
       0.643
       1.114
       1.453
       1.643
       1.633
       1.362
       0.816
       0.069
      -0.720
      -1.356
      -1.672
      -1.585
      -1.116
      -0.388
       0.384
       0.932
       1.015
       0.547
      -0.322
      -1.228
      -1.750
      -1.608
      -0.807
       0.363
       1.452
       2.034
       1.882
       1.048
      -0.167
      -1.311
      -1.930
      -1.723
      -0.670
       0.900
       2.374
       3.101
       2.717
       1.361
      -0.392
      -1.857
      -2.588
      -2.517
      -1.847
      -0.865
       0.170
       1.029
       1.511
       1.482
       0.957
       0.127
      -0.696
      -1.232
      -1.395
      -1.341
      -1.309
      -1.393
      -1.428
      -1.135
      -0.389
       0.623
       1.490
       1.835
       1.539
       0.791
      -0.034
      -0.587
      -0.702
      -0.446
      -0.025
       0.370
       0.660
       0.862
       0.995
       1.011
       0.833
       0.446
      -0.035
      -0.390
      -0.413
      -0.071
       0.423
       0.699
       0.455
      -0.330
      -1.341
      -2.099
      -2.242
      -1.733
      -0.847
       0.025
       0.600
       0.804
       0.704
       0.385
      -0.094
      -0.637
      -1.029
      -1.008
      -0.459
       0.416
       1.158
       1.336
       0.857
       0.042
      -0.600
      -0.731
      -0.401
       0.024
       0.168
      -0.079
      -0.489
      -0.677
      -0.388
       0.308
       1.045
       1.384
       1.113
       0.392
      -0.345
      -0.695
      -0.573
      -0.231
      -0.006
      -0.009
      -0.034
       0.204
       0.741
       1.259
       1.336
       0.824
       0.021
      -0.541
      -0.527
      -0.076
       0.319
       0.218
      -0.396
      -1.085
      -1.291
      -0.764
       0.250
       1.184
       1.562
       1.314
       0.784
       0.439
       0.515
       0.867
       1.123
       0.989
       0.480
      -0.118
      -0.481
      -0.499
      -0.341
      -0.295
      -0.520
      -0.906
      -1.150
      -1.003
      -0.491
       0.090
       0.391
       0.277
      -0.106
      -0.474
      -0.623
      -0.525
      -0.272
       0.046
       0.408
       0.823
       1.247
       1.522
       1.425
       0.817
      -0.215
      -1.345
      -2.155
      -2.340
      -1.846
      -0.864
       0.254
       1.124
       1.455
       1.158
       0.398
      -0.473
      -1.063
      -1.113
      -0.622
       0.152
       0.817
       1.056
       0.796
       0.238
      -0.280
      -0.470
      -0.245
       0.248
       0.682
       0.708
       0.156
      -0.823
      -1.801
      -2.313
      -2.120
      -1.325
      -0.271
       0.665
       1.251
       1.445
       1.344
       1.081
       0.771
       0.504
       0.349
       0.315
       0.321
       0.224
      -0.054
      -0.422
      -0.649
      -0.521
      -0.012
       0.688
       1.277
       1.492
       1.196
       0.414
      -0.663
      -1.707
      -2.364
      -2.406
      -1.843
      -0.887
       0.181
       1.134
       1.822
       2.127
       1.955
       1.295
       0.295
      -0.724
      -1.376
      -1.374
      -0.692
       0.381
       1.323
       1.630
       1.099
      -0.021
      -1.145
      -1.676
      -1.309
      -0.158
       1.313
       2.476
       2.769
       1.919
       0.102
      -2.066
      -3.758
      -4.289
      -3.430
      -1.513
       0.734
       2.526
       3.356
       3.153
       2.213
       0.973
      -0.202
      -1.115
      -1.698
      -1.920
      -1.742
      -1.165
      -0.331
       0.449
       0.797
       0.484
      -0.399
      -1.434
      -2.073
      -1.909
      -0.889
       0.653
       2.147
       3.043
       3.028
       2.124
       0.639
      -0.968
      -2.210
      -2.679
      -2.161
      -0.753
       1.091
       2.676
       3.355
       2.835
       1.316
      -0.603
      -2.218
      -3.029
      -2.932
      -2.180
      -1.171
      -0.190
       0.695
       1.516
       2.202
       2.505
       2.154
       1.124
      -0.218
      -1.255
      -1.485
      -0.837
       0.290
       1.305
       1.769
       1.577
       0.874
      -0.122
      -1.195
      -2.084
      -2.460
      -2.061
      -0.895
       0.673
       2.059
       2.746
       2.520
       1.541
       0.236
      -0.911
      -1.567
      -1.666
      -1.376
      -0.953
      -0.577
      -0.287
      -0.031
       0.230
       0.449
       0.508
       0.305
      -0.136
      -0.629
      -0.898
      -0.727
      -0.098
       0.787
       1.587
       1.960
       1.687
       0.764
      -0.544
      -1.736
      -2.241
      -1.692
      -0.178
       1.703
       3.073
       3.200
       1.867
      -0.501
      -3.001
      -4.618
      -4.621
      -2.876
       0.042
       3.014
       4.822
       4.667
       2.541
      -0.755
      -3.935
      -5.752
      -5.508
      -3.333
      -0.118
       2.893
       4.644
       4.674
       3.214
       0.985
      -1.162
      -2.564
      -2.944
      -2.415
      -1.338
      -0.096
       1.046
       1.939
       2.448
       2.410
       1.730
       0.524
      -0.846
      -1.907
      -2.304
      -1.934
      -0.948
       0.347
       1.578
       2.381
       2.488
       1.845
       0.668
      -0.616
      -1.534
      -1.759
      -1.235
      -0.206
       0.863
       1.468
       1.284
       0.343
      -0.948
      -1.987
      -2.261
      -1.621
      -0.357
       0.949
       1.724
       1.671
       0.882
      -0.237
      -1.162
      -1.485
      -1.097
      -0.240
       0.620
       1.062
       0.966
       0.567
       0.263
       0.293
       0.530
       0.577
       0.102
      -0.836
      -1.749
      -2.030
      -1.386
      -0.054
       1.350
       2.206
       2.203
       1.407
       0.146
      -1.160
      -2.114
      -2.436
      -2.025
      -0.998
       0.340
       1.587
       2.351
       2.364
       1.582
       0.240
      -1.209
      -2.264
      -2.587
      -2.129
      -1.096
       0.201
       1.451
       2.366
       2.643
       2.039
       0.563
      -1.354
      -2.937
      -3.431
      -2.545
      -0.664
       1.349
       2.621
       2.710
       1.752
       0.282
      -1.099
      -1.982
      -2.223
      -1.873
      -1.102
      -0.160
       0.646
       1.043
       0.931
       0.477
       0.068
       0.081
       0.629
       1.440
       2.006
       1.909
       1.130
       0.089
      -0.623
      -0.642
      -0.069
       0.638
       1.000
       0.838
       0.333
      -0.171
      -0.419
      -0.367
      -0.131
       0.142
       0.346
       0.406
       0.238
      -0.226
      -0.950
      -1.710
      -2.136
      -1.908
      -0.992
       0.265
       1.273
       1.520
       0.864
      -0.365
      -1.518
      -1.964
      -1.441
      -0.203
       1.126
       1.939
       1.979
       1.429
       0.690
       0.090
      -0.291
      -0.567
      -0.860
      -1.148
      -1.256
      -0.998
      -0.360
       0.430
       1.014
       1.115
       0.694
      -0.052
      -0.818
      -1.338
      -1.480
      -1.266
      -0.830
      -0.327
       0.150
       0.578
       0.933
       1.106
       0.932
       0.333
      -0.544
      -1.338
      -1.654
      -1.297
      -0.402
       0.634
       1.368
       1.529
       1.153
       0.522
      -0.023
      -0.310
      -0.406
      -0.493
      -0.655
      -0.779
      -0.649
      -0.160
       0.578
       1.300
       1.743
       1.774
       1.413
       0.798
       0.124
      -0.406
      -0.636
      -0.496
      -0.042
       0.542
       0.983
       1.021
       0.555
      -0.249
      -1.009
      -1.314
      -0.957
      -0.071
       0.909
       1.438
       1.147
       0.075
      -1.303
      -2.312
      -2.439
      -1.611
      -0.202
       1.188
       2.021
       2.043
       1.338
       0.268
      -0.690
      -1.126
      -0.860
      -0.025
       0.985
       1.676
       1.678
       0.929
      -0.265
      -1.338
      -1.735
      -1.211
       0.006
       1.309
       2.026
       1.754
       0.560
      -1.056
      -2.383
      -2.822
      -2.173
      -0.740
       0.816
       1.823
       1.942
       1.293
       0.309
      -0.544
      -0.976
      -0.922
      -0.480
       0.161
       0.782
       1.196
       1.306
       1.133
       0.778
       0.360
      -0.039
      -0.384
      -0.676
      -0.907
      -1.032
      -0.985
      -0.737
      -0.367
      -0.057
       0.002
      -0.249
      -0.673
      -1.024
      -1.108
      -0.915
      -0.599
      -0.350
      -0.250
      -0.216
      -0.066
       0.325
       0.871
       1.276
       1.221
       0.612
      -0.324
      -1.160
      -1.525
      -1.288
      -0.591
       0.261
       0.946
       1.254
       1.137
       0.702
       0.138
      -0.366
      -0.678
      -0.755
      -0.629
      -0.371
      -0.052
       0.276
       0.560
       0.708
       0.605
       0.193
      -0.438
      -1.043
      -1.328
      -1.136
      -0.549
       0.149
       0.630
       0.711
       0.440
       0.053
      -0.175
      -0.083
       0.290
       0.736
       1.001
       0.926
       0.523
      -0.040
      -0.521
      -0.714
      -0.514
       0.041
       0.782
       1.449
       1.774
       1.592
       0.925
      -0.016
      -0.916
      -1.488
      -1.577
      -1.194
      -0.485
       0.329
       1.011
       1.346
       1.188
       0.532
      -0.438
      -1.373
      -1.908
      -1.842
      -1.236
      -0.345
       0.539
       1.235
       1.696
       1.944
       1.974
       1.712
       1.086
       0.162
      -0.790
      -1.405
      -1.460
      -1.017
      -0.365
       0.187
       0.480
       0.523
       0.417
       0.249
       0.045
      -0.225
      -0.581
      -0.942
      -1.120
      -0.905
      -0.204
       0.875
       2.042
       2.890
       3.009
       2.146
       0.406
      -1.670
      -3.295
      -3.838
      -3.181
      -1.765
      -0.316
       0.548
       0.608
       0.081
      -0.563
      -0.887
      -0.722
      -0.207
       0.346
       0.664
       0.641
       0.350
      -0.032
      -0.313
      -0.366
      -0.172
       0.167
       0.484
       0.630
       0.532
       0.185
      -0.350
      -0.935
      -1.331
      -1.286
      -0.708
       0.213
       1.083
       1.541
       1.475
       1.037
       0.496
       0.067
      -0.181
      -0.295
      -0.339
      -0.322
      -0.196
       0.052
       0.311
       0.384
       0.146
      -0.311
