Origin Time       05/3/2012 07:41:05	
Lat.              28.7 N	
Long.             76.6 E	
Depth (Km)         14.0
Magnitude         4.9
 Region           Haryana-Delhi-Border-Region                                      
 Above details taken from IMD 
     
Station Code      ANC
Station Lat.       28.539  N
Station Long.      77.264  E
Station Height(m)  231.0
Site Class        C   Vs30 between 200 m/sec to 375 m/sec *  
Record Time       05.03.2012 07:40:47.719
Sampling Rate     200. Hz
 Record Duration  108.840 Sec.
 Direction         E-W (E positive)
Max. Acceleration     -9.152 cm/sec**2
     
  * For reference see Site Classification link of website 
     
 Base Line Corrected and Low Pass Filtered (Cut Off at 35 Hz) Time History
 Acceleration data in cm/sec**2
    
[...]
       1.873
       1.672
       0.711
      -0.779
      -2.248
      -3.096
      -2.987
      -2.002
      -0.550
       0.877
       1.929
       2.464
       2.504
       2.151
       1.546
       0.841
       0.169
      -0.403
      -0.874
      -1.273
      -1.584
      -1.725
      -1.594
      -1.161
      -0.528
       0.099
       0.524
       0.671
       0.612
       0.476
       0.342
       0.188
      -0.035
      -0.299
      -0.457
      -0.325
       0.168
       0.887
       1.534
       1.801
       1.549
       0.887
       0.133
      -0.349
      -0.342
       0.086
       0.595
       0.757
       0.328
      -0.583
      -1.560
      -2.147
      -2.124
      -1.606
      -0.914
      -0.355
      -0.075
      -0.048
      -0.159
      -0.283
      -0.325
      -0.223
       0.045
       0.440
       0.849
       1.118
       1.118
       0.814
       0.298
      -0.228
      -0.536
      -0.480
      -0.086
       0.450
       0.870
       0.989
       0.773
       0.311
      -0.259
      -0.810
      -1.223
      -1.363
      -1.102
      -0.416
       0.522
       1.356
       1.726
       1.501
       0.870
       0.214
      -0.157
      -0.203
      -0.143
      -0.256
      -0.642
      -1.141
      -1.456
      -1.371
      -0.908
      -0.298
       0.194
       0.449
       0.556
       0.699
       0.974
       1.273
       1.339
       0.946
       0.083
      -0.989
      -1.847
      -2.118
      -1.686
      -0.776
       0.164
       0.721
       0.762
       0.499
       0.297
       0.394
       0.722
       0.987
       0.924
       0.526
       0.057
      -0.139
       0.098
       0.614
       1.023
       0.950
       0.283
      -0.727
      -1.599
      -1.915
      -1.565
      -0.791
       0.003
       0.503
       0.627
       0.485
       0.241
      -0.013
      -0.287
      -0.644
      -1.121
      -1.649
      -2.025
      -1.973
      -1.316
      -0.155
       1.110
       1.979
       2.174
       1.792
       1.189
       0.672
       0.290
      -0.105
      -0.619
      -1.125
      -1.308
      -0.911
       0.036
       1.164
       1.928
       1.874
       0.881
      -0.741
      -2.338
      -3.204
      -2.933
      -1.640
       0.098
       1.573
       2.326
       2.333
       1.876
       1.265
       0.625
      -0.067
      -0.783
      -1.291
      -1.246
      -0.470
       0.800
       1.932
       2.237
       1.413
      -0.206
      -1.792
      -2.510
      -2.022
      -0.694
       0.650
       1.249
       0.852
      -0.193
      -1.209
      -1.613
      -1.201
      -0.175
       1.018
       1.905
       2.159
       1.698
       0.695
      -0.497
      -1.478
      -1.946
      -1.787
      -1.093
      -0.119
       0.810
       1.425
       1.620
       1.500
       1.285
       1.154
       1.128
       1.077
       0.831
       0.306
      -0.446
      -1.261
      -1.920
      -2.208
      -1.975
      -1.219
      -0.141
       0.888
       1.475
       1.399
       0.722
      -0.250
      -1.133
      -1.626
      -1.596
      -1.074
      -0.225
       0.676
       1.306
       1.409
       0.949
       0.163
      -0.558
      -0.906
      -0.827
      -0.488
      -0.090
       0.278
       0.629
       0.935
       1.038
       0.737
      -0.016
      -1.000
      -1.805
      -2.065
      -1.661
      -0.751
       0.345
       1.301
       1.870
       1.934
       1.513
       0.772
      -0.038
      -0.687
      -1.050
      -1.129
      -0.993
      -0.702
      -0.278
       0.276
       0.922
       1.550
       1.994
       2.089
       1.745
       1.012
       0.090
      -0.734
      -1.208
      -1.241
      -0.954
      -0.599
      -0.404
      -0.424
      -0.525
      -0.522
      -0.344
      -0.116
      -0.054
      -0.282
      -0.694
      -0.990
      -0.866
      -0.220
       0.759
       1.682
       2.174
       2.060
       1.450
       0.650
      -0.016
      -0.369
      -0.441
      -0.391
      -0.370
      -0.423
      -0.483
      -0.449
      -0.277
      -0.040
       0.105
       0.012
      -0.343
      -0.844
      -1.301
      -1.548
      -1.476
      -1.020
      -0.165
       0.988
       2.165
       2.971
       3.062
       2.351
       1.071
      -0.343
      -1.485
      -2.136
      -2.275
      -1.984
      -1.371
      -0.541
       0.377
       1.210
       1.761
       1.863
       1.451
       0.594
      -0.509
      -1.584
      -2.342
      -2.544
      -2.092
      -1.102
       0.111
       1.166
       1.793
       1.916
       1.617
       1.042
       0.362
      -0.220
      -0.502
      -0.378
       0.069
       0.575
       0.834
       0.680
       0.182
      -0.399
      -0.771
      -0.776
      -0.458
       0.002
       0.420
       0.693
       0.799
       0.745
       0.549
       0.256
      -0.054
      -0.297
      -0.446
      -0.552
      -0.697
      -0.906
      -1.094
      -1.092
      -0.753
      -0.063
       0.793
       1.469
       1.621
       1.113
       0.138
      -0.855
      -1.402
      -1.284
      -0.637
       0.168
       0.769
       1.002
       0.929
       0.719
       0.501
       0.310
       0.129
      -0.034
      -0.104
       0.003
       0.282
       0.582
       0.648
       0.260
      -0.621
      -1.795
      -2.878
      -3.452
      -3.218
      -2.122
      -0.404
       1.438
       2.796
       3.199
       2.548
       1.195
      -0.206
      -1.044
      -1.060
      -0.442
       0.364
       0.964
       1.231
       1.279
       1.266
       1.212
       0.988
       0.457
      -0.384
      -1.350
      -2.121
      -2.371
      -1.931
      -0.938
       0.155
       0.796
       0.686
       0.007
      -0.666
      -0.759
      -0.111
       0.913
       1.673
       1.681
       0.885
      -0.341
      -1.448
      -2.026
      -1.992
      -1.568
      -1.102
      -0.813
      -0.644
      -0.315
       0.418
       1.471
       2.394
       2.652
       2.028
       0.802
      -0.446
      -1.216
      -1.329
      -0.912
      -0.233
       0.419
       0.785
       0.707
       0.236
      -0.334
      -0.617
      -0.408
       0.132
       0.556
       0.454
      -0.223
      -1.085
      -1.566
      -1.314
      -0.427
       0.645
       1.438
       1.768
       1.760
       1.638
       1.470
       1.113
       0.387
      -0.690
      -1.807
      -2.508
      -2.458
      -1.640
      -0.369
       0.864
       1.607
       1.620
       0.962
      -0.043
      -0.947
      -1.390
      -1.256
      -0.697
      -0.003
       0.570
       0.905
       0.991
       0.850
       0.520
       0.096
      -0.254
      -0.364
      -0.174
       0.242
       0.733
       1.140
       1.325
       1.179
       0.676
      -0.057
      -0.736
      -1.066
      -0.948
      -0.573
      -0.303
      -0.403
      -0.842
      -1.312
      -1.428
      -0.976
      -0.045
       1.028
       1.843
       2.140
       1.894
       1.277
       0.553
      -0.071
      -0.527
      -0.886
      -1.229
      -1.520
      -1.589
      -1.284
      -0.635
       0.126
       0.722
       1.019
       1.067
       0.977
       0.773
       0.372
      -0.289
      -1.095
      -1.735
      -1.845
      -1.250
      -0.137
       0.995
       1.605
       1.434
       0.662
      -0.236
      -0.810
      -0.903
      -0.678
      -0.421
      -0.286
      -0.191
       0.061
       0.547
       1.085
       1.328
       1.018
       0.182
      -0.860
      -1.667
      -1.910
      -1.526
      -0.734
       0.110
       0.718
       1.012
       1.089
       1.064
       0.931
       0.576
      -0.085
      -0.956
      -1.737
      -2.059
      -1.701
      -0.762
       0.358
       1.175
       1.386
       1.017
       0.374
      -0.156
      -0.297
       0.002
       0.565
       1.082
       1.269
       1.029
       0.527
       0.065
      -0.140
      -0.136
      -0.169
      -0.441
      -0.892
      -1.213
      -1.082
      -0.435
       0.444
       1.070
       1.048
       0.325
      -0.759
      -1.660
      -1.941
      -1.501
      -0.595
       0.353
       0.979
       1.119
       0.816
       0.275
      -0.215
      -0.375
      -0.082
       0.550
       1.210
       1.585
       1.553
       1.224
       0.823
       0.526
       0.401
       0.438
       0.572
       0.653
       0.457
      -0.168
      -1.119
      -1.991
      -2.284
      -1.742
      -0.557
       0.727
       1.539
       1.576
       0.890
      -0.245
      -1.499
      -2.567
      -3.155
      -2.995
      -1.944
      -0.134
       1.979
       3.746
       4.576
       4.178
       2.673
       0.559
      -1.464
      -2.742
      -2.933
      -2.153
      -0.926
       0.093
       0.451
       0.115
      -0.565
      -1.093
      -1.120
      -0.629
       0.089
       0.642
       0.787
       0.583
       0.332
       0.360
       0.783
       1.429
       1.957
       2.058
       1.614
       0.716
      -0.405
      -1.472
      -2.230
      -2.477
      -2.105
      -1.146
       0.195
       1.554
       2.498
       2.661
       1.910
       0.421
      -1.362
      -2.890
      -3.696
      -3.508
      -2.304
      -0.346
       1.823
       3.493
       4.054
       3.308
       1.611
      -0.283
      -1.630
      -2.078
      -1.777
      -1.152
      -0.547
      -0.025
       0.543
       1.235
       1.918
       2.309
       2.139
       1.304
      -0.071
      -1.647
      -2.956
      -3.555
      -3.191
      -1.908
      -0.040
       1.899
       3.379
       4.031
       3.761
       2.754
       1.364
      -0.048
      -1.220
      -2.002
      -2.315
      -2.116
      -1.408
      -0.276
       1.066
       2.285
       3.012
       2.978
       2.160
       0.803
      -0.694
      -1.980
      -2.876
      -3.357
      -3.462
      -3.208
      -2.569
      -1.529
      -0.183
       1.167
       2.027
       1.914
       0.675
      -1.274
      -3.045
      -3.735
      -2.975
      -1.193
       0.641
       1.593
       1.277
      -0.010
      -1.548
      -2.596
      -2.720
      -1.899
      -0.478
       0.982
       1.929
       2.050
       1.432
       0.525
      -0.104
      -0.091
       0.512
       1.276
       1.666
       1.374
       0.502
      -0.529
      -1.284
      -1.608
      -1.703
      -1.904
      -2.356
      -2.870
      -3.112
      -2.976
      -2.774
      -3.015
      -3.902
      -5.006
      -5.421
      -4.353
      -1.679
       1.922
       5.319
       7.488
       7.941
       6.854
       4.934
       3.108
       2.132
       2.270
       3.176
       4.082
       4.226
       3.291
       1.591
      -0.137
      -1.208
      -1.373
      -0.863
      -0.078
       0.759
       1.696
       2.839
       4.049
       4.858
       4.709
       3.362
       1.151
      -1.144
      -2.729
      -3.251
      -2.949
      -2.443
      -2.320
      -2.795
      -3.635
      -4.346
      -4.485
      -3.920
      -2.896
      -1.886
      -1.306
      -1.274
      -1.545
      -1.666
      -1.222
      -0.036
       1.761
       3.784
       5.533
       6.543
       6.538
       5.524
       3.792
       1.821
       0.150
      -0.758
      -0.647
       0.421
       2.015
       3.439
       3.997
       3.322
       1.568
      -0.678
      -2.727
      -4.144
      -4.899
      -5.260
      -5.519
      -5.776
      -5.885
      -5.607
      -4.839
      -3.748
      -2.698
      -2.027
      -1.853
      -2.041
      -2.299
      -2.302
      -1.788
      -0.654
       0.969
       2.729
       4.200
       5.108
       5.449
       5.409
       5.159
       4.725
       4.039
       3.107
       2.115
       1.375
       1.154
       1.497
       2.131
       2.539
       2.198
       0.906
      -1.005
      -2.777
      -3.632
      -3.231
      -1.865
      -0.239
       0.968
       1.450
       1.290
       0.721
      -0.130
      -1.299
      -2.855
      -4.710
      -6.539
      -7.834
      -8.074
      -6.953
      -4.572
      -1.473
       1.536
       3.703
       4.644
       4.469
       3.657
       2.763
       2.142
       1.810
       1.522
       0.997
       0.157
      -0.775
      -1.406
      -1.470
      -1.026
      -0.429
      -0.076
      -0.165
      -0.599
      -1.057
      -1.151
      -0.623
       0.489
       1.802
       2.751
       2.903
       2.200
       0.950
      -0.406
      -1.571
      -2.473
      -3.149
      -3.569
      -3.574
      -2.993
      -1.819
      -0.306
       1.120
       2.081
       2.451
       2.390
       2.196
       2.081
       2.037
       1.891
       1.500
       0.955
       0.608
       0.856
       1.812
       3.091
       3.928
       3.622
       2.017
      -0.336
      -2.488
      -3.671
      -3.725
      -3.079
      -2.375
      -2.046
      -2.115
      -2.269
      -2.095
      -1.319
       0.021
       1.550
       2.714
       3.079
       2.571
       1.516
       0.433
      -0.246
      -0.346
       0.048
       0.702
       1.362
       1.856
       2.156
       2.367
       2.641
       3.054
       3.539
       3.919
       3.982
       3.560
       2.566
       1.031
      -0.869
      -2.833
      -4.495
      -5.492
      -5.547
      -4.581
      -2.855
      -1.016
       0.077
      -0.260
      -2.133
      -4.940
      -7.618
      -9.152
      -9.014
      -7.301
      -4.566
      -1.534
       1.122
       2.926
       3.691
       3.559
       2.933
       2.254
       1.743
       1.295
       0.643
      -0.323
      -1.361
      -1.968
      -1.708
      -0.494
       1.374
       3.413
       5.185
       6.397
       6.866
       6.486
       5.267
       3.404
       1.282
      -0.617
      -1.864
      -2.222
      -1.754
      -0.853
      -0.124
      -0.123
      -1.041
      -2.569
      -4.056
      -4.879
      -4.761
      -3.827
      -2.415
      -0.806
       0.901
       2.717
       4.576
       6.185
       7.052
       6.678
       4.857
       1.893
      -1.420
      -4.109
      -5.487
      -5.487
      -4.632
      -3.640
      -2.945
      -2.472
      -1.813
      -0.622
       1.094
       2.971
       4.489
       5.203
       4.884
       3.590
       1.685
      -0.232
      -1.561
      -1.994
      -1.649
      -0.928
      -0.206
       0.386
       0.919
       1.453
       1.896
       2.062
       1.842
       1.311
       0.687
       0.163
      -0.227
      -0.632
      -1.261
      -2.184
      -3.184
      -3.774
      -3.432
      -1.941
       0.370
       2.668
       3.974
       3.626
       1.614
      -1.402
      -4.383
      -6.377
      -6.897
      -6.042
      -4.310
      -2.289
      -0.417
       1.094
       2.194
       2.894
       3.187
       3.052
       2.520
       1.764
       1.083
       0.746
       0.805
       1.030
       1.042
       0.576
      -0.306
      -1.229
      -1.729
      -1.555
      -0.800
       0.191
       1.052
       1.565
       1.686
       1.461
       0.923
       0.069
      -1.099
      -2.498
      -3.905
      -4.970
      -5.313
      -4.667
      -3.021
      -0.677
       1.822
       3.862
       4.985
       5.049
       4.250
       2.989
       1.654
       0.440
      -0.672
      -1.770
      -2.789
      -3.409
      -3.205
      -1.973
       0.029
       2.144
       3.659
       4.161
       3.668
       2.480
       0.936
      -0.722
      -2.309
      -3.584
      -4.211
      -3.872
      -2.473
      -0.306
       1.955
       3.477
       3.650
       2.405
       0.290
      -1.802
      -3.090
      -3.254
      -2.464
      -1.122
       0.419
       1.930
       3.182
       3.855
       3.660
       2.601
       1.119
      -0.089
      -0.469
       0.061
       1.101
       2.044
       2.436
       2.167
       1.417
       0.478
      -0.419
      -1.162
      -1.720
      -2.065
      -2.124
      -1.818
      -1.171
      -0.395
       0.149
       0.134
      -0.519
      -1.565
      -2.550
      -3.026
      -2.748
      -1.748
      -0.301
       1.190
       2.338
       2.902
       2.873
       2.453
       1.933
       1.526
       1.255
       0.965
       0.459
      -0.355
      -1.372
      -2.332
      -2.940
      -3.017
      -2.583
      -1.844
      -1.100
      -0.614
      -0.481
      -0.581
      -0.636
      -0.395
       0.195
       0.927
       1.463
       1.547
       1.156
       0.496
      -0.133
      -0.500
      -0.535
      -0.301
       0.111
       0.651
       1.289
       1.919
       2.317
       2.221
       1.485
       0.213
      -1.233
      -2.381
      -2.865
      -2.590
      -1.745
      -0.671
       0.317
       1.053
       1.524
       1.791
       1.879
       1.699
       1.083
      -0.044
      -1.481
      -2.742
      -3.317
      -3.013
      -2.110
      -1.168
      -0.622
      -0.475
      -0.306
       0.398
       1.821
       3.584
       4.879
       4.907
       3.371
       0.722
      -2.016
      -3.767
      -3.970
      -2.840
      -1.165
       0.223
       0.934
       1.156
       1.394
       2.036
       3.049
       3.987
       4.258
       3.474
       1.674
      -0.687
      -2.934
      -4.460
      -4.961
      -4.491
      -3.328
      -1.766
      -0.018
       1.717
       3.119
       3.749
       3.245
       1.570
      -0.877
      -3.380
      -5.184
      -5.766
      -4.997
      -3.154
      -0.817
       1.316
       2.669
       2.996
       2.436
       1.393
       0.299
      -0.583
      -1.196
      -1.572
      -1.683
      -1.418
      -0.717
       0.270
       1.157
       1.503
       1.073
       0.014
      -1.184
      -1.914
      -1.743
      -0.630
       1.046
       2.657
       3.612
       3.621
       2.823
       1.690
       0.751
       0.279
       0.154
      -0.008
      -0.525
      -1.392
      -2.274
      -2.735
      -2.495
      -1.557
      -0.165
       1.298
       2.408
       2.818
       2.419
       1.456
       0.463
      -0.014
       0.274
       1.141
       2.102
       2.682
       2.663
       2.131
       1.313
       0.361
      -0.736
      -2.047
      -3.512
      -4.832
      -5.562
      -5.352
      -4.162
      -2.296
      -0.233
       1.596
       2.948
       3.753
       4.003
       3.672
       2.735
       1.295
      -0.322
      -1.627
      -2.203
      -1.969
      -1.253
      -0.596
      -0.415
      -0.773
      -1.409
      -1.970
      -2.219
      -2.074
      -1.504
      -0.466
       1.020
       2.705
       4.066
       4.518
       3.760
       1.994
      -0.167
      -2.018
      -3.058
      -3.095
      -2.189
      -0.592
       1.266
       2.801
       3.443
       2.895
       1.351
      -0.544
      -1.993
      -2.443
      -1.863
      -0.729
       0.247
       0.541
       0.136
      -0.472
      -0.641
      -0.097
       0.785
       1.214
       0.573
      -1.065
      -2.927
      -4.032
      -3.802
      -2.346
      -0.265
       1.764
       3.280
       4.084
       4.143
       3.542
       2.504
       1.348
       0.352
      -0.381
      -0.932
