Origin Time       05/3/2012 07:41:05	 UTC
Lat.              28.7 N	
Long.             76.6 E	
Depth (Km)         14.0
Magnitude         4.9
 Region           Haryana-Delhi-Border-Region                                      
 Above details taken from IMD 
    
Station Code      ANC
Station Lat.       28.539  N
Station Long.      77.264  E
Station Height(m)  231.0
Site Class        C   Vs30 between 200 m/sec to 375 m/sec *  
Record Time       05.03.2012 07:40:47.719 UTC
Sampling Rate     200. Hz
 Record Duration  108.840 Sec.
 Direction         N-S (N positive)
Max. Acceleration      9.037 cm/sec**2
     
  * For reference see Site Classification link of website 
     
 Base Line Corrected and Low Pass Filtered (Cut Off at 35 Hz) Time History
 Acceleration data in cm/sec**2
    
[...]
      -0.281
       0.079
       0.118
      -0.092
      -0.362
      -0.497
      -0.417
      -0.185
       0.086
       0.335
       0.586
       0.893
       1.250
       1.573
       1.751
       1.712
       1.449
       1.007
       0.439
      -0.208
      -0.884
      -1.505
      -1.943
      -2.081
      -1.890
      -1.479
      -1.046
      -0.747
      -0.590
      -0.451
      -0.190
       0.219
       0.667
       0.988
       1.092
       1.020
       0.892
       0.798
       0.720
       0.572
       0.291
      -0.087
      -0.433
      -0.605
      -0.530
      -0.245
       0.118
       0.402
       0.494
       0.375
       0.121
      -0.147
      -0.339
      -0.448
      -0.539
      -0.678
      -0.847
      -0.919
      -0.711
      -0.124
       0.748
       1.606
       2.089
       1.963
       1.261
       0.254
      -0.692
      -1.300
      -1.486
      -1.343
      -1.045
      -0.728
      -0.432
      -0.114
       0.272
       0.704
       1.063
       1.182
       0.950
       0.391
      -0.313
      -0.905
      -1.177
      -1.057
      -0.623
      -0.036
       0.539
       0.968
       1.152
       1.039
       0.649
       0.098
      -0.431
      -0.771
      -0.853
      -0.723
      -0.483
      -0.204
       0.117
       0.518
       0.986
       1.406
       1.590
       1.380
       0.761
      -0.109
      -0.978
      -1.628
      -1.973
      -2.043
      -1.895
      -1.535
      -0.928
      -0.092
       0.829
       1.578
       1.919
       1.771
       1.247
       0.575
      -0.029
      -0.445
      -0.646
      -0.651
      -0.499
      -0.249
       0.020
       0.232
       0.348
       0.368
       0.312
       0.187
      -0.022
      -0.341
      -0.773
      -1.251
      -1.625
      -1.701
      -1.336
      -0.538
       0.494
       1.436
       1.990
       2.024
       1.633
       1.064
       0.564
       0.249
       0.077
      -0.071
      -0.266
      -0.457
      -0.510
      -0.334
       0.014
       0.335
       0.409
       0.153
      -0.334
      -0.846
      -1.206
      -1.348
      -1.300
      -1.102
      -0.757
      -0.244
       0.398
       1.016
       1.390
       1.368
       0.988
       0.464
       0.062
      -0.072
       0.018
       0.169
       0.241
       0.214
       0.155
       0.112
       0.050
      -0.107
      -0.371
      -0.640
      -0.755
      -0.641
      -0.379
      -0.166
      -0.182
      -0.444
      -0.776
      -0.908
      -0.650
      -0.032
       0.698
       1.201
       1.239
       0.795
       0.071
      -0.636
      -1.084
      -1.174
      -0.937
      -0.464
       0.141
       0.766
       1.278
       1.539
       1.469
       1.103
       0.602
       0.186
       0.031
       0.178
       0.498
       0.750
       0.701
       0.262
      -0.454
      -1.194
      -1.712
      -1.909
      -1.861
      -1.724
      -1.588
      -1.409
      -1.067
      -0.495
       0.234
       0.938
       1.451
       1.715
       1.782
       1.722
       1.540
       1.185
       0.627
      -0.050
      -0.644
      -0.918
      -0.752
      -0.231
       0.386
       0.809
       0.876
       0.610
       0.164
      -0.291
      -0.663
      -0.945
      -1.166
      -1.332
      -1.410
      -1.363
      -1.173
      -0.839
      -0.357
       0.261
       0.935
       1.498
       1.739
       1.521
       0.881
       0.041
      -0.686
      -1.034
      -0.899
      -0.367
       0.327
       0.900
       1.144
       1.006
       0.602
       0.135
      -0.218
      -0.380
      -0.389
      -0.350
      -0.376
      -0.528
      -0.785
      -1.041
      -1.146
      -0.964
      -0.458
       0.262
       0.949
       1.325
       1.220
       0.672
      -0.083
      -0.721
      -0.967
      -0.715
      -0.061
       0.742
       1.399
       1.702
       1.598
       1.172
       0.572
      -0.063
      -0.630
      -1.062
      -1.334
      -1.466
      -1.505
      -1.492
      -1.421
      -1.235
      -0.872
      -0.334
       0.262
       0.730
       0.937
       0.916
       0.861
       0.987
       1.348
       1.769
       1.959
       1.707
       1.014
       0.076
      -0.845
      -1.547
      -1.943
      -2.016
      -1.762
      -1.178
      -0.321
       0.634
       1.399
       1.675
       1.316
       0.444
      -0.583
      -1.345
      -1.582
      -1.317
      -0.801
      -0.329
      -0.061
       0.043
       0.153
       0.420
       0.860
       1.347
       1.676
       1.676
       1.276
       0.534
      -0.393
      -1.280
      -1.875
      -1.942
      -1.355
      -0.195
       1.204
       2.338
       2.735
       2.174
       0.803
      -0.910
      -2.378
      -3.130
      -2.997
      -2.138
      -0.916
       0.300
       1.287
       1.991
       2.449
       2.684
       2.654
       2.274
       1.497
       0.377
      -0.909
      -2.095
      -2.911
      -3.161
      -2.789
      -1.890
      -0.690
       0.507
       1.392
       1.739
       1.493
       0.810
       0.017
      -0.535
      -0.630
      -0.292
       0.251
       0.718
       0.936
       0.913
       0.768
       0.605
       0.430
       0.182
      -0.155
      -0.499
      -0.713
      -0.725
      -0.590
      -0.443
      -0.394
      -0.464
      -0.587
      -0.661
      -0.600
      -0.377
      -0.038
       0.297
       0.488
       0.457
       0.244
      -0.007
      -0.127
      -0.019
       0.283
       0.637
       0.870
       0.860
       0.566
       0.049
      -0.538
      -0.979
      -1.085
      -0.804
      -0.286
       0.183
       0.345
       0.144
      -0.233
      -0.474
      -0.341
       0.184
       0.885
       1.442
       1.588
       1.232
       0.492
      -0.352
      -0.986
      -1.224
      -1.087
      -0.756
      -0.424
      -0.170
       0.033
       0.213
       0.325
       0.272
       0.014
      -0.360
      -0.669
      -0.759
      -0.607
      -0.338
      -0.129
      -0.086
      -0.189
      -0.331
      -0.405
      -0.347
      -0.134
       0.244
       0.779
       1.402
       1.967
       2.266
       2.127
       1.521
       0.616
      -0.277
      -0.865
      -1.017
      -0.818
      -0.491
      -0.264
      -0.261
      -0.482
      -0.853
      -1.283
      -1.685
      -1.972
      -2.053
      -1.848
      -1.321
      -0.511
       0.447
       1.335
       1.916
       2.048
       1.761
       1.243
       0.732
       0.398
       0.279
       0.312
       0.410
       0.528
       0.681
       0.869
       1.003
       0.906
       0.448
      -0.294
      -1.018
      -1.370
      -1.189
      -0.616
      -0.003
       0.322
       0.235
      -0.156
      -0.621
      -0.941
      -0.978
      -0.695
      -0.154
       0.481
       0.980
       1.132
       0.850
       0.230
      -0.486
      -1.009
      -1.136
      -0.841
      -0.272
       0.340
       0.816
       1.104
       1.243
       1.249
       1.057
       0.585
      -0.127
      -0.861
      -1.326
      -1.359
      -1.025
      -0.582
      -0.312
      -0.363
      -0.678
      -1.036
      -1.175
      -0.934
      -0.332
       0.440
       1.115
       1.485
       1.488
       1.198
       0.766
       0.346
       0.044
      -0.102
      -0.114
      -0.041
       0.069
       0.158
       0.159
       0.029
      -0.196
      -0.391
      -0.415
      -0.228
       0.063
       0.267
       0.246
      -0.002
      -0.353
      -0.648
      -0.790
      -0.777
      -0.658
      -0.451
      -0.100
       0.461
       1.197
       1.905
       2.281
       2.100
       1.379
       0.382
      -0.537
      -1.135
      -1.395
      -1.462
      -1.489
      -1.506
      -1.416
      -1.092
      -0.490
       0.288
       1.031
       1.510
       1.581
       1.259
       0.699
       0.114
      -0.352
      -0.672
      -0.884
      -0.991
      -0.921
      -0.583
       0.026
       0.755
       1.342
       1.527
       1.179
       0.374
      -0.618
      -1.422
      -1.713
      -1.351
      -0.448
       0.685
       1.679
       2.259
       2.342
       2.014
       1.428
       0.687
      -0.179
      -1.137
      -2.058
      -2.722
      -2.931
      -2.632
      -1.944
      -1.066
      -0.147
       0.760
       1.638
       2.399
       2.846
       2.760
       2.039
       0.806
      -0.617
      -1.832
      -2.528
      -2.577
      -2.045
      -1.137
      -0.111
       0.787
       1.374
       1.554
       1.320
       0.779
       0.152
      -0.287
      -0.341
      -0.012
       0.485
       0.841
       0.851
       0.524
       0.048
      -0.384
      -0.722
      -1.067
      -1.512
      -1.977
      -2.209
      -1.960
      -1.210
      -0.232
       0.568
       0.926
       0.894
       0.761
       0.802
       1.068
       1.375
       1.470
       1.232
       0.752
       0.234
      -0.167
      -0.431
      -0.608
      -0.718
      -0.703
      -0.489
      -0.091
       0.344
       0.589
       0.467
      -0.035
      -0.725
      -1.270
      -1.354
      -0.844
       0.114
       1.142
       1.798
       1.793
       1.117
       0.034
      -1.059
      -1.811
      -2.043
      -1.775
      -1.165
      -0.431
       0.209
       0.602
       0.718
       0.654
       0.571
       0.575
       0.664
       0.762
       0.806
       0.790
       0.743
       0.666
       0.520
       0.261
      -0.087
      -0.418
      -0.612
      -0.626
      -0.520
      -0.387
      -0.272
      -0.159
      -0.029
       0.074
       0.053
      -0.168
      -0.553
      -0.915
      -0.994
      -0.615
       0.164
       1.051
       1.663
       1.749
       1.315
       0.587
      -0.135
      -0.630
      -0.821
      -0.762
      -0.572
      -0.354
      -0.151
       0.041
       0.187
       0.169
      -0.151
      -0.767
      -1.426
      -1.713
      -1.309
      -0.244
       1.049
       1.951
       2.024
       1.291
       0.227
      -0.535
      -0.569
       0.139
       1.224
       2.151
       2.448
       1.888
       0.586
      -1.024
      -2.339
      -2.855
      -2.423
      -1.320
      -0.071
       0.856
       1.259
       1.197
       0.823
       0.249
      -0.451
      -1.138
      -1.576
      -1.536
      -0.971
      -0.097
       0.685
       0.988
       0.653
      -0.133
      -0.898
      -1.131
      -0.592
       0.531
       1.731
       2.487
       2.523
       1.882
       0.830
      -0.273
      -1.098
      -1.441
      -1.295
      -0.855
      -0.426
      -0.265
      -0.441
      -0.797
      -1.037
      -0.898
      -0.310
       0.540
       1.297
       1.644
       1.473
       0.942
       0.378
       0.105
       0.275
       0.775
       1.277
       1.413
       0.989
       0.099
      -0.907
      -1.617
      -1.772
      -1.392
      -0.725
      -0.081
       0.336
       0.490
       0.466
       0.382
       0.318
       0.298
       0.304
       0.297
       0.229
       0.047
      -0.302
      -0.844
      -1.511
      -2.090
      -2.265
      -1.772
      -0.587
       0.984
       2.406
       3.158
       2.959
       1.869
       0.236
      -1.432
      -2.623
      -2.976
      -2.425
      -1.237
       0.073
       0.974
       1.144
       0.580
      -0.450
      -1.557
      -2.374
      -2.664
      -2.371
      -1.626
      -0.723
      -0.020
       0.203
      -0.126
      -0.816
      -1.513
      -1.906
      -1.899
      -1.639
      -1.377
      -1.273
      -1.310
      -1.347
      -1.269
      -1.073
      -0.842
      -0.650
      -0.479
      -0.220
       0.252
       0.997
       1.978
       3.085
       4.202
       5.235
       6.114
       6.748
       7.018
       6.799
       6.009
       4.660
       2.896
       1.006
      -0.632
      -1.696
      -2.095
      -2.026
      -1.864
      -1.929
      -2.299
      -2.792
      -3.119
      -3.102
      -2.799
      -2.453
      -2.300
      -2.379
      -2.487
      -2.315
      -1.672
      -0.632
       0.488
       1.307
       1.577
       1.259
       0.476
      -0.597
      -1.789
      -2.926
      -3.801
      -4.196
      -3.950
      -3.024
      -1.518
       0.372
       2.399
       4.316
       5.913
       7.054
       7.696
       7.869
       7.642
       7.089
       6.291
       5.352
       4.405
       3.565
       2.878
       2.287
       1.668
       0.901
      -0.080
      -1.269
      -2.620
      -4.060
      -5.484
      -6.722
      -7.553
      -7.776
      -7.330
      -6.377
      -5.258
      -4.324
      -3.742
      -3.407
      -3.036
      -2.360
      -1.273
       0.130
       1.636
       3.029
       4.158
       4.947
       5.363
       5.381
       4.990
       4.215
       3.136
       1.869
       0.525
      -0.831
      -2.155
      -3.380
      -4.372
      -4.957
      -4.979
      -4.385
      -3.266
      -1.841
      -0.400
       0.773
       1.449
       1.498
       0.937
      -0.038
      -1.064
      -1.724
      -1.705
      -0.950
       0.299
       1.599
       2.502
       2.758
       2.391
       1.644
       0.839
       0.229
      -0.099
      -0.250
      -0.461
      -0.969
      -1.865
      -3.025
      -4.146
      -4.876
      -4.949
      -4.251
      -2.821
      -0.810
       1.554
       3.994
       6.211
       7.923
       8.910
       9.037
       8.262
       6.666
       4.485
       2.117
       0.023
      -1.437
      -2.159
      -2.324
      -2.282
      -2.353
      -2.676
      -3.170
      -3.617
      -3.806
      -3.654
      -3.216
      -2.598
      -1.831
      -0.842
       0.444
       1.946
       3.355
       4.224
       4.169
       3.063
       1.118
      -1.183
      -3.267
      -4.674
      -5.184
      -4.821
      -3.769
      -2.269
      -0.566
       1.100
       2.500
       3.438
       3.801
       3.589
       2.896
       1.857
       0.591
      -0.778
      -2.078
      -3.046
      -3.383
      -2.882
      -1.555
       0.314
       2.225
       3.615
       4.078
       3.543
       2.333
       1.041
       0.279
       0.409
       1.389
       2.798
       4.055
       4.669
       4.424
       3.385
       1.802
      -0.012
      -1.754
      -3.169
      -4.091
      -4.506
      -4.560
      -4.476
      -4.417
      -4.391
      -4.268
      -3.901
      -3.241
      -2.364
      -1.399
      -0.444
       0.466
       1.293
       1.936
       2.241
       2.119
       1.660
       1.152
       0.955
       1.308
       2.181
       3.253
       4.053
       4.157
       3.363
       1.761
      -0.324
      -2.449
      -4.179
      -5.152
      -5.118
      -3.981
      -1.866
       0.846
       3.568
       5.672
       6.700
       6.504
       5.256
       3.322
       1.106
      -1.059
      -2.945
      -4.402
      -5.320
      -5.630
      -5.336
      -4.556
      -3.515
      -2.471
      -1.607
      -0.943
      -0.337
       0.403
       1.359
       2.387
       3.128
       3.177
       2.333
       0.780
      -0.922
      -2.071
      -2.170
      -1.189
       0.431
       2.023
       3.025
       3.202
       2.650
       1.631
       0.385
      -0.956
      -2.312
      -3.545
      -4.416
      -4.647
      -4.085
      -2.824
      -1.232
       0.179
       0.980
       1.039
       0.604
       0.169
       0.193
       0.832
       1.866
       2.850
       3.379
       3.306
       2.804
       2.250
       2.012
       2.231
       2.736
       3.124
       2.967
       2.027
       0.367
      -1.685
      -3.661
      -5.096
      -5.623
      -5.042
      -3.398
      -1.038
       1.424
       3.300
       4.106
       3.767
       2.614
       1.182
      -0.054
      -0.845
      -1.196
      -1.301
      -1.445
      -1.868
      -2.637
      -3.570
      -4.307
      -4.501
      -4.008
      -2.949
      -1.627
      -0.368
       0.613
       1.274
       1.708
       2.045
       2.358
       2.617
       2.719
       2.562
       2.127
       1.501
       0.845
       0.304
      -0.053
      -0.252
      -0.378
      -0.514
      -0.681
      -0.807
      -0.750
      -0.400
       0.209
       0.873
       1.320
       1.385
       1.118
       0.746
       0.525
       0.613
       1.005
       1.565
       2.071
       2.285
       2.010
       1.162
      -0.181
      -1.783
      -3.329
      -4.523
      -5.152
      -5.090
      -4.293
      -2.820
      -0.887
       1.126
       2.752
       3.586
       3.454
       2.500
       1.144
      -0.120
      -0.973
      -1.400
      -1.613
      -1.823
      -2.060
      -2.174
      -1.998
      -1.507
      -0.839
      -0.157
       0.500
       1.252
       2.264
       3.583
       5.034
       6.250
       6.812
       6.435
       5.080
       2.953
       0.414
      -2.130
      -4.280
      -5.682
      -6.089
      -5.447
      -3.963
      -2.071
      -0.279
       1.041
       1.780
       2.046
       1.996
       1.688
       1.070
       0.107
      -1.073
      -2.153
      -2.755
      -2.660
      -1.966
      -1.063
      -0.408
      -0.242
      -0.420
      -0.508
      -0.079
       0.982
       2.385
       3.609
       4.202
       4.002
       3.158
       1.967
       0.683
      -0.561
      -1.676
      -2.504
      -2.789
      -2.311
      -1.089
       0.498
       1.815
       2.292
       1.768
       0.598
      -0.557
      -1.156
      -1.114
      -0.802
      -0.734
      -1.164
      -1.897
      -2.423
      -2.283
      -1.372
       0.001
       1.325
       2.193
       2.476
       2.274
       1.740
       0.954
      -0.042
      -1.133
      -2.074
      -2.558
      -2.386
      -1.574
      -0.341
       1.028
       2.296
       3.301
       3.898
       3.910
       3.178
       1.681
      -0.368
      -2.508
      -4.145
      -4.761
      -4.153
      -2.574
      -0.648
       0.905
       1.605
       1.388
       0.563
      -0.398
      -1.084
      -1.287
      -1.012
      -0.402
       0.357
       1.079
       1.583
       1.706
       1.376
       0.689
      -0.087
      -0.621
      -0.697
      -0.351
       0.104
       0.210
      -0.361
      -1.551
      -2.848
      -3.522
      -3.049
      -1.437
       0.764
       2.764
       3.939
       4.085
       3.392
       2.230
       0.926
      -0.332
      -1.445
      -2.292
      -2.703
      -2.541
      -1.845
      -0.904
      -0.149
       0.061
      -0.356
      -1.164
      -1.931
      -2.231
      -1.843
      -0.838
       0.467
       1.666
       2.449
       2.696
       2.447
       1.829
       1.002
       0.147
      -0.547
      -0.938
      -0.992
      -0.791
      -0.448
      -0.001
       0.608
       1.438
       2.414
       3.291
       3.755
       3.576
       2.720
       1.370
      -0.153
      -1.514
      -2.464
      -2.893
      -2.799
      -2.221
      -1.216
       0.108
       1.518
       2.640
       3.057
       2.521
       1.149
      -0.549
      -1.885
      -2.345
      -1.884
      -0.949
      -0.206
      -0.137
      -0.737
      -1.544
      -1.960
      -1.663
