Origin Time       24/2/2010 19:20:52	
Lat.              28.6 N	
Long.             76.9 E	
Depth (Km)         17.0
Magnitude         2.5
 Region           Rohtak                                                           
 Above details taken from IMD 
     
Station Code      ANC
Station Lat.       28.539  N
Station Long.      77.264  E
Station Height(m)  231.0
Site Class        C   Vs30 between 200 m/sec to 375 m/sec *  
Record Time       24.02.2010 19:20:31.719
Sampling Rate     200. Hz
 Record Duration   80.955 Sec.
 Direction         E-W (E positive)
Max. Acceleration      5.127 cm/sec**2
     
  * For reference see Site Classification link of website 
     
 Base Line Corrected and Low Pass Filtered (Cut Off at 35 Hz) Time History
 Acceleration data in cm/sec**2
    
[...]
       0.004
      -0.009
      -0.007
       0.000
       0.001
      -0.008
      -0.021
      -0.030
      -0.029
      -0.021
      -0.007
       0.008
       0.024
       0.035
       0.033
       0.017
      -0.006
      -0.023
      -0.025
      -0.013
       0.003
       0.012
       0.008
      -0.004
      -0.015
      -0.016
      -0.007
       0.003
       0.007
       0.000
      -0.014
      -0.026
      -0.026
      -0.010
       0.017
       0.042
       0.050
       0.035
       0.002
      -0.033
      -0.050
      -0.045
      -0.023
      -0.002
       0.006
       0.001
      -0.004
      -0.003
       0.004
       0.008
       0.002
      -0.012
      -0.020
      -0.015
       0.000
       0.012
       0.012
       0.002
      -0.010
      -0.015
      -0.012
      -0.004
       0.005
       0.014
       0.021
       0.024
       0.018
       0.001
      -0.023
      -0.043
      -0.049
      -0.039
      -0.019
       0.003
       0.015
       0.012
      -0.001
      -0.016
      -0.022
      -0.014
       0.003
       0.019
       0.023
       0.013
      -0.004
      -0.016
      -0.017
      -0.008
       0.003
       0.009
       0.006
      -0.002
      -0.008
      -0.006
       0.000
       0.005
       0.002
      -0.008
      -0.021
      -0.029
      -0.029
      -0.021
      -0.007
       0.009
       0.023
       0.028
       0.018
      -0.007
      -0.038
      -0.061
      -0.064
      -0.044
      -0.008
       0.027
       0.042
       0.031
      -0.004
      -0.045
      -0.070
      -0.066
      -0.033
       0.011
       0.040
       0.038
       0.007
      -0.028
      -0.043
      -0.031
      -0.005
       0.015
       0.015
       0.002
      -0.012
      -0.013
      -0.001
       0.016
       0.029
       0.027
       0.010
      -0.016
      -0.036
      -0.035
      -0.010
       0.028
       0.056
       0.058
       0.030
      -0.012
      -0.045
      -0.050
      -0.024
       0.019
       0.052
       0.057
       0.030
      -0.014
      -0.049
      -0.057
      -0.033
       0.005
       0.037
       0.046
       0.031
       0.005
      -0.018
      -0.029
      -0.024
      -0.007
       0.019
       0.043
       0.055
       0.049
       0.030
       0.006
      -0.010
      -0.013
      -0.008
      -0.001
       0.001
       0.001
       0.003
       0.012
       0.025
       0.035
       0.031
       0.014
      -0.011
      -0.031
      -0.035
      -0.020
       0.006
       0.029
       0.038
       0.031
       0.014
      -0.002
      -0.010
      -0.009
      -0.002
       0.005
       0.010
       0.015
       0.019
       0.022
       0.019
       0.011
       0.003
       0.001
       0.005
       0.010
       0.011
       0.004
      -0.003
      -0.003
       0.008
       0.021
       0.026
       0.015
      -0.012
      -0.040
      -0.048
      -0.021
       0.037
       0.100
       0.127
       0.094
       0.016
      -0.060
      -0.081
      -0.029
       0.060
       0.119
       0.100
       0.009
      -0.094
      -0.140
      -0.092
       0.028
       0.163
       0.246
       0.228
       0.095
      -0.125
      -0.355
      -0.490
      -0.445
      -0.201
       0.164
       0.506
       0.677
       0.602
       0.312
      -0.065
      -0.374
      -0.507
      -0.460
      -0.307
      -0.133
       0.015
       0.130
       0.203
       0.201
       0.108
      -0.026
      -0.093
      -0.015
       0.167
       0.304
       0.277
       0.112
      -0.039
      -0.041
       0.092
       0.203
       0.129
      -0.148
      -0.482
      -0.664
      -0.577
      -0.271
       0.095
       0.367
       0.494
       0.522
       0.507
       0.432
       0.227
      -0.121
      -0.489
      -0.659
      -0.498
      -0.099
       0.270
       0.369
       0.187
      -0.058
      -0.115
       0.086
       0.382
       0.520
       0.361
      -0.026
      -0.443
      -0.705
      -0.735
      -0.565
      -0.277
       0.046
       0.337
       0.547
       0.644
       0.623
       0.496
       0.290
       0.034
      -0.242
      -0.497
      -0.672
      -0.690
      -0.488
      -0.073
       0.439
       0.846
       0.958
       0.706
       0.190
      -0.377
      -0.784
      -0.921
      -0.804
      -0.524
      -0.170
       0.205
       0.564
       0.844
       0.944
       0.778
       0.346
      -0.214
      -0.673
      -0.831
      -0.647
      -0.269
       0.067
       0.195
       0.122
      -0.007
      -0.049
       0.033
       0.162
       0.226
       0.178
       0.063
      -0.032
      -0.045
       0.011
       0.062
       0.041
      -0.059
      -0.161
      -0.165
      -0.023
       0.209
       0.391
       0.390
       0.177
      -0.148
      -0.422
      -0.521
      -0.434
      -0.249
      -0.069
       0.063
       0.171
       0.285
       0.389
       0.429
       0.366
       0.214
       0.019
      -0.176
      -0.332
      -0.396
      -0.311
      -0.073
       0.207
       0.337
       0.184
      -0.191
      -0.533
      -0.563
      -0.201
       0.346
       0.720
       0.675
       0.259
      -0.235
      -0.490
      -0.393
      -0.092
       0.153
       0.177
       0.027
      -0.110
      -0.084
       0.096
       0.283
       0.331
       0.211
       0.017
      -0.126
      -0.155
      -0.101
      -0.044
      -0.045
      -0.099
      -0.147
      -0.130
      -0.045
       0.050
       0.084
       0.038
      -0.041
      -0.073
      -0.013
       0.112
       0.224
       0.250
       0.164
       0.001
      -0.170
      -0.268
      -0.237
      -0.080
       0.136
       0.300
       0.325
       0.200
       0.002
      -0.149
      -0.172
      -0.079
       0.034
       0.057
      -0.048
      -0.218
      -0.323
      -0.250
       0.003
       0.307
       0.476
       0.394
       0.104
      -0.219
      -0.391
      -0.341
      -0.147
       0.044
       0.131
       0.104
       0.027
      -0.026
      -0.004
       0.100
       0.235
       0.312
       0.245
       0.038
      -0.187
      -0.260
      -0.104
       0.174
       0.338
       0.202
      -0.199
      -0.623
      -0.785
      -0.569
      -0.095
       0.386
       0.664
       0.668
       0.445
       0.101
      -0.234
      -0.423
      -0.369
      -0.088
       0.261
       0.461
       0.386
       0.097
      -0.205
      -0.326
      -0.229
      -0.053
       0.004
      -0.148
      -0.407
      -0.548
      -0.390
       0.059
       0.595
       0.945
       0.936
       0.585
       0.067
      -0.410
      -0.706
      -0.785
      -0.676
      -0.427
      -0.093
       0.251
       0.518
       0.629
       0.557
       0.330
       0.020
      -0.277
      -0.464
      -0.473
      -0.305
      -0.049
       0.167
       0.255
       0.213
       0.105
      -0.003
      -0.078
      -0.111
      -0.094
      -0.026
       0.066
       0.132
       0.127
       0.054
      -0.040
      -0.098
      -0.100
      -0.057
       0.003
       0.064
       0.114
       0.138
       0.123
       0.068
      -0.017
      -0.120
      -0.221
      -0.284
      -0.260
      -0.122
       0.107
       0.348
       0.504
       0.495
       0.292
      -0.077
      -0.505
      -0.821
      -0.851
      -0.522
       0.063
       0.651
       0.976
       0.907
       0.512
       0.007
      -0.368
      -0.470
      -0.318
      -0.062
       0.106
       0.073
      -0.128
      -0.337
      -0.388
      -0.228
       0.037
       0.225
       0.214
       0.043
      -0.120
      -0.116
       0.072
       0.303
       0.388
       0.239
      -0.071
      -0.362
      -0.466
      -0.311
       0.061
       0.507
       0.817
       0.789
       0.343
      -0.378
      -1.032
      -1.273
      -0.968
      -0.290
       0.408
       0.822
       0.860
       0.639
       0.361
       0.152
       0.010
      -0.140
      -0.323
      -0.459
      -0.437
      -0.244
       0.002
       0.146
       0.140
       0.070
       0.052
       0.107
       0.142
       0.069
      -0.085
      -0.185
      -0.122
       0.075
       0.243
       0.219
      -0.014
      -0.297
      -0.412
      -0.247
       0.104
       0.402
       0.450
       0.249
       0.005
      -0.056
       0.100
       0.275
       0.215
      -0.137
      -0.562
      -0.735
      -0.507
      -0.034
       0.359
       0.450
       0.279
       0.063
      -0.026
       0.000
       0.006
      -0.092
      -0.225
      -0.244
      -0.078
       0.183
       0.364
       0.369
       0.252
       0.144
       0.112
       0.093
      -0.017
      -0.230
      -0.426
      -0.448
      -0.256
       0.018
       0.167
       0.076
      -0.167
      -0.336
      -0.250
       0.074
       0.428
       0.593
       0.501
       0.264
       0.040
      -0.113
      -0.236
      -0.356
      -0.402
      -0.260
       0.087
       0.478
       0.668
       0.493
      -0.007
      -0.607
      -1.024
      -1.066
      -0.714
      -0.121
       0.475
       0.864
       0.951
       0.775
       0.458
       0.115
      -0.186
      -0.405
      -0.496
      -0.429
      -0.238
      -0.034
       0.065
       0.027
      -0.077
      -0.152
      -0.166
      -0.148
      -0.108
       0.009
       0.266
       0.619
       0.882
       0.830
       0.373
      -0.349
      -1.022
      -1.333
      -1.147
      -0.560
       0.169
       0.761
       1.034
       0.954
       0.608
       0.153
      -0.250
      -0.480
      -0.502
      -0.372
      -0.195
      -0.052
       0.045
       0.123
       0.182
       0.168
       0.025
      -0.209
      -0.382
      -0.331
      -0.036
       0.333
       0.534
       0.438
       0.124
      -0.210
      -0.405
      -0.435
      -0.357
      -0.217
      -0.006
       0.288
       0.606
       0.816
       0.789
       0.494
       0.026
      -0.456
      -0.825
      -1.021
      -1.025
      -0.813
      -0.363
       0.272
       0.906
       1.262
       1.142
       0.578
      -0.170
      -0.787
      -1.084
      -1.043
      -0.719
      -0.161
       0.539
       1.157
       1.381
       1.034
       0.270
      -0.470
      -0.772
      -0.564
      -0.156
       0.036
      -0.155
      -0.530
      -0.721
      -0.520
      -0.055
       0.335
       0.398
       0.185
      -0.010
       0.076
       0.437
       0.791
       0.811
       0.392
      -0.261
      -0.790
      -0.934
      -0.669
      -0.167
       0.351
       0.714
       0.810
       0.580
       0.056
      -0.580
      -1.032
      -1.051
      -0.617
       0.012
       0.462
       0.507
       0.225
      -0.072
      -0.087
       0.219
       0.593
       0.688
       0.328
      -0.339
      -0.924
      -1.035
      -0.534
       0.355
       1.152
       1.391
       0.897
      -0.089
      -1.036
      -1.433
      -1.092
      -0.245
       0.615
       1.041
       0.875
       0.302
      -0.315
      -0.667
      -0.654
      -0.365
       0.046
       0.450
       0.743
       0.808
       0.552
       0.003
      -0.634
      -1.057
      -1.057
      -0.659
      -0.092
       0.381
       0.628
       0.670
       0.590
       0.417
       0.135
      -0.225
      -0.528
      -0.598
      -0.373
       0.014
       0.313
       0.355
       0.179
      -0.022
      -0.084
      -0.022
       0.006
      -0.120
      -0.322
      -0.354
      -0.028
       0.574
       1.095
       1.160
       0.683
      -0.032
      -0.509
      -0.459
       0.021
       0.547
       0.783
       0.692
       0.519
       0.523
       0.695
       0.710
       0.163
      -1.093
      -2.763
      -4.231
      -4.882
      -4.400
      -2.874
      -0.707
       1.545
       3.322
       4.174
       3.867
       2.478
       0.441
      -1.531
      -2.681
      -2.530
      -1.118
       1.001
       3.030
       4.274
       4.366
       3.290
       1.298
      -1.134
      -3.342
      -4.604
      -4.416
      -2.776
      -0.265
       2.188
       3.711
       3.854
       2.715
       0.824
      -1.110
      -2.460
      -2.886
      -2.421
      -1.429
      -0.421
       0.202
       0.341
       0.196
       0.088
       0.215
       0.524
       0.757
       0.636
       0.068
      -0.758
      -1.428
      -1.505
      -0.767
       0.641
       2.227
       3.342
       3.464
       2.426
       0.493
      -1.750
      -3.610
      -4.521
      -4.220
      -2.830
      -0.814
       1.186
       2.579
       3.040
       2.606
       1.623
       0.555
      -0.238
      -0.620
      -0.655
      -0.477
      -0.182
       0.179
       0.539
       0.788
       0.829
       0.675
       0.482
       0.460
       0.686
       0.971
       0.915
       0.165
      -1.270
      -2.901
      -3.968
      -3.881
      -2.598
      -0.659
       1.150
       2.240
       2.472
       2.078
       1.407
       0.711
       0.098
      -0.386
      -0.673
      -0.672
      -0.357
       0.157
       0.619
       0.757
       0.443
      -0.209
      -0.877
      -1.215
      -1.042
      -0.432
       0.359
       1.041
       1.430
       1.495
       1.325
       1.027
       0.633
       0.078
      -0.694
      -1.598
      -2.380
      -2.769
      -2.669
      -2.230
      -1.687
      -1.129
      -0.412
       0.700
       2.253
       3.921
       5.083
       5.127
       3.793
       1.372
      -1.367
      -3.490
      -4.328
      -3.786
      -2.351
      -0.785
       0.310
       0.762
       0.785
       0.722
       0.780
       0.925
       0.985
       0.829
       0.484
       0.120
      -0.097
      -0.151
      -0.174
      -0.295
      -0.474
      -0.527
      -0.318
       0.032
       0.186
      -0.124
      -0.817
      -1.446
      -1.512
      -0.846
       0.254
       1.230
       1.626
       1.340
       0.625
      -0.098
      -0.476
      -0.385
       0.035
       0.473
       0.638
       0.419
      -0.056
      -0.500
      -0.627
      -0.309
       0.346
       1.020
       1.330
       1.028
       0.142
      -1.030
      -2.073
      -2.633
      -2.514
      -1.693
      -0.321
       1.273
       2.611
       3.216
       2.837
       1.624
       0.094
      -1.132
      -1.657
      -1.498
      -1.013
      -0.614
      -0.484
      -0.480
      -0.308
       0.186
       0.833
       1.235
       1.052
       0.274
      -0.729
      -1.423
      -1.422
      -0.705
       0.379
       1.290
       1.574
       1.102
       0.149
      -0.755
      -1.152
      -0.924
      -0.321
       0.263
       0.571
       0.594
       0.469
       0.293
       0.056
      -0.280
      -0.664
      -0.935
      -0.911
      -0.511
       0.183
       0.941
       1.458
       1.480
       0.942
       0.051
      -0.782
      -1.154
      -0.916
      -0.277
       0.318
       0.474
       0.103
      -0.518
      -0.926
      -0.771
      -0.059
       0.833
       1.386
       1.247
       0.448
      -0.607
      -1.379
      -1.500
      -0.984
      -0.182
       0.457
       0.686
       0.566
       0.339
       0.195
       0.137
       0.062
      -0.078
      -0.180
      -0.081
       0.268
       0.698
       0.910
       0.682
       0.062
      -0.640
      -1.056
      -1.002
      -0.590
      -0.112
       0.179
       0.230
       0.183
       0.230
       0.458
       0.760
       0.871
       0.527
      -0.325
      -1.395
      -2.134
      -2.042
      -1.027
       0.457
       1.661
       2.021
       1.524
       0.676
       0.084
       0.016
       0.258
       0.353
       0.003
      -0.682
      -1.279
      -1.383
      -0.922
      -0.200
       0.337
       0.437
       0.205
      -0.029
      -0.003
       0.260
       0.497
       0.461
       0.165
      -0.101
      -0.013
       0.469
       0.998
       1.064
       0.394
      -0.798
      -1.908
      -2.320
      -1.789
      -0.565
       0.787
       1.717
       1.949
       1.547
       0.787
      -0.029
      -0.707
      -1.190
      -1.464
      -1.466
      -1.082
      -0.284
       0.728
       1.542
       1.754
       1.246
       0.290
      -0.620
      -1.073
      -0.966
      -0.498
       0.011
       0.327
       0.395
       0.303
       0.169
       0.069
       0.027
       0.048
       0.132
       0.245
       0.300
       0.192
      -0.110
      -0.509
      -0.820
      -0.885
      -0.670
      -0.256
       0.234
       0.684
       0.985
       1.023
       0.719
       0.113
      -0.586
      -1.063
      -1.059
      -0.534
       0.284
       0.998
       1.254
       0.920
       0.150
      -0.699
      -1.238
      -1.239
      -0.733
       0.029
       0.722
       1.107
       1.099
       0.733
       0.115
      -0.586
      -1.136
      -1.304
      -0.999
      -0.373
       0.249
       0.581
       0.569
       0.387
       0.247
       0.208
       0.172
       0.043
      -0.127
      -0.163
       0.041
       0.384
       0.599
       0.473
       0.037
      -0.438
      -0.645
      -0.473
      -0.076
       0.257
       0.305
       0.051
      -0.333
      -0.601
      -0.575
      -0.229
       0.307
       0.808
       1.054
       0.926
       0.464
      -0.156
      -0.703
      -1.000
      -0.983
      -0.717
      -0.344
      -0.011
       0.210
       0.344
       0.472
       0.629
       0.727
       0.601
       0.160
      -0.473
      -0.988
      -1.090
      -0.716
      -0.066
       0.558
       0.972
       1.181
       1.268
       1.225
       0.908
       0.183
      -0.861
      -1.837
      -2.248
      -1.822
      -0.756
       0.366
       0.956
       0.833
       0.330
       0.003
       0.186
       0.740
       1.201
       1.150
       0.515
      -0.408
      -1.187
      -1.523
      -1.368
      -0.864
      -0.201
       0.466
       1.013
       1.307
       1.237
       0.779
       0.059
      -0.680
      -1.186
      -1.305
      -1.020
      -0.435
       0.267
       0.858
       1.127
       0.965
       0.452
      -0.152
      -0.538
      -0.523
      -0.162
       0.308
       0.619
       0.626
       0.349
      -0.081
      -0.512
      -0.821
      -0.923
      -0.760
      -0.334
       0.243
       0.743
       0.916
       0.641
       0.030
      -0.596
      -0.893
      -0.701
      -0.152
       0.408
       0.644
       0.445
      -0.002
      -0.357
      -0.365
      -0.027
       0.413
       0.662
       0.575
       0.238
      -0.126
      -0.334
      -0.355
      -0.301
      -0.293
      -0.341
      -0.326
      -0.120
       0.274
       0.680
       0.848
       0.634
       0.112
      -0.466
      -0.829
      -0.839
      -0.544
      -0.106
       0.303
       0.567
       0.632
       0.494
       0.200
      -0.144
      -0.409
      -0.502
      -0.423
      -0.249
      -0.077
       0.044
       0.126
       0.198
       0.258
       0.269
       0.197
       0.056
      -0.096
      -0.206
      -0.254
      -0.248
      -0.183
      -0.037
       0.190
       0.434
       0.572
       0.498
       0.204
      -0.195
      -0.519
      -0.635
