Origin Time       18/01/2011 20:23:27
Lat.              28.9 N	
Long.             64.0 E	
Depth (Km)          5.0
Magnitude         7.4
 Region           Southwestern-Pakistan                                            
 Above details taken from IMD 
     
Station Code      ANC
Station Lat.       28.539  N
Station Long.      77.264  E
Station Height(m)  231.0
Site Class        C   Vs30 between 200 m/sec to 375 m/sec *  
Record Time       18.01.2011 20:27:42.789
Sampling Rate     200. Hz
 Record Duration   80.035 Sec.
 Direction         E-W (E positive)
Max. Acceleration     -1.724 cm/sec**2
     
  * For reference see Site Classification link of website 
     
 Base Line Corrected and Low Pass Filtered (Cut Off at 35 Hz) Time History
 Acceleration data in cm/sec**2
    
[...]
       0.120
       0.125
       0.124
       0.118
       0.106
       0.084
       0.047
      -0.006
      -0.072
      -0.141
      -0.209
      -0.271
      -0.322
      -0.358
      -0.373
      -0.367
      -0.342
      -0.303
      -0.255
      -0.198
      -0.136
      -0.070
      -0.004
       0.054
       0.097
       0.119
       0.121
       0.107
       0.079
       0.036
      -0.023
      -0.098
      -0.179
      -0.247
      -0.283
      -0.277
      -0.232
      -0.169
      -0.109
      -0.065
      -0.036
      -0.012
       0.016
       0.056
       0.105
       0.158
       0.206
       0.243
       0.268
       0.279
       0.276
       0.260
       0.231
       0.195
       0.159
       0.126
       0.099
       0.077
       0.058
       0.043
       0.031
       0.025
       0.027
       0.037
       0.055
       0.079
       0.105
       0.129
       0.144
       0.145
       0.125
       0.076
      -0.002
      -0.097
      -0.193
      -0.274
      -0.330
      -0.357
      -0.358
      -0.340
      -0.312
      -0.285
      -0.268
      -0.267
      -0.282
      -0.314
      -0.360
      -0.413
      -0.461
      -0.490
      -0.497
      -0.489
      -0.482
      -0.487
      -0.500
      -0.507
      -0.489
      -0.432
      -0.340
      -0.230
      -0.127
      -0.052
      -0.009
       0.013
       0.030
       0.057
       0.098
       0.145
       0.186
       0.215
       0.231
       0.240
       0.246
       0.243
       0.227
       0.197
       0.160
       0.130
       0.119
       0.128
       0.150
       0.174
       0.188
       0.184
       0.154
       0.097
       0.017
      -0.077
      -0.172
      -0.258
      -0.328
      -0.379
      -0.412
      -0.431
      -0.438
      -0.434
      -0.421
      -0.400
      -0.373
      -0.348
      -0.332
      -0.326
      -0.325
      -0.322
      -0.316
      -0.310
      -0.302
      -0.283
      -0.245
      -0.184
      -0.112
      -0.048
      -0.010
       0.000
      -0.007
      -0.013
      -0.002
       0.032
       0.090
       0.168
       0.258
       0.352
       0.442
       0.525
       0.597
       0.655
       0.690
       0.694
       0.661
       0.591
       0.492
       0.381
       0.274
       0.183
       0.109
       0.048
      -0.001
      -0.034
      -0.049
      -0.046
      -0.030
      -0.009
       0.014
       0.040
       0.068
       0.095
       0.118
       0.140
       0.173
       0.226
       0.300
       0.381
       0.450
       0.491
       0.504
       0.503
       0.501
       0.503
       0.501
       0.482
       0.441
       0.380
       0.308
       0.233
       0.163
       0.100
       0.043
      -0.006
      -0.045
      -0.072
      -0.086
      -0.084
      -0.064
      -0.028
       0.017
       0.062
       0.098
       0.120
       0.132
       0.142
       0.156
       0.179
       0.209
       0.240
       0.265
       0.277
       0.273
       0.256
       0.230
       0.206
       0.192
       0.194
       0.213
       0.245
       0.284
       0.326
       0.374
       0.427
       0.486
       0.544
       0.594
       0.628
       0.644
       0.643
       0.630
       0.610
       0.586
       0.561
       0.543
       0.538
       0.549
       0.573
       0.593
       0.591
       0.549
       0.463
       0.337
       0.181
       0.009
      -0.169
      -0.339
      -0.484
      -0.589
      -0.644
      -0.654
      -0.635
      -0.607
      -0.589
      -0.588
      -0.598
      -0.607
      -0.596
      -0.548
      -0.461
      -0.344
      -0.218
      -0.105
      -0.019
       0.038
       0.078
       0.113
       0.152
       0.194
       0.233
       0.262
       0.281
       0.294
       0.297
       0.290
       0.270
       0.242
       0.215
       0.202
       0.211
       0.241
       0.280
       0.311
       0.315
       0.285
       0.220
       0.130
       0.030
      -0.060
      -0.123
      -0.150
      -0.142
      -0.111
      -0.068
      -0.026
       0.007
       0.026
       0.026
       0.008
      -0.021
      -0.047
      -0.060
      -0.056
      -0.046
      -0.045
      -0.068
      -0.118
      -0.186
      -0.255
      -0.306
      -0.326
      -0.318
      -0.296
      -0.283
      -0.291
      -0.323
      -0.368
      -0.411
      -0.436
      -0.432
      -0.393
      -0.327
      -0.252
      -0.190
      -0.161
      -0.171
      -0.215
      -0.281
      -0.357
      -0.431
      -0.491
      -0.531
      -0.546
      -0.536
      -0.507
      -0.467
      -0.425
      -0.386
      -0.354
      -0.325
      -0.295
      -0.255
      -0.198
      -0.122
      -0.029
       0.071
       0.164
       0.237
       0.281
       0.298
       0.291
       0.266
       0.224
       0.161
       0.072
      -0.039
      -0.164
      -0.288
      -0.396
      -0.479
      -0.532
      -0.553
      -0.543
      -0.509
      -0.461
      -0.410
      -0.368
      -0.340
      -0.324
      -0.312
      -0.290
      -0.252
      -0.197
      -0.135
      -0.076
      -0.030
      -0.001
       0.010
       0.002
      -0.020
      -0.050
      -0.079
      -0.101
      -0.113
      -0.118
      -0.118
      -0.118
      -0.118
      -0.115
      -0.107
      -0.088
      -0.059
      -0.024
       0.004
       0.012
      -0.013
      -0.073
      -0.159
      -0.250
      -0.320
      -0.351
      -0.335
      -0.278
      -0.200
      -0.131
      -0.098
      -0.115
      -0.178
      -0.266
      -0.348
      -0.399
      -0.410
      -0.381
      -0.323
      -0.243
      -0.148
      -0.047
       0.047
       0.117
       0.153
       0.154
       0.133
       0.109
       0.097
       0.097
       0.102
       0.103
       0.095
       0.079
       0.063
       0.052
       0.055
       0.075
       0.112
       0.160
       0.214
       0.267
       0.309
       0.333
       0.333
       0.308
       0.265
       0.214
       0.166
       0.128
       0.104
       0.089
       0.074
       0.052
       0.017
      -0.033
      -0.088
      -0.129
      -0.135
      -0.088
       0.011
       0.149
       0.302
       0.448
       0.570
       0.663
       0.725
       0.763
       0.780
       0.782
       0.769
       0.736
       0.675
       0.578
       0.447
       0.291
       0.132
      -0.004
      -0.091
      -0.114
      -0.082
      -0.023
       0.022
       0.022
      -0.036
      -0.143
      -0.276
      -0.409
      -0.515
      -0.575
      -0.580
      -0.528
      -0.426
      -0.294
      -0.159
      -0.053
       0.003
       0.007
      -0.025
      -0.067
      -0.096
      -0.100
      -0.081
      -0.047
      -0.015
       0.002
      -0.011
      -0.058
      -0.137
      -0.232
      -0.317
      -0.365
      -0.358
      -0.299
      -0.203
      -0.093
       0.009
       0.094
       0.152
       0.180
       0.178
       0.147
       0.097
       0.040
      -0.007
      -0.035
      -0.038
      -0.026
      -0.016
      -0.028
      -0.072
      -0.146
      -0.237
      -0.334
      -0.429
      -0.521
      -0.611
      -0.697
      -0.771
      -0.825
      -0.854
      -0.854
      -0.826
      -0.768
      -0.678
      -0.559
      -0.415
      -0.257
      -0.098
       0.050
       0.176
       0.275
       0.345
       0.395
       0.436
       0.480
       0.534
       0.596
       0.656
       0.703
       0.730
       0.734
       0.717
       0.678
       0.613
       0.521
       0.407
       0.284
       0.169
       0.079
       0.025
       0.011
       0.030
       0.065
       0.097
       0.106
       0.088
       0.045
      -0.013
      -0.081
      -0.154
      -0.224
      -0.279
      -0.302
      -0.287
      -0.236
      -0.168
      -0.102
      -0.052
      -0.026
      -0.022
      -0.035
      -0.056
      -0.078
      -0.095
      -0.101
      -0.089
      -0.054
       0.010
       0.104
       0.225
       0.357
       0.480
       0.576
       0.638
       0.676
       0.704
       0.737
       0.780
       0.828
       0.867
       0.884
       0.877
       0.852
       0.819
       0.790
       0.775
       0.780
       0.807
       0.850
       0.895
       0.920
       0.897
       0.807
       0.640
       0.406
       0.132
      -0.139
      -0.369
      -0.531
      -0.623
      -0.659
      -0.658
      -0.636
      -0.606
      -0.578
      -0.562
      -0.564
      -0.587
      -0.625
      -0.671
      -0.718
      -0.763
      -0.801
      -0.826
      -0.830
      -0.805
      -0.745
      -0.652
      -0.533
      -0.399
      -0.263
      -0.139
      -0.038
       0.035
       0.085
       0.121
       0.158
       0.211
       0.290
       0.396
       0.517
       0.637
       0.735
       0.800
       0.829
       0.830
       0.817
       0.805
       0.800
       0.803
       0.805
       0.795
       0.770
       0.732
       0.693
       0.664
       0.645
       0.628
       0.595
       0.527
       0.414
       0.261
       0.091
      -0.072
      -0.212
      -0.325
      -0.416
      -0.489
      -0.549
      -0.595
      -0.631
      -0.657
      -0.670
      -0.664
      -0.639
      -0.598
      -0.550
      -0.504
      -0.456
      -0.401
      -0.332
      -0.253
      -0.175
      -0.105
      -0.045
       0.014
       0.075
       0.137
       0.186
       0.201
       0.161
       0.058
      -0.097
      -0.275
      -0.438
      -0.553
      -0.603
      -0.592
      -0.541
      -0.472
      -0.406
      -0.356
      -0.328
      -0.316
      -0.308
      -0.291
      -0.257
      -0.205
      -0.144
      -0.080
      -0.022
       0.028
       0.071
       0.107
       0.137
       0.153
       0.147
       0.109
       0.042
      -0.041
      -0.117
      -0.173
      -0.203
      -0.214
      -0.210
      -0.191
      -0.152
      -0.093
      -0.019
       0.059
       0.136
       0.215
       0.302
       0.399
       0.496
       0.568
       0.587
       0.537
       0.426
       0.276
       0.116
      -0.041
      -0.198
      -0.367
      -0.551
      -0.739
      -0.907
      -1.033
      -1.107
      -1.130
      -1.111
      -1.059
      -0.987
      -0.919
      -0.883
      -0.899
      -0.968
      -1.072
      -1.182
      -1.270
      -1.310
      -1.285
      -1.185
      -1.009
      -0.771
      -0.502
      -0.237
      -0.006
       0.177
       0.318
       0.426
       0.516
       0.594
       0.668
       0.740
       0.809
       0.874
       0.929
       0.967
       0.979
       0.963
       0.918
       0.856
       0.791
       0.736
       0.699
       0.679
       0.665
       0.641
       0.594
       0.524
       0.448
       0.387
       0.353
       0.346
       0.351
       0.349
       0.321
       0.256
       0.149
       0.002
      -0.177
      -0.367
      -0.541
      -0.669
      -0.735
      -0.739
      -0.700
      -0.646
      -0.605
      -0.588
      -0.588
      -0.584
      -0.558
      -0.508
      -0.440
      -0.373
      -0.322
      -0.294
      -0.291
      -0.305
      -0.327
      -0.349
      -0.365
      -0.369
      -0.356
      -0.318
      -0.256
      -0.183
      -0.121
      -0.097
      -0.122
      -0.189
      -0.273
      -0.344
      -0.385
      -0.395
      -0.379
      -0.342
      -0.287
      -0.213
      -0.119
      -0.009
       0.114
       0.251
       0.404
       0.570
       0.737
       0.880
       0.971
       0.993
       0.940
       0.818
       0.641
       0.432
       0.223
       0.052
      -0.056
      -0.097
      -0.093
      -0.084
      -0.100
      -0.157
      -0.247
      -0.354
      -0.456
      -0.531
      -0.556
      -0.517
      -0.419
      -0.287
      -0.159
      -0.071
      -0.040
      -0.069
      -0.142
      -0.238
      -0.336
      -0.413
      -0.450
      -0.439
      -0.389
      -0.327
      -0.290
      -0.311
      -0.410
      -0.585
      -0.812
      -1.045
      -1.234
      -1.336
      -1.331
      -1.223
      -1.035
      -0.793
      -0.523
      -0.246
       0.020
       0.255
       0.451
       0.609
       0.745
       0.877
       1.015
       1.154
       1.275
       1.360
       1.397
       1.387
       1.343
       1.286
       1.236
       1.204
       1.190
       1.187
       1.188
       1.193
       1.206
       1.237
       1.294
       1.378
       1.474
       1.553
       1.584
       1.546
       1.442
       1.293
       1.132
       0.984
       0.866
       0.784
       0.734
       0.702
       0.675
       0.638
       0.584
       0.514
       0.439
       0.372
       0.326
       0.304
       0.304
       0.319
       0.342
       0.371
       0.401
       0.421
       0.416
       0.365
       0.257
       0.096
      -0.092
      -0.267
      -0.388
      -0.421
      -0.351
      -0.188
       0.041
       0.290
       0.516
       0.687
       0.791
       0.837
       0.845
       0.835
       0.829
       0.840
       0.880
       0.952
       1.052
       1.166
       1.277
       1.366
       1.420
       1.430
       1.400
       1.347
       1.293
       1.259
       1.250
       1.258
       1.266
       1.256
       1.219
       1.149
       1.042
       0.899
       0.729
       0.562
       0.431
       0.360
       0.343
       0.348
       0.325
       0.234
       0.059
      -0.195
      -0.501
      -0.824
      -1.129
      -1.386
      -1.575
      -1.689
      -1.724
      -1.684
      -1.580
      -1.432
      -1.259
      -1.074
      -0.880
      -0.681
      -0.481
      -0.298
      -0.147
      -0.044
       0.013
       0.035
       0.040
       0.046
       0.065
       0.103
       0.163
       0.242
       0.332
       0.419
       0.488
       0.522
       0.510
       0.457
       0.379
       0.297
       0.233
       0.194
       0.180
       0.187
       0.217
       0.273
       0.358
       0.468
       0.578
       0.655
       0.668
       0.606
       0.477
       0.300
       0.099
      -0.105
      -0.298
      -0.470
      -0.615
      -0.733
      -0.822
      -0.884
      -0.921
      -0.933
      -0.927
      -0.910
      -0.900
      -0.913
      -0.959
      -1.037
      -1.130
      -1.218
      -1.277
      -1.281
      -1.213
      -1.067
      -0.856
      -0.614
      -0.378
      -0.178
      -0.033
       0.048
       0.056
      -0.005
      -0.121
      -0.262
      -0.396
      -0.506
      -0.596
      -0.685
      -0.794
      -0.921
      -1.049
      -1.150
      -1.206
      -1.218
      -1.198
      -1.157
      -1.096
      -1.008
      -0.893
      -0.761
      -0.634
      -0.528
      -0.445
      -0.377
      -0.316
      -0.262
      -0.223
      -0.207
      -0.217
      -0.247
      -0.288
      -0.326
      -0.354
      -0.372
      -0.386
      -0.406
      -0.442
      -0.499
      -0.579
      -0.673
      -0.773
      -0.867
      -0.948
      -1.010
      -1.050
      -1.066
      -1.054
      -1.010
      -0.931
      -0.824
      -0.703
      -0.591
      -0.505
      -0.455
      -0.444
      -0.470
      -0.531
      -0.617
      -0.711
      -0.783
      -0.803
      -0.757
      -0.655
      -0.528
      -0.419
      -0.363
      -0.375
      -0.450
      -0.561
      -0.673
      -0.755
      -0.789
      -0.776
      -0.725
      -0.646
      -0.542
      -0.410
      -0.253
      -0.086
       0.065
       0.177
       0.239
       0.265
       0.285
       0.331
       0.426
       0.570
       0.747
       0.925
       1.074
       1.171
       1.208
       1.193
       1.141
       1.062
       0.959
       0.833
       0.685
       0.522
       0.354
       0.189
       0.034
      -0.107
      -0.229
      -0.328
      -0.409
      -0.480
      -0.552
      -0.630
      -0.710
      -0.779
      -0.830
      -0.859
      -0.869
      -0.868
      -0.861
      -0.852
      -0.841
      -0.825
      -0.796
      -0.745
      -0.673
      -0.590
      -0.515
      -0.466
      -0.443
      -0.437
      -0.431
      -0.416
      -0.386
      -0.338
      -0.272
      -0.192
      -0.113
      -0.059
      -0.054
      -0.113
      -0.227
      -0.367
      -0.494
      -0.567
      -0.564
      -0.491
      -0.376
      -0.262
      -0.185
      -0.162
      -0.187
      -0.233
      -0.262
      -0.239
      -0.147
       0.002
       0.176
       0.336
       0.453
       0.518
       0.532
       0.500
       0.427
       0.321
       0.203
       0.097
       0.021
      -0.017
      -0.022
      -0.005
       0.028
       0.078
       0.150
       0.250
       0.379
       0.531
       0.693
       0.847
       0.980
       1.084
       1.160
       1.209
       1.233
       1.229
       1.195
       1.134
       1.052
       0.961
       0.871
       0.790
       0.715
       0.641
       0.561
       0.475
       0.391
       0.317
       0.254
       0.198
       0.142
       0.079
       0.014
      -0.046
      -0.094
      -0.124
      -0.135
      -0.132
      -0.117
      -0.090
      -0.045
       0.016
       0.087
       0.156
       0.213
       0.264
       0.320
       0.390
       0.479
       0.578
       0.677
       0.767
       0.847
       0.920
       0.985
       1.039
       1.074
       1.082
       1.063
       1.022
       0.977
       0.947
       0.944
       0.970
       1.011
       1.045
       1.048
       0.999
       0.890
       0.727
       0.536
       0.356
       0.226
       0.167
       0.172
       0.211
       0.247
       0.255
       0.231
       0.180
       0.107
       0.006
      -0.134
      -0.318
      -0.529
      -0.727
      -0.861
      -0.897
      -0.828
      -0.682
      -0.500
      -0.322
      -0.168
      -0.041
       0.070
       0.171
       0.261
       0.334
       0.375
       0.378
       0.347
       0.302
       0.275
       0.296
       0.386
       0.543
       0.740
       0.930
       1.063
       1.104
       1.050
       0.926
       0.780
       0.661
       0.607
       0.631
       0.719
       0.841
       0.957
       1.033
       1.049
       1.006
       0.919
       0.802
       0.673
       0.546
       0.437
       0.359
       0.319
       0.313
       0.327
       0.349
       0.370
       0.380
       0.370
       0.329
       0.255
       0.156
       0.058
      -0.008
      -0.018
       0.029
       0.112
       0.196
       0.251
       0.262
       0.227
       0.151
       0.041
      -0.094
      -0.243
      -0.393
      -0.528
      -0.630
      -0.692
      -0.715
      -0.712
      -0.704
      -0.711
      -0.747
      -0.813
      -0.897
      -0.981
      -1.046
      -1.079
      -1.076
      -1.045
      -0.999
      -0.952
      -0.913
      -0.885
      -0.862
      -0.836
      -0.799
      -0.747
      -0.680
      -0.597
      -0.497
      -0.383
      -0.274
      -0.193
      -0.156
      -0.162
      -0.190
      -0.208
      -0.195
      -0.142
      -0.056
       0.050
       0.158
       0.253
       0.324
       0.371
       0.408
       0.456
       0.524
       0.604
       0.663
       0.664
       0.582
       0.421
       0.218
       0.021
      -0.117
      -0.165
      -0.115
       0.018
       0.200
       0.380
