Origin Time       12/3/2012 22:07:20	
Lat.              28.9 N	
Long.             77.3 E	
Depth (Km)          5.0
Magnitude         3.5
 Region           Baghpat-U.P.                                                     
 Above details taken from IMD 
     
Station Code      ANC
Station Lat.       28.539  N
Station Long.      77.264  E
Station Height(m)  231.0
Site Class        C   Vs30 between 200 m/sec to 375 m/sec *  
Record Time       12.03.2012 22:07:08.454
Sampling Rate     200. Hz
 Record Duration   81.045 Sec.
 Direction         E-W (E positive)
Max. Acceleration      2.939 cm/sec**2
     
  * For reference see Site Classification link of website 
     
 Base Line Corrected and Low Pass Filtered (Cut Off at 35 Hz) Time History
 Acceleration data in cm/sec**2
    
[...]
      -0.219
       0.009
       0.283
       0.505
       0.594
       0.521
       0.310
       0.024
      -0.265
      -0.485
      -0.575
      -0.498
      -0.267
       0.052
       0.351
       0.520
       0.493
       0.291
       0.015
      -0.200
      -0.266
      -0.193
      -0.081
      -0.038
      -0.089
      -0.161
      -0.144
       0.006
       0.222
       0.381
       0.389
       0.239
       0.002
      -0.226
      -0.363
      -0.354
      -0.197
       0.041
       0.231
       0.253
       0.084
      -0.170
      -0.338
      -0.301
      -0.082
       0.181
       0.332
       0.303
       0.144
      -0.024
      -0.096
      -0.045
       0.076
       0.172
       0.159
       0.009
      -0.228
      -0.429
      -0.467
      -0.290
       0.023
       0.301
       0.396
       0.285
       0.075
      -0.082
      -0.104
      -0.022
       0.061
       0.053
      -0.055
      -0.186
      -0.227
      -0.118
       0.093
       0.269
       0.271
       0.072
      -0.218
      -0.413
      -0.380
      -0.121
       0.242
       0.554
       0.697
       0.621
       0.338
      -0.086
      -0.526
      -0.824
      -0.867
      -0.647
      -0.275
       0.102
       0.387
       0.556
       0.616
       0.561
       0.378
       0.087
      -0.228
      -0.449
      -0.477
      -0.299
      -0.005
       0.250
       0.332
       0.207
      -0.032
      -0.232
      -0.282
      -0.186
      -0.044
       0.028
      -0.012
      -0.116
      -0.181
      -0.112
       0.116
       0.424
       0.648
       0.625
       0.300
      -0.213
      -0.683
      -0.894
      -0.770
      -0.398
       0.053
       0.435
       0.664
       0.704
       0.545
       0.212
      -0.206
      -0.559
      -0.697
      -0.551
      -0.180
       0.255
       0.575
       0.656
       0.482
       0.139
      -0.234
      -0.503
      -0.598
      -0.523
      -0.340
      -0.120
       0.082
       0.234
       0.318
       0.326
       0.266
       0.167
       0.072
       0.021
       0.027
       0.062
       0.073
       0.022
      -0.092
      -0.227
      -0.315
      -0.290
      -0.126
       0.136
       0.385
       0.488
       0.372
       0.078
      -0.244
      -0.432
      -0.404
      -0.205
       0.032
       0.172
       0.154
       0.023
      -0.109
      -0.139
      -0.053
       0.065
       0.112
       0.055
      -0.026
      -0.013
       0.134
       0.317
       0.372
       0.202
      -0.125
      -0.416
      -0.496
      -0.329
      -0.035
       0.209
       0.296
       0.237
       0.118
       0.015
      -0.053
      -0.101
      -0.129
      -0.110
      -0.030
       0.068
       0.104
       0.027
      -0.130
      -0.262
      -0.266
      -0.110
       0.142
       0.367
       0.457
       0.368
       0.141
      -0.125
      -0.319
      -0.363
      -0.250
      -0.042
       0.160
       0.271
       0.252
       0.131
      -0.024
      -0.141
      -0.188
      -0.187
      -0.187
      -0.198
      -0.171
      -0.039
       0.200
       0.432
       0.479
       0.234
      -0.231
      -0.677
      -0.838
      -0.583
      -0.005
       0.633
       1.048
       1.087
       0.780
       0.294
      -0.185
      -0.541
      -0.744
      -0.811
      -0.758
      -0.578
      -0.270
       0.125
       0.499
       0.701
       0.621
       0.268
      -0.196
      -0.532
      -0.554
      -0.252
       0.198
       0.546
       0.613
       0.385
      -0.006
      -0.365
      -0.535
      -0.463
      -0.214
       0.065
       0.227
       0.202
       0.045
      -0.098
      -0.086
       0.115
       0.387
       0.535
       0.411
       0.034
      -0.415
      -0.703
      -0.696
      -0.434
      -0.083
       0.190
       0.319
       0.342
       0.329
       0.306
       0.250
       0.129
      -0.053
      -0.245
      -0.372
      -0.366
      -0.203
       0.071
       0.348
       0.492
       0.417
       0.149
      -0.172
      -0.364
      -0.326
      -0.107
       0.121
       0.191
       0.058
      -0.172
      -0.327
      -0.290
      -0.080
       0.186
       0.379
       0.435
       0.356
       0.165
      -0.117
      -0.437
      -0.685
      -0.716
      -0.447
       0.046
       0.535
       0.776
       0.673
       0.338
      -0.015
      -0.232
      -0.305
      -0.307
      -0.289
      -0.231
      -0.097
       0.093
       0.268
       0.364
       0.368
       0.303
       0.179
      -0.013
      -0.268
      -0.526
      -0.677
      -0.635
      -0.399
      -0.060
       0.256
       0.466
       0.568
       0.597
       0.565
       0.430
       0.149
      -0.245
      -0.605
      -0.750
      -0.590
      -0.208
       0.189
       0.417
       0.424
       0.284
       0.095
      -0.092
      -0.267
      -0.407
      -0.459
      -0.375
      -0.163
       0.107
       0.343
       0.485
       0.523
       0.471
       0.337
       0.116
      -0.178
      -0.473
      -0.647
      -0.586
      -0.267
       0.188
       0.563
       0.675
       0.504
       0.195
      -0.055
      -0.161
      -0.196
      -0.296
      -0.507
      -0.716
      -0.732
      -0.442
       0.084
       0.639
       0.999
       1.051
       0.817
       0.404
      -0.076
      -0.526
      -0.862
      -0.998
      -0.873
      -0.499
       0.014
       0.494
       0.786
       0.822
       0.629
       0.296
      -0.076
      -0.392
      -0.562
      -0.514
      -0.246
       0.134
       0.440
       0.506
       0.295
      -0.073
      -0.405
      -0.552
      -0.490
      -0.299
      -0.084
       0.087
       0.205
       0.301
       0.399
       0.486
       0.501
       0.376
       0.099
      -0.242
      -0.494
      -0.536
      -0.365
      -0.096
       0.123
       0.209
       0.175
       0.088
       0.012
      -0.020
      -0.002
       0.045
       0.073
       0.016
      -0.147
      -0.343
      -0.419
      -0.250
       0.138
       0.553
       0.750
       0.602
       0.180
      -0.301
      -0.616
      -0.644
      -0.407
      -0.032
       0.314
       0.492
       0.452
       0.242
      -0.012
      -0.184
      -0.219
      -0.172
      -0.150
      -0.219
      -0.320
      -0.309
      -0.084
       0.297
       0.622
       0.678
       0.404
      -0.059
      -0.477
      -0.675
      -0.617
      -0.374
      -0.054
       0.248
       0.448
       0.485
       0.345
       0.084
      -0.180
      -0.325
      -0.281
      -0.070
       0.199
       0.384
       0.384
       0.198
      -0.082
      -0.332
      -0.465
      -0.464
      -0.353
      -0.154
       0.119
       0.425
       0.669
       0.723
       0.511
       0.088
      -0.370
      -0.670
      -0.717
      -0.550
      -0.277
       0.008
       0.253
       0.419
       0.457
       0.335
       0.082
      -0.193
      -0.348
      -0.287
      -0.016
       0.341
       0.604
       0.618
       0.342
      -0.125
      -0.591
      -0.873
      -0.867
      -0.584
      -0.119
       0.380
       0.750
       0.862
       0.682
       0.298
      -0.110
      -0.378
      -0.451
      -0.400
      -0.338
      -0.316
      -0.293
      -0.192
       0.018
       0.287
       0.523
       0.645
       0.615
       0.434
       0.129
      -0.238
      -0.564
      -0.724
      -0.622
      -0.266
       0.211
       0.598
       0.713
       0.511
       0.105
      -0.314
      -0.597
      -0.709
      -0.688
      -0.558
      -0.289
       0.148
       0.691
       1.154
       1.312
       1.044
       0.412
      -0.358
      -0.995
      -1.296
      -1.192
      -0.746
      -0.117
       0.495
       0.910
       1.020
       0.822
       0.404
      -0.087
      -0.497
      -0.714
      -0.696
      -0.490
      -0.197
       0.078
       0.275
       0.385
       0.418
       0.376
       0.250
       0.042
      -0.203
      -0.404
      -0.491
      -0.455
      -0.336
      -0.170
       0.063
       0.403
       0.812
       1.112
       1.055
       0.507
      -0.398
      -1.279
      -1.715
      -1.493
      -0.726
       0.225
       0.963
       1.237
       1.031
       0.525
      -0.017
      -0.382
      -0.497
      -0.428
      -0.300
      -0.186
      -0.056
       0.153
       0.433
       0.649
       0.628
       0.307
      -0.174
      -0.541
      -0.567
      -0.243
       0.213
       0.508
       0.469
       0.152
      -0.220
      -0.418
      -0.349
      -0.086
       0.215
       0.416
       0.466
       0.373
       0.156
      -0.173
      -0.569
      -0.907
      -0.993
      -0.686
      -0.040
       0.677
       1.109
       1.040
       0.519
      -0.171
      -0.702
      -0.877
      -0.699
      -0.325
       0.050
       0.285
       0.334
       0.235
       0.082
      -0.024
      -0.017
       0.099
       0.249
       0.320
       0.229
      -0.013
      -0.289
      -0.447
      -0.406
      -0.201
       0.058
       0.286
       0.457
       0.565
       0.569
       0.397
       0.022
      -0.460
      -0.850
      -0.948
      -0.677
      -0.137
       0.445
       0.821
       0.835
       0.494
      -0.038
      -0.521
      -0.771
      -0.763
      -0.617
      -0.472
      -0.364
      -0.206
       0.108
       0.582
       1.090
       1.437
       1.453
       1.062
       0.335
      -0.498
      -1.114
      -1.253
      -0.900
      -0.310
       0.150
       0.240
      -0.024
      -0.431
      -0.733
      -0.778
      -0.534
      -0.059
       0.525
       1.051
       1.353
       1.343
       1.057
       0.618
       0.144
      -0.320
      -0.768
      -1.164
      -1.413
      -1.401
      -1.090
      -0.560
       0.032
       0.538
       0.883
       1.069
       1.127
       1.073
       0.892
       0.562
       0.100
      -0.409
      -0.824
      -1.016
      -0.938
      -0.644
      -0.247
       0.142
       0.438
       0.581
       0.536
       0.317
       0.009
      -0.253
      -0.357
      -0.287
      -0.142
      -0.067
      -0.146
      -0.336
      -0.498
      -0.492
      -0.270
       0.092
       0.450
       0.691
       0.805
       0.863
       0.917
       0.907
       0.674
       0.104
      -0.724
      -1.522
      -1.955
      -1.857
      -1.336
      -0.672
      -0.097
       0.353
       0.809
       1.368
       1.928
       2.184
       1.828
       0.807
      -0.570
      -1.758
      -2.268
      -1.939
      -1.001
       0.085
       0.892
       1.220
       1.120
       0.771
       0.338
      -0.090
      -0.471
      -0.756
      -0.890
      -0.842
      -0.641
      -0.355
      -0.046
       0.260
       0.552
       0.773
       0.805
       0.547
       0.040
      -0.480
      -0.698
      -0.441
       0.171
       0.788
       1.076
       0.953
       0.609
       0.317
       0.195
       0.130
      -0.094
      -0.572
      -1.159
      -1.534
      -1.429
      -0.837
      -0.048
       0.527
       0.631
       0.332
      -0.042
      -0.160
       0.073
       0.469
       0.740
       0.725
       0.469
       0.122
      -0.222
      -0.573
      -0.934
      -1.189
      -1.131
      -0.643
       0.130
       0.799
       0.972
       0.550
      -0.175
      -0.698
      -0.652
      -0.048
       0.763
       1.359
       1.506
       1.219
       0.646
      -0.076
      -0.822
      -1.410
      -1.596
      -1.212
      -0.337
       0.683
       1.405
       1.534
       1.061
       0.241
      -0.563
      -1.060
      -1.142
      -0.894
      -0.500
      -0.120
       0.183
       0.415
       0.571
       0.585
       0.387
       0.006
      -0.385
      -0.558
      -0.404
      -0.031
       0.309
       0.417
       0.304
       0.135
       0.041
      -0.036
      -0.266
      -0.701
      -1.122
      -1.154
      -0.573
       0.454
       1.437
       1.891
       1.648
       0.920
       0.085
      -0.585
      -1.040
      -1.361
      -1.580
      -1.580
      -1.178
      -0.315
       0.799
       1.747
       2.154
       1.920
       1.270
       0.564
       0.061
      -0.208
      -0.378
      -0.611
      -0.992
      -1.479
      -1.906
      -2.017
      -1.584
      -0.586
       0.686
       1.736
       2.138
       1.801
       1.004
       0.176
      -0.399
      -0.725
      -0.996
      -1.339
      -1.632
      -1.562
      -0.873
       0.381
       1.779
       2.732
       2.808
       1.980
       0.645
      -0.578
      -1.172
      -0.999
      -0.387
       0.073
      -0.080
      -0.841
      -1.718
      -2.078
      -1.604
      -0.514
       0.616
       1.265
       1.302
       0.986
       0.697
       0.630
       0.693
       0.643
       0.317
      -0.233
      -0.780
      -1.083
      -1.014
      -0.604
       0.007
       0.638
       1.123
       1.325
       1.164
       0.654
      -0.071
      -0.785
      -1.278
      -1.460
      -1.378
      -1.133
      -0.777
      -0.296
       0.315
       0.973
       1.504
       1.730
       1.572
       1.089
       0.442
      -0.189
      -0.667
      -0.949
      -1.085
      -1.159
      -1.206
      -1.154
      -0.876
      -0.315
       0.429
       1.137
       1.591
       1.684
       1.415
       0.821
      -0.055
      -1.083
      -1.965
      -2.275
      -1.700
      -0.310
       1.379
       2.640
       2.939
       2.220
       0.871
      -0.565
      -1.688
      -2.351
      -2.559
      -2.338
      -1.718
      -0.803
       0.195
       1.037
       1.570
       1.779
       1.706
       1.363
       0.735
      -0.107
      -0.914
      -1.324
      -1.082
      -0.241
       0.812
       1.556
       1.621
       0.970
      -0.120
      -1.239
      -2.022
      -2.252
      -1.873
      -0.971
       0.238
       1.435
       2.261
       2.434
       1.861
       0.703
      -0.671
      -1.817
      -2.356
      -2.090
      -1.052
       0.459
       1.924
       2.762
       2.598
       1.481
      -0.101
      -1.467
      -2.110
      -1.953
      -1.333
      -0.738
      -0.476
      -0.499
      -0.483
      -0.104
       0.682
       1.563
       2.055
       1.817
       0.881
      -0.351
      -1.331
      -1.647
      -1.214
      -0.273
       0.748
       1.430
       1.540
       1.110
       0.374
      -0.384
      -0.977
      -1.362
      -1.577
      -1.637
      -1.473
      -0.954
      -0.022
       1.177
       2.254
       2.732
       2.319
       1.120
      -0.382
      -1.578
      -2.053
      -1.757
      -0.962
      -0.078
       0.547
       0.757
       0.631
       0.406
       0.312
       0.387
       0.431
       0.161
      -0.516
      -1.360
      -1.902
      -1.752
      -0.863
       0.448
       1.689
       2.445
       2.507
       1.885
       0.767
      -0.530
      -1.622
      -2.173
      -2.043
      -1.361
      -0.452
       0.342
       0.833
       1.023
       1.016
       0.896
       0.686
       0.375
      -0.023
      -0.445
      -0.788
      -0.954
      -0.881
      -0.572
      -0.104
       0.395
       0.778
       0.939
       0.848
       0.540
       0.091
      -0.407
      -0.837
      -1.056
      -0.947
      -0.514
       0.057
       0.478
       0.549
       0.301
      -0.028
      -0.184
      -0.081
       0.165
       0.368
       0.424
       0.357
       0.242
       0.114
      -0.049
      -0.265
      -0.476
      -0.559
      -0.403
      -0.012
       0.452
       0.751
       0.702
       0.286
      -0.336
      -0.916
      -1.235
      -1.188
      -0.790
      -0.147
       0.583
       1.218
       1.575
       1.525
       1.048
       0.261
      -0.601
      -1.273
      -1.558
      -1.402
      -0.905
      -0.258
       0.333
       0.711
       0.817
       0.716
       0.561
       0.495
       0.542
       0.589
       0.474
       0.132
      -0.335
      -0.726
      -0.884
      -0.792
      -0.547
      -0.264
      -0.022
       0.129
       0.147
       0.023
      -0.186
      -0.363
      -0.394
      -0.239
       0.055
       0.394
       0.682
       0.852
       0.880
       0.779
       0.582
       0.300
      -0.095
      -0.616
      -1.168
      -1.519
      -1.410
      -0.755
       0.228
       1.105
       1.475
       1.206
       0.469
      -0.405
      -1.101
      -1.419
      -1.270
      -0.665
       0.268
       1.265
       1.981
       2.128
       1.617
       0.597
      -0.623
      -1.701
      -2.360
      -2.420
      -1.821
      -0.653
       0.792
       2.048
       2.629
       2.280
       1.145
      -0.276
      -1.383
      -1.787
      -1.476
      -0.755
      -0.019
       0.476
       0.705
       0.780
       0.793
       0.721
       0.469
      -0.014
      -0.637
      -1.192
      -1.455
      -1.317
      -0.837
      -0.193
       0.428
       0.912
       1.221
       1.338
       1.228
       0.868
       0.308
      -0.302
      -0.779
      -1.015
      -1.028
      -0.906
      -0.695
      -0.364
       0.108
       0.607
       0.893
       0.751
       0.190
      -0.509
      -0.948
      -0.856
      -0.248
       0.605
       1.325
       1.591
       1.250
       0.373
      -0.753
      -1.710
      -2.112
      -1.789
      -0.872
       0.281
       1.276
       1.855
       1.947
       1.610
       0.959
       0.161
      -0.559
      -1.006
      -1.144
      -1.129
      -1.153
      -1.220
      -1.117
      -0.633
       0.167
       0.934
       1.309
       1.227
       0.933
       0.708
       0.603
       0.437
       0.040
      -0.537
      -1.046
      -1.246
      -1.063
      -0.591
       0.000
       0.532
       0.839
       0.793
       0.393
      -0.172
      -0.597
      -0.639
      -0.283
       0.251
       0.655
       0.721
       0.441
      -0.013
      -0.401
      -0.543
      -0.397
      -0.068
       0.246
       0.355
       0.173
      -0.218
      -0.600
      -0.731
      -0.495
       0.000
       0.481
       0.673
       0.488
       0.077
      -0.282
      -0.378
      -0.201
       0.067
       0.194
       0.071
      -0.204
      -0.380
      -0.226
       0.282
       0.881
       1.154
       0.798
      -0.132
      -1.208
      -1.865
      -1.735
      -0.861
       0.343
       1.335
       1.728
       1.451
       0.729
      -0.064
      -0.601
      -0.742
      -0.571
      -0.308
      -0.155
      -0.177
      -0.294
      -0.365
      -0.295
      -0.079
       0.215
       0.498
       0.698
       0.762
       0.661
       0.393
      -0.011
      -0.470
      -0.861
      -1.053
      -0.959
      -0.587
      -0.041
       0.523
       0.947
       1.094
       0.881
       0.314
      -0.464
      -1.172
      -1.484
      -1.199
      -0.364
       0.717
       1.620
       2.006
       1.761
       1.024
       0.086
      -0.764
      -1.355
      -1.640
      -1.643
      -1.398
      -0.945
      -0.350
       0.294
       0.886
       1.319
       1.481
       1.267
       0.663
      -0.177
      -0.932
      -1.265
      -1.017
      -0.308
       0.531
       1.128
       1.234
       0.806
