Origin Time       24/2/2010 19:20:52	
Lat.              28.6 N	
Long.             76.9 E	
Depth (Km)         17.0
Magnitude         2.5
 Region           Rohtak                                                           
 Above details taken from IMD 
   
Station Code      ANC
Station Lat.       28.539
Station Long.      77.264
Station Height(m)  231.0
Site Class        C   Vs30 between 200 m/sec to 375 m/sec *  
Record Time       24.02.2010 19:20:31.719
Sampling Rate     200. Hz
 Record Duration   80.955 Sec.
 Direction         Vert. (Up positive)
Max. Acceleration      2.227 cm/sec**2
     
  * For reference see Site Classification link of website 
     
 Base Line Corrected and Low Pass Filtered (Cut Off at 35 Hz) Time History
 Acceleration data in cm/sec**2
    
[...]
       0.006
       0.019
       0.027
       0.024
       0.009
      -0.012
      -0.027
      -0.028
      -0.010
       0.015
       0.034
       0.037
       0.022
       0.001
      -0.013
      -0.013
      -0.003
       0.006
       0.010
       0.008
       0.007
       0.012
       0.018
       0.020
       0.012
      -0.001
      -0.011
      -0.015
      -0.011
      -0.005
      -0.001
       0.001
       0.001
       0.004
       0.009
       0.013
       0.014
       0.010
       0.003
      -0.004
      -0.009
      -0.010
      -0.008
      -0.005
      -0.001
       0.001
       0.003
       0.005
       0.006
       0.003
      -0.005
      -0.014
      -0.017
      -0.010
       0.006
       0.023
       0.030
       0.023
       0.002
      -0.024
      -0.041
      -0.041
      -0.028
      -0.009
       0.005
       0.010
       0.008
       0.005
       0.003
       0.001
      -0.003
      -0.007
      -0.010
      -0.009
      -0.004
       0.002
       0.005
       0.002
      -0.006
      -0.015
      -0.021
      -0.020
      -0.012
      -0.003
       0.002
      -0.001
      -0.008
      -0.014
      -0.013
      -0.006
       0.000
       0.000
      -0.002
      -0.004
      -0.003
      -0.001
       0.000
      -0.001
      -0.001
      -0.001
      -0.002
      -0.006
      -0.009
      -0.007
      -0.001
       0.008
       0.014
       0.013
       0.007
       0.001
       0.000
       0.003
       0.007
       0.006
      -0.002
      -0.013
      -0.019
      -0.018
      -0.011
      -0.001
       0.006
       0.008
       0.003
      -0.004
      -0.012
      -0.018
      -0.019
      -0.011
       0.001
       0.013
       0.019
       0.017
       0.013
       0.008
       0.006
       0.005
       0.006
       0.007
       0.009
       0.008
       0.003
      -0.005
      -0.012
      -0.014
      -0.010
      -0.003
       0.002
       0.004
       0.003
       0.000
      -0.001
      -0.002
      -0.005
      -0.011
      -0.014
      -0.010
       0.001
       0.010
       0.012
       0.006
      -0.002
      -0.007
      -0.007
      -0.007
      -0.006
      -0.003
       0.002
       0.006
       0.006
       0.005
       0.002
      -0.001
      -0.005
      -0.010
      -0.012
      -0.008
       0.001
       0.010
       0.013
       0.011
       0.004
      -0.005
      -0.014
      -0.021
      -0.021
      -0.015
      -0.006
       0.001
       0.002
       0.001
       0.000
       0.000
       0.001
       0.000
       0.001
       0.003
       0.006
       0.005
       0.001
      -0.003
      -0.003
       0.001
       0.007
       0.012
       0.014
       0.014
       0.011
       0.004
      -0.008
      -0.018
      -0.022
      -0.016
      -0.003
       0.011
       0.017
       0.015
       0.008
       0.000
      -0.005
      -0.007
      -0.008
      -0.010
      -0.011
      -0.010
      -0.004
       0.006
       0.012
       0.010
       0.000
      -0.012
      -0.020
      -0.022
      -0.018
      -0.011
      -0.004
       0.003
       0.010
       0.016
       0.021
       0.023
       0.021
       0.017
       0.013
       0.008
       0.003
      -0.005
      -0.013
      -0.020
      -0.026
      -0.037
      -0.058
      -0.086
      -0.104
      -0.090
      -0.035
       0.037
       0.080
       0.059
      -0.014
      -0.080
      -0.070
       0.032
       0.169
       0.236
       0.155
      -0.063
      -0.312
      -0.454
      -0.401
      -0.151
       0.218
       0.586
       0.821
       0.803
       0.460
      -0.166
      -0.886
      -1.406
      -1.467
      -0.985
      -0.121
       0.790
       1.397
       1.498
       1.122
       0.483
      -0.151
      -0.586
      -0.760
      -0.720
      -0.550
      -0.322
      -0.098
       0.065
       0.137
       0.143
       0.152
       0.223
       0.341
       0.412
       0.328
       0.058
      -0.307
      -0.593
      -0.640
      -0.409
      -0.011
       0.351
       0.503
       0.392
       0.104
      -0.195
      -0.358
      -0.334
      -0.173
       0.029
       0.191
       0.271
       0.253
       0.133
      -0.063
      -0.256
      -0.337
      -0.243
      -0.018
       0.202
       0.270
       0.144
      -0.081
      -0.234
      -0.192
       0.034
       0.312
       0.480
       0.447
       0.230
      -0.077
      -0.357
      -0.520
      -0.519
      -0.363
      -0.109
       0.158
       0.348
       0.396
       0.295
       0.103
      -0.077
      -0.159
      -0.117
      -0.004
       0.090
       0.092
      -0.016
      -0.186
      -0.324
      -0.338
      -0.181
       0.104
       0.400
       0.567
       0.519
       0.269
      -0.082
      -0.402
      -0.585
      -0.585
      -0.419
      -0.148
       0.148
       0.391
       0.521
       0.507
       0.356
       0.117
      -0.135
      -0.317
      -0.371
      -0.279
      -0.087
       0.104
       0.176
       0.066
      -0.167
      -0.353
      -0.323
      -0.045
       0.324
       0.541
       0.452
       0.109
      -0.269
      -0.463
      -0.396
      -0.163
       0.076
       0.216
       0.261
       0.267
       0.254
       0.177
      -0.021
      -0.313
      -0.558
      -0.578
      -0.301
       0.163
       0.576
       0.730
       0.579
       0.243
      -0.103
      -0.344
      -0.470
      -0.509
      -0.468
      -0.323
      -0.066
       0.240
       0.478
       0.533
       0.371
       0.068
      -0.224
      -0.359
      -0.278
      -0.048
       0.177
       0.256
       0.153
      -0.041
      -0.186
      -0.205
      -0.124
      -0.030
       0.019
       0.033
       0.060
       0.127
       0.208
       0.232
       0.143
      -0.052
      -0.272
      -0.412
      -0.415
      -0.303
      -0.147
      -0.010
       0.095
       0.194
       0.309
       0.426
       0.492
       0.444
       0.256
      -0.046
      -0.376
      -0.614
      -0.657
      -0.480
      -0.170
       0.118
       0.271
       0.292
       0.271
       0.280
       0.293
       0.223
       0.025
      -0.229
      -0.392
      -0.351
      -0.128
       0.126
       0.243
       0.159
      -0.055
      -0.261
      -0.348
      -0.281
      -0.092
       0.150
       0.352
       0.425
       0.336
       0.134
      -0.075
      -0.204
      -0.230
      -0.191
      -0.134
      -0.082
      -0.042
      -0.010
       0.022
       0.064
       0.114
       0.136
       0.086
      -0.039
      -0.168
      -0.198
      -0.079
       0.143
       0.337
       0.375
       0.207
      -0.106
      -0.425
      -0.600
      -0.537
      -0.236
       0.201
       0.593
       0.758
       0.607
       0.212
      -0.239
      -0.556
      -0.648
      -0.532
      -0.286
       0.005
       0.255
       0.387
       0.353
       0.181
      -0.023
      -0.137
      -0.106
       0.016
       0.118
       0.122
       0.029
      -0.106
      -0.221
      -0.281
      -0.260
      -0.150
       0.031
       0.227
       0.373
       0.424
       0.371
       0.229
       0.028
      -0.186
      -0.356
      -0.445
      -0.452
      -0.399
      -0.289
      -0.108
       0.131
       0.352
       0.458
       0.413
       0.266
       0.100
      -0.035
      -0.138
      -0.217
      -0.256
      -0.228
      -0.126
       0.011
       0.124
       0.163
       0.122
       0.038
      -0.033
      -0.057
      -0.039
      -0.016
      -0.014
      -0.033
      -0.052
      -0.052
      -0.035
      -0.015
      -0.010
      -0.026
      -0.043
      -0.031
       0.028
       0.116
       0.186
       0.198
       0.140
       0.031
      -0.102
      -0.232
      -0.321
      -0.327
      -0.226
      -0.043
       0.148
       0.266
       0.273
       0.192
       0.082
      -0.010
      -0.074
      -0.124
      -0.162
      -0.160
      -0.074
       0.106
       0.326
       0.469
       0.409
       0.103
      -0.353
      -0.749
      -0.871
      -0.628
      -0.117
       0.435
       0.798
       0.849
       0.593
       0.126
      -0.399
      -0.788
      -0.856
      -0.529
       0.059
       0.596
       0.777
       0.510
      -0.025
      -0.502
      -0.658
      -0.443
      -0.006
       0.412
       0.625
       0.576
       0.332
       0.010
      -0.288
      -0.495
      -0.563
      -0.469
      -0.244
       0.010
       0.169
       0.165
       0.043
      -0.075
      -0.077
       0.060
       0.258
       0.405
       0.427
       0.313
       0.104
      -0.144
      -0.369
      -0.510
      -0.511
      -0.350
      -0.064
       0.248
       0.467
       0.495
       0.309
      -0.026
      -0.373
      -0.578
      -0.543
      -0.288
       0.049
       0.290
       0.336
       0.235
       0.132
       0.135
       0.219
       0.252
       0.120
      -0.168
      -0.472
      -0.613
      -0.500
      -0.187
       0.171
       0.415
       0.467
       0.351
       0.151
      -0.044
      -0.180
      -0.240
      -0.225
      -0.137
       0.022
       0.218
       0.369
       0.371
       0.177
      -0.154
      -0.488
      -0.695
      -0.704
      -0.513
      -0.171
       0.230
       0.569
       0.747
       0.728
       0.543
       0.240
      -0.138
      -0.531
      -0.827
      -0.890
      -0.648
      -0.161
       0.383
       0.769
       0.861
       0.665
       0.296
      -0.106
      -0.441
      -0.660
      -0.729
      -0.621
      -0.330
       0.083
       0.496
       0.765
       0.791
       0.560
       0.152
      -0.290
      -0.624
      -0.757
      -0.669
      -0.399
      -0.033
       0.315
       0.525
       0.532
       0.369
       0.144
      -0.035
      -0.127
      -0.151
      -0.130
      -0.062
       0.041
       0.124
       0.105
      -0.042
      -0.234
      -0.327
      -0.241
      -0.046
       0.093
       0.064
      -0.082
      -0.171
      -0.074
       0.158
       0.323
       0.255
      -0.018
      -0.287
      -0.339
      -0.132
       0.184
       0.398
       0.402
       0.235
       0.021
      -0.139
      -0.215
      -0.223
      -0.179
      -0.085
       0.048
       0.160
       0.175
       0.062
      -0.121
      -0.270
      -0.315
      -0.259
      -0.147
      -0.019
       0.109
       0.213
       0.239
       0.145
      -0.051
      -0.249
      -0.312
      -0.162
       0.152
       0.465
       0.592
       0.444
       0.092
      -0.278
      -0.479
      -0.438
      -0.219
       0.040
       0.222
       0.274
       0.192
      -0.013
      -0.301
      -0.568
      -0.656
      -0.434
       0.079
       0.670
       1.031
       0.948
       0.444
      -0.233
      -0.757
      -0.915
      -0.694
      -0.251
       0.204
       0.506
       0.577
       0.425
       0.128
      -0.188
      -0.397
      -0.432
      -0.333
      -0.198
      -0.105
      -0.043
       0.055
       0.223
       0.396
       0.454
       0.326
       0.066
      -0.181
      -0.294
      -0.257
      -0.153
      -0.072
      -0.047
      -0.060
      -0.083
      -0.101
      -0.079
       0.055
       0.336
       0.673
       0.831
       0.583
      -0.082
      -0.872
      -1.342
      -1.192
      -0.483
       0.400
       0.995
       1.040
       0.578
      -0.128
      -0.759
      -1.063
      -0.906
      -0.303
       0.559
       1.341
       1.651
       1.248
       0.216
      -1.001
      -1.809
      -1.798
      -1.003
       0.128
       1.012
       1.283
       0.953
       0.337
      -0.190
      -0.424
      -0.391
      -0.262
      -0.185
      -0.181
      -0.168
      -0.056
       0.178
       0.479
       0.742
       0.835
       0.646
       0.160
      -0.484
      -1.025
      -1.223
      -1.015
      -0.558
      -0.096
       0.206
       0.332
       0.354
       0.337
       0.310
       0.284
       0.266
       0.259
       0.254
       0.226
       0.151
       0.032
      -0.093
      -0.169
      -0.166
      -0.123
      -0.129
      -0.264
      -0.535
      -0.842
      -1.006
      -0.847
      -0.289
       0.541
       1.345
       1.802
       1.746
       1.236
       0.473
      -0.301
      -0.874
      -1.083
      -0.880
      -0.406
       0.036
       0.150
      -0.150
      -0.681
      -1.121
      -1.207
      -0.864
      -0.212
       0.504
       1.005
       1.095
       0.758
       0.173
      -0.370
      -0.638
      -0.568
      -0.268
       0.086
       0.367
       0.545
       0.649
       0.709
       0.719
       0.671
       0.578
       0.474
       0.384
       0.297
       0.184
       0.025
      -0.162
      -0.322
      -0.409
      -0.427
      -0.443
      -0.547
      -0.784
      -1.106
      -1.374
      -1.413
      -1.106
      -0.472
       0.321
       1.019
       1.394
       1.325
       0.834
       0.089
      -0.630
      -1.002
      -0.805
      -0.071
       0.873
       1.558
       1.651
       1.154
       0.376
      -0.295
      -0.639
      -0.673
      -0.548
      -0.392
      -0.243
      -0.078
       0.119
       0.316
       0.427
       0.346
       0.019
      -0.475
      -0.925
      -1.093
      -0.881
      -0.416
       0.028
       0.234
       0.212
       0.178
       0.356
       0.746
       1.085
       1.027
       0.414
      -0.576
      -1.492
      -1.868
      -1.473
      -0.432
       0.842
       1.852
       2.227
       1.851
       0.876
      -0.352
      -1.417
      -1.976
      -1.888
      -1.251
      -0.340
       0.504
       1.008
       1.053
       0.709
       0.190
      -0.260
      -0.477
      -0.432
      -0.199
       0.104
       0.360
       0.478
       0.423
       0.244
       0.050
      -0.062
      -0.082
      -0.068
      -0.070
      -0.066
       0.012
       0.190
       0.383
       0.424
       0.190
      -0.281
      -0.773
      -1.018
      -0.867
      -0.380
       0.230
       0.723
       0.937
       0.820
       0.420
      -0.127
      -0.625
      -0.873
      -0.754
      -0.295
       0.312
       0.776
       0.832
       0.411
      -0.266
      -0.777
      -0.761
      -0.176
       0.655
       1.252
       1.279
       0.736
      -0.094
      -0.856
      -1.328
      -1.464
      -1.318
      -0.946
      -0.402
       0.212
       0.739
       1.043
       1.079
       0.898
       0.591
       0.247
      -0.057
      -0.264
      -0.361
      -0.394
      -0.434
      -0.509
      -0.564
      -0.496
      -0.232
       0.186
       0.595
       0.777
       0.599
       0.119
      -0.420
      -0.720
      -0.614
      -0.155
       0.422
       0.838
       0.901
       0.579
       0.021
      -0.501
      -0.731
      -0.593
      -0.242
       0.054
       0.133
       0.041
      -0.045
       0.003
       0.163
       0.301
       0.279
       0.049
      -0.325
      -0.669
      -0.775
      -0.517
       0.030
       0.583
       0.815
       0.579
       0.032
      -0.456
      -0.556
      -0.206
       0.359
       0.784
       0.833
       0.515
       0.023
      -0.426
      -0.717
      -0.838
      -0.808
      -0.633
      -0.318
       0.090
       0.487
       0.744
       0.762
       0.520
       0.115
      -0.263
      -0.426
      -0.316
      -0.052
       0.158
       0.175
       0.029
      -0.126
      -0.160
      -0.074
       0.010
      -0.027
      -0.181
      -0.310
      -0.255
       0.017
       0.353
       0.527
       0.411
       0.091
      -0.195
      -0.236
      -0.009
       0.300
       0.426
       0.231
      -0.180
      -0.532
      -0.581
      -0.289
       0.167
       0.529
       0.620
       0.415
       0.027
      -0.370
      -0.620
      -0.656
      -0.511
      -0.278
      -0.049
       0.113
       0.172
       0.126
       0.042
       0.048
       0.245
       0.581
       0.831
       0.748
       0.271
      -0.393
      -0.891
      -0.964
      -0.610
      -0.063
       0.383
       0.557
       0.470
       0.245
      -0.002
      -0.210
      -0.355
      -0.414
      -0.372
      -0.236
      -0.036
       0.193
       0.403
       0.516
       0.453
       0.199
      -0.135
      -0.354
      -0.323
      -0.083
       0.170
       0.235
       0.062
      -0.211
      -0.375
      -0.305
      -0.052
       0.201
       0.281
       0.148
      -0.092
      -0.271
      -0.280
      -0.128
       0.063
       0.150
       0.064
      -0.124
      -0.248
      -0.168
       0.115
       0.444
       0.611
       0.494
       0.122
      -0.344
      -0.692
      -0.748
      -0.459
       0.061
       0.562
       0.781
       0.591
       0.089
      -0.453
      -0.747
      -0.659
      -0.269
       0.198
       0.525
       0.617
       0.513
       0.298
       0.016
      -0.326
      -0.669
      -0.846
      -0.674
      -0.132
       0.539
       0.967
       0.903
       0.409
      -0.192
      -0.547
      -0.502
      -0.173
       0.176
       0.330
       0.234
      -0.024
      -0.299
      -0.459
      -0.415
      -0.145
       0.257
       0.595
       0.668
       0.400
      -0.093
      -0.570
      -0.798
      -0.674
      -0.268
       0.211
       0.520
       0.526
       0.288
       0.011
      -0.106
      -0.017
       0.156
       0.248
       0.185
       0.038
      -0.062
      -0.044
       0.038
       0.067
      -0.025
      -0.191
      -0.310
      -0.298
      -0.164
       0.015
       0.161
       0.232
       0.199
       0.051
      -0.171
      -0.356
      -0.377
      -0.199
       0.076
       0.282
       0.312
       0.191
       0.028
      -0.082
      -0.109
      -0.077
      -0.019
       0.051
       0.130
       0.203
       0.234
       0.185
       0.041
      -0.162
      -0.340
      -0.397
      -0.283
      -0.038
       0.217
       0.344
       0.277
       0.066
      -0.156
      -0.267
      -0.232
      -0.106
       0.018
       0.076
       0.066
       0.042
       0.066
       0.159
       0.272
       0.320
       0.240
       0.042
      -0.189
      -0.341
      -0.340
      -0.200
      -0.020
       0.079
       0.047
      -0.056
      -0.104
      -0.018
       0.160
       0.298
       0.275
       0.075
      -0.204
      -0.412
      -0.451
      -0.315
      -0.074
       0.187
       0.400
       0.517
       0.497
       0.326
       0.044
      -0.263
      -0.502
      -0.613
      -0.563
      -0.343
       0.028
       0.464
       0.802
       0.859
       0.545
      -0.049
      -0.657
      -0.969
      -0.813
      -0.276
       0.338
       0.693
       0.632
       0.244
      -0.230
      -0.555
      -0.612
      -0.403
      -0.019
       0.408
       0.727
       0.805
       0.570
       0.077
      -0.485
      -0.865
      -0.885
      -0.544
      -0.020
       0.449
       0.694
       0.677
       0.454
       0.107
      -0.282
      -0.609
      -0.745
      -0.586
      -0.157
       0.362
       0.712
       0.725
       0.436
       0.047
      -0.229
      -0.307
      -0.238
      -0.115
       0.010
       0.126
       0.202
       0.177
       0.023
      -0.184
      -0.303
      -0.237
      -0.030
