Origin Time       12/3/2012 22:07:20	
Lat.              28.9 N	
Long.             77.3 E	
Depth (Km)          5.0
Magnitude         3.5
 Region           Baghpat-U.P.                                                     
 Above details taken from IMD 
   
Station Code      ANC
Station Lat.       28.539
Station Long.      77.264
Station Height(m)  231.0
Site Class        C   Vs30 between 200 m/sec to 375 m/sec *  
Record Time       12.03.2012 22:07:08.454
Sampling Rate     200. Hz
 Record Duration   81.045 Sec.
 Direction         Vert. (Up positive)
Max. Acceleration     -2.153 cm/sec**2
     
  * For reference see Site Classification link of website 
     
 Base Line Corrected and Low Pass Filtered (Cut Off at 35 Hz) Time History
 Acceleration data in cm/sec**2
    
[...]
      -0.419
      -0.258
       0.021
       0.292
       0.413
       0.308
       0.025
      -0.274
      -0.408
      -0.297
      -0.021
       0.237
       0.313
       0.174
      -0.069
      -0.248
      -0.255
      -0.107
       0.084
       0.202
       0.195
       0.088
      -0.056
      -0.174
      -0.224
      -0.187
      -0.067
       0.101
       0.249
       0.305
       0.229
       0.052
      -0.139
      -0.250
      -0.247
      -0.174
      -0.106
      -0.080
      -0.071
      -0.031
       0.061
       0.171
       0.240
       0.227
       0.140
       0.021
      -0.082
      -0.148
      -0.188
      -0.229
      -0.273
      -0.283
      -0.205
      -0.017
       0.232
       0.436
       0.488
       0.346
       0.054
      -0.269
      -0.489
      -0.518
      -0.355
      -0.084
       0.171
       0.304
       0.275
       0.126
      -0.045
      -0.134
      -0.098
       0.024
       0.132
       0.144
       0.050
      -0.082
      -0.161
      -0.142
      -0.048
       0.051
       0.099
       0.076
       0.003
      -0.084
      -0.154
      -0.181
      -0.141
      -0.013
       0.198
       0.424
       0.541
       0.427
       0.064
      -0.416
      -0.784
      -0.842
      -0.547
      -0.043
       0.427
       0.652
       0.573
       0.296
       0.005
      -0.163
      -0.192
      -0.157
      -0.132
      -0.133
      -0.126
      -0.080
      -0.007
       0.062
       0.103
       0.113
       0.095
       0.050
      -0.017
      -0.080
      -0.108
      -0.087
      -0.041
      -0.019
      -0.051
      -0.114
      -0.143
      -0.083
       0.053
       0.187
       0.226
       0.140
      -0.014
      -0.138
      -0.163
      -0.089
       0.028
       0.120
       0.149
       0.112
       0.035
      -0.051
      -0.128
      -0.191
      -0.231
      -0.213
      -0.099
       0.111
       0.350
       0.504
       0.477
       0.257
      -0.076
      -0.389
      -0.564
      -0.540
      -0.336
      -0.028
       0.267
       0.437
       0.413
       0.203
      -0.094
      -0.327
      -0.360
      -0.167
       0.143
       0.380
       0.394
       0.172
      -0.155
      -0.402
      -0.439
      -0.255
       0.046
       0.319
       0.446
       0.387
       0.189
      -0.057
      -0.260
      -0.361
      -0.339
      -0.209
      -0.014
       0.180
       0.303
       0.312
       0.217
       0.069
      -0.070
      -0.170
      -0.230
      -0.265
      -0.279
      -0.260
      -0.184
      -0.039
       0.157
       0.342
       0.434
       0.369
       0.148
      -0.148
      -0.391
      -0.476
      -0.373
      -0.138
       0.123
       0.313
       0.380
       0.324
       0.178
      -0.007
      -0.188
      -0.327
      -0.392
      -0.348
      -0.171
       0.117
       0.422
       0.612
       0.581
       0.324
      -0.058
      -0.410
      -0.607
      -0.601
      -0.429
      -0.167
       0.103
       0.319
       0.439
       0.437
       0.310
       0.093
      -0.140
      -0.305
      -0.345
      -0.259
      -0.090
       0.101
       0.249
       0.298
       0.221
       0.040
      -0.168
      -0.303
      -0.296
      -0.151
       0.055
       0.222
       0.272
       0.198
       0.054
      -0.074
      -0.122
      -0.090
      -0.039
      -0.041
      -0.120
      -0.232
      -0.294
      -0.239
      -0.064
       0.172
       0.376
       0.466
       0.405
       0.209
      -0.059
      -0.311
      -0.459
      -0.451
      -0.293
      -0.038
       0.230
       0.425
       0.473
       0.329
       0.016
      -0.355
      -0.611
      -0.611
      -0.336
       0.090
       0.471
       0.641
       0.540
       0.223
      -0.164
      -0.443
      -0.490
      -0.304
      -0.015
       0.200
       0.236
       0.121
      -0.027
      -0.098
      -0.064
       0.020
       0.082
       0.074
       0.003
      -0.096
      -0.170
      -0.172
      -0.078
       0.086
       0.246
       0.313
       0.239
       0.048
      -0.177
      -0.346
      -0.405
      -0.349
      -0.206
      -0.020
       0.160
       0.292
       0.344
       0.304
       0.182
       0.021
      -0.112
      -0.151
      -0.077
       0.055
       0.140
       0.098
      -0.066
      -0.255
      -0.350
      -0.282
      -0.084
       0.134
       0.255
       0.230
       0.101
      -0.039
      -0.113
      -0.112
      -0.077
      -0.056
      -0.070
      -0.107
      -0.128
      -0.094
       0.015
       0.166
       0.276
       0.264
       0.119
      -0.080
      -0.218
      -0.236
      -0.156
      -0.047
       0.038
       0.092
       0.126
       0.138
       0.105
       0.008
      -0.135
      -0.258
      -0.274
      -0.135
       0.118
       0.361
       0.454
       0.327
       0.026
      -0.323
      -0.573
      -0.626
      -0.454
      -0.113
       0.275
       0.559
       0.621
       0.444
       0.125
      -0.178
      -0.341
      -0.337
      -0.229
      -0.101
       0.012
       0.117
       0.221
       0.283
       0.232
       0.034
      -0.253
      -0.487
      -0.536
      -0.365
      -0.063
       0.225
       0.391
       0.408
       0.313
       0.156
      -0.022
      -0.186
      -0.293
      -0.307
      -0.222
      -0.067
       0.096
       0.197
       0.189
       0.081
      -0.056
      -0.125
      -0.064
       0.096
       0.248
       0.280
       0.145
      -0.106
      -0.365
      -0.519
      -0.497
      -0.291
       0.042
       0.387
       0.606
       0.601
       0.365
      -0.005
      -0.361
      -0.574
      -0.590
      -0.430
      -0.154
       0.165
       0.451
       0.615
       0.574
       0.297
      -0.134
      -0.526
      -0.669
      -0.467
      -0.020
       0.424
       0.616
       0.455
       0.033
      -0.415
      -0.649
      -0.545
      -0.161
       0.296
       0.583
       0.563
       0.265
      -0.154
      -0.503
      -0.646
      -0.527
      -0.174
       0.298
       0.701
       0.844
       0.633
       0.147
      -0.390
      -0.725
      -0.716
      -0.407
       0.013
       0.329
       0.413
       0.283
       0.055
      -0.145
      -0.241
      -0.225
      -0.130
      -0.007
       0.084
       0.092
       0.005
      -0.136
      -0.245
      -0.234
      -0.065
       0.222
       0.511
       0.658
       0.557
       0.197
      -0.312
      -0.771
      -0.979
      -0.819
      -0.313
       0.363
       0.938
       1.156
       0.915
       0.335
      -0.298
      -0.701
      -0.752
      -0.528
      -0.212
       0.036
       0.152
       0.152
       0.083
      -0.010
      -0.089
      -0.128
      -0.112
      -0.040
       0.071
       0.183
       0.246
       0.222
       0.116
      -0.013
      -0.084
      -0.052
       0.062
       0.180
       0.221
       0.147
      -0.018
      -0.198
      -0.308
      -0.298
      -0.181
      -0.026
       0.090
       0.126
       0.101
       0.059
       0.029
      -0.006
      -0.080
      -0.203
      -0.330
      -0.375
      -0.267
      -0.002
       0.336
       0.608
       0.689
       0.535
       0.201
      -0.188
      -0.499
      -0.640
      -0.576
      -0.322
       0.050
       0.410
       0.604
       0.525
       0.193
      -0.236
      -0.544
      -0.571
      -0.305
       0.108
       0.448
       0.541
       0.355
       0.011
      -0.289
      -0.390
      -0.265
      -0.021
       0.182
       0.232
       0.127
      -0.050
      -0.194
      -0.235
      -0.160
      -0.001
       0.187
       0.338
       0.387
       0.298
       0.083
      -0.194
      -0.442
      -0.579
      -0.558
      -0.367
      -0.032
       0.377
       0.734
       0.884
       0.708
       0.213
      -0.431
      -0.951
      -1.106
      -0.812
      -0.192
       0.483
       0.920
       0.946
       0.578
       0.015
      -0.481
      -0.709
      -0.621
      -0.313
       0.053
       0.324
       0.411
       0.307
       0.085
      -0.137
      -0.248
      -0.215
      -0.096
       0.017
       0.075
       0.093
       0.117
       0.154
       0.174
       0.147
       0.080
       0.000
      -0.080
      -0.173
      -0.285
      -0.378
      -0.373
      -0.212
       0.076
       0.371
       0.525
       0.457
       0.203
      -0.099
      -0.290
      -0.287
      -0.125
       0.077
       0.197
       0.188
       0.090
      -0.014
      -0.065
      -0.071
      -0.085
      -0.159
      -0.294
      -0.425
      -0.444
      -0.262
       0.115
       0.560
       0.869
       0.879
       0.559
       0.030
      -0.506
      -0.857
      -0.907
      -0.640
      -0.148
       0.400
       0.807
       0.915
       0.659
       0.110
      -0.529
      -0.980
      -1.021
      -0.618
       0.028
       0.596
       0.836
       0.708
       0.372
       0.051
      -0.118
      -0.146
      -0.154
      -0.256
      -0.458
      -0.628
      -0.587
      -0.256
       0.262
       0.728
       0.916
       0.747
       0.321
      -0.156
      -0.479
      -0.539
      -0.362
      -0.067
       0.201
       0.339
       0.308
       0.120
      -0.170
      -0.464
      -0.639
      -0.595
      -0.325
       0.063
       0.406
       0.575
       0.537
       0.352
       0.114
      -0.109
      -0.286
      -0.401
      -0.420
      -0.288
       0.009
       0.398
       0.719
       0.808
       0.599
       0.171
      -0.306
      -0.667
      -0.823
      -0.759
      -0.506
      -0.121
       0.305
       0.640
       0.754
       0.600
       0.252
      -0.133
      -0.410
      -0.522
      -0.484
      -0.328
      -0.071
       0.245
       0.520
       0.632
       0.523
       0.247
      -0.075
      -0.345
      -0.523
      -0.604
      -0.577
      -0.432
      -0.186
       0.110
       0.394
       0.610
       0.708
       0.642
       0.383
      -0.040
      -0.532
      -0.940
      -1.100
      -0.898
      -0.343
       0.400
       1.049
       1.330
       1.119
       0.518
      -0.197
      -0.728
      -0.909
      -0.765
      -0.445
      -0.098
       0.202
       0.438
       0.579
       0.564
       0.353
       0.007
      -0.313
      -0.439
      -0.318
      -0.059
       0.137
       0.114
      -0.131
      -0.445
      -0.612
      -0.485
      -0.082
       0.417
       0.762
       0.781
       0.475
       0.013
      -0.386
      -0.562
      -0.477
      -0.193
       0.162
       0.436
       0.501
       0.327
       0.024
      -0.217
      -0.255
      -0.109
       0.073
       0.145
       0.082
      -0.015
      -0.024
       0.087
       0.227
       0.251
       0.067
      -0.290
      -0.657
      -0.834
      -0.697
      -0.279
       0.236
       0.608
       0.673
       0.434
       0.056
      -0.244
      -0.324
      -0.203
      -0.019
       0.084
       0.078
       0.051
       0.111
       0.263
       0.380
       0.308
       0.022
      -0.331
      -0.524
      -0.428
      -0.106
       0.241
       0.438
       0.450
       0.381
       0.342
       0.331
       0.216
      -0.129
      -0.665
      -1.152
      -1.283
      -0.903
      -0.136
       0.674
       1.157
       1.124
       0.649
      -0.001
      -0.519
      -0.705
      -0.526
      -0.085
       0.433
       0.834
       0.964
       0.755
       0.258
      -0.360
      -0.875
      -1.094
      -0.947
      -0.527
      -0.045
       0.294
       0.410
       0.383
       0.360
       0.435
       0.581
       0.676
       0.589
       0.249
      -0.308
      -0.923
      -1.350
      -1.359
      -0.878
      -0.066
       0.757
       1.265
       1.281
       0.846
       0.187
      -0.385
      -0.611
      -0.415
       0.048
       0.472
       0.584
       0.297
      -0.266
      -0.850
      -1.194
      -1.130
      -0.644
       0.103
       0.816
       1.183
       1.041
       0.466
      -0.263
      -0.821
      -0.992
      -0.757
      -0.262
       0.269
       0.633
       0.718
       0.542
       0.238
      -0.019
      -0.110
      -0.043
       0.077
       0.134
       0.088
      -0.016
      -0.099
      -0.106
      -0.044
       0.042
       0.093
       0.066
      -0.045
      -0.200
      -0.317
      -0.310
      -0.146
       0.127
       0.414
       0.637
       0.750
       0.701
       0.417
      -0.145
      -0.887
      -1.552
      -1.842
      -1.602
      -0.901
       0.023
       0.897
       1.517
       1.780
       1.680
       1.290
       0.729
       0.128
      -0.419
      -0.860
      -1.176
      -1.349
      -1.346
      -1.118
      -0.635
       0.062
       0.830
       1.461
       1.754
       1.616
       1.093
       0.346
      -0.429
      -1.066
      -1.455
      -1.526
      -1.237
      -0.614
       0.195
       0.922
       1.277
       1.115
       0.539
      -0.128
      -0.525
      -0.471
      -0.084
       0.308
       0.396
       0.115
      -0.328
      -0.616
      -0.566
      -0.241
       0.119
       0.295
       0.240
       0.092
       0.035
       0.132
       0.278
       0.300
       0.134
      -0.099
      -0.195
      -0.069
       0.138
       0.159
      -0.166
      -0.720
      -1.162
      -1.154
      -0.589
       0.345
       1.293
       1.928
       2.057
       1.644
       0.788
      -0.296
      -1.315
      -1.989
      -2.153
      -1.802
      -1.069
      -0.154
       0.716
       1.326
       1.521
       1.272
       0.699
       0.026
      -0.522
      -0.798
      -0.762
      -0.461
       0.001
       0.480
       0.811
       0.863
       0.594
       0.089
      -0.463
      -0.839
      -0.885
      -0.594
      -0.120
       0.308
       0.512
       0.454
       0.224
      -0.034
      -0.205
      -0.231
      -0.114
       0.083
       0.247
       0.281
       0.187
       0.093
       0.145
       0.358
       0.554
       0.490
       0.057
      -0.609
      -1.197
      -1.410
      -1.138
      -0.515
       0.178
       0.671
       0.841
       0.738
       0.500
       0.244
       0.018
      -0.180
      -0.355
      -0.467
      -0.434
      -0.178
       0.268
       0.711
       0.878
       0.628
       0.117
      -0.283
      -0.286
       0.034
       0.284
       0.093
      -0.548
      -1.245
      -1.499
      -1.074
      -0.151
       0.806
       1.333
       1.203
       0.519
      -0.357
      -0.986
      -1.054
      -0.527
       0.347
       1.168
       1.565
       1.361
       0.651
      -0.235
      -0.902
      -1.115
      -0.911
      -0.532
      -0.226
      -0.085
      -0.047
      -0.004
       0.103
       0.274
       0.474
       0.635
       0.656
       0.452
       0.036
      -0.447
      -0.777
      -0.794
      -0.487
      -0.003
       0.435
       0.630
       0.511
       0.168
      -0.211
      -0.444
      -0.456
      -0.292
      -0.066
       0.113
       0.185
       0.156
       0.085
       0.049
       0.098
       0.216
       0.333
       0.373
       0.306
       0.159
      -0.033
      -0.256
      -0.511
      -0.770
      -0.960
      -0.990
      -0.797
      -0.395
       0.126
       0.626
       0.971
       1.090
       0.993
       0.742
       0.400
       0.007
      -0.376
      -0.622
      -0.578
      -0.201
       0.333
       0.691
       0.596
       0.050
      -0.647
      -1.095
      -1.056
      -0.575
       0.079
       0.594
       0.766
       0.569
       0.143
      -0.287
      -0.529
      -0.522
      -0.352
      -0.168
      -0.064
      -0.014
       0.083
       0.306
       0.619
       0.882
       0.940
       0.734
       0.340
      -0.075
      -0.371
      -0.522
      -0.602
      -0.684
      -0.750
      -0.678
      -0.343
       0.249
       0.900
       1.284
       1.134
       0.432
      -0.534
      -1.304
      -1.494
      -1.007
      -0.088
       0.806
       1.238
       1.019
       0.291
      -0.564
      -1.128
      -1.157
      -0.659
       0.152
       0.962
       1.459
       1.407
       0.746
      -0.323
      -1.356
      -1.854
      -1.535
      -0.515
       0.742
       1.673
       1.898
       1.388
       0.444
      -0.487
      -1.040
      -1.090
      -0.751
      -0.256
       0.191
       0.485
       0.578
       0.431
       0.033
      -0.507
      -0.936
      -0.972
      -0.497
       0.320
       1.097
       1.430
       1.115
       0.262
      -0.738
      -1.393
      -1.355
      -0.607
       0.505
       1.422
       1.639
       0.975
      -0.298
      -1.557
      -2.147
      -1.750
      -0.567
       0.817
       1.789
       2.020
       1.542
       0.621
      -0.408
      -1.226
      -1.572
      -1.315
      -0.541
       0.436
       1.201
       1.428
       1.039
       0.233
      -0.612
      -1.129
      -1.149
      -0.779
      -0.311
      -0.013
       0.047
       0.017
       0.110
       0.421
       0.841
       1.130
       1.079
       0.640
      -0.052
      -0.759
      -1.262
      -1.433
      -1.245
      -0.742
      -0.028
       0.747
       1.387
       1.701
       1.549
       0.925
       0.000
      -0.900
      -1.429
      -1.409
      -0.931
      -0.281
       0.247
       0.509
       0.524
       0.394
       0.220
       0.073
      -0.014
      -0.043
      -0.065
      -0.143
      -0.292
      -0.441
      -0.457
      -0.245
       0.162
       0.588
       0.819
       0.742
       0.425
       0.070
      -0.128
      -0.115
       0.001
       0.044
      -0.103
      -0.407
      -0.703
      -0.796
      -0.583
      -0.130
       0.367
       0.696
       0.744
       0.536
       0.178
      -0.212
      -0.541
      -0.715
      -0.631
      -0.230
       0.403
       0.997
       1.209
       0.836
      -0.020
      -0.959
      -1.491
      -1.301
      -0.429
       0.735
       1.641
       1.848
       1.246
       0.110
      -1.052
      -1.771
      -1.832
      -1.321
      -0.508
       0.315
       0.938
       1.253
       1.238
       0.947
       0.488
      -0.004
      -0.412
      -0.658
      -0.729
      -0.677
      -0.579
      -0.475
      -0.315
      -0.008
       0.455
       0.928
       1.167
       0.993
       0.438
      -0.256
      -0.772
      -0.900
      -0.643
      -0.209
       0.131
       0.218
       0.095
      -0.048
      -0.041
       0.117
       0.274
       0.266
       0.064
      -0.210
      -0.392
      -0.404
      -0.279
      -0.108
       0.044
       0.170
       0.288
       0.384
       0.389
       0.220
      -0.124
      -0.495
      -0.651
      -0.425
       0.115
       0.651
       0.819
       0.483
      -0.148
      -0.666
      -0.768
      -0.458
      -0.003
       0.303
       0.348
       0.234
       0.131
       0.101
       0.063
      -0.091
      -0.350
      -0.550
      -0.498
      -0.133
       0.406
       0.862
       1.012
       0.777
       0.245
      -0.385
      -0.872
      -1.023
      -0.778
      -0.250
       0.312
       0.653
       0.658
       0.407
       0.099
      -0.094
      -0.117
      -0.034
       0.053
       0.082
