Origin Time       18/01/2011 20:23:27
Lat.              28.9 N	
Long.             64.0 E	
Depth (Km)          5.0
Magnitude         7.4
 Region           Southwestern-Pakistan                                            
 Above details taken from IMD 
   
Station Code      ANC
Station Lat.       28.539
Station Long.      77.264
Station Height(m)  231.0
Site Class        C   Vs30 between 200 m/sec to 375 m/sec *  
Record Time       18.01.2011 20:27:42.789
Sampling Rate     200. Hz
 Record Duration   80.035 Sec.
 Direction         Vert. (Up positive)
Max. Acceleration     -0.868 cm/sec**2
     
  * For reference see Site Classification link of website 
     
 Base Line Corrected and Low Pass Filtered (Cut Off at 35 Hz) Time History
 Acceleration data in cm/sec**2
    
[...]
       0.031
       0.063
       0.074
       0.063
       0.035
      -0.004
      -0.042
      -0.072
      -0.085
      -0.078
      -0.052
      -0.013
       0.031
       0.066
       0.084
       0.078
       0.049
       0.005
      -0.045
      -0.091
      -0.128
      -0.156
      -0.176
      -0.189
      -0.198
      -0.204
      -0.205
      -0.202
      -0.198
      -0.193
      -0.186
      -0.174
      -0.156
      -0.135
      -0.117
      -0.108
      -0.103
      -0.093
      -0.066
      -0.016
       0.054
       0.132
       0.201
       0.251
       0.275
       0.277
       0.267
       0.258
       0.261
       0.286
       0.332
       0.390
       0.445
       0.482
       0.492
       0.470
       0.421
       0.355
       0.287
       0.235
       0.212
       0.226
       0.269
       0.327
       0.372
       0.379
       0.332
       0.232
       0.103
      -0.026
      -0.128
      -0.190
      -0.211
      -0.199
      -0.163
      -0.115
      -0.064
      -0.020
       0.009
       0.022
       0.019
       0.003
      -0.019
      -0.041
      -0.058
      -0.064
      -0.055
      -0.031
       0.000
       0.023
       0.023
      -0.005
      -0.051
      -0.096
      -0.122
      -0.120
      -0.089
      -0.035
       0.034
       0.109
       0.178
       0.232
       0.261
       0.264
       0.249
       0.228
       0.217
       0.227
       0.258
       0.301
       0.339
       0.356
       0.346
       0.319
       0.293
       0.287
       0.304
       0.330
       0.349
       0.349
       0.329
       0.295
       0.250
       0.196
       0.137
       0.077
       0.027
      -0.006
      -0.016
      -0.006
       0.014
       0.038
       0.059
       0.082
       0.114
       0.161
       0.222
       0.286
       0.337
       0.357
       0.334
       0.274
       0.193
       0.117
       0.072
       0.074
       0.125
       0.213
       0.314
       0.400
       0.446
       0.441
       0.386
       0.303
       0.221
       0.165
       0.150
       0.169
       0.203
       0.230
       0.234
       0.211
       0.170
       0.123
       0.086
       0.071
       0.081
       0.108
       0.138
       0.153
       0.141
       0.109
       0.074
       0.056
       0.064
       0.091
       0.120
       0.135
       0.128
       0.103
       0.071
       0.045
       0.034
       0.045
       0.074
       0.111
       0.142
       0.154
       0.145
       0.125
       0.107
       0.106
       0.132
       0.181
       0.247
       0.315
       0.376
       0.420
       0.442
       0.442
       0.424
       0.398
       0.369
       0.340
       0.306
       0.260
       0.199
       0.125
       0.051
      -0.014
      -0.060
      -0.086
      -0.094
      -0.097
      -0.111
      -0.148
      -0.214
      -0.299
      -0.385
      -0.451
      -0.480
      -0.466
      -0.415
      -0.342
      -0.267
      -0.207
      -0.173
      -0.167
      -0.186
      -0.221
      -0.259
      -0.287
      -0.298
      -0.290
      -0.271
      -0.250
      -0.234
      -0.230
      -0.241
      -0.267
      -0.301
      -0.332
      -0.351
      -0.358
      -0.356
      -0.351
      -0.351
      -0.355
      -0.363
      -0.372
      -0.377
      -0.377
      -0.372
      -0.365
      -0.358
      -0.349
      -0.334
      -0.308
      -0.269
      -0.218
      -0.166
      -0.124
      -0.104
      -0.107
      -0.125
      -0.151
      -0.179
      -0.208
      -0.237
      -0.264
      -0.284
      -0.292
      -0.280
      -0.242
      -0.176
      -0.084
       0.028
       0.146
       0.257
       0.347
       0.411
       0.451
       0.478
       0.505
       0.538
       0.579
       0.618
       0.644
       0.644
       0.615
       0.561
       0.493
       0.422
       0.357
       0.301
       0.250
       0.197
       0.140
       0.079
       0.024
      -0.015
      -0.033
      -0.031
      -0.019
      -0.006
       0.005
       0.017
       0.040
       0.082
       0.144
       0.216
       0.282
       0.323
       0.330
       0.302
       0.249
       0.187
       0.133
       0.104
       0.113
       0.165
       0.249
       0.348
       0.437
       0.499
       0.527
       0.521
       0.491
       0.447
       0.400
       0.361
       0.334
       0.323
       0.324
       0.332
       0.338
       0.332
       0.308
       0.267
       0.217
       0.170
       0.134
       0.113
       0.103
       0.099
       0.095
       0.087
       0.068
       0.032
      -0.021
      -0.084
      -0.146
      -0.194
      -0.221
      -0.226
      -0.211
      -0.179
      -0.137
      -0.089
      -0.038
       0.014
       0.065
       0.113
       0.150
       0.173
       0.179
       0.170
       0.150
       0.125
       0.095
       0.063
       0.034
       0.018
       0.023
       0.053
       0.099
       0.143
       0.167
       0.162
       0.132
       0.087
       0.043
       0.011
      -0.006
      -0.008
      -0.001
       0.007
       0.008
      -0.007
      -0.037
      -0.075
      -0.108
      -0.121
      -0.108
      -0.072
      -0.022
       0.034
       0.089
       0.135
       0.170
       0.191
       0.199
       0.199
       0.196
       0.198
       0.212
       0.247
       0.308
       0.394
       0.498
       0.602
       0.679
       0.703
       0.663
       0.569
       0.450
       0.343
       0.276
       0.254
       0.265
       0.282
       0.283
       0.252
       0.186
       0.098
       0.007
      -0.065
      -0.104
      -0.110
      -0.095
      -0.079
      -0.077
      -0.092
      -0.123
      -0.164
      -0.208
      -0.249
      -0.276
      -0.283
      -0.272
      -0.248
      -0.222
      -0.202
      -0.193
      -0.198
      -0.216
      -0.243
      -0.270
      -0.291
      -0.303
      -0.310
      -0.321
      -0.344
      -0.383
      -0.430
      -0.475
      -0.502
      -0.499
      -0.463
      -0.402
      -0.329
      -0.262
      -0.213
      -0.189
      -0.184
      -0.186
      -0.179
      -0.142
      -0.061
       0.071
       0.247
       0.445
       0.629
       0.761
       0.815
       0.780
       0.667
       0.499
       0.311
       0.138
       0.014
      -0.045
      -0.041
       0.003
       0.057
       0.094
       0.096
       0.060
      -0.007
      -0.089
      -0.167
      -0.221
      -0.235
      -0.204
      -0.136
      -0.053
       0.021
       0.067
       0.082
       0.072
       0.047
       0.018
      -0.008
      -0.027
      -0.038
      -0.042
      -0.043
      -0.047
      -0.057
      -0.080
      -0.118
      -0.174
      -0.243
      -0.315
      -0.375
      -0.409
      -0.413
      -0.395
      -0.373
      -0.360
      -0.364
      -0.382
      -0.408
      -0.428
      -0.430
      -0.406
      -0.350
      -0.268
      -0.173
      -0.083
      -0.011
       0.036
       0.063
       0.080
       0.097
       0.119
       0.141
       0.156
       0.156
       0.143
       0.124
       0.108
       0.096
       0.083
       0.061
       0.023
      -0.034
      -0.104
      -0.177
      -0.244
      -0.295
      -0.328
      -0.344
      -0.351
      -0.353
      -0.351
      -0.338
      -0.306
      -0.258
      -0.200
      -0.147
      -0.105
      -0.077
      -0.058
      -0.040
      -0.018
       0.011
       0.047
       0.089
       0.130
       0.159
       0.159
       0.120
       0.040
      -0.070
      -0.186
      -0.282
      -0.343
      -0.367
      -0.367
      -0.358
      -0.353
      -0.355
      -0.364
      -0.381
      -0.404
      -0.434
      -0.468
      -0.500
      -0.526
      -0.541
      -0.541
      -0.526
      -0.497
      -0.454
      -0.405
      -0.356
      -0.317
      -0.289
      -0.267
      -0.238
      -0.190
      -0.115
      -0.013
       0.109
       0.232
       0.331
       0.381
       0.362
       0.277
       0.142
      -0.013
      -0.158
      -0.274
      -0.355
      -0.400
      -0.417
      -0.415
      -0.405
      -0.398
      -0.401
      -0.417
      -0.440
      -0.464
      -0.479
      -0.483
      -0.480
      -0.477
      -0.482
      -0.494
      -0.507
      -0.507
      -0.485
      -0.439
      -0.377
      -0.311
      -0.258
      -0.231
      -0.237
      -0.274
      -0.336
      -0.406
      -0.463
      -0.488
      -0.469
      -0.410
      -0.327
      -0.242
      -0.177
      -0.144
      -0.142
      -0.160
      -0.186
      -0.216
      -0.251
      -0.294
      -0.342
      -0.386
      -0.412
      -0.413
      -0.390
      -0.352
      -0.313
      -0.287
      -0.280
      -0.296
      -0.326
      -0.360
      -0.390
      -0.410
      -0.422
      -0.429
      -0.438
      -0.453
      -0.472
      -0.490
      -0.496
      -0.484
      -0.454
      -0.408
      -0.358
      -0.317
      -0.300
      -0.315
      -0.358
      -0.415
      -0.464
      -0.485
      -0.464
      -0.396
      -0.285
      -0.141
       0.019
       0.176
       0.309
       0.397
       0.429
       0.405
       0.338
       0.257
       0.191
       0.162
       0.177
       0.223
       0.273
       0.301
       0.292
       0.242
       0.162
       0.069
      -0.020
      -0.089
      -0.132
      -0.145
      -0.130
      -0.088
      -0.022
       0.065
       0.166
       0.268
       0.356
       0.415
       0.433
       0.409
       0.353
       0.279
       0.207
       0.151
       0.119
       0.111
       0.117
       0.128
       0.135
       0.135
       0.126
       0.110
       0.088
       0.068
       0.059
       0.070
       0.105
       0.154
       0.208
       0.255
       0.294
       0.330
       0.369
       0.408
       0.441
       0.461
       0.472
       0.486
       0.519
       0.580
       0.662
       0.745
       0.800
       0.806
       0.758
       0.667
       0.557
       0.450
       0.362
       0.294
       0.239
       0.183
       0.113
       0.028
      -0.064
      -0.147
      -0.210
      -0.249
      -0.269
      -0.271
      -0.254
      -0.212
      -0.141
      -0.046
       0.061
       0.167
       0.264
       0.352
       0.436
       0.519
       0.601
       0.671
       0.721
       0.744
       0.742
       0.719
       0.679
       0.626
       0.561
       0.490
       0.420
       0.363
       0.332
       0.336
       0.372
       0.425
       0.476
       0.513
       0.536
       0.550
       0.562
       0.575
       0.592
       0.614
       0.642
       0.673
       0.699
       0.711
       0.698
       0.658
       0.596
       0.528
       0.469
       0.426
       0.396
       0.364
       0.314
       0.235
       0.123
      -0.009
      -0.141
      -0.246
      -0.309
      -0.326
      -0.308
      -0.273
      -0.240
      -0.222
      -0.220
      -0.229
      -0.245
      -0.262
      -0.272
      -0.266
      -0.234
      -0.176
      -0.102
      -0.031
       0.022
       0.052
       0.056
       0.039
       0.006
      -0.039
      -0.089
      -0.135
      -0.169
      -0.182
      -0.170
      -0.131
      -0.073
      -0.006
       0.057
       0.109
       0.147
       0.173
       0.190
       0.195
       0.189
       0.168
       0.138
       0.106
       0.088
       0.097
       0.135
       0.195
       0.260
       0.311
       0.337
       0.330
       0.291
       0.224
       0.146
       0.081
       0.054
       0.079
       0.161
       0.286
       0.430
       0.562
       0.658
       0.701
       0.690
       0.639
       0.562
       0.478
       0.400
       0.335
       0.286
       0.252
       0.228
       0.208
       0.182
       0.141
       0.081
       0.012
      -0.052
      -0.094
      -0.104
      -0.083
      -0.045
      -0.008
       0.008
      -0.006
      -0.052
      -0.117
      -0.182
      -0.224
      -0.225
      -0.180
      -0.098
       0.000
       0.086
       0.137
       0.143
       0.111
       0.058
       0.007
      -0.026
      -0.038
      -0.034
      -0.023
      -0.011
       0.001
       0.012
       0.022
       0.030
       0.036
       0.040
       0.035
       0.012
      -0.031
      -0.084
      -0.126
      -0.135
      -0.108
      -0.058
      -0.011
       0.010
      -0.007
      -0.055
      -0.114
      -0.162
      -0.179
      -0.157
      -0.102
      -0.031
       0.036
       0.086
       0.114
       0.129
       0.143
       0.165
       0.196
       0.231
       0.258
       0.266
       0.247
       0.198
       0.125
       0.039
      -0.049
      -0.129
      -0.195
      -0.249
      -0.295
      -0.339
      -0.383
      -0.428
      -0.472
      -0.509
      -0.533
      -0.533
      -0.501
      -0.437
      -0.347
      -0.245
      -0.147
      -0.067
      -0.010
       0.027
       0.058
       0.095
       0.148
       0.210
       0.270
       0.312
       0.326
       0.309
       0.266
       0.206
       0.137
       0.067
       0.001
      -0.062
      -0.119
      -0.168
      -0.200
      -0.207
      -0.188
      -0.151
      -0.115
      -0.096
      -0.104
      -0.141
      -0.203
      -0.286
      -0.379
      -0.467
      -0.529
      -0.550
      -0.528
      -0.481
      -0.431
      -0.398
      -0.392
      -0.411
      -0.447
      -0.488
      -0.526
      -0.555
      -0.577
      -0.592
      -0.605
      -0.621
      -0.647
      -0.687
      -0.740
      -0.797
      -0.846
      -0.868
      -0.853
      -0.792
      -0.690
      -0.557
      -0.410
      -0.267
      -0.139
      -0.033
       0.051
       0.112
       0.152
       0.172
       0.173
       0.157
       0.120
       0.060
      -0.022
      -0.116
      -0.207
      -0.287
      -0.352
      -0.409
      -0.465
      -0.525
      -0.589
      -0.654
      -0.706
      -0.732
      -0.720
      -0.665
      -0.574
      -0.463
      -0.349
      -0.249
      -0.174
      -0.131
      -0.117
      -0.128
      -0.157
      -0.197
      -0.241
      -0.282
      -0.312
      -0.324
      -0.314
      -0.277
      -0.213
      -0.127
      -0.031
       0.058
       0.126
       0.167
       0.182
       0.178
       0.168
       0.166
       0.187
       0.241
       0.320
       0.406
       0.470
       0.491
       0.462
       0.394
       0.316
       0.251
       0.209
       0.180
       0.142
       0.077
      -0.021
      -0.139
      -0.252
      -0.331
      -0.355
      -0.325
      -0.260
      -0.187
      -0.133
      -0.112
      -0.123
      -0.150
      -0.176
      -0.185
      -0.170
      -0.135
      -0.090
      -0.041
       0.010
       0.064
       0.128
       0.207
       0.300
       0.395
       0.472
       0.512
       0.505
       0.455
       0.380
       0.307
       0.258
       0.246
       0.269
       0.310
       0.341
       0.340
       0.299
       0.228
       0.148
       0.075
       0.014
      -0.035
      -0.075
      -0.108
      -0.134
      -0.153
      -0.162
      -0.162
      -0.152
      -0.135
      -0.116
      -0.099
      -0.090
      -0.094
      -0.116
      -0.158
      -0.214
      -0.271
      -0.316
      -0.337
      -0.337
      -0.331
      -0.337
      -0.367
      -0.416
      -0.469
      -0.505
      -0.508
      -0.471
      -0.398
      -0.298
      -0.184
      -0.070
       0.031
       0.110
       0.162
       0.191
       0.208
       0.227
       0.252
       0.278
       0.291
       0.278
       0.235
       0.172
       0.108
       0.067
       0.065
       0.100
       0.158
       0.217
       0.256
       0.266
       0.250
       0.222
       0.198
       0.193
       0.211
       0.249
       0.294
       0.336
       0.363
       0.374
       0.371
       0.360
       0.347
       0.338
       0.336
       0.341
       0.346
       0.344
       0.326
       0.292
       0.251
       0.218
       0.209
       0.230
       0.274
       0.322
       0.356
       0.361
       0.345
       0.328
       0.336
       0.386
       0.472
       0.571
       0.653
       0.696
       0.692
       0.656
       0.609
       0.572
       0.554
       0.550
       0.548
       0.534
       0.497
       0.427
       0.324
       0.196
       0.060
      -0.063
      -0.155
      -0.210
      -0.233
      -0.233
      -0.221
      -0.207
      -0.193
      -0.172
      -0.138
      -0.087
      -0.026
       0.031
       0.073
       0.093
       0.095
       0.091
       0.090
       0.103
       0.132
       0.172
       0.212
       0.230
       0.212
       0.155
       0.075
      -0.006
      -0.066
      -0.094
      -0.092
      -0.072
      -0.049
      -0.036
      -0.037
      -0.050
      -0.071
      -0.096
      -0.117
      -0.124
      -0.105
      -0.052
       0.043
       0.176
       0.338
       0.506
       0.651
       0.743
       0.765
       0.720
       0.627
       0.518
       0.418
       0.345
       0.305
       0.292
       0.287
       0.269
       0.219
       0.134
       0.028
      -0.068
      -0.125
      -0.128
      -0.086
      -0.020
       0.045
       0.099
       0.150
       0.214
       0.304
       0.419
       0.540
       0.638
       0.689
       0.681
       0.618
       0.517
       0.397
       0.277
       0.169
       0.076
      -0.005
      -0.080
      -0.154
      -0.219
      -0.263
      -0.275
      -0.249
      -0.188
      -0.102
      -0.006
       0.083
       0.148
       0.178
       0.172
       0.143
       0.109
       0.084
       0.079
       0.094
       0.128
       0.178
       0.236
       0.297
       0.350
       0.391
       0.415
       0.422
       0.414
       0.393
       0.360
       0.316
       0.264
       0.214
       0.178
       0.167
       0.182
       0.217
       0.260
       0.301
       0.332
       0.344
       0.330
       0.294
       0.243
       0.189
       0.140
       0.106
       0.094
       0.112
       0.161
       0.236
       0.319
       0.387
       0.416
       0.395
       0.324
       0.215
       0.087
      -0.043
      -0.162
      -0.266
      -0.359
      -0.449
      -0.543
      -0.639
      -0.727
      -0.794
      -0.831
      -0.843
      -0.841
      -0.835
      -0.829
      -0.825
      -0.820
      -0.812
      -0.795
      -0.762
      -0.712
      -0.648
      -0.582
      -0.526
      -0.491
      -0.482
      -0.496
      -0.527
      -0.567
      -0.606
      -0.642
      -0.678
      -0.718
      -0.764
      -0.810
      -0.845
      -0.862
      -0.857
      -0.832
      -0.792
      -0.744
      -0.691
      -0.629
      -0.550
      -0.448
      -0.321
      -0.176
      -0.032
       0.089
       0.171
       0.209
       0.212
       0.198
       0.189
       0.200
       0.236
       0.288
       0.338
       0.368
       0.366
       0.331
       0.272
       0.199
       0.124
       0.057
       0.005
      -0.027
      -0.044
      -0.051
      -0.057
      -0.061
      -0.062
      -0.060
      -0.058
      -0.058
      -0.057
      -0.046
      -0.013
       0.041
       0.105
       0.156
       0.175
       0.154
       0.102
       0.037
      -0.018
      -0.054
      -0.071
      -0.076
      -0.078
      -0.079
      -0.080
      -0.083
