Origin Time       22/02/2010 17:23:43
Lat.              30.0 N	
Long.             80.1 E	
Depth (Km)          2.0
Magnitude         4.7
 Region           BAGESHWER-UTTARAKHAND                                            
 Above details taken from IMD 
     
Station Code      KAP
Station Lat.       29.941  N
Station Long.      79.899  E
Station Height(m) 1066.0
Site Class        A   Vs30 between 700 m/sec to 1400 m/sec * 
Record Time       22.02.2010 17:23:33.279
Sampling Rate     200. Hz
 Record Duration   71.370 Sec.
 Direction         E-W (E positive)
Max. Acceleration    -31.688 cm/sec**2
     
  * For reference see Site Classification link of website 
     
 Base Line Corrected and Low Pass Filtered (Cut Off at 35 Hz) Time History
 Acceleration data in cm/sec**2
    
[...]
       0.007
       0.008
       0.007
       0.006
       0.007
       0.009
       0.008
       0.006
       0.002
      -0.002
      -0.004
      -0.004
      -0.003
      -0.002
       0.000
       0.000
       0.000
      -0.001
      -0.002
      -0.002
       0.000
       0.001
       0.000
      -0.002
      -0.003
      -0.003
      -0.003
      -0.005
      -0.007
      -0.008
      -0.007
      -0.004
      -0.002
      -0.003
      -0.005
      -0.006
      -0.005
      -0.002
       0.000
       0.001
      -0.001
      -0.006
      -0.009
      -0.007
      -0.002
       0.002
       0.002
      -0.003
      -0.008
      -0.011
      -0.009
      -0.004
       0.001
       0.004
       0.002
      -0.002
      -0.006
      -0.007
      -0.005
      -0.002
      -0.001
      -0.002
      -0.004
      -0.005
      -0.004
      -0.002
      -0.003
      -0.004
      -0.003
      -0.001
       0.003
       0.005
       0.004
       0.002
      -0.002
      -0.005
      -0.007
      -0.007
      -0.003
       0.004
       0.010
       0.014
       0.016
       0.016
       0.013
       0.007
       0.001
      -0.003
       0.000
       0.008
       0.015
       0.017
       0.015
       0.011
       0.007
       0.004
       0.002
       0.001
       0.002
       0.005
       0.009
       0.011
       0.010
       0.007
       0.006
       0.008
       0.013
       0.017
       0.017
       0.013
       0.006
      -0.002
      -0.009
      -0.012
      -0.011
      -0.006
       0.000
       0.004
       0.004
       0.001
      -0.004
      -0.007
      -0.008
      -0.008
      -0.007
      -0.006
      -0.006
      -0.005
      -0.002
       0.003
       0.007
       0.009
       0.008
       0.005
       0.001
       0.002
       0.006
       0.012
       0.013
       0.007
      -0.002
      -0.007
      -0.006
       0.000
       0.004
       0.005
       0.001
      -0.003
      -0.004
      -0.002
       0.002
       0.006
       0.006
       0.001
      -0.004
      -0.006
      -0.004
       0.002
       0.009
       0.013
       0.014
       0.011
       0.006
       0.002
       0.001
       0.001
       0.002
       0.002
       0.002
       0.002
       0.005
       0.010
       0.014
       0.014
       0.008
       0.001
      -0.004
      -0.003
       0.000
       0.003
       0.005
       0.006
       0.007
       0.007
       0.004
       0.001
       0.000
       0.000
       0.001
       0.000
       0.000
       0.001
       0.004
       0.008
       0.010
       0.012
       0.016
       0.020
       0.021
       0.017
       0.010
       0.004
       0.003
       0.004
       0.004
       0.003
       0.002
       0.005
       0.009
       0.010
       0.008
       0.004
       0.003
       0.003
       0.002
       0.001
       0.001
       0.005
       0.010
       0.011
       0.008
       0.003
       0.000
       0.002
       0.004
       0.004
       0.003
       0.004
       0.009
       0.014
       0.015
       0.012
       0.008
       0.006
       0.008
       0.010
       0.009
       0.005
       0.002
       0.002
       0.007
       0.014
       0.019
       0.019
       0.014
       0.007
       0.003
       0.003
       0.006
       0.010
       0.013
       0.015
       0.015
       0.015
       0.016
       0.017
       0.018
       0.017
       0.014
       0.009
       0.004
       0.000
      -0.001
       0.001
       0.005
       0.008
       0.008
       0.007
       0.006
       0.006
       0.006
       0.004
       0.002
       0.002
       0.004
       0.008
       0.010
       0.012
       0.013
       0.012
       0.010
       0.008
       0.008
       0.009
       0.012
       0.015
       0.017
       0.016
       0.013
       0.009
       0.003
      -0.005
      -0.011
      -0.014
      -0.010
      -0.004
       0.002
       0.005
       0.005
       0.003
       0.000
      -0.004
      -0.007
      -0.007
      -0.004
       0.003
       0.009
       0.011
       0.009
       0.005
       0.000
      -0.003
      -0.005
      -0.005
      -0.005
      -0.006
      -0.007
      -0.007
      -0.005
      -0.002
       0.002
       0.006
       0.009
       0.011
       0.010
       0.006
       0.000
      -0.004
      -0.003
       0.002
       0.007
       0.009
       0.006
       0.002
       0.000
       0.002
       0.006
       0.007
       0.007
       0.005
       0.002
      -0.003
      -0.008
      -0.010
      -0.010
      -0.005
      -0.001
      -0.003
      -0.014
      -0.036
      -0.060
      -0.071
      -0.056
      -0.020
       0.012
       0.005
      -0.059
      -0.164
      -0.271
      -0.348
      -0.400
      -0.453
      -0.521
      -0.579
      -0.578
      -0.496
      -0.374
      -0.299
      -0.334
      -0.486
      -0.734
      -1.086
      -1.557
      -2.068
      -2.395
      -2.295
      -1.724
      -0.957
      -0.407
      -0.272
      -0.345
      -0.219
       0.258
       0.746
       0.683
      -0.166
      -1.409
      -2.307
      -2.383
      -1.793
      -1.089
      -0.593
      -0.043
       1.035
       2.585
       3.830
       4.031
       3.392
       2.965
       3.505
       4.537
       4.703
       3.047
      -0.104
      -3.415
      -5.537
      -5.902
      -4.798
      -2.867
      -0.531
       2.146
       5.071
       7.624
       8.709
       7.510
       4.305
       0.513
      -2.242
      -3.305
      -3.337
      -3.478
      -4.175
      -4.804
      -4.340
      -2.257
       1.146
       4.993
       8.267
      10.157
      10.183
       8.090
       3.814
      -2.135
      -8.163
     -11.839
     -11.238
      -6.450
       0.190
       5.580
       7.806
       7.009
       4.645
       2.063
      -0.256
      -2.460
      -4.746
      -6.969
      -8.527
      -8.633
      -6.954
      -4.056
      -1.100
       1.092
       2.689
       4.512
       6.934
       8.978
       8.614
       4.401
      -2.845
     -10.086
     -14.068
     -13.645
     -10.238
      -6.071
      -2.080
       2.237
       7.088
      11.051
      11.947
       9.029
       3.986
      -0.399
      -2.448
      -2.476
      -1.932
      -1.942
      -2.451
      -2.391
      -0.621
       2.990
       7.228
      10.325
      11.218
      10.061
       7.578
       4.152
      -0.154
      -4.762
      -8.326
      -9.764
      -9.358
      -8.437
      -7.892
      -7.240
      -5.330
      -1.903
       1.756
       3.835
       3.663
       2.274
       1.263
       1.233
       1.555
       1.505
       1.279
       1.675
       2.907
       4.012
       3.605
       1.259
      -1.941
      -4.251
      -4.695
      -3.678
      -2.335
      -1.418
      -0.827
      -0.085
       0.856
       1.393
       0.941
      -0.252
      -1.171
      -1.030
      -0.072
       0.722
       0.636
      -0.132
      -0.653
      -0.039
       1.843
       4.188
       5.746
       5.707
       4.352
       2.825
       2.061
       1.863
       1.179
      -0.653
      -3.158
      -5.333
      -6.787
      -7.968
      -9.251
     -10.091
      -9.333
      -6.406
      -2.096
       1.865
       3.986
       3.944
       2.626
       1.369
       1.021
       1.536
       2.273
       2.535
       1.932
       0.514
      -1.251
      -2.622
      -2.849
      -1.496
       1.251
       4.448
       6.665
       6.630
       3.933
      -0.601
      -5.160
      -7.771
      -7.276
      -3.890
       0.923
       5.130
       7.025
       6.004
       2.916
      -0.321
      -1.881
      -1.227
       0.723
       2.626
       3.887
       4.833
       5.954
       7.139
       7.642
       6.742
       4.480
       1.829
       0.096
      -0.077
       0.651
       0.693
      -1.179
      -4.681
      -8.094
      -9.518
      -8.173
      -4.749
      -0.758
       2.412
       4.026
       3.999
       2.668
       0.574
      -1.764
      -3.956
      -5.610
      -6.188
      -5.186
      -2.637
       0.548
       2.925
       3.414
       2.043
      -0.165
      -1.995
      -2.742
      -2.280
      -0.758
       1.467
       3.596
       4.344
       2.591
      -1.610
      -6.598
      -9.950
     -10.130
      -7.611
      -4.402
      -2.322
      -1.586
      -0.921
       1.030
       4.372
       7.826
       9.750
       9.319
       6.939
       3.725
       0.682
      -1.700
      -3.287
      -3.992
      -3.711
      -2.481
      -0.643
       1.176
       2.321
       2.500
       2.021
       1.571
       1.609
       1.955
       2.063
       1.730
       1.390
       1.603
       2.289
       2.609
       1.677
      -0.577
      -3.164
      -4.615
      -3.970
      -1.531
       1.214
       2.564
       1.809
      -0.299
      -2.314
      -3.382
      -3.810
      -4.372
      -5.218
      -5.624
      -4.795
      -2.747
      -0.379
       1.218
       1.509
       0.787
      -0.137
      -0.529
      -0.172
       0.684
       1.760
       3.026
       4.455
       5.560
       5.504
       3.934
       1.650
       0.190
       0.549
       2.352
       4.275
       5.097
       4.318
       2.132
      -0.752
      -3.240
      -4.213
      -3.163
      -0.603
       2.198
       3.972
       4.095
       2.730
       0.487
      -2.064
      -4.681
      -7.291
      -9.524
     -10.503
      -9.335
      -5.960
      -1.456
       2.582
       4.974
       5.436
       4.471
       3.037
       2.147
       2.353
       3.296
       3.771
       2.553
      -0.568
      -4.449
      -7.261
      -7.629
      -5.393
      -1.597
       2.156
       4.521
       4.946
       3.642
       1.186
      -1.787
      -4.584
      -6.378
      -6.478
      -4.835
      -2.201
       0.377
       2.249
       3.380
       3.949
       3.865
       2.810
       0.826
      -1.161
      -1.621
       0.498
       4.698
       8.869
      10.466
       8.221
       3.159
      -1.947
      -4.406
      -3.350
      -0.100
       3.018
       4.293
       3.480
       1.533
      -0.317
      -1.432
      -2.067
      -2.925
      -4.340
      -5.752
      -6.025
      -4.427
      -1.455
       1.301
       2.264
       1.012
      -1.500
      -3.787
      -4.913
      -4.887
      -4.202
      -3.192
      -1.853
      -0.156
       1.677
       3.314
       4.696
       6.134
       7.852
       9.413
       9.763
       7.980
       4.095
      -0.772
      -4.995
      -7.212
      -6.776
      -3.813
       0.878
       5.956
       9.766
      10.828
       8.537
       3.659
      -1.882
      -6.025
      -7.762
      -7.567
      -6.653
      -5.724
      -4.406
      -1.912
       1.755
       5.368
       7.297
       6.836
       4.783
       2.733
       1.736
       1.517
       0.926
      -0.898
      -3.721
      -6.368
      -7.572
      -6.763
      -4.312
      -1.288
       0.994
       1.477
      -0.230
      -3.734
      -8.109
     -12.284
     -15.312
     -16.476
     -15.357
     -11.935
      -6.721
      -0.773
       4.538
       8.064
       9.516
       9.694
       9.879
      10.679
      11.225
       9.543
       4.078
      -4.636
     -13.499
     -18.309
     -16.403
      -8.524
       1.730
      10.496
      16.046
      19.004
      20.585
      20.839
      18.591
      12.825
       3.994
      -5.845
     -13.999
     -18.390
     -18.355
     -14.674
      -8.915
      -2.511
       3.725
       9.360
      13.772
      16.040
      15.556
      12.741
       9.018
       5.970
       4.382
       3.917
       3.462
       1.728
      -2.197
      -8.395
     -15.858
     -22.633
     -26.458
     -25.665
     -19.932
     -10.540
      -0.004
       8.804
      13.743
      14.165
      10.935
       5.759
       0.375
      -3.874
      -6.088
      -5.794
      -3.070
       1.263
       5.654
       8.263
       7.826
       4.501
       0.031
      -3.120
      -3.268
      -0.647
       2.699
       4.273
       2.747
      -1.255
      -5.667
      -8.343
      -8.382
      -6.613
      -4.906
      -4.737
      -5.996
      -6.921
      -5.271
       0.066
       8.215
      16.812
      23.413
      26.683
      26.609
      23.882
      19.185
      12.980
       5.780
      -1.592
      -8.131
     -13.038
     -15.977
     -17.080
     -16.826
     -15.864
     -14.693
     -13.325
     -11.261
      -7.977
      -3.623
       0.696
       3.414
       3.482
       1.105
      -2.238
      -4.508
      -4.163
      -1.056
       3.360
       6.783
       7.468
       5.394
       2.269
       0.249
       0.349
       1.802
       2.802
       1.849
      -1.435
      -6.403
     -11.909
     -16.721
     -19.719
     -20.110
     -17.643
     -12.605
      -5.624
       2.404
      10.162
      15.918
      18.118
      16.361
      11.989
       7.643
       5.930
       8.044
      13.206
      19.106
      22.933
      22.568
      17.537
       9.271
       0.367
      -6.831
     -11.392
     -13.917
     -15.608
     -17.102
     -17.976
     -17.216
     -14.160
      -9.184
      -3.650
       0.850
       3.446
       4.417
       4.770
       5.324
       6.038
       6.066
       4.489
       1.114
      -3.237
      -7.101
      -9.022
      -8.047
      -3.941
       2.737
      10.648
      17.886
      22.507
      23.244
      20.016
      13.849
       6.183
      -1.950
     -10.191
     -18.348
     -25.649
     -30.601
     -31.688
     -28.309
     -21.184
     -11.962
      -2.456
       5.923
      12.308
      16.217
      17.419
      15.987
      12.472
       8.012
       4.154
       2.326
       3.126
       5.890
       8.963
      10.613
       9.931
       7.084
       2.967
      -1.285
      -4.614
      -6.287
      -6.159
      -4.756
      -2.992
      -1.726
      -1.502
      -2.537
      -4.722
      -7.497
      -9.856
     -10.754
      -9.739
      -7.240
      -4.141
      -1.022
       2.212
       5.965
      10.223
      14.139
      16.353
      15.811
      12.469
       7.386
       2.223
      -1.499
      -2.967
      -2.245
      -0.074
       2.493
       4.420
       4.941
       3.772
       1.230
      -1.849
      -4.429
      -5.770
      -5.815
      -5.161
      -4.600
      -4.558
      -4.878
      -5.083
      -4.875
      -4.406
      -4.105
      -4.243
      -4.704
      -5.159
      -5.456
      -5.766
      -6.299
      -6.927
      -7.224
      -6.928
      -6.293
      -5.899
      -6.081
      -6.515
      -6.370
      -4.894
      -1.966
       1.785
       5.356
       7.937
       9.300
       9.782
       9.938
      10.134
      10.374
      10.424
      10.072
       9.286
       8.179
       6.900
       5.586
       4.398
       3.515
       3.059
       3.015
       3.236
       3.500
       3.547
       3.126
       2.116
       0.695
      -0.665
      -1.454
      -1.473
      -0.976
      -0.511
      -0.592
      -1.449
      -2.946
      -4.626
      -5.895
      -6.304
      -5.850
      -5.032
      -4.566
      -4.928
      -6.062
      -7.430
      -8.305
      -8.125
      -6.748
      -4.584
      -2.531
      -1.654
      -2.684
      -5.551
      -9.250
     -12.136
     -12.568
      -9.675
      -3.871
       3.228
       9.580
      13.708
      15.253
      14.773
      13.123
      10.958
       8.657
       6.498
       4.760
       3.644
       3.163
       3.162
       3.442
       3.867
       4.387
       4.985
       5.586
       5.996
       5.933
       5.175
       3.687
       1.586
      -0.963
      -3.758
      -6.478
      -8.705
     -10.161
     -10.970
     -11.646
     -12.702
     -14.169
     -15.445
     -15.653
     -14.261
     -11.494
      -8.223
      -5.418
      -3.559
      -2.465
      -1.599
      -0.552
       0.712
       1.975
       3.033
       3.863
       4.585
       5.332
       6.165
       7.107
       8.210
       9.519
      10.915
      12.004
      12.218
      11.168
       8.988
       6.350
       4.111
       2.833
       2.524
       2.750
       2.992
       2.945
       2.578
       1.979
       1.214
       0.354
      -0.418
      -0.801
      -0.580
       0.126
       0.847
       1.072
       0.629
      -0.186
      -0.816
      -0.835
      -0.223
       0.652
       1.339
       1.633
       1.650
       1.597
       1.515
       1.272
       0.753
      -0.026
      -1.012
      -2.265
      -3.918
      -5.944
      -8.007
      -9.580
     -10.232
      -9.811
      -8.428
      -6.361
      -4.053
      -2.101
      -1.118
      -1.441
      -2.927
      -4.979
      -6.828
      -7.858
      -7.783
      -6.619
      -4.575
      -2.011
       0.569
       2.600
       3.644
       3.618
       2.893
       2.131
       1.880
       2.209
       2.703
       2.860
       2.542
       2.095
       2.090
       2.931
       4.639
       6.899
       9.263
      11.323
      12.731
      13.139
      12.212
       9.804
       6.176
       2.040
      -1.674
      -4.178
      -5.112
      -4.647
      -3.377
      -2.073
      -1.376
      -1.549
      -2.411
      -3.542
      -4.619
      -5.624
      -6.728
      -8.023
      -9.384
     -10.542
     -11.220
     -11.184
     -10.219
      -8.157
      -5.028
      -1.212
       2.579
       5.551
       7.184
       7.449
       6.754
       5.670
       4.675
       4.055
       3.962
       4.443
       5.399
       6.543
       7.469
       7.843
       7.599
       6.988
       6.409
       6.120
       6.043
       5.831
       5.132
       3.850
       2.211
       0.612
      -0.599
      -1.273
      -1.496
      -1.542
      -1.757
      -2.390
      -3.445
      -4.664
      -5.670
      -6.196
      -6.230
      -5.984
      -5.694
      -5.445
      -5.178
      -4.860
      -4.597
      -4.538
      -4.694
      -4.861
      -4.751
      -4.222
      -3.387
      -2.536
      -1.928
      -1.626
      -1.490
      -1.304
      -0.926
      -0.317
       0.515
       1.559
       2.722
       3.749
       4.286
       4.128
       3.394
       2.434
       1.514
       0.629
      -0.337
      -1.270
      -1.681
      -1.005
       0.880
       3.362
       5.363
       5.994
       5.120
       3.404
       1.816
       0.997
       0.911
       0.998
       0.632
      -0.446
      -1.994
      -3.440
      -4.212
      -4.031
      -3.062
      -1.825
      -0.920
      -0.689
      -1.056
      -1.643
      -2.047
      -2.046
      -1.617
      -0.891
      -0.136
       0.294
       0.149
      -0.479
      -1.128
      -1.255
      -0.645
       0.436
       1.491
       2.191
       2.590
       2.962
       3.467
       3.963
       4.110
       3.686
       2.807
       1.842
       1.086
       0.510
      -0.171
      -1.172
      -2.379
      -3.410
      -3.953
      -4.006
      -3.829
      -3.661
      -3.522
      -3.207
      -2.440
      -1.082
       0.687
       2.333
       3.175
       2.787
       1.355
      -0.333
      -1.311
      -1.005
       0.445
       2.314
       3.771
       4.365
       4.217
       3.838
       3.746
       4.154
       4.900
       5.594
       5.817
       5.275
       3.912
       1.994
       0.066
      -1.298
