Origin Time       27/8/2009 16:54:15 
Lat.              30.0 N 
Long.             80.0 E 
Depth (Km)         14.0
Magnitude         3.9
 Region           UTTARAKHAND-INDIA                                                
 Above details taken from IMD 
     
Station Code      KAP
Station Lat.       29.941  N
Station Long.      79.899  E
Station Height(m) 1066.0
Site Class        A   Vs30 between 700 m/sec to 1400 m/sec * 
Record Time       27.08.2009 16:54:07.869
Sampling Rate     200. Hz
 Record Duration   70.045 Sec.
 Direction         E-W (E positive)
Max. Acceleration    -30.370 cm/sec**2
     
  * For reference see Site Classification link of website 
     
 Base Line Corrected and Low Pass Filtered (Cut Off at 35 Hz) Time History
 Acceleration data in cm/sec**2
    
[...]
       0.011
       0.006
       0.002
      -0.001
      -0.002
      -0.003
      -0.002
       0.000
       0.001
       0.000
      -0.001
      -0.002
      -0.004
      -0.007
      -0.011
      -0.012
      -0.010
      -0.004
       0.002
       0.006
       0.007
       0.005
       0.003
       0.001
      -0.001
      -0.003
      -0.005
      -0.006
      -0.005
      -0.003
      -0.001
      -0.001
      -0.005
      -0.007
      -0.007
      -0.004
      -0.002
      -0.004
      -0.007
      -0.009
      -0.008
      -0.005
      -0.002
       0.001
       0.001
       0.000
      -0.004
      -0.009
      -0.010
      -0.007
      -0.001
       0.003
       0.004
       0.001
      -0.003
      -0.003
       0.000
       0.003
       0.004
       0.002
      -0.002
      -0.006
      -0.009
      -0.011
      -0.014
      -0.015
      -0.016
      -0.014
      -0.011
      -0.008
      -0.006
      -0.005
      -0.002
       0.002
       0.008
       0.010
       0.007
       0.000
      -0.008
      -0.013
      -0.014
      -0.011
      -0.007
      -0.004
      -0.004
      -0.007
      -0.010
      -0.012
      -0.013
      -0.012
      -0.009
      -0.004
       0.003
       0.009
       0.009
       0.003
      -0.002
      -0.003
       0.001
       0.007
       0.011
       0.011
       0.010
       0.009
       0.007
       0.005
       0.002
      -0.001
      -0.002
      -0.002
      -0.003
      -0.003
      -0.001
       0.003
       0.007
       0.010
       0.008
       0.004
       0.000
       0.002
       0.008
       0.013
       0.013
       0.006
      -0.002
      -0.006
      -0.006
      -0.002
       0.001
       0.004
       0.003
       0.000
      -0.003
      -0.003
       0.003
       0.010
       0.013
       0.007
      -0.004
      -0.013
      -0.015
      -0.010
      -0.003
       0.003
       0.004
       0.004
       0.003
       0.001
      -0.003
      -0.008
      -0.010
      -0.009
      -0.005
      -0.001
       0.001
      -0.001
      -0.005
      -0.008
      -0.007
      -0.001
       0.006
       0.010
       0.008
       0.001
      -0.007
      -0.013
      -0.015
      -0.013
      -0.008
      -0.003
       0.002
       0.004
       0.004
       0.000
      -0.003
      -0.004
      -0.002
       0.002
       0.006
       0.008
       0.007
       0.002
      -0.006
      -0.014
      -0.017
      -0.015
      -0.011
      -0.009
      -0.010
      -0.011
      -0.012
      -0.012
      -0.011
      -0.009
      -0.006
      -0.004
      -0.004
      -0.006
      -0.008
      -0.008
      -0.006
      -0.001
       0.004
       0.007
       0.007
       0.004
      -0.002
      -0.008
      -0.011
      -0.009
      -0.004
       0.002
       0.007
       0.008
       0.005
       0.002
      -0.001
      -0.001
      -0.001
      -0.001
      -0.002
      -0.003
      -0.006
      -0.010
      -0.012
      -0.012
      -0.008
      -0.002
       0.003
       0.007
       0.008
       0.005
       0.000
      -0.006
      -0.011
      -0.014
      -0.016
      -0.016
      -0.012
      -0.004
       0.004
       0.009
       0.007
       0.000
      -0.005
      -0.005
       0.001
       0.008
       0.010
       0.006
      -0.002
      -0.011
      -0.016
      -0.017
      -0.016
      -0.014
      -0.012
      -0.010
      -0.009
      -0.010
      -0.013
      -0.015
      -0.011
      -0.002
       0.007
       0.010
       0.006
      -0.001
      -0.006
      -0.005
      -0.001
       0.004
       0.007
       0.006
       0.003
      -0.001
      -0.006
      -0.009
      -0.007
      -0.001
       0.007
       0.012
       0.009
       0.000
      -0.009
      -0.011
      -0.004
       0.008
       0.018
       0.021
       0.018
       0.014
       0.010
       0.008
       0.005
       0.003
       0.002
       0.003
       0.006
       0.008
       0.010
       0.009
       0.006
       0.000
      -0.007
      -0.013
      -0.015
      -0.011
      -0.004
       0.002
       0.004
       0.004
       0.002
       0.001
       0.002
       0.002
       0.000
      -0.005
      -0.010
      -0.014
      -0.013
      -0.008
      -0.001
       0.003
       0.003
      -0.001
      -0.008
      -0.015
      -0.018
      -0.017
      -0.013
      -0.009
      -0.007
      -0.007
      -0.008
      -0.008
      -0.007
      -0.007
      -0.008
      -0.009
      -0.010
      -0.012
      -0.011
      -0.010
      -0.008
      -0.007
      -0.011
      -0.017
      -0.021
      -0.020
      -0.014
      -0.006
       0.000
       0.002
       0.000
      -0.003
      -0.006
      -0.006
      -0.003
       0.000
       0.000
      -0.003
      -0.009
      -0.012
      -0.011
      -0.007
      -0.004
      -0.003
      -0.002
      -0.001
       0.002
       0.005
       0.005
       0.002
      -0.001
      -0.005
      -0.009
      -0.012
      -0.014
      -0.012
      -0.010
      -0.007
      -0.005
      -0.004
      -0.005
      -0.006
      -0.006
      -0.002
       0.005
       0.009
       0.007
       0.000
      -0.008
      -0.011
      -0.008
      -0.002
       0.001
      -0.001
      -0.006
      -0.010
      -0.007
       0.001
       0.008
       0.010
       0.005
      -0.003
      -0.009
      -0.010
      -0.010
      -0.010
      -0.014
      -0.017
      -0.016
      -0.009
       0.000
       0.004
       0.003
       0.000
      -0.002
      -0.001
      -0.001
      -0.002
      -0.004
      -0.004
      -0.001
       0.002
       0.001
      -0.003
      -0.008
      -0.010
      -0.010
      -0.009
      -0.007
      -0.006
      -0.003
      -0.001
       0.000
       0.000
      -0.001
      -0.002
      -0.003
      -0.004
      -0.004
      -0.003
       0.001
       0.004
       0.004
       0.000
      -0.006
      -0.011
      -0.010
      -0.005
       0.000
       0.004
       0.005
       0.005
       0.008
       0.009
       0.009
       0.007
       0.004
       0.004
       0.006
       0.006
       0.005
       0.001
      -0.002
      -0.005
      -0.006
      -0.006
      -0.005
      -0.002
       0.001
       0.002
       0.002
       0.001
       0.000
       0.000
       0.001
       0.001
       0.001
       0.002
       0.003
       0.007
       0.011
       0.014
       0.013
       0.009
       0.004
       0.000
      -0.004
      -0.008
      -0.015
      -0.028
      -0.050
      -0.083
      -0.124
      -0.170
      -0.221
      -0.282
      -0.362
      -0.462
      -0.567
      -0.639
      -0.628
      -0.477
      -0.141
       0.387
       1.018
       1.521
       1.550
       0.787
      -0.844
      -2.985
      -4.836
      -5.401
      -3.951
      -0.479
       4.158
       8.563
      11.399
      11.838
       9.614
       4.928
      -1.472
      -8.089
     -12.861
     -14.016
     -11.137
      -5.539
       0.457
       4.842
       6.852
       6.929
       6.001
       4.782
       3.554
       2.349
       1.197
       0.150
      -0.904
      -2.366
      -4.646
      -7.560
      -9.970
     -10.244
      -7.375
      -1.872
       4.358
       9.063
      10.800
       9.404
       5.720
       1.071
      -3.176
      -5.898
      -6.443
      -4.835
      -1.828
       1.329
       3.387
       3.672
       2.396
       0.472
      -1.075
      -1.713
      -1.566
      -1.105
      -0.687
      -0.367
      -0.018
       0.439
       0.949
       1.392
       1.676
       1.791
       1.815
       1.878
       2.050
       2.205
       2.029
       1.236
      -0.134
      -1.602
      -2.473
      -2.289
      -1.156
       0.315
       1.387
       1.573
       0.798
      -0.691
      -2.502
      -4.225
      -5.490
      -5.992
      -5.555
      -4.194
      -2.150
       0.170
       2.295
       3.810
       4.472
       4.312
       3.630
       2.840
       2.229
       1.815
       1.397
       0.781
      -0.021
      -0.763
      -1.148
      -1.060
      -0.637
      -0.118
       0.367
       0.837
       1.306
       1.631
       1.558
       0.947
      -0.081
      -1.199
      -2.058
      -2.420
      -2.175
      -1.321
       0.010
       1.524
       2.787
       3.335
       2.840
       1.276
      -0.981
      -3.249
      -4.810
      -5.235
      -4.545
      -3.136
      -1.535
      -0.166
       0.797
       1.418
       1.804
       1.845
       1.201
      -0.313
      -2.234
      -3.451
      -2.884
      -0.381
       3.021
       5.744
       6.733
       6.039
       4.529
       3.091
       2.044
       1.165
       0.143
      -1.049
      -2.194
      -3.140
      -3.994
      -4.921
      -5.750
      -5.840
      -4.476
      -1.525
       2.194
       5.212
       6.230
       4.867
       1.862
      -1.377
      -3.532
      -3.986
      -2.947
      -1.125
       0.773
       2.348
       3.462
       3.998
       3.735
       2.511
       0.529
      -1.562
      -2.970
      -3.261
      -2.634
      -1.722
      -1.100
      -0.895
      -0.793
      -0.395
       0.407
       1.324
       1.891
       1.821
       1.218
       0.493
       0.079
       0.169
       0.639
       1.149
       1.324
       0.953
       0.137
      -0.747
      -1.308
      -1.473
      -1.520
      -1.737
      -2.037
      -1.961
      -1.108
       0.420
       2.013
       3.011
       3.191
       2.838
       2.357
       1.831
       0.974
      -0.461
      -2.232
      -3.591
      -3.816
      -2.806
      -1.213
       0.030
       0.343
      -0.172
      -0.902
      -1.195
      -0.802
       0.005
       0.686
       0.838
       0.461
      -0.124
      -0.584
      -0.798
      -0.816
      -0.665
      -0.270
       0.436
       1.349
       2.212
       2.793
       3.022
       2.925
       2.482
       1.653
       0.536
      -0.576
      -1.378
      -1.766
      -1.805
      -1.530
      -0.860
       0.193
       1.272
       1.737
       1.109
      -0.458
      -2.119
      -2.793
      -1.892
       0.218
       2.380
       3.377
       2.711
       0.857
      -1.161
      -2.480
      -2.841
      -2.493
      -1.777
      -0.851
       0.231
       1.223
       1.591
       0.807
      -1.118
      -3.372
      -4.721
      -4.334
      -2.359
       0.256
       2.472
       3.753
       4.103
       3.742
       2.854
       1.626
       0.396
      -0.379
      -0.412
       0.148
       0.760
       0.851
       0.199
      -0.938
      -1.991
      -2.370
      -1.747
      -0.254
       1.493
       2.645
       2.558
       1.171
      -0.940
      -2.815
      -3.565
      -2.804
      -0.885
       1.255
       2.615
       2.712
       1.781
       0.519
      -0.393
      -0.621
      -0.228
       0.466
       1.055
       1.152
       0.527
      -0.714
      -2.047
      -2.732
      -2.240
      -0.626
       1.442
       3.026
       3.389
       2.325
       0.210
      -2.134
      -3.741
      -3.905
      -2.555
      -0.354
       1.623
       2.478
       1.934
       0.387
      -1.413
      -2.753
      -3.224
      -2.790
      -1.696
      -0.317
       0.966
       1.827
       2.079
       1.774
       1.241
       0.951
       1.229
       1.990
       2.715
       2.774
       1.899
       0.439
      -0.847
      -1.301
      -0.778
       0.317
       1.322
       1.683
       1.186
      -0.009
      -1.482
      -2.730
      -3.347
      -3.141
      -2.180
      -0.779
       0.591
       1.489
       1.697
       1.292
       0.542
      -0.279
      -1.006
      -1.560
      -1.831
      -1.639
      -0.832
       0.494
       1.874
       2.631
       2.292
       0.960
      -0.704
      -1.911
      -2.249
      -1.845
      -1.117
      -0.383
       0.308
       1.034
       1.757
       2.246
       2.246
       1.715
       0.893
       0.138
      -0.346
      -0.663
      -1.113
      -1.887
      -2.808
      -3.359
      -3.023
      -1.666
       0.334
       2.295
       3.590
       3.911
       3.316
       2.102
       0.602
      -0.988
      -2.595
      -4.057
      -4.918
      -4.545
      -2.638
       0.274
       2.892
       3.941
       3.139
       1.472
       0.421
       0.737
       1.804
       2.222
       1.135
      -0.901
      -2.336
      -1.999
      -0.129
       1.897
       2.822
       2.511
       1.804
       1.499
       1.563
       1.308
       0.246
      -1.314
      -2.522
      -2.801
      -2.357
      -1.906
      -1.930
      -2.232
      -2.182
      -1.343
       0.129
       1.620
       2.480
       2.322
       1.071
      -1.047
      -3.450
      -5.218
      -5.401
      -3.575
      -0.239
       3.313
       5.625
       5.821
       4.028
       1.278
      -1.020
      -1.799
      -0.906
       0.823
       2.086
       1.953
       0.445
      -1.560
      -2.977
      -3.232
      -2.515
      -1.472
      -0.614
       0.048
       0.866
       2.051
       3.274
       3.820
       3.203
       1.682
       0.155
      -0.513
      -0.150
       0.660
       1.107
       0.842
       0.253
       0.193
       1.395
       3.976
       7.315
      10.303
      11.791
      10.992
       7.713
       2.406
      -3.897
      -9.811
     -14.023
     -15.785
     -15.182
     -12.955
      -9.992
      -6.797
      -3.285
       0.975
       6.150
      11.454
      14.905
      14.028
       7.387
      -4.046
     -16.863
     -26.724
     -30.370
     -26.847
     -17.463
      -4.970
       7.252
      15.882
      18.543
      14.894
       7.184
      -0.449
      -3.830
      -0.829
       7.485
      17.257
      23.602
      22.851
      14.240
       0.324
     -14.052
     -23.761
     -25.467
     -18.844
      -6.495
       7.265
      18.113
      23.186
      21.785
      15.217
       6.071
      -2.641
      -8.291
      -9.370
      -6.018
      -0.068
       5.628
       8.385
       6.851
       1.565
      -5.291
     -10.788
     -12.418
      -9.151
      -2.008
       6.133
      11.613
      11.617
       5.630
      -4.145
     -13.730
     -19.219
     -18.550
     -12.320
      -3.326
       4.855
       9.474
       9.644
       6.377
       1.776
      -2.102
      -4.178
      -4.671
      -4.660
      -5.141
      -6.231
      -7.136
      -6.933
      -5.473
      -3.626
      -2.620
      -3.039
      -4.292
      -4.934
      -3.526
       0.569
       6.857
      13.857
      19.600
      22.379
      21.474
      17.461
      11.863
       6.389
       2.288
       0.129
      -0.086
       1.236
       3.397
       5.508
       6.684
       6.278
       4.083
       0.403
      -4.033
      -8.290
     -11.520
     -13.217
     -13.350
     -12.334
     -10.840
      -9.537
      -8.829
      -8.728
      -8.908
      -8.939
      -8.540
      -7.699
      -6.592
      -5.411
      -4.251
      -3.160
      -2.226
      -1.544
      -1.043
      -0.348
       1.127
       3.875
       7.963
      12.877
      17.617
      20.960
      21.838
      19.767
      15.160
       9.277
       3.703
      -0.356
      -2.480
      -2.938
      -2.293
      -1.134
      -0.016
       0.560
       0.290
      -0.774
      -2.252
      -3.670
      -4.757
      -5.580
      -6.469
      -7.773
      -9.564
     -11.467
     -12.726
     -12.521
     -10.355
      -6.333
      -1.211
       3.786
       7.357
       8.622
       7.547
       5.022
       2.483
       1.212
       1.709
       3.530
       5.644
       7.006
       6.996
       5.517
       2.890
      -0.280
      -3.211
      -5.125
      -5.547
      -4.566
      -2.835
      -1.232
      -0.374
      -0.309
      -0.605
      -0.731
      -0.443
       0.099
       0.512
       0.452
      -0.215
      -1.398
      -2.814
      -4.028
      -4.550
      -4.001
      -2.277
       0.391
       3.495
       6.414
       8.572
       9.541
       9.099
       7.310
       4.584
       1.594
      -0.954
      -2.594
      -3.223
      -3.063
      -2.529
      -2.074
      -2.031
      -2.476
      -3.167
      -3.657
      -3.542
      -2.703
      -1.408
      -0.213
       0.323
      -0.031
      -0.994
      -1.913
      -2.186
      -1.697
      -0.924
      -0.626
      -1.310
      -2.875
      -4.644
      -5.728
      -5.459
      -3.666
      -0.693
       2.777
       5.963
       8.202
       9.095
       8.614
       7.135
       5.333
       3.916
       3.294
       3.411
       3.858
       4.172
       4.085
       3.549
       2.616
       1.360
      -0.074
      -1.412
      -2.337
      -2.685
      -2.607
      -2.536
      -2.971
      -4.230
      -6.276
      -8.696
     -10.846
     -12.113
     -12.164
     -11.037
      -9.046
      -6.588
      -3.982
      -1.398
       1.118
       3.579
       5.982
       8.245
      10.192
      11.580
      12.180
      11.869
      10.702
       8.927
       6.907
       4.980
       3.297
       1.783
       0.274
      -1.261
      -2.622
      -3.526
      -3.891
      -3.974
      -4.196
      -4.785
      -5.567
      -6.091
      -6.002
      -5.324
      -4.433
      -3.746
      -3.403
      -3.206
      -2.845
      -2.188
      -1.380
      -0.654
      -0.064
       0.604
       1.637
       3.100
       4.707
       5.954
       6.395
       5.871
       4.548
       2.791
       1.005
      -0.457
      -1.332
      -1.458
      -0.828
       0.368
       1.750
       2.867
       3.372
       3.181
       2.508
       1.723
       1.130
       0.803
       0.582
       0.238
      -0.334
      -1.053
      -1.746
      -2.286
      -2.668
      -2.976
      -3.326
      -3.812
      -4.440
      -5.094
      -5.553
      -5.604
      -5.177
      -4.395
      -3.488
      -2.637
      -1.877
      -1.103
      -0.190
       0.888
       2.045
       3.166
       4.190
       5.116
       5.935
       6.571
       6.886
       6.749
       6.116
       5.087
       3.892
       2.792
       1.940
       1.289
       0.649
      -0.141
      -1.075
      -1.976
      -2.639
      -2.983
      -3.093
      -3.138
      -3.238
      -3.399
      -3.533
      -3.547
      -3.407
      -3.132
      -2.720
      -2.099
      -1.177
       0.008
       1.189
       1.954
       2.002
       1.367
       0.431
      -0.323
      -0.601
      -0.399
       0.118
       0.815
       1.665
       2.644
       3.576
       4.115
       3.907
       2.840
       1.150
      -0.689
      -2.218
      -3.190
      -3.579
      -3.448
      -2.855
      -1.856
      -0.587
       0.715
       1.767
       2.352
       2.419
       2.105
       1.654
       1.257
       0.927
       0.519
      -0.105
      -0.902
      -1.645
      -2.088
      -2.153
      -1.970
      -1.740
      -1.561
      -1.390
      -1.148
      -0.853
      -0.627
      -0.578
      -0.661
      -0.681
      -0.449
       0.062
       0.697
       1.254
       1.646
       1.936
       2.248
       2.632
       2.995
       3.144
       2.909
       2.263
       1.337
       0.334
      -0.589
      -1.366
      -1.953
      -2.268
      -2.223
      -1.831
      -1.260
      -0.745
      -0.415
      -0.223
      -0.038
       0.174
       0.262
       0.016
