Origin Time       10/07/2010 03:16:20
Lat.              29.9 N 
Long.             79.6 E 
Depth (Km)         10.0
Magnitude         4.1
 Region           ALMORA-UTTARAKHAND                                               
 Above details taken from IMD 
     
Station Code      KAP
Station Lat.       29.941  N
Station Long.      79.899  E
Station Height(m) 1066.0
Site Class        A   Vs30 between 700 m/sec to 1400 m/sec * 
Record Time       10.07.2010 03:16:15.754
Sampling Rate     200. Hz
 Record Duration   67.105 Sec.
 Direction         E-W (E positive)
Max. Acceleration      8.930 cm/sec**2
     
  * For reference see Site Classification link of website 
     
 Base Line Corrected and Low Pass Filtered (Cut Off at 35 Hz) Time History
 Acceleration data in cm/sec**2
    
[...]
      -0.038
      -0.093
       0.032
       0.265
       0.454
       0.472
       0.294
       0.014
      -0.222
      -0.315
      -0.260
      -0.128
      -0.018
      -0.002
      -0.098
      -0.269
      -0.443
      -0.555
      -0.570
      -0.488
      -0.334
      -0.155
      -0.012
       0.046
       0.013
      -0.059
      -0.085
      -0.001
       0.182
       0.366
       0.430
       0.334
       0.171
       0.108
       0.231
       0.457
       0.603
       0.556
       0.366
       0.175
       0.068
       0.012
      -0.078
      -0.229
      -0.386
      -0.475
      -0.470
      -0.408
      -0.333
      -0.248
      -0.122
       0.058
       0.242
       0.341
       0.294
       0.119
      -0.100
      -0.261
      -0.290
      -0.178
       0.009
       0.155
       0.161
       0.016
      -0.199
      -0.359
      -0.373
      -0.224
       0.015
       0.217
       0.270
       0.147
      -0.066
      -0.221
      -0.190
       0.060
       0.441
       0.775
       0.889
       0.720
       0.370
       0.045
      -0.091
      -0.031
       0.074
       0.038
      -0.205
      -0.541
      -0.773
      -0.774
      -0.592
      -0.391
      -0.311
      -0.366
      -0.466
      -0.503
      -0.430
      -0.259
      -0.037
       0.182
       0.353
       0.454
       0.499
       0.523
       0.560
       0.613
       0.646
       0.590
       0.396
       0.079
      -0.252
      -0.431
      -0.341
      -0.013
       0.360
       0.535
       0.392
       0.028
      -0.314
      -0.418
      -0.252
       0.019
       0.175
       0.107
      -0.112
      -0.312
      -0.350
      -0.184
       0.129
       0.462
       0.662
       0.617
       0.325
      -0.090
      -0.454
      -0.644
      -0.639
      -0.480
      -0.236
      -0.003
       0.100
       0.009
      -0.206
      -0.361
      -0.306
      -0.075
       0.132
       0.129
      -0.093
      -0.371
      -0.514
      -0.438
      -0.207
       0.037
       0.181
       0.225
       0.258
       0.355
       0.473
       0.470
       0.255
      -0.084
      -0.329
      -0.309
      -0.053
       0.254
       0.435
       0.448
       0.363
       0.264
       0.183
       0.114
       0.053
       0.020
       0.031
       0.081
       0.152
       0.239
       0.359
       0.508
       0.627
       0.612
       0.404
       0.058
      -0.287
      -0.514
      -0.602
      -0.618
      -0.631
      -0.669
      -0.724
      -0.762
      -0.728
      -0.569
      -0.297
      -0.035
       0.043
      -0.149
      -0.502
      -0.753
      -0.668
      -0.217
       0.393
       0.851
       0.952
       0.729
       0.413
       0.254
       0.335
       0.522
       0.592
       0.415
       0.044
      -0.344
      -0.573
      -0.564
      -0.355
      -0.066
       0.157
       0.214
       0.107
      -0.079
      -0.235
      -0.288
      -0.212
      -0.008
       0.296
       0.636
       0.906
       0.999
       0.862
       0.541
       0.169
      -0.108
      -0.225
      -0.243
      -0.299
      -0.481
      -0.746
      -0.955
      -0.982
      -0.794
      -0.440
      -0.007
       0.386
       0.586
       0.460
       0.006
      -0.569
      -0.923
      -0.794
      -0.205
       0.521
       0.963
       0.890
       0.413
      -0.117
      -0.360
      -0.203
       0.209
       0.605
       0.763
       0.610
       0.229
      -0.200
      -0.483
      -0.489
      -0.207
       0.230
       0.594
       0.679
       0.443
       0.039
      -0.285
      -0.373
      -0.248
      -0.065
       0.031
      -0.007
      -0.131
      -0.260
      -0.321
      -0.265
      -0.090
       0.131
       0.262
       0.179
      -0.119
      -0.492
      -0.737
      -0.732
      -0.500
      -0.168
       0.132
       0.327
       0.398
       0.341
       0.170
      -0.059
      -0.225
      -0.196
       0.094
       0.571
       1.033
       1.239
       1.058
       0.569
       0.044
      -0.231
      -0.155
       0.112
       0.263
       0.077
      -0.426
      -0.997
      -1.325
      -1.237
      -0.795
      -0.248
       0.122
       0.163
      -0.070
      -0.360
      -0.475
      -0.315
       0.038
       0.400
       0.609
       0.615
       0.469
       0.273
       0.133
       0.135
       0.297
       0.537
       0.682
       0.588
       0.257
      -0.134
      -0.369
      -0.356
      -0.191
      -0.046
      -0.005
      -0.003
       0.074
       0.235
       0.342
       0.244
      -0.050
      -0.335
      -0.375
      -0.128
       0.200
       0.330
       0.143
      -0.248
      -0.636
      -0.892
      -1.003
      -0.996
      -0.872
      -0.635
      -0.343
      -0.115
      -0.044
      -0.119
      -0.216
      -0.176
       0.087
       0.522
       0.975
       1.280
       1.343
       1.169
       0.842
       0.470
       0.156
      -0.037
      -0.096
      -0.061
      -0.003
       0.014
      -0.027
      -0.099
      -0.149
      -0.123
       0.017
       0.262
       0.512
       0.594
       0.365
      -0.144
      -0.689
      -0.956
      -0.778
      -0.256
       0.313
       0.626
       0.553
       0.190
      -0.225
      -0.464
      -0.437
      -0.225
      -0.003
       0.081
      -0.022
      -0.259
      -0.515
      -0.658
      -0.608
      -0.397
      -0.166
      -0.070
      -0.161
      -0.357
      -0.522
      -0.571
      -0.492
      -0.303
      -0.025
       0.308
       0.622
       0.830
       0.879
       0.788
       0.625
       0.456
       0.304
       0.150
      -0.006
      -0.095
      -0.012
       0.270
       0.606
       0.760
       0.612
       0.298
       0.106
       0.205
       0.479
       0.623
       0.411
      -0.117
      -0.703
      -1.057
      -1.030
      -0.675
      -0.205
       0.130
       0.190
       0.026
      -0.172
      -0.230
      -0.130
      -0.011
      -0.057
      -0.345
      -0.773
      -1.103
      -1.101
      -0.686
       0.017
       0.744
       1.231
       1.332
       1.051
       0.507
      -0.120
      -0.644
      -0.918
      -0.900
      -0.673
      -0.398
      -0.187
      -0.017
       0.236
       0.651
       1.138
       1.455
       1.374
       0.873
       0.183
      -0.363
      -0.552
      -0.415
      -0.159
       0.015
       0.036
      -0.032
      -0.085
      -0.061
       0.020
       0.094
       0.098
       0.012
      -0.147
      -0.360
      -0.612
      -0.871
      -1.044
      -0.993
      -0.636
      -0.032
       0.607
       1.017
       1.036
       0.697
       0.208
      -0.188
      -0.348
      -0.275
      -0.068
       0.170
       0.372
       0.503
       0.545
       0.499
       0.395
       0.278
       0.174
       0.047
      -0.181
      -0.535
      -0.904
      -1.080
      -0.901
      -0.388
       0.256
       0.749
       0.879
       0.635
       0.235
       0.005
       0.122
       0.450
       0.626
       0.364
      -0.299
      -1.021
      -1.411
      -1.306
      -0.857
      -0.387
      -0.135
      -0.094
      -0.059
       0.156
       0.529
       0.843
       0.889
       0.645
       0.282
       0.001
      -0.108
      -0.077
       0.014
       0.104
       0.175
       0.239
       0.310
       0.380
       0.402
       0.327
       0.137
      -0.135
      -0.412
      -0.590
      -0.567
      -0.304
       0.114
       0.481
       0.567
       0.257
      -0.340
      -0.913
      -1.095
      -0.690
       0.156
       0.987
       1.297
       0.868
      -0.058
      -0.954
      -1.386
      -1.292
      -0.936
      -0.634
      -0.521
      -0.537
      -0.554
      -0.466
      -0.192
       0.312
       1.000
       1.686
       2.098
       2.026
       1.476
       0.684
      -0.007
      -0.350
      -0.328
      -0.128
       0.019
       0.007
      -0.112
      -0.226
      -0.282
      -0.299
      -0.311
      -0.316
      -0.295
      -0.253
      -0.229
      -0.267
      -0.381
      -0.547
      -0.716
      -0.833
      -0.842
      -0.706
      -0.431
      -0.084
       0.232
       0.451
       0.577
       0.675
       0.800
       0.943
       1.022
       0.917
       0.545
      -0.063
      -0.723
      -1.160
      -1.159
      -0.701
       0.008
       0.645
       0.954
       0.885
       0.596
       0.327
       0.230
       0.281
       0.341
       0.289
       0.096
      -0.183
      -0.445
      -0.571
      -0.468
      -0.127
       0.328
       0.678
       0.714
       0.362
      -0.260
      -0.875
      -1.184
      -1.045
      -0.574
      -0.070
       0.190
       0.143
      -0.063
      -0.228
      -0.276
      -0.263
      -0.255
      -0.226
      -0.108
       0.084
       0.225
       0.192
       0.009
      -0.161
      -0.161
       0.009
       0.202
       0.268
       0.195
       0.114
       0.151
       0.287
       0.353
       0.198
      -0.149
      -0.468
      -0.521
      -0.237
       0.237
       0.645
       0.795
       0.667
       0.402
       0.203
       0.212
       0.419
       0.664
       0.730
       0.484
      -0.032
      -0.622
      -1.039
      -1.122
      -0.875
      -0.455
      -0.079
       0.082
      -0.036
      -0.375
      -0.793
      -1.125
      -1.243
      -1.098
      -0.729
      -0.257
       0.155
       0.392
       0.466
       0.495
       0.588
       0.741
       0.837
       0.743
       0.416
      -0.061
      -0.520
      -0.791
      -0.786
      -0.537
      -0.161
       0.219
       0.529
       0.744
       0.860
       0.873
       0.799
       0.688
       0.623
       0.673
       0.862
       1.143
       1.432
       1.654
       1.799
       1.904
       1.963
       1.844
       1.338
       0.355
      -0.918
      -2.065
      -2.698
      -2.716
      -2.319
      -1.799
      -1.333
      -0.982
      -0.843
      -1.091
      -1.797
      -2.703
      -3.282
      -3.094
      -2.135
      -0.855
       0.150
       0.503
       0.212
      -0.405
      -0.923
      -1.009
      -0.554
       0.290
       1.179
       1.726
       1.692
       1.138
       0.440
       0.103
       0.458
       1.424
       2.520
       3.143
       2.946
       2.071
       1.043
       0.416
       0.419
       0.837
       1.186
       1.057
       0.404
      -0.417
      -0.863
      -0.545
       0.517
       1.879
       2.916
       3.142
       2.442
       1.070
      -0.528
      -1.940
      -2.930
      -3.463
      -3.675
      -3.793
      -3.999
      -4.275
      -4.362
      -3.929
      -2.861
      -1.392
       0.046
       1.162
       1.981
       2.718
       3.479
       4.094
       4.241
       3.729
       2.683
       1.493
       0.583
       0.199
       0.335
       0.814
       1.403
       1.900
       2.154
       2.089
       1.711
       1.112
       0.413
      -0.281
      -0.894
      -1.367
      -1.669
      -1.857
      -2.102
      -2.642
      -3.645
      -5.073
      -6.642
      -7.907
      -8.450
      -8.057
      -6.791
      -4.927
      -2.794
      -0.637
       1.414
       3.305
       4.986
       6.369
       7.341
       7.831
       7.851
       7.499
       6.900
       6.176
       5.423
       4.687
       3.921
       2.986
       1.778
       0.382
      -0.924
      -1.869
      -2.420
      -2.796
      -3.248
      -3.799
      -4.212
      -4.201
      -3.682
      -2.846
      -2.014
      -1.444
      -1.246
      -1.403
      -1.816
      -2.329
      -2.757
      -2.967
      -2.934
      -2.738
      -2.455
      -2.076
      -1.508
      -0.684
       0.340
       1.395
       2.306
       3.004
       3.543
       4.019
       4.463
       4.815
       4.976
       4.900
       4.637
       4.293
       3.911
       3.355
       2.304
       0.450
      -2.203
      -5.165
      -7.586
      -8.654
      -7.992
      -5.821
      -2.827
       0.144
       2.368
       3.445
       3.402
       2.654
       1.806
       1.333
       1.345
       1.602
       1.743
       1.531
       0.941
       0.074
      -0.948
      -2.017
      -3.021
      -3.824
      -4.269
      -4.188
      -3.439
      -2.010
      -0.127
       1.755
       3.151
       3.782
       3.659
       2.975
       1.928
       0.658
      -0.687
      -1.881
      -2.646
      -2.759
      -2.181
      -1.091
       0.175
       1.259
       1.899
       1.988
       1.593
       0.934
       0.349
       0.158
       0.480
       1.121
       1.680
       1.828
       1.523
       0.992
       0.515
       0.227
       0.074
      -0.094
      -0.408
      -0.899
      -1.469
      -1.924
      -2.057
      -1.779
      -1.196
      -0.583
      -0.235
      -0.296
      -0.684
      -1.153
      -1.421
      -1.268
      -0.578
       0.627
       2.124
       3.475
       4.131
       3.679
       2.097
      -0.148
      -2.251
      -3.419
      -3.253
      -1.966
      -0.262
       1.031
       1.371
       0.701
      -0.618
      -2.013
      -2.907
      -2.855
      -1.656
       0.542
       3.228
       5.681
       7.233
       7.508
       6.493
       4.468
       1.891
      -0.697
      -2.783
      -4.050
      -4.530
      -4.573
      -4.615
      -4.892
      -5.342
      -5.745
      -5.907
      -5.701
      -4.995
      -3.611
      -1.441
       1.383
       4.424
       7.046
       8.656
       8.930
       7.932
       6.056
       3.848
       1.788
       0.158
      -0.969
      -1.649
      -1.992
      -2.122
      -2.166
      -2.242
      -2.438
      -2.778
      -3.203
      -3.569
      -3.713
      -3.533
      -3.034
      -2.303
      -1.465
      -0.655
       0.000
       0.452
       0.799
       1.244
       1.935
       2.823
       3.683
       4.273
       4.474
       4.289
       3.776
       3.016
       2.163
       1.450
       1.099
       1.159
       1.415
       1.459
       0.887
      -0.471
      -2.422
      -4.459
      -5.980
      -6.544
      -6.018
      -4.558
      -2.498
      -0.269
       1.660
       2.875
       3.150
       2.541
       1.359
       0.026
      -1.087
      -1.753
      -1.881
      -1.481
      -0.662
       0.354
       1.256
       1.751
       1.706
       1.218
       0.547
      -0.021
      -0.293
      -0.223
       0.099
       0.461
       0.604
       0.340
      -0.329
      -1.195
      -1.946
      -2.330
      -2.279
      -1.912
      -1.419
      -0.899
      -0.289
       0.566
       1.747
       3.116
       4.318
       4.932
       4.697
       3.646
       2.104
       0.537
      -0.650
      -1.251
      -1.295
      -0.976
      -0.559
      -0.305
      -0.421
      -1.019
      -2.041
      -3.228
      -4.174
      -4.512
      -4.105
      -3.116
      -1.905
      -0.823
      -0.027
       0.565
       1.171
       1.945
       2.846
       3.666
       4.208
       4.437
       4.469
       4.416
       4.250
       3.808
       2.915
       1.507
      -0.317
      -2.298
      -4.049
      -5.152
      -5.309
      -4.493
      -2.984
      -1.224
       0.384
       1.610
       2.378
       2.674
       2.479
       1.803
       0.732
      -0.546
      -1.788
      -2.771
      -3.357
      -3.540
      -3.438
      -3.237
      -3.081
      -2.982
      -2.818
      -2.425
      -1.731
      -0.825
       0.082
       0.787
       1.234
       1.560
       2.013
       2.770
       3.803
       4.890
       5.770
       6.291
       6.435
       6.229
       5.666
       4.728
       3.473
       2.046
       0.585
      -0.860
      -2.284
      -3.615
      -4.666
      -5.232
      -5.230
      -4.753
      -3.999
      -3.184
      -2.500
      -2.104
      -2.108
      -2.526
      -3.238
      -4.003
      -4.546
      -4.666
      -4.315
      -3.580
      -2.591
      -1.433
      -0.136
       1.248
       2.593
       3.730
       4.550
       5.047
       5.295
       5.373
       5.334
       5.227
       5.116
       5.040
       4.982
       4.856
       4.567
       4.049
       3.286
       2.280
       1.042
      -0.392
      -1.944
      -3.496
      -4.926
      -6.142
      -7.076
      -7.663
      -7.826
      -7.508
      -6.716
      -5.542
      -4.149
      -2.733
      -1.490
      -0.577
      -0.068
       0.094
       0.114
       0.269
       0.774
       1.676
       2.831
       3.997
       4.960
       5.614
       5.962
       6.049
       5.913
       5.551
       4.942
       4.076
       2.989
       1.774
       0.569
      -0.481
      -1.272
      -1.786
      -2.092
      -2.305
      -2.492
      -2.616
      -2.560
      -2.232
      -1.663
      -1.030
      -0.566
      -0.432
      -0.631
      -1.017
      -1.390
      -1.600
      -1.587
      -1.371
      -1.017
      -0.625
      -0.310
      -0.153
      -0.162
      -0.285
      -0.465
      -0.672
      -0.885
      -1.046
      -1.070
      -0.888
      -0.506
      -0.001
       0.525
       0.983
       1.293
       1.360
       1.091
       0.449
      -0.475
      -1.456
      -2.214
      -2.547
      -2.418
      -1.938
      -1.278
      -0.564
       0.144
       0.833
       1.490
       2.098
       2.623
       3.002
       3.156
       3.038
       2.675
       2.162
       1.585
       0.955
       0.250
      -0.492
      -1.125
      -1.472
      -1.448
      -1.103
      -0.566
       0.051
       0.674
       1.238
       1.653
       1.814
       1.641
       1.119
       0.323
      -0.595
      -1.452
      -2.094
      -2.433
      -2.443
      -2.144
      -1.612
      -0.990
      -0.457
      -0.150
      -0.084
      -0.145
      -0.161
      -0.014
       0.302
       0.676
       0.963
       1.085
       1.094
       1.148
       1.378
       1.758
       2.072
       2.039
       1.501
       0.545
      -0.534
      -1.385
      -1.776
      -1.686
      -1.300
      -0.900
      -0.729
      -0.882
      -1.273
      -1.696
      -1.924
      -1.815
      -1.355
      -0.657
       0.106
       0.776
       1.269
       1.575
       1.731
       1.772
       1.702
       1.492
       1.115
       0.608
       0.117
      -0.165
      -0.118
       0.185
       0.504
       0.595
       0.391
       0.034
      -0.240
      -0.287
      -0.140
       0.045
       0.107
      -0.035
      -0.362
      -0.784
      -1.186
      -1.479
      -1.637
      -1.696
      -1.700
      -1.640
      -1.450
      -1.065
      -0.495
       0.144
       0.678
       0.975
       1.019
       0.911
       0.788
       0.734
       0.740
       0.745
       0.709
       0.643
       0.583
       0.549
       0.538
       0.545
       0.577
       0.628
       0.664
       0.646
       0.574
       0.492
       0.445
       0.427
       0.370
       0.190
      -0.145
      -0.573
      -0.955
      -1.145
      -1.072
      -0.776
      -0.390
      -0.058
       0.133
       0.199
       0.239
       0.366
       0.617
       0.907
       1.072
       0.961
       0.541
      -0.091
      -0.763
      -1.322
      -1.689
      -1.845
      -1.811
      -1.644
      -1.438
      -1.296
      -1.272
      -1.330
      -1.364
