Origin Time       19/08/2008 10:54:26
Lat.              30.1°N 
Long.             80.1°E 
Depth (Km)         15.0
Magnitude         4.3
 Region           PITHORAGARH                                                      
 Above details taken from IMD 
     
Station Code      KAP
Station Lat.       29.941  N
Station Long.      79.899  E
Station Height(m) 1066.0
Site Class        A   Vs30 between 700 m/sec to 1400 m/sec * 
Record Time       19.08.2008 10:54:15.919
Sampling Rate     200. Hz
 Record Duration   70.995 Sec.
 Direction         E-W (E positive)
Max. Acceleration     11.728 cm/sec**2
     
  * For reference see Site Classification link of website 
     
 Base Line Corrected and Low Pass Filtered (Cut Off at 35 Hz) Time History
 Acceleration data in cm/sec**2
    
[...]
       0.020
       0.014
       0.001
      -0.008
      -0.008
       0.000
       0.009
       0.012
       0.009
       0.005
       0.004
       0.006
       0.009
       0.008
       0.002
      -0.005
      -0.010
      -0.007
      -0.002
       0.002
       0.002
       0.003
       0.008
       0.016
       0.019
       0.013
       0.005
       0.000
       0.004
       0.010
       0.012
       0.008
       0.004
       0.004
       0.005
       0.002
      -0.006
      -0.013
      -0.012
      -0.003
       0.007
       0.011
       0.005
      -0.005
      -0.010
      -0.005
       0.005
       0.012
       0.011
       0.003
      -0.002
       0.001
       0.010
       0.015
       0.010
      -0.003
      -0.015
      -0.017
      -0.009
       0.004
       0.010
       0.008
       0.003
      -0.001
      -0.001
      -0.002
      -0.006
      -0.007
      -0.003
       0.002
       0.002
      -0.001
      -0.004
      -0.001
       0.004
       0.006
       0.001
      -0.003
      -0.003
       0.000
       0.003
       0.003
       0.002
       0.004
       0.006
       0.002
      -0.010
      -0.023
      -0.029
      -0.022
      -0.009
       0.002
       0.003
      -0.006
      -0.017
      -0.020
      -0.014
      -0.005
      -0.003
      -0.007
      -0.013
      -0.015
      -0.010
      -0.003
       0.001
       0.003
       0.005
       0.007
       0.007
       0.006
       0.006
       0.009
       0.012
       0.009
       0.000
      -0.009
      -0.011
      -0.008
      -0.007
      -0.012
      -0.018
      -0.014
      -0.003
       0.009
       0.012
       0.006
       0.001
       0.002
       0.006
       0.002
      -0.011
      -0.024
      -0.027
      -0.019
      -0.007
      -0.004
      -0.010
      -0.015
      -0.009
       0.005
       0.016
       0.014
       0.001
      -0.010
      -0.014
      -0.010
      -0.008
      -0.012
      -0.019
      -0.023
      -0.020
      -0.010
       0.000
       0.004
      -0.001
      -0.012
      -0.020
      -0.021
      -0.018
      -0.016
      -0.017
      -0.019
      -0.020
      -0.022
      -0.038
      -0.073
      -0.116
      -0.145
      -0.142
      -0.115
      -0.100
      -0.138
      -0.240
      -0.374
      -0.482
      -0.530
      -0.540
      -0.572
      -0.657
      -0.744
      -0.732
      -0.562
      -0.313
      -0.174
      -0.328
      -0.805
      -1.417
      -1.822
      -1.695
      -0.915
       0.366
       1.808
       3.049
       3.822
       3.970
       3.436
       2.292
       0.767
      -0.784
      -1.944
      -2.312
      -1.603
       0.150
       2.445
       4.453
       5.465
       5.305
       4.261
       2.641
       0.476
      -2.236
      -5.003
      -6.745
      -6.432
      -3.950
      -0.361
       2.720
       4.118
       3.689
       2.158
       0.425
      -1.082
      -2.497
      -4.031
      -5.441
      -6.044
      -5.289
      -3.331
      -1.046
       0.572
       1.092
       0.823
       0.401
       0.257
       0.424
       0.708
       0.904
       0.867
       0.506
      -0.182
      -1.026
      -1.662
      -1.675
      -0.864
       0.550
       2.003
       2.960
       3.301
       3.369
       3.597
       4.028
       4.195
       3.501
       1.828
      -0.175
      -1.458
      -1.350
      -0.071
       1.448
       2.268
       2.060
       1.177
       0.227
      -0.451
      -0.962
      -1.632
      -2.644
      -3.880
      -5.004
      -5.667
      -5.648
      -4.899
      -3.523
      -1.748
       0.090
       1.594
       2.435
       2.502
       1.947
       1.051
       0.042
      -0.945
      -1.740
      -2.052
      -1.609
      -0.415
       1.172
       2.626
       3.533
       3.719
       3.218
       2.212
       0.995
      -0.115
      -0.874
      -1.170
      -0.986
      -0.357
       0.642
       1.877
       3.144
       4.177
       4.642
       4.218
       2.798
       0.701
      -1.396
      -2.839
      -3.385
      -3.223
      -2.672
      -1.937
      -1.160
      -0.591
      -0.548
      -1.165
      -2.212
      -3.211
      -3.753
      -3.721
      -3.277
      -2.665
      -2.013
      -1.257
      -0.240
       1.075
       2.447
       3.446
       3.756
       3.405
       2.722
       2.070
       1.621
       1.310
       0.937
       0.313
      -0.580
      -1.491
      -1.971
      -1.654
      -0.582
       0.702
       1.448
       1.191
       0.058
      -1.343
      -2.341
      -2.591
      -2.184
      -1.488
      -0.862
      -0.464
      -0.230
       0.016
       0.412
       0.979
       1.619
       2.183
       2.540
       2.612
       2.392
       1.934
       1.331
       0.699
       0.179
      -0.091
      -0.027
       0.352
       0.924
       1.494
       1.845
       1.798
       1.309
       0.510
      -0.349
      -1.049
      -1.504
      -1.770
      -1.958
      -2.159
      -2.433
      -2.820
      -3.292
      -3.659
      -3.567
      -2.725
      -1.209
       0.437
       1.501
       1.573
       0.825
      -0.148
      -0.754
      -0.733
      -0.162
       0.790
       2.039
       3.496
       4.854
       5.588
       5.269
       3.938
       2.149
       0.601
      -0.347
      -0.838
      -1.239
      -1.739
      -2.203
      -2.372
      -2.150
      -1.692
      -1.247
      -0.962
      -0.855
      -0.924
      -1.231
      -1.840
      -2.693
      -3.513
      -3.869
      -3.403
      -2.114
      -0.455
       0.904
       1.510
       1.445
       1.239
       1.429
       2.107
       2.863
       3.146
       2.703
       1.758
       0.810
       0.268
       0.201
       0.399
       0.655
       0.966
       1.417
       1.891
       1.979
       1.298
      -0.087
      -1.598
      -2.551
      -2.639
      -2.057
      -1.228
      -0.475
       0.075
       0.387
       0.431
       0.215
      -0.152
      -0.496
      -0.684
      -0.697
      -0.598
      -0.469
      -0.359
      -0.250
      -0.064
       0.266
       0.705
       1.090
       1.230
       1.028
       0.516
      -0.190
      -0.913
      -1.406
      -1.407
      -0.787
       0.311
       1.477
       2.205
       2.168
       1.416
       0.358
      -0.502
      -0.897
      -0.955
      -1.037
      -1.374
      -1.830
      -2.033
      -1.752
      -1.122
      -0.503
      -0.163
      -0.116
      -0.208
      -0.270
      -0.191
       0.076
       0.509
       1.019
       1.507
       1.914
       2.206
       2.316
       2.168
       1.794
       1.383
       1.179
       1.275
       1.535
       1.687
       1.496
       0.867
      -0.141
      -1.337
      -2.458
      -3.258
      -3.580
      -3.388
      -2.754
      -1.884
      -1.103
      -0.737
      -0.885
      -1.324
      -1.681
      -1.761
      -1.679
      -1.644
      -1.640
      -1.355
      -0.431
       1.187
       3.110
       4.678
       5.304
       4.795
       3.460
       1.932
       0.785
       0.186
      -0.119
      -0.457
      -0.837
      -0.924
      -0.413
       0.558
       1.411
       1.555
       0.864
      -0.241
      -1.169
      -1.625
      -1.754
      -1.849
      -1.990
      -1.990
      -1.668
      -1.096
      -0.552
      -0.246
      -0.152
      -0.081
       0.107
       0.404
       0.719
       0.986
       1.213
       1.424
       1.587
       1.597
       1.353
       0.846
       0.213
      -0.317
      -0.534
      -0.371
       0.045
       0.459
       0.636
       0.474
       0.023
      -0.591
      -1.219
      -1.695
      -1.836
      -1.513
      -0.748
       0.242
       1.118
       1.579
       1.503
       1.012
       0.391
      -0.080
      -0.295
      -0.358
      -0.465
      -0.716
      -1.034
      -1.228
      -1.142
      -0.784
      -0.321
       0.029
       0.118
      -0.076
      -0.461
      -0.894
      -1.244
      -1.435
      -1.457
      -1.337
      -1.110
      -0.784
      -0.336
       0.279
       1.065
       1.919
       2.626
       2.964
       2.864
       2.462
       1.979
       1.549
       1.153
       0.717
       0.256
      -0.096
      -0.198
      -0.040
       0.231
       0.392
       0.261
      -0.206
      -0.877
      -1.511
      -1.884
      -1.908
      -1.631
      -1.147
      -0.537
       0.083
       0.506
       0.511
       0.046
      -0.658
      -1.205
      -1.299
      -0.927
      -0.345
       0.111
       0.234
       0.055
      -0.200
      -0.308
      -0.226
      -0.106
      -0.123
      -0.277
      -0.375
      -0.212
       0.238
       0.803
       1.262
       1.500
       1.545
       1.503
       1.455
       1.388
       1.203
       0.840
       0.406
       0.177
       0.374
       0.911
       1.383
       1.369
       0.795
      -0.005
      -0.588
      -0.771
      -0.746
      -0.869
      -1.338
      -2.019
      -2.529
      -2.509
      -1.868
      -0.844
       0.134
       0.706
       0.769
       0.487
       0.108
      -0.213
      -0.447
      -0.587
      -0.555
      -0.249
       0.346
       1.099
       1.789
       2.216
       2.282
       2.015
       1.519
       0.896
       0.187
      -0.581
      -1.315
      -1.839
      -2.006
      -1.816
      -1.417
      -0.996
      -0.669
      -0.476
      -0.414
      -0.440
      -0.431
      -0.194
       0.431
       1.458
       2.726
       3.947
       4.800
       5.040
       4.601
       3.628
       2.413
       1.244
       0.281
      -0.461
      -1.032
      -1.484
      -1.878
      -2.312
      -2.908
      -3.723
      -4.675
      -5.529
      -6.004
      -5.916
      -5.308
      -4.458
      -3.756
      -3.494
      -3.673
      -3.963
      -3.869
      -3.006
      -1.329
       0.820
       2.863
       4.260
       4.773
       4.584
       4.174
       4.011
       4.254
       4.665
       4.786
       4.252
       3.014
       1.352
      -0.265
      -1.352
      -1.544
      -0.691
       1.066
       3.228
       4.998
       5.575
       4.563
       2.232
      -0.629
      -3.156
      -4.778
      -5.276
      -4.601
      -2.776
      -0.038
       2.959
       5.225
       5.868
       4.603
       1.936
      -1.123
      -3.596
      -4.952
      -5.176
      -4.563
      -3.450
      -2.064
      -0.528
       1.059
       2.526
       3.574
       3.810
       2.933
       0.972
      -1.596
      -3.987
      -5.450
      -5.577
      -4.409
      -2.335
       0.068
       2.147
       3.275
       3.016
       1.351
      -1.183
      -3.608
      -4.879
      -4.380
      -2.275
       0.523
       2.785
       3.591
       2.795
       1.074
      -0.492
      -1.024
      -0.290
       1.270
       2.889
       3.907
       4.056
       3.486
       2.618
       1.946
       1.826
       2.315
       3.130
       3.806
       3.968
       3.495
       2.489
       1.134
      -0.351
      -1.667
      -2.419
      -2.304
      -1.385
      -0.193
       0.506
       0.125
      -1.447
      -3.819
      -6.297
      -8.168
      -8.959
      -8.577
      -7.283
      -5.502
      -3.622
      -1.917
      -0.564
       0.329
       0.762
       0.866
       0.831
       0.774
       0.695
       0.554
       0.373
       0.234
       0.206
       0.320
       0.621
       1.204
       2.157
       3.467
       4.946
       6.212
       6.729
       5.973
       3.728
       0.366
      -3.144
      -5.621
      -6.245
      -4.971
      -2.499
       0.133
       2.103
       3.138
       3.500
       3.689
       4.095
       4.804
       5.625
       6.267
       6.515
       6.275
       5.542
       4.375
       2.900
       1.312
      -0.181
      -1.427
      -2.396
      -3.176
      -3.922
      -4.787
      -5.833
      -6.981
      -8.033
      -8.787
      -9.147
      -9.137
      -8.784
      -7.973
      -6.468
      -4.123
      -1.135
       1.925
       4.375
       5.795
       6.245
       6.163
       6.067
       6.230
       6.544
       6.615
       6.027
       4.625
       2.639
       0.548
      -1.200
      -2.413
      -3.175
      -3.705
      -4.199
      -4.737
      -5.286
      -5.725
      -5.860
      -5.439
      -4.231
      -2.165
       0.539
       3.369
       5.691
       7.042
       7.341
       6.883
       6.121
       5.420
       4.932
       4.602
       4.257
       3.695
       2.769
       1.470
      -0.048
      -1.520
      -2.710
      -3.538
      -4.119
      -4.681
      -5.399
      -6.269
      -7.092
      -7.580
      -7.497
      -6.771
      -5.531
      -4.043
      -2.568
      -1.227
      -0.008
       1.119
       2.096
       2.804
       3.158
       3.173
       2.955
       2.654
       2.426
       2.380
       2.524
       2.739
       2.866
       2.831
       2.698
       2.571
       2.455
       2.234
       1.785
       1.137
       0.516
       0.229
       0.455
       1.112
       1.903
       2.522
       2.864
       3.072
       3.365
       3.816
       4.282
       4.521
       4.363
       3.762
       2.740
       1.313
      -0.478
      -2.497
      -4.502
      -6.225
      -7.503
      -8.337
      -8.862
      -9.244
      -9.588
      -9.895
     -10.085
     -10.044
      -9.635
      -8.721
      -7.216
      -5.149
      -2.689
      -0.089
       2.430
       4.742
       6.799
       8.571
      10.009
      11.054
      11.646
      11.728
      11.259
      10.242
       8.775
       7.050
       5.289
       3.636
       2.095
       0.569
      -1.019
      -2.641
      -4.170
      -5.480
      -6.513
      -7.263
      -7.706
      -7.772
      -7.382
      -6.521
      -5.255
      -3.721
      -2.117
      -0.696
       0.277
       0.663
       0.585
       0.422
       0.597
       1.298
       2.353
       3.367
       4.013
       4.226
       4.176
       4.064
       3.958
       3.791
       3.468
       2.951
       2.245
       1.353
       0.270
      -0.989
      -2.349
      -3.678
      -4.797
      -5.512
      -5.688
      -5.322
      -4.577
      -3.711
      -2.931
      -2.308
      -1.783
      -1.261
      -0.689
      -0.073
       0.569
       1.235
       1.916
       2.567
       3.103
       3.443
       3.576
       3.555
       3.431
       3.200
       2.847
       2.435
       2.124
       2.037
       2.101
       2.041
       1.560
       0.541
      -0.897
      -2.471
      -3.869
      -4.826
      -5.182
      -4.927
      -4.235
      -3.419
      -2.770
      -2.377
      -2.065
      -1.525
      -0.560
       0.725
       1.963
       2.764
       2.998
       2.876
       2.775
       2.927
       3.253
       3.445
       3.241
       2.622
       1.797
       1.025
       0.449
       0.069
      -0.177
      -0.317
      -0.337
      -0.233
      -0.049
       0.122
       0.189
       0.099
      -0.156
      -0.551
      -1.029
      -1.484
      -1.776
      -1.767
      -1.388
      -0.689
       0.150
       0.871
       1.229
       1.103
       0.569
      -0.136
      -0.758
      -1.189
      -1.511
      -1.869
      -2.296
      -2.652
      -2.753
      -2.556
      -2.221
      -1.977
      -1.909
      -1.854
      -1.524
      -0.750
       0.336
       1.343
       1.855
       1.697
       1.034
       0.259
      -0.238
      -0.261
       0.123
       0.660
       1.065
       1.173
       1.012
       0.766
       0.659
       0.826
       1.262
       1.870
       2.542
       3.196
       3.755
       4.125
       4.218
       3.990
       3.472
       2.746
       1.924
       1.124
       0.437
      -0.102
      -0.535
      -0.953
      -1.439
      -2.008
      -2.608
      -3.146
      -3.538
      -3.730
      -3.706
      -3.500
      -3.205
      -2.959
      -2.874
      -2.954
      -3.063
      -2.991
      -2.595
      -1.908
      -1.126
      -0.452
       0.056
       0.501
       0.989
       1.474
       1.744
       1.591
       1.001
       0.202
      -0.488
      -0.863
      -0.935
      -0.867
      -0.800
      -0.709
      -0.404
       0.308
       1.433
       2.718
       3.777
       4.323
       4.319
       3.950
       3.458
       2.976
       2.487
       1.920
       1.289
       0.744
       0.475
       0.553
       0.856
       1.133
       1.168
       0.908
       0.443
      -0.102
      -0.667
      -1.259
      -1.874
      -2.420
      -2.742
      -2.709
      -2.328
      -1.762
      -1.249
      -0.962
      -0.932
      -1.090
      -1.360
      -1.724
      -2.181
      -2.661
      -3.010
      -3.073
      -2.790
      -2.211
      -1.427
      -0.487
       0.597
       1.777
       2.894
       3.693
       3.956
       3.660
       3.043
       2.496
       2.336
       2.616
       3.092
       3.380
       3.180
       2.442
       1.367
       0.279
      -0.578
      -1.149
      -1.551
      -1.946
      -2.409
      -2.883
      -3.236
      -3.362
      -3.258
      -3.005
      -2.698
      -2.379
      -2.034
      -1.638
      -1.205
      -0.777
      -0.386
      -0.028
       0.313
       0.621
       0.837
       0.898
       0.801
       0.612
       0.422
       0.305
       0.288
       0.376
       0.563
       0.843
       1.173
       1.456
       1.563
       1.410
       1.034
       0.597
       0.313
       0.331
       0.645
       1.092
       1.432
       1.483
       1.226
       0.798
       0.390
       0.124
       0.008
      -0.035
      -0.093
      -0.227
      -0.465
      -0.809
      -1.229
      -1.658
      -1.995
      -2.126
      -1.963
      -1.498
      -0.842
      -0.209
       0.173
       0.184
      -0.123
      -0.547
      -0.863
      -0.950
      -0.824
      -0.574
      -0.261
       0.121
       0.588
       1.113
       1.640
       2.149
       2.666
       3.192
       3.638
       3.844
       3.676
       3.111
       2.254
       1.300
       0.461
      -0.105
      -0.364
      -0.430
      -0.514
      -0.814
      -1.426
      -2.317
      -3.351
      -4.339
      -5.094
      -5.492
      -5.504
      -5.182
      -4.619
      -3.909
      -3.128
      -2.333
      -1.548
      -0.767
       0.032
       0.862
       1.719
       2.585
       3.428
       4.182
       4.754
       5.061
       5.086
       4.894
       4.580
       4.188
       3.687
       3.017
       2.173
       1.243
       0.365
      -0.356
      -0.900
      -1.320
      -1.670
      -1.947
      -2.095
      -2.052
      -1.827
      -1.516
      -1.250
      -1.100
      -1.025
      -0.924
      -0.729
      -0.478
      -0.296
      -0.298
      -0.488
      -0.726
      -0.807
      -0.595
      -0.125
       0.412
       0.779
       0.833
       0.591
       0.197
      -0.191
      -0.488
      -0.702
      -0.876
      -1.017
      -1.082
      -1.036
      -0.897
      -0.729
      -0.589
      -0.481
      -0.364
      -0.201
      -0.002
       0.169
       0.228
       0.132
      -0.077
      -0.278
      -0.335
      -0.170
       0.190
       0.651
       1.110
       1.497
       1.767
       1.868
       1.744
       1.371
       0.792
       0.133
      -0.433
      -0.756
      -0.779
      -0.566
