Origin Time       15/06/2011 00:59:28
Lat.              30.6 N	
Long.             80.1 E	
Depth (Km)         10.0
Magnitude         3.4
 Region           Pithoragarh-Uttarakhand                                          
 Above details taken from IMD 
   
Station Code      KAP
Station Lat.       29.941
Station Long.      79.899
Station Height(m) 1066.0
Site Class        A   Vs30 between 700 m/sec to 1400 m/sec * 
Record Time       15.06.2011 00:58:59.539
Sampling Rate     200. Hz
 Record Duration   81.520 Sec.
 Direction         Vert. (Up positive)
Max. Acceleration    -12.676 cm/sec**2
     
  * For reference see Site Classification link of website 
     
 Base Line Corrected and Low Pass Filtered (Cut Off at 35 Hz) Time History
 Acceleration data in cm/sec**2
    
[...]
      -0.004
       0.000
       0.003
       0.004
       0.004
       0.002
       0.001
       0.005
       0.011
       0.013
       0.007
      -0.005
      -0.015
      -0.016
      -0.011
      -0.003
       0.004
       0.008
       0.007
       0.005
       0.004
       0.003
       0.002
       0.003
       0.003
       0.001
      -0.003
      -0.002
       0.005
       0.012
       0.013
       0.006
      -0.001
      -0.002
       0.005
       0.013
       0.016
       0.008
      -0.005
      -0.012
      -0.009
       0.000
       0.006
       0.008
       0.007
       0.006
       0.008
       0.012
       0.013
       0.007
      -0.005
      -0.015
      -0.018
      -0.014
      -0.006
       0.004
       0.011
       0.010
       0.002
      -0.007
      -0.013
      -0.015
      -0.013
      -0.008
      -0.002
       0.003
       0.005
       0.008
       0.010
       0.010
       0.005
      -0.003
      -0.009
      -0.014
      -0.014
      -0.007
       0.001
       0.005
       0.004
       0.000
      -0.001
       0.001
       0.002
       0.004
       0.004
       0.001
      -0.005
      -0.007
       0.001
       0.016
       0.026
       0.025
       0.014
       0.003
      -0.001
       0.000
      -0.001
      -0.008
      -0.018
      -0.020
      -0.011
       0.005
       0.020
       0.027
       0.024
       0.011
      -0.005
      -0.011
      -0.002
       0.012
       0.019
       0.012
      -0.003
      -0.013
      -0.005
       0.018
       0.039
       0.042
       0.029
       0.012
       0.001
      -0.005
      -0.008
      -0.008
      -0.005
      -0.002
       0.001
       0.006
       0.014
       0.020
       0.022
       0.018
       0.012
       0.009
       0.012
       0.016
       0.016
       0.008
      -0.001
      -0.002
       0.008
       0.021
       0.029
       0.026
       0.012
      -0.005
      -0.014
      -0.010
       0.003
       0.013
       0.015
       0.013
       0.011
       0.012
       0.015
       0.017
       0.015
       0.006
      -0.005
      -0.010
      -0.005
       0.007
       0.020
       0.028
       0.027
       0.019
       0.010
       0.009
       0.013
       0.017
       0.013
       0.003
      -0.008
      -0.012
      -0.004
       0.013
       0.026
       0.027
       0.019
       0.010
       0.004
       0.003
       0.005
       0.006
       0.006
       0.002
       0.001
       0.006
       0.013
       0.016
       0.013
       0.006
      -0.001
      -0.004
      -0.003
       0.000
       0.000
      -0.004
      -0.008
      -0.004
       0.004
       0.012
       0.014
       0.011
       0.005
       0.000
      -0.002
      -0.001
       0.000
       0.001
       0.004
       0.011
       0.016
       0.017
       0.015
       0.012
       0.007
       0.000
      -0.007
      -0.011
      -0.012
      -0.011
      -0.010
      -0.008
      -0.004
       0.003
       0.012
       0.017
       0.012
      -0.004
      -0.017
      -0.019
      -0.008
       0.004
       0.011
       0.010
       0.005
       0.004
       0.009
       0.017
       0.021
       0.018
       0.010
       0.001
      -0.005
      -0.006
       0.002
       0.014
       0.022
       0.022
       0.020
       0.019
       0.016
       0.006
      -0.006
      -0.015
      -0.018
      -0.016
      -0.009
      -0.002
       0.001
       0.000
       0.004
       0.014
       0.023
       0.020
       0.004
      -0.012
      -0.014
      -0.001
       0.017
       0.021
       0.010
      -0.003
      -0.005
       0.008
       0.024
       0.028
       0.016
      -0.004
      -0.018
      -0.015
       0.004
       0.022
       0.021
       0.003
      -0.014
      -0.015
       0.000
       0.018
       0.026
       0.014
      -0.012
      -0.033
      -0.033
      -0.011
       0.014
       0.027
       0.025
       0.017
       0.014
       0.015
       0.014
       0.009
       0.001
      -0.001
       0.004
       0.013
       0.017
       0.016
       0.014
       0.014
       0.015
       0.014
       0.012
       0.008
       0.003
       0.003
       0.006
       0.006
       0.000
      -0.004
       0.003
       0.020
       0.031
       0.027
       0.012
       0.001
       0.002
       0.012
       0.021
       0.019
       0.008
       0.000
       0.005
       0.018
       0.029
       0.027
       0.017
       0.007
       0.007
       0.014
       0.021
       0.018
       0.007
      -0.001
       0.000
       0.009
       0.017
       0.019
       0.016
       0.011
       0.008
       0.008
       0.010
       0.007
      -0.002
      -0.009
      -0.008
      -0.001
       0.006
       0.010
       0.013
       0.013
       0.005
      -0.008
      -0.019
      -0.020
      -0.010
       0.004
       0.014
       0.013
       0.001
      -0.009
      -0.010
      -0.004
       0.002
       0.000
      -0.006
      -0.010
      -0.007
       0.003
       0.008
      -0.001
      -0.015
      -0.016
       0.001
       0.018
       0.016
      -0.005
      -0.025
      -0.029
      -0.014
       0.008
       0.023
       0.019
      -0.001
      -0.015
      -0.007
       0.018
       0.035
       0.020
      -0.022
      -0.058
      -0.053
      -0.004
       0.050
       0.061
       0.017
      -0.037
      -0.048
      -0.009
       0.037
       0.041
       0.001
      -0.041
      -0.040
       0.006
       0.057
       0.066
       0.025
      -0.030
      -0.048
      -0.014
       0.042
       0.069
       0.040
      -0.023
      -0.060
      -0.035
       0.029
       0.069
       0.047
      -0.012
      -0.047
      -0.028
       0.020
       0.048
       0.031
      -0.010
      -0.035
      -0.024
       0.012
       0.043
       0.046
       0.019
      -0.018
      -0.037
      -0.021
       0.013
       0.027
       0.003
      -0.032
      -0.034
       0.006
       0.048
       0.053
       0.020
      -0.016
      -0.026
      -0.010
       0.009
       0.013
       0.002
      -0.011
      -0.011
       0.004
       0.022
       0.026
       0.014
      -0.006
      -0.015
      -0.004
       0.018
       0.028
       0.012
      -0.016
      -0.030
      -0.015
       0.013
       0.031
       0.028
       0.010
      -0.007
      -0.012
       0.001
       0.023
       0.037
       0.034
       0.023
       0.043
       0.151
       0.388
       0.720
       1.031
       1.203
       1.225
       1.186
       1.093
       0.678
      -0.501
      -2.576
      -4.855
      -5.972
      -4.872
      -1.895
       1.248
       2.864
       2.765
       2.239
       2.437
       2.975
       2.432
       0.242
      -2.282
      -3.118
      -1.669
       0.609
       1.770
       1.325
       0.414
       0.285
       0.961
       1.443
       0.940
      -0.343
      -1.507
      -1.854
      -1.447
      -0.868
      -0.547
      -0.369
       0.072
       0.891
       1.656
       1.715
       0.774
      -0.831
      -2.372
      -3.263
      -3.369
      -2.835
      -1.675
       0.303
       2.999
       5.517
       6.479
       5.141
       2.206
      -0.666
      -2.273
      -2.732
      -2.890
      -3.065
      -2.667
      -1.138
       1.018
       2.460
       2.264
       0.748
      -0.981
      -2.055
      -2.230
      -1.504
       0.132
       2.306
       3.908
       3.617
       1.129
      -2.181
      -4.107
      -3.404
      -0.863
       1.433
       1.962
       0.904
      -0.399
      -0.874
      -0.484
       0.202
       0.786
       1.224
       1.459
       1.217
       0.260
      -1.249
      -2.684
      -3.255
      -2.493
      -0.655
       1.276
       2.203
       1.795
       0.788
       0.225
       0.345
       0.420
      -0.186
      -1.034
      -1.010
       0.303
       1.991
       2.731
       2.130
       0.888
      -0.223
      -1.122
      -2.051
      -2.799
      -2.711
      -1.485
       0.283
       1.539
       1.698
       1.034
       0.211
      -0.409
      -0.849
      -1.064
      -0.731
       0.306
       1.532
       2.017
       1.315
      -0.020
      -0.970
      -1.093
      -0.887
      -1.074
      -1.640
      -1.770
      -0.741
       1.253
       3.231
       4.231
       3.844
       2.147
      -0.480
      -3.244
      -4.954
      -4.695
      -2.749
      -0.592
       0.428
       0.448
       0.841
       2.447
       4.315
       4.535
       2.330
      -0.974
      -3.165
      -3.173
      -1.772
      -0.444
       0.124
       0.355
       0.848
       1.462
       1.463
       0.478
      -0.922
      -1.691
      -1.303
      -0.192
       0.726
       0.805
      -0.015
      -1.312
      -2.335
      -2.210
      -0.502
       2.107
       3.927
       3.545
       1.214
      -1.257
      -2.241
      -1.794
      -1.235
      -1.371
      -1.577
      -0.791
       0.978
       2.561
       3.017
       2.616
       2.160
       1.648
       0.199
      -2.505
      -5.083
      -5.391
      -2.785
       0.865
       2.812
       2.079
       0.238
      -0.453
       0.610
       2.068
       2.359
       1.355
       0.159
      -0.349
      -0.370
      -0.656
      -1.506
      -2.444
      -2.661
      -1.618
       0.529
       2.726
       3.452
       1.989
      -0.529
      -1.849
      -0.881
       0.939
       1.122
      -0.940
      -3.013
      -2.424
       0.804
       3.751
       3.663
       0.829
      -1.933
      -2.413
      -1.147
      -0.339
      -1.096
      -2.215
      -1.723
       0.741
       3.383
       4.038
       2.301
      -0.158
      -1.287
      -0.574
       0.633
       0.619
      -0.942
      -2.675
      -2.901
      -1.300
       0.823
       1.846
       1.330
       0.200
      -0.349
       0.033
       0.720
       0.812
      -0.080
      -1.484
      -2.302
      -1.589
       0.537
       2.699
       3.337
       2.188
       0.533
      -0.267
      -0.289
      -0.744
      -2.188
      -3.515
      -3.127
      -0.846
       1.783
       3.121
       2.917
       1.957
       0.753
      -0.769
      -2.347
      -2.950
      -1.841
       0.230
       1.539
       1.223
       0.161
      -0.212
       0.398
       1.016
       0.772
      -0.137
      -0.946
      -1.297
      -1.334
      -1.046
      -0.096
       1.454
       2.606
       2.178
       0.225
      -1.655
      -1.821
      -0.312
       1.228
       1.369
       0.286
      -0.802
      -1.173
      -1.139
      -1.145
      -0.947
      -0.051
       1.324
       2.227
       2.029
       1.130
       0.327
      -0.275
      -1.282
      -2.839
      -3.885
      -3.063
      -0.368
       2.528
       3.807
       3.199
       1.945
       1.209
       0.872
       0.028
      -1.630
      -3.259
      -3.722
      -2.722
      -0.959
       0.633
       1.556
       1.790
       1.547
       1.141
       0.840
       0.583
      -0.038
      -1.236
      -2.438
      -2.550
      -1.095
       1.032
       2.273
       2.004
       1.196
       1.214
       2.033
       2.108
       0.293
      -2.374
      -3.394
      -1.550
       1.438
       2.528
       0.648
      -2.085
      -2.728
      -0.759
       1.477
       1.499
      -0.617
      -2.528
      -2.247
      -0.083
       1.940
       2.149
       0.571
      -1.369
      -2.135
      -1.184
       0.748
       2.261
       2.388
       1.324
       0.136
      -0.290
      -0.022
       0.168
      -0.304
      -1.216
      -1.718
      -1.059
       0.713
       2.560
       3.047
       1.478
      -1.329
      -3.542
      -3.824
      -2.433
      -0.757
       0.207
       0.719
       1.568
       2.718
       3.021
       1.441
      -1.540
      -3.978
      -4.041
      -1.520
       2.118
       4.941
       5.745
       4.438
       1.786
      -1.047
      -3.067
      -3.922
      -3.914
      -3.448
      -2.521
      -0.874
       1.391
       3.510
       4.519
       3.987
       2.238
      -0.060
      -2.337
      -4.082
      -4.626
      -3.401
      -0.668
       2.198
       3.523
       2.686
       0.633
      -1.033
      -1.481
      -1.128
      -0.799
      -0.673
      -0.266
       0.641
       1.407
       1.121
      -0.247
      -1.535
      -1.384
       0.412
       2.600
       3.510
       2.406
      -0.106
      -2.749
      -4.411
      -4.427
      -2.564
       0.781
       4.361
       6.560
       6.541
       4.893
       2.851
       0.876
      -1.607
      -4.827
      -7.426
      -7.280
      -3.841
       0.746
       3.330
       2.600
       0.044
      -1.875
      -2.161
      -1.754
      -1.877
      -2.419
      -2.142
      -0.232
       2.700
       5.144
       5.944
       4.998
       3.051
       1.090
      -0.179
      -0.646
      -0.740
      -0.933
      -1.181
      -0.993
      -0.184
       0.627
       0.633
       0.022
       0.068
       1.605
       3.537
       3.536
       0.544
      -3.727
      -6.294
      -5.820
      -3.659
      -1.951
      -1.228
      -0.378
       1.319
       2.874
       2.645
       0.281
      -2.866
      -5.120
      -5.799
      -5.107
      -3.377
      -0.967
       1.329
       2.566
       2.784
       3.448
       5.959
       9.437
      10.515
       6.221
      -2.502
     -10.482
     -12.172
      -6.302
       3.137
      10.388
      12.375
       9.991
       5.808
       1.261
      -3.728
      -8.967
     -12.676
     -12.488
      -7.727
      -0.510
       5.553
       7.816
       6.122
       2.403
      -0.915
      -2.365
      -1.859
      -0.217
       1.453
       2.050
       0.747
      -2.394
      -5.942
      -7.716
      -6.440
      -2.913
       0.678
       2.659
       3.018
       2.755
       2.524
       2.202
       1.613
       1.170
       1.509
       2.626
       3.665
       3.657
       2.403
       0.649
      -0.578
      -0.800
      -0.358
       0.111
       0.424
       0.971
       1.946
       2.609
       1.705
      -1.121
      -4.534
      -6.533
      -6.319
      -4.856
      -3.469
      -2.271
      -0.363
       2.569
       5.393
       6.466
       5.156
       2.245
      -0.938
      -3.491
      -5.187
      -6.198
      -6.718
      -6.613
      -5.267
      -2.009
       2.930
       7.897
      10.609
       9.854
       6.538
       2.960
       0.926
       0.440
       0.195
      -0.752
      -1.892
      -1.929
      -0.458
       1.282
       1.493
      -0.361
      -2.970
      -4.437
      -4.037
      -2.704
      -1.873
      -1.987
      -2.153
      -1.200
       1.029
       3.384
       4.330
       3.195
       0.694
      -1.582
      -2.278
      -1.165
       0.758
       2.007
       1.667
      -0.018
      -1.958
      -3.097
      -3.091
      -2.263
      -1.079
       0.186
       1.338
       2.052
       2.022
       1.360
       0.689
       0.680
       1.451
       2.444
       2.874
       2.291
       0.794
      -1.107
      -2.746
      -3.530
      -3.149
      -1.750
       0.057
       1.479
       2.027
       1.851
       1.551
       1.582
       1.785
       1.543
       0.445
      -1.215
      -2.623
      -3.125
      -2.741
      -2.052
      -1.574
      -1.254
      -0.569
       0.857
       2.695
       3.977
       3.778
       1.979
      -0.547
      -2.510
      -3.112
      -2.522
      -1.545
      -0.845
      -0.456
      -0.012
       0.659
       1.231
       1.173
       0.335
      -0.783
      -1.376
      -1.002
       0.006
       0.844
       0.995
       0.733
       0.794
       1.496
       2.247
       2.030
       0.483
      -1.549
      -2.610
      -1.874
       0.147
       2.067
       2.791
       2.259
       1.174
       0.164
      -0.701
      -1.615
      -2.436
      -2.554
      -1.460
       0.568
       2.391
       2.728
       1.112
      -1.696
      -4.187
      -5.086
      -4.072
      -1.774
       0.824
       2.944
       4.167
       4.274
       3.196
       1.215
      -0.909
      -2.257
      -2.362
      -1.520
      -0.440
       0.361
       0.822
       1.097
       1.225
       1.060
       0.435
      -0.666
      -1.974
      -2.903
      -2.719
      -1.029
       1.706
       4.175
       4.946
       3.457
       0.479
      -2.381
      -3.743
      -3.296
      -1.807
      -0.406
       0.259
       0.332
       0.388
       0.786
       1.328
       1.505
       1.056
       0.267
      -0.282
      -0.270
       0.092
       0.330
       0.216
      -0.017
       0.029
       0.421
       0.761
       0.593
      -0.066
      -0.696
      -0.825
      -0.553
      -0.391
      -0.591
      -0.772
      -0.335
       0.754
       1.761
       1.853
       0.942
      -0.233
      -0.889
      -0.942
      -0.905
      -1.136
      -1.366
      -1.076
      -0.211
       0.646
       0.846
       0.318
      -0.449
      -0.978
      -1.224
      -1.378
      -1.419
      -1.029
       0.008
       1.428
       2.590
       2.951
       2.383
       1.139
      -0.373
      -1.744
      -2.637
      -2.846
      -2.330
      -1.191
       0.335
       1.865
       2.926
       3.135
       2.444
       1.185
      -0.130
      -1.100
      -1.598
      -1.707
      -1.545
      -1.129
      -0.391
       0.633
       1.615
       1.977
       1.257
      -0.420
      -2.220
      -3.071
      -2.445
      -0.785
       0.828
       1.529
       1.272
       0.682
       0.392
       0.538
       0.798
       0.816
       0.503
       0.012
      -0.459
      -0.776
      -0.826
      -0.498
       0.229
       1.184
       2.053
       2.543
       2.508
       1.912
       0.792
      -0.668
      -2.018
      -2.681
      -2.385
      -1.467
      -0.649
      -0.413
      -0.646
      -0.887
      -0.844
      -0.570
      -0.214
       0.243
       0.891
       1.607
       1.980
       1.597
       0.436
      -1.026
      -2.081
      -2.235
      -1.503
      -0.384
       0.466
       0.661
       0.317
      -0.084
      -0.111
       0.278
       0.767
       1.035
       1.046
       0.991
       1.011
       1.041
       0.929
       0.628
       0.234
      -0.120
      -0.368
      -0.517
      -0.613
      -0.686
      -0.733
      -0.753
      -0.801
      -0.952
      -1.169
      -1.211
      -0.770
       0.204
       1.309
       1.903
       1.626
       0.759
       0.028
      -0.045
       0.378
       0.643
       0.302
      -0.398
      -0.769
      -0.422
       0.296
       0.616
       0.098
      -0.944
      -1.705
      -1.557
      -0.507
       0.863
       1.805
       1.830
       0.953
      -0.312
      -1.197
      -1.128
      -0.146
       1.061
       1.633
       1.212
       0.185
      -0.739
      -1.200
      -1.398
      -1.652
      -1.878
      -1.647
      -0.743
       0.477
       1.378
       1.647
       1.483
       1.224
       0.924
       0.404
      -0.343
      -0.973
      -1.097
      -0.701
      -0.202
      -0.063
      -0.386
      -0.838
      -0.950
      -0.497
       0.311
       0.957
       0.995
       0.404
      -0.377
      -0.802
      -0.662
      -0.192
       0.234
       0.464
       0.602
       0.726
       0.695
