Origin Time       3/10/2009 5:20:54	  UTC
Lat.              30.0°N	
Long.             79.9°E	
Depth (Km)         15.0
Magnitude         4.3
 Region           BAGESHWAR-UTTRAKHAND                                             
 Above details taken from IMD 
    
Station Code      KAP
Station Lat.       29.941  N
Station Long.      79.899  E
Station Height(m) 1066.0
Site Class        A   Vs30 between 700 m/sec to 1400 m/sec * 
Record Time       03.10.2009 05:20:45.114 UTC
Sampling Rate     200. Hz
 Record Duration   68.780 Sec.
 Direction         N-S (N positive)
Max. Acceleration     23.454 cm/sec**2
     
  * For reference see Site Classification link of website 
     
 Base Line Corrected and Low Pass Filtered (Cut Off at 35 Hz) Time History
 Acceleration data in cm/sec**2
    
[...]
       0.006
       0.009
       0.010
       0.009
       0.006
       0.003
      -0.002
      -0.008
      -0.010
      -0.007
       0.000
       0.003
       0.001
      -0.007
      -0.012
      -0.010
      -0.001
       0.010
       0.018
       0.020
       0.015
       0.006
      -0.004
      -0.011
      -0.012
      -0.008
       0.000
       0.007
       0.011
       0.010
       0.008
       0.005
       0.004
       0.003
       0.001
      -0.002
      -0.006
      -0.009
      -0.010
      -0.011
      -0.011
      -0.010
      -0.008
      -0.005
      -0.002
      -0.002
      -0.006
      -0.012
      -0.013
      -0.008
       0.002
       0.010
       0.011
       0.006
      -0.001
      -0.003
      -0.001
       0.003
       0.004
       0.000
      -0.005
      -0.006
      -0.003
       0.001
       0.003
       0.002
       0.001
       0.002
       0.006
       0.010
       0.012
       0.012
       0.010
       0.007
       0.002
      -0.001
       0.000
       0.004
       0.008
       0.008
       0.004
      -0.002
      -0.007
      -0.011
      -0.013
      -0.015
      -0.015
      -0.013
      -0.010
      -0.005
      -0.001
       0.001
       0.001
      -0.001
      -0.004
      -0.005
      -0.004
      -0.002
      -0.003
      -0.008
      -0.013
      -0.015
      -0.012
      -0.006
      -0.002
       0.000
      -0.001
      -0.003
      -0.003
      -0.001
       0.005
       0.012
       0.015
       0.011
       0.000
      -0.013
      -0.021
      -0.021
      -0.013
      -0.003
       0.002
       0.000
      -0.006
      -0.009
      -0.007
      -0.002
       0.001
       0.000
      -0.004
      -0.009
      -0.012
      -0.016
      -0.017
      -0.013
      -0.005
       0.005
       0.010
       0.009
       0.006
       0.005
       0.005
       0.005
       0.002
      -0.002
      -0.005
      -0.004
      -0.001
       0.002
       0.004
       0.003
       0.001
       0.001
       0.002
       0.006
       0.010
       0.013
       0.014
       0.013
       0.011
       0.008
       0.004
       0.002
      -0.001
      -0.003
      -0.002
       0.001
       0.004
       0.004
       0.003
       0.002
       0.006
       0.014
       0.020
       0.020
       0.015
       0.008
       0.003
      -0.001
      -0.006
      -0.010
      -0.011
      -0.008
      -0.001
       0.003
       0.003
       0.001
      -0.001
      -0.003
      -0.004
      -0.004
      -0.004
      -0.001
       0.004
       0.007
       0.007
       0.003
       0.000
       0.001
       0.004
       0.006
       0.004
      -0.002
      -0.009
      -0.014
      -0.012
      -0.005
       0.000
       0.000
      -0.005
      -0.009
      -0.009
      -0.005
      -0.001
       0.001
       0.002
       0.004
       0.004
       0.001
      -0.005
      -0.011
      -0.012
      -0.007
       0.000
       0.005
       0.004
       0.000
      -0.005
      -0.006
      -0.005
      -0.002
      -0.002
      -0.005
      -0.009
      -0.010
      -0.007
      -0.002
       0.003
       0.006
       0.006
       0.001
      -0.006
      -0.012
      -0.014
      -0.012
      -0.008
      -0.005
      -0.006
      -0.007
      -0.008
      -0.006
      -0.002
       0.003
       0.010
       0.019
       0.024
       0.022
       0.011
      -0.003
      -0.012
      -0.013
      -0.006
       0.003
       0.009
       0.011
       0.010
       0.007
       0.004
       0.000
      -0.004
      -0.006
      -0.006
      -0.004
      -0.004
      -0.006
      -0.010
      -0.014
      -0.013
      -0.008
      -0.001
       0.004
       0.006
       0.004
      -0.001
      -0.005
      -0.006
      -0.002
       0.004
       0.009
       0.010
       0.009
       0.007
       0.005
       0.002
      -0.006
      -0.016
      -0.019
      -0.007
       0.015
       0.032
       0.031
       0.012
      -0.006
      -0.008
       0.008
       0.025
       0.028
       0.017
       0.004
      -0.001
      -0.001
      -0.002
      -0.008
      -0.013
      -0.011
      -0.004
       0.003
       0.007
       0.011
       0.015
       0.018
       0.016
       0.012
       0.009
       0.006
       0.003
       0.000
      -0.002
       0.001
       0.007
       0.012
       0.014
       0.011
       0.007
       0.003
       0.001
       0.000
      -0.001
      -0.001
       0.000
       0.003
       0.006
       0.007
       0.008
       0.007
       0.005
       0.003
       0.003
       0.004
       0.007
       0.011
       0.013
       0.011
       0.002
      -0.008
      -0.013
      -0.011
      -0.006
      -0.005
      -0.013
      -0.024
      -0.028
      -0.020
      -0.006
       0.006
       0.010
       0.007
       0.001
      -0.006
      -0.011
      -0.011
      -0.006
       0.004
       0.010
       0.007
      -0.003
      -0.011
      -0.010
      -0.004
       0.000
      -0.001
      -0.004
      -0.005
      -0.003
       0.002
       0.003
       0.001
      -0.002
      -0.006
      -0.009
      -0.011
      -0.013
      -0.013
      -0.011
      -0.008
      -0.005
      -0.002
       0.003
       0.007
       0.008
       0.003
      -0.006
      -0.012
      -0.009
       0.003
       0.013
       0.015
       0.007
      -0.003
      -0.005
       0.002
       0.011
       0.011
       0.001
      -0.011
      -0.015
      -0.010
       0.000
       0.007
       0.007
       0.003
       0.000
      -0.002
      -0.004
      -0.008
      -0.009
      -0.007
      -0.001
       0.006
       0.008
       0.005
      -0.003
      -0.010
      -0.010
      -0.004
       0.004
       0.008
       0.007
       0.001
      -0.005
      -0.009
      -0.011
      -0.012
      -0.014
      -0.013
      -0.011
      -0.008
      -0.005
      -0.003
      -0.002
       0.000
       0.004
       0.008
       0.012
       0.013
       0.012
       0.011
       0.011
       0.008
       0.000
      -0.010
      -0.013
      -0.009
      -0.001
       0.002
      -0.003
      -0.011
      -0.013
      -0.008
      -0.001
       0.001
      -0.004
      -0.008
      -0.007
      -0.002
       0.003
       0.005
       0.004
       0.007
       0.013
       0.018
       0.016
       0.006
      -0.009
      -0.020
      -0.023
      -0.017
      -0.009
      -0.002
      -0.001
      -0.003
      -0.005
      -0.005
      -0.003
       0.000
       0.003
       0.003
      -0.001
      -0.005
      -0.004
       0.000
       0.003
       0.001
      -0.007
      -0.013
      -0.011
      -0.003
       0.003
       0.002
      -0.003
      -0.005
       0.000
       0.011
       0.017
       0.012
       0.000
      -0.011
      -0.011
      -0.001
       0.009
       0.008
      -0.003
      -0.013
      -0.012
      -0.002
       0.008
       0.009
       0.003
      -0.005
      -0.008
      -0.006
       0.001
       0.009
       0.013
       0.012
       0.008
       0.003
      -0.002
      -0.005
      -0.005
      -0.003
       0.000
       0.005
       0.009
       0.010
       0.007
       0.005
       0.006
       0.010
       0.012
       0.007
      -0.003
      -0.011
      -0.011
      -0.004
       0.005
       0.009
       0.006
       0.000
       0.000
       0.013
       0.031
       0.031
      -0.010
      -0.088
      -0.160
      -0.172
      -0.107
      -0.019
       0.001
      -0.093
      -0.255
      -0.369
      -0.346
      -0.188
       0.023
       0.186
       0.233
       0.154
      -0.015
      -0.215
      -0.392
      -0.513
      -0.545
      -0.464
      -0.300
      -0.145
      -0.081
      -0.100
      -0.138
      -0.185
      -0.275
      -0.362
      -0.290
       0.032
       0.477
       0.774
       0.727
       0.353
      -0.113
      -0.326
      -0.080
       0.449
       0.798
       0.680
       0.290
       0.044
       0.057
       0.047
      -0.250
      -0.720
      -0.979
      -0.735
       0.000
       0.945
       1.704
       1.925
       1.444
       0.341
      -1.038
      -2.105
      -2.216
      -1.090
       0.828
       2.541
       3.170
       2.527
       1.110
      -0.364
      -1.413
      -1.883
      -1.761
      -1.047
       0.118
       1.306
       1.944
       1.662
       0.494
      -1.192
      -2.827
      -3.740
      -3.355
      -1.548
       1.074
       3.336
       4.116
       3.032
       0.719
      -1.521
      -2.526
      -2.008
      -0.651
       0.509
       0.876
       0.574
       0.132
      -0.013
       0.189
       0.435
       0.334
      -0.258
      -1.083
      -1.666
      -1.665
      -1.071
      -0.127
       0.864
       1.634
       1.964
       1.712
       0.904
      -0.204
      -1.169
      -1.520
      -1.003
       0.204
       1.518
       2.277
       2.157
       1.308
       0.120
      -1.083
      -2.078
      -2.623
      -2.491
      -1.671
      -0.454
       0.732
       1.524
       1.683
       1.141
       0.102
      -0.938
      -1.397
      -0.969
       0.136
       1.285
       1.833
       1.582
       0.906
       0.406
       0.411
       0.748
       0.947
       0.655
      -0.089
      -0.907
      -1.383
      -1.389
      -1.184
      -1.184
      -1.559
      -2.008
      -1.980
      -1.170
       0.159
       1.333
       1.741
       1.260
       0.344
      -0.250
       0.012
       0.983
       1.853
       1.748
       0.483
      -1.218
      -2.279
      -2.121
      -1.054
       0.107
       0.756
       0.855
       0.691
       0.453
       0.124
      -0.288
      -0.576
      -0.501
      -0.094
       0.278
       0.196
      -0.412
      -1.082
      -1.083
      -0.034
       1.610
       2.747
       2.492
       0.970
      -0.761
      -1.620
      -1.386
      -0.735
      -0.514
      -0.998
      -1.755
      -2.101
      -1.659
      -0.585
       0.585
       1.263
       1.126
       0.306
      -0.631
      -0.971
      -0.322
       1.033
       2.246
       2.483
       1.529
      -0.065
      -1.373
      -1.715
      -1.035
       0.162
       1.220
       1.729
       1.660
       1.232
       0.700
       0.242
      -0.070
      -0.239
      -0.305
      -0.337
      -0.425
      -0.647
      -0.985
      -1.249
      -1.177
      -0.661
       0.078
       0.601
       0.574
       0.009
      -0.769
      -1.364
      -1.533
      -1.265
      -0.693
       0.038
       0.819
       1.529
       1.989
       2.028
       1.620
       0.950
       0.301
      -0.119
      -0.244
      -0.124
       0.120
       0.328
       0.365
       0.177
      -0.214
      -0.724
      -1.201
      -1.438
      -1.270
      -0.689
       0.127
       0.911
       1.413
       1.476
       1.091
       0.405
      -0.352
      -0.955
      -1.188
      -0.867
       0.003
       1.033
       1.534
       0.953
      -0.625
      -2.407
      -3.389
      -3.051
      -1.690
      -0.176
       0.639
       0.394
      -0.627
      -1.646
      -1.782
      -0.528
       1.855
       4.334
       5.626
       5.001
       2.838
       0.443
      -0.895
      -0.862
      -0.230
      -0.042
      -0.664
      -1.545
      -1.778
      -0.905
       0.697
       2.114
       2.552
       1.821
       0.345
      -1.208
      -2.315
      -2.733
      -2.462
      -1.694
      -0.724
       0.234
       1.073
       1.586
       1.412
       0.454
      -0.728
      -1.186
      -0.415
       1.036
       1.855
       1.011
      -1.298
      -3.640
      -4.367
      -2.885
      -0.186
       1.779
       1.522
      -0.769
      -3.256
      -3.831
      -1.811
       1.472
       3.739
       3.607
       1.664
      -0.129
      -0.146
       1.589
       3.579
       4.270
       3.365
       1.914
       1.176
       1.369
       1.497
       0.447
      -1.706
      -3.532
      -3.485
      -1.425
       1.091
       2.088
       0.837
      -1.667
      -3.720
      -4.316
      -3.634
      -2.481
      -1.489
      -0.803
      -0.249
       0.372
       1.087
       1.712
       2.000
       1.848
       1.367
       0.739
       0.014
      -0.920
      -2.129
      -3.289
      -3.594
      -2.261
       0.621
       3.722
       5.232
       4.264
       1.627
      -0.768
      -1.396
      -0.218
       1.473
       2.235
       1.557
      -0.004
      -1.504
      -2.273
      -2.049
      -0.858
       0.924
       2.437
       2.665
       1.225
      -1.146
      -3.026
      -3.404
      -2.500
      -1.572
      -1.810
      -3.224
      -4.507
      -4.116
      -1.722
       1.321
       3.016
       2.424
       0.447
      -1.063
      -1.024
      -0.044
       0.292
      -0.926
      -2.885
      -3.537
      -1.236
       3.839
       9.658
      13.776
      15.067
      14.310
      13.245
      13.066
      13.705
      14.282
      14.021
      12.711
      10.478
       7.373
       3.299
      -1.635
      -6.764
     -11.004
     -13.519
     -14.449
     -14.966
     -16.424
     -19.198
     -22.164
     -23.282
     -20.912
     -14.995
      -7.287
      -0.435
       3.525
       4.227
       2.923
       1.446
       0.970
       1.349
       1.344
      -0.419
      -4.291
      -8.957
     -11.899
     -10.888
      -5.583
       1.873
       7.824
       9.166
       5.226
      -1.858
      -8.513
     -11.821
     -10.833
      -6.374
       0.090
       7.343
      14.432
      20.242
      23.454
      23.141
      19.500
      13.961
       8.447
       4.281
       1.634
      -0.013
      -0.888
      -0.478
       1.829
       5.569
       8.710
       8.596
       3.836
      -4.324
     -12.387
     -16.739
     -16.010
     -11.815
      -7.246
      -4.406
      -3.106
      -1.757
       0.563
       2.887
       3.144
       0.144
      -5.148
     -10.192
     -12.657
     -11.790
      -8.418
      -4.038
      -0.020
       2.609
       3.159
       1.490
      -1.677
      -4.882
      -6.656
      -6.401
      -4.646
      -2.367
       0.002
       2.831
       6.535
      10.622
      13.697
      14.541
      13.202
      10.976
       9.318
       8.753
       8.795
       8.794
       8.770
       9.370
      10.991
      12.975
      13.829
      12.393
       8.854
       4.557
       0.842
      -1.902
      -4.071
      -5.991
      -7.442
      -8.057
      -7.968
      -7.858
      -8.305
      -9.197
      -9.923
     -10.164
     -10.396
     -11.492
     -13.729
     -16.220
     -17.468
     -16.641
     -14.342
     -12.057
     -10.754
     -10.006
      -8.533
      -5.609
      -1.907
       1.065
       2.347
       2.344
       2.321
       3.130
       4.439
       5.235
       5.037
       4.602
       5.358
       8.118
      12.308
      16.406
      19.089
      20.041
      19.826
      19.108
      17.976
      15.903
      12.349
       7.449
       2.172
      -2.200
      -4.829
      -5.675
      -5.267
      -4.244
      -3.078
      -2.079
      -1.515
      -1.670
      -2.786
      -4.864
      -7.452
      -9.649
     -10.516
      -9.699
      -7.770
      -5.931
      -5.206
      -5.735
      -6.682
      -6.841
      -5.510
      -3.054
      -0.775
      -0.111
      -1.618
      -4.455
      -6.841
      -7.208
      -5.233
      -1.959
       1.051
       2.842
       3.608
       4.314
       5.793
       8.053
      10.240
      11.225
      10.366
       7.935
       4.946
       2.500
       1.142
       0.695
       0.641
       0.653
       0.803
       1.327
       2.250
       3.227
       3.722
       3.361
       2.195
       0.635
      -0.872
      -2.169
      -3.431
      -4.888
      -6.485
      -7.784
      -8.214
      -7.464
      -5.712
      -3.521
      -1.493
       0.040
       1.044
       1.547
       1.437
       0.520
      -1.188
      -3.265
      -4.991
      -5.675
      -4.974
      -3.043
      -0.487
       1.921
       3.662
       4.732
       5.469
       6.086
       6.372
       5.857
       4.284
       1.915
      -0.617
      -2.717
      -4.104
      -4.751
      -4.664
      -3.823
      -2.395
      -0.920
      -0.125
      -0.383
      -1.323
      -2.026
      -1.696
      -0.248
       1.646
       3.049
       3.355
       2.609
       1.436
       0.709
       1.103
       2.738
       5.103
       7.342
       8.727
       8.968
       8.217
       6.832
       5.116
       3.184
       1.020
      -1.344
      -3.652
      -5.437
      -6.255
      -5.993
      -4.958
      -3.654
      -2.426
      -1.320
      -0.281
       0.521
       0.627
      -0.374
      -2.372
      -4.616
      -6.128
      -6.346
      -5.464
      -4.208
      -3.263
      -2.849
      -2.718
      -2.493
      -2.018
      -1.448
      -1.065
      -0.975
      -0.972
      -0.750
      -0.236
       0.307
       0.571
       0.527
       0.426
       0.487
       0.657
       0.695
       0.491
       0.275
       0.502
       1.509
       3.184
       4.906
       5.786
       5.160
       3.056
       0.298
      -1.882
      -2.538
      -1.530
       0.476
       2.506
       3.898
       4.631
       5.177
       6.009
       7.139
       8.045
       8.095
       7.082
       5.388
       3.654
       2.309
       1.398
       0.775
       0.369
       0.182
       0.073
      -0.319
      -1.338
      -2.996
      -4.919
      -6.639
      -7.933
      -8.869
      -9.553
      -9.903
      -9.703
      -8.820
      -7.313
      -5.401
      -3.417
      -1.796
      -0.972
      -1.113
      -1.901
      -2.633
      -2.680
      -1.922
      -0.754
       0.327
       1.175
       2.066
       3.345
       5.043
       6.827
       8.337
       9.498
      10.485
      11.373
      11.873
      11.443
       9.730
       6.971
       3.945
       1.456
      -0.201
      -1.271
      -2.045
      -2.430
      -2.121
      -1.183
      -0.359
      -0.649
      -2.523
      -5.500
      -8.437
     -10.240
     -10.454
      -9.412
      -7.925
      -6.702
      -5.879
      -4.992
      -3.452
      -1.100
       1.609
       3.876
       4.981
       4.615
       3.046
       1.084
      -0.309
      -0.669
      -0.423
      -0.530
      -1.608
      -3.350
      -4.789
      -5.116
      -4.277
      -2.894
      -1.715
      -1.091
      -0.842
      -0.509
       0.239
       1.343
       2.394
       2.929
       2.765
       2.104
       1.367
       0.918
       0.924
       1.401
       2.293
       3.435
       4.455
       4.805
       4.076
       2.374
       0.412
      -0.884
      -0.986
      -0.089
       1.078
       1.792
       1.768
       1.228
       0.629
       0.316
       0.348
       0.554
       0.704
       0.639
       0.290
      -0.332
      -1.128
      -1.885
      -2.346
      -2.394
      -2.209
      -2.239
      -2.903
      -4.225
      -5.678
      -6.428
      -5.843
      -3.948
      -1.461
       0.617
       1.594
       1.423
       0.590
      -0.309
      -0.892
      -1.037
      -0.752
      -0.083
       0.871
       1.921
       2.866
       3.635
       4.335
       5.095
       5.860
       6.372
       6.388
       5.880
       5.046
       4.157
       3.454
       3.127
       3.283
