Origin Time       27/8/2009 16:54:15  UTC
Lat.              30.0 N 
Long.             80.0 E 
Depth (Km)         14.0
Magnitude         3.9
 Region           UTTARAKHAND-INDIA                                                
 Above details taken from IMD 
    
Station Code      KAP
Station Lat.       29.941  N
Station Long.      79.899  E
Station Height(m) 1066.0
Site Class        A   Vs30 between 700 m/sec to 1400 m/sec * 
Record Time       27.08.2009 16:54:07.869 UTC
Sampling Rate     200. Hz
 Record Duration   70.045 Sec.
 Direction         N-S (N positive)
Max. Acceleration    -34.101 cm/sec**2
     
  * For reference see Site Classification link of website 
     
 Base Line Corrected and Low Pass Filtered (Cut Off at 35 Hz) Time History
 Acceleration data in cm/sec**2
    
[...]
      -0.008
      -0.006
      -0.004
      -0.003
      -0.004
      -0.005
      -0.006
      -0.005
      -0.002
       0.001
       0.001
      -0.004
      -0.011
      -0.016
      -0.017
      -0.013
      -0.008
      -0.005
      -0.005
      -0.008
      -0.013
      -0.017
      -0.017
      -0.015
      -0.011
      -0.009
      -0.011
      -0.017
      -0.021
      -0.021
      -0.017
      -0.011
      -0.010
      -0.015
      -0.020
      -0.019
      -0.012
      -0.002
       0.003
       0.001
      -0.005
      -0.011
      -0.013
      -0.010
      -0.003
       0.005
       0.008
       0.004
      -0.005
      -0.015
      -0.021
      -0.022
      -0.018
      -0.014
      -0.011
      -0.009
      -0.009
      -0.009
      -0.005
       0.000
       0.004
       0.002
      -0.005
      -0.012
      -0.013
      -0.009
      -0.003
      -0.001
      -0.004
      -0.011
      -0.016
      -0.016
      -0.014
      -0.010
      -0.009
      -0.011
      -0.014
      -0.016
      -0.019
      -0.022
      -0.024
      -0.026
      -0.025
      -0.021
      -0.018
      -0.014
      -0.011
      -0.006
      -0.001
       0.003
       0.000
      -0.008
      -0.019
      -0.025
      -0.021
      -0.011
      -0.001
       0.003
       0.000
      -0.006
      -0.008
      -0.007
      -0.006
      -0.006
      -0.009
      -0.012
      -0.012
      -0.010
      -0.006
      -0.001
       0.004
       0.009
       0.010
       0.006
      -0.001
      -0.008
      -0.011
      -0.008
      -0.004
      -0.004
      -0.008
      -0.012
      -0.012
      -0.009
      -0.006
      -0.006
      -0.010
      -0.015
      -0.017
      -0.016
      -0.014
      -0.014
      -0.016
      -0.017
      -0.016
      -0.012
      -0.005
       0.000
       0.002
       0.001
      -0.001
      -0.001
       0.001
       0.002
      -0.002
      -0.009
      -0.016
      -0.018
      -0.013
      -0.005
       0.002
       0.005
       0.005
       0.002
      -0.002
      -0.005
      -0.008
      -0.011
      -0.014
      -0.015
      -0.015
      -0.013
      -0.009
      -0.004
      -0.001
      -0.001
      -0.007
      -0.016
      -0.021
      -0.021
      -0.014
      -0.006
      -0.002
      -0.003
      -0.007
      -0.009
      -0.009
      -0.011
      -0.014
      -0.017
      -0.015
      -0.006
       0.004
       0.007
       0.003
      -0.006
      -0.010
      -0.007
       0.000
       0.006
       0.006
       0.002
      -0.003
      -0.007
      -0.010
      -0.012
      -0.014
      -0.015
      -0.014
      -0.010
      -0.008
      -0.007
      -0.007
      -0.006
      -0.004
      -0.002
      -0.002
      -0.003
      -0.004
      -0.003
      -0.002
      -0.002
      -0.004
      -0.009
      -0.014
      -0.013
      -0.007
       0.001
       0.004
       0.001
      -0.005
      -0.009
      -0.011
      -0.012
      -0.014
      -0.015
      -0.011
      -0.004
       0.001
       0.001
      -0.005
      -0.010
      -0.012
      -0.010
      -0.009
      -0.009
      -0.008
      -0.005
      -0.002
       0.000
      -0.001
      -0.003
      -0.004
      -0.003
      -0.001
       0.001
       0.003
       0.005
       0.008
       0.010
       0.011
       0.011
       0.008
       0.004
      -0.002
      -0.008
      -0.014
      -0.020
      -0.023
      -0.023
      -0.020
      -0.014
      -0.009
      -0.005
      -0.003
      -0.002
      -0.002
      -0.004
      -0.007
      -0.009
      -0.009
      -0.009
      -0.010
      -0.011
      -0.012
      -0.009
      -0.003
       0.002
       0.005
       0.004
       0.001
      -0.002
      -0.004
      -0.003
       0.000
       0.004
       0.007
       0.007
       0.006
       0.004
       0.002
       0.001
       0.001
       0.000
       0.000
       0.000
       0.001
       0.001
      -0.001
      -0.005
      -0.009
      -0.009
      -0.006
      -0.003
      -0.002
      -0.007
      -0.015
      -0.022
      -0.024
      -0.020
      -0.013
      -0.003
       0.005
       0.009
       0.007
       0.000
      -0.008
      -0.013
      -0.013
      -0.010
      -0.008
      -0.009
      -0.009
      -0.007
      -0.002
       0.004
       0.004
      -0.002
      -0.011
      -0.016
      -0.016
      -0.013
      -0.013
      -0.015
      -0.019
      -0.018
      -0.013
      -0.004
       0.002
       0.001
      -0.007
      -0.016
      -0.020
      -0.016
      -0.008
      -0.002
      -0.001
      -0.003
      -0.003
       0.001
       0.006
       0.009
       0.008
       0.004
      -0.002
      -0.006
      -0.008
      -0.006
      -0.001
       0.003
       0.004
       0.004
       0.004
       0.003
       0.002
       0.001
      -0.001
      -0.001
       0.000
       0.000
      -0.004
      -0.011
      -0.016
      -0.014
      -0.007
       0.000
       0.002
      -0.002
      -0.006
      -0.006
      -0.003
      -0.003
      -0.008
      -0.013
      -0.015
      -0.012
      -0.006
       0.000
       0.004
       0.006
       0.006
       0.003
      -0.001
      -0.006
      -0.010
      -0.011
      -0.010
      -0.008
      -0.006
      -0.004
      -0.002
       0.001
       0.002
       0.000
      -0.004
      -0.008
      -0.011
      -0.011
      -0.010
      -0.007
      -0.004
      -0.003
      -0.005
      -0.008
      -0.009
      -0.004
       0.003
       0.006
       0.003
      -0.005
      -0.011
      -0.013
      -0.012
      -0.013
      -0.015
      -0.012
      -0.005
       0.002
       0.005
       0.003
      -0.002
      -0.005
      -0.007
      -0.009
      -0.010
      -0.010
      -0.007
      -0.005
      -0.004
      -0.003
      -0.001
       0.001
       0.001
      -0.001
      -0.003
      -0.004
      -0.003
      -0.003
      -0.005
      -0.007
      -0.006
      -0.002
       0.002
       0.003
       0.000
      -0.004
      -0.007
      -0.007
      -0.006
      -0.005
      -0.004
      -0.004
      -0.003
      -0.003
      -0.002
      -0.002
      -0.003
      -0.005
      -0.007
      -0.008
      -0.007
      -0.005
      -0.003
      -0.003
      -0.004
      -0.005
      -0.003
      -0.001
      -0.003
      -0.009
      -0.016
      -0.018
      -0.013
      -0.004
       0.005
       0.007
       0.001
      -0.006
      -0.010
      -0.007
      -0.001
      -0.001
      -0.013
      -0.034
      -0.058
      -0.077
      -0.093
      -0.118
      -0.168
      -0.251
      -0.358
      -0.454
      -0.492
      -0.411
      -0.158
       0.281
       0.846
       1.377
       1.628
       1.345
       0.406
      -1.024
      -2.477
      -3.374
      -3.373
      -2.599
      -1.491
      -0.366
       0.872
       2.517
       4.516
       6.162
       6.428
       4.724
       1.421
      -2.300
      -5.137
      -6.339
      -5.906
      -4.286
      -1.959
       0.711
       3.305
       5.202
       5.796
       4.930
       3.090
       1.042
      -0.774
      -2.464
      -4.238
      -5.795
      -6.217
      -4.624
      -1.033
       3.311
       6.500
       7.076
       4.949
       1.439
      -1.595
      -2.949
      -2.712
      -1.926
      -1.591
      -1.902
      -2.272
      -2.025
      -1.059
       0.097
       0.790
       0.803
       0.424
       0.041
      -0.236
      -0.528
      -0.811
      -0.731
       0.099
       1.602
       3.077
       3.596
       2.668
       0.617
      -1.587
      -2.953
      -3.081
      -2.336
      -1.454
      -0.891
      -0.457
       0.458
       2.244
       4.579
       6.495
       6.927
       5.332
       1.979
      -2.158
      -5.806
      -7.899
      -7.952
      -6.161
      -3.221
      -0.019
       2.634
       4.164
       4.361
       3.448
       1.973
       0.497
      -0.718
      -1.735
      -2.629
      -3.195
      -3.007
      -1.841
       0.003
       1.824
       2.996
       3.389
       3.382
       3.474
       3.788
       3.898
       3.153
       1.265
      -1.333
      -3.719
      -5.137
      -5.486
      -5.186
      -4.622
      -3.784
      -2.490
      -0.847
       0.622
       1.378
       1.375
       1.137
       1.328
       2.169
       3.218
       3.702
       3.129
       1.670
      -0.012
      -1.282
      -1.926
      -2.087
      -1.922
      -1.415
      -0.543
       0.459
       1.121
       1.074
       0.365
      -0.563
      -1.208
      -1.370
      -1.228
      -1.072
      -0.937
      -0.504
       0.572
       2.187
       3.687
       4.306
       3.764
       2.483
       1.246
       0.612
       0.563
       0.632
       0.346
      -0.396
      -1.295
      -1.953
      -2.217
      -2.250
      -2.340
      -2.634
      -3.047
      -3.362
      -3.402
      -3.132
      -2.655
      -2.145
      -1.706
      -1.229
      -0.370
       1.227
       3.541
       5.938
       7.387
       7.085
       5.073
       2.298
      -0.011
      -1.167
      -1.385
      -1.377
      -1.570
      -1.714
      -1.224
       0.093
       1.627
       2.302
       1.395
      -0.820
      -3.146
      -4.273
      -3.713
      -2.151
      -0.860
      -0.627
      -1.136
      -1.345
      -0.505
       1.164
       2.700
       3.241
       2.680
       1.609
       0.724
       0.290
       0.097
      -0.134
      -0.363
      -0.272
       0.297
       1.015
       1.228
       0.499
      -0.961
      -2.372
      -2.934
      -2.396
      -1.225
      -0.253
      -0.041
      -0.430
      -0.650
       0.028
       1.613
       3.282
       3.949
       3.059
       0.986
      -1.255
      -2.720
      -3.081
      -2.642
      -1.933
      -1.311
      -0.834
      -0.360
       0.304
       1.244
       2.273
       2.913
       2.663
       1.421
      -0.323
      -1.728
      -2.144
      -1.504
      -0.304
       0.786
       1.348
       1.416
       1.340
       1.448
       1.763
       1.990
       1.801
       1.101
       0.055
      -1.099
      -2.167
      -2.933
      -3.089
      -2.360
      -0.804
       0.998
       2.138
       1.937
       0.471
      -1.414
      -2.703
      -2.953
      -2.532
      -2.136
      -2.062
      -1.929
      -1.074
       0.739
       2.962
       4.542
       4.625
       3.141
       0.846
      -1.155
      -2.034
      -1.610
      -0.322
       1.083
       1.968
       2.112
       1.760
       1.341
       1.076
       0.794
       0.148
      -0.967
      -2.205
      -2.995
      -2.984
      -2.318
      -1.527
      -1.115
      -1.186
      -1.389
      -1.223
      -0.454
       0.698
       1.722
       2.186
       1.996
       1.379
       0.688
       0.232
       0.203
       0.661
       1.503
       2.430
       2.979
       2.732
       1.602
      -0.073
      -1.756
      -3.042
      -3.772
      -3.907
      -3.419
      -2.355
      -0.975
       0.267
       0.935
       0.866
       0.265
      -0.398
      -0.613
      -0.087
       1.068
       2.342
       3.069
       2.780
       1.459
      -0.440
      -2.215
      -3.238
      -3.180
      -2.087
      -0.344
       1.423
       2.570
       2.734
       2.043
       1.008
       0.146
      -0.361
      -0.697
      -1.134
      -1.708
      -2.134
      -2.033
      -1.241
       0.089
       1.643
       3.133
       4.283
       4.738
       4.160
       2.538
       0.365
      -1.565
      -2.656
      -2.863
      -2.611
      -2.366
      -2.282
      -2.186
      -1.874
      -1.383
      -0.978
      -0.892
      -1.076
      -1.208
      -0.928
      -0.095
       1.143
       2.447
       3.449
       3.869
       3.602
       2.748
       1.533
       0.191
      -1.101
      -2.154
      -2.713
      -2.532
      -1.580
      -0.170
       1.158
       1.959
       2.139
       1.928
       1.574
       1.060
       0.116
      -1.439
      -3.345
      -4.893
      -5.283
      -4.103
      -1.655
       1.047
       2.704
       2.475
       0.629
      -1.468
      -2.224
      -0.984
       1.465
       3.504
       3.904
       2.658
       0.807
      -0.471
      -0.689
      -0.138
       0.632
       1.316
       1.851
       2.091
       1.712
       0.554
      -1.022
      -2.273
      -2.653
      -2.220
      -1.476
      -0.854
      -0.382
       0.223
       1.174
       2.312
       3.073
       2.783
       1.152
      -1.337
      -3.523
      -4.221
      -3.007
      -0.531
       1.901
       3.179
       3.015
       1.944
       0.825
       0.240
       0.172
       0.112
      -0.532
      -1.956
      -3.752
      -5.124
      -5.393
      -4.408
      -2.577
      -0.551
       1.129
       2.176
       2.523
       2.250
       1.552
       0.671
      -0.195
      -0.918
      -1.352
      -1.264
      -0.439
       1.095
       2.923
       4.359
       4.784
       3.996
       2.327
       0.462
      -0.927
      -1.481
      -1.224
      -0.440
       0.511
       1.322
       1.783
       1.739
       1.065
      -0.294
      -2.213
      -4.297
      -5.912
      -6.428
      -5.595
      -3.769
      -1.686
       0.115
       1.724
       3.635
       5.957
       7.832
       7.779
       4.848
      -0.357
      -5.673
      -8.474
      -7.095
      -1.628
       6.356
      14.789
      21.960
      26.691
      28.025
      25.108
      17.689
       6.778
      -5.410
     -16.437
     -24.779
     -30.206
     -33.219
     -34.101
     -32.370
     -27.106
     -17.921
      -5.837
       6.584
      16.061
      19.961
      17.456
       9.776
      -0.554
     -10.885
     -19.250
     -24.438
     -25.630
     -22.283
     -14.528
      -3.660
       8.026
      18.178
      25.396
      29.420
      30.460
      28.483
      23.310
      15.439
       6.665
      -0.422
      -3.930
      -3.922
      -2.248
      -0.959
      -0.668
      -0.288
       1.655
       5.390
       9.411
      11.510
      10.342
       6.220
       0.665
      -4.645
      -8.548
     -10.370
      -9.705
      -6.643
      -2.313
       1.037
       0.973
      -3.573
     -11.299
     -18.952
     -23.032
     -21.665
     -15.477
      -7.018
       0.794
       6.146
       8.807
       9.504
       8.939
       7.340
       4.748
       1.512
      -1.638
      -3.932
      -4.874
      -4.195
      -1.714
       2.502
       7.727
      12.408
      14.641
      13.129
       8.029
       1.048
      -5.376
      -9.366
     -10.566
     -10.058
      -9.294
      -8.879
      -8.212
      -6.207
      -2.387
       2.627
       7.525
      11.134
      12.948
      13.110
      12.049
      10.104
       7.380
       3.889
      -0.118
      -3.917
      -6.456
      -6.855
      -4.929
      -1.282
       3.117
       7.474
      11.332
      14.250
      15.454
      14.018
       9.536
       2.672
      -4.996
     -11.728
     -16.355
     -18.507
     -18.390
     -16.510
     -13.555
     -10.379
      -7.904
      -6.846
      -7.393
      -9.054
     -10.858
     -11.872
     -11.673
     -10.444
      -8.628
      -6.477
      -3.905
      -0.723
       3.048
       7.082
      10.939
      14.266
      16.850
      18.495
      18.929
      17.909
      15.476
      12.171
       8.952
       6.790
       6.142
       6.690
       7.554
       7.831
       7.073
       5.428
       3.434
       1.688
       0.550
       0.029
      -0.158
      -0.372
      -0.855
      -1.682
      -2.830
      -4.211
      -5.643
      -6.869
      -7.738
      -8.399
      -9.242
     -10.559
     -12.206
     -13.628
     -14.252
     -13.918
     -13.007
     -12.185
     -11.968
     -12.371
     -12.840
     -12.506
     -10.666
      -7.197
      -2.645
       2.062
       6.087
       9.050
      11.080
      12.581
      13.885
      15.050
      15.910
      16.268
      16.074
      15.428
      14.465
      13.255
      11.806
      10.081
       8.004
       5.459
       2.389
      -1.053
      -4.387
      -6.847
      -7.659
      -6.475
      -3.726
      -0.569
       1.660
       2.199
       1.274
      -0.185
      -1.310
      -1.911
      -2.460
      -3.506
      -5.117
      -6.803
      -7.913
      -8.100
      -7.473
      -6.437
      -5.418
      -4.684
      -4.348
      -4.453
      -5.031
      -6.056
      -7.327
      -8.440
      -8.920
      -8.417
      -6.812
      -4.195
      -0.835
       2.797
       6.054
       8.356
       9.504
       9.776
       9.671
       9.528
       9.385
       9.147
       8.809
       8.482
       8.219
       7.858
       7.055
       5.496
       3.143
       0.327
      -2.388
      -4.478
      -5.683
      -6.036
      -5.707
      -4.836
      -3.523
      -1.970
      -0.573
       0.199
       0.103
      -0.655
      -1.505
      -1.883
      -1.565
      -0.739
       0.213
       0.991
       1.484
       1.705
       1.665
       1.336
       0.721
      -0.062
      -0.771
      -1.145
      -1.074
      -0.718
      -0.437
      -0.548
      -1.084
      -1.776
      -2.309
      -2.638
      -3.068
      -3.994
      -5.486
      -7.056
      -7.857
      -7.216
      -5.118
      -2.248
       0.440
       2.279
       3.122
       3.165
       2.654
       1.773
       0.749
      -0.076
      -0.349
       0.104
       1.185
       2.620
       4.080
       5.247
       5.852
       5.752
       5.046
       4.067
       3.212
       2.714
       2.547
       2.512
       2.427
       2.242
       2.036
       1.925
       1.963
       2.087
       2.138
       1.953
       1.459
       0.700
      -0.230
      -1.261
      -2.345
      -3.399
      -4.251
      -4.702
      -4.663
      -4.281
      -3.901
      -3.840
      -4.134
      -4.498
      -4.544
      -4.103
      -3.351
      -2.669
      -2.344
      -2.396
      -2.617
      -2.758
      -2.673
      -2.351
      -1.862
      -1.272
      -0.568
       0.362
       1.673
       3.428
       5.464
       7.377
       8.663
       8.929
       8.054
       6.235
       3.914
       1.634
      -0.134
      -1.141
      -1.419
      -1.196
      -0.760
      -0.332
      -0.032
       0.105
       0.101
      -0.005
      -0.183
      -0.417
      -0.667
      -0.820
      -0.698
      -0.159
       0.747
       1.712
       2.268
       2.027
       0.920
      -0.738
      -2.404
      -3.596
      -4.118
      -4.072
      -3.675
      -3.057
      -2.191
      -1.018
       0.360
       1.609
       2.299
       2.155
       1.229
      -0.114
      -1.379
      -2.189
      -2.448
      -2.340
      -2.167
      -2.110
      -2.105
      -1.924
      -1.419
      -0.713
      -0.156
      -0.063
      -0.450
      -1.008
      -1.310
      -1.075
      -0.274
       0.941
       2.359
       3.748
       4.838
       5.346
       5.101
       4.184
       2.931
       1.742
       0.855
       0.285
      -0.033
      -0.066
       0.309
       1.134
       2.189
       3.031
       3.230
       2.613
       1.348
      -0.188
      -1.601
      -2.584
      -2.929
      -2.532
      -1.487
      -0.150
       0.932
       1.282
       0.741
      -0.471
      -1.914
      -3.167
      -3.995
      -4.382
      -4.458
      -4.389
