Origin Time       29/08/2013 10:13:21
Lat.              31.4 N	
Long.             76.1 E	
Depth (Km)         10.0
Magnitude         4.7
 Region           HIMACHAL-PUNJAB-(HOSHIARPUR)-BORDER                              
 Above details taken from IMD 
   
Station Code      KAP
Station Lat.       31.380
Station Long.      75.383
Station Height(m)  223.0
Site Class        C   Vs30 between 200 m/sec to 375 m/sec *  
Record Time       29.08.2013 10:13:17.949
Sampling Rate     200. Hz
 Record Duration   81.360 Sec.
 Direction         Vert. (Up positive)
Max. Acceleration     -5.346 cm/sec**2
     
  * For reference see Site Classification link of website 
     
 Base Line Corrected and Low Pass Filtered (Cut Off at 35 Hz) Time History
 Acceleration data in cm/sec**2
    
[...]
      -1.037
      -0.964
      -0.504
       0.252
       0.861
       0.818
      -0.025
      -1.288
      -2.291
      -2.472
      -1.700
      -0.286
       1.250
       2.489
       3.270
       3.595
       3.421
       2.617
       1.170
      -0.571
      -1.957
      -2.402
      -1.757
      -0.418
       0.895
       1.512
       1.160
       0.087
      -1.120
      -1.909
      -2.045
      -1.640
      -0.962
      -0.239
       0.409
       0.912
       1.161
       1.005
       0.368
      -0.620
      -1.614
      -2.186
      -2.036
      -1.144
       0.203
       1.513
       2.323
       2.433
       1.985
       1.300
       0.649
       0.179
      -0.024
       0.108
       0.539
       1.043
       1.290
       1.068
       0.482
      -0.083
      -0.248
       0.015
       0.325
       0.208
      -0.461
      -1.350
      -1.988
      -2.152
      -1.956
      -1.618
      -1.227
      -0.740
      -0.129
       0.490
       0.894
       0.906
       0.555
       0.051
      -0.366
      -0.569
      -0.519
      -0.216
       0.269
       0.740
       0.964
       0.839
       0.471
       0.038
      -0.375
      -0.786
      -1.188
      -1.458
      -1.424
      -1.016
      -0.357
       0.285
       0.665
       0.699
       0.480
       0.175
      -0.094
      -0.276
      -0.367
      -0.393
      -0.383
      -0.300
      -0.020
       0.574
       1.435
       2.315
       2.901
       2.966
       2.446
       1.451
       0.253
      -0.794
      -1.390
      -1.433
      -1.043
      -0.490
      -0.073
      -0.004
      -0.324
      -0.913
      -1.581
      -2.149
      -2.452
      -2.342
      -1.763
      -0.848
       0.118
       0.881
       1.378
       1.721
       2.021
       2.241
       2.215
       1.820
       1.171
       0.617
       0.487
       0.799
       1.230
       1.400
       1.218
       0.925
       0.812
       0.883
       0.811
       0.239
      -0.837
      -1.968
      -2.558
      -2.344
      -1.630
      -1.039
      -0.991
      -1.386
      -1.767
      -1.764
      -1.412
      -1.058
      -0.984
      -1.106
      -1.046
      -0.498
       0.441
       1.285
       1.508
       0.912
      -0.232
      -1.354
      -1.922
      -1.746
      -1.073
      -0.404
      -0.123
      -0.229
      -0.403
      -0.355
      -0.098
       0.125
       0.164
       0.170
       0.468
       1.209
       2.142
       2.767
       2.727
       2.099
       1.328
       0.863
       0.851
       1.106
       1.320
       1.263
       0.876
       0.255
      -0.382
      -0.782
      -0.794
      -0.505
      -0.206
      -0.182
      -0.491
      -0.928
      -1.208
      -1.178
      -0.890
      -0.473
       0.015
       0.591
       1.216
       1.674
       1.668
       1.073
       0.094
      -0.863
      -1.492
      -1.787
      -1.928
      -2.021
      -1.960
      -1.531
      -0.648
       0.506
       1.561
       2.179
       2.242
       1.877
       1.326
       0.804
       0.436
       0.274
       0.295
       0.409
       0.461
       0.303
      -0.131
      -0.764
      -1.401
      -1.853
      -2.073
      -2.172
      -2.296
      -2.478
      -2.624
      -2.630
      -2.494
      -2.305
      -2.147
      -2.022
      -1.838
      -1.465
      -0.823
       0.049
       1.015
       1.951
       2.803
       3.519
       3.954
       3.890
       3.203
       2.011
       0.688
      -0.268
      -0.460
       0.198
       1.405
       2.641
       3.456
       3.651
       3.258
       2.418
       1.336
       0.275
      -0.504
      -0.860
      -0.835
      -0.607
      -0.405
      -0.421
      -0.746
      -1.332
      -2.005
      -2.543
      -2.744
      -2.487
      -1.802
      -0.892
      -0.019
       0.651
       1.099
       1.342
       1.345
       1.062
       0.577
       0.120
      -0.059
       0.123
       0.508
       0.786
       0.706
       0.250
      -0.374
      -0.922
      -1.303
      -1.582
      -1.817
      -1.931
      -1.749
      -1.146
      -0.193
       0.826
       1.545
       1.740
       1.470
       0.985
       0.498
       0.054
      -0.408
      -0.904
      -1.331
      -1.526
      -1.356
      -0.817
      -0.065
       0.629
       1.031
       1.091
       0.952
       0.795
       0.687
       0.572
       0.386
       0.179
       0.100
       0.246
       0.531
       0.732
       0.699
       0.523
       0.416
       0.439
       0.367
      -0.101
      -1.007
      -2.005
      -2.585
      -2.464
      -1.802
      -1.063
      -0.652
      -0.631
      -0.747
      -0.726
      -0.519
      -0.292
      -0.221
      -0.320
      -0.442
      -0.400
      -0.103
       0.375
       0.824
       1.064
       1.105
       1.141
       1.346
       1.672
       1.850
       1.594
       0.855
      -0.089
      -0.790
      -0.937
      -0.591
      -0.151
      -0.052
      -0.441
      -1.085
      -1.574
      -1.622
      -1.235
      -0.640
      -0.069
       0.417
       0.907
       1.439
       1.857
       1.892
       1.420
       0.640
      -0.026
      -0.234
       0.040
       0.512
       0.834
       0.849
       0.677
       0.565
       0.652
       0.850
       0.933
       0.743
       0.324
      -0.118
      -0.375
      -0.392
      -0.334
      -0.479
      -1.004
      -1.806
      -2.518
      -2.755
      -2.392
      -1.646
      -0.890
      -0.376
      -0.115
       0.021
       0.129
       0.207
       0.241
       0.286
       0.437
       0.719
       1.017
       1.172
       1.134
       1.008
       0.931
       0.918
       0.835
       0.531
      -0.028
      -0.716
      -1.310
      -1.559
      -1.303
      -0.600
       0.229
       0.756
       0.726
       0.214
      -0.467
      -1.017
      -1.321
      -1.448
      -1.515
      -1.567
      -1.546
      -1.344
      -0.890
      -0.216
       0.544
       1.175
       1.457
       1.289
       0.794
       0.286
       0.049
       0.128
       0.346
       0.531
       0.689
       0.961
       1.410
       1.885
       2.085
       1.773
       0.987
       0.082
      -0.479
      -0.439
       0.079
       0.714
       1.149
       1.273
       1.115
       0.705
       0.056
      -0.728
      -1.381
      -1.549
      -1.012
       0.106
       1.322
       2.040
       1.907
       1.003
      -0.261
      -1.385
      -1.997
      -1.975
      -1.485
      -0.891
      -0.517
      -0.431
      -0.434
      -0.301
      -0.025
       0.143
      -0.086
      -0.744
      -1.495
      -1.851
      -1.579
      -0.918
      -0.371
      -0.260
      -0.474
      -0.647
      -0.536
      -0.215
       0.037
      -0.011
      -0.380
      -0.893
      -1.297
      -1.404
      -1.151
      -0.596
       0.116
       0.772
       1.145
       1.106
       0.725
       0.274
       0.066
       0.258
       0.729
       1.151
       1.214
       0.857
       0.330
      -0.027
      -0.085
      -0.031
      -0.131
      -0.389
      -0.448
       0.124
       1.412
       2.968
       4.058
       4.184
       3.439
       2.393
       1.594
       1.143
       0.720
       0.015
      -0.896
      -1.576
      -1.662
      -1.258
      -0.934
      -1.250
      -2.236
      -3.295
      -3.679
      -3.128
      -2.074
      -1.217
      -0.885
      -0.802
      -0.466
       0.269
       0.973
       1.005
       0.130
      -1.173
      -1.987
      -1.601
      -0.039
       1.941
       3.337
       3.526
       2.582
       1.138
      -0.068
      -0.629
      -0.611
      -0.364
      -0.180
      -0.098
       0.010
       0.214
       0.392
       0.357
       0.078
      -0.246
      -0.342
      -0.086
       0.429
       0.994
       1.412
       1.518
       1.173
       0.318
      -0.915
      -2.181
      -3.064
      -3.292
      -2.873
      -2.048
      -1.130
      -0.357
       0.161
       0.418
       0.498
       0.563
       0.788
       1.253
       1.854
       2.347
       2.476
       2.109
       1.308
       0.307
      -0.596
      -1.187
      -1.423
      -1.381
      -1.136
      -0.673
       0.054
       0.997
       1.919
       2.460
       2.324
       1.499
       0.321
      -0.693
      -1.156
      -1.041
      -0.666
      -0.470
      -0.715
      -1.300
      -1.818
      -1.874
      -1.443
      -0.940
      -0.885
      -1.435
      -2.208
      -2.556
      -2.044
      -0.766
       0.733
       1.858
       2.365
       2.457
       2.498
       2.639
       2.740
       2.634
       2.372
       2.157
       2.056
       1.842
       1.172
      -0.069
      -1.571
      -2.734
      -3.038
      -2.402
      -1.260
      -0.292
      -0.017
      -0.513
      -1.430
      -2.227
      -2.506
      -2.224
      -1.665
      -1.149
      -0.744
      -0.254
       0.474
       1.260
       1.649
       1.301
       0.343
      -0.641
      -1.025
      -0.620
       0.175
       0.714
       0.662
       0.279
       0.145
       0.599
       1.426
       2.042
       1.966
       1.176
       0.079
      -0.807
      -1.203
      -1.168
      -0.918
      -0.553
       0.009
       0.831
       1.713
       2.197
       1.879
       0.755
      -0.690
      -1.761
      -1.997
      -1.464
      -0.646
      -0.044
       0.165
       0.122
       0.023
      -0.091
      -0.286
      -0.544
      -0.661
      -0.371
       0.413
       1.459
       2.313
       2.590
       2.215
       1.423
       0.526
      -0.295
      -0.989
      -1.475
      -1.576
      -1.163
      -0.381
       0.333
       0.529
       0.130
      -0.449
      -0.629
      -0.179
       0.573
       1.061
       1.008
       0.631
       0.341
       0.277
       0.183
      -0.269
      -1.057
      -1.758
      -1.910
      -1.441
      -0.729
      -0.247
      -0.157
      -0.225
      -0.105
       0.304
       0.772
       0.967
       0.748
       0.293
      -0.049
      -0.018
       0.346
       0.694
       0.587
      -0.157
      -1.243
      -2.026
      -1.946
      -0.955
       0.438
       1.554
       2.022
       1.942
       1.629
       1.218
       0.529
      -0.654
      -2.169
      -3.351
      -3.432
      -2.179
      -0.192
       1.451
       1.956
       1.344
       0.320
      -0.397
      -0.646
      -0.799
      -1.221
      -1.786
      -1.966
      -1.398
      -0.329
       0.553
       0.726
       0.260
      -0.322
      -0.535
      -0.256
       0.336
       1.002
       1.569
       1.923
       1.976
       1.700
       1.154
       0.450
      -0.306
      -0.990
      -1.364
      -1.076
       0.100
       1.919
       3.625
       4.371
       3.811
       2.328
       0.686
      -0.559
      -1.358
      -1.976
      -2.563
      -2.924
      -2.683
      -1.702
      -0.358
       0.629
       0.707
      -0.090
      -1.197
      -1.956
      -2.031
      -1.504
      -0.680
       0.187
       1.028
       1.870
       2.619
       2.940
       2.441
       1.052
      -0.750
      -2.156
      -2.528
      -1.799
      -0.487
       0.648
       1.061
       0.702
      -0.059
      -0.760
      -1.156
      -1.255
      -1.123
      -0.725
      -0.001
       0.940
       1.756
       2.052
       1.654
       0.759
      -0.198
      -0.839
      -1.064
      -1.008
      -0.826
      -0.561
      -0.206
       0.166
       0.392
       0.334
      -0.033
      -0.635
      -1.323
      -1.869
      -2.013
      -1.601
      -0.718
       0.335
       1.223
       1.783
       2.083
       2.294
       2.515
       2.704
       2.750
       2.585
       2.217
       1.682
       1.018
       0.298
      -0.361
      -0.862
      -1.192
      -1.407
      -1.557
      -1.655
      -1.722
      -1.820
      -1.995
      -2.195
      -2.267
      -2.053
      -1.522
      -0.842
      -0.308
      -0.153
      -0.381
      -0.763
      -1.006
      -0.922
      -0.488
       0.207
       1.015
       1.764
       2.290
       2.491
       2.394
       2.127
       1.819
       1.481
       1.010
       0.334
      -0.434
      -0.994
      -1.085
      -0.736
      -0.309
      -0.225
      -0.606
      -1.162
      -1.428
      -1.136
      -0.384
       0.492
       1.176
       1.513
       1.450
       0.958
       0.071
      -1.001
      -1.863
      -2.144
      -1.743
      -0.892
       0.023
       0.688
       0.948
       0.764
       0.184
      -0.609
      -1.283
      -1.494
      -1.128
      -0.407
       0.267
       0.622
       0.674
       0.615
       0.590
       0.612
       0.658
       0.766
       1.002
       1.350
       1.670
       1.765
       1.499
       0.850
      -0.069
      -0.994
      -1.561
      -1.466
      -0.674
       0.512
       1.611
       2.216
       2.167
       1.554
       0.601
      -0.478
      -1.558
      -2.549
      -3.253
      -3.337
      -2.530
      -0.940
       0.841
       2.017
       2.078
       1.128
      -0.198
      -1.157
      -1.370
      -0.988
      -0.460
      -0.115
       0.062
       0.279
       0.637
       0.993
       1.111
       0.887
       0.429
      -0.015
      -0.200
       0.008
       0.542
       1.122
       1.385
       1.107
       0.381
      -0.427
      -0.928
      -0.974
      -0.694
      -0.283
       0.231
       0.959
       1.860
       2.537
       2.395
       1.088
      -1.141
      -3.513
      -5.108
      -5.346
      -4.246
      -2.360
      -0.431
       0.982
       1.670
       1.708
       1.289
       0.629
      -0.087
      -0.719
      -1.174
      -1.373
      -1.260
      -0.867
      -0.351
       0.095
       0.400
       0.690
       1.183
       2.001
       3.025
       3.884
       4.116
       3.460
       2.080
       0.515
      -0.652
      -1.140
      -1.057
      -0.736
      -0.490
      -0.469
      -0.668
      -1.023
      -1.491
      -2.025
      -2.490
      -2.659
      -2.374
      -1.716
      -0.982
      -0.472
      -0.284
      -0.297
      -0.289
      -0.067
       0.448
       1.177
       1.900
       2.342
       2.316
       1.848
       1.190
       0.704
       0.657
       1.053
       1.630
       2.028
       1.984
       1.438
       0.531
      -0.457
      -1.244
      -1.672
      -1.757
      -1.596
      -1.262
      -0.817
      -0.380
      -0.117
      -0.124
      -0.347
      -0.628
      -0.812
      -0.828
      -0.718
      -0.630
      -0.757
      -1.187
      -1.770
      -2.155
      -2.006
      -1.256
      -0.185
       0.762
       1.281
       1.413
       1.451
       1.616
       1.835
       1.844
       1.512
       1.034
       0.771
       0.924
       1.341
       1.634
       1.479
       0.844
       0.008
      -0.633
      -0.820
      -0.587
      -0.201
       0.023
      -0.063
      -0.369
      -0.662
      -0.774
      -0.750
      -0.786
      -0.996
      -1.253
      -1.287
      -0.951
      -0.380
       0.096
       0.202
      -0.099
      -0.582
      -0.905
      -0.822
      -0.337
       0.314
       0.827
       1.017
       0.874
       0.483
      -0.053
      -0.627
      -1.088
      -1.255
      -0.995
      -0.332
       0.496
       1.122
       1.264
       0.931
       0.455
       0.289
       0.712
       1.629
       2.603
       3.088
       2.757
       1.702
       0.371
      -0.742
      -1.392
      -1.641
      -1.676
      -1.632
      -1.565
      -1.537
      -1.625
      -1.842
      -2.081
      -2.175
      -2.027
      -1.671
      -1.220
      -0.777
      -0.395
      -0.095
       0.104
       0.191
       0.218
       0.298
       0.524
       0.860
       1.137
       1.159
       0.843
       0.287
      -0.265
      -0.545
      -0.405
       0.106
       0.791
       1.448
       1.980
       2.379
       2.630
       2.652
       2.377
       1.885
       1.434
       1.298
       1.531
       1.878
       1.941
       1.483
       0.607
      -0.356
      -1.125
      -1.648
      -2.052
      -2.442
      -2.764
      -2.838
      -2.522
      -1.886
      -1.256
      -1.051
      -1.490
      -2.413
      -3.366
      -3.880
      -3.717
      -2.920
      -1.714
      -0.357
       0.940
       2.001
       2.646
       2.733
       2.295
       1.637
       1.228
       1.398
       2.109
       3.007
       3.680
       3.887
       3.604
       2.932
       1.996
       0.909
      -0.176
      -1.040
      -1.451
      -1.310
      -0.770
      -0.204
      -0.023
      -0.461
      -1.441
      -2.584
      -3.380
      -3.460
      -2.810
      -1.733
      -0.611
       0.323
       1.021
       1.487
       1.637
       1.303
       0.419
      -0.746
      -1.607
      -1.653
      -0.910
       0.038
       0.558
       0.521
       0.315
       0.356
       0.661
       0.908
       0.819
       0.428
      -0.005
      -0.284
      -0.434
      -0.630
      -0.972
      -1.387
      -1.712
      -1.808
      -1.571
      -0.894
       0.231
       1.524
       2.449
       2.586
       2.012
       1.266
       0.887
       0.978
       1.203
       1.149
       0.688
       0.033
      -0.478
      -0.670
      -0.612
      -0.473
      -0.304
      -0.024
       0.413
       0.858
       1.024
       0.716
       0.003
      -0.807
      -1.392
      -1.662
      -1.790
      -1.983
      -2.194
      -2.115
      -1.478
      -0.385
       0.707
       1.324
       1.311
       0.897
       0.503
       0.452
       0.775
       1.234
       1.556
       1.653
       1.628
       1.580
       1.430
       0.974
       0.116
      -0.934
      -1.675
      -1.606
      -0.651
       0.645
       1.396
       1.004
      -0.395
      -2.052
      -3.195
      -3.524
      -3.255
      -2.750
      -2.154
      -1.366
      -0.324
       0.727
       1.306
       1.082
       0.195
      -0.813
      -1.383
      -1.276
      -0.618
       0.269
       1.073
       1.602
       1.800
       1.707
       1.372
       0.816
       0.082
      -0.681
      -1.222
      -1.302
      -0.850
      -0.032
       0.839
       1.488
       1.827
       1.936
       1.925
       1.825
       1.606
       1.265
       0.859
       0.471
       0.181
       0.050
       0.106
       0.313
       0.570
       0.742
       0.702
       0.369
      -0.214
      -0.844
      -1.240
      -1.246
      -0.950
      -0.603
      -0.417
      -0.424
      -0.529
      -0.643
      -0.766
      -0.941
      -1.138
      -1.195
      -0.894
      -0.189
       0.648
       1.145
       0.964
       0.163
      -0.831
      -1.505
      -1.550
      -1.002
      -0.171
       0.552
       0.920
       0.929
       0.745
       0.530
       0.342
       0.183
       0.117
       0.289
       0.800
       1.543
       2.173
       2.276
       1.663
       0.539
      -0.591
      -1.245
      -1.275
      -0.938
      -0.670
      -0.744
      -1.062
      -1.237
      -0.946
      -0.265
       0.309
       0.225
      -0.636
      -1.793
      -2.490
      -2.245
      -1.188
       0.068
       0.883
       0.984
       0.533
      -0.119
      -0.696
      -1.056
      -1.087
      -0.673
       0.170
       1.180
       1.957
