Origin Time       29/08/2013 10:13:21
Lat.              31.4 N	
Long.             76.1 E	
Depth (Km)         10.0
Magnitude         4.7
 Region           HIMACHAL-PUNJAB-(HOSHIARPUR)-BORDER                              
 Above details taken from IMD 
     
Station Code      KAP
Station Lat.       31.380  N
Station Long.      75.383  E
Station Height(m)  223.0
Site Class        C   Vs30 between 200 m/sec to 375 m/sec *  
Record Time       29.08.2013 10:13:17.949
Sampling Rate     200. Hz
 Record Duration   81.360 Sec.
 Direction         E-W (E positive)
Max. Acceleration     10.783 cm/sec**2
     
  * For reference see Site Classification link of website 
     
 Base Line Corrected and Low Pass Filtered (Cut Off at 35 Hz) Time History
 Acceleration data in cm/sec**2
    
[...]
       0.040
       0.100
       0.138
       0.160
       0.173
       0.180
       0.178
       0.150
       0.084
      -0.009
      -0.090
      -0.121
      -0.091
      -0.026
       0.026
       0.025
      -0.041
      -0.152
      -0.266
      -0.332
      -0.319
      -0.226
      -0.081
       0.076
       0.211
       0.302
       0.343
       0.341
       0.300
       0.221
       0.104
      -0.033
      -0.148
      -0.193
      -0.151
      -0.047
       0.057
       0.102
       0.057
      -0.060
      -0.198
      -0.301
      -0.340
      -0.320
      -0.256
      -0.160
      -0.048
       0.048
       0.093
       0.074
       0.020
      -0.020
      -0.016
       0.031
       0.086
       0.112
       0.093
       0.048
       0.012
       0.011
       0.051
       0.117
       0.189
       0.248
       0.282
       0.292
       0.281
       0.242
       0.165
       0.052
      -0.070
      -0.161
      -0.192
      -0.169
      -0.129
      -0.105
      -0.102
      -0.102
      -0.085
      -0.052
      -0.013
       0.026
       0.064
       0.094
       0.097
       0.067
       0.015
      -0.036
      -0.074
      -0.100
      -0.116
      -0.122
      -0.116
      -0.098
      -0.068
      -0.027
       0.027
       0.100
       0.197
       0.306
       0.399
       0.444
       0.427
       0.355
       0.247
       0.123
       0.005
      -0.088
      -0.146
      -0.163
      -0.137
      -0.077
      -0.007
       0.035
       0.026
      -0.032
      -0.117
      -0.212
      -0.314
      -0.429
      -0.554
      -0.651
      -0.672
      -0.593
      -0.451
      -0.324
      -0.275
      -0.311
      -0.391
      -0.463
      -0.485
      -0.440
      -0.340
      -0.212
      -0.074
       0.076
       0.238
       0.402
       0.546
       0.657
       0.732
       0.770
       0.773
       0.737
       0.658
       0.526
       0.343
       0.149
       0.006
      -0.037
       0.027
       0.165
       0.321
       0.438
       0.476
       0.431
       0.325
       0.180
       0.008
      -0.175
      -0.331
      -0.421
      -0.426
      -0.366
      -0.286
      -0.241
      -0.271
      -0.371
      -0.490
      -0.563
      -0.558
      -0.485
      -0.377
      -0.260
      -0.148
      -0.047
       0.031
       0.077
       0.091
       0.090
       0.102
       0.138
       0.194
       0.255
       0.308
       0.343
       0.349
       0.331
       0.298
       0.253
       0.185
       0.091
      -0.013
      -0.100
      -0.159
      -0.196
      -0.220
      -0.238
      -0.256
      -0.271
      -0.265
      -0.220
      -0.149
      -0.090
      -0.078
      -0.117
      -0.186
      -0.249
      -0.261
      -0.181
      -0.006
       0.218
       0.423
       0.558
       0.605
       0.570
       0.470
       0.331
       0.187
       0.070
       0.005
      -0.004
       0.024
       0.049
       0.038
      -0.015
      -0.084
      -0.129
      -0.126
      -0.085
      -0.044
      -0.030
      -0.039
      -0.049
      -0.051
      -0.056
      -0.077
      -0.107
      -0.124
      -0.112
      -0.072
      -0.023
       0.003
      -0.020
      -0.085
      -0.155
      -0.198
      -0.212
      -0.209
      -0.192
      -0.150
      -0.070
       0.047
       0.179
       0.290
       0.335
       0.285
       0.152
      -0.013
      -0.152
      -0.214
      -0.180
      -0.067
       0.076
       0.197
       0.264
       0.269
       0.218
       0.127
       0.023
      -0.067
      -0.128
      -0.162
      -0.171
      -0.160
      -0.143
      -0.126
      -0.099
      -0.045
       0.036
       0.117
       0.168
       0.176
       0.147
       0.100
       0.061
       0.060
       0.108
       0.190
       0.278
       0.334
       0.321
       0.213
       0.010
      -0.242
      -0.473
      -0.617
      -0.638
      -0.541
      -0.375
      -0.198
      -0.051
       0.066
       0.168
       0.263
       0.332
       0.339
       0.257
       0.091
      -0.104
      -0.252
      -0.294
      -0.222
      -0.067
       0.121
       0.289
       0.390
       0.405
       0.342
       0.235
       0.119
       0.030
      -0.009
      -0.001
       0.025
       0.041
       0.039
       0.014
      -0.054
      -0.182
      -0.342
      -0.461
      -0.469
      -0.345
      -0.130
       0.099
       0.263
       0.316
       0.272
       0.181
       0.092
       0.021
      -0.035
      -0.079
      -0.103
      -0.095
      -0.050
       0.014
       0.064
       0.075
       0.062
       0.062
       0.092
       0.116
       0.085
      -0.017
      -0.157
      -0.271
      -0.306
      -0.252
      -0.151
      -0.059
       0.000
       0.053
       0.125
       0.198
       0.219
       0.160
       0.048
      -0.054
      -0.089
      -0.040
       0.073
       0.206
       0.324
       0.411
       0.448
       0.399
       0.235
      -0.024
      -0.302
      -0.515
      -0.613
      -0.599
      -0.506
      -0.378
      -0.245
      -0.116
       0.000
       0.083
       0.115
       0.103
       0.083
       0.088
       0.125
       0.179
       0.227
       0.237
       0.193
       0.110
       0.021
      -0.056
      -0.134
      -0.222
      -0.308
      -0.367
      -0.386
      -0.365
      -0.308
      -0.227
      -0.149
      -0.099
      -0.074
      -0.052
      -0.017
       0.038
       0.128
       0.267
       0.445
       0.612
       0.720
       0.749
       0.714
       0.632
       0.518
       0.373
       0.195
      -0.007
      -0.192
      -0.295
      -0.274
      -0.136
       0.061
       0.242
       0.344
       0.335
       0.224
       0.047
      -0.145
      -0.307
      -0.389
      -0.365
      -0.252
      -0.118
      -0.031
      -0.017
      -0.062
      -0.151
      -0.280
      -0.441
      -0.604
      -0.722
      -0.754
      -0.682
      -0.529
      -0.344
      -0.175
      -0.034
       0.100
       0.242
       0.365
       0.413
       0.343
       0.178
       0.006
      -0.074
      -0.033
       0.071
       0.150
       0.171
       0.179
       0.233
       0.342
       0.449
       0.477
       0.390
       0.224
       0.070
       0.008
       0.050
       0.155
       0.276
       0.399
       0.508
       0.566
       0.528
       0.383
       0.178
      -0.020
      -0.158
      -0.225
      -0.263
      -0.330
      -0.445
      -0.551
      -0.559
      -0.436
      -0.254
      -0.140
      -0.180
      -0.362
      -0.590
      -0.748
      -0.763
      -0.639
      -0.418
      -0.145
       0.140
       0.385
       0.520
       0.501
       0.348
       0.140
      -0.034
      -0.113
      -0.078
       0.050
       0.228
       0.421
       0.605
       0.759
       0.838
       0.786
       0.577
       0.246
      -0.114
      -0.391
      -0.510
      -0.474
      -0.353
      -0.226
      -0.127
      -0.048
       0.016
       0.037
      -0.014
      -0.133
      -0.276
      -0.383
      -0.411
      -0.338
      -0.178
       0.024
       0.199
       0.284
       0.245
       0.101
      -0.076
      -0.193
      -0.197
      -0.107
       0.001
       0.055
       0.043
       0.019
       0.062
       0.197
       0.362
       0.443
       0.372
       0.190
       0.018
      -0.037
       0.037
       0.170
       0.268
       0.286
       0.245
       0.200
       0.177
       0.145
       0.061
      -0.067
      -0.178
      -0.215
      -0.175
      -0.108
      -0.061
      -0.049
      -0.058
      -0.078
      -0.118
      -0.206
      -0.355
      -0.533
      -0.660
      -0.668
      -0.541
      -0.333
      -0.120
       0.032
       0.090
       0.062
      -0.011
      -0.074
      -0.094
      -0.068
      -0.015
       0.048
       0.107
       0.158
       0.204
       0.253
       0.306
       0.355
       0.392
       0.409
       0.397
       0.343
       0.247
       0.120
      -0.016
      -0.134
      -0.200
      -0.177
      -0.063
       0.092
       0.206
       0.225
       0.150
       0.030
      -0.084
      -0.159
      -0.194
      -0.194
      -0.155
      -0.054
       0.114
       0.306
       0.435
       0.420
       0.240
      -0.049
      -0.334
      -0.500
      -0.492
      -0.349
      -0.174
      -0.063
      -0.049
      -0.113
      -0.205
      -0.279
      -0.302
      -0.267
      -0.193
      -0.111
      -0.053
      -0.037
      -0.067
      -0.115
      -0.132
      -0.079
       0.049
       0.228
       0.428
       0.619
       0.764
       0.823
       0.782
       0.656
       0.480
       0.286
       0.102
      -0.057
      -0.183
      -0.280
      -0.358
      -0.428
      -0.507
      -0.596
      -0.678
      -0.726
      -0.735
      -0.731
      -0.735
      -0.737
      -0.711
      -0.639
      -0.522
      -0.368
      -0.185
       0.024
       0.267
       0.549
       0.849
       1.103
       1.235
       1.205
       1.028
       0.765
       0.486
       0.250
       0.088
       0.004
      -0.011
       0.029
       0.104
       0.169
       0.180
       0.118
       0.007
      -0.110
      -0.198
      -0.246
      -0.267
      -0.283
      -0.303
      -0.302
      -0.244
      -0.112
       0.067
       0.238
       0.339
       0.324
       0.187
      -0.022
      -0.211
      -0.299
      -0.264
      -0.131
       0.056
       0.250
       0.406
       0.484
       0.480
       0.419
       0.336
       0.247
       0.156
       0.064
      -0.019
      -0.085
      -0.128
      -0.158
      -0.194
      -0.246
      -0.320
      -0.423
      -0.570
      -0.758
      -0.942
      -1.035
      -0.968
      -0.732
      -0.379
       0.001
       0.328
       0.549
       0.651
       0.646
       0.558
       0.412
       0.245
       0.103
       0.013
      -0.036
      -0.083
      -0.162
      -0.271
      -0.374
      -0.425
      -0.400
      -0.328
      -0.271
      -0.269
      -0.294
      -0.278
      -0.172
       0.014
       0.237
       0.462
       0.679
       0.884
       1.054
       1.140
       1.085
       0.875
       0.557
       0.221
      -0.057
      -0.251
      -0.380
      -0.478
      -0.578
      -0.695
      -0.806
      -0.853
      -0.785
      -0.600
      -0.351
      -0.115
       0.047
       0.113
       0.095
       0.033
      -0.037
      -0.096
      -0.137
      -0.157
      -0.143
      -0.076
       0.061
       0.264
       0.485
       0.626
       0.589
       0.354
       0.007
      -0.306
      -0.461
      -0.418
      -0.222
       0.031
       0.250
       0.387
       0.450
       0.466
       0.457
       0.422
       0.348
       0.229
       0.068
      -0.108
      -0.260
      -0.348
      -0.347
      -0.257
      -0.107
       0.050
       0.149
       0.156
       0.087
      -0.005
      -0.073
      -0.101
      -0.107
      -0.121
      -0.155
      -0.188
      -0.186
      -0.133
      -0.053
       0.007
       0.019
      -0.008
      -0.046
      -0.065
      -0.056
      -0.033
      -0.030
      -0.072
      -0.138
      -0.162
      -0.089
       0.076
       0.268
       0.414
       0.478
       0.473
       0.444
       0.420
       0.395
       0.335
       0.219
       0.070
      -0.057
      -0.123
      -0.137
      -0.147
      -0.193
      -0.281
      -0.368
      -0.398
      -0.350
      -0.263
      -0.212
      -0.240
      -0.313
      -0.352
      -0.306
      -0.195
      -0.086
      -0.025
       0.007
       0.077
       0.221
       0.395
       0.496
       0.447
       0.261
       0.029
      -0.151
      -0.231
      -0.224
      -0.172
      -0.115
      -0.072
      -0.028
       0.043
       0.148
       0.264
       0.349
       0.375
       0.345
       0.280
       0.200
       0.107
      -0.015
      -0.177
      -0.361
      -0.525
      -0.622
      -0.625
      -0.525
      -0.336
      -0.091
       0.160
       0.376
       0.540
       0.656
       0.725
       0.734
       0.684
       0.600
       0.521
       0.468
       0.416
       0.303
       0.070
      -0.279
      -0.664
      -0.970
      -1.119
      -1.113
      -1.014
      -0.887
      -0.765
      -0.651
      -0.537
      -0.430
      -0.363
      -0.376
      -0.478
      -0.613
      -0.681
      -0.595
      -0.344
      -0.008
       0.269
       0.366
       0.250
       0.004
      -0.232
      -0.350
      -0.324
      -0.196
      -0.032
       0.116
       0.217
       0.264
       0.259
       0.220
       0.182
       0.199
       0.317
       0.534
       0.789
       1.003
       1.127
       1.168
       1.169
       1.180
       1.219
       1.264
       1.264
       1.182
       1.023
       0.823
       0.614
       0.407
       0.197
      -0.020
      -0.229
      -0.388
      -0.434
      -0.322
      -0.077
       0.195
       0.352
       0.295
       0.018
      -0.393
      -0.803
      -1.098
      -1.243
      -1.298
      -1.374
      -1.549
      -1.823
      -2.123
      -2.376
      -2.570
      -2.757
      -3.002
      -3.313
      -3.627
      -3.847
      -3.908
      -3.817
      -3.636
      -3.440
      -3.265
      -3.090
      -2.863
      -2.537
      -2.096
      -1.544
      -0.883
      -0.099
       0.808
       1.798
       2.797
       3.742
       4.619
       5.463
       6.312
       7.175
       8.024
       8.820
       9.530
      10.124
      10.558
      10.783
      10.769
      10.531
      10.099
       9.474
       8.618
       7.493
       6.116
       4.580
       3.015
       1.538
       0.201
      -1.026
      -2.221
      -3.448
      -4.704
      -5.924
      -7.027
      -7.973
      -8.766
      -9.429
      -9.971
     -10.366
     -10.568
     -10.550
     -10.311
      -9.862
      -9.192
      -8.280
      -7.143
      -5.875
      -4.624
      -3.510
      -2.580
      -1.804
      -1.127
      -0.500
       0.106
       0.718
       1.367
       2.094
       2.914
       3.785
       4.597
       5.206
       5.486
       5.394
       4.989
       4.426
       3.884
       3.486
       3.255
       3.133
       3.033
       2.869
       2.574
       2.117
       1.520
       0.857
       0.238
      -0.236
      -0.511
      -0.605
      -0.598
      -0.585
      -0.630
      -0.745
      -0.904
      -1.067
      -1.200
      -1.303
      -1.419
      -1.613
      -1.911
      -2.263
      -2.573
      -2.754
      -2.778
      -2.670
      -2.482
      -2.254
      -1.990
      -1.659
      -1.226
      -0.688
      -0.092
       0.498
       1.032
       1.492
       1.878
       2.194
       2.440
       2.625
       2.774
       2.923
       3.089
       3.232
       3.259
       3.068
       2.605
       1.897
       1.046
       0.188
      -0.553
      -1.118
      -1.503
      -1.741
      -1.861
      -1.894
      -1.880
      -1.867
      -1.882
      -1.918
      -1.928
      -1.833
      -1.558
      -1.089
      -0.512
       0.019
       0.376
       0.542
       0.618
       0.753
       1.039
       1.456
       1.867
       2.108
       2.085
       1.833
       1.482
       1.151
       0.877
       0.612
       0.293
      -0.084
      -0.437
      -0.655
      -0.689
      -0.596
      -0.491
      -0.464
      -0.525
      -0.627
      -0.727
      -0.824
      -0.952
      -1.141
      -1.357
      -1.497
      -1.436
      -1.112
      -0.583
       0.002
       0.489
       0.795
       0.932
       0.969
       0.965
       0.922
       0.795
       0.547
       0.189
      -0.219
      -0.607
      -0.932
      -1.181
      -1.353
      -1.457
      -1.527
      -1.625
      -1.830
      -2.182
      -2.628
      -3.031
      -3.244
      -3.187
      -2.871
      -2.341
      -1.626
      -0.757
       0.181
       1.044
       1.682
       2.024
       2.114
       2.083
       2.069
       2.145
       2.313
       2.549
       2.847
       3.222
       3.665
       4.126
       4.529
       4.815
       4.966
       4.988
       4.894
       4.686
       4.355
       3.901
       3.361
       2.805
       2.298
       1.855
       1.436
       0.982
       0.444
      -0.200
      -0.959
      -1.821
      -2.745
      -3.664
      -4.494
      -5.147
      -5.549
      -5.657
      -5.474
      -5.056
      -4.493
      -3.889
      -3.335
      -2.889
      -2.556
      -2.302
      -2.076
      -1.841
      -1.591
      -1.354
      -1.154
      -0.986
      -0.806
      -0.563
      -0.241
       0.113
       0.409
       0.566
       0.559
       0.439
       0.310
       0.263
       0.321
       0.424
       0.491
       0.473
       0.385
       0.275
       0.174
       0.070
      -0.085
      -0.322
      -0.602
      -0.817
      -0.847
      -0.644
      -0.272
       0.126
       0.421
       0.569
       0.625
       0.682
       0.793
       0.936
       1.057
       1.147
       1.276
       1.530
       1.923
       2.353
       2.667
       2.754
       2.611
       2.317
       1.965
       1.607
       1.240
       0.854
       0.483
       0.209
       0.118
       0.230
       0.474
       0.725
       0.874
       0.875
       0.744
       0.508
       0.176
      -0.268
      -0.819
      -1.423
      -1.982
      -2.385
      -2.566
      -2.531
      -2.369
      -2.203
      -2.130
      -2.171
      -2.280
      -2.385
      -2.427
      -2.363
      -2.156
      -1.774
      -1.223
      -0.562
       0.101
       0.661
       1.063
       1.339
       1.574
       1.826
       2.069
       2.205
       2.134
       1.826
       1.331
       0.753
       0.214
      -0.165
      -0.293
      -0.141
       0.246
       0.755
       1.248
       1.618
       1.830
       1.917
       1.941
       1.941
       1.933
       1.910
       1.850
       1.709
       1.439
       1.015
       0.457
      -0.188
      -0.853
      -1.455
      -1.905
      -2.141
      -2.175
      -2.087
      -1.987
      -1.940
      -1.949
      -1.967
      -1.955
      -1.908
      -1.847
      -1.779
      -1.678
      -1.506
      -1.231
      -0.849
      -0.382
       0.109
       0.540
       0.835
       0.976
       1.012
       1.029
       1.090
       1.211
       1.360
       1.487
       1.549
       1.524
       1.410
       1.213
       0.963
       0.719
       0.546
       0.471
       0.459
       0.448
       0.389
       0.268
       0.084
      -0.166
      -0.466
      -0.768
      -0.991
      -1.057
      -0.927
      -0.636
      -0.279
       0.042
       0.273
       0.423
       0.535
       0.638
       0.737
       0.825
       0.896
       0.939
       0.926
       0.819
       0.595
       0.283
      -0.028
      -0.233
      -0.280
      -0.220
      -0.170
      -0.230
      -0.418
      -0.676
      -0.927
      -1.135
      -1.308
      -1.455
      -1.550
      -1.546
      -1.425
      -1.227
      -1.032
      -0.904
      -0.857
      -0.862
      -0.877
      -0.877
      -0.859
      -0.829
      -0.788
      -0.714
      -0.580
      -0.388
      -0.189
      -0.059
      -0.040
      -0.106
      -0.181
      -0.202
      -0.152
      -0.058
       0.049
       0.174
       0.366
       0.678
       1.115
