Origin Time       14/03/2010 6:53:21	 UTC
Lat.              31.7 N	
Long.             76.1 E	
Depth (Km)         29.0
Magnitude         4.6
 Region           HIMACHAL-PUNJAB-(HOSHIARPUR)-BORDER                              
 Above details taken from IMD 
    
Station Code      KAP
Station Lat.       31.380  N
Station Long.      75.383  E
Station Height(m)  223.0
Site Class        C   Vs30 between 200 m/sec to 375 m/sec *  
Record Time       14.03.2010 06:53:19.369 UTC
Sampling Rate     200. Hz
 Record Duration   74.660 Sec.
 Direction         N-S (N positive)
Max. Acceleration      5.667 cm/sec**2
     
  * For reference see Site Classification link of website 
     
 Base Line Corrected and Low Pass Filtered (Cut Off at 35 Hz) Time History
 Acceleration data in cm/sec**2
    
[...]
      -0.453
      -0.305
      -0.125
       0.071
       0.272
       0.464
       0.634
       0.754
       0.798
       0.751
       0.623
       0.446
       0.271
       0.136
       0.060
       0.034
       0.026
      -0.003
      -0.079
      -0.200
      -0.336
      -0.448
      -0.509
      -0.522
      -0.519
      -0.536
      -0.590
      -0.662
      -0.702
      -0.657
      -0.509
      -0.279
      -0.016
       0.232
       0.433
       0.564
       0.606
       0.551
       0.418
       0.257
       0.129
       0.067
       0.065
       0.090
       0.105
       0.089
       0.035
      -0.054
      -0.166
      -0.272
      -0.333
      -0.320
      -0.238
      -0.119
      -0.010
       0.060
       0.095
       0.114
       0.131
       0.146
       0.151
       0.159
       0.189
       0.241
       0.278
       0.246
       0.128
      -0.031
      -0.153
      -0.178
      -0.103
       0.025
       0.142
       0.209
       0.225
       0.212
       0.185
       0.137
       0.047
      -0.095
      -0.272
      -0.443
      -0.557
      -0.579
      -0.511
      -0.391
      -0.280
      -0.226
      -0.241
      -0.289
      -0.322
      -0.314
      -0.274
      -0.225
      -0.167
      -0.071
       0.096
       0.339
       0.620
       0.874
       1.046
       1.099
       1.022
       0.830
       0.570
       0.309
       0.116
       0.027
       0.029
       0.077
       0.118
       0.118
       0.072
      -0.007
      -0.099
      -0.194
      -0.297
      -0.414
      -0.535
      -0.628
      -0.657
      -0.594
      -0.447
      -0.254
      -0.075
       0.038
       0.065
       0.027
      -0.031
      -0.076
      -0.090
      -0.071
      -0.020
       0.054
       0.132
       0.186
       0.203
       0.192
       0.183
       0.201
       0.243
       0.286
       0.294
       0.249
       0.159
       0.049
      -0.061
      -0.177
      -0.313
      -0.472
      -0.624
      -0.714
      -0.700
      -0.579
      -0.396
      -0.217
      -0.096
      -0.046
      -0.041
      -0.046
      -0.037
      -0.011
       0.028
       0.086
       0.178
       0.311
       0.465
       0.601
       0.675
       0.664
       0.575
       0.437
       0.287
       0.160
       0.077
       0.043
       0.045
       0.061
       0.077
       0.091
       0.101
       0.086
       0.015
      -0.127
      -0.312
      -0.473
      -0.545
      -0.502
      -0.372
      -0.222
      -0.109
      -0.053
      -0.034
      -0.014
       0.030
       0.099
       0.180
       0.266
       0.349
       0.425
       0.479
       0.495
       0.469
       0.415
       0.366
       0.349
       0.366
       0.377
       0.325
       0.176
      -0.049
      -0.286
      -0.465
      -0.545
      -0.533
      -0.465
      -0.382
      -0.315
      -0.278
      -0.271
      -0.283
      -0.290
      -0.271
      -0.224
      -0.168
      -0.131
      -0.115
      -0.096
      -0.058
      -0.009
       0.027
       0.046
       0.078
       0.160
       0.291
       0.423
       0.497
       0.480
       0.383
       0.239
       0.084
      -0.058
      -0.167
      -0.223
      -0.208
      -0.125
      -0.013
       0.067
       0.071
       0.010
      -0.055
      -0.055
       0.027
       0.153
       0.264
       0.327
       0.343
       0.318
       0.244
       0.108
      -0.078
      -0.265
      -0.393
      -0.430
      -0.388
      -0.309
      -0.246
      -0.239
      -0.293
      -0.375
      -0.430
      -0.418
      -0.341
      -0.238
      -0.151
      -0.094
      -0.045
       0.025
       0.123
       0.221
       0.273
       0.258
       0.199
       0.148
       0.134
       0.142
       0.130
       0.067
      -0.041
      -0.153
      -0.218
      -0.201
      -0.097
       0.068
       0.249
       0.386
       0.428
       0.350
       0.180
      -0.007
      -0.121
      -0.113
      -0.005
       0.128
       0.210
       0.210
       0.152
       0.074
      -0.009
      -0.097
      -0.186
      -0.250
      -0.258
      -0.198
      -0.092
       0.020
       0.105
       0.143
       0.125
       0.068
       0.015
       0.019
       0.107
       0.254
       0.397
       0.467
       0.427
       0.282
       0.074
      -0.141
      -0.311
      -0.401
      -0.409
      -0.362
      -0.302
      -0.260
      -0.250
      -0.266
      -0.289
      -0.289
      -0.242
      -0.136
       0.002
       0.120
       0.169
       0.142
       0.078
       0.036
       0.053
       0.123
       0.208
       0.270
       0.289
       0.258
       0.183
       0.072
      -0.052
      -0.162
      -0.234
      -0.265
      -0.269
      -0.266
      -0.271
      -0.280
      -0.280
      -0.243
      -0.138
       0.050
       0.290
       0.508
       0.624
       0.611
       0.511
       0.401
       0.330
       0.289
       0.236
       0.145
       0.031
      -0.068
      -0.127
      -0.149
      -0.157
      -0.168
      -0.190
      -0.216
      -0.242
      -0.262
      -0.271
      -0.266
      -0.242
      -0.195
      -0.119
      -0.015
       0.102
       0.208
       0.278
       0.294
       0.262
       0.209
       0.174
       0.187
       0.240
       0.287
       0.275
       0.182
       0.043
      -0.076
      -0.134
      -0.137
      -0.126
      -0.147
      -0.212
      -0.290
      -0.329
      -0.286
      -0.162
      -0.012
       0.089
       0.096
       0.028
      -0.047
      -0.064
      -0.007
       0.084
       0.148
       0.153
       0.118
       0.083
       0.072
       0.068
       0.039
      -0.025
      -0.100
      -0.140
      -0.118
      -0.041
       0.054
       0.125
       0.143
       0.100
       0.005
      -0.120
      -0.241
      -0.317
      -0.318
      -0.246
      -0.133
      -0.026
       0.042
       0.062
       0.046
       0.014
      -0.021
      -0.053
      -0.077
      -0.086
      -0.069
      -0.025
       0.027
       0.057
       0.040
      -0.020
      -0.086
      -0.102
      -0.023
       0.154
       0.379
       0.568
       0.645
       0.581
       0.409
       0.200
       0.008
      -0.156
      -0.312
      -0.466
      -0.585
      -0.620
      -0.557
      -0.437
      -0.325
      -0.258
      -0.220
      -0.172
      -0.097
      -0.011
       0.058
       0.101
       0.132
       0.169
       0.218
       0.275
       0.338
       0.403
       0.460
       0.487
       0.466
       0.391
       0.272
       0.125
      -0.022
      -0.137
      -0.193
      -0.184
      -0.134
      -0.088
      -0.079
      -0.104
      -0.124
      -0.106
      -0.052
      -0.006
      -0.008
      -0.052
      -0.089
      -0.062
       0.043
       0.189
       0.306
       0.336
       0.267
       0.136
       0.018
      -0.015
       0.062
       0.215
       0.367
       0.443
       0.406
       0.273
       0.087
      -0.107
      -0.279
      -0.398
      -0.434
      -0.368
      -0.224
      -0.067
       0.018
      -0.016
      -0.151
      -0.316
      -0.435
      -0.463
      -0.407
      -0.304
      -0.193
      -0.093
      -0.007
       0.064
       0.114
       0.136
       0.125
       0.077
       0.004
      -0.070
      -0.113
      -0.102
      -0.036
       0.060
       0.154
       0.221
       0.256
       0.256
       0.213
       0.114
      -0.030
      -0.180
      -0.284
      -0.313
      -0.278
      -0.216
      -0.160
      -0.120
      -0.092
      -0.083
      -0.103
      -0.139
      -0.153
      -0.104
       0.012
       0.154
       0.266
       0.317
       0.320
       0.304
       0.287
       0.262
       0.219
       0.167
       0.142
       0.176
       0.266
       0.364
       0.398
       0.321
       0.144
      -0.070
      -0.241
      -0.311
      -0.273
      -0.169
      -0.071
      -0.039
      -0.079
      -0.144
      -0.172
      -0.140
      -0.093
      -0.105
      -0.218
      -0.398
      -0.543
      -0.555
      -0.396
      -0.115
       0.185
       0.408
       0.513
       0.515
       0.464
       0.406
       0.369
       0.363
       0.392
       0.455
       0.530
       0.574
       0.541
       0.406
       0.182
      -0.088
      -0.343
      -0.534
      -0.645
      -0.704
      -0.745
      -0.778
      -0.770
      -0.677
      -0.487
      -0.242
      -0.024
       0.090
       0.079
      -0.013
      -0.100
      -0.106
      -0.003
       0.179
       0.373
       0.511
       0.559
       0.521
       0.426
       0.298
       0.146
      -0.017
      -0.165
      -0.264
      -0.293
      -0.264
      -0.213
      -0.177
      -0.169
      -0.176
      -0.171
      -0.132
      -0.050
       0.063
       0.181
       0.278
       0.339
       0.361
       0.345
       0.297
       0.225
       0.139
       0.056
      -0.008
      -0.033
      -0.005
       0.072
       0.171
       0.251
       0.278
       0.237
       0.138
       0.006
      -0.124
      -0.219
      -0.266
      -0.274
      -0.266
      -0.260
      -0.256
      -0.239
      -0.193
      -0.114
      -0.010
       0.108
       0.229
       0.340
       0.412
       0.405
       0.292
       0.092
      -0.130
      -0.289
      -0.336
      -0.294
      -0.239
      -0.240
      -0.307
      -0.386
      -0.409
      -0.354
      -0.263
      -0.204
      -0.220
      -0.302
      -0.390
      -0.411
      -0.329
      -0.167
       0.019
       0.183
       0.331
       0.502
       0.719
       0.957
       1.144
       1.211
       1.129
       0.927
       0.664
       0.407
       0.206
       0.079
       0.009
      -0.043
      -0.120
      -0.246
      -0.406
      -0.554
      -0.639
      -0.634
      -0.558
      -0.472
      -0.439
      -0.485
      -0.587
      -0.685
      -0.726
      -0.682
      -0.560
      -0.386
      -0.196
      -0.017
       0.139
       0.271
       0.370
       0.412
       0.384
       0.302
       0.212
       0.158
       0.144
       0.138
       0.111
       0.068
       0.052
       0.102
       0.221
       0.366
       0.470
       0.479
       0.383
       0.210
       0.007
      -0.183
      -0.328
      -0.406
      -0.411
      -0.352
      -0.249
      -0.117
       0.035
       0.189
       0.317
       0.388
       0.395
       0.363
       0.335
       0.336
       0.347
       0.333
       0.273
       0.182
       0.097
       0.043
       0.007
      -0.055
      -0.176
      -0.345
      -0.494
      -0.548
      -0.480
      -0.331
      -0.186
      -0.122
      -0.161
      -0.274
      -0.404
      -0.493
      -0.503
      -0.423
      -0.265
      -0.060
       0.163
       0.378
       0.561
       0.681
       0.706
       0.611
       0.401
       0.127
      -0.126
      -0.266
      -0.245
      -0.090
       0.114
       0.267
       0.312
       0.258
       0.162
       0.082
       0.042
       0.027
       0.010
      -0.025
      -0.084
      -0.172
      -0.295
      -0.435
      -0.552
      -0.602
      -0.572
      -0.492
      -0.417
      -0.382
      -0.379
      -0.362
      -0.284
      -0.132
       0.062
       0.247
       0.380
       0.449
       0.470
       0.475
       0.494
       0.542
       0.607
       0.660
       0.660
       0.579
       0.421
       0.227
       0.054
      -0.057
      -0.099
      -0.106
      -0.124
      -0.187
      -0.296
      -0.417
      -0.513
      -0.560
      -0.555
      -0.506
      -0.423
      -0.316
      -0.191
      -0.053
       0.081
       0.188
       0.238
       0.214
       0.132
       0.035
      -0.031
      -0.047
      -0.029
      -0.008
       0.003
       0.017
       0.048
       0.093
       0.129
       0.142
       0.135
       0.126
       0.125
       0.126
       0.119
       0.101
       0.086
       0.108
       0.196
       0.348
       0.511
       0.596
       0.529
       0.304
       0.005
      -0.239
      -0.331
      -0.257
      -0.090
       0.069
       0.142
       0.113
       0.015
      -0.099
      -0.188
      -0.244
      -0.288
      -0.360
      -0.484
      -0.654
      -0.821
      -0.921
      -0.908
      -0.786
      -0.598
      -0.403
      -0.238
      -0.103
       0.021
       0.151
       0.280
       0.392
       0.477
       0.545
       0.615
       0.686
       0.729
       0.697
       0.558
       0.330
       0.084
      -0.099
      -0.169
      -0.137
      -0.065
      -0.021
      -0.034
      -0.078
      -0.095
      -0.033
       0.122
       0.350
       0.619
       0.911
       1.205
       1.474
       1.677
       1.788
       1.812
       1.779
       1.721
       1.647
       1.545
       1.400
       1.216
       1.027
       0.881
       0.807
       0.786
       0.759
       0.658
       0.453
       0.162
      -0.163
      -0.460
      -0.667
      -0.734
      -0.647
      -0.437
      -0.178
       0.035
       0.122
       0.040
      -0.200
      -0.538
      -0.884
      -1.150
      -1.286
      -1.310
      -1.308
      -1.400
      -1.681
      -2.161
      -2.751
      -3.326
      -3.794
      -4.144
      -4.415
      -4.634
      -4.784
      -4.811
      -4.676
      -4.398
      -4.050
      -3.704
      -3.381
      -3.030
      -2.576
      -1.973
      -1.225
      -0.373
       0.531
       1.439
       2.311
       3.118
       3.841
       4.460
       4.957
       5.318
       5.549
       5.662
       5.667
       5.557
       5.312
       4.916
       4.364
       3.674
       2.883
       2.036
       1.187
       0.381
      -0.339
      -0.943
      -1.415
      -1.758
      -1.989
      -2.144
      -2.266
      -2.382
      -2.474
      -2.474
      -2.299
      -1.914
      -1.374
      -0.803
      -0.327
      -0.014
       0.135
       0.150
       0.065
      -0.090
      -0.276
      -0.446
      -0.565
      -0.618
      -0.613
      -0.561
      -0.467
      -0.331
      -0.168
      -0.014
       0.099
       0.164
       0.221
       0.332
       0.548
       0.876
       1.271
       1.649
       1.910
       1.968
       1.780
       1.368
       0.819
       0.258
      -0.198
      -0.489
      -0.628
      -0.667
      -0.656
      -0.623
      -0.596
      -0.616
      -0.733
      -0.962
      -1.249
      -1.483
      -1.548
      -1.385
      -1.017
      -0.531
      -0.025
       0.420
       0.762
       0.985
       1.103
       1.145
       1.149
       1.147
       1.143
       1.115
       1.035
       0.897
       0.743
       0.635
       0.620
       0.692
       0.801
       0.889
       0.919
       0.883
       0.796
       0.675
       0.523
       0.319
       0.030
      -0.363
      -0.831
      -1.302
      -1.693
      -1.956
      -2.097
      -2.136
      -2.062
      -1.817
      -1.344
      -0.655
       0.140
       0.871
       1.401
       1.678
       1.741
       1.654
       1.460
       1.181
       0.846
       0.513
       0.245
       0.073
      -0.034
      -0.145
      -0.324
      -0.586
      -0.885
      -1.134
      -1.255
      -1.221
      -1.073
      -0.896
      -0.765
      -0.702
      -0.672
      -0.613
      -0.483
      -0.292
      -0.084
       0.099
       0.240
       0.343
       0.414
       0.440
       0.395
       0.269
       0.095
      -0.071
      -0.181
      -0.232
      -0.257
      -0.287
      -0.317
      -0.307
      -0.210
      -0.014
       0.248
       0.516
       0.735
       0.872
       0.925
       0.907
       0.831
       0.708
       0.538
       0.321
       0.064
      -0.203
      -0.428
      -0.549
      -0.522
      -0.344
      -0.066
       0.225
       0.439
       0.529
       0.511
       0.437
       0.357
       0.277
       0.163
      -0.021
      -0.260
      -0.485
      -0.624
      -0.655
      -0.618
      -0.587
      -0.616
      -0.728
      -0.917
      -1.154
      -1.387
      -1.551
      -1.595
      -1.492
      -1.245
      -0.873
      -0.402
       0.135
       0.692
       1.212
       1.637
       1.925
       2.063
       2.081
       2.039
       1.991
       1.942
       1.848
       1.642
       1.299
       0.872
       0.466
       0.176
       0.027
      -0.034
      -0.084
      -0.176
      -0.323
      -0.534
      -0.829
      -1.216
      -1.650
      -2.022
      -2.213
      -2.156
      -1.867
      -1.431
      -0.949
      -0.509
      -0.165
       0.057
       0.163
       0.192
       0.213
       0.295
       0.475
       0.731
       0.991
       1.176
       1.243
       1.194
       1.065
       0.894
       0.703
       0.499
       0.281
       0.043
      -0.225
      -0.532
      -0.872
      -1.212
      -1.500
      -1.690
      -1.763
      -1.731
      -1.615
      -1.436
      -1.209
      -0.950
      -0.678
      -0.412
      -0.166
       0.064
       0.304
       0.594
       0.956
       1.358
       1.719
       1.937
       1.954
       1.789
       1.541
       1.334
       1.241
       1.232
       1.198
       1.046
       0.778
       0.486
       0.266
       0.153
       0.117
       0.104
       0.065
      -0.025
      -0.174
      -0.386
      -0.657
      -0.974
      -1.299
      -1.562
      -1.664
      -1.522
      -1.115
      -0.521
       0.116
       0.639
       0.935
       0.961
       0.758
       0.431
       0.104
      -0.127
      -0.236
      -0.269
      -0.296
      -0.352
      -0.410
      -0.420
      -0.369
      -0.294
      -0.247
      -0.249
      -0.286
      -0.343
      -0.412
      -0.480
      -0.525
      -0.529
      -0.505
      -0.485
      -0.480
      -0.460
      -0.379
      -0.228
      -0.041
       0.129
       0.254
       0.334
       0.382
       0.410
       0.429
       0.464
       0.548
       0.707
       0.933
       1.179
       1.371
       1.427
       1.286
       0.933
       0.419
      -0.152
      -0.651
      -0.972
      -1.068
      -0.960
      -0.723
      -0.449
      -0.203
      -0.006
       0.153
       0.286
       0.381
       0.408
       0.344
       0.196
      -0.008
      -0.235
      -0.455
      -0.637
      -0.731
      -0.685
      -0.476
      -0.138
       0.242
       0.558
       0.739
       0.764
       0.660
       0.469
       0.224
      -0.053
      -0.339
      -0.597
      -0.787
      -0.887
      -0.902
      -0.852
      -0.762
      -0.656
      -0.548
      -0.452
      -0.386
      -0.369
      -0.405
      -0.467
      -0.507
      -0.480
      -0.372
      -0.216
      -0.083
      -0.043
      -0.118
      -0.256
      -0.351
      -0.296
      -0.035
       0.407
       0.928
       1.395
       1.702
       1.808
       1.729
       1.514
       1.220
       0.904
       0.624
       0.428
       0.334
       0.325
       0.352
       0.371
       0.367
       0.363
       0.404
       0.504
       0.619
       0.646
       0.476
       0.063
      -0.531
      -1.153
      -1.629
      -1.855
      -1.835
      -1.653
      -1.391
      -1.094
      -0.775
      -0.457
      -0.189
      -0.024
       0.021
      -0.013
      -0.050
      -0.026
       0.072
       0.203
       0.303
       0.306
       0.175
      -0.080
      -0.399
      -0.685
      -0.851
