Origin Time       14/03/2010 6:53:21	
Lat.              31.7 N	
Long.             76.1 E	
Depth (Km)         29.0
Magnitude         4.6
 Region           HIMACHAL-PUNJAB-(HOSHIARPUR)-BORDER                              
 Above details taken from IMD 
   
Station Code      KAP
Station Lat.       31.380
Station Long.      75.383
Station Height(m)  223.0
Site Class        C   Vs30 between 200 m/sec to 375 m/sec *  
Record Time       14.03.2010 06:53:19.369
Sampling Rate     200. Hz
 Record Duration   74.660 Sec.
 Direction         Vert. (Up positive)
Max. Acceleration      7.726 cm/sec**2
     
  * For reference see Site Classification link of website 
     
 Base Line Corrected and Low Pass Filtered (Cut Off at 35 Hz) Time History
 Acceleration data in cm/sec**2
    
[...]
      -0.002
      -0.044
      -0.091
      -0.096
      -0.032
       0.063
       0.109
       0.067
      -0.021
      -0.082
      -0.080
      -0.035
       0.010
       0.035
       0.043
       0.035
       0.004
      -0.040
      -0.064
      -0.039
       0.027
       0.081
       0.075
       0.006
      -0.077
      -0.114
      -0.078
       0.001
       0.071
       0.092
       0.061
      -0.001
      -0.061
      -0.088
      -0.066
      -0.004
       0.067
       0.106
       0.088
       0.018
      -0.066
      -0.122
      -0.124
      -0.075
      -0.003
       0.055
       0.066
       0.022
      -0.044
      -0.076
      -0.041
       0.042
       0.111
       0.115
       0.060
      -0.008
      -0.053
      -0.074
      -0.086
      -0.085
      -0.053
       0.014
       0.077
       0.093
       0.060
       0.022
       0.021
       0.053
       0.075
       0.058
       0.010
      -0.039
      -0.073
      -0.096
      -0.111
      -0.108
      -0.074
      -0.013
       0.048
       0.073
       0.051
       0.000
      -0.043
      -0.047
      -0.008
       0.044
       0.068
       0.039
      -0.028
      -0.089
      -0.101
      -0.058
       0.013
       0.073
       0.093
       0.072
       0.030
      -0.004
      -0.015
      -0.002
       0.023
       0.037
       0.025
      -0.009
      -0.043
      -0.050
      -0.023
       0.022
       0.051
       0.042
      -0.001
      -0.044
      -0.054
      -0.022
       0.029
       0.064
       0.061
       0.032
       0.008
       0.012
       0.037
       0.049
       0.022
      -0.043
      -0.116
      -0.149
      -0.114
      -0.025
       0.066
       0.105
       0.079
       0.023
      -0.020
      -0.034
      -0.039
      -0.051
      -0.062
      -0.051
      -0.017
       0.008
       0.002
      -0.022
      -0.027
      -0.002
       0.026
       0.025
       0.004
       0.007
       0.049
       0.094
       0.095
       0.045
      -0.013
      -0.039
      -0.043
      -0.055
      -0.078
      -0.073
      -0.013
       0.070
       0.111
       0.076
       0.002
      -0.054
      -0.069
      -0.068
      -0.072
      -0.068
      -0.027
       0.049
       0.115
       0.119
       0.055
      -0.027
      -0.069
      -0.050
       0.005
       0.055
       0.066
       0.027
      -0.049
      -0.123
      -0.138
      -0.066
       0.061
       0.160
       0.158
       0.051
      -0.098
      -0.201
      -0.209
      -0.123
       0.007
       0.112
       0.140
       0.084
      -0.003
      -0.053
      -0.035
       0.020
       0.055
       0.035
      -0.017
      -0.053
      -0.043
       0.004
       0.058
       0.092
       0.100
       0.085
       0.047
      -0.010
      -0.071
      -0.101
      -0.077
      -0.011
       0.049
       0.052
      -0.009
      -0.089
      -0.120
      -0.072
       0.026
       0.108
       0.127
       0.083
       0.012
      -0.040
      -0.050
      -0.027
      -0.001
       0.008
      -0.004
      -0.031
      -0.065
      -0.091
      -0.090
      -0.052
       0.014
       0.077
       0.100
       0.068
       0.008
      -0.034
      -0.024
       0.033
       0.101
       0.133
       0.100
       0.012
      -0.088
      -0.146
      -0.137
      -0.078
      -0.014
       0.024
       0.037
       0.041
       0.044
       0.038
       0.023
       0.009
       0.004
       0.002
      -0.016
      -0.056
      -0.099
      -0.119
      -0.103
      -0.061
      -0.013
       0.023
       0.034
       0.017
      -0.016
      -0.032
      -0.007
       0.052
       0.102
       0.102
       0.052
      -0.005
      -0.029
      -0.018
      -0.004
      -0.011
      -0.035
      -0.048
      -0.039
      -0.021
      -0.010
      -0.006
       0.003
       0.016
       0.015
      -0.011
      -0.045
      -0.055
      -0.021
       0.033
       0.068
       0.058
       0.013
      -0.036
      -0.063
      -0.055
      -0.009
       0.060
       0.117
       0.114
       0.032
      -0.094
      -0.179
      -0.162
      -0.059
       0.044
       0.065
      -0.004
      -0.098
      -0.127
      -0.046
       0.108
       0.236
       0.248
       0.129
      -0.042
      -0.153
      -0.142
      -0.047
       0.045
       0.074
       0.042
      -0.015
      -0.063
      -0.089
      -0.086
      -0.055
      -0.009
       0.026
       0.039
       0.035
       0.019
      -0.010
      -0.053
      -0.076
      -0.037
       0.062
       0.144
       0.113
      -0.040
      -0.205
      -0.236
      -0.083
       0.154
       0.312
       0.290
       0.120
      -0.075
      -0.185
      -0.174
      -0.086
       0.006
       0.047
       0.020
      -0.047
      -0.102
      -0.095
      -0.006
       0.130
       0.234
       0.233
       0.120
      -0.031
      -0.119
      -0.098
      -0.013
       0.051
       0.050
      -0.002
      -0.061
      -0.110
      -0.150
      -0.172
      -0.142
      -0.050
       0.063
       0.122
       0.088
      -0.002
      -0.061
      -0.035
       0.057
       0.147
       0.167
       0.093
      -0.044
      -0.171
      -0.215
      -0.144
      -0.004
       0.107
       0.112
       0.020
      -0.085
      -0.113
      -0.042
       0.064
       0.127
       0.112
       0.047
      -0.016
      -0.048
      -0.046
      -0.022
       0.002
       0.007
      -0.027
      -0.093
      -0.152
      -0.152
      -0.071
       0.055
       0.152
       0.158
       0.075
      -0.036
      -0.093
      -0.060
       0.037
       0.121
       0.121
       0.025
      -0.102
      -0.163
      -0.106
       0.028
       0.143
       0.165
       0.095
      -0.012
      -0.101
      -0.145
      -0.143
      -0.103
      -0.043
       0.012
       0.039
       0.041
       0.041
       0.058
       0.078
       0.081
       0.060
       0.027
      -0.007
      -0.048
      -0.089
      -0.104
      -0.062
       0.027
       0.101
       0.093
      -0.008
      -0.135
      -0.199
      -0.152
      -0.025
       0.102
       0.155
       0.114
       0.018
      -0.067
      -0.095
      -0.062
       0.002
       0.063
       0.095
       0.080
       0.012
      -0.087
      -0.158
      -0.140
      -0.025
       0.119
       0.192
       0.141
       0.001
      -0.134
      -0.188
      -0.142
      -0.036
       0.072
       0.133
       0.124
       0.059
      -0.012
      -0.039
      -0.007
       0.050
       0.079
       0.057
       0.000
      -0.058
      -0.092
      -0.094
      -0.065
      -0.015
       0.027
       0.026
      -0.025
      -0.088
      -0.105
      -0.051
       0.038
       0.093
       0.073
      -0.002
      -0.066
      -0.070
      -0.015
       0.054
       0.088
       0.073
       0.027
      -0.018
      -0.041
      -0.040
      -0.030
      -0.022
      -0.022
      -0.034
      -0.058
      -0.081
      -0.076
      -0.025
       0.056
       0.122
       0.131
       0.078
      -0.004
      -0.069
      -0.091
      -0.069
      -0.019
       0.034
       0.061
       0.038
      -0.030
      -0.099
      -0.111
      -0.041
       0.072
       0.151
       0.141
       0.055
      -0.039
      -0.086
      -0.076
      -0.041
      -0.014
      -0.012
      -0.029
      -0.052
      -0.063
      -0.050
      -0.003
       0.067
       0.131
       0.156
       0.125
       0.053
      -0.030
      -0.083
      -0.078
      -0.022
       0.044
       0.066
       0.020
      -0.067
      -0.124
      -0.100
      -0.007
       0.076
       0.074
      -0.018
      -0.128
      -0.163
      -0.080
       0.079
       0.215
       0.246
       0.152
      -0.013
      -0.154
      -0.190
      -0.109
       0.027
       0.115
       0.092
      -0.019
      -0.121
      -0.133
      -0.054
       0.051
       0.115
       0.126
       0.106
       0.061
      -0.020
      -0.125
      -0.193
      -0.156
      -0.016
       0.132
       0.173
       0.079
      -0.067
      -0.144
      -0.103
      -0.002
       0.068
       0.063
       0.009
      -0.045
      -0.071
      -0.063
      -0.023
       0.039
       0.085
       0.076
       0.008
      -0.068
      -0.096
      -0.063
      -0.009
       0.027
       0.038
       0.035
       0.018
      -0.014
      -0.045
      -0.046
      -0.013
       0.013
      -0.009
      -0.066
      -0.093
      -0.043
       0.054
       0.126
       0.131
       0.081
       0.018
      -0.028
      -0.039
      -0.012
       0.039
       0.071
       0.042
      -0.048
      -0.139
      -0.162
      -0.098
       0.011
       0.101
       0.132
       0.098
       0.013
      -0.085
      -0.138
      -0.112
      -0.022
       0.067
       0.092
       0.045
      -0.032
      -0.083
      -0.082
      -0.036
       0.031
       0.091
       0.111
       0.066
      -0.031
      -0.122
      -0.140
      -0.063
       0.063
       0.156
       0.151
       0.044
      -0.108
      -0.218
      -0.218
      -0.102
       0.058
       0.156
       0.131
       0.017
      -0.087
      -0.105
      -0.042
       0.035
       0.064
       0.042
      -0.002
      -0.039
      -0.065
      -0.075
      -0.055
       0.004
       0.077
       0.114
       0.079
      -0.010
      -0.091
      -0.103
      -0.039
       0.042
       0.077
       0.047
      -0.011
      -0.042
      -0.031
      -0.001
       0.019
       0.025
       0.033
       0.043
       0.035
      -0.003
      -0.045
      -0.052
      -0.014
       0.034
       0.043
       0.001
      -0.054
      -0.074
      -0.049
       0.000
       0.039
       0.052
       0.035
       0.000
      -0.021
       0.000
       0.057
       0.104
       0.090
       0.016
      -0.062
      -0.085
      -0.050
      -0.002
       0.015
       0.005
      -0.006
      -0.007
      -0.016
      -0.039
      -0.048
      -0.011
       0.062
       0.118
       0.109
       0.043
      -0.024
      -0.043
      -0.013
       0.029
       0.051
       0.041
       0.001
      -0.066
      -0.140
      -0.179
      -0.134
      -0.005
       0.142
       0.207
       0.141
      -0.007
      -0.127
      -0.137
      -0.043
       0.072
       0.122
       0.080
      -0.015
      -0.089
      -0.090
      -0.015
       0.087
       0.144
       0.114
       0.018
      -0.076
      -0.105
      -0.061
       0.008
       0.043
       0.024
      -0.028
      -0.081
      -0.113
      -0.118
      -0.088
      -0.022
       0.063
       0.126
       0.132
       0.082
       0.012
      -0.033
      -0.036
      -0.010
       0.017
       0.021
      -0.005
      -0.053
      -0.100
      -0.117
      -0.083
      -0.007
       0.073
       0.117
       0.110
       0.066
       0.008
      -0.036
      -0.042
      -0.002
       0.059
       0.088
       0.047
      -0.048
      -0.132
      -0.147
      -0.087
       0.005
       0.073
       0.087
       0.053
       0.003
      -0.024
      -0.008
       0.032
       0.053
       0.025
      -0.040
      -0.093
      -0.097
      -0.059
      -0.013
       0.013
       0.015
       0.000
      -0.020
      -0.021
       0.026
       0.117
       0.201
       0.215
       0.143
       0.029
      -0.064
      -0.098
      -0.084
      -0.049
      -0.016
      -0.001
      -0.016
      -0.056
      -0.096
      -0.101
      -0.056
       0.025
       0.102
       0.129
       0.085
      -0.003
      -0.077
      -0.082
      -0.016
       0.061
       0.075
      -0.001
      -0.113
      -0.173
      -0.135
      -0.026
       0.089
       0.156
       0.157
       0.094
      -0.004
      -0.083
      -0.097
      -0.038
       0.051
       0.104
       0.081
      -0.002
      -0.091
      -0.131
      -0.101
      -0.019
       0.062
       0.089
       0.047
      -0.026
      -0.071
      -0.055
       0.004
       0.059
       0.079
       0.058
       0.012
      -0.037
      -0.067
      -0.059
      -0.012
       0.050
       0.089
       0.077
       0.020
      -0.046
      -0.075
      -0.042
       0.043
       0.122
       0.126
       0.038
      -0.078
      -0.122
      -0.050
       0.081
       0.156
       0.107
      -0.032
      -0.160
      -0.191
      -0.117
       0.016
       0.136
       0.191
       0.153
       0.041
      -0.084
      -0.147
      -0.113
      -0.010
       0.087
       0.117
       0.067
      -0.020
      -0.080
      -0.061
       0.034
       0.142
       0.174
       0.088
      -0.070
      -0.199
      -0.223
      -0.139
      -0.005
       0.100
       0.120
       0.042
      -0.093
      -0.198
      -0.185
      -0.041
       0.144
       0.238
       0.180
       0.034
      -0.079
      -0.082
      -0.001
       0.082
       0.104
       0.057
      -0.030
      -0.118
      -0.173
      -0.177
      -0.132
      -0.073
      -0.050
      -0.095
      -0.196
      -0.313
      -0.410
      -0.485
      -0.561
      -0.665
      -0.797
      -0.934
      -1.029
      -1.026
      -0.867
      -0.520
      -0.005
       0.600
       1.189
       1.665
       1.987
       2.162
       2.206
       2.093
       1.770
       1.221
       0.535
      -0.120
      -0.591
      -0.860
      -1.065
      -1.428
      -2.119
      -3.173
      -4.467
      -5.750
      -6.663
      -6.800
      -5.839
      -3.730
      -0.814
       2.258
       4.823
       6.525
       7.412
       7.726
       7.583
       6.879
       5.508
       3.710
       2.139
       1.499
       2.002
       3.114
       3.856
       3.431
       1.699
      -0.826
      -3.365
      -5.290
      -6.282
      -6.283
      -5.412
      -3.977
      -2.471
      -1.430
      -1.175
      -1.649
      -2.477
      -3.220
      -3.615
      -3.609
      -3.226
      -2.418
      -1.078
       0.808
       2.992
       4.978
       6.237
       6.523
       6.066
       5.463
       5.291
       5.681
       6.171
       5.996
       4.619
       2.150
      -0.692
      -3.035
      -4.401
      -4.924
      -5.124
      -5.433
      -5.851
      -5.997
      -5.459
      -4.169
      -2.500
      -1.045
      -0.295
      -0.437
      -1.340
      -2.623
      -3.716
      -3.978
      -2.954
      -0.704
       2.081
       4.373
       5.387
       5.038
       3.913
       2.803
       2.189
       2.057
       2.090
       2.004
       1.739
       1.406
       1.122
       0.892
       0.615
       0.182
      -0.412
      -1.035
      -1.487
      -1.638
      -1.529
      -1.357
      -1.336
      -1.535
      -1.834
      -2.010
      -1.893
      -1.478
      -0.914
      -0.392
      -0.009
       0.299
       0.679
       1.209
       1.794
       2.204
       2.206
       1.673
       0.637
      -0.715
      -2.034
      -2.853
      -2.759
      -1.643
       0.135
       1.857
       2.798
       2.592
       1.386
      -0.303
      -1.877
      -2.899
      -3.161
      -2.636
      -1.452
       0.098
       1.576
       2.532
       2.718
       2.227
       1.428
       0.739
       0.412
       0.451
       0.681
       0.883
       0.902
       0.702
       0.361
       0.032
      -0.137
      -0.073
       0.176
       0.458
       0.568
       0.337
      -0.283
      -1.175
      -2.082
      -2.697
      -2.796
      -2.357
      -1.605
      -0.933
      -0.699
      -0.993
      -1.536
      -1.815
      -1.407
      -0.265
       1.238
       2.540
       3.215
       3.161
       2.563
       1.713
       0.862
       0.183
      -0.186
      -0.132
       0.376
       1.202
       2.038
       2.528
       2.441
       1.761
       0.656
      -0.614
      -1.771
      -2.572
      -2.888
      -2.762
      -2.393
      -2.022
      -1.776
      -1.620
      -1.437
      -1.164
      -0.855
      -0.607
      -0.442
      -0.254
       0.114
       0.716
       1.414
       1.950
       2.133
       1.992
       1.763
       1.694
       1.825
       1.936
       1.721
       1.049
       0.109
      -0.706
      -1.080
      -0.982
      -0.645
      -0.355
      -0.238
      -0.237
      -0.255
      -0.293
      -0.444
      -0.743
      -1.057
      -1.141
      -0.841
      -0.255
       0.273
       0.371
      -0.102
      -0.937
      -1.676
      -1.878
      -1.364
      -0.296
       0.930
       1.889
       2.317
       2.178
       1.628
       0.900
       0.181
      -0.442
      -0.944
      -1.282
      -1.373
      -1.167
      -0.750
      -0.328
      -0.075
       0.026
       0.176
       0.557
       1.115
       1.543
       1.508
       0.945
       0.143
      -0.454
      -0.573
      -0.304
       0.008
       0.075
      -0.099
      -0.271
      -0.225
      -0.008
       0.115
      -0.065
      -0.469
      -0.770
      -0.685
      -0.232
       0.292
       0.549
       0.409
      -0.006
      -0.440
      -0.669
      -0.595
      -0.256
       0.225
       0.682
       0.961
       0.964
       0.690
       0.254
      -0.137
      -0.270
      -0.044
       0.431
       0.875
       1.023
       0.820
       0.449
       0.158
       0.038
      -0.027
      -0.214
      -0.554
      -0.906
      -1.118
      -1.199
      -1.312
      -1.557
      -1.767
      -1.576
      -0.746
       0.507
       1.566
       1.832
       1.188
       0.087
      -0.809
      -1.107
      -0.881
      -0.469
      -0.103
       0.237
       0.658
       1.103
       1.324
       1.098
       0.455
      -0.309
      -0.840
      -0.969
      -0.794
      -0.562
      -0.466
      -0.526
      -0.614
      -0.585
      -0.387
      -0.074
       0.266
       0.586
       0.877
       1.097
       1.142
       0.912
       0.425
      -0.124
      -0.455
      -0.374
       0.092
       0.710
       1.179
       1.298
       1.026
       0.460
      -0.225
      -0.830
      -1.172
      -1.156
      -0.849
      -0.493
      -0.376
      -0.629
      -1.102
      -1.453
      -1.413
      -1.006
      -0.520
      -0.230
      -0.135
       0.027
       0.489
       1.176
       1.738
       1.857
       1.539
       1.099
       0.859
       0.880
       0.964
       0.911
       0.734
       0.613
       0.666
       0.789
       0.731
       0.320
      -0.387
      -1.154
      -1.734
      -2.004
      -1.976
      -1.709
      -1.251
      -0.647
       0.015
       0.578
       0.877
       0.836
       0.527
       0.111
      -0.260
      -0.513
      -0.634
      -0.616
      -0.446
      -0.150
       0.178
       0.405
       0.443
       0.309
       0.107
      -0.035
      -0.044
       0.069
       0.217
       0.300
       0.278
       0.200
       0.152
       0.163
       0.158
       0.045
      -0.138
      -0.167
       0.233
       1.124
       2.191
       2.857
       2.650
       1.524
      -0.096
      -1.590
      -2.508
      -2.746
      -2.467
      -1.888
      -1.176
      -0.488
      -0.022
       0.038
      -0.324
      -0.882
      -1.276
      -1.241
      -0.766
      -0.073
       0.549
       0.915
       1.010
       0.952
       0.894
       0.925
       1.018
       1.056
       0.930
       0.643
       0.338
       0.218
       0.404
       0.826
       1.255
