Origin Time       10/07/2010 03:16:20
Lat.              29.9 N 
Long.             79.6 E 
Depth (Km)         10.0
Magnitude         4.1
 Region           ALMORA-UTTARAKHAND                                               
 Above details taken from IMD 
   
Station Code      KAP
Station Lat.       29.941
Station Long.      79.899
Station Height(m) 1066.0
Site Class        A   Vs30 between 700 m/sec to 1400 m/sec * 
Record Time       10.07.2010 03:16:15.754
Sampling Rate     200. Hz
 Record Duration   67.105 Sec.
 Direction         Vert. (Up positive)
Max. Acceleration      7.356 cm/sec**2
     
  * For reference see Site Classification link of website 
     
 Base Line Corrected and Low Pass Filtered (Cut Off at 35 Hz) Time History
 Acceleration data in cm/sec**2
    
[...]
       0.010
       0.010
       0.010
       0.010
       0.011
       0.009
       0.007
       0.007
       0.007
       0.006
       0.004
       0.002
       0.003
       0.008
       0.014
       0.015
       0.011
       0.004
       0.000
       0.001
       0.005
       0.011
       0.016
       0.018
       0.014
       0.009
       0.004
       0.002
       0.001
       0.000
      -0.004
      -0.012
      -0.024
      -0.038
      -0.051
      -0.058
      -0.053
      -0.034
      -0.005
       0.028
       0.055
       0.070
       0.072
       0.062
       0.040
       0.012
      -0.015
      -0.029
      -0.023
       0.004
       0.043
       0.077
       0.092
       0.086
       0.067
       0.039
       0.001
      -0.046
      -0.095
      -0.131
      -0.140
      -0.121
      -0.082
      -0.036
       0.001
       0.015
      -0.004
      -0.051
      -0.110
      -0.157
      -0.166
      -0.117
      -0.008
       0.130
       0.240
       0.270
       0.202
       0.074
      -0.052
      -0.132
      -0.158
      -0.142
      -0.091
       0.001
       0.126
       0.247
       0.311
       0.285
       0.184
       0.056
      -0.051
      -0.116
      -0.145
      -0.147
      -0.121
      -0.060
       0.017
       0.065
       0.031
      -0.088
      -0.231
      -0.313
      -0.291
      -0.199
      -0.103
      -0.028
       0.060
       0.197
       0.348
       0.418
       0.335
       0.129
      -0.071
      -0.142
      -0.065
       0.054
       0.077
      -0.041
      -0.209
      -0.273
      -0.157
       0.057
       0.195
       0.159
       0.020
      -0.047
       0.055
       0.242
       0.325
       0.198
      -0.052
      -0.225
      -0.195
      -0.028
       0.084
       0.011
      -0.198
      -0.359
      -0.325
      -0.109
       0.134
       0.246
       0.190
       0.054
      -0.039
      -0.029
       0.054
       0.124
       0.116
       0.022
      -0.112
      -0.231
      -0.315
      -0.363
      -0.377
      -0.335
      -0.221
      -0.055
       0.108
       0.221
       0.286
       0.343
       0.416
       0.486
       0.516
       0.489
       0.402
       0.236
      -0.034
      -0.367
      -0.628
      -0.658
      -0.423
      -0.052
       0.264
       0.431
       0.488
       0.496
       0.434
       0.224
      -0.136
      -0.520
      -0.756
      -0.750
      -0.533
      -0.233
       0.012
       0.118
       0.083
      -0.044
      -0.195
      -0.312
      -0.346
      -0.262
      -0.054
       0.217
       0.428
       0.476
       0.354
       0.145
      -0.049
      -0.155
      -0.131
       0.030
       0.274
       0.476
       0.509
       0.326
      -0.006
      -0.358
      -0.612
      -0.689
      -0.541
      -0.168
       0.327
       0.712
       0.757
       0.446
       0.031
      -0.166
      -0.042
       0.202
       0.270
       0.059
      -0.264
      -0.459
      -0.445
      -0.334
      -0.291
      -0.378
      -0.522
      -0.566
      -0.391
      -0.035
       0.284
       0.333
       0.106
      -0.114
      -0.008
       0.450
       0.903
       0.912
       0.397
      -0.231
      -0.407
       0.031
       0.661
       0.872
       0.473
      -0.155
      -0.475
      -0.332
      -0.037
       0.004
      -0.333
      -0.840
      -1.196
      -1.175
      -0.723
       0.037
       0.810
       1.236
       1.122
       0.602
       0.067
      -0.166
      -0.136
      -0.179
      -0.535
      -1.020
      -1.161
      -0.697
       0.123
       0.789
       1.013
       0.909
       0.748
       0.637
       0.469
       0.110
      -0.398
      -0.826
      -0.923
      -0.632
      -0.162
       0.145
       0.086
      -0.220
      -0.413
      -0.209
       0.360
       0.974
       1.269
       1.065
       0.447
      -0.323
      -0.974
      -1.357
      -1.456
      -1.321
      -0.997
      -0.508
       0.130
       0.872
       1.578
       1.965
       1.722
       0.792
      -0.425
      -1.261
      -1.287
      -0.671
      -0.041
       0.060
      -0.382
      -0.855
      -0.754
       0.126
       1.380
       2.240
       2.127
       1.107
      -0.129
      -0.841
      -0.859
      -0.673
      -0.883
      -1.547
      -2.040
      -1.589
      -0.027
       1.905
       3.044
       2.679
       1.082
      -0.766
      -1.920
      -2.042
      -1.423
      -0.653
      -0.249
      -0.383
      -0.761
      -0.800
      -0.084
       1.223
       2.396
       2.665
       1.812
       0.348
      -0.873
      -1.271
      -0.877
      -0.223
       0.105
      -0.122
      -0.661
      -1.042
      -0.925
      -0.321
       0.459
       1.031
       1.164
       0.865
       0.327
      -0.186
      -0.444
      -0.330
       0.079
       0.468
       0.383
      -0.423
      -1.600
      -2.248
      -1.595
       0.226
       2.105
       2.784
       1.888
       0.211
      -0.976
      -0.952
      -0.015
       0.888
       0.928
      -0.059
      -1.526
      -2.587
      -2.566
      -1.452
       0.079
       1.190
       1.551
       1.518
       1.629
       1.934
       1.916
       1.097
      -0.333
      -1.595
      -2.037
      -1.714
      -1.189
      -0.860
      -0.616
      -0.130
       0.624
       1.241
       1.250
       0.559
      -0.458
      -1.255
      -1.457
      -0.992
      -0.063
       0.900
       1.363
       1.014
       0.134
      -0.427
       0.084
       1.504
       2.644
       2.197
      -0.054
      -2.856
      -4.361
      -3.555
      -1.021
       1.567
       2.744
       2.243
       0.970
       0.096
       0.101
       0.507
       0.447
      -0.477
      -1.789
      -2.478
      -1.807
       0.052
       2.064
       3.049
       2.503
       0.874
      -0.859
      -1.871
      -1.909
      -1.265
      -0.471
       0.051
       0.187
       0.109
       0.075
       0.198
       0.345
       0.264
      -0.141
      -0.615
      -0.701
      -0.152
       0.745
       1.283
       0.917
      -0.198
      -1.252
      -1.460
      -0.721
       0.358
       1.058
       1.157
       0.986
       0.959
       1.095
       1.031
       0.436
      -0.628
      -1.705
      -2.248
      -1.958
      -0.956
       0.274
       1.120
       1.163
       0.457
      -0.438
      -0.806
      -0.332
       0.582
       1.110
       0.727
      -0.264
      -0.951
      -0.672
       0.320
       1.068
       0.813
      -0.300
      -1.357
      -1.495
      -0.619
       0.599
       1.333
       1.212
       0.483
      -0.252
      -0.437
       0.109
       1.041
       1.640
       1.295
       0.035
      -1.388
      -2.077
      -1.776
      -1.074
      -0.754
      -0.960
      -1.054
      -0.320
       1.221
       2.707
       3.121
       2.095
       0.164
      -1.629
      -2.387
      -1.882
      -0.661
       0.338
       0.448
      -0.260
      -1.064
      -1.185
      -0.427
       0.718
       1.559
       1.807
       1.671
       1.437
       1.109
       0.544
      -0.154
      -0.625
      -0.713
      -0.780
      -1.337
      -2.322
      -2.901
      -2.164
      -0.090
       2.213
       3.328
       2.675
       0.912
      -0.711
      -1.377
      -1.168
      -0.732
      -0.600
      -0.792
      -0.924
      -0.569
       0.436
       1.834
       2.969
       3.082
       1.832
      -0.318
      -2.258
      -2.962
      -2.252
      -0.893
       0.097
       0.302
       0.126
       0.249
       0.917
       1.734
       2.059
       1.557
       0.417
      -0.853
      -1.758
      -1.995
      -1.518
      -0.613
       0.125
       0.133
      -0.626
      -1.522
      -1.735
      -0.948
       0.389
       1.517
       2.063
       2.262
       2.507
       2.756
       2.446
       1.039
      -1.318
      -3.649
      -4.726
      -3.917
      -1.649
       0.872
       2.446
       2.608
       1.779
       0.812
       0.345
       0.439
       0.702
       0.691
       0.256
      -0.421
      -1.021
      -1.337
      -1.383
      -1.315
      -1.266
      -1.227
      -1.031
      -0.434
       0.689
       2.120
       3.247
       3.343
       2.081
      -0.114
      -2.240
      -3.374
      -3.265
      -2.348
      -1.210
      -0.086
       1.123
       2.394
       3.264
       3.103
       1.763
      -0.116
      -1.532
      -1.870
      -1.297
      -0.498
      -0.081
      -0.166
      -0.425
      -0.405
       0.111
       0.867
       1.205
       0.561
      -0.923
      -2.282
      -2.411
      -1.041
       0.913
       2.029
       1.567
       0.123
      -0.888
      -0.484
       1.024
       2.332
       2.319
       0.995
      -0.608
      -1.406
      -1.155
      -0.504
      -0.292
      -0.790
      -1.517
      -1.697
      -0.889
       0.661
       2.143
       2.714
       2.069
       0.612
      -0.898
      -1.873
      -2.144
      -1.843
      -1.167
      -0.313
       0.443
       0.791
       0.635
       0.270
       0.165
       0.535
       1.142
       1.518
       1.366
       0.754
      -0.021
      -0.685
      -1.078
      -1.123
      -0.834
      -0.400
      -0.135
      -0.233
      -0.538
      -0.638
      -0.258
       0.431
       0.947
       0.950
       0.538
       0.119
       0.031
       0.279
       0.564
       0.542
       0.087
      -0.626
      -1.240
      -1.430
      -1.097
      -0.437
       0.178
       0.448
       0.351
       0.164
       0.235
       0.660
       1.131
       1.165
       0.549
      -0.428
      -1.203
      -1.409
      -1.114
      -0.640
      -0.213
       0.140
       0.409
       0.468
       0.208
      -0.231
      -0.465
      -0.145
       0.720
       1.730
       2.352
       2.215
       1.249
      -0.314
      -1.996
      -3.186
      -3.355
      -2.322
      -0.431
       1.537
       2.738
       2.756
       1.815
       0.543
      -0.492
      -1.069
      -1.259
      -1.206
      -0.978
      -0.582
      -0.047
       0.529
       0.970
       1.065
       0.681
      -0.101
      -0.955
      -1.471
      -1.408
      -0.828
      -0.006
       0.785
       1.399
       1.747
       1.709
       1.172
       0.211
      -0.799
      -1.321
      -1.083
      -0.423
      -0.114
      -0.666
      -1.760
      -2.393
      -1.682
       0.392
       2.871
       4.409
       4.093
       1.980
      -0.925
      -3.209
      -3.807
      -2.591
      -0.411
       1.435
       2.011
       1.351
       0.392
       0.151
       0.763
       1.332
       0.827
      -0.797
      -2.411
      -2.677
      -1.278
       0.792
       2.079
       1.797
       0.260
      -1.517
      -2.554
      -2.414
      -1.279
       0.251
       1.463
       1.891
       1.600
       1.143
       1.077
       1.402
       1.475
       0.579
      -1.289
      -3.152
      -3.719
      -2.487
      -0.268
       1.399
       1.495
       0.351
      -0.672
      -0.389
       1.151
       2.706
       2.930
       1.515
      -0.597
      -2.051
      -2.133
      -1.176
      -0.124
       0.268
      -0.024
      -0.343
       0.038
       1.210
       2.379
       2.372
       0.605
      -2.237
      -4.503
      -4.696
      -2.563
       0.730
       3.404
       4.204
       3.084
       1.073
      -0.482
      -0.802
      -0.175
       0.326
      -0.198
      -1.570
      -2.581
      -2.053
       0.010
       2.267
       3.054
       1.717
      -0.861
      -2.944
      -3.215
      -1.647
       0.617
       2.156
       2.237
       1.202
       0.058
      -0.360
       0.023
       0.569
       0.577
      -0.034
      -0.624
      -0.491
       0.351
       1.098
       0.927
      -0.173
      -1.369
      -1.781
      -1.277
      -0.452
       0.079
       0.246
       0.377
       0.642
       0.792
       0.469
      -0.319
      -1.111
      -1.383
      -0.975
      -0.158
       0.648
       1.181
       1.409
       1.413
       1.234
       0.837
       0.228
      -0.445
      -0.917
      -0.975
      -0.667
      -0.356
      -0.463
      -1.047
      -1.645
      -1.634
      -0.784
       0.543
       1.730
       2.401
       2.592
       2.479
       2.007
       0.897
      -0.926
      -2.980
      -4.395
      -4.499
      -3.255
      -1.208
       0.903
       2.470
       3.108
       2.685
       1.464
       0.158
      -0.393
       0.137
       1.147
       1.495
       0.497
      -1.347
      -2.665
      -2.382
      -0.663
       1.257
       2.149
       1.744
       0.724
      -0.079
      -0.430
      -0.704
      -1.267
      -1.944
      -2.093
      -1.194
       0.616
       2.510
       3.473
       2.973
       1.273
      -0.801
      -2.401
      -3.086
      -2.889
      -2.073
      -0.848
       0.664
       2.205
       3.212
       3.025
       1.436
      -0.897
      -2.708
      -2.981
      -1.659
       0.434
       2.266
       3.213
       3.141
       2.156
       0.433
      -1.636
      -3.303
      -3.743
      -2.675
      -0.711
       1.000
       1.610
       1.183
       0.528
       0.430
       0.956
       1.399
       0.899
      -0.736
      -2.686
      -3.651
      -2.886
      -0.797
       1.444
       2.815
       3.018
       2.354
       1.257
       0.078
      -0.838
      -1.177
      -0.994
      -0.884
      -1.455
      -2.464
      -2.670
      -0.867
       2.745
       6.261
       7.356
       5.128
       0.844
      -3.021
      -4.590
      -3.711
      -1.665
       0.019
       0.568
       0.151
      -0.534
      -0.843
      -0.622
      -0.291
      -0.458
      -1.326
      -2.413
      -2.875
      -2.165
      -0.472
       1.418
       2.655
       2.789
       1.889
       0.406
      -1.032
      -1.858
      -1.799
      -0.982
       0.194
       1.342
       2.281
       2.975
       3.315
       3.038
       1.936
       0.110
      -2.000
      -3.825
      -4.898
      -4.950
      -3.929
      -2.033
       0.243
       2.202
       3.213
       3.000
       1.742
      -0.039
      -1.679
      -2.544
      -2.205
      -0.671
       1.438
       3.075
       3.385
       2.321
       0.699
      -0.437
      -0.596
      -0.103
       0.358
       0.460
       0.474
       0.832
       1.506
       1.901
       1.399
       0.002
      -1.586
      -2.531
      -2.519
      -1.845
      -0.996
      -0.314
      -0.022
      -0.298
      -1.108
      -1.991
      -2.233
      -1.395
       0.249
       1.858
       2.647
       2.405
       1.522
       0.617
       0.132
       0.091
       0.117
      -0.300
      -1.368
      -2.644
      -3.106
      -1.820
       1.196
       4.700
       6.944
       6.831
       4.598
       1.511
      -1.086
      -2.558
      -3.084
      -3.223
      -3.449
      -3.877
      -4.174
      -3.738
      -2.212
      -0.029
       1.629
       1.667
       0.105
      -1.711
      -2.098
      -0.493
       1.961
       3.319
       2.518
       0.318
      -1.365
      -1.116
       0.861
       3.071
       4.009
       3.195
       1.253
      -0.718
      -1.836
      -1.856
      -1.238
      -0.818
      -1.125
      -1.805
      -1.771
      -0.174
       2.579
       4.819
       4.833
       2.283
      -1.469
      -4.393
      -5.223
      -4.084
      -2.069
      -0.409
       0.116
      -0.597
      -1.903
      -2.617
      -1.712
       0.758
       3.411
       4.478
       3.268
       0.829
      -0.890
      -0.654
       1.110
       2.821
       3.190
       2.247
       1.100
       0.777
       1.297
       1.790
       1.403
       0.071
      -1.504
      -2.524
      -2.699
      -2.329
      -1.945
      -1.926
      -2.324
      -2.867
      -3.096
      -2.620
      -1.399
       0.168
       1.488
       2.182
       2.299
       2.150
       1.962
       1.713
       1.263
       0.611
       0.002
      -0.182
       0.363
       1.641
       3.207
       4.196
       3.700
       1.419
      -1.914
      -4.866
      -6.274
      -6.037
      -4.988
      -4.000
      -3.214
      -2.130
      -0.353
       1.859
       3.755
       4.677
       4.442
       3.286
       1.621
      -0.092
      -1.338
      -1.631
      -0.799
       0.788
       2.369
       3.247
       3.137
       2.163
       0.654
      -0.992
      -2.338
      -2.998
      -2.837
      -2.061
      -1.080
      -0.253
       0.242
       0.360
       0.087
      -0.548
      -1.404
      -2.200
      -2.597
      -2.325
      -1.275
       0.432
       2.401
       4.021
       4.691
       4.140
       2.635
       0.908
      -0.197
      -0.200
       0.685
       1.654
       1.867
       1.065
      -0.275
      -1.381
      -1.801
      -1.648
      -1.357
      -1.276
      -1.479
      -1.902
      -2.521
      -3.325
      -4.136
      -4.556
      -4.160
      -2.791
      -0.702
       1.541
       3.288
       4.048
       3.713
       2.685
       1.755
       1.678
       2.651
       4.113
       5.091
       4.886
       3.551
       1.775
       0.294
      -0.664
      -1.424
      -2.408
      -3.634
      -4.663
      -5.005
      -4.570
      -3.750
      -3.098
      -2.916
      -3.046
      -2.957
      -2.050
      -0.063
       2.618
       5.017
       6.106
       5.501
       3.761
       1.985
       1.021
       0.921
       1.080
       0.889
       0.260
      -0.458
      -0.967
      -1.338
      -1.848
      -2.601
      -3.357
      -3.695
      -3.317
      -2.236
      -0.778
       0.571
       1.390
       1.548
       1.318
       1.229
       1.699
       2.688
       3.659
       3.895
       2.982
       1.139
      -0.847
      -2.073
      -2.069
      -1.105
      -0.030
       0.296
      -0.390
      -1.588
      -2.459
      -2.486
      -1.819
      -1.085
      -0.828
      -1.062
      -1.271
      -0.866
       0.305
       1.808
       2.924
       3.132
       2.426
       1.268
       0.264
      -0.213
      -0.237
      -0.240
      -0.699
      -1.754
      -3.029
      -3.795
      -3.366
      -1.533
       1.234
       3.925
       5.430
       5.082
       3.007
       0.081
      -2.532
      -3.989
      -4.078
      -3.082
      -1.427
       0.498
       2.306
       3.567
       3.962
       3.478
       2.354
       0.821
      -1.042
      -3.097
      -4.868
      -5.632
      -4.910
      -2.924
      -0.530
       1.359
       2.335
       2.581
       2.528
       2.495
       2.586
       2.771
       2.917
       2.787
       2.126
       0.917
      -0.470
      -1.497
      -1.947
      -2.151
      -2.622
      -3.389
      -3.793
      -3.025
      -0.938
       1.675
       3.618
       4.137
       3.325
       1.827
       0.274
      -1.006
      -1.900
      -2.312
      -2.143
      -1.453
      -0.543
       0.220
       0.693
       1.036
       1.475
       1.957
       2.058
       1.337
      -0.161
      -1.793
      -2.818
      -3.019
      -2.789
      -2.612
      -2.500
      -1.967
      -0.549
       1.626
       3.795
       5.020
       4.758
       3.135
       0.837
      -1.259
      -2.467
      -2.508
      -1.557
      -0.134
       1.119
       1.726
