Origin Time       3/10/2009 5:20:54	 
Lat.              30.0°N	
Long.             79.9°E	
Depth (Km)         15.0
Magnitude         4.3
 Region           BAGESHWAR-UTTRAKHAND                                             
 Above details taken from IMD 
     
Station Code      KAP
Station Lat.       29.941  N
Station Long.      79.899  E
Station Height(m) 1066.0
Site Class        A   Vs30 between 700 m/sec to 1400 m/sec * 
Record Time       03.10.2009 05:20:45.114
Sampling Rate     200. Hz
 Record Duration   68.780 Sec.
 Direction         E-W (E positive)
Max. Acceleration     15.535 cm/sec**2
     
  * For reference see Site Classification link of website 
     
 Base Line Corrected and Low Pass Filtered (Cut Off at 35 Hz) Time History
 Acceleration data in cm/sec**2
    
[...]
       0.002
       0.002
       0.002
       0.002
       0.002
       0.003
       0.004
       0.004
       0.002
      -0.002
      -0.007
      -0.010
      -0.008
      -0.003
       0.003
       0.007
       0.007
       0.005
       0.003
       0.000
      -0.001
      -0.001
       0.001
       0.004
       0.006
       0.004
      -0.004
      -0.012
      -0.017
      -0.014
      -0.007
       0.001
       0.003
      -0.001
      -0.006
      -0.008
      -0.004
       0.001
       0.005
       0.005
       0.003
       0.003
       0.005
       0.007
       0.006
       0.001
      -0.005
      -0.011
      -0.015
      -0.017
      -0.018
      -0.017
      -0.012
      -0.003
       0.007
       0.013
       0.013
       0.010
       0.007
       0.004
       0.004
       0.004
       0.006
       0.007
       0.008
       0.009
       0.012
       0.013
       0.013
       0.009
       0.003
      -0.003
      -0.006
      -0.006
      -0.006
      -0.008
      -0.013
      -0.018
      -0.020
      -0.015
      -0.007
      -0.002
       0.000
      -0.001
      -0.001
       0.000
       0.001
       0.000
      -0.002
      -0.004
      -0.005
      -0.002
       0.004
       0.011
       0.015
       0.014
       0.010
       0.005
       0.003
       0.000
      -0.006
      -0.012
      -0.013
      -0.004
       0.009
       0.015
       0.009
      -0.004
      -0.014
      -0.016
      -0.010
      -0.004
      -0.001
       0.001
       0.003
       0.008
       0.012
       0.011
       0.005
      -0.003
      -0.006
      -0.005
      -0.001
       0.000
      -0.001
      -0.003
      -0.004
      -0.004
      -0.003
      -0.001
       0.002
       0.006
       0.010
       0.011
       0.010
       0.009
       0.010
       0.013
       0.016
       0.015
       0.010
       0.005
       0.002
       0.004
       0.006
       0.006
       0.005
       0.005
       0.008
       0.012
       0.012
       0.006
      -0.001
      -0.005
      -0.005
       0.000
       0.005
       0.007
       0.006
       0.004
       0.003
       0.004
       0.006
       0.006
       0.004
       0.001
       0.000
       0.004
       0.011
       0.015
       0.012
       0.006
       0.001
       0.002
       0.006
       0.012
       0.014
       0.011
       0.007
       0.005
       0.008
       0.012
       0.014
       0.013
       0.009
       0.004
       0.000
      -0.001
       0.001
       0.003
       0.004
       0.003
       0.002
       0.004
       0.008
       0.010
       0.008
       0.002
      -0.006
      -0.011
      -0.010
      -0.001
       0.008
       0.013
       0.010
       0.004
       0.000
       0.000
       0.002
       0.004
       0.005
       0.006
       0.009
       0.015
       0.018
       0.016
       0.011
       0.006
       0.005
       0.008
       0.011
       0.010
       0.006
       0.002
       0.003
       0.010
       0.018
       0.022
       0.020
       0.013
       0.005
       0.000
      -0.002
      -0.001
       0.000
       0.001
       0.002
       0.004
       0.009
       0.013
       0.013
       0.008
       0.001
      -0.002
       0.002
       0.011
       0.018
       0.018
       0.010
      -0.001
      -0.005
       0.000
       0.011
       0.021
       0.022
       0.015
       0.001
      -0.011
      -0.017
      -0.011
       0.003
       0.017
       0.022
       0.017
       0.010
       0.007
       0.012
       0.019
       0.021
       0.015
       0.003
      -0.007
      -0.009
      -0.005
       0.005
       0.015
       0.019
       0.015
       0.005
      -0.005
      -0.008
      -0.002
       0.009
       0.019
       0.020
       0.012
       0.001
      -0.005
      -0.003
       0.005
       0.015
       0.023
       0.028
       0.030
       0.025
       0.015
       0.004
      -0.001
       0.001
       0.008
       0.011
       0.007
      -0.003
      -0.013
      -0.013
      -0.004
       0.007
       0.011
       0.003
      -0.009
      -0.016
      -0.014
      -0.008
      -0.004
      -0.003
       0.002
       0.013
       0.024
       0.028
       0.022
       0.013
       0.008
       0.010
       0.012
       0.010
       0.005
       0.000
      -0.006
      -0.011
      -0.011
      -0.003
       0.011
       0.021
       0.019
       0.008
      -0.005
      -0.009
      -0.005
       0.002
       0.006
       0.008
       0.010
       0.011
       0.008
       0.003
      -0.002
      -0.004
      -0.004
      -0.003
      -0.002
       0.001
       0.007
       0.012
       0.012
       0.005
      -0.004
      -0.010
      -0.011
      -0.006
       0.000
       0.003
       0.003
       0.000
      -0.002
       0.000
       0.006
       0.013
       0.018
       0.013
       0.001
      -0.012
      -0.016
      -0.009
       0.003
       0.010
       0.007
       0.001
       0.000
       0.008
       0.021
       0.028
       0.025
       0.014
       0.004
       0.001
       0.004
       0.007
       0.004
      -0.001
      -0.002
       0.002
       0.006
       0.006
       0.002
       0.002
       0.009
       0.020
       0.023
       0.017
       0.007
       0.000
      -0.004
      -0.007
      -0.011
      -0.011
      -0.005
       0.003
       0.005
      -0.002
      -0.011
      -0.013
      -0.002
       0.012
       0.020
       0.016
       0.004
      -0.009
      -0.015
      -0.015
      -0.013
      -0.010
      -0.008
      -0.005
       0.000
       0.007
       0.013
       0.015
       0.012
       0.005
       0.000
      -0.002
       0.001
       0.007
       0.012
       0.011
       0.004
      -0.003
      -0.006
      -0.005
      -0.001
       0.003
       0.007
       0.008
       0.006
       0.000
      -0.006
      -0.007
      -0.002
       0.003
       0.004
       0.002
       0.001
       0.002
       0.002
      -0.005
      -0.015
      -0.024
      -0.025
      -0.020
      -0.011
      -0.003
       0.002
       0.005
       0.005
       0.002
      -0.001
      -0.002
       0.000
       0.002
       0.002
      -0.002
      -0.007
      -0.009
      -0.006
       0.000
       0.008
       0.015
       0.017
       0.014
       0.009
       0.005
       0.005
       0.007
       0.008
       0.008
       0.006
       0.006
       0.007
       0.011
       0.015
       0.015
       0.007
      -0.006
      -0.015
      -0.014
      -0.002
       0.013
       0.021
       0.020
       0.014
       0.011
       0.014
       0.019
       0.019
       0.011
       0.002
      -0.002
       0.002
       0.006
       0.004
      -0.005
      -0.012
      -0.009
       0.002
       0.013
       0.017
       0.013
       0.005
      -0.001
      -0.001
       0.002
       0.005
       0.004
       0.001
      -0.002
      -0.002
       0.002
       0.008
       0.011
       0.012
       0.011
       0.011
       0.013
       0.014
       0.012
       0.007
       0.001
      -0.001
       0.000
       0.002
       0.004
       0.003
       0.001
       0.000
       0.001
       0.004
       0.010
       0.015
       0.018
       0.018
       0.015
       0.010
       0.005
       0.003
       0.005
       0.011
       0.013
       0.004
      -0.015
      -0.027
      -0.015
       0.025
       0.074
       0.105
       0.111
       0.104
       0.102
       0.100
       0.089
       0.076
       0.099
       0.180
       0.287
       0.332
       0.228
      -0.038
      -0.374
      -0.591
      -0.504
      -0.073
       0.524
       0.985
       1.078
       0.752
       0.092
      -0.726
      -1.412
      -1.599
      -1.062
       0.024
       1.115
       1.642
       1.360
       0.432
      -0.710
      -1.586
      -1.861
      -1.461
      -0.548
       0.597
       1.624
       2.113
       1.718
       0.496
      -0.939
      -1.750
      -1.493
      -0.437
       0.693
       1.259
       1.065
       0.381
      -0.316
      -0.673
      -0.661
      -0.452
      -0.159
       0.215
       0.577
       0.649
       0.222
      -0.512
      -1.028
      -0.926
      -0.318
       0.269
       0.342
      -0.172
      -0.935
      -1.492
      -1.530
      -0.951
       0.135
       1.398
       2.341
       2.519
       1.804
       0.490
      -0.846
      -1.626
      -1.537
      -0.621
       0.787
       2.180
       2.996
       2.767
       1.369
      -0.732
      -2.555
      -3.107
      -2.045
       0.024
       1.884
       2.485
       1.600
      -0.121
      -1.719
      -2.585
      -2.644
      -2.098
      -1.174
      -0.151
       0.596
       0.792
       0.500
       0.062
      -0.246
      -0.433
      -0.656
      -0.928
      -1.076
      -0.943
      -0.547
      -0.062
       0.318
       0.517
       0.646
       0.903
       1.324
       1.659
       1.601
       1.154
       0.684
       0.579
       0.876
       1.292
       1.573
       1.690
       1.638
       1.191
       0.085
      -1.525
      -2.912
      -3.228
      -2.162
      -0.243
       1.422
       1.824
       0.709
      -1.208
      -2.723
      -2.977
      -2.011
      -0.593
       0.481
       0.990
       1.287
       1.736
       2.192
       2.077
       1.041
      -0.503
      -1.580
      -1.448
      -0.244
       1.127
       1.736
       1.322
       0.399
      -0.272
      -0.338
      -0.089
      -0.093
      -0.578
      -1.153
      -1.182
      -0.433
       0.626
       1.220
       0.985
       0.299
      -0.112
       0.091
       0.526
       0.487
      -0.349
      -1.570
      -2.330
      -2.016
      -0.727
       0.770
       1.580
       1.319
       0.368
      -0.491
      -0.735
      -0.437
       0.007
       0.379
       0.806
       1.441
       2.082
       2.176
       1.251
      -0.585
      -2.529
      -3.525
      -2.977
      -1.199
       0.769
       1.833
       1.498
       0.062
      -1.661
      -2.837
      -3.005
      -2.202
      -0.864
       0.411
       1.120
       1.076
       0.493
      -0.133
      -0.323
       0.079
       0.811
       1.419
       1.605
       1.417
       1.140
       1.022
       1.089
       1.196
       1.191
       1.013
       0.639
       0.043
      -0.714
      -1.359
      -1.501
      -0.934
       0.105
       1.028
       1.299
       0.820
      -0.026
      -0.684
      -0.822
      -0.519
      -0.138
      -0.005
      -0.176
      -0.443
      -0.539
      -0.353
       0.005
       0.316
       0.422
       0.319
       0.116
      -0.040
      -0.021
       0.229
       0.624
       0.900
       0.754
       0.083
      -0.881
      -1.719
      -2.114
      -1.989
      -1.433
      -0.596
       0.324
       1.059
       1.353
       1.088
       0.332
      -0.694
      -1.666
      -2.212
      -2.111
      -1.508
      -0.857
      -0.513
      -0.375
      -0.011
       0.811
       1.797
       2.391
       2.302
       1.703
       0.970
       0.363
      -0.018
      -0.072
       0.318
       1.066
       1.710
       1.647
       0.679
      -0.665
      -1.432
      -0.987
       0.442
       1.932
       2.564
       2.039
       0.757
      -0.564
      -1.352
      -1.424
      -0.944
      -0.269
       0.219
       0.254
      -0.153
      -0.695
      -0.974
      -0.789
      -0.262
       0.288
       0.559
       0.398
      -0.245
      -1.365
      -2.740
      -3.740
      -3.586
      -2.074
      -0.005
       1.248
       0.763
      -1.178
      -3.169
      -3.527
      -1.413
       2.441
       5.956
       6.989
       4.873
       1.061
      -1.842
      -2.056
      -0.038
       1.966
       1.968
       0.040
      -1.864
      -1.903
      -0.147
       1.597
       1.631
       0.007
      -1.579
      -1.412
       0.646
       3.000
       3.689
       2.055
      -0.717
      -2.633
      -2.544
      -1.030
       0.224
      -0.019
      -1.456
      -2.570
      -2.057
      -0.091
       1.726
       1.775
      -0.028
      -2.002
      -2.176
      -0.199
       2.213
       2.864
       1.224
      -1.009
      -1.566
       0.137
       2.402
       2.901
       0.967
      -1.688
      -2.499
      -0.361
       3.362
       5.958
       5.522
       2.298
      -1.731
      -4.396
      -4.720
      -3.218
      -1.197
       0.204
       0.486
      -0.321
      -1.915
      -3.756
      -5.047
      -5.021
      -3.478
      -1.085
       0.957
       1.685
       1.017
      -0.225
      -0.998
      -0.921
      -0.555
      -0.695
      -1.325
      -1.426
       0.002
       2.701
       5.064
       5.379
       3.247
      -0.139
      -3.006
      -4.316
      -4.264
      -3.726
      -3.337
      -3.066
      -2.599
      -2.055
      -2.203
      -3.831
      -6.774
      -9.575
     -10.280
      -7.840
      -2.992
       2.195
       5.787
       7.283
       7.702
       8.446
      10.019
      11.731
      12.570
      12.326
      11.840
      12.077
      12.901
      12.794
       9.959
       3.967
      -3.481
      -9.445
     -11.671
     -10.021
      -6.331
      -2.980
      -1.397
      -1.508
      -2.184
      -2.112
      -0.580
       2.087
       4.561
       5.148
       2.856
      -1.765
      -6.750
      -9.872
      -9.991
      -7.664
      -4.672
      -2.885
      -3.164
      -4.903
      -6.423
      -6.008
      -2.939
       2.133
       7.695
      12.258
      14.945
      15.535
      14.299
      11.902
       9.210
       6.849
       4.749
       2.208
      -1.376
      -5.700
      -9.485
     -11.322
     -10.715
      -8.433
      -5.921
      -4.334
      -4.026
      -4.762
      -6.166
      -7.838
      -9.143
      -9.189
      -7.291
      -3.534
       1.122
       5.342
       8.013
       8.510
       6.658
       2.742
      -2.342
      -7.068
      -9.722
      -9.199
      -5.620
      -0.292
       4.996
       8.836
      10.682
      10.749
       9.623
       7.923
       6.167
       4.768
       4.008
       3.999
       4.635
       5.585
       6.388
       6.634
       6.090
       4.671
       2.361
      -0.740
      -4.240
      -7.405
      -9.412
      -9.842
      -9.032
      -7.959
      -7.638
      -8.437
      -9.789
     -10.543
      -9.712
      -7.086
      -3.292
       0.648
       3.851
       5.831
       6.434
       5.705
       3.860
       1.377
      -1.013
      -2.550
      -2.797
      -1.893
      -0.461
       0.796
       1.523
       1.785
       1.769
       1.468
       0.687
      -0.646
      -2.244
      -3.529
      -3.941
      -3.217
      -1.499
       0.769
       3.073
       5.071
       6.661
       7.867
       8.655
       8.850
       8.202
       6.529
       3.867
       0.581
      -2.685
      -5.195
      -6.354
      -5.858
      -3.781
      -0.658
       2.518
       4.548
       4.582
       2.662
      -0.210
      -2.622
      -3.571
      -2.962
      -1.433
       0.241
       1.613
       2.537
       2.869
       2.322
       0.696
      -1.760
      -4.256
      -5.828
      -5.933
      -4.836
      -3.460
      -2.778
      -3.175
      -4.221
      -5.025
      -4.875
      -3.680
      -1.899
      -0.059
       1.669
       3.492
       5.604
       7.816
       9.557
      10.261
       9.793
       8.511
       6.953
       5.417
       3.834
       1.990
      -0.141
      -2.272
      -3.977
      -5.002
      -5.440
      -5.649
      -5.958
      -6.392
      -6.665
      -6.453
      -5.719
      -4.781
      -4.084
      -3.878
      -4.109
      -4.530
      -4.881
      -4.973
      -4.677
      -3.904
      -2.636
      -0.972
       0.881
       2.678
       4.238
       5.507
       6.535
       7.401
       8.161
       8.834
       9.388
       9.708
       9.585
       8.813
       7.371
       5.548
       3.871
       2.811
       2.455
       2.414
       2.064
       0.972
      -0.813
      -2.834
      -4.605
      -5.970
      -7.104
      -8.199
      -9.181
      -9.731
      -9.564
      -8.674
      -7.328
      -5.829
      -4.323
      -2.841
      -1.503
      -0.622
      -0.529
      -1.192
      -1.995
      -1.984
      -0.498
       2.319
       5.528
       7.932
       8.724
       7.836
       5.860
       3.679
       2.030
       1.195
       0.940
       0.758
       0.266
      -0.507
      -1.176
      -1.330
      -0.856
       0.008
       0.880
       1.495
       1.805
       1.905
       1.853
       1.546
       0.748
      -0.706
      -2.673
      -4.640
      -5.978
      -6.339
      -5.876
      -5.062
      -4.266
      -3.454
      -2.317
      -0.699
       1.113
       2.538
       3.155
       3.046
       2.723
       2.721
       3.164
       3.652
       3.597
       2.767
       1.572
       0.808
       1.048
       2.189
       3.560
       4.447
       4.585
       4.193
       3.650
       3.144
       2.615
       1.980
       1.367
       1.115
       1.505
       2.463
       3.516
       4.066
       3.777
       2.752
       1.358
      -0.095
      -1.529
      -3.007
      -4.546
      -6.036
      -7.309
      -8.263
      -8.908
      -9.351
      -9.744
     -10.152
     -10.393
     -10.053
      -8.776
      -6.613
      -4.099
      -1.944
      -0.601
      -0.067
      -0.043
      -0.214
      -0.367
      -0.337
       0.044
       0.876
       2.099
       3.510
       4.868
       5.994
       6.794
       7.218
       7.259
       6.989
       6.581
       6.250
       6.152
       6.326
       6.683
       7.039
       7.137
       6.728
       5.701
       4.220
       2.676
       1.405
       0.363
      -0.919
      -2.965
      -5.836
      -8.896
     -11.112
     -11.687
     -10.541
      -8.330
      -6.010
      -4.298
      -3.396
      -3.103
      -3.120
      -3.287
      -3.579
      -3.923
      -4.051
      -3.570
      -2.286
      -0.489
       1.108
       1.846
       1.642
       1.115
       1.177
       2.429
       4.830
       7.750
      10.255
      11.424
      10.694
       8.182
       4.764
       1.654
      -0.325
      -1.199
      -1.616
      -2.172
      -2.927
      -3.513
      -3.586
      -3.131
      -2.393
      -1.640
      -1.024
      -0.588
      -0.270
       0.103
       0.746
       1.717
       2.784
       3.542
       3.748
       3.538
       3.295
       3.259
       3.277
       2.940
       1.974
       0.498
      -1.064
      -2.293
      -3.007
      -3.312
      -3.511
      -3.956
      -4.876
      -6.229
      -7.666
      -8.696
      -8.967
      -8.450
      -7.395
      -6.106
      -4.747
      -3.341
      -1.904
      -0.527
       0.690
       1.761
       2.817
       3.981
       5.211
       6.322
       7.154
       7.730
       8.224
       8.744
       9.148
       9.077
       8.218
       6.604
       4.670
       3.030
       2.103
       1.861
       1.860
       1.530
       0.510
      -1.172
      -3.134
      -4.825
      -5.737
      -5.602
      -4.524
      -3.002
      -1.732
      -1.251
      -1.634
      -2.458
      -3.061
      -2.920
      -1.943
      -0.525
       0.631
       0.864
      -0.091
      -1.918
      -3.822
      -4.910
      -4.649
