Origin Time       01/05/2009 22:36:25 UTC
Lat.              29.9 N 
Long.             80.1 E 
Depth (Km)         10.0
Magnitude         4.6
 Region           Bageshwar-Uttarakhand                                            
 Above details taken from IMD 
    
Station Code      KAP
Station Lat.       29.941  N
Station Long.      79.899  E
Station Height(m) 1066.0
Site Class        A   Vs30 between 700 m/sec to 1400 m/sec * 
Record Time       01.05.2010 22:36:09.679 UTC
Sampling Rate     200. Hz
 Record Duration   70.785 Sec.
 Direction         N-S (N positive)
Max. Acceleration   -175.922 cm/sec**2
     
  * For reference see Site Classification link of website 
     
 Base Line Corrected and Low Pass Filtered (Cut Off at 35 Hz) Time History
 Acceleration data in cm/sec**2
    
[...]
       0.008
       0.003
       0.001
       0.001
       0.002
       0.002
       0.000
       0.000
       0.003
       0.007
       0.012
       0.014
       0.015
       0.013
       0.012
       0.011
       0.010
       0.009
       0.007
       0.006
       0.003
       0.000
      -0.002
      -0.003
       0.000
       0.005
       0.009
       0.010
       0.007
       0.000
      -0.005
      -0.006
       0.000
       0.010
       0.018
       0.019
       0.013
       0.005
       0.000
       0.002
       0.007
       0.009
       0.006
       0.000
      -0.005
      -0.006
      -0.002
       0.003
       0.008
       0.009
       0.005
       0.000
      -0.005
      -0.007
      -0.007
      -0.004
       0.000
       0.003
       0.004
       0.002
       0.002
       0.003
       0.006
       0.010
       0.012
       0.012
       0.008
       0.003
      -0.001
      -0.002
      -0.001
       0.000
       0.001
       0.001
       0.001
       0.001
       0.001
       0.002
       0.003
       0.004
       0.003
       0.000
      -0.004
      -0.005
      -0.002
       0.002
       0.006
       0.009
       0.010
       0.011
       0.011
       0.011
       0.010
       0.009
       0.007
       0.005
       0.003
       0.003
       0.003
       0.006
       0.008
       0.009
       0.008
       0.004
       0.001
      -0.003
      -0.006
      -0.007
      -0.005
      -0.001
       0.003
       0.002
      -0.002
      -0.007
      -0.008
      -0.004
       0.003
       0.007
       0.008
       0.006
       0.003
       0.001
       0.001
       0.001
       0.002
       0.003
       0.003
       0.002
       0.001
       0.000
       0.001
      -0.001
      -0.005
      -0.013
      -0.020
      -0.022
      -0.019
      -0.012
      -0.007
      -0.006
      -0.008
      -0.012
      -0.013
      -0.014
      -0.012
      -0.009
      -0.002
       0.006
       0.011
       0.008
      -0.002
      -0.012
      -0.015
      -0.012
      -0.007
      -0.005
      -0.005
      -0.006
      -0.007
      -0.008
      -0.009
      -0.010
      -0.011
      -0.011
      -0.012
      -0.011
      -0.009
      -0.005
      -0.001
       0.000
      -0.003
      -0.007
      -0.010
      -0.009
      -0.006
      -0.005
      -0.006
      -0.008
      -0.008
      -0.002
       0.004
       0.006
       0.003
      -0.004
      -0.008
      -0.009
      -0.008
      -0.009
      -0.013
      -0.018
      -0.021
      -0.020
      -0.015
      -0.008
      -0.004
      -0.005
      -0.011
      -0.018
      -0.021
      -0.020
      -0.016
      -0.014
      -0.014
      -0.015
      -0.014
      -0.008
      -0.001
       0.004
       0.002
      -0.006
      -0.015
      -0.018
      -0.013
      -0.006
      -0.002
      -0.004
      -0.009
      -0.013
      -0.013
      -0.011
      -0.008
      -0.006
      -0.004
      -0.003
      -0.004
      -0.008
      -0.011
      -0.010
      -0.004
       0.000
      -0.001
      -0.008
      -0.017
      -0.021
      -0.021
      -0.019
      -0.018
      -0.018
      -0.016
      -0.012
      -0.008
      -0.005
      -0.006
      -0.008
      -0.010
      -0.012
      -0.016
      -0.021
      -0.025
      -0.027
      -0.026
      -0.022
      -0.016
      -0.011
      -0.010
      -0.013
      -0.018
      -0.023
      -0.025
      -0.024
      -0.022
      -0.021
      -0.021
      -0.020
      -0.015
      -0.007
       0.000
       0.002
      -0.004
      -0.014
      -0.022
      -0.024
      -0.021
      -0.017
      -0.015
      -0.015
      -0.016
      -0.014
      -0.010
      -0.007
      -0.007
      -0.012
      -0.018
      -0.020
      -0.013
      -0.003
       0.004
       0.000
      -0.012
      -0.023
      -0.026
      -0.021
      -0.014
      -0.011
      -0.012
      -0.014
      -0.015
      -0.015
      -0.014
      -0.014
      -0.014
      -0.013
      -0.011
      -0.011
      -0.012
      -0.015
      -0.016
      -0.014
      -0.009
      -0.006
      -0.007
      -0.012
      -0.014
      -0.011
      -0.004
       0.002
       0.002
      -0.003
      -0.011
      -0.016
      -0.019
      -0.019
      -0.020
      -0.020
      -0.020
      -0.020
      -0.021
      -0.022
      -0.023
      -0.022
      -0.017
      -0.012
      -0.010
      -0.011
      -0.016
      -0.019
      -0.015
      -0.007
       0.003
       0.007
       0.003
      -0.005
      -0.011
      -0.009
      -0.003
       0.003
       0.003
       0.000
      -0.003
      -0.003
      -0.001
       0.000
      -0.003
      -0.006
      -0.010
      -0.012
      -0.014
      -0.014
      -0.013
      -0.012
      -0.010
      -0.010
      -0.010
      -0.010
      -0.009
      -0.009
      -0.009
      -0.009
      -0.007
      -0.003
       0.001
       0.004
       0.007
       0.009
       0.008
       0.003
      -0.005
      -0.013
      -0.015
      -0.012
      -0.005
       0.000
       0.002
       0.002
       0.001
      -0.002
      -0.006
      -0.010
      -0.011
      -0.011
      -0.012
      -0.015
      -0.018
      -0.018
      -0.013
      -0.004
       0.004
       0.007
       0.006
       0.000
      -0.005
      -0.006
      -0.002
       0.004
       0.008
       0.008
       0.002
      -0.004
      -0.009
      -0.009
      -0.007
      -0.004
      -0.004
      -0.007
      -0.010
      -0.009
      -0.002
       0.006
       0.012
       0.013
       0.011
       0.006
       0.001
      -0.005
      -0.009
      -0.009
      -0.007
      -0.002
       0.002
       0.005
       0.005
       0.003
       0.000
      -0.002
      -0.002
      -0.002
      -0.003
      -0.002
       0.001
       0.004
       0.005
       0.004
       0.005
       0.007
       0.010
       0.009
       0.006
       0.004
       0.006
       0.010
       0.011
       0.005
      -0.004
      -0.011
      -0.009
      -0.003
       0.001
      -0.002
      -0.010
      -0.015
      -0.013
      -0.007
      -0.002
      -0.003
      -0.007
      -0.012
      -0.012
      -0.009
      -0.006
      -0.006
      -0.009
      -0.011
      -0.009
      -0.006
      -0.004
      -0.002
       0.001
       0.005
       0.010
       0.012
       0.009
       0.002
      -0.006
      -0.009
      -0.007
      -0.002
       0.002
       0.001
      -0.003
      -0.007
      -0.006
      -0.001
       0.006
       0.011
       0.010
       0.007
       0.003
       0.001
      -0.002
      -0.005
      -0.008
      -0.011
      -0.012
      -0.014
      -0.015
      -0.015
      -0.013
      -0.009
      -0.005
      -0.003
      -0.003
      -0.005
      -0.007
      -0.009
      -0.012
      -0.013
      -0.014
      -0.012
      -0.009
      -0.006
      -0.004
      -0.003
      -0.003
      -0.002
      -0.002
      -0.004
      -0.007
      -0.010
      -0.010
      -0.007
      -0.004
      -0.003
      -0.007
      -0.012
      -0.016
      -0.014
      -0.007
       0.001
       0.007
       0.008
       0.006
       0.001
      -0.004
      -0.007
      -0.005
      -0.003
      -0.002
      -0.004
      -0.009
      -0.012
      -0.012
      -0.009
      -0.005
      -0.001
       0.002
       0.005
       0.007
       0.008
       0.008
       0.007
       0.005
       0.003
       0.002
       0.004
       0.007
       0.009
       0.008
       0.004
      -0.003
      -0.008
      -0.008
      -0.001
       0.011
       0.020
       0.017
      -0.001
      -0.019
      -0.015
       0.018
       0.050
       0.032
      -0.042
      -0.094
      -0.019
       0.156
       0.160
      -0.378
      -1.517
      -2.654
      -2.740
      -1.158
       1.424
       3.214
       2.701
       0.159
      -2.365
      -2.860
      -1.343
       0.023
      -1.046
      -4.690
      -8.607
      -9.955
      -7.532
      -2.350
       3.280
       6.919
       7.065
       4.250
       1.187
       0.684
       2.616
       3.422
      -0.470
      -8.394
     -15.026
     -14.815
      -7.172
       2.888
       9.418
      10.704
       9.902
      10.998
      14.265
      15.569
      10.524
      -0.146
      -9.746
     -11.131
      -3.500
       6.573
      11.156
       8.132
       2.465
       0.586
       3.835
       7.440
       5.545
      -3.063
     -13.843
     -20.316
     -18.918
     -10.976
      -1.033
       6.482
       9.691
       9.544
       8.230
       7.232
       6.559
       5.323
       2.687
      -1.497
      -6.357
      -9.995
     -10.244
      -6.243
       0.339
       5.925
       7.494
       4.805
       0.288
      -3.186
      -4.551
      -5.125
      -7.391
     -12.801
     -19.971
     -24.795
     -22.954
     -13.283
       0.805
      13.450
      20.505
      22.025
      20.819
      18.789
      15.084
       7.966
      -1.977
     -11.038
     -15.040
     -12.788
      -6.884
      -1.138
       2.753
       6.054
      10.754
      16.707
      20.974
      19.990
      12.672
       1.823
      -7.513
     -11.570
     -10.398
      -7.273
      -5.635
      -6.358
      -7.655
      -7.228
      -4.389
      -0.428
       2.569
       3.148
       1.185
      -2.324
      -5.952
      -8.448
      -9.040
      -7.511
      -4.178
       0.229
       4.701
       8.180
       9.951
      10.014
       9.011
       7.644
       5.996
       3.461
      -0.529
      -5.588
     -10.112
     -11.972
      -9.770
      -3.902
       3.284
       8.639
      10.060
       7.703
       3.523
      -0.378
      -3.082
      -4.754
      -5.633
      -5.404
      -3.531
      -0.017
       4.148
       7.225
       7.521
       4.327
      -1.584
      -8.243
     -13.539
     -16.433
     -17.360
     -17.388
     -16.969
     -15.560
     -12.389
      -7.461
      -1.722
       3.777
       8.826
      13.969
      19.302
      23.512
      24.464
      21.068
      14.704
       8.625
       5.581
       5.767
       7.094
       7.481
       6.779
       6.423
       7.377
       8.616
       7.703
       2.896
      -5.136
     -13.545
     -19.266
     -21.040
     -19.890
     -17.867
     -16.258
     -14.740
     -12.082
      -7.671
      -2.460
       1.490
       2.518
       0.682
      -2.194
      -3.841
      -3.163
      -0.842
       1.510
       2.813
       3.338
       4.240
       6.252
       8.710
       9.872
       8.357
       4.473
       0.185
      -2.321
      -2.186
      -0.210
       2.154
       4.067
       5.706
       7.636
       9.901
      11.702
      11.936
      10.133
       6.981
       3.970
       2.283
       1.813
       1.254
      -0.635
      -3.695
      -6.314
      -6.803
      -4.916
      -2.139
      -0.549
      -1.239
      -3.592
      -5.918
      -6.963
      -6.961
      -7.232
      -8.640
     -10.500
     -11.094
      -9.222
      -5.224
      -0.631
       2.950
       4.629
       4.333
       2.549
       0.115
      -1.967
      -2.903
      -2.604
      -1.852
      -1.751
      -2.776
      -4.231
      -4.709
      -3.288
      -0.408
       2.452
       4.049
       4.361
       4.317
       4.638
       5.061
       4.771
       3.523
       2.209
       2.228
       4.287
       7.769
      11.127
      12.937
      12.723
      10.947
       8.328
       5.246
       1.767
      -1.912
      -5.156
      -7.016
      -6.760
      -4.529
      -1.595
       0.206
      -0.298
      -2.656
      -5.097
      -6.028
      -5.430
      -4.809
      -5.667
      -7.946
      -9.958
      -9.859
      -7.300
      -3.768
      -1.371
      -1.108
      -2.104
      -2.484
      -1.132
       1.245
       2.704
       1.755
      -1.257
      -4.262
      -5.061
      -3.131
      -0.131
       1.421
       0.203
      -2.926
      -5.780
      -6.594
      -5.042
      -1.952
       1.646
       5.161
       8.423
      11.359
      13.857
      15.872
      17.437
      18.422
      18.300
      16.334
      12.238
       6.820
       1.890
      -0.760
      -0.563
       1.471
       3.573
       4.492
       4.211
       3.604
       3.399
       3.389
       2.525
      -0.159
      -4.569
      -9.305
     -12.412
     -12.587
      -9.997
      -6.209
      -3.398
      -3.293
      -6.307
     -11.205
     -15.711
     -17.892
     -17.393
     -15.428
     -13.487
     -12.038
     -10.470
      -8.253
      -5.898
      -4.534
      -4.502
      -4.653
      -3.369
      -0.383
       2.672
       3.811
       2.874
       1.991
       3.669
       8.309
      13.688
      16.935
      17.080
      15.807
      15.919
      19.025
      24.360
      29.483
      32.086
      31.422
      28.377
      24.393
      20.211
      15.484
       9.488
       2.142
      -5.764
     -13.343
     -20.368
     -27.061
     -33.155
     -37.451
     -38.605
     -36.426
     -32.298
     -28.204
     -25.239
     -23.009
     -20.333
     -16.551
     -12.216
      -8.556
      -6.249
      -4.685
      -2.461
       1.374
       6.477
      11.527
      15.341
      17.763
      19.588
      21.693
      24.186
      26.308
      27.182
      26.820
      26.493
      28.045
      32.563
      39.473
      46.928
      53.274
      58.257
      62.644
      66.467
      67.768
      63.437
      51.478
      32.289
       7.666
     -20.907
     -52.111
     -82.935
    -108.305
    -124.177
    -131.533
    -136.687
    -146.513
    -162.049
    -175.823
    -175.922
    -154.821
    -116.177
     -72.841
     -36.801
     -10.351
      13.072
      40.306
      71.572
     101.369
     124.677
     141.530
     155.525
     167.846
     172.967
     161.447
     128.590
      80.684
      31.718
      -6.595
     -31.249
     -45.412
     -51.956
     -50.875
     -41.885
     -27.440
     -12.366
      -0.985
       5.064
       6.580
       5.060
       1.364
      -4.198
     -10.842
     -16.612
     -18.746
     -14.915
      -4.462
      11.110
      28.611
      44.249
      54.895
      59.103
      57.372
      51.335
      42.387
      30.980
      17.120
       1.358
     -14.803
     -29.435
     -41.052
     -49.203
     -54.739
     -59.625
     -65.885
     -73.840
     -81.132
     -83.806
     -78.853
     -66.167
     -48.462
     -29.436
     -11.801
       3.435
      16.287
      26.653
      33.768
      36.654
      35.103
      30.224
      23.919
      17.734
      12.154
       6.979
       2.275
      -1.164
      -2.350
      -1.041
       1.853
       4.753
       6.357
       6.386
       5.655
       5.396
       6.318
       8.158
      10.146
      11.945
      14.080
      17.361
      21.861
      26.533
      29.877
      31.078
      30.634
      29.939
      30.112
      30.981
      31.104
      28.844
      23.611
      16.213
       8.134
       0.469
      -6.569
     -13.304
     -19.901
     -25.982
     -30.920
     -34.563
     -37.667
     -41.486
     -46.760
     -52.958
     -58.416
     -61.241
     -60.299
     -55.639
     -48.201
     -39.201
     -29.615
     -20.006
     -10.638
      -1.707
       6.540
      13.881
      20.207
      25.485
      29.693
      32.866
      35.180
      36.938
      38.376
      39.472
      39.980
      39.676
      38.529
      36.647
      34.136
      31.037
      27.370
      23.252
      18.985
      14.991
      11.603
       8.833
       6.268
       3.194
      -1.064
      -6.737
     -13.340
     -19.681
     -24.227
     -25.755
     -24.015
     -19.935
     -15.176
     -11.281
      -8.929
      -7.758
      -6.850
      -5.517
      -3.776
      -2.240
      -1.664
      -2.541
      -4.930
      -8.485
     -12.591
     -16.545
     -19.775
     -22.045
     -23.461
     -24.246
     -24.429
     -23.723
     -21.728
     -18.309
     -13.828
      -8.988
      -4.470
      -0.688
       2.252
       4.460
       6.175
       7.716
       9.469
      11.782
      14.804
      18.370
      22.066
      25.402
      27.982
      29.589
      30.185
      29.895
      29.026
      28.017
      27.223
      26.622
      25.697
      23.683
      20.065
      14.953
       8.981
       2.835
      -3.151
      -9.006
     -14.799
     -20.337
     -25.142
     -28.699
     -30.749
     -31.410
     -31.075
     -30.183
     -29.050
     -27.796
     -26.321
     -24.342
     -21.560
     -17.902
     -13.640
      -9.248
      -5.101
      -1.275
       2.409
       6.162
       9.989
      13.601
      16.543
      18.459
      19.322
      19.451
      19.273
      19.008
      18.490
      17.319
      15.230
      12.399
       9.410
       6.877
       5.033
       3.629
       2.202
       0.457
      -1.527
      -3.349
      -4.517
      -4.696
      -3.833
      -2.142
       0.000
       2.161
       3.935
       5.021
       5.303
       4.922
       4.262
       3.748
       3.554
       3.441
       2.907
       1.558
      -0.602
      -3.167
      -5.612
      -7.627
      -9.257
     -10.785
     -12.462
     -14.286
     -15.966
     -17.122
     -17.557
     -17.360
     -16.788
     -16.061
     -15.232
     -14.212
     -12.870
     -11.133
      -9.031
      -6.680
      -4.230
      -1.796
       0.589
       2.984
       5.449
       7.911
      10.111
      11.750
      12.726
      13.235
      13.601
      13.925
      13.919
      13.118
      11.327
       8.856
       6.343
       4.315
       2.888
       1.861
       1.046
       0.512
       0.544
       1.375
       2.917
       4.733
       6.249
       7.062
       7.087
       6.493
       5.499
       4.199
       2.537
       0.413
      -2.162
      -4.959
      -7.546
      -9.450
     -10.342
     -10.162
      -9.139
      -7.719
      -6.419
      -5.613
      -5.357
      -5.338
      -5.075
      -4.310
      -3.297
      -2.663
      -2.858
      -3.674
      -4.309
      -3.972
      -2.522
      -0.573
       1.011
       1.796
       2.071
       2.541
       3.722
       5.510
       7.251
       8.222
       8.150
       7.373
       6.569
       6.277
       6.572
       7.102
       7.418
       7.347
       7.118
       7.133
       7.548
       8.010
       7.796
       6.294
       3.463
      -0.107
      -3.559
      -6.245
      -7.957
      -8.836
      -9.161
      -9.194
      -9.151
      -9.222
      -9.535
     -10.032
     -10.423
     -10.321
      -9.511
      -8.129
      -6.568
      -5.156
      -3.878
      -2.406
      -0.433
       1.986
       4.416
       6.371
       7.718
       8.806
      10.185
      12.099
      14.167
      15.532
      15.388
      13.520
      10.444
       7.060
       4.101
       1.821
       0.113
      -1.176
      -2.074
      -2.606
      -3.009
      -3.717
      -5.064
      -7.000
      -9.138
     -11.079
     -12.642
     -13.734
     -14.091
     -13.280
     -11.061
      -7.750
      -4.174
      -1.222
       0.609
       1.355
       1.393
       1.150
       0.921
       0.802
       0.701
       0.436
      -0.102
      -0.769
      -1.139
      -0.711
       0.755
       3.035
       5.521
       7.548
       8.719
       9.024
       8.691
       7.946
       6.910
       5.690
       4.509
       3.697
       3.528
       4.029
       4.903
