Origin Time       15/11/2012 06:46:07 UTC
Lat.              30.2 N 
Long.             80.1 E 
Depth (Km)          5.0
Magnitude         3.0
 Region           BAGESHWAR-uTTARAKHAND                                            
 Above details taken from IMD 
    
Station Code      KAP
Station Lat.       29.941  N
Station Long.      79.899  E
Station Height(m) 1066.0
Site Class        A   Vs30 between 700 m/sec to 1400 m/sec * 
Record Time       15.11.2012 06:45:38.119 UTC
Sampling Rate     200. Hz
 Record Duration   83.395 Sec.
 Direction         N-S (N positive)
Max. Acceleration     -5.773 cm/sec**2
     
  * For reference see Site Classification link of website 
     
 Base Line Corrected and Low Pass Filtered (Cut Off at 35 Hz) Time History
 Acceleration data in cm/sec**2
    
[...]
       0.002
       0.011
       0.016
       0.018
       0.019
       0.021
       0.018
       0.005
      -0.016
      -0.033
      -0.035
      -0.023
      -0.004
       0.014
       0.026
       0.029
       0.026
       0.023
       0.025
       0.028
       0.023
       0.011
      -0.003
      -0.013
      -0.013
      -0.001
       0.017
       0.029
       0.030
       0.025
       0.017
       0.007
      -0.005
      -0.014
      -0.017
      -0.015
      -0.011
      -0.003
       0.007
       0.014
       0.017
       0.015
       0.010
       0.004
       0.000
       0.002
       0.007
       0.009
       0.007
       0.007
       0.011
       0.017
       0.020
       0.023
       0.027
       0.031
       0.033
       0.032
       0.023
       0.004
      -0.019
      -0.033
      -0.031
      -0.021
      -0.011
      -0.004
       0.003
       0.012
       0.021
       0.027
       0.027
       0.022
       0.018
       0.019
       0.018
       0.006
      -0.013
      -0.024
      -0.016
       0.005
       0.025
       0.035
       0.030
       0.020
       0.013
       0.014
       0.018
       0.016
       0.008
       0.001
      -0.002
      -0.002
      -0.002
      -0.001
       0.002
       0.005
       0.010
       0.014
       0.013
       0.006
      -0.001
       0.000
       0.009
       0.017
       0.018
       0.012
       0.005
       0.001
       0.002
       0.007
       0.010
       0.009
       0.007
       0.007
       0.008
       0.005
       0.003
       0.005
       0.012
       0.020
       0.025
       0.026
       0.022
       0.012
       0.001
      -0.003
      -0.001
       0.003
       0.007
       0.012
       0.017
       0.021
       0.024
       0.025
       0.022
       0.015
       0.006
       0.003
       0.005
       0.009
       0.011
       0.011
       0.009
       0.005
       0.002
       0.000
      -0.002
      -0.003
       0.002
       0.013
       0.023
       0.022
       0.012
       0.000
      -0.005
      -0.003
       0.006
       0.014
       0.016
       0.011
       0.006
       0.008
       0.013
       0.017
       0.019
       0.020
       0.020
       0.017
       0.011
       0.004
       0.000
       0.000
       0.006
       0.017
       0.026
       0.028
       0.023
       0.014
       0.004
      -0.004
      -0.004
       0.003
       0.010
       0.012
       0.012
       0.012
       0.011
       0.007
       0.002
      -0.002
      -0.003
       0.000
       0.006
       0.012
       0.012
       0.004
      -0.002
      -0.001
       0.006
       0.013
       0.015
       0.013
       0.007
      -0.001
      -0.008
      -0.012
      -0.013
      -0.010
       0.001
       0.014
       0.022
       0.020
       0.014
       0.009
       0.005
       0.002
       0.000
      -0.002
      -0.005
      -0.007
      -0.005
       0.003
       0.011
       0.016
       0.019
       0.021
       0.018
       0.012
       0.004
      -0.002
      -0.003
       0.001
       0.009
       0.015
       0.014
       0.010
       0.011
       0.018
       0.026
       0.025
       0.016
       0.006
       0.000
       0.000
       0.005
       0.009
       0.006
       0.000
      -0.001
       0.005
       0.011
       0.013
       0.012
       0.012
       0.016
       0.023
       0.028
       0.027
       0.017
       0.002
      -0.006
      -0.007
      -0.004
      -0.001
       0.004
       0.010
       0.015
       0.017
       0.015
       0.012
       0.008
       0.006
       0.009
       0.011
       0.006
      -0.004
      -0.011
      -0.008
       0.000
       0.009
       0.013
       0.010
       0.004
      -0.002
      -0.005
      -0.007
      -0.008
      -0.005
       0.002
       0.009
       0.010
       0.007
       0.007
       0.011
       0.014
       0.013
       0.007
       0.000
      -0.007
      -0.012
      -0.016
      -0.020
      -0.025
      -0.024
      -0.015
      -0.001
       0.007
       0.010
       0.011
       0.012
       0.015
       0.016
       0.013
       0.007
      -0.001
      -0.003
       0.003
       0.007
       0.001
      -0.016
      -0.030
      -0.033
      -0.023
      -0.004
       0.015
       0.023
       0.018
       0.009
       0.007
       0.015
       0.023
       0.025
       0.015
      -0.002
      -0.017
      -0.023
      -0.017
      -0.008
      -0.004
      -0.006
      -0.007
       0.000
       0.010
       0.018
       0.018
       0.008
      -0.004
      -0.009
      -0.007
      -0.004
      -0.006
      -0.011
      -0.013
      -0.012
      -0.009
      -0.002
       0.010
       0.022
       0.027
       0.020
       0.006
      -0.007
      -0.011
      -0.006
       0.002
       0.000
      -0.012
      -0.024
      -0.026
      -0.014
       0.004
       0.020
       0.027
       0.021
       0.009
       0.003
       0.006
       0.010
       0.004
      -0.011
      -0.027
      -0.033
      -0.028
      -0.015
      -0.002
       0.006
       0.012
       0.020
       0.031
       0.039
       0.037
       0.029
       0.020
       0.012
       0.005
       0.000
      -0.005
      -0.011
      -0.016
      -0.020
      -0.018
      -0.013
      -0.003
       0.010
       0.023
       0.028
       0.024
       0.016
       0.008
       0.003
       0.000
       0.000
       0.002
      -0.002
      -0.011
      -0.020
      -0.018
      -0.007
       0.008
       0.018
       0.019
       0.012
       0.002
      -0.001
       0.003
       0.008
       0.007
      -0.001
      -0.012
      -0.020
      -0.019
      -0.010
       0.002
       0.009
       0.015
       0.025
       0.039
       0.046
       0.039
       0.021
       0.002
      -0.012
      -0.015
      -0.011
      -0.004
       0.002
       0.006
       0.011
       0.015
       0.013
       0.005
      -0.004
      -0.005
       0.004
       0.015
       0.019
       0.007
      -0.013
      -0.028
      -0.024
      -0.005
       0.014
       0.022
       0.019
       0.013
       0.007
       0.005
       0.006
       0.007
       0.003
      -0.001
      -0.002
      -0.001
      -0.001
      -0.001
       0.004
       0.010
       0.010
       0.002
      -0.007
      -0.008
       0.004
       0.022
       0.035
       0.032
       0.015
      -0.003
      -0.008
      -0.002
       0.005
       0.005
      -0.001
      -0.009
      -0.014
      -0.009
       0.006
       0.024
       0.036
       0.037
       0.033
       0.027
       0.019
       0.012
       0.007
       0.002
      -0.004
      -0.012
      -0.020
      -0.023
      -0.015
       0.011
       0.049
       0.079
       0.083
       0.062
       0.033
       0.011
       0.003
       0.003
       0.002
      -0.007
      -0.020
      -0.029
      -0.029
      -0.022
      -0.011
       0.003
       0.017
       0.029
       0.036
       0.042
       0.046
       0.041
       0.022
      -0.003
      -0.018
      -0.018
      -0.009
      -0.005
      -0.009
      -0.014
      -0.011
       0.001
       0.014
       0.015
       0.005
      -0.003
       0.005
       0.024
       0.037
       0.032
       0.011
      -0.014
      -0.030
      -0.030
      -0.018
      -0.007
       0.000
       0.004
       0.010
       0.015
       0.017
       0.018
       0.022
       0.026
       0.024
       0.017
       0.005
      -0.010
      -0.022
      -0.027
      -0.025
      -0.020
      -0.014
      -0.002
       0.018
       0.040
       0.055
       0.058
       0.044
       0.018
      -0.013
      -0.033
      -0.037
      -0.029
      -0.019
      -0.012
      -0.011
      -0.019
      -0.036
      -0.066
      -0.116
      -0.198
      -0.315
      -0.444
      -0.533
      -0.516
      -0.343
       0.000
       0.501
       1.099
       1.611
       1.716
       1.191
       0.270
      -0.391
      -0.312
       0.211
       0.309
      -0.532
      -1.832
      -2.505
      -1.925
      -0.559
       0.498
       0.632
       0.299
       0.474
       1.513
       2.685
       2.875
       1.703
      -0.119
      -1.506
      -1.961
      -1.856
      -1.852
      -2.141
      -2.266
      -1.640
      -0.208
       1.426
       2.491
       2.651
       2.157
       1.503
       0.983
       0.537
      -0.043
      -0.814
      -1.569
      -1.991
      -1.913
      -1.460
      -0.948
      -0.620
      -0.439
      -0.130
       0.511
       1.314
       1.774
       1.477
       0.576
      -0.220
      -0.244
       0.513
       1.415
       1.795
       1.480
       0.734
      -0.113
      -0.879
      -1.446
      -1.665
      -1.438
      -0.869
      -0.235
       0.233
       0.525
       0.751
       0.907
       0.796
       0.232
      -0.707
      -1.674
      -2.285
      -2.352
      -1.942
      -1.253
      -0.441
       0.455
       1.420
       2.328
       2.912
       2.892
       2.139
       0.815
      -0.601
      -1.511
      -1.574
      -0.963
      -0.224
       0.169
       0.164
       0.079
       0.224
       0.592
       0.873
       0.770
       0.281
      -0.324
      -0.766
      -0.954
      -0.972
      -0.906
      -0.734
      -0.372
       0.164
       0.655
       0.785
       0.434
      -0.138
      -0.460
      -0.285
       0.162
       0.399
       0.192
      -0.200
      -0.290
       0.101
       0.630
       0.761
       0.325
      -0.297
      -0.569
      -0.349
       0.026
       0.150
      -0.045
      -0.318
      -0.437
      -0.384
      -0.291
      -0.264
      -0.288
      -0.277
      -0.162
       0.046
       0.294
       0.544
       0.778
       0.943
       0.941
       0.710
       0.318
      -0.052
      -0.242
      -0.228
      -0.131
      -0.087
      -0.121
      -0.132
      -0.025
       0.151
       0.228
       0.097
      -0.175
      -0.411
      -0.506
      -0.508
      -0.557
      -0.739
      -0.979
      -1.028
      -0.630
       0.234
       1.233
       1.845
       1.687
       0.792
      -0.378
      -1.185
      -1.201
      -0.522
       0.278
       0.570
       0.200
      -0.386
      -0.557
      -0.089
       0.651
       1.094
       0.994
       0.566
       0.146
      -0.166
      -0.465
      -0.753
      -0.813
      -0.450
       0.220
       0.783
       0.873
       0.499
       0.025
      -0.179
      -0.074
       0.055
      -0.090
      -0.512
      -0.905
      -0.954
      -0.604
      -0.062
       0.415
       0.687
       0.732
       0.599
       0.390
       0.227
       0.155
       0.072
      -0.186
      -0.639
      -1.103
      -1.330
      -1.225
      -0.883
      -0.463
      -0.039
       0.414
       0.905
       1.316
       1.428
       1.115
       0.519
       0.010
      -0.104
       0.166
       0.512
       0.613
       0.390
      -0.004
      -0.377
      -0.634
      -0.765
      -0.782
      -0.699
      -0.565
      -0.444
      -0.333
      -0.139
       0.201
       0.582
       0.754
       0.561
       0.149
      -0.112
       0.014
       0.334
       0.376
      -0.096
      -0.755
      -0.994
      -0.578
       0.092
       0.402
       0.170
      -0.242
      -0.387
      -0.187
       0.104
       0.269
       0.325
       0.398
       0.513
       0.569
       0.499
       0.357
       0.242
       0.168
       0.050
      -0.214
      -0.645
      -1.129
      -1.428
      -1.294
      -0.667
       0.218
       0.969
       1.319
       1.277
       1.038
       0.766
       0.476
       0.100
      -0.384
      -0.917
      -1.436
      -1.880
      -2.080
      -1.761
      -0.790
       0.538
       1.583
       1.826
       1.280
       0.468
       0.005
       0.152
       0.676
       1.071
       0.941
       0.288
      -0.516
      -1.002
      -0.932
      -0.448
       0.048
       0.189
      -0.083
      -0.507
      -0.756
      -0.706
      -0.472
      -0.238
      -0.077
       0.092
       0.399
       0.864
       1.313
       1.477
       1.198
       0.571
      -0.127
      -0.620
      -0.758
      -0.529
      -0.038
       0.516
       0.913
       1.013
       0.848
       0.636
       0.658
       1.015
       1.452
       1.482
       0.799
      -0.395
      -1.482
      -1.883
      -1.460
      -0.587
       0.116
       0.174
      -0.458
      -1.385
      -2.049
      -2.129
      -1.753
      -1.338
      -1.217
      -1.387
      -1.575
      -1.504
      -1.150
      -0.792
      -0.783
      -1.158
      -1.434
      -0.879
       0.836
       3.176
       5.002
       5.404
       4.421
       2.939
       1.903
       1.563
       1.451
       0.983
       0.038
      -1.041
      -1.882
      -2.429
      -2.871
      -3.300
      -3.492
      -3.090
      -2.034
      -0.804
      -0.131
      -0.340
      -0.981
      -1.162
      -0.302
       1.396
       3.160
       4.267
       4.470
       3.917
       2.849
       1.471
       0.059
      -0.985
      -1.346
      -1.083
      -0.622
      -0.421
      -0.629
      -1.067
      -1.468
      -1.674
      -1.617
      -1.254
      -0.616
       0.097
       0.599
       0.790
       0.868
       1.076
       1.318
       1.162
       0.310
      -0.963
      -1.918
      -1.965
      -1.136
       0.034
       1.041
       1.779
       2.383
       2.825
       2.807
       2.092
       0.878
      -0.279
      -0.980
      -1.394
      -2.092
      -3.408
      -4.953
      -5.773
      -5.057
      -2.788
       0.170
       2.571
       3.500
       2.864
       1.389
       0.164
       0.017
       1.074
       2.699
       3.879
       3.860
       2.664
       1.075
       0.034
      -0.096
       0.215
       0.116
      -0.895
      -2.545
      -3.990
      -4.443
      -3.719
      -2.307
      -0.939
      -0.061
       0.386
       0.746
       1.235
       1.697
       1.730
       1.059
      -0.138
      -1.258
      -1.648
      -1.062
       0.158
       1.319
       1.888
       1.845
       1.592
       1.510
       1.604
       1.554
       1.084
       0.271
      -0.492
      -0.846
      -0.791
      -0.697
      -0.974
      -1.679
      -2.417
      -2.640
      -2.123
      -1.180
      -0.394
      -0.090
      -0.043
       0.303
       1.277
       2.613
       3.604
       3.637
       2.633
       1.056
      -0.437
      -1.359
      -1.549
      -1.127
      -0.389
       0.308
       0.664
       0.580
       0.214
      -0.119
      -0.193
      -0.056
      -0.005
      -0.345
      -1.148
      -2.186
      -3.055
      -3.388
      -3.034
      -2.108
      -0.899
       0.283
       1.204
       1.722
       1.782
       1.449
       0.975
       0.743
       1.055
       1.843
       2.608
       2.734
       1.983
       0.739
      -0.257
      -0.483
      -0.016
       0.604
       0.859
       0.620
       0.107
      -0.402
      -0.815
      -1.227
      -1.749
      -2.344
      -2.792
      -2.788
      -2.135
      -0.951
       0.273
       0.901
       0.589
      -0.409
      -1.375
      -1.629
      -0.997
       0.101
       0.984
       1.182
       0.736
       0.154
       0.033
       0.607
       1.550
       2.232
       2.210
       1.552
       0.704
       0.097
      -0.134
      -0.092
       0.139
       0.597
       1.282
       1.934
       2.066
       1.315
      -0.195
      -1.828
      -2.840
      -2.906
      -2.331
      -1.760
      -1.631
      -1.833
      -1.865
      -1.320
      -0.251
       0.889
       1.621
       1.769
       1.495
       1.055
       0.570
       0.014
      -0.581
      -1.003
      -0.988
      -0.479
       0.268
       0.852
       0.998
       0.711
       0.239
      -0.080
      -0.014
       0.416
       0.940
       1.229
       1.129
       0.780
       0.497
       0.507
       0.758
       0.961
       0.824
       0.270
      -0.516
      -1.194
      -1.447
      -1.161
      -0.517
       0.081
       0.246
      -0.121
      -0.770
      -1.307
      -1.512
      -1.467
      -1.390
      -1.376
      -1.303
      -1.007
      -0.492
       0.076
       0.555
       0.962
       1.367
       1.703
       1.760
       1.400
       0.761
       0.203
       0.057
       0.380
       0.930
       1.345
       1.355
       0.893
       0.069
      -0.899
      -1.738
      -2.185
      -2.103
      -1.594
      -0.972
      -0.576
      -0.519
      -0.615
      -0.536
      -0.098
       0.574
       1.142
       1.323
       1.080
       0.606
       0.142
      -0.171
      -0.303
      -0.259
      -0.037
       0.324
       0.687
       0.854
       0.695
       0.252
      -0.301
      -0.793
      -1.134
      -1.285
      -1.209
      -0.880
      -0.327
       0.357
       1.051
       1.637
       2.005
       2.069
       1.822
       1.351
       0.780
       0.159
      -0.547
      -1.347
      -2.109
      -2.584
      -2.579
      -2.105
      -1.355
      -0.543
       0.229
       0.932
       1.492
       1.751
       1.588
       1.082
       0.516
       0.185
       0.162
       0.236
       0.105
      -0.351
      -0.928
      -1.246
      -1.045
      -0.413
       0.254
       0.539
       0.313
      -0.175
      -0.512
      -0.453
      -0.094
       0.264
       0.381
       0.248
       0.051
      -0.002
       0.140
       0.343
       0.419
       0.304
       0.101
      -0.030
      -0.017
       0.092
       0.184
       0.153
      -0.046
      -0.363
      -0.654
      -0.760
      -0.621
      -0.327
      -0.038
       0.148
       0.254
       0.359
       0.493
       0.603
       0.617
       0.528
       0.387
       0.232
       0.045
      -0.197
      -0.454
      -0.616
      -0.597
      -0.423
      -0.224
      -0.105
      -0.039
       0.114
       0.468
       0.972
       1.403
       1.498
       1.128
       0.393
      -0.430
      -1.032
      -1.223
      -1.017
      -0.599
      -0.199
       0.043
       0.118
       0.080
      -0.034
      -0.224
      -0.473
      -0.707
      -0.841
      -0.864
      -0.847
      -0.854
      -0.852
      -0.697
      -0.266
       0.394
       1.025
       1.326
       1.191
       0.797
       0.455
       0.338
       0.368
       0.342
       0.173
      -0.014
      -0.028
       0.179
       0.436
       0.501
       0.288
      -0.064
      -0.328
      -0.398
      -0.348
      -0.302
      -0.283
      -0.223
      -0.088
       0.027
      -0.003
      -0.184
      -0.374
      -0.434
      -0.380
      -0.343
      -0.399
      -0.458
      -0.349
       0.008
       0.507
       0.932
       1.117
       1.045
       0.824
       0.601
       0.474
       0.446
       0.427
       0.317
       0.100
      -0.121
      -0.201
      -0.086
       0.127
       0.262
       0.204
      -0.027
      -0.346
      -0.709
      -1.136
      -1.608
      -1.987
      -2.079
      -1.801
      -1.274
      -0.736
      -0.356
      -0.107
       0.171
       0.584
       1.064
       1.423
       1.529
       1.415
       1.216
       1.039
       0.912
       0.817
       0.753
       0.710
       0.631
       0.428
       0.077
      -0.307
      -0.526
      -0.465
      -0.213
       0.001
      -0.004
