Origin Time       3/10/2009 5:20:54	 
Lat.              30.0°N	
Long.             79.9°E	
Depth (Km)         15.0
Magnitude         4.3
 Region           BAGESHWAR-UTTRAKHAND                                             
 Above details taken from IMD 
   
Station Code      KAP
Station Lat.       29.941
Station Long.      79.899
Station Height(m) 1066.0
Site Class        A   Vs30 between 700 m/sec to 1400 m/sec * 
Record Time       03.10.2009 05:20:45.114
Sampling Rate     200. Hz
 Record Duration   68.780 Sec.
 Direction         Vert. (Up positive)
Max. Acceleration     21.849 cm/sec**2
     
  * For reference see Site Classification link of website 
     
 Base Line Corrected and Low Pass Filtered (Cut Off at 35 Hz) Time History
 Acceleration data in cm/sec**2
    
[...]
      -0.009
      -0.005
      -0.001
      -0.003
      -0.010
      -0.014
      -0.010
      -0.002
       0.004
       0.007
       0.009
       0.010
       0.010
       0.007
       0.003
       0.000
       0.002
       0.004
       0.005
       0.004
       0.005
       0.007
       0.006
       0.000
      -0.006
      -0.007
       0.000
       0.005
       0.000
      -0.014
      -0.022
      -0.011
       0.015
       0.036
       0.032
       0.004
      -0.025
      -0.035
      -0.020
       0.006
       0.024
       0.024
       0.011
      -0.006
      -0.021
      -0.027
      -0.019
      -0.004
       0.006
       0.001
      -0.015
      -0.026
      -0.021
      -0.006
       0.005
       0.002
      -0.010
      -0.020
      -0.020
      -0.012
      -0.001
       0.008
       0.012
       0.009
      -0.002
      -0.013
      -0.015
      -0.008
      -0.001
      -0.001
      -0.006
      -0.010
      -0.004
       0.007
       0.016
       0.016
       0.010
       0.007
       0.012
       0.018
       0.018
       0.006
      -0.011
      -0.025
      -0.029
      -0.023
      -0.013
      -0.002
       0.008
       0.014
       0.014
       0.011
       0.007
       0.006
       0.006
       0.004
      -0.003
      -0.009
      -0.009
      -0.003
       0.001
      -0.004
      -0.014
      -0.019
      -0.012
       0.002
       0.012
       0.011
       0.000
      -0.014
      -0.021
      -0.017
      -0.004
       0.011
       0.019
       0.014
       0.000
      -0.016
      -0.023
      -0.018
      -0.007
       0.001
       0.002
       0.001
       0.000
      -0.001
      -0.005
      -0.013
      -0.015
      -0.007
       0.007
       0.016
       0.012
      -0.001
      -0.013
      -0.015
      -0.007
       0.003
       0.008
       0.007
       0.003
      -0.001
       0.000
       0.002
       0.001
      -0.004
      -0.010
      -0.011
      -0.006
      -0.001
       0.001
      -0.001
      -0.005
      -0.007
      -0.007
      -0.006
      -0.003
       0.000
       0.001
       0.000
      -0.002
      -0.004
      -0.006
      -0.005
      -0.003
       0.002
       0.008
       0.009
       0.002
      -0.009
      -0.014
      -0.009
       0.002
       0.010
       0.009
       0.000
      -0.011
      -0.017
      -0.013
      -0.004
       0.004
       0.009
       0.007
       0.001
      -0.008
      -0.014
      -0.014
      -0.009
      -0.005
      -0.004
      -0.007
      -0.009
      -0.009
      -0.010
      -0.013
      -0.017
      -0.014
      -0.007
      -0.003
      -0.009
      -0.018
      -0.019
      -0.003
       0.021
       0.035
       0.028
       0.006
      -0.015
      -0.023
      -0.019
      -0.012
      -0.007
      -0.005
      -0.002
       0.001
       0.003
       0.004
       0.005
       0.006
       0.004
      -0.002
      -0.007
      -0.007
      -0.004
      -0.002
      -0.003
      -0.006
      -0.007
      -0.003
       0.001
       0.000
      -0.008
      -0.013
      -0.010
       0.002
       0.012
       0.011
      -0.003
      -0.020
      -0.027
      -0.021
      -0.008
       0.002
       0.004
       0.000
      -0.003
      -0.005
      -0.006
      -0.005
      -0.003
       0.001
       0.003
       0.003
       0.001
      -0.001
       0.001
       0.003
       0.001
      -0.004
      -0.008
      -0.008
      -0.010
      -0.019
      -0.031
      -0.033
      -0.016
       0.009
       0.023
       0.014
      -0.006
      -0.018
      -0.015
      -0.005
       0.002
       0.003
       0.002
      -0.001
      -0.007
      -0.013
      -0.015
      -0.008
      -0.001
       0.000
      -0.007
      -0.016
      -0.019
      -0.013
      -0.002
       0.006
       0.006
       0.001
      -0.003
      -0.003
       0.001
       0.003
      -0.001
      -0.013
      -0.025
      -0.030
      -0.026
      -0.019
      -0.013
      -0.007
      -0.001
       0.005
       0.003
      -0.006
      -0.008
       0.005
       0.022
       0.021
      -0.007
      -0.040
      -0.046
      -0.017
       0.020
       0.031
       0.010
      -0.017
      -0.021
      -0.004
       0.009
       0.001
      -0.017
      -0.021
      -0.003
       0.022
       0.032
       0.023
       0.007
      -0.005
      -0.010
      -0.016
      -0.026
      -0.031
      -0.023
      -0.003
       0.019
       0.028
       0.018
      -0.004
      -0.022
      -0.023
      -0.013
      -0.003
       0.002
       0.002
       0.002
       0.000
      -0.004
      -0.011
      -0.013
      -0.009
      -0.002
       0.000
      -0.007
      -0.017
      -0.019
      -0.010
       0.005
       0.017
       0.018
       0.007
      -0.006
      -0.014
      -0.016
      -0.016
      -0.016
      -0.019
      -0.018
      -0.010
       0.001
       0.008
       0.006
       0.000
      -0.002
       0.003
       0.008
       0.003
      -0.011
      -0.022
      -0.018
      -0.002
       0.015
       0.020
       0.015
       0.006
      -0.002
      -0.012
      -0.024
      -0.034
      -0.031
      -0.016
       0.001
       0.005
      -0.004
      -0.014
      -0.013
      -0.002
       0.008
       0.010
       0.008
       0.007
       0.011
       0.012
       0.005
      -0.009
      -0.017
      -0.012
       0.003
       0.015
       0.014
       0.001
      -0.014
      -0.020
      -0.012
       0.001
       0.011
       0.010
       0.000
      -0.011
      -0.015
      -0.008
       0.007
       0.021
       0.026
       0.015
      -0.004
      -0.019
      -0.019
      -0.005
       0.010
       0.014
       0.004
      -0.011
      -0.019
      -0.015
      -0.003
       0.010
       0.019
       0.020
       0.011
      -0.015
      -0.060
      -0.100
      -0.094
      -0.021
       0.087
       0.151
       0.119
       0.020
      -0.062
      -0.068
      -0.017
       0.024
       0.016
      -0.021
      -0.040
      -0.025
       0.000
       0.005
      -0.007
      -0.016
      -0.013
      -0.006
      -0.003
      -0.002
       0.004
       0.013
       0.017
       0.015
       0.011
       0.005
      -0.009
      -0.028
      -0.031
      -0.007
       0.025
       0.037
       0.016
      -0.015
      -0.028
      -0.012
       0.011
       0.016
       0.003
      -0.009
      -0.007
       0.004
       0.009
       0.006
       0.001
      -0.002
      -0.005
      -0.009
      -0.010
      -0.006
      -0.005
      -0.015
      -0.030
      -0.034
      -0.017
       0.012
       0.029
       0.023
       0.003
      -0.015
      -0.020
      -0.014
       0.002
       0.021
       0.035
       0.033
       0.012
      -0.018
      -0.039
      -0.036
      -0.018
      -0.002
       0.001
      -0.006
      -0.010
      -0.006
       0.002
       0.006
       0.004
       0.001
       0.000
      -0.008
      -0.022
      -0.033
      -0.030
      -0.016
      -0.001
       0.005
       0.008
       0.016
       0.025
       0.018
      -0.007
      -0.024
      -0.006
       0.037
       0.055
       0.018
      -0.049
      -0.083
      -0.047
       0.032
       0.082
       0.060
      -0.009
      -0.058
      -0.050
      -0.009
       0.020
       0.014
      -0.008
      -0.020
      -0.014
      -0.002
       0.002
       0.000
      -0.001
       0.004
       0.010
       0.012
       0.008
       0.001
      -0.005
      -0.007
      -0.009
      -0.014
      -0.020
      -0.024
      -0.020
      -0.009
       0.001
       0.001
      -0.008
      -0.014
      -0.008
       0.009
       0.022
       0.018
      -0.001
      -0.023
      -0.029
      -0.018
      -0.001
       0.008
       0.006
      -0.002
      -0.008
      -0.010
      -0.010
      -0.009
      -0.006
      -0.001
       0.001
      -0.004
      -0.018
      -0.029
      -0.026
      -0.007
       0.014
       0.020
       0.008
      -0.010
      -0.018
      -0.013
      -0.004
       0.000
      -0.003
      -0.008
      -0.007
       0.000
       0.008
       0.009
       0.000
      -0.019
      -0.039
      -0.044
      -0.030
      -0.004
       0.016
       0.018
       0.009
       0.000
       0.000
       0.003
       0.000
      -0.010
      -0.019
      -0.021
      -0.019
      -0.012
       0.001
       0.021
       0.035
       0.028
       0.001
      -0.026
      -0.031
      -0.013
       0.006
       0.006
      -0.013
      -0.027
      -0.021
      -0.002
       0.009
       0.002
      -0.012
      -0.019
      -0.013
      -0.002
       0.007
       0.010
       0.006
      -0.003
      -0.015
      -0.024
      -0.025
      -0.015
      -0.001
       0.008
       0.006
      -0.005
      -0.018
      -0.022
      -0.015
       0.000
       0.010
       0.007
      -0.007
      -0.016
      -0.010
       0.008
       0.018
       0.008
      -0.014
      -0.030
      -0.027
      -0.011
       0.001
       0.001
      -0.007
      -0.013
      -0.014
      -0.011
      -0.008
      -0.003
       0.005
       0.012
       0.007
      -0.010
      -0.026
      -0.022
       0.006
       0.028
       0.006
      -0.045
      -0.018
       0.233
       0.754
       1.367
       1.735
       1.606
       1.081
       0.601
       0.604
       1.132
       1.753
       1.863
       1.109
      -0.439
      -2.387
      -4.192
      -5.278
      -5.163
      -3.663
      -1.069
       1.839
       3.977
       4.358
       2.633
      -0.549
      -3.792
      -5.700
      -5.481
      -2.988
       1.412
       6.600
      10.482
      10.720
       6.359
      -1.045
      -8.055
     -11.425
     -10.020
      -5.213
       0.430
       4.968
       7.787
       8.797
       7.443
       3.092
      -3.492
      -9.502
     -11.622
      -8.647
      -2.569
       3.103
       6.026
       6.058
       4.223
       1.454
      -1.546
      -3.916
      -4.702
      -3.381
      -0.304
       3.212
       5.445
       5.376
       3.384
       0.704
      -1.723
      -3.678
      -5.149
      -5.786
      -4.983
      -2.413
       1.517
       5.580
       8.086
       7.712
       4.466
       0.029
      -3.119
      -3.406
      -1.382
       0.686
       0.699
      -1.472
      -3.901
      -4.330
      -2.133
       1.134
       2.940
       1.758
      -1.623
      -4.549
      -4.506
      -1.098
       3.611
       6.637
       6.213
       2.864
      -1.292
      -4.215
      -5.088
      -4.225
      -2.345
      -0.152
       1.673
       2.578
       2.537
       2.258
       2.584
       3.458
       3.691
       2.128
      -0.864
      -3.344
      -3.512
      -1.558
       0.384
       0.274
      -1.812
      -3.689
      -3.150
      -0.157
       2.937
       3.506
       1.197
      -1.696
      -2.576
      -1.103
       0.868
       1.651
       1.403
       1.284
       1.566
       1.238
      -0.540
      -3.045
      -4.353
      -3.049
       0.447
       4.091
       5.655
       4.249
       0.900
      -2.153
      -3.028
      -1.588
       0.443
       0.863
      -1.061
      -3.739
      -4.488
      -1.960
       2.509
       5.994
       6.388
       3.854
       0.299
      -2.253
      -2.906
      -2.123
      -1.098
      -0.818
      -1.357
      -1.905
      -1.497
       0.125
       2.201
       3.446
       2.989
       0.941
      -1.721
      -3.641
      -3.658
      -1.527
       1.506
       3.153
       1.751
      -2.078
      -5.483
      -5.470
      -1.372
       4.475
       8.460
       8.281
       4.348
      -0.770
      -4.161
      -4.391
      -2.253
       0.036
       0.671
      -0.349
      -1.551
      -1.648
      -0.746
       0.111
       0.216
      -0.259
      -0.777
      -1.044
      -0.935
      -0.175
       1.450
       3.453
       4.518
       3.367
       0.002
      -3.866
      -5.864
      -4.756
      -1.349
       2.332
       4.634
       5.090
       4.077
       2.106
      -0.434
      -3.035
      -4.890
      -5.183
      -3.654
      -0.847
       2.185
       4.369
       4.897
       3.405
       0.269
      -3.186
      -5.075
      -4.093
      -0.665
       3.018
       4.475
       2.818
      -0.571
      -3.139
      -3.055
      -0.463
       2.713
       4.205
       3.019
       0.034
      -2.796
      -3.914
      -3.153
      -1.635
      -0.761
      -1.044
      -1.655
      -1.185
       0.919
       3.591
       4.914
       3.773
       0.884
      -1.791
      -2.720
      -1.976
      -0.791
      -0.065
       0.455
       1.493
       2.982
       3.802
       2.952
       0.828
      -0.951
      -1.039
       0.440
       2.070
       2.172
      -0.250
      -4.889
      -9.916
     -12.613
     -10.957
      -5.100
       2.594
       8.994
      11.843
      10.486
       5.865
       0.234
      -3.644
      -4.060
      -1.815
       0.103
      -0.942
      -4.488
      -6.917
      -4.663
       2.107
       9.065
      11.301
       7.602
       1.248
      -3.192
      -3.494
      -0.670
       2.590
       3.889
       2.334
      -1.228
      -4.834
      -6.507
      -5.532
      -3.231
      -2.041
      -2.942
      -3.950
      -2.033
       3.207
       8.224
       8.355
       2.508
      -4.777
      -6.747
      -1.048
       7.147
       9.599
       3.125
      -6.981
     -11.848
      -7.393
       2.033
       7.890
       5.122
      -3.772
     -11.124
     -10.198
      -0.136
      13.380
      21.849
      19.618
       7.890
      -5.838
     -13.113
     -11.044
      -4.457
      -1.110
      -4.057
      -8.795
      -8.258
      -0.418
       9.427
      13.718
       9.566
       0.794
      -6.189
      -7.964
      -5.852
      -3.199
      -1.910
      -1.705
      -1.753
      -1.895
      -2.056
      -1.286
       1.588
       6.128
       9.702
       9.446
       5.075
      -0.517
      -3.749
      -3.386
      -1.008
       0.960
       1.047
      -1.024
      -4.554
      -7.624
      -7.439
      -2.379
       5.649
      11.609
      11.252
       5.218
      -1.187
      -3.039
      -0.740
       0.610
      -2.973
      -9.623
     -13.228
      -9.696
      -1.143
       6.384
       9.032
       8.449
       8.824
      11.197
      11.666
       5.796
      -5.396
     -14.663
     -14.570
      -4.618
       7.848
      13.926
      10.418
       1.523
      -5.587
      -6.655
      -2.881
       1.189
       2.046
      -0.054
      -2.131
      -1.884
      -0.033
       0.444
      -2.739
      -8.759
     -13.914
     -14.309
      -8.751
       0.425
       8.985
      13.340
      12.394
       7.889
       3.135
       0.750
       1.103
       2.796
       4.361
       5.113
       4.572
       1.899
      -3.328
      -9.668
     -13.673
     -12.210
      -5.736
       0.942
       2.256
      -2.853
      -9.368
     -10.583
      -4.517
       4.090
       8.293
       5.472
      -0.609
      -4.066
      -2.862
      -0.254
      -0.541
      -4.041
      -6.753
      -4.871
       0.928
       6.085
       6.959
       4.484
       2.645
       3.780
       6.247
       6.792
       4.400
       1.236
      -0.004
       0.990
       2.214
       1.989
       0.749
      -0.070
      -0.181
      -0.740
      -2.724
      -5.621
      -7.740
      -7.565
      -4.865
      -0.854
       2.590
       4.043
       3.287
       1.383
       0.076
       0.712
       3.191
       5.914
       7.022
       5.881
       3.374
       0.845
      -0.921
      -1.651
      -1.019
       1.235
       4.429
       6.546
       5.298
       0.099
      -6.914
     -12.169
     -13.328
     -10.906
      -7.391
      -4.917
      -3.745
      -2.715
      -0.824
       1.775
       4.133
       5.482
       5.731
       5.213
       4.251
       3.140
       2.451
       2.888
       4.391
       5.519
       4.347
       0.416
      -4.345
      -6.957
      -5.883
      -2.384
       0.495
       0.389
      -2.591
      -6.135
      -7.618
      -5.917
      -1.782
       3.119
       7.288
       9.769
      10.141
       8.604
       5.941
       3.041
       0.424
      -1.707
      -3.139
      -3.683
      -3.587
      -3.629
      -4.471
      -5.856
      -6.663
      -5.997
      -4.229
      -2.677
      -2.125
      -1.915
      -0.800
       1.400
       3.342
       3.524
       1.979
       0.469
       0.967
       3.846
       7.412
       9.256
       8.226
       5.202
       2.015
      -0.302
      -2.132
      -4.316
      -6.801
      -8.272
      -7.136
      -3.050
       2.284
       5.970
       6.001
       2.919
      -0.543
      -1.695
      -0.063
       2.356
       2.857
       0.292
      -3.930
      -6.856
      -6.333
      -2.806
       1.036
       2.554
       1.359
      -0.480
      -0.350
       2.537
       6.378
       8.259
       6.503
       1.880
      -3.117
      -6.081
      -6.176
      -4.360
      -2.417
      -1.627
      -2.053
      -2.753
      -2.602
      -1.130
       1.188
       3.274
       4.110
       3.295
       1.277
      -0.867
      -2.010
      -1.558
       0.309
       2.687
       4.259
       3.908
       1.513
      -1.630
      -3.350
      -2.070
       1.766
       5.645
       6.637
       3.573
      -2.034
      -7.076
      -9.066
      -7.717
      -4.748
      -2.325
      -1.482
      -1.620
      -1.203
       0.911
       4.460
       7.859
       9.294
       7.910
       4.253
      -0.118
      -3.417
      -4.360
      -2.693
       0.560
       3.400
       3.940
       1.755
      -1.681
      -4.136
      -4.421
      -3.190
      -2.106
      -2.281
      -3.455
      -4.498
      -4.572
      -3.727
      -2.415
      -0.698
       1.713
       4.673
       7.250
       8.401
       7.843
       6.087
       3.790
       1.269
      -1.372
      -3.762
      -5.134
      -4.872
      -3.218
      -1.265
      -0.152
      -0.305
      -1.350
      -2.617
      -3.644
      -4.244
      -4.171
      -2.996
      -0.600
       2.267
       4.185
       3.989
       1.588
      -1.929
      -4.820
      -5.424
      -2.940
       1.866
       6.565
       8.283
       5.836
       0.940
      -3.023
      -3.796
      -1.941
       0.134
       0.682
       0.051
      -0.226
       0.552
       1.382
       0.678
      -1.896
      -4.782
      -5.643
      -3.193
       1.744
       6.659
       8.933
       7.539
       3.736
       0.139
      -1.236
      -0.417
       0.822
       0.721
      -0.897
      -2.651
      -3.018
      -1.672
       0.444
       2.112
       2.760
       2.577
       2.039
       1.455
       0.844
       0.108
      -0.709
      -1.338
      -1.544
      -1.513
      -1.799
      -2.635
      -3.335
      -2.650
      -0.059
       3.275
       5.091
       3.859
       0.100
      -4.047
      -6.395
      -5.902
      -2.865
       1.484
       5.480
       7.495
       6.509
       2.745
      -2.144
      -5.817
      -6.623
      -4.594
      -1.297
       1.340
       2.336
       2.019
       1.204
       0.202
      -1.137
      -2.528
      -2.837
      -1.007
       2.469
       5.369
       5.558
       3.066
       0.041
      -1.452
      -1.314
      -0.970
      -1.371
