Origin Time       10/07/2010 03:16:20 UTC
Lat.              29.9 N 
Long.             79.6 E 
Depth (Km)         10.0
Magnitude         4.1
 Region           ALMORA-UTTARAKHAND                                               
 Above details taken from IMD 
    
Station Code      KAP
Station Lat.       29.941  N
Station Long.      79.899  E
Station Height(m) 1066.0
Site Class        A   Vs30 between 700 m/sec to 1400 m/sec * 
Record Time       10.07.2010 03:16:15.754 UTC
Sampling Rate     200. Hz
 Record Duration   67.105 Sec.
 Direction         N-S (N positive)
Max. Acceleration      9.912 cm/sec**2
     
  * For reference see Site Classification link of website 
     
 Base Line Corrected and Low Pass Filtered (Cut Off at 35 Hz) Time History
 Acceleration data in cm/sec**2
    
[...]
       0.175
       0.269
       0.285
       0.213
       0.086
      -0.045
      -0.137
      -0.154
      -0.064
       0.131
       0.355
       0.485
       0.443
       0.282
       0.143
       0.128
       0.210
       0.265
       0.196
       0.027
      -0.124
      -0.152
      -0.062
       0.041
       0.051
      -0.037
      -0.137
      -0.174
      -0.168
      -0.213
      -0.370
      -0.590
      -0.742
      -0.715
      -0.508
      -0.232
      -0.017
       0.086
       0.143
       0.258
       0.451
       0.620
       0.630
       0.443
       0.157
      -0.075
      -0.161
      -0.114
      -0.021
       0.023
      -0.038
      -0.177
      -0.282
      -0.229
       0.002
       0.298
       0.492
       0.487
       0.314
       0.088
      -0.076
      -0.119
      -0.049
       0.078
       0.190
       0.231
       0.183
       0.074
      -0.028
      -0.065
      -0.040
      -0.035
      -0.146
      -0.386
      -0.656
      -0.806
      -0.738
      -0.484
      -0.175
       0.051
       0.159
       0.242
       0.419
       0.688
       0.890
       0.831
       0.464
      -0.050
      -0.461
      -0.610
      -0.515
      -0.300
      -0.087
       0.063
       0.126
       0.082
      -0.066
      -0.252
      -0.345
      -0.252
      -0.018
       0.184
       0.195
       0.018
      -0.186
      -0.232
      -0.050
       0.283
       0.608
       0.785
       0.741
       0.501
       0.174
      -0.101
      -0.235
      -0.239
      -0.180
      -0.099
       0.003
       0.104
       0.111
      -0.062
      -0.372
      -0.624
      -0.610
      -0.294
       0.144
       0.441
       0.451
       0.224
      -0.046
      -0.161
      -0.040
       0.241
       0.485
       0.503
       0.255
      -0.098
      -0.321
      -0.312
      -0.189
      -0.156
      -0.278
      -0.391
      -0.276
       0.099
       0.508
       0.658
       0.445
       0.015
      -0.381
      -0.592
      -0.617
      -0.522
      -0.363
      -0.187
      -0.059
      -0.027
      -0.077
      -0.145
      -0.188
      -0.212
      -0.223
      -0.168
       0.030
       0.377
       0.750
       0.967
       0.934
       0.722
       0.501
       0.384
       0.340
       0.243
       0.003
      -0.351
      -0.687
      -0.866
      -0.819
      -0.557
      -0.142
       0.342
       0.780
       1.038
       0.999
       0.630
       0.037
      -0.554
      -0.895
      -0.866
      -0.546
      -0.153
       0.119
       0.221
       0.229
       0.224
       0.200
       0.096
      -0.115
      -0.381
      -0.605
      -0.725
      -0.746
      -0.703
      -0.600
      -0.399
      -0.082
       0.298
       0.621
       0.781
       0.745
       0.570
       0.361
       0.212
       0.160
       0.168
       0.150
       0.040
      -0.142
      -0.294
      -0.304
      -0.158
       0.035
       0.112
      -0.009
      -0.260
      -0.455
      -0.435
      -0.179
       0.178
       0.457
       0.574
       0.571
       0.533
       0.476
       0.358
       0.177
       0.028
       0.023
       0.148
       0.231
       0.093
      -0.253
      -0.577
      -0.646
      -0.462
      -0.263
      -0.270
      -0.461
      -0.625
      -0.603
      -0.433
      -0.248
      -0.094
       0.096
       0.368
       0.655
       0.822
       0.796
       0.625
       0.418
       0.251
       0.128
       0.003
      -0.160
      -0.357
      -0.533
      -0.622
      -0.591
      -0.458
      -0.257
      -0.013
       0.254
       0.494
       0.601
       0.467
       0.093
      -0.368
      -0.686
      -0.721
      -0.502
      -0.165
       0.170
       0.440
       0.584
       0.531
       0.275
      -0.046
      -0.198
      -0.046
       0.305
       0.569
       0.518
       0.180
      -0.176
      -0.278
      -0.069
       0.265
       0.466
       0.408
       0.158
      -0.122
      -0.310
      -0.369
      -0.335
      -0.267
      -0.223
      -0.230
      -0.265
      -0.280
      -0.264
      -0.271
      -0.363
      -0.493
      -0.487
      -0.171
       0.434
       1.047
       1.298
       0.999
       0.296
      -0.437
      -0.865
      -0.888
      -0.633
      -0.296
      -0.004
       0.212
       0.361
       0.439
       0.438
       0.363
       0.244
       0.117
       0.003
      -0.090
      -0.152
      -0.163
      -0.100
       0.035
       0.207
       0.364
       0.468
       0.500
       0.439
       0.274
       0.031
      -0.212
      -0.350
      -0.335
      -0.214
      -0.106
      -0.107
      -0.231
      -0.418
      -0.590
      -0.682
      -0.633
      -0.391
       0.032
       0.515
       0.856
       0.878
       0.544
      -0.004
      -0.520
      -0.795
      -0.767
      -0.535
      -0.263
      -0.077
      -0.018
      -0.051
      -0.095
      -0.053
       0.149
       0.499
       0.876
       1.088
       0.986
       0.572
       0.032
      -0.383
      -0.535
      -0.476
      -0.346
      -0.204
       0.011
       0.347
       0.699
       0.853
       0.678
       0.266
      -0.154
      -0.412
      -0.510
      -0.536
      -0.519
      -0.388
      -0.087
       0.328
       0.709
       0.937
       0.981
       0.850
       0.533
       0.020
      -0.605
      -1.140
      -1.377
      -1.263
      -0.923
      -0.535
      -0.193
       0.103
       0.350
       0.463
       0.336
      -0.024
      -0.432
      -0.630
      -0.480
      -0.094
       0.252
       0.346
       0.211
       0.056
       0.064
       0.228
       0.379
       0.365
       0.193
       0.015
      -0.022
       0.099
       0.251
       0.288
       0.165
      -0.031
      -0.153
      -0.110
       0.072
       0.281
       0.383
       0.292
       0.030
      -0.250
      -0.342
      -0.144
       0.225
       0.496
       0.482
       0.256
       0.073
       0.108
       0.269
       0.300
       0.068
      -0.292
      -0.506
      -0.444
      -0.230
      -0.092
      -0.135
      -0.252
      -0.271
      -0.146
      -0.005
      -0.014
      -0.204
      -0.431
      -0.520
      -0.414
      -0.201
      -0.008
       0.099
       0.127
       0.107
       0.061
       0.020
       0.016
       0.064
       0.132
       0.160
       0.105
      -0.023
      -0.163
      -0.238
      -0.200
      -0.054
       0.142
       0.309
       0.395
       0.397
       0.354
       0.322
       0.345
       0.422
       0.490
       0.444
       0.219
      -0.123
      -0.403
      -0.444
      -0.219
       0.112
       0.323
       0.299
       0.116
      -0.034
      -0.005
       0.178
       0.330
       0.255
      -0.083
      -0.527
      -0.852
      -0.931
      -0.796
      -0.571
      -0.371
      -0.249
      -0.201
      -0.204
      -0.235
      -0.268
      -0.263
      -0.172
       0.021
       0.255
       0.411
       0.419
       0.348
       0.369
       0.587
       0.919
       1.114
       0.959
       0.478
      -0.062
      -0.357
      -0.319
      -0.131
      -0.057
      -0.193
      -0.413
      -0.515
      -0.410
      -0.170
       0.042
       0.074
      -0.138
      -0.516
      -0.851
      -0.927
      -0.680
      -0.257
       0.134
       0.401
       0.610
       0.831
       1.015
       1.029
       0.824
       0.510
       0.274
       0.205
       0.224
       0.175
      -0.024
      -0.320
      -0.610
      -0.835
      -1.002
      -1.096
      -1.038
      -0.745
      -0.263
       0.193
       0.373
       0.199
      -0.130
      -0.256
       0.055
       0.692
       1.262
       1.389
       1.018
       0.424
      -0.044
      -0.245
      -0.286
      -0.324
      -0.364
      -0.273
       0.045
       0.502
       0.853
       0.862
       0.471
      -0.154
      -0.716
      -0.979
      -0.898
      -0.621
      -0.358
      -0.238
      -0.255
      -0.294
      -0.220
       0.037
       0.411
       0.711
       0.714
       0.326
      -0.308
      -0.855
      -1.010
      -0.708
      -0.170
       0.267
       0.390
       0.216
      -0.073
      -0.275
      -0.281
      -0.098
       0.178
       0.417
       0.544
       0.589
       0.652
       0.795
       0.941
       0.914
       0.597
       0.065
      -0.464
      -0.805
      -0.938
      -0.945
      -0.862
      -0.624
      -0.189
       0.340
       0.746
       0.871
       0.740
       0.492
       0.222
      -0.078
      -0.430
      -0.744
      -0.848
      -0.656
      -0.290
       0.000
       0.066
      -0.007
      -0.001
       0.200
       0.480
       0.589
       0.359
      -0.149
      -0.674
      -0.922
      -0.751
      -0.248
       0.324
       0.691
       0.706
       0.399
      -0.080
      -0.555
      -0.893
      -1.022
      -0.930
      -0.643
      -0.222
       0.248
       0.661
       0.922
       0.993
       0.934
       0.862
       0.872
       0.953
       0.981
       0.803
       0.365
      -0.203
      -0.639
      -0.721
      -0.434
       0.005
       0.304
       0.308
       0.086
      -0.170
      -0.338
      -0.457
      -0.623
      -0.813
      -0.865
      -0.661
      -0.305
      -0.071
      -0.152
      -0.466
      -0.720
      -0.678
      -0.342
       0.085
       0.392
       0.501
       0.449
       0.289
       0.051
      -0.229
      -0.474
      -0.623
      -0.691
      -0.747
      -0.792
      -0.713
      -0.390
       0.142
       0.649
       0.873
       0.752
       0.468
       0.280
       0.319
       0.557
       0.917
       1.368
       1.869
       2.287
       2.422
       2.177
       1.661
       1.107
       0.664
       0.284
      -0.189
      -0.812
      -1.434
      -1.795
      -1.741
      -1.351
      -0.870
      -0.513
      -0.316
      -0.175
      -0.022
       0.030
      -0.242
      -0.955
      -1.945
      -2.826
      -3.221
      -2.950
      -2.069
      -0.803
       0.515
       1.507
       1.891
       1.673
       1.206
       0.995
       1.313
       1.960
       2.402
       2.202
       1.372
       0.338
      -0.415
      -0.663
      -0.497
      -0.142
       0.199
       0.385
       0.321
      -0.051
      -0.704
      -1.507
      -2.247
      -2.716
      -2.791
      -2.468
      -1.805
      -0.871
       0.257
       1.418
       2.321
       2.616
       2.106
       0.954
      -0.333
      -1.149
      -1.124
      -0.280
       1.034
       2.353
       3.278
       3.581
       3.238
       2.412
       1.372
       0.382
      -0.404
      -0.967
      -1.343
      -1.542
      -1.523
      -1.259
      -0.821
      -0.401
      -0.240
      -0.522
      -1.283
      -2.375
      -3.482
      -4.195
      -4.118
      -3.028
      -1.034
       1.365
       3.438
       4.579
       4.643
       4.011
       3.307
       2.963
       2.966
       2.942
       2.473
       1.391
      -0.133
      -1.716
      -2.981
      -3.756
      -4.132
      -4.339
      -4.490
      -4.434
      -3.870
      -2.681
      -1.165
       0.068
       0.477
      -0.051
      -1.141
      -2.171
      -2.636
      -2.365
      -1.498
      -0.295
       1.058
       2.501
       3.992
       5.348
       6.207
       6.185
       5.148
       3.379
       1.450
      -0.118
      -1.134
      -1.685
      -1.863
      -1.594
      -0.742
       0.640
       2.218
       3.529
       4.220
       4.140
       3.259
       1.595
      -0.717
      -3.284
      -5.469
      -6.635
      -6.466
      -5.097
      -2.994
      -0.684
       1.428
       3.080
       4.086
       4.285
       3.572
       1.957
      -0.346
      -2.858
      -4.875
      -5.720
      -5.126
      -3.483
      -1.670
      -0.525
      -0.340
      -0.740
      -1.030
      -0.672
       0.429
       1.970
       3.496
       4.635
       5.214
       5.251
       4.866
       4.158
       3.128
       1.727
       0.024
      -1.647
      -2.748
      -2.831
      -1.844
      -0.213
       1.381
       2.336
       2.352
       1.455
      -0.087
      -1.880
      -3.518
      -4.701
      -5.318
      -5.439
      -5.225
      -4.802
      -4.180
      -3.267
      -1.973
      -0.365
       1.254
       2.436
       2.832
       2.446
       1.683
       1.158
       1.359
       2.373
       3.822
       5.031
       5.354
       4.501
       2.698
       0.583
      -1.101
      -1.823
      -1.436
      -0.166
       1.519
       3.086
       4.107
       4.376
       3.893
       2.759
       1.041
      -1.209
      -3.811
      -6.336
      -8.205
      -8.978
      -8.587
      -7.309
      -5.557
      -3.665
      -1.821
      -0.107
       1.448
       2.816
       3.927
       4.642
       4.782
       4.233
       3.031
       1.378
      -0.422
      -2.025
      -3.075
      -3.237
      -2.289
      -0.291
       2.310
       4.734
       6.147
       6.038
       4.509
       2.272
       0.283
      -0.802
      -0.978
      -0.769
      -0.713
      -0.897
      -0.966
      -0.584
       0.101
       0.458
      -0.145
      -1.795
      -3.860
      -5.323
      -5.374
      -3.867
      -1.395
       1.055
       2.647
       3.125
       2.872
       2.565
       2.644
       2.976
       2.960
       1.986
      -0.078
      -2.741
      -5.167
      -6.641
      -6.877
      -5.983
      -4.202
      -1.705
       1.377
       4.743
       7.787
       9.720
       9.912
       8.228
       5.132
       1.496
      -1.734
      -3.858
      -4.610
      -4.159
      -2.974
      -1.611
      -0.505
       0.146
       0.348
       0.202
      -0.212
      -0.851
      -1.645
      -2.431
      -2.972
      -3.075
      -2.728
      -2.152
      -1.678
      -1.494
      -1.460
      -1.169
      -0.266
       1.203
       2.721
       3.601
       3.455
       2.462
       1.236
       0.412
       0.258
       0.587
       0.971
       1.062
       0.787
       0.321
      -0.088
      -0.299
      -0.326
      -0.275
      -0.240
      -0.248
      -0.253
      -0.180
       0.029
       0.361
       0.706
       0.896
       0.818
       0.500
       0.110
      -0.184
      -0.335
      -0.433
      -0.613
      -0.958
      -1.486
      -2.181
      -2.972
      -3.665
      -3.946
      -3.518
      -2.323
      -0.645
       1.016
       2.239
       2.945
       3.375
       3.815
       4.279
       4.444
       3.922
       2.613
       0.842
      -0.857
      -2.094
      -2.806
      -3.151
      -3.247
      -3.024
      -2.322
      -1.114
       0.377
       1.792
       2.869
       3.568
       3.954
       3.983
       3.439
       2.128
       0.173
      -1.897
      -3.421
      -4.009
      -3.773
      -3.161
      -2.580
      -2.120
      -1.584
      -0.757
       0.322
       1.316
       1.814
       1.632
       0.955
       0.212
      -0.212
      -0.189
       0.146
       0.547
       0.821
       0.906
       0.866
       0.857
       1.065
       1.610
       2.449
       3.341
       3.948
       4.013
       3.478
       2.452
       1.050
      -0.709
      -2.834
      -5.161
      -7.251
      -8.524
      -8.581
      -7.430
      -5.466
      -3.224
      -1.145
       0.524
       1.710
       2.472
       2.958
       3.329
       3.663
       3.919
       3.998
       3.848
       3.512
       3.058
       2.511
       1.838
       1.019
       0.103
      -0.792
      -1.550
      -2.131
      -2.603
      -3.093
      -3.680
      -4.300
      -4.743
      -4.750
      -4.137
      -2.878
      -1.123
       0.831
       2.611
       3.902
       4.580
       4.759
       4.678
       4.517
       4.272
       3.821
       3.093
       2.207
       1.438
       1.028
       1.005
       1.156
       1.178
       0.876
       0.253
      -0.543
      -1.329
      -1.968
      -2.409
      -2.713
      -3.020
      -3.467
      -4.065
      -4.649
      -4.962
      -4.817
      -4.219
      -3.364
      -2.510
      -1.789
      -1.123
      -0.312
       0.750
       1.925
       2.894
       3.379
       3.326
       2.887
       2.271
       1.623
       1.042
       0.638
       0.518
       0.688
       0.983
       1.135
       0.945
       0.427
      -0.208
      -0.713
      -0.957
      -0.961
      -0.812
      -0.568
      -0.241
       0.144
       0.510
       0.746
       0.782
       0.662
       0.548
       0.623
       0.955
       1.422
       1.790
       1.883
       1.723
       1.485
       1.323
       1.224
       1.048
       0.682
       0.154
      -0.399
      -0.862
      -1.213
      -1.496
      -1.759
      -2.035
      -2.372
      -2.808
      -3.306
      -3.695
      -3.754
      -3.369
      -2.638
      -1.801
      -1.068
      -0.481
       0.049
       0.623
       1.234
       1.788
       2.202
       2.475
       2.675
       2.850
       2.974
       2.970
       2.776
       2.383
       1.833
       1.196
       0.559
       0.016
      -0.356
      -0.526
      -0.508
      -0.345
      -0.080
       0.243
       0.546
       0.711
       0.617
       0.220
      -0.398
      -1.068
      -1.646
      -2.098
      -2.475
      -2.807
      -3.011
      -2.914
      -2.385
      -1.466
      -0.399
       0.482
       0.939
       0.943
       0.653
       0.275
      -0.066
      -0.355
      -0.616
      -0.835
      -0.932
      -0.802
      -0.389
       0.268
       1.041
       1.769
       2.322
       2.627
       2.655
       2.409
       1.953
       1.430
       1.021
       0.850
       0.900
       1.021
       1.027
       0.801
       0.360
      -0.174
      -0.647
      -0.957
      -1.109
      -1.196
      -1.322
      -1.518
      -1.721
      -1.841
      -1.845
      -1.779
      -1.716
      -1.673
      -1.585
      -1.361
      -0.981
      -0.554
      -0.254
      -0.191
      -0.290
      -0.322
      -0.063
       0.534
       1.300
       1.990
       2.459
       2.703
       2.762
       2.613
       2.177
       1.454
       0.622
      -0.006
      -0.180
       0.101
       0.577
       0.895
       0.839
       0.439
      -0.110
      -0.629
      -1.075
      -1.522
      -2.037
      -2.572
      -2.960
      -3.039
      -2.775
      -2.293
      -1.776
      -1.337
      -0.975
      -0.632
      -0.277
       0.076
       0.407
       0.708
       0.975
       1.194
       1.363
       1.514
       1.685
       1.855
       1.910
       1.696
       1.144
       0.360
      -0.397
      -0.858
      -0.909
      -0.636
      -0.235
       0.144
       0.476
       0.813
       1.178
       1.502
       1.650
       1.515
       1.100
       0.535
       0.006
      -0.335
      -0.443
      -0.366
      -0.184
       0.038
       0.245
       0.379
       0.380
       0.236
       0.002
      -0.225
      -0.385
      -0.509
      -0.700
      -1.026
      -1.447
      -1.829
      -2.046
      -2.060
      -1.922
      -1.697
      -1.409
      -1.056
      -0.658
      -0.269
       0.044
       0.259
       0.406
       0.555
       0.775
       1.108
       1.548
       2.029
       2.431
       2.616
       2.504
       2.114
       1.544
       0.880
       0.128
      -0.750
