Origin Time       01/05/2009 22:36:25
Lat.              29.9 N 
Long.             80.1 E 
Depth (Km)         10.0
Magnitude         4.6
 Region           Bageshwar-Uttarakhand                                            
 Above details taken from IMD 
   
Station Code      KAP
Station Lat.       29.941
Station Long.      79.899
Station Height(m) 1066.0
Site Class        A   Vs30 between 700 m/sec to 1400 m/sec * 
Record Time       01.05.2010 22:36:09.679
Sampling Rate     200. Hz
 Record Duration   70.785 Sec.
 Direction         Vert. (Up positive)
Max. Acceleration   -135.218 cm/sec**2
     
  * For reference see Site Classification link of website 
     
 Base Line Corrected and Low Pass Filtered (Cut Off at 35 Hz) Time History
 Acceleration data in cm/sec**2
    
[...]
      -0.002
      -0.001
       0.000
       0.000
      -0.001
      -0.004
      -0.003
       0.002
       0.007
       0.009
       0.005
      -0.001
      -0.004
      -0.002
       0.002
       0.005
       0.005
       0.001
      -0.004
      -0.008
      -0.007
      -0.003
       0.001
       0.002
      -0.001
      -0.005
      -0.008
      -0.008
      -0.007
      -0.005
      -0.005
      -0.006
      -0.006
      -0.004
       0.000
       0.003
       0.006
       0.006
       0.006
       0.004
       0.001
      -0.003
      -0.007
      -0.007
      -0.005
      -0.001
       0.002
       0.002
       0.001
      -0.002
      -0.005
      -0.007
      -0.007
      -0.003
       0.004
       0.010
       0.011
       0.009
       0.007
       0.008
       0.010
       0.011
       0.008
       0.004
       0.002
       0.002
       0.004
       0.005
       0.007
       0.009
       0.009
       0.005
      -0.001
      -0.008
      -0.011
      -0.008
      -0.003
       0.002
       0.004
       0.005
       0.003
      -0.001
      -0.005
      -0.007
      -0.006
      -0.002
       0.003
       0.006
       0.005
       0.004
       0.002
       0.000
      -0.001
      -0.001
       0.000
       0.002
       0.003
       0.003
       0.001
      -0.003
      -0.008
      -0.011
      -0.011
      -0.009
      -0.006
      -0.004
      -0.003
      -0.002
      -0.001
       0.000
       0.002
       0.004
       0.004
       0.003
       0.000
      -0.004
      -0.007
      -0.007
      -0.006
      -0.005
      -0.005
      -0.006
      -0.005
      -0.001
       0.006
       0.013
       0.017
       0.015
       0.005
      -0.007
      -0.013
      -0.007
       0.008
       0.023
       0.026
       0.018
       0.002
      -0.010
      -0.013
      -0.006
       0.002
       0.006
       0.001
      -0.008
      -0.015
      -0.013
      -0.005
       0.004
       0.009
       0.007
       0.002
      -0.004
      -0.008
      -0.008
      -0.005
      -0.002
       0.000
       0.001
       0.000
       0.001
       0.002
       0.003
       0.000
      -0.006
      -0.008
      -0.005
       0.003
       0.008
       0.007
       0.000
      -0.004
      -0.004
      -0.001
       0.000
      -0.001
      -0.001
       0.001
       0.004
       0.007
       0.007
       0.005
       0.004
       0.004
       0.004
       0.003
      -0.001
      -0.003
      -0.003
      -0.001
      -0.001
      -0.003
      -0.004
      -0.003
       0.001
       0.004
       0.005
       0.004
       0.002
       0.001
       0.000
      -0.003
      -0.006
      -0.005
      -0.002
       0.003
       0.007
       0.008
       0.009
       0.008
       0.005
       0.001
      -0.003
      -0.004
       0.000
       0.007
       0.012
       0.014
       0.010
       0.006
       0.003
       0.003
       0.002
       0.001
      -0.002
      -0.003
      -0.003
      -0.001
       0.003
       0.007
       0.008
       0.006
       0.001
      -0.005
      -0.008
      -0.006
      -0.001
       0.005
       0.007
       0.004
      -0.002
      -0.005
      -0.005
      -0.004
      -0.002
      -0.002
      -0.002
      -0.001
       0.001
       0.003
       0.004
       0.002
      -0.003
      -0.008
      -0.009
      -0.005
       0.001
       0.004
       0.003
       0.001
       0.000
       0.002
       0.006
       0.008
       0.006
       0.000
      -0.006
      -0.009
      -0.007
      -0.003
       0.001
       0.002
       0.001
       0.000
       0.000
       0.001
       0.001
      -0.001
      -0.004
      -0.004
      -0.002
       0.001
       0.002
      -0.001
      -0.007
      -0.013
      -0.013
      -0.008
      -0.002
       0.002
       0.000
      -0.006
      -0.011
      -0.012
      -0.006
       0.002
       0.008
       0.005
      -0.003
      -0.010
      -0.010
      -0.004
       0.003
       0.006
       0.005
       0.002
      -0.001
      -0.002
       0.000
       0.003
       0.005
       0.002
      -0.005
      -0.012
      -0.013
      -0.006
       0.004
       0.008
       0.004
      -0.003
      -0.008
      -0.006
      -0.002
       0.001
      -0.001
      -0.006
      -0.010
      -0.010
      -0.008
      -0.005
      -0.004
      -0.005
      -0.008
      -0.011
      -0.013
      -0.011
      -0.005
       0.002
       0.006
       0.004
      -0.002
      -0.008
      -0.011
      -0.010
      -0.007
      -0.002
       0.002
       0.004
       0.004
       0.002
       0.000
      -0.001
       0.000
      -0.001
      -0.002
      -0.004
      -0.004
      -0.002
       0.002
       0.003
       0.000
      -0.002
      -0.001
       0.005
       0.010
       0.010
       0.006
       0.000
      -0.002
       0.000
       0.003
       0.006
       0.007
       0.007
       0.007
       0.007
       0.007
       0.008
       0.009
       0.012
       0.014
       0.015
       0.013
       0.007
      -0.001
      -0.008
      -0.012
      -0.012
      -0.010
      -0.008
      -0.008
      -0.010
      -0.012
      -0.014
      -0.012
      -0.007
       0.000
       0.005
       0.005
       0.001
      -0.004
      -0.008
      -0.007
      -0.004
      -0.001
       0.000
      -0.002
      -0.005
      -0.006
      -0.004
       0.000
       0.002
       0.000
      -0.003
      -0.004
      -0.003
      -0.001
       0.000
       0.001
       0.003
       0.003
      -0.001
      -0.006
      -0.009
      -0.007
      -0.002
       0.001
       0.000
      -0.004
      -0.007
      -0.007
      -0.005
      -0.002
       0.000
       0.001
       0.002
       0.001
      -0.002
      -0.005
      -0.005
      -0.002
      -0.002
      -0.005
      -0.011
      -0.014
      -0.013
      -0.007
      -0.002
       0.001
       0.002
       0.003
       0.005
       0.007
       0.009
       0.008
       0.006
       0.002
      -0.003
      -0.006
      -0.006
      -0.003
       0.000
       0.004
       0.008
       0.014
       0.019
       0.018
       0.009
      -0.004
      -0.012
      -0.010
       0.002
       0.013
       0.016
       0.008
      -0.007
      -0.018
      -0.020
      -0.010
       0.003
       0.013
       0.013
       0.004
      -0.008
      -0.013
      -0.009
       0.000
       0.007
       0.009
       0.007
       0.005
       0.005
       0.008
       0.011
       0.009
       0.003
       0.000
       0.003
       0.010
       0.015
       0.013
       0.007
      -0.001
      -0.004
      -0.002
       0.003
       0.008
       0.012
       0.013
       0.009
       0.004
       0.000
       0.002
       0.008
       0.014
       0.015
       0.011
       0.003
      -0.003
      -0.006
      -0.006
      -0.003
      -0.002
      -0.003
      -0.004
      -0.002
       0.003
       0.009
       0.011
       0.010
       0.007
       0.006
       0.008
       0.012
       0.015
       0.014
       0.011
       0.006
       0.002
       0.000
       0.001
       0.001
       0.000
      -0.002
      -0.002
       0.001
       0.007
       0.010
       0.009
       0.003
      -0.002
      -0.004
      -0.002
       0.003
       0.006
       0.007
       0.007
       0.007
       0.009
       0.009
       0.008
       0.005
       0.002
       0.000
      -0.002
      -0.002
      -0.001
       0.004
       0.009
       0.012
       0.010
       0.007
       0.005
       0.005
       0.007
       0.007
       0.006
       0.004
       0.000
      -0.004
      -0.008
      -0.008
      -0.004
       0.002
       0.006
       0.004
       0.000
      -0.003
      -0.003
      -0.001
       0.001
       0.002
       0.003
       0.002
       0.002
       0.001
       0.001
       0.003
       0.004
       0.003
      -0.001
      -0.009
      -0.014
      -0.013
      -0.005
       0.006
       0.014
       0.015
       0.012
       0.007
       0.004
       0.005
       0.007
       0.008
       0.006
       0.001
      -0.002
       0.000
       0.008
       0.016
       0.018
       0.013
       0.005
      -0.002
      -0.002
       0.002
       0.007
       0.008
       0.007
       0.004
       0.002
       0.003
       0.004
       0.004
       0.002
      -0.001
      -0.004
      -0.006
      -0.005
      -0.002
       0.001
       0.002
      -0.001
      -0.007
      -0.010
      -0.011
      -0.008
      -0.003
       0.004
       0.010
       0.012
       0.010
       0.005
       0.002
       0.005
       0.015
       0.024
       0.025
       0.014
      -0.002
      -0.013
      -0.011
      -0.001
       0.010
       0.013
       0.008
      -0.002
      -0.007
      -0.002
       0.008
       0.017
       0.019
       0.014
       0.007
       0.003
       0.005
       0.009
       0.011
       0.010
       0.005
       0.000
      -0.002
      -0.002
      -0.002
      -0.003
      -0.006
      -0.007
      -0.004
       0.002
       0.008
       0.010
       0.008
       0.003
       0.000
       0.000
       0.002
       0.005
       0.005
       0.006
       0.005
       0.003
      -0.002
      -0.006
      -0.008
      -0.006
      -0.002
       0.003
       0.007
       0.010
       0.014
       0.018
       0.021
       0.018
       0.010
       0.002
       0.001
       0.007
       0.013
       0.015
       0.010
       0.002
      -0.004
      -0.005
      -0.001
       0.004
       0.007
       0.008
       0.006
       0.003
       0.000
      -0.001
       0.002
       0.005
       0.006
       0.003
      -0.001
      -0.003
      -0.002
       0.001
       0.000
      -0.004
      -0.008
      -0.008
      -0.004
       0.001
       0.003
       0.002
      -0.001
      -0.001
       0.001
       0.003
       0.003
       0.001
       0.001
       0.006
       0.015
       0.024
       0.026
       0.020
       0.010
       0.002
       0.000
       0.002
       0.006
       0.007
       0.004
      -0.002
      -0.007
      -0.010
      -0.007
      -0.001
       0.005
       0.009
       0.009
       0.006
       0.002
      -0.001
      -0.001
       0.003
       0.008
       0.012
       0.015
       0.017
       0.018
       0.017
       0.015
       0.011
       0.007
       0.004
       0.002
       0.002
       0.003
       0.006
       0.007
       0.005
       0.002
       0.000
       0.000
       0.003
       0.005
       0.005
       0.004
       0.005
       0.009
       0.015
       0.019
       0.017
       0.009
      -0.002
      -0.008
      -0.007
       0.000
       0.005
       0.005
       0.000
      -0.004
      -0.003
       0.004
       0.011
       0.012
       0.008
       0.002
      -0.002
      -0.002
      -0.001
       0.000
       0.000
       0.002
       0.005
       0.009
       0.009
       0.007
       0.004
       0.002
       0.001
      -0.001
      -0.001
       0.001
       0.007
       0.015
       0.020
       0.017
       0.008
      -0.002
      -0.007
      -0.006
       0.000
       0.005
       0.007
       0.008
       0.007
       0.006
       0.003
       0.002
       0.003
       0.005
       0.007
       0.006
       0.002
      -0.003
      -0.005
      -0.003
       0.001
       0.004
       0.005
       0.004
       0.001
       0.000
       0.000
       0.000
      -0.002
      -0.004
      -0.003
       0.001
       0.004
       0.004
       0.003
       0.003
       0.008
       0.014
       0.014
       0.007
      -0.002
      -0.008
      -0.009
      -0.008
      -0.008
      -0.007
      -0.004
       0.001
       0.006
       0.005
       0.001
      -0.004
      -0.006
      -0.005
      -0.001
       0.002
       0.004
       0.006
       0.006
       0.003
      -0.002
      -0.005
      -0.006
      -0.005
      -0.003
      -0.003
      -0.007
      -0.012
      -0.016
      -0.014
      -0.009
      -0.002
       0.002
       0.004
       0.005
       0.007
       0.010
       0.014
       0.014
       0.008
       0.000
      -0.006
      -0.004
       0.004
       0.011
       0.010
       0.002
      -0.008
      -0.010
      -0.005
       0.006
       0.016
       0.020
       0.014
      -0.001
      -0.018
      -0.026
      -0.021
      -0.006
       0.009
       0.014
       0.008
      -0.001
      -0.004
       0.003
       0.014
       0.021
       0.017
       0.005
      -0.007
      -0.010
      -0.002
       0.011
       0.020
       0.019
       0.010
      -0.001
      -0.005
      -0.001
       0.006
       0.010
       0.007
       0.001
      -0.004
      -0.003
       0.001
       0.007
       0.008
       0.006
       0.001
      -0.001
       0.000
       0.001
      -0.001
      -0.007
      -0.012
      -0.011
      -0.003
       0.008
       0.016
       0.016
       0.009
       0.002
      -0.001
       0.001
       0.005
       0.007
       0.004
      -0.002
      -0.007
      -0.007
      -0.004
      -0.004
      -0.005
      -0.001
       0.011
       0.025
       0.019
      -0.016
      -0.054
      -0.044
       0.037
       0.126
       0.100
      -0.092
      -0.300
      -0.241
       0.190
       0.664
       0.670
       0.376
       1.340
       5.839
      14.441
      23.500
      25.615
      14.540
      -8.394
     -32.398
     -43.507
     -35.080
     -13.182
       8.899
      22.379
      29.600
      39.069
      54.176
      67.113
      63.886
      35.285
     -15.836
     -74.998
    -121.306
    -135.218
    -109.368
     -57.306
      -8.283
      14.415
      13.272
      12.225
      29.847
      57.602
      67.497
      42.620
      -1.832
     -30.664
     -21.777
      14.825
      50.137
      63.842
      57.319
      43.206
      27.306
       3.244
     -35.088
     -78.600
    -105.049
     -98.145
     -63.222
     -22.174
       7.705
      29.246
      57.887
      97.864
     129.398
     124.302
      74.865
       4.277
     -53.111
     -80.592
     -87.975
     -94.623
    -106.692
    -111.393
     -91.461
     -43.341
      17.981
      70.008
      98.435
     103.937
      96.135
      82.504
      62.581
      31.862
      -8.869
     -48.699
     -72.467
     -72.441
     -54.526
     -33.063
     -18.965
     -11.725
      -2.559
      14.097
      32.523
      40.187
      30.292
       9.348
      -7.452
      -8.632
       4.201
      18.366
      21.942
      13.977
       3.005
      -3.279
      -5.082
      -7.508
     -12.748
     -17.079
     -15.720
      -9.581
      -5.621
      -9.383
     -17.745
     -20.752
     -11.336
       7.278
      24.022
      29.406
      22.786
      11.282
       2.396
      -2.156
      -5.938
     -12.210
     -19.621
     -23.147
     -18.480
      -5.369
      12.457
      29.714
      41.768
      45.375
      38.671
      21.744
      -2.073
     -26.104
     -43.062
     -48.937
     -44.405
     -32.696
     -16.776
       1.016
      17.216
      26.682
      25.497
      15.040
       2.262
      -5.326
      -5.415
      -1.790
       0.216
      -0.923
      -1.891
       1.436
       9.089
      16.279
      17.594
      11.948
       3.529
      -1.921
      -1.807
       1.583
       3.174
      -0.910
     -10.334
     -20.845
     -27.582
     -28.145
     -22.782
     -12.802
       0.317
      14.584
      26.893
      33.290
      30.862
      20.150
       5.514
      -7.278
     -14.182
     -14.707
     -11.699
      -8.817
      -7.190
      -4.739
       0.534
       6.794
       8.742
       2.572
      -8.941
     -16.974
     -13.915
      -0.976
      12.169
      16.186
      10.565
       3.399
       3.147
      10.537
      17.985
      16.656
       4.376
     -12.620
     -24.796
     -26.100
     -17.274
      -4.306
       6.235
      11.519
      13.261
      14.724
      16.833
      16.845
      10.608
      -3.389
     -21.517
     -36.338
     -40.941
     -33.089
     -16.504
       1.252
      13.065
      16.263
      13.574
      10.196
       9.504
      11.123
      12.635
      12.465
      10.766
       7.933
       3.390
      -3.331
     -10.657
     -15.163
     -14.287
      -8.635
      -1.312
       4.785
       8.715
      10.812
      10.906
       7.754
       0.549
      -8.962
     -16.232
     -16.634
      -9.197
       1.982
      10.207
      10.632
       3.315
      -6.988
     -13.773
     -12.675
      -4.188
       6.706
      14.160
      15.637
      13.019
       9.794
       7.312
       3.882
      -2.499
     -10.747
     -16.460
     -15.614
      -8.587
      -0.101
       5.140
       6.461
       6.688
       7.985
       8.974
       6.564
       0.446
      -5.321
      -6.358
      -3.379
      -2.272
      -7.915
     -18.016
     -23.569
     -16.173
       4.101
      27.333
      40.324
      35.764
      16.931
      -5.102
     -19.258
     -21.441
     -15.646
      -8.961
      -5.391
      -3.776
      -0.607
       5.587
      12.156
      14.132
       8.363
      -3.380
     -14.869
     -19.192
     -13.156
       0.620
      15.220
      23.472
      21.847
      11.950
      -0.960
     -11.233
     -15.814
     -15.167
     -11.759
      -7.717
      -3.777
       0.131
       4.042
       7.727
      10.594
      11.480
       9.018
       2.832
      -5.366
     -12.190
     -14.726
     -12.725
      -8.491
      -4.258
       0.218
       6.996
      16.670
      25.835
      28.205
      19.072
      -0.241
     -21.684
     -34.790
     -33.367
     -19.539
      -1.760
      11.600
      17.811
      20.128
      22.956
      26.156
      24.025
      10.547
     -13.651
     -39.285
     -53.542
     -48.376
     -25.666
       4.229
      28.780
      39.687
      35.780
      22.049
       6.303
      -4.888
      -9.225
      -9.105
      -8.974
     -11.208
     -13.694
     -11.581
      -2.315
      10.533
      19.026
      17.423
       7.419
      -3.237
      -7.351
      -3.645
       3.553
       8.834
       9.524
       5.828
      -1.166
     -10.061
     -17.827
     -19.806
     -13.091
      -0.257
      11.359
      15.378
      11.915
       7.080
       6.464
       9.288
       9.656
       3.686
      -5.413
     -10.127
      -6.426
       1.864
       6.833
       4.289
      -2.807
      -8.529
     -10.461
     -11.210
     -14.023
     -18.096
     -18.831
     -12.604
      -0.993
       9.859
      14.403
      12.700
      10.465
      13.766
      23.139
      32.630
      34.753
      26.788
      12.832
       0.118
      -6.892
      -9.532
     -12.773
     -20.252
     -31.150
     -41.378
     -47.226
     -47.877
     -44.962
     -40.327
     -34.350
     -26.154
     -14.982
      -0.964
      15.395
      33.755
      53.104
      70.256
      79.987
      77.747
      63.087
      40.776
      18.294
       1.463
      -8.460
     -14.318
     -20.137
     -28.141
     -37.493
     -45.222
     -48.495
     -46.610
     -41.250
     -34.931
     -29.020
     -23.228
     -17.006
     -10.987
      -6.276
      -2.254
       4.098
      15.834
      32.555
      49.146
      58.487
      56.798
      47.061
      36.221
      27.793
      17.658
      -1.536
     -31.279
     -62.764
     -81.771
     -78.509
     -53.923
     -17.670
