Origin Time       04/09/2008 12:53:21
Lat.              30.1°N 
Long.             80.4°E 
Depth (Km)         10.0
Magnitude         5.1
 Region           INDIA(UTTARAKHAND)-TIBET-BORDER-REGION                           
 Above details taken from IMD 
     
Station Code      KAP
Station Lat.       29.941  N
Station Long.      79.899  E
Station Height(m) 1066.0
Site Class        A   Vs30 between 700 m/sec to 1400 m/sec * 
Record Time       04.09.2008 12:53:12.009
Sampling Rate     200. Hz
 Record Duration   67.435 Sec.
 Direction         E-W (E positive)
Max. Acceleration     -7.156 cm/sec**2
     
  * For reference see Site Classification link of website 
     
 Base Line Corrected and Low Pass Filtered (Cut Off at 35 Hz) Time History
 Acceleration data in cm/sec**2
    
[...]
       0.089
       0.125
       0.211
       0.315
       0.385
       0.382
       0.294
       0.135
      -0.072
      -0.297
      -0.501
      -0.648
      -0.714
      -0.700
      -0.626
      -0.509
      -0.352
      -0.159
       0.049
       0.226
       0.316
       0.285
       0.158
       0.015
      -0.059
      -0.022
       0.096
       0.227
       0.309
       0.321
       0.281
       0.221
       0.175
       0.172
       0.219
       0.292
       0.348
       0.338
       0.248
       0.099
      -0.062
      -0.189
      -0.259
      -0.273
      -0.250
      -0.204
      -0.137
      -0.044
       0.070
       0.177
       0.234
       0.206
       0.092
      -0.076
      -0.244
      -0.367
      -0.421
      -0.413
      -0.370
      -0.327
      -0.304
      -0.300
      -0.294
      -0.268
      -0.218
      -0.150
      -0.076
      -0.004
       0.058
       0.104
       0.125
       0.124
       0.115
       0.112
       0.124
       0.142
       0.161
       0.185
       0.234
       0.330
       0.474
       0.639
       0.776
       0.829
       0.765
       0.587
       0.338
       0.080
      -0.128
      -0.254
      -0.290
      -0.247
      -0.146
      -0.022
       0.081
       0.115
       0.051
      -0.103
      -0.310
      -0.530
      -0.736
      -0.909
      -1.027
      -1.060
      -0.987
      -0.817
      -0.592
      -0.375
      -0.207
      -0.097
      -0.019
       0.056
       0.135
       0.199
       0.228
       0.220
       0.205
       0.220
       0.279
       0.356
       0.401
       0.377
       0.278
       0.132
      -0.013
      -0.114
      -0.143
      -0.102
      -0.019
       0.067
       0.124
       0.138
       0.117
       0.084
       0.065
       0.079
       0.125
       0.189
       0.250
       0.301
       0.347
       0.392
       0.419
       0.392
       0.284
       0.106
      -0.079
      -0.198
      -0.214
      -0.160
      -0.101
      -0.074
      -0.059
      -0.014
       0.065
       0.132
       0.136
       0.075
      -0.003
      -0.047
      -0.045
      -0.017
       0.019
       0.065
       0.113
       0.127
       0.051
      -0.144
      -0.416
      -0.671
      -0.811
      -0.799
      -0.669
      -0.496
      -0.333
      -0.194
      -0.064
       0.057
       0.147
       0.176
       0.139
       0.057
      -0.042
      -0.145
      -0.245
      -0.325
      -0.347
      -0.281
      -0.139
       0.026
       0.154
       0.225
       0.264
       0.307
       0.359
       0.392
       0.366
       0.270
       0.135
       0.015
      -0.042
      -0.012
       0.098
       0.261
       0.427
       0.535
       0.537
       0.429
       0.269
       0.133
       0.064
       0.039
      -0.005
      -0.109
      -0.258
      -0.394
      -0.462
      -0.450
      -0.383
      -0.296
      -0.210
      -0.129
      -0.055
       0.000
       0.026
       0.026
       0.015
       0.010
       0.019
       0.041
       0.075
       0.119
       0.164
       0.181
       0.135
       0.007
      -0.181
      -0.367
      -0.471
      -0.435
      -0.257
      -0.003
       0.225
       0.344
       0.338
       0.258
       0.178
       0.142
       0.148
       0.176
       0.211
       0.259
       0.320
       0.370
       0.371
       0.288
       0.118
      -0.108
      -0.338
      -0.533
      -0.677
      -0.773
      -0.827
      -0.833
      -0.777
      -0.659
      -0.507
      -0.368
      -0.283
      -0.257
      -0.251
      -0.202
      -0.064
       0.154
       0.377
       0.517
       0.522
       0.418
       0.279
       0.185
       0.174
       0.243
       0.371
       0.535
       0.716
       0.880
       0.973
       0.929
       0.711
       0.345
      -0.082
      -0.451
      -0.667
      -0.700
      -0.586
      -0.403
      -0.232
      -0.118
      -0.055
      -0.010
       0.050
       0.118
       0.154
       0.110
      -0.029
      -0.229
      -0.426
      -0.571
      -0.652
      -0.691
      -0.706
      -0.686
      -0.594
      -0.415
      -0.181
       0.029
       0.131
       0.094
      -0.034
      -0.160
      -0.208
      -0.165
      -0.072
       0.025
       0.111
       0.208
       0.334
       0.481
       0.625
       0.752
       0.872
       0.992
       1.086
       1.087
       0.932
       0.618
       0.224
      -0.125
      -0.334
      -0.384
      -0.323
      -0.221
      -0.131
      -0.080
      -0.079
      -0.128
      -0.211
      -0.295
      -0.348
      -0.355
      -0.327
      -0.287
      -0.258
      -0.259
      -0.296
      -0.359
      -0.416
      -0.435
      -0.396
      -0.315
      -0.239
      -0.225
      -0.301
      -0.441
      -0.564
      -0.579
      -0.445
      -0.203
       0.046
       0.206
       0.243
       0.185
       0.095
       0.023
      -0.002
       0.022
       0.088
       0.187
       0.312
       0.459
       0.625
       0.795
       0.942
       1.029
       1.022
       0.912
       0.728
       0.531
       0.378
       0.290
       0.246
       0.205
       0.141
       0.053
      -0.044
      -0.137
      -0.213
      -0.257
      -0.252
      -0.203
      -0.146
      -0.139
      -0.224
      -0.395
      -0.600
      -0.762
      -0.819
      -0.758
      -0.614
      -0.456
      -0.346
      -0.305
      -0.302
      -0.272
      -0.163
       0.030
       0.255
       0.431
       0.492
       0.419
       0.239
      -0.005
      -0.267
      -0.512
      -0.705
      -0.813
      -0.804
      -0.666
      -0.416
      -0.096
       0.226
       0.479
       0.606
       0.586
       0.442
       0.243
       0.072
      -0.008
       0.020
       0.132
       0.287
       0.455
       0.611
       0.724
       0.754
       0.667
       0.461
       0.166
      -0.162
      -0.459
      -0.655
      -0.683
      -0.513
      -0.183
       0.196
       0.484
       0.582
       0.479
       0.244
      -0.027
      -0.264
      -0.444
      -0.572
      -0.650
      -0.665
      -0.594
      -0.428
      -0.197
       0.040
       0.212
       0.265
       0.180
      -0.016
      -0.263
      -0.484
      -0.610
      -0.602
      -0.465
      -0.249
      -0.013
       0.195
       0.355
       0.462
       0.505
       0.473
       0.381
       0.275
       0.213
       0.216
       0.250
       0.248
       0.180
       0.083
       0.038
       0.101
       0.257
       0.439
       0.576
       0.650
       0.679
       0.680
       0.641
       0.531
       0.344
       0.123
      -0.067
      -0.176
      -0.200
      -0.178
      -0.154
      -0.157
      -0.189
      -0.250
      -0.347
      -0.495
      -0.694
      -0.913
      -1.112
      -1.251
      -1.302
      -1.233
      -1.013
      -0.636
      -0.162
       0.294
       0.620
       0.775
       0.800
       0.773
       0.734
       0.669
       0.543
       0.355
       0.168
       0.063
       0.082
       0.185
       0.273
       0.259
       0.113
      -0.123
      -0.371
      -0.555
      -0.624
      -0.560
      -0.384
      -0.150
       0.077
       0.259
       0.404
       0.559
       0.754
       0.966
       1.119
       1.132
       0.977
       0.694
       0.358
       0.042
      -0.210
      -0.383
      -0.491
      -0.568
      -0.659
      -0.791
      -0.944
      -1.056
      -1.056
      -0.920
      -0.681
      -0.415
      -0.195
      -0.056
       0.011
       0.041
       0.068
       0.108
       0.164
       0.227
       0.294
       0.359
       0.411
       0.432
       0.402
       0.306
       0.152
      -0.040
      -0.235
      -0.405
      -0.527
      -0.599
      -0.638
      -0.663
      -0.679
      -0.661
      -0.560
      -0.339
      -0.001
       0.395
       0.764
       1.037
       1.189
       1.230
       1.182
       1.059
       0.875
       0.654
       0.435
       0.251
       0.120
       0.039
       0.005
       0.015
       0.052
       0.080
       0.043
      -0.103
      -0.363
      -0.695
      -1.022
      -1.257
      -1.335
      -1.231
      -0.972
      -0.618
      -0.236
       0.121
       0.414
       0.604
       0.656
       0.559
       0.342
       0.057
      -0.246
      -0.539
      -0.811
      -1.042
      -1.200
      -1.251
      -1.171
      -0.956
      -0.623
      -0.209
       0.225
       0.597
       0.838
       0.921
       0.867
       0.740
       0.610
       0.530
       0.526
       0.591
       0.696
       0.796
       0.849
       0.826
       0.720
       0.556
       0.375
       0.220
       0.109
       0.030
      -0.052
      -0.169
      -0.332
      -0.517
      -0.675
      -0.754
      -0.720
      -0.575
      -0.349
      -0.089
       0.150
       0.307
       0.340
       0.247
       0.075
      -0.105
      -0.240
      -0.312
      -0.332
      -0.309
      -0.250
      -0.170
      -0.096
      -0.056
      -0.062
      -0.110
      -0.190
      -0.295
      -0.407
      -0.493
      -0.505
      -0.410
      -0.218
       0.023
       0.250
       0.420
       0.530
       0.598
       0.642
       0.658
       0.638
       0.583
       0.516
       0.462
       0.419
       0.355
       0.233
       0.045
      -0.166
      -0.322
      -0.353
      -0.233
       0.006
       0.283
       0.500
       0.579
       0.484
       0.227
      -0.142
      -0.556
      -0.949
      -1.267
      -1.476
      -1.555
      -1.502
      -1.321
      -1.032
      -0.674
      -0.317
      -0.039
       0.099
       0.077
      -0.078
      -0.309
      -0.549
      -0.735
      -0.824
      -0.789
      -0.619
      -0.324
       0.057
       0.444
       0.741
       0.880
       0.857
       0.720
       0.530
       0.321
       0.110
      -0.071
      -0.150
      -0.048
       0.262
       0.710
       1.141
       1.390
       1.362
       1.086
       0.685
       0.301
       0.024
      -0.131
      -0.190
      -0.178
      -0.103
       0.028
       0.180
       0.300
       0.336
       0.276
       0.155
       0.024
      -0.093
      -0.220
      -0.398
      -0.633
      -0.865
      -0.993
      -0.947
      -0.729
      -0.411
      -0.077
       0.210
       0.417
       0.516
       0.486
       0.320
       0.046
      -0.287
      -0.621
      -0.899
      -1.056
      -1.019
      -0.734
      -0.212
       0.446
       1.063
       1.459
       1.526
       1.270
       0.790
       0.221
      -0.315
      -0.733
      -0.976
      -1.012
      -0.841
      -0.522
      -0.168
       0.088
       0.162
       0.058
      -0.139
      -0.319
      -0.406
      -0.383
      -0.269
      -0.089
       0.146
       0.415
       0.675
       0.867
       0.951
       0.928
       0.841
       0.739
       0.658
       0.614
       0.595
       0.574
       0.496
       0.298
      -0.067
      -0.596
      -1.218
      -1.822
      -2.298
      -2.580
      -2.654
      -2.545
      -2.282
      -1.887
      -1.371
      -0.755
      -0.076
       0.609
       1.231
       1.728
       2.046
       2.155
       2.039
       1.713
       1.222
       0.654
       0.133
      -0.217
      -0.307
      -0.130
       0.239
       0.678
       1.069
       1.345
       1.498
       1.562
       1.587
       1.616
       1.678
       1.772
       1.858
       1.870
       1.743
       1.456
       1.058
       0.652
       0.350
       0.211
       0.206
       0.229
       0.156
      -0.094
      -0.521
      -1.064
      -1.649
      -2.222
      -2.757
      -3.238
      -3.643
      -3.953
      -4.158
      -4.255
      -4.233
      -4.060
      -3.686
      -3.064
      -2.186
      -1.109
       0.069
       1.251
       2.376
       3.402
       4.274
       4.883
       5.085
       4.766
       3.922
       2.698
       1.350
       0.155
      -0.695
      -1.145
      -1.252
      -1.116
      -0.808
      -0.365
       0.170
       0.716
       1.173
       1.476
       1.625
       1.665
       1.641
       1.564
       1.420
       1.195
       0.885
       0.496
       0.026
      -0.526
      -1.150
      -1.810
      -2.439
      -2.963
      -3.319
      -3.482
      -3.469
      -3.330
      -3.131
      -2.924
      -2.727
      -2.520
      -2.268
      -1.959
      -1.622
      -1.312
      -1.054
      -0.814
      -0.513
      -0.085
       0.465
       1.074
       1.672
       2.232
       2.760
       3.247
       3.636
       3.844
       3.812
       3.549
       3.120
       2.604
       2.052
       1.480
       0.910
       0.400
       0.055
      -0.028
       0.182
       0.609
       1.105
       1.515
       1.738
       1.742
       1.538
       1.137
       0.541
      -0.227
      -1.092
      -1.922
      -2.572
      -2.949
      -3.059
      -3.013
      -2.985
      -3.133
      -3.518
      -4.055
      -4.536
      -4.733
      -4.510
      -3.889
      -3.006
      -2.025
      -1.067
      -0.194
       0.553
       1.134
       1.530
       1.764
       1.914
       2.075
       2.318
       2.659
       3.063
       3.478
       3.848
       4.115
       4.210
       4.060
       3.628
       2.955
       2.158
       1.392
       0.780
       0.375
       0.176
       0.168
       0.337
       0.658
       1.050
       1.376
       1.478
       1.244
       0.647
      -0.259
      -1.386
      -2.654
      -3.987
      -5.268
      -6.331
      -6.998
      -7.156
      -6.808
      -6.054
      -5.025
      -3.830
      -2.549
      -1.272
      -0.128
       0.741
       1.242
       1.385
       1.278
       1.072
       0.913
       0.914
       1.152
       1.658
       2.397
       3.264
       4.115
       4.807
       5.238
       5.349
       5.128
       4.602
       3.844
       2.960
       2.075
       1.307
       0.746
       0.443
       0.414
       0.636
       1.044
       1.510
       1.853
       1.886
       1.497
       0.726
      -0.250
      -1.197
      -1.926
      -2.353
      -2.503
      -2.478
      -2.430
      -2.519
      -2.849
      -3.406
      -4.048
      -4.556
      -4.743
      -4.536
      -3.997
      -3.284
      -2.587
      -2.064
      -1.805
      -1.814
      -2.016
      -2.273
      -2.426
      -2.333
      -1.919
      -1.200
      -0.284
       0.675
       1.529
       2.167
       2.522
       2.574
       2.363
       1.999
       1.632
       1.390
       1.322
       1.393
       1.543
       1.748
       2.030
       2.423
       2.908
       3.397
       3.748
       3.822
       3.531
       2.870
       1.924
       0.847
      -0.181
      -1.000
      -1.507
      -1.668
      -1.507
      -1.087
      -0.496
       0.166
       0.804
       1.342
       1.741
       1.992
       2.099
       2.064
       1.878
       1.526
       0.995
       0.290
      -0.553
      -1.455
      -2.296
      -2.951
      -3.328
      -3.405
      -3.230
      -2.885
      -2.446
      -1.960
      -1.465
      -1.006
      -0.638
      -0.407
      -0.313
      -0.310
      -0.330
      -0.315
      -0.233
      -0.065
       0.209
       0.602
       1.100
       1.640
       2.100
       2.335
       2.218
       1.697
       0.821
      -0.265
      -1.354
      -2.226
      -2.703
      -2.687
      -2.190
      -1.339
      -0.341
       0.587
       1.277
       1.639
       1.637
       1.268
       0.562
      -0.397
      -1.457
      -2.424
      -3.106
      -3.360
      -3.105
      -2.335
      -1.128
       0.339
       1.796
       2.936
       3.504
       3.391
       2.674
       1.589
       0.453
      -0.439
      -0.890
      -0.834
      -0.325
       0.496
       1.449
       2.358
       3.085
       3.540
       3.670
       3.456
       2.927
       2.170
       1.314
       0.496
      -0.184
      -0.679
      -0.981
      -1.101
      -1.064
      -0.916
      -0.729
      -0.587
      -0.563
      -0.698
      -0.997
      -1.437
      -1.980
      -2.567
      -3.121
      -3.551
      -3.772
      -3.731
      -3.429
      -2.915
      -2.255
      -1.496
      -0.649
       0.288
       1.282
       2.239
       3.013
       3.471
       3.556
       3.324
       2.914
       2.471
       2.073
       1.697
       1.264
       0.711
       0.044
      -0.654
      -1.277
      -1.743
      -2.012
      -2.059
      -1.849
      -1.355
      -0.596
       0.314
       1.181
       1.783
       1.946
       1.608
       0.842
      -0.169
      -1.188
      -1.995
      -2.456
      -2.547
      -2.327
      -1.887
      -1.301
      -0.618
       0.110
       0.813
       1.398
       1.769
       1.870
       1.698
       1.306
       0.773
       0.173
      -0.441
      -1.013
      -1.466
      -1.705
      -1.657
      -1.320
      -0.777
      -0.169
       0.361
       0.709
       0.832
       0.744
       0.513
       0.247
       0.072
       0.085
       0.310
       0.675
       1.043
       1.275
       1.290
       1.091
       0.747
       0.344
      -0.032
      -0.306
      -0.411
      -0.305
      -0.009
       0.387
       0.753
       0.978
       1.016
       0.879
       0.601
       0.210
      -0.270
      -0.796
      -1.300
      -1.699
      -1.919
      -1.922
      -1.702
      -1.288
      -0.732
      -0.124
       0.407
       0.715
       0.696
       0.354
      -0.177
      -0.673
      -0.922
      -0.817
      -0.384
       0.256
       0.963
       1.636
       2.205
       2.599
       2.731
       2.532
       2.022
       1.335
       0.670
       0.198
      -0.014
       0.005
       0.181
       0.453
       0.776
       1.089
       1.292
       1.260
       0.904
       0.222
      -0.679
      -1.626
      -2.444
      -3.021
      -3.330
      -3.418
      -3.365
      -3.239
      -3.080
      -2.900
      -2.694
      -2.449
      -2.156
      -1.819
      -1.459
      -1.118
      -0.843
      -0.662
      -0.566
      -0.494
      -0.356
      -0.075
       0.380
       0.974
       1.632
       2.270
       2.813
       3.203
       3.396
       3.380
       3.190
       2.909
       2.637
       2.452
       2.381
       2.415
       2.522
       2.669
       2.817
       2.912
       2.888
       2.690
       2.298
       1.739
       1.056
       0.287
      -0.554
      -1.454
      -2.366
      -3.185
      -3.770
      -3.997
      -3.831
      -3.347
      -2.713
      -2.122
      -1.729
      -1.614
      -1.788
      -2.202
      -2.756
      -3.314
      -3.730
      -3.903
      -3.809
      -3.499
      -3.046
      -2.498
      -1.851
      -1.081
      -0.195
       0.740
       1.619
       2.349
       2.895
       3.281
       3.557
       3.755
       3.889
       3.960
       3.970
       3.918
       3.778
       3.499
       3.040
       2.421
       1.746
       1.160
       0.779
       0.622
       0.620
       0.664
       0.657
       0.540
       0.275
      -0.163
      -0.775
      -1.527
      -2.328
      -3.053
      -3.563
      -3.753
      -3.584
      -3.103
      -2.441
      -1.772
      -1.256
      -0.979
      -0.930
      -1.021
      -1.144
      -1.222
      -1.217
      -1.118
      -0.923
      -0.644
      -0.320
      -0.010
