Origin Time       27/8/2009 16:54:15 
Lat.              30.0 N 
Long.             80.0 E 
Depth (Km)         14.0
Magnitude         3.9
 Region           UTTARAKHAND-INDIA                                                
 Above details taken from IMD 
   
Station Code      KAP
Station Lat.       29.941
Station Long.      79.899
Station Height(m) 1066.0
Site Class        A   Vs30 between 700 m/sec to 1400 m/sec * 
Record Time       27.08.2009 16:54:07.869
Sampling Rate     200. Hz
 Record Duration   70.045 Sec.
 Direction         Vert. (Up positive)
Max. Acceleration     40.054 cm/sec**2
     
  * For reference see Site Classification link of website 
     
 Base Line Corrected and Low Pass Filtered (Cut Off at 35 Hz) Time History
 Acceleration data in cm/sec**2
    
[...]
       0.007
       0.009
       0.006
       0.002
      -0.001
      -0.002
      -0.001
       0.001
       0.004
       0.005
       0.001
      -0.007
      -0.014
      -0.012
      -0.002
       0.011
       0.017
       0.013
       0.002
      -0.008
      -0.012
      -0.012
      -0.008
      -0.002
       0.005
       0.011
       0.014
       0.014
       0.011
       0.008
       0.007
       0.007
       0.006
       0.005
       0.003
       0.003
       0.002
       0.002
       0.002
       0.004
       0.006
       0.006
       0.005
       0.002
       0.000
       0.000
       0.001
      -0.001
      -0.007
      -0.014
      -0.018
      -0.016
      -0.008
       0.001
       0.007
       0.009
       0.006
       0.003
       0.000
      -0.001
      -0.001
      -0.002
      -0.002
      -0.002
       0.001
       0.004
       0.008
       0.010
       0.010
       0.007
       0.003
      -0.001
      -0.003
      -0.004
      -0.004
      -0.003
      -0.001
       0.002
       0.005
       0.006
       0.004
      -0.001
      -0.002
       0.000
       0.005
       0.008
       0.006
       0.001
      -0.005
      -0.010
      -0.014
      -0.014
      -0.012
      -0.006
       0.001
       0.007
       0.009
       0.006
       0.002
      -0.002
      -0.005
      -0.007
      -0.009
      -0.008
      -0.005
       0.002
       0.009
       0.011
       0.008
       0.001
      -0.005
      -0.007
      -0.005
      -0.002
       0.001
       0.004
       0.007
       0.009
       0.011
       0.012
       0.013
       0.014
       0.012
       0.007
       0.001
      -0.004
      -0.004
       0.000
       0.006
       0.011
       0.011
       0.007
       0.001
      -0.002
      -0.001
       0.002
       0.005
       0.006
       0.006
       0.008
       0.011
       0.011
       0.008
       0.002
      -0.002
      -0.002
       0.001
       0.005
       0.007
       0.007
       0.005
       0.004
       0.006
       0.010
       0.012
       0.010
       0.006
       0.004
       0.004
       0.005
       0.004
       0.003
       0.005
       0.010
       0.015
       0.016
       0.013
       0.008
       0.005
       0.004
       0.005
       0.006
       0.006
       0.004
       0.002
       0.001
       0.005
       0.010
       0.015
       0.015
       0.011
       0.004
      -0.002
      -0.005
      -0.004
       0.001
       0.007
       0.011
       0.012
       0.012
       0.012
       0.014
       0.016
       0.014
       0.009
       0.001
      -0.008
      -0.013
      -0.011
      -0.003
       0.007
       0.014
       0.014
       0.012
       0.010
       0.010
       0.009
       0.005
      -0.001
      -0.006
      -0.006
      -0.003
       0.001
       0.004
       0.005
       0.005
       0.004
       0.002
      -0.001
      -0.002
       0.000
       0.006
       0.011
       0.013
       0.012
       0.010
       0.007
       0.006
       0.006
       0.004
       0.001
      -0.002
      -0.002
       0.001
       0.005
       0.008
       0.009
       0.008
       0.005
       0.001
      -0.006
      -0.012
      -0.012
      -0.006
       0.002
       0.004
       0.001
      -0.004
      -0.006
      -0.002
       0.004
       0.009
       0.012
       0.013
       0.013
       0.013
       0.011
       0.007
       0.003
       0.001
       0.003
       0.007
       0.011
       0.013
       0.014
       0.013
       0.013
       0.012
       0.010
       0.004
      -0.004
      -0.008
      -0.006
       0.000
       0.006
       0.007
       0.004
       0.002
       0.002
       0.004
       0.004
       0.000
      -0.005
      -0.008
      -0.008
      -0.005
       0.000
       0.005
       0.007
       0.005
       0.001
      -0.002
      -0.002
       0.001
       0.004
       0.006
       0.005
       0.004
       0.002
       0.001
       0.001
       0.001
       0.000
      -0.001
       0.000
       0.002
       0.004
       0.006
       0.009
       0.010
       0.009
       0.005
      -0.001
      -0.005
      -0.005
       0.001
       0.007
       0.010
       0.009
       0.004
      -0.001
      -0.004
      -0.004
      -0.003
      -0.002
       0.000
       0.002
       0.005
       0.008
       0.010
       0.010
       0.011
       0.014
       0.016
       0.015
       0.010
       0.002
      -0.004
      -0.004
       0.000
       0.005
       0.010
       0.013
       0.013
       0.011
       0.006
       0.002
       0.000
       0.002
       0.002
       0.001
      -0.001
      -0.003
      -0.002
       0.002
       0.007
       0.013
       0.016
       0.015
       0.011
       0.010
       0.012
       0.015
       0.014
       0.009
       0.002
       0.000
       0.003
       0.010
       0.015
       0.014
       0.009
       0.004
       0.001
       0.004
       0.009
       0.011
       0.011
       0.008
       0.007
       0.008
       0.008
       0.007
       0.004
       0.005
       0.008
       0.014
       0.017
       0.017
       0.013
       0.008
       0.006
       0.008
       0.013
       0.017
       0.016
       0.013
       0.009
       0.005
       0.000
      -0.006
      -0.012
      -0.013
      -0.008
       0.001
       0.007
       0.009
       0.009
       0.008
       0.007
       0.006
       0.006
       0.007
       0.009
       0.010
       0.010
       0.009
       0.008
       0.010
       0.012
       0.013
       0.009
       0.004
       0.001
       0.000
       0.001
       0.001
      -0.002
      -0.006
      -0.007
      -0.004
       0.002
       0.006
       0.005
       0.000
      -0.004
      -0.005
      -0.003
      -0.001
      -0.003
      -0.008
      -0.013
      -0.017
      -0.016
      -0.011
      -0.003
       0.005
       0.007
       0.003
      -0.004
      -0.008
      -0.006
       0.000
       0.005
       0.005
       0.000
      -0.005
      -0.007
      -0.004
       0.001
       0.004
       0.002
      -0.004
      -0.008
      -0.010
      -0.008
      -0.004
       0.001
       0.003
       0.002
      -0.002
      -0.004
      -0.003
       0.002
       0.008
       0.009
       0.006
       0.000
      -0.004
      -0.004
       0.000
       0.003
       0.002
      -0.001
      -0.003
      -0.003
       0.000
       0.002
       0.002
       0.001
       0.003
       0.008
       0.014
       0.015
       0.010
       0.004
      -0.001
      -0.002
      -0.002
      -0.003
      -0.006
      -0.010
      -0.012
      -0.012
      -0.008
      -0.003
       0.002
       0.006
       0.008
       0.009
       0.009
       0.008
       0.006
       0.002
       0.000
      -0.001
       0.001
       0.004
       0.004
       0.000
      -0.006
      -0.008
      -0.006
      -0.001
       0.002
       0.001
      -0.002
      -0.004
      -0.001
       0.004
       0.008
       0.006
       0.002
      -0.002
      -0.003
      -0.003
      -0.005
      -0.008
      -0.009
      -0.006
      -0.001
       0.002
       0.002
       0.001
       0.002
       0.007
       0.010
       0.009
       0.005
       0.001
      -0.001
       0.002
       0.004
       0.002
      -0.004
      -0.009
      -0.010
      -0.007
      -0.002
       0.000
       0.000
       0.001
       0.003
       0.004
       0.003
       0.002
       0.002
       0.003
       0.005
       0.008
       0.010
       0.012
       0.010
       0.006
       0.001
       0.000
       0.004
       0.009
       0.010
       0.007
       0.007
       0.010
       0.016
       0.019
       0.014
       0.005
      -0.003
      -0.007
      -0.007
      -0.008
      -0.008
      -0.008
      -0.005
       0.000
       0.003
       0.003
       0.001
      -0.001
      -0.002
      -0.005
      -0.010
      -0.012
      -0.009
       0.001
       0.013
       0.019
       0.017
       0.009
       0.002
      -0.001
       0.000
       0.000
      -0.001
      -0.003
      -0.005
      -0.005
      -0.005
      -0.003
       0.000
       0.003
       0.005
       0.006
       0.007
       0.006
       0.006
       0.008
       0.010
       0.011
       0.011
       0.007
       0.003
      -0.001
      -0.003
      -0.001
       0.004
       0.009
       0.014
       0.015
       0.015
       0.013
       0.011
       0.008
       0.005
       0.002
       0.000
       0.001
       0.005
       0.010
       0.013
       0.012
       0.007
       0.001
      -0.003
      -0.002
       0.003
       0.008
       0.011
       0.008
       0.001
      -0.005
      -0.006
      -0.004
      -0.002
       0.000
       0.001
       0.003
       0.003
       0.002
       0.001
       0.001
       0.003
       0.005
       0.005
       0.003
       0.000
       0.000
       0.003
       0.006
       0.007
       0.004
      -0.001
      -0.006
      -0.007
      -0.004
       0.003
       0.012
       0.018
       0.019
       0.011
       0.000
      -0.010
      -0.014
      -0.012
      -0.005
       0.002
       0.006
       0.008
       0.010
       0.011
       0.013
       0.012
       0.009
       0.006
       0.004
       0.004
       0.004
       0.003
       0.000
      -0.001
      -0.001
       0.000
       0.001
       0.001
       0.002
       0.005
       0.007
       0.007
       0.005
       0.000
      -0.005
      -0.006
      -0.006
      -0.005
      -0.006
      -0.007
      -0.006
      -0.001
       0.005
       0.010
       0.009
       0.004
       0.000
       0.000
       0.002
       0.004
       0.004
       0.002
      -0.001
      -0.005
      -0.010
      -0.013
      -0.012
      -0.007
       0.001
       0.007
       0.008
       0.004
      -0.002
      -0.007
      -0.010
      -0.011
      -0.010
      -0.009
      -0.009
      -0.009
      -0.008
      -0.004
       0.001
       0.006
       0.010
       0.011
       0.011
       0.008
       0.004
       0.000
      -0.002
       0.000
       0.005
       0.008
       0.007
       0.003
      -0.001
      -0.002
       0.000
       0.004
       0.008
       0.011
       0.011
       0.010
       0.009
       0.008
       0.006
       0.003
      -0.001
      -0.004
      -0.007
      -0.007
      -0.004
       0.000
       0.005
       0.006
       0.005
       0.003
       0.002
       0.004
       0.006
       0.008
       0.007
       0.005
       0.002
       0.001
       0.001
       0.003
       0.002
      -0.001
      -0.005
      -0.008
      -0.008
      -0.005
      -0.001
       0.001
       0.002
       0.001
      -0.001
      -0.001
       0.001
       0.003
       0.002
      -0.002
      -0.005
      -0.005
       0.000
       0.007
       0.012
       0.012
       0.008
       0.003
      -0.001
      -0.004
      -0.007
      -0.010
      -0.011
      -0.010
      -0.006
      -0.003
      -0.001
       0.000
       0.002
       0.004
       0.005
       0.004
       0.002
       0.001
      -0.001
      -0.003
      -0.006
      -0.009
      -0.008
      -0.003
       0.004
       0.009
       0.009
       0.004
      -0.002
      -0.005
      -0.004
       0.000
       0.002
       0.001
      -0.003
      -0.007
      -0.006
      -0.002
       0.002
       0.003
       0.003
       0.001
      -0.001
      -0.004
      -0.007
      -0.010
      -0.011
      -0.008
      -0.003
       0.001
       0.002
      -0.001
      -0.006
      -0.010
      -0.008
      -0.003
       0.003
       0.007
       0.007
       0.005
       0.002
       0.001
       0.001
       0.001
       0.001
       0.002
       0.005
       0.008
       0.009
       0.009
       0.007
       0.006
       0.006
       0.006
       0.006
       0.005
       0.002
      -0.001
      -0.003
      -0.003
      -0.001
       0.001
       0.003
       0.004
       0.004
       0.003
       0.002
       0.001
       0.000
      -0.002
      -0.004
      -0.007
      -0.009
      -0.011
      -0.008
      -0.003
       0.001
       0.001
      -0.002
      -0.006
      -0.008
      -0.007
      -0.005
      -0.005
      -0.006
      -0.006
      -0.006
      -0.006
      -0.007
      -0.007
      -0.007
      -0.005
      -0.004
      -0.004
      -0.004
      -0.002
      -0.001
      -0.002
      -0.004
      -0.005
      -0.006
      -0.007
      -0.008
      -0.009
      -0.008
      -0.005
      -0.001
       0.003
       0.007
       0.008
       0.007
       0.005
       0.002
      -0.001
      -0.002
      -0.003
      -0.004
      -0.005
      -0.006
      -0.006
      -0.005
      -0.002
      -0.001
      -0.002
      -0.006
      -0.008
      -0.008
      -0.003
       0.005
       0.011
       0.012
       0.008
       0.001
      -0.006
      -0.011
      -0.012
      -0.009
      -0.004
       0.000
      -0.002
      -0.008
      -0.012
      -0.012
      -0.007
      -0.002
      -0.002
      -0.004
      -0.005
      -0.003
      -0.001
       0.001
       0.001
       0.001
       0.000
      -0.002
      -0.004
      -0.007
      -0.007
      -0.006
      -0.004
      -0.005
      -0.008
      -0.006
       0.012
       0.054
       0.130
       0.255
       0.451
       0.738
       1.115
       1.564
       2.075
       2.684
       3.448
       4.353
       5.188
       5.483
       4.583
       1.835
      -3.147
     -10.179
     -18.223
     -25.221
     -28.303
     -24.639
     -12.926
       5.087
      24.229
      37.618
      40.054
      31.000
      14.815
      -2.188
     -15.461
     -23.645
     -26.999
     -25.272
     -17.749
      -5.311
       8.318
      18.208
      21.455
      18.811
      13.237
       7.167
       1.283
      -4.387
      -8.868
     -10.345
      -8.062
      -3.831
      -1.103
      -2.081
      -5.547
      -7.608
      -4.969
       2.021
       9.305
      12.155
       8.649
       0.706
      -7.638
     -12.773
     -12.937
      -8.172
       0.218
       9.882
      17.607
      20.244
      16.238
       6.575
      -5.619
     -16.439
     -22.532
     -21.960
     -14.659
      -2.653
      10.258
      19.743
      22.794
      18.994
      10.324
      -0.126
      -9.462
     -15.675
     -17.783
     -15.726
     -10.188
      -2.449
       5.724
      12.246
      15.194
      13.601
       8.108
       0.891
      -5.304
      -8.423
      -7.877
      -4.576
      -0.511
       1.942
       1.196
      -2.339
      -6.169
      -7.330
      -4.585
       0.666
       5.528
       7.775
       7.153
       4.878
       2.181
      -0.469
      -2.936
      -4.684
      -4.790
      -2.686
       1.114
       5.006
       7.108
       6.359
       3.123
      -1.121
      -4.719
      -6.694
      -6.939
      -5.822
      -3.735
      -1.019
       1.833
       4.136
       5.315
       5.202
       3.989
       2.027
      -0.175
      -1.893
      -2.500
      -1.951
      -0.790
       0.409
       1.391
       1.892
       1.268
      -1.015
      -4.298
      -6.438
      -5.171
      -0.203
       5.954
       9.459
       7.907
       2.103
      -4.606
      -8.810
      -9.233
      -6.996
      -4.036
      -1.288
       1.749
       5.776
      10.112
      12.498
      10.698
       4.574
      -3.281
      -9.065
     -10.286
      -7.218
      -2.257
       2.007
       4.227
       4.352
       2.906
       0.574
      -1.744
      -3.029
      -2.703
      -1.076
       0.869
       2.137
       2.142
       0.697
      -2.031
      -5.342
      -7.931
      -8.288
      -5.494
       0.102
       6.829
      12.356
      14.710
      13.113
       8.213
       1.623
      -4.858
      -9.805
     -12.281
     -11.770
      -8.266
      -2.549
       3.650
       8.017
       8.697
       5.460
       0.032
      -4.788
      -6.640
      -4.805
      -0.516
       3.747
       5.616
       4.205
       0.687
      -2.424
      -3.129
      -1.632
      -0.190
      -0.904
      -3.468
      -5.315
      -4.130
      -0.132
       4.181
       6.351
       5.823
       3.690
       1.199
      -1.004
      -2.337
      -1.875
       0.765
       4.216
       5.733
       3.360
      -2.105
      -7.358
      -8.999
      -5.992
      -0.181
       5.230
       7.744
       6.707
       3.243
      -0.546
      -2.707
      -2.588
      -1.332
      -0.987
      -2.656
      -5.417
      -7.105
      -6.151
      -2.782
       1.287
       4.166
       4.961
       4.061
       2.669
       2.130
       3.213
       5.357
       6.516
       4.345
      -1.658
      -8.874
     -12.817
     -10.443
      -2.788
       5.629
      10.219
       9.442
       5.105
       0.245
      -3.094
      -4.543
      -4.690
      -4.150
      -3.168
      -1.715
       0.250
       2.440
       4.008
       3.802
       1.191
      -3.106
      -6.974
      -7.906
      -4.543
       2.271
       9.695
      14.325
      13.920
       8.462
       0.112
      -7.812
     -12.394
     -12.432
      -8.809
      -3.730
       0.642
       3.258
       4.277
       4.332
       3.788
       2.643
       0.969
      -0.699
      -1.521
      -1.061
       0.130
       0.827
       0.177
      -1.572
      -3.399
      -4.415
      -4.322
      -3.135
      -0.818
       2.483
       5.893
       7.817
       6.854
       2.940
      -2.218
      -5.860
      -5.711
      -1.465
       4.775
       9.575
      10.178
       6.164
      -0.413
      -6.529
     -10.178
     -11.313
     -11.086
     -10.225
      -8.176
      -3.864
       2.738
       9.894
      14.983
      16.054
      12.778
       6.404
      -0.905
      -6.927
     -10.187
     -10.421
      -8.448
      -5.474
      -2.277
       0.990
       4.230
       6.804
       7.714
       6.386
       3.240
      -0.437
      -3.198
      -4.246
      -3.742
      -2.416
      -0.938
       0.316
       1.119
       1.278
       0.725
      -0.350
      -1.464
      -2.037
      -1.785
      -0.996
      -0.265
       0.152
       0.647
       1.751
       3.331
       4.436
       4.050
       2.001
      -0.838
      -3.219
      -4.425
      -4.605
      -4.265
      -3.469
      -1.652
       1.677
       6.009
       9.621
      10.401
       7.184
       0.635
      -6.928
     -12.560
     -13.933
     -10.295
      -2.868
       5.590
      11.976
      14.141
      11.583
       5.366
      -2.421
      -9.382
     -13.536
     -13.926
     -10.931
      -6.040
      -0.966
       3.438
       7.476
      11.582
      14.861
      14.952
       9.929
       0.687
      -8.694
     -13.482
     -11.750
      -5.726
       0.125
       2.487
       1.246
      -1.084
      -1.630
       0.749
       4.826
       7.864
       7.201
       1.909
      -6.102
     -12.405
     -12.455
      -5.032
       6.001
      13.796
      13.506
       6.137
      -2.389
      -6.373
      -5.008
      -2.264
      -2.420
      -5.774
      -8.623
      -7.229
      -1.602
       4.619
       7.764
       7.313
       5.499
       4.265
       3.329
       1.401
      -1.405
      -3.224
      -2.637
      -0.624
       0.214
      -1.581
      -4.652
      -6.118
      -4.429
      -0.743
       2.451
       3.793
       4.082
       5.054
       7.298
       9.339
