Origin Time       14/03/2010 6:53:21	
Lat.              31.7 N	
Long.             76.1 E	
Depth (Km)         29.0
Magnitude         4.6
 Region           HIMACHAL-PUNJAB-(HOSHIARPUR)-BORDER                              
 Above details taken from IMD 
     
Station Code      KAP
Station Lat.       31.380  N
Station Long.      75.383  E
Station Height(m)  223.0
Site Class        C   Vs30 between 200 m/sec to 375 m/sec *  
Record Time       14.03.2010 06:53:19.369
Sampling Rate     200. Hz
 Record Duration   74.660 Sec.
 Direction         E-W (E positive)
Max. Acceleration      4.718 cm/sec**2
     
  * For reference see Site Classification link of website 
     
 Base Line Corrected and Low Pass Filtered (Cut Off at 35 Hz) Time History
 Acceleration data in cm/sec**2
    
[...]
       0.459
       0.282
       0.129
       0.052
       0.067
       0.149
       0.253
       0.334
       0.366
       0.340
       0.252
       0.107
      -0.078
      -0.272
      -0.440
      -0.558
      -0.624
      -0.646
      -0.635
      -0.599
      -0.541
      -0.464
      -0.374
      -0.282
      -0.199
      -0.134
      -0.097
      -0.098
      -0.143
      -0.222
      -0.300
      -0.332
      -0.282
      -0.145
       0.048
       0.250
       0.413
       0.518
       0.572
       0.592
       0.575
       0.501
       0.356
       0.177
       0.030
      -0.029
      -0.004
       0.044
       0.058
       0.023
      -0.032
      -0.083
      -0.141
      -0.234
      -0.361
      -0.465
      -0.478
      -0.388
      -0.263
      -0.194
      -0.231
      -0.343
      -0.452
      -0.482
      -0.400
      -0.237
      -0.062
       0.049
       0.062
      -0.002
      -0.076
      -0.086
       0.019
       0.232
       0.492
       0.715
       0.853
       0.918
       0.946
       0.954
       0.913
       0.778
       0.534
       0.221
      -0.080
      -0.298
      -0.408
      -0.453
      -0.493
      -0.561
      -0.639
      -0.686
      -0.686
      -0.658
      -0.629
      -0.596
      -0.532
      -0.419
      -0.277
      -0.150
      -0.067
      -0.017
       0.048
       0.172
       0.354
       0.545
       0.673
       0.701
       0.653
       0.598
       0.587
       0.616
       0.635
       0.595
       0.492
       0.360
       0.243
       0.162
       0.101
       0.025
      -0.101
      -0.289
      -0.516
      -0.723
      -0.851
      -0.877
      -0.831
      -0.769
      -0.721
      -0.665
      -0.548
      -0.339
      -0.067
       0.197
       0.389
       0.491
       0.525
       0.514
       0.462
       0.363
       0.228
       0.094
       0.002
      -0.037
      -0.047
      -0.062
      -0.094
      -0.122
      -0.124
      -0.102
      -0.085
      -0.103
      -0.148
      -0.169
      -0.104
       0.072
       0.309
       0.490
       0.507
       0.333
       0.047
      -0.220
      -0.383
      -0.444
      -0.465
      -0.490
      -0.503
      -0.445
      -0.275
      -0.021
       0.220
       0.335
       0.271
       0.074
      -0.139
      -0.251
      -0.217
      -0.075
       0.088
       0.198
       0.231
       0.208
       0.164
       0.130
       0.110
       0.098
       0.082
       0.056
       0.031
       0.030
       0.082
       0.198
       0.359
       0.512
       0.602
       0.600
       0.512
       0.370
       0.206
       0.046
      -0.093
      -0.206
      -0.297
      -0.380
      -0.463
      -0.537
      -0.583
      -0.580
      -0.532
      -0.471
      -0.437
      -0.447
      -0.477
      -0.484
      -0.431
      -0.310
      -0.150
       0.008
       0.134
       0.230
       0.327
       0.452
       0.585
       0.666
       0.643
       0.521
       0.375
       0.297
       0.320
       0.395
       0.434
       0.385
       0.277
       0.186
       0.170
       0.211
       0.239
       0.192
       0.066
      -0.094
      -0.234
      -0.323
      -0.354
      -0.329
      -0.252
      -0.133
       0.010
       0.152
       0.268
       0.339
       0.362
       0.338
       0.272
       0.165
       0.025
      -0.134
      -0.296
      -0.446
      -0.558
      -0.593
      -0.517
      -0.342
      -0.136
       0.015
       0.068
       0.046
       0.005
      -0.026
      -0.077
      -0.186
      -0.344
      -0.474
      -0.485
      -0.349
      -0.121
       0.103
       0.248
       0.298
       0.290
       0.271
       0.258
       0.230
       0.150
       0.012
      -0.147
      -0.272
      -0.343
      -0.389
      -0.450
      -0.529
      -0.588
      -0.585
      -0.518
      -0.426
      -0.349
      -0.290
      -0.215
      -0.086
       0.082
       0.225
       0.280
       0.251
       0.207
       0.217
       0.296
       0.409
       0.511
       0.588
       0.646
       0.686
       0.685
       0.615
       0.468
       0.285
       0.132
       0.053
       0.036
       0.029
      -0.009
      -0.067
      -0.112
      -0.133
      -0.162
      -0.238
      -0.357
      -0.462
      -0.479
      -0.388
      -0.234
      -0.099
      -0.029
      -0.012
      -0.003
       0.029
       0.078
       0.118
       0.130
       0.115
       0.088
       0.065
       0.056
       0.063
       0.079
       0.088
       0.072
       0.020
      -0.054
      -0.107
      -0.095
      -0.001
       0.148
       0.285
       0.343
       0.285
       0.133
      -0.050
      -0.188
      -0.236
      -0.205
      -0.152
      -0.127
      -0.140
      -0.153
      -0.124
      -0.047
       0.042
       0.091
       0.067
      -0.032
      -0.172
      -0.302
      -0.375
      -0.370
      -0.297
      -0.189
      -0.078
       0.023
       0.103
       0.150
       0.152
       0.116
       0.085
       0.108
       0.197
       0.300
       0.339
       0.272
       0.134
       0.007
      -0.049
      -0.042
      -0.034
      -0.077
      -0.167
      -0.255
      -0.291
      -0.272
      -0.232
      -0.206
      -0.193
      -0.150
      -0.041
       0.124
       0.280
       0.355
       0.330
       0.244
       0.154
       0.095
       0.066
       0.059
       0.072
       0.102
       0.121
       0.082
      -0.039
      -0.210
      -0.349
      -0.383
      -0.302
      -0.168
      -0.057
      -0.016
      -0.052
      -0.142
      -0.248
      -0.327
      -0.337
      -0.257
      -0.092
       0.126
       0.345
       0.506
       0.562
       0.505
       0.370
       0.216
       0.091
       0.019
       0.003
       0.027
       0.068
       0.103
       0.109
       0.077
       0.007
      -0.079
      -0.142
      -0.138
      -0.063
       0.040
       0.097
       0.059
      -0.061
      -0.193
      -0.258
      -0.217
      -0.104
      -0.008
      -0.009
      -0.130
      -0.322
      -0.497
      -0.581
      -0.541
      -0.397
      -0.197
       0.006
       0.171
       0.272
       0.294
       0.236
       0.121
      -0.008
      -0.109
      -0.149
      -0.114
      -0.007
       0.151
       0.329
       0.496
       0.625
       0.696
       0.688
       0.589
       0.413
       0.201
       0.007
      -0.136
      -0.244
      -0.357
      -0.496
      -0.627
      -0.694
      -0.668
      -0.588
      -0.532
      -0.552
      -0.614
      -0.624
      -0.512
      -0.300
      -0.083
       0.049
       0.079
       0.064
       0.078
       0.161
       0.297
       0.445
       0.559
       0.614
       0.607
       0.565
       0.535
       0.555
       0.628
       0.715
       0.756
       0.715
       0.600
       0.455
       0.321
       0.212
       0.115
       0.023
      -0.054
      -0.096
      -0.093
      -0.062
      -0.046
      -0.084
      -0.189
      -0.334
      -0.470
      -0.561
      -0.606
      -0.623
      -0.620
      -0.585
      -0.495
      -0.359
      -0.227
      -0.160
      -0.178
      -0.238
      -0.272
      -0.257
      -0.233
      -0.255
      -0.323
      -0.365
      -0.309
      -0.157
       0.000
       0.063
       0.006
      -0.096
      -0.133
      -0.048
       0.122
       0.282
       0.363
       0.372
       0.366
       0.395
       0.461
       0.533
       0.577
       0.578
       0.537
       0.460
       0.359
       0.253
       0.162
       0.092
       0.026
      -0.060
      -0.175
      -0.308
      -0.432
      -0.526
      -0.578
      -0.588
      -0.556
      -0.486
      -0.398
      -0.317
      -0.260
      -0.216
      -0.164
      -0.088
       0.008
       0.106
       0.191
       0.255
       0.291
       0.289
       0.245
       0.179
       0.141
       0.187
       0.323
       0.483
       0.563
       0.498
       0.313
       0.105
      -0.031
      -0.072
      -0.070
      -0.095
      -0.174
      -0.273
      -0.332
      -0.318
      -0.248
      -0.167
      -0.115
      -0.099
      -0.106
      -0.113
      -0.103
      -0.069
      -0.021
       0.015
       0.016
      -0.022
      -0.065
      -0.056
       0.048
       0.236
       0.435
       0.535
       0.456
       0.212
      -0.084
      -0.298
      -0.363
      -0.316
      -0.250
      -0.226
      -0.230
      -0.212
      -0.146
      -0.066
      -0.034
      -0.079
      -0.168
      -0.232
      -0.221
      -0.138
      -0.024
       0.083
       0.172
       0.250
       0.322
       0.371
       0.368
       0.304
       0.206
       0.127
       0.095
       0.078
       0.014
      -0.130
      -0.310
      -0.424
      -0.398
      -0.244
      -0.052
       0.077
       0.103
       0.069
       0.057
       0.120
       0.243
       0.354
       0.381
       0.302
       0.151
      -0.006
      -0.100
      -0.085
       0.041
       0.225
       0.375
       0.413
       0.316
       0.127
      -0.076
      -0.228
      -0.309
      -0.337
      -0.333
      -0.298
      -0.225
      -0.112
       0.011
       0.098
       0.109
       0.042
      -0.070
      -0.174
      -0.226
      -0.220
      -0.181
      -0.142
      -0.120
      -0.105
      -0.075
      -0.019
       0.055
       0.135
       0.215
       0.285
       0.325
       0.309
       0.228
       0.101
      -0.029
      -0.121
      -0.154
      -0.136
      -0.092
      -0.059
      -0.064
      -0.111
      -0.179
      -0.227
      -0.228
      -0.192
      -0.154
      -0.145
      -0.171
      -0.225
      -0.292
      -0.353
      -0.369
      -0.295
      -0.117
       0.119
       0.340
       0.502
       0.611
       0.699
       0.778
       0.833
       0.839
       0.786
       0.682
       0.552
       0.434
       0.364
       0.357
       0.387
       0.400
       0.351
       0.228
       0.051
      -0.144
      -0.314
      -0.412
      -0.418
      -0.355
      -0.293
      -0.314
      -0.451
      -0.670
      -0.888
      -1.028
      -1.053
      -0.978
      -0.840
      -0.674
      -0.489
      -0.278
      -0.052
       0.141
       0.243
       0.237
       0.172
       0.119
       0.108
       0.113
       0.099
       0.070
       0.067
       0.121
       0.219
       0.305
       0.332
       0.285
       0.195
       0.105
       0.042
       0.004
      -0.010
       0.017
       0.109
       0.267
       0.444
       0.568
       0.591
       0.516
       0.380
       0.223
       0.068
      -0.059
      -0.121
      -0.089
       0.026
       0.157
       0.223
       0.182
       0.051
      -0.119
      -0.283
      -0.424
      -0.536
      -0.593
      -0.547
      -0.360
      -0.065
       0.227
       0.388
       0.357
       0.194
       0.031
      -0.020
       0.057
       0.194
       0.299
       0.325
       0.286
       0.222
       0.143
       0.028
      -0.146
      -0.354
      -0.530
      -0.607
      -0.571
      -0.464
      -0.342
      -0.233
      -0.127
      -0.017
       0.077
       0.116
       0.094
       0.058
       0.080
       0.189
       0.342
       0.461
       0.499
       0.472
       0.418
       0.347
       0.241
       0.085
      -0.090
      -0.221
      -0.245
      -0.149
       0.021
       0.175
       0.235
       0.171
       0.013
      -0.169
      -0.308
      -0.366
      -0.347
      -0.278
      -0.207
      -0.181
      -0.232
      -0.345
      -0.456
      -0.480
      -0.374
      -0.174
       0.031
       0.157
       0.182
       0.156
       0.141
       0.156
       0.155
       0.078
      -0.082
      -0.263
      -0.375
      -0.354
      -0.190
       0.072
       0.357
       0.595
       0.736
       0.767
       0.701
       0.577
       0.438
       0.312
       0.189
       0.022
      -0.234
      -0.564
      -0.867
      -1.008
      -0.904
      -0.597
      -0.239
       0.014
       0.097
       0.064
       0.016
       0.020
       0.079
       0.163
       0.245
       0.322
       0.397
       0.467
       0.513
       0.507
       0.426
       0.265
       0.040
      -0.213
      -0.436
      -0.556
      -0.521
      -0.334
      -0.069
       0.165
       0.287
       0.287
       0.220
       0.158
       0.142
       0.163
       0.172
       0.127
       0.026
      -0.089
      -0.165
      -0.188
      -0.185
      -0.197
      -0.239
      -0.286
      -0.299
      -0.257
      -0.172
      -0.082
      -0.025
      -0.018
      -0.057
      -0.119
      -0.172
      -0.187
      -0.150
      -0.070
       0.033
       0.124
       0.169
       0.157
       0.108
       0.064
       0.046
       0.032
      -0.034
      -0.188
      -0.408
      -0.624
      -0.765
      -0.807
      -0.782
      -0.751
      -0.764
      -0.829
      -0.926
      -1.018
      -1.073
      -1.064
      -0.969
      -0.784
      -0.532
      -0.265
      -0.037
       0.132
       0.265
       0.401
       0.550
       0.688
       0.785
       0.849
       0.912
       1.002
       1.096
       1.131
       1.048
       0.842
       0.579
       0.349
       0.197
       0.084
      -0.082
      -0.369
      -0.765
      -1.187
      -1.527
      -1.717
      -1.753
      -1.693
      -1.598
      -1.483
      -1.295
      -0.971
      -0.507
       0.030
       0.566
       1.076
       1.593
       2.152
       2.754
       3.355
       3.888
       4.302
       4.578
       4.718
       4.717
       4.548
       4.180
       3.621
       2.925
       2.174
       1.438
       0.748
       0.108
      -0.483
      -1.021
      -1.496
      -1.903
      -2.254
      -2.565
      -2.844
      -3.073
      -3.216
      -3.251
      -3.191
      -3.081
      -2.963
      -2.841
      -2.668
      -2.376
      -1.919
      -1.309
      -0.609
       0.093
       0.720
       1.216
       1.551
       1.723
       1.771
       1.763
       1.758
       1.760
       1.710
       1.539
       1.231
       0.839
       0.431
       0.034
      -0.384
      -0.853
      -1.342
      -1.751
      -1.972
      -1.966
      -1.784
      -1.513
      -1.206
      -0.860
      -0.455
      -0.008
       0.413
       0.734
       0.924
       1.011
       1.031
       0.984
       0.831
       0.537
       0.122
      -0.335
      -0.737
      -1.012
      -1.131
      -1.100
      -0.935
      -0.663
      -0.318
       0.052
       0.385
       0.612
       0.682
       0.600
       0.436
       0.288
       0.234
       0.293
       0.429
       0.581
       0.706
       0.797
       0.864
       0.900
       0.861
       0.708
       0.447
       0.138
      -0.137
      -0.331
      -0.455
      -0.563
      -0.697
      -0.858
      -1.020
      -1.168
      -1.317
      -1.484
      -1.653
      -1.772
      -1.788
      -1.678
      -1.449
      -1.123
      -0.737
      -0.346
      -0.010
       0.231
       0.389
       0.523
       0.696
       0.933
       1.203
       1.447
       1.618
       1.714
       1.767
       1.798
       1.777
       1.642
       1.367
       1.020
       0.735
       0.615
       0.647
       0.719
       0.711
       0.577
       0.364
       0.148
      -0.028
      -0.185
      -0.380
      -0.654
      -0.993
      -1.342
      -1.649
      -1.890
      -2.067
      -2.170
      -2.159
      -1.990
      -1.668
      -1.272
      -0.913
      -0.655
      -0.458
      -0.218
       0.149
       0.627
       1.102
       1.428
       1.526
       1.434
       1.272
       1.151
       1.099
       1.068
       0.994
       0.851
       0.667
       0.490
       0.356
       0.274
       0.228
       0.190
       0.116
      -0.038
      -0.293
      -0.625
      -0.969
      -1.264
      -1.487
      -1.659
      -1.795
      -1.870
      -1.824
      -1.604
      -1.201
      -0.670
      -0.106
       0.394
       0.769
       1.010
       1.146
       1.222
       1.281
       1.337
       1.382
       1.400
       1.395
       1.393
       1.420
       1.480
       1.548
       1.585
       1.548
       1.403
       1.141
       0.786
       0.382
      -0.046
      -0.504
      -0.997
      -1.491
      -1.909
      -2.167
      -2.222
      -2.095
      -1.858
      -1.602
      -1.385
      -1.205
      -1.034
      -0.861
      -0.721
      -0.661
      -0.693
      -0.778
      -0.846
      -0.824
      -0.664
      -0.357
       0.053
       0.492
       0.884
       1.180
       1.368
       1.460
       1.489
       1.492
       1.497
       1.503
       1.494
       1.456
       1.387
       1.286
       1.136
       0.918
       0.640
       0.351
       0.115
      -0.032
      -0.105
      -0.162
      -0.259
      -0.421
      -0.637
      -0.875
      -1.112
      -1.328
      -1.502
      -1.603
      -1.597
      -1.462
      -1.209
      -0.890
      -0.580
      -0.322
      -0.096
       0.162
       0.492
       0.856
       1.162
       1.340
       1.387
       1.356
       1.302
       1.244
       1.175
       1.090
       0.993
       0.887
       0.758
       0.594
       0.403
       0.225
       0.098
       0.022
      -0.054
      -0.182
      -0.362
      -0.540
      -0.650
      -0.675
      -0.665
      -0.687
      -0.770
      -0.862
      -0.861
      -0.700
      -0.418
      -0.142
      -0.008
      -0.067
      -0.278
      -0.557
      -0.820
      -1.012
      -1.098
      -1.072
      -0.948
      -0.754
      -0.529
      -0.324
      -0.201
      -0.193
      -0.274
      -0.361
      -0.377
      -0.303
      -0.159
       0.039
       0.287
       0.546
       0.736
       0.790
       0.726
       0.642
       0.641
       0.766
       0.990
       1.233
       1.387
       1.356
       1.116
       0.752
       0.399
       0.148
      -0.013
      -0.147
      -0.286
      -0.401
      -0.449
      -0.414
      -0.325
      -0.222
      -0.147
      -0.138
      -0.220
      -0.386
      -0.603
      -0.826
      -1.016
      -1.133
      -1.136
      -1.004
      -0.770
      -0.507
      -0.282
      -0.109
       0.033
       0.164
       0.284
       0.408
       0.584
       0.857
       1.200
       1.500
       1.618
       1.491
       1.164
       0.754
       0.382
       0.125
       0.014
       0.048
       0.191
       0.378
       0.518
       0.535
       0.410
       0.200
       0.006
      -0.094
      -0.104
      -0.120
      -0.263
      -0.586
      -1.016
      -1.398
      -1.596
      -1.576
      -1.400
      -1.151
      -0.875
      -0.567
      -0.225
       0.112
       0.370
       0.482
       0.434
       0.271
       0.068
      -0.119
      -0.282
      -0.445
      -0.624
      -0.787
      -0.867
      -0.813
      -0.629
      -0.361
      -0.050
       0.292
       0.667
       1.051
       1.372
       1.538
       1.489
       1.245
       0.910
       0.613
       0.434
       0.364
       0.331
       0.260
       0.129
      -0.033
      -0.177
      -0.281
      -0.359
      -0.436
      -0.507
      -0.516
      -0.400
      -0.137
       0.221
       0.571
       0.803
       0.852
       0.718
       0.458
       0.146
      -0.165
      -0.453
      -0.706
      -0.905
      -1.031
      -1.082
