Origin Time       22/02/2010 17:23:43
Lat.              30.0 N	
Long.             80.1 E	
Depth (Km)          2.0
Magnitude         4.7
 Region           BAGESHWER-UTTARAKHAND                                            
 Above details taken from IMD 
   
Station Code      KAP
Station Lat.       29.941
Station Long.      79.899
Station Height(m) 1066.0
Site Class        A   Vs30 between 700 m/sec to 1400 m/sec * 
Record Time       22.02.2010 17:23:33.279
Sampling Rate     200. Hz
 Record Duration   71.370 Sec.
 Direction         Vert. (Up positive)
Max. Acceleration     37.345 cm/sec**2
     
  * For reference see Site Classification link of website 
     
 Base Line Corrected and Low Pass Filtered (Cut Off at 35 Hz) Time History
 Acceleration data in cm/sec**2
    
[...]
      -0.009
      -0.003
       0.002
       0.004
       0.002
      -0.001
      -0.005
      -0.008
      -0.008
      -0.007
      -0.005
      -0.003
      -0.001
      -0.001
      -0.002
      -0.004
      -0.006
      -0.009
      -0.012
      -0.014
      -0.012
      -0.007
      -0.002
       0.000
      -0.002
      -0.004
      -0.005
      -0.003
      -0.001
      -0.001
      -0.002
      -0.004
      -0.006
      -0.006
      -0.006
      -0.005
      -0.004
      -0.004
      -0.003
      -0.002
       0.000
       0.002
       0.002
       0.000
      -0.005
      -0.010
      -0.014
      -0.016
      -0.015
      -0.012
      -0.007
      -0.004
      -0.004
      -0.009
      -0.015
      -0.018
      -0.018
      -0.014
      -0.008
      -0.002
       0.001
      -0.001
      -0.005
      -0.008
      -0.009
      -0.008
      -0.007
      -0.010
      -0.015
      -0.017
      -0.015
      -0.011
      -0.006
      -0.003
      -0.003
      -0.003
      -0.003
      -0.002
      -0.002
      -0.004
      -0.006
      -0.007
      -0.006
      -0.004
      -0.004
      -0.007
      -0.012
      -0.016
      -0.017
      -0.014
      -0.010
      -0.007
      -0.003
      -0.001
      -0.001
      -0.003
      -0.006
      -0.007
      -0.006
      -0.006
      -0.008
      -0.011
      -0.014
      -0.014
      -0.012
      -0.008
      -0.003
      -0.001
      -0.001
      -0.004
      -0.006
      -0.005
       0.000
       0.008
       0.014
       0.014
       0.009
       0.001
      -0.006
      -0.009
      -0.008
      -0.005
      -0.004
      -0.005
      -0.007
      -0.008
      -0.007
      -0.005
      -0.003
      -0.002
      -0.001
       0.000
       0.001
       0.000
      -0.002
      -0.004
      -0.004
      -0.004
      -0.002
       0.000
       0.001
       0.003
       0.003
       0.002
       0.001
       0.001
       0.001
       0.001
      -0.001
      -0.005
      -0.008
      -0.008
      -0.006
      -0.004
      -0.006
      -0.010
      -0.014
      -0.015
      -0.012
      -0.007
      -0.001
       0.003
       0.005
       0.005
       0.000
      -0.005
      -0.007
      -0.005
      -0.001
       0.002
      -0.001
      -0.008
      -0.015
      -0.018
      -0.015
      -0.010
      -0.003
       0.000
      -0.003
      -0.009
      -0.014
      -0.014
      -0.009
      -0.004
      -0.003
      -0.007
      -0.013
      -0.014
      -0.009
      -0.001
       0.004
       0.003
      -0.004
      -0.009
      -0.009
      -0.004
       0.001
       0.003
       0.001
      -0.004
      -0.009
      -0.011
      -0.010
      -0.007
      -0.007
      -0.009
      -0.012
      -0.016
      -0.016
      -0.015
      -0.013
      -0.011
      -0.010
      -0.009
      -0.007
      -0.006
      -0.007
      -0.009
      -0.013
      -0.014
      -0.014
      -0.012
      -0.010
      -0.010
      -0.010
      -0.011
      -0.012
      -0.012
      -0.012
      -0.011
      -0.011
      -0.011
      -0.011
      -0.010
      -0.007
      -0.003
       0.001
       0.002
      -0.002
      -0.007
      -0.012
      -0.012
      -0.008
      -0.005
      -0.004
      -0.006
      -0.007
      -0.004
      -0.001
      -0.001
      -0.008
      -0.016
      -0.019
      -0.016
      -0.009
      -0.004
      -0.003
      -0.005
      -0.006
      -0.006
      -0.004
      -0.003
      -0.006
      -0.011
      -0.015
      -0.015
      -0.010
      -0.005
      -0.003
      -0.005
      -0.008
      -0.008
      -0.008
      -0.008
      -0.010
      -0.013
      -0.012
      -0.008
      -0.004
      -0.001
      -0.001
      -0.002
      -0.003
      -0.003
      -0.004
      -0.006
      -0.007
      -0.007
      -0.003
       0.001
       0.004
       0.003
       0.000
      -0.003
      -0.004
      -0.006
      -0.009
      -0.014
      -0.017
      -0.018
      -0.017
      -0.015
      -0.014
      -0.012
      -0.009
      -0.005
      -0.001
       0.000
      -0.003
      -0.006
      -0.005
      -0.001
       0.003
       0.004
       0.001
      -0.003
      -0.006
      -0.007
      -0.006
      -0.006
      -0.010
      -0.015
      -0.017
      -0.014
      -0.008
      -0.003
      -0.003
      -0.006
      -0.008
      -0.005
      -0.001
       0.001
      -0.001
      -0.004
      -0.007
      -0.009
      -0.011
      -0.015
      -0.018
      -0.017
      -0.013
      -0.008
      -0.005
      -0.005
      -0.005
      -0.001
       0.003
       0.005
       0.002
      -0.005
      -0.009
      -0.008
       0.000
       0.008
       0.011
       0.006
      -0.003
      -0.011
      -0.012
      -0.005
       0.003
       0.005
      -0.002
      -0.012
      -0.018
      -0.016
      -0.008
       0.000
       0.003
       0.000
      -0.006
      -0.011
      -0.012
      -0.012
      -0.011
      -0.009
      -0.007
      -0.005
      -0.006
      -0.008
      -0.010
      -0.011
      -0.011
      -0.010
      -0.009
      -0.008
      -0.007
      -0.005
      -0.002
       0.000
       0.000
       0.000
      -0.001
      -0.001
       0.002
       0.006
       0.006
       0.000
      -0.009
      -0.017
      -0.021
      -0.021
      -0.017
      -0.012
      -0.010
      -0.010
      -0.011
      -0.011
      -0.011
      -0.010
      -0.006
      -0.003
       0.000
       0.001
       0.000
      -0.002
      -0.003
      -0.005
      -0.006
      -0.004
      -0.002
       0.000
      -0.003
      -0.008
      -0.013
      -0.015
      -0.013
      -0.010
      -0.007
      -0.005
      -0.003
      -0.002
      -0.003
      -0.004
      -0.005
      -0.004
      -0.003
      -0.002
      -0.002
      -0.002
      -0.003
      -0.005
      -0.008
      -0.008
      -0.005
      -0.002
      -0.001
      -0.005
      -0.010
      -0.013
      -0.012
      -0.007
      -0.001
       0.004
       0.005
       0.003
      -0.002
      -0.006
      -0.008
      -0.008
      -0.007
      -0.006
      -0.006
      -0.006
      -0.006
      -0.004
      -0.002
       0.001
       0.003
       0.003
       0.000
      -0.004
      -0.010
      -0.013
      -0.011
      -0.007
      -0.003
      -0.004
      -0.007
      -0.009
      -0.009
      -0.006
      -0.003
      -0.003
      -0.005
      -0.009
      -0.011
      -0.008
      -0.003
      -0.001
      -0.006
      -0.012
      -0.016
      -0.014
      -0.009
      -0.006
      -0.006
      -0.007
      -0.005
       0.000
       0.005
       0.004
      -0.002
      -0.009
      -0.014
      -0.012
      -0.007
      -0.001
       0.001
      -0.001
      -0.003
      -0.003
      -0.002
       0.000
       0.000
      -0.001
      -0.001
      -0.001
      -0.001
      -0.002
      -0.004
      -0.004
      -0.003
       0.000
       0.000
      -0.001
      -0.003
      -0.002
       0.001
       0.003
       0.002
      -0.003
      -0.007
      -0.008
      -0.005
      -0.002
       0.000
       0.000
       0.001
       0.003
       0.004
       0.003
       0.000
      -0.003
      -0.002
       0.003
       0.007
       0.006
       0.001
      -0.004
      -0.004
       0.000
       0.004
       0.001
      -0.004
      -0.007
      -0.004
       0.001
       0.005
       0.004
       0.000
      -0.003
      -0.005
      -0.004
      -0.004
      -0.002
       0.000
       0.005
       0.008
       0.008
       0.005
       0.002
       0.001
       0.002
       0.003
       0.000
      -0.004
      -0.005
      -0.002
       0.001
       0.000
      -0.003
      -0.005
      -0.004
      -0.002
      -0.002
      -0.005
      -0.008
      -0.009
      -0.005
       0.000
       0.003
       0.005
       0.007
       0.007
       0.006
       0.004
       0.002
       0.002
       0.003
       0.001
      -0.003
      -0.006
      -0.005
       0.000
       0.006
       0.012
       0.014
       0.013
       0.009
       0.006
       0.004
       0.004
       0.006
       0.008
       0.008
       0.007
       0.005
       0.003
       0.003
       0.004
       0.006
       0.008
       0.007
       0.003
      -0.001
      -0.002
       0.000
       0.004
       0.004
       0.001
      -0.004
      -0.007
      -0.007
      -0.005
      -0.003
      -0.002
      -0.002
      -0.004
      -0.008
      -0.011
      -0.013
      -0.011
      -0.009
      -0.006
      -0.004
      -0.004
      -0.005
      -0.003
       0.000
       0.004
       0.006
       0.006
       0.003
      -0.001
      -0.003
      -0.002
       0.001
       0.004
       0.003
       0.000
      -0.004
      -0.005
      -0.003
       0.003
       0.007
       0.009
       0.008
       0.006
       0.004
       0.003
       0.004
       0.004
       0.003
       0.003
       0.003
       0.004
       0.005
       0.004
       0.002
      -0.002
      -0.005
      -0.006
      -0.004
      -0.003
      -0.003
      -0.005
      -0.006
      -0.005
      -0.002
       0.000
      -0.001
      -0.006
      -0.010
      -0.011
      -0.009
      -0.007
      -0.007
      -0.008
      -0.009
      -0.008
      -0.006
      -0.003
       0.000
      -0.001
      -0.004
      -0.007
      -0.008
      -0.007
      -0.006
      -0.006
      -0.007
      -0.006
      -0.002
       0.001
       0.001
      -0.003
      -0.010
      -0.016
      -0.017
      -0.013
      -0.006
       0.001
       0.005
       0.007
       0.008
       0.009
       0.012
       0.015
       0.017
       0.017
       0.015
       0.011
       0.009
       0.007
       0.004
      -0.001
      -0.006
      -0.006
      -0.001
       0.004
       0.006
       0.005
       0.002
       0.002
       0.002
       0.003
       0.001
       0.000
       0.000
       0.003
       0.007
       0.011
       0.011
       0.009
       0.004
      -0.001
      -0.005
      -0.006
      -0.005
      -0.004
      -0.004
      -0.003
      -0.002
      -0.002
      -0.002
      -0.004
      -0.004
      -0.003
      -0.002
      -0.003
      -0.005
      -0.007
      -0.006
      -0.001
       0.005
       0.008
       0.005
       0.001
      -0.002
      -0.002
       0.000
       0.001
       0.000
      -0.001
       0.000
       0.002
       0.005
       0.009
       0.012
       0.012
       0.008
       0.003
       0.000
       0.001
       0.004
       0.007
       0.008
       0.005
       0.000
      -0.003
      -0.003
      -0.001
       0.000
      -0.001
      -0.002
      -0.003
      -0.003
      -0.003
      -0.004
      -0.004
      -0.005
      -0.007
      -0.008
      -0.007
      -0.005
      -0.004
      -0.004
      -0.004
      -0.006
      -0.007
      -0.008
      -0.006
      -0.003
       0.003
       0.007
       0.007
       0.003
      -0.004
      -0.010
      -0.012
      -0.011
      -0.009
      -0.008
      -0.007
      -0.007
      -0.006
      -0.005
      -0.008
      -0.012
      -0.016
      -0.014
      -0.008
      -0.002
       0.000
      -0.002
      -0.007
      -0.009
      -0.009
      -0.006
      -0.003
      -0.001
      -0.002
      -0.004
      -0.006
      -0.006
      -0.002
       0.001
       0.000
      -0.003
      -0.007
      -0.008
      -0.007
      -0.006
      -0.005
      -0.003
      -0.002
      -0.001
      -0.001
      -0.002
      -0.002
      -0.003
      -0.005
      -0.009
      -0.012
      -0.012
      -0.007
      -0.003
      -0.003
      -0.008
      -0.014
      -0.014
      -0.007
       0.003
       0.008
       0.006
       0.002
      -0.001
      -0.001
       0.000
      -0.001
      -0.003
      -0.005
      -0.006
      -0.005
      -0.003
      -0.001
      -0.001
      -0.003
      -0.006
      -0.006
      -0.003
       0.003
       0.007
       0.007
       0.004
       0.001
       0.002
       0.006
       0.010
       0.013
       0.013
       0.010
       0.006
       0.000
      -0.006
      -0.008
      -0.001
       0.015
       0.034
       0.055
       0.100
       0.195
       0.340
       0.466
       0.459
       0.259
      -0.042
      -0.225
      -0.099
       0.321
       0.795
       1.071
       1.141
       1.281
       1.774
       2.552
       3.110
       2.849
       1.591
      -0.195
      -1.719
      -2.451
      -2.359
      -1.638
      -0.385
       1.312
       3.005
       3.892
       3.482
       2.343
       1.878
       2.871
       4.138
       3.110
      -1.629
      -8.227
     -12.369
     -10.776
      -4.407
       1.773
       2.815
      -1.636
      -6.637
      -6.286
       0.681
       9.502
      13.722
      11.060
       4.943
       0.403
      -1.001
      -1.838
      -5.008
     -10.270
     -14.609
     -15.162
     -11.255
      -4.146
       4.302
      12.339
      18.047
      19.101
      13.786
       2.810
      -9.955
     -18.925
     -19.841
     -12.908
      -3.779
      -0.137
      -5.003
     -12.842
     -13.582
      -1.882
      16.983
      30.417
      28.338
      11.326
      -9.706
     -22.047
     -20.691
     -10.912
      -2.526
      -1.373
      -4.934
      -5.252
       3.216
      17.532
      27.969
      26.306
      12.703
      -5.084
     -18.147
     -22.089
     -17.973
      -9.225
       1.750
      13.714
      23.922
      27.006
      18.330
      -0.689
     -20.755
     -29.607
     -21.230
      -1.967
      13.099
      12.125
      -3.070
     -17.842
     -16.954
       2.008
      25.970
      37.345
      28.971
       9.207
      -7.066
     -12.104
     -10.439
     -11.641
     -19.357
     -27.849
     -28.340
     -17.626
      -0.534
      15.046
      24.550
      28.257
      27.869
      23.442
      14.050
       0.347
     -14.190
     -24.317
     -25.896
     -19.094
      -8.966
      -1.808
      -0.186
      -1.291
       0.052
       6.474
      15.369
      20.774
      18.326
       8.737
      -3.052
     -11.386
     -12.930
      -8.045
      -0.600
       4.141
       3.101
      -2.171
      -6.692
      -6.234
      -1.063
       4.119
       4.368
      -0.735
      -6.421
      -7.095
      -1.384
       6.938
      12.346
      11.704
       6.145
      -0.179
      -3.611
      -4.039
      -4.380
      -6.911
     -10.443
     -11.216
      -6.387
       3.103
      12.643
      17.169
      14.928
       8.335
       1.190
      -4.652
      -9.776
     -14.767
     -17.773
     -15.182
      -5.489
       7.472
      16.065
      14.728
       4.976
      -5.390
      -8.758
      -4.335
       1.439
       1.498
      -4.595
     -10.113
      -7.845
       2.659
      14.246
      18.513
      13.315
       4.215
      -1.128
       0.237
       4.588
       5.156
      -2.071
     -14.610
     -24.666
     -24.712
     -13.359
       3.047
      14.668
      15.538
       8.175
       0.959
       0.240
       4.660
       7.212
       2.839
      -6.015
     -11.388
      -7.361
       4.256
      15.302
      17.915
      10.495
      -1.628
     -10.894
     -13.302
     -10.202
      -5.283
      -0.742
       3.452
       7.365
       9.162
       6.098
      -2.261
     -12.198
     -17.950
     -15.965
      -7.443
       2.689
       9.209
       9.890
       6.410
       2.546
       1.329
       3.098
       5.558
       6.042
       4.308
       2.812
       3.779
       6.314
       6.770
       2.082
      -6.902
     -15.101
     -16.723
      -9.958
       1.269
       9.871
      10.328
       2.367
      -8.679
     -15.338
     -13.296
      -4.565
       4.278
       7.698
       5.861
       3.843
       5.970
      11.098
      13.723
       9.653
       0.404
      -7.964
     -10.300
      -6.700
      -1.499
       1.608
       2.835
       4.641
       7.552
       8.473
       3.674
      -6.436
     -15.969
     -17.816
      -9.913
       2.526
      11.022
      10.520
       3.011
      -4.670
      -6.728
      -2.885
       2.076
       2.845
      -1.761
      -7.620
      -8.662
      -2.294
       7.776
      14.301
      12.585
       4.337
      -4.079
      -7.120
      -4.250
       0.571
       2.982
       1.723
      -1.293
      -3.454
      -3.682
      -2.670
      -1.383
       0.420
       3.696
       7.830
       9.662
       6.117
      -1.872
      -8.962
      -9.830
      -4.391
       1.483
       1.000
      -6.967
     -15.947
     -16.979
      -6.480
      10.212
      22.791
      23.827
      13.925
       0.412
      -8.673
     -10.120
      -6.405
      -2.095
       0.188
       0.705
       0.750
       0.942
       1.279
       1.893
       2.883
       3.388
       1.630
      -3.241
      -9.228
     -12.121
      -8.687
       0.491
      11.032
      17.380
      16.082
       7.826
      -2.889
     -10.362
     -11.008
      -5.459
       1.718
       4.831
       1.109
      -6.932
     -13.238
     -13.092
      -6.953
       0.274
       3.964
       3.876
       3.387
       4.873
       6.793
       5.911
       1.754
      -2.248
      -2.417
       0.920
       3.608
       2.338
      -1.389
      -2.685
       1.224
       7.245
       8.648
       1.594
     -10.146
     -17.259
     -12.554
       2.536
      18.429
      24.460
      16.699
       0.401
     -14.575
     -21.154
     -18.927
     -12.175
      -5.305
      -0.069
       4.084
       8.065
      11.564
      12.917
      10.305
       3.445
      -5.391
     -12.019
     -12.767
      -7.168
       1.463
       8.397
      10.905
       9.689
       7.172
       4.623
       1.212
      -4.094
     -10.033
     -12.958
      -9.785
      -1.319
       7.551
      11.542
       9.308
       4.123
       0.314
      -0.661
      -0.432
      -0.650
      -0.799
       0.499
       2.702
       3.019
      -0.497
      -5.784
      -7.679
      -3.072
       4.787
       8.193
       2.328
      -9.143
     -16.456
     -12.352
       1.199
      14.584
      18.805
      12.739
       3.198
      -1.615
       0.822
       5.663
       5.400
      -3.248
     -16.050
     -24.208
     -21.092
      -7.323
       9.675
      20.933
      21.668
      13.386
       1.700
      -7.564
     -10.953
      -7.890
      -0.240
       8.309
      13.577
      13.063
       7.588
       0.757
      -3.690
      -4.690
      -4.414
      -5.872
      -9.763
     -13.572
     -13.598
      -7.849
       2.440
      13.201
      19.152
      16.098
       3.577
     -13.413
     -25.792
     -25.443
     -10.887
      10.904
      28.401
      32.690
      22.974
       6.534
      -6.786
     -11.382
      -9.019
      -6.358
      -9.055
     -16.896
     -23.674
     -22.100
     -10.147
       6.437
      18.024
      18.583
      10.318
       1.200
      -2.218
       0.265
       4.147
       5.625
       4.521
       2.498
       0.148
      -3.083
      -6.703
      -8.360
      -6.111
      -1.268
       1.807
      -0.605
      -7.938
     -15.382
     -17.592
     -12.716
      -3.525
       4.924
       8.869
       7.819
       3.910
      -0.061
      -2.089
      -1.460
       1.203
       4.191
       5.692
       5.314
       4.686
       5.817
       8.387
       9.189
       5.217
      -2.549
      -9.113
      -9.718
      -4.140
       3.289
       7.685
