Origin Time       21/9/2009 9:43:47	 
Lat.              30.9 N	
Long.             79.1 E	
Depth (Km)         13.0
Magnitude         4.7
 Region           UTTARKASHI-UTTARAKHAND                                           
 Above details taken from IMD 
   
Station Code      KAP
Station Lat.       29.941
Station Long.      79.899
Station Height(m) 1066.0
Site Class        A   Vs30 between 700 m/sec to 1400 m/sec * 
Record Time       21.09.2009 09:44:15.714
Sampling Rate     200. Hz
 Record Duration   65.835 Sec.
 Direction         Vert. (Up positive)
Max. Acceleration     -3.277 cm/sec**2
     
  * For reference see Site Classification link of website 
     
 Base Line Corrected and Low Pass Filtered (Cut Off at 35 Hz) Time History
 Acceleration data in cm/sec**2
    
[...]
      -0.144
      -0.233
      -0.122
       0.071
       0.185
       0.162
       0.084
       0.083
       0.203
       0.353
       0.388
       0.239
      -0.028
      -0.261
      -0.342
      -0.258
      -0.092
       0.045
       0.085
       0.022
      -0.100
      -0.222
      -0.287
      -0.265
      -0.178
      -0.090
      -0.061
      -0.088
      -0.096
       0.000
       0.212
       0.461
       0.627
       0.632
       0.477
       0.225
      -0.040
      -0.251
      -0.378
      -0.431
      -0.434
      -0.401
      -0.330
      -0.217
      -0.076
       0.066
       0.186
       0.275
       0.328
       0.327
       0.255
       0.123
      -0.019
      -0.119
      -0.171
      -0.201
      -0.230
      -0.239
      -0.193
      -0.073
       0.106
       0.314
       0.507
       0.637
       0.656
       0.554
       0.360
       0.120
      -0.146
      -0.447
      -0.778
      -1.075
      -1.228
      -1.144
      -0.819
      -0.342
       0.152
       0.553
       0.797
       0.853
       0.707
       0.387
      -0.019
      -0.367
      -0.540
      -0.512
      -0.346
      -0.123
       0.117
       0.376
       0.625
       0.775
       0.730
       0.490
       0.171
      -0.086
      -0.226
      -0.302
      -0.378
      -0.449
      -0.442
      -0.300
      -0.053
       0.193
       0.325
       0.286
       0.104
      -0.137
      -0.339
      -0.436
      -0.412
      -0.296
      -0.129
       0.052
       0.211
       0.314
       0.332
       0.263
       0.150
       0.064
       0.064
       0.154
       0.280
       0.370
       0.376
       0.293
       0.147
      -0.022
      -0.162
      -0.225
      -0.193
      -0.105
      -0.039
      -0.064
      -0.186
      -0.340
      -0.437
      -0.421
      -0.295
      -0.101
       0.097
       0.229
       0.232
       0.080
      -0.176
      -0.423
      -0.541
      -0.472
      -0.249
       0.046
       0.321
       0.502
       0.540
       0.437
       0.261
       0.132
       0.153
       0.333
       0.570
       0.711
       0.655
       0.405
       0.043
      -0.342
      -0.689
      -0.945
      -1.051
      -0.965
      -0.702
      -0.355
      -0.041
       0.166
       0.268
       0.308
       0.313
       0.289
       0.236
       0.171
       0.109
       0.041
      -0.060
      -0.195
      -0.307
      -0.319
      -0.187
       0.051
       0.299
       0.460
       0.485
       0.386
       0.203
      -0.014
      -0.210
      -0.326
      -0.311
      -0.162
       0.058
       0.242
       0.288
       0.146
      -0.153
      -0.500
      -0.749
      -0.786
      -0.580
      -0.200
       0.219
       0.536
       0.654
       0.549
       0.276
      -0.050
      -0.301
      -0.392
      -0.313
      -0.118
       0.115
       0.310
       0.410
       0.393
       0.288
       0.163
       0.076
       0.036
       0.006
      -0.049
      -0.136
      -0.239
      -0.342
      -0.422
      -0.426
      -0.286
       0.013
       0.378
       0.631
       0.616
       0.305
      -0.178
      -0.626
      -0.867
      -0.824
      -0.522
      -0.046
       0.496
       0.984
       1.289
       1.297
       0.957
       0.329
      -0.415
      -1.053
      -1.409
      -1.418
      -1.124
      -0.632
      -0.071
       0.431
       0.769
       0.882
       0.787
       0.558
       0.291
       0.043
      -0.173
      -0.349
      -0.444
      -0.391
      -0.163
       0.178
       0.495
       0.654
       0.598
       0.354
      -0.002
      -0.379
      -0.674
      -0.801
      -0.732
      -0.536
      -0.335
      -0.217
      -0.157
      -0.049
       0.187
       0.507
       0.756
       0.793
       0.600
       0.287
      -0.009
      -0.213
      -0.339
      -0.428
      -0.498
      -0.520
      -0.444
      -0.231
       0.116
       0.538
       0.928
       1.162
       1.148
       0.866
       0.381
      -0.183
      -0.683
      -1.014
      -1.139
      -1.086
      -0.914
      -0.676
      -0.407
      -0.128
       0.136
       0.363
       0.529
       0.606
       0.558
       0.362
       0.034
      -0.329
      -0.564
      -0.516
      -0.147
       0.411
       0.914
       1.149
       1.061
       0.755
       0.396
       0.080
      -0.200
      -0.491
      -0.786
      -0.987
      -0.968
      -0.683
      -0.221
       0.222
       0.463
       0.439
       0.233
      -0.011
      -0.197
      -0.322
      -0.424
      -0.496
      -0.472
      -0.291
       0.023
       0.355
       0.574
       0.619
       0.515
       0.326
       0.106
      -0.111
      -0.279
      -0.339
      -0.260
      -0.076
       0.121
       0.246
       0.270
       0.228
       0.168
       0.113
       0.067
       0.035
       0.026
       0.020
      -0.042
      -0.210
      -0.471
      -0.733
      -0.895
      -0.914
      -0.805
      -0.584
      -0.243
       0.203
       0.646
       0.914
       0.883
       0.591
       0.222
      -0.039
      -0.129
      -0.124
      -0.133
      -0.194
      -0.251
      -0.217
      -0.055
       0.198
       0.450
       0.606
       0.604
       0.438
       0.165
      -0.111
      -0.278
      -0.273
      -0.128
       0.055
       0.173
       0.182
       0.100
      -0.032
      -0.186
      -0.341
      -0.469
      -0.536
      -0.517
      -0.408
      -0.230
      -0.033
       0.115
       0.158
       0.098
       0.002
      -0.034
       0.048
       0.229
       0.419
       0.526
       0.518
       0.430
       0.324
       0.224
       0.114
      -0.023
      -0.174
      -0.301
      -0.371
      -0.379
      -0.338
      -0.270
      -0.194
      -0.130
      -0.095
      -0.096
      -0.118
      -0.126
      -0.078
       0.038
       0.185
       0.289
       0.292
       0.198
       0.072
      -0.011
      -0.010
       0.063
       0.161
       0.221
       0.190
       0.045
      -0.191
      -0.447
      -0.622
      -0.636
      -0.480
      -0.228
       0.006
       0.142
       0.182
       0.195
       0.241
       0.325
       0.397
       0.389
       0.267
       0.046
      -0.205
      -0.391
      -0.437
      -0.329
      -0.128
       0.075
       0.221
       0.302
       0.347
       0.390
       0.441
       0.475
       0.431
       0.248
      -0.076
      -0.450
      -0.723
      -0.784
      -0.640
      -0.412
      -0.232
      -0.143
      -0.084
       0.027
       0.207
       0.388
       0.473
       0.417
       0.259
       0.078
      -0.059
      -0.131
      -0.151
      -0.145
      -0.127
      -0.099
      -0.053
       0.019
       0.107
       0.186
       0.213
       0.152
       0.000
      -0.196
      -0.353
      -0.397
      -0.303
      -0.121
       0.036
       0.047
      -0.128
      -0.391
      -0.523
      -0.329
       0.207
       0.857
       1.274
       1.224
       0.735
       0.063
      -0.505
      -0.821
      -0.921
      -0.910
      -0.845
      -0.690
      -0.385
       0.063
       0.544
       0.885
       0.937
       0.657
       0.152
      -0.360
      -0.659
      -0.657
      -0.442
      -0.187
      -0.003
       0.136
       0.323
       0.577
       0.781
       0.763
       0.448
      -0.051
      -0.498
      -0.699
      -0.617
      -0.369
      -0.118
       0.031
       0.068
       0.041
       0.004
      -0.022
      -0.054
      -0.112
      -0.188
      -0.235
      -0.205
      -0.084
       0.098
       0.306
       0.519
       0.713
       0.826
       0.772
       0.503
       0.078
      -0.350
      -0.626
      -0.677
      -0.519
      -0.221
       0.133
       0.443
       0.595
       0.525
       0.273
      -0.044
      -0.326
      -0.554
      -0.759
      -0.926
      -0.957
      -0.743
      -0.277
       0.303
       0.774
       0.952
       0.796
       0.414
       0.005
      -0.251
      -0.278
      -0.119
       0.124
       0.368
       0.577
       0.727
       0.783
       0.702
       0.463
       0.090
      -0.341
      -0.720
      -0.943
      -0.949
      -0.760
      -0.473
      -0.206
      -0.022
       0.091
       0.175
       0.240
       0.231
       0.073
      -0.255
      -0.665
      -0.972
      -0.990
      -0.642
      -0.026
       0.619
       1.036
       1.085
       0.812
       0.400
       0.054
      -0.114
      -0.124
      -0.073
      -0.042
      -0.038
      -0.015
       0.054
       0.119
       0.093
      -0.065
      -0.293
      -0.456
      -0.453
      -0.305
      -0.139
      -0.087
      -0.182
      -0.341
      -0.434
      -0.382
      -0.194
       0.055
       0.286
       0.461
       0.581
       0.654
       0.667
       0.580
       0.367
       0.058
      -0.263
      -0.512
      -0.650
      -0.680
      -0.612
      -0.446
      -0.181
       0.157
       0.520
       0.851
       1.084
       1.144
       0.957
       0.502
      -0.137
      -0.771
      -1.169
      -1.179
      -0.819
      -0.281
       0.173
       0.369
       0.318
       0.172
       0.084
       0.077
       0.053
      -0.077
      -0.281
      -0.415
      -0.357
      -0.128
       0.124
       0.243
       0.177
      -0.008
      -0.207
      -0.349
      -0.415
      -0.412
      -0.343
      -0.213
      -0.036
       0.159
       0.343
       0.500
       0.620
       0.698
       0.721
       0.679
       0.566
       0.395
       0.195
       0.006
      -0.150
      -0.286
      -0.445
      -0.664
      -0.927
      -1.149
      -1.209
      -1.035
      -0.671
      -0.265
       0.033
       0.172
       0.219
       0.262
       0.323
       0.347
       0.283
       0.155
       0.038
       0.000
       0.069
       0.241
       0.483
       0.724
       0.851
       0.769
       0.485
       0.127
      -0.137
      -0.237
      -0.244
      -0.286
      -0.418
      -0.574
      -0.639
      -0.567
      -0.420
      -0.299
      -0.261
      -0.285
      -0.306
      -0.254
      -0.070
       0.280
       0.750
       1.179
       1.340
       1.092
       0.506
      -0.148
      -0.567
      -0.605
      -0.328
       0.091
       0.523
       0.939
       1.332
       1.609
       1.599
       1.187
       0.447
      -0.364
      -0.945
      -1.128
      -0.941
      -0.555
      -0.165
       0.097
       0.192
       0.145
      -0.002
      -0.212
      -0.450
      -0.655
      -0.757
      -0.707
      -0.508
      -0.207
       0.143
       0.504
       0.843
       1.102
       1.195
       1.066
       0.742
       0.325
      -0.076
      -0.406
      -0.649
      -0.764
      -0.675
      -0.339
       0.159
       0.610
       0.796
       0.634
       0.226
      -0.227
      -0.580
      -0.810
      -0.975
      -1.101
      -1.136
      -1.013
      -0.748
      -0.470
      -0.337
      -0.418
      -0.641
      -0.849
      -0.912
      -0.806
      -0.587
      -0.316
      -0.003
       0.384
       0.856
       1.354
       1.745
       1.867
       1.613
       0.998
       0.175
      -0.627
      -1.197
      -1.418
      -1.299
      -0.955
      -0.551
      -0.238
      -0.083
      -0.073
      -0.166
      -0.367
      -0.734
      -1.289
      -1.918
      -2.363
      -2.362
      -1.829
      -0.931
       0.010
       0.715
       1.091
       1.218
       1.223
       1.171
       1.062
       0.912
       0.806
       0.862
       1.142
       1.594
       2.071
       2.415
       2.514
       2.327
       1.858
       1.160
       0.336
      -0.469
      -1.117
      -1.541
      -1.765
      -1.860
      -1.869
      -1.779
      -1.561
      -1.222
      -0.814
      -0.386
       0.052
       0.517
       0.992
       1.382
       1.565
       1.485
       1.227
       0.974
       0.876
       0.946
       1.050
       1.020
       0.771
       0.349
      -0.131
      -0.570
      -0.946
      -1.281
      -1.586
      -1.822
      -1.934
      -1.912
      -1.837
      -1.826
      -1.930
      -2.060
      -2.053
      -1.793
      -1.304
      -0.710
      -0.155
       0.270
       0.541
       0.685
       0.759
       0.838
       0.994
       1.266
       1.645
       2.075
       2.464
       2.693
       2.650
       2.283
       1.650
       0.904
       0.235
      -0.218
      -0.412
      -0.385
      -0.222
      -0.021
       0.131
       0.178
       0.109
      -0.044
      -0.242
      -0.457
      -0.680
      -0.901
      -1.104
      -1.276
      -1.402
      -1.463
      -1.427
      -1.287
      -1.093
      -0.930
      -0.840
      -0.761
      -0.578
      -0.245
       0.136
       0.371
       0.318
      -0.015
      -0.491
      -0.943
      -1.245
      -1.322
      -1.149
      -0.751
      -0.214
       0.346
       0.843
       1.258
       1.611
       1.897
       2.067
       2.067
       1.917
       1.726
       1.625
       1.663
       1.754
       1.736
       1.484
       0.992
       0.364
      -0.247
      -0.729
      -1.052
      -1.263
      -1.450
      -1.683
      -1.971
      -2.243
      -2.388
      -2.323
      -2.051
      -1.654
      -1.221
      -0.786
      -0.327
       0.156
       0.593
       0.862
       0.893
       0.738
       0.569
       0.582
       0.882
       1.420
       2.019
       2.466
       2.625
       2.489
       2.142
       1.659
       1.045
       0.249
      -0.733
      -1.787
      -2.689
      -3.219
      -3.277
      -2.911
      -2.249
      -1.413
      -0.487
       0.447
       1.263
       1.819
       2.007
       1.816
       1.351
       0.815
       0.437
       0.382
       0.664
       1.133
       1.544
       1.693
       1.508
       1.063
       0.492
      -0.096
      -0.662
      -1.207
      -1.714
      -2.112
      -2.302
      -2.209
      -1.837
      -1.292
      -0.762
      -0.469
      -0.554
      -0.969
      -1.470
      -1.732
      -1.551
      -0.966
      -0.223
       0.403
       0.779
       0.950
       1.050
       1.173
       1.302
       1.354
       1.270
       1.092
       0.959
       1.016
       1.310
       1.716
       1.987
       1.885
       1.322
       0.416
      -0.573
      -1.379
      -1.843
      -1.949
      -1.771
      -1.404
      -0.941
      -0.478
      -0.107
       0.123
       0.248
       0.368
       0.553
       0.767
       0.879
       0.789
       0.551
       0.348
       0.317
       0.402
       0.401
       0.172
      -0.186
      -0.389
      -0.209
       0.312
       0.888
       1.217
       1.185
       0.883
       0.468
       0.033
      -0.403
      -0.820
      -1.164
      -1.387
      -1.510
      -1.606
      -1.735
      -1.865
      -1.898
      -1.736
      -1.341
      -0.732
       0.035
       0.877
       1.679
       2.300
       2.624
       2.615
       2.327
       1.882
       1.423
       1.071
       0.866
       0.734
       0.531
       0.145
      -0.407
      -0.985
      -1.441
      -1.748
      -2.002
      -2.298
      -2.609
      -2.773
      -2.627
      -2.153
      -1.508
      -0.915
      -0.497
      -0.204
       0.122
       0.588
       1.134
       1.574
       1.743
       1.639
       1.422
       1.281
       1.283
       1.333
       1.260
       0.940
       0.379
      -0.292
      -0.882
      -1.218
      -1.225
      -0.967
      -0.621
      -0.378
      -0.330
      -0.424
      -0.519
      -0.512
      -0.420
      -0.358
      -0.409
      -0.510
      -0.462
      -0.068
       0.697
       1.634
       2.425
       2.810
       2.703
       2.177
       1.378
       0.464
      -0.433
      -1.205
      -1.773
      -2.085
      -2.119
      -1.890
      -1.479
      -1.019
      -0.648
      -0.446
      -0.405
      -0.456
      -0.504
      -0.467
      -0.300
      -0.021
       0.284
       0.511
       0.611
       0.628
       0.654
       0.754
       0.922
       1.119
       1.321
       1.526
       1.701
       1.751
       1.554
       1.049
       0.292
      -0.549
      -1.271
      -1.714
      -1.817
      -1.641
      -1.331
      -1.031
      -0.795
      -0.569
      -0.284
       0.032
       0.226
       0.142
      -0.238
      -0.737
      -1.093
      -1.126
      -0.830
      -0.332
       0.211
       0.678
       1.006
       1.171
       1.174
       1.043
       0.807
       0.472
       0.022
      -0.527
      -1.062
      -1.389
      -1.351
      -0.971
      -0.457
      -0.060
       0.113
       0.168
       0.297
       0.587
       0.929
       1.093
       0.920
       0.453
      -0.083
      -0.426
      -0.432
      -0.128
       0.338
       0.798
       1.142
       1.334
       1.379
       1.270
       0.987
       0.547
       0.050
      -0.363
      -0.608
      -0.719
      -0.810
      -0.955
      -1.109
      -1.146
      -0.983
      -0.665
      -0.330
      -0.088
       0.054
       0.161
       0.273
       0.355
       0.353
       0.276
       0.199
       0.190
       0.234
       0.262
       0.252
       0.267
       0.396
       0.614
       0.753
       0.613
       0.145
      -0.481
      -0.975
      -1.136
      -0.976
      -0.687
      -0.475
      -0.413
      -0.425
      -0.386
      -0.250
      -0.087
      -0.006
      -0.055
      -0.171
      -0.220
      -0.104
       0.175
       0.513
       0.775
       0.866
       0.771
       0.537
       0.241
      -0.042
      -0.258
      -0.404
      -0.536
      -0.717
      -0.940
      -1.101
      -1.085
      -0.882
      -0.621
      -0.452
      -0.404
      -0.336
      -0.070
       0.434
       0.994
       1.328
       1.268
       0.908
       0.546
       0.453
       0.661
       0.947
       1.021
       0.763
       0.289
      -0.177
      -0.493
      -0.664
      -0.766
      -0.840
      -0.866
      -0.818
      -0.695
      -0.517
      -0.286
       0.014
       0.383
       0.763
       1.032
       1.063
       0.820
       0.411
       0.027
      -0.185
      -0.218
      -0.166
      -0.100
       0.011
       0.254
       0.630
       0.978
       1.071
       0.795
       0.263
      -0.253
      -0.511
      -0.444
      -0.159
       0.166
       0.408
       0.519
       0.494
       0.306
      -0.070
      -0.592
      -1.108
      -1.414
      -1.378
      -1.029
      -0.513
       0.016
       0.488
       0.894
       1.198
       1.291
       1.066
       0.539
      -0.106
      -0.613
      -0.824
      -0.779
      -0.653
      -0.609
      -0.683
      -0.799
      -0.888
      -0.971
      -1.133
      -1.408
      -1.690
      -1.776
      -1.516
      -0.926
      -0.172
       0.551
       1.123
       1.530
       1.802
       1.957
       1.979
       1.843
       1.561
       1.202
       0.879
       0.681
       0.613
       0.582
       0.472
       0.224
      -0.122
      -0.479
      -0.781
      -1.018
      -1.211
      -1.374
      -1.503
      -1.587
      -1.615
      -1.559
      -1.364
      -0.967
      -0.364
       0.342
       0.971
       1.351
       1.417
       1.231
       0.923
       0.600
       0.304
       0.039
      -0.156
      -0.200
      -0.024
       0.334
       0.711
       0.914
       0.848
       0.568
