Origin Time       29/08/2013 10:13:21 UTC
Lat.              31.4 N	
Long.             76.1 E	
Depth (Km)         10.0
Magnitude         4.7
 Region           HIMACHAL-PUNJAB-(HOSHIARPUR)-BORDER                              
 Above details taken from IMD 
    
Station Code      KAP
Station Lat.       31.380  N
Station Long.      75.383  E
Station Height(m)  223.0
Site Class        C   Vs30 between 200 m/sec to 375 m/sec *  
Record Time       29.08.2013 10:13:17.949 UTC
Sampling Rate     200. Hz
 Record Duration   81.360 Sec.
 Direction         N-S (N positive)
Max. Acceleration      7.935 cm/sec**2
     
  * For reference see Site Classification link of website 
     
 Base Line Corrected and Low Pass Filtered (Cut Off at 35 Hz) Time History
 Acceleration data in cm/sec**2
    
[...]
      -0.017
      -0.024
      -0.032
      -0.028
       0.001
       0.050
       0.111
       0.182
       0.252
       0.288
       0.260
       0.161
       0.016
      -0.145
      -0.290
      -0.375
      -0.353
      -0.213
       0.000
       0.204
       0.337
       0.375
       0.322
       0.199
       0.039
      -0.112
      -0.221
      -0.277
      -0.281
      -0.230
      -0.122
       0.023
       0.151
       0.211
       0.183
       0.086
      -0.046
      -0.171
      -0.253
      -0.267
      -0.221
      -0.147
      -0.084
      -0.049
      -0.040
      -0.039
      -0.024
       0.023
       0.101
       0.193
       0.278
       0.348
       0.402
       0.430
       0.411
       0.327
       0.182
       0.003
      -0.171
      -0.296
      -0.338
      -0.291
      -0.186
      -0.075
      -0.002
       0.013
      -0.020
      -0.077
      -0.130
      -0.163
      -0.165
      -0.138
      -0.091
      -0.041
       0.001
       0.039
       0.090
       0.156
       0.219
       0.259
       0.267
       0.255
       0.235
       0.214
       0.190
       0.149
       0.077
      -0.023
      -0.128
      -0.213
      -0.269
      -0.300
      -0.305
      -0.285
      -0.252
      -0.233
      -0.237
      -0.242
      -0.219
      -0.155
      -0.068
       0.009
       0.050
       0.054
       0.047
       0.071
       0.141
       0.223
       0.261
       0.224
       0.134
       0.041
      -0.014
      -0.018
       0.014
       0.054
       0.076
       0.072
       0.046
       0.014
      -0.002
       0.015
       0.060
       0.102
       0.115
       0.103
       0.098
       0.117
       0.142
       0.140
       0.092
       0.005
      -0.105
      -0.210
      -0.278
      -0.283
      -0.220
      -0.116
      -0.014
       0.041
       0.025
      -0.056
      -0.171
      -0.282
      -0.359
      -0.373
      -0.308
      -0.168
       0.016
       0.203
       0.367
       0.488
       0.547
       0.532
       0.452
       0.330
       0.199
       0.083
       0.003
      -0.041
      -0.073
      -0.120
      -0.183
      -0.238
      -0.260
      -0.239
      -0.178
      -0.088
      -0.002
       0.037
       0.007
      -0.073
      -0.162
      -0.228
      -0.244
      -0.189
      -0.059
       0.120
       0.297
       0.427
       0.486
       0.466
       0.373
       0.237
       0.090
      -0.042
      -0.150
      -0.221
      -0.238
      -0.203
      -0.144
      -0.096
      -0.082
      -0.092
      -0.105
      -0.110
      -0.108
      -0.104
      -0.097
      -0.073
      -0.024
       0.044
       0.110
       0.158
       0.177
       0.172
       0.167
       0.190
       0.232
       0.242
       0.179
       0.054
      -0.077
      -0.173
      -0.234
      -0.267
      -0.264
      -0.217
      -0.139
      -0.054
       0.018
       0.060
       0.064
       0.037
       0.009
      -0.001
       0.005
       0.008
       0.004
       0.004
       0.006
      -0.003
      -0.033
      -0.073
      -0.105
      -0.117
      -0.102
      -0.053
       0.030
       0.126
       0.195
       0.210
       0.164
       0.076
      -0.027
      -0.108
      -0.127
      -0.056
       0.083
       0.219
       0.270
       0.204
       0.054
      -0.116
      -0.243
      -0.285
      -0.231
      -0.101
       0.052
       0.169
       0.213
       0.173
       0.061
      -0.097
      -0.260
      -0.385
      -0.434
      -0.381
      -0.217
       0.030
       0.291
       0.479
       0.546
       0.503
       0.403
       0.296
       0.208
       0.136
       0.073
       0.018
      -0.025
      -0.065
      -0.122
      -0.208
      -0.295
      -0.340
      -0.321
      -0.250
      -0.161
      -0.076
      -0.014
       0.015
       0.010
      -0.016
      -0.049
      -0.070
      -0.059
      -0.003
       0.086
       0.176
       0.239
       0.276
       0.300
       0.311
       0.290
       0.220
       0.101
      -0.055
      -0.222
      -0.368
      -0.466
      -0.496
      -0.453
      -0.345
      -0.194
      -0.037
       0.090
       0.173
       0.221
       0.256
       0.283
       0.290
       0.260
       0.190
       0.101
       0.028
      -0.004
       0.013
       0.067
       0.126
       0.149
       0.102
      -0.015
      -0.161
      -0.281
      -0.340
      -0.340
      -0.297
      -0.236
      -0.176
      -0.124
      -0.073
      -0.016
       0.046
       0.106
       0.166
       0.227
       0.275
       0.295
       0.278
       0.237
       0.181
       0.115
       0.046
      -0.006
      -0.019
       0.013
       0.079
       0.158
       0.224
       0.250
       0.218
       0.126
      -0.015
      -0.175
      -0.317
      -0.404
      -0.425
      -0.399
      -0.356
      -0.308
      -0.253
      -0.188
      -0.123
      -0.073
      -0.050
      -0.054
      -0.060
      -0.031
       0.055
       0.175
       0.277
       0.319
       0.290
       0.213
       0.125
       0.069
       0.073
       0.129
       0.195
       0.226
       0.205
       0.143
       0.053
      -0.056
      -0.176
      -0.291
      -0.377
      -0.410
      -0.378
      -0.285
      -0.153
      -0.012
       0.106
       0.172
       0.167
       0.084
      -0.058
      -0.215
      -0.326
      -0.331
      -0.210
      -0.003
       0.213
       0.368
       0.429
       0.400
       0.311
       0.208
       0.134
       0.106
       0.106
       0.108
       0.094
       0.054
      -0.027
      -0.143
      -0.260
      -0.329
      -0.326
      -0.268
      -0.185
      -0.102
      -0.037
      -0.002
       0.009
       0.018
       0.048
       0.098
       0.154
       0.205
       0.244
       0.277
       0.308
       0.337
       0.348
       0.326
       0.270
       0.202
       0.143
       0.098
       0.061
       0.023
      -0.018
      -0.061
      -0.093
      -0.089
      -0.038
       0.047
       0.136
       0.191
       0.176
       0.061
      -0.152
      -0.408
      -0.624
      -0.741
      -0.760
      -0.719
      -0.655
      -0.578
      -0.477
      -0.336
      -0.158
       0.022
       0.148
       0.181
       0.129
       0.051
       0.010
       0.042
       0.135
       0.247
       0.341
       0.399
       0.419
       0.398
       0.324
       0.193
       0.031
      -0.108
      -0.171
      -0.131
      -0.013
       0.122
       0.211
       0.236
       0.226
       0.212
       0.194
       0.156
       0.102
       0.060
       0.061
       0.109
       0.180
       0.234
       0.237
       0.180
       0.087
      -0.003
      -0.071
      -0.122
      -0.158
      -0.173
      -0.164
      -0.153
      -0.167
      -0.214
      -0.277
      -0.326
      -0.333
      -0.271
      -0.139
       0.024
       0.151
       0.172
       0.060
      -0.151
      -0.372
      -0.511
      -0.520
      -0.425
      -0.280
      -0.120
       0.050
       0.218
       0.346
       0.391
       0.344
       0.243
       0.145
       0.088
       0.061
       0.022
      -0.050
      -0.114
      -0.098
       0.031
       0.232
       0.424
       0.541
       0.555
       0.465
       0.297
       0.106
      -0.051
      -0.146
      -0.191
      -0.213
      -0.229
      -0.233
      -0.210
      -0.154
      -0.079
      -0.015
       0.018
       0.031
       0.047
       0.071
       0.073
       0.015
      -0.106
      -0.245
      -0.337
      -0.333
      -0.233
      -0.094
       0.009
       0.035
      -0.003
      -0.051
      -0.060
      -0.011
       0.070
       0.135
       0.155
       0.146
       0.156
       0.210
       0.281
       0.311
       0.268
       0.166
       0.046
      -0.062
      -0.157
      -0.252
      -0.349
      -0.424
      -0.441
      -0.383
      -0.276
      -0.158
      -0.048
       0.064
       0.175
       0.247
       0.237
       0.138
      -0.012
      -0.164
      -0.280
      -0.341
      -0.341
      -0.290
      -0.208
      -0.115
      -0.026
       0.049
       0.113
       0.173
       0.224
       0.248
       0.228
       0.178
       0.136
       0.132
       0.169
       0.225
       0.283
       0.338
       0.389
       0.427
       0.418
       0.323
       0.144
      -0.058
      -0.189
      -0.201
      -0.119
      -0.013
       0.058
       0.073
       0.033
      -0.046
      -0.135
      -0.195
      -0.197
      -0.137
      -0.045
       0.026
       0.032
      -0.032
      -0.123
      -0.182
      -0.185
      -0.151
      -0.117
      -0.102
      -0.099
      -0.088
      -0.052
       0.012
       0.096
       0.176
       0.216
       0.174
       0.032
      -0.175
      -0.357
      -0.424
      -0.353
      -0.202
      -0.070
      -0.028
      -0.083
      -0.183
      -0.250
      -0.220
      -0.080
       0.123
       0.311
       0.418
       0.417
       0.328
       0.210
       0.125
       0.092
       0.079
       0.047
      -0.009
      -0.053
      -0.058
      -0.032
      -0.008
      -0.015
      -0.050
      -0.077
      -0.060
       0.001
       0.070
       0.108
       0.113
       0.106
       0.096
       0.063
      -0.006
      -0.098
      -0.181
      -0.234
      -0.253
      -0.243
      -0.209
      -0.160
      -0.117
      -0.106
      -0.141
      -0.198
      -0.220
      -0.143
       0.046
       0.292
       0.496
       0.575
       0.509
       0.343
       0.150
       0.004
      -0.049
       0.000
       0.127
       0.282
       0.404
       0.443
       0.398
       0.318
       0.261
       0.241
       0.228
       0.188
       0.123
       0.057
       0.011
      -0.016
      -0.037
      -0.071
      -0.135
      -0.235
      -0.364
      -0.490
      -0.577
      -0.597
      -0.550
      -0.468
      -0.386
      -0.319
      -0.252
      -0.168
      -0.072
       0.017
       0.083
       0.135
       0.197
       0.287
       0.378
       0.410
       0.329
       0.141
      -0.084
      -0.264
      -0.365
      -0.411
      -0.445
      -0.487
      -0.525
      -0.529
      -0.473
      -0.365
      -0.244
      -0.155
      -0.107
      -0.077
      -0.031
       0.049
       0.162
       0.285
       0.371
       0.375
       0.301
       0.209
       0.170
       0.204
       0.266
       0.294
       0.255
       0.169
       0.092
       0.073
       0.120
       0.197
       0.259
       0.281
       0.256
       0.183
       0.069
      -0.050
      -0.128
      -0.143
      -0.123
      -0.108
      -0.114
      -0.117
      -0.091
      -0.024
       0.067
       0.146
       0.186
       0.187
       0.167
       0.139
       0.090
       0.003
      -0.119
      -0.247
      -0.347
      -0.396
      -0.397
      -0.374
      -0.363
      -0.377
      -0.396
      -0.377
      -0.292
      -0.149
       0.008
       0.126
       0.166
       0.126
       0.052
       0.011
       0.047
       0.153
       0.274
       0.343
       0.319
       0.213
       0.077
      -0.032
      -0.097
      -0.138
      -0.176
      -0.210
      -0.218
      -0.182
      -0.103
       0.003
       0.116
       0.215
       0.282
       0.299
       0.268
       0.215
       0.178
       0.179
       0.197
       0.193
       0.149
       0.090
       0.060
       0.073
       0.106
       0.119
       0.086
       0.013
      -0.072
      -0.135
      -0.163
      -0.166
      -0.161
      -0.145
      -0.104
      -0.045
       0.001
       0.002
      -0.050
      -0.137
      -0.227
      -0.287
      -0.298
      -0.264
      -0.210
      -0.150
      -0.068
       0.056
       0.208
       0.339
       0.405
       0.395
       0.328
       0.226
       0.107
      -0.021
      -0.148
      -0.264
      -0.352
      -0.395
      -0.391
      -0.358
      -0.323
      -0.304
      -0.314
      -0.347
      -0.383
      -0.383
      -0.324
      -0.213
      -0.079
       0.064
       0.225
       0.411
       0.606
       0.759
       0.806
       0.709
       0.493
       0.246
       0.071
       0.015
       0.045
       0.087
       0.087
       0.044
       0.002
       0.011
       0.083
       0.174
       0.222
       0.198
       0.135
       0.093
       0.099
       0.134
       0.160
       0.158
       0.139
       0.139
       0.190
       0.300
       0.447
       0.591
       0.713
       0.818
       0.914
       0.985
       0.992
       0.894
       0.689
       0.433
       0.234
       0.202
       0.382
       0.727
       1.122
       1.457
       1.676
       1.785
       1.825
       1.829
       1.816
       1.801
       1.815
       1.898
       2.061
       2.267
       2.441
       2.509
       2.433
       2.233
       1.986
       1.781
       1.658
       1.570
       1.417
       1.112
       0.635
       0.020
      -0.685
      -1.435
      -2.189
      -2.896
      -3.505
      -3.987
      -4.351
      -4.630
      -4.849
      -5.011
      -5.132
      -5.271
      -5.521
      -5.933
      -6.469
      -7.014
      -7.448
      -7.700
      -7.762
      -7.659
      -7.419
      -7.058
      -6.572
      -5.964
      -5.257
      -4.495
      -3.719
      -2.959
      -2.250
      -1.627
      -1.102
      -0.642
      -0.184
       0.331
       0.934
       1.638
       2.443
       3.322
       4.218
       5.057
       5.787
       6.395
       6.900
       7.324
       7.661
       7.876
       7.935
       7.843
       7.650
       7.418
       7.181
       6.946
       6.704
       6.436
       6.114
       5.699
       5.151
       4.452
       3.617
       2.688
       1.721
       0.757
      -0.179
      -1.071
      -1.896
      -2.629
      -3.245
      -3.722
      -4.043
      -4.213
      -4.276
      -4.303
      -4.359
      -4.471
      -4.625
      -4.778
      -4.863
      -4.806
      -4.550
      -4.080
      -3.427
      -2.660
      -1.872
      -1.167
      -0.618
      -0.241
       0.010
       0.199
       0.367
       0.530
       0.701
       0.907
       1.180
       1.525
       1.895
       2.200
       2.359
       2.344
       2.192
       1.972
       1.746
       1.553
       1.416
       1.344
       1.311
       1.264
       1.147
       0.950
       0.716
       0.515
       0.388
       0.324
       0.282
       0.241
       0.219
       0.259
       0.384
       0.577
       0.786
       0.943
       0.994
       0.918
       0.741
       0.509
       0.261
       0.001
      -0.288
      -0.619
      -0.981
      -1.336
      -1.636
      -1.843
      -1.951
      -1.968
      -1.892
      -1.708
      -1.417
      -1.065
      -0.728
      -0.462
      -0.275
      -0.134
       0.011
       0.202
       0.444
       0.697
       0.893
       0.986
       0.972
       0.871
       0.676
       0.349
      -0.132
      -0.723
      -1.309
      -1.761
      -2.002
      -2.051
      -2.004
      -1.972
      -2.011
      -2.104
      -2.185
      -2.194
      -2.119
      -1.984
      -1.817
      -1.611
      -1.335
      -0.967
      -0.523
      -0.047
       0.419
       0.859
       1.287
       1.739
       2.250
       2.815
       3.365
       3.779
       3.953
       3.856
       3.532
       3.063
       2.531
       1.998
       1.508
       1.093
       0.775
       0.575
       0.503
       0.538
       0.632
       0.740
       0.841
       0.920
       0.934
       0.798
       0.434
      -0.171
      -0.926
      -1.668
      -2.237
      -2.553
      -2.632
      -2.545
      -2.362
      -2.126
      -1.873
      -1.643
      -1.484
      -1.428
      -1.471
      -1.548
      -1.553
      -1.387
      -1.019
      -0.509
       0.025
       0.480
       0.815
       1.039
       1.172
       1.203
       1.098
       0.833
       0.433
      -0.024
      -0.443
      -0.760
      -0.957
      -1.046
      -1.028
      -0.888
      -0.599
      -0.163
       0.372
       0.907
       1.332
       1.576
       1.632
       1.553
       1.417
       1.293
       1.221
       1.210
       1.257
       1.362
       1.517
       1.688
       1.813
       1.835
       1.734
       1.536
       1.289
       1.024
       0.738
       0.401
      -0.016
      -0.500
      -0.983
      -1.367
      -1.592
      -1.665
      -1.641
      -1.571
      -1.479
      -1.367
      -1.229
      -1.072
      -0.926
      -0.839
      -0.846
      -0.933
      -1.042
      -1.105
      -1.082
      -0.964
      -0.766
      -0.521
      -0.270
      -0.047
       0.134
       0.271
       0.357
       0.377
       0.323
       0.206
       0.047
      -0.133
      -0.315
      -0.483
      -0.620
      -0.711
      -0.752
      -0.746
      -0.706
      -0.651
      -0.608
      -0.611
      -0.692
      -0.863
      -1.100
      -1.350
      -1.556
      -1.670
      -1.659
      -1.499
      -1.192
      -0.761
      -0.237
       0.355
       0.988
       1.623
       2.204
       2.661
       2.930
       2.974
       2.804
       2.498
       2.167
       1.893
       1.702
       1.576
       1.488
       1.419
       1.354
       1.282
       1.195
       1.088
       0.959
       0.802
       0.607
       0.358
       0.052
      -0.285
      -0.605
      -0.873
      -1.095
      -1.291
      -1.459
      -1.548
      -1.504
      -1.321
      -1.048
      -0.767
      -0.551
      -0.452
      -0.491
      -0.649
      -0.864
      -1.044
      -1.101
      -0.992
      -0.743
      -0.434
      -0.173
      -0.042
      -0.070
      -0.216
      -0.396
      -0.530
      -0.591
      -0.608
      -0.640
      -0.731
      -0.887
      -1.073
      -1.227
      -1.283
      -1.207
      -1.007
      -0.713
      -0.344
       0.087
       0.546
       0.986
       1.369
       1.692
       1.966
       2.197
       2.372
       2.466
       2.442
       2.261
       1.920
       1.461
       0.974
       0.544
       0.220
      -0.005
      -0.184
      -0.375
      -0.595
      -0.803
      -0.933
      -0.954
      -0.879
      -0.745
      -0.571
      -0.361
      -0.113
       0.153
       0.404
       0.592
       0.678
       0.654
       0.554
       0.430
       0.314
       0.206
       0.070
      -0.137
      -0.439
      -0.817
      -1.212
      -1.550
      -1.786
      -1.922
      -2.003
      -2.083
      -2.197
      -2.345
      -2.495
      -2.598
      -2.598
      -2.437
      -2.062
      -1.466
      -0.719
       0.040
       0.662
       1.059
       1.227
       1.224
       1.149
       1.109
       1.185
       1.394
       1.679
       1.940
       2.077
       2.042
       1.864
       1.652
       1.537
       1.596
       1.800
       2.041
       2.217
       2.288
       2.280
       2.241
       2.202
       2.165
       2.106
       1.995
       1.812
       1.550
       1.202
       0.753
       0.185
      -0.499
      -1.265
      -2.041
      -2.738
      -3.271
      -3.587
      -3.672
      -3.545
      -3.244
      -2.836
      -2.427
      -2.136
      -2.029
      -2.065
      -2.116
      -2.041
      -1.771
      -1.334
      -0.831
      -0.386
      -0.094
       0.021
       0.012
      -0.024
       0.001
       0.137
       0.400
       0.785
