Origin Time       04/09/2008 12:53:21
Lat.              30.1°N 
Long.             80.4°E 
Depth (Km)         10.0
Magnitude         5.1
 Region           INDIA(UTTARAKHAND)-TIBET-BORDER-REGION                           
 Above details taken from IMD 
   
Station Code      KAP
Station Lat.       29.941
Station Long.      79.899
Station Height(m) 1066.0
Site Class        A   Vs30 between 700 m/sec to 1400 m/sec * 
Record Time       04.09.2008 12:53:12.009
Sampling Rate     200. Hz
 Record Duration   67.435 Sec.
 Direction         Vert. (Up positive)
Max. Acceleration      4.722 cm/sec**2
     
  * For reference see Site Classification link of website 
     
 Base Line Corrected and Low Pass Filtered (Cut Off at 35 Hz) Time History
 Acceleration data in cm/sec**2
    
[...]
      -0.325
       0.246
       0.702
       0.963
       0.990
       0.793
       0.445
       0.069
      -0.204
      -0.290
      -0.174
       0.093
       0.416
       0.682
       0.777
       0.614
       0.179
      -0.426
      -0.999
      -1.315
      -1.237
      -0.800
      -0.196
       0.319
       0.572
       0.555
       0.412
       0.311
       0.320
       0.367
       0.328
       0.148
      -0.109
      -0.324
      -0.429
      -0.432
      -0.367
      -0.237
      -0.038
       0.184
       0.330
       0.323
       0.187
       0.032
      -0.045
      -0.046
      -0.053
      -0.137
      -0.273
      -0.353
      -0.286
      -0.100
       0.060
       0.037
      -0.209
      -0.555
      -0.797
      -0.772
      -0.455
       0.028
       0.472
       0.715
       0.723
       0.584
       0.414
       0.261
       0.109
      -0.046
      -0.144
      -0.120
       0.010
       0.131
       0.141
       0.041
      -0.075
      -0.124
      -0.117
      -0.122
      -0.181
      -0.252
      -0.245
      -0.112
       0.114
       0.324
       0.399
       0.274
      -0.016
      -0.331
      -0.493
      -0.402
      -0.098
       0.251
       0.456
       0.420
       0.188
      -0.099
      -0.295
      -0.320
      -0.184
       0.035
       0.244
       0.392
       0.477
       0.522
       0.527
       0.473
       0.338
       0.115
      -0.183
      -0.516
      -0.803
      -0.930
      -0.808
      -0.455
      -0.027
       0.266
       0.304
       0.141
      -0.049
      -0.105
       0.015
       0.239
       0.461
       0.605
       0.629
       0.500
       0.203
      -0.207
      -0.597
      -0.814
      -0.785
      -0.587
      -0.384
      -0.301
      -0.316
      -0.276
      -0.023
       0.465
       1.029
       1.414
       1.407
       0.959
       0.212
      -0.564
      -1.098
      -1.248
      -1.061
      -0.723
      -0.409
      -0.148
       0.171
       0.634
       1.119
       1.306
       0.917
       0.002
      -0.993
      -1.494
      -1.198
      -0.286
       0.712
       1.275
       1.186
       0.601
      -0.126
      -0.667
      -0.882
      -0.832
      -0.682
      -0.567
      -0.485
      -0.325
       0.012
       0.489
       0.924
       1.107
       0.932
       0.458
      -0.138
      -0.643
      -0.885
      -0.790
      -0.403
       0.119
       0.579
       0.841
       0.877
       0.751
       0.550
       0.321
       0.073
      -0.173
      -0.365
      -0.445
      -0.407
      -0.298
      -0.176
      -0.052
       0.090
       0.228
       0.277
       0.138
      -0.192
      -0.561
      -0.722
      -0.513
      -0.010
       0.486
       0.665
       0.456
       0.087
      -0.120
      -0.035
       0.184
       0.267
       0.090
      -0.226
      -0.459
      -0.479
      -0.301
       0.003
       0.373
       0.725
       0.894
       0.715
       0.182
      -0.467
      -0.892
      -0.900
      -0.575
      -0.179
       0.080
       0.175
       0.218
       0.307
       0.429
       0.476
       0.353
       0.076
      -0.226
      -0.407
      -0.420
      -0.346
      -0.304
      -0.327
      -0.328
      -0.200
       0.067
       0.374
       0.607
       0.728
       0.748
       0.649
       0.363
      -0.136
      -0.714
      -1.094
      -1.023
      -0.473
       0.301
       0.908
       1.065
       0.755
       0.204
      -0.277
      -0.463
      -0.313
       0.037
       0.379
       0.552
       0.510
       0.307
       0.024
      -0.279
      -0.556
      -0.745
      -0.774
      -0.612
      -0.305
       0.029
       0.256
       0.300
       0.184
       0.022
      -0.048
       0.050
       0.269
       0.446
       0.393
       0.030
      -0.534
      -1.045
      -1.268
      -1.142
      -0.802
      -0.437
      -0.125
       0.198
       0.604
       1.009
       1.183
       0.936
       0.339
      -0.281
      -0.575
      -0.455
      -0.147
       0.020
      -0.093
      -0.338
      -0.441
      -0.260
       0.102
       0.393
       0.413
       0.148
      -0.238
      -0.499
      -0.443
      -0.025
       0.593
       1.084
       1.135
       0.667
      -0.072
      -0.677
      -0.875
      -0.697
      -0.394
      -0.188
      -0.092
       0.040
       0.309
       0.634
       0.810
       0.691
       0.325
      -0.085
      -0.336
      -0.347
      -0.175
       0.055
       0.213
       0.201
      -0.005
      -0.322
      -0.581
      -0.619
      -0.394
      -0.024
       0.294
       0.445
       0.470
       0.498
       0.592
       0.677
       0.613
       0.340
      -0.057
      -0.415
      -0.620
      -0.679
      -0.668
      -0.635
      -0.555
      -0.369
      -0.073
       0.253
       0.488
       0.561
       0.501
       0.416
       0.402
       0.458
       0.475
       0.331
       0.012
      -0.342
      -0.549
      -0.545
      -0.446
      -0.435
      -0.576
      -0.728
      -0.655
      -0.249
       0.346
       0.831
       0.969
       0.740
       0.319
      -0.076
      -0.314
      -0.392
      -0.387
      -0.388
      -0.436
      -0.480
      -0.400
      -0.110
       0.319
       0.667
       0.709
       0.414
       0.012
      -0.150
       0.127
       0.712
       1.225
       1.312
       0.887
       0.173
      -0.484
      -0.844
      -0.889
      -0.756
      -0.584
      -0.411
      -0.201
       0.060
       0.277
       0.300
       0.055
      -0.337
      -0.610
      -0.530
      -0.073
       0.549
       1.033
       1.170
       0.940
       0.485
      -0.003
      -0.370
      -0.535
      -0.495
      -0.317
      -0.119
      -0.010
      -0.046
      -0.205
      -0.406
      -0.550
      -0.564
      -0.431
      -0.194
       0.067
       0.258
       0.303
       0.183
      -0.050
      -0.286
      -0.400
      -0.318
      -0.052
       0.312
       0.653
       0.867
       0.882
       0.689
       0.355
       0.005
      -0.233
      -0.313
      -0.293
      -0.287
      -0.369
      -0.525
      -0.680
      -0.744
      -0.650
      -0.368
       0.064
       0.527
       0.854
       0.922
       0.729
       0.385
       0.017
      -0.294
      -0.512
      -0.601
      -0.511
      -0.232
       0.163
       0.538
       0.757
       0.745
       0.487
       0.018
      -0.568
      -1.113
      -1.441
      -1.444
      -1.150
      -0.714
      -0.311
      -0.024
       0.191
       0.420
       0.677
       0.856
       0.820
       0.543
       0.171
      -0.070
      -0.041
       0.204
       0.486
       0.642
       0.625
       0.491
       0.312
       0.122
      -0.077
      -0.277
      -0.441
      -0.517
      -0.473
      -0.327
      -0.134
       0.047
       0.182
       0.277
       0.357
       0.428
       0.453
       0.359
       0.095
      -0.312
      -0.734
      -1.005
      -1.009
      -0.733
      -0.278
       0.182
       0.471
       0.484
       0.252
      -0.061
      -0.245
      -0.178
       0.104
       0.462
       0.759
       0.940
       0.994
       0.880
       0.519
      -0.124
      -0.934
      -1.647
      -1.993
      -1.855
      -1.316
      -0.571
       0.196
       0.852
       1.291
       1.430
       1.254
       0.862
       0.438
       0.137
      -0.003
      -0.064
      -0.158
      -0.322
      -0.476
      -0.503
      -0.369
      -0.197
      -0.185
      -0.444
      -0.866
      -1.182
      -1.161
      -0.785
      -0.227
       0.322
       0.783
       1.161
       1.420
       1.442
       1.134
       0.565
      -0.025
      -0.388
      -0.443
      -0.315
      -0.198
      -0.205
      -0.310
      -0.410
      -0.410
      -0.266
       0.014
       0.376
       0.723
       0.937
       0.929
       0.677
       0.243
      -0.239
      -0.614
      -0.764
      -0.668
      -0.412
      -0.127
       0.092
       0.223
       0.296
       0.336
       0.338
       0.293
       0.218
       0.157
       0.136
       0.128
       0.062
      -0.112
      -0.376
      -0.646
      -0.824
      -0.838
      -0.664
      -0.322
       0.123
       0.564
       0.873
       0.949
       0.785
       0.496
       0.256
       0.187
       0.272
       0.381
       0.390
       0.278
       0.115
      -0.032
      -0.170
      -0.340
      -0.536
      -0.680
      -0.692
      -0.585
      -0.469
      -0.464
      -0.594
      -0.758
      -0.787
      -0.549
      -0.036
       0.612
       1.155
       1.367
       1.151
       0.598
      -0.055
      -0.553
      -0.749
      -0.660
      -0.409
      -0.125
       0.118
       0.298
       0.400
       0.405
       0.308
       0.159
       0.049
       0.050
       0.137
       0.193
       0.092
      -0.203
      -0.594
      -0.901
      -0.960
      -0.723
      -0.276
       0.221
       0.638
       0.929
       1.093
       1.109
       0.941
       0.616
       0.271
       0.069
       0.038
       0.018
      -0.201
      -0.657
      -1.131
      -1.311
      -1.048
      -0.480
       0.083
       0.389
       0.394
       0.221
       0.031
      -0.085
      -0.114
      -0.077
       0.002
       0.112
       0.239
       0.357
       0.419
       0.368
       0.168
      -0.165
      -0.537
      -0.781
      -0.734
      -0.349
       0.226
       0.692
       0.776
       0.407
      -0.218
      -0.741
      -0.841
      -0.420
       0.340
       1.075
       1.441
       1.292
       0.717
      -0.043
      -0.734
      -1.175
      -1.283
      -1.064
      -0.607
      -0.058
       0.437
       0.770
       0.885
       0.753
       0.379
      -0.152
      -0.655
      -0.912
      -0.815
      -0.451
      -0.033
       0.264
       0.407
       0.460
       0.462
       0.370
       0.112
      -0.293
      -0.692
      -0.862
      -0.653
      -0.095
       0.588
       1.092
       1.203
       0.917
       0.411
      -0.105
      -0.536
      -0.913
      -1.260
      -1.476
      -1.346
      -0.715
       0.356
       1.559
       2.458
       2.690
       2.127
       0.948
      -0.430
      -1.538
      -2.066
      -1.990
      -1.525
      -0.973
      -0.554
      -0.327
      -0.221
      -0.137
      -0.043
       0.000
      -0.102
      -0.363
      -0.657
      -0.773
      -0.578
      -0.138
       0.306
       0.541
       0.557
       0.545
       0.695
       0.966
       1.085
       0.777
       0.032
      -0.845
      -1.441
      -1.523
      -1.168
      -0.661
      -0.261
      -0.028
       0.158
       0.448
       0.853
       1.221
       1.344
       1.135
       0.699
       0.247
      -0.079
      -0.299
      -0.536
      -0.860
      -1.169
      -1.235
      -0.880
      -0.140
       0.711
       1.306
       1.390
       0.958
       0.233
      -0.485
      -0.980
      -1.188
      -1.161
      -0.982
      -0.703
      -0.321
       0.199
       0.874
       1.623
       2.228
       2.386
       1.892
       0.832
      -0.384
      -1.233
      -1.411
      -1.017
      -0.436
      -0.038
       0.073
       0.058
       0.138
       0.371
       0.587
       0.541
       0.123
      -0.509
      -1.003
      -1.053
      -0.619
       0.034
       0.541
       0.689
       0.519
       0.197
      -0.165
      -0.551
      -0.934
      -1.173
      -1.074
      -0.562
       0.219
       0.983
       1.480
       1.610
       1.385
       0.855
       0.107
      -0.675
      -1.217
      -1.306
      -0.955
      -0.411
       0.039
       0.268
       0.345
       0.406
       0.504
       0.594
       0.622
       0.605
       0.607
       0.657
       0.707
       0.654
       0.419
       0.010
      -0.456
      -0.787
      -0.816
      -0.505
      -0.007
       0.402
       0.471
       0.124
      -0.486
      -1.067
      -1.356
      -1.240
      -0.780
      -0.153
       0.425
       0.764
       0.728
       0.271
      -0.531
      -1.456
      -2.176
      -2.377
      -1.904
      -0.846
       0.501
       1.772
       2.667
       3.044
       2.944
       2.560
       2.155
       1.929
       1.940
       2.105
       2.278
       2.315
       2.092
       1.508
       0.542
      -0.694
      -1.949
      -2.939
      -3.488
      -3.593
      -3.364
      -2.904
      -2.249
      -1.406
      -0.442
       0.482
       1.171
       1.499
       1.476
       1.203
       0.779
       0.245
      -0.381
      -1.042
      -1.591
      -1.841
      -1.673
      -1.117
      -0.335
       0.454
       1.045
       1.278
       1.080
       0.519
      -0.165
      -0.649
      -0.709
      -0.387
       0.016
       0.172
      -0.031
      -0.414
      -0.679
      -0.640
      -0.325
       0.129
       0.616
       1.110
       1.562
       1.838
       1.795
       1.424
       0.905
       0.469
       0.213
       0.046
      -0.162
      -0.409
      -0.563
      -0.554
      -0.522
      -0.716
      -1.220
      -1.782
      -1.964
      -1.502
      -0.567
       0.326
       0.687
       0.383
      -0.300
      -0.903
      -1.124
      -0.989
      -0.755
      -0.643
      -0.629
      -0.480
       0.000
       0.749
       1.459
       1.816
       1.731
       1.358
       0.895
       0.395
      -0.214
      -0.963
      -1.734
      -2.320
      -2.566
      -2.423
      -1.889
      -0.941
       0.420
       2.042
       3.570
       4.560
       4.722
       4.083
       2.963
       1.762
       0.723
      -0.158
      -1.039
      -2.017
      -2.987
      -3.687
      -3.889
      -3.554
      -2.814
      -1.839
      -0.755
       0.311
       1.178
       1.650
       1.658
       1.339
       0.946
       0.649
       0.425
       0.152
      -0.215
      -0.562
      -0.724
      -0.656
      -0.497
      -0.463
      -0.657
      -0.947
      -1.024
      -0.595
       0.398
       1.715
       2.924
       3.605
       3.521
       2.673
       1.248
      -0.458
      -2.075
      -3.219
      -3.604
      -3.192
      -2.239
      -1.160
      -0.283
       0.326
       0.816
       1.335
       1.849
       2.168
       2.132
       1.783
       1.331
       0.952
       0.600
       0.053
      -0.832
      -1.905
      -2.763
      -3.028
      -2.629
      -1.821
      -0.952
      -0.208
       0.430
       1.030
       1.562
       1.918
       2.022
       1.882
       1.522
       0.939
       0.180
      -0.565
      -1.009
      -0.963
      -0.492
       0.136
       0.665
       0.997
       1.156
       1.154
       0.939
       0.480
      -0.150
      -0.783
      -1.263
      -1.543
      -1.681
      -1.738
      -1.692
      -1.452
      -0.952
      -0.230
       0.552
       1.194
       1.569
       1.688
       1.644
       1.507
       1.271
       0.905
       0.422
      -0.103
      -0.581
      -0.959
      -1.206
      -1.291
      -1.190
      -0.939
      -0.631
      -0.362
      -0.158
       0.020
       0.216
       0.435
       0.646
       0.804
       0.848
       0.717
       0.398
      -0.025
      -0.363
      -0.411
      -0.066
       0.589
       1.309
       1.780
       1.746
       1.118
       0.048
      -1.111
      -1.955
      -2.255
      -2.084
      -1.732
      -1.465
      -1.321
      -1.109
      -0.604
       0.236
       1.200
       1.949
       2.227
       1.995
       1.426
       0.785
       0.290
       0.029
      -0.028
       0.033
       0.145
       0.286
       0.436
       0.528
       0.460
       0.181
      -0.267
      -0.777
      -1.247
      -1.590
      -1.692
      -1.434
      -0.790
       0.058
       0.771
       1.069
       0.931
       0.578
       0.258
       0.034
      -0.212
      -0.578
      -0.963
      -1.114
      -0.844
      -0.234
       0.394
       0.684
       0.473
      -0.148
      -0.945
      -1.696
      -2.260
      -2.548
      -2.482
      -1.994
      -1.071
       0.181
       1.531
       2.661
       3.257
       3.122
       2.267
       0.928
      -0.509
      -1.639
      -2.178
      -2.040
      -1.324
      -0.238
       0.974
       2.058
       2.751
       2.812
       2.115
       0.759
      -0.903
      -2.364
      -3.168
      -3.097
      -2.247
      -0.967
       0.302
       1.198
       1.569
       1.509
       1.273
       1.101
       1.075
       1.087
       0.953
       0.581
       0.066
      -0.364
      -0.501
      -0.289
       0.145
       0.537
       0.599
       0.158
      -0.707
      -1.649
      -2.210
      -2.103
      -1.401
      -0.477
       0.266
       0.672
       0.866
       1.068
       1.353
       1.600
       1.628
       1.368
       0.924
       0.473
       0.121
      -0.164
      -0.481
      -0.877
      -1.297
      -1.621
      -1.742
      -1.610
      -1.223
      -0.619
       0.116
       0.815
       1.261
       1.287
       0.898
       0.301
      -0.171
      -0.229
       0.207
       0.957
       1.677
       2.027
       1.835
       1.169
       0.272
      -0.598
      -1.306
      -1.847
      -2.235
      -2.417
      -2.301
      -1.876
      -1.284
      -0.731
      -0.313
       0.053
       0.523
       1.140
       1.772
       2.219
       2.364
       2.225
       1.874
       1.359
       0.704
      -0.017
      -0.662
      -1.106
      -1.327
      -1.400
      -1.390
      -1.280
      -1.013
      -0.582
      -0.067
       0.407
       0.748
       0.929
       0.978
       0.948
       0.868
       0.710
       0.398
      -0.118
      -0.752
      -1.259
      -1.371
      -0.978
      -0.215
       0.624
       1.262
       1.561
       1.529
       1.253
       0.855
       0.480
       0.246
       0.158
       0.071
      -0.216
      -0.774
      -1.428
      -1.818
      -1.630
      -0.840
       0.245
       1.174
       1.654
       1.688
       1.481
       1.203
       0.847
       0.305
      -0.444
      -1.219
      -1.721
      -1.734
      -1.270
      -0.537
       0.211
       0.822
       1.264
       1.534
       1.575
       1.310
       0.745
       0.034
      -0.568
      -0.850
      -0.787
      -0.555
      -0.419
      -0.548
      -0.899
      -1.248
      -1.367
      -1.192
      -0.857
      -0.541
      -0.307
      -0.075
       0.245
       0.629
       0.935
       1.031
       0.888
       0.569
       0.145
      -0.332
      -0.800
      -1.145
      -1.236
      -1.008
      -0.526
       0.039
       0.485
       0.666
       0.535
       0.148
      -0.362
      -0.841
      -1.159
      -1.236
      -1.023
      -0.485
       0.368
       1.424
       2.449
       3.140
       3.262
       2.775
       1.856
       0.800
      -0.149
      -0.917
      -1.564
      -2.154
      -2.626
      -2.826
      -2.638
      -2.123
      -1.505
      -1.020
      -0.746
      -0.571
      -0.306
       0.164
       0.805
       1.460
       1.948
       2.151
       2.070
       1.808
       1.494
       1.187
       0.831
       0.311
      -0.428
      -1.294
      -2.062
      -2.494
      -2.474
      -2.065
      -1.460
      -0.873
      -0.431
      -0.123
       0.174
       0.588
       1.135
       1.679
       2.013
       1.998
