Origin Time       19/08/2008 10:54:26
Lat.              30.1°N 
Long.             80.1°E 
Depth (Km)         15.0
Magnitude         4.3
 Region           PITHORAGARH                                                      
 Above details taken from IMD 
   
Station Code      KAP
Station Lat.       29.941
Station Long.      79.899
Station Height(m) 1066.0
Site Class        A   Vs30 between 700 m/sec to 1400 m/sec * 
Record Time       19.08.2008 10:54:15.919
Sampling Rate     200. Hz
 Record Duration   70.995 Sec.
 Direction         Vert. (Up positive)
Max. Acceleration     24.123 cm/sec**2
     
  * For reference see Site Classification link of website 
     
 Base Line Corrected and Low Pass Filtered (Cut Off at 35 Hz) Time History
 Acceleration data in cm/sec**2
    
[...]
      -0.027
      -0.016
       0.001
       0.016
       0.022
       0.017
       0.003
      -0.013
      -0.023
      -0.022
      -0.010
       0.005
       0.017
       0.021
       0.016
       0.005
      -0.009
      -0.021
      -0.025
      -0.016
       0.003
       0.023
       0.035
       0.030
       0.010
      -0.018
      -0.035
      -0.029
      -0.005
       0.018
       0.026
       0.016
      -0.004
      -0.022
      -0.032
      -0.033
      -0.027
      -0.014
       0.002
       0.015
       0.018
       0.008
      -0.009
      -0.026
      -0.033
      -0.027
      -0.013
       0.003
       0.013
       0.015
       0.006
      -0.011
      -0.026
      -0.028
      -0.015
       0.003
       0.014
       0.015
       0.015
       0.020
       0.027
       0.024
       0.007
      -0.013
      -0.022
      -0.018
      -0.010
      -0.008
      -0.013
      -0.022
      -0.025
      -0.021
      -0.010
       0.003
       0.012
       0.014
       0.014
       0.016
       0.025
       0.032
       0.025
       0.005
      -0.016
      -0.026
      -0.025
      -0.024
      -0.027
      -0.027
      -0.015
       0.007
       0.021
       0.018
       0.005
      -0.003
       0.000
       0.007
       0.010
       0.008
       0.007
       0.009
       0.014
       0.017
       0.017
       0.013
       0.007
       0.003
       0.006
       0.018
       0.029
       0.029
       0.019
       0.009
       0.007
       0.010
       0.008
       0.002
      -0.004
      -0.008
      -0.013
      -0.020
      -0.026
      -0.028
      -0.026
      -0.025
      -0.029
      -0.031
      -0.026
      -0.012
      -0.001
      -0.004
      -0.020
      -0.038
      -0.044
      -0.038
      -0.027
      -0.019
      -0.016
      -0.016
      -0.019
      -0.021
      -0.015
      -0.004
       0.004
       0.001
      -0.008
      -0.016
      -0.017
      -0.015
      -0.018
      -0.026
      -0.037
      -0.043
      -0.043
      -0.041
      -0.038
      -0.036
      -0.035
      -0.035
      -0.033
      -0.027
      -0.015
       0.002
       0.014
       0.017
       0.013
       0.010
       0.010
       0.010
       0.008
       0.007
       0.014
       0.022
       0.020
       0.004
      -0.015
      -0.025
      -0.021
      -0.012
      -0.010
      -0.020
      -0.031
      -0.036
      -0.034
      -0.029
      -0.022
      -0.008
       0.009
       0.019
       0.014
       0.000
      -0.008
      -0.001
       0.016
       0.033
       0.038
       0.032
       0.021
       0.014
       0.012
       0.014
       0.022
       0.032
       0.040
       0.041
       0.032
       0.020
       0.013
       0.013
       0.014
       0.008
      -0.002
      -0.010
      -0.010
      -0.007
      -0.008
      -0.017
      -0.028
      -0.032
      -0.025
      -0.010
       0.005
       0.017
       0.023
       0.025
       0.027
       0.030
       0.032
       0.027
       0.013
      -0.003
      -0.011
      -0.008
       0.000
       0.006
       0.007
       0.004
      -0.002
      -0.008
      -0.012
      -0.011
      -0.001
       0.016
       0.032
       0.039
       0.035
       0.024
       0.015
       0.011
       0.012
       0.015
       0.021
       0.027
       0.030
       0.027
       0.020
       0.018
       0.024
       0.032
       0.031
       0.018
       0.000
      -0.015
      -0.023
      -0.026
      -0.025
      -0.022
      -0.021
      -0.025
      -0.035
      -0.043
      -0.041
      -0.032
      -0.023
      -0.021
      -0.023
      -0.022
      -0.016
      -0.011
      -0.011
      -0.017
      -0.023
      -0.022
      -0.018
      -0.015
      -0.011
      -0.003
       0.008
       0.012
       0.005
      -0.013
      -0.030
      -0.036
      -0.024
      -0.002
       0.017
       0.022
       0.012
      -0.003
      -0.009
       0.001
       0.023
       0.039
       0.036
       0.016
      -0.006
      -0.014
      -0.002
       0.024
       0.044
       0.047
       0.035
       0.020
       0.018
       0.028
       0.037
       0.033
       0.018
       0.004
      -0.003
      -0.002
       0.002
       0.005
       0.006
       0.000
      -0.013
      -0.028
      -0.033
      -0.023
      -0.002
       0.019
       0.030
       0.031
       0.028
       0.024
       0.022
       0.022
       0.023
       0.021
       0.013
       0.002
      -0.006
      -0.005
      -0.001
      -0.001
      -0.007
      -0.015
      -0.021
      -0.024
      -0.027
      -0.029
      -0.025
      -0.016
      -0.007
      -0.003
       0.001
       0.012
       0.027
       0.037
       0.032
       0.014
      -0.006
      -0.019
      -0.023
      -0.021
      -0.016
      -0.010
      -0.006
      -0.001
       0.005
       0.013
       0.019
       0.016
       0.001
      -0.019
      -0.033
      -0.036
      -0.030
      -0.021
      -0.011
      -0.003
       0.003
       0.005
       0.008
       0.016
       0.026
       0.027
       0.014
      -0.005
      -0.020
      -0.026
      -0.027
      -0.027
      -0.025
      -0.017
      -0.004
       0.007
       0.012
       0.011
       0.008
       0.007
       0.006
       0.004
       0.001
      -0.004
      -0.006
      -0.007
      -0.007
      -0.011
      -0.020
      -0.029
      -0.034
      -0.033
      -0.028
      -0.019
      -0.007
       0.006
       0.015
       0.020
       0.022
       0.020
       0.013
       0.005
       0.003
       0.009
       0.020
       0.026
       0.025
       0.022
       0.020
       0.021
       0.023
       0.029
       0.042
       0.054
       0.053
       0.035
       0.011
      -0.003
      -0.001
       0.009
       0.012
       0.003
      -0.013
      -0.023
      -0.025
      -0.021
      -0.019
      -0.023
      -0.030
      -0.032
      -0.027
      -0.019
      -0.011
      -0.006
      -0.004
       0.000
       0.006
       0.011
       0.013
       0.019
       0.030
       0.042
       0.042
       0.021
      -0.014
      -0.044
      -0.055
      -0.045
      -0.022
       0.003
       0.021
       0.029
       0.026
       0.013
       0.000
      -0.010
      -0.017
      -0.025
      -0.032
      -0.035
      -0.029
      -0.017
      -0.001
       0.018
       0.035
       0.043
       0.038
       0.026
       0.017
       0.017
       0.025
       0.031
       0.030
       0.023
       0.011
      -0.003
      -0.018
      -0.029
      -0.033
      -0.030
      -0.024
      -0.016
      -0.004
       0.017
       0.037
       0.044
       0.030
       0.007
      -0.009
      -0.009
      -0.002
       0.000
      -0.007
      -0.012
      -0.005
       0.016
       0.036
       0.042
       0.035
       0.023
       0.020
       0.024
       0.026
       0.018
       0.004
      -0.009
      -0.011
      -0.003
       0.008
       0.015
       0.017
       0.016
       0.017
       0.021
       0.022
       0.018
       0.008
      -0.005
      -0.015
      -0.023
      -0.025
      -0.023
      -0.016
      -0.010
      -0.010
      -0.014
      -0.015
      -0.009
       0.003
       0.014
       0.019
       0.022
       0.025
       0.026
       0.015
      -0.006
      -0.029
      -0.036
      -0.027
      -0.011
      -0.005
      -0.011
      -0.020
      -0.019
      -0.008
       0.006
       0.015
       0.017
       0.017
       0.018
       0.014
       0.000
      -0.019
      -0.029
      -0.017
       0.015
       0.047
       0.054
       0.032
      -0.003
      -0.027
      -0.028
      -0.017
      -0.010
      -0.013
      -0.019
      -0.019
      -0.011
       0.004
       0.020
       0.031
       0.027
       0.008
      -0.016
      -0.029
      -0.024
      -0.009
       0.002
       0.002
      -0.003
      -0.004
      -0.005
      -0.007
      -0.009
      -0.005
       0.009
       0.023
       0.028
       0.018
       0.002
      -0.009
      -0.013
      -0.013
      -0.014
      -0.016
      -0.013
      -0.004
       0.005
       0.010
       0.009
       0.006
       0.005
       0.007
       0.008
       0.003
      -0.007
      -0.015
      -0.016
      -0.008
       0.006
       0.016
       0.019
       0.019
       0.024
       0.031
       0.032
       0.019
      -0.005
      -0.024
      -0.026
      -0.015
      -0.001
       0.007
       0.010
       0.016
       0.022
       0.021
       0.007
      -0.015
      -0.031
      -0.033
      -0.018
       0.007
       0.029
       0.035
       0.020
      -0.007
      -0.027
      -0.024
      -0.001
       0.027
       0.042
       0.037
       0.016
      -0.008
      -0.026
      -0.030
      -0.023
      -0.014
      -0.012
      -0.014
      -0.010
       0.007
       0.028
       0.038
       0.031
       0.018
       0.010
       0.006
      -0.002
      -0.019
      -0.037
      -0.044
      -0.039
      -0.029
      -0.027
      -0.035
      -0.044
      -0.043
      -0.028
      -0.008
       0.008
       0.014
       0.014
       0.012
       0.013
       0.016
       0.018
       0.021
       0.024
       0.026
       0.022
       0.010
      -0.008
      -0.023
      -0.030
      -0.029
      -0.023
      -0.017
      -0.010
      -0.001
       0.012
       0.026
       0.034
       0.032
       0.022
       0.014
       0.015
       0.021
       0.017
       0.000
      -0.023
      -0.035
      -0.029
      -0.017
      -0.014
      -0.022
      -0.025
      -0.011
       0.015
       0.033
       0.031
       0.015
       0.001
       0.002
       0.017
       0.036
       0.045
       0.039
       0.023
       0.007
       0.001
       0.002
       0.003
      -0.002
      -0.010
      -0.018
      -0.022
      -0.024
      -0.026
      -0.028
      -0.029
      -0.030
      -0.030
      -0.025
      -0.009
       0.015
       0.035
       0.039
       0.028
       0.013
       0.008
       0.012
       0.019
       0.020
       0.008
      -0.013
      -0.037
      -0.052
      -0.054
      -0.042
      -0.024
      -0.010
      -0.008
      -0.013
      -0.011
       0.003
       0.017
       0.017
       0.005
      -0.007
      -0.002
       0.020
       0.049
       0.069
       0.065
       0.035
      -0.007
      -0.036
      -0.031
       0.001
       0.032
       0.033
       0.002
      -0.036
      -0.049
      -0.027
       0.009
       0.033
       0.033
       0.014
      -0.012
      -0.029
      -0.028
      -0.009
       0.015
       0.024
       0.014
      -0.002
      -0.004
       0.011
       0.022
       0.009
      -0.024
      -0.049
      -0.043
      -0.007
       0.033
       0.053
       0.047
       0.028
       0.006
      -0.014
      -0.030
      -0.035
      -0.023
       0.003
       0.028
       0.038
       0.028
       0.006
      -0.015
      -0.023
      -0.013
       0.008
       0.024
       0.022
       0.003
      -0.018
      -0.021
      -0.003
       0.024
       0.035
       0.020
      -0.012
      -0.037
      -0.037
      -0.014
       0.011
       0.016
       0.003
      -0.014
      -0.019
      -0.009
       0.009
       0.024
       0.032
       0.033
       0.030
       0.018
      -0.003
      -0.020
      -0.020
      -0.001
       0.022
       0.029
       0.017
      -0.002
      -0.008
       0.002
       0.015
       0.018
       0.010
       0.001
       0.001
       0.008
       0.009
       0.000
      -0.011
      -0.010
       0.006
       0.024
       0.028
       0.014
      -0.004
      -0.008
       0.004
       0.018
       0.016
       0.000
      -0.013
      -0.007
       0.011
       0.022
       0.015
      -0.004
      -0.013
       0.003
       0.029
       0.039
       0.018
      -0.020
      -0.044
      -0.037
      -0.008
       0.018
       0.020
       0.002
      -0.015
      -0.015
       0.001
       0.017
       0.023
       0.017
       0.006
      -0.003
      -0.005
       0.003
       0.016
       0.024
       0.014
      -0.012
      -0.039
      -0.046
      -0.022
       0.020
       0.053
       0.056
       0.028
      -0.009
      -0.031
      -0.027
      -0.005
       0.015
       0.021
       0.010
      -0.008
      -0.021
      -0.022
      -0.012
       0.003
       0.016
       0.023
       0.024
       0.024
       0.026
       0.030
       0.029
       0.019
       0.004
      -0.008
      -0.013
      -0.010
      -0.005
      -0.005
      -0.007
      -0.003
       0.010
       0.022
       0.025
       0.020
       0.017
       0.018
       0.017
       0.006
      -0.010
      -0.015
      -0.003
       0.015
       0.018
       0.002
      -0.016
      -0.014
       0.007
       0.029
       0.031
       0.011
      -0.012
      -0.018
      -0.002
       0.022
       0.035
       0.026
       0.006
      -0.007
      -0.002
       0.014
       0.025
       0.019
       0.001
      -0.009
      -0.001
       0.018
       0.031
       0.036
       0.064
       0.168
       0.381
       0.671
       0.927
       1.018
       0.904
       0.712
       0.688
       1.010
       1.586
       2.046
       2.010
       1.442
       0.744
       0.395
       0.399
       0.096
      -1.352
      -4.107
      -7.133
      -8.562
      -6.841
      -1.957
       4.152
       8.481
       8.763
       4.957
      -0.768
      -5.628
      -8.118
      -8.686
      -8.788
      -9.182
      -8.841
      -5.472
       2.435
      13.381
      22.507
      24.123
      15.743
       0.515
     -14.290
     -21.943
     -20.436
     -12.827
      -3.849
       3.735
       9.843
      15.034
      18.516
      18.361
      13.426
       4.743
      -5.040
     -13.316
     -18.364
     -18.963
     -14.231
      -4.603
       7.100
      16.162
      18.287
      12.322
       1.358
      -8.919
     -13.748
     -12.151
      -7.013
      -2.393
      -0.262
       0.591
       2.603
       6.399
       9.747
       9.509
       4.631
      -2.613
      -8.145
      -9.002
      -5.302
       0.140
       4.012
       4.749
       3.183
       1.302
       0.401
       0.337
       0.343
       0.148
       0.066
       0.195
      -0.043
      -1.281
      -3.085
      -3.783
      -1.962
       1.695
       4.530
       4.313
       1.477
      -1.303
      -1.767
      -0.203
       1.060
       0.177
      -2.287
      -3.920
      -2.799
       0.738
       4.354
       5.528
       3.386
      -0.766
      -4.539
      -6.219
      -5.672
      -3.830
      -1.650
       0.339
       1.837
       2.547
       2.295
       1.271
       0.032
      -0.812
      -0.957
      -0.478
       0.401
       1.516
       2.720
       3.735
       4.175
       3.782
       2.691
       1.447
       0.600
       0.161
      -0.479
      -1.851
      -3.586
      -4.433
      -3.321
      -0.559
       2.061
       2.587
       0.571
      -2.522
      -4.578
      -4.509
      -2.807
      -0.810
       0.340
       0.246
      -0.707
      -1.565
      -1.275
       0.612
       3.417
       5.591
       5.748
       3.665
       0.454
      -2.184
      -3.024
      -1.996
      -0.097
       1.351
       1.611
       1.006
       0.598
       1.232
       2.682
       3.664
       2.765
      -0.421
      -4.800
      -8.298
      -9.039
      -6.409
      -1.375
       3.987
       7.404
       7.466
       4.383
      -0.025
      -3.291
      -3.768
      -1.667
       1.123
       2.448
       1.477
      -0.806
      -2.485
      -2.160
       0.022
       2.381
       2.847
       0.595
      -3.129
      -5.801
      -5.480
      -2.237
       2.003
       4.920
       5.334
       3.680
       1.383
      -0.180
      -0.413
       0.319
       1.075
       1.046
       0.173
      -0.800
      -0.938
       0.052
       1.525
       2.428
       2.135
       0.772
      -1.156
      -3.235
      -5.145
      -6.338
      -6.061
      -3.986
      -0.792
       2.116
       3.663
       3.862
       3.474
       2.970
       1.973
      -0.196
      -3.385
      -6.097
      -6.348
      -3.303
       1.728
       5.981
       7.190
       5.219
       2.031
      -0.020
      -0.042
       0.998
       1.485
       0.619
      -1.124
      -2.615
      -2.996
      -2.192
      -0.795
       0.423
       0.967
       0.831
       0.363
      -0.107
      -0.507
      -0.804
      -0.671
       0.257
       1.644
       2.268
       0.965
      -2.024
      -4.743
      -4.868
      -1.748
       2.737
       5.522
       4.836
       1.614
      -1.433
      -2.224
      -1.002
       0.239
      -0.104
      -1.683
      -2.700
      -1.744
       0.921
       3.706
       5.107
       4.687
       2.875
       0.212
      -2.812
      -5.303
      -5.949
      -4.024
      -0.427
       2.643
       3.382
       1.842
      -0.305
      -1.346
      -0.867
       0.210
       0.576
      -0.422
      -2.301
      -3.745
      -3.541
      -1.536
       1.098
       2.648
       2.265
       0.793
       0.086
       1.258
       3.543
       4.915
       3.887
       0.828
      -2.341
      -3.760
      -3.062
      -1.335
       0.140
       0.902
       1.177
       1.115
       0.525
      -0.639
      -1.819
      -2.139
      -1.246
       0.237
       1.213
       1.100
       0.341
      -0.067
       0.463
       1.556
       2.195
       1.595
      -0.099
      -1.819
      -2.313
      -1.135
       0.879
       2.115
       1.423
      -0.893
      -3.224
      -3.948
      -2.736
      -0.673
       0.822
       1.135
       0.687
       0.282
       0.322
       0.571
       0.524
      -0.057
      -0.927
      -1.569
      -1.555
      -0.792
       0.437
       1.633
       2.350
       2.395
       1.904
       1.244
       0.758
       0.500
       0.252
      -0.115
      -0.378
      -0.227
       0.204
       0.266
      -0.532
      -1.760
      -2.201
      -1.041
       1.012
       2.092
       0.955
      -1.588
      -3.260
      -2.444
       0.305
       2.881
       3.597
       2.443
       0.598
      -0.931
      -1.976
      -2.737
      -3.069
      -2.537
      -1.077
       0.657
       1.739
       1.738
       1.054
       0.538
       0.749
       1.436
       1.719
       0.873
      -0.915
      -2.483
      -2.461
      -0.392
       2.700
       4.894
       4.763
       2.402
      -0.778
      -3.150
      -3.841
      -2.926
      -1.075
       0.832
       1.957
       1.787
       0.478
      -1.121
      -2.036
      -1.912
      -1.227
      -0.791
      -1.030
      -1.682
      -2.030
      -1.422
       0.257
       2.381
       3.766
       3.320
       0.927
      -2.138
      -3.881
      -3.045
      -0.140
       2.931
       4.350
       3.648
       1.688
      -0.347
      -1.804
      -2.563
      -2.624
      -1.966
      -0.770
       0.494
       1.346
       1.647
       1.569
       1.284
       0.811
       0.144
      -0.611
      -1.291
      -1.718
      -1.668
      -0.938
       0.411
       1.874
       2.666
       2.211
       0.615
      -1.311
      -2.520
      -2.360
      -0.964
       0.795
       1.810
       1.464
       0.081
      -1.378
      -2.136
      -2.146
      -1.815
      -1.330
      -0.479
       0.852
