Origin Time       15/06/2011 00:59:28
Lat.              30.6 N	
Long.             80.1 E	
Depth (Km)         10.0
Magnitude         3.4
 Region           Pithoragarh-Uttarakhand                                          
 Above details taken from IMD 
     
Station Code      KAP
Station Lat.       29.941  N
Station Long.      79.899  E
Station Height(m) 1066.0
Site Class        A   Vs30 between 700 m/sec to 1400 m/sec * 
Record Time       15.06.2011 00:58:59.539
Sampling Rate     200. Hz
 Record Duration   81.520 Sec.
 Direction         E-W (E positive)
Max. Acceleration    -27.462 cm/sec**2
     
  * For reference see Site Classification link of website 
     
 Base Line Corrected and Low Pass Filtered (Cut Off at 35 Hz) Time History
 Acceleration data in cm/sec**2
    
[...]
      -0.001
      -0.003
      -0.004
      -0.001
       0.005
       0.011
       0.017
       0.019
       0.018
       0.012
       0.002
      -0.008
      -0.013
      -0.010
      -0.004
       0.002
       0.005
       0.006
       0.005
       0.005
       0.006
       0.007
       0.004
      -0.003
      -0.011
      -0.016
      -0.016
      -0.011
      -0.003
       0.005
       0.013
       0.018
       0.017
       0.012
       0.005
       0.000
       0.001
       0.005
       0.007
       0.008
       0.008
       0.009
       0.011
       0.012
       0.009
       0.002
      -0.005
      -0.011
      -0.013
      -0.010
      -0.005
      -0.001
       0.002
       0.006
       0.012
       0.017
       0.019
       0.016
       0.008
      -0.002
      -0.011
      -0.016
      -0.017
      -0.015
      -0.010
      -0.005
      -0.003
      -0.003
      -0.005
      -0.006
      -0.006
      -0.008
      -0.010
      -0.013
      -0.014
      -0.011
      -0.004
       0.004
       0.009
       0.008
       0.004
       0.001
       0.000
       0.002
       0.002
      -0.001
      -0.006
      -0.008
      -0.006
       0.002
       0.011
       0.017
       0.017
       0.011
      -0.001
      -0.012
      -0.020
      -0.021
      -0.018
      -0.013
      -0.007
       0.000
       0.009
       0.017
       0.021
       0.019
       0.010
      -0.003
      -0.013
      -0.016
      -0.011
      -0.004
       0.001
       0.002
       0.002
       0.005
       0.008
       0.008
       0.002
      -0.009
      -0.022
      -0.030
      -0.030
      -0.020
      -0.004
       0.010
       0.018
       0.017
       0.010
       0.002
      -0.004
      -0.008
      -0.012
      -0.016
      -0.018
      -0.016
      -0.008
       0.002
       0.009
       0.010
       0.007
       0.003
       0.003
       0.007
       0.011
       0.011
       0.007
       0.003
       0.001
       0.001
       0.002
       0.001
       0.002
       0.005
       0.009
       0.011
       0.008
       0.003
      -0.002
      -0.004
      -0.003
       0.000
       0.002
       0.004
       0.004
       0.002
      -0.001
      -0.003
      -0.005
      -0.008
      -0.012
      -0.017
      -0.021
      -0.020
      -0.016
      -0.009
      -0.003
       0.000
      -0.002
      -0.005
      -0.007
      -0.004
       0.001
       0.005
       0.005
       0.000
      -0.003
       0.000
       0.010
       0.020
       0.025
       0.020
       0.006
      -0.009
      -0.018
      -0.017
      -0.006
       0.009
       0.023
       0.029
       0.026
       0.015
       0.005
       0.001
       0.003
       0.007
       0.007
       0.004
       0.000
       0.001
       0.006
       0.011
       0.015
       0.016
       0.019
       0.023
       0.026
       0.021
       0.011
       0.002
      -0.001
       0.004
       0.011
       0.016
       0.020
       0.021
       0.021
       0.019
       0.013
       0.007
       0.000
      -0.005
      -0.009
      -0.009
      -0.002
       0.008
       0.018
       0.022
       0.018
       0.009
      -0.001
      -0.006
      -0.007
      -0.004
       0.000
       0.002
       0.004
       0.007
       0.012
       0.016
       0.014
       0.008
       0.001
      -0.004
      -0.008
      -0.010
      -0.013
      -0.015
      -0.012
      -0.002
       0.010
       0.018
       0.021
       0.017
       0.009
      -0.002
      -0.014
      -0.022
      -0.024
      -0.019
      -0.010
      -0.002
       0.003
       0.004
       0.002
      -0.001
      -0.002
      -0.004
      -0.008
      -0.014
      -0.019
      -0.017
      -0.008
       0.002
       0.009
       0.012
       0.016
       0.024
       0.030
       0.028
       0.015
      -0.004
      -0.019
      -0.022
      -0.014
      -0.001
       0.008
       0.010
       0.010
       0.010
       0.010
       0.006
       0.000
      -0.003
      -0.001
       0.004
       0.008
       0.008
       0.005
       0.001
       0.001
       0.003
       0.006
       0.004
      -0.003
      -0.013
      -0.021
      -0.023
      -0.017
      -0.009
      -0.002
       0.001
       0.002
       0.004
       0.008
       0.014
       0.019
       0.018
       0.010
       0.000
      -0.008
      -0.008
      -0.002
       0.005
       0.009
       0.010
       0.009
       0.008
       0.008
       0.008
       0.007
       0.003
      -0.001
      -0.004
      -0.003
       0.002
       0.008
       0.013
       0.013
       0.008
       0.001
      -0.004
      -0.006
      -0.006
      -0.008
      -0.010
      -0.009
      -0.003
       0.007
       0.012
       0.009
      -0.002
      -0.010
      -0.011
      -0.006
      -0.004
      -0.008
      -0.016
      -0.019
      -0.012
       0.001
       0.014
       0.020
       0.017
       0.011
       0.006
       0.005
       0.006
       0.006
       0.005
       0.004
       0.006
       0.012
       0.017
       0.018
       0.015
       0.008
       0.000
      -0.007
      -0.008
      -0.004
       0.004
       0.009
       0.011
       0.011
       0.010
       0.011
       0.012
       0.011
       0.006
      -0.001
      -0.005
      -0.005
      -0.003
      -0.002
      -0.004
      -0.003
       0.004
       0.013
       0.018
       0.018
       0.013
       0.006
       0.000
      -0.003
      -0.001
       0.008
       0.017
       0.022
       0.015
       0.002
      -0.008
      -0.007
       0.004
       0.012
       0.007
      -0.009
      -0.022
      -0.020
      -0.004
       0.013
       0.015
       0.001
      -0.018
      -0.024
      -0.013
       0.007
       0.018
       0.013
      -0.003
      -0.014
      -0.011
       0.007
       0.024
       0.025
       0.009
      -0.012
      -0.022
      -0.016
      -0.005
      -0.001
      -0.006
      -0.011
      -0.006
       0.007
       0.016
       0.010
      -0.005
      -0.016
      -0.015
      -0.003
       0.008
       0.007
      -0.004
      -0.016
      -0.015
      -0.002
       0.014
       0.019
       0.011
      -0.002
      -0.007
      -0.003
       0.004
       0.006
       0.004
       0.001
       0.004
       0.011
       0.018
       0.018
       0.011
       0.002
      -0.004
      -0.005
      -0.002
       0.000
      -0.002
      -0.007
      -0.008
       0.000
       0.013
       0.021
       0.019
       0.008
       0.000
       0.007
       0.033
       0.069
       0.106
       0.140
       0.181
       0.250
       0.349
       0.442
       0.459
       0.344
       0.118
      -0.117
      -0.268
      -0.350
      -0.490
      -0.770
      -1.078
      -1.150
      -0.807
      -0.164
       0.423
       0.642
       0.455
       0.069
      -0.290
      -0.530
      -0.661
      -0.691
      -0.593
      -0.361
      -0.023
       0.381
       0.835
       1.341
       1.887
       2.399
       2.706
       2.596
       1.957
       0.865
      -0.456
      -1.752
      -2.816
      -3.466
      -3.533
      -2.919
      -1.723
      -0.304
       0.848
       1.384
       1.299
       0.892
       0.525
       0.362
       0.296
       0.100
      -0.318
      -0.821
      -1.153
      -1.157
      -0.856
      -0.368
       0.225
       0.901
       1.619
       2.274
       2.701
       2.727
       2.283
       1.488
       0.599
      -0.191
      -0.900
      -1.660
      -2.492
      -3.203
      -3.487
      -3.109
      -2.007
      -0.352
       1.417
       2.677
       2.922
       2.100
       0.691
      -0.571
      -1.141
      -0.938
      -0.299
       0.334
       0.721
       0.923
       1.111
       1.305
       1.299
       0.853
      -0.063
      -1.210
      -2.230
      -2.816
      -2.776
      -2.056
      -0.808
       0.559
       1.512
       1.723
       1.303
       0.679
       0.226
       0.008
      -0.133
      -0.300
      -0.385
      -0.203
       0.272
       0.819
       1.148
       1.143
       0.936
       0.757
       0.739
       0.868
       1.078
       1.291
       1.358
       1.030
       0.114
      -1.302
      -2.784
      -3.781
      -3.987
      -3.491
      -2.604
      -1.561
      -0.435
       0.704
       1.653
       2.163
       2.127
       1.626
       0.823
      -0.116
      -0.986
      -1.504
      -1.405
      -0.597
       0.750
       2.270
       3.525
       4.114
       3.779
       2.550
       0.816
      -0.818
      -1.856
      -2.169
      -1.976
      -1.624
      -1.342
      -1.154
      -0.975
      -0.770
      -0.615
      -0.596
      -0.694
      -0.785
      -0.755
      -0.586
      -0.322
       0.009
       0.399
       0.795
       1.084
       1.188
       1.139
       1.057
       1.011
       0.928
       0.666
       0.182
      -0.376
      -0.784
      -0.911
      -0.777
      -0.468
      -0.046
       0.431
       0.853
       1.070
       0.981
       0.596
       0.030
      -0.555
      -1.013
      -1.255
      -1.270
      -1.123
      -0.914
      -0.708
      -0.483
      -0.163
       0.270
       0.702
       0.957
       0.978
       0.905
       0.963
       1.222
       1.454
       1.282
       0.523
      -0.601
      -1.598
      -2.052
      -1.872
      -1.296
      -0.691
      -0.297
      -0.090
       0.128
       0.475
       0.843
       1.020
       0.944
       0.770
       0.675
       0.644
       0.510
       0.182
      -0.222
      -0.490
      -0.541
      -0.490
      -0.489
      -0.573
      -0.646
      -0.593
      -0.349
       0.047
       0.466
       0.741
       0.782
       0.610
       0.295
      -0.120
      -0.593
      -1.011
      -1.204
      -1.080
      -0.738
      -0.389
      -0.162
       0.004
       0.251
       0.632
       1.049
       1.354
       1.492
       1.540
       1.592
       1.601
       1.368
       0.699
      -0.391
      -1.604
      -2.494
      -2.727
      -2.269
      -1.370
      -0.379
       0.460
       1.070
       1.439
       1.493
       1.135
       0.399
      -0.493
      -1.268
      -1.757
      -1.885
      -1.569
      -0.757
       0.404
       1.518
       2.156
       2.158
       1.693
       1.039
       0.359
      -0.313
      -0.950
      -1.450
      -1.655
      -1.431
      -0.778
       0.094
       0.838
       1.186
       1.134
       0.890
       0.654
       0.462
       0.217
      -0.170
      -0.684
      -1.180
      -1.435
      -1.248
      -0.594
       0.303
       1.050
       1.327
       1.123
       0.751
       0.579
       0.680
       0.746
       0.374
      -0.536
      -1.623
      -2.308
      -2.217
      -1.435
      -0.382
       0.518
       1.064
       1.253
       1.135
       0.760
       0.217
      -0.347
      -0.790
      -1.016
      -0.961
      -0.590
       0.050
       0.788
       1.371
       1.590
       1.392
       0.905
       0.359
      -0.048
      -0.251
      -0.299
      -0.256
      -0.152
       0.002
       0.165
       0.265
       0.234
       0.029
      -0.332
      -0.758
      -1.094
      -1.193
      -1.007
      -0.637
      -0.267
      -0.047
      -0.001
      -0.030
       0.007
       0.171
       0.375
       0.436
       0.243
      -0.104
      -0.349
      -0.294
       0.031
       0.420
       0.691
       0.844
       1.009
       1.251
       1.429
       1.268
       0.616
      -0.350
      -1.184
      -1.504
      -1.286
      -0.859
      -0.580
      -0.543
      -0.576
      -0.466
      -0.148
       0.272
       0.610
       0.695
       0.468
       0.069
      -0.195
      -0.074
       0.401
       0.917
       1.135
       0.919
       0.364
      -0.336
      -1.004
      -1.495
      -1.692
      -1.565
      -1.229
      -0.877
      -0.596
      -0.297
       0.154
       0.725
       1.202
       1.383
       1.274
       1.067
       0.958
       0.991
       1.061
       1.025
       0.814
       0.466
       0.066
      -0.314
      -0.592
      -0.619
      -0.264
       0.414
       1.073
       1.249
       0.667
      -0.532
      -1.840
      -2.684
      -2.771
      -2.238
      -1.519
      -1.036
      -0.934
      -1.021
      -0.944
      -0.464
       0.351
       1.195
       1.775
       2.045
       2.190
       2.364
       2.484
       2.279
       1.572
       0.480
      -0.657
      -1.524
      -1.989
      -2.038
      -1.629
      -0.707
       0.625
       1.971
       2.763
       2.586
       1.437
      -0.271
      -1.932
      -3.036
      -3.348
      -2.966
      -2.202
      -1.390
      -0.746
      -0.351
      -0.207
      -0.271
      -0.462
      -0.660
      -0.702
      -0.381
       0.496
       1.945
       3.643
       5.006
       5.538
       5.146
       4.135
       2.919
       1.768
       0.809
       0.161
      -0.048
       0.183
       0.652
       1.069
       1.229
       1.037
       0.389
      -0.869
      -2.763
      -4.944
      -6.729
      -7.511
      -7.240
      -6.487
      -6.031
      -6.345
      -7.427
      -8.982
     -10.631
     -11.934
     -12.370
     -11.471
      -9.065
      -5.367
      -0.833
       4.043
       8.764
      12.770
      15.505
      16.679
      16.485
      15.554
      14.624
      14.216
      14.520
      15.514
      17.088
      18.974
      20.546
      20.801
      18.716
      13.796
       6.377
      -2.516
     -11.541
     -19.353
     -24.851
     -27.462
     -27.352
     -25.357
     -22.589
     -19.983
     -18.080
     -17.078
     -16.927
     -17.255
     -17.282
     -16.045
     -12.964
      -8.253
      -2.759
       2.656
       7.606
      12.182
      16.539
      20.481
      23.442
      24.896
      24.841
      23.876
      22.749
      21.796
      20.778
      19.197
      16.706
      13.220
       8.771
       3.435
      -2.551
      -8.657
     -14.138
     -18.288
     -20.673
     -21.261
     -20.438
     -18.869
     -17.168
     -15.615
     -14.192
     -12.878
     -11.844
     -11.257
     -10.947
     -10.347
      -8.810
      -5.981
      -1.931
       2.945
       8.095
      12.953
      17.026
      19.882
      21.100
      20.357
      17.685
      13.655
       9.208
       5.218
       2.190
       0.336
      -0.227
       0.492
       2.110
       3.803
       4.611
       3.922
       1.729
      -1.426
      -4.739
      -7.452
      -9.111
      -9.638
      -9.200
      -8.043
      -6.455
      -4.853
      -3.779
      -3.682
      -4.629
      -6.185
      -7.578
      -8.091
      -7.446
      -5.914
      -4.034
      -2.179
      -0.345
       1.671
       3.947
       6.327
       8.577
      10.551
      12.140
      13.102
      13.059
      11.748
       9.305
       6.258
       3.201
       0.430
      -2.145
      -4.743
      -7.325
      -9.402
     -10.249
      -9.365
      -6.859
      -3.478
      -0.302
       1.689
       1.974
       0.653
      -1.594
      -3.800
      -5.160
      -5.387
      -4.713
      -3.538
      -2.046
      -0.133
       2.335
       5.219
       8.046
      10.177
      11.033
      10.252
       7.802
       4.088
      -0.064
      -3.638
      -5.819
      -6.317
      -5.412
      -3.725
      -1.886
      -0.323
       0.738
       1.172
       0.887
      -0.125
      -1.688
      -3.379
      -4.596
      -4.735
      -3.460
      -0.929
       2.192
       4.990
       6.722
       7.111
       6.351
       4.874
       3.086
       1.261
      -0.381
      -1.598
      -2.187
      -2.172
      -1.891
      -1.837
      -2.356
      -3.461
      -4.898
      -6.345
      -7.509
      -8.082
      -7.716
      -6.152
      -3.462
      -0.151
       3.018
       5.383
       6.660
       6.967
       6.643
       6.022
       5.315
       4.627
       4.021
       3.543
       3.180
       2.817
       2.294
       1.507
       0.502
      -0.541
      -1.408
      -1.986
      -2.318
      -2.526
      -2.669
      -2.677
      -2.454
      -2.036
      -1.650
      -1.576
      -1.946
      -2.641
      -3.382
      -3.897
      -4.059
      -3.913
      -3.598
      -3.215
      -2.722
      -1.952
      -0.753
       0.867
       2.711
       4.487
       5.936
       6.876
       7.188
       6.811
       5.803
       4.384
       2.892
       1.634
       0.735
       0.099
      -0.449
      -0.941
      -1.176
      -0.914
      -0.191
       0.541
       0.654
      -0.195
      -1.762
      -3.363
      -4.349
      -4.517
      -4.135
      -3.640
      -3.308
      -3.150
      -3.040
      -2.875
      -2.614
      -2.221
      -1.626
      -0.784
       0.267
       1.432
       2.622
       3.770
       4.783
       5.520
       5.845
       5.722
       5.232
       4.500
       3.609
       2.578
       1.426
       0.220
      -0.923
      -1.898
      -2.661
      -3.234
      -3.677
      -4.052
      -4.392
      -4.694
      -4.900
      -4.888
      -4.502
      -3.626
      -2.283
      -0.668
       0.911
       2.171
       2.963
       3.290
       3.271
       3.078
       2.880
       2.794
       2.855
       3.024
       3.205
       3.253
       3.008
       2.373
       1.391
       0.258
      -0.776
      -1.532
      -1.966
      -2.128
      -2.094
      -1.928
      -1.727
      -1.657
      -1.907
      -2.549
      -3.402
      -4.062
      -4.115
      -3.382
      -2.008
      -0.324
       1.357
       2.830
       3.971
       4.671
       4.846
       4.488
       3.694
       2.643
       1.557
       0.668
       0.159
       0.078
       0.279
       0.468
       0.365
      -0.140
      -0.942
      -1.813
      -2.552
      -3.058
      -3.311
      -3.308
      -3.046
      -2.574
      -2.045
      -1.663
      -1.555
      -1.660
      -1.777
      -1.715
      -1.406
      -0.897
      -0.252
       0.512
       1.410
       2.430
       3.475
       4.365
       4.901
       4.954
       4.513
       3.657
       2.513
       1.243
       0.046
      -0.853
      -1.274
      -1.167
      -0.660
      -0.028
       0.434
       0.544
       0.288
      -0.235
      -0.925
      -1.731
      -2.602
      -3.421
      -3.992
      -4.111
      -3.660
      -2.678
      -1.375
      -0.064
       0.969
       1.572
       1.743
       1.601
       1.324
       1.094
       1.030
       1.144
       1.362
       1.597
       1.802
       1.969
       2.077
       2.049
       1.774
       1.184
       0.336
      -0.578
      -1.324
      -1.740
      -1.800
      -1.579
      -1.177
      -0.675
      -0.151
       0.268
       0.409
       0.122
      -0.594
      -1.515
      -2.256
      -2.478
      -2.102
      -1.345
      -0.555
       0.039
       0.424
       0.717
       1.003
       1.252
       1.345
       1.150
       0.616
      -0.154
      -0.896
      -1.289
      -1.129
      -0.452
       0.492
       1.384
       1.987
       2.205
       2.071
       1.684
       1.160
       0.597
       0.061
      -0.391
      -0.711
      -0.886
      -0.965
      -1.045
      -1.200
      -1.413
      -1.584
      -1.592
      -1.361
      -0.889
      -0.249
       0.435
       1.027
       1.427
       1.600
       1.564
       1.345
