Origin Time       04/09/2008 12:53:21 UTC
Lat.              30.1°N 
Long.             80.4°E 
Depth (Km)         10.0
Magnitude         5.1
 Region           INDIA(UTTARAKHAND)-TIBET-BORDER-REGION                           
 Above details taken from IMD 
    
Station Code      KAP
Station Lat.       29.941  N
Station Long.      79.899  E
Station Height(m) 1066.0
Site Class        A   Vs30 between 700 m/sec to 1400 m/sec * 
Record Time       04.09.2008 12:53:12.009 UTC
Sampling Rate     200. Hz
 Record Duration   67.435 Sec.
 Direction         N-S (N positive)
Max. Acceleration      8.682 cm/sec**2
     
  * For reference see Site Classification link of website 
     
 Base Line Corrected and Low Pass Filtered (Cut Off at 35 Hz) Time History
 Acceleration data in cm/sec**2
    
[...]
       0.228
       0.199
       0.017
      -0.225
      -0.394
      -0.400
      -0.247
      -0.016
       0.191
       0.312
       0.341
       0.317
       0.284
       0.266
       0.251
       0.210
       0.128
       0.023
      -0.056
      -0.063
       0.007
       0.115
       0.196
       0.206
       0.136
       0.006
      -0.156
      -0.325
      -0.469
      -0.545
      -0.517
      -0.389
      -0.223
      -0.104
      -0.083
      -0.140
      -0.199
      -0.194
      -0.127
      -0.062
      -0.069
      -0.154
      -0.243
      -0.241
      -0.112
       0.080
       0.228
       0.268
       0.230
       0.190
       0.202
       0.249
       0.274
       0.243
       0.187
       0.176
       0.253
       0.398
       0.533
       0.569
       0.464
       0.231
      -0.066
      -0.344
      -0.526
      -0.571
      -0.482
      -0.309
      -0.123
       0.018
       0.086
       0.087
       0.042
      -0.026
      -0.097
      -0.155
      -0.185
      -0.176
      -0.132
      -0.066
       0.005
       0.070
       0.126
       0.163
       0.162
       0.108
       0.007
      -0.112
      -0.213
      -0.280
      -0.324
      -0.368
      -0.416
      -0.442
      -0.411
      -0.322
      -0.219
      -0.162
      -0.167
      -0.182
      -0.122
       0.060
       0.328
       0.582
       0.731
       0.756
       0.713
       0.672
       0.656
       0.635
       0.578
       0.493
       0.423
       0.389
       0.341
       0.190
      -0.109
      -0.487
      -0.792
      -0.888
      -0.754
      -0.499
      -0.275
      -0.168
      -0.154
      -0.148
      -0.079
       0.052
       0.188
       0.269
       0.279
       0.256
       0.253
       0.297
       0.363
       0.393
       0.342
       0.214
       0.054
      -0.085
      -0.186
      -0.277
      -0.388
      -0.505
      -0.569
      -0.527
      -0.387
      -0.223
      -0.112
      -0.075
      -0.060
       0.000
       0.108
       0.192
       0.164
       0.006
      -0.198
      -0.333
      -0.338
      -0.249
      -0.153
      -0.106
      -0.095
      -0.065
       0.020
       0.149
       0.276
       0.352
       0.350
       0.270
       0.139
       0.010
      -0.059
      -0.039
       0.052
       0.157
       0.224
       0.241
       0.231
       0.219
       0.204
       0.164
       0.089
      -0.002
      -0.063
      -0.061
      -0.008
       0.040
       0.020
      -0.094
      -0.265
      -0.419
      -0.493
      -0.480
      -0.428
      -0.392
      -0.397
      -0.416
      -0.404
      -0.325
      -0.178
      -0.002
       0.141
       0.191
       0.123
      -0.033
      -0.198
      -0.284
      -0.238
      -0.080
       0.120
       0.277
       0.344
       0.331
       0.281
       0.242
       0.244
       0.286
       0.346
       0.396
       0.408
       0.374
       0.306
       0.231
       0.172
       0.134
       0.100
       0.047
      -0.031
      -0.114
      -0.163
      -0.144
      -0.060
       0.045
       0.110
       0.098
       0.026
      -0.053
      -0.088
      -0.078
      -0.067
      -0.111
      -0.219
      -0.348
      -0.431
      -0.437
      -0.396
      -0.371
      -0.398
      -0.447
      -0.452
      -0.363
      -0.203
      -0.048
       0.028
       0.008
      -0.069
      -0.144
      -0.176
      -0.151
      -0.068
       0.063
       0.220
       0.366
       0.464
       0.500
       0.485
       0.441
       0.389
       0.338
       0.295
       0.265
       0.242
       0.207
       0.124
      -0.024
      -0.225
      -0.426
      -0.560
      -0.585
      -0.501
      -0.344
      -0.159
       0.029
       0.213
       0.380
       0.505
       0.550
       0.496
       0.358
       0.177
       0.001
      -0.137
      -0.218
      -0.235
      -0.189
      -0.090
       0.031
       0.121
       0.122
       0.015
      -0.168
      -0.360
      -0.512
      -0.614
      -0.673
      -0.666
      -0.535
      -0.236
       0.194
       0.633
       0.928
       0.987
       0.823
       0.528
       0.211
      -0.058
      -0.259
      -0.395
      -0.467
      -0.469
      -0.401
      -0.284
      -0.158
      -0.062
      -0.017
      -0.020
      -0.049
      -0.075
      -0.072
      -0.031
       0.043
       0.135
       0.234
       0.346
       0.479
       0.618
       0.723
       0.741
       0.644
       0.453
       0.223
       0.007
      -0.171
      -0.317
      -0.437
      -0.512
      -0.509
      -0.415
      -0.259
      -0.103
      -0.012
      -0.014
      -0.082
      -0.150
      -0.159
      -0.096
       0.004
       0.097
       0.171
       0.243
       0.324
       0.388
       0.386
       0.289
       0.127
      -0.028
      -0.120
      -0.150
      -0.171
      -0.231
      -0.335
      -0.438
      -0.495
      -0.503
      -0.494
      -0.493
      -0.477
      -0.390
      -0.193
       0.080
       0.337
       0.482
       0.469
       0.324
       0.113
      -0.089
      -0.220
      -0.243
      -0.147
       0.045
       0.274
       0.468
       0.580
       0.607
       0.577
       0.514
       0.410
       0.248
       0.027
      -0.213
      -0.405
      -0.493
      -0.462
      -0.338
      -0.174
      -0.030
       0.051
       0.047
      -0.033
      -0.149
      -0.242
      -0.254
      -0.153
       0.037
       0.243
       0.376
       0.370
       0.226
       0.003
      -0.212
      -0.343
      -0.356
      -0.264
      -0.116
       0.025
       0.104
       0.101
       0.030
      -0.079
      -0.193
      -0.297
      -0.377
      -0.419
      -0.402
      -0.310
      -0.150
       0.044
       0.229
       0.372
       0.476
       0.560
       0.638
       0.690
       0.675
       0.570
       0.389
       0.173
      -0.034
      -0.199
      -0.304
      -0.337
      -0.304
      -0.244
      -0.214
      -0.261
      -0.383
      -0.536
      -0.659
      -0.716
      -0.704
      -0.630
      -0.497
      -0.302
      -0.066
       0.157
       0.301
       0.336
       0.288
       0.219
       0.172
       0.142
       0.099
       0.023
      -0.069
      -0.139
      -0.167
      -0.160
      -0.136
      -0.101
      -0.037
       0.070
       0.205
       0.319
       0.367
       0.346
       0.299
       0.280
       0.314
       0.383
       0.457
       0.524
       0.590
       0.654
       0.681
       0.621
       0.456
       0.225
      -0.001
      -0.165
      -0.266
      -0.347
      -0.456
      -0.605
      -0.760
      -0.863
      -0.881
      -0.820
      -0.726
      -0.641
      -0.574
      -0.494
      -0.354
      -0.135
       0.133
       0.389
       0.575
       0.672
       0.695
       0.673
       0.623
       0.538
       0.400
       0.215
       0.027
      -0.098
      -0.121
      -0.068
      -0.019
      -0.053
      -0.195
      -0.402
      -0.591
      -0.693
      -0.686
      -0.597
      -0.463
      -0.304
      -0.118
       0.093
       0.296
       0.446
       0.518
       0.535
       0.547
       0.584
       0.633
       0.651
       0.615
       0.548
       0.497
       0.490
       0.501
       0.474
       0.360
       0.144
      -0.152
      -0.486
      -0.805
      -1.055
      -1.193
      -1.193
      -1.062
      -0.832
      -0.563
      -0.321
      -0.167
      -0.131
      -0.198
      -0.319
      -0.426
      -0.453
      -0.345
      -0.076
       0.330
       0.789
       1.177
       1.385
       1.368
       1.162
       0.863
       0.579
       0.391
       0.328
       0.362
       0.433
       0.483
       0.481
       0.430
       0.354
       0.279
       0.226
       0.202
       0.203
       0.218
       0.226
       0.210
       0.163
       0.099
       0.037
      -0.016
      -0.071
      -0.151
      -0.260
      -0.368
      -0.422
      -0.375
      -0.213
       0.042
       0.329
       0.571
       0.688
       0.630
       0.401
       0.060
      -0.301
      -0.593
      -0.760
      -0.790
      -0.703
      -0.535
      -0.326
      -0.121
       0.025
       0.065
      -0.011
      -0.162
      -0.322
      -0.443
      -0.524
      -0.606
      -0.728
      -0.884
      -1.024
      -1.074
      -0.995
      -0.804
      -0.568
      -0.360
      -0.219
      -0.132
      -0.060
       0.021
       0.092
       0.116
       0.074
      -0.001
      -0.056
      -0.051
       0.015
       0.115
       0.234
       0.371
       0.528
       0.686
       0.805
       0.866
       0.895
       0.958
       1.110
       1.341
       1.573
       1.704
       1.674
       1.501
       1.255
       1.001
       0.756
       0.497
       0.196
      -0.132
      -0.428
      -0.620
      -0.667
      -0.573
      -0.378
      -0.137
       0.089
       0.239
       0.250
       0.085
      -0.251
      -0.692
      -1.134
      -1.478
      -1.669
      -1.710
      -1.640
      -1.506
      -1.348
      -1.191
      -1.056
      -0.949
      -0.867
      -0.791
      -0.690
      -0.536
      -0.311
      -0.038
       0.229
       0.425
       0.516
       0.524
       0.504
       0.510
       0.556
       0.625
       0.702
       0.816
       1.030
       1.402
       1.922
       2.492
       2.964
       3.215
       3.207
       2.977
       2.589
       2.074
       1.421
       0.612
      -0.331
      -1.323
      -2.241
      -2.970
      -3.445
      -3.675
      -3.727
      -3.681
      -3.589
      -3.446
      -3.216
      -2.884
      -2.500
      -2.163
      -1.970
      -1.945
      -2.014
      -2.034
      -1.857
      -1.405
      -0.699
       0.155
       1.026
       1.795
       2.371
       2.686
       2.697
       2.408
       1.890
       1.268
       0.694
       0.313
       0.232
       0.503
       1.117
       1.994
       3.007
       4.005
       4.847
       5.413
       5.614
       5.396
       4.752
       3.735
       2.446
       1.006
      -0.464
      -1.834
      -2.957
      -3.690
      -3.943
      -3.727
      -3.147
      -2.344
      -1.449
      -0.564
       0.228
       0.842
       1.192
       1.208
       0.844
       0.099
      -0.971
      -2.234
      -3.499
      -4.571
      -5.294
      -5.589
      -5.429
      -4.821
      -3.799
      -2.455
      -0.971
       0.403
       1.437
       2.009
       2.137
       1.921
       1.467
       0.840
       0.086
      -0.709
      -1.412
      -1.875
      -2.004
      -1.800
      -1.326
      -0.656
       0.163
       1.084
       2.014
       2.805
       3.312
       3.486
       3.414
       3.255
       3.113
       2.960
       2.686
       2.224
       1.652
       1.160
       0.914
       0.932
       1.086
       1.228
       1.307
       1.381
       1.527
       1.733
       1.877
       1.794
       1.382
       0.655
      -0.264
      -1.228
      -2.134
      -2.960
      -3.726
      -4.443
      -5.063
      -5.482
      -5.578
      -5.257
      -4.502
      -3.396
      -2.111
      -0.872
       0.111
       0.701
       0.867
       0.670
       0.238
      -0.272
      -0.707
      -0.948
      -0.937
      -0.668
      -0.162
       0.566
       1.506
       2.618
       3.799
       4.873
       5.653
       6.022
       5.993
       5.699
       5.322
       5.001
       4.785
       4.641
       4.509
       4.354
       4.161
       3.898
       3.483
       2.801
       1.772
       0.415
      -1.145
      -2.732
      -4.193
      -5.417
      -6.309
      -6.757
      -6.653
      -5.966
      -4.829
      -3.555
      -2.548
      -2.137
      -2.437
      -3.322
      -4.509
      -5.700
      -6.651
      -7.184
      -7.159
      -6.484
      -5.177
      -3.402
      -1.441
       0.425
       2.016
       3.275
       4.206
       4.804
       5.052
       4.965
       4.641
       4.248
       3.946
       3.811
       3.805
       3.833
       3.835
       3.848
       3.965
       4.222
       4.511
       4.610
       4.316
       3.584
       2.563
       1.502
       0.595
      -0.107
      -0.677
      -1.213
      -1.754
      -2.264
      -2.694
      -3.051
      -3.405
      -3.831
      -4.333
      -4.807
      -5.104
      -5.119
      -4.843
      -4.333
      -3.651
      -2.831
      -1.911
      -0.963
      -0.095
       0.604
       1.108
       1.458
       1.724
       1.976
       2.266
       2.619
       3.028
       3.429
       3.692
       3.656
       3.181
       2.222
       0.862
      -0.702
      -2.213
      -3.422
      -4.151
      -4.312
      -3.915
      -3.057
      -1.908
      -0.684
       0.386
       1.104
       1.348
       1.090
       0.423
      -0.443
      -1.209
      -1.554
      -1.245
      -0.252
       1.222
       2.815
       4.160
       5.031
       5.385
       5.302
       4.885
       4.207
       3.328
       2.340
       1.370
       0.537
      -0.100
      -0.559
      -0.909
      -1.212
      -1.489
      -1.717
      -1.853
      -1.872
      -1.777
      -1.609
      -1.446
      -1.391
      -1.541
      -1.954
      -2.616
      -3.453
      -4.364
      -5.240
      -5.963
      -6.387
      -6.342
      -5.697
      -4.449
      -2.773
      -0.999
       0.499
       1.445
       1.750
       1.515
       0.959
       0.344
      -0.090
      -0.146
       0.300
       1.270
       2.680
       4.348
       6.037
       7.483
       8.434
       8.682
       8.110
       6.736
       4.734
       2.404
       0.116
      -1.770
      -2.977
      -3.358
      -2.928
      -1.865
      -0.465
       0.929
       2.024
       2.631
       2.685
       2.215
       1.313
       0.116
      -1.207
      -2.462
      -3.458
      -4.045
      -4.167
      -3.887
      -3.374
      -2.842
      -2.470
      -2.340
      -2.422
      -2.616
      -2.818
      -2.971
      -3.071
      -3.113
      -3.044
      -2.758
      -2.142
      -1.151
       0.149
       1.590
       2.943
       3.972
       4.497
       4.450
       3.912
       3.098
       2.281
       1.688
       1.421
       1.454
       1.693
       2.048
       2.465
       2.907
       3.312
       3.592
       3.663
       3.499
       3.150
       2.700
       2.210
       1.682
       1.088
       0.422
      -0.278
      -0.964
      -1.618
      -2.258
      -2.890
      -3.455
      -3.829
      -3.903
      -3.667
      -3.257
      -2.888
      -2.752
      -2.917
      -3.316
      -3.815
      -4.299
      -4.714
      -5.036
      -5.213
      -5.148
      -4.743
      -3.984
      -2.976
      -1.910
      -0.986
      -0.326
       0.040
       0.167
       0.170
       0.206
       0.453
       1.047
       2.021
       3.271
       4.598
       5.782
       6.653
       7.121
       7.163
       6.820
       6.195
       5.438
       4.701
       4.083
       3.592
       3.171
       2.740
       2.242
       1.647
       0.945
       0.150
      -0.688
      -1.474
      -2.090
      -2.447
      -2.517
      -2.343
      -2.009
      -1.613
      -1.246
      -0.995
      -0.940
      -1.124
      -1.523
      -2.028
      -2.495
      -2.828
      -3.032
      -3.190
      -3.379
      -3.598
      -3.777
      -3.849
      -3.822
      -3.781
      -3.813
      -3.917
      -3.977
      -3.813
      -3.289
      -2.391
      -1.233
       0.012
       1.189
       2.206
       3.016
       3.588
       3.888
       3.898
       3.649
       3.241
       2.809
       2.468
       2.278
       2.249
       2.387
       2.713
       3.241
       3.923
       4.633
       5.207
       5.519
       5.549
       5.373
       5.080
       4.686
       4.116
       3.276
       2.165
       0.918
      -0.270
      -1.270
      -2.090
      -2.826
      -3.546
      -4.213
      -4.720
      -4.995
      -5.074
      -5.088
      -5.169
      -5.365
      -5.625
      -5.849
      -5.965
      -5.952
      -5.813
      -5.528
      -5.036
      -4.279
      -3.267
      -2.116
      -1.022
      -0.160
       0.401
       0.725
       0.953
       1.219
       1.588
       2.062
       2.620
       3.262
       3.999
       4.812
       5.621
       6.297
       6.712
       6.792
       6.530
       5.963
       5.142
       4.140
       3.071
       2.087
       1.333
       0.873
       0.657
       0.570
       0.513
       0.447
       0.380
       0.297
       0.135
      -0.186
      -0.688
      -1.288
      -1.824
      -2.143
      -2.194
      -2.057
      -1.886
      -1.815
      -1.896
      -2.098
      -2.347
      -2.579
      -2.759
      -2.872
      -2.910
      -2.875
      -2.779
      -2.640
      -2.470
      -2.265
      -2.015
      -1.731
      -1.455
      -1.251
      -1.169
      -1.213
      -1.336
      -1.451
      -1.469
      -1.325
      -0.992
      -0.490
       0.124
       0.763
       1.333
       1.770
       2.050
       2.189
       2.214
       2.153
       2.041
       1.942
       1.942
       2.111
       2.457
       2.906
       3.329
       3.607
       3.665
       3.486
       3.082
       2.484
       1.749
       0.981
       0.313
      -0.136
      -0.331
      -0.350
      -0.354
      -0.496
      -0.849
      -1.381
      -1.998
      -2.612
      -3.166
      -3.626
      -3.946
      -4.074
      -3.981
      -3.698
      -3.320
      -2.959
      -2.682
      -2.480
      -2.285
      -2.010
      -1.591
      -1.002
      -0.261
       0.578
       1.438
       2.235
       2.898
       3.382
       3.675
       3.785
       3.729
       3.522
       3.192
       2.787
       2.387
       2.085
       1.944
       1.958
       2.048
       2.100
       2.022
       1.788
       1.425
       0.971
       0.450
      -0.120
      -0.693
      -1.190
      -1.524
      -1.659
      -1.625
      -1.502
      -1.366
      -1.263
      -1.213
      -1.233
      -1.345
      -1.557
      -1.851
      -2.181
      -2.495
      -2.745
      -2.888
      -2.884
      -2.700
      -2.332
      -1.821
      -1.246
      -0.700
      -0.267
      -0.003
       0.062
      -0.066
      -0.338
      -0.662
      -0.929
      -1.048
      -0.980
      -0.735
      -0.339
       0.182
       0.799
       1.455
       2.062
       2.522
       2.779
       2.847
       2.790
       2.684
       2.579
       2.489
       2.418
       2.372
       2.372
       2.440
       2.585
       2.779
       2.960
       3.052
       2.996
       2.776
       2.417
       1.950
       1.381
       0.700
      -0.084
      -0.910
      -1.676
      -2.285
      -2.692
      -2.933
      -3.087
      -3.235
      -3.417
      -3.635
      -3.865
      -4.081
      -4.254
      -4.335
      -4.264
      -3.989
      -3.502
      -2.847
      -2.098
      -1.319
      -0.554
       0.163
       0.799
       1.323
       1.726
       2.034
       2.293
       2.554
       2.845
       3.161
       3.471
       3.724
       3.873
       3.892
       3.786
       3.597
       3.378
       3.163
       2.937
       2.637
       2.191
       1.569
       0.821
       0.046
      -0.671
      -1.312
      -1.914
      -2.501
      -3.020
      -3.354
      -3.396
      -3.133
      -2.662
      -2.138
