Origin Time       01/05/2009 22:36:25
Lat.              29.9 N 
Long.             80.1 E 
Depth (Km)         10.0
Magnitude         4.6
 Region           Bageshwar-Uttarakhand                                            
 Above details taken from IMD 
     
Station Code      KAP
Station Lat.       29.941  N
Station Long.      79.899  E
Station Height(m) 1066.0
Site Class        A   Vs30 between 700 m/sec to 1400 m/sec * 
Record Time       01.05.2010 22:36:09.679
Sampling Rate     200. Hz
 Record Duration   70.785 Sec.
 Direction         E-W (E positive)
Max. Acceleration     77.266 cm/sec**2
     
  * For reference see Site Classification link of website 
     
 Base Line Corrected and Low Pass Filtered (Cut Off at 35 Hz) Time History
 Acceleration data in cm/sec**2
    
[...]
      -0.012
      -0.009
      -0.007
      -0.007
      -0.008
      -0.007
      -0.007
      -0.008
      -0.009
      -0.010
      -0.010
      -0.007
      -0.003
       0.001
       0.003
       0.001
      -0.003
      -0.006
      -0.007
      -0.005
      -0.004
      -0.004
      -0.005
      -0.006
      -0.006
      -0.007
      -0.008
      -0.010
      -0.013
      -0.014
      -0.013
      -0.007
       0.000
       0.004
       0.000
      -0.008
      -0.016
      -0.017
      -0.013
      -0.008
      -0.008
      -0.011
      -0.014
      -0.016
      -0.017
      -0.018
      -0.018
      -0.016
      -0.010
      -0.002
       0.005
       0.006
       0.003
      -0.003
      -0.007
      -0.007
      -0.003
       0.001
       0.001
      -0.001
      -0.004
      -0.004
      -0.005
      -0.007
      -0.011
      -0.015
      -0.016
      -0.012
      -0.008
      -0.009
      -0.014
      -0.020
      -0.021
      -0.014
      -0.006
      -0.002
      -0.005
      -0.015
      -0.025
      -0.027
      -0.022
      -0.012
      -0.006
      -0.007
      -0.011
      -0.013
      -0.011
      -0.005
      -0.002
      -0.006
      -0.017
      -0.028
      -0.034
      -0.031
      -0.022
      -0.013
      -0.007
      -0.005
      -0.005
      -0.008
      -0.012
      -0.017
      -0.019
      -0.015
      -0.006
       0.001
       0.001
      -0.005
      -0.010
      -0.011
      -0.006
      -0.001
       0.001
       0.003
       0.006
       0.007
       0.005
      -0.001
      -0.008
      -0.010
      -0.006
       0.000
       0.003
       0.003
       0.000
      -0.004
      -0.008
      -0.011
      -0.014
      -0.013
      -0.009
      -0.005
      -0.004
      -0.005
      -0.006
      -0.005
      -0.003
      -0.002
      -0.003
      -0.004
      -0.004
      -0.003
      -0.003
      -0.004
      -0.005
      -0.007
      -0.008
      -0.007
      -0.007
      -0.009
      -0.013
      -0.018
      -0.020
      -0.018
      -0.012
      -0.008
      -0.008
      -0.011
      -0.012
      -0.011
      -0.011
      -0.013
      -0.019
      -0.024
      -0.025
      -0.022
      -0.016
      -0.011
      -0.008
      -0.008
      -0.011
      -0.015
      -0.017
      -0.017
      -0.015
      -0.013
      -0.012
      -0.011
      -0.010
      -0.008
      -0.006
      -0.005
      -0.001
       0.003
       0.006
       0.005
       0.002
       0.000
      -0.001
      -0.002
      -0.004
      -0.008
      -0.010
      -0.008
      -0.001
       0.008
       0.012
       0.007
      -0.004
      -0.016
      -0.022
      -0.021
      -0.015
      -0.009
      -0.006
      -0.005
      -0.005
      -0.005
      -0.004
      -0.002
      -0.001
      -0.001
      -0.003
      -0.006
      -0.006
      -0.003
      -0.001
      -0.001
      -0.004
      -0.006
      -0.005
      -0.002
       0.001
       0.002
      -0.001
      -0.007
      -0.013
      -0.015
      -0.014
      -0.011
      -0.006
      -0.001
       0.004
       0.007
       0.006
       0.003
       0.001
      -0.001
      -0.003
      -0.007
      -0.010
      -0.011
      -0.008
      -0.005
      -0.004
      -0.008
      -0.013
      -0.017
      -0.017
      -0.013
      -0.009
      -0.010
      -0.018
      -0.031
      -0.040
      -0.040
      -0.029
      -0.014
      -0.002
       0.001
      -0.002
      -0.008
      -0.012
      -0.013
      -0.013
      -0.012
      -0.009
      -0.006
      -0.005
      -0.007
      -0.007
      -0.006
      -0.004
      -0.004
      -0.006
      -0.008
      -0.010
      -0.009
      -0.008
      -0.005
      -0.002
      -0.001
      -0.001
       0.000
       0.002
       0.001
      -0.005
      -0.013
      -0.018
      -0.016
      -0.010
      -0.004
      -0.004
      -0.010
      -0.015
      -0.014
      -0.008
       0.000
       0.004
       0.004
       0.001
      -0.002
      -0.003
      -0.003
      -0.004
      -0.005
      -0.007
      -0.008
      -0.009
      -0.008
      -0.009
      -0.011
      -0.015
      -0.017
      -0.017
      -0.015
      -0.014
      -0.013
      -0.012
      -0.008
      -0.002
       0.003
       0.002
      -0.006
      -0.016
      -0.022
      -0.023
      -0.019
      -0.011
      -0.004
      -0.001
      -0.003
      -0.008
      -0.011
      -0.011
      -0.008
      -0.006
      -0.006
      -0.005
      -0.004
      -0.003
      -0.005
      -0.009
      -0.012
      -0.013
      -0.008
       0.000
       0.008
       0.010
       0.006
      -0.001
      -0.007
      -0.009
      -0.007
      -0.007
      -0.010
      -0.013
      -0.015
      -0.014
      -0.012
      -0.011
      -0.012
      -0.014
      -0.015
      -0.013
      -0.011
      -0.010
      -0.011
      -0.011
      -0.008
      -0.002
       0.005
       0.008
       0.007
       0.003
      -0.001
      -0.003
      -0.005
      -0.005
      -0.005
      -0.005
      -0.007
      -0.011
      -0.015
      -0.016
      -0.014
      -0.010
      -0.006
      -0.003
       0.000
       0.002
       0.003
       0.002
      -0.001
      -0.004
      -0.006
      -0.007
      -0.004
       0.002
       0.009
       0.012
       0.009
       0.000
      -0.008
      -0.010
      -0.008
      -0.003
      -0.001
      -0.005
      -0.009
      -0.009
      -0.003
       0.003
       0.003
      -0.002
      -0.008
      -0.010
      -0.006
      -0.002
      -0.002
      -0.005
      -0.010
      -0.013
      -0.012
      -0.007
      -0.002
       0.000
      -0.003
      -0.007
      -0.008
      -0.005
       0.002
       0.007
       0.007
       0.004
      -0.001
      -0.006
      -0.007
      -0.006
      -0.003
       0.001
       0.004
       0.006
       0.004
      -0.001
      -0.009
      -0.017
      -0.023
      -0.023
      -0.018
      -0.010
      -0.004
      -0.006
      -0.014
      -0.022
      -0.023
      -0.017
      -0.007
       0.000
       0.001
      -0.003
      -0.006
      -0.009
      -0.009
      -0.008
      -0.006
      -0.005
      -0.005
      -0.004
      -0.002
      -0.001
      -0.002
      -0.004
      -0.007
      -0.008
      -0.004
       0.002
       0.005
       0.002
      -0.005
      -0.010
      -0.012
      -0.010
      -0.004
       0.002
       0.009
       0.014
       0.014
       0.013
       0.012
       0.013
       0.014
       0.015
       0.011
       0.005
       0.000
      -0.001
       0.001
       0.002
       0.001
      -0.001
      -0.001
       0.002
       0.008
       0.012
       0.013
       0.011
       0.006
       0.001
      -0.003
      -0.005
      -0.003
       0.002
       0.008
       0.012
       0.015
       0.013
       0.009
       0.004
       0.001
       0.000
       0.001
       0.002
       0.002
       0.001
       0.000
      -0.001
       0.000
       0.003
       0.005
       0.007
       0.008
       0.008
       0.009
       0.011
       0.014
       0.014
       0.012
       0.010
       0.009
       0.011
       0.011
       0.008
       0.001
      -0.007
      -0.010
       0.000
       0.019
       0.032
       0.019
      -0.024
      -0.065
      -0.068
      -0.053
      -0.134
      -0.450
      -0.972
      -1.358
      -1.082
       0.137
       1.914
       3.255
       3.191
       1.501
      -1.152
      -3.786
      -5.721
      -6.632
      -6.222
      -4.178
      -0.617
       3.595
       7.227
       9.424
       9.808
       7.933
       3.315
      -3.386
      -9.569
     -12.214
     -10.768
      -7.826
      -6.102
      -4.928
      -0.901
       7.444
      16.407
      19.745
      14.636
       4.526
      -3.874
      -6.117
      -3.023
       0.853
       1.332
      -2.201
      -6.772
      -8.541
      -5.955
      -0.919
       2.952
       3.425
       1.160
      -1.469
      -2.485
      -1.261
       1.835
       5.937
       9.761
      11.857
      11.470
       9.257
       6.736
       4.671
       2.139
      -2.477
      -9.538
     -17.361
     -23.365
     -25.769
     -24.033
     -18.263
      -9.190
       1.212
      10.075
      15.464
      17.729
      18.546
      18.566
      16.500
      10.743
       1.568
      -8.630
     -16.994
     -21.703
     -22.108
     -18.282
     -10.979
      -1.848
       6.742
      12.554
      14.682
      14.195
      13.398
      13.934
      15.281
      15.171
      11.762
       5.608
      -0.476
      -3.632
      -3.245
      -1.158
       0.191
      -0.259
      -1.908
      -3.602
      -4.692
      -5.174
      -5.346
      -5.675
      -6.842
      -9.410
     -13.118
     -16.621
     -18.212
     -16.896
     -12.825
      -7.042
      -1.195
       2.721
       3.114
      -0.026
      -4.592
      -7.366
      -5.971
      -0.249
       7.826
      15.364
      20.104
      21.508
      20.770
      19.715
      19.360
      19.230
      17.988
      14.774
       9.961
       4.683
      -0.170
      -4.382
      -8.008
     -10.793
     -12.111
     -11.438
      -8.925
      -5.561
      -2.723
      -1.401
      -1.661
      -2.770
      -3.915
      -4.905
      -6.191
      -8.204
     -10.650
     -12.473
     -12.595
     -10.798
      -7.905
      -5.187
      -3.551
      -3.123
      -3.411
      -3.825
      -3.960
      -3.429
      -1.675
       1.728
       6.578
      11.944
      16.564
      19.319
      19.540
      17.174
      12.881
       7.915
       3.636
       0.879
      -0.286
      -0.270
       0.399
       1.147
       1.360
       0.676
      -0.668
      -1.915
      -2.414
      -2.251
      -2.283
      -3.481
      -6.112
      -9.471
     -12.332
     -13.708
     -13.354
     -11.743
      -9.558
      -7.099
      -4.187
      -0.664
       3.034
       5.891
       7.036
       6.576
       5.790
       6.290
       8.728
      12.118
      14.425
      13.975
      10.590
       5.681
       1.268
      -1.367
      -2.467
      -3.415
      -5.410
      -8.330
     -10.816
     -11.525
     -10.323
      -8.247
      -6.369
      -4.809
      -2.905
      -0.286
       2.369
       3.663
       2.615
      -0.428
      -3.859
      -5.803
      -5.283
      -2.704
       0.655
       3.666
       6.016
       7.982
       9.728
      10.936
      11.157
      10.370
       9.051
       7.721
       6.543
       5.338
       3.858
       2.001
      -0.152
      -2.411
      -4.602
      -6.646
      -8.430
      -9.583
      -9.559
      -8.159
      -6.005
      -4.355
      -4.280
      -5.851
      -8.006
      -9.223
      -8.531
      -6.135
      -3.195
      -0.955
       0.041
       0.086
      -0.071
       0.318
       1.699
       4.044
       6.770
       8.879
       9.444
       8.256
       6.101
       4.371
       4.261
       6.072
       8.966
      11.319
      11.578
       9.199
       4.979
       0.490
      -2.958
      -4.982
      -5.915
      -6.050
      -5.204
      -3.083
      -0.020
       2.720
       3.517
       1.516
      -2.598
      -6.851
      -9.203
      -8.889
      -6.872
      -5.058
      -4.840
      -6.081
      -7.281
      -6.803
      -4.158
      -0.320
       3.133
       5.174
       5.755
       5.347
       4.321
       2.828
       1.106
      -0.353
      -1.070
      -0.899
      -0.025
       1.223
       2.402
       2.856
       1.869
      -0.855
      -4.767
      -8.566
     -10.819
     -10.638
      -7.981
      -3.556
       1.452
       5.738
       8.316
       8.931
       8.128
       6.846
       5.825
       5.340
       5.396
       5.991
       7.076
       8.272
       8.701
       7.268
       3.425
      -2.117
      -7.388
     -10.095
      -8.958
      -4.545
       1.067
       5.533
       7.458
       6.775
       4.271
       0.863
      -2.750
      -6.029
      -8.462
      -9.617
      -9.394
      -8.260
      -7.191
      -7.166
      -8.400
      -9.947
     -10.220
      -8.226
      -4.533
      -1.027
       0.460
      -0.567
      -3.184
      -6.047
      -8.404
     -10.241
     -11.681
     -12.387
     -11.609
      -8.803
      -4.167
       1.408
       6.795
      10.985
      13.162
      12.811
      10.103
       6.294
       3.480
       3.467
       6.454
      10.763
      14.024
      14.822
      13.347
      10.671
       7.659
       4.656
       2.003
       0.412
       0.550
       2.211
       4.043
       4.252
       1.824
      -2.619
      -6.919
      -8.474
      -5.762
       0.693
       8.637
      15.499
      19.747
      21.114
      19.844
      15.987
       9.479
       0.798
      -8.589
     -16.425
     -20.409
     -19.011
     -12.013
      -0.598
      13.008
      26.199
      36.665
      42.877
      44.306
      41.390
      35.267
      27.295
      18.530
       9.458
       0.209
      -8.909
     -17.090
     -23.363
     -27.424
     -30.121
     -33.008
     -37.298
     -43.196
     -50.065
     -57.029
     -63.322
     -68.083
     -69.853
     -66.453
     -55.845
     -37.777
     -14.912
       7.979
      26.609
      39.289
      46.461
      48.585
      45.329
      37.082
      26.361
      16.622
       9.419
       3.337
      -3.823
     -11.891
     -17.741
     -18.080
     -12.979
      -6.721
      -5.077
     -11.287
     -23.826
     -37.323
     -45.613
     -44.693
     -33.901
     -15.272
       7.803
      31.572
      52.461
      67.639
      75.752
      77.266
      73.917
      67.591
      59.564
      50.578
      41.362
      32.999
      26.912
      24.464
      26.126
      30.629
      34.964
      35.632
      30.408
      19.356
       4.446
     -11.700
     -26.903
     -39.814
     -49.736
     -56.443
     -60.277
     -62.299
     -64.016
     -66.592
     -70.092
     -73.390
     -74.758
     -72.763
     -66.948
     -57.984
     -47.262
     -36.184
     -25.465
     -14.903
      -3.820
       8.079
      20.077
      30.535
      37.648
      40.373
      38.948
      34.722
      29.493
      24.806
      21.536
      19.870
      19.590
      20.418
      22.189
      24.802
      28.041
      31.435
      34.271
      35.762
      35.283
      32.638
      28.256
      23.136
      18.418
      14.816
      12.365
      10.704
       9.554
       8.811
       8.177
       6.898
       4.072
      -0.632
      -6.523
     -12.168
     -16.305
     -18.671
     -20.107
     -21.926
     -25.073
     -29.667
     -35.091
     -40.406
     -44.719
     -47.320
     -47.719
     -45.723
     -41.534
     -35.789
     -29.430
     -23.371
     -18.101
     -13.481
      -8.884
      -3.616
       2.614
       9.491
      16.312
      22.430
      27.552
      31.714
      35.042
      37.551
      39.091
      39.440
      38.459
      36.279
      33.477
      31.012
      29.763
      29.905
      30.631
      30.501
      28.209
      23.276
      16.237
       8.261
       0.483
      -6.507
     -12.732
     -18.487
     -23.926
     -28.945
     -33.376
     -37.237
     -40.730
     -43.979
     -46.708
     -48.192
     -47.569
     -44.304
     -38.469
     -30.697
     -21.936
     -13.193
      -5.347
       1.003
       5.646
       8.784
      10.906
      12.533
      13.995
      15.388
      16.693
      17.901
      19.088
      20.421
      22.093
      24.191
      26.569
      28.814
      30.385
      30.844
      30.038
      28.126
      25.493
      22.578
      19.668
      16.800
      13.796
      10.405
       6.460
       1.984
      -2.780
      -7.447
     -11.571
     -14.703
     -16.470
     -16.733
     -15.741
     -14.153
     -12.881
     -12.750
     -14.162
     -16.900
     -20.213
     -23.126
     -24.863
     -25.167
     -24.369
     -23.144
     -22.060
     -21.242
     -20.382
     -19.075
     -17.128
     -14.620
     -11.711
      -8.449
      -4.740
      -0.531
       4.005
       8.460
      12.374
      15.494
      17.915
      19.981
      22.060
      24.393
      27.056
      29.910
      32.505
      34.098
      33.907
      31.528
      27.209
      21.762
      16.119
      10.845
       6.001
       1.362
      -3.257
      -7.857
     -12.327
     -16.527
     -20.235
     -23.042
     -24.377
     -23.781
     -21.264
     -17.462
     -13.456
     -10.323
      -8.682
      -8.481
      -9.087
      -9.622
      -9.360
      -8.009
      -5.756
      -3.117
      -0.707
       0.978
       1.739
       1.791
       1.692
       2.023
       3.021
       4.451
       5.812
       6.660
       6.811
       6.332
       5.439
       4.410
       3.557
       3.144
       3.258
       3.730
       4.209
       4.352
       3.973
       3.076
       1.812
       0.429
      -0.795
      -1.658
      -2.146
      -2.449
      -2.824
      -3.380
      -3.964
      -4.254
      -3.992
      -3.177
      -2.075
      -1.027
      -0.244
       0.248
       0.523
       0.679
       0.831
       1.100
       1.560
       2.179
       2.834
       3.446
       4.095
       4.987
       6.257
       7.816
       9.378
      10.644
      11.419
      11.620
      11.227
      10.312
       9.080
       7.803
       6.645
       5.514
       4.115
       2.193
      -0.254
      -3.007
      -5.816
      -8.538
     -11.102
     -13.407
     -15.265
     -16.466
     -16.914
     -16.716
     -16.175
     -15.685
     -15.545
     -15.750
     -15.923
     -15.509
     -14.137
     -11.892
      -9.269
      -6.836
      -4.881
      -3.327
      -1.927
      -0.551
       0.722
       1.738
       2.494
       3.259
       4.471
       6.499
       9.414
      12.929
      16.513
      19.601
      21.796
      22.978
      23.268
      22.859
      21.867
      20.318
      18.250
      15.809
      13.236
      10.723
       8.273
       5.665
       2.612
      -1.004
      -4.966
      -8.777
     -11.926
     -14.187
     -15.747
     -17.018
     -18.277
     -19.400
     -19.934
     -19.473
     -17.997
     -15.881
     -13.573
     -11.285
      -8.934
      -6.341
      -3.436
      -0.323
       2.795
       5.693
       8.117
       9.747
      10.242
       9.436
       7.549
       5.203
       3.168
       1.975
       1.679
       1.934
       2.301
       2.508
       2.492
       2.268
       1.850
       1.275
       0.650
       0.139
      -0.103
       0.022
       0.546
       1.421
       2.491
       3.495
       4.156
       4.346
       4.198
       4.046
       4.191
       4.644
       5.074
       5.026
       4.221
       2.714
       0.809
      -1.162
      -2.976
      -4.509
      -5.660
      -6.345
      -6.584
      -6.548
      -6.474
      -6.503
      -6.598
      -6.602
      -6.379
      -5.932
      -5.415
      -5.060
      -5.040
      -5.321
      -5.620
      -5.528
      -4.749
      -3.292
      -1.468
       0.290
       1.671
       2.615
       3.261
       3.782
       4.258
       4.648
       4.836
       4.687
       4.128
       3.223
       2.237
       1.594
       1.721
       2.840
       4.816
       7.181
       9.315
      10.681
      11.010
      10.375
       9.127
       7.746
       6.636
       5.971
       5.657
       5.417
       4.951
       4.098
       2.883
