Origin Time       19/08/2008 10:54:26 UTC
Lat.              30.1°N 
Long.             80.1°E 
Depth (Km)         15.0
Magnitude         4.3
 Region           PITHORAGARH                                                      
 Above details taken from IMD 
    
Station Code      KAP
Station Lat.       29.941  N
Station Long.      79.899  E
Station Height(m) 1066.0
Site Class        A   Vs30 between 700 m/sec to 1400 m/sec * 
Record Time       19.08.2008 10:54:15.919 UTC
Sampling Rate     200. Hz
 Record Duration   70.995 Sec.
 Direction         N-S (N positive)
Max. Acceleration    -11.656 cm/sec**2
     
  * For reference see Site Classification link of website 
     
 Base Line Corrected and Low Pass Filtered (Cut Off at 35 Hz) Time History
 Acceleration data in cm/sec**2
    
[...]
       0.002
      -0.003
      -0.003
      -0.001
      -0.001
      -0.003
      -0.004
      -0.002
       0.002
       0.007
       0.011
       0.012
       0.007
      -0.003
      -0.015
      -0.022
      -0.023
      -0.018
      -0.011
      -0.005
      -0.002
       0.001
       0.002
       0.003
       0.001
      -0.002
      -0.008
      -0.013
      -0.017
      -0.019
      -0.017
      -0.014
      -0.009
      -0.005
      -0.003
      -0.003
      -0.006
      -0.011
      -0.016
      -0.018
      -0.015
      -0.006
       0.004
       0.013
       0.019
       0.020
       0.018
       0.014
       0.012
       0.011
       0.009
       0.004
      -0.003
      -0.007
      -0.007
      -0.002
       0.003
       0.005
       0.004
       0.002
       0.002
       0.004
       0.008
       0.010
       0.006
      -0.002
      -0.010
      -0.013
      -0.011
      -0.006
      -0.001
       0.002
       0.002
      -0.001
      -0.008
      -0.014
      -0.015
      -0.009
      -0.002
      -0.001
      -0.004
      -0.008
      -0.006
       0.002
       0.011
       0.016
       0.015
       0.009
       0.003
      -0.002
      -0.005
      -0.007
      -0.007
      -0.005
       0.000
       0.004
       0.005
       0.000
      -0.009
      -0.016
      -0.016
      -0.007
       0.005
       0.012
       0.011
       0.004
      -0.004
      -0.011
      -0.015
      -0.015
      -0.012
      -0.006
      -0.004
      -0.008
      -0.014
      -0.016
      -0.015
      -0.011
      -0.009
      -0.011
      -0.015
      -0.018
      -0.018
      -0.012
       0.000
       0.012
       0.015
       0.010
      -0.001
      -0.009
      -0.010
      -0.006
      -0.003
      -0.004
      -0.005
      -0.004
       0.000
       0.003
       0.000
      -0.006
      -0.012
      -0.015
      -0.014
      -0.010
      -0.007
      -0.005
      -0.003
      -0.001
       0.000
      -0.001
      -0.006
      -0.012
      -0.013
      -0.005
       0.008
       0.019
       0.020
       0.010
      -0.003
      -0.011
      -0.010
      -0.002
       0.006
       0.010
       0.007
       0.002
      -0.002
      -0.002
       0.001
       0.001
      -0.001
      -0.005
      -0.006
      -0.004
       0.001
       0.005
       0.007
       0.004
       0.000
      -0.005
      -0.009
      -0.013
      -0.018
      -0.021
      -0.016
      -0.002
       0.017
       0.032
       0.036
       0.025
       0.005
      -0.013
      -0.019
      -0.014
      -0.004
       0.003
       0.005
       0.003
       0.000
      -0.002
      -0.002
       0.001
       0.009
       0.016
       0.017
       0.009
      -0.003
      -0.010
      -0.011
      -0.006
      -0.002
      -0.001
      -0.001
       0.000
       0.003
       0.006
       0.006
       0.002
      -0.005
      -0.012
      -0.014
      -0.013
      -0.011
      -0.010
      -0.007
      -0.003
       0.001
       0.003
       0.003
       0.001
       0.000
       0.002
       0.007
       0.010
       0.009
       0.004
      -0.004
      -0.010
      -0.011
      -0.010
      -0.009
      -0.007
      -0.002
       0.007
       0.014
       0.015
       0.010
       0.006
       0.005
       0.005
       0.002
      -0.006
      -0.012
      -0.012
      -0.009
      -0.006
      -0.007
      -0.011
      -0.012
      -0.009
      -0.005
      -0.006
      -0.009
      -0.009
      -0.004
       0.002
       0.002
      -0.003
      -0.007
      -0.005
       0.006
       0.015
       0.014
       0.001
      -0.015
      -0.022
      -0.015
      -0.003
       0.003
      -0.002
      -0.010
      -0.010
      -0.003
       0.004
       0.003
      -0.001
      -0.003
       0.001
       0.006
       0.004
      -0.005
      -0.013
      -0.014
      -0.011
      -0.008
      -0.009
      -0.013
      -0.015
      -0.014
      -0.009
      -0.005
      -0.001
       0.003
       0.005
       0.004
       0.000
      -0.004
      -0.003
       0.004
       0.010
       0.010
       0.003
      -0.007
      -0.014
      -0.015
      -0.014
      -0.010
      -0.003
       0.007
       0.015
       0.017
       0.010
      -0.002
      -0.013
      -0.014
      -0.007
       0.002
       0.005
       0.000
      -0.008
      -0.010
      -0.003
       0.008
       0.012
       0.004
      -0.009
      -0.018
      -0.014
      -0.001
       0.011
       0.015
       0.010
      -0.004
      -0.028
      -0.052
      -0.064
      -0.050
      -0.014
       0.015
       0.001
      -0.066
      -0.148
      -0.181
      -0.129
      -0.036
      -0.002
      -0.095
      -0.265
      -0.359
      -0.240
       0.077
       0.392
       0.443
       0.105
      -0.467
      -0.908
      -0.896
      -0.442
       0.071
       0.190
      -0.205
      -0.741
      -0.821
      -0.086
       1.243
       2.405
       2.540
       1.305
      -0.748
      -2.429
      -2.716
      -1.517
       0.261
       1.423
       1.424
       0.770
       0.541
       1.370
       2.781
       3.480
       2.421
      -0.254
      -3.198
      -4.762
      -4.092
      -1.602
       1.416
       3.640
       4.429
       3.974
       2.896
       1.656
       0.288
      -1.334
      -3.017
      -4.162
      -4.189
      -3.015
      -1.102
       0.849
       2.213
       2.571
       1.799
       0.166
      -1.675
      -2.962
      -3.243
      -2.640
      -1.711
      -0.962
      -0.453
       0.136
       1.002
       1.811
       1.855
       0.731
      -1.089
      -2.441
      -2.370
      -0.929
       0.857
       1.830
       1.570
       0.593
      -0.200
      -0.296
       0.130
       0.575
       0.795
       1.002
       1.545
       2.470
       3.385
       3.696
       3.000
       1.383
      -0.564
      -2.054
      -2.540
      -1.999
      -0.839
       0.392
       1.238
       1.401
       0.753
      -0.566
      -2.079
      -3.161
      -3.416
      -2.912
      -2.030
      -1.080
      -0.102
       0.998
       2.159
       3.031
       3.148
       2.291
       0.744
      -0.808
      -1.683
      -1.618
      -0.895
      -0.103
       0.273
       0.149
      -0.182
      -0.350
      -0.202
       0.106
       0.244
      -0.045
      -0.742
      -1.484
      -1.748
      -1.205
      -0.014
       1.215
       1.830
       1.613
       0.930
       0.418
       0.480
       0.978
       1.347
       1.014
      -0.176
      -1.780
      -2.980
      -3.101
      -2.076
      -0.482
       0.865
       1.412
       1.106
       0.300
      -0.513
      -0.980
      -1.023
      -0.794
      -0.491
      -0.195
       0.153
       0.648
       1.312
       2.039
       2.630
       2.867
       2.626
       1.957
       1.085
       0.303
      -0.153
      -0.193
       0.094
       0.465
       0.609
       0.309
      -0.424
      -1.320
      -1.993
      -2.168
      -1.874
      -1.465
      -1.411
      -1.962
      -2.883
      -3.520
      -3.243
      -1.952
      -0.208
       1.145
       1.574
       1.195
       0.634
       0.537
       1.106
       1.985
       2.564
       2.473
       1.868
       1.288
       1.208
       1.669
       2.247
       2.383
       1.795
       0.677
      -0.485
      -1.285
      -1.640
      -1.742
      -1.823
      -1.968
      -2.104
      -2.117
      -1.952
      -1.628
      -1.179
      -0.640
      -0.094
       0.285
       0.301
      -0.097
      -0.687
      -1.055
      -0.894
      -0.284
       0.361
       0.660
       0.621
       0.603
       0.921
       1.489
       1.856
       1.633
       0.870
       0.051
      -0.269
       0.132
       0.993
       1.756
       1.961
       1.586
       1.048
       0.821
       1.001
       1.240
       1.105
       0.502
      -0.275
      -0.858
      -1.122
      -1.189
      -1.217
      -1.250
      -1.285
      -1.393
      -1.709
      -2.286
      -2.958
      -3.357
      -3.107
      -2.108
      -0.690
       0.534
       1.091
       0.991
       0.687
       0.674
       1.090
       1.655
       1.965
       1.867
       1.553
       1.339
       1.391
       1.667
       2.025
       2.303
       2.314
       1.892
       1.017
      -0.092
      -1.064
      -1.604
      -1.683
      -1.527
      -1.430
      -1.501
      -1.553
      -1.268
      -0.551
       0.259
       0.586
       0.085
      -1.018
      -2.049
      -2.396
      -1.973
      -1.239
      -0.744
      -0.658
      -0.703
      -0.499
       0.064
       0.749
       1.221
       1.328
       1.185
       1.032
       1.035
       1.203
       1.445
       1.667
       1.800
       1.782
       1.560
       1.146
       0.657
       0.284
       0.171
       0.275
       0.336
       0.054
      -0.660
      -1.586
      -2.337
      -2.610
      -2.370
      -1.833
      -1.294
      -0.928
      -0.706
      -0.511
      -0.305
      -0.182
      -0.261
      -0.525
      -0.790
      -0.847
      -0.624
      -0.244
       0.059
       0.096
      -0.145
      -0.468
      -0.567
      -0.246
       0.409
       1.081
       1.466
       1.513
       1.400
       1.306
       1.211
       0.935
       0.392
      -0.198
      -0.381
       0.207
       1.509
       3.007
       4.035
       4.192
       3.539
       2.437
       1.198
      -0.129
      -1.619
      -3.145
      -4.216
      -4.246
      -3.075
      -1.243
       0.320
       0.930
       0.555
      -0.330
      -1.212
      -1.895
      -2.483
      -3.117
      -3.709
      -3.906
      -3.294
      -1.685
       0.682
       3.179
       5.043
       5.744
       5.234
       3.913
       2.354
       0.997
       0.045
      -0.472
      -0.606
      -0.473
      -0.233
      -0.002
       0.209
       0.407
       0.466
       0.137
      -0.723
      -1.936
      -3.040
      -3.587
      -3.429
      -2.762
      -1.939
      -1.243
      -0.787
      -0.551
      -0.447
      -0.356
      -0.125
       0.382
       1.182
       2.081
       2.706
       2.693
       1.926
       0.666
      -0.541
      -1.169
      -1.029
      -0.383
       0.273
       0.585
       0.565
       0.493
       0.598
       0.848
       1.014
       0.900
       0.508
       0.027
      -0.296
      -0.281
       0.132
       0.855
       1.671
       2.284
       2.442
       2.056
       1.269
       0.412
      -0.166
      -0.344
      -0.330
      -0.509
      -1.110
      -1.978
      -2.678
      -2.838
      -2.443
      -1.839
      -1.467
      -1.548
      -1.950
      -2.291
      -2.199
      -1.562
      -0.610
       0.245
       0.719
       0.868
       0.990
       1.317
       1.794
       2.172
       2.250
       2.022
       1.641
       1.290
       1.105
       1.141
       1.357
       1.614
       1.724
       1.551
       1.062
       0.307
      -0.625
      -1.587
      -2.351
      -2.646
      -2.311
      -1.454
      -0.456
       0.226
       0.333
      -0.049
      -0.582
      -0.924
      -0.950
      -0.783
      -0.635
      -0.592
      -0.517
      -0.184
       0.465
       1.160
       1.446
       1.022
      -0.004
      -1.172
      -1.962
      -2.082
      -1.590
      -0.801
      -0.056
       0.501
       0.952
       1.416
       1.823
       1.945
       1.635
       1.043
       0.530
       0.354
       0.449
       0.518
       0.319
      -0.126
      -0.589
      -0.851
      -0.860
      -0.735
      -0.643
      -0.667
      -0.771
      -0.858
      -0.857
      -0.754
      -0.563
      -0.296
       0.042
       0.421
       0.790
       1.108
       1.374
       1.614
       1.824
       1.929
       1.800
       1.324
       0.509
      -0.472
      -1.322
      -1.770
      -1.743
      -1.445
      -1.257
      -1.485
      -2.139
      -2.892
      -3.271
      -2.949
      -1.956
      -0.687
       0.318
       0.681
       0.421
      -0.089
      -0.411
      -0.352
      -0.042
       0.262
       0.457
       0.680
       1.133
       1.812
       2.432
       2.622
       2.211
       1.351
       0.377
      -0.415
      -0.882
      -1.004
      -0.798
      -0.297
       0.422
       1.196
       1.804
       2.044
       1.827
       1.217
       0.422
      -0.292
      -0.722
      -0.828
      -0.701
      -0.381
       0.284
       1.522
       3.293
       5.078
       6.090
       5.810
       4.366
       2.429
       0.737
      -0.307
      -0.685
      -0.539
       0.034
       0.993
       2.213
       3.354
       3.868
       3.223
       1.224
      -1.810
      -5.166
      -8.088
     -10.065
     -10.882
     -10.488
      -8.896
      -6.279
      -3.149
      -0.329
       1.370
       1.549
       0.380
      -1.543
      -3.485
      -4.799
      -5.058
      -4.119
      -2.115
       0.610
       3.597
       6.344
       8.370
       9.284
       8.879
       7.225
       4.695
       1.886
      -0.562
      -2.174
      -2.765
      -2.381
      -1.165
       0.695
       2.848
       4.683
       5.457
       4.670
       2.438
      -0.421
      -2.770
      -3.786
      -3.435
      -2.394
      -1.484
      -1.047
      -0.791
      -0.174
       1.011
       2.352
       3.037
       2.383
       0.313
      -2.506
      -4.929
      -5.885
      -4.942
      -2.560
       0.153
       2.027
       2.384
       1.230
      -0.969
      -3.665
      -6.459
      -9.027
     -10.937
     -11.656
     -10.859
      -8.770
      -6.126
      -3.695
      -1.768
      -0.120
       1.514
       2.995
       3.884
       4.004
       3.819
       4.161
       5.518
       7.601
       9.587
      10.796
      11.139
      11.009
      10.814
      10.611
      10.123
       9.011
       7.151
       4.738
       2.210
       0.064
      -1.377
      -2.122
      -2.482
      -2.830
      -3.285
      -3.549
      -3.110
      -1.730
       0.132
       1.430
       1.189
      -0.737
      -3.432
      -5.478
      -5.891
      -4.732
      -2.930
      -1.520
      -0.955
      -0.992
      -1.131
      -1.127
      -1.159
      -1.610
      -2.691
      -4.236
      -5.791
      -6.897
      -7.368
      -7.339
      -7.087
      -6.786
      -6.389
      -5.737
      -4.755
      -3.557
      -2.343
      -1.213
      -0.074
       1.264
       2.904
       4.745
       6.521
       7.962
       8.945
       9.534
       9.870
      10.009
       9.851
       9.225
       8.076
       6.576
       5.043
       3.719
       2.621
       1.577
       0.419
      -0.842
      -1.995
      -2.785
      -3.129
      -3.212
      -3.359
      -3.771
      -4.328
      -4.675
      -4.512
      -3.856
      -3.016
      -2.329
      -1.911
      -1.629
      -1.310
      -0.945
      -0.713
      -0.840
      -1.435
      -2.400
      -3.447
      -4.152
      -4.096
      -3.070
      -1.251
       0.831
       2.522
       3.342
       3.143
       2.105
       0.638
      -0.743
      -1.559
      -1.517
      -0.588
       1.022
       2.963
       4.831
       6.240
       6.896
       6.651
       5.517
       3.647
       1.312
      -1.110
      -3.169
      -4.435
      -4.627
      -3.724
      -2.006
      -0.006
       1.634
       2.393
       2.065
       0.831
      -0.868
      -2.544
      -3.837
      -4.549
      -4.575
      -3.836
      -2.322
      -0.242
       1.910
       3.496
       4.035
       3.451
       2.070
       0.395
      -1.153
      -2.357
      -3.160
      -3.534
      -3.416
      -2.761
      -1.660
      -0.385
       0.707
       1.338
       1.407
       0.993
       0.266
      -0.590
      -1.414
      -2.039
      -2.259
      -1.873
      -0.778
       0.949
       3.040
       5.109
       6.761
       7.693
       7.775
       7.093
       5.927
       4.639
       3.533
       2.737
       2.163
       1.592
       0.813
      -0.261
      -1.578
      -3.026
      -4.511
      -5.979
      -7.366
      -8.524
      -9.223
      -9.258
      -8.586
      -7.375
      -5.889
      -4.321
      -2.738
      -1.146
       0.402
       1.807
       2.995
       3.963
       4.729
       5.255
       5.438
       5.208
       4.658
       4.050
       3.666
       3.591
       3.633
       3.448
       2.798
       1.737
       0.587
      -0.282
      -0.690
      -0.742
      -0.689
      -0.699
      -0.733
      -0.627
      -0.296
       0.134
       0.373
       0.158
      -0.565
      -1.603
      -2.641
      -3.444
      -3.981
      -4.379
      -4.755
      -5.076
      -5.163
      -4.844
      -4.104
      -3.104
      -2.039
      -0.988
       0.109
       1.335
       2.660
       3.910
       4.880
       5.459
       5.702
       5.776
       5.850
       6.000
       6.168
       6.175
       5.802
       4.880
       3.396
       1.549
      -0.285
      -1.721
      -2.567
      -2.936
      -3.160
      -3.578
      -4.339
      -5.373
      -6.482
      -7.460
      -8.126
      -8.307
      -7.861
      -6.761
      -5.148
      -3.262
      -1.317
       0.582
       2.369
       3.908
       4.959
       5.315
       5.006
       4.389
       3.992
       4.199
       4.991
       5.968
       6.648
       6.771
       6.370
       5.579
       4.431
       2.842
       0.782
      -1.561
      -3.777
      -5.423
      -6.246
      -6.284
      -5.785
      -5.041
      -4.290
      -3.721
      -3.508
      -3.761
      -4.408
      -5.131
      -5.472
      -5.087
      -3.943
      -2.331
      -0.683
       0.655
       1.554
       2.092
       2.448
       2.758
       3.021
       3.112
       2.932
       2.582
       2.381
       2.674
       3.546
       4.698
       5.627
       5.966
       5.728
       5.244
       4.860
       4.642
       4.342
       3.649
       2.503
       1.183
       0.090
      -0.590
      -1.037
      -1.627
      -2.586
      -3.764
      -4.747
      -5.176
      -5.026
      -4.601
      -4.286
      -4.280
      -4.497
      -4.680
      -4.603
      -4.212
      -3.620
      -2.976
      -2.330
      -1.614
      -0.731
       0.312
       1.346
       2.125
       2.478
       2.443
       2.253
       2.171
       2.312
       2.586
       2.815
       2.891
       2.824
       2.654
       2.357
       1.843
       1.067
       0.119
      -0.798
      -1.480
      -1.831
      -1.901
      -1.834
      -1.782
      -1.811
      -1.864
      -1.804
      -1.536
      -1.106
      -0.692
      -0.466
      -0.429
      -0.374
      -0.035
       0.693
       1.640
       2.467
       2.925
       3.040
       3.070
       3.250
       3.555
       3.713
       3.451
       2.753
       1.881
       1.151
       0.672
       0.274
      -0.298
      -1.119
      -1.977
      -2.535
      -2.616
      -2.347
      -2.044
      -1.931
      -1.972
      -1.953
      -1.707
      -1.283
      -0.900
      -0.762
      -0.894
      -1.149
      -1.345
      -1.399
      -1.355
      -1.297
      -1.240
      -1.096
      -0.751
      -0.175
       0.541
       1.254
       1.874
       2.374
       2.725
       2.834
       2.589
       1.988
       1.219
       0.577
       0.300
       0.421
       0.757
       1.007
       0.896
