Origin Time       15/11/2012 06:46:07
Lat.              30.2 N 
Long.             80.1 E 
Depth (Km)          5.0
Magnitude         3.0
 Region           BAGESHWAR-uTTARAKHAND                                            
 Above details taken from IMD 
   
Station Code      KAP
Station Lat.       29.941
Station Long.      79.899
Station Height(m) 1066.0
Site Class        A   Vs30 between 700 m/sec to 1400 m/sec * 
Record Time       15.11.2012 06:45:38.119
Sampling Rate     200. Hz
 Record Duration   83.395 Sec.
 Direction         Vert. (Up positive)
Max. Acceleration     -8.478 cm/sec**2
     
  * For reference see Site Classification link of website 
     
 Base Line Corrected and Low Pass Filtered (Cut Off at 35 Hz) Time History
 Acceleration data in cm/sec**2
    
[...]
      -0.010
      -0.012
      -0.012
      -0.017
      -0.020
      -0.014
      -0.005
      -0.003
      -0.007
      -0.010
      -0.012
      -0.011
      -0.006
       0.003
       0.005
      -0.003
      -0.009
      -0.007
      -0.002
       0.000
       0.002
       0.004
      -0.001
      -0.015
      -0.027
      -0.028
      -0.023
      -0.018
      -0.013
      -0.006
      -0.006
      -0.014
      -0.023
      -0.024
      -0.022
      -0.020
      -0.014
      -0.001
       0.008
       0.006
      -0.001
      -0.005
      -0.008
      -0.012
      -0.012
      -0.008
      -0.006
      -0.012
      -0.017
      -0.016
      -0.014
      -0.012
      -0.007
       0.003
       0.009
       0.007
       0.005
       0.005
       0.001
      -0.008
      -0.014
      -0.013
      -0.012
      -0.012
      -0.008
       0.001
       0.003
      -0.005
      -0.014
      -0.014
      -0.006
       0.001
       0.005
       0.002
      -0.010
      -0.021
      -0.019
      -0.007
       0.000
      -0.004
      -0.010
      -0.011
      -0.010
      -0.010
      -0.006
       0.000
       0.000
      -0.006
      -0.008
      -0.003
       0.001
       0.002
       0.003
       0.004
      -0.001
      -0.008
      -0.010
      -0.005
      -0.006
      -0.014
      -0.024
      -0.024
      -0.012
       0.008
       0.022
       0.014
      -0.014
      -0.035
      -0.023
       0.009
       0.027
       0.014
      -0.014
      -0.034
      -0.033
      -0.017
       0.003
       0.013
       0.008
      -0.001
      -0.004
      -0.002
       0.000
       0.000
      -0.002
      -0.008
      -0.019
      -0.021
      -0.007
       0.011
       0.015
       0.006
      -0.003
      -0.007
      -0.006
      -0.005
      -0.004
      -0.007
      -0.012
      -0.011
       0.000
       0.010
       0.011
       0.009
       0.013
       0.017
       0.009
      -0.007
      -0.019
      -0.023
      -0.021
      -0.015
      -0.008
      -0.004
      -0.011
      -0.018
      -0.015
      -0.004
       0.005
       0.010
       0.010
       0.007
      -0.001
      -0.006
      -0.004
      -0.003
      -0.009
      -0.016
      -0.016
      -0.012
      -0.010
      -0.008
       0.001
       0.009
       0.010
       0.005
       0.000
      -0.007
      -0.017
      -0.023
      -0.021
      -0.015
      -0.011
      -0.006
       0.004
       0.010
       0.005
      -0.004
      -0.008
      -0.003
       0.006
       0.013
       0.013
      -0.001
      -0.023
      -0.032
      -0.017
       0.007
       0.017
       0.005
      -0.016
      -0.029
      -0.022
       0.000
       0.019
       0.013
      -0.014
      -0.035
      -0.031
      -0.010
       0.006
       0.008
       0.003
      -0.005
      -0.009
      -0.010
      -0.008
      -0.010
      -0.011
      -0.006
       0.000
      -0.005
      -0.021
      -0.034
      -0.031
      -0.016
      -0.002
       0.006
       0.007
      -0.001
      -0.010
      -0.009
       0.003
       0.011
       0.005
      -0.010
      -0.024
      -0.032
      -0.033
      -0.021
      -0.001
       0.013
       0.015
       0.012
       0.011
       0.011
       0.007
       0.001
      -0.010
      -0.028
      -0.043
      -0.043
      -0.025
      -0.007
       0.003
       0.006
       0.011
       0.012
       0.008
       0.005
       0.005
       0.003
       0.000
       0.000
      -0.001
      -0.013
      -0.034
      -0.048
      -0.045
      -0.029
      -0.006
       0.020
       0.038
       0.038
       0.020
       0.000
      -0.013
      -0.017
      -0.015
      -0.007
      -0.001
      -0.006
      -0.018
      -0.020
      -0.008
       0.004
       0.006
       0.001
      -0.003
      -0.005
      -0.002
       0.006
       0.012
       0.007
      -0.006
      -0.019
      -0.028
      -0.032
      -0.021
       0.008
       0.033
       0.025
      -0.015
      -0.047
      -0.041
      -0.010
       0.011
       0.002
      -0.023
      -0.039
      -0.025
       0.011
       0.031
       0.015
      -0.018
      -0.030
      -0.016
       0.000
      -0.001
      -0.012
      -0.019
      -0.022
      -0.021
      -0.014
      -0.001
       0.009
       0.015
       0.017
       0.013
      -0.001
      -0.015
      -0.021
      -0.020
      -0.022
      -0.025
      -0.018
      -0.003
       0.006
       0.004
       0.002
       0.004
       0.003
      -0.004
      -0.009
      -0.010
      -0.008
      -0.003
       0.003
       0.002
      -0.008
      -0.016
      -0.013
      -0.003
       0.002
       0.004
       0.009
       0.014
       0.013
       0.009
       0.007
       0.004
      -0.005
      -0.016
      -0.019
      -0.016
      -0.011
      -0.007
       0.000
       0.005
       0.009
       0.016
       0.027
       0.028
       0.012
      -0.013
      -0.028
      -0.029
      -0.024
      -0.015
      -0.008
      -0.007
      -0.010
      -0.008
       0.003
       0.008
       0.000
      -0.013
      -0.018
      -0.014
      -0.012
      -0.010
      -0.008
      -0.009
      -0.012
      -0.010
      -0.005
      -0.011
      -0.031
      -0.044
      -0.027
       0.014
       0.048
       0.049
       0.017
      -0.025
      -0.045
      -0.025
       0.016
       0.037
       0.020
      -0.012
      -0.022
      -0.007
       0.015
       0.022
       0.012
      -0.002
      -0.008
       0.000
       0.008
      -0.001
      -0.021
      -0.030
      -0.015
       0.006
       0.018
       0.019
       0.019
       0.016
       0.009
       0.000
      -0.009
      -0.022
      -0.035
      -0.035
      -0.017
       0.007
       0.022
       0.023
       0.015
       0.001
      -0.013
      -0.018
      -0.015
      -0.014
      -0.016
      -0.013
      -0.005
      -0.002
      -0.006
      -0.010
      -0.010
      -0.009
      -0.007
       0.001
       0.010
       0.012
       0.005
      -0.002
      -0.004
      -0.007
      -0.013
      -0.017
      -0.018
      -0.023
      -0.028
      -0.023
      -0.007
       0.006
       0.009
       0.008
       0.007
       0.005
       0.001
      -0.003
      -0.006
      -0.015
      -0.024
      -0.026
      -0.019
      -0.012
      -0.004
       0.006
       0.015
       0.012
       0.001
      -0.007
      -0.008
      -0.009
      -0.014
      -0.014
      -0.006
       0.003
       0.005
      -0.002
      -0.016
      -0.027
      -0.023
      -0.007
       0.004
      -0.003
      -0.012
      -0.001
       0.026
       0.038
       0.021
      -0.010
      -0.029
      -0.024
      -0.007
       0.004
      -0.006
      -0.031
      -0.046
      -0.029
       0.009
       0.040
       0.047
       0.034
       0.007
      -0.023
      -0.042
      -0.039
      -0.024
      -0.017
      -0.019
      -0.019
      -0.009
       0.004
       0.013
       0.015
       0.007
      -0.004
      -0.008
       0.000
       0.006
      -0.001
      -0.014
      -0.016
      -0.010
      -0.009
      -0.017
      -0.024
      -0.024
      -0.019
      -0.010
       0.002
       0.009
       0.005
      -0.005
      -0.010
      -0.011
      -0.016
      -0.023
      -0.027
      -0.029
      -0.028
      -0.018
       0.000
       0.013
       0.013
       0.012
       0.016
       0.017
       0.002
      -0.020
      -0.030
      -0.022
      -0.007
       0.004
       0.006
      -0.005
      -0.019
      -0.024
      -0.012
       0.003
       0.009
       0.005
      -0.006
      -0.020
      -0.030
      -0.026
      -0.007
       0.012
       0.017
       0.012
       0.005
      -0.005
      -0.018
      -0.026
      -0.022
      -0.008
       0.004
       0.004
      -0.007
      -0.020
      -0.018
       0.006
       0.035
       0.037
       0.006
      -0.031
      -0.040
      -0.020
       0.012
       0.033
       0.033
       0.009
      -0.023
      -0.040
      -0.029
      -0.002
       0.014
       0.011
      -0.005
      -0.019
      -0.017
       0.004
       0.026
       0.027
       0.007
      -0.010
      -0.010
      -0.004
      -0.007
      -0.018
      -0.022
      -0.015
      -0.001
       0.012
       0.016
       0.008
      -0.003
      -0.005
      -0.001
      -0.004
      -0.014
      -0.018
      -0.010
       0.000
       0.003
       0.002
      -0.002
      -0.012
      -0.024
      -0.026
      -0.013
       0.004
       0.015
       0.018
       0.014
       0.004
      -0.008
      -0.013
      -0.012
      -0.009
      -0.004
       0.007
       0.017
       0.013
      -0.005
      -0.019
      -0.021
      -0.017
      -0.013
      -0.007
       0.001
       0.008
       0.013
       0.019
       0.020
       0.010
      -0.003
      -0.008
      -0.002
       0.001
       0.000
       0.001
       0.005
       0.004
      -0.006
      -0.015
      -0.016
      -0.015
      -0.014
      -0.014
      -0.014
      -0.015
      -0.014
      -0.007
      -0.002
      -0.004
      -0.007
       0.004
       0.017
       0.013
      -0.013
      -0.039
      -0.042
      -0.022
       0.008
       0.030
       0.029
       0.003
      -0.026
      -0.033
      -0.013
       0.012
       0.020
       0.004
      -0.026
      -0.044
      -0.027
       0.023
       0.070
       0.074
       0.032
      -0.022
      -0.050
      -0.039
      -0.004
       0.026
       0.029
       0.011
      -0.002
       0.006
       0.019
       0.016
       0.001
      -0.005
       0.006
       0.022
       0.028
       0.016
      -0.004
      -0.016
      -0.005
       0.025
       0.047
       0.041
       0.017
      -0.003
      -0.009
      -0.006
      -0.002
       0.004
       0.006
       0.005
       0.006
       0.008
       0.005
      -0.005
      -0.006
       0.007
       0.024
       0.024
       0.009
      -0.006
      -0.011
      -0.004
       0.012
       0.023
       0.014
      -0.011
      -0.028
      -0.016
       0.011
       0.028
       0.025
       0.011
      -0.001
      -0.003
       0.010
       0.030
       0.040
       0.033
       0.018
       0.006
      -0.005
      -0.019
      -0.027
      -0.021
      -0.007
       0.001
       0.003
       0.005
       0.012
       0.025
       0.042
       0.046
       0.022
      -0.022
      -0.050
      -0.037
       0.001
       0.028
       0.023
      -0.003
      -0.031
      -0.040
      -0.020
       0.020
       0.052
       0.057
       0.039
       0.012
      -0.014
      -0.028
      -0.021
      -0.001
       0.010
       0.002
      -0.010
      -0.011
       0.000
       0.013
       0.025
       0.032
       0.029
       0.018
       0.007
       0.000
      -0.005
      -0.006
       0.005
       0.023
       0.027
       0.009
      -0.018
      -0.035
      -0.036
      -0.025
      -0.006
       0.009
       0.013
       0.009
       0.012
       0.021
       0.021
       0.006
      -0.012
      -0.019
      -0.009
       0.011
       0.031
       0.039
       0.027
       0.008
       0.000
       0.005
       0.010
       0.009
       0.008
       0.013
       0.013
       0.002
      -0.014
      -0.026
      -0.027
      -0.014
       0.010
       0.032
       0.033
       0.014
      -0.004
      -0.002
       0.012
       0.025
       0.026
       0.013
      -0.007
      -0.017
      -0.013
      -0.007
      -0.008
      -0.009
       0.008
       0.041
       0.071
       0.079
       0.059
       0.016
      -0.030
      -0.049
      -0.021
       0.026
       0.047
       0.026
      -0.009
      -0.026
      -0.019
       0.001
       0.021
       0.031
       0.029
       0.018
       0.007
      -0.003
      -0.011
      -0.011
       0.002
       0.021
       0.031
       0.030
       0.026
       0.019
       0.006
      -0.007
      -0.015
      -0.022
      -0.032
      -0.034
      -0.015
       0.019
       0.046
       0.054
       0.041
       0.015
      -0.012
      -0.021
      -0.008
       0.007
       0.005
      -0.006
      -0.006
       0.011
       0.027
       0.031
       0.024
       0.013
       0.003
      -0.005
      -0.012
      -0.020
      -0.023
      -0.013
       0.009
       0.026
       0.023
       0.008
      -0.004
      -0.006
      -0.001
       0.007
       0.008
      -0.008
      -0.029
      -0.028
       0.006
       0.050
       0.068
       0.052
       0.019
      -0.009
      -0.021
      -0.012
       0.008
       0.016
       0.004
      -0.014
      -0.018
      -0.008
       0.007
       0.019
       0.027
       0.032
       0.035
       0.036
       0.027
      -0.005
      -0.051
      -0.076
      -0.056
       0.002
       0.062
       0.092
       0.079
       0.035
      -0.009
      -0.026
      -0.019
      -0.015
      -0.027
      -0.044
      -0.042
      -0.018
       0.016
       0.045
       0.056
       0.046
       0.026
       0.014
       0.013
       0.012
       0.004
      -0.007
      -0.019
      -0.032
      -0.043
      -0.035
      -0.004
       0.034
       0.055
       0.051
       0.030
       0.002
      -0.015
      -0.012
       0.006
       0.021
       0.024
       0.020
       0.012
      -0.006
      -0.031
      -0.042
      -0.021
       0.022
       0.060
       0.062
       0.020
      -0.016
       0.059
       0.324
       0.712
       1.026
       1.135
       1.179
       1.421
       1.744
       1.307
      -0.904
      -4.751
      -8.198
      -8.478
      -4.542
       1.604
       6.286
       7.094
       4.593
       1.438
      -0.018
       0.534
       1.499
       1.058
      -1.080
      -3.392
      -3.984
      -2.365
       0.166
       1.802
       1.847
       1.136
       0.932
       1.471
       1.648
       0.249
      -2.479
      -4.646
      -4.298
      -1.296
       2.400
       4.374
       3.845
       2.190
       1.357
       1.731
       1.744
      -0.222
      -3.678
      -6.126
      -5.500
      -2.334
       0.744
       1.682
       0.966
       0.847
       2.709
       5.338
       5.892
       2.681
      -2.910
      -7.282
      -7.543
      -3.800
       1.148
       4.180
       4.043
       1.794
      -0.406
      -1.028
      -0.264
       0.363
      -0.355
      -1.915
      -2.534
      -1.075
       1.620
       3.500
       3.294
       1.594
       0.023
      -0.472
      -0.390
      -0.844
      -2.143
      -3.312
      -3.018
      -0.954
       1.687
       3.152
       2.625
       0.876
      -0.561
      -0.847
      -0.419
      -0.196
      -0.441
      -0.593
      -0.073
       0.986
       1.810
       1.682
       0.561
      -0.844
      -1.629
      -1.429
      -0.697
      -0.209
      -0.298
      -0.571
      -0.398
       0.380
       1.260
       1.601
       1.275
       0.690
       0.203
      -0.308
      -1.127
      -2.049
      -2.318
      -1.378
       0.376
       1.735
       1.683
       0.341
      -1.059
      -1.202
       0.164
       1.994
       2.845
       2.084
       0.286
      -1.388
      -2.123
      -1.890
      -1.201
      -0.532
       0.033
       0.607
       1.005
       0.691
      -0.498
      -1.707
      -1.602
       0.208
       2.488
       3.386
       2.142
      -0.284
      -2.160
      -2.417
      -1.291
       0.162
       1.012
       1.015
       0.479
      -0.215
      -0.832
      -1.137
      -0.839
       0.122
       1.274
       1.821
       1.277
      -0.068
      -1.314
      -1.647
      -0.987
      -0.009
       0.473
       0.202
      -0.386
      -0.639
      -0.276
       0.458
       1.049
       1.109
       0.660
       0.103
      -0.160
      -0.129
      -0.156
      -0.460
      -0.797
      -0.721
      -0.127
       0.605
       0.968
       0.755
       0.156
      -0.458
      -0.805
      -0.853
      -0.785
      -0.777
      -0.733
      -0.302
       0.709
       1.885
       2.334
       1.502
      -0.101
      -1.164
      -0.760
       0.665
       1.605
       0.906
      -1.108
      -2.882
      -2.993
      -1.348
       0.767
       1.786
       1.188
      -0.091
      -0.603
       0.154
       1.258
       1.421
       0.408
      -0.792
      -1.158
      -0.666
      -0.054
       0.147
       0.046
       0.018
       0.250
       0.689
       1.130
       1.201
       0.516
      -0.891
      -2.301
      -2.714
      -1.705
       0.113
       1.533
       1.752
       0.973
       0.099
      -0.148
       0.190
       0.525
       0.427
       0.009
      -0.330
      -0.362
      -0.178
       0.013
       0.080
       0.011
      -0.132
      -0.260
      -0.313
      -0.299
      -0.315
      -0.446
      -0.603
      -0.534
      -0.103
       0.429
       0.596
       0.285
      -0.034
       0.208
       0.999
       1.690
       1.624
       0.720
      -0.493
      -1.307
      -1.312
      -0.642
       0.103
       0.291
      -0.219
      -0.952
      -1.242
      -0.822
       0.009
       0.726
       1.045
       1.046
       0.902
       0.617
       0.083
      -0.601
      -0.985
      -0.583
       0.557
       1.631
       1.646
       0.380
      -1.281
      -2.117
      -1.715
      -0.763
      -0.218
      -0.298
      -0.358
       0.262
       1.330
       1.815
       1.005
      -0.514
      -1.277
      -0.502
       0.943
       1.391
       0.143
      -1.794
      -2.716
      -1.764
       0.495
       2.716
       3.784
       3.374
       1.917
       0.219
      -0.965
      -1.305
      -1.095
      -1.015
      -1.468
      -2.044
      -1.824
      -0.375
       1.614
       2.811
       2.374
       0.600
      -1.393
      -2.488
      -2.243
      -1.049
       0.215
       0.809
       0.586
      -0.026
      -0.428
      -0.247
       0.483
       1.359
       1.852
       1.638
       0.727
      -0.649
      -2.087
      -2.962
      -2.628
      -1.014
       0.988
       2.028
       1.429
      -0.161
      -1.293
      -0.924
       0.764
       2.505
       2.939
       1.689
      -0.333
      -1.789
      -2.190
      -2.238
      -2.790
      -3.603
      -3.372
      -1.103
       2.606
       5.694
       6.148
       3.622
      -0.177
      -2.732
      -2.653
      -0.679
       1.141
       1.334
       0.137
      -1.127
      -1.575
      -1.496
      -1.608
      -1.883
      -1.427
       0.369
       2.752
       3.999
       3.039
       0.589
      -1.395
      -1.418
       0.323
       2.185
       2.471
       0.821
      -1.497
      -2.681
      -2.032
      -0.616
      -0.234
      -1.571
      -3.414
      -3.800
      -1.912
       1.203
       3.725
       4.610
       4.056
       2.804
       1.389
       0.057
      -0.989
      -1.581
      -1.781
      -1.886
      -2.133
      -2.422
      -2.378
      -1.701
      -0.475
       0.898
       2.028
       2.756
       3.064
       2.940
       2.434
       1.746
       1.028
       0.102
      -1.352
      -3.132
      -4.238
      -3.594
      -1.237
       1.358
       2.399
       1.353
      -0.586
      -1.600
      -0.868
       0.790
       1.757
       1.126
      -0.526
      -1.743
      -1.530
      -0.175
       1.119
       1.307
       0.325
      -0.910
      -1.263
      -0.321
