Origin Time       21/9/2009 9:43:47	  UTC
Lat.              30.9 N	
Long.             79.1 E	
Depth (Km)         13.0
Magnitude         4.7
 Region           UTTARKASHI-UTTARAKHAND                                           
 Above details taken from IMD 
    
Station Code      KAP
Station Lat.       29.941  N
Station Long.      79.899  E
Station Height(m) 1066.0
Site Class        A   Vs30 between 700 m/sec to 1400 m/sec * 
Record Time       21.09.2009 09:44:15.714 UTC
Sampling Rate     200. Hz
 Record Duration   65.835 Sec.
 Direction         N-S (N positive)
Max. Acceleration     -8.378 cm/sec**2
     
  * For reference see Site Classification link of website 
     
 Base Line Corrected and Low Pass Filtered (Cut Off at 35 Hz) Time History
 Acceleration data in cm/sec**2
    
[...]
      -0.273
      -0.238
      -0.229
      -0.269
      -0.340
      -0.404
      -0.426
      -0.396
      -0.330
      -0.258
      -0.197
      -0.136
      -0.046
       0.099
       0.292
       0.483
       0.599
       0.582
       0.423
       0.167
      -0.110
      -0.328
      -0.439
      -0.430
      -0.326
      -0.176
      -0.033
       0.072
       0.133
       0.163
       0.164
       0.126
       0.031
      -0.113
      -0.265
      -0.360
      -0.342
      -0.201
       0.025
       0.268
       0.460
       0.561
       0.557
       0.451
       0.257
       0.004
      -0.260
      -0.475
      -0.585
      -0.565
      -0.429
      -0.231
      -0.043
       0.071
       0.086
       0.026
      -0.049
      -0.078
      -0.033
       0.066
       0.170
       0.234
       0.245
       0.219
       0.187
       0.165
       0.155
       0.155
       0.170
       0.204
       0.245
       0.266
       0.243
       0.172
       0.085
       0.024
       0.018
       0.059
       0.113
       0.141
       0.126
       0.075
       0.007
      -0.059
      -0.111
      -0.142
      -0.144
      -0.114
      -0.063
      -0.016
       0.005
       0.002
       0.005
       0.048
       0.135
       0.231
       0.277
       0.236
       0.118
      -0.024
      -0.138
      -0.204
      -0.247
      -0.307
      -0.411
      -0.545
      -0.666
      -0.721
      -0.670
      -0.510
      -0.272
      -0.011
       0.220
       0.396
       0.521
       0.606
       0.648
       0.633
       0.557
       0.446
       0.348
       0.301
       0.313
       0.357
       0.392
       0.388
       0.340
       0.260
       0.164
       0.058
      -0.053
      -0.169
      -0.284
      -0.395
      -0.502
      -0.596
      -0.656
      -0.651
      -0.562
      -0.400
      -0.209
      -0.038
       0.080
       0.141
       0.170
       0.196
       0.232
       0.265
       0.259
       0.188
       0.062
      -0.079
      -0.184
      -0.228
      -0.218
      -0.183
      -0.148
      -0.133
      -0.150
      -0.210
      -0.307
      -0.410
      -0.474
      -0.459
      -0.353
      -0.185
      -0.012
       0.115
       0.187
       0.232
       0.290
       0.370
       0.448
       0.495
       0.507
       0.508
       0.524
       0.558
       0.583
       0.566
       0.502
       0.415
       0.334
       0.266
       0.185
       0.065
      -0.095
      -0.266
      -0.410
      -0.507
      -0.566
      -0.604
      -0.629
      -0.633
      -0.605
      -0.544
      -0.464
      -0.388
      -0.329
      -0.287
      -0.247
      -0.188
      -0.102
       0.001
       0.098
       0.166
       0.200
       0.213
       0.230
       0.269
       0.330
       0.399
       0.451
       0.467
       0.448
       0.408
       0.361
       0.302
       0.217
       0.091
      -0.059
      -0.190
      -0.253
      -0.225
      -0.131
      -0.025
       0.039
       0.042
       0.005
      -0.029
      -0.028
       0.008
       0.051
       0.069
       0.046
      -0.005
      -0.058
      -0.082
      -0.057
       0.024
       0.145
       0.267
       0.339
       0.324
       0.218
       0.051
      -0.128
      -0.276
      -0.370
      -0.404
      -0.382
      -0.321
      -0.244
      -0.171
      -0.103
      -0.020
       0.095
       0.234
       0.360
       0.426
       0.413
       0.335
       0.235
       0.153
       0.104
       0.082
       0.063
       0.028
      -0.026
      -0.086
      -0.134
      -0.156
      -0.146
      -0.099
      -0.018
       0.083
       0.180
       0.244
       0.260
       0.223
       0.146
       0.044
      -0.056
      -0.134
      -0.177
      -0.189
      -0.184
      -0.176
      -0.177
      -0.188
      -0.209
      -0.234
      -0.251
      -0.250
      -0.222
      -0.174
      -0.128
      -0.111
      -0.133
      -0.175
      -0.190
      -0.138
      -0.019
       0.126
       0.242
       0.300
       0.313
       0.312
       0.317
       0.317
       0.288
       0.220
       0.124
       0.026
      -0.054
      -0.110
      -0.151
      -0.184
      -0.208
      -0.210
      -0.176
      -0.106
      -0.012
       0.093
       0.193
       0.275
       0.315
       0.290
       0.195
       0.055
      -0.075
      -0.147
      -0.143
      -0.095
      -0.054
      -0.049
      -0.067
      -0.065
      -0.014
       0.069
       0.133
       0.136
       0.075
       0.004
      -0.008
       0.083
       0.260
       0.452
       0.572
       0.570
       0.460
       0.296
       0.141
       0.031
      -0.037
      -0.086
      -0.140
      -0.206
      -0.282
      -0.359
      -0.426
      -0.471
      -0.483
      -0.456
      -0.401
      -0.343
      -0.308
      -0.299
      -0.299
      -0.287
      -0.251
      -0.208
      -0.179
      -0.177
      -0.181
      -0.151
      -0.056
       0.106
       0.305
       0.495
       0.631
       0.679
       0.632
       0.510
       0.356
       0.220
       0.128
       0.081
       0.056
       0.039
       0.030
       0.039
       0.055
       0.049
      -0.013
      -0.141
      -0.304
      -0.440
      -0.478
      -0.382
      -0.170
       0.085
       0.296
       0.404
       0.408
       0.351
       0.289
       0.256
       0.259
       0.286
       0.316
       0.325
       0.294
       0.213
       0.088
      -0.057
      -0.196
      -0.310
      -0.399
      -0.468
      -0.515
      -0.531
      -0.511
      -0.462
      -0.406
      -0.357
      -0.315
      -0.275
      -0.238
      -0.216
      -0.215
      -0.223
      -0.207
      -0.136
      -0.004
       0.167
       0.333
       0.453
       0.504
       0.485
       0.408
       0.298
       0.177
       0.068
      -0.010
      -0.050
      -0.054
      -0.030
       0.008
       0.054
       0.098
       0.133
       0.146
       0.129
       0.087
       0.042
       0.020
       0.038
       0.094
       0.165
       0.219
       0.228
       0.176
       0.069
      -0.064
      -0.189
      -0.272
      -0.294
      -0.254
      -0.166
      -0.060
       0.030
       0.072
       0.043
      -0.055
      -0.192
      -0.316
      -0.380
      -0.367
      -0.296
      -0.208
      -0.136
      -0.086
      -0.040
       0.032
       0.140
       0.265
       0.361
       0.387
       0.334
       0.230
       0.120
       0.041
       0.002
      -0.022
      -0.063
      -0.139
      -0.229
      -0.289
      -0.279
      -0.192
      -0.056
       0.080
       0.177
       0.221
       0.228
       0.221
       0.217
       0.220
       0.224
       0.222
       0.215
       0.210
       0.215
       0.228
       0.235
       0.217
       0.161
       0.069
      -0.036
      -0.129
      -0.193
      -0.221
      -0.217
      -0.197
      -0.182
      -0.197
      -0.251
      -0.333
      -0.416
      -0.472
      -0.486
      -0.458
      -0.395
      -0.298
      -0.162
       0.004
       0.170
       0.283
       0.294
       0.189
       0.007
      -0.177
      -0.295
      -0.314
      -0.248
      -0.130
       0.008
       0.137
       0.232
       0.268
       0.232
       0.141
       0.035
      -0.040
      -0.064
      -0.051
      -0.024
       0.010
       0.063
       0.148
       0.256
       0.349
       0.379
       0.322
       0.188
       0.025
      -0.112
      -0.187
      -0.197
      -0.167
      -0.134
      -0.120
      -0.122
      -0.120
      -0.106
      -0.091
      -0.106
      -0.167
      -0.252
      -0.310
      -0.289
      -0.170
       0.019
       0.215
       0.347
       0.379
       0.325
       0.252
       0.233
       0.307
       0.452
       0.604
       0.703
       0.723
       0.681
       0.606
       0.513
       0.392
       0.225
       0.010
      -0.222
      -0.420
      -0.532
      -0.537
      -0.450
      -0.322
      -0.210
      -0.150
      -0.144
      -0.168
      -0.194
      -0.217
      -0.256
      -0.331
      -0.438
      -0.539
      -0.581
      -0.530
      -0.394
      -0.215
      -0.046
       0.074
       0.132
       0.133
       0.105
       0.091
       0.125
       0.220
       0.353
       0.488
       0.592
       0.656
       0.687
       0.696
       0.680
       0.621
       0.497
       0.303
       0.067
      -0.156
      -0.306
      -0.359
      -0.342
      -0.313
      -0.319
      -0.357
      -0.385
      -0.358
      -0.270
      -0.155
      -0.064
      -0.035
      -0.077
      -0.173
      -0.292
      -0.401
      -0.476
      -0.504
      -0.480
      -0.402
      -0.273
      -0.106
       0.073
       0.226
       0.322
       0.354
       0.338
       0.308
       0.285
       0.274
       0.265
       0.254
       0.247
       0.252
       0.257
       0.235
       0.163
       0.046
      -0.080
      -0.166
      -0.187
      -0.153
      -0.103
      -0.080
      -0.104
      -0.165
      -0.235
      -0.283
      -0.289
      -0.249
      -0.166
      -0.056
       0.054
       0.126
       0.120
       0.030
      -0.113
      -0.251
      -0.337
      -0.354
      -0.324
      -0.277
      -0.226
      -0.161
      -0.059
       0.089
       0.261
       0.403
       0.456
       0.398
       0.263
       0.125
       0.064
       0.112
       0.237
       0.369
       0.448
       0.467
       0.458
       0.462
       0.482
       0.483
       0.413
       0.255
       0.044
      -0.149
      -0.262
      -0.281
      -0.236
      -0.164
      -0.082
       0.011
       0.114
       0.208
       0.268
       0.285
       0.261
       0.204
       0.111
      -0.022
      -0.185
      -0.340
      -0.438
      -0.450
      -0.384
      -0.282
      -0.191
      -0.141
      -0.138
      -0.183
      -0.275
      -0.394
      -0.501
      -0.539
      -0.475
      -0.323
      -0.134
       0.045
       0.207
       0.369
       0.540
       0.689
       0.760
       0.724
       0.599
       0.445
       0.320
       0.246
       0.214
       0.211
       0.235
       0.286
       0.348
       0.391
       0.385
       0.325
       0.223
       0.096
      -0.048
      -0.210
      -0.375
      -0.510
      -0.578
      -0.563
      -0.488
      -0.404
      -0.355
      -0.356
      -0.383
      -0.404
      -0.400
      -0.389
      -0.407
      -0.478
      -0.587
      -0.671
      -0.657
      -0.510
      -0.258
       0.026
       0.270
       0.439
       0.538
       0.577
       0.555
       0.470
       0.337
       0.195
       0.081
       0.012
      -0.027
      -0.057
      -0.092
      -0.137
      -0.194
      -0.265
      -0.347
      -0.423
      -0.466
      -0.460
      -0.409
      -0.332
      -0.249
      -0.164
      -0.073
       0.029
       0.137
       0.233
       0.289
       0.275
       0.177
       0.017
      -0.142
      -0.216
      -0.153
       0.031
       0.246
       0.380
       0.366
       0.214
      -0.010
      -0.248
      -0.481
      -0.726
      -0.984
      -1.218
      -1.364
      -1.369
      -1.228
      -0.985
      -0.702
      -0.427
      -0.181
       0.035
       0.224
       0.388
       0.537
       0.696
       0.892
       1.140
       1.427
       1.714
       1.957
       2.128
       2.214
       2.210
       2.110
       1.914
       1.645
       1.357
       1.120
       0.985
       0.951
       0.962
       0.939
       0.822
       0.600
       0.301
      -0.029
      -0.363
      -0.695
      -1.027
      -1.352
      -1.648
      -1.892
      -2.062
      -2.147
      -2.146
      -2.070
      -1.943
      -1.800
      -1.670
      -1.559
      -1.451
      -1.322
      -1.150
      -0.910
      -0.572
      -0.108
       0.479
       1.140
       1.797
       2.378
       2.842
       3.177
       3.379
       3.435
       3.332
       3.074
       2.708
       2.307
       1.936
       1.614
       1.305
       0.951
       0.517
       0.007
      -0.545
      -1.100
      -1.632
      -2.110
      -2.499
      -2.772
      -2.936
      -3.041
      -3.156
      -3.320
      -3.518
      -3.691
      -3.781
      -3.760
      -3.630
      -3.395
      -3.042
      -2.560
      -1.973
      -1.348
      -0.783
      -0.357
      -0.104
      -0.008
      -0.033
      -0.145
      -0.321
      -0.537
      -0.755
      -0.927
      -1.017
      -1.012
      -0.928
      -0.788
      -0.607
      -0.389
      -0.133
       0.164
       0.510
       0.922
       1.424
       2.026
       2.720
       3.474
       4.247
       4.993
       5.660
       6.195
       6.552
       6.716
       6.704
       6.547
       6.256
       5.808
       5.163
       4.305
       3.276
       2.163
       1.057
       0.006
      -0.995
      -1.974
      -2.944
      -3.878
      -4.730
      -5.465
      -6.076
      -6.574
      -6.953
      -7.176
      -7.185
      -6.930
      -6.390
      -5.586
      -4.582
      -3.475
      -2.367
      -1.340
      -0.442
       0.317
       0.943
       1.451
       1.865
       2.224
       2.572
       2.927
       3.263
       3.520
       3.648
       3.642
       3.549
       3.437
       3.353
       3.306
       3.287
       3.292
       3.335
       3.428
       3.558
       3.669
       3.688
       3.549
       3.213
       2.671
       1.921
       0.965
      -0.174
      -1.446
      -2.772
      -4.072
      -5.281
      -6.351
      -7.234
      -7.882
      -8.263
      -8.378
      -8.264
      -7.971
      -7.532
      -6.951
      -6.198
      -5.233
      -4.040
      -2.651
      -1.156
       0.324
       1.677
       2.836
       3.788
       4.564
       5.207
       5.745
       6.182
       6.508
       6.718
       6.834
       6.893
       6.927
       6.923
       6.821
       6.535
       6.009
       5.251
       4.332
       3.341
       2.340
       1.363
       0.429
      -0.438
      -1.211
      -1.882
      -2.465
      -2.991
      -3.485
      -3.955
      -4.387
      -4.753
      -5.013
      -5.120
      -5.037
      -4.744
      -4.250
      -3.592
      -2.832
      -2.049
      -1.337
      -0.788
      -0.465
      -0.377
      -0.475
      -0.660
      -0.823
      -0.874
      -0.759
      -0.458
       0.021
       0.645
       1.356
       2.060
       2.652
       3.040
       3.176
       3.068
       2.777
       2.379
       1.939
       1.503
       1.109
       0.800
       0.619
       0.581
       0.644
       0.715
       0.693
       0.526
       0.241
      -0.064
      -0.280
      -0.336
      -0.236
      -0.050
       0.129
       0.226
       0.194
       0.015
      -0.312
      -0.771
      -1.317
      -1.875
      -2.367
      -2.740
      -2.975
      -3.089
      -3.102
      -3.039
      -2.918
      -2.752
      -2.546
      -2.285
      -1.935
      -1.457
      -0.827
      -0.056
       0.806
       1.672
       2.445
       3.051
       3.459
       3.684
       3.764
       3.731
       3.600
       3.377
       3.082
       2.747
       2.409
       2.088
       1.771
       1.422
       1.003
       0.496
      -0.077
      -0.656
      -1.161
      -1.511
      -1.655
      -1.604
      -1.451
      -1.347
      -1.432
      -1.755
      -2.241
      -2.741
      -3.118
      -3.325
      -3.391
      -3.349
      -3.182
      -2.825
      -2.247
      -1.514
      -0.789
      -0.243
       0.051
       0.156
       0.222
       0.399
       0.761
       1.303
       1.964
       2.662
       3.312
       3.845
       4.220
       4.426
       4.471
       4.358
       4.082
       3.646
       3.077
       2.430
       1.760
       1.092
       0.408
      -0.328
      -1.128
      -1.951
      -2.714
      -3.328
      -3.746
      -3.977
      -4.075
      -4.093
      -4.056
      -3.952
      -3.760
      -3.478
      -3.131
      -2.753
      -2.367
      -1.982
      -1.607
      -1.261
      -0.973
      -0.748
      -0.548
      -0.296
       0.079
       0.602
       1.233
       1.898
       2.531
       3.089
       3.541
       3.842
       3.942
       3.815
       3.491
       3.048
       2.585
       2.190
       1.920
       1.792
       1.787
       1.856
       1.938
       1.973
       1.919
       1.759
       1.495
       1.138
       0.693
       0.166
      -0.424
      -1.024
      -1.557
      -1.954
      -2.185
      -2.266
      -2.244
      -2.177
      -2.111
      -2.081
      -2.110
      -2.210
      -2.375
      -2.578
      -2.772
      -2.909
      -2.952
      -2.872
      -2.626
      -2.159
      -1.428
      -0.456
       0.637
       1.659
       2.423
       2.828
       2.886
       2.680
       2.313
       1.868
       1.398
       0.945
       0.548
       0.248
       0.076
       0.041
       0.116
       0.228
       0.281
       0.194
      -0.046
      -0.372
      -0.655
      -0.772
      -0.656
      -0.321
       0.157
       0.672
       1.130
       1.458
       1.624
       1.626
       1.494
       1.283
       1.062
       0.888
       0.792
       0.753
       0.699
       0.528
       0.140
      -0.517
      -1.420
      -2.467
      -3.507
      -4.380
      -4.960
      -5.184
      -5.058
      -4.643
      -4.014
      -3.243
      -2.388
      -1.501
      -0.643
       0.133
       0.798
       1.365
       1.886
       2.427
       3.032
       3.699
       4.373
       4.964
       5.371
       5.510
       5.332
       4.846
       4.108
       3.201
       2.206
       1.191
       0.219
      -0.640
      -1.313
      -1.742
      -1.913
      -1.860
      -1.668
      -1.443
      -1.286
      -1.259
      -1.368
      -1.560
      -1.749
      -1.857
      -1.845
      -1.719
      -1.498
      -1.194
      -0.815
      -0.400
      -0.037
       0.156
       0.084
      -0.263
      -0.806
      -1.399
      -1.880
      -2.120
      -2.053
      -1.684
      -1.080
      -0.347
       0.406
       1.097
       1.689
       2.186
       2.608
       2.951
       3.182
       3.261
       3.180
       2.980
       2.721
       2.438
       2.111
       1.688
       1.129
       0.440
      -0.318
      -1.058
      -1.700
      -2.193
      -2.510
      -2.651
      -2.642
      -2.539
      -2.410
      -2.309
      -2.264
      -2.282
      -2.362
      -2.498
      -2.647
      -2.721
      -2.604
      -2.214
      -1.554
      -0.712
       0.190
       1.046
       1.794
       2.394
       2.804
       2.974
       2.882
       2.568
       2.130
       1.683
       1.305
       1.014
       0.802
       0.661
       0.581
       0.528
       0.425
       0.199
      -0.160
      -0.568
      -0.881
      -0.976
      -0.812
      -0.428
       0.096
       0.686
       1.291
       1.851
       2.280
       2.476
       2.373
       1.984
       1.401
       0.750
       0.138
      -0.379
      -0.790
      -1.103
      -1.332
      -1.492
      -1.608
      -1.721
      -1.874
      -2.082
      -2.314
      -2.483
      -2.481
      -2.229
      -1.704
      -0.958
      -0.090
       0.788
       1.583
       2.234
       2.703
       2.956
       2.957
       2.669
       2.095
       1.295
       0.390
      -0.474
      -1.166
      -1.618
      -1.826
      -1.829
