Origin Time       22/02/2010 17:23:43 UTC
Lat.              30.0 N	
Long.             80.1 E	
Depth (Km)          2.0
Magnitude         4.7
 Region           BAGESHWER-UTTARAKHAND                                            
 Above details taken from IMD 
    
Station Code      KAP
Station Lat.       29.941  N
Station Long.      79.899  E
Station Height(m) 1066.0
Site Class        A   Vs30 between 700 m/sec to 1400 m/sec * 
Record Time       22.02.2010 17:23:33.279 UTC
Sampling Rate     200. Hz
 Record Duration   71.370 Sec.
 Direction         N-S (N positive)
Max. Acceleration     27.064 cm/sec**2
     
  * For reference see Site Classification link of website 
     
 Base Line Corrected and Low Pass Filtered (Cut Off at 35 Hz) Time History
 Acceleration data in cm/sec**2
    
[...]
      -0.012
      -0.015
      -0.016
      -0.013
      -0.005
       0.004
       0.011
       0.014
       0.013
       0.008
      -0.001
      -0.010
      -0.015
      -0.014
      -0.009
      -0.004
      -0.004
      -0.009
      -0.015
      -0.017
      -0.014
      -0.007
      -0.002
      -0.002
      -0.004
      -0.006
      -0.003
       0.002
       0.006
       0.004
      -0.002
      -0.007
      -0.008
      -0.005
      -0.001
       0.000
      -0.002
      -0.004
      -0.006
      -0.007
      -0.008
      -0.009
      -0.007
      -0.004
      -0.001
       0.002
       0.005
       0.009
       0.013
       0.013
       0.008
      -0.001
      -0.009
      -0.010
      -0.007
      -0.003
      -0.001
       0.001
       0.006
       0.011
       0.013
       0.008
       0.001
      -0.005
      -0.006
      -0.002
       0.003
       0.006
       0.007
       0.005
       0.001
      -0.005
      -0.010
      -0.011
      -0.009
      -0.005
      -0.002
      -0.001
      -0.001
      -0.001
      -0.002
      -0.002
      -0.002
      -0.001
      -0.001
       0.001
       0.004
       0.006
       0.007
       0.007
       0.007
       0.008
       0.008
       0.008
       0.006
       0.003
       0.000
      -0.002
      -0.003
      -0.002
       0.000
       0.003
       0.004
       0.002
      -0.002
      -0.006
      -0.007
      -0.004
       0.000
       0.000
      -0.003
      -0.008
      -0.010
      -0.008
      -0.004
      -0.003
      -0.007
      -0.013
      -0.015
      -0.012
      -0.006
      -0.001
       0.000
      -0.001
      -0.002
      -0.001
       0.003
       0.008
       0.011
       0.009
       0.003
      -0.006
      -0.012
      -0.013
      -0.006
       0.003
       0.008
       0.006
      -0.002
      -0.009
      -0.010
      -0.005
       0.002
       0.006
       0.006
       0.003
       0.000
      -0.003
      -0.004
      -0.003
      -0.002
      -0.001
      -0.001
       0.001
       0.004
       0.008
       0.010
       0.009
       0.007
       0.006
       0.007
       0.008
       0.008
       0.007
       0.004
       0.003
       0.002
       0.002
       0.002
       0.002
       0.004
       0.006
       0.010
       0.013
       0.014
       0.012
       0.006
       0.000
      -0.004
      -0.004
      -0.001
       0.001
       0.000
      -0.005
      -0.009
      -0.010
      -0.007
      -0.003
      -0.001
      -0.003
      -0.007
      -0.011
      -0.010
      -0.004
       0.002
       0.007
       0.007
       0.006
       0.005
       0.005
       0.006
       0.006
       0.003
      -0.003
      -0.009
      -0.011
      -0.009
      -0.003
       0.004
       0.008
       0.009
       0.007
       0.005
       0.004
       0.003
       0.001
      -0.002
      -0.004
      -0.005
      -0.003
      -0.002
      -0.003
      -0.006
      -0.006
      -0.001
       0.004
       0.005
       0.001
      -0.004
      -0.008
      -0.008
      -0.007
      -0.007
      -0.009
      -0.010
      -0.009
      -0.006
      -0.002
      -0.001
      -0.002
      -0.005
      -0.007
      -0.008
      -0.006
      -0.003
       0.000
       0.000
      -0.001
      -0.002
      -0.002
       0.000
       0.004
       0.007
       0.006
      -0.001
      -0.011
      -0.018
      -0.018
      -0.014
      -0.009
      -0.008
      -0.009
      -0.010
      -0.010
      -0.010
      -0.010
      -0.009
      -0.005
       0.001
       0.002
      -0.002
      -0.010
      -0.015
      -0.015
      -0.010
      -0.004
      -0.002
      -0.002
      -0.001
       0.001
       0.004
       0.007
       0.008
       0.008
       0.005
       0.000
      -0.005
      -0.007
      -0.003
       0.004
       0.010
       0.009
       0.001
      -0.008
      -0.013
      -0.009
      -0.001
       0.006
       0.008
       0.006
       0.004
       0.005
       0.007
       0.010
       0.011
       0.011
       0.009
       0.006
       0.001
      -0.004
      -0.009
      -0.010
      -0.008
      -0.003
       0.003
       0.005
       0.003
      -0.003
      -0.011
      -0.017
      -0.016
      -0.010
      -0.001
       0.005
       0.006
       0.003
      -0.001
      -0.005
      -0.006
      -0.003
       0.002
       0.006
       0.008
       0.007
       0.003
      -0.002
      -0.007
      -0.009
      -0.009
      -0.008
      -0.006
      -0.004
       0.002
       0.009
       0.015
       0.013
       0.004
      -0.007
      -0.014
      -0.013
      -0.005
       0.005
       0.010
       0.009
       0.003
      -0.001
      -0.001
       0.003
       0.008
       0.012
       0.011
       0.007
       0.002
      -0.002
      -0.006
      -0.007
      -0.006
      -0.001
       0.006
       0.010
       0.011
       0.008
       0.005
       0.001
      -0.002
      -0.005
      -0.008
      -0.008
      -0.007
      -0.004
       0.000
       0.004
       0.006
       0.005
       0.002
       0.000
      -0.001
       0.000
       0.003
       0.005
       0.007
       0.006
       0.002
      -0.002
      -0.005
      -0.003
       0.001
       0.004
       0.005
       0.002
      -0.001
      -0.001
       0.001
       0.002
       0.000
      -0.002
      -0.002
       0.001
       0.005
       0.006
       0.005
       0.003
       0.003
       0.004
       0.006
       0.005
       0.001
      -0.003
      -0.006
      -0.008
      -0.010
      -0.012
      -0.014
      -0.013
      -0.009
      -0.002
       0.002
       0.001
      -0.005
      -0.009
      -0.009
      -0.007
      -0.005
      -0.005
      -0.007
      -0.008
      -0.009
      -0.008
      -0.006
      -0.003
       0.000
       0.004
       0.005
       0.002
      -0.002
      -0.005
      -0.004
      -0.001
       0.000
      -0.002
      -0.007
      -0.012
      -0.015
      -0.017
      -0.018
      -0.019
      -0.019
      -0.019
      -0.018
      -0.013
      -0.007
      -0.002
       0.000
      -0.007
      -0.022
      -0.041
      -0.052
      -0.043
      -0.014
       0.013
       0.009
      -0.033
      -0.087
      -0.105
      -0.073
      -0.030
      -0.046
      -0.155
      -0.304
      -0.383
      -0.315
      -0.138
       0.019
       0.045
      -0.051
      -0.168
      -0.237
      -0.281
      -0.372
      -0.515
      -0.635
      -0.674
      -0.692
      -0.807
      -0.993
      -0.989
      -0.515
       0.348
       1.056
       0.984
       0.017
      -1.213
      -1.743
      -1.110
       0.113
       0.714
      -0.044
      -1.604
      -2.521
      -1.798
       0.141
       1.835
       2.117
       1.076
      -0.171
      -0.542
       0.167
       1.283
       1.895
       1.529
       0.410
      -0.784
      -1.409
      -1.203
      -0.347
       0.669
       1.314
       1.339
       0.949
       0.672
       1.025
       2.159
       3.591
       4.229
       3.001
      -0.079
      -3.474
      -5.056
      -3.724
      -0.233
       3.367
       5.047
       3.958
       0.927
      -1.949
      -2.626
      -0.673
       2.211
       3.425
       1.556
      -2.407
      -5.796
      -6.297
      -3.622
       0.428
       3.401
       3.923
       2.474
       0.724
       0.068
       0.564
       1.080
       0.477
      -1.283
      -3.131
      -3.936
      -3.425
      -2.022
      -0.017
       2.645
       5.594
       7.433
       6.465
       2.211
      -3.822
      -8.903
     -10.760
      -8.917
      -4.891
      -1.156
       0.485
       0.059
      -0.763
      -0.082
       2.681
       6.214
       8.135
       6.652
       1.909
      -3.978
      -8.265
      -9.297
      -7.357
      -4.090
      -1.121
       0.926
       2.414
       3.992
       5.913
       7.759
       8.668
       7.945
       5.607
       2.484
      -0.230
      -1.617
      -1.476
      -0.299
       1.144
       2.215
       2.527
       1.859
       0.244
      -1.790
      -3.291
      -3.538
      -2.684
      -1.616
      -1.116
      -1.185
      -1.187
      -0.580
       0.515
       1.403
       1.409
       0.411
      -1.081
      -2.263
      -2.521
      -1.807
      -0.678
       0.072
       0.059
      -0.269
       0.031
       1.370
       2.872
       2.918
       0.718
      -2.709
      -5.308
      -5.814
      -4.740
      -3.620
      -3.437
      -3.814
      -3.539
      -1.706
       1.535
       5.030
       7.280
       7.282
       5.138
       1.992
      -0.729
      -2.192
      -2.479
      -2.146
      -1.551
      -0.571
       1.116
       3.529
       6.091
       7.735
       7.384
       4.633
       0.187
      -4.394
      -7.606
      -8.825
      -8.406
      -7.125
      -5.541
      -3.764
      -1.617
       1.057
       4.150
       7.185
       9.373
       9.886
       8.289
       4.934
       0.998
      -2.003
      -3.083
      -2.425
      -1.203
      -0.646
      -1.076
      -1.711
      -1.411
       0.169
       2.032
       2.512
       0.668
      -2.869
      -6.339
      -8.199
      -8.151
      -7.030
      -5.831
      -4.894
      -3.844
      -2.124
       0.457
       3.471
       6.031
       7.302
       7.020
       5.647
       4.006
       2.666
       1.613
       0.544
      -0.538
      -1.144
      -0.774
       0.484
       1.868
       2.477
       1.962
       0.754
      -0.424
      -1.238
      -1.901
      -2.656
      -3.175
      -2.663
      -0.747
       1.729
       3.021
       1.905
      -1.122
      -4.091
      -5.093
      -3.669
      -0.866
       1.829
       3.559
       4.322
       4.489
       4.264
       3.557
       2.229
       0.395
      -1.532
      -3.083
      -4.002
      -4.303
      -4.144
      -3.679
      -2.985
      -2.098
      -1.088
      -0.049
       1.040
       2.420
       4.369
       6.757
       8.747
       9.057
       6.762
       2.116
      -3.219
      -6.899
      -7.306
      -4.713
      -1.140
       1.194
       1.559
       0.978
       0.932
       1.856
       2.819
       2.504
       0.423
      -2.624
      -5.147
      -6.080
      -5.507
      -4.403
      -3.602
      -2.934
      -1.366
       1.892
       6.346
      10.342
      12.279
      11.734
       9.481
       6.547
       3.398
       0.070
      -3.062
      -4.936
      -4.526
      -1.982
       1.069
       2.574
       1.588
      -1.125
      -3.917
      -5.653
      -6.415
      -7.066
      -8.229
      -9.631
     -10.318
      -9.434
      -6.808
      -2.964
       1.197
       4.666
       6.569
       6.555
       5.102
       3.288
       2.014
       1.356
       0.709
      -0.438
      -1.890
      -2.881
      -2.689
      -1.164
       1.160
       3.319
       4.363
       3.787
       1.765
      -0.914
      -3.152
      -4.032
      -3.365
      -1.933
      -1.052
      -1.569
      -3.118
      -4.397
      -4.277
      -2.688
      -0.506
       1.246
       2.025
       1.844
       1.055
       0.205
      -0.110
       0.424
       1.510
       2.328
       2.159
       1.017
      -0.230
      -0.374
       1.326
       4.456
       7.422
       8.322
       6.318
       2.468
      -0.794
      -1.376
       0.790
       3.507
       3.897
       0.651
      -4.845
      -9.406
     -10.247
      -6.854
      -1.269
       3.366
       4.955
       3.717
       1.635
       0.619
       0.999
       1.592
       1.103
      -0.585
      -2.374
      -3.098
      -2.677
      -2.181
      -2.655
      -3.847
      -4.168
      -2.184
       1.706
       5.226
       6.137
       4.341
       2.017
       1.544
       3.291
       5.447
       5.935
       4.343
       2.025
       0.588
       0.456
       0.787
       0.487
      -0.819
      -2.662
      -4.253
      -4.952
      -4.395
      -2.546
       0.029
       2.029
       1.913
      -1.098
      -6.328
     -11.973
     -16.207
     -18.138
     -17.854
     -15.740
     -11.873
      -6.134
       1.063
       8.168
      12.759
      12.794
       8.044
       0.553
      -6.436
     -10.327
     -10.435
      -7.835
      -4.155
      -0.424
       3.197
       6.817
      10.113
      12.214
      12.287
      10.246
       6.929
       3.563
       1.018
      -0.551
      -1.458
      -1.980
      -2.055
      -1.380
       0.284
       2.877
       5.972
       8.864
      10.852
      11.693
      11.854
      12.126
      12.763
      13.023
      11.698
       8.378
       4.312
       1.925
       3.120
       7.686
      13.247
      16.863
      16.926
      13.840
       9.195
       4.411
      -0.027
      -4.355
      -8.701
     -12.384
     -14.013
     -12.437
      -7.810
      -1.763
       3.575
       6.852
       7.932
       7.284
       5.221
       1.817
      -2.600
      -7.141
     -10.672
     -12.469
     -12.606
     -11.735
     -10.441
      -8.750
      -6.270
      -2.856
       0.810
       3.315
       3.195
      -0.330
      -6.973
     -15.271
     -22.733
     -26.539
     -24.947
     -18.644
     -10.668
      -4.432
      -1.274
       0.171
       2.088
       4.973
       6.959
       5.537
      -0.119
      -8.313
     -15.973
     -20.516
     -20.947
     -17.740
     -12.107
      -5.394
       1.171
       6.560
       9.980
      10.895
       9.107
       5.002
      -0.203
      -4.543
      -5.908
      -2.956
       4.126
      13.469
      22.101
      27.064
      26.597
      20.869
      11.885
       2.590
      -4.325
      -7.417
      -6.897
      -4.292
      -1.365
       1.073
       3.462
       6.559
      10.124
      12.570
      12.002
       7.833
       1.628
      -3.673
      -5.688
      -4.230
      -1.280
       0.644
       0.248
      -2.131
      -5.397
      -8.493
     -10.294
      -9.346
      -4.574
       3.341
      11.528
      16.369
      15.793
      10.439
       2.828
      -4.508
     -10.309
     -14.512
     -17.300
     -18.299
     -16.640
     -11.774
      -4.306
       3.949
      10.806
      14.831
      15.905
      14.881
      12.686
       9.665
       5.687
       0.852
      -3.967
      -7.384
      -8.408
      -7.253
      -5.307
      -4.166
      -4.422
      -5.215
      -5.010
      -2.998
       0.082
       2.441
       2.627
       0.602
      -2.304
      -4.358
      -4.459
      -2.577
       0.508
       3.795
       6.494
       8.120
       8.478
       7.752
       6.598
       5.923
       6.315
       7.446
       7.993
       6.360
       1.910
      -4.150
      -9.117
     -10.410
      -7.339
      -1.603
       3.936
       7.134
       7.510
       5.776
       2.810
      -0.826
      -4.635
      -7.849
      -9.564
      -9.269
      -7.204
      -4.197
      -1.187
       1.099
       2.196
       1.837
      -0.010
      -2.969
      -6.155
      -8.445
      -9.164
      -8.689
      -8.277
      -9.036
     -10.870
     -12.430
     -12.198
      -9.695
      -5.660
      -1.170
       3.284
       7.791
      12.248
      15.849
      17.497
      16.692
      13.917
      10.195
       6.415
       3.098
       0.538
      -1.119
      -1.977
      -2.339
      -2.378
      -1.890
      -0.488
       1.917
       4.855
       7.501
       9.058
       9.008
       7.186
       3.883
      -0.041
      -3.318
      -4.866
      -4.472
      -2.958
      -1.559
      -0.973
      -0.941
      -0.759
      -0.168
       0.276
      -0.334
      -2.415
      -5.453
      -8.299
      -9.890
      -9.841
      -8.571
      -6.955
      -5.738
      -5.089
      -4.550
      -3.431
      -1.372
       1.346
       4.015
       6.114
       7.737
       9.338
      11.035
      12.199
      11.808
       9.292
       5.090
       0.408
      -3.550
      -6.224
      -7.722
      -8.378
      -8.305
      -7.339
      -5.321
      -2.397
       0.905
       3.850
       5.779
       6.378
       5.712
       4.023
       1.549
      -1.375
      -4.043
      -5.391
      -4.509
      -1.372
       2.865
       6.396
       7.791
       6.742
       3.983
       0.565
      -2.779
      -5.672
      -7.712
      -8.318
      -7.093
      -4.296
      -0.815
       2.407
       4.914
       6.675
       7.589
       7.221
       5.151
       1.576
      -2.499
      -5.699
      -6.960
      -5.915
      -2.869
       1.427
       5.959
       9.621
      11.461
      10.957
       8.186
       3.740
      -1.519
      -6.687
     -10.897
     -13.358
     -13.501
     -11.258
      -7.221
      -2.440
       2.050
       5.597
       7.930
       8.938
       8.579
       7.045
       4.907
       2.958
       1.772
       1.355
       1.194
       0.701
      -0.288
      -1.360
      -1.871
      -1.548
      -0.811
      -0.498
      -1.171
      -2.587
      -3.778
      -3.745
      -2.222
       0.046
       1.731
       1.774
       0.126
      -2.127
      -3.411
      -2.722
      -0.335
       2.393
       3.985
       3.820
       2.379
       0.633
      -0.852
      -2.325
      -4.478
      -7.660
     -11.365
     -14.379
     -15.456
     -14.038
     -10.586
      -6.368
      -2.767
      -0.522
       0.607
       1.441
       2.541
       3.645
       3.923
       2.864
       0.970
      -0.471
      -0.375
       1.289
       3.549
       5.243
       5.788
       5.300
       4.175
       2.708
       1.095
      -0.353
      -1.193
      -1.087
      -0.026
       1.735
       3.921
       6.362
       8.860
      11.001
      12.190
      11.960
      10.305
       7.731
       5.013
       2.854
       1.649
       1.410
       1.790
       2.191
       1.980
       0.777
      -1.324
      -3.811
      -6.110
      -7.967
      -9.497
     -10.880
     -12.042
     -12.674
     -12.495
     -11.423
      -9.510
      -6.843
      -3.596
      -0.211
       2.593
       4.101
       4.018
       2.698
       0.961
      -0.371
      -0.881
      -0.612
       0.178
       1.264
       2.504
       3.767
       4.894
       5.755
       6.300
       6.515
       6.363
       5.801
       4.854
       3.638
       2.281
       0.833
      -0.713
      -2.249
      -3.424
      -3.753
      -2.994
      -1.464
       0.048
       0.787
       0.549
      -0.259
      -1.088
      -1.792
      -2.729
      -4.342
      -6.588
      -8.725
      -9.671
      -8.697
      -5.949
      -2.360
       0.971
       3.372
       4.733
       5.181
       4.738
       3.349
       1.217
      -0.978
      -2.317
      -2.235
      -0.970
       0.558
       1.400
       1.245
       0.551
       0.072
       0.232
       0.892
       1.638
       2.220
       2.718
       3.298
       3.913
       4.309
       4.358
       4.288
       4.513
       5.204
       6.027
       6.361
       5.792
       4.430
       2.792
       1.392
       0.408
      -0.364
      -1.299
      -2.679
      -4.490
      -6.381
      -7.809
      -8.347
      -7.969
      -7.073
      -6.187
      -5.601
      -5.206
      -4.656
      -3.669
      -2.252
      -0.708
       0.554
       1.291
       1.564
       1.671
       1.940
       2.549
       3.476
       4.540
       5.472
       6.013
       6.037
       5.650
       5.139
