Origin Time       15/06/2011 00:59:28 UTC
Lat.              30.6 N	
Long.             80.1 E	
Depth (Km)         10.0
Magnitude         3.4
 Region           Pithoragarh-Uttarakhand                                          
 Above details taken from IMD 
    
Station Code      KAP
Station Lat.       29.941  N
Station Long.      79.899  E
Station Height(m) 1066.0
Site Class        A   Vs30 between 700 m/sec to 1400 m/sec * 
Record Time       15.06.2011 00:58:59.539 UTC
Sampling Rate     200. Hz
 Record Duration   81.520 Sec.
 Direction         N-S (N positive)
Max. Acceleration     17.437 cm/sec**2
     
  * For reference see Site Classification link of website 
     
 Base Line Corrected and Low Pass Filtered (Cut Off at 35 Hz) Time History
 Acceleration data in cm/sec**2
    
[...]
      -0.011
      -0.009
      -0.008
      -0.012
      -0.017
      -0.020
      -0.018
      -0.012
      -0.004
       0.003
       0.004
      -0.003
      -0.013
      -0.021
      -0.022
      -0.021
      -0.020
      -0.020
      -0.019
      -0.014
      -0.005
       0.003
       0.005
       0.000
      -0.006
      -0.011
      -0.014
      -0.017
      -0.018
      -0.016
      -0.012
      -0.008
      -0.003
       0.002
       0.007
       0.007
       0.004
      -0.004
      -0.013
      -0.021
      -0.024
      -0.021
      -0.015
      -0.009
      -0.004
      -0.003
      -0.006
      -0.012
      -0.014
      -0.009
      -0.002
      -0.001
      -0.007
      -0.020
      -0.030
      -0.031
      -0.022
      -0.009
      -0.002
      -0.004
      -0.008
      -0.011
      -0.010
      -0.007
      -0.005
      -0.007
      -0.010
      -0.013
      -0.012
      -0.007
      -0.002
      -0.001
      -0.004
      -0.011
      -0.017
      -0.018
      -0.015
      -0.012
      -0.010
      -0.011
      -0.011
      -0.007
      -0.002
       0.001
       0.000
      -0.005
      -0.010
      -0.013
      -0.010
      -0.004
       0.003
       0.008
       0.009
       0.007
       0.002
      -0.005
      -0.009
      -0.011
      -0.013
      -0.015
      -0.017
      -0.015
      -0.008
      -0.001
       0.002
      -0.002
      -0.008
      -0.010
      -0.006
       0.000
      -0.001
      -0.009
      -0.021
      -0.031
      -0.033
      -0.023
      -0.002
       0.019
       0.029
       0.023
       0.007
      -0.007
      -0.013
      -0.012
      -0.010
      -0.013
      -0.019
      -0.023
      -0.020
      -0.008
       0.006
       0.014
       0.014
       0.007
      -0.002
      -0.008
      -0.010
      -0.011
      -0.012
      -0.014
      -0.012
      -0.006
       0.006
       0.019
       0.026
       0.022
       0.008
      -0.007
      -0.015
      -0.012
      -0.003
       0.005
       0.008
       0.006
       0.003
       0.004
       0.009
       0.012
       0.007
      -0.005
      -0.018
      -0.024
      -0.019
      -0.009
      -0.001
      -0.001
      -0.007
      -0.011
      -0.007
       0.004
       0.013
       0.014
       0.005
      -0.009
      -0.020
      -0.024
      -0.022
      -0.018
      -0.015
      -0.013
      -0.009
      -0.004
       0.000
       0.001
      -0.002
      -0.008
      -0.013
      -0.017
      -0.017
      -0.015
      -0.010
      -0.003
       0.003
       0.004
       0.001
      -0.006
      -0.011
      -0.014
      -0.014
      -0.015
      -0.015
      -0.016
      -0.014
      -0.008
       0.001
       0.008
       0.008
       0.003
      -0.004
      -0.007
      -0.007
      -0.004
      -0.001
       0.000
       0.000
       0.000
       0.001
       0.004
       0.006
       0.005
       0.001
      -0.004
      -0.006
      -0.007
      -0.006
      -0.005
      -0.005
      -0.002
       0.003
       0.008
       0.009
       0.003
      -0.007
      -0.018
      -0.028
      -0.032
      -0.029
      -0.022
      -0.015
      -0.011
      -0.011
      -0.012
      -0.014
      -0.013
      -0.011
      -0.010
      -0.012
      -0.014
      -0.015
      -0.012
      -0.008
      -0.003
       0.000
       0.001
       0.000
       0.001
       0.000
      -0.002
      -0.008
      -0.014
      -0.018
      -0.018
      -0.015
      -0.010
      -0.005
      -0.005
      -0.008
      -0.012
      -0.012
      -0.009
      -0.007
      -0.007
      -0.011
      -0.016
      -0.018
      -0.015
      -0.008
       0.000
       0.003
       0.001
      -0.004
      -0.009
      -0.013
      -0.015
      -0.019
      -0.025
      -0.028
      -0.024
      -0.013
      -0.002
       0.004
       0.002
      -0.005
      -0.014
      -0.020
      -0.020
      -0.016
      -0.012
      -0.012
      -0.014
      -0.016
      -0.015
      -0.010
      -0.002
       0.001
      -0.003
      -0.013
      -0.022
      -0.025
      -0.021
      -0.013
      -0.005
      -0.001
      -0.001
      -0.001
       0.000
       0.002
       0.002
      -0.004
      -0.009
      -0.013
      -0.014
      -0.014
      -0.011
      -0.007
      -0.002
       0.005
       0.011
       0.013
       0.006
      -0.006
      -0.017
      -0.019
      -0.013
      -0.003
       0.004
       0.003
      -0.002
      -0.007
      -0.011
      -0.014
      -0.016
      -0.017
      -0.014
      -0.007
      -0.003
      -0.005
      -0.013
      -0.022
      -0.026
      -0.022
      -0.011
      -0.003
      -0.005
      -0.014
      -0.021
      -0.021
      -0.014
      -0.003
       0.004
       0.005
       0.001
      -0.003
      -0.005
      -0.008
      -0.013
      -0.018
      -0.020
      -0.016
      -0.009
      -0.002
       0.000
      -0.002
      -0.009
      -0.014
      -0.015
      -0.011
      -0.009
      -0.011
      -0.020
      -0.028
      -0.029
      -0.020
      -0.006
       0.005
       0.006
       0.001
      -0.005
      -0.005
      -0.001
       0.005
       0.006
       0.000
      -0.009
      -0.017
      -0.016
      -0.012
      -0.010
      -0.012
      -0.017
      -0.019
      -0.015
      -0.008
      -0.002
      -0.003
      -0.010
      -0.016
      -0.016
      -0.010
      -0.004
      -0.001
      -0.005
      -0.012
      -0.017
      -0.013
      -0.003
       0.006
       0.005
      -0.005
      -0.015
      -0.017
      -0.012
      -0.010
      -0.014
      -0.021
      -0.022
      -0.014
      -0.002
       0.005
       0.003
      -0.002
      -0.003
       0.002
       0.010
       0.016
       0.015
       0.007
      -0.006
      -0.016
      -0.018
      -0.013
      -0.007
      -0.006
      -0.010
      -0.015
      -0.018
      -0.016
      -0.012
      -0.007
      -0.003
       0.000
      -0.003
      -0.010
      -0.016
      -0.015
      -0.004
       0.010
       0.019
       0.020
       0.013
       0.004
      -0.002
       0.000
       0.004
       0.001
      -0.010
      -0.022
      -0.023
      -0.013
      -0.001
       0.006
       0.004
      -0.001
      -0.001
       0.005
       0.009
       0.007
       0.000
      -0.006
      -0.009
      -0.009
      -0.008
      -0.007
      -0.003
       0.003
       0.008
       0.010
       0.008
       0.000
      -0.010
      -0.015
      -0.014
      -0.008
      -0.002
       0.003
       0.004
       0.002
       0.000
       0.002
       0.005
       0.006
       0.001
      -0.007
      -0.015
      -0.018
      -0.014
      -0.009
      -0.015
      -0.044
      -0.098
      -0.167
      -0.237
      -0.295
      -0.334
      -0.349
      -0.321
      -0.213
       0.020
       0.387
       0.810
       1.133
       1.201
       0.981
       0.615
       0.329
       0.223
       0.138
      -0.213
      -0.914
      -1.651
      -1.927
      -1.541
      -0.824
      -0.324
      -0.236
      -0.190
       0.321
       1.333
       2.282
       2.518
       1.881
       0.752
      -0.366
      -1.222
      -1.797
      -2.071
      -1.944
      -1.375
      -0.541
       0.254
       0.844
       1.326
       1.862
       2.360
       2.419
       1.687
       0.273
      -1.239
      -2.229
      -2.488
      -2.257
      -1.869
      -1.433
      -0.838
      -0.010
       0.881
       1.485
       1.522
       1.017
       0.319
      -0.122
      -0.081
       0.286
       0.602
       0.622
       0.454
       0.421
       0.701
       1.086
       1.138
       0.583
      -0.413
      -1.349
      -1.748
      -1.474
      -0.784
      -0.128
       0.127
      -0.116
      -0.644
      -1.042
      -0.946
      -0.323
       0.431
       0.761
       0.407
      -0.336
      -0.836
      -0.653
       0.106
       0.913
       1.270
       1.095
       0.747
       0.713
       1.203
       1.958
       2.404
       2.062
       0.906
      -0.608
      -1.863
      -2.479
      -2.499
      -2.231
      -1.954
      -1.727
      -1.422
      -0.873
      -0.029
       0.957
       1.745
       1.963
       1.463
       0.476
      -0.490
      -0.978
      -0.861
      -0.360
       0.165
       0.463
       0.509
       0.467
       0.560
       0.915
       1.479
       2.001
       2.119
       1.549
       0.330
      -1.079
      -2.020
      -2.102
      -1.506
      -0.823
      -0.545
      -0.691
      -0.938
      -1.039
      -1.020
      -0.989
      -0.875
      -0.497
       0.151
       0.807
       1.157
       1.107
       0.793
       0.410
       0.107
       0.029
       0.312
       0.920
       1.553
       1.840
       1.674
       1.280
       0.912
       0.535
      -0.073
      -0.914
      -1.569
      -1.540
      -0.817
      -0.026
       0.062
      -0.768
      -1.943
      -2.582
      -2.247
      -1.262
      -0.336
       0.103
       0.184
       0.292
       0.607
       1.007
       1.331
       1.594
       1.879
       2.109
       2.043
       1.530
       0.681
      -0.252
      -1.065
      -1.614
      -1.737
      -1.324
      -0.537
       0.162
       0.360
       0.075
      -0.273
      -0.310
      -0.066
       0.105
      -0.088
      -0.621
      -1.230
      -1.622
      -1.577
      -0.972
       0.118
       1.302
       2.009
       1.941
       1.391
       1.018
       1.188
       1.544
       1.335
       0.234
      -1.188
      -1.899
      -1.355
      -0.044
       0.931
       0.805
      -0.264
      -1.444
      -1.964
      -1.682
      -1.075
      -0.751
      -0.900
      -1.146
      -0.934
      -0.105
       0.914
       1.531
       1.596
       1.530
       1.820
       2.409
       2.678
       2.066
       0.663
      -0.825
      -1.672
      -1.682
      -1.204
      -0.686
      -0.287
       0.096
       0.502
       0.730
       0.513
      -0.183
      -1.090
      -1.901
      -2.499
      -2.885
      -2.922
      -2.296
      -0.854
       1.051
       2.637
       3.219
       2.727
       1.725
       0.934
       0.703
       0.860
       0.964
       0.678
      -0.035
      -0.908
      -1.507
      -1.454
      -0.691
       0.412
       1.270
       1.520
       1.247
       0.790
       0.356
      -0.119
      -0.745
      -1.426
      -1.862
      -1.792
      -1.195
      -0.306
       0.510
       0.895
       0.673
       0.005
      -0.626
      -0.736
      -0.258
       0.361
       0.552
       0.181
      -0.309
      -0.344
       0.188
       0.809
       0.914
       0.367
      -0.373
      -0.693
      -0.383
       0.220
       0.601
       0.508
       0.059
      -0.474
      -0.863
      -0.955
      -0.657
      -0.029
       0.643
       1.002
       0.921
       0.625
       0.455
       0.517
       0.606
       0.471
       0.109
      -0.228
      -0.303
      -0.136
       0.024
      -0.071
      -0.457
      -0.946
      -1.250
      -1.143
      -0.607
       0.108
       0.585
       0.510
      -0.062
      -0.701
      -0.940
      -0.674
      -0.195
       0.163
       0.381
       0.703
       1.263
       1.854
       2.095
       1.780
       1.021
       0.100
      -0.730
      -1.312
      -1.543
      -1.381
      -0.890
      -0.254
       0.311
       0.674
       0.837
       0.863
       0.779
       0.544
       0.105
      -0.516
      -1.190
      -1.716
      -1.910
      -1.707
      -1.232
      -0.754
      -0.482
      -0.349
      -0.033
       0.704
       1.682
       2.344
       2.209
       1.334
       0.316
      -0.189
      -0.011
       0.438
       0.558
       0.101
      -0.632
      -1.077
      -0.924
      -0.386
       0.012
      -0.066
      -0.468
      -0.719
      -0.485
       0.125
       0.665
       0.726
       0.243
      -0.452
      -0.840
      -0.586
       0.181
       0.915
       1.085
       0.644
       0.070
      -0.095
       0.247
       0.712
       0.863
       0.611
       0.183
      -0.207
      -0.570
      -1.026
      -1.557
      -1.940
      -1.941
      -1.518
      -0.820
      -0.015
       0.816
       1.607
       2.194
       2.350
       1.987
       1.274
       0.526
      -0.066
      -0.545
      -1.026
      -1.447
      -1.573
      -1.271
      -0.738
      -0.376
      -0.398
      -0.591
      -0.496
       0.178
       1.286
       2.326
       2.760
       2.313
       1.091
      -0.491
      -1.906
      -2.752
      -2.922
      -2.557
      -1.829
      -0.796
       0.492
       1.791
       2.669
       2.814
       2.328
       1.657
       1.149
       0.721
       0.020
      -1.065
      -2.138
      -2.610
      -2.259
      -1.423
      -0.627
      -0.087
       0.367
       0.936
       1.535
       1.844
       1.612
       0.862
      -0.144
      -1.037
      -1.462
      -1.240
      -0.561
       0.043
       0.052
      -0.568
      -1.263
      -1.312
      -0.432
       0.986
       2.231
       2.867
       3.008
       3.076
       3.352
       3.776
       4.101
       4.147
       3.884
       3.318
       2.373
       0.956
      -0.832
      -2.595
      -3.840
      -4.337
      -4.326
      -4.360
      -4.920
      -6.111
      -7.628
      -8.969
      -9.688
      -9.557
      -8.600
      -7.071
      -5.360
      -3.852
      -2.744
      -1.933
      -1.060
       0.229
       1.968
       3.762
       5.110
       5.970
       7.006
       9.101
      12.405
      15.793
      17.437
      16.202
      12.653
       8.674
       5.936
       4.610
       3.522
       1.497
      -1.480
      -4.335
      -5.916
      -5.877
      -4.763
      -3.519
      -2.990
      -3.677
      -5.610
      -8.307
     -10.968
     -12.920
     -13.956
     -14.194
     -13.602
     -11.804
      -8.433
      -3.670
       1.640
       6.381
       9.672
      11.117
      10.865
       9.603
       8.394
       8.155
       8.991
       9.993
       9.884
       8.070
       5.123
       2.240
       0.226
      -1.023
      -2.144
      -3.603
      -5.385
      -7.187
      -8.712
      -9.700
      -9.791
      -8.575
      -5.930
      -2.371
       0.962
       2.835
       2.691
       1.054
      -0.826
      -1.882
      -1.916
      -1.499
      -1.234
      -1.106
      -0.504
       1.152
       3.742
       6.317
       7.677
       7.256
       5.589
       3.908
       3.114
       3.045
       2.750
       1.544
      -0.199
      -1.362
      -1.197
      -0.123
       0.596
      -0.055
      -2.018
      -4.323
      -5.959
      -6.596
      -6.586
      -6.395
      -6.073
      -5.238
      -3.545
      -1.147
       1.327
       3.275
       4.613
       5.743
       7.034
       8.328
       8.953
       8.220
       5.978
       2.832
      -0.134
      -1.934
      -2.237
      -1.532
      -0.784
      -0.815
      -1.837
      -3.457
      -5.071
      -6.297
      -7.097
      -7.582
      -7.746
      -7.411
      -6.417
      -4.810
      -2.823
      -0.691
       1.490
       3.702
       5.817
       7.510
       8.393
       8.256
       7.206
       5.606
       3.884
       2.365
       1.216
       0.486
       0.166
       0.218
       0.560
       1.007
       1.269
       1.057
       0.238
      -1.079
      -2.595
      -3.950
      -4.821
      -4.989
      -4.391
      -3.166
      -1.649
      -0.273
       0.621
       0.927
       0.775
       0.397
      -0.015
      -0.353
      -0.542
      -0.504
      -0.188
       0.400
       1.197
       2.106
       2.989
       3.635
       3.775
       3.194
       1.879
       0.068
      -1.855
      -3.530
      -4.720
      -5.290
      -5.187
      -4.467
      -3.330
      -2.049
      -0.844
       0.169
       0.902
       1.224
       1.042
       0.519
       0.134
       0.443
       1.665
       3.474
       5.217
       6.341
       6.667
       6.293
       5.342
       3.857
       1.922
      -0.204
      -2.141
      -3.588
      -4.466
      -4.886
      -4.991
      -4.827
      -4.332
      -3.460
      -2.322
      -1.224
      -0.512
      -0.326
      -0.480
      -0.583
      -0.323
       0.323
       1.098
       1.653
       1.772
       1.488
       1.041
       0.735
       0.773
       1.150
       1.659
       2.011
       1.987
       1.550
       0.861
       0.221
      -0.063
       0.135
       0.644
       1.078
       1.068
       0.497
      -0.460
      -1.477
      -2.268
      -2.669
      -2.632
      -2.194
      -1.485
      -0.694
       0.004
       0.513
       0.786
       0.740
       0.252
      -0.707
      -1.915
      -2.932
      -3.354
      -3.074
      -2.324
      -1.479
      -0.801
      -0.333
       0.041
       0.458
       0.988
       1.630
       2.349
       3.096
       3.810
       4.430
       4.929
       5.320
       5.592
       5.632
       5.209
       4.118
       2.402
       0.440
      -1.249
      -2.356
      -2.984
      -3.491
      -4.131
      -4.826
      -5.255
      -5.162
      -4.579
      -3.807
      -3.208
      -2.995
      -3.133
      -3.373
      -3.379
      -2.899
      -1.915
      -0.669
       0.465
       1.202
       1.516
       1.635
       1.871
       2.406
       3.172
       3.925
       4.445
       4.705
       4.842
       4.964
       4.996
       4.736
       4.057
       3.042
       1.914
       0.844
      -0.155
      -1.138
      -2.081
      -2.862
      -3.396
      -3.763
      -4.139
      -4.596
      -4.966
      -4.937
      -4.302
      -3.137
      -1.758
      -0.504
       0.448
       1.109
       1.547
       1.757
       1.659
       1.226
       0.595
       0.028
      -0.244
      -0.124
       0.347
       1.062
       1.858
       2.502
       2.733
       2.396
       1.579
       0.586
      -0.249
      -0.782
      -1.109
      -1.426
      -1.804
      -2.100
      -2.053
      -1.501
      -0.529
       0.584
       1.541
       2.172
       2.435
       2.341
       1.908
       1.210
       0.437
      -0.150
      -0.381
      -0.310
      -0.196
      -0.333
      -0.861
      -1.710
      -2.666
      -3.480
      -3.927
      -3.850
      -3.189
      -2.033
      -0.626
       0.728
       1.795
       2.512
       2.961
       3.260
       3.446
       3.450
       3.168
       2.581
       1.804
       1.043
       0.474
       0.139
      -0.051
      -0.229
      -0.455
      -0.693
      -0.893
      -1.076
      -1.325
      -1.696
      -2.131
      -2.467
      -2.543
      -2.307
      -1.830
      -1.258
      -0.727
      -0.323
      -0.073
       0.055
       0.131
       0.228
       0.385
       0.595
       0.827
       1.043
       1.226
       1.401
       1.630
       1.948
       2.273
       2.413
       2.203
       1.659
       0.998
       0.472
       0.182
       0.028
      -0.170
      -0.526
      -1.024
      -1.565
      -2.042
      -2.379
      -2.548
      -2.570
      -2.487
      -2.313
      -1.993
      -1.433
      -0.604
       0.371
       1.248
       1.800
       1.957
       1.827
       1.577
       1.312
       1.062
       0.860
       0.790
       0.939
       1.298
       1.731
       2.045
       2.092
       1.811
       1.217
       0.390
      -0.521
