Origin Time       21/9/2009 9:43:47	 
Lat.              30.9 N	
Long.             79.1 E	
Depth (Km)         13.0
Magnitude         4.7
 Region           UTTARKASHI-UTTARAKHAND                                           
 Above details taken from IMD 
     
Station Code      KAP
Station Lat.       29.941  N
Station Long.      79.899  E
Station Height(m) 1066.0
Site Class        A   Vs30 between 700 m/sec to 1400 m/sec * 
Record Time       21.09.2009 09:44:15.714
Sampling Rate     200. Hz
 Record Duration   65.835 Sec.
 Direction         E-W (E positive)
Max. Acceleration      8.083 cm/sec**2
     
  * For reference see Site Classification link of website 
     
 Base Line Corrected and Low Pass Filtered (Cut Off at 35 Hz) Time History
 Acceleration data in cm/sec**2
    
[...]
       0.008
      -0.069
      -0.108
      -0.108
      -0.087
      -0.069
      -0.073
      -0.096
      -0.116
      -0.116
      -0.099
      -0.086
      -0.091
      -0.107
      -0.111
      -0.084
      -0.035
       0.013
       0.045
       0.073
       0.113
       0.166
       0.208
       0.208
       0.161
       0.102
       0.080
       0.116
       0.186
       0.235
       0.212
       0.102
      -0.068
      -0.247
      -0.382
      -0.443
      -0.427
      -0.355
      -0.261
      -0.170
      -0.101
      -0.061
      -0.052
      -0.076
      -0.128
      -0.199
      -0.277
      -0.344
      -0.377
      -0.347
      -0.237
      -0.055
       0.156
       0.339
       0.445
       0.460
       0.411
       0.343
       0.292
       0.274
       0.278
       0.288
       0.283
       0.250
       0.179
       0.072
      -0.053
      -0.159
      -0.209
      -0.186
      -0.113
      -0.040
      -0.016
      -0.057
      -0.143
      -0.233
      -0.299
      -0.331
      -0.342
      -0.349
      -0.362
      -0.383
      -0.398
      -0.387
      -0.328
      -0.203
      -0.009
       0.236
       0.483
       0.676
       0.772
       0.768
       0.692
       0.587
       0.487
       0.403
       0.330
       0.248
       0.139
      -0.008
      -0.178
      -0.335
      -0.431
      -0.433
      -0.346
      -0.219
      -0.117
      -0.091
      -0.150
      -0.261
      -0.368
      -0.423
      -0.414
      -0.363
      -0.310
      -0.279
      -0.268
      -0.248
      -0.194
      -0.092
       0.051
       0.215
       0.377
       0.503
       0.560
       0.527
       0.415
       0.266
       0.130
       0.040
       0.001
      -0.001
       0.009
       0.013
      -0.002
      -0.040
      -0.095
      -0.149
      -0.180
      -0.173
      -0.131
      -0.077
      -0.039
      -0.027
      -0.027
      -0.008
       0.057
       0.167
       0.291
       0.389
       0.432
       0.414
       0.344
       0.234
       0.095
      -0.059
      -0.204
      -0.321
      -0.402
      -0.455
      -0.488
      -0.502
      -0.481
      -0.410
      -0.291
      -0.151
      -0.032
       0.034
       0.031
      -0.028
      -0.112
      -0.177
      -0.177
      -0.086
       0.082
       0.271
       0.407
       0.428
       0.325
       0.138
      -0.061
      -0.202
      -0.243
      -0.182
      -0.059
       0.067
       0.146
       0.156
       0.117
       0.065
       0.037
       0.055
       0.133
       0.267
       0.436
       0.596
       0.701
       0.722
       0.661
       0.549
       0.424
       0.314
       0.218
       0.113
      -0.022
      -0.187
      -0.355
      -0.490
      -0.570
      -0.598
      -0.595
      -0.582
      -0.572
      -0.564
      -0.545
      -0.499
      -0.414
      -0.294
      -0.162
      -0.047
       0.025
       0.051
       0.043
       0.027
       0.024
       0.041
       0.068
       0.087
       0.080
       0.044
      -0.007
      -0.054
      -0.072
      -0.040
       0.052
       0.190
       0.338
       0.451
       0.493
       0.461
       0.383
       0.302
       0.253
       0.245
       0.266
       0.291
       0.291
       0.243
       0.138
      -0.012
      -0.165
      -0.271
      -0.302
      -0.270
      -0.215
      -0.174
      -0.148
      -0.111
      -0.035
       0.076
       0.183
       0.234
       0.192
       0.062
      -0.121
      -0.298
      -0.417
      -0.444
      -0.374
      -0.238
      -0.083
       0.044
       0.118
       0.137
       0.114
       0.066
       0.006
      -0.058
      -0.121
      -0.180
      -0.234
      -0.284
      -0.326
      -0.347
      -0.332
      -0.271
      -0.169
      -0.040
       0.090
       0.195
       0.255
       0.265
       0.237
       0.199
       0.180
       0.199
       0.253
       0.319
       0.371
       0.394
       0.394
       0.390
       0.406
       0.450
       0.510
       0.555
       0.543
       0.438
       0.235
      -0.034
      -0.309
      -0.525
      -0.642
      -0.660
      -0.616
      -0.556
      -0.512
      -0.482
      -0.447
      -0.386
      -0.296
      -0.196
      -0.113
      -0.071
      -0.077
      -0.122
      -0.179
      -0.216
      -0.207
      -0.143
      -0.039
       0.072
       0.149
       0.165
       0.113
       0.007
      -0.123
      -0.241
      -0.311
      -0.315
      -0.257
      -0.162
      -0.053
       0.063
       0.191
       0.335
       0.484
       0.615
       0.703
       0.740
       0.727
       0.675
       0.591
       0.481
       0.353
       0.225
       0.121
       0.056
       0.030
       0.014
      -0.027
      -0.111
      -0.220
      -0.318
      -0.372
      -0.383
      -0.378
      -0.386
      -0.414
      -0.438
      -0.423
      -0.348
      -0.219
      -0.071
       0.053
       0.120
       0.121
       0.066
      -0.028
      -0.143
      -0.263
      -0.362
      -0.404
      -0.366
      -0.247
      -0.079
       0.087
       0.213
       0.281
       0.301
       0.289
       0.256
       0.214
       0.178
       0.170
       0.209
       0.296
       0.414
       0.538
       0.635
       0.681
       0.663
       0.585
       0.464
       0.317
       0.151
      -0.029
      -0.218
      -0.402
      -0.557
      -0.656
      -0.685
      -0.646
      -0.562
      -0.460
      -0.367
      -0.304
      -0.284
      -0.306
      -0.344
      -0.356
      -0.304
      -0.175
       0.002
       0.171
       0.283
       0.325
       0.323
       0.318
       0.326
       0.333
       0.310
       0.241
       0.139
       0.039
      -0.030
      -0.057
      -0.046
      -0.012
       0.029
       0.054
       0.036
      -0.040
      -0.162
      -0.293
      -0.388
      -0.419
      -0.390
      -0.320
      -0.235
      -0.148
      -0.066
       0.010
       0.083
       0.153
       0.219
       0.268
       0.279
       0.243
       0.171
       0.106
       0.090
       0.143
       0.240
       0.329
       0.363
       0.333
       0.267
       0.206
       0.180
       0.191
       0.214
       0.218
       0.175
       0.073
      -0.081
      -0.258
      -0.413
      -0.497
      -0.478
      -0.362
      -0.198
      -0.059
      -0.002
      -0.038
      -0.130
      -0.219
      -0.257
      -0.232
      -0.163
      -0.086
      -0.031
      -0.008
      -0.004
       0.011
       0.064
       0.159
       0.269
       0.353
       0.386
       0.369
       0.324
       0.267
       0.198
       0.116
       0.034
      -0.020
      -0.031
      -0.016
      -0.019
      -0.080
      -0.196
      -0.324
      -0.413
      -0.444
      -0.436
      -0.425
      -0.432
      -0.447
      -0.442
      -0.390
      -0.284
      -0.142
       0.003
       0.111
       0.154
       0.132
       0.078
       0.052
       0.103
       0.242
       0.427
       0.588
       0.668
       0.650
       0.563
       0.459
       0.381
       0.344
       0.331
       0.311
       0.261
       0.179
       0.078
      -0.022
      -0.104
      -0.163
      -0.211
      -0.280
      -0.396
      -0.556
      -0.715
      -0.809
      -0.785
      -0.639
      -0.410
      -0.160
       0.048
       0.176
       0.214
       0.179
       0.099
       0.002
      -0.096
      -0.190
      -0.277
      -0.347
      -0.375
      -0.336
      -0.216
      -0.026
       0.206
       0.440
       0.642
       0.785
       0.846
       0.818
       0.710
       0.556
       0.402
       0.284
       0.210
       0.162
       0.116
       0.058
      -0.005
      -0.054
      -0.083
      -0.095
      -0.108
      -0.139
      -0.197
      -0.278
      -0.367
      -0.450
      -0.518
      -0.571
      -0.611
      -0.638
      -0.655
      -0.656
      -0.637
      -0.585
      -0.494
      -0.367
      -0.215
      -0.050
       0.118
       0.280
       0.422
       0.529
       0.595
       0.628
       0.645
       0.656
       0.659
       0.644
       0.605
       0.546
       0.477
       0.408
       0.341
       0.278
       0.224
       0.179
       0.131
       0.054
      -0.079
      -0.269
      -0.481
      -0.657
      -0.747
      -0.739
      -0.660
      -0.557
      -0.461
      -0.382
      -0.314
      -0.250
      -0.194
      -0.146
      -0.102
      -0.053
       0.002
       0.054
       0.095
       0.131
       0.180
       0.255
       0.346
       0.418
       0.437
       0.387
       0.285
       0.167
       0.072
       0.015
      -0.012
      -0.033
      -0.066
      -0.108
      -0.141
      -0.151
      -0.140
      -0.126
      -0.124
      -0.132
      -0.134
      -0.111
      -0.054
       0.031
       0.118
       0.176
       0.182
       0.139
       0.073
       0.017
      -0.005
       0.017
       0.077
       0.156
       0.225
       0.250
       0.211
       0.108
      -0.035
      -0.187
      -0.325
      -0.437
      -0.521
      -0.571
      -0.570
      -0.498
      -0.349
      -0.153
       0.041
       0.180
       0.241
       0.234
       0.192
       0.146
       0.106
       0.063
       0.006
      -0.050
      -0.075
      -0.045
       0.037
       0.145
       0.256
       0.362
       0.458
       0.519
       0.510
       0.410
       0.245
       0.083
      -0.013
      -0.023
       0.021
       0.068
       0.078
       0.042
      -0.027
      -0.113
      -0.204
      -0.295
      -0.384
      -0.464
      -0.527
      -0.566
      -0.578
      -0.555
      -0.484
      -0.354
      -0.172
       0.033
       0.225
       0.379
       0.494
       0.583
       0.653
       0.697
       0.700
       0.652
       0.555
       0.420
       0.270
       0.138
       0.051
       0.016
       0.004
      -0.035
      -0.135
      -0.284
      -0.428
      -0.507
      -0.507
      -0.469
      -0.457
      -0.512
      -0.622
      -0.733
      -0.781
      -0.728
      -0.570
      -0.339
      -0.082
       0.149
       0.321
       0.424
       0.470
       0.479
       0.473
       0.469
       0.483
       0.517
       0.559
       0.585
       0.567
       0.496
       0.390
       0.284
       0.212
       0.177
       0.151
       0.093
      -0.018
      -0.164
      -0.293
      -0.353
      -0.318
      -0.198
      -0.029
       0.142
       0.276
       0.336
       0.295
       0.144
      -0.094
      -0.360
      -0.584
      -0.713
      -0.739
      -0.688
      -0.592
      -0.467
      -0.310
      -0.125
       0.063
       0.203
       0.240
       0.150
      -0.039
      -0.261
      -0.435
      -0.499
      -0.429
      -0.240
       0.019
       0.282
       0.486
       0.599
       0.629
       0.618
       0.603
       0.600
       0.596
       0.570
       0.508
       0.415
       0.303
       0.194
       0.118
       0.101
       0.148
       0.233
       0.300
       0.293
       0.193
       0.035
      -0.110
      -0.177
      -0.151
      -0.071
      -0.007
      -0.012
      -0.086
      -0.182
      -0.243
      -0.235
      -0.164
      -0.064
       0.031
       0.098
       0.131
       0.132
       0.104
       0.049
      -0.030
      -0.122
      -0.217
      -0.310
      -0.401
      -0.492
      -0.574
      -0.638
      -0.680
      -0.709
      -0.740
      -0.774
      -0.795
      -0.776
      -0.699
      -0.560
      -0.367
      -0.140
       0.102
       0.331
       0.515
       0.624
       0.643
       0.584
       0.482
       0.386
       0.341
       0.371
       0.472
       0.616
       0.762
       0.871
       0.922
       0.915
       0.860
       0.758
       0.600
       0.373
       0.082
      -0.232
      -0.510
      -0.709
      -0.827
      -0.907
      -1.000
      -1.136
      -1.302
      -1.460
      -1.575
      -1.634
      -1.640
      -1.597
      -1.505
      -1.368
      -1.209
      -1.050
      -0.901
      -0.743
      -0.559
      -0.347
      -0.133
       0.056
       0.205
       0.326
       0.430
       0.517
       0.563
       0.542
       0.456
       0.347
       0.281
       0.306
       0.422
       0.593
       0.778
       0.965
       1.159
       1.356
       1.523
       1.606
       1.576
       1.453
       1.291
       1.150
       1.061
       1.017
       0.996
       0.975
       0.931
       0.847
       0.706
       0.513
       0.293
       0.080
      -0.113
      -0.306
      -0.535
      -0.829
      -1.183
      -1.562
      -1.921
      -2.226
      -2.456
      -2.607
      -2.677
      -2.659
      -2.547
      -2.341
      -2.050
      -1.687
      -1.269
      -0.810
      -0.327
       0.159
       0.633
       1.089
       1.528
       1.952
       2.355
       2.726
       3.064
       3.388
       3.722
       4.076
       4.423
       4.705
       4.873
       4.908
       4.822
       4.628
       4.314
       3.847
       3.201
       2.388
       1.462
       0.505
      -0.411
      -1.253
      -2.025
      -2.756
      -3.470
      -4.172
      -4.837
      -5.429
      -5.914
      -6.271
      -6.503
      -6.629
      -6.674
      -6.648
      -6.538
      -6.313
      -5.943
      -5.419
      -4.757
      -3.987
      -3.142
      -2.249
      -1.331
      -0.404
       0.516
       1.413
       2.269
       3.064
       3.782
       4.425
       5.009
       5.556
       6.084
       6.592
       7.062
       7.468
       7.782
       7.990
       8.083
       8.050
       7.864
       7.487
       6.878
       6.018
       4.918
       3.615
       2.153
       0.578
      -1.044
      -2.624
      -4.053
      -5.238
      -6.140
      -6.779
      -7.211
      -7.485
      -7.620
      -7.604
      -7.427
      -7.092
      -6.620
      -6.034
      -5.354
      -4.607
      -3.840
      -3.123
      -2.525
      -2.080
      -1.766
      -1.519
      -1.266
      -0.957
      -0.580
      -0.151
       0.312
       0.809
       1.363
       1.993
       2.692
       3.406
       4.050
       4.533
       4.790
       4.807
       4.618
       4.293
       3.915
       3.558
       3.270
       3.080
       2.985
       2.958
       2.949
       2.897
       2.757
       2.513
       2.169
       1.729
       1.181
       0.513
      -0.264
      -1.104
      -1.939
      -2.710
      -3.383
      -3.954
      -4.424
      -4.783
      -5.012
      -5.082
      -4.980
      -4.703
      -4.264
      -3.679
      -2.982
      -2.229
      -1.500
      -0.881
      -0.429
      -0.153
      -0.010
       0.071
       0.161
       0.310
       0.548
       0.891
       1.352
       1.937
       2.633
       3.392
       4.142
       4.806
       5.318
       5.637
       5.739
       5.624
       5.306
       4.817
       4.196
       3.471
       2.661
       1.775
       0.827
      -0.157
      -1.148
      -2.125
      -3.083
      -4.018
      -4.917
      -5.741
      -6.436
      -6.951
      -7.261
      -7.373
      -7.311
      -7.085
      -6.673
      -6.039
      -5.156
      -4.039
      -2.739
      -1.326
       0.135
       1.588
       2.977
       4.226
       5.244
       5.941
       6.272
       6.264
       6.016
       5.648
       5.254
       4.871
       4.489
       4.084
       3.646
       3.186
       2.731
       2.307
       1.926
       1.575
       1.223
       0.834
       0.380
      -0.151
      -0.747
      -1.372
      -1.976
      -2.500
      -2.899
      -3.139
      -3.207
      -3.111
      -2.882
      -2.574
      -2.258
      -2.006
      -1.874
      -1.886
      -2.022
      -2.218
      -2.386
      -2.438
      -2.321
      -2.035
      -1.628
      -1.177
      -0.748
      -0.382
      -0.082
       0.173
       0.422
       0.709
       1.066
       1.492
       1.938
       2.319
       2.547
       2.576
       2.431
       2.198
       1.979
       1.844
       1.805
       1.825
       1.859
       1.878
       1.874
       1.844
       1.766
       1.608
       1.332
       0.917
       0.362
      -0.307
      -1.039
      -1.748
      -2.328
      -2.684
      -2.777
      -2.643
      -2.365
      -2.015
      -1.605
      -1.096
      -0.455
       0.287
       1.022
       1.611
       1.948
       2.002
       1.815
       1.454
       0.990
       0.487
       0.014
      -0.363
      -0.618
      -0.786
      -0.954
      -1.209
      -1.584
      -2.030
      -2.443
      -2.725
      -2.829
      -2.771
      -2.595
      -2.326
      -1.955
      -1.467
      -0.870
      -0.208
       0.464
       1.108
       1.712
       2.264
       2.736
       3.082
       3.265
       3.271
       3.113
       2.814
       2.406
       1.930
       1.434
       0.964
       0.538
       0.148
      -0.229
      -0.605
      -0.966
      -1.278
      -1.513
      -1.676
      -1.810
      -1.970
      -2.185
      -2.436
      -2.658
      -2.782
      -2.764
      -2.600
      -2.318
      -1.957
      -1.556
      -1.162
      -0.829
      -0.610
      -0.527
      -0.554
      -0.617
      -0.626
      -0.514
      -0.261
       0.106
       0.531
       0.962
       1.365
       1.731
       2.076
       2.416
       2.753
       3.061
       3.301
       3.442
       3.485
       3.462
       3.402
       3.312
       3.166
       2.923
       2.552
       2.053
       1.461
       0.823
       0.174
      -0.474
      -1.129
      -1.795
      -2.460
      -3.104
      -3.704
      -4.219
      -4.583
      -4.704
      -4.502
      -3.958
      -3.140
      -2.191
      -1.268
      -0.479
       0.145
       0.636
       1.040
       1.380
       1.635
       1.759
       1.721
       1.531
       1.255
       1.001
       0.881
       0.969
       1.265
       1.689
       2.112
       2.405
       2.493
       2.369
       2.080
       1.684
       1.219
       0.702
       0.155
      -0.366
      -0.771
      -0.965
      -0.891
      -0.561
      -0.063
       0.467
       0.877
       1.041
       0.883
       0.404
      -0.316
      -1.125
      -1.843
      -2.321
      -2.478
      -2.318
      -1.906
      -1.338
      -0.709
      -0.100
       0.433
       0.849
       1.129
       1.264
       1.259
       1.123
       0.871
       0.520
       0.097
      -0.364
      -0.828
      -1.262
      -1.636
      -1.918
      -2.072
      -2.057
      -1.847
      -1.441
      -0.874
      -0.218
       0.427
       0.950
       1.256
       1.295
       1.085
       0.709
       0.290
      -0.048
      -0.233
      -0.264
      -0.197
      -0.098
       0.002
       0.117
       0.266
       0.428
       0.527
       0.477
       0.236
      -0.154
      -0.586
      -0.942
      -1.143
      -1.162
      -1.004
      -0.692
      -0.258
       0.244
       0.735
       1.136
       1.401
       1.525
       1.535
       1.462
       1.321
       1.118
       0.872
       0.621
       0.412
       0.276
       0.204
       0.157
       0.088
      -0.036
      -0.221
      -0.453
      -0.716
      -1.007
      -1.330
      -1.692
      -2.092
      -2.505
      -2.889
      -3.175
      -3.291
      -3.179
      -2.818
      -2.235
      -1.497
      -0.692
       0.094
       0.786
       1.339
       1.735
       1.988
