Origin Time       15/11/2012 06:46:07
Lat.              30.2 N 
Long.             80.1 E 
Depth (Km)          5.0
Magnitude         3.0
 Region           BAGESHWAR-uTTARAKHAND                                            
 Above details taken from IMD 
     
Station Code      KAP
Station Lat.       29.941  N
Station Long.      79.899  E
Station Height(m) 1066.0
Site Class        A   Vs30 between 700 m/sec to 1400 m/sec * 
Record Time       15.11.2012 06:45:38.119
Sampling Rate     200. Hz
 Record Duration   83.395 Sec.
 Direction         E-W (E positive)
Max. Acceleration     -4.850 cm/sec**2
     
  * For reference see Site Classification link of website 
     
 Base Line Corrected and Low Pass Filtered (Cut Off at 35 Hz) Time History
 Acceleration data in cm/sec**2
    
[...]
       0.024
       0.024
       0.018
       0.004
      -0.015
      -0.030
      -0.034
      -0.028
      -0.018
      -0.010
      -0.006
      -0.001
       0.008
       0.015
       0.010
      -0.006
      -0.027
      -0.042
      -0.045
      -0.038
      -0.025
      -0.008
       0.008
       0.023
       0.034
       0.037
       0.029
       0.013
      -0.004
      -0.017
      -0.022
      -0.020
      -0.017
      -0.016
      -0.019
      -0.022
      -0.022
      -0.020
      -0.017
      -0.014
      -0.008
       0.002
       0.012
       0.017
       0.014
       0.007
       0.001
      -0.004
      -0.011
      -0.022
      -0.032
      -0.034
      -0.027
      -0.015
      -0.004
       0.005
       0.012
       0.015
       0.011
       0.001
      -0.013
      -0.028
      -0.038
      -0.039
      -0.032
      -0.023
      -0.015
      -0.012
      -0.011
      -0.009
      -0.004
       0.000
       0.000
      -0.007
      -0.015
      -0.016
      -0.008
       0.004
       0.012
       0.013
       0.010
       0.005
      -0.001
      -0.007
      -0.013
      -0.016
      -0.014
      -0.009
      -0.003
       0.001
       0.004
       0.007
       0.008
       0.004
      -0.003
      -0.010
      -0.014
      -0.013
      -0.008
      -0.001
       0.005
       0.006
       0.003
      -0.003
      -0.009
      -0.015
      -0.019
      -0.019
      -0.013
      -0.003
       0.005
       0.008
       0.006
       0.005
       0.009
       0.014
       0.011
      -0.002
      -0.018
      -0.023
      -0.016
      -0.002
       0.007
       0.010
       0.008
       0.004
       0.002
       0.000
      -0.001
      -0.003
      -0.006
      -0.007
      -0.002
       0.005
       0.013
       0.019
       0.021
       0.018
       0.011
       0.002
      -0.008
      -0.014
      -0.016
      -0.011
      -0.002
       0.009
       0.017
       0.020
       0.019
       0.017
       0.013
       0.005
      -0.005
      -0.013
      -0.011
       0.000
       0.010
       0.012
       0.004
      -0.006
      -0.010
      -0.006
      -0.003
      -0.006
      -0.015
      -0.018
      -0.009
       0.012
       0.032
       0.038
       0.027
       0.005
      -0.015
      -0.025
      -0.026
      -0.023
      -0.022
      -0.024
      -0.024
      -0.018
      -0.008
       0.001
       0.008
       0.012
       0.013
       0.006
      -0.009
      -0.023
      -0.027
      -0.018
      -0.004
       0.006
       0.004
      -0.004
      -0.009
      -0.004
       0.007
       0.015
       0.016
       0.008
      -0.006
      -0.018
      -0.019
      -0.009
       0.005
       0.011
       0.004
      -0.007
      -0.011
      -0.004
       0.006
       0.009
       0.005
      -0.001
      -0.001
       0.003
       0.004
      -0.003
      -0.014
      -0.021
      -0.019
      -0.011
      -0.003
      -0.001
      -0.002
      -0.001
       0.004
       0.012
       0.014
       0.006
      -0.010
      -0.025
      -0.031
      -0.025
      -0.008
       0.011
       0.022
       0.022
       0.015
       0.008
       0.005
       0.006
       0.007
       0.005
       0.001
      -0.004
      -0.009
      -0.013
      -0.014
      -0.010
       0.001
       0.012
       0.018
       0.015
       0.008
       0.002
       0.004
       0.010
       0.017
       0.017
       0.009
      -0.001
      -0.006
      -0.004
       0.004
       0.009
       0.008
       0.001
      -0.006
      -0.005
       0.004
       0.013
       0.018
       0.015
       0.008
       0.003
      -0.001
      -0.003
      -0.007
      -0.011
      -0.017
      -0.020
      -0.019
      -0.012
      -0.003
       0.004
       0.007
       0.006
       0.002
      -0.003
      -0.008
      -0.012
      -0.017
      -0.018
      -0.015
      -0.008
       0.002
       0.009
       0.011
       0.008
       0.003
       0.000
      -0.001
      -0.006
      -0.012
      -0.015
      -0.007
       0.007
       0.018
       0.020
       0.018
       0.017
       0.018
       0.014
       0.001
      -0.015
      -0.027
      -0.027
      -0.018
      -0.006
       0.002
       0.006
       0.011
       0.021
       0.032
       0.039
       0.035
       0.024
       0.013
       0.008
       0.007
       0.002
      -0.010
      -0.021
      -0.023
      -0.016
      -0.003
       0.010
       0.020
       0.023
       0.021
       0.013
       0.006
       0.003
       0.005
       0.009
       0.010
       0.005
      -0.003
      -0.008
      -0.006
       0.002
       0.009
       0.009
       0.004
      -0.005
      -0.014
      -0.020
      -0.022
      -0.020
      -0.014
      -0.005
       0.007
       0.017
       0.022
       0.020
       0.010
      -0.004
      -0.018
      -0.028
      -0.030
      -0.026
      -0.017
      -0.007
      -0.001
      -0.001
      -0.006
      -0.009
      -0.006
       0.003
       0.013
       0.019
       0.020
       0.015
       0.005
      -0.005
      -0.013
      -0.016
      -0.018
      -0.020
      -0.020
      -0.015
      -0.002
       0.014
       0.027
       0.028
       0.016
       0.002
      -0.005
       0.001
       0.015
       0.023
       0.017
      -0.004
      -0.027
      -0.036
      -0.023
       0.003
       0.026
       0.038
       0.037
       0.028
       0.015
       0.003
      -0.005
      -0.012
      -0.017
      -0.019
      -0.014
      -0.003
       0.009
       0.017
       0.018
       0.015
       0.013
       0.015
       0.019
       0.019
       0.011
      -0.001
      -0.011
      -0.013
      -0.008
      -0.001
       0.002
       0.000
      -0.001
       0.003
       0.015
       0.027
       0.032
       0.029
       0.020
       0.013
       0.009
       0.008
       0.006
       0.000
      -0.006
      -0.009
      -0.006
      -0.001
       0.002
       0.004
       0.008
       0.019
       0.034
       0.045
       0.046
       0.032
       0.010
      -0.011
      -0.026
      -0.031
      -0.026
      -0.014
       0.001
       0.012
       0.017
       0.018
       0.016
       0.013
       0.011
       0.008
       0.003
      -0.002
      -0.008
      -0.013
      -0.017
      -0.019
      -0.016
      -0.009
       0.002
       0.013
       0.021
       0.026
       0.027
       0.021
       0.008
      -0.008
      -0.020
      -0.025
      -0.026
      -0.027
      -0.030
      -0.029
      -0.014
       0.014
       0.041
       0.052
       0.044
       0.027
       0.011
      -0.005
      -0.020
      -0.033
      -0.041
      -0.041
      -0.030
      -0.012
       0.008
       0.024
       0.031
       0.029
       0.021
       0.011
       0.003
      -0.003
      -0.006
      -0.008
      -0.009
      -0.006
       0.003
       0.016
       0.026
       0.023
       0.005
      -0.017
      -0.033
      -0.037
      -0.031
      -0.020
      -0.007
       0.008
       0.023
       0.032
       0.033
       0.025
       0.011
      -0.003
      -0.016
      -0.026
      -0.032
      -0.036
      -0.034
      -0.027
      -0.014
       0.002
       0.016
       0.027
       0.034
       0.036
       0.030
       0.015
      -0.009
      -0.033
      -0.048
      -0.050
      -0.042
      -0.029
      -0.014
       0.004
       0.024
       0.038
       0.039
       0.023
      -0.005
      -0.029
      -0.039
      -0.029
      -0.008
       0.009
       0.016
       0.012
       0.003
      -0.006
      -0.012
      -0.011
      -0.005
       0.004
       0.012
       0.017
       0.018
       0.018
       0.022
       0.030
       0.035
       0.026
      -0.001
      -0.041
      -0.076
      -0.087
      -0.071
      -0.039
      -0.007
       0.018
       0.039
       0.059
       0.072
       0.069
       0.045
       0.005
      -0.038
      -0.067
      -0.072
      -0.053
      -0.023
       0.008
       0.030
       0.042
       0.045
       0.043
       0.036
       0.024
       0.007
      -0.014
      -0.031
      -0.041
      -0.048
      -0.052
      -0.052
      -0.040
      -0.014
       0.019
       0.044
       0.049
       0.034
       0.009
      -0.012
      -0.018
      -0.012
      -0.002
       0.002
      -0.003
      -0.013
      -0.018
      -0.003
       0.036
       0.088
       0.137
       0.188
       0.278
       0.431
       0.588
       0.600
       0.350
      -0.077
      -0.400
      -0.395
      -0.164
      -0.086
      -0.433
      -1.043
      -1.418
      -1.187
      -0.473
       0.209
       0.429
       0.209
      -0.055
      -0.020
       0.252
       0.383
       0.077
      -0.552
      -1.041
      -0.976
      -0.363
       0.401
       0.936
       1.250
       1.683
       2.456
       3.289
       3.493
       2.504
       0.422
      -1.939
      -3.580
      -4.000
      -3.454
      -2.581
      -1.788
      -1.002
       0.045
       1.354
       2.518
       2.998
       2.501
       1.188
      -0.368
      -1.467
      -1.721
      -1.328
      -0.872
      -0.757
      -0.844
      -0.689
      -0.102
       0.589
       0.839
       0.445
      -0.190
      -0.356
       0.342
       1.573
       2.471
       2.297
       1.035
      -0.596
      -1.719
      -1.940
      -1.511
      -0.941
      -0.502
      -0.094
       0.466
       1.112
       1.505
       1.331
       0.605
      -0.287
      -0.865
      -0.891
      -0.485
       0.046
       0.477
       0.773
       0.991
       1.109
       0.964
       0.382
      -0.620
      -1.751
      -2.587
      -2.828
      -2.442
      -1.588
      -0.486
       0.631
       1.496
       1.887
       1.782
       1.382
       0.931
       0.507
       0.038
      -0.462
      -0.766
      -0.619
      -0.049
       0.581
       0.885
       0.788
       0.542
       0.436
       0.509
       0.542
       0.291
      -0.265
      -0.868
      -1.148
      -0.913
      -0.324
       0.209
       0.351
       0.098
      -0.279
      -0.501
      -0.485
      -0.334
      -0.179
      -0.049
       0.089
       0.193
       0.106
      -0.265
      -0.757
      -1.014
      -0.806
      -0.269
       0.243
       0.517
       0.656
       0.900
       1.314
       1.684
       1.696
       1.210
       0.370
      -0.502
      -1.108
      -1.307
      -1.133
      -0.748
      -0.367
      -0.164
      -0.176
      -0.265
      -0.210
       0.100
       0.553
       0.892
       0.912
       0.622
       0.213
      -0.101
      -0.243
      -0.290
      -0.367
      -0.507
      -0.623
      -0.588
      -0.351
       0.000
       0.301
       0.434
       0.389
       0.216
      -0.032
      -0.288
      -0.455
      -0.450
      -0.291
      -0.085
       0.090
       0.260
       0.472
       0.653
       0.622
       0.284
      -0.217
      -0.586
      -0.630
      -0.419
      -0.196
      -0.121
      -0.104
       0.072
       0.459
       0.811
       0.808
       0.410
      -0.076
      -0.293
      -0.174
       0.038
       0.088
      -0.022
      -0.076
       0.077
       0.322
       0.376
       0.072
      -0.446
      -0.848
      -0.903
      -0.641
      -0.246
       0.136
       0.436
       0.598
       0.555
       0.294
      -0.096
      -0.465
      -0.696
      -0.736
      -0.563
      -0.175
       0.355
       0.825
       0.979
       0.699
       0.142
      -0.342
      -0.489
      -0.342
      -0.179
      -0.217
      -0.418
      -0.561
      -0.446
      -0.064
       0.404
       0.709
       0.709
       0.473
       0.214
       0.121
       0.221
       0.391
       0.479
       0.424
       0.289
       0.169
       0.064
      -0.147
      -0.552
      -1.029
      -1.274
      -1.064
      -0.483
       0.134
       0.468
       0.445
       0.225
       0.044
       0.024
       0.106
       0.124
      -0.037
      -0.310
      -0.463
      -0.290
       0.173
       0.629
       0.774
       0.586
       0.314
       0.169
       0.084
      -0.149
      -0.534
      -0.795
      -0.684
      -0.306
      -0.018
      -0.036
      -0.218
      -0.277
      -0.115
       0.129
       0.320
       0.503
       0.808
       1.233
       1.579
       1.598
       1.173
       0.384
      -0.532
      -1.295
      -1.706
      -1.705
      -1.336
      -0.676
       0.150
       0.916
       1.318
       1.131
       0.379
      -0.640
      -1.529
      -2.013
      -2.026
      -1.653
      -1.042
      -0.380
       0.130
       0.375
       0.430
       0.472
       0.553
       0.487
       0.030
      -0.820
      -1.707
      -2.131
      -1.810
      -0.875
       0.256
       1.190
       1.777
       2.087
       2.251
       2.358
       2.427
       2.421
       2.270
       1.911
       1.325
       0.553
      -0.280
      -0.955
      -1.232
      -1.021
      -0.476
       0.114
       0.536
       0.725
       0.677
       0.354
      -0.255
      -1.026
      -1.714
      -2.107
      -2.150
      -1.935
      -1.591
      -1.219
      -0.876
      -0.580
      -0.289
       0.094
       0.628
       1.234
       1.696
       1.808
       1.536
       1.014
       0.401
      -0.237
      -0.881
      -1.462
      -1.847
      -1.931
      -1.708
      -1.249
      -0.636
       0.075
       0.878
       1.798
       2.822
       3.799
       4.408
       4.285
       3.248
       1.456
      -0.643
      -2.546
      -3.931
      -4.704
      -4.850
      -4.280
      -2.879
      -0.746
       1.612
       3.393
       3.936
       3.168
       1.693
       0.380
      -0.267
      -0.448
      -0.791
      -1.683
      -2.829
      -3.512
      -3.266
      -2.259
      -1.021
       0.086
       1.027
       1.828
       2.367
       2.511
       2.365
       2.230
       2.295
       2.409
       2.210
       1.491
       0.444
      -0.472
      -0.907
      -0.906
      -0.820
      -0.943
      -1.251
      -1.504
      -1.571
      -1.609
      -1.880
      -2.404
      -2.830
      -2.670
      -1.698
      -0.170
       1.328
       2.271
       2.500
       2.226
       1.777
       1.327
       0.819
       0.095
      -0.875
      -1.829
      -2.270
      -1.801
      -0.491
       1.076
       2.179
       2.488
       2.242
       1.971
       2.033
       2.374
       2.632
       2.399
       1.432
      -0.214
      -2.155
      -3.760
      -4.432
      -3.958
      -2.695
      -1.394
      -0.753
      -0.986
      -1.732
      -2.361
      -2.429
      -1.918
      -1.078
      -0.095
       1.043
       2.377
       3.699
       4.539
       4.461
       3.452
       1.983
       0.662
      -0.219
      -0.800
      -1.330
      -1.782
      -1.818
      -1.148
       0.100
       1.357
       1.974
       1.640
       0.561
      -0.698
      -1.591
      -1.914
      -1.872
      -1.827
      -1.961
      -2.121
      -1.981
      -1.335
      -0.279
       0.844
       1.649
       1.927
       1.756
       1.425
       1.241
       1.327
       1.577
       1.766
       1.724
       1.396
       0.794
      -0.057
      -1.092
      -2.126
      -2.859
      -2.991
      -2.417
      -1.353
      -0.270
       0.362
       0.389
       0.082
      -0.068
       0.254
       0.954
       1.608
       1.809
       1.464
       0.848
       0.383
       0.359
       0.763
       1.322
       1.679
       1.575
       0.939
      -0.116
      -1.352
      -2.466
      -3.178
      -3.320
      -2.902
      -2.114
      -1.244
      -0.534
      -0.078
       0.165
       0.265
       0.250
       0.130
      -0.019
      -0.036
       0.211
       0.671
       1.104
       1.251
       1.067
       0.767
       0.659
       0.917
       1.490
       2.171
       2.719
       2.944
       2.767
       2.232
       1.454
       0.510
      -0.596
      -1.856
      -3.142
      -4.181
      -4.688
      -4.541
      -3.850
      -2.859
      -1.775
      -0.696
       0.302
       1.066
       1.400
       1.247
       0.817
       0.506
       0.638
       1.229
       1.974
       2.452
       2.385
       1.791
       0.921
       0.091
      -0.473
      -0.707
      -0.693
      -0.610
      -0.635
      -0.824
      -1.055
      -1.109
      -0.834
      -0.261
       0.440
       1.087
       1.548
       1.701
       1.388
       0.495
      -0.860
      -2.253
      -3.111
      -3.052
      -2.115
      -0.696
       0.730
       1.862
       2.611
       2.981
       2.951
       2.479
       1.590
       0.441
      -0.711
      -1.594
      -2.014
      -1.886
      -1.254
      -0.294
       0.682
       1.285
       1.197
       0.347
      -0.986
      -2.255
      -2.931
      -2.809
      -2.110
      -1.280
      -0.642
      -0.189
       0.315
       1.050
       1.926
       2.637
       2.901
       2.669
       2.143
       1.601
       1.205
       0.922
       0.608
       0.141
      -0.480
      -1.151
      -1.738
      -2.124
      -2.219
      -1.977
      -1.453
      -0.816
      -0.284
       0.010
       0.081
       0.025
      -0.090
      -0.293
      -0.659
      -1.193
      -1.765
      -2.137
      -2.069
      -1.433
      -0.280
       1.173
       2.614
       3.736
       4.325
       4.325
       3.856
       3.140
       2.370
       1.591
       0.738
      -0.209
      -1.118
      -1.782
      -2.110
      -2.216
      -2.307
      -2.484
      -2.674
      -2.724
      -2.528
      -2.083
      -1.452
      -0.721
       0.019
       0.680
       1.204
       1.589
       1.871
       2.064
       2.131
       2.015
       1.699
       1.241
       0.726
       0.203
      -0.311
      -0.778
      -1.084
      -1.096
      -0.793
      -0.342
      -0.016
       0.015
      -0.177
      -0.355
      -0.345
      -0.191
      -0.096
      -0.220
      -0.534
      -0.826
      -0.874
      -0.629
      -0.260
      -0.011
       0.027
      -0.004
       0.124
       0.488
       0.942
       1.255
       1.312
       1.172
       0.979
       0.864
       0.886
       1.002
       1.034
       0.744
       0.025
      -0.943
      -1.766
      -2.116
      -1.957
      -1.526
      -1.092
      -0.776
      -0.561
      -0.437
      -0.471
      -0.714
      -1.076
      -1.318
      -1.218
      -0.747
      -0.091
       0.497
       0.886
       1.130
       1.353
       1.590
       1.747
       1.708
       1.482
       1.214
       1.039
       0.951
       0.813
       0.511
       0.059
      -0.420
      -0.807
      -1.034
      -1.057
      -0.841
      -0.411
       0.085
       0.426
       0.475
       0.282
       0.000
      -0.272
      -0.545
      -0.829
      -1.047
      -1.089
      -0.939
      -0.698
      -0.470
      -0.243
       0.098
       0.614
       1.182
       1.514
       1.351
       0.675
      -0.240
      -1.000
      -1.343
      -1.258
      -0.907
      -0.462
      -0.010
       0.401
       0.700
       0.797
       0.659
       0.351
      -0.009
      -0.315
      -0.487
      -0.466
      -0.241
       0.100
       0.390
       0.479
       0.326
       0.022
      -0.279
      -0.454
      -0.450
      -0.278
       0.015
       0.358
       0.657
       0.814
       0.761
