Origin Time       18/01/2011 20:23:27 UTC
Lat.              28.9 N	
Long.             64.0 E	
Depth (Km)          5.0
Magnitude         7.4
 Region           Southwestern-Pakistan                                            
 Above details taken from IMD 
    
Station Code      DJB
Station Lat.       28.652  N
Station Long.      77.188  E
Station Height(m)  235.0
Site Class        C   Vs30 between 200 m/sec to 375 m/sec *  
Record Time       18.01.2011 20:09:29.829 UTC
Sampling Rate     200. Hz
 Record Duration   80.030 Sec.
 Direction         N-S (N positive)
Max. Acceleration     -0.788 cm/sec**2
     
  * For reference see Site Classification link of website 
     
 Base Line Corrected and Low Pass Filtered (Cut Off at 35 Hz) Time History
 Acceleration data in cm/sec**2
    
[...]
       0.192
       0.140
       0.089
       0.047
       0.017
      -0.001
      -0.003
       0.012
       0.043
       0.079
       0.106
       0.114
       0.101
       0.072
       0.035
      -0.005
      -0.049
      -0.100
      -0.162
      -0.232
      -0.306
      -0.375
      -0.434
      -0.480
      -0.516
      -0.545
      -0.570
      -0.584
      -0.582
      -0.561
      -0.524
      -0.476
      -0.421
      -0.361
      -0.297
      -0.234
      -0.175
      -0.128
      -0.089
      -0.054
      -0.015
       0.029
       0.075
       0.117
       0.155
       0.189
       0.224
       0.260
       0.288
       0.303
       0.299
       0.282
       0.262
       0.245
       0.235
       0.233
       0.237
       0.245
       0.255
       0.263
       0.266
       0.263
       0.254
       0.238
       0.215
       0.187
       0.155
       0.124
       0.096
       0.073
       0.051
       0.028
       0.006
      -0.014
      -0.030
      -0.043
      -0.056
      -0.071
      -0.088
      -0.103
      -0.114
      -0.120
      -0.121
      -0.119
      -0.115
      -0.115
      -0.117
      -0.119
      -0.116
      -0.106
      -0.089
      -0.068
      -0.042
      -0.016
       0.009
       0.031
       0.048
       0.057
       0.051
       0.032
       0.005
      -0.020
      -0.033
      -0.034
      -0.022
       0.000
       0.031
       0.070
       0.112
       0.146
       0.166
       0.173
       0.172
       0.168
       0.160
       0.142
       0.115
       0.083
       0.058
       0.050
       0.060
       0.083
       0.110
       0.133
       0.149
       0.159
       0.163
       0.164
       0.165
       0.167
       0.172
       0.178
       0.182
       0.182
       0.180
       0.175
       0.168
       0.156
       0.139
       0.120
       0.102
       0.089
       0.081
       0.076
       0.075
       0.076
       0.075
       0.066
       0.049
       0.025
       0.000
      -0.026
      -0.056
      -0.097
      -0.150
      -0.208
      -0.261
      -0.304
      -0.337
      -0.363
      -0.383
      -0.394
      -0.392
      -0.376
      -0.348
      -0.318
      -0.295
      -0.283
      -0.282
      -0.288
      -0.296
      -0.303
      -0.306
      -0.306
      -0.303
      -0.293
      -0.270
      -0.230
      -0.169
      -0.086
       0.015
       0.124
       0.230
       0.322
       0.395
       0.447
       0.473
       0.471
       0.445
       0.396
       0.330
       0.250
       0.161
       0.071
      -0.009
      -0.070
      -0.110
      -0.129
      -0.129
      -0.113
      -0.082
      -0.043
      -0.003
       0.030
       0.053
       0.066
       0.071
       0.065
       0.045
       0.011
      -0.034
      -0.083
      -0.130
      -0.174
      -0.217
      -0.254
      -0.275
      -0.274
      -0.247
      -0.199
      -0.133
      -0.054
       0.036
       0.136
       0.240
       0.339
       0.421
       0.482
       0.520
       0.539
       0.542
       0.527
       0.490
       0.434
       0.364
       0.287
       0.210
       0.135
       0.065
       0.003
      -0.049
      -0.092
      -0.128
      -0.158
      -0.181
      -0.197
      -0.210
      -0.226
      -0.251
      -0.286
      -0.324
      -0.356
      -0.375
      -0.379
      -0.369
      -0.343
      -0.298
      -0.236
      -0.166
      -0.098
      -0.041
       0.005
       0.043
       0.078
       0.109
       0.138
       0.167
       0.204
       0.250
       0.304
       0.362
       0.420
       0.475
       0.522
       0.554
       0.564
       0.549
       0.509
       0.445
       0.361
       0.264
       0.166
       0.078
       0.008
      -0.043
      -0.080
      -0.110
      -0.138
      -0.161
      -0.179
      -0.189
      -0.195
      -0.201
      -0.208
      -0.210
      -0.203
      -0.185
      -0.165
      -0.155
      -0.162
      -0.183
      -0.210
      -0.235
      -0.254
      -0.267
      -0.274
      -0.276
      -0.269
      -0.249
      -0.212
      -0.158
      -0.094
      -0.025
       0.045
       0.112
       0.174
       0.227
       0.269
       0.301
       0.324
       0.334
       0.330
       0.308
       0.270
       0.222
       0.167
       0.107
       0.043
      -0.019
      -0.071
      -0.110
      -0.132
      -0.139
      -0.133
      -0.119
      -0.097
      -0.068
      -0.031
       0.010
       0.048
       0.076
       0.092
       0.099
       0.104
       0.111
       0.122
       0.137
       0.152
       0.167
       0.177
       0.176
       0.158
       0.122
       0.075
       0.030
      -0.002
      -0.011
      -0.002
       0.019
       0.043
       0.071
       0.106
       0.147
       0.190
       0.225
       0.244
       0.243
       0.223
       0.188
       0.142
       0.086
       0.018
      -0.059
      -0.138
      -0.209
      -0.261
      -0.292
      -0.307
      -0.313
      -0.312
      -0.306
      -0.295
      -0.281
      -0.268
      -0.256
      -0.243
      -0.230
      -0.216
      -0.204
      -0.192
      -0.180
      -0.164
      -0.143
      -0.112
      -0.072
      -0.029
       0.007
       0.027
       0.022
      -0.009
      -0.061
      -0.120
      -0.173
      -0.207
      -0.220
      -0.215
      -0.200
      -0.182
      -0.166
      -0.148
      -0.130
      -0.114
      -0.102
      -0.095
      -0.093
      -0.093
      -0.092
      -0.084
      -0.067
      -0.037
       0.004
       0.052
       0.100
       0.143
       0.172
       0.183
       0.177
       0.161
       0.145
       0.129
       0.114
       0.095
       0.075
       0.061
       0.054
       0.054
       0.055
       0.050
       0.035
       0.010
      -0.020
      -0.051
      -0.079
      -0.099
      -0.102
      -0.080
      -0.028
       0.050
       0.151
       0.265
       0.383
       0.496
       0.592
       0.663
       0.704
       0.712
       0.689
       0.634
       0.550
       0.444
       0.325
       0.207
       0.098
       0.001
      -0.083
      -0.154
      -0.212
      -0.252
      -0.277
      -0.291
      -0.300
      -0.312
      -0.327
      -0.344
      -0.360
      -0.370
      -0.375
      -0.372
      -0.363
      -0.350
      -0.336
      -0.324
      -0.316
      -0.316
      -0.329
      -0.353
      -0.387
      -0.421
      -0.444
      -0.447
      -0.426
      -0.387
      -0.336
      -0.274
      -0.197
      -0.102
       0.009
       0.121
       0.219
       0.290
       0.334
       0.360
       0.379
       0.393
       0.400
       0.392
       0.364
       0.315
       0.255
       0.194
       0.140
       0.098
       0.069
       0.053
       0.053
       0.066
       0.089
       0.118
       0.151
       0.185
       0.218
       0.247
       0.263
       0.262
       0.241
       0.205
       0.164
       0.127
       0.103
       0.092
       0.089
       0.086
       0.077
       0.058
       0.030
      -0.005
      -0.042
      -0.072
      -0.089
      -0.090
      -0.073
      -0.042
      -0.005
       0.022
       0.033
       0.030
       0.021
       0.012
       0.003
      -0.011
      -0.033
      -0.061
      -0.089
      -0.115
      -0.142
      -0.178
      -0.226
      -0.280
      -0.330
      -0.366
      -0.388
      -0.401
      -0.414
      -0.434
      -0.460
      -0.491
      -0.520
      -0.540
      -0.547
      -0.539
      -0.520
      -0.495
      -0.467
      -0.433
      -0.388
      -0.333
      -0.272
      -0.208
      -0.143
      -0.081
      -0.023
       0.026
       0.065
       0.098
       0.132
       0.178
       0.239
       0.311
       0.388
       0.466
       0.538
       0.600
       0.647
       0.672
       0.674
       0.653
       0.613
       0.563
       0.511
       0.467
       0.436
       0.412
       0.382
       0.336
       0.272
       0.198
       0.122
       0.056
       0.002
      -0.036
      -0.060
      -0.077
      -0.095
      -0.117
      -0.142
      -0.166
      -0.188
      -0.209
      -0.233
      -0.262
      -0.294
      -0.323
      -0.344
      -0.358
      -0.367
      -0.373
      -0.377
      -0.382
      -0.387
      -0.390
      -0.389
      -0.382
      -0.367
      -0.339
      -0.293
      -0.223
      -0.133
      -0.031
       0.072
       0.170
       0.261
       0.343
       0.407
       0.442
       0.440
       0.402
       0.338
       0.258
       0.168
       0.074
      -0.016
      -0.094
      -0.155
      -0.203
      -0.244
      -0.285
      -0.324
      -0.352
      -0.361
      -0.347
      -0.318
      -0.280
      -0.239
      -0.197
      -0.156
      -0.116
      -0.083
      -0.062
      -0.058
      -0.071
      -0.097
      -0.136
      -0.185
      -0.236
      -0.279
      -0.299
      -0.292
      -0.260
      -0.215
      -0.173
      -0.145
      -0.133
      -0.136
      -0.145
      -0.155
      -0.155
      -0.140
      -0.108
      -0.066
      -0.027
      -0.003
       0.003
      -0.004
      -0.016
      -0.025
      -0.030
      -0.028
      -0.018
      -0.002
       0.012
       0.013
      -0.005
      -0.039
      -0.077
      -0.108
      -0.128
      -0.145
      -0.168
      -0.198
      -0.228
      -0.246
      -0.245
      -0.229
      -0.204
      -0.178
      -0.156
      -0.139
      -0.130
      -0.125
      -0.123
      -0.121
      -0.117
      -0.109
      -0.092
      -0.059
      -0.009
       0.055
       0.120
       0.174
       0.211
       0.229
       0.234
       0.228
       0.214
       0.189
       0.153
       0.109
       0.065
       0.030
       0.012
       0.009
       0.017
       0.026
       0.031
       0.030
       0.026
       0.026
       0.036
       0.059
       0.094
       0.139
       0.185
       0.226
       0.259
       0.284
       0.303
       0.313
       0.313
       0.306
       0.290
       0.266
       0.232
       0.190
       0.146
       0.109
       0.083
       0.067
       0.051
       0.027
      -0.006
      -0.040
      -0.067
      -0.078
      -0.071
      -0.046
      -0.009
       0.027
       0.052
       0.060
       0.052
       0.035
       0.016
      -0.002
      -0.018
      -0.030
      -0.039
      -0.044
      -0.053
      -0.074
      -0.107
      -0.142
      -0.167
      -0.176
      -0.174
      -0.164
      -0.150
      -0.131
      -0.110
      -0.087
      -0.060
      -0.029
       0.008
       0.050
       0.090
       0.125
       0.154
       0.181
       0.214
       0.252
       0.292
       0.328
       0.358
       0.379
       0.390
       0.387
       0.367
       0.332
       0.292
       0.257
       0.236
       0.233
       0.246
       0.270
       0.295
       0.313
       0.318
       0.309
       0.290
       0.266
       0.240
       0.216
       0.191
       0.164
       0.137
       0.113
       0.098
       0.092
       0.090
       0.085
       0.076
       0.062
       0.046
       0.031
       0.018
       0.005
      -0.013
      -0.036
      -0.060
      -0.077
      -0.082
      -0.074
      -0.055
      -0.033
      -0.017
      -0.011
      -0.016
      -0.028
      -0.043
      -0.055
      -0.065
      -0.073
      -0.086
      -0.100
      -0.106
      -0.094
      -0.057
       0.002
       0.071
       0.138
       0.194
       0.235
       0.260
       0.266
       0.254
       0.226
       0.191
       0.158
       0.133
       0.121
       0.123
       0.142
       0.176
       0.219
       0.260
       0.286
       0.288
       0.267
       0.230
       0.185
       0.135
       0.083
       0.027
      -0.036
      -0.106
      -0.180
      -0.248
      -0.304
      -0.348
      -0.384
      -0.415
      -0.436
      -0.435
      -0.396
      -0.316
      -0.209
      -0.098
       0.001
       0.082
       0.153
       0.218
       0.276
       0.319
       0.342
       0.346
       0.335
       0.313
       0.276
       0.219
       0.147
       0.072
       0.010
      -0.023
      -0.022
       0.006
       0.048
       0.090
       0.127
       0.155
       0.175
       0.186
       0.187
       0.176
       0.154
       0.127
       0.101
       0.079
       0.060
       0.043
       0.031
       0.026
       0.029
       0.039
       0.056
       0.078
       0.104
       0.134
       0.164
       0.188
       0.203
       0.207
       0.203
       0.197
       0.188
       0.176
       0.156
       0.123
       0.078
       0.027
      -0.025
      -0.072
      -0.113
      -0.146
      -0.170
      -0.182
      -0.176
      -0.148
      -0.102
      -0.045
       0.009
       0.051
       0.081
       0.100
       0.108
       0.099
       0.066
       0.006
      -0.075
      -0.167
      -0.258
      -0.339
      -0.405
      -0.457
      -0.496
      -0.521
      -0.528
      -0.508
      -0.456
      -0.373
      -0.271
      -0.166
      -0.070
       0.009
       0.072
       0.121
       0.157
       0.184
       0.203
       0.220
       0.242
       0.272
       0.305
       0.333
       0.348
       0.343
       0.321
       0.286
       0.249
       0.216
       0.188
       0.160
       0.128
       0.093
       0.061
       0.039
       0.028
       0.022
       0.012
      -0.004
      -0.024
      -0.042
      -0.058
      -0.078
      -0.112
      -0.168
      -0.246
      -0.334
      -0.419
      -0.490
      -0.547
      -0.600
      -0.656
      -0.713
      -0.761
      -0.788
      -0.788
      -0.761
      -0.712
      -0.645
      -0.572
      -0.506
      -0.459
      -0.437
      -0.436
      -0.441
      -0.435
      -0.410
      -0.370
      -0.326
      -0.292
      -0.274
      -0.268
      -0.261
      -0.244
      -0.212
      -0.165
      -0.108
      -0.049
       0.002
       0.039
       0.056
       0.055
       0.041
       0.020
      -0.004
      -0.032
      -0.069
      -0.116
      -0.163
      -0.199
      -0.212
      -0.203
      -0.180
      -0.153
      -0.128
      -0.104
      -0.080
      -0.054
      -0.031
      -0.019
      -0.022
      -0.041
      -0.071
      -0.104
      -0.133
      -0.156
      -0.177
      -0.203
      -0.231
      -0.257
      -0.272
      -0.270
      -0.254
      -0.227
      -0.195
      -0.156
      -0.110
      -0.063
      -0.027
      -0.014
      -0.027
      -0.058
      -0.090
      -0.108
      -0.103
      -0.076
      -0.037
       0.003
       0.034
       0.049
       0.047
       0.032
       0.016
       0.008
       0.013
       0.030
       0.058
       0.095
       0.138
       0.184
       0.229
       0.273
       0.312
       0.347
       0.370
       0.375
       0.357
       0.322
       0.282
       0.249
       0.227
       0.218
       0.218
       0.222
       0.224
       0.219
       0.206
       0.187
       0.170
       0.164
       0.175
       0.198
       0.225
       0.249
       0.268
       0.283
       0.294
       0.295
       0.283
       0.255
       0.217
       0.177
       0.144
       0.124
       0.119
       0.127
       0.144
       0.169
       0.202
       0.245
       0.295
       0.344
       0.380
       0.399
       0.400
       0.390
       0.373
       0.349
       0.321
       0.289
       0.259
       0.236
       0.223
       0.217
       0.216
       0.213
       0.204
       0.192
       0.180
       0.176
       0.182
       0.193
       0.197
       0.185
       0.155
       0.120
       0.093
       0.086
       0.095
       0.106
       0.106
       0.092
       0.073
       0.062
       0.066
       0.077
       0.082
       0.069
       0.038
      -0.001
      -0.039
      -0.069
      -0.092
      -0.108
      -0.114
      -0.108
      -0.095
      -0.084
      -0.082
      -0.091
      -0.107
      -0.122
      -0.130
      -0.130
      -0.124
      -0.113
      -0.096
      -0.070
      -0.038
      -0.002
       0.031
       0.055
       0.069
       0.075
       0.080
       0.091
       0.107
       0.129
       0.154
       0.182
       0.208
       0.229
       0.237
       0.230
       0.214
       0.201
       0.206
       0.228
       0.257
       0.280
       0.292
       0.294
       0.292
       0.291
       0.291
       0.288
       0.279
       0.267
       0.256
       0.254
       0.261
       0.276
       0.295
       0.315
       0.329
       0.329
       0.314
       0.282
       0.238
       0.189
       0.139
       0.089
       0.037
      -0.018
      -0.071
      -0.117
      -0.158
      -0.195
      -0.229
      -0.258
      -0.280
      -0.292
      -0.296
      -0.292
      -0.283
      -0.270
      -0.256
      -0.242
      -0.230
      -0.216
      -0.198
      -0.171
      -0.136
      -0.097
      -0.060
      -0.034
      -0.021
      -0.019
      -0.019
      -0.017
      -0.012
      -0.007
      -0.001
       0.006
       0.015
       0.029
       0.052
       0.080
       0.108
       0.128
       0.139
       0.143
       0.145
       0.141
       0.127
       0.096
       0.049
      -0.010
      -0.072
      -0.128
      -0.172
      -0.199
      -0.210
      -0.207
      -0.191
      -0.168
      -0.144
      -0.129
      -0.127
      -0.140
      -0.164
      -0.194
      -0.225
      -0.251
      -0.261
      -0.248
      -0.214
      -0.171
      -0.133
      -0.114
      -0.115
      -0.133
      -0.158
      -0.181
      -0.193
      -0.189
      -0.165
      -0.123
      -0.071
      -0.020
       0.021
       0.049
       0.064
       0.068
       0.063
       0.053
       0.040
       0.026
       0.016
       0.011
       0.010
       0.009
       0.002
      -0.010
      -0.024
      -0.031
      -0.026
      -0.011
       0.006
       0.018
       0.025
       0.032
       0.046
       0.069
       0.099
       0.127
       0.145
       0.150
       0.146
       0.145
       0.154
       0.169
       0.178
       0.167
       0.134
       0.089
       0.045
       0.015
      -0.002
      -0.007
      -0.005
      -0.001
      -0.001
      -0.008
      -0.025
      -0.050
      -0.075
      -0.090
      -0.088
      -0.066
      -0.032
       0.002
       0.026
       0.037
       0.036
       0.020
      -0.009
      -0.048
      -0.086
      -0.114
      -0.130
      -0.136
      -0.142
      -0.154
      -0.174
      -0.200
      -0.226
      -0.249
      -0.268
      -0.283
      -0.295
      -0.301
      -0.299
      -0.283
      -0.254
      -0.215
      -0.177
      -0.145
      -0.123
      -0.107
      -0.096
      -0.091
      -0.098
      -0.118
      -0.149
      -0.184
      -0.219
      -0.255
      -0.294
      -0.334
      -0.366
      -0.381
      -0.376
      -0.356
      -0.329
      -0.307
      -0.298
      -0.300
      -0.306
      -0.306
      -0.295
      -0.275
      -0.250
      -0.228
      -0.215
      -0.208
      -0.204
      -0.198
      -0.191
      -0.181
      -0.166
      -0.145
      -0.113
      -0.070
      -0.021
       0.029
       0.074
       0.120
       0.167
       0.217
       0.263
       0.299
       0.319
       0.318
       0.298
       0.261
       0.216
       0.169
       0.122
       0.074
       0.026
      -0.019
      -0.050
      -0.059
      -0.041
      -0.006
       0.029
       0.050
