Origin Time       18/01/2011 20:23:27
Lat.              28.9 N	
Long.             64.0 E	
Depth (Km)          5.0
Magnitude         7.4
 Region           Southwestern-Pakistan                                            
 Above details taken from IMD 
     
Station Code      DJB
Station Lat.       28.652  N
Station Long.      77.188  E
Station Height(m)  235.0
Site Class        C   Vs30 between 200 m/sec to 375 m/sec *  
Record Time       18.01.2011 20:09:29.829
Sampling Rate     200. Hz
 Record Duration   80.030 Sec.
 Direction         E-W (E positive)
Max. Acceleration     -0.857 cm/sec**2
     
  * For reference see Site Classification link of website 
     
 Base Line Corrected and Low Pass Filtered (Cut Off at 35 Hz) Time History
 Acceleration data in cm/sec**2
    
[...]
       0.073
       0.046
       0.009
      -0.030
      -0.061
      -0.078
      -0.082
      -0.079
      -0.076
      -0.074
      -0.073
      -0.070
      -0.064
      -0.056
      -0.048
      -0.042
      -0.039
      -0.036
      -0.032
      -0.025
      -0.016
      -0.005
       0.006
       0.019
       0.031
       0.034
       0.026
       0.008
      -0.008
      -0.016
      -0.016
      -0.015
      -0.021
      -0.035
      -0.054
      -0.069
      -0.080
      -0.086
      -0.091
      -0.098
      -0.109
      -0.123
      -0.142
      -0.162
      -0.175
      -0.175
      -0.162
      -0.138
      -0.109
      -0.081
      -0.056
      -0.037
      -0.020
      -0.004
       0.011
       0.021
       0.023
       0.019
       0.019
       0.029
       0.048
       0.069
       0.083
       0.084
       0.072
       0.051
       0.030
       0.012
       0.000
      -0.006
      -0.009
      -0.011
      -0.013
      -0.014
      -0.013
      -0.014
      -0.017
      -0.020
      -0.017
      -0.003
       0.020
       0.044
       0.062
       0.070
       0.070
       0.068
       0.068
       0.071
       0.075
       0.075
       0.068
       0.054
       0.035
       0.017
       0.005
       0.002
       0.008
       0.018
       0.030
       0.043
       0.057
       0.072
       0.088
       0.103
       0.118
       0.135
       0.153
       0.171
       0.188
       0.201
       0.209
       0.208
       0.196
       0.175
       0.151
       0.127
       0.104
       0.078
       0.049
       0.019
      -0.008
      -0.030
      -0.047
      -0.061
      -0.071
      -0.076
      -0.072
      -0.057
      -0.037
      -0.016
       0.006
       0.027
       0.046
       0.057
       0.055
       0.044
       0.034
       0.032
       0.040
       0.050
       0.058
       0.063
       0.073
       0.095
       0.124
       0.153
       0.172
       0.180
       0.183
       0.187
       0.196
       0.209
       0.222
       0.233
       0.243
       0.254
       0.264
       0.272
       0.276
       0.276
       0.272
       0.265
       0.250
       0.229
       0.205
       0.185
       0.172
       0.164
       0.153
       0.133
       0.106
       0.074
       0.043
       0.018
      -0.002
      -0.021
      -0.044
      -0.072
      -0.104
      -0.137
      -0.165
      -0.183
      -0.189
      -0.182
      -0.165
      -0.143
      -0.116
      -0.087
      -0.062
      -0.042
      -0.026
      -0.013
      -0.001
       0.006
       0.003
      -0.016
      -0.044
      -0.073
      -0.092
      -0.095
      -0.083
      -0.059
      -0.028
       0.009
       0.050
       0.094
       0.136
       0.173
       0.200
       0.216
       0.223
       0.225
       0.223
       0.219
       0.211
       0.201
       0.189
       0.173
       0.155
       0.130
       0.095
       0.055
       0.015
      -0.018
      -0.043
      -0.065
      -0.088
      -0.112
      -0.134
      -0.147
      -0.149
      -0.142
      -0.129
      -0.115
      -0.101
      -0.086
      -0.070
      -0.054
      -0.040
      -0.032
      -0.032
      -0.036
      -0.039
      -0.041
      -0.041
      -0.042
      -0.046
      -0.052
      -0.060
      -0.066
      -0.067
      -0.063
      -0.058
      -0.059
      -0.069
      -0.092
      -0.127
      -0.169
      -0.210
      -0.241
      -0.254
      -0.249
      -0.231
      -0.203
      -0.173
      -0.141
      -0.110
      -0.081
      -0.053
      -0.030
      -0.016
      -0.011
      -0.013
      -0.020
      -0.027
      -0.032
      -0.034
      -0.031
      -0.024
      -0.014
      -0.005
      -0.001
       0.001
       0.000
      -0.003
      -0.012
      -0.029
      -0.052
      -0.077
      -0.101
      -0.124
      -0.144
      -0.163
      -0.178
      -0.188
      -0.192
      -0.194
      -0.195
      -0.196
      -0.195
      -0.188
      -0.173
      -0.149
      -0.117
      -0.084
      -0.055
      -0.029
      -0.004
       0.025
       0.056
       0.085
       0.106
       0.116
       0.113
       0.101
       0.082
       0.055
       0.023
      -0.012
      -0.044
      -0.071
      -0.092
      -0.108
      -0.119
      -0.127
      -0.133
      -0.140
      -0.146
      -0.149
      -0.143
      -0.125
      -0.097
      -0.066
      -0.039
      -0.018
       0.000
       0.015
       0.028
       0.037
       0.037
       0.026
       0.005
      -0.025
      -0.061
      -0.106
      -0.160
      -0.221
      -0.284
      -0.341
      -0.384
      -0.411
      -0.422
      -0.420
      -0.406
      -0.381
      -0.346
      -0.298
      -0.239
      -0.174
      -0.108
      -0.050
       0.002
       0.052
       0.104
       0.153
       0.192
       0.217
       0.230
       0.236
       0.240
       0.240
       0.237
       0.230
       0.223
       0.220
       0.224
       0.230
       0.236
       0.237
       0.237
       0.236
       0.233
       0.227
       0.216
       0.201
       0.182
       0.159
       0.132
       0.098
       0.055
       0.002
      -0.061
      -0.129
      -0.197
      -0.257
      -0.303
      -0.335
      -0.352
      -0.356
      -0.348
      -0.333
      -0.309
      -0.279
      -0.241
      -0.196
      -0.148
      -0.101
      -0.059
      -0.023
       0.010
       0.043
       0.078
       0.111
       0.138
       0.158
       0.174
       0.191
       0.209
       0.224
       0.232
       0.231
       0.226
       0.221
       0.217
       0.211
       0.197
       0.172
       0.135
       0.090
       0.042
      -0.007
      -0.057
      -0.105
      -0.151
      -0.195
      -0.237
      -0.274
      -0.306
      -0.336
      -0.366
      -0.395
      -0.424
      -0.447
      -0.463
      -0.471
      -0.473
      -0.464
      -0.442
      -0.406
      -0.360
      -0.311
      -0.263
      -0.217
      -0.172
      -0.125
      -0.076
      -0.025
       0.022
       0.063
       0.096
       0.121
       0.143
       0.163
       0.183
       0.204
       0.222
       0.233
       0.238
       0.242
       0.253
       0.275
       0.303
       0.332
       0.353
       0.365
       0.369
       0.368
       0.359
       0.340
       0.309
       0.265
       0.211
       0.150
       0.085
       0.014
      -0.067
      -0.159
      -0.256
      -0.347
      -0.427
      -0.494
      -0.546
      -0.585
      -0.610
      -0.625
      -0.633
      -0.638
      -0.639
      -0.634
      -0.614
      -0.570
      -0.500
      -0.407
      -0.299
      -0.186
      -0.072
       0.038
       0.140
       0.230
       0.300
       0.347
       0.372
       0.381
       0.382
       0.377
       0.361
       0.330
       0.280
       0.216
       0.151
       0.096
       0.060
       0.043
       0.042
       0.056
       0.087
       0.134
       0.192
       0.251
       0.304
       0.350
       0.387
       0.415
       0.429
       0.424
       0.395
       0.344
       0.270
       0.179
       0.078
      -0.023
      -0.113
      -0.189
      -0.246
      -0.285
      -0.304
      -0.301
      -0.276
      -0.231
      -0.172
      -0.101
      -0.022
       0.064
       0.151
       0.235
       0.312
       0.379
       0.436
       0.480
       0.509
       0.518
       0.508
       0.483
       0.449
       0.409
       0.361
       0.305
       0.245
       0.191
       0.152
       0.131
       0.124
       0.117
       0.103
       0.080
       0.055
       0.035
       0.021
       0.006
      -0.019
      -0.056
      -0.102
      -0.149
      -0.189
      -0.222
      -0.251
      -0.279
      -0.308
      -0.333
      -0.349
      -0.352
      -0.341
      -0.318
      -0.284
      -0.242
      -0.193
      -0.138
      -0.078
      -0.016
       0.045
       0.100
       0.146
       0.179
       0.201
       0.214
       0.222
       0.233
       0.249
       0.270
       0.286
       0.289
       0.278
       0.258
       0.239
       0.228
       0.223
       0.221
       0.217
       0.211
       0.206
       0.203
       0.197
       0.183
       0.157
       0.121
       0.083
       0.047
       0.013
      -0.022
      -0.060
      -0.099
      -0.135
      -0.163
      -0.184
      -0.200
      -0.215
      -0.229
      -0.242
      -0.253
      -0.261
      -0.262
      -0.255
      -0.240
      -0.222
      -0.203
      -0.186
      -0.167
      -0.144
      -0.116
      -0.088
      -0.062
      -0.042
      -0.026
      -0.011
       0.001
       0.011
       0.014
       0.010
       0.001
      -0.008
      -0.013
      -0.012
      -0.006
      -0.001
      -0.003
      -0.015
      -0.034
      -0.053
      -0.067
      -0.074
      -0.072
      -0.062
      -0.042
      -0.013
       0.019
       0.047
       0.065
       0.074
       0.074
       0.070
       0.059
       0.041
       0.018
      -0.008
      -0.036
      -0.067
      -0.102
      -0.140
      -0.179
      -0.214
      -0.243
      -0.266
      -0.286
      -0.308
      -0.334
      -0.357
      -0.371
      -0.368
      -0.351
      -0.330
      -0.313
      -0.307
      -0.312
      -0.324
      -0.337
      -0.345
      -0.348
      -0.345
      -0.335
      -0.321
      -0.305
      -0.290
      -0.275
      -0.263
      -0.254
      -0.250
      -0.246
      -0.235
      -0.215
      -0.187
      -0.161
      -0.142
      -0.130
      -0.118
      -0.101
      -0.084
      -0.072
      -0.072
      -0.080
      -0.082
      -0.069
      -0.038
       0.003
       0.042
       0.072
       0.093
       0.109
       0.121
       0.127
       0.118
       0.092
       0.046
      -0.015
      -0.086
      -0.161
      -0.237
      -0.307
      -0.364
      -0.400
      -0.412
      -0.401
      -0.370
      -0.324
      -0.275
      -0.237
      -0.220
      -0.228
      -0.256
      -0.293
      -0.331
      -0.364
      -0.387
      -0.400
      -0.397
      -0.378
      -0.343
      -0.302
      -0.263
      -0.232
      -0.212
      -0.203
      -0.203
      -0.211
      -0.220
      -0.225
      -0.223
      -0.212
      -0.195
      -0.172
      -0.143
      -0.106
      -0.063
      -0.020
       0.017
       0.043
       0.054
       0.048
       0.024
      -0.014
      -0.061
      -0.109
      -0.156
      -0.197
      -0.229
      -0.251
      -0.262
      -0.262
      -0.255
      -0.241
      -0.218
      -0.181
      -0.128
      -0.059
       0.019
       0.099
       0.170
       0.226
       0.265
       0.286
       0.292
       0.286
       0.270
       0.246
       0.219
       0.193
       0.174
       0.160
       0.146
       0.127
       0.102
       0.076
       0.059
       0.053
       0.056
       0.063
       0.070
       0.079
       0.093
       0.113
       0.133
       0.144
       0.137
       0.111
       0.070
       0.024
      -0.018
      -0.051
      -0.069
      -0.074
      -0.065
      -0.046
      -0.020
       0.010
       0.048
       0.096
       0.159
       0.234
       0.314
       0.390
       0.453
       0.496
       0.520
       0.529
       0.528
       0.522
       0.517
       0.516
       0.521
       0.530
       0.541
       0.551
       0.556
       0.556
       0.552
       0.550
       0.554
       0.563
       0.571
       0.572
       0.558
       0.533
       0.499
       0.459
       0.419
       0.383
       0.360
       0.353
       0.356
       0.358
       0.349
       0.326
       0.294
       0.260
       0.225
       0.192
       0.165
       0.146
       0.135
       0.132
       0.131
       0.132
       0.138
       0.157
       0.191
       0.237
       0.286
       0.325
       0.349
       0.356
       0.351
       0.344
       0.340
       0.337
       0.331
       0.322
       0.313
       0.313
       0.322
       0.339
       0.357
       0.370
       0.374
       0.371
       0.364
       0.358
       0.359
       0.368
       0.387
       0.421
       0.471
       0.536
       0.609
       0.678
       0.733
       0.770
       0.789
       0.790
       0.771
       0.732
       0.677
       0.613
       0.548
       0.485
       0.425
       0.368
       0.315
       0.271
       0.238
       0.218
       0.208
       0.204
       0.205
       0.210
       0.221
       0.238
       0.261
       0.284
       0.301
       0.306
       0.298
       0.283
       0.267
       0.253
       0.239
       0.221
       0.196
       0.167
       0.137
       0.112
       0.094
       0.088
       0.095
       0.110
       0.128
       0.142
       0.149
       0.150
       0.145
       0.135
       0.116
       0.088
       0.049
       0.002
      -0.049
      -0.100
      -0.146
      -0.183
      -0.207
      -0.214
      -0.206
      -0.188
      -0.166
      -0.147
      -0.135
      -0.132
      -0.137
      -0.149
      -0.165
      -0.182
      -0.198
      -0.218
      -0.243
      -0.274
      -0.305
      -0.327
      -0.334
      -0.326
      -0.311
      -0.303
      -0.311
      -0.338
      -0.372
      -0.401
      -0.418
      -0.426
      -0.432
      -0.440
      -0.446
      -0.445
      -0.432
      -0.410
      -0.387
      -0.366
      -0.348
      -0.328
      -0.302
      -0.270
      -0.237
      -0.214
      -0.210
      -0.225
      -0.258
      -0.303
      -0.359
      -0.425
      -0.493
      -0.556
      -0.613
      -0.666
      -0.720
      -0.773
      -0.817
      -0.846
      -0.857
      -0.857
      -0.851
      -0.844
      -0.835
      -0.819
      -0.792
      -0.750
      -0.692
      -0.617
      -0.532
      -0.445
      -0.363
      -0.291
      -0.230
      -0.177
      -0.135
      -0.105
      -0.084
      -0.071
      -0.061
      -0.056
      -0.059
      -0.072
      -0.094
      -0.119
      -0.144
      -0.166
      -0.182
      -0.191
      -0.193
      -0.192
      -0.191
      -0.193
      -0.194
      -0.187
      -0.169
      -0.144
      -0.128
      -0.132
      -0.158
      -0.195
      -0.229
      -0.255
      -0.273
      -0.290
      -0.313
      -0.340
      -0.367
      -0.387
      -0.398
      -0.402
      -0.402
      -0.396
      -0.380
      -0.349
      -0.306
      -0.261
      -0.223
      -0.194
      -0.174
      -0.160
      -0.152
      -0.150
      -0.152
      -0.157
      -0.161
      -0.165
      -0.166
      -0.165
      -0.161
      -0.155
      -0.152
      -0.155
      -0.167
      -0.185
      -0.208
      -0.230
      -0.249
      -0.263
      -0.272
      -0.278
      -0.285
      -0.294
      -0.308
      -0.326
      -0.347
      -0.372
      -0.400
      -0.430
      -0.463
      -0.496
      -0.522
      -0.537
      -0.536
      -0.519
      -0.489
      -0.446
      -0.394
      -0.334
      -0.271
      -0.213
      -0.164
      -0.124
      -0.091
      -0.063
      -0.042
      -0.034
      -0.039
      -0.053
      -0.072
      -0.090
      -0.109
      -0.127
      -0.145
      -0.161
      -0.174
      -0.178
      -0.173
      -0.157
      -0.132
      -0.093
      -0.038
       0.034
       0.117
       0.198
       0.264
       0.310
       0.341
       0.367
       0.387
       0.396
       0.383
       0.347
       0.296
       0.245
       0.213
       0.210
       0.237
       0.286
       0.348
       0.409
       0.454
       0.470
       0.453
       0.401
       0.323
       0.235
       0.152
       0.087
       0.044
       0.018
      -0.001
      -0.019
      -0.034
      -0.036
      -0.019
       0.018
       0.067
       0.116
       0.153
       0.171
       0.167
       0.143
       0.105
       0.056
       0.000
      -0.059
      -0.115
      -0.165
      -0.209
      -0.253
      -0.299
      -0.342
      -0.373
      -0.380
      -0.356
      -0.307
      -0.241
      -0.169
      -0.095
      -0.019
       0.062
       0.142
       0.217
       0.279
       0.323
       0.347
       0.351
       0.337
       0.311
       0.281
       0.249
       0.220
       0.191
       0.165
       0.146
       0.141
       0.154
       0.185
       0.229
       0.277
       0.320
       0.355
       0.378
       0.389
       0.385
       0.362
       0.322
       0.269
       0.207
       0.145
       0.087
       0.037
      -0.002
      -0.030
      -0.045
      -0.048
      -0.039
      -0.018
       0.013
       0.054
       0.106
       0.167
       0.236
       0.312
       0.391
       0.472
       0.548
       0.612
       0.657
       0.679
       0.681
       0.667
       0.645
       0.620
       0.597
       0.575
       0.548
       0.512
       0.468
       0.424
       0.388
       0.360
       0.329
       0.279
       0.198
       0.090
      -0.032
      -0.146
      -0.237
      -0.297
      -0.327
      -0.329
      -0.308
      -0.274
      -0.235
      -0.199
      -0.168
      -0.142
      -0.118
      -0.091
      -0.058
      -0.022
       0.016
       0.053
       0.087
       0.115
       0.132
       0.134
       0.123
       0.101
       0.073
       0.041
       0.007
      -0.028
      -0.064
      -0.095
      -0.114
      -0.116
      -0.100
      -0.070
      -0.032
       0.012
       0.064
       0.128
       0.203
       0.287
       0.378
       0.468
       0.549
       0.613
       0.656
       0.679
       0.684
       0.670
       0.637
       0.586
       0.522
       0.450
       0.374
       0.292
       0.206
       0.119
       0.035
      -0.042
      -0.107
      -0.159
      -0.195
      -0.211
      -0.202
      -0.172
      -0.132
      -0.094
      -0.068
      -0.054
      -0.046
      -0.036
      -0.024
      -0.011
      -0.003
      -0.001
       0.005
       0.026
       0.070
       0.134
       0.201
       0.249
       0.265
       0.249
       0.217
       0.181
       0.150
       0.125
       0.102
       0.080
       0.058
       0.034
       0.014
      -0.001
      -0.006
      -0.004
       0.002
       0.005
       0.003
      -0.003
      -0.013
      -0.027
      -0.046
      -0.066
      -0.082
      -0.087
      -0.079
      -0.060
      -0.032
      -0.005
       0.015
       0.023
       0.018
       0.002
      -0.019
      -0.040
      -0.058
      -0.073
      -0.083
      -0.091
      -0.099
      -0.109
      -0.119
      -0.119
      -0.098
      -0.053
       0.003
       0.054
       0.083
       0.088
       0.080
       0.072
       0.076
       0.098
       0.132
       0.175
       0.220
       0.262
       0.294
       0.312
       0.315
       0.305
       0.286
       0.262
       0.234
       0.203
       0.168
       0.125
       0.070
      -0.001
      -0.085
      -0.170
      -0.244
      -0.298
      -0.331
      -0.350
      -0.361
      -0.367
      -0.369
      -0.367
      -0.363
      -0.359
      -0.353
      -0.341
      -0.322
      -0.298
      -0.277
      -0.261
      -0.244
      -0.219
      -0.182
      -0.137
      -0.090
      -0.047
      -0.010
       0.025
       0.058
       0.087
       0.106
       0.113
       0.109
       0.098
       0.083
       0.066
       0.043
       0.011
      -0.031
      -0.077
      -0.112
      -0.124
      -0.106
      -0.064
      -0.013
       0.029
       0.050
       0.048
       0.032
       0.014
