Origin Time       18/01/2011 20:23:27
Lat.              28.9 N	
Long.             64.0 E	
Depth (Km)          5.0
Magnitude         7.4
 Region           Southwestern-Pakistan                                            
 Above details taken from IMD 
   
Station Code      DJB
Station Lat.       28.652
Station Long.      77.188
Station Height(m)  235.0
Site Class        C   Vs30 between 200 m/sec to 375 m/sec *  
Record Time       18.01.2011 20:09:29.829
Sampling Rate     200. Hz
 Record Duration   80.030 Sec.
 Direction         Vert. (Up positive)
Max. Acceleration      0.610 cm/sec**2
     
  * For reference see Site Classification link of website 
     
 Base Line Corrected and Low Pass Filtered (Cut Off at 35 Hz) Time History
 Acceleration data in cm/sec**2
    
[...]
       0.008
       0.011
       0.018
       0.026
       0.033
       0.037
       0.037
       0.031
       0.020
       0.007
      -0.003
      -0.006
      -0.001
       0.006
       0.011
       0.012
       0.012
       0.015
       0.020
       0.028
       0.033
       0.035
       0.033
       0.030
       0.027
       0.025
       0.024
       0.022
       0.021
       0.019
       0.017
       0.013
       0.008
       0.003
      -0.002
      -0.005
      -0.007
      -0.005
       0.000
       0.008
       0.016
       0.022
       0.025
       0.023
       0.018
       0.013
       0.011
       0.012
       0.014
       0.014
       0.009
       0.002
      -0.002
       0.001
       0.007
       0.012
       0.011
       0.006
       0.002
       0.003
       0.008
       0.016
       0.021
       0.023
       0.023
       0.021
       0.020
       0.018
       0.014
       0.008
       0.002
      -0.001
       0.001
       0.005
       0.006
       0.000
      -0.012
      -0.025
      -0.032
      -0.035
      -0.037
      -0.042
      -0.050
      -0.055
      -0.055
      -0.049
      -0.040
      -0.031
      -0.026
      -0.021
      -0.015
      -0.009
      -0.004
      -0.004
      -0.006
      -0.009
      -0.011
      -0.012
      -0.013
      -0.015
      -0.016
      -0.014
      -0.007
       0.001
       0.007
       0.007
       0.000
      -0.011
      -0.024
      -0.035
      -0.043
      -0.048
      -0.052
      -0.056
      -0.059
      -0.058
      -0.051
      -0.040
      -0.031
      -0.030
      -0.033
      -0.035
      -0.029
      -0.014
       0.005
       0.024
       0.040
       0.051
       0.057
       0.061
       0.063
       0.065
       0.067
       0.066
       0.063
       0.058
       0.053
       0.050
       0.048
       0.043
       0.034
       0.024
       0.017
       0.015
       0.015
       0.013
       0.006
      -0.001
      -0.006
      -0.010
      -0.015
      -0.022
      -0.026
      -0.025
      -0.018
      -0.008
       0.002
       0.012
       0.023
       0.035
       0.046
       0.056
       0.065
       0.072
       0.079
       0.085
       0.089
       0.090
       0.087
       0.082
       0.077
       0.070
       0.063
       0.057
       0.056
       0.063
       0.075
       0.089
       0.099
       0.105
       0.110
       0.116
       0.122
       0.128
       0.130
       0.132
       0.134
       0.136
       0.136
       0.131
       0.122
       0.113
       0.104
       0.095
       0.086
       0.076
       0.071
       0.074
       0.083
       0.093
       0.101
       0.107
       0.115
       0.129
       0.146
       0.160
       0.166
       0.165
       0.160
       0.155
       0.150
       0.141
       0.127
       0.110
       0.092
       0.077
       0.064
       0.055
       0.050
       0.050
       0.053
       0.057
       0.061
       0.067
       0.077
       0.091
       0.106
       0.120
       0.133
       0.142
       0.145
       0.142
       0.133
       0.122
       0.112
       0.103
       0.095
       0.087
       0.082
       0.082
       0.086
       0.092
       0.097
       0.100
       0.102
       0.104
       0.108
       0.112
       0.112
       0.107
       0.100
       0.095
       0.092
       0.090
       0.085
       0.078
       0.070
       0.064
       0.061
       0.061
       0.061
       0.062
       0.062
       0.059
       0.053
       0.046
       0.035
       0.020
       0.003
      -0.017
      -0.037
      -0.055
      -0.070
      -0.080
      -0.086
      -0.089
      -0.091
      -0.093
      -0.093
      -0.091
      -0.085
      -0.077
      -0.068
      -0.061
      -0.057
      -0.055
      -0.052
      -0.047
      -0.038
      -0.030
      -0.024
      -0.023
      -0.024
      -0.023
      -0.022
      -0.022
      -0.028
      -0.040
      -0.056
      -0.070
      -0.081
      -0.089
      -0.097
      -0.102
      -0.102
      -0.094
      -0.078
      -0.058
      -0.039
      -0.027
      -0.023
      -0.025
      -0.029
      -0.032
      -0.035
      -0.042
      -0.054
      -0.069
      -0.080
      -0.088
      -0.097
      -0.108
      -0.121
      -0.130
      -0.135
      -0.137
      -0.141
      -0.147
      -0.150
      -0.148
      -0.141
      -0.134
      -0.130
      -0.131
      -0.134
      -0.134
      -0.130
      -0.122
      -0.115
      -0.116
      -0.128
      -0.144
      -0.153
      -0.151
      -0.138
      -0.124
      -0.118
      -0.119
      -0.124
      -0.123
      -0.114
      -0.099
      -0.082
      -0.069
      -0.059
      -0.051
      -0.045
      -0.041
      -0.038
      -0.034
      -0.029
      -0.025
      -0.022
      -0.020
      -0.015
      -0.002
       0.020
       0.047
       0.074
       0.094
       0.106
       0.109
       0.110
       0.112
       0.117
       0.122
       0.125
       0.122
       0.113
       0.097
       0.077
       0.059
       0.045
       0.032
       0.016
      -0.006
      -0.031
      -0.050
      -0.060
      -0.063
      -0.067
      -0.072
      -0.072
      -0.061
      -0.039
      -0.013
       0.009
       0.022
       0.027
       0.030
       0.035
       0.043
       0.050
       0.051
       0.045
       0.033
       0.020
       0.009
       0.002
      -0.004
      -0.010
      -0.018
      -0.026
      -0.029
      -0.024
      -0.008
       0.015
       0.037
       0.052
       0.057
       0.059
       0.061
       0.066
       0.071
       0.074
       0.077
       0.081
       0.083
       0.081
       0.074
       0.065
       0.056
       0.050
       0.049
       0.050
       0.053
       0.055
       0.057
       0.059
       0.065
       0.077
       0.094
       0.113
       0.126
       0.129
       0.124
       0.114
       0.107
       0.103
       0.098
       0.086
       0.066
       0.040
       0.011
      -0.015
      -0.037
      -0.058
      -0.083
      -0.110
      -0.136
      -0.152
      -0.155
      -0.147
      -0.134
      -0.121
      -0.108
      -0.092
      -0.074
      -0.057
      -0.046
      -0.045
      -0.050
      -0.058
      -0.067
      -0.073
      -0.076
      -0.072
      -0.065
      -0.059
      -0.057
      -0.057
      -0.056
      -0.053
      -0.052
      -0.057
      -0.068
      -0.079
      -0.089
      -0.095
      -0.100
      -0.105
      -0.108
      -0.108
      -0.104
      -0.099
      -0.096
      -0.095
      -0.091
      -0.084
      -0.075
      -0.068
      -0.064
      -0.064
      -0.064
      -0.061
      -0.054
      -0.048
      -0.047
      -0.053
      -0.064
      -0.077
      -0.090
      -0.102
      -0.115
      -0.126
      -0.136
      -0.143
      -0.147
      -0.147
      -0.143
      -0.135
      -0.124
      -0.112
      -0.102
      -0.094
      -0.088
      -0.084
      -0.081
      -0.078
      -0.072
      -0.066
      -0.060
      -0.057
      -0.057
      -0.057
      -0.055
      -0.052
      -0.051
      -0.054
      -0.060
      -0.069
      -0.077
      -0.086
      -0.096
      -0.108
      -0.122
      -0.137
      -0.151
      -0.163
      -0.170
      -0.171
      -0.167
      -0.159
      -0.151
      -0.144
      -0.136
      -0.127
      -0.115
      -0.103
      -0.094
      -0.091
      -0.095
      -0.102
      -0.108
      -0.111
      -0.115
      -0.124
      -0.139
      -0.156
      -0.171
      -0.180
      -0.182
      -0.179
      -0.174
      -0.170
      -0.171
      -0.174
      -0.178
      -0.176
      -0.172
      -0.168
      -0.169
      -0.173
      -0.176
      -0.171
      -0.154
      -0.127
      -0.094
      -0.061
      -0.032
      -0.008
       0.011
       0.024
       0.033
       0.039
       0.046
       0.053
       0.058
       0.059
       0.058
       0.058
       0.059
       0.061
       0.060
       0.054
       0.040
       0.020
      -0.004
      -0.026
      -0.045
      -0.062
      -0.080
      -0.102
      -0.130
      -0.157
      -0.178
      -0.192
      -0.202
      -0.212
      -0.227
      -0.242
      -0.252
      -0.253
      -0.245
      -0.230
      -0.215
      -0.206
      -0.202
      -0.199
      -0.190
      -0.175
      -0.157
      -0.142
      -0.133
      -0.131
      -0.130
      -0.126
      -0.118
      -0.110
      -0.105
      -0.104
      -0.106
      -0.109
      -0.109
      -0.106
      -0.099
      -0.089
      -0.079
      -0.073
      -0.072
      -0.071
      -0.066
      -0.056
      -0.044
      -0.031
      -0.019
      -0.010
      -0.003
       0.000
       0.000
       0.002
       0.009
       0.020
       0.030
       0.033
       0.025
       0.007
      -0.018
      -0.042
      -0.058
      -0.064
      -0.063
      -0.057
      -0.052
      -0.045
      -0.037
      -0.025
      -0.012
      -0.003
       0.003
       0.004
       0.004
       0.003
       0.004
       0.007
       0.012
       0.017
       0.019
       0.019
       0.014
       0.004
      -0.011
      -0.030
      -0.052
      -0.073
      -0.090
      -0.101
      -0.105
      -0.106
      -0.107
      -0.108
      -0.103
      -0.088
      -0.062
      -0.029
       0.002
       0.031
       0.056
       0.079
       0.095
       0.102
       0.101
       0.096
       0.092
       0.092
       0.093
       0.096
       0.103
       0.116
       0.133
       0.151
       0.168
       0.184
       0.200
       0.214
       0.221
       0.218
       0.202
       0.178
       0.153
       0.133
       0.116
       0.101
       0.083
       0.065
       0.049
       0.037
       0.028
       0.021
       0.014
       0.010
       0.012
       0.018
       0.027
       0.034
       0.039
       0.043
       0.048
       0.057
       0.070
       0.082
       0.090
       0.093
       0.092
       0.092
       0.095
       0.101
       0.109
       0.116
       0.119
       0.120
       0.120
       0.122
       0.125
       0.129
       0.134
       0.144
       0.161
       0.187
       0.216
       0.244
       0.270
       0.293
       0.315
       0.334
       0.347
       0.349
       0.340
       0.321
       0.292
       0.260
       0.230
       0.205
       0.188
       0.178
       0.173
       0.170
       0.167
       0.160
       0.150
       0.139
       0.130
       0.121
       0.111
       0.100
       0.087
       0.076
       0.067
       0.061
       0.058
       0.059
       0.064
       0.071
       0.075
       0.074
       0.069
       0.061
       0.054
       0.049
       0.048
       0.052
       0.061
       0.073
       0.085
       0.093
       0.098
       0.101
       0.102
       0.102
       0.098
       0.093
       0.092
       0.098
       0.107
       0.115
       0.118
       0.114
       0.107
       0.100
       0.094
       0.085
       0.070
       0.050
       0.030
       0.013
      -0.003
      -0.019
      -0.038
      -0.057
      -0.074
      -0.088
      -0.099
      -0.105
      -0.104
      -0.096
      -0.082
      -0.067
      -0.056
      -0.047
      -0.037
      -0.028
      -0.021
      -0.020
      -0.023
      -0.028
      -0.031
      -0.035
      -0.041
      -0.048
      -0.055
      -0.057
      -0.055
      -0.052
      -0.051
      -0.053
      -0.054
      -0.051
      -0.047
      -0.045
      -0.050
      -0.061
      -0.074
      -0.084
      -0.090
      -0.096
      -0.106
      -0.122
      -0.143
      -0.163
      -0.178
      -0.191
      -0.204
      -0.219
      -0.231
      -0.234
      -0.224
      -0.203
      -0.177
      -0.154
      -0.135
      -0.119
      -0.106
      -0.093
      -0.082
      -0.074
      -0.071
      -0.073
      -0.078
      -0.083
      -0.088
      -0.092
      -0.094
      -0.092
      -0.087
      -0.077
      -0.066
      -0.056
      -0.049
      -0.046
      -0.047
      -0.052
      -0.056
      -0.057
      -0.052
      -0.043
      -0.033
      -0.022
      -0.011
       0.001
       0.012
       0.017
       0.016
       0.012
       0.009
       0.010
       0.011
       0.009
       0.002
      -0.010
      -0.024
      -0.037
      -0.050
      -0.065
      -0.082
      -0.095
      -0.099
      -0.095
      -0.085
      -0.072
      -0.059
      -0.044
      -0.027
      -0.011
      -0.001
       0.002
      -0.003
      -0.009
      -0.012
      -0.008
       0.002
       0.016
       0.033
       0.052
       0.071
       0.091
       0.111
       0.131
       0.151
       0.170
       0.186
       0.200
       0.215
       0.231
       0.249
       0.264
       0.272
       0.272
       0.265
       0.255
       0.247
       0.241
       0.239
       0.241
       0.244
       0.249
       0.254
       0.260
       0.265
       0.271
       0.275
       0.276
       0.272
       0.262
       0.249
       0.233
       0.217
       0.200
       0.183
       0.167
       0.155
       0.147
       0.143
       0.141
       0.141
       0.145
       0.154
       0.167
       0.180
       0.188
       0.189
       0.186
       0.181
       0.174
       0.166
       0.158
       0.152
       0.150
       0.149
       0.148
       0.145
       0.143
       0.142
       0.141
       0.139
       0.136
       0.133
       0.130
       0.130
       0.136
       0.151
       0.174
       0.202
       0.233
       0.268
       0.309
       0.357
       0.406
       0.452
       0.491
       0.522
       0.547
       0.568
       0.586
       0.601
       0.610
       0.608
       0.590
       0.558
       0.518
       0.475
       0.433
       0.394
       0.359
       0.330
       0.309
       0.296
       0.288
       0.282
       0.272
       0.259
       0.241
       0.221
       0.199
       0.179
       0.160
       0.144
       0.132
       0.122
       0.112
       0.102
       0.093
       0.084
       0.073
       0.058
       0.038
       0.013
      -0.013
      -0.035
      -0.051
      -0.058
      -0.056
      -0.047
      -0.033
      -0.017
      -0.003
       0.004
       0.002
      -0.010
      -0.025
      -0.036
      -0.035
      -0.019
       0.008
       0.039
       0.066
       0.085
       0.100
       0.113
       0.130
       0.148
       0.161
       0.165
       0.157
       0.143
       0.129
       0.121
       0.119
       0.122
       0.126
       0.127
       0.124
       0.119
       0.115
       0.110
       0.105
       0.096
       0.084
       0.072
       0.063
       0.064
       0.074
       0.088
       0.097
       0.096
       0.086
       0.073
       0.063
       0.058
       0.056
       0.054
       0.049
       0.038
       0.022
       0.006
      -0.007
      -0.012
      -0.007
       0.007
       0.027
       0.045
       0.059
       0.067
       0.071
       0.075
       0.080
       0.088
       0.099
       0.111
       0.123
       0.131
       0.137
       0.141
       0.147
       0.153
       0.158
       0.160
       0.160
       0.157
       0.150
       0.135
       0.109
       0.074
       0.033
      -0.011
      -0.059
      -0.112
      -0.167
      -0.219
      -0.260
      -0.290
      -0.311
      -0.330
      -0.346
      -0.357
      -0.361
      -0.360
      -0.355
      -0.345
      -0.325
      -0.295
      -0.258
      -0.219
      -0.186
      -0.163
      -0.148
      -0.138
      -0.128
      -0.113
      -0.097
      -0.081
      -0.072
      -0.071
      -0.077
      -0.088
      -0.100
      -0.115
      -0.133
      -0.153
      -0.174
      -0.194
      -0.213
      -0.231
      -0.248
      -0.264
      -0.277
      -0.289
      -0.302
      -0.318
      -0.332
      -0.340
      -0.337
      -0.323
      -0.305
      -0.288
      -0.278
      -0.278
      -0.286
      -0.304
      -0.330
      -0.361
      -0.394
      -0.423
      -0.448
      -0.467
      -0.483
      -0.493
      -0.497
      -0.493
      -0.479
      -0.457
      -0.429
      -0.400
      -0.372
      -0.346
      -0.319
      -0.288
      -0.253
      -0.219
      -0.191
      -0.171
      -0.159
      -0.152
      -0.152
      -0.159
      -0.170
      -0.183
      -0.194
      -0.204
      -0.218
      -0.239
      -0.264
      -0.288
      -0.306
      -0.317
      -0.328
      -0.348
      -0.382
      -0.431
      -0.486
      -0.535
      -0.570
      -0.588
      -0.594
      -0.592
      -0.584
      -0.569
      -0.545
      -0.512
      -0.474
      -0.438
      -0.406
      -0.381
      -0.357
      -0.331
      -0.301
      -0.269
      -0.241
      -0.221
      -0.209
      -0.203
      -0.202
      -0.208
      -0.223
      -0.244
      -0.266
      -0.283
      -0.294
      -0.303
      -0.312
      -0.319
      -0.324
      -0.325
      -0.327
      -0.333
      -0.344
      -0.361
      -0.378
      -0.392
      -0.403
      -0.413
      -0.422
      -0.426
      -0.422
      -0.408
      -0.387
      -0.363
      -0.343
      -0.331
      -0.327
      -0.332
      -0.339
      -0.342
      -0.337
      -0.325
      -0.313
      -0.305
      -0.306
      -0.313
      -0.318
      -0.316
      -0.305
      -0.293
      -0.286
      -0.290
      -0.303
      -0.322
      -0.340
      -0.355
      -0.365
      -0.371
      -0.374
      -0.379
      -0.385
      -0.393
      -0.398
      -0.396
      -0.383
      -0.361
      -0.338
      -0.317
      -0.299
      -0.283
      -0.264
      -0.241
      -0.217
      -0.197
      -0.182
      -0.169
      -0.156
      -0.145
      -0.137
      -0.135
      -0.135
      -0.134
      -0.130
      -0.123
      -0.117
      -0.116
      -0.116
      -0.114
      -0.109
      -0.102
      -0.100
      -0.105
      -0.113
      -0.118
      -0.114
      -0.102
      -0.084
      -0.066
      -0.050
      -0.040
      -0.033
      -0.029
      -0.026
      -0.023
      -0.017
      -0.006
       0.015
       0.046
       0.080
       0.110
       0.135
       0.157
       0.182
       0.208
       0.230
       0.245
       0.255
       0.265
       0.279
       0.295
       0.308
       0.316
       0.317
       0.312
       0.302
       0.287
       0.271
       0.256
       0.242
       0.226
       0.206
       0.184
       0.164
       0.154
       0.158
       0.177
       0.207
       0.239
       0.265
       0.282
       0.295
       0.310
       0.327
       0.339
       0.342
       0.335
       0.320
       0.300
       0.276
       0.248
       0.220
       0.197
       0.182
       0.176
       0.177
       0.187
       0.202
       0.222
       0.241
       0.256
       0.266
       0.276
       0.291
       0.314
       0.345
       0.381
       0.417
       0.451
       0.483
       0.511
       0.534
       0.548
       0.549
       0.535
       0.509
       0.477
       0.447
       0.423
       0.408
       0.399
       0.393
       0.387
       0.382
       0.380
       0.384
       0.398
       0.422
       0.455
       0.491
       0.521
       0.539
       0.540
       0.525
       0.501
       0.475
       0.453
       0.435
       0.415
       0.391
       0.364
       0.337
       0.310
       0.283
       0.253
       0.220
       0.183
       0.149
       0.124
       0.112
       0.111
       0.114
       0.115
       0.115
       0.116
       0.123
       0.135
