Origin Time       11/8/2009 21:43:39 
Lat.              24.4 N 
Long.             94.8 E 
Depth (Km)         22.0
Magnitude         5.6
 Region           MYANMAR-INDIA(MANIPUR)BORDER                                     
 Above details taken from IMD 
     
Station Code      KAR
Station Lat.       24.870  N
Station Long.      92.354  E
Station Height(m)   34.6
Site Class        C   Vs30 between 200 m/sec to 375 m/sec *  
Record Time       12.08.2009 03:13:34.004
Sampling Rate     200. Hz
 Record Duration   66.665 Sec.
 Direction         E-W (E positive)
Max. Acceleration     -5.216 cm/sec**2
     
  * For reference see Site Classification link of website 
     
 Base Line Corrected and Low Pass Filtered (Cut Off at 35 Hz) Time History
 Acceleration data in cm/sec**2
    
[...]
       0.288
       0.343
       0.391
       0.435
       0.464
       0.460
       0.417
       0.349
       0.280
       0.220
       0.160
       0.089
       0.015
      -0.038
      -0.060
      -0.067
      -0.092
      -0.150
      -0.222
      -0.269
      -0.268
      -0.233
      -0.197
      -0.183
      -0.189
      -0.203
      -0.217
      -0.229
      -0.233
      -0.214
      -0.164
      -0.092
      -0.023
       0.015
       0.019
       0.008
       0.009
       0.026
       0.035
       0.011
      -0.043
      -0.096
      -0.121
      -0.117
      -0.095
      -0.066
      -0.028
       0.017
       0.059
       0.075
       0.052
      -0.004
      -0.064
      -0.106
      -0.125
      -0.134
      -0.143
      -0.144
      -0.125
      -0.089
      -0.055
      -0.041
      -0.039
      -0.026
       0.013
       0.070
       0.121
       0.153
       0.170
       0.187
       0.210
       0.226
       0.215
       0.175
       0.114
       0.042
      -0.044
      -0.146
      -0.260
      -0.359
      -0.421
      -0.442
      -0.443
      -0.450
      -0.466
      -0.470
      -0.444
      -0.393
      -0.334
      -0.275
      -0.210
      -0.133
      -0.058
      -0.006
       0.005
      -0.013
      -0.034
      -0.030
       0.006
       0.066
       0.136
       0.217
       0.309
       0.397
       0.446
       0.429
       0.355
       0.261
       0.186
       0.137
       0.105
       0.080
       0.065
       0.066
       0.073
       0.064
       0.024
      -0.033
      -0.069
      -0.054
       0.010
       0.089
       0.151
       0.191
       0.218
       0.238
       0.239
       0.208
       0.155
       0.113
       0.107
       0.135
       0.166
       0.176
       0.162
       0.135
       0.102
       0.057
      -0.004
      -0.068
      -0.106
      -0.097
      -0.045
       0.024
       0.080
       0.110
       0.113
       0.087
       0.030
      -0.059
      -0.155
      -0.217
      -0.222
      -0.181
      -0.125
      -0.071
      -0.020
       0.035
       0.084
       0.110
       0.105
       0.086
       0.083
       0.114
       0.165
       0.203
       0.206
       0.179
       0.146
       0.116
       0.074
       0.004
      -0.089
      -0.173
      -0.219
      -0.225
      -0.216
      -0.212
      -0.214
      -0.206
      -0.181
      -0.154
      -0.144
      -0.153
      -0.158
      -0.138
      -0.088
      -0.028
       0.024
       0.068
       0.113
       0.164
       0.204
       0.208
       0.174
       0.121
       0.080
       0.061
       0.051
       0.036
       0.012
      -0.014
      -0.040
      -0.072
      -0.118
      -0.172
      -0.213
      -0.220
      -0.191
      -0.145
      -0.102
      -0.065
      -0.020
       0.038
       0.084
       0.082
       0.019
      -0.076
      -0.158
      -0.192
      -0.175
      -0.115
      -0.032
       0.058
       0.127
       0.151
       0.120
       0.049
      -0.022
      -0.064
      -0.080
      -0.100
      -0.149
      -0.221
      -0.291
      -0.344
      -0.388
      -0.439
      -0.496
      -0.525
      -0.493
      -0.399
      -0.271
      -0.146
      -0.040
       0.050
       0.125
       0.180
       0.210
       0.229
       0.258
       0.307
       0.358
       0.376
       0.343
       0.270
       0.189
       0.124
       0.067
      -0.009
      -0.111
      -0.215
      -0.280
      -0.286
      -0.243
      -0.177
      -0.101
      -0.022
       0.055
       0.119
       0.158
       0.178
       0.199
       0.241
       0.304
       0.357
       0.373
       0.347
       0.304
       0.264
       0.223
       0.162
       0.069
      -0.042
      -0.141
      -0.208
      -0.241
      -0.240
      -0.198
      -0.101
       0.045
       0.205
       0.329
       0.385
       0.377
       0.333
       0.279
       0.224
       0.167
       0.116
       0.083
       0.071
       0.060
       0.023
      -0.053
      -0.146
      -0.219
      -0.252
      -0.248
      -0.221
      -0.175
      -0.110
      -0.035
       0.020
       0.027
      -0.020
      -0.092
      -0.143
      -0.144
      -0.094
      -0.019
       0.059
       0.125
       0.170
       0.176
       0.125
       0.028
      -0.075
      -0.138
      -0.144
      -0.113
      -0.081
      -0.075
      -0.099
      -0.146
      -0.209
      -0.282
      -0.350
      -0.386
      -0.368
      -0.295
      -0.200
      -0.122
      -0.079
      -0.061
      -0.048
      -0.034
      -0.020
      -0.006
       0.020
       0.071
       0.139
       0.192
       0.196
       0.140
       0.044
      -0.063
      -0.155
      -0.220
      -0.245
      -0.220
      -0.150
      -0.053
       0.039
       0.107
       0.157
       0.208
       0.275
       0.342
       0.378
       0.365
       0.319
       0.278
       0.269
       0.293
       0.335
       0.377
       0.403
       0.395
       0.340
       0.236
       0.105
      -0.020
      -0.101
      -0.125
      -0.110
      -0.086
      -0.069
      -0.055
      -0.031
       0.000
       0.021
       0.021
       0.011
       0.010
       0.027
       0.049
       0.056
       0.038
      -0.002
      -0.058
      -0.133
      -0.232
      -0.350
      -0.466
      -0.555
      -0.607
      -0.626
      -0.625
      -0.606
      -0.558
      -0.478
      -0.383
      -0.310
      -0.286
      -0.308
      -0.337
      -0.335
      -0.285
      -0.192
      -0.062
       0.095
       0.259
       0.399
       0.482
       0.499
       0.474
       0.443
       0.438
       0.460
       0.496
       0.529
       0.555
       0.569
       0.548
       0.466
       0.320
       0.149
       0.018
      -0.035
      -0.014
       0.045
       0.112
       0.171
       0.217
       0.243
       0.234
       0.187
       0.121
       0.068
       0.046
       0.040
       0.016
      -0.049
      -0.150
      -0.263
      -0.374
      -0.477
      -0.570
      -0.637
      -0.660
      -0.631
      -0.569
      -0.502
      -0.441
      -0.379
      -0.307
      -0.230
      -0.162
      -0.110
      -0.063
       0.001
       0.089
       0.192
       0.289
       0.366
       0.426
       0.475
       0.503
       0.485
       0.403
       0.273
       0.139
       0.042
      -0.004
      -0.005
       0.028
       0.087
       0.159
       0.219
       0.241
       0.218
       0.167
       0.124
       0.116
       0.148
       0.198
       0.249
       0.295
       0.334
       0.350
       0.319
       0.233
       0.118
       0.021
      -0.028
      -0.030
      -0.005
       0.032
       0.080
       0.137
       0.184
       0.192
       0.147
       0.068
      -0.001
      -0.032
      -0.030
      -0.023
      -0.036
      -0.071
      -0.117
      -0.168
      -0.232
      -0.316
      -0.409
      -0.485
      -0.523
      -0.534
      -0.540
      -0.554
      -0.564
      -0.551
      -0.510
      -0.452
      -0.391
      -0.325
      -0.237
      -0.117
       0.024
       0.156
       0.256
       0.322
       0.374
       0.423
       0.466
       0.490
       0.499
       0.508
       0.523
       0.529
       0.506
       0.449
       0.374
       0.303
       0.242
       0.183
       0.115
       0.043
      -0.009
      -0.024
      -0.002
       0.042
       0.092
       0.151
       0.227
       0.310
       0.368
       0.368
       0.302
       0.200
       0.103
       0.034
      -0.010
      -0.045
      -0.081
      -0.121
      -0.166
      -0.225
      -0.295
      -0.359
      -0.389
      -0.371
      -0.313
      -0.244
      -0.191
      -0.161
      -0.148
      -0.150
      -0.182
      -0.255
      -0.352
      -0.425
      -0.432
      -0.372
      -0.281
      -0.194
      -0.129
      -0.084
      -0.058
      -0.053
      -0.070
      -0.090
      -0.079
      -0.018
       0.083
       0.187
       0.259
       0.297
       0.318
       0.334
       0.333
       0.293
       0.211
       0.113
       0.035
      -0.008
      -0.022
      -0.021
      -0.011
       0.006
       0.013
      -0.015
      -0.097
      -0.216
      -0.326
      -0.386
      -0.381
      -0.330
      -0.252
      -0.155
      -0.030
       0.118
       0.267
       0.383
       0.453
       0.488
       0.510
       0.522
       0.506
       0.450
       0.360
       0.260
       0.164
       0.067
      -0.039
      -0.149
      -0.241
      -0.288
      -0.286
      -0.257
      -0.225
      -0.199
      -0.164
      -0.110
      -0.046
       0.010
       0.050
       0.097
       0.177
       0.291
       0.415
       0.521
       0.594
       0.632
       0.638
       0.606
       0.534
       0.432
       0.327
       0.243
       0.182
       0.125
       0.049
      -0.057
      -0.185
      -0.329
      -0.481
      -0.635
      -0.768
      -0.848
      -0.856
      -0.806
      -0.734
      -0.666
      -0.608
      -0.548
      -0.482
      -0.425
      -0.393
      -0.385
      -0.372
      -0.324
      -0.230
      -0.107
       0.015
       0.115
       0.192
       0.247
       0.268
       0.232
       0.137
       0.013
      -0.095
      -0.162
      -0.194
      -0.211
      -0.221
      -0.225
      -0.224
      -0.231
      -0.258
      -0.303
      -0.338
      -0.333
      -0.282
      -0.212
      -0.163
      -0.149
      -0.151
      -0.141
      -0.106
      -0.052
       0.017
       0.114
       0.251
       0.416
       0.575
       0.696
       0.778
       0.840
       0.898
       0.945
       0.957
       0.917
       0.831
       0.719
       0.593
       0.457
       0.307
       0.158
       0.030
      -0.064
      -0.138
      -0.223
      -0.338
      -0.474
      -0.603
      -0.706
      -0.784
      -0.850
      -0.903
      -0.932
      -0.930
      -0.905
      -0.871
      -0.832
      -0.768
      -0.655
      -0.483
      -0.276
      -0.079
       0.070
       0.162
       0.205
       0.202
       0.147
       0.041
      -0.098
      -0.242
      -0.379
      -0.519
      -0.677
      -0.847
      -1.007
      -1.132
      -1.211
      -1.247
      -1.240
      -1.174
      -1.028
      -0.799
      -0.507
      -0.191
       0.118
       0.408
       0.669
       0.890
       1.054
       1.164
       1.246
       1.334
       1.442
       1.550
       1.624
       1.644
       1.614
       1.547
       1.447
       1.307
       1.127
       0.931
       0.749
       0.597
       0.467
       0.336
       0.191
       0.039
      -0.098
      -0.210
      -0.300
      -0.372
      -0.412
      -0.397
      -0.319
      -0.204
      -0.092
      -0.004
       0.065
       0.130
       0.194
       0.248
       0.283
       0.308
       0.346
       0.404
       0.460
       0.472
       0.413
       0.296
       0.155
       0.016
      -0.125
      -0.281
      -0.452
      -0.614
      -0.741
      -0.827
      -0.880
      -0.906
      -0.904
      -0.870
      -0.819
      -0.775
      -0.752
      -0.732
      -0.671
      -0.535
      -0.325
      -0.079
       0.164
       0.386
       0.586
       0.763
       0.902
       0.986
       1.016
       1.012
       0.996
       0.973
       0.935
       0.884
       0.826
       0.763
       0.684
       0.566
       0.404
       0.216
       0.036
      -0.106
      -0.204
      -0.273
      -0.324
      -0.354
      -0.346
      -0.293
      -0.217
      -0.142
      -0.072
       0.020
       0.163
       0.357
       0.574
       0.778
       0.936
       1.025
       1.021
       0.907
       0.687
       0.396
       0.091
      -0.179
      -0.406
      -0.615
      -0.842
      -1.099
      -1.373
      -1.648
      -1.918
      -2.181
      -2.421
      -2.601
      -2.688
      -2.674
      -2.567
      -2.375
      -2.095
      -1.724
      -1.288
      -0.835
      -0.416
      -0.051
       0.272
       0.567
       0.834
       1.056
       1.220
       1.335
       1.424
       1.506
       1.571
       1.599
       1.582
       1.539
       1.492
       1.446
       1.388
       1.306
       1.201
       1.082
       0.948
       0.796
       0.628
       0.462
       0.325
       0.234
       0.184
       0.157
       0.136
       0.135
       0.181
       0.291
       0.451
       0.634
       0.820
       1.012
       1.215
       1.416
       1.583
       1.690
       1.725
       1.693
       1.597
       1.429
       1.182
       0.866
       0.506
       0.126
      -0.276
      -0.717
      -1.210
      -1.732
      -2.241
      -2.696
      -3.080
      -3.394
      -3.632
      -3.764
      -3.759
      -3.612
      -3.354
      -3.020
      -2.625
      -2.168
      -1.650
      -1.090
      -0.518
       0.055
       0.632
       1.224
       1.821
       2.394
       2.908
       3.343
       3.698
       3.966
       4.127
       4.155
       4.051
       3.849
       3.595
       3.308
       2.989
       2.629
       2.234
       1.815
       1.379
       0.926
       0.467
       0.035
      -0.321
      -0.556
      -0.655
      -0.635
      -0.526
      -0.348
      -0.117
       0.145
       0.397
       0.603
       0.750
       0.861
       0.971
       1.092
       1.207
       1.285
       1.297
       1.225
       1.045
       0.733
       0.282
      -0.276
      -0.876
      -1.451
      -1.969
      -2.434
      -2.875
      -3.308
      -3.730
      -4.128
      -4.492
      -4.816
      -5.073
      -5.216
      -5.196
      -4.995
      -4.632
      -4.139
      -3.541
      -2.861
      -2.130
      -1.391
      -0.681
      -0.021
       0.591
       1.162
       1.685
       2.136
       2.489
       2.742
       2.913
       3.017
       3.045
       2.983
       2.834
       2.627
       2.394
       2.148
       1.885
       1.605
       1.319
       1.042
       0.779
       0.526
       0.287
       0.082
      -0.064
      -0.146
      -0.181
      -0.196
      -0.200
      -0.182
      -0.130
      -0.054
       0.023
       0.087
       0.149
       0.233
       0.342
       0.453
       0.536
       0.570
       0.548
       0.462
       0.297
       0.040
      -0.295
      -0.674
      -1.062
      -1.447
      -1.834
      -2.231
      -2.623
      -2.981
      -3.279
      -3.508
      -3.668
      -3.748
      -3.724
      -3.574
      -3.306
      -2.956
      -2.560
      -2.138
      -1.692
      -1.230
      -0.767
      -0.311
       0.146
       0.625
       1.141
       1.682
       2.208
       2.674
       3.054
       3.342
       3.531
       3.606
       3.542
       3.337
       3.017
       2.618
       2.166
       1.671
       1.147
       0.616
       0.105
      -0.368
      -0.801
      -1.203
      -1.569
      -1.875
      -2.092
      -2.213
      -2.259
      -2.261
      -2.230
      -2.160
      -2.042
      -1.885
      -1.700
      -1.488
      -1.223
      -0.881
      -0.467
      -0.023
       0.399
       0.764
       1.062
       1.290
       1.441
       1.506
       1.491
       1.415
       1.300
       1.152
       0.970
       0.757
       0.536
       0.336
       0.171
       0.027
      -0.124
      -0.291
      -0.451
      -0.572
      -0.647
      -0.697
      -0.743
      -0.789
      -0.821
      -0.824
      -0.793
      -0.726
      -0.611
      -0.422
      -0.140
       0.230
       0.653
       1.085
       1.498
       1.887
       2.246
       2.551
       2.772
       2.890
       2.912
       2.849
       2.705
       2.473
       2.154
       1.772
       1.361
       0.945
       0.528
       0.100
      -0.334
      -0.747
      -1.105
      -1.381
      -1.568
      -1.666
      -1.669
      -1.572
      -1.388
      -1.148
      -0.885
      -0.612
      -0.312
       0.032
       0.410
       0.777
       1.085
       1.308
       1.438
       1.463
       1.361
       1.115
       0.734
       0.257
      -0.270
      -0.820
      -1.386
      -1.959
      -2.506
      -2.971
      -3.303
      -3.481
      -3.508
      -3.375
      -3.059
      -2.539
      -1.834
      -1.005
      -0.124
       0.748
       1.572
       2.315
       2.942
       3.417
       3.723
       3.866
       3.870
       3.751
       3.509
       3.146
       2.687
       2.178
       1.665
       1.168
       0.687
       0.223
      -0.202
      -0.561
      -0.844
      -1.064
      -1.239
      -1.373
      -1.457
      -1.486
      -1.476
      -1.447
      -1.400
      -1.313
      -1.164
      -0.951
      -0.696
      -0.427
      -0.155
       0.122
       0.398
       0.647
       0.829
       0.923
       0.941
       0.909
       0.837
       0.711
       0.515
       0.247
      -0.081
      -0.456
      -0.869
      -1.302
      -1.721
      -2.077
      -2.330
      -2.463
      -2.488
      -2.419
      -2.260
      -2.003
      -1.657
      -1.257
      -0.846
      -0.449
      -0.065
       0.310
       0.662
       0.958
       1.166
       1.281
       1.322
       1.315
       1.278
       1.223
       1.164
       1.124
       1.116
       1.132
       1.140
       1.108
       1.028
       0.909
       0.760
       0.569
       0.312
      -0.022
      -0.413
      -0.818
      -1.201
      -1.549
      -1.852
      -2.090
      -2.234
      -2.270
      -2.204
      -2.055
      -1.828
      -1.515
      -1.114
      -0.652
      -0.184
       0.233
       0.573
       0.836
       1.026
       1.131
       1.128
       1.020
       0.850
       0.672
       0.523
       0.410
       0.329
       0.286
       0.285
       0.324
       0.380
       0.425
       0.445
       0.444
       0.434
       0.415
       0.373
       0.292
       0.176
       0.046
      -0.085
      -0.218
      -0.355
      -0.483
      -0.562
      -0.555
      -0.449
      -0.268
      -0.046
       0.194
       0.437
       0.669
       0.869
       1.024
       1.144
       1.257
       1.385
       1.521
       1.631
       1.673
       1.628
       1.506
       1.327
       1.105
       0.846
       0.563
       0.289
       0.060
      -0.105
      -0.216
      -0.298
      -0.372
      -0.453
      -0.552
      -0.683
      -0.853
      -1.055
      -1.269
      -1.475
      -1.665
      -1.844
      -2.022
      -2.199
      -2.362
      -2.502
      -2.626
      -2.744
      -2.847
      -2.897
      -2.855
      -2.704
      -2.459
      -2.147
      -1.788
      -1.394
      -0.978
      -0.562
      -0.171
       0.186
       0.522
       0.856
       1.188
       1.494
       1.738
       1.902
       1.996
       2.038
       2.039
       1.997
       1.914
       1.807
       1.705
       1.622
       1.550
       1.474
       1.398
       1.335
       1.297
       1.278
       1.258
       1.226
       1.186
       1.148
       1.114
       1.076
       1.026
       0.975
       0.948
       0.957
       0.986
       0.995
       0.953
       0.861
       0.730
       0.562
       0.339
       0.045
      -0.314
      -0.709
      -1.104
      -1.468
      -1.783
      -2.030
      -2.188
      -2.235
      -2.166
      -1.997
      -1.756
      -1.460
      -1.112
      -0.715
      -0.295
       0.101
       0.431
       0.681
       0.861
       0.980
       1.033
       1.007
