Origin Time       24/2/2010 19:20:52	
Lat.              28.6 N	
Long.             76.9 E	
Depth (Km)         17.0
Magnitude         2.5
 Region           Rohtak                                                           
 Above details taken from IMD 
     
Station Code      DJB
Station Lat.       28.652  N
Station Long.      77.188  E
Station Height(m)  235.0
Site Class        A   Vs30 between 700 m/sec to 1400 m/sec * 
Record Time       24.02.2010 19:20:14.619
Sampling Rate     200. Hz
 Record Duration   80.000 Sec.
 Direction         E-W (E positive)
Max. Acceleration      1.247 cm/sec**2
     
  * For reference see Site Classification link of website 
     
 Base Line Corrected and Low Pass Filtered (Cut Off at 35 Hz) Time History
 Acceleration data in cm/sec**2
    
[...]
      -0.003
       0.003
       0.005
       0.004
       0.000
      -0.003
      -0.002
       0.001
       0.003
       0.003
       0.001
       0.001
       0.002
       0.004
       0.003
      -0.002
      -0.009
      -0.012
      -0.009
      -0.004
      -0.001
      -0.004
      -0.010
      -0.015
      -0.013
      -0.004
       0.007
       0.014
       0.012
       0.005
      -0.002
      -0.006
      -0.005
      -0.001
       0.003
       0.006
       0.006
       0.002
      -0.004
      -0.008
      -0.007
      -0.002
       0.002
       0.002
      -0.001
      -0.003
      -0.004
      -0.004
      -0.005
      -0.006
      -0.007
      -0.005
       0.001
       0.007
       0.010
       0.008
       0.004
       0.001
       0.002
       0.006
       0.009
       0.008
       0.003
      -0.002
      -0.006
      -0.007
      -0.006
      -0.004
       0.000
       0.003
       0.005
       0.004
       0.000
      -0.003
      -0.005
      -0.005
      -0.003
      -0.001
       0.002
       0.004
       0.004
       0.002
       0.000
      -0.001
       0.000
       0.001
       0.001
      -0.001
      -0.004
      -0.007
      -0.007
      -0.004
      -0.001
      -0.001
      -0.004
      -0.007
      -0.008
      -0.008
      -0.007
      -0.005
      -0.005
      -0.005
      -0.006
      -0.005
      -0.003
       0.000
       0.000
      -0.002
      -0.005
      -0.006
      -0.003
       0.004
       0.013
       0.017
       0.015
       0.007
      -0.003
      -0.009
      -0.008
      -0.001
       0.007
       0.011
       0.009
       0.005
       0.003
       0.003
       0.005
       0.005
       0.003
      -0.003
      -0.011
      -0.017
      -0.014
      -0.003
       0.009
       0.015
       0.013
       0.005
       0.001
       0.001
       0.002
      -0.002
      -0.011
      -0.019
      -0.020
      -0.014
      -0.008
      -0.005
      -0.006
      -0.005
      -0.001
       0.005
       0.009
       0.009
       0.005
       0.001
      -0.001
       0.001
       0.003
       0.004
       0.003
       0.001
       0.000
      -0.001
      -0.001
      -0.001
       0.001
       0.003
       0.007
       0.010
       0.012
       0.010
       0.007
       0.003
       0.003
       0.005
       0.009
       0.010
       0.008
       0.004
       0.001
       0.000
      -0.001
       0.002
       0.007
       0.012
       0.012
       0.007
      -0.001
      -0.007
      -0.009
      -0.007
      -0.004
      -0.001
       0.001
       0.002
       0.001
      -0.001
      -0.003
      -0.002
      -0.001
       0.000
      -0.001
      -0.003
      -0.004
      -0.004
      -0.003
      -0.003
      -0.001
       0.002
       0.005
       0.006
       0.005
       0.000
      -0.007
      -0.013
      -0.013
      -0.006
       0.001
       0.003
      -0.002
      -0.009
      -0.013
      -0.009
      -0.001
       0.008
       0.015
       0.017
       0.015
       0.007
      -0.005
      -0.016
      -0.021
      -0.017
      -0.009
      -0.002
       0.001
       0.000
      -0.001
      -0.002
      -0.001
       0.000
       0.000
       0.001
       0.004
       0.007
       0.007
       0.004
       0.000
       0.000
       0.002
       0.004
       0.000
      -0.009
      -0.015
      -0.015
      -0.005
       0.007
       0.015
       0.015
       0.009
       0.001
      -0.005
      -0.007
      -0.007
      -0.006
      -0.004
       0.000
       0.007
       0.013
       0.016
       0.013
       0.007
       0.003
       0.003
       0.005
       0.005
       0.001
      -0.003
      -0.004
       0.000
       0.005
       0.006
       0.003
       0.001
       0.003
       0.008
       0.012
       0.014
       0.013
       0.008
       0.002
      -0.004
      -0.008
      -0.008
      -0.004
       0.001
       0.003
       0.001
      -0.001
      -0.001
       0.001
       0.002
      -0.001
      -0.006
      -0.012
      -0.016
      -0.014
      -0.007
       0.002
       0.008
       0.007
       0.001
      -0.007
      -0.010
      -0.009
      -0.005
      -0.002
      -0.002
      -0.002
      -0.002
       0.000
       0.002
       0.002
       0.000
      -0.003
      -0.005
      -0.006
      -0.007
      -0.006
      -0.005
      -0.004
      -0.003
      -0.001
       0.000
       0.000
      -0.003
      -0.006
      -0.008
      -0.010
      -0.013
      -0.015
      -0.016
      -0.013
      -0.007
       0.000
       0.005
       0.008
       0.012
       0.016
       0.016
       0.009
       0.000
      -0.006
      -0.006
      -0.001
       0.001
      -0.003
      -0.009
      -0.011
      -0.006
       0.002
       0.006
       0.004
      -0.003
      -0.007
      -0.002
       0.009
       0.020
       0.023
       0.015
       0.004
      -0.004
      -0.004
       0.001
       0.005
       0.004
       0.000
      -0.003
      -0.005
      -0.005
      -0.006
      -0.008
      -0.012
      -0.014
      -0.014
      -0.011
      -0.007
      -0.004
      -0.003
      -0.004
      -0.004
      -0.002
       0.001
       0.004
       0.005
       0.004
       0.003
       0.002
       0.000
      -0.004
      -0.008
      -0.012
      -0.015
      -0.016
      -0.015
      -0.011
      -0.007
      -0.004
      -0.003
      -0.001
       0.001
       0.002
       0.002
       0.002
       0.004
       0.008
       0.012
       0.014
       0.015
       0.017
       0.017
       0.014
      -0.001
      -0.029
      -0.069
      -0.109
      -0.132
      -0.114
      -0.047
       0.056
       0.152
       0.189
       0.135
       0.008
      -0.121
      -0.174
      -0.114
       0.022
       0.152
       0.200
       0.146
       0.031
      -0.083
      -0.145
      -0.140
      -0.080
       0.012
       0.107
       0.173
       0.186
       0.131
       0.020
      -0.108
      -0.195
      -0.203
      -0.134
      -0.041
       0.016
       0.011
      -0.025
      -0.035
       0.010
       0.081
       0.113
       0.067
      -0.035
      -0.129
      -0.153
      -0.082
       0.062
       0.220
       0.313
       0.283
       0.130
      -0.078
      -0.246
      -0.310
      -0.275
      -0.193
      -0.113
      -0.048
       0.022
       0.116
       0.221
       0.298
       0.305
       0.228
       0.086
      -0.070
      -0.177
      -0.194
      -0.120
      -0.006
       0.073
       0.061
      -0.046
      -0.193
      -0.295
      -0.285
      -0.162
       0.017
       0.166
       0.227
       0.199
       0.133
       0.094
       0.108
       0.150
       0.172
       0.146
       0.069
      -0.048
      -0.191
      -0.319
      -0.368
      -0.293
      -0.116
       0.070
       0.169
       0.151
       0.066
      -0.002
       0.005
       0.085
       0.186
       0.235
       0.178
       0.025
      -0.145
      -0.228
      -0.174
      -0.040
       0.061
       0.052
      -0.035
      -0.098
      -0.062
       0.049
       0.136
       0.103
      -0.053
      -0.236
      -0.313
      -0.207
       0.046
       0.323
       0.479
       0.430
       0.207
      -0.059
      -0.221
      -0.215
      -0.095
       0.028
       0.079
       0.059
       0.012
      -0.030
      -0.066
      -0.112
      -0.171
      -0.222
      -0.229
      -0.174
      -0.065
       0.072
       0.203
       0.296
       0.320
       0.260
       0.124
      -0.043
      -0.178
      -0.230
      -0.187
      -0.086
       0.012
       0.055
       0.026
      -0.045
      -0.098
      -0.078
       0.014
       0.119
       0.161
       0.112
       0.024
      -0.025
       0.001
       0.065
       0.097
       0.056
      -0.039
      -0.130
      -0.160
      -0.111
      -0.013
       0.075
       0.094
       0.031
      -0.074
      -0.142
      -0.118
      -0.012
       0.105
       0.157
       0.119
       0.034
      -0.040
      -0.068
      -0.052
      -0.011
       0.037
       0.078
       0.099
       0.092
       0.051
      -0.020
      -0.102
      -0.151
      -0.129
      -0.034
       0.075
       0.120
       0.061
      -0.062
      -0.155
      -0.144
      -0.034
       0.092
       0.139
       0.078
      -0.028
      -0.089
      -0.064
       0.009
       0.052
       0.032
      -0.019
      -0.043
      -0.014
       0.033
       0.047
       0.013
      -0.042
      -0.074
      -0.057
       0.002
       0.069
       0.103
       0.082
       0.023
      -0.024
      -0.029
      -0.009
      -0.012
      -0.053
      -0.095
      -0.081
       0.003
       0.115
       0.184
       0.166
       0.073
      -0.040
      -0.123
      -0.156
      -0.145
      -0.096
      -0.013
       0.086
       0.153
       0.137
       0.033
      -0.093
      -0.140
      -0.054
       0.108
       0.211
       0.158
      -0.017
      -0.169
      -0.182
      -0.063
       0.071
       0.108
       0.036
      -0.065
      -0.097
      -0.029
       0.094
       0.186
       0.184
       0.078
      -0.075
      -0.183
      -0.178
      -0.071
       0.052
       0.097
       0.048
      -0.031
      -0.066
      -0.040
      -0.003
      -0.011
      -0.069
      -0.127
      -0.123
      -0.038
       0.086
       0.179
       0.185
       0.101
      -0.012
      -0.079
      -0.062
       0.007
       0.063
       0.072
       0.051
       0.036
       0.033
       0.014
      -0.038
      -0.107
      -0.151
      -0.147
      -0.102
      -0.034
       0.039
       0.097
       0.105
       0.047
      -0.042
      -0.088
      -0.051
       0.038
       0.108
       0.122
       0.097
       0.068
       0.046
       0.018
      -0.023
      -0.054
      -0.056
      -0.038
      -0.033
      -0.056
      -0.076
      -0.057
       0.001
       0.049
       0.044
      -0.010
      -0.053
      -0.028
       0.060
       0.146
       0.158
       0.078
      -0.040
      -0.116
      -0.106
      -0.031
       0.043
       0.059
       0.014
      -0.042
      -0.063
      -0.042
      -0.005
       0.031
       0.063
       0.087
       0.087
       0.050
      -0.012
      -0.063
      -0.072
      -0.033
       0.031
       0.096
       0.140
       0.147
       0.096
      -0.015
      -0.140
      -0.207
      -0.168
      -0.047
       0.077
       0.138
       0.117
       0.048
      -0.024
      -0.065
      -0.070
      -0.050
      -0.026
      -0.016
      -0.028
      -0.043
      -0.020
       0.065
       0.173
       0.220
       0.146
      -0.027
      -0.201
      -0.281
      -0.237
      -0.117
       0.004
       0.080
       0.111
       0.129
       0.153
       0.176
       0.173
       0.128
       0.044
      -0.060
      -0.157
      -0.222
      -0.229
      -0.158
      -0.029
       0.088
       0.113
       0.030
      -0.085
      -0.123
      -0.041
       0.103
       0.194
       0.158
       0.015
      -0.133
      -0.179
      -0.093
       0.069
       0.206
       0.244
       0.173
       0.033
      -0.108
      -0.193
      -0.195
      -0.128
      -0.033
       0.044
       0.072
       0.042
      -0.028
      -0.096
      -0.107
      -0.040
       0.069
       0.144
       0.131
       0.052
      -0.009
       0.023
       0.133
       0.219
       0.184
       0.033
      -0.131
      -0.197
      -0.142
      -0.031
       0.044
       0.024
      -0.083
      -0.213
      -0.281
      -0.222
      -0.046
       0.163
       0.298
       0.302
       0.204
       0.088
       0.022
       0.019
       0.040
       0.040
       0.007
      -0.036
      -0.057
      -0.045
      -0.020
      -0.013
      -0.040
      -0.087
      -0.119
      -0.107
      -0.055
       0.002
       0.025
       0.009
      -0.018
      -0.019
       0.010
       0.037
       0.026
      -0.010
      -0.009
       0.077
       0.212
       0.292
       0.228
       0.038
      -0.169
      -0.271
      -0.230
      -0.117
      -0.039
      -0.051
      -0.106
      -0.104
       0.012
       0.193
       0.316
       0.296
       0.155
      -0.004
      -0.090
      -0.087
      -0.051
      -0.043
      -0.076
      -0.100
      -0.058
       0.048
       0.148
       0.165
       0.089
      -0.025
      -0.105
      -0.129
      -0.134
      -0.168
      -0.231
      -0.262
      -0.189
      -0.003
       0.223
       0.384
       0.415
       0.312
       0.130
      -0.046
      -0.127
      -0.082
       0.032
       0.111
       0.089
      -0.013
      -0.117
      -0.167
      -0.169
      -0.166
      -0.182
      -0.193
      -0.165
      -0.095
      -0.014
       0.063
       0.149
       0.258
       0.356
       0.385
       0.313
       0.168
       0.009
      -0.115
      -0.194
      -0.225
      -0.198
      -0.096
       0.063
       0.212
       0.273
       0.213
       0.070
      -0.080
      -0.174
      -0.174
      -0.064
       0.144
       0.393
       0.583
       0.603
       0.390
      -0.026
      -0.500
      -0.841
      -0.927
      -0.783
      -0.557
      -0.399
      -0.358
      -0.375
      -0.362
      -0.263
      -0.064
       0.229
       0.586
       0.915
       1.059
       0.896
       0.465
      -0.007
      -0.247
      -0.148
       0.135
       0.309
       0.173
      -0.221
      -0.625
      -0.800
      -0.689
      -0.425
      -0.185
      -0.046
       0.063
       0.276
       0.645
       1.050
       1.247
       1.053
       0.516
      -0.095
      -0.502
      -0.636
      -0.653
      -0.742
      -0.911
      -0.969
      -0.743
      -0.289
       0.127
       0.286
       0.232
       0.216
       0.424
       0.776
       0.998
       0.880
       0.460
      -0.013
      -0.298
      -0.337
      -0.265
      -0.257
      -0.374
      -0.535
      -0.608
      -0.518
      -0.278
       0.032
       0.302
       0.432
       0.396
       0.248
       0.083
      -0.031
      -0.072
      -0.028
       0.106
       0.286
       0.403
       0.339
       0.075
      -0.259
      -0.458
      -0.403
      -0.153
       0.105
       0.210
       0.142
       0.000
      -0.106
      -0.137
      -0.121
      -0.100
      -0.076
      -0.014
       0.116
       0.284
       0.406
       0.406
       0.283
       0.110
      -0.043
      -0.169
      -0.302
      -0.440
      -0.519
      -0.474
      -0.323
      -0.164
      -0.074
      -0.016
       0.112
       0.328
       0.502
       0.462
       0.174
      -0.196
      -0.412
      -0.355
      -0.098
       0.192
       0.390
       0.449
       0.365
       0.154
      -0.112
      -0.291
      -0.252
      -0.003
       0.281
       0.379
       0.189
      -0.179
      -0.485
      -0.528
      -0.290
       0.046
       0.239
       0.185
       0.000
      -0.084
       0.060
       0.324
       0.462
       0.305
      -0.077
      -0.428
      -0.506
      -0.273
       0.081
       0.300
       0.264
       0.070
      -0.082
      -0.071
       0.059
       0.151
       0.087
      -0.118
      -0.329
      -0.381
      -0.208
       0.097
       0.325
       0.304
       0.048
      -0.241
      -0.329
      -0.154
       0.130
       0.289
       0.219
       0.013
      -0.137
      -0.109
       0.059
       0.220
       0.239
       0.097
      -0.098
      -0.213
      -0.208
      -0.166
      -0.190
      -0.280
      -0.315
      -0.158
       0.201
       0.589
       0.750
       0.551
       0.117
      -0.250
      -0.310
      -0.076
       0.226
       0.364
       0.273
       0.046
      -0.188
      -0.362
      -0.472
      -0.511
      -0.426
      -0.169
       0.211
       0.534
       0.601
       0.354
      -0.062
      -0.395
      -0.462
      -0.265
       0.028
       0.231
       0.272
       0.226
       0.196
       0.199
       0.158
       0.006
      -0.231
      -0.437
      -0.481
      -0.315
      -0.006
       0.316
       0.533
       0.581
       0.453
       0.181
      -0.154
      -0.424
      -0.506
      -0.362
      -0.101
       0.077
       0.021
      -0.226
      -0.442
      -0.408
      -0.101
       0.282
       0.499
       0.464
       0.296
       0.174
       0.153
       0.150
       0.075
      -0.054
      -0.145
      -0.141
      -0.084
      -0.049
      -0.068
      -0.113
      -0.142
      -0.137
      -0.094
      -0.008
       0.106
       0.185
       0.153
      -0.023
      -0.269
      -0.435
      -0.384
      -0.100
       0.280
       0.545
       0.556
       0.341
       0.067
      -0.085
      -0.054
       0.063
       0.106
       0.004
      -0.157
      -0.229
      -0.150
      -0.002
       0.072
       0.001
      -0.141
      -0.185
      -0.021
       0.286
       0.502
       0.405
      -0.015
      -0.506
      -0.735
      -0.534
      -0.019
       0.505
       0.751
       0.630
       0.265
      -0.123
      -0.360
      -0.396
      -0.293
      -0.168
      -0.118
      -0.162
      -0.214
      -0.157
       0.042
       0.275
       0.376
       0.272
       0.048
      -0.126
      -0.136
      -0.006
       0.143
       0.196
       0.134
       0.017
      -0.094
      -0.189
      -0.266
      -0.279
      -0.170
       0.044
       0.246
       0.314
       0.217
       0.031
      -0.126
      -0.168
      -0.086
       0.051
       0.144
       0.142
       0.070
       0.003
      -0.016
      -0.005
      -0.022
      -0.104
      -0.209
      -0.236
      -0.114
       0.107
       0.282
       0.303
       0.184
       0.029
      -0.079
      -0.131
      -0.167
      -0.208
      -0.220
      -0.151
      -0.014
       0.096
       0.088
      -0.018
      -0.093
      -0.021
       0.193
       0.410
       0.469
       0.307
       0.015
      -0.224
      -0.272
      -0.139
       0.031
       0.092
       0.003
      -0.153
      -0.245
      -0.196
      -0.038
       0.101
       0.107
      -0.008
      -0.099
      -0.037
       0.135
       0.222
       0.081
      -0.198
      -0.349
      -0.173
       0.251
       0.606
       0.606
       0.228
      -0.283
      -0.625
      -0.638
      -0.363
       0.035
       0.371
       0.509
       0.411
       0.138
      -0.170
      -0.352
      -0.305
      -0.072
       0.174
       0.253
       0.132
      -0.060
      -0.159
      -0.113
      -0.009
       0.040
      -0.001
      -0.063
      -0.065
       0.008
       0.089
       0.101
       0.014
      -0.136
      -0.264
      -0.284
      -0.157
       0.084
       0.340
       0.500
       0.492
       0.316
       0.046
      -0.204
      -0.345
      -0.352
      -0.255
      -0.099
       0.057
       0.146
       0.132
       0.049
      -0.020
      -0.021
       0.020
       0.032
      -0.022
      -0.094
      -0.102
      -0.013
       0.109
       0.149
       0.051
      -0.119
      -0.219
      -0.157
       0.022
       0.178
       0.195
       0.079
      -0.046
      -0.039
       0.111
       0.250
       0.204
      -0.027
      -0.251
      -0.275
      -0.107
       0.064
       0.076
      -0.040
      -0.121
      -0.064
       0.076
       0.172
       0.149
       0.028
      -0.115
      -0.190
      -0.133
       0.035
