Origin Time       11/8/2009 21:43:39  UTC
Lat.              24.4 N 
Long.             94.8 E 
Depth (Km)         22.0
Magnitude         5.6
 Region           MYANMAR-INDIA(MANIPUR)BORDER                                     
 Above details taken from IMD 
    
Station Code      KAR
Station Lat.       24.870  N
Station Long.      92.354  E
Station Height(m)   34.6
Site Class        C   Vs30 between 200 m/sec to 375 m/sec *  
Record Time       12.08.2009 03:13:34.004 UTC
Sampling Rate     200. Hz
 Record Duration   66.665 Sec.
 Direction         N-S (N positive)
Max. Acceleration     -7.159 cm/sec**2
     
  * For reference see Site Classification link of website 
     
 Base Line Corrected and Low Pass Filtered (Cut Off at 35 Hz) Time History
 Acceleration data in cm/sec**2
    
[...]
       0.199
       0.224
       0.232
       0.230
       0.224
       0.211
       0.189
       0.158
       0.126
       0.099
       0.073
       0.041
      -0.001
      -0.047
      -0.089
      -0.123
      -0.150
      -0.168
      -0.173
      -0.153
      -0.105
      -0.032
       0.055
       0.141
       0.213
       0.262
       0.281
       0.265
       0.219
       0.154
       0.090
       0.039
       0.005
      -0.018
      -0.037
      -0.055
      -0.077
      -0.108
      -0.148
      -0.185
      -0.200
      -0.178
      -0.123
      -0.061
      -0.027
      -0.042
      -0.101
      -0.180
      -0.255
      -0.312
      -0.346
      -0.355
      -0.337
      -0.296
      -0.243
      -0.194
      -0.161
      -0.140
      -0.121
      -0.100
      -0.078
      -0.054
      -0.022
       0.026
       0.085
       0.141
       0.177
       0.187
       0.182
       0.179
       0.188
       0.208
       0.227
       0.234
       0.225
       0.201
       0.163
       0.114
       0.063
       0.028
       0.022
       0.039
       0.062
       0.071
       0.060
       0.035
       0.007
      -0.017
      -0.034
      -0.038
      -0.017
       0.039
       0.128
       0.228
       0.313
       0.366
       0.386
       0.382
       0.357
       0.310
       0.240
       0.164
       0.103
       0.076
       0.080
       0.100
       0.116
       0.116
       0.094
       0.043
      -0.041
      -0.152
      -0.268
      -0.365
      -0.426
      -0.446
      -0.430
      -0.382
      -0.306
      -0.210
      -0.112
      -0.034
       0.008
       0.014
      -0.009
      -0.051
      -0.105
      -0.161
      -0.200
      -0.206
      -0.168
      -0.089
       0.015
       0.122
       0.216
       0.289
       0.337
       0.350
       0.324
       0.263
       0.183
       0.105
       0.045
       0.007
      -0.016
      -0.034
      -0.057
      -0.087
      -0.123
      -0.160
      -0.190
      -0.213
      -0.235
      -0.269
      -0.323
      -0.389
      -0.442
      -0.453
      -0.406
      -0.309
      -0.187
      -0.070
       0.018
       0.069
       0.089
       0.091
       0.088
       0.096
       0.127
       0.177
       0.226
       0.250
       0.237
       0.192
       0.132
       0.072
       0.026
       0.003
       0.005
       0.028
       0.056
       0.069
       0.051
       0.000
      -0.065
      -0.117
      -0.138
      -0.126
      -0.086
      -0.029
       0.035
       0.094
       0.135
       0.148
       0.133
       0.097
       0.057
       0.029
       0.027
       0.053
       0.098
       0.150
       0.195
       0.223
       0.226
       0.206
       0.164
       0.105
       0.028
      -0.065
      -0.163
      -0.244
      -0.287
      -0.285
      -0.256
      -0.229
      -0.222
      -0.230
      -0.237
      -0.227
      -0.199
      -0.160
      -0.118
      -0.074
      -0.033
      -0.006
      -0.007
      -0.042
      -0.105
      -0.172
      -0.216
      -0.220
      -0.176
      -0.084
       0.047
       0.192
       0.320
       0.405
       0.439
       0.434
       0.406
       0.365
       0.310
       0.241
       0.169
       0.111
       0.075
       0.056
       0.040
       0.016
      -0.016
      -0.055
      -0.101
      -0.162
      -0.236
      -0.305
      -0.343
      -0.333
      -0.277
      -0.194
      -0.102
      -0.013
       0.073
       0.154
       0.227
       0.296
       0.370
       0.454
       0.532
       0.574
       0.547
       0.447
       0.302
       0.156
       0.043
      -0.028
      -0.071
      -0.104
      -0.137
      -0.178
      -0.235
      -0.315
      -0.415
      -0.517
      -0.595
      -0.631
      -0.625
      -0.584
      -0.523
      -0.451
      -0.378
      -0.310
      -0.251
      -0.199
      -0.141
      -0.064
       0.032
       0.132
       0.214
       0.265
       0.291
       0.305
       0.314
       0.321
       0.321
       0.316
       0.309
       0.298
       0.279
       0.244
       0.195
       0.138
       0.084
       0.031
      -0.026
      -0.092
      -0.160
      -0.216
      -0.241
      -0.231
      -0.190
      -0.132
      -0.070
      -0.014
       0.027
       0.050
       0.055
       0.048
       0.036
       0.024
       0.018
       0.025
       0.052
       0.101
       0.165
       0.224
       0.262
       0.266
       0.236
       0.182
       0.112
       0.029
      -0.067
      -0.171
      -0.268
      -0.346
      -0.396
      -0.424
      -0.432
      -0.423
      -0.398
      -0.358
      -0.312
      -0.269
      -0.232
      -0.196
      -0.154
      -0.103
      -0.045
       0.017
       0.083
       0.157
       0.233
       0.299
       0.343
       0.368
       0.383
       0.394
       0.398
       0.385
       0.351
       0.301
       0.245
       0.189
       0.122
       0.035
      -0.074
      -0.194
      -0.308
      -0.404
      -0.475
      -0.519
      -0.532
      -0.508
      -0.447
      -0.361
      -0.269
      -0.185
      -0.106
      -0.027
       0.052
       0.120
       0.169
       0.196
       0.210
       0.218
       0.224
       0.226
       0.226
       0.227
       0.236
       0.254
       0.275
       0.292
       0.299
       0.294
       0.274
       0.229
       0.150
       0.040
      -0.083
      -0.198
      -0.292
      -0.364
      -0.415
      -0.449
      -0.467
      -0.476
      -0.487
      -0.508
      -0.535
      -0.553
      -0.551
      -0.531
      -0.504
      -0.479
      -0.453
      -0.412
      -0.346
      -0.257
      -0.151
      -0.035
       0.089
       0.222
       0.360
       0.491
       0.607
       0.699
       0.760
       0.783
       0.759
       0.681
       0.553
       0.388
       0.206
       0.030
      -0.124
      -0.244
      -0.325
      -0.364
      -0.365
      -0.342
      -0.322
      -0.325
      -0.357
      -0.404
      -0.444
      -0.450
      -0.408
      -0.314
      -0.182
      -0.034
       0.101
       0.207
       0.280
       0.332
       0.376
       0.416
       0.444
       0.445
       0.414
       0.359
       0.292
       0.217
       0.127
       0.016
      -0.106
      -0.219
      -0.300
      -0.335
      -0.327
      -0.284
      -0.221
      -0.153
      -0.104
      -0.088
      -0.102
      -0.126
      -0.132
      -0.102
      -0.033
       0.067
       0.188
       0.320
       0.450
       0.558
       0.626
       0.652
       0.649
       0.643
       0.652
       0.681
       0.726
       0.784
       0.847
       0.901
       0.923
       0.892
       0.801
       0.662
       0.491
       0.304
       0.102
      -0.117
      -0.352
      -0.593
      -0.828
      -1.053
      -1.264
      -1.449
      -1.581
      -1.633
      -1.597
      -1.487
      -1.329
      -1.144
      -0.941
      -0.715
      -0.460
      -0.175
       0.135
       0.464
       0.803
       1.132
       1.427
       1.656
       1.799
       1.851
       1.820
       1.721
       1.567
       1.368
       1.137
       0.895
       0.660
       0.443
       0.249
       0.079
      -0.061
      -0.166
      -0.230
      -0.248
      -0.209
      -0.104
       0.068
       0.285
       0.513
       0.717
       0.877
       0.990
       1.063
       1.098
       1.092
       1.042
       0.952
       0.830
       0.675
       0.480
       0.238
      -0.050
      -0.368
      -0.698
      -1.026
      -1.339
      -1.629
      -1.881
      -2.074
      -2.196
      -2.245
      -2.234
      -2.180
      -2.100
      -2.008
      -1.919
      -1.847
      -1.794
      -1.749
      -1.693
      -1.611
      -1.498
      -1.363
      -1.213
      -1.051
      -0.872
      -0.671
      -0.439
      -0.165
       0.155
       0.515
       0.888
       1.230
       1.498
       1.665
       1.735
       1.731
       1.680
       1.599
       1.488
       1.345
       1.174
       0.984
       0.784
       0.583
       0.394
       0.232
       0.111
       0.030
      -0.016
      -0.036
      -0.030
       0.007
       0.080
       0.187
       0.314
       0.453
       0.606
       0.785
       0.990
       1.202
       1.389
       1.524
       1.585
       1.563
       1.457
       1.270
       1.015
       0.709
       0.363
      -0.019
      -0.437
      -0.889
      -1.359
      -1.820
      -2.243
      -2.612
      -2.923
      -3.172
      -3.349
      -3.443
      -3.449
      -3.375
      -3.237
      -3.052
      -2.826
      -2.560
      -2.253
      -1.907
      -1.528
      -1.120
      -0.697
      -0.275
       0.123
       0.482
       0.802
       1.092
       1.368
       1.633
       1.877
       2.083
       2.236
       2.330
       2.357
       2.306
       2.172
       1.972
       1.742
       1.529
       1.369
       1.278
       1.258
       1.299
       1.381
       1.484
       1.584
       1.662
       1.708
       1.721
       1.715
       1.704
       1.693
       1.684
       1.673
       1.654
       1.619
       1.558
       1.465
       1.338
       1.181
       0.993
       0.769
       0.497
       0.173
      -0.198
      -0.601
      -1.018
      -1.434
      -1.837
      -2.219
      -2.565
      -2.870
      -3.129
      -3.341
      -3.498
      -3.576
      -3.548
      -3.391
      -3.106
      -2.713
      -2.239
      -1.710
      -1.145
      -0.564
       0.005
       0.537
       1.019
       1.449
       1.830
       2.165
       2.453
       2.694
       2.887
       3.028
       3.103
       3.093
       2.982
       2.774
       2.491
       2.167
       1.830
       1.499
       1.190
       0.923
       0.713
       0.566
       0.481
       0.451
       0.472
       0.537
       0.637
       0.760
       0.902
       1.072
       1.288
       1.551
       1.837
       2.100
       2.298
       2.402
       2.404
       2.295
       2.060
       1.688
       1.186
       0.582
      -0.092
      -0.808
      -1.554
      -2.315
      -3.070
      -3.789
      -4.448
      -5.032
      -5.531
      -5.930
      -6.204
      -6.329
      -6.289
      -6.084
      -5.734
      -5.260
      -4.686
      -4.031
      -3.324
      -2.596
      -1.873
      -1.170
      -0.495
       0.137
       0.708
       1.202
       1.610
       1.926
       2.139
       2.240
       2.229
       2.126
       1.966
       1.780
       1.585
       1.381
       1.167
       0.951
       0.745
       0.558
       0.395
       0.258
       0.153
       0.091
       0.084
       0.137
       0.242
       0.386
       0.557
       0.751
       0.969
       1.212
       1.472
       1.737
       1.985
       2.191
       2.322
       2.353
       2.273
       2.097
       1.846
       1.539
       1.186
       0.797
       0.390
      -0.006
      -0.369
      -0.697
      -1.006
      -1.307
      -1.596
      -1.863
      -2.098
      -2.303
      -2.480
      -2.625
      -2.734
      -2.809
      -2.858
      -2.896
      -2.930
      -2.956
      -2.969
      -2.970
      -2.967
      -2.962
      -2.949
      -2.914
      -2.855
      -2.782
      -2.708
      -2.637
      -2.557
      -2.448
      -2.292
      -2.077
      -1.801
      -1.476
      -1.122
      -0.759
      -0.404
      -0.066
       0.264
       0.597
       0.946
       1.312
       1.695
       2.095
       2.512
       2.936
       3.341
       3.696
       3.983
       4.201
       4.370
       4.521
       4.675
       4.845
       5.025
       5.197
       5.330
       5.387
       5.332
       5.142
       4.812
       4.358
       3.809
       3.199
       2.562
       1.931
       1.329
       0.763
       0.220
      -0.319
      -0.861
      -1.388
      -1.862
      -2.244
      -2.509
      -2.649
      -2.663
      -2.560
      -2.353
      -2.066
      -1.731
      -1.382
      -1.039
      -0.707
      -0.385
      -0.077
       0.197
       0.412
       0.550
       0.600
       0.554
       0.406
       0.161
      -0.160
      -0.514
      -0.853
      -1.134
      -1.332
      -1.435
      -1.443
      -1.360
      -1.195
      -0.964
      -0.677
      -0.340
       0.039
       0.444
       0.844
       1.205
       1.504
       1.734
       1.898
       1.995
       2.026
       1.997
       1.918
       1.805
       1.664
       1.498
       1.306
       1.096
       0.881
       0.666
       0.443
       0.194
      -0.092
      -0.405
      -0.723
      -1.018
      -1.275
      -1.490
      -1.665
      -1.797
      -1.883
      -1.919
      -1.904
      -1.836
      -1.716
      -1.547
      -1.346
      -1.134
      -0.938
      -0.780
      -0.671
      -0.618
      -0.622
      -0.691
      -0.828
      -1.023
      -1.253
      -1.484
      -1.687
      -1.844
      -1.934
      -1.938
      -1.844
      -1.661
      -1.420
      -1.160
      -0.913
      -0.703
      -0.546
      -0.455
      -0.433
      -0.468
      -0.534
      -0.605
      -0.671
      -0.729
      -0.770
      -0.767
      -0.684
      -0.501
      -0.217
       0.151
       0.585
       1.077
       1.616
       2.183
       2.746
       3.266
       3.719
       4.100
       4.412
       4.656
       4.823
       4.899
       4.871
       4.729
       4.462
       4.055
       3.497
       2.790
       1.958
       1.038
       0.063
      -0.941
      -1.952
      -2.941
      -3.881
      -4.746
      -5.515
      -6.163
      -6.666
      -7.001
      -7.159
      -7.139
      -6.945
      -6.584
      -6.067
      -5.411
      -4.642
      -3.798
      -2.914
      -2.015
      -1.117
      -0.235
       0.613
       1.407
       2.129
       2.761
       3.278
       3.654
       3.870
       3.921
       3.816
       3.575
       3.218
       2.773
       2.278
       1.782
       1.338
       0.987
       0.750
       0.625
       0.595
       0.635
       0.725
       0.847
       0.991
       1.155
       1.333
       1.525
       1.726
       1.925
       2.110
       2.270
       2.408
       2.532
       2.646
       2.743
       2.805
       2.820
       2.785
       2.710
       2.601
       2.454
       2.259
       2.012
       1.724
       1.412
       1.080
       0.718
       0.315
      -0.126
      -0.593
      -1.075
      -1.568
      -2.075
      -2.592
      -3.107
      -3.600
      -4.055
      -4.459
      -4.795
      -5.045
      -5.195
      -5.246
      -5.211
      -5.100
      -4.908
      -4.616
      -4.211
      -3.691
      -3.066
      -2.344
      -1.536
      -0.655
       0.270
       1.189
       2.046
       2.790
       3.379
       3.787
       3.998
       4.020
       3.877
       3.609
       3.250
       2.820
       2.326
       1.774
       1.182
       0.581
       0.010
      -0.501
      -0.932
      -1.271
      -1.497
      -1.591
      -1.543
      -1.359
      -1.059
      -0.674
      -0.234
       0.236
       0.719
       1.200
       1.664
       2.090
       2.451
       2.718
       2.862
       2.853
       2.679
       2.344
       1.872
       1.291
       0.631
      -0.077
      -0.796
      -1.488
      -2.118
      -2.662
      -3.099
      -3.417
      -3.608
      -3.666
      -3.591
      -3.390
      -3.077
      -2.677
      -2.216
      -1.717
      -1.203
      -0.688
      -0.185
       0.291
       0.722
       1.092
       1.381
       1.573
       1.660
       1.647
       1.554
       1.408
       1.237
       1.072
       0.936
       0.846
       0.809
       0.817
       0.861
       0.930
       1.025
       1.150
       1.305
       1.484
       1.672
       1.863
       2.048
       2.216
       2.348
       2.421
       2.419
       2.328
       2.144
       1.861
       1.483
       1.024
       0.499
      -0.074
      -0.672
      -1.268
      -1.830
      -2.327
      -2.732
      -3.036
      -3.243
      -3.362
      -3.402
      -3.370
      -3.282
      -3.163
      -3.042
      -2.939
      -2.857
      -2.786
      -2.711
      -2.620
      -2.493
      -2.312
      -2.059
      -1.724
      -1.313
      -0.837
      -0.306
       0.270
       0.875
       1.482
       2.058
       2.576
       3.023
       3.396
       3.697
       3.917
       4.041
       4.058
       3.970
       3.791
       3.535
       3.214
       2.834
       2.407
       1.950
       1.473
       0.985
       0.495
       0.029
      -0.382
      -0.700
      -0.905
      -0.992
      -0.972
      -0.855
      -0.652
      -0.381
      -0.068
       0.249
       0.543
       0.796
       1.000
       1.139
       1.193
       1.137
       0.954
       0.633
       0.173
      -0.415
      -1.102
      -1.840
      -2.564
      -3.215
      -3.755
      -4.172
      -4.466
      -4.641
      -4.700
      -4.651
      -4.504
      -4.272
      -3.960
      -3.566
      -3.088
      -2.530
      -1.909
      -1.248
      -0.566
       0.122
       0.796
       1.430
       1.992
       2.448
       2.776
       2.969
       3.031
       2.977
       2.821
       2.578
       2.265
       1.900
       1.504
       1.095
       0.699
       0.350
       0.087
      -0.063
      -0.094
      -0.020
       0.128
       0.315
       0.510
       0.691
       0.849
       0.984
       1.097
       1.189
       1.256
       1.288
       1.280
       1.238
       1.179
       1.113
       1.038
       0.938
       0.799
       0.617
       0.405
       0.176
      -0.061
      -0.306
      -0.562
      -0.832
      -1.117
      -1.417
      -1.724
      -2.024
      -2.291
      -2.498
      -2.630
      -2.688
      -2.677
      -2.600
      -2.453
      -2.231
      -1.936
      -1.579
      -1.175
      -0.730
      -0.245
       0.274
       0.807
       1.332
       1.824
       2.262
       2.628
       2.904
       3.077
       3.145
       3.115
       2.996
       2.792
       2.498
       2.111
       1.639
       1.113
       0.575
       0.063
      -0.399
      -0.794
      -1.105
      -1.317
      -1.419
      -1.416
      -1.321
      -1.154
      -0.935
      -0.687
      -0.436
      -0.202
      -0.004
       0.152
       0.259
       0.304
       0.270
       0.144
      -0.067
      -0.339
      -0.640
      -0.944
      -1.236
      -1.512
      -1.767
      -1.989
      -2.164
      -2.279
      -2.329
      -2.318
      -2.250
      -2.131
      -1.964
      -1.750
      -1.481
      -1.150
      -0.756
      -0.307
       0.175
       0.659
       1.122
       1.549
       1.931
       2.256
       2.496
       2.626
       2.639
       2.555
       2.402
       2.209
       1.999
       1.789
       1.594
       1.426
       1.297
       1.219
       1.200
       1.244
       1.349
       1.501
       1.674
       1.843
       1.990
       2.108
       2.194
       2.236
       2.220
       2.136
       1.986
       1.775
       1.507
       1.174
       0.778
       0.328
      -0.157
      -0.661
      -1.179
      -1.712
      -2.256
      -2.792
      -3.291
      -3.723
      -4.069
      -4.316
      -4.456
      -4.484
      -4.401
      -4.218
      -3.952
      -3.620
      -3.234
      -2.796
      -2.307
      -1.776
      -1.218
      -0.654
      -0.109
       0.392
       0.825
       1.170
       1.416
