Origin Time       18/9/2011 12:40:47	
Lat.              27.6 N	
Long.             88.2 E	
Depth (Km)         10.0
Magnitude         6.8
 Region           India(Sikkim)-Nepar-Border                                       
 Above details taken from IMD 
     
Station Code      KRM
Station Lat.       24.870  N
Station Long.      92.354  E
Station Height(m)   35.0
Site Class        C   Vs30 between 200 m/sec to 375 m/sec *  
Record Time       18.09.2011 12:42:52.549
Sampling Rate     200. Hz
 Record Duration  140.155 Sec.
 Direction         E-W (E positive)
Max. Acceleration      3.584 cm/sec**2
     
  * For reference see Site Classification link of website 
     
 Base Line Corrected and Low Pass Filtered (Cut Off at 35 Hz) Time History
 Acceleration data in cm/sec**2
    
[...]
       0.513
       0.452
       0.380
       0.286
       0.164
       0.027
      -0.097
      -0.187
      -0.245
      -0.296
      -0.363
      -0.446
      -0.531
      -0.609
      -0.693
      -0.802
      -0.932
      -1.053
      -1.131
      -1.160
      -1.162
      -1.171
      -1.202
      -1.252
      -1.310
      -1.372
      -1.438
      -1.506
      -1.564
      -1.601
      -1.619
      -1.634
      -1.659
      -1.695
      -1.735
      -1.775
      -1.826
      -1.901
      -1.993
      -2.076
      -2.123
      -2.131
      -2.118
      -2.104
      -2.093
      -2.077
      -2.056
      -2.047
      -2.062
      -2.094
      -2.115
      -2.102
      -2.055
      -1.996
      -1.945
      -1.900
      -1.845
      -1.778
      -1.718
      -1.687
      -1.684
      -1.678
      -1.637
      -1.558
      -1.459
      -1.363
      -1.274
      -1.185
      -1.097
      -1.021
      -0.968
      -0.929
      -0.876
      -0.789
      -0.674
      -0.561
      -0.474
      -0.411
      -0.356
      -0.302
      -0.262
      -0.255
      -0.277
      -0.302
      -0.304
      -0.278
      -0.241
      -0.207
      -0.185
      -0.176
      -0.189
      -0.233
      -0.311
      -0.399
      -0.469
      -0.503
      -0.508
      -0.514
      -0.541
      -0.588
      -0.642
      -0.697
      -0.767
      -0.866
      -0.977
      -1.063
      -1.097
      -1.087
      -1.063
      -1.047
      -1.040
      -1.033
      -1.027
      -1.034
      -1.060
      -1.092
      -1.100
      -1.064
      -0.993
      -0.920
      -0.872
      -0.849
      -0.825
      -0.786
      -0.741
      -0.713
      -0.710
      -0.717
      -0.713
      -0.689
      -0.652
      -0.607
      -0.558
      -0.516
      -0.502
      -0.534
      -0.603
      -0.678
      -0.724
      -0.732
      -0.725
      -0.732
      -0.760
      -0.787
      -0.794
      -0.790
      -0.807
      -0.863
      -0.940
      -0.996
      -1.003
      -0.965
      -0.905
      -0.838
      -0.770
      -0.705
      -0.658
      -0.641
      -0.644
      -0.638
      -0.585
      -0.478
      -0.338
      -0.206
      -0.097
       0.000
       0.102
       0.202
       0.275
       0.303
       0.307
       0.329
       0.403
       0.524
       0.663
       0.788
       0.883
       0.948
       0.985
       0.993
       0.976
       0.952
       0.949
       0.982
       1.042
       1.102
       1.139
       1.153
       1.153
       1.147
       1.129
       1.098
       1.066
       1.055
       1.072
       1.103
       1.126
       1.135
       1.142
       1.157
       1.175
       1.176
       1.147
       1.097
       1.053
       1.036
       1.046
       1.066
       1.082
       1.092
       1.097
       1.088
       1.053
       0.997
       0.943
       0.916
       0.921
       0.937
       0.945
       0.940
       0.928
       0.914
       0.886
       0.830
       0.747
       0.659
       0.593
       0.554
       0.525
       0.477
       0.401
       0.308
       0.212
       0.116
       0.008
      -0.118
      -0.253
      -0.372
      -0.460
      -0.519
      -0.562
      -0.597
      -0.632
      -0.673
      -0.730
      -0.807
      -0.895
      -0.967
      -1.000
      -0.990
      -0.957
      -0.926
      -0.904
      -0.877
      -0.831
      -0.773
      -0.723
      -0.690
      -0.661
      -0.607
      -0.518
      -0.403
      -0.277
      -0.144
       0.003
       0.159
       0.300
       0.399
       0.457
       0.508
       0.598
       0.738
       0.899
       1.041
       1.142
       1.217
       1.284
       1.343
       1.378
       1.382
       1.375
       1.384
       1.422
       1.474
       1.519
       1.547
       1.562
       1.570
       1.565
       1.537
       1.486
       1.430
       1.390
       1.378
       1.385
       1.395
       1.399
       1.403
       1.406
       1.392
       1.341
       1.254
       1.168
       1.128
       1.152
       1.215
       1.275
       1.308
       1.315
       1.315
       1.317
       1.324
       1.331
       1.346
       1.375
       1.414
       1.447
       1.463
       1.475
       1.506
       1.565
       1.625
       1.647
       1.606
       1.522
       1.434
       1.376
       1.358
       1.375
       1.416
       1.461
       1.480
       1.449
       1.362
       1.249
       1.156
       1.120
       1.145
       1.203
       1.256
       1.286
       1.290
       1.275
       1.240
       1.179
       1.101
       1.033
       1.000
       1.007
       1.032
       1.052
       1.063
       1.066
       1.062
       1.033
       0.969
       0.886
       0.823
       0.814
       0.857
       0.917
       0.963
       0.985
       0.990
       0.982
       0.954
       0.899
       0.829
       0.772
       0.751
       0.762
       0.785
       0.800
       0.803
       0.798
       0.783
       0.741
       0.662
       0.553
       0.447
       0.375
       0.351
       0.354
       0.345
       0.295
       0.205
       0.092
      -0.029
      -0.152
      -0.269
      -0.364
      -0.423
      -0.457
      -0.492
      -0.539
      -0.594
      -0.643
      -0.686
      -0.737
      -0.801
      -0.866
      -0.906
      -0.904
      -0.872
      -0.838
      -0.823
      -0.814
      -0.784
      -0.719
      -0.637
      -0.568
      -0.526
      -0.500
      -0.469
      -0.422
      -0.362
      -0.290
      -0.204
      -0.106
      -0.011
       0.054
       0.070
       0.041
       0.002
      -0.011
       0.013
       0.060
       0.109
       0.151
       0.186
       0.210
       0.204
       0.153
       0.075
       0.008
      -0.014
       0.004
       0.029
       0.034
       0.019
      -0.005
      -0.035
      -0.086
      -0.164
      -0.254
      -0.330
      -0.377
      -0.400
      -0.421
      -0.449
      -0.475
      -0.491
      -0.507
      -0.550
      -0.638
      -0.751
      -0.846
      -0.893
      -0.898
      -0.891
      -0.899
      -0.924
      -0.955
      -0.992
      -1.044
      -1.115
      -1.190
      -1.243
      -1.259
      -1.251
      -1.249
      -1.272
      -1.313
      -1.349
      -1.372
      -1.396
      -1.444
      -1.516
      -1.585
      -1.625
      -1.633
      -1.629
      -1.630
      -1.634
      -1.640
      -1.653
      -1.684
      -1.740
      -1.808
      -1.864
      -1.890
      -1.890
      -1.882
      -1.885
      -1.897
      -1.905
      -1.903
      -1.903
      -1.922
      -1.958
      -1.985
      -1.977
      -1.932
      -1.870
      -1.810
      -1.755
      -1.704
      -1.660
      -1.632
      -1.625
      -1.628
      -1.619
      -1.586
      -1.534
      -1.482
      -1.440
      -1.406
      -1.374
      -1.348
      -1.347
      -1.383
      -1.447
      -1.505
      -1.533
      -1.532
      -1.521
      -1.517
      -1.516
      -1.514
      -1.523
      -1.559
      -1.630
      -1.717
      -1.787
      -1.819
      -1.820
      -1.818
      -1.834
      -1.861
      -1.885
      -1.904
      -1.937
      -2.002
      -2.088
      -2.165
      -2.210
      -2.228
      -2.239
      -2.256
      -2.277
      -2.298
      -2.323
      -2.366
      -2.432
      -2.504
      -2.555
      -2.566
      -2.543
      -2.512
      -2.493
      -2.481
      -2.464
      -2.445
      -2.437
      -2.452
      -2.476
      -2.478
      -2.435
      -2.353
      -2.254
      -2.157
      -2.069
      -1.990
      -1.926
      -1.883
      -1.856
      -1.820
      -1.749
      -1.642
      -1.522
      -1.422
      -1.355
      -1.303
      -1.241
      -1.165
      -1.094
      -1.051
      -1.032
      -1.010
      -0.957
      -0.874
      -0.775
      -0.675
      -0.579
      -0.494
      -0.428
      -0.393
      -0.386
      -0.383
      -0.353
      -0.286
      -0.200
      -0.122
      -0.064
      -0.016
       0.036
       0.088
       0.125
       0.138
       0.140
       0.156
       0.203
       0.277
       0.363
       0.454
       0.549
       0.645
       0.735
       0.806
       0.858
       0.909
       0.980
       1.081
       1.202
       1.328
       1.453
       1.581
       1.714
       1.839
       1.933
       1.987
       2.023
       2.077
       2.173
       2.300
       2.435
       2.563
       2.684
       2.797
       2.888
       2.943
       2.964
       2.979
       3.021
       3.101
       3.195
       3.273
       3.318
       3.343
       3.365
       3.385
       3.384
       3.352
       3.303
       3.264
       3.248
       3.244
       3.232
       3.206
       3.176
       3.144
       3.099
       3.021
       2.908
       2.785
       2.684
       2.619
       2.584
       2.552
       2.506
       2.446
       2.376
       2.291
       2.181
       2.046
       1.914
       1.816
       1.765
       1.746
       1.734
       1.716
       1.692
       1.664
       1.623
       1.564
       1.493
       1.430
       1.399
       1.404
       1.432
       1.457
       1.470
       1.475
       1.480
       1.476
       1.449
       1.394
       1.335
       1.302
       1.305
       1.327
       1.341
       1.338
       1.324
       1.311
       1.297
       1.274
       1.244
       1.219
       1.214
       1.227
       1.243
       1.251
       1.259
       1.280
       1.319
       1.352
       1.352
       1.312
       1.260
       1.238
       1.260
       1.307
       1.351
       1.375
       1.380
       1.370
       1.344
       1.297
       1.237
       1.177
       1.128
       1.089
       1.046
       0.990
       0.927
       0.873
       0.831
       0.783
       0.703
       0.585
       0.449
       0.328
       0.239
       0.180
       0.143
       0.116
       0.085
       0.030
      -0.066
      -0.204
      -0.360
      -0.494
      -0.584
      -0.635
      -0.674
      -0.725
      -0.786
      -0.845
      -0.903
      -0.980
      -1.099
      -1.254
      -1.407
      -1.519
      -1.581
      -1.620
      -1.665
      -1.725
      -1.794
      -1.868
      -1.949
      -2.044
      -2.150
      -2.254
      -2.343
      -2.416
      -2.479
      -2.534
      -2.578
      -2.607
      -2.634
      -2.688
      -2.785
      -2.900
      -2.986
      -3.010
      -2.979
      -2.927
      -2.880
      -2.841
      -2.806
      -2.781
      -2.783
      -2.819
      -2.864
      -2.876
      -2.826
      -2.729
      -2.631
      -2.574
      -2.564
      -2.579
      -2.598
      -2.621
      -2.651
      -2.682
      -2.691
      -2.664
      -2.614
      -2.568
      -2.541
      -2.527
      -2.516
      -2.505
      -2.507
      -2.525
      -2.540
      -2.527
      -2.477
      -2.413
      -2.373
      -2.374
      -2.393
      -2.399
      -2.382
      -2.371
      -2.399
      -2.467
      -2.538
      -2.574
      -2.566
      -2.533
      -2.496
      -2.464
      -2.441
      -2.437
      -2.463
      -2.520
      -2.579
      -2.601
      -2.563
      -2.480
      -2.394
      -2.339
      -2.321
      -2.326
      -2.338
      -2.352
      -2.366
      -2.366
      -2.336
      -2.275
      -2.208
      -2.161
      -2.140
      -2.131
      -2.113
      -2.084
      -2.060
      -2.055
      -2.072
      -2.096
      -2.113
      -2.115
      -2.106
      -2.089
      -2.071
      -2.061
      -2.073
      -2.120
      -2.201
      -2.290
      -2.357
      -2.393
      -2.414
      -2.440
      -2.474
      -2.507
      -2.537
      -2.576
      -2.642
      -2.738
      -2.843
      -2.926
      -2.969
      -2.984
      -2.993
      -3.012
      -3.034
      -3.047
      -3.055
      -3.080
      -3.134
      -3.205
      -3.263
      -3.286
      -3.277
      -3.254
      -3.227
      -3.199
      -3.170
      -3.154
      -3.162
      -3.189
      -3.209
      -3.193
      -3.136
      -3.063
      -3.004
      -2.967
      -2.934
      -2.883
      -2.818
      -2.771
      -2.765
      -2.789
      -2.803
      -2.772
      -2.698
      -2.609
      -2.536
      -2.488
      -2.458
      -2.438
      -2.423
      -2.414
      -2.410
      -2.401
      -2.379
      -2.343
      -2.296
      -2.245
      -2.191
      -2.140
      -2.104
      -2.098
      -2.113
      -2.121
      -2.091
      -2.017
      -1.922
      -1.834
      -1.763
      -1.701
      -1.639
      -1.583
      -1.545
      -1.522
      -1.495
      -1.439
      -1.357
      -1.272
      -1.210
      -1.173
      -1.139
      -1.092
      -1.039
      -1.007
      -1.008
      -1.023
      -1.019
      -0.981
      -0.920
      -0.855
      -0.794
      -0.736
      -0.684
      -0.655
      -0.657
      -0.680
      -0.692
      -0.664
      -0.595
      -0.514
      -0.454
      -0.418
      -0.385
      -0.339
      -0.290
      -0.265
      -0.274
      -0.294
      -0.293
      -0.253
      -0.186
      -0.110
      -0.035
       0.038
       0.110
       0.170
       0.208
       0.231
       0.264
       0.333
       0.440
       0.564
       0.686
       0.803
       0.926
       1.062
       1.196
       1.307
       1.389
       1.463
       1.561
       1.696
       1.854
       2.013
       2.165
       2.310
       2.443
       2.551
       2.621
       2.665
       2.712
       2.789
       2.899
       3.019
       3.124
       3.205
       3.274
       3.343
       3.405
       3.442
       3.446
       3.437
       3.442
       3.470
       3.508
       3.538
       3.558
       3.573
       3.584
       3.578
       3.542
       3.482
       3.424
       3.396
       3.401
       3.417
       3.415
       3.386
       3.345
       3.310
       3.276
       3.225
       3.147
       3.060
       2.991
       2.954
       2.938
       2.927
       2.915
       2.903
       2.886
       2.848
       2.777
       2.684
       2.596
       2.541
       2.522
       2.519
       2.511
       2.493
       2.478
       2.470
       2.455
       2.412
       2.341
       2.273
       2.236
       2.234
       2.251
       2.270
       2.283
       2.287
       2.271
       2.222
       2.136
       2.032
       1.942
       1.890
       1.874
       1.874
       1.872
       1.867
       1.863
       1.854
       1.819
       1.742
       1.636
       1.543
       1.508
       1.542
       1.618
       1.699
       1.759
       1.796
       1.814
       1.819
       1.811
       1.802
       1.807
       1.836
       1.888
       1.950
       2.010
       2.065
       2.116
       2.155
       2.166
       2.137
       2.082
       2.039
       2.040
       2.082
       2.139
       2.188
       2.224
       2.252
       2.271
       2.271
       2.248
       2.219
       2.208
       2.231
       2.278
       2.325
       2.358
       2.387
       2.429
       2.482
       2.519
       2.513
       2.466
       2.411
       2.385
       2.405
       2.463
       2.540
       2.621
       2.689
       2.727
       2.724
       2.683
       2.629
       2.595
       2.598
       2.634
       2.684
       2.736
       2.794
       2.859
       2.915
       2.930
       2.886
       2.804
       2.736
       2.723
       2.764
       2.825
       2.874
       2.901
       2.912
       2.908
       2.882
       2.831
       2.764
       2.706
       2.674
       2.666
       2.660
       2.639
       2.604
       2.562
       2.508
       2.425
       2.306
       2.177
       2.072
       2.009
       1.973
       1.935
       1.876
       1.796
       1.702
       1.594
       1.468
       1.327
       1.188
       1.070
       0.973
       0.877
       0.766
       0.640
       0.516
       0.407
       0.295
       0.147
      -0.050
      -0.269
      -0.458
      -0.582
      -0.651
      -0.698
      -0.753
      -0.829
      -0.928
      -1.047
      -1.180
      -1.316
      -1.438
      -1.532
      -1.598
      -1.645
      -1.687
      -1.730
      -1.771
      -1.810
      -1.859
      -1.934
      -2.031
      -2.123
      -2.179
      -2.198
      -2.206
      -2.224
      -2.246
      -2.247
      -2.219
      -2.179
      -2.166
      -2.193
      -2.241
      -2.275
      -2.274
      -2.244
      -2.204
      -2.165
      -2.128
      -2.096
      -2.085
      -2.103
      -2.141
      -2.163
      -2.143
      -2.089
      -2.034
      -2.002
      -1.980
      -1.935
      -1.852
      -1.748
      -1.663
      -1.617
      -1.598
      -1.573
      -1.518
      -1.432
      -1.336
      -1.248
      -1.170
      -1.098
      -1.034
      -0.992
      -0.973
      -0.959
      -0.932
      -0.889
      -0.841
      -0.801
      -0.760
      -0.706
      -0.634
      -0.563
      -0.517
      -0.503
      -0.502
      -0.482
      -0.427
      -0.352
      -0.289
      -0.253
      -0.234
      -0.209
      -0.164
      -0.102
      -0.034
       0.034
       0.095
       0.140
       0.161
       0.165
       0.179
       0.225
       0.299
       0.369
       0.397
       0.378
       0.340
       0.321
       0.342
       0.390
       0.444
       0.490
       0.531
       0.571
       0.594
       0.576
       0.509
       0.416
       0.339
       0.301
       0.303
       0.332
       0.374
       0.413
       0.428
       0.397
       0.314
       0.202
       0.105
       0.056
       0.053
       0.063
       0.060
       0.045
       0.045
       0.077
       0.119
       0.131
       0.088
       0.008
      -0.060
      -0.079
      -0.045
       0.022
       0.096
       0.157
       0.191
       0.188
       0.153
       0.109
       0.087
       0.108
       0.164
       0.225
       0.266
       0.284
       0.300
       0.327
       0.358
       0.373
       0.366
       0.359
       0.380
       0.434
       0.502
       0.561
       0.606
       0.643
       0.679
       0.710
       0.729
       0.738
       0.756
       0.798
       0.861
       0.928
       0.978
       1.011
       1.039
       1.070
       1.095
       1.100
       1.090
       1.085
       1.104
       1.144
       1.187
       1.221
       1.254
       1.298
       1.347
       1.378
       1.372
       1.333
       1.291
       1.274
       1.288
       1.319
       1.349
       1.371
       1.391
       1.406
       1.398
       1.351
       1.271
       1.196
       1.162
       1.175
       1.214
       1.251
       1.276
       1.292
       1.302
       1.297
       1.268
       1.217
       1.166
       1.140
       1.144
       1.165
       1.182
       1.190
       1.197
       1.207
       1.204
       1.171
       1.110
       1.051
       1.020
       1.021
       1.037
       1.049
       1.052
       1.054
       1.053
       1.037
       0.990
       0.919
       0.853
       0.822
       0.826
       0.842
       0.841
       0.814
       0.777
       0.743
       0.708
       0.653
       0.578
       0.501
       0.450
       0.428
       0.419
       0.408
       0.396
       0.387
       0.380
       0.357
       0.309
       0.246
       0.198
       0.193
       0.231
       0.287
       0.333
       0.358
       0.374
       0.394
       0.414
       0.424
       0.425
       0.437
       0.477
       0.544
       0.623
       0.703
       0.782
       0.861
       0.928
       0.967
       0.972
       0.966
       0.983
