Origin Time       11/8/2009 21:43:39 
Lat.              24.4 N 
Long.             94.8 E 
Depth (Km)         22.0
Magnitude         5.6
 Region           MYANMAR-INDIA(MANIPUR)BORDER                                     
 Above details taken from IMD 
   
Station Code      KAR
Station Lat.       24.870
Station Long.      92.354
Station Height(m)   34.6
Site Class        C   Vs30 between 200 m/sec to 375 m/sec *  
Record Time       12.08.2009 03:13:34.004
Sampling Rate     200. Hz
 Record Duration   66.665 Sec.
 Direction         Vert. (Up positive)
Max. Acceleration      2.153 cm/sec**2
     
  * For reference see Site Classification link of website 
     
 Base Line Corrected and Low Pass Filtered (Cut Off at 35 Hz) Time History
 Acceleration data in cm/sec**2
    
[...]
      -0.422
      -0.680
      -0.901
      -1.043
      -1.091
      -1.057
      -0.975
      -0.869
      -0.740
      -0.585
      -0.415
      -0.262
      -0.156
      -0.109
      -0.102
      -0.112
      -0.127
      -0.142
      -0.152
      -0.135
      -0.076
       0.015
       0.105
       0.162
       0.189
       0.215
       0.274
       0.373
       0.490
       0.587
       0.632
       0.605
       0.505
       0.339
       0.137
      -0.058
      -0.201
      -0.273
      -0.291
      -0.294
      -0.306
      -0.320
      -0.308
      -0.249
      -0.137
       0.018
       0.206
       0.409
       0.600
       0.743
       0.806
       0.774
       0.654
       0.472
       0.254
       0.024
      -0.192
      -0.361
      -0.460
      -0.490
      -0.488
      -0.506
      -0.582
      -0.714
      -0.864
      -0.988
      -1.057
      -1.067
      -1.031
      -0.967
      -0.889
      -0.797
      -0.682
      -0.529
      -0.334
      -0.114
       0.097
       0.261
       0.366
       0.431
       0.494
       0.586
       0.704
       0.818
       0.893
       0.918
       0.903
       0.864
       0.807
       0.735
       0.665
       0.625
       0.638
       0.697
       0.769
       0.806
       0.782
       0.701
       0.583
       0.450
       0.315
       0.182
       0.057
      -0.054
      -0.157
      -0.262
      -0.374
      -0.478
      -0.546
      -0.554
      -0.496
      -0.388
      -0.260
      -0.143
      -0.060
      -0.017
      -0.008
      -0.023
      -0.045
      -0.063
      -0.071
      -0.072
      -0.088
      -0.141
      -0.242
      -0.380
      -0.523
      -0.642
      -0.717
      -0.744
      -0.729
      -0.686
      -0.636
      -0.595
      -0.562
      -0.522
      -0.457
      -0.357
      -0.226
      -0.072
       0.093
       0.262
       0.424
       0.564
       0.673
       0.754
       0.824
       0.889
       0.933
       0.918
       0.820
       0.657
       0.489
       0.375
       0.341
       0.381
       0.466
       0.559
       0.625
       0.625
       0.535
       0.360
       0.141
      -0.062
      -0.209
      -0.299
      -0.355
      -0.398
      -0.429
      -0.442
      -0.447
      -0.468
      -0.527
      -0.613
      -0.692
      -0.732
      -0.728
      -0.695
      -0.646
      -0.578
      -0.476
      -0.337
      -0.185
      -0.055
       0.027
       0.048
       0.016
      -0.057
      -0.150
      -0.242
      -0.311
      -0.344
      -0.352
      -0.366
      -0.412
      -0.489
      -0.564
      -0.595
      -0.558
      -0.454
      -0.305
      -0.142
      -0.003
       0.083
       0.104
       0.075
       0.033
       0.020
       0.061
       0.157
       0.292
       0.446
       0.598
       0.721
       0.781
       0.751
       0.630
       0.464
       0.322
       0.265
       0.304
       0.407
       0.523
       0.613
       0.658
       0.657
       0.613
       0.531
       0.421
       0.291
       0.142
      -0.031
      -0.225
      -0.420
      -0.578
      -0.674
      -0.705
      -0.700
      -0.684
      -0.662
      -0.611
      -0.509
      -0.361
      -0.196
      -0.049
       0.062
       0.140
       0.196
       0.238
       0.267
       0.277
       0.264
       0.228
       0.176
       0.116
       0.059
       0.019
       0.008
       0.031
       0.077
       0.124
       0.154
       0.162
       0.155
       0.139
       0.117
       0.082
       0.027
      -0.060
      -0.180
      -0.323
      -0.461
      -0.555
      -0.568
      -0.479
      -0.292
      -0.039
       0.237
       0.491
       0.688
       0.805
       0.828
       0.761
       0.630
       0.479
       0.351
       0.267
       0.218
       0.182
       0.144
       0.101
       0.056
       0.002
      -0.070
      -0.151
      -0.210
      -0.213
      -0.149
      -0.045
       0.055
       0.123
       0.165
       0.193
       0.196
       0.140
      -0.002
      -0.213
      -0.436
      -0.609
      -0.704
      -0.728
      -0.707
      -0.669
      -0.635
      -0.619
      -0.629
      -0.649
      -0.644
      -0.575
      -0.436
      -0.263
      -0.114
      -0.027
       0.004
       0.017
       0.040
       0.078
       0.122
       0.168
       0.222
       0.284
       0.345
       0.384
       0.386
       0.346
       0.264
       0.142
      -0.007
      -0.150
      -0.238
      -0.236
      -0.147
      -0.013
       0.108
       0.178
       0.198
       0.196
       0.195
       0.204
       0.216
       0.226
       0.232
       0.227
       0.199
       0.137
       0.044
      -0.063
      -0.157
      -0.219
      -0.236
      -0.206
      -0.130
      -0.019
       0.108
       0.229
       0.325
       0.395
       0.446
       0.481
       0.483
       0.422
       0.278
       0.067
      -0.166
      -0.373
      -0.533
      -0.651
      -0.745
      -0.826
      -0.888
      -0.911
      -0.869
      -0.749
      -0.559
      -0.325
      -0.081
       0.140
       0.324
       0.481
       0.636
       0.807
       0.980
       1.112
       1.152
       1.078
       0.905
       0.676
       0.444
       0.252
       0.126
       0.069
       0.060
       0.066
       0.054
       0.010
      -0.059
      -0.131
      -0.187
      -0.220
      -0.239
      -0.252
      -0.264
      -0.271
      -0.273
      -0.278
      -0.298
      -0.345
      -0.418
      -0.511
      -0.602
      -0.660
      -0.651
      -0.555
      -0.387
      -0.193
      -0.031
       0.057
       0.063
       0.013
      -0.062
      -0.135
      -0.190
      -0.212
      -0.184
      -0.102
       0.012
       0.111
       0.152
       0.128
       0.067
       0.015
      -0.001
       0.017
       0.045
       0.055
       0.033
      -0.018
      -0.077
      -0.112
      -0.090
       0.009
       0.181
       0.398
       0.616
       0.796
       0.926
       1.017
       1.085
       1.132
       1.145
       1.109
       1.018
       0.889
       0.745
       0.609
       0.483
       0.348
       0.175
      -0.057
      -0.341
      -0.635
      -0.885
      -1.044
      -1.091
      -1.032
      -0.892
      -0.703
      -0.490
      -0.281
      -0.101
       0.024
       0.090
       0.119
       0.149
       0.201
       0.269
       0.321
       0.325
       0.271
       0.174
       0.056
      -0.059
      -0.152
      -0.212
      -0.236
      -0.240
      -0.256
      -0.320
      -0.436
      -0.570
      -0.672
      -0.713
      -0.704
      -0.680
      -0.671
      -0.681
      -0.693
      -0.689
      -0.654
      -0.580
      -0.461
      -0.304
      -0.130
       0.038
       0.188
       0.332
       0.490
       0.662
       0.824
       0.935
       0.976
       0.967
       0.955
       0.985
       1.071
       1.195
       1.328
       1.446
       1.527
       1.547
       1.473
       1.282
       0.976
       0.582
       0.143
      -0.297
      -0.699
      -1.036
      -1.285
      -1.440
      -1.513
      -1.532
      -1.522
      -1.484
      -1.402
      -1.269
      -1.100
      -0.936
      -0.806
      -0.713
      -0.628
      -0.520
      -0.367
      -0.170
       0.054
       0.274
       0.461
       0.588
       0.645
       0.637
       0.578
       0.488
       0.379
       0.260
       0.148
       0.064
       0.020
       0.004
      -0.020
      -0.086
      -0.199
      -0.335
      -0.458
      -0.547
      -0.602
      -0.630
      -0.625
      -0.581
      -0.500
      -0.397
      -0.294
      -0.210
      -0.153
      -0.124
      -0.128
      -0.167
      -0.238
      -0.317
      -0.367
      -0.352
      -0.260
      -0.104
       0.085
       0.277
       0.454
       0.615
       0.766
       0.912
       1.042
       1.133
       1.159
       1.107
       0.978
       0.787
       0.555
       0.300
       0.039
      -0.224
      -0.490
      -0.764
      -1.044
      -1.324
      -1.589
      -1.812
      -1.953
      -1.969
      -1.834
      -1.558
      -1.189
      -0.787
      -0.397
      -0.043
       0.272
       0.547
       0.784
       0.986
       1.154
       1.279
       1.337
       1.297
       1.140
       0.887
       0.600
       0.346
       0.164
       0.051
      -0.010
      -0.026
       0.014
       0.121
       0.288
       0.494
       0.713
       0.924
       1.109
       1.250
       1.335
       1.354
       1.309
       1.203
       1.034
       0.791
       0.473
       0.113
      -0.224
      -0.476
      -0.623
      -0.696
      -0.741
      -0.778
      -0.803
      -0.813
      -0.832
      -0.894
      -1.006
      -1.133
      -1.224
      -1.240
      -1.179
      -1.063
      -0.922
      -0.775
      -0.636
      -0.513
      -0.407
      -0.311
      -0.219
      -0.141
      -0.098
      -0.104
      -0.148
      -0.190
      -0.185
      -0.110
       0.022
       0.182
       0.344
       0.495
       0.636
       0.771
       0.907
       1.050
       1.198
       1.340
       1.447
       1.491
       1.449
       1.327
       1.147
       0.937
       0.718
       0.499
       0.296
       0.123
      -0.008
      -0.096
      -0.146
      -0.157
      -0.117
      -0.015
       0.142
       0.320
       0.469
       0.546
       0.528
       0.420
       0.244
       0.038
      -0.146
      -0.266
      -0.308
      -0.296
      -0.282
      -0.305
      -0.375
      -0.478
      -0.593
      -0.698
      -0.780
      -0.833
      -0.858
      -0.869
      -0.887
      -0.922
      -0.964
      -0.988
      -0.970
      -0.900
      -0.789
      -0.652
      -0.498
      -0.327
      -0.148
       0.015
       0.131
       0.180
       0.168
       0.113
       0.035
      -0.053
      -0.133
      -0.180
      -0.175
      -0.121
      -0.053
      -0.017
      -0.049
      -0.155
      -0.315
      -0.491
      -0.640
      -0.718
      -0.695
      -0.568
      -0.360
      -0.116
       0.129
       0.370
       0.614
       0.861
       1.077
       1.219
       1.262
       1.223
       1.143
       1.058
       0.974
       0.870
       0.728
       0.553
       0.368
       0.191
       0.018
      -0.163
      -0.354
      -0.542
      -0.706
      -0.835
      -0.919
      -0.940
      -0.869
      -0.679
      -0.364
       0.058
       0.544
       1.033
       1.453
       1.736
       1.833
       1.734
       1.479
       1.142
       0.796
       0.476
       0.174
      -0.144
      -0.492
      -0.851
      -1.174
      -1.422
      -1.587
      -1.674
      -1.693
      -1.656
      -1.584
      -1.504
      -1.434
      -1.378
      -1.331
      -1.294
      -1.273
      -1.269
      -1.259
      -1.206
      -1.081
      -0.886
      -0.651
      -0.420
      -0.219
      -0.052
       0.088
       0.202
       0.286
       0.341
       0.375
       0.395
       0.403
       0.400
       0.402
       0.429
       0.496
       0.600
       0.730
       0.876
       1.038
       1.219
       1.411
       1.587
       1.715
       1.773
       1.761
       1.699
       1.612
       1.512
       1.396
       1.251
       1.074
       0.871
       0.659
       0.457
       0.279
       0.128
      -0.001
      -0.125
      -0.259
      -0.409
      -0.562
      -0.692
      -0.782
      -0.832
      -0.856
      -0.872
      -0.885
      -0.887
      -0.870
      -0.842
      -0.815
      -0.800
      -0.792
      -0.786
      -0.786
      -0.797
      -0.812
      -0.813
      -0.783
      -0.720
      -0.642
      -0.575
      -0.533
      -0.515
      -0.505
      -0.493
      -0.478
      -0.465
      -0.442
      -0.385
      -0.278
      -0.130
       0.021
       0.149
       0.261
       0.393
       0.572
       0.788
       1.000
       1.163
       1.256
       1.280
       1.248
       1.172
       1.069
       0.964
       0.886
       0.846
       0.828
       0.801
       0.744
       0.658
       0.556
       0.446
       0.331
       0.221
       0.139
       0.109
       0.123
       0.143
       0.126
       0.051
      -0.072
      -0.225
      -0.390
      -0.558
      -0.714
      -0.838
      -0.917
      -0.949
      -0.942
      -0.905
      -0.841
      -0.756
      -0.662
      -0.575
      -0.495
      -0.398
      -0.251
      -0.050
       0.166
       0.344
       0.452
       0.495
       0.497
       0.470
       0.406
       0.293
       0.142
      -0.016
      -0.143
      -0.221
      -0.253
      -0.256
      -0.247
      -0.232
      -0.210
      -0.183
      -0.155
      -0.133
      -0.114
      -0.090
      -0.048
       0.024
       0.139
       0.305
       0.512
       0.729
       0.910
       1.012
       1.016
       0.936
       0.800
       0.634
       0.454
       0.270
       0.105
      -0.012
      -0.065
      -0.069
      -0.065
      -0.085
      -0.122
      -0.138
      -0.103
      -0.018
       0.093
       0.210
       0.335
       0.475
       0.625
       0.754
       0.823
       0.813
       0.721
       0.555
       0.324
       0.044
      -0.249
      -0.508
      -0.708
      -0.861
      -1.002
      -1.155
      -1.316
      -1.461
      -1.575
      -1.655
      -1.694
      -1.678
      -1.596
      -1.465
      -1.321
      -1.192
      -1.068
      -0.897
      -0.635
      -0.283
       0.109
       0.480
       0.806
       1.102
       1.386
       1.646
       1.853
       1.990
       2.072
       2.126
       2.153
       2.121
       2.003
       1.800
       1.544
       1.263
       0.965
       0.640
       0.294
      -0.032
      -0.282
      -0.424
      -0.474
      -0.486
      -0.506
      -0.548
      -0.604
      -0.666
      -0.736
      -0.813
      -0.869
      -0.871
      -0.802
      -0.676
      -0.518
      -0.342
      -0.149
       0.059
       0.263
       0.428
       0.529
       0.562
       0.546
       0.500
       0.420
       0.296
       0.126
      -0.065
      -0.245
      -0.394
      -0.513
      -0.607
      -0.668
      -0.668
      -0.586
      -0.430
      -0.242
      -0.075
       0.027
       0.042
      -0.028
      -0.162
      -0.320
      -0.443
      -0.482
      -0.423
      -0.300
      -0.172
      -0.084
      -0.047
      -0.046
      -0.058
      -0.078
      -0.101
      -0.121
      -0.122
      -0.094
      -0.038
       0.035
       0.108
       0.157
       0.155
       0.088
      -0.040
      -0.204
      -0.373
      -0.528
      -0.672
      -0.820
      -0.977
      -1.116
      -1.179
      -1.115
      -0.913
      -0.610
      -0.273
       0.043
       0.311
       0.535
       0.734
       0.931
       1.131
       1.306
       1.407
       1.392
       1.258
       1.052
       0.847
       0.698
       0.611
       0.551
       0.475
       0.363
       0.226
       0.094
      -0.014
      -0.095
      -0.156
      -0.194
      -0.188
      -0.124
      -0.014
       0.107
       0.197
       0.242
       0.248
       0.238
       0.228
       0.232
       0.257
       0.306
       0.369
       0.423
       0.447
       0.442
       0.435
       0.446
       0.463
       0.441
       0.335
       0.136
      -0.126
      -0.416
      -0.712
      -1.000
      -1.261
      -1.466
      -1.598
      -1.665
      -1.695
      -1.706
      -1.691
      -1.633
      -1.531
      -1.413
      -1.312
      -1.230
      -1.133
      -0.973
      -0.735
      -0.441
      -0.132
       0.157
       0.418
       0.653
       0.866
       1.047
       1.181
       1.253
       1.258
       1.201
       1.101
       0.986
       0.889
       0.832
       0.807
       0.778
       0.710
       0.593
       0.458
       0.348
       0.288
       0.270
       0.268
       0.261
       0.245
       0.219
       0.185
       0.144
       0.104
       0.072
       0.047
       0.020
      -0.016
      -0.054
      -0.070
      -0.041
       0.029
       0.105
       0.139
       0.115
       0.056
       0.000
      -0.033
      -0.055
      -0.086
      -0.132
      -0.184
      -0.233
      -0.284
      -0.344
      -0.410
      -0.473
      -0.519
      -0.543
      -0.541
      -0.498
      -0.396
      -0.225
      -0.001
       0.240
       0.457
       0.630
       0.762
       0.870
       0.964
       1.044
       1.108
       1.156
       1.194
       1.219
       1.224
       1.199
       1.148
       1.072
       0.965
       0.805
       0.577
       0.287
      -0.037
      -0.363
      -0.672
      -0.967
      -1.245
      -1.478
      -1.624
      -1.652
      -1.573
      -1.445
      -1.332
      -1.267
      -1.236
      -1.201
      -1.130
      -1.011
      -0.853
      -0.675
      -0.502
      -0.355
      -0.245
      -0.161
      -0.078
       0.023
       0.148
       0.283
       0.406
       0.508
       0.590
       0.654
       0.687
       0.673
       0.604
       0.501
       0.398
       0.328
       0.296
       0.283
       0.268
       0.236
       0.190
       0.131
       0.060
      -0.020
      -0.085
      -0.102
      -0.046
       0.075
       0.225
       0.359
       0.459
       0.528
       0.571
       0.584
       0.560
       0.516
       0.490
       0.514
       0.579
       0.642
       0.664
       0.638
       0.582
       0.508
       0.414
       0.296
       0.171
       0.076
       0.040
       0.061
       0.113
       0.170
       0.224
       0.273
       0.307
       0.298
       0.227
       0.096
      -0.066
      -0.231
      -0.392
      -0.557
      -0.732
      -0.901
      -1.038
      -1.127
      -1.176
      -1.203
      -1.217
      -1.207
      -1.159
      -1.075
      -0.978
      -0.882
      -0.785
      -0.677
      -0.557
      -0.436
      -0.320
      -0.199
      -0.056
       0.112
       0.281
       0.418
       0.506
       0.551
       0.570
       0.567
       0.536
       0.472
       0.388
       0.314
       0.275
       0.271
       0.280
       0.280
       0.275
       0.286
       0.327
       0.390
       0.447
       0.479
       0.482
       0.458
       0.405
       0.322
       0.218
       0.110
       0.005
      -0.103
      -0.222
      -0.344
      -0.442
      -0.480
      -0.437
      -0.324
      -0.179
      -0.045
       0.058
       0.138
       0.211
       0.293
       0.383
       0.473
       0.545
       0.576
       0.540
       0.425
       0.246
       0.036
      -0.166
      -0.335
      -0.474
      -0.595
      -0.702
      -0.779
      -0.805
      -0.768
      -0.675
      -0.540
      -0.371
      -0.171
       0.050
       0.271
       0.464
       0.613
       0.722
       0.808
       0.888
       0.965
       1.033
       1.080
       1.092
       1.050
       0.946
       0.785
       0.594
       0.399
       0.217
       0.044
      -0.140
      -0.352
      -0.583
      -0.804
      -0.983
      -1.108
      -1.184
      -1.218
      -1.217
      -1.190
      -1.159
      -1.143
      -1.144
      -1.137
      -1.087
      -0.986
      -0.864
      -0.769
      -0.727
      -0.718
      -0.706
      -0.670
      -0.613
      -0.545
      -0.462
      -0.348
      -0.202
      -0.051
       0.075
       0.164
       0.230
       0.295
       0.360
       0.408
       0.426
