Origin Time       24/2/2010 19:20:52	
Lat.              28.6 N	
Long.             76.9 E	
Depth (Km)         17.0
Magnitude         2.5
 Region           Rohtak                                                           
 Above details taken from IMD 
   
Station Code      DJB
Station Lat.       28.652
Station Long.      77.188
Station Height(m)  235.0
Site Class        A   Vs30 between 700 m/sec to 1400 m/sec * 
Record Time       24.02.2010 19:20:14.619
Sampling Rate     200. Hz
 Record Duration   80.000 Sec.
 Direction         Vert. (Up positive)
Max. Acceleration     -0.743 cm/sec**2
     
  * For reference see Site Classification link of website 
     
 Base Line Corrected and Low Pass Filtered (Cut Off at 35 Hz) Time History
 Acceleration data in cm/sec**2
    
[...]
      -0.004
       0.001
       0.001
      -0.002
      -0.004
      -0.003
       0.000
       0.003
       0.004
       0.001
      -0.004
      -0.009
      -0.009
      -0.005
      -0.001
       0.002
       0.000
      -0.003
      -0.006
      -0.006
      -0.003
       0.002
       0.006
       0.007
       0.006
       0.003
      -0.001
      -0.004
      -0.007
      -0.007
      -0.006
      -0.004
      -0.003
      -0.004
      -0.007
      -0.009
      -0.008
      -0.004
       0.001
       0.005
       0.002
      -0.005
      -0.012
      -0.015
      -0.012
      -0.007
      -0.006
      -0.009
      -0.014
      -0.015
      -0.011
      -0.004
      -0.001
      -0.001
      -0.004
      -0.006
      -0.008
      -0.009
      -0.011
      -0.013
      -0.012
      -0.008
      -0.003
       0.003
       0.005
       0.004
      -0.001
      -0.007
      -0.010
      -0.010
      -0.008
      -0.004
      -0.002
      -0.001
      -0.001
      -0.001
      -0.001
       0.000
       0.002
       0.003
       0.003
       0.001
      -0.003
      -0.005
      -0.005
      -0.005
      -0.005
      -0.006
      -0.003
       0.002
       0.006
       0.007
       0.004
      -0.001
      -0.004
      -0.004
      -0.001
       0.003
       0.007
       0.009
       0.010
       0.009
       0.009
       0.007
       0.003
       0.000
      -0.002
       0.001
       0.006
       0.009
       0.009
       0.005
       0.001
       0.000
       0.002
       0.004
       0.001
      -0.006
      -0.012
      -0.014
      -0.011
      -0.005
      -0.002
       0.000
       0.000
       0.001
       0.002
       0.003
       0.003
       0.004
       0.006
       0.008
       0.008
       0.005
       0.000
      -0.006
      -0.010
      -0.009
      -0.004
       0.003
       0.006
       0.001
      -0.007
      -0.013
      -0.012
      -0.005
       0.004
       0.007
       0.006
       0.000
      -0.007
      -0.013
      -0.019
      -0.021
      -0.016
      -0.006
       0.004
       0.010
       0.010
       0.005
       0.001
      -0.002
      -0.002
      -0.002
      -0.001
      -0.001
      -0.003
      -0.007
      -0.008
      -0.007
      -0.004
       0.000
       0.003
       0.002
      -0.001
      -0.005
      -0.007
      -0.006
      -0.002
       0.002
       0.006
       0.009
       0.010
       0.008
       0.004
       0.001
       0.001
       0.006
       0.012
       0.014
       0.012
       0.006
       0.000
      -0.004
      -0.004
       0.001
       0.006
       0.009
       0.006
       0.001
      -0.003
      -0.002
       0.002
       0.005
       0.005
       0.004
       0.003
       0.002
       0.001
       0.000
      -0.001
      -0.001
       0.000
       0.002
       0.005
       0.008
       0.011
       0.013
       0.012
       0.009
       0.006
       0.004
       0.006
       0.010
       0.015
       0.015
       0.010
       0.003
      -0.002
       0.000
       0.006
       0.011
       0.011
       0.006
       0.001
       0.000
       0.002
       0.004
       0.005
       0.005
       0.005
       0.006
       0.004
       0.001
      -0.003
      -0.005
      -0.004
       0.001
       0.006
       0.009
       0.007
       0.001
      -0.004
      -0.005
      -0.001
       0.008
       0.015
       0.017
       0.013
       0.008
       0.003
       0.000
      -0.001
       0.000
       0.001
       0.002
       0.002
       0.001
       0.002
       0.003
       0.005
       0.008
       0.010
       0.011
       0.008
       0.003
      -0.002
      -0.004
       0.000
       0.006
       0.013
       0.017
       0.018
       0.017
       0.017
       0.016
       0.014
       0.011
       0.008
       0.006
       0.008
       0.011
       0.013
       0.013
       0.012
       0.011
       0.009
       0.004
      -0.002
      -0.004
       0.001
       0.009
       0.016
       0.018
       0.015
       0.011
       0.012
       0.015
       0.018
       0.017
       0.012
       0.006
       0.002
       0.001
       0.002
       0.003
       0.001
      -0.004
      -0.009
      -0.010
      -0.007
       0.000
       0.007
       0.013
       0.014
       0.012
       0.007
       0.002
       0.000
      -0.001
      -0.001
      -0.001
       0.000
       0.003
       0.008
       0.011
       0.012
       0.009
       0.005
       0.002
       0.002
       0.002
       0.003
       0.001
      -0.002
      -0.005
      -0.005
      -0.003
      -0.002
      -0.002
      -0.002
       0.001
       0.004
       0.005
       0.001
      -0.006
      -0.009
      -0.006
       0.002
       0.009
       0.008
       0.000
      -0.013
      -0.021
      -0.019
      -0.009
       0.002
       0.008
       0.006
       0.000
      -0.005
      -0.006
      -0.002
       0.005
       0.011
       0.012
       0.006
      -0.002
      -0.007
      -0.006
      -0.001
       0.003
       0.005
       0.005
       0.005
       0.006
       0.006
       0.003
       0.000
      -0.001
       0.000
       0.001
      -0.001
      -0.006
      -0.013
      -0.017
      -0.017
      -0.013
      -0.005
       0.003
       0.006
       0.004
      -0.002
      -0.007
      -0.008
      -0.005
       0.000
       0.003
       0.005
       0.005
       0.004
       0.004
       0.004
       0.004
       0.004
       0.005
       0.006
       0.007
       0.005
       0.002
      -0.001
       0.000
       0.003
       0.006
       0.006
       0.003
      -0.001
      -0.007
      -0.013
      -0.017
      -0.018
      -0.013
      -0.004
       0.005
       0.010
       0.009
       0.008
       0.015
       0.034
       0.060
       0.085
       0.100
       0.103
       0.089
       0.054
      -0.008
      -0.088
      -0.162
      -0.198
      -0.180
      -0.130
      -0.099
      -0.126
      -0.203
      -0.274
      -0.272
      -0.169
       0.003
       0.179
       0.300
       0.346
       0.325
       0.256
       0.162
       0.065
      -0.010
      -0.055
      -0.078
      -0.089
      -0.085
      -0.060
      -0.024
      -0.003
      -0.013
      -0.042
      -0.072
      -0.099
      -0.120
      -0.115
      -0.056
       0.056
       0.178
       0.241
       0.201
       0.066
      -0.110
      -0.254
      -0.313
      -0.275
      -0.175
      -0.066
       0.013
       0.067
       0.119
       0.182
       0.226
       0.209
       0.115
      -0.018
      -0.121
      -0.136
      -0.056
       0.066
       0.148
       0.132
       0.028
      -0.103
      -0.196
      -0.211
      -0.144
      -0.022
       0.096
       0.144
       0.093
      -0.016
      -0.107
      -0.127
      -0.085
      -0.028
       0.004
       0.003
      -0.009
      -0.010
       0.010
       0.040
       0.060
       0.055
       0.030
       0.008
       0.015
       0.044
       0.052
       0.004
      -0.080
      -0.126
      -0.089
      -0.009
       0.034
       0.001
      -0.059
      -0.068
      -0.006
       0.073
       0.103
       0.070
       0.021
       0.007
       0.024
       0.019
      -0.038
      -0.120
      -0.165
      -0.133
      -0.044
       0.051
       0.106
       0.109
       0.086
       0.073
       0.079
       0.071
       0.015
      -0.076
      -0.140
      -0.122
      -0.029
       0.067
       0.086
       0.007
      -0.108
      -0.168
      -0.131
      -0.040
       0.028
       0.046
       0.052
       0.084
       0.132
       0.143
       0.085
      -0.013
      -0.085
      -0.088
      -0.042
      -0.001
       0.000
      -0.028
      -0.055
      -0.062
      -0.048
      -0.018
       0.015
       0.026
       0.001
      -0.041
      -0.051
      -0.001
       0.082
       0.135
       0.115
       0.038
      -0.038
      -0.068
      -0.049
      -0.017
      -0.004
      -0.013
      -0.027
      -0.032
      -0.027
      -0.011
       0.013
       0.031
       0.027
       0.003
      -0.017
      -0.016
      -0.006
      -0.012
      -0.036
      -0.051
      -0.027
       0.034
       0.103
       0.145
       0.129
       0.053
      -0.045
      -0.111
      -0.119
      -0.091
      -0.067
      -0.056
      -0.034
       0.017
       0.077
       0.109
       0.091
       0.038
      -0.019
      -0.054
      -0.048
       0.002
       0.068
       0.090
       0.026
      -0.096
      -0.180
      -0.149
      -0.027
       0.080
       0.095
       0.043
       0.012
       0.042
       0.090
       0.092
       0.039
      -0.014
      -0.020
       0.010
       0.021
      -0.018
      -0.087
      -0.134
      -0.129
      -0.079
      -0.016
       0.028
       0.047
       0.058
       0.080
       0.109
       0.111
       0.058
      -0.034
      -0.111
      -0.132
      -0.106
      -0.065
      -0.026
       0.022
       0.079
       0.114
       0.099
       0.044
      -0.011
      -0.042
      -0.059
      -0.072
      -0.071
      -0.043
      -0.004
       0.014
       0.002
      -0.006
       0.018
       0.057
       0.065
       0.023
      -0.035
      -0.055
      -0.026
       0.009
       0.012
      -0.014
      -0.032
      -0.029
      -0.019
      -0.012
       0.013
       0.067
       0.114
       0.090
      -0.012
      -0.110
      -0.109
      -0.006
       0.097
       0.098
      -0.006
      -0.122
      -0.155
      -0.097
      -0.014
       0.027
       0.012
      -0.023
      -0.033
       0.001
       0.065
       0.122
       0.132
       0.078
      -0.020
      -0.107
      -0.132
      -0.087
      -0.018
       0.026
       0.035
       0.042
       0.072
       0.103
       0.091
       0.018
      -0.072
      -0.115
      -0.082
      -0.006
       0.060
       0.085
       0.062
       0.012
      -0.033
      -0.043
      -0.011
       0.033
       0.055
       0.043
       0.010
      -0.028
      -0.063
      -0.093
      -0.109
      -0.102
      -0.068
      -0.017
       0.038
       0.081
       0.102
       0.098
       0.083
       0.084
       0.105
       0.116
       0.075
      -0.020
      -0.114
      -0.147
      -0.110
      -0.057
      -0.036
      -0.045
      -0.043
      -0.007
       0.039
       0.054
       0.032
       0.016
       0.036
       0.071
       0.067
       0.016
      -0.029
      -0.021
       0.019
       0.018
      -0.062
      -0.169
      -0.210
      -0.142
      -0.012
       0.099
       0.152
       0.160
       0.140
       0.092
       0.024
      -0.025
      -0.023
       0.011
       0.028
       0.001
      -0.047
      -0.078
      -0.071
      -0.035
      -0.002
      -0.004
      -0.052
      -0.114
      -0.136
      -0.084
       0.017
       0.103
       0.131
       0.109
       0.088
       0.100
       0.121
       0.100
       0.014
      -0.095
      -0.163
      -0.168
      -0.134
      -0.090
      -0.038
       0.034
       0.115
       0.168
       0.160
       0.097
       0.015
      -0.054
      -0.091
      -0.082
      -0.016
       0.076
       0.117
       0.049
      -0.088
      -0.173
      -0.125
       0.016
       0.126
       0.116
      -0.001
      -0.135
      -0.187
      -0.120
       0.023
       0.148
       0.179
       0.118
       0.033
      -0.007
       0.013
       0.049
       0.053
       0.017
      -0.027
      -0.044
      -0.028
       0.000
       0.018
       0.023
       0.019
       0.011
      -0.004
      -0.029
      -0.062
      -0.085
      -0.078
      -0.033
       0.025
       0.054
       0.030
      -0.031
      -0.085
      -0.090
      -0.033
       0.072
       0.179
       0.216
       0.136
      -0.037
      -0.194
      -0.228
      -0.124
       0.034
       0.135
       0.132
       0.058
      -0.017
      -0.049
      -0.042
      -0.032
      -0.050
      -0.090
      -0.110
      -0.069
       0.033
       0.150
       0.215
       0.193
       0.107
       0.019
      -0.020
      -0.014
      -0.004
      -0.022
      -0.065
      -0.104
      -0.119
      -0.099
      -0.053
       0.006
       0.052
       0.059
       0.026
      -0.019
      -0.028
       0.021
       0.095
       0.134
       0.106
       0.033
      -0.039
      -0.082
      -0.102
      -0.103
      -0.074
      -0.004
       0.085
       0.149
       0.172
       0.174
       0.171
       0.152
       0.092
      -0.013
      -0.131
      -0.214
      -0.235
      -0.201
      -0.140
      -0.070
       0.014
       0.111
       0.186
       0.191
       0.106
      -0.034
      -0.145
      -0.150
      -0.044
       0.091
       0.149
       0.101
       0.011
      -0.040
      -0.046
      -0.050
      -0.066
      -0.059
      -0.018
       0.011
      -0.019
      -0.080
      -0.085
       0.012
       0.159
       0.249
       0.227
       0.123
       0.006
      -0.074
      -0.107
      -0.099
      -0.060
      -0.008
       0.030
       0.043
       0.040
       0.036
       0.035
       0.031
       0.014
      -0.032
      -0.112
      -0.206
      -0.252
      -0.185
      -0.011
       0.174
       0.249
       0.155
      -0.066
      -0.306
      -0.450
      -0.440
      -0.289
      -0.064
       0.149
       0.273
       0.278
       0.217
       0.201
       0.304
       0.475
       0.573
       0.491
       0.265
       0.040
      -0.057
      -0.016
       0.074
       0.110
       0.044
      -0.117
      -0.345
      -0.588
      -0.743
      -0.693
      -0.410
      -0.018
       0.280
       0.359
       0.268
       0.164
       0.161
       0.247
       0.323
       0.309
       0.206
       0.064
      -0.071
      -0.178
      -0.244
      -0.273
      -0.297
      -0.354
      -0.422
      -0.430
      -0.325
      -0.128
       0.094
       0.291
       0.440
       0.517
       0.479
       0.299
       0.031
      -0.192
      -0.237
      -0.079
       0.154
       0.278
       0.213
       0.034
      -0.117
      -0.167
      -0.140
      -0.075
       0.010
       0.095
       0.131
       0.084
      -0.011
      -0.076
      -0.066
      -0.005
       0.047
       0.051
       0.021
      -0.013
      -0.039
      -0.076
      -0.138
      -0.198
      -0.211
      -0.162
      -0.078
       0.017
       0.133
       0.279
       0.407
       0.426
       0.286
       0.047
      -0.161
      -0.241
      -0.198
      -0.103
      -0.026
      -0.006
      -0.041
      -0.093
      -0.107
      -0.043
       0.077
       0.174
       0.168
       0.042
      -0.135
      -0.255
      -0.244
      -0.110
       0.074
       0.221
       0.287
       0.268
       0.183
       0.061
      -0.048
      -0.085
      -0.032
       0.060
       0.095
       0.007
      -0.169
      -0.299
      -0.265
      -0.069
       0.160
       0.278
       0.241
       0.103
      -0.046
      -0.138
      -0.135
      -0.049
       0.051
       0.069
      -0.035
      -0.192
      -0.271
      -0.191
       0.005
       0.184
       0.228
       0.131
      -0.013
      -0.099
      -0.093
      -0.033
       0.024
       0.046
       0.041
       0.039
       0.071
       0.145
       0.219
       0.204
       0.034
      -0.238
      -0.435
      -0.394
      -0.123
       0.194
       0.357
       0.309
       0.143
      -0.017
      -0.107
      -0.127
      -0.098
      -0.050
      -0.016
      -0.010
      -0.007
       0.031
       0.094
       0.126
       0.088
       0.009
      -0.059
      -0.107
      -0.151
      -0.175
      -0.124
       0.018
       0.172
       0.223
       0.129
      -0.046
      -0.194
      -0.232
      -0.140
       0.033
       0.188
       0.236
       0.169
       0.056
      -0.023
      -0.046
      -0.051
      -0.072
      -0.091
      -0.055
       0.055
       0.174
       0.193
       0.074
      -0.091
      -0.163
      -0.093
       0.030
       0.087
       0.055
       0.001
      -0.007
       0.033
       0.080
       0.110
       0.123
       0.128
       0.115
       0.066
      -0.011
      -0.079
      -0.107
      -0.099
      -0.082
      -0.064
      -0.036
       0.004
       0.038
       0.042
       0.011
      -0.043
      -0.089
      -0.092
      -0.040
       0.033
       0.072
       0.054
       0.012
       0.002
       0.052
       0.142
       0.210
       0.192
       0.073
      -0.093
      -0.214
      -0.235
      -0.170
      -0.065
       0.057
       0.183
       0.257
       0.197
      -0.017
      -0.268
      -0.372
      -0.242
       0.022
       0.225
       0.249
       0.140
       0.037
       0.025
       0.071
       0.079
      -0.006
      -0.134
      -0.193
      -0.114
       0.058
       0.200
       0.217
       0.128
       0.020
      -0.034
      -0.028
       0.001
       0.019
       0.017
      -0.002
      -0.028
      -0.050
      -0.046
      -0.008
       0.029
       0.016
      -0.049
      -0.102
      -0.075
       0.022
       0.118
       0.157
       0.150
       0.123
       0.073
      -0.019
      -0.132
      -0.199
      -0.171
      -0.068
       0.038
       0.089
       0.090
       0.094
       0.121
       0.131
       0.075
      -0.034
      -0.118
      -0.122
      -0.066
      -0.005
       0.041
       0.083
       0.111
       0.087
      -0.009
      -0.130
      -0.193
      -0.138
       0.016
       0.175
       0.224
       0.119
      -0.070
      -0.207
      -0.202
      -0.085
       0.035
       0.083
       0.078
       0.086
       0.126
       0.153
       0.112
       0.016
      -0.065
      -0.073
      -0.029
       0.000
      -0.028
      -0.084
      -0.107
      -0.068
       0.013
       0.092
       0.132
       0.116
       0.056
      -0.010
      -0.042
      -0.026
       0.022
       0.068
       0.076
       0.032
      -0.041
      -0.111
      -0.166
      -0.198
      -0.165
      -0.027
       0.158
       0.246
       0.156
      -0.025
      -0.111
      -0.011
       0.189
       0.313
       0.253
       0.043
      -0.177
      -0.272
      -0.202
      -0.042
       0.087
       0.111
       0.041
      -0.059
      -0.132
      -0.150
      -0.108
      -0.013
       0.107
       0.190
       0.174
       0.059
      -0.074
      -0.122
      -0.057
       0.049
       0.100
       0.060
      -0.034
      -0.111
      -0.116
      -0.044
       0.052
       0.105
       0.094
       0.058
       0.035
       0.012
      -0.036
      -0.094
      -0.117
      -0.083
      -0.011
       0.072
       0.136
       0.145
       0.080
      -0.023
      -0.087
      -0.072
      -0.024
      -0.024
      -0.074
      -0.091
      -0.012
       0.112
       0.172
       0.133
       0.062
       0.030
       0.026
      -0.005
      -0.079
      -0.160
      -0.196
      -0.156
      -0.034
       0.135
       0.273
       0.297
       0.179
      -0.027
      -0.211
      -0.269
      -0.178
      -0.018
       0.103
       0.133
       0.095
       0.035
      -0.027
      -0.080
      -0.105
      -0.094
      -0.059
      -0.025
      -0.004
       0.011
       0.030
       0.049
       0.060
       0.058
       0.041
       0.021
       0.008
      -0.006
      -0.030
      -0.039
       0.011
       0.109
