Origin Time       12/3/2012 22:07:20	 UTC
Lat.              28.9 N	
Long.             77.3 E	
Depth (Km)          5.0
Magnitude         3.5
 Region           Baghpat-U.P.                                                     
 Above details taken from IMD 
    
Station Code      GGI
Station Lat.       28.665  N
Station Long.      77.232  E
Station Height(m)  207.0
Site Class        C   Vs30 between 200 m/sec to 375 m/sec *  
Record Time       12.03.2012 22:07:05.054 UTC
Sampling Rate     200. Hz
 Record Duration   80.555 Sec.
 Direction         N-S (N positive)
Max. Acceleration     10.950 cm/sec**2
     
  * For reference see Site Classification link of website 
     
 Base Line Corrected and Low Pass Filtered (Cut Off at 35 Hz) Time History
 Acceleration data in cm/sec**2
    
[...]
       0.368
       0.587
       0.669
       0.540
       0.199
      -0.228
      -0.527
      -0.519
      -0.190
       0.268
       0.566
       0.503
       0.097
      -0.423
      -0.761
      -0.732
      -0.355
       0.171
       0.589
       0.722
       0.554
       0.216
      -0.112
      -0.297
      -0.304
      -0.180
      -0.010
       0.119
       0.135
      -0.010
      -0.301
      -0.632
      -0.821
      -0.710
      -0.279
       0.310
       0.796
       0.980
       0.829
       0.467
       0.085
      -0.156
      -0.174
       0.009
       0.275
       0.442
       0.361
       0.008
      -0.475
      -0.852
      -0.926
      -0.660
      -0.195
       0.229
       0.412
       0.291
      -0.032
      -0.352
      -0.465
      -0.282
       0.115
       0.517
       0.721
       0.646
       0.374
       0.072
      -0.127
      -0.191
      -0.165
      -0.102
      -0.028
       0.045
       0.081
       0.029
      -0.126
      -0.329
      -0.478
      -0.486
      -0.338
      -0.084
       0.193
       0.409
       0.491
       0.397
       0.151
      -0.134
      -0.293
      -0.213
       0.079
       0.404
       0.551
       0.412
       0.058
      -0.315
      -0.525
      -0.504
      -0.312
      -0.067
       0.128
       0.219
       0.190
       0.056
      -0.136
      -0.314
      -0.393
      -0.316
      -0.074
       0.284
       0.656
       0.911
       0.937
       0.693
       0.248
      -0.248
      -0.620
      -0.749
      -0.615
      -0.310
      -0.004
       0.135
       0.028
      -0.250
      -0.499
      -0.515
      -0.234
       0.206
       0.541
       0.559
       0.252
      -0.170
      -0.427
      -0.372
      -0.077
       0.244
       0.408
       0.369
       0.190
      -0.048
      -0.294
      -0.478
      -0.485
      -0.207
       0.333
       0.915
       1.216
       1.008
       0.340
      -0.468
      -1.017
      -1.074
      -0.702
      -0.182
       0.191
       0.291
       0.187
       0.036
      -0.044
      -0.033
       0.032
       0.112
       0.181
       0.206
       0.146
      -0.011
      -0.211
      -0.353
      -0.358
      -0.226
      -0.038
       0.108
       0.152
       0.104
       0.034
       0.019
       0.097
       0.238
       0.351
       0.339
       0.167
      -0.089
      -0.263
      -0.197
       0.126
       0.528
       0.727
       0.535
       0.000
      -0.623
      -1.038
      -1.075
      -0.753
      -0.216
       0.357
       0.794
       0.936
       0.688
       0.102
      -0.583
      -1.040
      -1.039
      -0.576
       0.143
       0.827
       1.236
       1.239
       0.839
       0.166
      -0.538
      -1.003
      -1.064
      -0.762
      -0.323
       0.005
       0.113
       0.064
      -0.006
      -0.023
       0.006
       0.048
       0.119
       0.263
       0.486
       0.716
       0.824
       0.712
       0.374
      -0.090
      -0.523
      -0.775
      -0.757
      -0.492
      -0.113
       0.200
       0.325
       0.266
       0.117
      -0.035
      -0.185
      -0.374
      -0.580
      -0.665
      -0.456
       0.086
       0.750
       1.154
       1.005
       0.347
      -0.423
      -0.816
      -0.593
       0.065
       0.690
       0.859
       0.461
      -0.261
      -0.904
      -1.148
      -0.916
      -0.369
       0.204
       0.531
       0.481
       0.130
      -0.271
      -0.425
      -0.173
       0.384
       0.923
       1.089
       0.724
      -0.009
      -0.720
      -1.031
      -0.818
      -0.264
       0.300
       0.619
       0.632
       0.428
       0.126
      -0.186
      -0.437
      -0.549
      -0.460
      -0.184
       0.164
       0.425
       0.503
       0.415
       0.245
       0.058
      -0.138
      -0.339
      -0.484
      -0.469
      -0.255
       0.051
       0.246
       0.193
      -0.040
      -0.219
      -0.138
       0.186
       0.508
       0.545
       0.206
      -0.334
      -0.768
      -0.877
      -0.646
      -0.216
       0.247
       0.624
       0.844
       0.851
       0.627
       0.232
      -0.194
      -0.496
      -0.585
      -0.455
      -0.149
       0.250
       0.610
       0.737
       0.468
      -0.170
      -0.879
      -1.221
      -0.908
      -0.056
       0.842
       1.227
       0.846
      -0.067
      -0.951
      -1.275
      -0.861
       0.035
       0.895
       1.250
       0.928
       0.124
      -0.714
      -1.122
      -0.861
      -0.061
       0.828
       1.293
       1.059
       0.265
      -0.655
      -1.251
      -1.298
      -0.851
      -0.142
       0.547
       0.961
       0.939
       0.484
      -0.197
      -0.764
      -0.923
      -0.610
      -0.042
       0.446
       0.645
       0.605
       0.525
       0.517
       0.475
       0.191
      -0.378
      -0.981
      -1.212
      -0.824
       0.048
       0.953
       1.420
       1.250
       0.600
      -0.176
      -0.757
      -0.994
      -0.894
      -0.554
      -0.106
       0.304
       0.541
       0.529
       0.293
      -0.050
      -0.344
      -0.487
      -0.471
      -0.352
      -0.180
       0.032
       0.267
       0.455
       0.501
       0.379
       0.192
       0.100
       0.174
       0.304
       0.275
      -0.047
      -0.571
      -1.015
      -1.088
      -0.693
       0.004
       0.676
       1.020
       0.907
       0.424
      -0.192
      -0.648
      -0.721
      -0.364
       0.243
       0.767
       0.906
       0.572
      -0.059
      -0.653
      -0.908
      -0.716
      -0.202
       0.364
       0.723
       0.760
       0.515
       0.111
      -0.322
      -0.655
      -0.747
      -0.485
       0.100
       0.763
       1.126
       0.916
       0.189
      -0.656
      -1.120
      -0.954
      -0.332
       0.284
       0.487
       0.203
      -0.300
      -0.628
      -0.530
      -0.035
       0.592
       1.001
       0.937
       0.392
      -0.350
      -0.836
      -0.728
      -0.081
       0.641
       0.880
       0.412
      -0.455
      -1.101
      -1.058
      -0.358
       0.514
       0.991
       0.819
       0.184
      -0.482
      -0.800
      -0.634
      -0.098
       0.525
       0.906
       0.797
       0.187
      -0.626
      -1.154
      -1.014
      -0.219
       0.760
       1.276
       0.936
      -0.102
      -1.198
      -1.628
      -1.038
       0.318
       1.710
       2.337
       1.792
       0.301
      -1.389
      -2.436
      -2.363
      -1.274
       0.265
       1.555
       2.095
       1.747
       0.734
      -0.490
      -1.425
      -1.708
      -1.258
      -0.302
       0.723
       1.370
       1.386
       0.823
       0.007
      -0.630
      -0.782
      -0.440
       0.091
       0.400
       0.256
      -0.228
      -0.694
      -0.801
      -0.465
       0.104
       0.554
       0.619
       0.274
      -0.261
      -0.655
      -0.659
      -0.240
       0.382
       0.857
       0.897
       0.459
      -0.221
      -0.773
      -0.920
      -0.619
      -0.038
       0.560
       0.928
       0.910
       0.517
      -0.039
      -0.424
      -0.391
       0.024
       0.487
       0.591
       0.168
      -0.567
      -1.166
      -1.263
      -0.821
      -0.115
       0.503
       0.830
       0.867
       0.707
       0.422
       0.058
      -0.292
      -0.475
      -0.385
      -0.091
       0.166
       0.129
      -0.267
      -0.807
      -1.119
      -0.915
      -0.192
       0.750
       1.460
       1.577
       1.007
      -0.028
      -1.065
      -1.591
      -1.284
      -0.219
       1.119
       2.051
       2.076
       1.143
      -0.324
      -1.655
      -2.268
      -1.944
      -0.903
       0.321
       1.155
       1.266
       0.714
      -0.104
      -0.688
      -0.717
      -0.215
       0.486
       0.958
       0.925
       0.411
      -0.295
      -0.817
      -0.903
      -0.534
       0.107
       0.764
       1.207
       1.283
       0.920
       0.171
      -0.747
      -1.479
      -1.682
      -1.216
      -0.263
       0.731
       1.282
       1.121
       0.352
      -0.614
      -1.290
      -1.360
      -0.813
       0.077
       0.885
       1.231
       0.970
       0.301
      -0.338
      -0.541
      -0.211
       0.386
       0.833
       0.855
       0.487
      -0.032
      -0.486
      -0.828
      -1.120
      -1.372
      -1.446
      -1.135
      -0.333
       0.826
       1.955
       2.530
       2.128
       0.707
      -1.215
      -2.681
      -2.760
      -1.156
       1.460
       3.703
       4.252
       2.658
      -0.353
      -3.292
      -4.737
      -4.072
      -1.731
       1.085
       3.027
       3.245
       1.770
      -0.533
      -2.426
      -2.935
      -1.838
       0.261
       2.289
       3.273
       2.802
       1.152
      -0.901
      -2.455
      -2.859
      -1.975
      -0.256
       1.443
       2.289
       1.938
       0.742
      -0.512
      -1.158
      -1.069
      -0.617
      -0.247
      -0.096
       0.012
       0.265
       0.606
       0.792
       0.671
       0.329
      -0.024
      -0.287
      -0.526
      -0.802
      -0.992
      -0.858
      -0.298
       0.481
       1.069
       1.178
       0.847
       0.376
       0.051
      -0.075
      -0.156
      -0.355
      -0.662
      -0.893
      -0.825
      -0.384
       0.270
       0.787
       0.833
       0.329
      -0.417
      -0.869
      -0.651
       0.124
       0.887
       1.043
       0.450
      -0.439
      -0.914
      -0.545
       0.480
       1.482
       1.745
       0.988
      -0.454
      -1.821
      -2.370
      -1.794
      -0.394
       1.080
       1.851
       1.537
       0.351
      -1.040
      -1.893
      -1.776
      -0.771
       0.598
       1.629
       1.796
       1.002
      -0.351
      -1.549
      -1.928
      -1.246
       0.149
       1.501
       2.072
       1.582
       0.360
      -0.897
      -1.563
      -1.418
      -0.664
       0.300
       1.116
       1.545
       1.440
       0.766
      -0.321
      -1.440
      -2.112
      -2.005
      -1.122
       0.192
       1.426
       2.132
       2.083
       1.340
       0.220
      -0.784
      -1.191
      -0.769
       0.284
       1.409
       1.992
       1.719
       0.723
      -0.548
      -1.614
      -2.166
      -2.103
      -1.472
      -0.457
       0.594
       1.215
       1.028
       0.026
      -1.296
      -2.152
      -1.929
      -0.601
       1.204
       2.544
       2.684
       1.494
      -0.488
      -2.332
      -3.176
      -2.633
      -0.954
       1.133
       2.779
       3.398
       2.854
       1.449
      -0.248
      -1.612
      -2.167
      -1.758
      -0.637
       0.616
       1.357
       1.204
       0.231
      -1.079
      -2.089
      -2.307
      -1.567
      -0.071
       1.687
       3.063
       3.480
       2.685
       0.946
      -0.998
      -2.292
      -2.442
      -1.580
      -0.331
       0.616
       0.912
       0.652
       0.181
      -0.205
      -0.426
      -0.580
      -0.791
      -1.097
      -1.409
      -1.537
      -1.247
      -0.382
       0.967
       2.374
       3.227
       3.089
       2.004
       0.488
      -0.807
      -1.475
      -1.497
      -1.090
      -0.482
       0.157
       0.615
       0.589
      -0.164
      -1.524
      -2.865
      -3.298
      -2.227
       0.135
       2.710
       4.090
       3.401
       0.955
      -1.798
      -3.095
      -1.982
       1.002
       4.083
       5.319
       3.797
       0.188
      -3.667
      -5.829
      -5.327
      -2.592
       0.883
       3.390
       3.846
       2.241
      -0.447
      -2.799
      -3.674
      -2.770
      -0.721
       1.331
       2.407
       2.197
       1.099
      -0.151
      -0.950
      -1.072
      -0.600
       0.287
       1.450
       2.745
       3.873
       4.312
       3.477
       1.097
      -2.387
      -5.756
      -7.503
      -6.687
      -3.592
       0.322
       3.241
       4.039
       2.826
       0.702
      -1.022
      -1.534
      -0.744
       0.929
       2.853
       4.338
       4.728
       3.630
       1.225
      -1.639
      -3.801
      -4.415
      -3.424
      -1.568
       0.042
       0.494
      -0.479
      -2.352
      -4.027
      -4.366
      -2.831
       0.132
       3.256
       5.148
       5.116
       3.565
       1.646
       0.405
       0.075
       0.081
      -0.277
      -1.104
      -1.805
      -1.683
      -0.685
       0.425
       0.648
      -0.384
      -1.978
      -2.809
      -1.905
       0.545
       3.203
       4.433
       3.365
       0.465
      -2.768
      -4.658
      -4.219
      -1.562
       2.195
       5.392
       6.485
       4.750
       0.744
      -3.792
      -6.707
      -6.550
      -3.382
       1.212
       4.983
       6.224
       4.628
       1.324
      -1.865
      -3.449
      -3.010
      -1.289
       0.363
       0.807
      -0.220
      -1.992
      -3.246
      -2.935
      -0.846
       2.247
       4.948
       5.914
       4.489
       1.052
      -3.074
      -6.128
      -6.663
      -4.258
       0.159
       4.630
       7.070
       6.313
       2.687
      -2.209
      -6.314
      -7.980
      -6.516
      -2.373
       2.930
       7.185
       8.293
       5.355
      -0.546
      -6.554
      -9.404
      -7.274
      -0.978
       6.348
      10.950
      10.537
       5.441
      -1.730
      -7.634
      -9.882
      -8.008
      -3.380
       1.656
       4.907
       5.261
       3.098
      -0.021
      -2.245
      -2.482
      -0.977
       0.954
       1.891
       1.301
      -0.131
      -1.090
      -0.673
       0.910
       2.488
       2.798
       1.379
      -1.130
      -3.386
      -4.110
      -2.793
      -0.017
       2.774
       4.014
       2.947
       0.160
      -2.689
      -3.861
      -2.611
       0.359
       3.363
       4.774
       3.926
       1.341
      -1.740
      -4.080
      -4.952
      -4.263
      -2.420
      -0.114
       1.902
       3.039
       3.067
       2.197
       0.977
      -0.011
      -0.471
      -0.521
      -0.492
      -0.585
      -0.694
      -0.584
      -0.228
       0.086
       0.013
      -0.480
      -1.010
      -1.096
      -0.609
       0.048
       0.237
      -0.357
      -1.381
      -1.984
      -1.407
       0.425
       2.774
       4.492
       4.692
       3.246
       0.812
      -1.551
      -2.932
      -2.942
      -1.803
      -0.180
       1.120
       1.471
       0.705
      -0.775
      -2.126
      -2.471
      -1.451
       0.403
       1.842
       1.682
      -0.214
      -2.555
      -3.332
      -1.293
       2.898
       6.804
       7.743
       4.677
      -0.930
      -5.973
      -7.696
      -5.406
      -0.754
       3.487
       5.150
       3.767
       0.491
      -2.805
      -4.554
      -4.115
      -1.867
       1.068
       3.315
       3.812
       2.312
      -0.418
      -2.931
      -3.864
      -2.731
      -0.202
       2.305
       3.455
       2.713
       0.589
      -1.690
      -2.839
      -2.200
      -0.100
       2.307
       3.665
       3.183
       1.094
      -1.474
      -3.162
      -3.176
      -1.720
       0.193
       1.406
       1.316
       0.177
      -1.124
      -1.624
      -0.831
       1.021
       3.077
       4.292
       3.953
       2.057
      -0.659
      -3.060
      -4.159
      -3.591
      -1.791
       0.250
       1.517
       1.507
       0.459
      -0.860
      -1.655
      -1.536
      -0.649
       0.496
       1.332
       1.514
       1.090
       0.494
       0.280
       0.688
       1.352
       1.483
       0.492
      -1.413
      -3.197
      -3.654
      -2.279
       0.309
       2.734
       3.708
       2.761
       0.402
      -2.256
      -4.067
      -4.300
      -2.866
      -0.347
       2.196
       3.648
       3.399
       1.707
      -0.385
      -1.640
      -1.382
       0.097
       1.752
       2.505
       1.922
       0.382
      -1.289
      -2.371
      -2.568
      -1.959
      -0.815
       0.494
       1.499
       1.722
       0.940
      -0.567
      -2.043
      -2.652
      -1.996
      -0.361
       1.465
       2.664
       2.820
       2.057
       0.856
      -0.265
      -0.985
      -1.212
      -0.974
      -0.336
       0.555
       1.399
       1.786
       1.420
       0.366
      -0.919
      -1.811
      -1.847
      -0.956
       0.521
       1.943
       2.595
       1.967
       0.047
      -2.536
      -4.686
      -5.341
      -4.052
      -1.272
       1.871
       4.161
       4.877
       4.022
       2.159
       0.065
      -1.566
      -2.283
      -1.967
      -0.864
       0.460
       1.315
       1.198
       0.069
      -1.558
      -2.814
      -2.907
      -1.609
       0.530
       2.440
       3.160
       2.419
       0.766
      -0.831
      -1.571
      -1.216
      -0.099
       1.140
       1.876
       1.752
       0.791
      -0.624
      -1.908
      -2.516
      -2.169
      -0.981
       0.569
       1.819
       2.230
       1.677
       0.517
      -0.643
      -1.339
      -1.503
      -1.356
      -1.091
      -0.661
       0.070
       1.008
       1.708
       1.664
       0.772
      -0.474
      -1.300
      -1.228
      -0.432
       0.442
       0.805
       0.553
       0.039
      -0.292
      -0.274
      -0.082
      -0.014
      -0.192
      -0.440
      -0.396
       0.166
       1.053
       1.650
       1.310
      -0.059
      -1.726
      -2.529
      -1.742
       0.290
       2.308
       3.021
       2.007
      -0.066
      -1.990
      -2.819
      -2.335
      -0.972
       0.576
       1.687
       1.974
       1.350
       0.103
      -1.130
      -1.634
      -1.064
       0.259
       1.502
       1.892
       1.257
       0.101
      -0.847
      -1.202
      -1.120
      -1.009
      -1.087
      -1.210
      -1.074
      -0.535
       0.269
       1.047
       1.533
       1.583
       1.188
       0.482
      -0.275
      -0.790
      -0.890
      -0.608
      -0.104
       0.499
       1.183
       1.907
       2.421
       2.290
       1.180
      -0.770
      -2.843
      -4.072
      -3.802
      -2.109
       0.205
       2.051
       2.639
       1.863
       0.313
      -1.087
      -1.573
      -0.914
       0.513
       1.946
       2.624
       2.140
       0.621
      -1.331
      -2.876
      -3.289
      -2.294
      -0.232
       2.024
       3.426
       3.227
       1.357
      -1.485
      -4.079
      -5.188
      -4.120
      -1.136
       2.541
       5.214
       5.551
       3.340
      -0.302
      -3.476
      -4.525
      -2.967
       0.244
       3.256
       4.352
       2.888
      -0.382
      -3.749
      -5.496
      -4.791
      -2.041
       1.431
       4.134
       5.106
       4.233
       2.146
      -0.177
      -1.857
      -2.464
      -2.105
      -1.252
      -0.399
       0.204
       0.591
       0.891
       1.107
       1.056
       0.545
      -0.374
      -1.307
      -1.714
      -1.281
      -0.182
       0.990
       1.607
       1.405
       0.605
      -0.289
      -0.849
