Origin Time       12/3/2012 22:07:20	
Lat.              28.9 N	
Long.             77.3 E	
Depth (Km)          5.0
Magnitude         3.5
 Region           Baghpat-U.P.                                                     
 Above details taken from IMD 
     
Station Code      GGI
Station Lat.       28.665  N
Station Long.      77.232  E
Station Height(m)  207.0
Site Class        C   Vs30 between 200 m/sec to 375 m/sec *  
Record Time       12.03.2012 22:07:05.054
Sampling Rate     200. Hz
 Record Duration   80.555 Sec.
 Direction         E-W (E positive)
Max. Acceleration      6.063 cm/sec**2
     
  * For reference see Site Classification link of website 
     
 Base Line Corrected and Low Pass Filtered (Cut Off at 35 Hz) Time History
 Acceleration data in cm/sec**2
    
[...]
       0.107
       0.294
       0.371
       0.260
      -0.037
      -0.377
      -0.529
      -0.343
       0.120
       0.609
       0.841
       0.696
       0.274
      -0.193
      -0.512
      -0.621
      -0.570
      -0.436
      -0.257
      -0.049
       0.162
       0.319
       0.360
       0.263
       0.069
      -0.122
      -0.199
      -0.107
       0.113
       0.333
       0.411
       0.277
      -0.022
      -0.344
      -0.535
      -0.511
      -0.289
       0.030
       0.317
       0.468
       0.431
       0.230
      -0.032
      -0.205
      -0.172
       0.058
       0.330
       0.432
       0.258
      -0.103
      -0.426
      -0.528
      -0.401
      -0.187
      -0.030
       0.047
       0.134
       0.303
       0.497
       0.553
       0.336
      -0.138
      -0.679
      -1.022
      -0.966
      -0.487
       0.232
       0.878
       1.166
       0.989
       0.464
      -0.145
      -0.590
      -0.753
      -0.661
      -0.417
      -0.111
       0.203
       0.466
       0.591
       0.485
       0.132
      -0.354
      -0.757
      -0.862
      -0.582
      -0.019
       0.569
       0.899
       0.809
       0.357
      -0.212
      -0.601
      -0.629
      -0.309
       0.176
       0.588
       0.738
       0.559
       0.125
      -0.374
      -0.706
      -0.708
      -0.374
       0.138
       0.602
       0.839
       0.798
       0.532
       0.131
      -0.329
      -0.776
      -1.097
      -1.147
      -0.820
      -0.163
       0.593
       1.127
       1.198
       0.779
       0.067
      -0.630
      -1.036
      -1.008
      -0.573
       0.087
       0.701
       1.022
       0.939
       0.520
      -0.039
      -0.519
      -0.763
      -0.727
      -0.471
      -0.121
       0.189
       0.374
       0.418
       0.354
       0.224
       0.047
      -0.169
      -0.392
      -0.549
      -0.545
      -0.317
       0.106
       0.594
       0.961
       1.047
       0.803
       0.308
      -0.265
      -0.744
      -1.023
      -1.086
      -0.968
      -0.703
      -0.318
       0.143
       0.586
       0.878
       0.908
       0.653
       0.228
      -0.164
      -0.342
      -0.258
      -0.030
       0.153
       0.167
       0.031
      -0.127
      -0.184
      -0.116
      -0.011
       0.016
      -0.073
      -0.182
      -0.150
       0.101
       0.450
       0.643
       0.490
       0.051
      -0.391
      -0.552
      -0.387
      -0.109
       0.010
      -0.117
      -0.339
      -0.425
      -0.269
       0.040
       0.324
       0.467
       0.473
       0.418
       0.353
       0.271
       0.130
      -0.100
      -0.402
      -0.703
      -0.880
      -0.793
      -0.362
       0.349
       1.095
       1.528
       1.378
       0.632
      -0.412
      -1.279
      -1.579
      -1.228
      -0.472
       0.291
       0.740
       0.771
       0.480
       0.061
      -0.285
      -0.419
      -0.299
       0.002
       0.329
       0.533
       0.554
       0.431
       0.234
       0.004
      -0.249
      -0.490
      -0.641
      -0.629
      -0.451
      -0.173
       0.106
       0.305
       0.360
       0.241
      -0.008
      -0.238
      -0.260
       0.000
       0.396
       0.632
       0.476
      -0.047
      -0.653
      -0.991
      -0.869
      -0.353
       0.299
       0.812
       1.018
       0.892
       0.511
       0.001
      -0.487
      -0.794
      -0.787
      -0.428
       0.180
       0.787
       1.095
       0.903
       0.242
      -0.605
      -1.225
      -1.293
      -0.744
       0.178
       1.028
       1.381
       1.046
       0.177
      -0.782
      -1.331
      -1.184
      -0.441
       0.476
       1.080
       1.099
       0.605
      -0.072
      -0.573
      -0.710
      -0.522
      -0.194
       0.078
       0.184
       0.120
      -0.039
      -0.187
      -0.232
      -0.124
       0.110
       0.369
       0.514
       0.442
       0.161
      -0.203
      -0.468
      -0.499
      -0.290
       0.040
       0.311
       0.374
       0.173
      -0.228
      -0.659
      -0.899
      -0.771
      -0.255
       0.465
       1.069
       1.268
       0.974
       0.349
      -0.290
      -0.653
      -0.620
      -0.270
       0.181
       0.504
       0.544
       0.285
      -0.147
      -0.537
      -0.673
      -0.468
      -0.027
       0.399
       0.559
       0.356
      -0.099
      -0.563
      -0.798
      -0.677
      -0.222
       0.406
       0.951
       1.157
       0.892
       0.246
      -0.483
      -0.934
      -0.883
      -0.385
       0.259
       0.689
       0.703
       0.350
      -0.151
      -0.569
      -0.780
      -0.765
      -0.552
      -0.190
       0.236
       0.589
       0.735
       0.620
       0.308
      -0.067
      -0.385
      -0.584
      -0.642
      -0.529
      -0.228
       0.202
       0.596
       0.759
       0.610
       0.255
      -0.084
      -0.225
      -0.146
       0.028
       0.129
       0.071
      -0.103
      -0.266
      -0.294
      -0.147
       0.110
       0.348
       0.432
       0.289
      -0.048
      -0.433
      -0.671
      -0.627
      -0.323
       0.057
       0.280
       0.214
      -0.075
      -0.365
      -0.441
      -0.245
       0.100
       0.412
       0.598
       0.695
       0.773
       0.821
       0.733
       0.400
      -0.175
      -0.844
      -1.364
      -1.505
      -1.158
      -0.405
       0.482
       1.138
       1.269
       0.803
      -0.048
      -0.878
      -1.274
      -1.041
      -0.301
       0.581
       1.207
       1.343
       0.991
       0.330
      -0.385
      -0.908
      -1.064
      -0.799
      -0.215
       0.450
       0.909
       0.968
       0.624
       0.065
      -0.453
      -0.762
      -0.832
      -0.707
      -0.425
      -0.010
       0.456
       0.804
       0.848
       0.524
      -0.040
      -0.575
      -0.825
      -0.685
      -0.253
       0.239
       0.559
       0.604
       0.428
       0.167
      -0.080
      -0.290
      -0.473
      -0.582
      -0.519
      -0.227
       0.208
       0.581
       0.707
       0.551
       0.229
      -0.107
      -0.366
      -0.510
      -0.501
      -0.314
       0.002
       0.308
       0.468
       0.466
       0.394
       0.312
       0.144
      -0.232
      -0.777
      -1.187
      -1.078
      -0.330
       0.720
       1.442
       1.351
       0.453
      -0.749
      -1.582
      -1.600
      -0.806
       0.393
       1.428
       1.848
       1.527
       0.688
      -0.249
      -0.909
      -1.124
      -0.935
      -0.495
       0.025
       0.475
       0.735
       0.734
       0.488
       0.081
      -0.389
      -0.834
      -1.144
      -1.147
      -0.694
       0.181
       1.157
       1.737
       1.559
       0.672
      -0.458
      -1.252
      -1.383
      -0.946
      -0.297
       0.227
       0.505
       0.601
       0.614
       0.576
       0.448
       0.193
      -0.157
      -0.508
      -0.749
      -0.804
      -0.664
      -0.374
      -0.014
       0.333
       0.596
       0.719
       0.642
       0.323
      -0.206
      -0.780
      -1.131
      -1.023
      -0.407
       0.510
       1.338
       1.673
       1.298
       0.315
      -0.847
      -1.599
      -1.491
      -0.502
       0.880
       1.894
       1.957
       1.019
      -0.401
      -1.548
      -1.883
      -1.356
      -0.361
       0.547
       0.959
       0.765
       0.132
      -0.604
      -1.093
      -1.100
      -0.602
       0.198
       0.962
       1.360
       1.221
       0.606
      -0.209
      -0.860
      -1.069
      -0.770
      -0.135
       0.541
       0.987
       1.070
       0.823
       0.381
      -0.111
      -0.565
      -0.938
      -1.163
      -1.109
      -0.655
       0.147
       0.997
       1.452
       1.216
       0.357
      -0.692
      -1.389
      -1.392
      -0.747
       0.173
       0.889
       1.076
       0.727
       0.116
      -0.382
      -0.515
      -0.276
       0.145
       0.496
       0.602
       0.429
       0.061
      -0.362
      -0.698
      -0.839
      -0.730
      -0.393
       0.058
       0.446
       0.613
       0.507
       0.221
      -0.065
      -0.194
      -0.119
       0.071
       0.204
       0.133
      -0.172
      -0.577
      -0.833
      -0.719
      -0.195
       0.530
       1.099
       1.221
       0.856
       0.234
      -0.298
      -0.480
      -0.274
       0.140
       0.470
       0.464
       0.037
      -0.661
      -1.307
      -1.563
      -1.267
      -0.537
       0.289
       0.850
       0.963
       0.699
       0.304
       0.034
       0.030
       0.274
       0.622
       0.855
       0.771
       0.310
      -0.364
      -0.919
      -1.048
      -0.662
       0.048
       0.722
       1.015
       0.756
       0.031
      -0.834
      -1.406
      -1.360
      -0.680
       0.301
       1.057
       1.158
       0.514
      -0.553
      -1.467
      -1.680
      -0.966
       0.425
       1.846
       2.564
       2.165
       0.824
      -0.760
      -1.758
      -1.712
      -0.792
       0.342
       0.982
       0.820
       0.077
      -0.716
      -1.105
      -0.983
      -0.580
      -0.220
      -0.069
      -0.059
      -0.011
       0.177
       0.443
       0.644
       0.698
       0.650
       0.615
       0.644
       0.663
       0.529
       0.164
      -0.358
      -0.828
      -1.035
      -0.892
      -0.486
      -0.023
       0.299
       0.384
       0.261
       0.027
      -0.224
      -0.411
      -0.444
      -0.233
       0.225
       0.758
       1.062
       0.892
       0.272
      -0.487
      -1.003
      -1.090
      -0.832
      -0.430
      -0.001
       0.447
       0.890
       1.183
       1.132
       0.660
      -0.097
      -0.850
      -1.314
      -1.335
      -0.944
      -0.320
       0.299
       0.722
       0.878
       0.801
       0.561
       0.224
      -0.121
      -0.330
      -0.266
       0.032
       0.274
       0.071
      -0.729
      -1.787
      -2.397
      -1.955
      -0.446
       1.444
       2.717
       2.703
       1.469
      -0.240
      -1.483
      -1.683
      -0.921
       0.188
       0.924
       0.906
       0.275
      -0.467
      -0.810
      -0.520
       0.270
       1.156
       1.666
       1.490
       0.654
      -0.470
      -1.344
      -1.561
      -1.049
      -0.076
       0.923
       1.562
       1.648
       1.218
       0.493
      -0.215
      -0.651
      -0.760
      -0.725
      -0.823
      -1.164
      -1.518
      -1.449
      -0.682
       0.603
       1.828
       2.410
       2.139
       1.251
       0.171
      -0.782
      -1.490
      -1.925
      -2.034
      -1.768
      -1.211
      -0.625
      -0.333
      -0.513
      -1.058
      -1.608
      -1.735
      -1.159
       0.090
       1.655
       2.986
       3.594
       3.304
       2.335
       1.154
       0.200
      -0.320
      -0.454
      -0.386
      -0.305
      -0.341
      -0.523
      -0.758
      -0.857
      -0.687
      -0.335
      -0.099
      -0.213
      -0.545
      -0.600
       0.059
       1.287
       2.269
       2.061
       0.407
      -1.891
      -3.409
      -3.081
      -0.953
       1.836
       3.808
       4.036
       2.583
       0.292
      -1.806
      -3.002
      -3.088
      -2.241
      -0.826
       0.686
       1.764
       1.928
       1.000
      -0.687
      -2.320
      -2.992
      -2.227
      -0.309
       1.826
       3.114
       2.978
       1.624
      -0.147
      -1.480
      -1.954
      -1.701
      -1.138
      -0.593
      -0.131
       0.357
       0.941
       1.527
       1.916
       1.950
       1.620
       1.067
       0.506
       0.146
       0.090
       0.230
       0.208
      -0.406
      -1.745
      -3.363
      -4.362
      -3.965
      -2.118
       0.383
       2.392
       3.138
       2.635
       1.537
       0.633
       0.361
       0.638
       1.010
       0.991
       0.380
      -0.602
      -1.446
      -1.696
      -1.264
      -0.514
      -0.007
      -0.084
      -0.614
      -1.084
      -0.982
      -0.177
       0.994
       1.943
       2.172
       1.510
       0.176
      -1.290
      -2.191
      -1.957
      -0.501
       1.573
       3.160
       3.246
       1.575
      -1.109
      -3.441
      -4.209
      -3.011
      -0.422
       2.351
       4.078
       4.047
       2.361
      -0.163
      -2.425
      -3.608
      -3.515
      -2.477
      -0.987
       0.598
       2.045
       3.049
       3.162
       2.030
      -0.211
      -2.734
      -4.314
      -3.999
      -1.754
       1.424
       4.019
       4.824
       3.551
       0.890
      -1.901
      -3.623
      -3.635
      -2.077
       0.236
       2.193
       2.906
       2.159
       0.517
      -1.023
      -1.657
      -1.264
      -0.385
       0.287
       0.466
       0.404
       0.524
       0.943
       1.354
       1.335
       0.732
      -0.228
      -1.161
      -1.801
      -2.092
      -2.067
      -1.700
      -0.938
       0.149
       1.265
       2.018
       2.177
       1.818
       1.224
       0.643
       0.145
      -0.329
      -0.828
      -1.322
      -1.726
      -1.899
      -1.643
      -0.792
       0.549
       1.815
       2.143
       0.967
      -1.355
      -3.471
      -3.793
      -1.644
       2.066
       5.271
       6.063
       3.966
       0.238
      -2.991
      -4.067
      -2.738
      -0.133
       2.030
       2.458
       0.955
      -1.540
      -3.553
      -3.939
      -2.514
      -0.072
       2.157
       3.230
       2.924
       1.704
       0.322
      -0.641
      -1.008
      -0.941
      -0.697
      -0.432
      -0.157
       0.168
       0.522
       0.770
       0.741
       0.378
      -0.143
      -0.492
      -0.443
      -0.084
       0.233
       0.179
      -0.296
      -0.954
      -1.463
      -1.568
      -1.126
      -0.111
       1.288
       2.568
       3.060
       2.356
       0.697
      -1.072
      -2.025
      -1.752
      -0.574
       0.736
       1.465
       1.351
       0.655
      -0.067
      -0.340
      -0.083
       0.312
       0.228
      -0.725
      -2.344
      -3.825
      -4.169
      -2.812
      -0.087
       2.834
       4.537
       4.189
       2.044
      -0.706
      -2.619
      -2.815
      -1.391
       0.763
       2.563
       3.313
       2.910
       1.650
      -0.060
      -1.848
      -3.327
      -4.072
      -3.740
      -2.306
      -0.201
       1.799
       2.920
       2.807
       1.723
       0.373
      -0.562
      -0.849
      -0.747
      -0.643
      -0.625
      -0.394
       0.387
       1.644
       2.788
       3.089
       2.213
       0.464
      -1.419
      -2.715
      -3.050
      -2.463
      -1.263
       0.122
       1.244
       1.727
       1.428
       0.580
      -0.259
      -0.514
      -0.005
       0.881
       1.425
       1.069
      -0.172
      -1.684
      -2.619
      -2.422
      -1.161
       0.514
       1.755
       1.986
       1.194
      -0.105
      -1.197
      -1.597
      -1.300
      -0.685
      -0.159
       0.152
       0.401
       0.731
       0.999
       0.841
       0.056
      -1.050
      -1.740
      -1.362
       0.103
       1.930
       3.117
       3.029
       1.772
       0.034
      -1.374
      -1.951
      -1.667
      -0.889
      -0.156
       0.068
      -0.360
      -1.154
      -1.729
      -1.570
      -0.600
       0.716
       1.682
       1.868
       1.420
       0.892
       0.746
       0.932
       0.943
       0.302
      -0.940
      -2.136
      -2.480
      -1.615
       0.027
       1.451
       1.758
       0.803
      -0.662
      -1.524
      -1.138
       0.221
       1.617
       2.187
       1.739
       0.758
      -0.079
      -0.438
      -0.471
      -0.529
      -0.774
      -1.035
      -1.008
      -0.560
       0.118
       0.621
       0.579
      -0.092
      -1.074
      -1.738
      -1.479
      -0.153
       1.705
       3.127
       3.321
       2.187
       0.353
      -1.287
      -2.122
      -2.080
      -1.480
      -0.698
       0.036
       0.621
       0.953
       0.870
       0.288
      -0.608
      -1.324
      -1.315
      -0.404
       0.984
       2.008
       1.948
       0.697
      -1.151
      -2.654
      -3.069
      -2.202
      -0.422
       1.605
       3.225
       3.962
       3.562
       2.015
      -0.359
      -2.860
      -4.552
      -4.666
      -3.057
      -0.375
       2.216
       3.632
       3.390
       1.775
      -0.388
      -2.157
      -2.848
      -2.248
      -0.649
       1.273
       2.715
       3.082
       2.273
       0.726
      -0.822
      -1.747
      -1.831
      -1.274
      -0.465
       0.262
       0.742
       0.953
       0.946
       0.795
       0.552
       0.208
      -0.291
      -0.957
      -1.657
      -2.112
      -2.033
      -1.296
      -0.042
       1.338
       2.353
       2.631
       2.120
       1.131
       0.153
      -0.441
      -0.605
      -0.585
      -0.692
      -1.054
      -1.539
      -1.869
      -1.810
      -1.283
      -0.368
       0.741
       1.740
       2.256
       1.985
       0.916
      -0.546
      -1.728
      -2.056
      -1.396
      -0.120
       1.149
       1.889
       1.904
       1.329
       0.462
      -0.399
      -1.048
      -1.350
      -1.211
      -0.583
       0.457
       1.657
       2.601
       2.830
       2.041
       0.293
      -1.895
      -3.665
      -4.185
      -3.113
      -0.882
       1.448
       2.754
       2.515
       1.104
      -0.514
      -1.433
      -1.330
      -0.502
       0.482
       1.168
       1.367
       1.085
       0.432
      -0.413
      -1.191
      -1.645
      -1.642
      -1.232
      -0.570
       0.210
       1.011
       1.665
       1.858
       1.271
      -0.098
      -1.733
      -2.773
      -2.520
      -0.941
       1.229
       2.865
       3.106
       1.867
      -0.102
      -1.669
      -1.998
      -1.038
       0.511
       1.691
       1.897
       1.183
       0.113
      -0.693
      -0.977
      -0.935
      -0.947
      -1.179
      -1.399
      -1.185
      -0.335
       0.874
       1.826
       1.985
       1.277
       0.138
      -0.762
      -0.931
      -0.332
       0.611
       1.271
       1.182
       0.319
      -0.903
      -1.892
      -2.237
      -1.897
      -1.130
      -0.275
       0.422
       0.858
       1.033
       0.997
       0.805
       0.482
       0.036
      -0.461
      -0.807
      -0.736
      -0.132
       0.781
       1.498
       1.563
       0.932
       0.047
      -0.474
      -0.297
       0.388
       1.008
       1.008
       0.233
      -0.976
      -1.986
      -2.257
      -1.648
      -0.495
       0.602
       1.118
       0.904
       0.254
      -0.288
      -0.285
       0.287
       0.974
       1.133
       0.399
      -0.960
      -2.107
      -2.156
      -0.827
       1.236
       2.797
       2.842
       1.296
      -0.892
      -2.392
      -2.378
      -1.027
       0.702
       1.773
       1.709
       0.769
      -0.373
      -1.113
