Origin Time       12/3/2012 22:07:20	
Lat.              28.9 N	
Long.             77.3 E	
Depth (Km)          5.0
Magnitude         3.5
 Region           Baghpat-U.P.                                                     
 Above details taken from IMD 
   
Station Code      GGI
Station Lat.       28.665
Station Long.      77.232
Station Height(m)  207.0
Site Class        C   Vs30 between 200 m/sec to 375 m/sec *  
Record Time       12.03.2012 22:07:05.054
Sampling Rate     200. Hz
 Record Duration   80.555 Sec.
 Direction         Vert. (Up positive)
Max. Acceleration      1.739 cm/sec**2
     
  * For reference see Site Classification link of website 
     
 Base Line Corrected and Low Pass Filtered (Cut Off at 35 Hz) Time History
 Acceleration data in cm/sec**2
    
[...]
       0.061
      -0.156
      -0.323
      -0.323
      -0.152
       0.084
       0.237
       0.219
       0.054
      -0.138
      -0.224
      -0.151
       0.030
       0.203
       0.270
       0.212
       0.083
      -0.035
      -0.085
      -0.064
      -0.016
       0.009
      -0.013
      -0.071
      -0.132
      -0.165
      -0.148
      -0.078
       0.031
       0.140
       0.204
       0.200
       0.144
       0.085
       0.059
       0.065
       0.067
       0.029
      -0.049
      -0.132
      -0.179
      -0.177
      -0.145
      -0.116
      -0.111
      -0.123
      -0.121
      -0.069
       0.040
       0.170
       0.254
       0.246
       0.160
       0.064
       0.020
       0.032
       0.047
       0.011
      -0.079
      -0.166
      -0.183
      -0.111
       0.001
       0.073
       0.063
       0.004
      -0.024
       0.029
       0.131
       0.184
       0.114
      -0.056
      -0.212
      -0.237
      -0.107
       0.082
       0.193
       0.143
      -0.033
      -0.214
      -0.274
      -0.168
       0.037
       0.205
       0.220
       0.075
      -0.122
      -0.221
      -0.139
       0.074
       0.269
       0.320
       0.217
       0.058
      -0.051
      -0.083
      -0.084
      -0.114
      -0.179
      -0.231
      -0.228
      -0.168
      -0.095
      -0.044
      -0.013
       0.033
       0.115
       0.208
       0.257
       0.217
       0.100
      -0.029
      -0.089
      -0.054
       0.028
       0.068
       0.007
      -0.123
      -0.218
      -0.183
      -0.019
       0.172
       0.260
       0.183
      -0.004
      -0.174
      -0.217
      -0.114
       0.057
       0.178
       0.174
       0.056
      -0.094
      -0.190
      -0.199
      -0.148
      -0.086
      -0.037
       0.010
       0.071
       0.134
       0.157
       0.109
       0.002
      -0.107
      -0.150
      -0.096
       0.031
       0.159
       0.205
       0.127
      -0.046
      -0.216
      -0.276
      -0.175
       0.037
       0.236
       0.303
       0.197
      -0.011
      -0.193
      -0.242
      -0.144
       0.021
       0.133
       0.119
      -0.004
      -0.139
      -0.183
      -0.102
       0.042
       0.137
       0.110
      -0.009
      -0.108
      -0.084
       0.064
       0.222
       0.252
       0.106
      -0.123
      -0.274
      -0.239
      -0.052
       0.139
       0.191
       0.078
      -0.090
      -0.171
      -0.112
       0.009
       0.067
       0.007
      -0.094
      -0.109
       0.023
       0.227
       0.346
       0.269
       0.025
      -0.228
      -0.332
      -0.244
      -0.064
       0.051
       0.014
      -0.130
      -0.240
      -0.193
       0.014
       0.263
       0.393
       0.319
       0.098
      -0.123
      -0.212
      -0.145
      -0.007
       0.088
       0.092
       0.042
       0.008
       0.010
       0.001
      -0.073
      -0.194
      -0.268
      -0.199
       0.011
       0.247
       0.358
       0.276
       0.074
      -0.093
      -0.100
       0.050
       0.229
       0.274
       0.107
      -0.195
      -0.447
      -0.482
      -0.276
       0.029
       0.238
       0.246
       0.105
      -0.040
      -0.083
      -0.031
       0.025
       0.014
      -0.054
      -0.106
      -0.081
       0.015
       0.119
       0.160
       0.112
       0.009
      -0.079
      -0.088
      -0.009
       0.106
       0.172
       0.126
      -0.022
      -0.192
      -0.272
      -0.198
       0.000
       0.209
       0.302
       0.229
       0.042
      -0.141
      -0.220
      -0.169
      -0.047
       0.049
       0.055
      -0.022
      -0.108
      -0.126
      -0.053
       0.066
       0.155
       0.171
       0.133
       0.088
       0.066
       0.050
      -0.001
      -0.098
      -0.208
      -0.271
      -0.250
      -0.154
      -0.029
       0.064
       0.088
       0.051
       0.009
       0.024
       0.114
       0.223
       0.259
       0.161
      -0.033
      -0.208
      -0.244
      -0.111
       0.107
       0.268
       0.262
       0.080
      -0.190
      -0.408
      -0.459
      -0.311
      -0.038
       0.224
       0.350
       0.296
       0.109
      -0.098
      -0.214
      -0.190
      -0.060
       0.078
       0.129
       0.057
      -0.083
      -0.184
      -0.157
       0.003
       0.207
       0.327
       0.290
       0.115
      -0.098
      -0.237
      -0.247
      -0.154
      -0.039
       0.026
       0.028
       0.014
       0.025
       0.049
       0.032
      -0.047
      -0.122
      -0.100
       0.043
       0.199
       0.212
       0.018
      -0.267
      -0.422
      -0.300
       0.038
       0.350
       0.397
       0.124
      -0.280
      -0.520
      -0.409
      -0.004
       0.435
       0.628
       0.471
       0.090
      -0.265
      -0.398
      -0.284
      -0.046
       0.154
       0.215
       0.132
      -0.024
      -0.163
      -0.222
      -0.197
      -0.134
      -0.082
      -0.053
      -0.018
       0.048
       0.124
       0.162
       0.135
       0.069
       0.021
       0.017
       0.033
       0.027
      -0.011
      -0.044
      -0.034
       0.019
       0.068
       0.063
      -0.010
      -0.104
      -0.149
      -0.108
      -0.011
       0.064
       0.061
      -0.007
      -0.066
      -0.057
       0.002
       0.035
      -0.008
      -0.081
      -0.075
       0.056
       0.220
       0.246
       0.049
      -0.270
      -0.482
      -0.414
      -0.099
       0.249
       0.396
       0.264
      -0.020
      -0.229
      -0.208
       0.020
       0.288
       0.409
       0.299
       0.023
      -0.261
      -0.397
      -0.326
      -0.107
       0.118
       0.216
       0.142
      -0.038
      -0.203
      -0.252
      -0.159
       0.016
       0.168
       0.209
       0.113
      -0.058
      -0.193
      -0.195
      -0.056
       0.133
       0.237
       0.184
       0.018
      -0.125
      -0.129
       0.007
       0.168
       0.221
       0.112
      -0.089
      -0.247
      -0.259
      -0.133
       0.027
       0.108
       0.080
       0.014
      -0.004
       0.043
       0.088
       0.059
      -0.035
      -0.117
      -0.119
      -0.057
      -0.011
      -0.033
      -0.091
      -0.103
      -0.023
       0.102
       0.179
       0.155
       0.066
       0.002
       0.018
       0.076
       0.077
      -0.043
      -0.242
      -0.393
      -0.374
      -0.165
       0.118
       0.301
       0.277
       0.084
      -0.121
      -0.189
      -0.087
       0.091
       0.211
       0.197
       0.060
      -0.121
      -0.260
      -0.290
      -0.195
      -0.009
       0.186
       0.299
       0.274
       0.128
      -0.051
      -0.155
      -0.125
       0.009
       0.145
       0.178
       0.063
      -0.153
      -0.358
      -0.436
      -0.336
      -0.101
       0.157
       0.327
       0.359
       0.268
       0.111
      -0.054
      -0.184
      -0.251
      -0.234
      -0.132
       0.022
       0.160
       0.205
       0.116
      -0.065
      -0.227
      -0.244
      -0.075
       0.191
       0.367
       0.298
      -0.014
      -0.391
      -0.590
      -0.476
      -0.120
       0.250
       0.408
       0.282
       0.005
      -0.187
      -0.127
       0.159
       0.463
       0.544
       0.294
      -0.172
      -0.585
      -0.686
      -0.397
       0.113
       0.524
       0.574
       0.229
      -0.289
      -0.643
      -0.599
      -0.182
       0.339
       0.633
       0.530
       0.124
      -0.311
      -0.529
      -0.457
      -0.200
       0.077
       0.264
       0.337
       0.306
       0.180
      -0.020
      -0.226
      -0.334
      -0.274
      -0.075
       0.130
       0.198
       0.082
      -0.119
      -0.225
      -0.109
       0.187
       0.469
       0.523
       0.276
      -0.153
      -0.535
      -0.681
      -0.546
      -0.236
       0.081
       0.282
       0.337
       0.294
       0.201
       0.076
      -0.080
      -0.225
      -0.277
      -0.171
       0.068
       0.300
       0.354
       0.155
      -0.191
      -0.454
      -0.433
      -0.117
       0.303
       0.569
       0.533
       0.239
      -0.116
      -0.313
      -0.249
       0.009
       0.266
       0.321
       0.104
      -0.275
      -0.589
      -0.637
      -0.379
       0.045
       0.400
       0.497
       0.306
      -0.035
      -0.312
      -0.372
      -0.216
       0.018
       0.171
       0.169
       0.056
      -0.067
      -0.118
      -0.084
      -0.009
       0.050
       0.071
       0.062
       0.043
       0.032
       0.034
       0.046
       0.053
       0.035
       0.005
       0.005
       0.068
       0.160
       0.178
       0.041
      -0.223
      -0.467
      -0.525
      -0.338
       0.004
       0.320
       0.454
       0.352
       0.074
      -0.239
      -0.430
      -0.394
      -0.144
       0.192
       0.428
       0.421
       0.160
      -0.217
      -0.493
      -0.491
      -0.187
       0.261
       0.597
       0.616
       0.307
      -0.144
      -0.468
      -0.493
      -0.246
       0.086
       0.290
       0.255
       0.026
      -0.244
      -0.387
      -0.312
      -0.062
       0.210
       0.336
       0.240
      -0.009
      -0.255
      -0.359
      -0.284
      -0.095
       0.103
       0.229
       0.249
       0.163
       0.001
      -0.166
      -0.249
      -0.181
       0.018
       0.244
       0.364
       0.301
       0.085
      -0.174
      -0.346
      -0.343
      -0.164
       0.102
       0.312
       0.342
       0.157
      -0.148
      -0.395
      -0.417
      -0.169
       0.224
       0.521
       0.509
       0.155
      -0.349
      -0.690
      -0.636
      -0.209
       0.321
       0.600
       0.433
      -0.075
      -0.584
      -0.746
      -0.439
       0.169
       0.737
       0.956
       0.707
       0.115
      -0.517
      -0.860
      -0.739
      -0.245
       0.312
       0.591
       0.445
       0.012
      -0.401
      -0.532
      -0.323
       0.084
       0.468
       0.650
       0.544
       0.174
      -0.318
      -0.693
      -0.719
      -0.339
       0.246
       0.669
       0.656
       0.231
      -0.308
      -0.613
      -0.546
      -0.238
       0.053
       0.157
       0.086
      -0.023
      -0.044
       0.050
       0.185
       0.257
       0.212
       0.083
      -0.037
      -0.070
      -0.015
       0.044
       0.004
      -0.158
      -0.347
      -0.412
      -0.271
       0.004
       0.243
       0.311
       0.219
       0.102
       0.087
       0.173
       0.242
       0.185
       0.019
      -0.138
      -0.193
      -0.173
      -0.185
      -0.277
      -0.356
      -0.257
       0.079
       0.501
       0.716
       0.508
      -0.067
      -0.683
      -0.946
      -0.654
       0.050
       0.756
       1.042
       0.734
       0.021
      -0.660
      -0.906
      -0.597
       0.033
       0.559
       0.647
       0.264
      -0.312
      -0.697
      -0.662
      -0.260
       0.236
       0.535
       0.502
       0.216
      -0.115
      -0.294
      -0.240
      -0.006
       0.278
       0.469
       0.474
       0.271
      -0.080
      -0.450
      -0.672
      -0.606
      -0.228
       0.302
       0.691
       0.685
       0.267
      -0.303
      -0.655
      -0.573
      -0.137
       0.343
       0.549
       0.358
      -0.091
      -0.503
      -0.604
      -0.312
       0.221
       0.704
       0.882
       0.690
       0.263
      -0.161
      -0.404
      -0.441
      -0.382
      -0.366
      -0.441
      -0.530
      -0.499
      -0.283
       0.038
       0.288
       0.336
       0.216
       0.096
       0.122
       0.274
       0.371
       0.240
      -0.122
      -0.517
      -0.686
      -0.503
      -0.071
       0.346
       0.506
       0.350
       0.029
      -0.218
      -0.240
      -0.067
       0.131
       0.193
       0.098
      -0.036
      -0.071
       0.019
       0.140
       0.172
       0.095
       0.005
       0.016
       0.133
       0.220
       0.103
      -0.243
      -0.604
      -0.645
      -0.198
       0.515
       0.968
       0.734
      -0.131
      -1.053
      -1.353
      -0.769
       0.321
       1.163
       1.174
       0.353
      -0.742
      -1.392
      -1.188
      -0.267
       0.812
       1.437
       1.314
       0.612
      -0.185
      -0.618
      -0.546
      -0.181
       0.135
       0.208
       0.072
      -0.124
      -0.287
      -0.405
      -0.462
      -0.403
      -0.184
       0.137
       0.407
       0.483
       0.340
       0.078
      -0.147
      -0.217
      -0.091
       0.192
       0.501
       0.636
       0.427
      -0.116
      -0.736
      -1.053
      -0.822
      -0.143
       0.575
       0.885
       0.628
       0.032
      -0.472
      -0.571
      -0.265
       0.179
       0.445
       0.369
       0.012
      -0.410
      -0.675
      -0.662
      -0.398
      -0.023
       0.273
       0.337
       0.145
      -0.155
      -0.313
      -0.158
       0.255
       0.655
       0.754
       0.486
       0.068
      -0.165
      -0.033
       0.330
       0.553
       0.311
      -0.408
      -1.233
      -1.625
      -1.239
      -0.201
       0.913
       1.425
       1.009
      -0.049
      -1.010
      -1.172
      -0.372
       0.881
       1.739
       1.610
       0.577
      -0.674
      -1.367
      -1.187
      -0.466
       0.133
       0.166
      -0.253
      -0.589
      -0.374
       0.365
       1.108
       1.266
       0.666
      -0.319
      -1.053
      -1.097
      -0.481
       0.364
       0.907
       0.831
       0.193
      -0.615
      -1.080
      -0.871
      -0.079
       0.789
       1.112
       0.622
      -0.341
      -1.032
      -0.856
       0.140
       1.270
       1.731
       1.210
       0.077
      -0.946
      -1.335
      -1.062
      -0.494
      -0.050
       0.070
      -0.060
      -0.220
      -0.228
      -0.043
       0.238
       0.467
       0.539
       0.434
       0.196
      -0.095
      -0.332
      -0.405
      -0.252
       0.063
       0.342
       0.355
       0.019
      -0.485
      -0.795
      -0.614
       0.052
       0.861
       1.351
       1.228
       0.542
      -0.375
      -1.116
      -1.405
      -1.180
      -0.570
       0.174
       0.751
       0.919
       0.624
       0.081
      -0.321
      -0.283
       0.167
       0.656
       0.742
       0.262
      -0.522
      -1.116
      -1.144
      -0.603
       0.180
       0.789
       0.975
       0.756
       0.322
      -0.104
      -0.377
      -0.448
      -0.348
      -0.148
       0.078
       0.258
       0.318
       0.183
      -0.155
      -0.570
      -0.823
      -0.705
      -0.204
       0.452
       0.938
       1.039
       0.766
       0.304
      -0.150
      -0.478
      -0.631
      -0.579
      -0.330
       0.007
       0.228
       0.166
      -0.146
      -0.457
      -0.465
      -0.061
       0.570
       1.085
       1.220
       0.940
       0.383
      -0.266
      -0.846
      -1.195
      -1.163
      -0.717
      -0.052
       0.488
       0.645
       0.437
       0.127
      -0.001
       0.145
       0.431
       0.627
       0.557
       0.170
      -0.444
      -1.053
      -1.335
      -1.024
      -0.140
       0.895
       1.446
       1.092
       0.002
      -1.108
      -1.451
      -0.757
       0.505
       1.465
       1.487
       0.613
      -0.506
      -1.115
      -0.877
      -0.054
       0.743
       0.996
       0.598
      -0.154
      -0.811
      -1.071
      -0.913
      -0.521
      -0.103
       0.226
       0.423
       0.460
       0.322
       0.065
      -0.158
      -0.178
       0.057
       0.410
       0.640
       0.577
       0.262
      -0.087
      -0.247
      -0.148
       0.115
       0.383
       0.533
       0.501
       0.264
      -0.154
      -0.653
      -1.049
      -1.132
      -0.778
      -0.057
       0.735
       1.191
       1.031
       0.303
      -0.586
      -1.084
      -0.846
       0.013
       0.946
       1.316
       0.829
      -0.235
      -1.197
      -1.435
      -0.820
       0.210
       0.968
       1.009
       0.390
      -0.442
      -0.980
      -0.947
      -0.381
       0.435
       1.121
       1.353
       1.012
       0.264
      -0.511
      -0.925
      -0.825
      -0.384
       0.056
       0.256
       0.231
       0.167
       0.194
       0.251
       0.178
      -0.076
      -0.351
      -0.395
      -0.108
       0.319
       0.519
       0.249
      -0.375
      -0.916
      -0.923
      -0.293
       0.604
       1.181
       1.057
       0.340
      -0.465
      -0.835
      -0.589
       0.025
       0.547
       0.636
       0.284
      -0.206
      -0.457
      -0.305
       0.084
       0.372
       0.338
       0.061
      -0.176
      -0.168
       0.026
       0.158
       0.056
      -0.198
      -0.352
      -0.240
       0.060
       0.308
       0.329
       0.147
      -0.069
      -0.172
      -0.150
      -0.096
      -0.095
      -0.152
      -0.209
      -0.209
      -0.134
       0.002
       0.165
       0.294
       0.309
       0.161
      -0.098
      -0.311
      -0.312
      -0.066
       0.275
       0.468
       0.351
      -0.030
      -0.444
      -0.636
      -0.505
      -0.162
       0.191
       0.418
       0.527
       0.577
       0.555
       0.367
      -0.020
      -0.435
      -0.573
      -0.264
       0.297
       0.635
       0.391
      -0.307
      -0.870
      -0.723
       0.156
       1.133
       1.399
       0.655
      -0.587
      -1.390
      -1.146
      -0.068
       0.991
       1.215
       0.458
      -0.688
      -1.373
      -1.141
      -0.229
       0.675
       0.972
       0.555
      -0.200
      -0.764
      -0.829
      -0.450
       0.067
       0.416
       0.485
       0.378
       0.283
       0.301
       0.370
       0.344
       0.154
      -0.103
      -0.239
      -0.156
       0.033
       0.093
      -0.118
      -0.489
      -0.725
      -0.590
      -0.111
       0.433
       0.718
       0.617
       0.279
      -0.012
      -0.069
       0.076
       0.241
       0.270
       0.144
      -0.040
      -0.179
      -0.244
      -0.268
      -0.287
      -0.295
      -0.257
      -0.154
      -0.017
       0.084
       0.090
      -0.011
      -0.159
      -0.251
      -0.181
       0.089
       0.472
       0.760
       0.741
       0.364
      -0.177
      -0.550
      -0.526
      -0.166
       0.223
       0.327
       0.076
      -0.317
      -0.529
      -0.375
       0.060
       0.499
       0.678
       0.516
       0.147
      -0.202
      -0.364
      -0.319
      -0.166
      -0.027
       0.035
       0.038
       0.047
       0.100
       0.169
       0.183
       0.089
      -0.076
      -0.195
      -0.163
       0.016
       0.217
       0.288
       0.171
      -0.059
      -0.262
      -0.331
      -0.257
      -0.110
       0.028
       0.111
       0.140
       0.142
       0.138
       0.136
       0.126
       0.083
      -0.013
      -0.145
