Origin Time       22/10/2009 19:51:25
Lat.              36.5°N	
Long.             71.0°E	
Depth (Km)        168.0
Magnitude         6.3
 Region           HINDUKUSH-REGION-AFGHANISTAN                                     
 Above details taken from IMD 
     
Station Code      KSL
Station Lat.       30.899  N
Station Long.      76.960  E
Station Height(m) 1802.0
Site Class        B   Vs30 between 375 m/sec to 700 m/sec *  
Record Time       22.10.2009 19:54:22.274
Sampling Rate     200. Hz
 Record Duration   68.295 Sec.
 Direction         E-W (E positive)
Max. Acceleration      2.683 cm/sec**2
     
  * For reference see Site Classification link of website 
     
 Base Line Corrected and Low Pass Filtered (Cut Off at 35 Hz) Time History
 Acceleration data in cm/sec**2
    
[...]
      -0.126
      -0.083
      -0.040
       0.007
       0.057
       0.105
       0.147
       0.182
       0.214
       0.243
       0.270
       0.290
       0.305
       0.317
       0.334
       0.360
       0.393
       0.429
       0.463
       0.494
       0.531
       0.578
       0.634
       0.694
       0.753
       0.810
       0.870
       0.936
       1.005
       1.071
       1.129
       1.173
       1.205
       1.226
       1.236
       1.233
       1.213
       1.177
       1.126
       1.064
       0.996
       0.922
       0.843
       0.756
       0.664
       0.568
       0.472
       0.377
       0.283
       0.186
       0.088
      -0.006
      -0.087
      -0.151
      -0.204
      -0.253
      -0.305
      -0.365
      -0.433
      -0.506
      -0.583
      -0.660
      -0.737
      -0.816
      -0.897
      -0.979
      -1.059
      -1.129
      -1.186
      -1.230
      -1.266
      -1.293
      -1.312
      -1.318
      -1.310
      -1.288
      -1.256
      -1.216
      -1.172
      -1.120
      -1.055
      -0.978
      -0.888
      -0.792
      -0.694
      -0.597
      -0.500
      -0.400
      -0.300
      -0.202
      -0.110
      -0.024
       0.057
       0.131
       0.196
       0.250
       0.295
       0.337
       0.375
       0.407
       0.433
       0.455
       0.482
       0.519
       0.562
       0.608
       0.648
       0.678
       0.697
       0.705
       0.704
       0.698
       0.693
       0.689
       0.684
       0.671
       0.649
       0.621
       0.589
       0.558
       0.529
       0.501
       0.472
       0.440
       0.400
       0.352
       0.300
       0.248
       0.196
       0.148
       0.104
       0.063
       0.022
      -0.022
      -0.071
      -0.125
      -0.185
      -0.247
      -0.308
      -0.365
      -0.421
      -0.478
      -0.536
      -0.595
      -0.653
      -0.710
      -0.765
      -0.815
      -0.855
      -0.878
      -0.885
      -0.881
      -0.872
      -0.862
      -0.849
      -0.834
      -0.813
      -0.783
      -0.742
      -0.691
      -0.638
      -0.594
      -0.567
      -0.556
      -0.557
      -0.559
      -0.561
      -0.565
      -0.578
      -0.599
      -0.625
      -0.647
      -0.659
      -0.654
      -0.630
      -0.587
      -0.526
      -0.449
      -0.358
      -0.253
      -0.133
       0.000
       0.148
       0.304
       0.466
       0.629
       0.792
       0.955
       1.117
       1.271
       1.408
       1.522
       1.611
       1.676
       1.719
       1.737
       1.730
       1.700
       1.649
       1.581
       1.498
       1.404
       1.301
       1.191
       1.078
       0.962
       0.840
       0.716
       0.590
       0.467
       0.351
       0.244
       0.145
       0.049
      -0.044
      -0.134
      -0.222
      -0.308
      -0.393
      -0.474
      -0.549
      -0.615
      -0.670
      -0.715
      -0.746
      -0.762
      -0.761
      -0.746
      -0.718
      -0.680
      -0.633
      -0.575
      -0.505
      -0.424
      -0.337
      -0.246
      -0.157
      -0.074
      -0.001
       0.064
       0.122
       0.174
       0.218
       0.252
       0.276
       0.292
       0.303
       0.311
       0.311
       0.299
       0.275
       0.242
       0.208
       0.178
       0.152
       0.127
       0.099
       0.069
       0.042
       0.022
       0.010
       0.006
       0.006
       0.010
       0.014
       0.018
       0.020
       0.019
       0.017
       0.017
       0.018
       0.020
       0.016
       0.007
      -0.005
      -0.015
      -0.018
      -0.011
       0.006
       0.030
       0.061
       0.100
       0.146
       0.199
       0.260
       0.326
       0.393
       0.457
       0.514
       0.564
       0.612
       0.660
       0.710
       0.759
       0.800
       0.826
       0.837
       0.832
       0.813
       0.778
       0.728
       0.665
       0.593
       0.514
       0.432
       0.349
       0.268
       0.192
       0.121
       0.051
      -0.021
      -0.093
      -0.163
      -0.226
      -0.282
      -0.333
      -0.383
      -0.430
      -0.473
      -0.510
      -0.542
      -0.570
      -0.595
      -0.617
      -0.635
      -0.649
      -0.658
      -0.666
      -0.674
      -0.682
      -0.685
      -0.679
      -0.668
      -0.657
      -0.652
      -0.656
      -0.665
      -0.676
      -0.688
      -0.702
      -0.722
      -0.748
      -0.777
      -0.803
      -0.820
      -0.824
      -0.816
      -0.799
      -0.773
      -0.737
      -0.688
      -0.626
      -0.550
      -0.461
      -0.361
      -0.252
      -0.138
      -0.019
       0.102
       0.226
       0.351
       0.478
       0.605
       0.734
       0.861
       0.981
       1.090
       1.183
       1.259
       1.319
       1.363
       1.393
       1.409
       1.414
       1.411
       1.404
       1.396
       1.384
       1.367
       1.345
       1.315
       1.276
       1.226
       1.160
       1.078
       0.979
       0.863
       0.729
       0.577
       0.407
       0.219
       0.017
      -0.194
      -0.411
      -0.631
      -0.852
      -1.069
      -1.275
      -1.461
      -1.619
      -1.748
      -1.850
      -1.928
      -1.981
      -2.008
      -2.009
      -1.989
      -1.954
      -1.907
      -1.846
      -1.767
      -1.667
      -1.547
      -1.415
      -1.280
      -1.154
      -1.039
      -0.933
      -0.830
      -0.728
      -0.626
      -0.524
      -0.415
      -0.296
      -0.167
      -0.032
       0.107
       0.246
       0.383
       0.515
       0.641
       0.762
       0.881
       0.995
       1.100
       1.190
       1.263
       1.316
       1.349
       1.359
       1.344
       1.306
       1.252
       1.188
       1.121
       1.050
       0.974
       0.892
       0.806
       0.719
       0.629
       0.534
       0.431
       0.322
       0.215
       0.117
       0.036
      -0.026
      -0.073
      -0.111
      -0.140
      -0.162
      -0.176
      -0.185
      -0.195
      -0.208
      -0.220
      -0.227
      -0.221
      -0.202
      -0.178
      -0.155
      -0.140
      -0.136
      -0.143
      -0.161
      -0.187
      -0.219
      -0.259
      -0.303
      -0.351
      -0.399
      -0.442
      -0.477
      -0.504
      -0.522
      -0.534
      -0.543
      -0.549
      -0.551
      -0.548
      -0.539
      -0.520
      -0.491
      -0.448
      -0.387
      -0.304
      -0.200
      -0.083
       0.034
       0.138
       0.222
       0.287
       0.339
       0.387
       0.433
       0.477
       0.514
       0.537
       0.539
       0.513
       0.460
       0.388
       0.308
       0.227
       0.151
       0.077
       0.002
      -0.072
      -0.140
      -0.197
      -0.243
      -0.277
      -0.300
      -0.309
      -0.303
      -0.283
      -0.253
      -0.217
      -0.178
      -0.137
      -0.095
      -0.052
      -0.011
       0.027
       0.058
       0.082
       0.095
       0.099
       0.095
       0.088
       0.086
       0.095
       0.120
       0.158
       0.205
       0.255
       0.307
       0.364
       0.429
       0.503
       0.582
       0.660
       0.732
       0.795
       0.846
       0.877
       0.881
       0.856
       0.806
       0.737
       0.652
       0.550
       0.432
       0.303
       0.171
       0.043
      -0.076
      -0.184
      -0.280
      -0.365
      -0.440
      -0.502
      -0.551
      -0.590
      -0.622
      -0.649
      -0.671
      -0.689
      -0.707
      -0.732
      -0.774
      -0.835
      -0.909
      -0.988
      -1.067
      -1.147
      -1.226
      -1.301
      -1.368
      -1.422
      -1.462
      -1.487
      -1.491
      -1.463
      -1.391
      -1.271
      -1.109
      -0.916
      -0.704
      -0.480
      -0.246
      -0.001
       0.256
       0.523
       0.796
       1.069
       1.333
       1.583
       1.811
       2.013
       2.186
       2.323
       2.420
       2.475
       2.489
       2.464
       2.403
       2.308
       2.181
       2.028
       1.850
       1.654
       1.443
       1.224
       1.007
       0.797
       0.597
       0.406
       0.219
       0.035
      -0.146
      -0.323
      -0.494
      -0.660
      -0.819
      -0.971
      -1.114
      -1.242
      -1.353
      -1.447
      -1.530
      -1.604
      -1.667
      -1.717
      -1.750
      -1.772
      -1.784
      -1.785
      -1.765
      -1.716
      -1.633
      -1.519
      -1.381
      -1.223
      -1.047
      -0.854
      -0.646
      -0.427
      -0.207
       0.006
       0.205
       0.386
       0.549
       0.694
       0.824
       0.937
       1.026
       1.085
       1.109
       1.097
       1.055
       0.987
       0.896
       0.789
       0.674
       0.564
       0.464
       0.377
       0.297
       0.215
       0.126
       0.030
      -0.067
      -0.155
      -0.227
      -0.281
      -0.317
      -0.334
      -0.330
      -0.305
      -0.263
      -0.207
      -0.141
      -0.065
       0.020
       0.111
       0.209
       0.312
       0.414
       0.508
       0.589
       0.651
       0.693
       0.712
       0.704
       0.667
       0.605
       0.523
       0.426
       0.317
       0.194
       0.058
      -0.091
      -0.249
      -0.409
      -0.570
      -0.729
      -0.881
      -1.022
      -1.140
      -1.228
      -1.281
      -1.302
      -1.297
      -1.275
      -1.241
      -1.196
      -1.143
      -1.086
      -1.029
      -0.975
      -0.920
      -0.862
      -0.806
      -0.754
      -0.709
      -0.666
      -0.615
      -0.545
      -0.448
      -0.320
      -0.163
       0.019
       0.221
       0.438
       0.667
       0.904
       1.144
       1.379
       1.601
       1.801
       1.971
       2.104
       2.194
       2.238
       2.234
       2.179
       2.072
       1.914
       1.711
       1.473
       1.214
       0.944
       0.672
       0.410
       0.166
      -0.049
      -0.233
      -0.382
      -0.498
      -0.577
      -0.613
      -0.603
      -0.548
      -0.458
      -0.346
      -0.225
      -0.105
       0.009
       0.111
       0.196
       0.260
       0.300
       0.313
       0.297
       0.250
       0.179
       0.090
      -0.008
      -0.112
      -0.224
      -0.342
      -0.463
      -0.578
      -0.678
      -0.761
      -0.829
      -0.887
      -0.937
      -0.976
      -0.999
      -1.005
      -0.999
      -0.987
      -0.968
      -0.940
      -0.900
      -0.849
      -0.794
      -0.741
      -0.693
      -0.646
      -0.598
      -0.547
      -0.493
      -0.435
      -0.371
      -0.303
      -0.232
      -0.157
      -0.077
       0.010
       0.107
       0.214
       0.333
       0.462
       0.598
       0.738
       0.881
       1.031
       1.190
       1.356
       1.521
       1.674
       1.805
       1.910
       1.989
       2.037
       2.048
       2.014
       1.932
       1.801
       1.624
       1.404
       1.144
       0.850
       0.530
       0.194
      -0.147
      -0.478
      -0.790
      -1.072
      -1.316
      -1.520
      -1.687
      -1.822
      -1.929
      -2.006
      -2.047
      -2.046
      -2.000
      -1.914
      -1.794
      -1.651
      -1.497
      -1.337
      -1.174
      -1.009
      -0.840
      -0.669
      -0.499
      -0.336
      -0.182
      -0.041
       0.085
       0.193
       0.280
       0.346
       0.394
       0.428
       0.453
       0.469
       0.474
       0.467
       0.444
       0.403
       0.338
       0.250
       0.143
       0.026
      -0.092
      -0.207
      -0.318
      -0.424
      -0.523
      -0.608
      -0.670
      -0.701
      -0.701
      -0.673
      -0.624
      -0.560
      -0.483
      -0.396
      -0.302
      -0.206
      -0.112
      -0.021
       0.069
       0.157
       0.240
       0.314
       0.381
       0.440
       0.493
       0.538
       0.572
       0.593
       0.604
       0.613
       0.634
       0.674
       0.737
       0.815
       0.899
       0.982
       1.062
       1.142
       1.221
       1.297
       1.370
       1.436
       1.492
       1.532
       1.554
       1.557
       1.540
       1.503
       1.438
       1.338
       1.198
       1.023
       0.824
       0.613
       0.395
       0.172
      -0.057
      -0.286
      -0.509
      -0.719
      -0.908
      -1.072
      -1.210
      -1.325
      -1.417
      -1.481
      -1.514
      -1.516
      -1.494
      -1.459
      -1.421
      -1.385
      -1.346
      -1.298
      -1.230
      -1.138
      -1.024
      -0.896
      -0.763
      -0.628
      -0.495
      -0.362
      -0.224
      -0.074
       0.094
       0.281
       0.481
       0.682
       0.876
       1.055
       1.214
       1.351
       1.464
       1.549
       1.603
       1.627
       1.622
       1.589
       1.532
       1.447
       1.333
       1.185
       1.004
       0.793
       0.560
       0.314
       0.057
      -0.209
      -0.481
      -0.752
      -1.015
      -1.264
      -1.496
      -1.708
      -1.898
      -2.061
      -2.194
      -2.296
      -2.363
      -2.393
      -2.385
      -2.339
      -2.256
      -2.132
      -1.966
      -1.759
      -1.514
      -1.240
      -0.942
      -0.626
      -0.295
       0.046
       0.392
       0.739
       1.079
       1.401
       1.699
       1.968
       2.203
       2.400
       2.549
       2.645
       2.683
       2.663
       2.589
       2.463
       2.290
       2.070
       1.811
       1.522
       1.215
       0.904
       0.599
       0.304
       0.020
      -0.253
      -0.512
      -0.753
      -0.974
      -1.169
      -1.336
      -1.473
      -1.583
      -1.669
      -1.731
      -1.770
      -1.784
      -1.774
      -1.740
      -1.683
      -1.609
      -1.525
      -1.435
      -1.342
      -1.244
      -1.142
      -1.036
      -0.930
      -0.825
      -0.714
      -0.588
      -0.439
      -0.270
      -0.094
       0.078
       0.238
       0.387
       0.522
       0.641
       0.740
       0.818
       0.879
       0.933
       0.984
       1.028
       1.055
       1.055
       1.026
       0.974
       0.910
       0.842
       0.772
       0.698
       0.620
       0.544
       0.473
       0.411
       0.352
       0.291
       0.224
       0.155
       0.092
       0.041
       0.001
      -0.030
      -0.053
      -0.067
      -0.066
      -0.050
      -0.027
      -0.008
       0.000
      -0.003
      -0.010
      -0.020
      -0.036
      -0.063
      -0.099
      -0.137
      -0.173
      -0.208
      -0.248
      -0.299
      -0.362
      -0.428
      -0.490
      -0.542
      -0.587
      -0.626
      -0.660
      -0.686
      -0.698
      -0.689
      -0.657
      -0.599
      -0.516
      -0.409
      -0.278
      -0.123
       0.050
       0.235
       0.424
       0.609
       0.783
       0.944
       1.088
       1.213
       1.316
       1.395
       1.449
       1.476
       1.475
       1.447
       1.399
       1.339
       1.273
       1.198
       1.109
       1.002
       0.882
       0.756
       0.630
       0.505
       0.377
       0.246
       0.118
      -0.001
      -0.106
      -0.198
      -0.285
      -0.377
      -0.478
      -0.588
      -0.706
      -0.832
      -0.964
      -1.099
      -1.231
      -1.354
      -1.465
      -1.565
      -1.651
      -1.721
      -1.767
      -1.785
      -1.774
      -1.735
      -1.665
      -1.563
      -1.424
      -1.247
      -1.034
      -0.791
      -0.527
      -0.250
       0.028
       0.302
       0.565
       0.812
       1.039
       1.243
       1.420
       1.568
       1.679
       1.747
       1.768
       1.740
       1.670
       1.570
       1.453
       1.329
       1.201
       1.067
       0.922
       0.773
       0.627
       0.496
       0.383
       0.287
       0.204
       0.135
       0.081
       0.043
       0.018
      -0.002
      -0.030
      -0.073
      -0.136
      -0.213
      -0.294
      -0.372
      -0.442
      -0.510
      -0.586
      -0.673
      -0.766
      -0.856
      -0.930
      -0.982
      -1.010
      -1.009
      -0.971
      -0.892
      -0.773
      -0.621
      -0.450
      -0.269
      -0.086
       0.094
       0.266
       0.425
       0.564
       0.676
       0.757
       0.804
       0.817
       0.798
       0.751
       0.676
       0.577
       0.453
       0.306
       0.141
      -0.032
      -0.199
      -0.351
      -0.478
      -0.575
      -0.642
      -0.679
      -0.691
      -0.679
      -0.644
      -0.582
      -0.489
      -0.372
      -0.238
      -0.102
       0.026
       0.140
       0.235
       0.309
       0.361
       0.392
       0.410
       0.415
       0.408
       0.386
       0.349
       0.306
       0.268
       0.242
       0.230
       0.228
       0.229
       0.227
       0.220
       0.209
       0.198
       0.189
       0.183
       0.177
       0.166
       0.147
       0.118
       0.080
       0.032
      -0.029
      -0.106
      -0.197
      -0.298
      -0.402
      -0.509
      -0.618
      -0.729
      -0.840
      -0.950
      -1.054
      -1.144
      -1.216
      -1.264
      -1.286
      -1.282
      -1.251
      -1.196
      -1.121
      -1.029
      -0.924
      -0.808
      -0.681
      -0.547
      -0.410
      -0.276
      -0.151
      -0.036
       0.068
       0.158
       0.228
       0.272
       0.288
       0.279
       0.253
       0.216
       0.170
       0.117
       0.059
      -0.001
      -0.059
      -0.111
      -0.156
      -0.192
      -0.219
      -0.233
      -0.232
      -0.216
      -0.185
      -0.142
      -0.090
      -0.029
       0.043
       0.124
       0.212
       0.302
       0.390
       0.468
       0.525
       0.554
       0.555
       0.536
       0.509
       0.485
       0.464
       0.441
       0.417
       0.397
       0.387
       0.388
       0.393
       0.399
       0.401
       0.405
       0.415
       0.430
       0.450
       0.467
       0.481
       0.489
       0.494
       0.494
       0.488
       0.470
       0.435
       0.378
       0.299
       0.201
       0.090
      -0.025
      -0.136
      -0.241
      -0.339
      -0.431
      -0.515
      -0.587
      -0.645
      -0.690
      -0.718
      -0.724
      -0.699
      -0.642
      -0.555
      -0.446
      -0.325
      -0.199
      -0.070
       0.065
       0.205
       0.348
       0.487
       0.613
       0.723
       0.822
       0.912
       0.993
       1.063
       1.111
       1.130
       1.114
       1.064
       0.986
       0.891
       0.788
       0.685
       0.583
       0.479
       0.373
       0.266
       0.158
       0.047
      -0.074
      -0.206
      -0.345
      -0.484
      -0.615
      -0.738
      -0.851
      -0.951
      -1.035
      -1.103
      -1.153
      -1.185
      -1.200
      -1.197
      -1.178
      -1.145
      -1.096
      -1.033
      -0.957
      -0.869
      -0.769
      -0.656
      -0.527
      -0.381
      -0.222
      -0.053
       0.119
       0.291
       0.460
       0.623
       0.773
       0.900
       0.997
       1.059
       1.091
       1.101
       1.096
       1.074
