Origin Time       17/9/2010 19:21:09	
Lat.              36.5 N	
Long.             70.8 E	
Depth (Km)        167.0
Magnitude         6.5
 Region           Hindukush                                                        
 Above details taken from IMD 
     
Station Code      KSL
Station Lat.       30.899  N
Station Long.      76.960  E
Station Height(m) 1802.0
Site Class        B   Vs30 between 375 m/sec to 700 m/sec *  
Record Time       17.09.2010 19:23:55.129
Sampling Rate     200. Hz
 Record Duration   88.340 Sec.
 Direction         E-W (E positive)
Max. Acceleration     -2.988 cm/sec**2
     
  * For reference see Site Classification link of website 
     
 Base Line Corrected and Low Pass Filtered (Cut Off at 35 Hz) Time History
 Acceleration data in cm/sec**2
    
[...]
      -0.247
      -0.199
      -0.157
      -0.123
      -0.095
      -0.067
      -0.039
      -0.011
       0.011
       0.023
       0.022
       0.011
      -0.007
      -0.027
      -0.047
      -0.068
      -0.089
      -0.110
      -0.128
      -0.143
      -0.152
      -0.156
      -0.155
      -0.147
      -0.132
      -0.109
      -0.083
      -0.058
      -0.038
      -0.020
      -0.002
       0.019
       0.045
       0.073
       0.097
       0.112
       0.118
       0.119
       0.120
       0.122
       0.122
       0.114
       0.101
       0.086
       0.073
       0.062
       0.054
       0.050
       0.053
       0.064
       0.084
       0.107
       0.127
       0.141
       0.155
       0.172
       0.194
       0.212
       0.219
       0.209
       0.183
       0.147
       0.107
       0.065
       0.026
      -0.013
      -0.054
      -0.100
      -0.152
      -0.206
      -0.252
      -0.287
      -0.313
      -0.335
      -0.360
      -0.383
      -0.397
      -0.391
      -0.365
      -0.327
      -0.288
      -0.254
      -0.228
      -0.207
      -0.190
      -0.176
      -0.164
      -0.158
      -0.159
      -0.169
      -0.185
      -0.201
      -0.209
      -0.208
      -0.203
      -0.201
      -0.202
      -0.204
      -0.200
      -0.187
      -0.167
      -0.143
      -0.119
      -0.091
      -0.058
      -0.017
       0.027
       0.067
       0.095
       0.111
       0.122
       0.134
       0.147
       0.158
       0.161
       0.157
       0.150
       0.146
       0.148
       0.153
       0.155
       0.152
       0.147
       0.145
       0.150
       0.166
       0.187
       0.210
       0.232
       0.252
       0.274
       0.296
       0.310
       0.314
       0.309
       0.298
       0.283
       0.262
       0.231
       0.192
       0.149
       0.104
       0.058
       0.010
      -0.041
      -0.092
      -0.142
      -0.189
      -0.233
      -0.271
      -0.299
      -0.316
      -0.323
      -0.321
      -0.313
      -0.300
      -0.280
      -0.252
      -0.217
      -0.177
      -0.136
      -0.092
      -0.043
       0.015
       0.082
       0.157
       0.233
       0.304
       0.367
       0.419
       0.460
       0.492
       0.518
       0.540
       0.560
       0.572
       0.573
       0.557
       0.525
       0.482
       0.433
       0.385
       0.342
       0.306
       0.274
       0.242
       0.211
       0.181
       0.158
       0.143
       0.135
       0.126
       0.113
       0.096
       0.076
       0.057
       0.039
       0.020
      -0.004
      -0.037
      -0.080
      -0.132
      -0.192
      -0.255
      -0.316
      -0.372
      -0.419
      -0.459
      -0.496
      -0.531
      -0.562
      -0.584
      -0.591
      -0.581
      -0.554
      -0.515
      -0.469
      -0.417
      -0.358
      -0.293
      -0.227
      -0.162
      -0.099
      -0.039
       0.018
       0.072
       0.118
       0.157
       0.188
       0.216
       0.242
       0.271
       0.302
       0.333
       0.361
       0.382
       0.395
       0.403
       0.409
       0.417
       0.428
       0.440
       0.449
       0.454
       0.454
       0.448
       0.435
       0.413
       0.379
       0.337
       0.290
       0.238
       0.184
       0.125
       0.065
       0.005
      -0.049
      -0.098
      -0.140
      -0.179
      -0.215
      -0.249
      -0.281
      -0.309
      -0.329
      -0.341
      -0.347
      -0.351
      -0.360
      -0.374
      -0.391
      -0.406
      -0.420
      -0.436
      -0.457
      -0.486
      -0.520
      -0.554
      -0.582
      -0.598
      -0.601
      -0.592
      -0.575
      -0.554
      -0.525
      -0.487
      -0.438
      -0.379
      -0.312
      -0.239
      -0.159
      -0.071
       0.022
       0.114
       0.199
       0.269
       0.325
       0.372
       0.415
       0.455
       0.488
       0.508
       0.514
       0.512
       0.506
       0.498
       0.481
       0.452
       0.414
       0.374
       0.338
       0.308
       0.279
       0.248
       0.213
       0.174
       0.133
       0.089
       0.044
      -0.001
      -0.045
      -0.089
      -0.136
      -0.185
      -0.236
      -0.286
      -0.338
      -0.392
      -0.448
      -0.503
      -0.554
      -0.597
      -0.628
      -0.646
      -0.649
      -0.638
      -0.611
      -0.567
      -0.510
      -0.446
      -0.378
      -0.307
      -0.230
      -0.147
      -0.062
       0.024
       0.107
       0.187
       0.262
       0.331
       0.389
       0.434
       0.465
       0.485
       0.496
       0.502
       0.503
       0.502
       0.500
       0.497
       0.490
       0.478
       0.461
       0.443
       0.427
       0.415
       0.404
       0.392
       0.379
       0.365
       0.353
       0.343
       0.336
       0.329
       0.315
       0.292
       0.258
       0.217
       0.172
       0.122
       0.064
      -0.005
      -0.083
      -0.166
      -0.247
      -0.325
      -0.402
      -0.481
      -0.563
      -0.641
      -0.705
      -0.748
      -0.772
      -0.781
      -0.781
      -0.772
      -0.756
      -0.730
      -0.696
      -0.654
      -0.608
      -0.563
      -0.521
      -0.483
      -0.444
      -0.403
      -0.358
      -0.315
      -0.274
      -0.236
      -0.198
      -0.161
      -0.124
      -0.085
      -0.045
      -0.004
       0.034
       0.071
       0.107
       0.148
       0.191
       0.235
       0.277
       0.316
       0.352
       0.387
       0.417
       0.442
       0.460
       0.475
       0.489
       0.503
       0.517
       0.530
       0.541
       0.549
       0.550
       0.540
       0.520
       0.495
       0.466
       0.435
       0.395
       0.345
       0.287
       0.226
       0.169
       0.117
       0.070
       0.024
      -0.024
      -0.071
      -0.112
      -0.143
      -0.163
      -0.176
      -0.183
      -0.185
      -0.184
      -0.180
      -0.173
      -0.164
      -0.149
      -0.128
      -0.101
      -0.072
      -0.045
      -0.023
      -0.004
       0.014
       0.035
       0.059
       0.083
       0.102
       0.118
       0.133
       0.150
       0.170
       0.189
       0.201
       0.202
       0.194
       0.184
       0.177
       0.174
       0.169
       0.159
       0.142
       0.122
       0.103
       0.088
       0.075
       0.064
       0.057
       0.054
       0.051
       0.045
       0.032
       0.014
      -0.006
      -0.026
      -0.045
      -0.063
      -0.082
      -0.103
      -0.128
      -0.159
      -0.190
      -0.218
      -0.238
      -0.250
      -0.258
      -0.264
      -0.267
      -0.264
      -0.253
      -0.235
      -0.211
      -0.178
      -0.130
      -0.064
       0.013
       0.091
       0.163
       0.231
       0.299
       0.373
       0.452
       0.529
       0.598
       0.654
       0.699
       0.738
       0.774
       0.807
       0.832
       0.847
       0.848
       0.837
       0.815
       0.786
       0.754
       0.719
       0.684
       0.650
       0.617
       0.584
       0.543
       0.492
       0.429
       0.359
       0.288
       0.216
       0.143
       0.070
       0.002
      -0.060
      -0.115
      -0.168
      -0.222
      -0.274
      -0.324
      -0.371
      -0.416
      -0.463
      -0.509
      -0.552
      -0.590
      -0.624
      -0.656
      -0.687
      -0.717
      -0.746
      -0.772
      -0.793
      -0.804
      -0.803
      -0.791
      -0.774
      -0.752
      -0.723
      -0.685
      -0.639
      -0.590
      -0.544
      -0.499
      -0.449
      -0.391
      -0.329
      -0.269
      -0.216
      -0.169
      -0.127
      -0.087
      -0.051
      -0.020
       0.007
       0.033
       0.062
       0.098
       0.141
       0.189
       0.241
       0.293
       0.347
       0.406
       0.471
       0.541
       0.612
       0.680
       0.742
       0.795
       0.841
       0.877
       0.903
       0.917
       0.916
       0.899
       0.865
       0.818
       0.759
       0.693
       0.622
       0.547
       0.470
       0.393
       0.318
       0.249
       0.188
       0.137
       0.094
       0.058
       0.026
      -0.004
      -0.032
      -0.062
      -0.094
      -0.129
      -0.168
      -0.212
      -0.263
      -0.322
      -0.391
      -0.467
      -0.546
      -0.626
      -0.707
      -0.790
      -0.872
      -0.951
      -1.023
      -1.083
      -1.134
      -1.177
      -1.217
      -1.252
      -1.277
      -1.285
      -1.275
      -1.252
      -1.225
      -1.196
      -1.164
      -1.128
      -1.087
      -1.043
      -0.997
      -0.950
      -0.905
      -0.862
      -0.820
      -0.777
      -0.733
      -0.690
      -0.645
      -0.596
      -0.538
      -0.469
      -0.391
      -0.306
      -0.220
      -0.135
      -0.053
       0.030
       0.115
       0.205
       0.297
       0.386
       0.467
       0.540
       0.606
       0.667
       0.723
       0.777
       0.828
       0.877
       0.922
       0.959
       0.987
       1.010
       1.030
       1.048
       1.065
       1.078
       1.086
       1.090
       1.095
       1.101
       1.108
       1.114
       1.117
       1.115
       1.110
       1.104
       1.094
       1.080
       1.059
       1.031
       0.999
       0.964
       0.924
       0.875
       0.814
       0.741
       0.659
       0.573
       0.484
       0.393
       0.300
       0.200
       0.094
      -0.018
      -0.132
      -0.244
      -0.357
      -0.473
      -0.595
      -0.724
      -0.856
      -0.988
      -1.117
      -1.240
      -1.356
      -1.468
      -1.579
      -1.691
      -1.800
      -1.901
      -1.987
      -2.058
      -2.116
      -2.165
      -2.206
      -2.237
      -2.253
      -2.252
      -2.232
      -2.194
      -2.139
      -2.071
      -1.987
      -1.885
      -1.761
      -1.618
      -1.463
      -1.299
      -1.129
      -0.948
      -0.755
      -0.552
      -0.342
      -0.130
       0.084
       0.296
       0.506
       0.709
       0.903
       1.091
       1.275
       1.457
       1.633
       1.799
       1.953
       2.094
       2.223
       2.339
       2.438
       2.517
       2.574
       2.611
       2.634
       2.647
       2.652
       2.647
       2.626
       2.586
       2.527
       2.450
       2.357
       2.254
       2.143
       2.030
       1.914
       1.797
       1.676
       1.553
       1.430
       1.304
       1.174
       1.037
       0.892
       0.742
       0.590
       0.441
       0.299
       0.164
       0.032
      -0.100
      -0.232
      -0.360
      -0.476
      -0.577
      -0.668
      -0.754
      -0.841
      -0.924
      -1.000
      -1.064
      -1.121
      -1.176
      -1.233
      -1.292
      -1.351
      -1.409
      -1.467
      -1.528
      -1.594
      -1.667
      -1.747
      -1.830
      -1.911
      -1.984
      -2.048
      -2.103
      -2.149
      -2.186
      -2.209
      -2.216
      -2.204
      -2.173
      -2.125
      -2.062
      -1.983
      -1.892
      -1.789
      -1.675
      -1.549
      -1.413
      -1.270
      -1.123
      -0.975
      -0.828
      -0.681
      -0.537
      -0.397
      -0.261
      -0.134
      -0.014
       0.099
       0.208
       0.313
       0.417
       0.518
       0.616
       0.710
       0.800
       0.887
       0.970
       1.049
       1.120
       1.181
       1.230
       1.269
       1.301
       1.326
       1.341
       1.341
       1.323
       1.288
       1.240
       1.183
       1.116
       1.038
       0.949
       0.853
       0.757
       0.661
       0.557
       0.443
       0.322
       0.204
       0.099
       0.013
      -0.056
      -0.108
      -0.143
      -0.157
      -0.149
      -0.119
      -0.065
       0.011
       0.105
       0.214
       0.333
       0.460
       0.593
       0.731
       0.869
       1.003
       1.126
       1.234
       1.320
       1.384
       1.426
       1.447
       1.448
       1.429
       1.388
       1.323
       1.233
       1.117
       0.981
       0.828
       0.665
       0.492
       0.308
       0.111
      -0.096
      -0.309
      -0.523
      -0.737
      -0.947
      -1.149
      -1.339
      -1.517
      -1.685
      -1.840
      -1.979
      -2.097
      -2.192
      -2.269
      -2.332
      -2.381
      -2.407
      -2.403
      -2.365
      -2.298
      -2.209
      -2.099
      -1.967
      -1.809
      -1.626
      -1.421
      -1.201
      -0.969
      -0.730
      -0.493
      -0.261
      -0.036
       0.185
       0.405
       0.619
       0.822
       1.009
       1.180
       1.337
       1.479
       1.605
       1.711
       1.795
       1.856
       1.896
       1.917
       1.920
       1.908
       1.882
       1.845
       1.798
       1.742
       1.680
       1.617
       1.561
       1.515
       1.481
       1.455
       1.434
       1.415
       1.397
       1.382
       1.368
       1.352
       1.333
       1.307
       1.274
       1.228
       1.169
       1.095
       1.004
       0.897
       0.772
       0.632
       0.481
       0.324
       0.159
      -0.016
      -0.201
      -0.395
      -0.592
      -0.790
      -0.988
      -1.193
      -1.406
      -1.623
      -1.837
      -2.037
      -2.218
      -2.383
      -2.533
      -2.668
      -2.785
      -2.879
      -2.948
      -2.985
      -2.988
      -2.952
      -2.878
      -2.766
      -2.616
      -2.427
      -2.199
      -1.933
      -1.637
      -1.316
      -0.977
      -0.628
      -0.273
       0.083
       0.436
       0.784
       1.120
       1.438
       1.731
       1.996
       2.229
       2.425
       2.581
       2.696
       2.776
       2.826
       2.847
       2.836
       2.787
       2.702
       2.586
       2.448
       2.298
       2.135
       1.954
       1.755
       1.544
       1.330
       1.119
       0.912
       0.702
       0.485
       0.262
       0.035
      -0.193
      -0.418
      -0.635
      -0.840
      -1.033
      -1.213
      -1.379
      -1.530
      -1.662
      -1.772
      -1.861
      -1.925
      -1.963
      -1.976
      -1.966
      -1.934
      -1.878
      -1.799
      -1.699
      -1.586
      -1.467
      -1.345
      -1.222
      -1.103
      -0.992
      -0.895
      -0.816
      -0.755
      -0.707
      -0.665
      -0.628
      -0.595
      -0.572
      -0.561
      -0.562
      -0.571
      -0.581
      -0.586
      -0.578
      -0.554
      -0.510
      -0.449
      -0.374
      -0.286
      -0.187
      -0.071
       0.064
       0.216
       0.378
       0.542
       0.706
       0.868
       1.028
       1.185
       1.332
       1.462
       1.574
       1.669
       1.751
       1.820
       1.874
       1.911
       1.933
       1.943
       1.945
       1.937
       1.918
       1.886
       1.843
       1.790
       1.726
       1.654
       1.573
       1.487
       1.397
       1.302
       1.197
       1.079
       0.947
       0.801
       0.644
       0.480
       0.311
       0.140
      -0.031
      -0.199
      -0.364
      -0.523
      -0.673
      -0.811
      -0.929
      -1.025
      -1.099
      -1.153
      -1.194
      -1.221
      -1.235
      -1.232
      -1.213
      -1.181
      -1.139
      -1.092
      -1.042
      -0.992
      -0.945
      -0.906
      -0.878
      -0.865
      -0.864
      -0.869
      -0.877
      -0.886
      -0.900
      -0.916
      -0.931
      -0.942
      -0.947
      -0.944
      -0.931
      -0.905
      -0.863
      -0.802
      -0.726
      -0.640
      -0.548
      -0.450
      -0.343
      -0.229
      -0.110
       0.012
       0.139
       0.270
       0.400
       0.522
       0.630
       0.726
       0.806
       0.867
       0.904
       0.916
       0.906
       0.876
       0.823
       0.746
       0.648
       0.537
       0.420
       0.303
       0.187
       0.072
      -0.040
      -0.145
      -0.236
      -0.311
      -0.368
      -0.409
      -0.435
      -0.447
      -0.448
      -0.436
      -0.415
      -0.391
      -0.368
      -0.347
      -0.329
      -0.312
      -0.300
      -0.296
      -0.301
      -0.317
      -0.338
      -0.359
      -0.379
      -0.399
      -0.418
      -0.433
      -0.438
      -0.430
      -0.409
      -0.375
      -0.323
      -0.248
      -0.146
      -0.022
       0.116
       0.258
       0.395
       0.524
       0.643
       0.753
       0.852
       0.934
       0.995
       1.030
       1.036
       1.011
       0.953
       0.865
       0.746
       0.603
       0.445
       0.283
       0.131
      -0.006
      -0.128
      -0.239
      -0.337
      -0.418
      -0.477
      -0.512
      -0.526
      -0.526
      -0.518
      -0.503
      -0.479
      -0.447
      -0.407
      -0.368
      -0.336
      -0.318
      -0.313
      -0.319
      -0.333
      -0.355
      -0.384
      -0.418
      -0.453
      -0.487
      -0.520
      -0.550
      -0.575
      -0.592
      -0.601
      -0.603
      -0.599
      -0.588
      -0.566
      -0.528
      -0.475
      -0.410
      -0.338
      -0.263
      -0.184
      -0.102
      -0.017
       0.070
       0.159
       0.248
       0.340
       0.434
       0.533
       0.636
       0.743
       0.848
       0.950
       1.045
       1.136
       1.225
       1.312
       1.399
       1.484
       1.568
       1.652
       1.734
       1.808
       1.868
       1.909
       1.936
       1.953
       1.963
       1.962
       1.945
       1.908
       1.851
       1.774
       1.677
       1.557
       1.410
       1.236
       1.034
       0.808
       0.564
       0.309
       0.048
      -0.216
      -0.482
      -0.748
      -1.014
      -1.274
      -1.525
      -1.758
      -1.966
      -2.146
      -2.298
      -2.422
      -2.522
      -2.600
      -2.653
      -2.678
      -2.671
      -2.631
      -2.562
      -2.470
      -2.360
      -2.234
      -2.090
      -1.928
      -1.751
      -1.566
      -1.380
      -1.195
      -1.012
      -0.831
      -0.654
      -0.481
      -0.309
      -0.135
       0.039
       0.213
       0.386
       0.558
       0.730
       0.898
       1.060
       1.215
       1.365
       1.512
       1.657
       1.792
       1.915
       2.021
       2.110
       2.180
       2.225
       2.241
       2.228
       2.189
       2.127
       2.047
       1.950
       1.839
       1.717
       1.585
       1.447
       1.304
       1.160
       1.015
       0.871
       0.728
       0.589
       0.457
       0.335
       0.220
       0.111
       0.004
      -0.098
      -0.194
      -0.279
      -0.355
      -0.424
      -0.491
      -0.562
      -0.634
      -0.703
      -0.767
      -0.824
      -0.878
      -0.931
      -0.981
      -1.026
      -1.065
      -1.104
      -1.148
      -1.201
      -1.259
      -1.316
      -1.366
      -1.403
      -1.430
      -1.451
      -1.470
      -1.487
      -1.499
      -1.503
      -1.495
      -1.474
      -1.439
      -1.389
      -1.325
      -1.248
      -1.158
      -1.054
      -0.934
      -0.801
      -0.658
      -0.513
      -0.366
      -0.217
      -0.062
       0.097
