Origin Time       04/04/2011 11:31:40
Lat.              29.6 N	
Long.             80.8 E	
Depth (Km)         10.0
Magnitude         5.7
 Region           NEPAL-INDIA-BORDER-REGION                                        
 Above details taken from IMD 
     
Station Code      KSH
Station Lat.       29.211  N
Station Long.      78.960  E
Station Height(m)  216.0
Site Class        C   Vs30 between 200 m/sec to 375 m/sec *  
Record Time       04.04.2011 11:20:13.934
Sampling Rate     200. Hz
 Record Duration   69.090 Sec.
 Direction         E-W (E positive)
Max. Acceleration      8.823 cm/sec**2
     
  * For reference see Site Classification link of website 
     
 Base Line Corrected and Low Pass Filtered (Cut Off at 35 Hz) Time History
 Acceleration data in cm/sec**2
    
[...]
       0.209
       0.163
       0.112
       0.063
       0.031
       0.029
       0.067
       0.145
       0.261
       0.403
       0.545
       0.654
       0.712
       0.721
       0.692
       0.628
       0.522
       0.376
       0.201
       0.024
      -0.132
      -0.243
      -0.304
      -0.321
      -0.318
      -0.311
      -0.301
      -0.274
      -0.220
      -0.147
      -0.071
       0.000
       0.063
       0.115
       0.153
       0.182
       0.214
       0.262
       0.325
       0.383
       0.417
       0.415
       0.382
       0.333
       0.293
       0.278
       0.286
       0.294
       0.277
       0.228
       0.167
       0.124
       0.121
       0.168
       0.255
       0.360
       0.463
       0.542
       0.586
       0.590
       0.553
       0.474
       0.360
       0.226
       0.083
      -0.060
      -0.201
      -0.338
      -0.457
      -0.538
      -0.561
      -0.513
      -0.391
      -0.203
       0.025
       0.250
       0.421
       0.498
       0.462
       0.315
       0.080
      -0.204
      -0.488
      -0.729
      -0.893
      -0.954
      -0.902
      -0.738
      -0.483
      -0.180
       0.124
       0.387
       0.588
       0.717
       0.777
       0.774
       0.711
       0.591
       0.420
       0.217
       0.010
      -0.166
      -0.285
      -0.332
      -0.308
      -0.234
      -0.140
      -0.056
       0.001
       0.027
       0.030
       0.014
      -0.018
      -0.068
      -0.135
      -0.219
      -0.322
      -0.445
      -0.579
      -0.705
      -0.797
      -0.832
      -0.792
      -0.670
      -0.465
      -0.203
       0.069
       0.280
       0.371
       0.325
       0.174
      -0.009
      -0.143
      -0.180
      -0.115
       0.017
       0.166
       0.295
       0.383
       0.434
       0.461
       0.481
       0.508
       0.539
       0.557
       0.534
       0.454
       0.317
       0.134
      -0.075
      -0.284
      -0.461
      -0.569
      -0.582
      -0.498
      -0.347
      -0.175
      -0.023
       0.094
       0.181
       0.249
       0.294
       0.304
       0.266
       0.180
       0.065
      -0.050
      -0.139
      -0.185
      -0.188
      -0.160
      -0.119
      -0.077
      -0.035
       0.010
       0.050
       0.067
       0.037
      -0.043
      -0.159
      -0.280
      -0.380
      -0.445
      -0.473
      -0.467
      -0.429
      -0.363
      -0.277
      -0.171
      -0.046
       0.100
       0.261
       0.421
       0.559
       0.654
       0.691
       0.666
       0.591
       0.487
       0.374
       0.258
       0.137
       0.011
      -0.106
      -0.192
      -0.226
      -0.201
      -0.133
      -0.056
      -0.002
       0.018
       0.022
       0.037
       0.072
       0.106
       0.107
       0.058
      -0.025
      -0.105
      -0.149
      -0.157
      -0.160
      -0.195
      -0.273
      -0.364
      -0.419
      -0.399
      -0.306
      -0.171
      -0.037
       0.066
       0.131
       0.164
       0.172
       0.151
       0.091
      -0.005
      -0.109
      -0.182
      -0.195
      -0.143
      -0.046
       0.073
       0.198
       0.323
       0.449
       0.574
       0.678
       0.724
       0.685
       0.561
       0.385
       0.201
       0.038
      -0.098
      -0.208
      -0.289
      -0.335
      -0.340
      -0.310
      -0.255
      -0.186
      -0.111
      -0.039
       0.021
       0.061
       0.075
       0.063
       0.033
      -0.007
      -0.042
      -0.065
      -0.077
      -0.082
      -0.081
      -0.071
      -0.045
       0.004
       0.075
       0.161
       0.246
       0.315
       0.358
       0.376
       0.371
       0.337
       0.259
       0.129
      -0.035
      -0.199
      -0.332
      -0.421
      -0.460
      -0.441
      -0.356
      -0.211
      -0.035
       0.132
       0.256
       0.317
       0.317
       0.279
       0.230
       0.187
       0.137
       0.047
      -0.103
      -0.293
      -0.470
      -0.577
      -0.583
      -0.494
      -0.344
      -0.177
      -0.029
       0.082
       0.155
       0.192
       0.188
       0.131
       0.022
      -0.112
      -0.222
      -0.272
      -0.250
      -0.176
      -0.077
       0.023
       0.107
       0.165
       0.194
       0.200
       0.187
       0.152
       0.079
      -0.043
      -0.213
      -0.417
      -0.631
      -0.821
      -0.959
      -1.025
      -1.020
      -0.954
      -0.842
      -0.697
      -0.530
      -0.357
      -0.190
      -0.044
       0.059
       0.088
       0.023
      -0.131
      -0.338
      -0.551
      -0.732
      -0.856
      -0.915
      -0.908
      -0.844
      -0.733
      -0.582
      -0.402
      -0.218
      -0.067
       0.015
       0.018
      -0.033
      -0.092
      -0.113
      -0.064
       0.061
       0.251
       0.475
       0.699
       0.901
       1.064
       1.173
       1.201
       1.123
       0.939
       0.677
       0.376
       0.072
      -0.206
      -0.433
      -0.589
      -0.672
      -0.694
      -0.674
      -0.622
      -0.548
      -0.462
      -0.384
      -0.333
      -0.324
      -0.369
      -0.476
      -0.636
      -0.818
      -0.980
      -1.089
      -1.126
      -1.082
      -0.956
      -0.763
      -0.536
      -0.315
      -0.133
      -0.006
       0.061
       0.070
       0.036
      -0.017
      -0.064
      -0.092
      -0.100
      -0.088
      -0.061
      -0.031
      -0.023
      -0.058
      -0.138
      -0.241
      -0.341
      -0.423
      -0.483
      -0.517
      -0.517
      -0.480
      -0.417
      -0.345
      -0.278
      -0.230
      -0.210
      -0.218
      -0.233
      -0.224
      -0.164
      -0.056
       0.074
       0.195
       0.282
       0.330
       0.345
       0.341
       0.339
       0.350
       0.377
       0.414
       0.455
       0.502
       0.555
       0.613
       0.672
       0.734
       0.801
       0.878
       0.966
       1.069
       1.187
       1.311
       1.426
       1.512
       1.553
       1.537
       1.451
       1.293
       1.082
       0.861
       0.674
       0.546
       0.480
       0.463
       0.476
       0.500
       0.518
       0.520
       0.499
       0.448
       0.360
       0.238
       0.105
       0.004
      -0.036
      -0.018
       0.017
       0.026
      -0.008
      -0.068
      -0.117
      -0.111
      -0.023
       0.152
       0.381
       0.612
       0.793
       0.892
       0.898
       0.815
       0.661
       0.464
       0.255
       0.056
      -0.128
      -0.304
      -0.470
      -0.610
      -0.705
      -0.759
      -0.804
      -0.883
      -1.019
      -1.208
      -1.420
      -1.623
      -1.780
      -1.860
      -1.833
      -1.684
      -1.425
      -1.097
      -0.756
      -0.453
      -0.219
      -0.061
       0.028
       0.061
       0.054
       0.012
      -0.070
      -0.197
      -0.362
      -0.538
      -0.690
      -0.788
      -0.826
      -0.825
      -0.818
      -0.838
      -0.897
      -0.994
      -1.118
      -1.255
      -1.393
      -1.520
      -1.626
      -1.705
      -1.750
      -1.758
      -1.737
      -1.707
      -1.682
      -1.661
      -1.632
      -1.587
      -1.538
      -1.516
      -1.554
      -1.664
      -1.830
      -2.018
      -2.184
      -2.282
      -2.275
      -2.141
      -1.885
      -1.538
      -1.138
      -0.722
      -0.320
       0.043
       0.352
       0.596
       0.774
       0.882
       0.927
       0.922
       0.888
       0.843
       0.788
       0.719
       0.639
       0.562
       0.512
       0.503
       0.538
       0.603
       0.676
       0.727
       0.730
       0.673
       0.563
       0.418
       0.259
       0.112
       0.004
      -0.045
      -0.039
      -0.008
       0.009
      -0.021
      -0.111
      -0.254
      -0.427
      -0.596
      -0.729
      -0.805
      -0.816
      -0.768
      -0.673
      -0.550
      -0.425
      -0.310
      -0.202
      -0.078
       0.080
       0.274
       0.478
       0.656
       0.777
       0.826
       0.810
       0.751
       0.675
       0.599
       0.520
       0.419
       0.284
       0.129
      -0.007
      -0.074
      -0.031
       0.140
       0.438
       0.844
       1.326
       1.839
       2.331
       2.747
       3.047
       3.209
       3.243
       3.182
       3.062
       2.909
       2.728
       2.524
       2.304
       2.083
       1.874
       1.693
       1.566
       1.522
       1.585
       1.759
       2.027
       2.350
       2.680
       2.969
       3.181
       3.306
       3.353
       3.338
       3.278
       3.188
       3.084
       2.987
       2.907
       2.844
       2.790
       2.745
       2.709
       2.684
       2.664
       2.646
       2.633
       2.624
       2.611
       2.579
       2.517
       2.414
       2.250
       2.003
       1.657
       1.219
       0.724
       0.229
      -0.207
      -0.550
      -0.791
      -0.943
      -1.029
      -1.068
      -1.077
      -1.073
      -1.075
      -1.094
      -1.136
      -1.194
      -1.262
      -1.336
      -1.425
      -1.540
      -1.695
      -1.898
      -2.152
      -2.446
      -2.755
      -3.043
      -3.272
      -3.405
      -3.415
      -3.290
      -3.040
      -2.690
      -2.272
      -1.812
      -1.339
      -0.889
      -0.497
      -0.178
       0.075
       0.275
       0.431
       0.536
       0.581
       0.572
       0.535
       0.506
       0.525
       0.621
       0.796
       1.035
       1.308
       1.582
       1.817
       1.961
       1.963
       1.803
       1.513
       1.169
       0.858
       0.637
       0.521
       0.500
       0.550
       0.645
       0.744
       0.791
       0.726
       0.502
       0.099
      -0.465
      -1.136
      -1.844
      -2.521
      -3.122
      -3.623
      -4.004
      -4.250
      -4.352
      -4.327
      -4.214
      -4.065
      -3.930
      -3.838
      -3.793
      -3.781
      -3.786
      -3.797
      -3.804
      -3.794
      -3.749
      -3.644
      -3.453
      -3.147
      -2.686
      -2.043
      -1.217
      -0.249
       0.790
       1.823
       2.792
       3.665
       4.435
       5.111
       5.704
       6.221
       6.652
       6.977
       7.177
       7.250
       7.215
       7.090
       6.882
       6.576
       6.148
       5.579
       4.871
       4.054
       3.181
       2.298
       1.433
       0.592
      -0.221
      -0.982
      -1.641
      -2.128
      -2.371
      -2.331
      -2.018
      -1.494
      -0.858
      -0.207
       0.381
       0.863
       1.225
       1.473
       1.614
       1.647
       1.555
       1.314
       0.903
       0.318
      -0.430
      -1.310
      -2.282
      -3.291
      -4.271
      -5.143
      -5.835
      -6.293
      -6.489
      -6.412
      -6.056
      -5.423
      -4.538
      -3.458
      -2.275
      -1.100
      -0.036
       0.848
       1.517
       1.966
       2.195
       2.207
       2.012
       1.641
       1.144
       0.573
      -0.023
      -0.616
      -1.186
      -1.714
      -2.174
      -2.543
      -2.812
      -2.987
      -3.078
      -3.080
      -2.974
      -2.748
      -2.417
      -2.025
      -1.623
      -1.248
      -0.898
      -0.548
      -0.170
       0.244
       0.677
       1.096
       1.457
       1.715
       1.828
       1.766
       1.521
       1.099
       0.523
      -0.173
      -0.939
      -1.718
      -2.450
      -3.080
      -3.561
      -3.865
      -3.982
      -3.922
      -3.704
      -3.339
      -2.834
      -2.198
      -1.457
      -0.653
       0.170
       0.977
       1.740
       2.425
       2.992
       3.406
       3.639
       3.675
       3.508
       3.147
       2.623
       1.985
       1.296
       0.630
       0.063
      -0.344
      -0.567
      -0.623
      -0.557
      -0.412
      -0.221
      -0.007
       0.191
       0.318
       0.319
       0.165
      -0.124
      -0.481
      -0.808
      -1.008
      -1.027
      -0.856
      -0.522
      -0.060
       0.492
       1.084
       1.649
       2.104
       2.380
       2.442
       2.308
       2.035
       1.710
       1.425
       1.259
       1.266
       1.468
       1.856
       2.396
       3.036
       3.711
       4.351
       4.882
       5.229
       5.318
       5.090
       4.529
       3.669
       2.598
       1.431
       0.298
      -0.678
      -1.392
      -1.787
      -1.865
      -1.690
      -1.369
      -1.031
      -0.807
      -0.808
      -1.098
      -1.691
      -2.549
      -3.603
      -4.758
      -5.895
      -6.882
      -7.601
      -7.971
      -7.959
      -7.565
      -6.817
      -5.763
      -4.473
      -3.044
      -1.611
      -0.334
       0.629
       1.170
       1.262
       0.950
       0.325
      -0.506
      -1.420
      -2.286
      -2.979
      -3.406
      -3.529
      -3.360
      -2.957
      -2.405
      -1.798
      -1.226
      -0.755
      -0.432
      -0.284
      -0.325
      -0.550
      -0.927
      -1.401
      -1.901
      -2.350
      -2.669
      -2.789
      -2.673
      -2.330
      -1.802
      -1.146
      -0.423
       0.305
       0.966
       1.492
       1.832
       1.976
       1.957
       1.857
       1.789
       1.864
       2.153
       2.666
       3.374
       4.232
       5.187
       6.177
       7.121
       7.930
       8.522
       8.823
       8.783
       8.377
       7.622
       6.572
       5.296
       3.855
       2.294
       0.655
      -1.018
      -2.681
      -4.284
      -5.764
      -7.035
      -8.004
      -8.592
      -8.757
      -8.503
      -7.867
      -6.911
      -5.697
      -4.276
      -2.701
      -1.051
       0.573
       2.073
       3.384
       4.463
       5.274
       5.781
       5.962
       5.835
       5.462
       4.926
       4.305
       3.641
       2.948
       2.225
       1.472
       0.711
      -0.016
      -0.652
      -1.154
      -1.503
      -1.703
      -1.770
      -1.723
      -1.592
      -1.420
      -1.263
      -1.162
      -1.128
      -1.143
      -1.175
      -1.197
      -1.211
      -1.248
      -1.361
      -1.591
      -1.926
      -2.294
      -2.592
      -2.736
      -2.701
      -2.516
      -2.249
      -1.971
      -1.730
      -1.535
      -1.369
      -1.215
      -1.072
      -0.946
      -0.824
      -0.667
      -0.419
      -0.022
       0.569
       1.378
       2.397
       3.573
       4.808
       5.973
       6.924
       7.534
       7.720
       7.460
       6.794
       5.799
       4.561
       3.153
       1.646
       0.119
      -1.334
      -2.610
      -3.618
      -4.301
      -4.646
      -4.679
      -4.448
      -3.998
      -3.373
      -2.623
      -1.820
      -1.049
      -0.393
       0.094
       0.404
       0.562
       0.613
       0.596
       0.532
       0.417
       0.235
      -0.032
      -0.379
      -0.780
      -1.198
      -1.605
      -1.987
      -2.343
      -2.674
      -2.978
      -3.244
      -3.451
      -3.569
      -3.575
      -3.454
      -3.205
      -2.833
      -2.358
      -1.812
      -1.238
      -0.674
      -0.139
       0.373
       0.877
       1.391
       1.911
       2.421
       2.898
       3.325
       3.690
       3.988
       4.204
       4.322
       4.320
       4.179
       3.882
       3.433
       2.869
       2.269
       1.722
       1.292
       0.987
       0.768
       0.580
       0.409
       0.292
       0.298
       0.477
       0.815
       1.239
       1.654
       1.985
       2.193
       2.259
       2.175
       1.936
       1.549
       1.031
       0.414
      -0.261
      -0.949
      -1.602
      -2.181
      -2.656
      -3.005
      -3.224
      -3.325
      -3.329
      -3.258
      -3.112
      -2.879
      -2.546
      -2.111
      -1.592
      -1.023
      -0.438
       0.133
       0.670
       1.164
       1.608
       1.989
       2.282
       2.450
       2.450
       2.250
       1.841
       1.255
       0.555
      -0.188
      -0.920
      -1.616
      -2.264
      -2.847
      -3.332
      -3.665
      -3.789
      -3.655
      -3.240
      -2.571
      -1.725
      -0.809
       0.070
       0.842
       1.478
       1.978
       2.353
       2.617
       2.792
       2.897
       2.946
       2.941
       2.873
       2.727
       2.482
       2.114
       1.609
       0.976
       0.255
      -0.497
      -1.211
      -1.814
      -2.230
      -2.398
      -2.289
      -1.918
      -1.343
      -0.652
       0.048
       0.647
       1.047
       1.181
       1.023
       0.601
      -0.006
      -0.684
      -1.319
      -1.828
      -2.170
      -2.333
      -2.313
      -2.101
      -1.699
      -1.140
      -0.499
       0.114
       0.580
       0.815
       0.797
       0.568
       0.215
      -0.166
      -0.490
      -0.685
      -0.710
      -0.549
      -0.227
       0.210
       0.709
       1.227
       1.734
       2.203
       2.609
       2.931
       3.151
       3.257
       3.243
       3.121
       2.923
       2.686
       2.428
       2.134
       1.765
       1.293
       0.719
       0.088
      -0.531
      -1.072
      -1.499
      -1.820
      -2.063
      -2.231
      -2.284
      -2.157
      -1.816
      -1.293
      -0.674
      -0.069
       0.426
       0.732
       0.801
       0.617
       0.207
      -0.373
      -1.064
      -1.815
      -2.587
      -3.335
      -3.993
      -4.475
      -4.692
      -4.592
      -4.187
      -3.545
      -2.759
      -1.905
      -1.029
      -0.156
       0.692
       1.480
       2.164
       2.713
       3.111
       3.360
       3.460
       3.398
       3.153
       2.719
       2.120
       1.401
       0.618
      -0.187
      -0.968
      -1.666
      -2.193
      -2.467
      -2.446
      -2.150
      -1.650
      -1.033
      -0.375
       0.260
       0.815
       1.238
       1.485
       1.532
       1.382
       1.068
       0.656
       0.236
      -0.097
      -0.266
      -0.238
      -0.032
       0.279
       0.600
       0.835
       0.912
       0.798
       0.494
       0.029
      -0.547
      -1.187
      -1.852
      -2.507
      -3.100
      -3.549
      -3.755
      -3.628
      -3.114
      -2.209
      -0.967
       0.503
       2.047
       3.495
       4.684
       5.479
       5.780
       5.550
       4.837
       3.786
       2.600
       1.480
       0.573
      -0.052
      -0.397
      -0.510
      -0.445
      -0.250
       0.034
       0.367
       0.692
       0.944
       1.069
       1.048
       0.897
       0.654
       0.360
       0.056
      -0.207
      -0.379
      -0.419
      -0.308
      -0.055
       0.306
       0.721
       1.137
       1.517
       1.843
       2.103
       2.272
       2.313
       2.199
       1.941
       1.593
       1.231
       0.921
       0.701
       0.593
       0.607
       0.747
       0.990
       1.278
       1.525
       1.649
       1.607
       1.412
       1.115
       0.770
       0.426
       0.125
      -0.088
      -0.192
      -0.199
      -0.163
      -0.147
      -0.186
      -0.280
      -0.405
      -0.538
      -0.680
      -0.844
