Origin Time       22/10/2009 19:51:25 UTC
Lat.              36.5°N	
Long.             71.0°E	
Depth (Km)        168.0
Magnitude         6.3
 Region           HINDUKUSH-REGION-AFGHANISTAN                                     
 Above details taken from IMD 
    
Station Code      KSL
Station Lat.       30.899  N
Station Long.      76.960  E
Station Height(m) 1802.0
Site Class        B   Vs30 between 375 m/sec to 700 m/sec *  
Record Time       22.10.2009 19:54:22.274 UTC
Sampling Rate     200. Hz
 Record Duration   68.295 Sec.
 Direction         N-S (N positive)
Max. Acceleration      1.789 cm/sec**2
     
  * For reference see Site Classification link of website 
     
 Base Line Corrected and Low Pass Filtered (Cut Off at 35 Hz) Time History
 Acceleration data in cm/sec**2
    
[...]
       0.030
       0.060
       0.079
       0.087
       0.088
       0.086
       0.082
       0.076
       0.067
       0.056
       0.046
       0.037
       0.029
       0.023
       0.019
       0.016
       0.013
       0.012
       0.014
       0.024
       0.039
       0.056
       0.071
       0.081
       0.085
       0.083
       0.077
       0.068
       0.057
       0.045
       0.032
       0.021
       0.014
       0.009
       0.005
       0.001
      -0.004
      -0.009
      -0.014
      -0.021
      -0.027
      -0.027
      -0.016
       0.006
       0.038
       0.073
       0.104
       0.129
       0.147
       0.160
       0.165
       0.161
       0.146
       0.121
       0.090
       0.059
       0.031
       0.002
      -0.033
      -0.076
      -0.121
      -0.160
      -0.186
      -0.198
      -0.199
      -0.190
      -0.177
      -0.162
      -0.145
      -0.124
      -0.100
      -0.077
      -0.057
      -0.039
      -0.021
       0.000
       0.021
       0.039
       0.052
       0.060
       0.065
       0.066
       0.064
       0.059
       0.054
       0.052
       0.053
       0.053
       0.048
       0.039
       0.026
       0.012
      -0.002
      -0.015
      -0.022
      -0.019
      -0.007
       0.004
       0.008
       0.000
      -0.013
      -0.024
      -0.031
      -0.035
      -0.040
      -0.048
      -0.059
      -0.072
      -0.089
      -0.110
      -0.135
      -0.162
      -0.187
      -0.205
      -0.216
      -0.223
      -0.227
      -0.231
      -0.237
      -0.242
      -0.245
      -0.238
      -0.217
      -0.180
      -0.131
      -0.077
      -0.023
       0.027
       0.071
       0.108
       0.137
       0.159
       0.174
       0.183
       0.185
       0.180
       0.170
       0.155
       0.136
       0.112
       0.084
       0.056
       0.034
       0.017
       0.004
      -0.007
      -0.018
      -0.028
      -0.034
      -0.037
      -0.036
      -0.036
      -0.041
      -0.048
      -0.054
      -0.054
      -0.047
      -0.039
      -0.032
      -0.029
      -0.028
      -0.026
      -0.025
      -0.024
      -0.024
      -0.027
      -0.031
      -0.037
      -0.045
      -0.051
      -0.052
      -0.045
      -0.027
      -0.001
       0.030
       0.060
       0.088
       0.114
       0.140
       0.160
       0.168
       0.164
       0.152
       0.140
       0.136
       0.141
       0.151
       0.163
       0.174
       0.184
       0.194
       0.200
       0.199
       0.194
       0.187
       0.177
       0.162
       0.140
       0.112
       0.080
       0.045
       0.007
      -0.032
      -0.073
      -0.113
      -0.153
      -0.192
      -0.224
      -0.247
      -0.260
      -0.267
      -0.272
      -0.274
      -0.270
      -0.258
      -0.236
      -0.206
      -0.172
      -0.135
      -0.094
      -0.051
      -0.006
       0.037
       0.077
       0.110
       0.136
       0.153
       0.162
       0.167
       0.171
       0.175
       0.176
       0.172
       0.160
       0.144
       0.128
       0.119
       0.119
       0.129
       0.143
       0.159
       0.175
       0.188
       0.195
       0.194
       0.184
       0.167
       0.146
       0.124
       0.101
       0.077
       0.055
       0.038
       0.032
       0.037
       0.050
       0.062
       0.070
       0.071
       0.067
       0.060
       0.051
       0.043
       0.042
       0.048
       0.060
       0.074
       0.086
       0.091
       0.087
       0.071
       0.046
       0.018
      -0.008
      -0.027
      -0.040
      -0.051
      -0.063
      -0.079
      -0.100
      -0.124
      -0.147
      -0.166
      -0.176
      -0.174
      -0.158
      -0.131
      -0.099
      -0.064
      -0.028
       0.009
       0.043
       0.071
       0.090
       0.103
       0.110
       0.115
       0.120
       0.125
       0.131
       0.134
       0.131
       0.119
       0.096
       0.065
       0.029
      -0.005
      -0.032
      -0.050
      -0.057
      -0.058
      -0.054
      -0.046
      -0.037
      -0.028
      -0.024
      -0.024
      -0.026
      -0.026
      -0.020
      -0.007
       0.011
       0.028
       0.035
       0.028
       0.008
      -0.017
      -0.040
      -0.055
      -0.065
      -0.078
      -0.099
      -0.126
      -0.152
      -0.169
      -0.177
      -0.180
      -0.182
      -0.183
      -0.180
      -0.166
      -0.137
      -0.096
      -0.050
      -0.009
       0.022
       0.042
       0.053
       0.059
       0.062
       0.062
       0.061
       0.058
       0.055
       0.052
       0.043
       0.025
      -0.004
      -0.036
      -0.065
      -0.087
      -0.099
      -0.099
      -0.087
      -0.066
      -0.043
      -0.023
      -0.012
      -0.007
      -0.007
      -0.007
      -0.002
       0.011
       0.033
       0.060
       0.084
       0.101
       0.106
       0.101
       0.085
       0.063
       0.039
       0.016
      -0.001
      -0.011
      -0.012
      -0.005
       0.009
       0.022
       0.029
       0.029
       0.021
       0.010
      -0.001
      -0.007
      -0.002
       0.017
       0.044
       0.068
       0.079
       0.070
       0.048
       0.023
       0.004
      -0.008
      -0.016
      -0.024
      -0.029
      -0.028
      -0.020
      -0.011
      -0.009
      -0.017
      -0.035
      -0.056
      -0.073
      -0.083
      -0.083
      -0.076
      -0.064
      -0.048
      -0.029
      -0.008
       0.008
       0.019
       0.024
       0.029
       0.039
       0.056
       0.081
       0.111
       0.141
       0.163
       0.172
       0.168
       0.155
       0.137
       0.119
       0.104
       0.094
       0.088
       0.084
       0.079
       0.073
       0.060
       0.041
       0.015
      -0.014
      -0.040
      -0.059
      -0.069
      -0.073
      -0.073
      -0.070
      -0.064
      -0.054
      -0.043
      -0.035
      -0.035
      -0.042
      -0.055
      -0.071
      -0.091
      -0.117
      -0.148
      -0.182
      -0.213
      -0.234
      -0.247
      -0.258
      -0.274
      -0.299
      -0.333
      -0.371
      -0.408
      -0.438
      -0.458
      -0.465
      -0.462
      -0.454
      -0.446
      -0.434
      -0.418
      -0.398
      -0.383
      -0.377
      -0.377
      -0.378
      -0.374
      -0.365
      -0.350
      -0.329
      -0.301
      -0.267
      -0.231
      -0.194
      -0.155
      -0.115
      -0.076
      -0.039
      -0.005
       0.029
       0.070
       0.119
       0.169
       0.211
       0.239
       0.257
       0.270
       0.281
       0.287
       0.291
       0.297
       0.315
       0.344
       0.379
       0.409
       0.424
       0.425
       0.415
       0.403
       0.394
       0.387
       0.382
       0.375
       0.367
       0.357
       0.341
       0.315
       0.280
       0.238
       0.192
       0.142
       0.091
       0.040
      -0.004
      -0.039
      -0.065
      -0.084
      -0.097
      -0.105
      -0.111
      -0.118
      -0.129
      -0.139
      -0.145
      -0.143
      -0.138
      -0.136
      -0.143
      -0.158
      -0.180
      -0.203
      -0.226
      -0.250
      -0.279
      -0.312
      -0.346
      -0.378
      -0.404
      -0.425
      -0.440
      -0.448
      -0.452
      -0.452
      -0.452
      -0.452
      -0.450
      -0.444
      -0.431
      -0.411
      -0.386
      -0.358
      -0.329
      -0.303
      -0.281
      -0.266
      -0.255
      -0.249
      -0.244
      -0.239
      -0.230
      -0.212
      -0.184
      -0.147
      -0.107
      -0.066
      -0.021
       0.031
       0.091
       0.154
       0.215
       0.275
       0.335
       0.401
       0.472
       0.544
       0.610
       0.666
       0.712
       0.751
       0.781
       0.799
       0.800
       0.785
       0.760
       0.731
       0.701
       0.668
       0.632
       0.590
       0.543
       0.493
       0.438
       0.381
       0.323
       0.266
       0.211
       0.159
       0.110
       0.062
       0.016
      -0.030
      -0.075
      -0.115
      -0.150
      -0.175
      -0.191
      -0.205
      -0.224
      -0.254
      -0.295
      -0.344
      -0.395
      -0.443
      -0.482
      -0.513
      -0.538
      -0.561
      -0.584
      -0.605
      -0.621
      -0.633
      -0.642
      -0.650
      -0.658
      -0.668
      -0.678
      -0.689
      -0.702
      -0.718
      -0.734
      -0.744
      -0.744
      -0.733
      -0.716
      -0.702
      -0.695
      -0.694
      -0.694
      -0.692
      -0.684
      -0.672
      -0.656
      -0.635
      -0.603
      -0.558
      -0.502
      -0.444
      -0.386
      -0.326
      -0.254
      -0.164
      -0.058
       0.055
       0.167
       0.272
       0.370
       0.465
       0.558
       0.650
       0.740
       0.825
       0.900
       0.959
       0.999
       1.023
       1.040
       1.053
       1.062
       1.065
       1.059
       1.044
       1.022
       0.996
       0.970
       0.948
       0.933
       0.925
       0.926
       0.932
       0.934
       0.925
       0.906
       0.880
       0.857
       0.840
       0.828
       0.813
       0.786
       0.743
       0.682
       0.606
       0.521
       0.429
       0.336
       0.241
       0.141
       0.037
      -0.071
      -0.175
      -0.273
      -0.365
      -0.455
      -0.543
      -0.626
      -0.698
      -0.758
      -0.804
      -0.836
      -0.857
      -0.868
      -0.870
      -0.866
      -0.859
      -0.848
      -0.831
      -0.806
      -0.776
      -0.741
      -0.705
      -0.665
      -0.619
      -0.563
      -0.496
      -0.424
      -0.354
      -0.288
      -0.226
      -0.162
      -0.092
      -0.020
       0.048
       0.107
       0.160
       0.213
       0.272
       0.336
       0.399
       0.452
       0.493
       0.524
       0.552
       0.585
       0.625
       0.669
       0.710
       0.744
       0.773
       0.798
       0.822
       0.843
       0.859
       0.869
       0.871
       0.864
       0.849
       0.825
       0.795
       0.764
       0.737
       0.713
       0.686
       0.649
       0.595
       0.525
       0.439
       0.340
       0.229
       0.114
       0.006
      -0.084
      -0.155
      -0.214
      -0.272
      -0.330
      -0.385
      -0.433
      -0.476
      -0.517
      -0.554
      -0.583
      -0.600
      -0.607
      -0.611
      -0.619
      -0.634
      -0.654
      -0.674
      -0.689
      -0.701
      -0.712
      -0.725
      -0.742
      -0.760
      -0.776
      -0.787
      -0.794
      -0.798
      -0.796
      -0.789
      -0.778
      -0.766
      -0.755
      -0.739
      -0.716
      -0.684
      -0.643
      -0.591
      -0.526
      -0.448
      -0.364
      -0.281
      -0.204
      -0.134
      -0.069
      -0.004
       0.062
       0.128
       0.193
       0.258
       0.320
       0.379
       0.433
       0.482
       0.526
       0.562
       0.586
       0.599
       0.599
       0.588
       0.571
       0.555
       0.545
       0.545
       0.552
       0.559
       0.563
       0.563
       0.563
       0.565
       0.568
       0.572
       0.582
       0.601
       0.628
       0.658
       0.681
       0.693
       0.693
       0.685
       0.671
       0.651
       0.625
       0.592
       0.550
       0.495
       0.426
       0.341
       0.245
       0.141
       0.034
      -0.072
      -0.170
      -0.259
      -0.333
      -0.394
      -0.443
      -0.483
      -0.519
      -0.551
      -0.580
      -0.605
      -0.624
      -0.633
      -0.632
      -0.624
      -0.613
      -0.602
      -0.594
      -0.588
      -0.585
      -0.581
      -0.573
      -0.561
      -0.546
      -0.532
      -0.520
      -0.503
      -0.473
      -0.424
      -0.357
      -0.283
      -0.211
      -0.147
      -0.087
      -0.027
       0.039
       0.108
       0.176
       0.242
       0.303
       0.360
       0.411
       0.453
       0.484
       0.504
       0.512
       0.508
       0.493
       0.469
       0.440
       0.407
       0.374
       0.341
       0.312
       0.289
       0.273
       0.260
       0.248
       0.235
       0.225
       0.219
       0.219
       0.220
       0.220
       0.217
       0.212
       0.206
       0.203
       0.202
       0.197
       0.184
       0.162
       0.137
       0.114
       0.093
       0.071
       0.044
       0.010
      -0.029
      -0.068
      -0.103
      -0.132
      -0.156
      -0.173
      -0.180
      -0.173
      -0.152
      -0.116
      -0.068
      -0.014
       0.040
       0.086
       0.120
       0.143
       0.158
       0.171
       0.185
       0.196
       0.198
       0.184
       0.149
       0.095
       0.020
      -0.073
      -0.183
      -0.305
      -0.432
      -0.556
      -0.670
      -0.773
      -0.869
      -0.964
      -1.059
      -1.149
      -1.226
      -1.284
      -1.322
      -1.344
      -1.353
      -1.348
      -1.331
      -1.306
      -1.277
      -1.243
      -1.198
      -1.138
      -1.066
      -0.990
      -0.916
      -0.843
      -0.765
      -0.676
      -0.572
      -0.460
      -0.343
      -0.221
      -0.090
       0.053
       0.208
       0.373
       0.540
       0.708
       0.876
       1.044
       1.210
       1.367
       1.504
       1.612
       1.691
       1.743
       1.775
       1.789
       1.784
       1.756
       1.702
       1.624
       1.527
       1.419
       1.305
       1.188
       1.070
       0.952
       0.833
       0.708
       0.572
       0.421
       0.258
       0.089
      -0.077
      -0.233
      -0.381
      -0.522
      -0.664
      -0.810
      -0.957
      -1.097
      -1.220
      -1.318
      -1.386
      -1.423
      -1.431
      -1.413
      -1.369
      -1.299
      -1.204
      -1.088
      -0.956
      -0.814
      -0.665
      -0.510
      -0.352
      -0.194
      -0.043
       0.096
       0.219
       0.323
       0.405
       0.460
       0.487
       0.487
       0.465
       0.430
       0.390
       0.352
       0.323
       0.309
       0.317
       0.348
       0.397
       0.453
       0.506
       0.553
       0.600
       0.654
       0.717
       0.785
       0.850
       0.905
       0.944
       0.963
       0.962
       0.939
       0.894
       0.826
       0.737
       0.636
       0.533
       0.435
       0.345
       0.260
       0.181
       0.106
       0.031
      -0.046
      -0.126
      -0.203
      -0.269
      -0.318
      -0.351
      -0.371
      -0.385
      -0.401
      -0.425
      -0.463
      -0.514
      -0.577
      -0.650
      -0.726
      -0.798
      -0.862
      -0.915
      -0.957
      -0.991
      -1.015
      -1.030
      -1.033
      -1.019
      -0.986
      -0.931
      -0.856
      -0.763
      -0.655
      -0.535
      -0.406
      -0.269
      -0.135
      -0.013
       0.087
       0.163
       0.217
       0.249
       0.255
       0.238
       0.202
       0.159
       0.118
       0.084
       0.056
       0.032
       0.008
      -0.015
      -0.032
      -0.039
      -0.032
      -0.013
       0.019
       0.063
       0.117
       0.177
       0.232
       0.273
       0.295
       0.297
       0.287
       0.268
       0.242
       0.210
       0.172
       0.131
       0.095
       0.067
       0.045
       0.024
       0.005
      -0.012
      -0.020
      -0.017
       0.000
       0.036
       0.091
       0.161
       0.237
       0.309
       0.365
       0.398
       0.400
       0.372
       0.317
       0.243
       0.158
       0.069
      -0.019
      -0.102
      -0.179
      -0.249
      -0.311
      -0.360
      -0.392
      -0.402
      -0.392
      -0.367
      -0.332
      -0.292
      -0.248
      -0.198
      -0.141
      -0.083
      -0.032
       0.000
       0.004
      -0.024
      -0.082
      -0.171
      -0.287
      -0.423
      -0.565
      -0.697
      -0.810
      -0.902
      -0.976
      -1.032
      -1.062
      -1.056
      -1.010
      -0.926
      -0.807
      -0.658
      -0.481
      -0.278
      -0.059
       0.166
       0.385
       0.595
       0.795
       0.985
       1.161
       1.317
       1.445
       1.539
       1.598
       1.623
       1.618
       1.588
       1.539
       1.475
       1.403
       1.329
       1.257
       1.193
       1.138
       1.088
       1.040
       0.991
       0.939
       0.890
       0.843
       0.795
       0.737
       0.666
       0.582
       0.493
       0.406
       0.323
       0.237
       0.138
       0.023
      -0.104
      -0.231
      -0.348
      -0.451
      -0.540
      -0.619
      -0.690
      -0.757
      -0.818
      -0.873
      -0.919
      -0.957
      -0.991
      -1.025
      -1.059
      -1.090
      -1.115
      -1.131
      -1.139
      -1.138
      -1.126
      -1.102
      -1.062
      -1.005
      -0.933
      -0.844
      -0.742
      -0.627
      -0.501
      -0.365
      -0.225
      -0.083
       0.056
       0.194
       0.327
       0.455
       0.575
       0.683
       0.778
       0.859
       0.924
       0.970
       0.992
       0.989
       0.962
       0.912
       0.844
       0.766
       0.685
       0.608
       0.541
       0.485
       0.438
       0.398
       0.363
       0.331
       0.299
       0.264
       0.227
       0.189
       0.156
       0.126
       0.098
       0.068
       0.032
      -0.008
      -0.053
      -0.102
      -0.159
      -0.223
      -0.292
      -0.362
      -0.426
      -0.477
      -0.511
      -0.529
      -0.536
      -0.538
      -0.536
      -0.532
      -0.526
      -0.520
      -0.510
      -0.489
      -0.450
      -0.391
      -0.320
      -0.250
      -0.187
      -0.135
      -0.090
      -0.052
      -0.022
      -0.002
       0.008
       0.009
       0.005
      -0.004
      -0.015
      -0.028
      -0.044
      -0.059
      -0.072
      -0.082
      -0.093
      -0.107
      -0.125
      -0.146
      -0.169
      -0.193
      -0.218
      -0.245
      -0.278
      -0.316
      -0.357
      -0.400
      -0.445
      -0.487
      -0.521
      -0.539
      -0.537
      -0.515
      -0.477
      -0.427
      -0.362
      -0.281
      -0.185
      -0.077
       0.041
       0.172
       0.320
       0.484
       0.653
       0.813
       0.952
       1.067
       1.157
       1.224
       1.268
       1.291
       1.294
       1.278
       1.239
       1.174
       1.083
       0.972
       0.847
       0.716
       0.578
       0.438
       0.299
       0.165
       0.044
      -0.062
      -0.153
      -0.232
      -0.305
      -0.377
      -0.452
      -0.532
      -0.617
      -0.708
      -0.804
      -0.899
      -0.988
      -1.068
      -1.141
      -1.210
      -1.278
      -1.345
      -1.402
      -1.438
      -1.439
      -1.394
      -1.303
      -1.176
      -1.028
      -0.871
      -0.712
      -0.552
      -0.388
      -0.223
      -0.059
       0.100
       0.251
       0.393
       0.528
       0.652
       0.757
       0.836
       0.885
       0.908
       0.911
       0.901
       0.874
       0.829
       0.768
       0.696
       0.621
