Origin Time       22/10/2009 19:51:25
Lat.              36.5°N	
Long.             71.0°E	
Depth (Km)        168.0
Magnitude         6.3
 Region           HINDUKUSH-REGION-AFGHANISTAN                                     
 Above details taken from IMD 
   
Station Code      KSL
Station Lat.       30.899
Station Long.      76.960
Station Height(m) 1802.0
Site Class        B   Vs30 between 375 m/sec to 700 m/sec *  
Record Time       22.10.2009 19:54:22.274
Sampling Rate     200. Hz
 Record Duration   68.295 Sec.
 Direction         Vert. (Up positive)
Max. Acceleration      0.894 cm/sec**2
     
  * For reference see Site Classification link of website 
     
 Base Line Corrected and Low Pass Filtered (Cut Off at 35 Hz) Time History
 Acceleration data in cm/sec**2
    
[...]
      -0.039
      -0.013
       0.006
       0.013
       0.007
      -0.007
      -0.022
      -0.030
      -0.032
      -0.036
      -0.049
      -0.073
      -0.104
      -0.133
      -0.155
      -0.165
      -0.167
      -0.167
      -0.165
      -0.161
      -0.146
      -0.118
      -0.079
      -0.035
       0.010
       0.050
       0.080
       0.096
       0.104
       0.112
       0.124
       0.138
       0.149
       0.155
       0.162
       0.178
       0.200
       0.222
       0.235
       0.238
       0.239
       0.244
       0.255
       0.267
       0.274
       0.278
       0.284
       0.295
       0.306
       0.309
       0.296
       0.263
       0.209
       0.140
       0.064
      -0.009
      -0.066
      -0.105
      -0.128
      -0.143
      -0.159
      -0.184
      -0.221
      -0.271
      -0.331
      -0.395
      -0.457
      -0.508
      -0.544
      -0.560
      -0.556
      -0.526
      -0.467
      -0.382
      -0.285
      -0.199
      -0.145
      -0.134
      -0.163
      -0.214
      -0.268
      -0.305
      -0.318
      -0.307
      -0.278
      -0.239
      -0.197
      -0.155
      -0.114
      -0.070
      -0.026
       0.013
       0.039
       0.049
       0.045
       0.034
       0.021
       0.014
       0.019
       0.042
       0.081
       0.129
       0.174
       0.206
       0.224
       0.231
       0.235
       0.243
       0.253
       0.264
       0.275
       0.287
       0.300
       0.309
       0.304
       0.283
       0.253
       0.228
       0.221
       0.234
       0.259
       0.285
       0.302
       0.307
       0.300
       0.286
       0.265
       0.237
       0.203
       0.169
       0.140
       0.118
       0.104
       0.095
       0.094
       0.104
       0.124
       0.150
       0.172
       0.181
       0.172
       0.147
       0.113
       0.082
       0.058
       0.046
       0.042
       0.038
       0.026
       0.004
      -0.021
      -0.039
      -0.044
      -0.042
      -0.044
      -0.063
      -0.107
      -0.171
      -0.243
      -0.310
      -0.361
      -0.393
      -0.403
      -0.393
      -0.369
      -0.336
      -0.304
      -0.277
      -0.261
      -0.255
      -0.258
      -0.267
      -0.278
      -0.288
      -0.291
      -0.283
      -0.261
      -0.222
      -0.169
      -0.107
      -0.043
       0.020
       0.081
       0.142
       0.207
       0.272
       0.332
       0.382
       0.417
       0.437
       0.443
       0.436
       0.414
       0.380
       0.341
       0.302
       0.267
       0.235
       0.202
       0.164
       0.126
       0.092
       0.063
       0.041
       0.026
       0.018
       0.011
       0.000
      -0.025
      -0.065
      -0.113
      -0.155
      -0.177
      -0.174
      -0.150
      -0.116
      -0.084
      -0.064
      -0.060
      -0.065
      -0.075
      -0.085
      -0.099
      -0.120
      -0.147
      -0.174
      -0.192
      -0.191
      -0.171
      -0.139
      -0.103
      -0.069
      -0.036
      -0.003
       0.030
       0.060
       0.084
       0.099
       0.103
       0.096
       0.080
       0.056
       0.028
      -0.003
      -0.032
      -0.058
      -0.080
      -0.101
      -0.122
      -0.143
      -0.165
      -0.188
      -0.214
      -0.244
      -0.276
      -0.308
      -0.335
      -0.349
      -0.347
      -0.327
      -0.292
      -0.250
      -0.212
      -0.184
      -0.167
      -0.161
      -0.163
      -0.167
      -0.164
      -0.146
      -0.106
      -0.048
       0.018
       0.082
       0.134
       0.172
       0.199
       0.218
       0.233
       0.246
       0.257
       0.261
       0.253
       0.229
       0.187
       0.137
       0.087
       0.045
       0.016
       0.003
       0.007
       0.025
       0.049
       0.075
       0.100
       0.123
       0.144
       0.164
       0.184
       0.207
       0.232
       0.254
       0.267
       0.269
       0.262
       0.247
       0.227
       0.205
       0.185
       0.169
       0.157
       0.141
       0.123
       0.108
       0.111
       0.140
       0.192
       0.251
       0.303
       0.341
       0.367
       0.383
       0.390
       0.382
       0.354
       0.301
       0.217
       0.102
      -0.041
      -0.198
      -0.349
      -0.472
      -0.551
      -0.585
      -0.585
      -0.572
      -0.566
      -0.573
      -0.588
      -0.599
      -0.594
      -0.569
      -0.524
      -0.464
      -0.398
      -0.337
      -0.287
      -0.251
      -0.226
      -0.207
      -0.189
      -0.164
      -0.127
      -0.075
      -0.012
       0.057
       0.122
       0.177
       0.221
       0.257
       0.292
       0.327
       0.361
       0.391
       0.420
       0.450
       0.486
       0.528
       0.571
       0.606
       0.619
       0.601
       0.548
       0.466
       0.362
       0.250
       0.141
       0.047
      -0.026
      -0.080
      -0.121
      -0.157
      -0.192
      -0.226
      -0.252
      -0.267
      -0.272
      -0.270
      -0.267
      -0.265
      -0.264
      -0.262
      -0.258
      -0.253
      -0.248
      -0.246
      -0.249
      -0.253
      -0.250
      -0.237
      -0.212
      -0.186
      -0.167
      -0.160
      -0.165
      -0.176
      -0.191
      -0.204
      -0.211
      -0.207
      -0.192
      -0.166
      -0.133
      -0.091
      -0.042
       0.008
       0.052
       0.079
       0.087
       0.081
       0.071
       0.065
       0.067
       0.070
       0.063
       0.034
      -0.025
      -0.110
      -0.212
      -0.317
      -0.409
      -0.482
      -0.534
      -0.568
      -0.582
      -0.569
      -0.521
      -0.440
      -0.336
      -0.227
      -0.123
      -0.032
       0.045
       0.109
       0.159
       0.196
       0.220
       0.234
       0.241
       0.244
       0.245
       0.246
       0.247
       0.248
       0.246
       0.240
       0.232
       0.225
       0.221
       0.219
       0.222
       0.234
       0.256
       0.288
       0.325
       0.362
       0.393
       0.409
       0.405
       0.379
       0.336
       0.283
       0.228
       0.177
       0.129
       0.078
       0.016
      -0.062
      -0.151
      -0.243
      -0.324
      -0.377
      -0.393
      -0.366
      -0.301
      -0.210
      -0.112
      -0.024
       0.040
       0.080
       0.102
       0.117
       0.133
       0.150
       0.163
       0.165
       0.153
       0.125
       0.081
       0.023
      -0.044
      -0.115
      -0.187
      -0.265
      -0.352
      -0.443
      -0.523
      -0.572
      -0.574
      -0.532
      -0.456
      -0.362
      -0.262
      -0.165
      -0.081
      -0.021
       0.014
       0.028
       0.032
       0.033
       0.030
       0.016
      -0.009
      -0.041
      -0.070
      -0.087
      -0.084
      -0.057
      -0.008
       0.059
       0.135
       0.209
       0.277
       0.337
       0.398
       0.465
       0.542
       0.621
       0.691
       0.738
       0.755
       0.741
       0.699
       0.634
       0.546
       0.436
       0.311
       0.177
       0.043
      -0.085
      -0.203
      -0.308
      -0.395
      -0.460
      -0.498
      -0.510
      -0.495
      -0.457
      -0.397
      -0.317
      -0.224
      -0.128
      -0.037
       0.044
       0.114
       0.169
       0.203
       0.208
       0.183
       0.136
       0.082
       0.036
       0.005
      -0.014
      -0.026
      -0.036
      -0.044
      -0.044
      -0.033
      -0.011
       0.020
       0.056
       0.095
       0.125
       0.139
       0.128
       0.096
       0.046
      -0.018
      -0.093
      -0.172
      -0.246
      -0.306
      -0.347
      -0.372
      -0.383
      -0.381
      -0.366
      -0.339
      -0.304
      -0.270
      -0.243
      -0.224
      -0.204
      -0.176
      -0.136
      -0.088
      -0.042
       0.001
       0.044
       0.091
       0.138
       0.174
       0.189
       0.178
       0.148
       0.109
       0.075
       0.056
       0.057
       0.080
       0.124
       0.188
       0.265
       0.350
       0.430
       0.489
       0.520
       0.524
       0.509
       0.486
       0.461
       0.438
       0.414
       0.388
       0.355
       0.314
       0.260
       0.193
       0.112
       0.023
      -0.071
      -0.162
      -0.247
      -0.323
      -0.393
      -0.460
      -0.524
      -0.585
      -0.640
      -0.690
      -0.733
      -0.761
      -0.766
      -0.739
      -0.680
      -0.602
      -0.520
      -0.444
      -0.376
      -0.311
      -0.245
      -0.178
      -0.111
      -0.045
       0.017
       0.073
       0.116
       0.141
       0.150
       0.152
       0.157
       0.169
       0.180
       0.184
       0.181
       0.179
       0.185
       0.199
       0.219
       0.236
       0.242
       0.236
       0.219
       0.193
       0.166
       0.141
       0.119
       0.097
       0.071
       0.038
      -0.002
      -0.049
      -0.099
      -0.156
      -0.220
      -0.284
      -0.331
      -0.342
      -0.305
      -0.220
      -0.102
       0.029
       0.153
       0.255
       0.335
       0.397
       0.444
       0.476
       0.488
       0.476
       0.444
       0.396
       0.339
       0.278
       0.217
       0.155
       0.095
       0.037
      -0.016
      -0.063
      -0.106
      -0.143
      -0.167
      -0.174
      -0.167
      -0.151
      -0.135
      -0.120
      -0.102
      -0.070
      -0.020
       0.043
       0.107
       0.154
       0.169
       0.148
       0.093
       0.017
      -0.065
      -0.135
      -0.174
      -0.174
      -0.133
      -0.062
       0.027
       0.115
       0.189
       0.237
       0.258
       0.262
       0.264
       0.278
       0.307
       0.349
       0.395
       0.437
       0.463
       0.471
       0.462
       0.442
       0.412
       0.370
       0.305
       0.210
       0.091
      -0.038
      -0.156
      -0.250
      -0.322
      -0.377
      -0.420
      -0.446
      -0.446
      -0.415
      -0.354
      -0.273
      -0.186
      -0.110
      -0.060
      -0.049
      -0.076
      -0.124
      -0.169
      -0.194
      -0.196
      -0.185
      -0.169
      -0.150
      -0.121
      -0.078
      -0.023
       0.038
       0.096
       0.147
       0.190
       0.225
       0.251
       0.260
       0.247
       0.209
       0.151
       0.087
       0.033
      -0.004
      -0.029
      -0.053
      -0.091
      -0.147
      -0.223
      -0.312
      -0.410
      -0.510
      -0.604
      -0.678
      -0.719
      -0.720
      -0.676
      -0.590
      -0.469
      -0.329
      -0.184
      -0.054
       0.049
       0.118
       0.158
       0.176
       0.182
       0.184
       0.187
       0.189
       0.185
       0.175
       0.165
       0.168
       0.194
       0.239
       0.292
       0.336
       0.358
       0.352
       0.319
       0.271
       0.219
       0.172
       0.134
       0.110
       0.100
       0.107
       0.127
       0.149
       0.162
       0.154
       0.123
       0.073
       0.017
      -0.033
      -0.067
      -0.087
      -0.100
      -0.116
      -0.135
      -0.152
      -0.158
      -0.148
      -0.124
      -0.088
      -0.046
      -0.006
       0.028
       0.054
       0.076
       0.102
       0.138
       0.184
       0.240
       0.303
       0.367
       0.428
       0.477
       0.508
       0.512
       0.488
       0.436
       0.364
       0.278
       0.191
       0.114
       0.058
       0.031
       0.031
       0.050
       0.073
       0.082
       0.064
       0.010
      -0.073
      -0.175
      -0.278
      -0.367
      -0.431
      -0.463
      -0.467
      -0.452
      -0.431
      -0.418
      -0.417
      -0.428
      -0.438
      -0.434
      -0.410
      -0.365
      -0.302
      -0.226
      -0.141
      -0.050
       0.041
       0.126
       0.197
       0.249
       0.279
       0.291
       0.292
       0.287
       0.283
       0.285
       0.297
       0.320
       0.353
       0.385
       0.406
       0.406
       0.385
       0.348
       0.305
       0.264
       0.225
       0.186
       0.146
       0.106
       0.071
       0.044
       0.028
       0.021
       0.020
       0.020
       0.013
      -0.008
      -0.052
      -0.120
      -0.204
      -0.290
      -0.360
      -0.402
      -0.419
      -0.419
      -0.412
      -0.407
      -0.408
      -0.418
      -0.440
      -0.468
      -0.494
      -0.507
      -0.503
      -0.479
      -0.437
      -0.377
      -0.303
      -0.224
      -0.147
      -0.078
      -0.022
       0.019
       0.044
       0.056
       0.062
       0.070
       0.082
       0.100
       0.120
       0.142
       0.166
       0.192
       0.216
       0.235
       0.243
       0.239
       0.224
       0.196
       0.158
       0.109
       0.055
       0.000
      -0.052
      -0.100
      -0.146
      -0.194
      -0.243
      -0.291
      -0.334
      -0.364
      -0.374
      -0.364
      -0.336
      -0.292
      -0.237
      -0.172
      -0.098
      -0.021
       0.049
       0.104
       0.141
       0.162
       0.174
       0.183
       0.194
       0.206
       0.219
       0.228
       0.226
       0.209
       0.176
       0.133
       0.094
       0.074
       0.087
       0.142
       0.242
       0.379
       0.536
       0.688
       0.808
       0.878
       0.894
       0.861
       0.790
       0.689
       0.573
       0.460
       0.365
       0.295
       0.245
       0.200
       0.147
       0.076
      -0.009
      -0.099
      -0.188
      -0.271
      -0.347
      -0.412
      -0.461
      -0.493
      -0.505
      -0.498
      -0.470
      -0.424
      -0.361
      -0.281
      -0.184
      -0.077
       0.027
       0.106
       0.143
       0.132
       0.077
      -0.006
      -0.099
      -0.185
      -0.252
      -0.292
      -0.300
      -0.275
      -0.220
      -0.142
      -0.055
       0.031
       0.106
       0.167
       0.213
       0.245
       0.266
       0.273
       0.269
       0.256
       0.232
       0.199
       0.153
       0.092
       0.017
      -0.071
      -0.165
      -0.253
      -0.319
      -0.351
      -0.346
      -0.308
      -0.249
      -0.179
      -0.106
      -0.035
       0.030
       0.084
       0.121
       0.140
       0.145
       0.144
       0.139
       0.131
       0.117
       0.099
       0.085
       0.082
       0.090
       0.101
       0.102
       0.081
       0.034
      -0.036
      -0.119
      -0.199
      -0.257
      -0.280
      -0.265
      -0.221
      -0.159
      -0.088
      -0.018
       0.045
       0.093
       0.120
       0.125
       0.112
       0.093
       0.078
       0.070
       0.065
       0.059
       0.046
       0.019
      -0.025
      -0.083
      -0.148
      -0.205
      -0.242
      -0.252
      -0.234
      -0.191
      -0.130
      -0.057
       0.017
       0.079
       0.119
       0.134
       0.130
       0.116
       0.096
       0.074
       0.052
       0.029
       0.007
      -0.014
      -0.031
      -0.046
      -0.062
      -0.084
      -0.116
      -0.156
      -0.198
      -0.237
      -0.277
      -0.317
      -0.353
      -0.376
      -0.379
      -0.357
      -0.314
      -0.250
      -0.172
      -0.092
      -0.027
       0.008
       0.005
      -0.032
      -0.090
      -0.149
      -0.190
      -0.201
      -0.176
      -0.125
      -0.060
       0.007
       0.068
       0.120
       0.160
       0.185
       0.200
       0.209
       0.219
       0.235
       0.254
       0.268
       0.267
       0.245
       0.205
       0.159
       0.115
       0.078
       0.049
       0.033
       0.028
       0.028
       0.020
      -0.008
      -0.057
      -0.116
      -0.170
      -0.206
      -0.225
      -0.230
      -0.229
      -0.224
      -0.211
      -0.183
      -0.138
      -0.079
      -0.017
       0.035
       0.063
       0.066
       0.054
       0.041
       0.041
       0.059
       0.092
       0.133
       0.170
       0.195
       0.204
       0.195
       0.171
       0.138
       0.106
       0.083
       0.073
       0.075
       0.085
       0.099
       0.114
       0.128
       0.140
       0.157
       0.183
       0.220
       0.262
       0.296
       0.308
       0.291
       0.244
       0.175
       0.096
       0.013
      -0.074
      -0.166
      -0.258
      -0.339
      -0.393
      -0.409
      -0.391
      -0.351
      -0.304
      -0.257
      -0.217
      -0.183
      -0.154
      -0.125
      -0.087
      -0.034
       0.034
       0.107
       0.175
       0.229
       0.267
       0.290
       0.304
       0.313
       0.317
       0.315
       0.301
       0.268
       0.213
       0.137
       0.053
      -0.025
      -0.085
      -0.120
      -0.132
      -0.124
      -0.103
      -0.080
      -0.064
      -0.059
      -0.064
      -0.079
      -0.100
      -0.124
      -0.153
      -0.186
      -0.222
      -0.251
      -0.265
      -0.259
      -0.230
      -0.184
      -0.127
      -0.072
      -0.026
       0.009
       0.036
       0.061
       0.085
       0.106
       0.120
       0.125
       0.123
       0.120
       0.120
       0.120
       0.119
       0.117
       0.116
       0.115
       0.111
       0.097
       0.066
       0.017
      -0.045
      -0.106
      -0.154
      -0.180
      -0.187
      -0.187
      -0.195
      -0.215
      -0.247
      -0.283
      -0.318
      -0.347
      -0.365
      -0.370
      -0.361
      -0.342
      -0.322
      -0.308
      -0.299
      -0.287
      -0.260
      -0.210
      -0.140
      -0.058
       0.023
       0.094
       0.152
       0.201
       0.245
       0.285
       0.316
       0.326
       0.306
       0.253
       0.176
       0.092
       0.025
      -0.007
       0.008
       0.065
       0.152
       0.248
       0.328
       0.374
       0.378
       0.347
       0.300
       0.254
       0.221
       0.203
       0.200
       0.211
       0.238
       0.277
       0.318
       0.349
       0.358
       0.336
       0.278
       0.183
       0.058
      -0.077
      -0.199
      -0.288
      -0.334
      -0.336
      -0.301
      -0.238
      -0.164
      -0.093
      -0.038
       0.000
       0.032
       0.072
       0.127
       0.190
       0.244
       0.277
       0.288
       0.281
       0.263
       0.237
       0.206
       0.174
       0.147
       0.128
       0.112
       0.094
       0.068
       0.040
       0.019
       0.011
       0.020
       0.042
       0.069
       0.092
       0.104
       0.101
       0.086
       0.064
       0.036
       0.004
      -0.033
      -0.075
      -0.116
      -0.150
      -0.176
      -0.196
      -0.218
      -0.245
      -0.277
      -0.311
      -0.340
      -0.354
      -0.352
      -0.338
      -0.317
      -0.293
      -0.265
      -0.227
      -0.179
      -0.127
      -0.082
      -0.053
      -0.042
      -0.049
      -0.067
      -0.084
      -0.084
      -0.056
       0.000
       0.070
       0.135
       0.180
       0.205
       0.215
       0.214
       0.202
       0.175
       0.137
       0.102
