Origin Time       17/9/2010 19:21:09	
Lat.              36.5 N	
Long.             70.8 E	
Depth (Km)        167.0
Magnitude         6.5
 Region           Hindukush                                                        
 Above details taken from IMD 
   
Station Code      KSL
Station Lat.       30.899
Station Long.      76.960
Station Height(m) 1802.0
Site Class        B   Vs30 between 375 m/sec to 700 m/sec *  
Record Time       17.09.2010 19:23:55.129
Sampling Rate     200. Hz
 Record Duration   88.340 Sec.
 Direction         Vert. (Up positive)
Max. Acceleration     -0.695 cm/sec**2
     
  * For reference see Site Classification link of website 
     
 Base Line Corrected and Low Pass Filtered (Cut Off at 35 Hz) Time History
 Acceleration data in cm/sec**2
    
[...]
      -0.009
      -0.013
      -0.014
      -0.013
      -0.011
      -0.011
      -0.010
      -0.009
      -0.005
      -0.001
       0.002
       0.001
      -0.007
      -0.018
      -0.029
      -0.038
      -0.048
      -0.060
      -0.074
      -0.085
      -0.086
      -0.078
      -0.065
      -0.056
      -0.056
      -0.065
      -0.079
      -0.092
      -0.102
      -0.110
      -0.115
      -0.114
      -0.103
      -0.081
      -0.056
      -0.034
      -0.021
      -0.014
      -0.012
      -0.013
      -0.019
      -0.027
      -0.034
      -0.033
      -0.027
      -0.021
      -0.024
      -0.040
      -0.064
      -0.087
      -0.103
      -0.110
      -0.111
      -0.107
      -0.101
      -0.089
      -0.073
      -0.054
      -0.035
      -0.017
      -0.003
       0.007
       0.012
       0.013
       0.008
       0.000
      -0.009
      -0.019
      -0.027
      -0.034
      -0.042
      -0.051
      -0.059
      -0.063
      -0.058
      -0.043
      -0.020
       0.005
       0.022
       0.030
       0.032
       0.034
       0.038
       0.040
       0.037
       0.026
       0.012
       0.001
      -0.005
      -0.004
       0.002
       0.010
       0.014
       0.012
       0.000
      -0.017
      -0.035
      -0.048
      -0.056
      -0.057
      -0.051
      -0.036
      -0.013
       0.010
       0.023
       0.021
       0.006
      -0.012
      -0.028
      -0.036
      -0.037
      -0.031
      -0.025
      -0.022
      -0.026
      -0.033
      -0.036
      -0.030
      -0.016
       0.001
       0.014
       0.023
       0.034
       0.051
       0.073
       0.095
       0.111
       0.119
       0.122
       0.122
       0.123
       0.128
       0.133
       0.133
       0.120
       0.093
       0.057
       0.024
       0.000
      -0.014
      -0.020
      -0.023
      -0.025
      -0.026
      -0.026
      -0.025
      -0.025
      -0.026
      -0.030
      -0.034
      -0.038
      -0.043
      -0.049
      -0.059
      -0.072
      -0.083
      -0.091
      -0.095
      -0.097
      -0.097
      -0.094
      -0.083
      -0.066
      -0.047
      -0.033
      -0.024
      -0.018
      -0.008
       0.011
       0.040
       0.070
       0.097
       0.116
       0.127
       0.129
       0.122
       0.105
       0.074
       0.031
      -0.020
      -0.071
      -0.113
      -0.139
      -0.150
      -0.149
      -0.145
      -0.143
      -0.147
      -0.155
      -0.162
      -0.159
      -0.142
      -0.112
      -0.072
      -0.029
       0.014
       0.055
       0.093
       0.129
       0.162
       0.188
       0.202
       0.202
       0.192
       0.177
       0.162
       0.147
       0.129
       0.104
       0.073
       0.038
       0.007
      -0.015
      -0.027
      -0.034
      -0.042
      -0.055
      -0.071
      -0.086
      -0.099
      -0.114
      -0.137
      -0.170
      -0.207
      -0.239
      -0.257
      -0.259
      -0.245
      -0.223
      -0.199
      -0.176
      -0.157
      -0.138
      -0.116
      -0.089
      -0.052
      -0.006
       0.049
       0.107
       0.162
       0.207
       0.242
       0.270
       0.292
       0.305
       0.308
       0.299
       0.280
       0.255
       0.229
       0.204
       0.179
       0.149
       0.108
       0.055
      -0.004
      -0.061
      -0.110
      -0.149
      -0.177
      -0.191
      -0.190
      -0.175
      -0.151
      -0.124
      -0.102
      -0.090
      -0.086
      -0.086
      -0.087
      -0.089
      -0.093
      -0.100
      -0.113
      -0.127
      -0.139
      -0.145
      -0.145
      -0.142
      -0.140
      -0.142
      -0.149
      -0.155
      -0.156
      -0.151
      -0.143
      -0.133
      -0.125
      -0.120
      -0.120
      -0.126
      -0.137
      -0.149
      -0.157
      -0.157
      -0.149
      -0.132
      -0.104
      -0.066
      -0.021
       0.025
       0.064
       0.093
       0.113
       0.128
       0.143
       0.160
       0.178
       0.197
       0.212
       0.225
       0.237
       0.248
       0.254
       0.250
       0.231
       0.197
       0.152
       0.101
       0.052
       0.011
      -0.017
      -0.032
      -0.039
      -0.046
      -0.061
      -0.086
      -0.117
      -0.148
      -0.174
      -0.191
      -0.202
      -0.207
      -0.209
      -0.211
      -0.210
      -0.206
      -0.198
      -0.186
      -0.167
      -0.141
      -0.104
      -0.057
      -0.006
       0.042
       0.080
       0.109
       0.129
       0.144
       0.155
       0.159
       0.158
       0.149
       0.133
       0.114
       0.095
       0.080
       0.071
       0.068
       0.071
       0.079
       0.090
       0.102
       0.113
       0.121
       0.124
       0.124
       0.126
       0.132
       0.144
       0.160
       0.180
       0.203
       0.227
       0.248
       0.263
       0.268
       0.262
       0.248
       0.228
       0.206
       0.186
       0.166
       0.143
       0.117
       0.090
       0.067
       0.051
       0.043
       0.037
       0.030
       0.020
       0.009
       0.000
      -0.008
      -0.016
      -0.027
      -0.039
      -0.052
      -0.061
      -0.068
      -0.075
      -0.083
      -0.090
      -0.090
      -0.082
      -0.066
      -0.049
      -0.034
      -0.024
      -0.017
      -0.010
       0.001
       0.017
       0.034
       0.046
       0.049
       0.044
       0.030
       0.009
      -0.017
      -0.043
      -0.067
      -0.085
      -0.098
      -0.108
      -0.114
      -0.116
      -0.111
      -0.102
      -0.094
      -0.090
      -0.092
      -0.098
      -0.104
      -0.109
      -0.111
      -0.111
      -0.108
      -0.105
      -0.102
      -0.102
      -0.104
      -0.107
      -0.108
      -0.104
      -0.095
      -0.081
      -0.066
      -0.053
      -0.043
      -0.037
      -0.032
      -0.028
      -0.027
      -0.031
      -0.041
      -0.055
      -0.069
      -0.081
      -0.087
      -0.084
      -0.074
      -0.067
      -0.070
      -0.083
      -0.100
      -0.107
      -0.100
      -0.081
      -0.058
      -0.036
      -0.015
       0.008
       0.035
       0.064
       0.090
       0.108
       0.116
       0.118
       0.117
       0.119
       0.129
       0.149
       0.173
       0.198
       0.219
       0.235
       0.251
       0.265
       0.275
       0.276
       0.265
       0.242
       0.212
       0.178
       0.145
       0.112
       0.078
       0.042
       0.008
      -0.022
      -0.046
      -0.067
      -0.085
      -0.099
      -0.106
      -0.106
      -0.099
      -0.087
      -0.072
      -0.053
      -0.030
      -0.005
       0.019
       0.036
       0.041
       0.035
       0.022
       0.010
       0.003
       0.001
      -0.002
      -0.016
      -0.046
      -0.089
      -0.136
      -0.175
      -0.202
      -0.220
      -0.236
      -0.253
      -0.271
      -0.286
      -0.296
      -0.302
      -0.305
      -0.304
      -0.300
      -0.291
      -0.279
      -0.265
      -0.250
      -0.233
      -0.213
      -0.191
      -0.167
      -0.148
      -0.135
      -0.124
      -0.111
      -0.092
      -0.066
      -0.039
      -0.011
       0.020
       0.058
       0.106
       0.156
       0.201
       0.236
       0.266
       0.296
       0.324
       0.343
       0.344
       0.321
       0.282
       0.236
       0.192
       0.154
       0.122
       0.096
       0.074
       0.056
       0.043
       0.038
       0.041
       0.054
       0.074
       0.096
       0.116
       0.133
       0.147
       0.157
       0.167
       0.178
       0.190
       0.199
       0.199
       0.190
       0.174
       0.158
       0.139
       0.113
       0.075
       0.021
      -0.045
      -0.112
      -0.168
      -0.202
      -0.210
      -0.195
      -0.164
      -0.125
      -0.084
      -0.047
      -0.019
      -0.004
      -0.005
      -0.021
      -0.044
      -0.068
      -0.087
      -0.103
      -0.123
      -0.153
      -0.195
      -0.240
      -0.281
      -0.312
      -0.335
      -0.352
      -0.366
      -0.379
      -0.389
      -0.391
      -0.378
      -0.349
      -0.309
      -0.268
      -0.230
      -0.193
      -0.154
      -0.114
      -0.077
      -0.045
      -0.019
       0.004
       0.022
       0.037
       0.051
       0.066
       0.080
       0.090
       0.087
       0.071
       0.043
       0.007
      -0.029
      -0.061
      -0.085
      -0.098
      -0.097
      -0.083
      -0.060
      -0.035
      -0.017
      -0.012
      -0.024
      -0.049
      -0.076
      -0.095
      -0.101
      -0.091
      -0.070
      -0.040
      -0.005
       0.034
       0.074
       0.113
       0.149
       0.185
       0.221
       0.257
       0.291
       0.321
       0.347
       0.372
       0.393
       0.409
       0.417
       0.417
       0.410
       0.400
       0.387
       0.371
       0.349
       0.315
       0.267
       0.205
       0.134
       0.062
      -0.007
      -0.067
      -0.118
      -0.159
      -0.193
      -0.223
      -0.253
      -0.290
      -0.335
      -0.388
      -0.445
      -0.498
      -0.540
      -0.565
      -0.573
      -0.566
      -0.554
      -0.543
      -0.538
      -0.534
      -0.522
      -0.494
      -0.449
      -0.390
      -0.323
      -0.252
      -0.178
      -0.102
      -0.026
       0.042
       0.095
       0.134
       0.166
       0.201
       0.245
       0.295
       0.345
       0.387
       0.418
       0.434
       0.437
       0.426
       0.407
       0.383
       0.358
       0.335
       0.315
       0.298
       0.286
       0.278
       0.277
       0.286
       0.302
       0.322
       0.339
       0.351
       0.360
       0.365
       0.367
       0.362
       0.348
       0.327
       0.306
       0.288
       0.277
       0.274
       0.274
       0.272
       0.262
       0.240
       0.202
       0.152
       0.090
       0.022
      -0.050
      -0.122
      -0.189
      -0.249
      -0.302
      -0.345
      -0.373
      -0.388
      -0.392
      -0.387
      -0.381
      -0.374
      -0.364
      -0.350
      -0.330
      -0.309
      -0.291
      -0.281
      -0.280
      -0.286
      -0.297
      -0.313
      -0.335
      -0.360
      -0.387
      -0.410
      -0.424
      -0.428
      -0.423
      -0.407
      -0.382
      -0.347
      -0.308
      -0.266
      -0.225
      -0.187
      -0.152
      -0.121
      -0.093
      -0.067
      -0.041
      -0.012
       0.021
       0.054
       0.085
       0.108
       0.124
       0.134
       0.141
       0.146
       0.148
       0.151
       0.156
       0.167
       0.186
       0.213
       0.247
       0.288
       0.330
       0.372
       0.405
       0.423
       0.420
       0.397
       0.361
       0.321
       0.283
       0.247
       0.218
       0.201
       0.194
       0.192
       0.185
       0.173
       0.162
       0.159
       0.165
       0.173
       0.176
       0.173
       0.171
       0.174
       0.182
       0.188
       0.188
       0.183
       0.176
       0.168
       0.156
       0.140
       0.123
       0.108
       0.094
       0.078
       0.059
       0.044
       0.040
       0.050
       0.069
       0.090
       0.110
       0.129
       0.144
       0.152
       0.148
       0.131
       0.107
       0.085
       0.066
       0.048
       0.029
       0.008
      -0.013
      -0.034
      -0.062
      -0.100
      -0.147
      -0.198
      -0.246
      -0.289
      -0.328
      -0.362
      -0.388
      -0.403
      -0.409
      -0.409
      -0.410
      -0.418
      -0.436
      -0.458
      -0.479
      -0.495
      -0.505
      -0.510
      -0.511
      -0.508
      -0.505
      -0.501
      -0.491
      -0.473
      -0.443
      -0.405
      -0.365
      -0.327
      -0.290
      -0.248
      -0.203
      -0.159
      -0.118
      -0.080
      -0.040
       0.007
       0.057
       0.100
       0.128
       0.137
       0.131
       0.115
       0.091
       0.064
       0.038
       0.018
       0.006
       0.001
      -0.002
      -0.010
      -0.025
      -0.044
      -0.061
      -0.069
      -0.066
      -0.054
      -0.038
      -0.019
       0.003
       0.030
       0.059
       0.090
       0.123
       0.156
       0.189
       0.221
       0.251
       0.276
       0.299
       0.320
       0.340
       0.359
       0.376
       0.387
       0.390
       0.387
       0.388
       0.398
       0.419
       0.442
       0.456
       0.453
       0.435
       0.406
       0.369
       0.324
       0.270
       0.205
       0.128
       0.043
      -0.040
      -0.113
      -0.168
      -0.204
      -0.230
      -0.253
      -0.280
      -0.313
      -0.349
      -0.380
      -0.400
      -0.405
      -0.391
      -0.357
      -0.303
      -0.236
      -0.161
      -0.085
      -0.012
       0.057
       0.117
       0.167
       0.203
       0.228
       0.242
       0.247
       0.244
       0.238
       0.231
       0.229
       0.233
       0.247
       0.272
       0.310
       0.358
       0.411
       0.458
       0.491
       0.509
       0.512
       0.499
       0.470
       0.423
       0.362
       0.296
       0.234
       0.182
       0.138
       0.094
       0.043
      -0.018
      -0.089
      -0.166
      -0.246
      -0.326
      -0.403
      -0.475
      -0.538
      -0.594
      -0.641
      -0.677
      -0.695
      -0.692
      -0.665
      -0.619
      -0.564
      -0.508
      -0.455
      -0.404
      -0.354
      -0.304
      -0.254
      -0.207
      -0.162
      -0.122
      -0.088
      -0.057
      -0.032
      -0.011
       0.003
       0.009
       0.006
      -0.003
      -0.013
      -0.020
      -0.024
      -0.030
      -0.044
      -0.070
      -0.108
      -0.156
      -0.211
      -0.268
      -0.326
      -0.380
      -0.430
      -0.474
      -0.509
      -0.531
      -0.533
      -0.515
      -0.476
      -0.421
      -0.355
      -0.280
      -0.196
      -0.104
      -0.007
       0.090
       0.184
       0.272
       0.354
       0.426
       0.485
       0.527
       0.550
       0.555
       0.544
       0.517
       0.475
       0.418
       0.351
       0.284
       0.226
       0.184
       0.160
       0.154
       0.162
       0.178
       0.196
       0.211
       0.221
       0.228
       0.231
       0.230
       0.222
       0.205
       0.182
       0.159
       0.145
       0.145
       0.158
       0.182
       0.212
       0.241
       0.261
       0.265
       0.252
       0.221
       0.177
       0.129
       0.081
       0.037
      -0.002
      -0.034
      -0.056
      -0.066
      -0.068
      -0.069
      -0.074
      -0.085
      -0.098
      -0.111
      -0.129
      -0.154
      -0.185
      -0.216
      -0.243
      -0.266
      -0.288
      -0.308
      -0.324
      -0.331
      -0.329
      -0.320
      -0.309
      -0.299
      -0.291
      -0.286
      -0.283
      -0.281
      -0.279
      -0.280
      -0.285
      -0.297
      -0.314
      -0.333
      -0.351
      -0.365
      -0.375
      -0.378
      -0.374
      -0.363
      -0.344
      -0.316
      -0.280
      -0.239
      -0.194
      -0.151
      -0.111
      -0.073
      -0.037
      -0.005
       0.021
       0.041
       0.051
       0.053
       0.047
       0.034
       0.020
       0.011
       0.014
       0.031
       0.058
       0.088
       0.114
       0.131
       0.140
       0.148
       0.162
       0.189
       0.230
       0.278
       0.328
       0.373
       0.410
       0.438
       0.455
       0.458
       0.449
       0.428
       0.402
       0.373
       0.347
       0.325
       0.310
       0.301
       0.297
       0.296
       0.298
       0.302
       0.307
       0.310
       0.307
       0.298
       0.288
       0.283
       0.284
       0.286
       0.280
       0.260
       0.227
       0.186
       0.139
       0.089
       0.040
      -0.002
      -0.036
      -0.066
      -0.096
      -0.131
      -0.164
      -0.186
      -0.191
      -0.178
      -0.153
      -0.121
      -0.083
      -0.041
       0.000
       0.033
       0.050
       0.050
       0.035
       0.010
      -0.018
      -0.045
      -0.067
      -0.083
      -0.092
      -0.093
      -0.087
      -0.079
      -0.078
      -0.091
      -0.117
      -0.149
      -0.179
      -0.199
      -0.208
      -0.204
      -0.185
      -0.153
      -0.112
      -0.072
      -0.040
      -0.021
      -0.012
      -0.009
      -0.010
      -0.018
      -0.033
      -0.059
      -0.094
      -0.132
      -0.166
      -0.187
      -0.191
      -0.176
      -0.145
      -0.102
      -0.047
       0.017
       0.088
       0.159
       0.223
       0.273
       0.308
       0.332
       0.350
       0.365
       0.376
       0.384
       0.390
       0.395
       0.398
       0.394
       0.380
       0.357
       0.328
       0.294
       0.255
       0.212
       0.167
       0.124
       0.083
       0.042
       0.002
      -0.037
      -0.071
      -0.098
      -0.118
      -0.132
      -0.145
      -0.161
      -0.186
      -0.218
      -0.253
      -0.283
      -0.304
      -0.317
      -0.326
      -0.336
      -0.348
      -0.357
      -0.359
      -0.349
      -0.331
      -0.311
      -0.293
      -0.280
      -0.268
      -0.258
      -0.249
      -0.246
      -0.249
      -0.256
      -0.262
      -0.265
      -0.266
      -0.270
      -0.277
      -0.284
      -0.282
      -0.267
      -0.240
      -0.202
      -0.158
      -0.109
      -0.061
      -0.012
       0.039
       0.098
       0.168
       0.244
       0.317
       0.382
       0.434
       0.471
       0.491
       0.494
       0.481
       0.452
       0.411
       0.362
       0.312
       0.268
       0.237
       0.218
       0.208
       0.204
       0.205
       0.208
       0.211
       0.208
       0.200
       0.189
       0.179
       0.172
       0.169
       0.168
       0.168
       0.170
       0.169
       0.164
       0.151
       0.130
       0.102
       0.068
       0.031
      -0.010
      -0.054
      -0.103
      -0.155
      -0.206
      -0.252
      -0.289
      -0.318
      -0.340
      -0.358
      -0.376
      -0.398
      -0.425
      -0.460
      -0.498
      -0.536
      -0.571
      -0.597
      -0.614
      -0.619
      -0.613
      -0.595
      -0.567
      -0.534
      -0.503
      -0.476
      -0.449
      -0.411
      -0.358
      -0.290
      -0.210
      -0.128
      -0.048
       0.027
       0.093
       0.143
       0.171
       0.175
       0.158
       0.129
       0.095
       0.062
       0.037
       0.025
       0.030
       0.046
       0.067
       0.087
       0.107
       0.134
       0.171
       0.216
       0.264
       0.309
       0.347
       0.379
       0.404
       0.423
       0.430
       0.422
       0.394
       0.347
       0.284
       0.211
       0.135
       0.068
       0.015
      -0.018
      -0.038
      -0.046
      -0.047
      -0.036
      -0.010
       0.036
       0.103
       0.188
       0.284
       0.380
       0.467
       0.534
       0.577
       0.594
       0.587
       0.558
       0.508
