Origin Time       04/04/2011 11:31:40
Lat.              29.6 N	
Long.             80.8 E	
Depth (Km)         10.0
Magnitude         5.7
 Region           NEPAL-INDIA-BORDER-REGION                                        
 Above details taken from IMD 
   
Station Code      KHA
Station Lat.       28.919
Station Long.      79.969
Station Height(m)    0.0
Site Class        C   Vs30 between 200 m/sec to 375 m/sec *  
Record Time       04.04.2011 11:32:04.304
Sampling Rate     200. Hz
 Record Duration   74.735 Sec.
 Direction         Vert. (Up positive)
Max. Acceleration     -8.320 cm/sec**2
     
  * For reference see Site Classification link of website 
     
 Base Line Corrected and Low Pass Filtered (Cut Off at 35 Hz) Time History
 Acceleration data in cm/sec**2
    
[...]
       0.110
       0.016
       0.119
       0.310
       0.425
       0.367
       0.166
      -0.043
      -0.120
      -0.014
       0.199
       0.366
       0.337
       0.052
      -0.427
      -0.942
      -1.312
      -1.407
      -1.189
      -0.708
      -0.099
       0.456
       0.779
       0.764
       0.435
      -0.066
      -0.539
      -0.809
      -0.803
      -0.573
      -0.265
      -0.039
       0.007
      -0.133
      -0.388
      -0.674
      -0.926
      -1.111
      -1.200
      -1.150
      -0.917
      -0.491
       0.076
       0.663
       1.119
       1.327
       1.248
       0.936
       0.495
       0.034
      -0.368
      -0.661
      -0.811
      -0.802
      -0.639
      -0.357
      -0.010
       0.339
       0.646
       0.896
       1.091
       1.226
       1.280
       1.224
       1.053
       0.802
       0.537
       0.322
       0.186
       0.103
       0.014
      -0.129
      -0.330
      -0.540
      -0.692
      -0.738
      -0.663
      -0.490
      -0.260
      -0.016
       0.216
       0.426
       0.611
       0.766
       0.883
       0.959
       0.984
       0.939
       0.802
       0.573
       0.281
      -0.015
      -0.236
      -0.304
      -0.179
       0.117
       0.506
       0.882
       1.148
       1.239
       1.133
       0.854
       0.477
       0.104
      -0.158
      -0.234
      -0.103
       0.177
       0.474
       0.640
       0.575
       0.275
      -0.171
      -0.628
      -0.975
      -1.139
      -1.103
      -0.885
      -0.519
      -0.057
       0.420
       0.806
       0.997
       0.945
       0.673
       0.265
      -0.172
      -0.540
      -0.774
      -0.843
      -0.751
      -0.514
      -0.164
       0.253
       0.658
       0.945
       1.020
       0.832
       0.402
      -0.167
      -0.711
      -1.051
      -1.067
      -0.751
      -0.212
       0.367
       0.808
       1.005
       0.953
       0.727
       0.435
       0.158
      -0.059
      -0.208
      -0.290
      -0.301
      -0.223
      -0.032
       0.272
       0.643
       0.983
       1.177
       1.124
       0.785
       0.202
      -0.516
      -1.231
      -1.818
      -2.181
      -2.249
      -1.986
      -1.419
      -0.652
       0.142
       0.776
       1.113
       1.111
       0.835
       0.416
      -0.013
      -0.362
      -0.586
      -0.675
      -0.641
      -0.509
      -0.312
      -0.086
       0.119
       0.248
       0.260
       0.156
      -0.029
      -0.242
      -0.443
      -0.604
      -0.712
      -0.751
      -0.679
      -0.440
      -0.002
       0.586
       1.186
       1.619
       1.736
       1.482
       0.925
       0.237
      -0.374
      -0.746
      -0.820
      -0.629
      -0.263
       0.165
       0.542
       0.762
       0.750
       0.502
       0.102
      -0.287
      -0.481
      -0.362
       0.051
       0.603
       1.082
       1.314
       1.231
       0.877
       0.361
      -0.183
      -0.624
      -0.857
      -0.832
      -0.583
      -0.214
       0.147
       0.410
       0.537
       0.533
       0.413
       0.189
      -0.121
      -0.471
      -0.776
      -0.925
      -0.835
      -0.503
      -0.013
       0.505
       0.929
       1.160
       1.134
       0.829
       0.300
      -0.320
      -0.832
      -1.045
      -0.856
      -0.328
       0.321
       0.806
       0.914
       0.608
       0.023
      -0.612
      -1.077
      -1.241
      -1.089
      -0.707
      -0.241
       0.142
       0.308
       0.212
      -0.069
      -0.368
      -0.507
      -0.388
      -0.042
       0.388
       0.710
       0.787
       0.600
       0.243
      -0.155
      -0.488
      -0.698
      -0.781
      -0.785
      -0.794
      -0.877
      -1.054
      -1.291
      -1.514
      -1.614
      -1.494
      -1.136
      -0.637
      -0.178
       0.078
       0.071
      -0.126
      -0.347
      -0.423
      -0.267
       0.079
       0.479
       0.798
       0.984
       1.070
       1.126
       1.196
       1.263
       1.269
       1.180
       1.024
       0.882
       0.837
       0.916
       1.070
       1.190
       1.164
       0.938
       0.542
       0.078
      -0.336
      -0.607
      -0.705
      -0.657
      -0.524
      -0.355
      -0.168
       0.033
       0.231
       0.394
       0.495
       0.543
       0.585
       0.684
       0.868
       1.105
       1.307
       1.381
       1.273
       0.997
       0.619
       0.211
      -0.186
      -0.578
      -0.970
      -1.314
      -1.494
      -1.383
      -0.913
      -0.138
       0.755
       1.507
       1.905
       1.881
       1.540
       1.077
       0.680
       0.443
       0.337
       0.236
       0.004
      -0.408
      -0.919
      -1.367
      -1.603
      -1.553
      -1.246
      -0.781
      -0.262
       0.241
       0.695
       1.053
       1.242
       1.193
       0.894
       0.414
      -0.124
      -0.593
      -0.918
      -1.091
      -1.141
      -1.096
      -0.960
      -0.735
      -0.455
      -0.196
      -0.051
      -0.085
      -0.306
      -0.649
      -1.010
      -1.288
      -1.418
      -1.383
      -1.206
      -0.953
      -0.706
      -0.525
      -0.413
      -0.309
      -0.126
       0.200
       0.658
       1.163
       1.589
       1.837
       1.871
       1.714
       1.410
       1.013
       0.595
       0.245
       0.055
       0.084
       0.317
       0.655
       0.948
       1.071
       0.985
       0.746
       0.468
       0.269
       0.219
       0.308
       0.462
       0.580
       0.586
       0.449
       0.189
      -0.132
      -0.431
      -0.644
      -0.756
      -0.797
      -0.795
      -0.758
      -0.667
      -0.520
      -0.358
      -0.267
      -0.321
      -0.526
      -0.804
      -1.036
      -1.120
      -1.015
      -0.726
      -0.284
       0.267
       0.861
       1.391
       1.723
       1.752
       1.473
       1.000
       0.518
       0.182
       0.048
       0.055
       0.082
       0.042
      -0.068
      -0.191
      -0.275
      -0.336
      -0.447
      -0.697
      -1.113
      -1.623
      -2.069
      -2.284
      -2.179
      -1.787
      -1.244
      -0.714
      -0.308
      -0.048
       0.119
       0.253
       0.365
       0.407
       0.314
       0.061
      -0.294
      -0.623
      -0.787
      -0.709
      -0.411
       0.008
       0.421
       0.720
       0.833
       0.725
       0.390
      -0.142
      -0.788
      -1.399
      -1.800
      -1.851
      -1.512
      -0.852
      -0.017
       0.815
       1.490
       1.910
       2.047
       1.927
       1.597
       1.117
       0.565
       0.044
      -0.319
      -0.397
      -0.114
       0.495
       1.256
       1.907
       2.204
       2.035
       1.450
       0.615
      -0.279
      -1.097
      -1.791
      -2.370
      -2.832
      -3.124
      -3.158
      -2.887
      -2.374
      -1.774
      -1.228
      -0.766
      -0.287
       0.346
       1.166
       2.015
       2.593
       2.628
       2.054
       1.077
       0.062
      -0.668
      -0.987
      -0.975
      -0.820
      -0.683
      -0.617
      -0.580
      -0.517
      -0.412
      -0.291
      -0.166
      -0.012
       0.214
       0.517
       0.821
       0.995
       0.950
       0.723
       0.481
       0.416
       0.609
       0.965
       1.271
       1.324
       1.070
       0.653
       0.339
       0.349
       0.698
       1.182
       1.489
       1.376
       0.801
      -0.062
      -0.923
      -1.539
      -1.819
      -1.817
      -1.641
      -1.381
      -1.090
      -0.816
      -0.618
      -0.566
      -0.704
      -1.004
      -1.349
      -1.562
      -1.483
      -1.032
      -0.244
       0.747
       1.747
       2.555
       3.007
       2.989
       2.454
       1.453
       0.163
      -1.140
      -2.160
      -2.669
      -2.573
      -1.952
      -1.055
      -0.239
       0.153
      -0.083
      -0.924
      -2.101
      -3.180
      -3.722
      -3.487
      -2.551
      -1.268
      -0.102
       0.580
       0.651
       0.236
      -0.394
      -0.966
      -1.307
      -1.354
      -1.108
      -0.593
       0.162
       1.109
       2.137
       3.062
       3.673
       3.806
       3.404
       2.531
       1.357
       0.101
      -1.030
      -1.896
      -2.422
      -2.583
      -2.392
      -1.925
      -1.327
      -0.782
      -0.439
      -0.342
      -0.386
      -0.354
      -0.033
       0.646
       1.552
       2.419
       2.994
       3.157
       2.958
       2.551
       2.090
       1.653
       1.241
       0.835
       0.460
       0.192
       0.112
       0.239
       0.502
       0.769
       0.920
       0.907
       0.744
       0.460
       0.048
      -0.521
      -1.258
      -2.095
      -2.873
      -3.365
      -3.349
      -2.695
      -1.441
       0.185
       1.819
       3.080
       3.702
       3.627
       3.012
       2.150
       1.337
       0.742
       0.367
       0.089
      -0.229
      -0.643
      -1.090
      -1.444
      -1.608
      -1.598
      -1.527
      -1.524
      -1.618
      -1.693
      -1.541
      -0.988
      -0.015
       1.216
       2.422
       3.310
       3.673
       3.435
       2.652
       1.474
       0.110
      -1.211
      -2.272
      -2.918
      -3.096
      -2.884
      -2.461
      -2.037
      -1.752
      -1.604
      -1.461
      -1.141
      -0.536
       0.299
       1.148
       1.756
       1.978
       1.867
       1.605
       1.356
       1.149
       0.875
       0.391
      -0.366
      -1.305
      -2.203
      -2.800
      -2.920
      -2.540
      -1.768
      -0.777
       0.250
       1.142
       1.759
       2.026
       1.981
       1.784
       1.666
       1.819
       2.280
       2.886
       3.332
       3.337
       2.800
       1.861
       0.820
      -0.026
      -0.523
      -0.708
      -0.736
      -0.775
      -0.910
      -1.134
      -1.408
      -1.733
      -2.173
      -2.801
      -3.613
      -4.479
      -5.158
      -5.379
      -4.960
      -3.899
      -2.394
      -0.765
       0.675
       1.717
       2.284
       2.405
       2.187
       1.789
       1.398
       1.175
       1.187
       1.362
       1.527
       1.494
       1.176
       0.627
       0.008
      -0.526
      -0.912
      -1.168
      -1.326
      -1.367
      -1.224
      -0.824
      -0.160
       0.665
       1.438
       1.912
       1.906
       1.385
       0.467
      -0.619
      -1.591
      -2.181
      -2.214
      -1.667
      -0.694
       0.428
       1.383
       1.924
       1.954
       1.549
       0.914
       0.287
      -0.163
      -0.383
      -0.424
      -0.366
      -0.253
      -0.076
       0.193
       0.533
       0.845
       0.966
       0.751
       0.158
      -0.711
      -1.629
      -2.338
      -2.647
      -2.492
      -1.945
      -1.151
      -0.255
       0.657
       1.549
       2.389
       3.120
       3.668
       3.994
       4.126
       4.154
       4.181
       4.259
       4.349
       4.342
       4.127
       3.643
       2.885
       1.869
       0.613
      -0.840
      -2.385
      -3.848
      -5.017
      -5.725
      -5.933
      -5.744
      -5.329
      -4.827
      -4.289
      -3.707
      -3.089
      -2.498
      -2.039
      -1.803
      -1.796
      -1.922
      -2.023
      -1.957
      -1.633
      -1.023
      -0.163
       0.853
       1.894
       2.812
       3.457
       3.707
       3.518
       2.942
       2.089
       1.082
       0.035
      -0.967
      -1.890
      -2.763
      -3.623
      -4.447
      -5.130
      -5.520
      -5.451
      -4.800
      -3.554
      -1.868
       0.002
       1.813
       3.415
       4.733
       5.731
       6.381
       6.649
       6.511
       6.008
       5.281
       4.519
       3.855
       3.322
       2.907
       2.622
       2.509
       2.605
       2.912
       3.374
       3.869
       4.255
       4.457
       4.501
       4.442
       4.278
       3.930
       3.308
       2.363
       1.133
      -0.241
      -1.559
      -2.661
      -3.496
      -4.098
      -4.516
      -4.750
      -4.753
      -4.448
      -3.785
      -2.809
      -1.688
      -0.661
       0.058
       0.338
       0.147
      -0.453
      -1.349
      -2.414
      -3.537
      -4.601
      -5.490
      -6.132
      -6.524
      -6.711
      -6.737
      -6.610
      -6.282
      -5.659
      -4.683
      -3.435
      -2.142
      -1.059
      -0.332
       0.061
       0.263
       0.447
       0.709
       1.004
       1.200
       1.209
       1.077
       0.956
       1.003
       1.290
       1.766
       2.292
       2.729
       3.013
       3.158
       3.198
       3.159
       3.088
       3.078
       3.228
       3.579
       4.082
       4.612
       5.010
       5.127
       4.864
       4.215
       3.278
       2.219
       1.202
       0.340
      -0.300
      -0.682
      -0.800
      -0.698
      -0.497
      -0.388
      -0.578
      -1.193
      -2.198
      -3.386
      -4.458
      -5.138
      -5.271
      -4.844
      -3.950
      -2.747
      -1.422
      -0.160
       0.871
       1.535
       1.750
       1.531
       1.015
       0.444
       0.099
       0.198
       0.811
       1.811
       2.910
       3.753
       4.026
       3.530
       2.214
       0.200
      -2.216
      -4.625
      -6.616
      -7.891
      -8.320
      -7.948
      -6.941
      -5.538
      -3.979
      -2.467
      -1.131
      -0.040
       0.798
       1.422
       1.916
       2.417
       3.083
       4.021
       5.183
       6.349
       7.220
       7.548
       7.208
       6.204
       4.673
       2.870
       1.109
      -0.356
      -1.398
      -2.011
      -2.257
      -2.240
      -2.076
      -1.861
      -1.661
      -1.522
      -1.478
      -1.554
      -1.751
      -2.025
      -2.248
      -2.244
      -1.880
      -1.176
      -0.330
       0.366
       0.673
       0.528
       0.071
      -0.417
      -0.647
      -0.453
       0.170
       1.100
       2.135
       3.059
       3.712
       4.026
       3.978
       3.535
       2.663
       1.408
      -0.064
      -1.484
      -2.582
      -3.212
      -3.432
      -3.436
      -3.391
      -3.310
      -3.072
      -2.545
      -1.694
      -0.608
       0.515
       1.458
       2.109
       2.532
       2.887
       3.273
       3.644
       3.846
       3.714
       3.165
       2.267
       1.231
       0.312
      -0.310
      -0.591
      -0.592
      -0.437
      -0.268
      -0.191
      -0.234
      -0.360
      -0.513
      -0.641
      -0.686
      -0.587
      -0.310
       0.114
       0.592
       0.982
       1.123
       0.920
       0.406
      -0.260
      -0.873
      -1.265
      -1.340
      -1.084
      -0.548
       0.179
       1.017
       1.893
       2.709
       3.322
       3.588
       3.429
       2.870
       2.028
       1.044
       0.029
      -0.978
      -1.968
      -2.910
      -3.738
      -4.393
      -4.866
      -5.180
      -5.332
      -5.253
      -4.833
      -3.996
      -2.766
      -1.281
       0.270
       1.723
       2.970
       3.945
       4.589
       4.836
       4.634
       3.985
       2.973
       1.755
       0.523
      -0.535
      -1.279
      -1.643
      -1.644
      -1.370
      -0.959
      -0.555
      -0.268
      -0.124
      -0.074
      -0.040
       0.026
       0.131
       0.264
       0.390
       0.425
       0.240
      -0.282
      -1.166
      -2.282
      -3.329
      -3.917
      -3.738
      -2.739
      -1.156
       0.615
       2.199
       3.363
       4.034
       4.250
       4.093
       3.634
       2.933
       2.075
       1.178
       0.362
      -0.301
      -0.801
      -1.183
      -1.533
      -1.923
      -2.357
      -2.754
      -3.002
      -3.025
      -2.785
      -2.269
      -1.486
      -0.489
       0.604
       1.607
       2.308
       2.549
       2.307
       1.716
       1.009
       0.406
       0.036
      -0.097
      -0.086
      -0.063
      -0.111
      -0.233
      -0.360
      -0.392
      -0.233
       0.169
       0.784
       1.494
       2.125
       2.481
       2.404
       1.834
       0.855
      -0.319
      -1.435
      -2.296
      -2.814
      -2.991
      -2.893
      -2.621
      -2.302
      -2.061
      -1.985
      -2.069
      -2.201
      -2.208
      -1.935
      -1.315
      -0.383
       0.729
       1.838
       2.778
       3.465
       3.921
       4.226
       4.462
       4.668
       4.833
       4.896
       4.784
       4.452
       3.896
       3.126
       2.135
       0.928
      -0.439
      -1.846
      -3.137
      -4.155
      -4.775
      -4.951
      -4.728
      -4.228
      -3.588
      -2.925
      -2.313
      -1.778
      -1.300
      -0.835
      -0.341
       0.214
       0.840
       1.519
       2.183
       2.728
       3.046
       3.072
       2.809
       2.317
       1.676
       0.953
       0.202
      -0.507
      -1.091
      -1.483
      -1.673
      -1.734
      -1.802
      -2.012
      -2.404
      -2.881
      -3.263
      -3.405
      -3.275
      -2.941
      -2.516
      -2.111
      -1.791
      -1.546
      -1.306
      -1.007
      -0.629
      -0.177
       0.334
       0.888
       1.465
       2.062
       2.682
       3.298
       3.819
       4.124
       4.124
       3.796
       3.188
       2.401
       1.548
       0.701
      -0.129
      -0.948
      -1.718
      -2.356
      -2.766
      -2.890
      -2.708
      -2.235
      -1.510
      -0.595
       0.404
       1.317
       1.949
       2.166
       1.960
       1.442
       0.799
       0.229
      -0.103
      -0.121
       0.132
       0.523
       0.905
       1.168
       1.260
       1.179
       0.961
       0.651
       0.288
      -0.079
      -0.385
      -0.563
      -0.585
      -0.475
      -0.320
      -0.249
      -0.390
      -0.799
      -1.413
      -2.070
      -2.584
      -2.820
      -2.738
      -2.403
      -1.956
      -1.556
      -1.320
      -1.289
      -1.414
      -1.570
      -1.611
      -1.437
      -1.042
      -0.496
       0.086
       0.580
       0.883
       0.962
       0.886
       0.804
       0.873
       1.188
       1.754
       2.476
       3.198
       3.752
       4.001
       3.857
       3.290
       2.347
       1.155
      -0.092
      -1.173
      -1.895
      -2.148
      -1.955
      -1.472
      -0.924
      -0.505
      -0.314
      -0.342
      -0.510
      -0.712
      -0.874
      -0.978
      -1.048
      -1.104
      -1.128
      -1.075
      -0.905
      -0.606
      -0.209
       0.211
       0.550
       0.720
       0.679
       0.443
       0.062
      -0.393
      -0.837
      -1.190
      -1.397
      -1.460
      -1.429
      -1.374
      -1.336
      -1.305
      -1.228
      -1.048
      -0.737
      -0.310
       0.195
       0.729
       1.251
       1.725
       2.117
       2.395
       2.539
       2.553
       2.461
       2.287
       2.040
       1.715
       1.331
       0.941
       0.626
       0.455
       0.449
       0.553
       0.652
       0.629
       0.435
       0.122
