Origin Time       04/04/2011 11:31:40
Lat.              29.6 N	
Long.             80.8 E	
Depth (Km)         10.0
Magnitude         5.7
 Region           NEPAL-INDIA-BORDER-REGION                                        
 Above details taken from IMD 
     
Station Code      KHA
Station Lat.       28.919  N
Station Long.      79.969  E
Station Height(m)    0.0
Site Class        C   Vs30 between 200 m/sec to 375 m/sec *  
Record Time       04.04.2011 11:32:04.304
Sampling Rate     200. Hz
 Record Duration   74.735 Sec.
 Direction         E-W (E positive)
Max. Acceleration    -25.813 cm/sec**2
     
  * For reference see Site Classification link of website 
     
 Base Line Corrected and Low Pass Filtered (Cut Off at 35 Hz) Time History
 Acceleration data in cm/sec**2
    
[...]
      -0.079
      -0.005
       0.069
       0.134
       0.177
       0.193
       0.192
       0.189
       0.194
       0.211
       0.235
       0.260
       0.278
       0.280
       0.256
       0.195
       0.094
      -0.041
      -0.195
      -0.352
      -0.498
      -0.614
      -0.682
      -0.682
      -0.607
      -0.465
      -0.273
      -0.053
       0.177
       0.395
       0.581
       0.713
       0.784
       0.806
       0.810
       0.822
       0.845
       0.856
       0.818
       0.705
       0.521
       0.302
       0.093
      -0.074
      -0.190
      -0.267
      -0.321
      -0.357
      -0.363
      -0.324
      -0.244
      -0.151
      -0.088
      -0.092
      -0.166
      -0.287
      -0.416
      -0.520
      -0.588
      -0.624
      -0.638
      -0.627
      -0.578
      -0.478
      -0.330
      -0.157
       0.005
       0.127
       0.194
       0.214
       0.203
       0.180
       0.155
       0.123
       0.075
       0.004
      -0.085
      -0.182
      -0.270
      -0.338
      -0.376
      -0.376
      -0.331
      -0.236
      -0.098
       0.060
       0.206
       0.317
       0.398
       0.469
       0.553
       0.650
       0.736
       0.780
       0.760
       0.677
       0.543
       0.378
       0.198
       0.016
      -0.153
      -0.293
      -0.387
      -0.429
      -0.426
      -0.397
      -0.360
      -0.333
      -0.325
      -0.347
      -0.398
      -0.471
      -0.554
      -0.631
      -0.690
      -0.724
      -0.726
      -0.695
      -0.628
      -0.529
      -0.410
      -0.284
      -0.164
      -0.059
       0.020
       0.062
       0.050
      -0.021
      -0.138
      -0.273
      -0.399
      -0.496
      -0.551
      -0.555
      -0.501
      -0.396
      -0.261
      -0.133
      -0.047
      -0.030
      -0.080
      -0.164
      -0.230
      -0.233
      -0.157
      -0.024
       0.123
       0.239
       0.300
       0.304
       0.275
       0.249
       0.259
       0.316
       0.406
       0.503
       0.587
       0.652
       0.708
       0.770
       0.845
       0.932
       1.020
       1.095
       1.148
       1.174
       1.172
       1.146
       1.107
       1.067
       1.032
       0.993
       0.935
       0.840
       0.699
       0.517
       0.312
       0.104
      -0.088
      -0.263
      -0.422
      -0.573
      -0.713
      -0.839
      -0.949
      -1.036
      -1.090
      -1.103
      -1.070
      -1.004
      -0.925
      -0.858
      -0.811
      -0.773
      -0.725
      -0.648
      -0.531
      -0.373
      -0.177
       0.046
       0.269
       0.456
       0.573
       0.610
       0.576
       0.493
       0.378
       0.240
       0.089
      -0.045
      -0.127
      -0.133
      -0.067
       0.030
       0.113
       0.149
       0.138
       0.091
       0.021
      -0.063
      -0.157
      -0.256
      -0.355
      -0.451
      -0.541
      -0.617
      -0.670
      -0.695
      -0.700
      -0.697
      -0.702
      -0.718
      -0.738
      -0.749
      -0.746
      -0.728
      -0.697
      -0.648
      -0.579
      -0.494
      -0.411
      -0.349
      -0.316
      -0.306
      -0.305
      -0.301
      -0.295
      -0.297
      -0.326
      -0.393
      -0.498
      -0.623
      -0.743
      -0.828
      -0.861
      -0.839
      -0.768
      -0.660
      -0.526
      -0.378
      -0.225
      -0.081
       0.034
       0.103
       0.125
       0.116
       0.100
       0.096
       0.107
       0.120
       0.125
       0.119
       0.114
       0.131
       0.188
       0.284
       0.405
       0.524
       0.616
       0.665
       0.670
       0.644
       0.602
       0.564
       0.545
       0.561
       0.624
       0.737
       0.884
       1.034
       1.144
       1.188
       1.169
       1.116
       1.071
       1.052
       1.051
       1.035
       0.974
       0.861
       0.717
       0.576
       0.460
       0.367
       0.280
       0.187
       0.090
      -0.003
      -0.086
      -0.163
      -0.233
      -0.292
      -0.326
      -0.326
      -0.295
      -0.240
      -0.172
      -0.098
      -0.028
       0.023
       0.043
       0.027
      -0.013
      -0.057
      -0.090
      -0.112
      -0.137
      -0.180
      -0.246
      -0.325
      -0.404
      -0.474
      -0.535
      -0.585
      -0.616
      -0.618
      -0.592
      -0.544
      -0.492
      -0.442
      -0.393
      -0.329
      -0.242
      -0.136
      -0.039
       0.018
       0.012
      -0.056
      -0.164
      -0.283
      -0.382
      -0.439
      -0.442
      -0.400
      -0.327
      -0.235
      -0.121
       0.028
       0.219
       0.445
       0.692
       0.943
       1.183
       1.391
       1.536
       1.589
       1.541
       1.405
       1.214
       0.997
       0.781
       0.589
       0.442
       0.350
       0.313
       0.318
       0.348
       0.388
       0.436
       0.496
       0.571
       0.658
       0.741
       0.791
       0.776
       0.680
       0.523
       0.357
       0.240
       0.198
       0.211
       0.233
       0.233
       0.210
       0.194
       0.214
       0.277
       0.357
       0.410
       0.394
       0.287
       0.091
      -0.174
      -0.479
      -0.787
      -1.066
      -1.281
      -1.404
      -1.410
      -1.290
      -1.062
      -0.770
      -0.467
      -0.195
       0.041
       0.266
       0.513
       0.801
       1.116
       1.417
       1.651
       1.780
       1.803
       1.747
       1.650
       1.537
       1.407
       1.244
       1.031
       0.770
       0.484
       0.207
      -0.038
      -0.248
      -0.428
      -0.581
      -0.695
      -0.754
      -0.749
      -0.683
      -0.564
      -0.401
      -0.189
       0.079
       0.408
       0.786
       1.181
       1.545
       1.834
       2.022
       2.110
       2.125
       2.100
       2.059
       2.006
       1.931
       1.816
       1.649
       1.439
       1.204
       0.962
       0.722
       0.485
       0.246
       0.006
      -0.233
      -0.468
      -0.702
      -0.944
      -1.203
      -1.481
      -1.764
      -2.028
      -2.245
      -2.399
      -2.490
      -2.539
      -2.580
      -2.639
      -2.722
      -2.805
      -2.854
      -2.832
      -2.726
      -2.552
      -2.344
      -2.143
      -1.985
      -1.883
      -1.828
      -1.796
      -1.759
      -1.696
      -1.593
      -1.444
      -1.244
      -1.002
      -0.743
      -0.512
      -0.345
      -0.252
      -0.202
      -0.137
      -0.003
       0.217
       0.498
       0.790
       1.043
       1.233
       1.357
       1.426
       1.455
       1.449
       1.402
       1.294
       1.109
       0.854
       0.559
       0.273
       0.039
      -0.121
      -0.217
      -0.279
      -0.338
      -0.410
      -0.492
      -0.560
      -0.586
      -0.541
      -0.410
      -0.193
       0.091
       0.412
       0.734
       1.024
       1.267
       1.462
       1.626
       1.782
       1.950
       2.133
       2.318
       2.486
       2.617
       2.700
       2.731
       2.717
       2.675
       2.624
       2.575
       2.525
       2.453
       2.337
       2.166
       1.948
       1.701
       1.439
       1.167
       0.884
       0.598
       0.320
       0.063
      -0.177
      -0.418
      -0.680
      -0.966
      -1.261
      -1.536
      -1.771
      -1.961
      -2.111
      -2.226
      -2.305
      -2.335
      -2.302
      -2.200
      -2.031
      -1.809
      -1.550
      -1.268
      -0.961
      -0.617
      -0.226
       0.193
       0.585
       0.875
       1.002
       0.948
       0.740
       0.441
       0.125
      -0.149
      -0.347
      -0.457
      -0.482
      -0.429
      -0.308
      -0.138
       0.051
       0.214
       0.313
       0.326
       0.255
       0.119
      -0.065
      -0.293
      -0.564
      -0.864
      -1.163
      -1.420
      -1.615
      -1.765
      -1.920
      -2.130
      -2.422
      -2.777
      -3.144
      -3.468
      -3.712
      -3.879
      -4.001
      -4.120
      -4.262
      -4.420
      -4.552
      -4.606
      -4.544
      -4.350
      -4.018
      -3.538
      -2.892
      -2.076
      -1.126
      -0.114
       0.869
       1.743
       2.463
       3.016
       3.406
       3.631
       3.681
       3.548
       3.240
       2.793
       2.274
       1.764
       1.333
       1.022
       0.837
       0.767
       0.800
       0.935
       1.162
       1.444
       1.709
       1.878
       1.902
       1.787
       1.590
       1.384
       1.218
       1.098
       0.997
       0.887
       0.768
       0.673
       0.651
       0.730
       0.905
       1.147
       1.422
       1.703
       1.977
       2.238
       2.480
       2.685
       2.820
       2.844
       2.718
       2.428
       1.991
       1.447
       0.835
       0.184
      -0.483
      -1.132
      -1.714
      -2.171
      -2.461
      -2.581
      -2.570
      -2.493
      -2.414
      -2.376
      -2.388
      -2.444
      -2.535
      -2.667
      -2.850
      -3.093
      -3.386
      -3.696
      -3.978
      -4.184
      -4.278
      -4.227
      -4.000
      -3.573
      -2.935
      -2.111
      -1.169
      -0.212
       0.652
       1.344
       1.832
       2.119
       2.219
       2.139
       1.882
       1.462
       0.920
       0.320
      -0.263
      -0.759
      -1.111
      -1.284
      -1.272
      -1.103
      -0.813
      -0.429
       0.043
       0.618
       1.296
       2.051
       2.818
       3.510
       4.040
       4.347
       4.411
       4.252
       3.910
       3.424
       2.824
       2.143
       1.429
       0.752
       0.180
      -0.248
      -0.532
      -0.708
      -0.817
      -0.886
      -0.919
      -0.911
      -0.862
      -0.785
      -0.700
      -0.615
      -0.514
      -0.365
      -0.143
       0.152
       0.489
       0.822
       1.116
       1.363
       1.581
       1.795
       2.032
       2.308
       2.624
       2.966
       3.306
       3.600
       3.794
       3.842
       3.709
       3.381
       2.869
       2.205
       1.442
       0.642
      -0.132
      -0.827
      -1.405
      -1.845
      -2.149
      -2.341
      -2.464
      -2.564
      -2.676
      -2.813
      -2.973
      -3.152
      -3.356
      -3.606
      -3.927
      -4.344
      -4.866
      -5.480
      -6.148
      -6.801
      -7.357
      -7.731
      -7.857
      -7.697
      -7.245
      -6.535
      -5.636
      -4.639
      -3.644
      -2.731
      -1.947
      -1.305
      -0.803
      -0.441
      -0.213
      -0.099
      -0.036
       0.071
       0.325
       0.791
       1.471
       2.305
       3.202
       4.082
       4.894
       5.627
       6.283
       6.863
       7.363
       7.776
       8.106
       8.360
       8.534
       8.592
       8.470
       8.098
       7.441
       6.520
       5.406
       4.183
       2.907
       1.599
       0.258
      -1.099
      -2.423
      -3.648
      -4.726
      -5.648
      -6.443
      -7.146
      -7.756
      -8.228
      -8.487
      -8.453
      -8.068
      -7.301
      -6.154
      -4.670
      -2.934
      -1.066
       0.799
       2.542
       4.079
       5.365
       6.395
       7.173
       7.690
       7.911
       7.786
       7.278
       6.385
       5.153
       3.657
       1.996
       0.278
      -1.387
      -2.906
      -4.205
      -5.230
      -5.945
      -6.333
      -6.395
      -6.162
      -5.688
      -5.036
      -4.262
      -3.393
      -2.423
      -1.315
      -0.045
       1.363
       2.814
       4.163
       5.270
       6.060
       6.525
       6.702
       6.632
       6.352
       5.910
       5.377
       4.853
       4.430
       4.167
       4.072
       4.120
       4.276
       4.512
       4.805
       5.140
       5.501
       5.886
       6.306
       6.783
       7.343
       8.006
       8.771
       9.615
      10.496
      11.369
      12.211
      13.035
      13.870
      14.720
      15.533
      16.202
      16.599
      16.604
      16.110
      15.015
      13.218
      10.668
       7.414
       3.619
      -0.483
      -4.660
      -8.731
     -12.568
     -16.066
     -19.127
     -21.657
     -23.579
     -24.848
     -25.462
     -25.482
     -25.027
     -24.243
     -23.256
     -22.137
     -20.897
     -19.514
     -17.974
     -16.299
     -14.545
     -12.771
     -11.004
      -9.247
      -7.496
      -5.772
      -4.125
      -2.626
      -1.338
      -0.302
       0.462
       0.939
       1.106
       0.938
       0.417
      -0.445
      -1.591
      -2.903
      -4.224
      -5.392
      -6.275
      -6.775
      -6.812
      -6.316
      -5.236
      -3.559
      -1.323
       1.380
       4.414
       7.624
      10.852
      13.956
      16.814
      19.322
      21.391
      22.972
      24.082
      24.800
      25.212
      25.358
      25.208
      24.712
      23.859
      22.710
      21.376
      19.975
      18.585
      17.233
      15.888
      14.487
      12.945
      11.171
       9.091
       6.674
       3.950
       1.005
      -2.042
      -5.052
      -7.882
     -10.407
     -12.547
     -14.273
     -15.602
     -16.581
     -17.276
     -17.772
     -18.161
     -18.549
     -19.033
     -19.672
     -20.465
     -21.363
     -22.294
     -23.194
     -24.013
     -24.713
     -25.265
     -25.641
     -25.813
     -25.756
     -25.441
     -24.839
     -23.920
     -22.660
     -21.045
     -19.085
     -16.820
     -14.335
     -11.737
      -9.134
      -6.606
      -4.200
      -1.943
       0.150
       2.071
       3.798
       5.305
       6.573
       7.619
       8.508
       9.350
      10.277
      11.397
      12.750
      14.287
      15.896
      17.451
      18.852
      20.042
      20.986
      21.657
      22.025
      22.071
      21.789
      21.181
      20.237
      18.933
      17.240
      15.167
      12.800
      10.328
       8.004
       6.057
       4.618
       3.699
       3.231
       3.106
       3.211
       3.441
       3.700
       3.921
       4.068
       4.132
       4.102
       3.949
       3.619
       3.057
       2.233
       1.163
      -0.092
      -1.445
      -2.795
      -4.025
      -5.001
      -5.607
      -5.798
      -5.643
      -5.312
      -5.022
      -4.969
      -5.273
      -5.957
      -6.975
      -8.248
      -9.701
     -11.268
     -12.879
     -14.448
     -15.873
     -17.040
     -17.833
     -18.140
     -17.870
     -16.961
     -15.397
     -13.212
     -10.494
      -7.371
      -4.009
      -0.590
       2.703
       5.725
       8.385
      10.661
      12.560
      14.073
      15.134
      15.630
      15.463
      14.617
      13.184
      11.336
       9.263
       7.120
       5.017
       3.026
       1.206
      -0.385
      -1.691
      -2.690
      -3.393
      -3.843
      -4.086
      -4.157
      -4.073
      -3.846
      -3.512
      -3.144
      -2.843
      -2.705
      -2.772
      -3.012
      -3.324
      -3.580
      -3.671
      -3.547
      -3.213
      -2.695
      -2.017
      -1.207
      -0.305
       0.628
       1.504
       2.223
       2.708
       2.933
       2.945
       2.845
       2.754
       2.754
       2.848
       2.952
       2.949
       2.743
       2.318
       1.740
       1.146
       0.687
       0.495
       0.650
       1.170
       2.019
       3.114
       4.341
       5.558
       6.601
       7.288
       7.443
       6.932
       5.702
       3.807
       1.410
      -1.245
      -3.880
      -6.236
      -8.107
      -9.351
      -9.912
      -9.812
      -9.141
      -8.026
      -6.594
      -4.956
      -3.204
      -1.420
       0.290
       1.793
       2.956
       3.704
       4.051
       4.084
       3.929
       3.710
       3.521
       3.408
       3.367
       3.361
       3.349
       3.325
       3.321
       3.383
       3.530
       3.723
       3.855
       3.791
       3.403
       2.618
       1.419
      -0.151
      -2.006
      -4.016
      -6.014
      -7.817
      -9.263
     -10.263
     -10.804
     -10.922
     -10.654
     -10.007
      -8.965
      -7.529
      -5.747
      -3.725
      -1.604
       0.476
       2.403
       4.096
       5.492
       6.528
       7.139
       7.269
       6.895
       6.039
       4.775
       3.226
       1.565
      -0.017
      -1.346
      -2.301
      -2.821
      -2.894
      -2.543
      -1.838
      -0.900
       0.099
       0.985
       1.629
       1.987
       2.091
       2.003
       1.769
       1.401
       0.898
       0.275
      -0.413
      -1.073
      -1.614
      -1.985
      -2.195
      -2.304
      -2.384
      -2.494
      -2.658
      -2.872
      -3.112
      -3.340
      -3.517
      -3.600
      -3.551
      -3.344
      -2.982
      -2.492
      -1.925
      -1.332
      -0.741
      -0.154
       0.443
       1.057
       1.679
       2.286
       2.855
       3.375
       3.836
       4.232
       4.558
       4.809
       4.988
       5.116
       5.225
       5.336
       5.433
       5.453
       5.310
       4.930
       4.284
       3.391
       2.313
       1.140
      -0.028
      -1.100
      -2.015
      -2.759
      -3.360
      -3.868
      -4.323
      -4.736
      -5.090
      -5.350
      -5.485
      -5.472
      -5.295
      -4.932
      -4.365
      -3.582
      -2.595
      -1.445
      -0.196
       1.075
       2.293
       3.403
       4.368
       5.164
       5.767
       6.164
       6.364
       6.389
       6.266
       6.011
       5.638
       5.166
       4.645
       4.148
       3.754
       3.515
       3.425
       3.421
       3.393
       3.211
       2.755
       1.943
       0.759
      -0.727
      -2.377
      -4.019
      -5.491
      -6.665
      -7.456
      -7.819
      -7.751
      -7.276
      -6.428
      -5.239
      -3.742
      -1.983
      -0.037
       1.983
       3.929
       5.641
       6.973
       7.822
       8.149
       7.979
       7.392
       6.493
       5.386
       4.155
       2.858
       1.544
       0.257
      -0.954
      -2.046
      -2.984
      -3.750
      -4.346
      -4.791
      -5.115
      -5.348
      -5.508
      -5.595
      -5.591
      -5.471
      -5.224
      -4.873
      -4.463
      -4.049
      -3.669
      -3.335
      -3.033
      -2.724
      -2.363
      -1.906
      -1.330
      -0.642
       0.113
       0.866
       1.547
       2.112
       2.542
       2.839
       3.002
       3.022
       2.884
       2.578
       2.121
       1.560
       0.963
       0.416
       0.004
      -0.208
      -0.192
       0.031
       0.405
       0.868
       1.364
       1.853
       2.306
       2.704
       3.033
       3.284
       3.445
       3.496
       3.407
       3.150
       2.706
       2.086
       1.335
       0.522
      -0.280
      -1.014
      -1.651
      -2.176
      -2.579
      -2.848
      -2.978
      -2.982
      -2.886
      -2.721
      -2.509
      -2.267
      -2.010
      -1.760
      -1.540
      -1.383
      -1.321
      -1.374
      -1.537
      -1.777
      -2.039
      -2.257
      -2.371
      -2.336
      -2.117
