Origin Time       04/04/2011 11:31:40 UTC
Lat.              29.6 N	
Long.             80.8 E	
Depth (Km)         10.0
Magnitude         5.7
 Region           NEPAL-INDIA-BORDER-REGION                                        
 Above details taken from IMD 
    
Station Code      KHA
Station Lat.       28.919  N
Station Long.      79.969  E
Station Height(m)    0.0
Site Class        C   Vs30 between 200 m/sec to 375 m/sec *  
Record Time       04.04.2011 11:32:04.304 UTC
Sampling Rate     200. Hz
 Record Duration   74.735 Sec.
 Direction         N-S (N positive)
Max. Acceleration     20.830 cm/sec**2
     
  * For reference see Site Classification link of website 
     
 Base Line Corrected and Low Pass Filtered (Cut Off at 35 Hz) Time History
 Acceleration data in cm/sec**2
    
[...]
      -0.346
      -0.244
      -0.132
      -0.025
       0.057
       0.099
       0.096
       0.064
       0.025
      -0.001
      -0.004
       0.012
       0.037
       0.061
       0.087
       0.128
       0.196
       0.284
       0.367
       0.414
       0.408
       0.356
       0.288
       0.236
       0.215
       0.220
       0.239
       0.263
       0.291
       0.323
       0.354
       0.378
       0.393
       0.397
       0.383
       0.348
       0.301
       0.260
       0.244
       0.251
       0.256
       0.228
       0.156
       0.052
      -0.055
      -0.139
      -0.194
      -0.232
      -0.278
      -0.353
      -0.460
      -0.582
      -0.683
      -0.726
      -0.693
      -0.591
      -0.449
      -0.303
      -0.173
      -0.068
       0.011
       0.059
       0.078
       0.085
       0.108
       0.165
       0.254
       0.354
       0.445
       0.515
       0.566
       0.608
       0.648
       0.686
       0.712
       0.716
       0.693
       0.641
       0.562
       0.464
       0.361
       0.275
       0.225
       0.223
       0.265
       0.340
       0.433
       0.532
       0.628
       0.714
       0.782
       0.819
       0.810
       0.745
       0.623
       0.457
       0.268
       0.080
      -0.095
      -0.253
      -0.391
      -0.507
      -0.596
      -0.654
      -0.672
      -0.650
      -0.602
      -0.556
      -0.542
      -0.570
      -0.618
      -0.647
      -0.625
      -0.552
      -0.458
      -0.381
      -0.348
      -0.365
      -0.427
      -0.523
      -0.638
      -0.756
      -0.853
      -0.905
      -0.897
      -0.829
      -0.719
      -0.597
      -0.494
      -0.428
      -0.398
      -0.381
      -0.344
      -0.261
      -0.127
       0.044
       0.232
       0.418
       0.593
       0.750
       0.885
       0.990
       1.058
       1.095
       1.120
       1.145
       1.168
       1.169
       1.125
       1.021
       0.862
       0.675
       0.492
       0.333
       0.198
       0.067
      -0.074
      -0.221
      -0.354
      -0.456
      -0.520
      -0.553
      -0.554
      -0.518
      -0.433
      -0.305
      -0.161
      -0.040
       0.026
       0.029
      -0.011
      -0.056
      -0.073
      -0.058
      -0.028
      -0.018
      -0.052
      -0.127
      -0.224
      -0.317
      -0.394
      -0.448
      -0.478
      -0.481
      -0.452
      -0.394
      -0.318
      -0.234
      -0.151
      -0.072
      -0.002
       0.057
       0.108
       0.149
       0.179
       0.189
       0.180
       0.164
       0.168
       0.212
       0.297
       0.403
       0.492
       0.528
       0.495
       0.403
       0.286
       0.184
       0.127
       0.119
       0.147
       0.187
       0.221
       0.230
       0.198
       0.113
      -0.018
      -0.167
      -0.285
      -0.326
      -0.263
      -0.104
       0.113
       0.330
       0.494
       0.582
       0.605
       0.595
       0.579
       0.564
       0.543
       0.507
       0.462
       0.415
       0.367
       0.311
       0.237
       0.141
       0.033
      -0.073
      -0.174
      -0.273
      -0.376
      -0.472
      -0.540
      -0.558
      -0.524
      -0.459
      -0.390
      -0.341
      -0.320
      -0.325
      -0.343
      -0.354
      -0.341
      -0.294
      -0.207
      -0.079
       0.088
       0.281
       0.481
       0.668
       0.828
       0.950
       1.027
       1.060
       1.060
       1.037
       0.988
       0.897
       0.750
       0.552
       0.338
       0.152
       0.026
      -0.038
      -0.071
      -0.110
      -0.177
      -0.263
      -0.349
      -0.422
      -0.479
      -0.528
      -0.568
      -0.595
      -0.598
      -0.572
      -0.525
      -0.476
      -0.454
      -0.479
      -0.549
      -0.638
      -0.708
      -0.730
      -0.693
      -0.606
      -0.486
      -0.351
      -0.219
      -0.103
      -0.013
       0.046
       0.081
       0.111
       0.158
       0.232
       0.329
       0.428
       0.509
       0.564
       0.605
       0.659
       0.752
       0.894
       1.066
       1.230
       1.343
       1.381
       1.352
       1.286
       1.216
       1.156
       1.092
       0.999
       0.854
       0.648
       0.390
       0.094
      -0.221
      -0.535
      -0.830
      -1.085
      -1.292
      -1.453
      -1.579
      -1.681
      -1.757
      -1.794
      -1.780
      -1.712
      -1.594
      -1.446
      -1.292
      -1.153
      -1.039
      -0.943
      -0.845
      -0.720
      -0.554
      -0.359
      -0.167
      -0.014
       0.076
       0.107
       0.103
       0.094
       0.098
       0.117
       0.136
       0.144
       0.144
       0.145
       0.150
       0.151
       0.135
       0.096
       0.042
      -0.005
      -0.025
      -0.004
       0.055
       0.140
       0.234
       0.326
       0.412
       0.488
       0.551
       0.600
       0.644
       0.692
       0.742
       0.780
       0.782
       0.729
       0.621
       0.471
       0.303
       0.137
      -0.013
      -0.140
      -0.244
      -0.330
      -0.411
      -0.503
      -0.611
      -0.712
      -0.767
      -0.736
      -0.598
      -0.357
      -0.049
       0.278
       0.576
       0.809
       0.971
       1.074
       1.143
       1.198
       1.249
       1.295
       1.326
       1.327
       1.285
       1.192
       1.058
       0.894
       0.718
       0.544
       0.384
       0.248
       0.131
       0.021
      -0.099
      -0.240
      -0.404
      -0.577
      -0.744
      -0.895
      -1.025
      -1.133
      -1.217
      -1.266
      -1.265
      -1.200
      -1.060
      -0.842
      -0.560
      -0.252
       0.031
       0.240
       0.348
       0.360
       0.316
       0.268
       0.252
       0.283
       0.353
       0.445
       0.537
       0.611
       0.654
       0.668
       0.672
       0.690
       0.739
       0.821
       0.907
       0.951
       0.922
       0.821
       0.681
       0.546
       0.447
       0.395
       0.382
       0.376
       0.338
       0.232
       0.052
      -0.169
      -0.370
      -0.497
      -0.526
      -0.479
      -0.399
      -0.328
      -0.288
      -0.286
      -0.321
      -0.389
      -0.479
      -0.576
      -0.669
      -0.754
      -0.841
      -0.938
      -1.044
      -1.145
      -1.234
      -1.308
      -1.367
      -1.407
      -1.412
      -1.372
      -1.291
      -1.182
      -1.065
      -0.964
      -0.904
      -0.904
      -0.969
      -1.084
      -1.211
      -1.311
      -1.358
      -1.345
      -1.270
      -1.134
      -0.944
      -0.725
      -0.510
      -0.327
      -0.176
      -0.025
       0.164
       0.405
       0.674
       0.928
       1.135
       1.288
       1.393
       1.454
       1.475
       1.463
       1.424
       1.356
       1.258
       1.133
       0.993
       0.853
       0.724
       0.596
       0.442
       0.231
      -0.046
      -0.374
      -0.714
      -1.026
      -1.270
      -1.413
      -1.435
      -1.334
      -1.129
      -0.853
      -0.539
      -0.213
       0.117
       0.454
       0.798
       1.134
       1.429
       1.643
       1.743
       1.723
       1.601
       1.411
       1.179
       0.919
       0.627
       0.291
      -0.101
      -0.554
      -1.059
      -1.584
      -2.086
      -2.523
      -2.864
      -3.104
      -3.258
      -3.350
      -3.394
      -3.395
      -3.348
      -3.252
      -3.106
      -2.913
      -2.680
      -2.417
      -2.139
      -1.857
      -1.577
      -1.304
      -1.048
      -0.818
      -0.619
      -0.455
      -0.323
      -0.220
      -0.148
      -0.107
      -0.097
      -0.102
      -0.106
      -0.090
      -0.035
       0.070
       0.218
       0.382
       0.520
       0.606
       0.649
       0.695
       0.788
       0.944
       1.132
       1.301
       1.416
       1.477
       1.512
       1.556
       1.631
       1.738
       1.862
       1.984
       2.086
       2.159
       2.192
       2.178
       2.118
       2.030
       1.943
       1.893
       1.901
       1.965
       2.057
       2.141
       2.193
       2.219
       2.236
       2.267
       2.320
       2.386
       2.449
       2.491
       2.506
       2.492
       2.452
       2.385
       2.289
       2.151
       1.953
       1.672
       1.298
       0.833
       0.296
      -0.288
      -0.901
      -1.535
      -2.179
      -2.813
      -3.411
      -3.954
      -4.446
      -4.903
      -5.330
      -5.711
      -6.015
      -6.218
      -6.319
      -6.339
      -6.316
      -6.277
      -6.231
      -6.165
      -6.061
      -5.902
      -5.687
      -5.424
      -5.128
      -4.808
      -4.479
      -4.153
      -3.850
      -3.580
      -3.340
      -3.111
      -2.864
      -2.570
      -2.200
      -1.742
      -1.198
      -0.587
       0.072
       0.758
       1.455
       2.143
       2.802
       3.417
       3.979
       4.477
       4.902
       5.244
       5.504
       5.695
       5.837
       5.950
       6.031
       6.047
       5.948
       5.693
       5.277
       4.737
       4.138
       3.546
       3.021
       2.608
       2.322
       2.140
       2.003
       1.834
       1.572
       1.199
       0.758
       0.325
      -0.020
      -0.238
      -0.337
      -0.362
      -0.363
      -0.385
      -0.464
      -0.624
      -0.873
      -1.190
      -1.528
      -1.827
      -2.040
      -2.154
      -2.191
      -2.184
      -2.160
      -2.126
      -2.068
      -1.962
      -1.795
      -1.563
      -1.270
      -0.929
      -0.557
      -0.183
       0.166
       0.471
       0.727
       0.938
       1.106
       1.229
       1.303
       1.334
       1.344
       1.367
       1.422
       1.497
       1.551
       1.537
       1.428
       1.219
       0.934
       0.600
       0.248
      -0.096
      -0.403
      -0.639
      -0.768
      -0.775
      -0.671
      -0.479
      -0.221
       0.097
       0.473
       0.904
       1.367
       1.819
       2.207
       2.482
       2.601
       2.527
       2.235
       1.718
       1.011
       0.180
      -0.700
      -1.564
      -2.369
      -3.078
      -3.648
      -4.023
      -4.162
      -4.067
      -3.796
      -3.442
      -3.094
      -2.799
      -2.535
      -2.223
      -1.757
      -1.058
      -0.109
       1.027
       2.230
       3.357
       4.288
       4.956
       5.352
       5.515
       5.507
       5.399
       5.254
       5.099
       4.917
       4.656
       4.248
       3.647
       2.845
       1.883
       0.829
      -0.247
      -1.291
      -2.263
      -3.130
      -3.869
      -4.460
      -4.897
      -5.188
      -5.350
      -5.412
      -5.397
      -5.306
      -5.115
      -4.789
      -4.307
      -3.689
      -2.998
      -2.312
      -1.693
      -1.161
      -0.703
      -0.300
       0.059
       0.369
       0.628
       0.842
       1.032
       1.222
       1.437
       1.697
       2.018
       2.410
       2.867
       3.370
       3.881
       4.352
       4.736
       4.993
       5.082
       4.966
       4.622
       4.068
       3.371
       2.641
       1.987
       1.475
       1.117
       0.881
       0.731
       0.642
       0.602
       0.599
       0.613
       0.628
       0.633
       0.621
       0.575
       0.462
       0.243
      -0.101
      -0.553
      -1.062
      -1.557
      -1.971
      -2.253
      -2.373
      -2.321
      -2.110
      -1.776
      -1.379
      -0.983
      -0.632
      -0.333
      -0.060
       0.223
       0.534
       0.869
       1.209
       1.551
       1.903
       2.278
       2.670
       3.053
       3.380
       3.601
       3.687
       3.641
       3.500
       3.308
       3.101
       2.901
       2.726
       2.592
       2.499
       2.424
       2.321
       2.141
       1.846
       1.418
       0.854
       0.160
      -0.640
      -1.501
      -2.353
      -3.119
      -3.737
      -4.187
      -4.503
      -4.756
      -5.028
      -5.379
      -5.823
      -6.322
      -6.805
      -7.185
      -7.383
      -7.335
      -6.993
      -6.341
      -5.398
      -4.214
      -2.853
      -1.360
       0.234
       1.898
       3.579
       5.199
       6.672
       7.925
       8.904
       9.561
       9.839
       9.678
       9.040
       7.955
       6.531
       4.931
       3.312
       1.765
       0.316
      -1.048
      -2.341
      -3.547
      -4.622
      -5.501
      -6.116
      -6.408
      -6.346
      -5.936
      -5.232
      -4.320
      -3.301
      -2.261
      -1.255
      -0.321
       0.514
       1.233
       1.820
       2.260
       2.524
       2.578
       2.396
       1.978
       1.360
       0.598
      -0.242
      -1.094
      -1.895
      -2.602
      -3.194
      -3.676
      -4.074
      -4.414
      -4.707
      -4.939
      -5.082
      -5.111
      -5.038
      -4.916
      -4.826
      -4.839
      -4.995
      -5.298
      -5.748
      -6.355
      -7.126
      -8.022
      -8.947
      -9.779
     -10.430
     -10.866
     -11.081
     -11.054
     -10.747
     -10.150
      -9.318
      -8.348
      -7.297
      -6.128
      -4.730
      -2.995
      -0.906
       1.445
       3.896
       6.296
       8.550
      10.633
      12.560
      14.344
      15.971
      17.399
      18.577
      19.476
      20.106
      20.515
      20.748
      20.830
      20.758
      20.519
      20.104
      19.520
      18.793
      17.964
      17.088
      16.227
      15.421
      14.674
      13.939
      13.132
      12.153
      10.914
       9.355
       7.462
       5.273
       2.868
       0.344
      -2.201
      -4.695
      -7.102
      -9.408
     -11.566
     -13.479
     -15.030
     -16.151
     -16.848
     -17.183
     -17.229
     -17.042
     -16.650
     -16.063
     -15.284
     -14.328
     -13.217
     -11.978
     -10.633
      -9.216
      -7.777
      -6.379
      -5.097
      -4.001
      -3.128
      -2.461
      -1.933
      -1.455
      -0.939
      -0.326
       0.390
       1.141
       1.795
       2.217
       2.328
       2.123
       1.648
       0.969
       0.149
      -0.762
      -1.735
      -2.751
      -3.786
      -4.800
      -5.740
      -6.548
      -7.181
      -7.633
      -7.932
      -8.119
      -8.228
      -8.267
      -8.229
      -8.092
      -7.836
      -7.441
      -6.888
      -6.143
      -5.165
      -3.933
      -2.467
      -0.821
       0.939
       2.740
       4.505
       6.162
       7.643
       8.903
       9.939
      10.800
      11.572
      12.326
      13.079
      13.784
      14.358
      14.724
      14.840
      14.703
      14.339
      13.768
      12.992
      12.014
      10.858
       9.579
       8.263
       6.997
       5.831
       4.750
       3.686
       2.557
       1.294
      -0.150
      -1.800
      -3.651
      -5.651
      -7.696
      -9.640
     -11.323
     -12.613
     -13.429
     -13.761
     -13.651
     -13.160
     -12.350
     -11.265
      -9.935
      -8.388
      -6.654
      -4.783
      -2.841
      -0.909
       0.934
       2.605
       4.016
       5.083
       5.744
       5.973
       5.770
       5.155
       4.177
       2.929
       1.534
       0.106
      -1.292
      -2.652
      -3.978
      -5.264
      -6.478
      -7.571
      -8.483
      -9.158
      -9.535
      -9.552
      -9.140
      -8.253
      -6.905
      -5.184
      -3.228
      -1.173
       0.892
       2.921
       4.878
       6.701
       8.290
       9.539
      10.369
      10.745
      10.667
      10.165
       9.311
       8.238
       7.114
       6.081
       5.208
       4.477
       3.834
       3.236
       2.673
       2.149
       1.644
       1.107
       0.478
      -0.266
      -1.073
      -1.835
      -2.434
      -2.792
      -2.896
      -2.772
      -2.449
      -1.932
      -1.224
      -0.350
       0.614
       1.560
       2.354
       2.858
       2.954
       2.572
       1.706
       0.404
      -1.248
      -3.130
      -5.100
      -7.017
      -8.775
     -10.316
     -11.616
     -12.653
     -13.380
     -13.725
     -13.613
     -12.986
     -11.837
     -10.230
      -8.316
      -6.307
      -4.398
      -2.691
      -1.186
       0.180
       1.467
       2.708
       3.901
       5.025
       6.049
       6.953
       7.728
       8.381
       8.932
       9.406
       9.810
      10.124
      10.317
      10.359
      10.205
       9.797
       9.088
       8.075
       6.820
       5.419
       3.965
       2.521
       1.119
      -0.228
      -1.505
      -2.672
      -3.666
      -4.427
      -4.921
      -5.143
      -5.115
      -4.870
      -4.449
      -3.893
      -3.243
      -2.548
      -1.859
      -1.229
      -0.708
      -0.336
      -0.139
      -0.124
      -0.277
      -0.571
      -0.959
      -1.367
      -1.704
      -1.893
      -1.892
      -1.691
      -1.312
      -0.822
      -0.325
       0.065
       0.264
       0.249
       0.059
      -0.235
      -0.555
      -0.849
      -1.102
      -1.327
      -1.560
      -1.841
      -2.208
      -2.673
      -3.212
      -3.752
      -4.181
      -4.362
      -4.184
      -3.599
      -2.640
      -1.402
      -0.013
       1.394
       2.699
       3.802
       4.634
       5.155
       5.359
       5.261
       4.901
       4.338
       3.654
       2.945
       2.305
       1.806
       1.481
       1.327
       1.321
       1.449
       1.707
       2.092
       2.576
       3.101
       3.592
       3.983
       4.229
       4.296
       4.153
       3.762
       3.114
       2.258
       1.312
       0.412
      -0.341
      -0.911
      -1.315
      -1.590
      -1.771
      -1.890
      -1.975
      -2.049
      -2.127
      -2.208
      -2.274
      -2.301
      -2.283
      -2.243
      -2.216
      -2.221
      -2.249
      -2.264
      -2.217
      -2.057
      -1.750
      -1.283
      -0.673
       0.029
       0.734
       1.335
       1.746
       1.955
       2.022
       2.045
       2.096
       2.179
       2.233
       2.172
       1.940
       1.532
       0.982
       0.347
      -0.299
      -0.884
      -1.352
      -1.688
      -1.913
      -2.066
      -2.180
      -2.267
      -2.331
      -2.379
      -2.435
      -2.535
      -2.696
      -2.894
      -3.060
      -3.111
      -2.982
      -2.645
      -2.108
      -1.398
      -0.546
       0.408
       1.407
       2.373
       3.225
       3.900
       4.359
       4.584
       4.562
       4.296
       3.814
       3.189
       2.523
       1.926
       1.472
       1.197
       1.099
       1.154
       1.314
       1.515
       1.691
       1.788
       1.764
       1.600
       1.309
       0.942
       0.568
       0.236
      -0.043
      -0.290
      -0.529
      -0.758
      -0.945
      -1.041
      -1.004
      -0.820
      -0.497
      -0.071
       0.409
       0.877
       1.276
       1.577
       1.796
       1.971
       2.147
       2.340
       2.532
       2.687
       2.765
       2.738
       2.582
       2.274
       1.807
       1.202
       0.511
      -0.193
      -0.846
      -1.413
      -1.886
