Origin Time       31/1/2009 03:07:15 
Lat.              32.5 N 
Long.             75.9 E 
Depth (Km)         10.0
Magnitude         3.7
 Region           HIMACHAL-PRADESH                                                 
 Above details taken from IMD 
   
Station Code      KLG
Station Lat.       32.559
Station Long.      77.001
Station Height(m) 3129.0
Site Class        A   Vs30 between 700 m/sec to 1400 m/sec * 
Record Time       31.01.2009 03:07:19.634
Sampling Rate     200. Hz
 Record Duration   65.000 Sec.
 Direction         Vert. (Up positive)
Max. Acceleration      2.649 cm/sec**2
     
  * For reference see Site Classification link of website 
     
 Base Line Corrected and Low Pass Filtered (Cut Off at 35 Hz) Time History
 Acceleration data in cm/sec**2
    
[...]
      -0.022
      -0.054
      -0.100
      -0.088
      -0.027
      -0.013
      -0.097
      -0.172
      -0.061
       0.277
       0.650
       0.779
       0.540
       0.072
      -0.348
      -0.506
      -0.378
      -0.103
       0.131
       0.213
       0.165
       0.085
       0.035
      -0.007
      -0.089
      -0.201
      -0.274
      -0.254
      -0.161
      -0.077
      -0.055
      -0.069
      -0.032
       0.098
       0.243
       0.267
       0.120
      -0.092
      -0.205
      -0.146
       0.008
       0.123
       0.130
       0.060
      -0.031
      -0.119
      -0.202
      -0.243
      -0.182
      -0.007
       0.208
       0.346
       0.345
       0.237
       0.099
      -0.024
      -0.130
      -0.230
      -0.297
      -0.272
      -0.123
       0.106
       0.299
       0.353
       0.246
       0.065
      -0.079
      -0.137
      -0.150
      -0.156
      -0.132
      -0.017
       0.187
       0.380
       0.422
       0.248
      -0.076
      -0.388
      -0.540
      -0.486
      -0.302
      -0.117
      -0.024
      -0.026
      -0.051
      -0.015
       0.089
       0.171
       0.123
      -0.047
      -0.202
      -0.210
      -0.062
       0.124
       0.224
       0.196
       0.082
      -0.049
      -0.139
      -0.144
      -0.046
       0.107
       0.212
       0.187
       0.066
      -0.029
      -0.017
       0.045
       0.033
      -0.096
      -0.236
      -0.239
      -0.069
       0.146
       0.228
       0.116
      -0.083
      -0.212
      -0.213
      -0.145
      -0.083
      -0.034
       0.044
       0.159
       0.243
       0.205
       0.040
      -0.144
      -0.224
      -0.182
      -0.110
      -0.095
      -0.131
      -0.135
      -0.036
       0.138
       0.285
       0.325
       0.268
       0.178
       0.079
      -0.060
      -0.240
      -0.364
      -0.321
      -0.114
       0.120
       0.246
       0.259
       0.258
       0.297
       0.327
       0.274
       0.153
       0.054
       0.021
      -0.005
      -0.106
      -0.266
      -0.377
      -0.372
      -0.310
      -0.295
      -0.348
      -0.385
      -0.327
      -0.179
      -0.005
       0.153
       0.284
       0.358
       0.309
       0.116
      -0.119
      -0.213
      -0.071
       0.196
       0.355
       0.265
      -0.005
      -0.271
      -0.406
      -0.406
      -0.312
      -0.141
       0.080
       0.264
       0.314
       0.244
       0.179
       0.216
       0.296
       0.263
       0.046
      -0.224
      -0.315
      -0.134
       0.159
       0.292
       0.158
      -0.104
      -0.276
      -0.280
      -0.194
      -0.112
      -0.049
       0.032
       0.134
       0.215
       0.230
       0.174
       0.072
      -0.036
      -0.113
      -0.139
      -0.126
      -0.114
      -0.139
      -0.197
      -0.239
      -0.201
      -0.058
       0.139
       0.294
       0.332
       0.247
       0.097
      -0.027
      -0.046
       0.062
       0.226
       0.304
       0.192
      -0.060
      -0.265
      -0.264
      -0.083
       0.099
       0.140
       0.060
      -0.029
      -0.067
      -0.098
      -0.184
      -0.306
      -0.361
      -0.250
       0.016
       0.302
       0.447
       0.390
       0.201
      -0.001
      -0.154
      -0.276
      -0.403
      -0.516
      -0.539
      -0.405
      -0.128
       0.191
       0.418
       0.473
       0.377
       0.230
       0.133
       0.113
       0.127
       0.121
       0.082
       0.021
      -0.063
      -0.182
      -0.321
      -0.427
      -0.453
      -0.396
      -0.283
      -0.126
       0.078
       0.319
       0.528
       0.591
       0.423
       0.059
      -0.317
      -0.466
      -0.284
       0.091
       0.378
       0.394
       0.201
       0.010
      -0.036
       0.021
       0.037
      -0.057
      -0.182
      -0.209
      -0.111
       0.004
       0.022
      -0.050
      -0.093
      -0.020
       0.117
       0.181
       0.109
      -0.012
      -0.039
       0.058
       0.157
       0.115
      -0.062
      -0.219
      -0.213
      -0.044
       0.150
       0.210
       0.085
      -0.134
      -0.274
      -0.204
       0.053
       0.335
       0.467
       0.383
       0.136
      -0.173
      -0.447
      -0.594
      -0.529
      -0.252
       0.093
       0.298
       0.273
       0.121
       0.010
      -0.009
      -0.021
      -0.104
      -0.225
      -0.288
      -0.250
      -0.142
      -0.021
       0.068
       0.092
       0.040
      -0.049
      -0.091
      -0.020
       0.147
       0.309
       0.363
       0.287
       0.136
      -0.009
      -0.085
      -0.049
       0.091
       0.246
       0.281
       0.133
      -0.116
      -0.300
      -0.320
      -0.216
      -0.104
      -0.060
      -0.064
      -0.058
      -0.022
       0.009
      -0.003
      -0.051
      -0.086
      -0.058
       0.038
       0.160
       0.251
       0.282
       0.261
       0.190
       0.043
      -0.178
      -0.383
      -0.434
      -0.277
      -0.010
       0.194
       0.235
       0.131
      -0.038
      -0.194
      -0.278
      -0.248
      -0.102
       0.099
       0.262
       0.336
       0.328
       0.266
       0.151
      -0.015
      -0.188
      -0.303
      -0.324
      -0.267
      -0.166
      -0.033
       0.134
       0.292
       0.343
       0.218
      -0.019
      -0.198
      -0.200
      -0.079
      -0.001
      -0.060
      -0.196
      -0.279
      -0.242
      -0.131
      -0.035
       0.005
       0.047
       0.193
       0.466
       0.721
       0.731
       0.393
      -0.133
      -0.530
      -0.590
      -0.391
      -0.198
      -0.197
      -0.320
      -0.344
      -0.145
       0.165
       0.352
       0.297
       0.098
      -0.057
      -0.086
      -0.051
      -0.041
      -0.059
      -0.046
       0.015
       0.074
       0.085
       0.078
       0.122
       0.232
       0.325
       0.302
       0.163
       0.002
      -0.095
      -0.139
      -0.203
      -0.313
      -0.415
      -0.438
      -0.356
      -0.191
       0.011
       0.193
       0.292
       0.285
       0.221
       0.173
       0.144
       0.061
      -0.128
      -0.359
      -0.490
      -0.425
      -0.202
       0.054
       0.233
       0.308
       0.321
       0.316
       0.285
       0.177
      -0.041
      -0.319
      -0.535
      -0.575
      -0.413
      -0.126
       0.160
       0.344
       0.398
       0.356
       0.269
       0.164
       0.058
      -0.005
       0.026
       0.133
       0.202
       0.106
      -0.151
      -0.395
      -0.415
      -0.151
       0.236
       0.479
       0.427
       0.161
      -0.086
      -0.133
       0.009
       0.173
       0.181
      -0.018
      -0.313
      -0.526
      -0.544
      -0.392
      -0.185
      -0.023
       0.074
       0.146
       0.234
       0.322
       0.343
       0.225
      -0.024
      -0.282
      -0.382
      -0.245
       0.043
       0.300
       0.390
       0.318
       0.185
       0.070
      -0.028
      -0.140
      -0.238
      -0.230
      -0.052
       0.236
       0.456
       0.440
       0.168
      -0.208
      -0.475
      -0.507
      -0.337
      -0.101
       0.083
       0.182
       0.217
       0.197
       0.083
      -0.146
      -0.419
      -0.591
      -0.556
      -0.349
      -0.116
       0.036
       0.123
       0.223
       0.334
       0.348
       0.171
      -0.136
      -0.373
      -0.378
      -0.178
       0.053
       0.188
       0.266
       0.390
       0.539
       0.545
       0.304
      -0.057
      -0.263
      -0.169
       0.098
       0.287
       0.287
       0.192
       0.118
       0.032
      -0.180
      -0.499
      -0.709
      -0.586
      -0.150
       0.346
       0.650
       0.703
       0.588
       0.352
      -0.035
      -0.550
      -1.002
      -1.153
      -0.941
      -0.523
      -0.094
       0.278
       0.593
       0.768
       0.653
       0.236
      -0.242
      -0.455
      -0.280
       0.078
       0.291
       0.202
      -0.062
      -0.254
      -0.253
      -0.133
      -0.034
       0.005
       0.072
       0.267
       0.576
       0.846
       0.882
       0.593
       0.078
      -0.433
      -0.746
      -0.829
      -0.770
      -0.635
      -0.393
      -0.013
       0.419
       0.706
       0.694
       0.398
      -0.018
      -0.380
      -0.610
      -0.711
      -0.675
      -0.451
      -0.028
       0.434
       0.645
       0.418
      -0.122
      -0.589
      -0.652
      -0.299
       0.177
       0.448
       0.418
       0.255
       0.183
       0.236
       0.234
       0.008
      -0.363
      -0.568
      -0.340
       0.282
       0.960
       1.297
       1.113
       0.546
      -0.063
      -0.422
      -0.474
      -0.379
      -0.330
      -0.379
      -0.432
      -0.381
      -0.226
      -0.098
      -0.136
      -0.338
      -0.508
      -0.395
       0.074
       0.681
       1.042
       0.890
       0.284
      -0.426
      -0.870
      -0.912
      -0.689
      -0.424
      -0.233
      -0.087
       0.080
       0.286
       0.500
       0.661
       0.688
       0.508
       0.132
      -0.297
      -0.572
      -0.551
      -0.264
       0.113
       0.396
       0.530
       0.618
       0.786
       1.018
       1.134
       0.942
       0.415
      -0.259
      -0.803
      -1.044
      -1.014
      -0.898
      -0.854
      -0.874
      -0.802
      -0.494
       0.027
       0.550
       0.812
       0.684
       0.270
      -0.165
      -0.388
      -0.378
      -0.318
      -0.396
      -0.584
      -0.641
      -0.343
       0.305
       1.049
       1.557
       1.586
       1.061
       0.128
      -0.855
      -1.443
      -1.364
      -0.743
      -0.041
       0.284
       0.161
      -0.058
       0.049
       0.545
       1.063
       1.165
       0.748
       0.104
      -0.380
      -0.535
      -0.472
      -0.387
      -0.363
      -0.322
      -0.145
       0.182
       0.555
       0.831
       0.919
       0.786
       0.447
      -0.006
      -0.421
      -0.672
      -0.772
      -0.840
      -0.955
      -1.042
      -0.954
      -0.627
      -0.159
       0.267
       0.533
       0.650
       0.708
       0.764
       0.764
       0.568
       0.104
      -0.475
      -0.810
      -0.622
       0.004
       0.614
       0.735
       0.269
      -0.405
      -0.735
      -0.443
       0.253
       0.817
       0.825
       0.263
      -0.520
      -1.112
      -1.289
      -1.046
      -0.512
       0.121
       0.636
       0.870
       0.828
       0.667
       0.540
       0.451
       0.311
       0.107
      -0.029
       0.023
       0.195
       0.268
       0.109
      -0.163
      -0.288
      -0.145
       0.101
       0.150
      -0.131
      -0.571
      -0.867
      -0.866
      -0.692
      -0.578
      -0.612
      -0.666
      -0.560
      -0.266
       0.065
       0.269
       0.330
       0.388
       0.586
       0.911
       1.174
       1.162
       0.833
       0.368
       0.008
      -0.151
      -0.197
      -0.253
      -0.315
      -0.282
      -0.118
       0.030
      -0.043
      -0.375
      -0.751
      -0.870
      -0.612
      -0.130
       0.288
       0.456
       0.394
       0.239
       0.089
      -0.054
      -0.197
      -0.269
      -0.143
       0.224
       0.706
       1.050
       1.019
       0.537
      -0.231
      -0.935
      -1.235
      -1.053
      -0.638
      -0.373
      -0.444
      -0.692
      -0.777
      -0.498
       0.040
       0.557
       0.877
       1.056
       1.242
       1.439
       1.452
       1.101
       0.467
      -0.113
      -0.321
      -0.146
       0.099
       0.034
      -0.461
      -1.132
      -1.525
      -1.329
      -0.624
       0.156
       0.543
       0.361
      -0.194
      -0.757
      -1.049
      -0.994
      -0.656
      -0.145
       0.414
       0.868
       1.065
       0.936
       0.563
       0.141
      -0.139
      -0.202
      -0.090
       0.125
       0.413
       0.745
       1.007
       1.020
       0.709
       0.237
      -0.109
      -0.201
      -0.206
      -0.401
      -0.858
      -1.334
      -1.491
      -1.185
      -0.574
       0.042
       0.463
       0.678
       0.761
       0.715
       0.470
       0.032
      -0.377
      -0.401
       0.167
       1.119
       1.853
       1.778
       0.804
      -0.515
      -1.378
      -1.365
      -0.738
      -0.152
      -0.054
      -0.359
      -0.634
      -0.554
      -0.175
       0.151
       0.111
      -0.292
      -0.749
      -0.947
      -0.884
      -0.828
      -0.956
      -1.072
      -0.776
       0.087
       1.178
       1.898
       1.857
       1.144
       0.216
      -0.437
      -0.555
      -0.201
       0.337
       0.746
       0.885
       0.845
       0.837
       0.961
       1.061
       0.816
       0.058
      -0.980
      -1.791
      -2.006
      -1.686
      -1.177
      -0.717
      -0.275
       0.222
       0.613
       0.570
      -0.026
      -0.822
      -1.171
      -0.647
       0.565
       1.761
       2.241
       1.817
       0.895
       0.103
      -0.163
       0.070
       0.487
       0.723
       0.525
      -0.157
      -1.133
      -2.019
      -2.445
      -2.294
      -1.773
      -1.206
      -0.738
      -0.229
       0.539
       1.545
       2.412
       2.649
       2.067
       1.005
       0.093
      -0.267
      -0.208
      -0.187
      -0.487
      -0.943
      -1.136
      -0.803
      -0.075
       0.658
       1.070
       1.118
       0.982
       0.827
       0.653
       0.337
      -0.213
      -0.954
      -1.691
      -2.147
      -2.083
      -1.460
      -0.541
       0.234
       0.570
       0.554
       0.552
       0.841
       1.337
       1.669
       1.498
       0.800
      -0.126
      -0.858
      -1.099
      -0.803
      -0.132
       0.661
       1.327
       1.631
       1.386
       0.599
      -0.429
      -1.204
      -1.381
      -1.023
      -0.522
      -0.231
      -0.186
      -0.196
      -0.170
      -0.254
      -0.605
      -1.053
      -1.137
      -0.558
       0.409
       1.059
       0.871
      -0.001
      -0.869
      -1.112
      -0.655
       0.111
       0.766
       1.191
       1.493
       1.715
       1.704
       1.272
       0.441
      -0.494
      -1.161
      -1.374
      -1.222
      -0.944
      -0.736
      -0.639
      -0.574
      -0.478
      -0.383
      -0.387
      -0.526
      -0.683
      -0.644
      -0.271
       0.354
       0.966
       1.312
       1.322
       1.112
       0.856
       0.655
       0.512
       0.382
       0.217
      -0.009
      -0.260
      -0.444
      -0.469
      -0.351
      -0.225
      -0.220
      -0.324
      -0.412
      -0.410
      -0.414
      -0.578
      -0.903
      -1.156
      -1.050
      -0.510
       0.215
       0.734
       0.822
       0.616
       0.501
       0.766
       1.327
       1.791
       1.796
       1.303
       0.574
      -0.077
      -0.507
      -0.747
      -0.862
      -0.843
      -0.649
      -0.331
      -0.097
      -0.187
      -0.624
      -1.121
      -1.284
      -0.982
      -0.478
      -0.151
      -0.106
      -0.107
       0.081
       0.371
       0.433
       0.101
      -0.357
      -0.422
       0.189
       1.204
       1.974
       2.011
       1.386
       0.609
       0.115
      -0.107
      -0.376
      -0.856
      -1.306
      -1.322
      -0.773
       0.072
       0.804
       1.203
       1.288
       1.148
       0.822
       0.348
      -0.158
      -0.513
      -0.572
      -0.351
      -0.033
       0.152
       0.088
      -0.170
      -0.478
      -0.718
      -0.822
      -0.723
      -0.357
       0.218
       0.754
       0.949
       0.687
       0.131
      -0.447
      -0.880
      -1.156
      -1.279
      -1.186
      -0.822
      -0.270
       0.238
       0.491
       0.485
       0.405
       0.415
       0.475
       0.408
       0.137
      -0.190
      -0.317
      -0.125
       0.281
       0.671
       0.883
       0.895
       0.770
       0.568
       0.317
       0.037
      -0.229
      -0.440
      -0.591
      -0.715
      -0.829
      -0.879
      -0.780
      -0.521
      -0.205
       0.038
       0.152
       0.150
       0.054
      -0.110
      -0.283
      -0.393
      -0.454
      -0.574
      -0.810
      -1.030
      -0.987
      -0.548
       0.147
       0.792
       1.145
       1.189
       1.088
       1.011
       0.963
       0.808
       0.440
      -0.042
      -0.379
      -0.373
      -0.067
       0.287
       0.435
       0.318
       0.089
      -0.041
       0.044
       0.326
       0.719
       1.105
       1.318
       1.175
       0.609
      -0.228
      -1.008
      -1.429
      -1.400
      -1.076
      -0.737
      -0.591
      -0.634
      -0.666
      -0.477
      -0.062
       0.338
       0.425
       0.092
      -0.473
      -0.910
      -0.914
      -0.431
       0.292
       0.856
       0.975
       0.684
       0.280
       0.081
       0.181
       0.425
       0.578
       0.517
       0.305
       0.098
      -0.006
      -0.024
      -0.036
      -0.096
      -0.223
      -0.409
      -0.612
      -0.722
      -0.621
      -0.286
       0.149
       0.485
       0.596
       0.508
       0.339
       0.194
       0.117
       0.113
       0.180
       0.289
       0.359
       0.282
       0.003
      -0.410
      -0.786
      -0.959
      -0.864
      -0.569
      -0.240
      -0.061
      -0.129
      -0.368
      -0.562
      -0.513
      -0.212
       0.148
       0.331
       0.265
       0.097
       0.052
       0.229
       0.525
       0.739
       0.744
       0.582
       0.398
       0.292
       0.232
       0.119
      -0.075
      -0.248
      -0.273
      -0.138
       0.026
       0.067
      -0.047
      -0.203
      -0.263
      -0.195
      -0.084
      -0.036
      -0.079
      -0.148
      -0.148
      -0.043
       0.113
       0.198
       0.133
      -0.039
      -0.171
      -0.156
      -0.042
       0.012
      -0.085
      -0.246
      -0.278
      -0.097
       0.170
       0.299
       0.179
      -0.075
      -0.233
      -0.158
       0.079
       0.274
       0.274
       0.080
      -0.177
      -0.341
      -0.325
      -0.144
       0.075
       0.179
       0.107
      -0.047
      -0.119
      -0.033
       0.128
       0.216
       0.184
       0.124
       0.150
       0.247
       0.276
       0.133
      -0.118
      -0.287
      -0.223
       0.057
       0.396
       0.610
       0.604
       0.401
       0.092
      -0.218
      -0.455
      -0.599
      -0.672
      -0.695
      -0.659
      -0.541
      -0.347
      -0.121
       0.080
       0.213
       0.262
       0.230
       0.130
      -0.008
      -0.140
      -0.232
      -0.278
      -0.306
      -0.330
      -0.311
      -0.191
       0.008
       0.161
       0.137
      -0.034
      -0.148
      -0.008
       0.360
       0.706
       0.791
       0.610
       0.369
       0.267
       0.308
       0.335
       0.226
       0.037
      -0.049
       0.094
