Origin Time       17/7/2009 11:07:47 
Lat.              32.3 N 
Long.             76.1 E 
Depth (Km)         39.3
Magnitude         3.7
 Region           CHAMBA-(H.P.)                                                    
 Above details taken from IMD 
     
Station Code      KLG
Station Lat.       32.559  N
Station Long.      77.001  E
Station Height(m)    0.0
Site Class        A   Vs30 between 700 m/sec to 1400 m/sec * 
Record Time       17.07.2009 11:07:48.529
Sampling Rate     200. Hz
 Record Duration   69.040 Sec.
 Direction         E-W (E positive)
Max. Acceleration    -10.357 cm/sec**2
     
  * For reference see Site Classification link of website 
     
 Base Line Corrected and Low Pass Filtered (Cut Off at 35 Hz) Time History
 Acceleration data in cm/sec**2
    
[...]
      -0.494
      -0.165
       0.348
       0.707
       0.646
       0.094
      -0.778
      -1.613
      -2.033
      -1.839
      -1.128
      -0.235
       0.457
       0.727
       0.594
       0.246
      -0.100
      -0.306
      -0.350
      -0.302
      -0.257
      -0.237
      -0.146
       0.133
       0.573
       0.941
       0.963
       0.565
      -0.039
      -0.518
      -0.663
      -0.497
      -0.207
      -0.013
      -0.066
      -0.360
      -0.702
      -0.819
      -0.586
      -0.164
       0.132
       0.115
      -0.113
      -0.274
      -0.174
       0.155
       0.517
       0.729
       0.742
       0.645
       0.567
       0.558
       0.551
       0.445
       0.231
       0.022
      -0.050
       0.027
       0.113
       0.050
      -0.161
      -0.343
      -0.322
      -0.117
       0.070
       0.051
      -0.170
      -0.417
      -0.515
      -0.424
      -0.223
       0.000
       0.207
       0.382
       0.471
       0.398
       0.156
      -0.142
      -0.321
      -0.280
      -0.056
       0.222
       0.435
       0.508
       0.428
       0.250
       0.093
       0.054
       0.117
       0.168
       0.110
      -0.037
      -0.177
      -0.250
      -0.315
      -0.479
      -0.746
      -0.942
      -0.846
      -0.435
       0.048
       0.305
       0.247
       0.021
      -0.198
      -0.368
      -0.508
      -0.543
      -0.338
       0.093
       0.491
       0.548
       0.198
      -0.299
      -0.583
      -0.468
      -0.039
       0.478
       0.855
       0.943
       0.713
       0.307
       0.000
       0.017
       0.316
       0.577
       0.466
      -0.053
      -0.670
      -0.989
      -0.853
      -0.446
      -0.102
      -0.028
      -0.157
      -0.242
      -0.087
       0.278
       0.621
       0.694
       0.419
      -0.048
      -0.411
      -0.418
      -0.028
       0.551
       0.984
       1.029
       0.681
       0.147
      -0.332
      -0.645
      -0.803
      -0.812
      -0.622
      -0.225
       0.230
       0.496
       0.429
       0.117
      -0.208
      -0.365
      -0.353
      -0.309
      -0.375
      -0.570
      -0.734
      -0.636
      -0.180
       0.444
       0.858
       0.795
       0.323
      -0.220
      -0.513
      -0.461
      -0.184
       0.137
       0.367
       0.441
       0.385
       0.306
       0.299
       0.330
       0.256
      -0.004
      -0.345
      -0.540
      -0.435
      -0.070
       0.369
       0.678
       0.743
       0.577
       0.295
       0.032
      -0.153
      -0.318
      -0.550
      -0.833
      -0.999
      -0.871
      -0.435
       0.130
       0.590
       0.809
       0.800
       0.654
       0.458
       0.240
       0.003
      -0.214
      -0.312
      -0.211
       0.049
       0.296
       0.361
       0.212
      -0.047
      -0.305
      -0.529
      -0.720
      -0.831
      -0.782
      -0.552
      -0.227
       0.063
       0.222
       0.217
       0.051
      -0.226
      -0.480
      -0.540
      -0.323
       0.072
       0.427
       0.576
       0.523
       0.420
       0.445
       0.657
       0.937
       1.034
       0.747
       0.109
      -0.569
      -0.891
      -0.682
      -0.132
       0.344
       0.422
       0.077
      -0.467
      -0.949
      -1.207
      -1.171
      -0.831
      -0.263
       0.343
       0.755
       0.830
       0.587
       0.154
      -0.315
      -0.704
      -0.935
      -0.934
      -0.630
      -0.005
       0.811
       1.520
       1.785
       1.449
       0.678
      -0.152
      -0.731
      -0.977
      -0.958
      -0.716
      -0.231
       0.417
       0.952
       1.049
       0.631
      -0.002
      -0.384
      -0.280
       0.121
       0.397
       0.271
      -0.168
      -0.583
      -0.697
      -0.506
      -0.230
      -0.071
      -0.044
      -0.026
       0.070
       0.212
       0.312
       0.313
       0.219
       0.059
      -0.128
      -0.277
      -0.289
      -0.097
       0.259
       0.607
       0.741
       0.573
       0.246
       0.049
       0.164
       0.478
       0.652
       0.428
      -0.130
      -0.687
      -0.924
      -0.760
      -0.367
      -0.025
       0.059
      -0.130
      -0.397
      -0.478
      -0.265
       0.077
       0.251
       0.110
      -0.193
      -0.350
      -0.183
       0.198
       0.504
       0.512
       0.215
      -0.203
      -0.503
      -0.521
      -0.265
       0.078
       0.269
       0.216
       0.037
      -0.096
      -0.156
      -0.257
      -0.453
      -0.622
      -0.592
      -0.340
      -0.013
       0.250
       0.455
       0.691
       0.952
       1.094
       0.970
       0.583
       0.088
      -0.337
      -0.602
      -0.694
      -0.632
      -0.445
      -0.186
       0.080
       0.287
       0.369
       0.252
      -0.098
      -0.583
      -0.969
      -1.027
      -0.727
      -0.290
      -0.007
      -0.002
      -0.149
      -0.217
      -0.092
       0.160
       0.403
       0.547
       0.569
       0.461
       0.246
       0.028
      -0.031
       0.132
       0.347
       0.328
      -0.042
      -0.543
      -0.793
      -0.608
      -0.158
       0.241
       0.439
       0.519
       0.595
       0.627
       0.501
       0.227
       0.004
       0.036
       0.301
       0.532
       0.423
      -0.090
      -0.734
      -1.092
      -0.919
      -0.335
       0.282
       0.594
       0.539
       0.307
       0.112
       0.017
      -0.047
      -0.150
      -0.271
      -0.332
      -0.282
      -0.144
      -0.010
       0.026
      -0.075
      -0.250
      -0.340
      -0.196
       0.191
       0.615
       0.780
       0.533
       0.018
      -0.433
      -0.576
      -0.439
      -0.241
      -0.158
      -0.173
      -0.140
       0.041
       0.314
       0.515
       0.515
       0.316
       0.059
      -0.068
       0.029
       0.247
       0.354
       0.185
      -0.195
      -0.519
      -0.543
      -0.239
       0.193
       0.504
       0.567
       0.413
       0.127
      -0.215
      -0.536
      -0.720
      -0.656
      -0.346
       0.033
       0.227
       0.119
      -0.148
      -0.295
      -0.189
       0.023
       0.091
      -0.044
      -0.179
      -0.075
       0.282
       0.647
       0.731
       0.435
      -0.076
      -0.491
      -0.591
      -0.389
      -0.080
       0.153
       0.270
       0.330
       0.356
       0.276
       0.019
      -0.378
      -0.749
      -0.915
      -0.803
      -0.494
      -0.172
      -0.003
      -0.029
      -0.134
      -0.144
       0.034
       0.344
       0.646
       0.831
       0.871
       0.772
       0.551
       0.260
       0.007
      -0.104
      -0.056
       0.077
       0.206
       0.280
       0.256
       0.067
      -0.330
      -0.844
      -1.223
      -1.207
      -0.742
      -0.056
       0.511
       0.744
       0.651
       0.352
      -0.056
      -0.492
      -0.806
      -0.787
      -0.329
       0.397
       0.971
       1.001
       0.430
      -0.396
      -0.984
      -1.056
      -0.710
      -0.271
       0.018
       0.167
       0.351
       0.657
       0.938
       0.914
       0.452
      -0.256
      -0.792
      -0.822
      -0.333
       0.378
       0.926
       1.071
       0.817
       0.336
      -0.162
      -0.514
      -0.625
      -0.491
      -0.238
      -0.076
      -0.121
      -0.258
      -0.231
       0.083
       0.501
       0.682
       0.450
      -0.031
      -0.419
      -0.490
      -0.257
       0.126
       0.508
       0.770
       0.818
       0.629
       0.320
       0.118
       0.193
       0.503
       0.816
       0.897
       0.684
       0.323
       0.041
      -0.040
      -0.022
      -0.152
      -0.580
      -1.163
      -1.523
      -1.379
      -0.838
      -0.351
      -0.341
      -0.839
      -1.452
      -1.685
      -1.337
      -0.650
      -0.138
      -0.208
      -0.852
      -1.619
      -1.874
      -1.205
       0.279
       1.948
       2.990
       2.935
       2.011
       0.983
       0.531
       0.705
       0.997
       0.953
       0.644
       0.494
       0.729
       1.116
       1.230
       0.847
       0.055
      -0.884
      -1.633
      -1.813
      -1.162
       0.196
       1.669
       2.493
       2.237
       1.069
      -0.402
      -1.551
      -2.075
      -2.036
      -1.687
      -1.281
      -0.995
      -0.899
      -0.951
      -1.010
      -0.931
      -0.703
      -0.488
      -0.476
      -0.660
      -0.771
      -0.493
       0.222
       1.051
       1.539
       1.482
       1.091
       0.786
       0.798
       0.946
       0.808
       0.141
      -0.812
      -1.448
      -1.274
      -0.352
       0.678
       1.062
       0.523
      -0.509
      -1.243
      -1.138
      -0.272
       0.788
       1.422
       1.353
       0.738
      -0.011
      -0.507
      -0.571
      -0.236
       0.325
       0.884
       1.225
       1.233
       0.942
       0.504
       0.083
      -0.220
      -0.394
      -0.490
      -0.581
      -0.688
      -0.735
      -0.617
      -0.336
      -0.061
      -0.005
      -0.202
      -0.417
      -0.299
       0.313
       1.165
       1.689
       1.394
       0.269
      -1.149
      -2.116
      -2.178
      -1.436
      -0.429
       0.268
       0.391
       0.056
      -0.444
      -0.875
      -1.112
      -1.054
      -0.603
       0.219
       1.149
       1.757
       1.708
       1.001
      -0.017
      -0.900
      -1.365
      -1.352
      -0.873
       0.060
       1.292
       2.342
       2.564
       1.658
       0.060
      -1.259
      -1.487
      -0.542
       0.944
       2.156
       2.609
       2.262
       1.286
      -0.153
      -1.849
      -3.380
      -4.112
      -3.542
      -1.727
       0.583
       2.305
       2.681
       1.753
       0.295
      -0.756
      -0.914
      -0.348
       0.397
       0.858
       0.919
       0.767
       0.672
       0.790
       1.054
       1.179
       0.823
      -0.137
      -1.406
      -2.377
      -2.527
      -1.783
      -0.553
       0.556
       1.093
       0.940
       0.282
      -0.543
      -1.211
      -1.534
      -1.481
      -1.120
      -0.571
       0.013
       0.483
       0.763
       0.891
       0.965
       1.033
       1.061
       1.007
       0.871
       0.640
       0.252
      -0.308
      -0.862
      -1.077
      -0.697
       0.245
       1.431
       2.417
       2.789
       2.281
       0.939
      -0.758
      -2.058
      -2.399
      -1.827
      -0.929
      -0.286
      -0.004
       0.212
       0.587
       0.966
       0.981
       0.465
      -0.369
      -1.106
      -1.446
      -1.348
      -0.983
      -0.603
      -0.421
      -0.535
      -0.884
      -1.260
      -1.413
      -1.227
      -0.842
      -0.558
      -0.578
      -0.796
      -0.848
      -0.400
       0.578
       1.781
       2.756
       3.140
       2.777
       1.743
       0.328
      -1.048
      -1.971
      -2.195
      -1.711
      -0.723
       0.428
       1.364
       1.799
       1.662
       1.123
       0.467
      -0.101
      -0.544
      -0.904
      -1.116
      -0.966
      -0.272
       0.864
       2.020
       2.750
       2.946
       2.858
       2.719
       2.364
       1.325
      -0.592
      -2.780
      -3.971
      -3.111
      -0.337
       2.812
       4.314
       3.112
      -0.077
      -3.295
      -4.840
      -4.467
      -3.323
      -2.757
      -3.104
      -3.529
      -2.985
      -1.328
       0.479
       1.223
       0.513
      -0.901
      -1.763
      -1.252
       0.507
       2.623
       3.970
       3.714
       1.646
      -1.677
      -5.041
      -7.038
      -6.767
      -4.368
      -0.965
       2.014
       3.651
       3.920
       3.445
       2.938
       2.790
       3.033
       3.509
       4.011
       4.335
       4.316
       3.917
       3.292
       2.684
       2.211
       1.741
       1.032
       0.050
      -0.860
      -1.126
      -0.363
       1.293
       3.207
       4.592
       4.928
       4.171
       2.692
       1.007
      -0.518
      -1.840
      -3.152
      -4.579
      -5.911
      -6.605
      -6.107
      -4.273
      -1.590
       0.974
       2.452
       2.357
       0.876
      -1.295
      -3.316
      -4.586
      -4.987
      -4.862
      -4.752
      -5.068
      -5.909
      -7.037
      -7.921
      -7.850
      -6.253
      -3.107
       0.887
       4.616
       7.147
       8.142
       7.807
       6.567
       4.832
       3.028
       1.648
       1.056
       1.137
       1.188
       0.357
      -1.617
      -3.986
      -5.329
      -4.506
      -1.487
       2.580
       6.102
       7.950
       7.880
       6.306
       3.840
       1.057
      -1.475
      -3.186
      -3.692
      -3.017
      -1.621
      -0.165
       0.782
       0.940
       0.357
      -0.687
      -1.845
      -2.849
      -3.517
      -3.611
      -2.804
      -0.974
       1.378
       3.107
       3.112
       1.258
      -1.327
      -2.990
      -2.726
      -0.836
       1.403
       2.662
       2.353
       0.817
      -1.040
      -2.303
      -2.470
      -1.571
      -0.018
       1.695
       3.243
       4.518
       5.491
       6.083
       6.213
       5.907
       5.262
       4.252
       2.636
       0.164
      -3.069
      -6.464
      -9.137
     -10.357
      -9.852
      -7.811
      -4.676
      -0.964
       2.749
       5.780
       7.448
       7.371
       5.757
       3.374
       1.169
      -0.200
      -0.609
      -0.395
      -0.079
      -0.088
      -0.607
      -1.554
      -2.621
      -3.368
      -3.403
      -2.610
      -1.255
       0.165
       1.250
       1.952
       2.507
       3.092
       3.521
       3.310
       2.123
       0.178
      -1.783
      -2.970
      -3.073
      -2.433
      -1.763
      -1.643
      -2.151
      -2.863
      -3.171
      -2.686
      -1.445
       0.135
       1.483
       2.129
       1.882
       0.863
      -0.613
      -2.193
      -3.573
      -4.537
      -5.013
      -5.104
      -4.992
      -4.758
      -4.290
      -3.380
      -1.861
       0.312
       3.015
       5.833
       8.015
       8.718
       7.562
       5.060
       2.442
       0.851
       0.531
       0.724
       0.418
      -0.715
      -2.051
      -2.641
      -2.124
      -1.028
      -0.203
       0.021
       0.102
       0.740
       2.170
       4.018
       5.772
       7.249
       8.528
       9.508
       9.699
       8.540
       5.932
       2.437
      -1.050
      -3.835
      -5.738
      -6.966
      -7.725
      -7.946
      -7.401
      -6.096
      -4.482
      -3.151
      -2.276
      -1.433
      -0.074
       1.768
       3.298
       3.526
       2.059
      -0.570
      -3.304
      -5.243
      -6.065
      -5.976
      -5.388
      -4.609
      -3.749
      -2.802
      -1.771
      -0.738
       0.153
       0.767
       1.064
       1.155
       1.284
       1.712
       2.568
       3.765
       5.043
       6.079
       6.549
       6.164
       4.762
       2.490
      -0.094
      -2.197
      -3.203
      -2.999
      -1.957
      -0.622
       0.619
       1.619
       2.304
       2.524
       2.117
       1.154
       0.038
      -0.713
      -0.838
      -0.514
      -0.161
      -0.085
      -0.293
      -0.581
      -0.749
      -0.731
      -0.595
      -0.486
      -0.556
      -0.857
      -1.253
      -1.462
      -1.265
      -0.713
      -0.094
       0.322
       0.488
       0.520
       0.468
       0.242
      -0.190
      -0.585
      -0.539
       0.085
       0.841
       0.935
      -0.103
      -1.897
      -3.406
      -3.669
      -2.516
      -0.669
       0.794
       1.144
       0.380
      -0.903
      -1.964
      -2.342
      -2.049
      -1.450
      -0.963
      -0.751
      -0.606
      -0.115
       0.968
       2.438
       3.714
       4.232
       3.831
       2.794
       1.566
       0.455
      -0.447
      -1.146
      -1.613
      -1.754
      -1.477
      -0.801
       0.095
       0.948
       1.556
       1.876
       1.996
       2.052
       2.168
       2.451
       2.962
       3.648
       4.309
       4.661
       4.479
       3.700
       2.432
       0.882
      -0.723
      -2.189
      -3.377
      -4.187
      -4.539
      -4.379
      -3.734
      -2.772
      -1.796
      -1.138
      -0.998
      -1.335
      -1.900
      -2.389
      -2.588
      -2.423
      -1.924
      -1.224
      -0.569
      -0.257
      -0.441
      -0.970
      -1.451
      -1.529
      -1.138
      -0.476
       0.214
       0.809
       1.258
       1.482
       1.418
       1.165
       1.007
       1.237
       1.929
       2.861
       3.628
       3.827
       3.238
       1.956
       0.415
      -0.791
      -1.238
      -0.946
      -0.339
       0.108
       0.209
       0.111
       0.016
      -0.060
      -0.251
      -0.628
      -1.079
      -1.408
      -1.491
      -1.327
      -0.990
      -0.593
      -0.280
      -0.193
      -0.377
      -0.718
      -0.984
      -0.947
      -0.508
       0.215
       0.912
       1.232
       1.017
       0.417
      -0.206
      -0.520
      -0.405
       0.027
       0.536
       0.858
       0.808
       0.366
      -0.308
      -0.997
      -1.575
      -2.029
      -2.326
      -2.321
      -1.869
      -1.057
      -0.285
      -0.025
      -0.420
      -1.092
      -1.380
      -0.853
       0.336
       1.578
       2.304
       2.408
       2.218
       2.068
       1.943
       1.567
       0.801
      -0.096
      -0.681
      -0.767
      -0.622
      -0.687
      -1.123
      -1.624
      -1.686
      -1.035
       0.148
       1.387
       2.251
       2.600
       2.604
       2.580
       2.792
       3.258
       3.687
       3.633
       2.818
       1.418
       0.020
      -0.772
      -0.792
      -0.426
      -0.264
      -0.602
      -1.244
      -1.736
      -1.757
      -1.312
      -0.614
       0.106
       0.667
       0.910
       0.733
       0.206
      -0.391
      -0.728
      -0.679
      -0.432
      -0.333
      -0.598
      -1.145
      -1.676
      -1.925
      -1.837
      -1.560
      -1.291
      -1.142
      -1.113
      -1.156
      -1.239
      -1.357
      -1.474
      -1.499
      -1.335
      -0.992
      -0.633
      -0.482
      -0.643
      -0.989
      -1.229
      -1.103
      -0.563
       0.223
       1.038
       1.764
       2.367
       2.765
       2.779
       2.291
       1.450
       0.660
       0.302
       0.410
       0.662
       0.687
       0.389
      -0.027
      -0.321
      -0.443
      -0.496
      -0.536
      -0.464
      -0.136
       0.484
       1.274
       2.018
       2.468
       2.372
       1.555
       0.096
      -1.535
      -2.626
      -2.650
      -1.670
      -0.327
       0.589
       0.663
       0.052
      -0.742
      -1.267
      -1.373
      -1.191
      -0.941
      -0.755
      -0.625
      -0.478
      -0.270
      -0.032
       0.153
       0.187
      -0.027
      -0.535
      -1.244
      -1.866
      -2.005
      -1.406
      -0.172
