Origin Time       31/1/2009 03:07:15  UTC
Lat.              32.5 N 
Long.             75.9 E 
Depth (Km)         10.0
Magnitude         3.7
 Region           HIMACHAL-PRADESH                                                 
 Above details taken from IMD 
    
Station Code      KLG
Station Lat.       32.559  N
Station Long.      77.001  E
Station Height(m) 3129.0
Site Class        A   Vs30 between 700 m/sec to 1400 m/sec * 
Record Time       31.01.2009 03:07:19.634 UTC
Sampling Rate     200. Hz
 Record Duration   65.000 Sec.
 Direction         N-S (N positive)
Max. Acceleration      4.556 cm/sec**2
     
  * For reference see Site Classification link of website 
     
 Base Line Corrected and Low Pass Filtered (Cut Off at 35 Hz) Time History
 Acceleration data in cm/sec**2
    
[...]
      -0.033
      -0.100
      -0.137
      -0.131
      -0.100
      -0.070
      -0.056
      -0.057
      -0.073
      -0.085
      -0.048
       0.080
       0.256
       0.344
       0.227
      -0.071
      -0.366
      -0.454
      -0.275
       0.054
       0.344
       0.465
       0.399
       0.207
      -0.024
      -0.222
      -0.338
      -0.359
      -0.294
      -0.153
       0.052
       0.284
       0.455
       0.478
       0.333
       0.104
      -0.090
      -0.178
      -0.167
      -0.109
      -0.057
      -0.046
      -0.085
      -0.145
      -0.179
      -0.146
      -0.048
       0.071
       0.152
       0.151
       0.070
      -0.036
      -0.099
      -0.091
      -0.034
       0.045
       0.133
       0.209
       0.234
       0.184
       0.091
       0.019
       0.001
       0.006
      -0.026
      -0.127
      -0.267
      -0.370
      -0.345
      -0.153
       0.149
       0.405
       0.460
       0.278
       0.003
      -0.138
      -0.020
       0.253
       0.431
       0.322
      -0.040
      -0.424
      -0.580
      -0.432
      -0.113
       0.157
       0.243
       0.163
       0.026
      -0.073
      -0.114
      -0.135
      -0.174
      -0.230
      -0.260
      -0.222
      -0.102
       0.062
       0.203
       0.251
       0.182
       0.031
      -0.125
      -0.214
      -0.206
      -0.123
      -0.014
       0.086
       0.174
       0.264
       0.351
       0.390
       0.331
       0.169
      -0.041
      -0.212
      -0.275
      -0.217
      -0.091
       0.025
       0.071
       0.056
       0.032
       0.035
       0.050
       0.040
      -0.006
      -0.056
      -0.074
      -0.065
      -0.070
      -0.121
      -0.194
      -0.219
      -0.134
       0.057
       0.259
       0.341
       0.230
      -0.019
      -0.263
      -0.378
      -0.344
      -0.236
      -0.147
      -0.113
      -0.096
      -0.025
       0.121
       0.267
       0.291
       0.145
      -0.068
      -0.156
      -0.011
       0.275
       0.474
       0.423
       0.166
      -0.101
      -0.207
      -0.131
       0.034
       0.181
       0.252
       0.227
       0.110
      -0.066
      -0.241
      -0.343
      -0.326
      -0.195
      -0.005
       0.151
       0.199
       0.134
       0.028
      -0.052
      -0.105
      -0.171
      -0.258
      -0.302
      -0.234
      -0.057
       0.141
       0.249
       0.208
       0.051
      -0.131
      -0.249
      -0.251
      -0.138
       0.048
       0.236
       0.350
       0.337
       0.200
       0.000
      -0.159
      -0.189
      -0.075
       0.104
       0.221
       0.197
       0.060
      -0.090
      -0.166
      -0.157
      -0.109
      -0.062
      -0.012
       0.073
       0.191
       0.271
       0.214
       0.000
      -0.258
      -0.383
      -0.278
      -0.006
       0.254
       0.334
       0.184
      -0.104
      -0.358
      -0.417
      -0.229
       0.101
       0.363
       0.388
       0.177
      -0.092
      -0.216
      -0.139
       0.017
       0.077
      -0.012
      -0.138
      -0.139
       0.036
       0.282
       0.433
       0.392
       0.183
      -0.094
      -0.321
      -0.406
      -0.315
      -0.103
       0.109
       0.210
       0.173
       0.063
      -0.036
      -0.088
      -0.109
      -0.108
      -0.061
       0.052
       0.189
       0.249
       0.161
      -0.040
      -0.229
      -0.304
      -0.259
      -0.165
      -0.093
      -0.067
      -0.076
      -0.085
      -0.054
       0.043
       0.186
       0.311
       0.353
       0.298
       0.194
       0.105
       0.051
      -0.009
      -0.126
      -0.293
      -0.437
      -0.455
      -0.290
       0.031
       0.383
       0.598
       0.555
       0.270
      -0.089
      -0.302
      -0.251
      -0.024
       0.149
       0.078
      -0.216
      -0.508
      -0.545
      -0.254
       0.192
       0.514
       0.534
       0.291
      -0.016
      -0.187
      -0.157
      -0.008
       0.112
       0.110
       0.006
      -0.095
      -0.101
      -0.010
       0.090
       0.107
       0.029
      -0.074
      -0.127
      -0.118
      -0.086
      -0.069
      -0.059
      -0.022
       0.059
       0.154
       0.208
       0.186
       0.108
       0.019
      -0.056
      -0.118
      -0.150
      -0.095
       0.078
       0.300
       0.409
       0.274
      -0.070
      -0.412
      -0.516
      -0.315
       0.025
       0.237
       0.161
      -0.129
      -0.386
      -0.387
      -0.105
       0.281
       0.517
       0.463
       0.185
      -0.096
      -0.184
      -0.062
       0.099
       0.103
      -0.078
      -0.274
      -0.276
      -0.040
       0.266
       0.409
       0.277
      -0.032
      -0.296
      -0.334
      -0.147
       0.099
       0.204
       0.091
      -0.140
      -0.286
      -0.196
       0.116
       0.473
       0.653
       0.540
       0.197
      -0.180
      -0.384
      -0.323
      -0.072
       0.173
       0.241
       0.105
      -0.105
      -0.220
      -0.175
      -0.055
      -0.004
      -0.081
      -0.205
      -0.241
      -0.126
       0.066
       0.199
       0.191
       0.070
      -0.062
      -0.125
      -0.112
      -0.079
      -0.091
      -0.161
      -0.232
      -0.207
      -0.030
       0.248
       0.481
       0.541
       0.420
       0.226
       0.075
      -0.007
      -0.079
      -0.180
      -0.259
      -0.206
       0.016
       0.300
       0.463
       0.396
       0.148
      -0.122
      -0.280
      -0.308
      -0.279
      -0.267
      -0.277
      -0.248
      -0.121
       0.083
       0.262
       0.309
       0.203
       0.020
      -0.124
      -0.169
      -0.137
      -0.094
      -0.070
      -0.026
       0.088
       0.256
       0.382
       0.360
       0.172
      -0.098
      -0.318
      -0.391
      -0.302
      -0.118
       0.061
       0.155
       0.147
       0.081
       0.019
      -0.009
      -0.014
      -0.007
       0.029
       0.120
       0.256
       0.371
       0.389
       0.306
       0.198
       0.154
       0.178
       0.175
       0.033
      -0.264
      -0.583
      -0.728
      -0.584
      -0.214
       0.185
       0.411
       0.385
       0.176
      -0.065
      -0.225
      -0.291
      -0.316
      -0.328
      -0.285
      -0.143
       0.061
       0.216
       0.245
       0.189
       0.163
       0.226
       0.310
       0.294
       0.126
      -0.115
      -0.288
      -0.300
      -0.172
       0.006
       0.157
       0.265
       0.344
       0.378
       0.309
       0.099
      -0.209
      -0.484
      -0.591
      -0.479
      -0.216
       0.063
       0.241
       0.265
       0.140
      -0.091
      -0.353
      -0.534
      -0.507
      -0.210
       0.279
       0.740
       0.936
       0.772
       0.353
      -0.118
      -0.476
      -0.660
      -0.680
      -0.566
      -0.356
      -0.089
       0.199
       0.481
       0.711
       0.802
       0.668
       0.319
      -0.100
      -0.393
      -0.462
      -0.372
      -0.267
      -0.220
      -0.179
      -0.048
       0.186
       0.402
       0.436
       0.227
      -0.106
      -0.350
      -0.368
      -0.204
      -0.026
       0.040
       0.009
      -0.006
       0.080
       0.233
       0.342
       0.330
       0.222
       0.105
       0.035
      -0.010
      -0.097
      -0.244
      -0.366
      -0.342
      -0.154
       0.042
       0.033
      -0.229
      -0.534
      -0.578
      -0.230
       0.337
       0.781
       0.854
       0.575
       0.177
      -0.089
      -0.135
      -0.039
       0.075
       0.146
       0.187
       0.215
       0.214
       0.147
       0.010
      -0.136
      -0.197
      -0.120
       0.058
       0.235
       0.319
       0.293
       0.205
       0.101
      -0.021
      -0.183
      -0.359
      -0.460
      -0.418
      -0.274
      -0.165
      -0.195
      -0.319
      -0.386
      -0.323
      -0.228
      -0.253
      -0.385
      -0.396
      -0.081
       0.477
       0.923
       0.942
       0.560
       0.102
      -0.123
      -0.081
       0.026
       0.013
      -0.112
      -0.198
      -0.141
       0.006
       0.099
       0.056
      -0.063
      -0.122
      -0.045
       0.120
       0.265
       0.309
       0.241
       0.096
      -0.093
      -0.311
      -0.546
      -0.755
      -0.845
      -0.713
      -0.331
       0.193
       0.645
       0.823
       0.675
       0.338
       0.041
      -0.070
      -0.045
      -0.072
      -0.292
      -0.649
      -0.921
      -0.884
      -0.484
       0.129
       0.697
       1.016
       1.042
       0.882
       0.674
       0.481
       0.280
       0.051
      -0.151
      -0.218
      -0.101
       0.121
       0.283
       0.258
       0.059
      -0.183
      -0.322
      -0.296
      -0.154
       0.001
       0.092
       0.116
       0.117
       0.111
       0.037
      -0.194
      -0.560
      -0.869
      -0.876
      -0.510
       0.017
       0.363
       0.333
       0.039
      -0.211
      -0.192
       0.044
       0.239
       0.198
      -0.018
      -0.172
      -0.101
       0.128
       0.319
       0.354
       0.295
       0.280
       0.378
       0.520
       0.569
       0.429
       0.121
      -0.221
      -0.432
      -0.431
      -0.276
      -0.091
       0.046
       0.164
       0.339
       0.594
       0.849
       0.962
       0.809
       0.362
      -0.272
      -0.870
      -1.190
      -1.100
      -0.674
      -0.155
       0.188
       0.216
      -0.013
      -0.318
      -0.527
      -0.582
      -0.542
      -0.512
      -0.545
      -0.585
      -0.488
      -0.150
       0.336
       0.683
       0.637
       0.244
      -0.146
      -0.213
       0.013
       0.185
       0.036
      -0.308
      -0.453
      -0.187
       0.254
       0.406
       0.082
      -0.379
      -0.383
       0.353
       1.488
       2.282
       2.197
       1.324
       0.267
      -0.384
      -0.527
      -0.542
      -0.866
      -1.546
      -2.177
      -2.237
      -1.522
      -0.336
       0.723
       1.196
       1.078
       0.761
       0.663
       0.864
       1.064
       0.880
       0.210
      -0.677
      -1.360
      -1.585
      -1.388
      -0.983
      -0.557
      -0.173
       0.171
       0.446
       0.563
       0.462
       0.214
       0.010
       0.019
       0.245
       0.502
       0.567
       0.370
       0.079
      -0.026
       0.205
       0.636
       0.948
       0.905
       0.547
       0.097
      -0.283
      -0.606
      -0.943
      -1.235
      -1.278
      -0.911
      -0.192
       0.599
       1.149
       1.326
       1.238
       1.084
       0.928
       0.640
       0.095
      -0.586
      -1.063
      -1.117
      -0.922
      -0.901
      -1.244
      -1.619
      -1.415
      -0.334
       1.244
       2.478
       2.650
       1.648
       0.033
      -1.307
      -1.698
      -1.064
       0.070
       0.963
       1.137
       0.616
      -0.213
      -0.930
      -1.308
      -1.313
      -0.994
      -0.447
       0.162
       0.615
       0.775
       0.685
       0.508
       0.376
       0.298
       0.222
       0.149
       0.175
       0.385
       0.696
       0.825
       0.455
      -0.467
      -1.553
      -2.137
      -1.721
      -0.398
       1.130
       2.009
       1.832
       0.901
      -0.039
      -0.381
      -0.066
       0.466
       0.689
       0.400
      -0.180
      -0.659
      -0.830
      -0.809
      -0.861
      -1.106
      -1.394
      -1.440
      -1.082
      -0.449
       0.111
       0.310
       0.192
       0.129
       0.524
       1.424
       2.393
       2.772
       2.163
       0.738
      -0.861
      -1.950
      -2.221
      -1.845
      -1.243
      -0.760
      -0.483
      -0.298
      -0.049
       0.333
       0.811
       1.286
       1.610
       1.605
       1.139
       0.244
      -0.840
      -1.770
      -2.255
      -2.153
      -1.467
      -0.335
       0.936
       1.894
       2.132
       1.574
       0.583
      -0.261
      -0.577
      -0.454
      -0.318
      -0.511
      -0.961
      -1.231
      -0.919
      -0.045
       0.938
       1.513
       1.519
       1.218
       0.989
       0.952
       0.882
       0.459
      -0.401
      -1.436
      -2.222
      -2.454
      -2.067
      -1.184
      -0.026
       1.124
       1.960
       2.251
       1.941
       1.181
       0.282
      -0.418
      -0.712
      -0.645
      -0.463
      -0.429
      -0.613
      -0.845
      -0.828
      -0.356
       0.521
       1.451
       1.926
       1.569
       0.436
      -0.925
      -1.728
      -1.430
      -0.130
       1.386
       2.092
       1.413
      -0.307
      -1.999
      -2.617
      -1.885
      -0.453
       0.657
       0.811
       0.120
      -0.804
      -1.348
      -1.216
      -0.419
       0.832
       2.146
       2.960
       2.736
       1.346
      -0.675
      -2.299
      -2.614
      -1.455
       0.428
       1.865
       2.066
       1.122
      -0.173
      -0.978
      -0.966
      -0.381
       0.318
       0.809
       0.981
       0.801
       0.242
      -0.593
      -1.358
      -1.577
      -1.025
      -0.019
       0.712
       0.563
      -0.478
      -1.808
      -2.617
      -2.355
      -0.964
       1.147
       3.257
       4.556
       4.431
       2.783
       0.193
      -2.274
      -3.615
      -3.472
      -2.318
      -1.077
      -0.439
      -0.446
      -0.639
      -0.560
      -0.120
       0.433
       0.829
       0.978
       0.936
       0.767
       0.484
       0.101
      -0.297
      -0.559
      -0.535
      -0.174
       0.429
       1.068
       1.511
       1.563
       1.126
       0.269
      -0.718
      -1.410
      -1.490
      -0.982
      -0.274
       0.139
      -0.011
      -0.595
      -1.203
      -1.424
      -1.068
      -0.197
       0.950
       2.010
       2.553
       2.232
       1.016
      -0.678
      -2.115
      -2.570
      -1.702
       0.234
       2.435
       3.893
       3.906
       2.498
       0.419
      -1.311
      -2.020
      -1.737
      -1.046
      -0.607
      -0.703
      -1.129
      -1.427
      -1.267
      -0.666
       0.100
       0.762
       1.206
       1.383
       1.149
       0.332
      -0.975
      -2.219
      -2.616
      -1.689
       0.303
       2.431
       3.654
       3.459
       2.126
       0.449
      -0.819
      -1.382
      -1.416
      -1.268
      -1.118
      -0.868
      -0.329
       0.479
       1.222
       1.451
       0.951
      -0.048
      -0.986
      -1.341
      -0.982
      -0.261
       0.257
       0.209
      -0.310
      -0.863
      -1.022
      -0.672
      -0.021
       0.614
       1.003
       1.045
       0.726
       0.132
      -0.492
      -0.795
      -0.536
       0.193
       0.964
       1.294
       0.986
       0.262
      -0.427
      -0.726
      -0.593
      -0.249
       0.027
       0.079
      -0.113
      -0.504
      -1.007
      -1.452
      -1.573
      -1.135
      -0.148
       1.014
       1.774
       1.733
       0.960
      -0.053
      -0.739
      -0.800
      -0.332
       0.289
       0.648
       0.537
       0.060
      -0.459
      -0.723
      -0.650
      -0.369
      -0.057
       0.198
       0.370
       0.405
       0.213
      -0.212
      -0.705
      -0.989
      -0.874
      -0.396
       0.219
       0.724
       0.985
       0.994
       0.789
       0.411
      -0.047
      -0.410
      -0.478
      -0.175
       0.346
       0.778
       0.861
       0.572
       0.140
      -0.127
      -0.083
       0.143
       0.248
       0.008
      -0.541
      -1.116
      -1.402
      -1.265
      -0.817
      -0.305
       0.085
       0.332
       0.502
       0.585
       0.438
      -0.037
      -0.654
      -0.940
      -0.476
       0.680
       1.918
       2.466
       1.959
       0.702
      -0.555
      -1.155
      -0.936
      -0.260
       0.307
       0.386
      -0.010
      -0.557
      -0.883
      -0.806
      -0.407
       0.079
       0.433
       0.565
       0.529
       0.444
       0.395
       0.381
       0.340
       0.219
       0.013
      -0.237
      -0.469
      -0.615
      -0.635
      -0.543
      -0.404
      -0.286
      -0.212
      -0.163
      -0.111
      -0.044
       0.030
       0.100
       0.169
       0.281
       0.492
       0.777
       0.946
       0.734
       0.050
      -0.837
      -1.417
      -1.319
      -0.641
       0.109
       0.403
       0.111
      -0.426
      -0.696
      -0.430
       0.234
       0.921
       1.325
       1.370
       1.146
       0.772
       0.328
      -0.127
      -0.516
      -0.758
      -0.821
      -0.771
      -0.724
      -0.734
      -0.701
      -0.449
       0.082
       0.710
       1.100
       1.027
       0.549
      -0.031
      -0.407
      -0.471
      -0.348
      -0.237
      -0.225
      -0.216
      -0.069
       0.200
       0.371
       0.209
      -0.272
      -0.760
      -0.894
      -0.585
      -0.093
       0.215
       0.188
      -0.001
      -0.048
       0.203
       0.625
       0.927
       0.907
       0.591
       0.186
      -0.103
      -0.206
      -0.192
      -0.160
      -0.132
      -0.039
       0.180
       0.458
       0.594
       0.389
      -0.168
      -0.850
      -1.324
      -1.363
      -0.965
      -0.323
       0.291
       0.641
       0.629
       0.333
      -0.034
      -0.249
      -0.205
       0.059
       0.416
       0.744
       0.958
       0.990
       0.797
       0.396
      -0.087
      -0.461
      -0.576
      -0.435
      -0.208
      -0.128
      -0.311
      -0.639
      -0.840
      -0.714
      -0.305
       0.148
       0.422
       0.473
       0.410
       0.349
       0.303
       0.211
       0.058
      -0.067
      -0.047
       0.128
       0.321
       0.356
       0.183
      -0.071
      -0.216
      -0.162
       0.019
       0.162
       0.149
      -0.004
      -0.155
      -0.167
      -0.029
       0.123
       0.137
      -0.025
      -0.253
      -0.400
      -0.392
      -0.251
      -0.054
       0.121
       0.200
       0.112
      -0.154
      -0.497
      -0.721
      -0.662
      -0.315
       0.161
       0.552
       0.703
       0.578
       0.270
      -0.040
      -0.162
      -0.016
       0.284
       0.478
       0.335
      -0.150
      -0.707
      -0.985
      -0.825
      -0.393
      -0.041
       0.010
      -0.146
      -0.210
       0.018
       0.439
       0.742
       0.697
       0.354
      -0.007
      -0.128
       0.010
       0.191
       0.176
      -0.065
      -0.296
      -0.213
       0.279
       0.938
       1.332
       1.147
       0.417
      -0.497
      -1.143
      -1.259
      -0.895
      -0.331
       0.132
       0.335
       0.300
       0.167
       0.091
       0.152
       0.309
       0.419
       0.341
       0.049
      -0.336
      -0.625
      -0.705
      -0.602
      -0.427
      -0.264
      -0.117
       0.035
       0.160
       0.171
       0.021
      -0.215
      -0.370
