Origin Time       22/10/2009 19:51:25
Lat.              36.5°N	
Long.             71.0°E	
Depth (Km)        168.0
Magnitude         6.3
 Region           HINDUKUSH-REGION-AFGHANISTAN                                     
 Above details taken from IMD 
   
Station Code      KLG
Station Lat.       32.559
Station Long.      77.001
Station Height(m) 3129.0
Site Class        A   Vs30 between 700 m/sec to 1400 m/sec * 
Record Time       22.10.2009 19:52:45.824
Sampling Rate     200. Hz
 Record Duration   65.465 Sec.
 Direction         Vert. (Up positive)
Max. Acceleration      2.518 cm/sec**2
     
  * For reference see Site Classification link of website 
     
 Base Line Corrected and Low Pass Filtered (Cut Off at 35 Hz) Time History
 Acceleration data in cm/sec**2
    
[...]
      -0.016
      -0.004
       0.015
       0.024
       0.016
      -0.006
      -0.026
      -0.030
      -0.015
       0.008
       0.025
       0.026
       0.013
      -0.004
      -0.016
      -0.020
      -0.017
      -0.015
      -0.013
      -0.012
      -0.008
       0.000
       0.010
       0.016
       0.015
       0.009
       0.000
      -0.007
      -0.010
      -0.012
      -0.014
      -0.012
      -0.004
       0.010
       0.021
       0.022
       0.006
      -0.018
      -0.036
      -0.035
      -0.014
       0.015
       0.034
       0.028
       0.003
      -0.023
      -0.033
      -0.023
      -0.005
       0.008
       0.010
       0.004
      -0.004
      -0.009
      -0.011
      -0.013
      -0.018
      -0.024
      -0.023
      -0.009
       0.013
       0.028
       0.023
      -0.003
      -0.034
      -0.048
      -0.037
      -0.007
       0.023
       0.034
       0.023
      -0.001
      -0.019
      -0.020
      -0.010
      -0.002
      -0.003
      -0.010
      -0.010
       0.003
       0.024
       0.038
       0.034
       0.012
      -0.014
      -0.028
      -0.026
      -0.017
      -0.009
      -0.004
       0.002
       0.012
       0.020
       0.022
       0.017
       0.011
       0.006
       0.003
      -0.005
      -0.017
      -0.025
      -0.020
      -0.001
       0.018
       0.024
       0.015
      -0.002
      -0.012
      -0.012
      -0.004
       0.007
       0.015
       0.014
       0.003
      -0.009
      -0.012
      -0.006
       0.005
       0.012
       0.012
       0.007
       0.003
       0.005
       0.011
       0.015
       0.008
      -0.007
      -0.022
      -0.026
      -0.014
       0.007
       0.023
       0.026
       0.016
      -0.003
      -0.019
      -0.023
      -0.013
       0.005
       0.021
       0.025
       0.012
      -0.009
      -0.023
      -0.019
       0.002
       0.023
       0.030
       0.016
      -0.010
      -0.029
      -0.031
      -0.019
      -0.004
       0.005
       0.007
       0.007
       0.011
       0.016
       0.015
       0.004
      -0.012
      -0.026
      -0.028
      -0.020
      -0.006
       0.004
       0.007
       0.008
       0.009
       0.009
       0.007
      -0.003
      -0.015
      -0.025
      -0.024
      -0.012
       0.007
       0.021
       0.019
       0.002
      -0.018
      -0.030
      -0.028
      -0.019
      -0.009
      -0.003
      -0.001
       0.001
       0.003
       0.003
      -0.003
      -0.013
      -0.021
      -0.020
      -0.014
      -0.008
      -0.005
      -0.002
       0.006
       0.016
       0.021
       0.013
      -0.006
      -0.023
      -0.027
      -0.015
       0.006
       0.023
       0.027
       0.016
      -0.003
      -0.021
      -0.028
      -0.022
      -0.006
       0.010
       0.016
       0.010
       0.000
      -0.006
      -0.006
      -0.008
      -0.015
      -0.023
      -0.022
      -0.007
       0.014
       0.028
       0.025
       0.005
      -0.017
      -0.028
      -0.022
      -0.008
       0.002
       0.003
      -0.002
      -0.003
       0.001
       0.004
       0.001
      -0.009
      -0.018
      -0.020
      -0.015
      -0.008
      -0.008
      -0.015
      -0.022
      -0.020
      -0.007
       0.009
       0.014
       0.001
      -0.020
      -0.031
      -0.020
       0.005
       0.023
       0.021
       0.003
      -0.013
      -0.011
       0.003
       0.013
       0.007
      -0.011
      -0.021
      -0.011
       0.014
       0.033
       0.032
       0.007
      -0.024
      -0.039
      -0.029
       0.002
       0.031
       0.039
       0.023
      -0.002
      -0.015
      -0.012
       0.000
       0.006
       0.002
      -0.008
      -0.011
      -0.004
       0.008
       0.013
       0.008
      -0.003
      -0.010
      -0.009
      -0.004
      -0.004
      -0.009
      -0.012
      -0.009
      -0.006
      -0.007
      -0.011
      -0.011
      -0.002
       0.009
       0.013
       0.006
      -0.006
      -0.015
      -0.016
      -0.015
      -0.013
      -0.013
      -0.008
       0.003
       0.017
       0.026
       0.027
       0.023
       0.018
       0.013
       0.007
       0.003
       0.002
       0.000
      -0.006
      -0.011
      -0.010
      -0.004
      -0.002
      -0.010
      -0.022
      -0.026
      -0.013
       0.009
       0.024
       0.019
      -0.004
      -0.028
      -0.039
      -0.032
      -0.015
      -0.003
      -0.001
      -0.005
      -0.007
      -0.004
       0.001
       0.004
       0.004
       0.002
      -0.004
      -0.013
      -0.022
      -0.028
      -0.026
      -0.018
      -0.010
      -0.005
      -0.002
       0.003
       0.006
       0.006
       0.002
      -0.002
      -0.002
       0.003
       0.009
       0.013
       0.014
       0.013
       0.010
       0.008
       0.006
       0.004
       0.002
       0.000
      -0.001
       0.000
       0.001
       0.005
       0.010
       0.011
       0.005
      -0.007
      -0.016
      -0.017
      -0.011
      -0.005
      -0.004
      -0.010
      -0.020
      -0.027
      -0.027
      -0.021
      -0.014
      -0.011
      -0.013
      -0.015
      -0.015
      -0.015
      -0.012
      -0.008
      -0.005
      -0.007
      -0.009
      -0.005
       0.008
       0.023
       0.027
       0.019
       0.006
      -0.002
      -0.004
      -0.002
      -0.002
      -0.004
      -0.008
      -0.010
      -0.009
      -0.008
      -0.005
       0.000
       0.004
       0.003
      -0.002
      -0.003
       0.004
       0.016
       0.022
       0.013
      -0.006
      -0.020
      -0.018
      -0.003
       0.011
       0.016
       0.008
      -0.005
      -0.012
      -0.008
       0.004
       0.011
       0.008
      -0.004
      -0.013
      -0.010
       0.003
       0.012
       0.005
      -0.016
      -0.039
      -0.043
      -0.024
       0.008
       0.030
       0.026
       0.002
      -0.023
      -0.030
      -0.018
       0.000
       0.006
      -0.002
      -0.017
      -0.024
      -0.016
      -0.002
       0.006
      -0.002
      -0.019
      -0.032
      -0.032
      -0.023
      -0.015
      -0.010
      -0.006
       0.001
       0.010
       0.016
       0.012
       0.002
      -0.006
      -0.007
      -0.002
       0.002
      -0.001
      -0.008
      -0.009
       0.000
       0.011
       0.017
       0.009
      -0.009
      -0.027
      -0.036
      -0.032
      -0.020
      -0.007
      -0.002
      -0.005
      -0.015
      -0.022
      -0.023
      -0.015
      -0.001
       0.009
       0.007
      -0.006
      -0.023
      -0.032
      -0.029
      -0.018
      -0.009
      -0.006
      -0.004
       0.000
       0.007
       0.010
       0.004
      -0.008
      -0.019
      -0.023
      -0.020
      -0.014
      -0.012
      -0.012
      -0.009
       0.000
       0.010
       0.010
      -0.001
      -0.015
      -0.024
      -0.026
      -0.026
      -0.026
      -0.023
      -0.017
      -0.010
      -0.007
      -0.008
      -0.010
      -0.009
      -0.006
      -0.004
      -0.005
      -0.006
      -0.007
      -0.008
      -0.014
      -0.023
      -0.031
      -0.033
      -0.032
      -0.031
      -0.033
      -0.037
      -0.037
      -0.030
      -0.025
      -0.030
      -0.044
      -0.057
      -0.060
      -0.055
      -0.053
      -0.064
      -0.081
      -0.091
      -0.084
      -0.065
      -0.054
      -0.062
      -0.086
      -0.111
      -0.126
      -0.130
      -0.129
      -0.131
      -0.137
      -0.150
      -0.167
      -0.180
      -0.185
      -0.185
      -0.187
      -0.196
      -0.211
      -0.223
      -0.224
      -0.211
      -0.186
      -0.162
      -0.147
      -0.140
      -0.133
      -0.118
      -0.097
      -0.076
      -0.060
      -0.047
      -0.033
      -0.021
      -0.011
      -0.007
      -0.005
      -0.004
      -0.005
      -0.003
       0.004
       0.018
       0.038
       0.061
       0.085
       0.108
       0.134
       0.168
       0.213
       0.261
       0.307
       0.343
       0.375
       0.408
       0.446
       0.484
       0.511
       0.522
       0.519
       0.509
       0.494
       0.470
       0.426
       0.361
       0.281
       0.200
       0.124
       0.049
      -0.037
      -0.140
      -0.257
      -0.370
      -0.459
      -0.516
      -0.545
      -0.558
      -0.560
      -0.552
      -0.526
      -0.478
      -0.410
      -0.327
      -0.236
      -0.143
      -0.052
       0.039
       0.131
       0.225
       0.313
       0.383
       0.429
       0.451
       0.456
       0.448
       0.423
       0.380
       0.317
       0.238
       0.142
       0.032
      -0.086
      -0.200
      -0.295
      -0.364
      -0.409
      -0.432
      -0.423
      -0.371
      -0.274
      -0.144
       0.002
       0.153
       0.307
       0.461
       0.604
       0.719
       0.798
       0.837
       0.839
       0.809
       0.752
       0.669
       0.563
       0.440
       0.310
       0.185
       0.074
      -0.023
      -0.109
      -0.186
      -0.254
      -0.312
      -0.359
      -0.401
      -0.442
      -0.485
      -0.532
      -0.580
      -0.623
      -0.648
      -0.644
      -0.602
      -0.526
      -0.421
      -0.292
      -0.142
       0.021
       0.184
       0.326
       0.434
       0.507
       0.547
       0.555
       0.528
       0.466
       0.379
       0.276
       0.164
       0.053
      -0.039
      -0.101
      -0.135
      -0.161
      -0.193
      -0.231
      -0.259
      -0.279
      -0.312
      -0.373
      -0.444
      -0.485
      -0.484
      -0.471
      -0.477
      -0.490
      -0.463
      -0.376
      -0.256
      -0.144
      -0.046
       0.063
       0.193
       0.311
       0.371
       0.361
       0.316
       0.274
       0.229
       0.147
       0.008
      -0.155
      -0.279
      -0.333
      -0.348
      -0.385
      -0.472
      -0.582
      -0.668
      -0.712
      -0.723
      -0.713
      -0.671
      -0.574
      -0.415
      -0.222
      -0.041
       0.096
       0.190
       0.267
       0.352
       0.453
       0.555
       0.640
       0.699
       0.741
       0.775
       0.799
       0.796
       0.750
       0.665
       0.573
       0.505
       0.464
       0.427
       0.372
       0.294
       0.201
       0.095
      -0.031
      -0.179
      -0.332
      -0.461
      -0.539
      -0.560
      -0.529
      -0.455
      -0.341
      -0.189
      -0.019
       0.134
       0.238
       0.282
       0.286
       0.280
       0.283
       0.292
       0.287
       0.246
       0.159
       0.029
      -0.126
      -0.285
      -0.436
      -0.574
      -0.703
      -0.816
      -0.901
      -0.940
      -0.922
      -0.857
      -0.768
      -0.681
      -0.602
      -0.516
      -0.399
      -0.236
      -0.042
       0.158
       0.348
       0.538
       0.747
       0.980
       1.219
       1.435
       1.606
       1.729
       1.813
       1.856
       1.846
       1.768
       1.622
       1.413
       1.151
       0.844
       0.502
       0.146
      -0.198
      -0.505
      -0.753
      -0.929
      -1.035
      -1.087
      -1.106
      -1.104
      -1.088
      -1.058
      -1.013
      -0.956
      -0.884
      -0.795
      -0.687
      -0.571
      -0.461
      -0.362
      -0.263
      -0.142
       0.019
       0.216
       0.423
       0.602
       0.725
       0.788
       0.803
       0.780
       0.722
       0.626
       0.495
       0.338
       0.160
      -0.046
      -0.285
      -0.541
      -0.775
      -0.930
      -0.973
      -0.908
      -0.773
      -0.611
      -0.441
      -0.260
      -0.066
       0.126
       0.289
       0.410
       0.498
       0.576
       0.652
       0.709
       0.719
       0.662
       0.542
       0.385
       0.216
       0.052
      -0.106
      -0.262
      -0.410
      -0.544
      -0.664
      -0.778
      -0.894
      -1.007
      -1.100
      -1.152
      -1.159
      -1.136
      -1.106
      -1.078
      -1.034
      -0.942
      -0.776
      -0.530
      -0.218
       0.144
       0.539
       0.953
       1.369
       1.761
       2.090
       2.318
       2.410
       2.349
       2.145
       1.832
       1.458
       1.070
       0.700
       0.364
       0.066
      -0.198
      -0.436
      -0.645
      -0.810
      -0.911
      -0.938
      -0.904
      -0.840
      -0.785
      -0.768
      -0.796
      -0.853
      -0.905
      -0.910
      -0.841
      -0.694
      -0.494
      -0.274
      -0.058
       0.148
       0.337
       0.490
       0.573
       0.563
       0.471
       0.341
       0.224
       0.140
       0.078
       0.010
      -0.076
      -0.185
      -0.319
      -0.489
      -0.690
      -0.884
      -1.009
      -1.014
      -0.905
      -0.743
      -0.607
      -0.532
      -0.498
      -0.455
      -0.367
      -0.221
      -0.009
       0.266
       0.581
       0.880
       1.099
       1.194
       1.165
       1.037
       0.838
       0.594
       0.341
       0.122
      -0.031
      -0.110
      -0.143
      -0.184
      -0.271
      -0.414
      -0.593
      -0.788
      -0.983
      -1.158
      -1.287
      -1.342
      -1.305
      -1.169
      -0.936
      -0.620
      -0.245
       0.158
       0.559
       0.943
       1.304
       1.648
       1.973
       2.258
       2.455
       2.518
       2.426
       2.203
       1.889
       1.514
       1.083
       0.590
       0.054
      -0.464
      -0.876
      -1.112
      -1.159
      -1.071
      -0.948
      -0.889
      -0.950
      -1.120
      -1.329
      -1.482
      -1.511
      -1.407
      -1.215
      -0.997
      -0.800
      -0.636
      -0.496
      -0.366
      -0.241
      -0.120
      -0.003
       0.121
       0.268
       0.460
       0.709
       0.997
       1.262
       1.414
       1.383
       1.159
       0.805
       0.427
       0.113
      -0.103
      -0.243
      -0.348
      -0.450
      -0.557
      -0.655
      -0.729
      -0.770
      -0.783
      -0.782
      -0.775
      -0.758
      -0.705
      -0.581
      -0.367
      -0.083
       0.210
       0.448
       0.604
       0.700
       0.773
       0.846
       0.917
       0.974
       1.013
       1.029
       1.012
       0.949
       0.839
       0.694
       0.532
       0.356
       0.153
      -0.092
      -0.360
      -0.600
      -0.753
      -0.790
      -0.724
      -0.595
      -0.451
      -0.329
      -0.241
      -0.167
      -0.072
       0.065
       0.237
       0.415
       0.560
       0.652
       0.691
       0.695
       0.679
       0.638
       0.549
       0.398
       0.204
       0.010
      -0.151
      -0.276
      -0.385
      -0.497
      -0.612
      -0.720
      -0.811
      -0.899
      -0.998
      -1.109
      -1.195
      -1.205
      -1.111
      -0.931
      -0.721
      -0.528
      -0.355
      -0.171
       0.058
       0.327
       0.598
       0.826
       0.994
       1.112
       1.202
       1.273
       1.313
       1.303
       1.231
       1.103
       0.928
       0.711
       0.452
       0.152
      -0.180
      -0.517
      -0.828
      -1.081
      -1.245
      -1.296
      -1.230
      -1.075
      -0.889
      -0.726
      -0.613
      -0.537
      -0.466
      -0.368
      -0.229
      -0.056
       0.137
       0.325
       0.484
       0.578
       0.582
       0.498
       0.377
       0.308
       0.367
       0.570
       0.849
       1.088
       1.183
       1.091
       0.846
       0.517
       0.162
      -0.193
      -0.543
      -0.870
      -1.129
      -1.263
      -1.244
      -1.103
      -0.921
      -0.787
      -0.743
      -0.764
      -0.771
      -0.685
      -0.474
      -0.169
       0.165
       0.455
       0.646
       0.710
       0.653
       0.522
       0.387
       0.308
       0.303
       0.352
       0.428
       0.522
       0.640
       0.769
       0.869
       0.887
       0.801
       0.638
       0.452
       0.291
       0.171
       0.080
      -0.003
      -0.105
      -0.242
      -0.410
      -0.578
      -0.695
      -0.730
      -0.689
      -0.613
      -0.551
      -0.521
      -0.503
      -0.455
      -0.346
      -0.179
       0.008
       0.167
       0.269
       0.320
       0.358
       0.424
       0.530
       0.653
       0.744
       0.759
       0.683
       0.527
       0.328
       0.135
      -0.013
      -0.102
      -0.148
      -0.179
      -0.211
      -0.231
      -0.219
      -0.172
      -0.119
      -0.100
      -0.126
      -0.170
      -0.188
      -0.164
      -0.125
      -0.110
      -0.130
      -0.164
      -0.180
      -0.167
      -0.136
      -0.097
      -0.047
       0.015
       0.067
       0.058
      -0.056
      -0.275
      -0.542
      -0.776
      -0.919
      -0.962
      -0.924
      -0.834
      -0.715
      -0.586
      -0.463
      -0.355
      -0.260
      -0.163
      -0.050
       0.089
       0.259
       0.463
       0.687
       0.908
       1.096
       1.223
       1.271
       1.235
       1.122
       0.959
       0.788
       0.647
       0.546
       0.470
       0.383
       0.254
       0.076
      -0.131
      -0.333
      -0.504
      -0.644
      -0.761
      -0.845
      -0.863
      -0.779
      -0.591
      -0.345
      -0.110
       0.067
       0.175
       0.231
       0.248
       0.233
       0.198
       0.162
       0.147
       0.163
       0.201
       0.253
       0.312
       0.372
       0.409
       0.387
       0.277
       0.087
      -0.134
      -0.318
      -0.417
      -0.428
      -0.380
      -0.312
      -0.245
      -0.188
      -0.144
      -0.122
      -0.124
      -0.137
      -0.137
      -0.103
      -0.043
       0.006
      -0.002
      -0.093
      -0.249
      -0.420
      -0.536
      -0.548
      -0.439
      -0.230
       0.034
       0.302
       0.528
       0.680
       0.752
       0.756
       0.715
       0.642
       0.541
       0.413
       0.275
       0.161
       0.109
       0.142
       0.258
       0.425
       0.591
       0.690
       0.667
       0.493
       0.181
      -0.220
      -0.636
      -0.990
      -1.217
      -1.278
      -1.175
      -0.945
      -0.652
      -0.358
      -0.110
       0.072
       0.184
       0.232
       0.222
       0.172
       0.107
       0.049
      -0.007
      -0.085
      -0.201
      -0.326
      -0.395
      -0.338
      -0.144
       0.134
       0.413
       0.628
       0.752
       0.784
       0.723
       0.569
       0.344
       0.096
      -0.118
      -0.255
      -0.303
      -0.276
      -0.199
      -0.097
       0.011
       0.104
       0.164
       0.170
       0.112
      -0.003
      -0.146
      -0.279
      -0.377
      -0.442
      -0.491
      -0.542
      -0.591
      -0.620
      -0.618
      -0.591
      -0.558
      -0.531
      -0.501
      -0.453
      -0.378
      -0.291
      -0.214
      -0.157
      -0.107
      -0.042
       0.050
       0.161
       0.276
       0.394
       0.528
       0.685
       0.845
       0.966
       1.017
       1.007
       0.972
       0.942
       0.916
       0.868
