Origin Time       22/10/2009 19:51:25 UTC
Lat.              36.5°N	
Long.             71.0°E	
Depth (Km)        168.0
Magnitude         6.3
 Region           HINDUKUSH-REGION-AFGHANISTAN                                     
 Above details taken from IMD 
    
Station Code      KLG
Station Lat.       32.559  N
Station Long.      77.001  E
Station Height(m) 3129.0
Site Class        A   Vs30 between 700 m/sec to 1400 m/sec * 
Record Time       22.10.2009 19:52:45.824 UTC
Sampling Rate     200. Hz
 Record Duration   65.465 Sec.
 Direction         N-S (N positive)
Max. Acceleration      1.220 cm/sec**2
     
  * For reference see Site Classification link of website 
     
 Base Line Corrected and Low Pass Filtered (Cut Off at 35 Hz) Time History
 Acceleration data in cm/sec**2
    
[...]
       0.008
      -0.008
      -0.024
      -0.031
      -0.025
      -0.013
      -0.006
      -0.009
      -0.019
      -0.025
      -0.021
      -0.007
       0.008
       0.014
       0.009
      -0.005
      -0.018
      -0.022
      -0.015
      -0.002
       0.005
       0.000
      -0.013
      -0.020
      -0.013
       0.002
       0.012
       0.009
      -0.002
      -0.007
      -0.002
       0.009
       0.013
       0.006
      -0.003
      -0.003
       0.007
       0.018
       0.018
       0.004
      -0.013
      -0.019
      -0.012
       0.001
       0.011
       0.012
       0.007
       0.003
       0.003
       0.007
       0.015
       0.021
       0.019
       0.011
       0.000
      -0.004
       0.001
       0.009
       0.013
       0.009
       0.001
      -0.003
       0.002
       0.013
       0.019
       0.015
       0.002
      -0.011
      -0.012
      -0.002
       0.010
       0.010
      -0.001
      -0.014
      -0.017
      -0.006
       0.009
       0.019
       0.017
       0.010
       0.005
       0.004
       0.005
       0.003
      -0.003
      -0.009
      -0.010
      -0.007
      -0.002
       0.000
      -0.002
      -0.006
      -0.010
      -0.010
      -0.005
       0.000
       0.003
       0.001
      -0.006
      -0.014
      -0.018
      -0.016
      -0.008
       0.002
       0.007
       0.007
       0.004
      -0.002
      -0.008
      -0.011
      -0.009
      -0.002
       0.006
       0.007
      -0.001
      -0.015
      -0.025
      -0.026
      -0.019
      -0.005
       0.008
       0.012
       0.005
      -0.011
      -0.023
      -0.023
      -0.012
       0.000
       0.003
      -0.003
      -0.008
      -0.003
       0.008
       0.015
       0.012
       0.004
      -0.003
      -0.005
      -0.004
      -0.002
       0.001
       0.005
       0.010
       0.011
       0.005
      -0.005
      -0.012
      -0.010
       0.000
       0.007
       0.005
      -0.003
      -0.007
      -0.003
       0.003
       0.004
      -0.001
      -0.009
      -0.013
      -0.013
      -0.012
      -0.010
      -0.008
      -0.005
      -0.001
       0.004
       0.010
       0.014
       0.013
       0.006
       0.000
      -0.001
       0.001
       0.004
       0.002
      -0.003
      -0.004
       0.001
       0.009
       0.015
       0.014
       0.008
       0.003
       0.003
       0.003
      -0.003
      -0.016
      -0.028
      -0.029
      -0.018
      -0.004
       0.001
      -0.005
      -0.015
      -0.016
      -0.009
       0.001
       0.005
       0.005
       0.005
       0.006
       0.006
       0.003
       0.000
      -0.003
      -0.004
      -0.005
      -0.003
       0.004
       0.016
       0.025
       0.026
       0.018
       0.010
       0.007
       0.007
       0.008
       0.007
       0.008
       0.011
       0.018
       0.026
       0.028
       0.022
       0.009
      -0.004
      -0.012
      -0.015
      -0.015
      -0.013
      -0.010
      -0.008
      -0.008
      -0.009
      -0.005
       0.004
       0.014
       0.017
       0.009
      -0.002
      -0.008
      -0.003
       0.007
       0.014
       0.015
       0.012
       0.008
       0.006
       0.004
       0.000
      -0.006
      -0.010
      -0.011
      -0.008
      -0.003
       0.004
       0.010
       0.010
       0.001
      -0.012
      -0.020
      -0.018
      -0.008
       0.001
       0.004
       0.004
       0.007
       0.013
       0.015
       0.010
       0.002
      -0.004
      -0.005
      -0.003
      -0.002
      -0.003
      -0.007
      -0.010
      -0.011
      -0.012
      -0.014
      -0.020
      -0.025
      -0.027
      -0.023
      -0.015
      -0.008
      -0.008
      -0.012
      -0.015
      -0.012
      -0.004
       0.005
       0.009
       0.006
      -0.002
      -0.010
      -0.016
      -0.016
      -0.011
      -0.006
      -0.005
      -0.009
      -0.012
      -0.010
      -0.002
       0.005
       0.008
       0.008
       0.005
       0.002
       0.000
       0.000
       0.005
       0.012
       0.018
       0.019
       0.012
       0.003
      -0.004
      -0.002
       0.007
       0.015
       0.011
      -0.004
      -0.021
      -0.023
      -0.006
       0.019
       0.031
       0.021
      -0.003
      -0.019
      -0.015
       0.004
       0.020
       0.018
       0.002
      -0.015
      -0.020
      -0.013
      -0.001
       0.009
       0.013
       0.012
       0.009
       0.005
       0.002
       0.003
       0.005
       0.006
       0.003
      -0.002
      -0.003
       0.001
       0.004
       0.000
      -0.010
      -0.015
      -0.006
       0.015
       0.032
       0.031
       0.009
      -0.019
      -0.034
      -0.028
      -0.010
       0.003
       0.000
      -0.012
      -0.019
      -0.012
       0.002
       0.008
      -0.001
      -0.017
      -0.027
      -0.023
      -0.010
       0.003
       0.009
       0.006
      -0.002
      -0.013
      -0.023
      -0.027
      -0.022
      -0.011
       0.000
       0.010
       0.017
       0.023
       0.023
       0.012
      -0.005
      -0.016
      -0.012
       0.003
       0.018
       0.024
       0.021
       0.017
       0.018
       0.023
       0.026
       0.024
       0.020
       0.021
       0.028
       0.037
       0.042
       0.041
       0.041
       0.044
       0.048
       0.050
       0.049
       0.050
       0.055
       0.063
       0.069
       0.068
       0.063
       0.058
       0.058
       0.062
       0.071
       0.082
       0.094
       0.103
       0.108
       0.110
       0.111
       0.110
       0.106
       0.100
       0.097
       0.095
       0.096
       0.094
       0.090
       0.082
       0.073
       0.069
       0.074
       0.084
       0.092
       0.090
       0.079
       0.067
       0.062
       0.064
       0.071
       0.074
       0.069
       0.057
       0.042
       0.027
       0.013
      -0.003
      -0.022
      -0.042
      -0.060
      -0.076
      -0.088
      -0.096
      -0.100
      -0.103
      -0.110
      -0.117
      -0.119
      -0.110
      -0.094
      -0.079
      -0.071
      -0.068
      -0.063
      -0.049
      -0.028
      -0.004
       0.016
       0.029
       0.036
       0.041
       0.049
       0.060
       0.070
       0.077
       0.078
       0.074
       0.068
       0.061
       0.050
       0.030
       0.006
      -0.014
      -0.023
      -0.024
      -0.026
      -0.038
      -0.056
      -0.073
      -0.082
      -0.081
      -0.076
      -0.072
      -0.077
      -0.093
      -0.113
      -0.125
      -0.124
      -0.114
      -0.106
      -0.111
      -0.125
      -0.141
      -0.154
      -0.168
      -0.191
      -0.225
      -0.265
      -0.305
      -0.341
      -0.375
      -0.409
      -0.439
      -0.459
      -0.463
      -0.448
      -0.413
      -0.358
      -0.288
      -0.209
      -0.126
      -0.042
       0.042
       0.119
       0.184
       0.232
       0.261
       0.273
       0.269
       0.257
       0.240
       0.221
       0.193
       0.154
       0.113
       0.084
       0.080
       0.101
       0.133
       0.160
       0.175
       0.175
       0.160
       0.131
       0.092
       0.046
      -0.005
      -0.062
      -0.123
      -0.186
      -0.240
      -0.277
      -0.294
      -0.295
      -0.280
      -0.248
      -0.197
      -0.136
      -0.087
      -0.076
      -0.101
      -0.134
      -0.138
      -0.103
      -0.056
      -0.035
      -0.058
      -0.103
      -0.130
      -0.113
      -0.057
       0.012
       0.063
       0.085
       0.093
       0.110
       0.139
       0.158
       0.141
       0.082
       0.011
      -0.032
      -0.027
       0.015
       0.069
       0.117
       0.155
       0.189
       0.230
       0.288
       0.363
       0.436
       0.481
       0.486
       0.466
       0.446
       0.444
       0.448
       0.436
       0.398
       0.345
       0.294
       0.259
       0.241
       0.232
       0.225
       0.214
       0.199
       0.179
       0.150
       0.110
       0.060
       0.013
      -0.016
      -0.023
      -0.015
      -0.004
      -0.003
      -0.021
      -0.065
      -0.131
      -0.210
      -0.283
      -0.335
      -0.360
      -0.355
      -0.327
      -0.289
      -0.258
      -0.242
      -0.234
      -0.222
      -0.201
      -0.176
      -0.154
      -0.135
      -0.113
      -0.076
      -0.026
       0.030
       0.086
       0.137
       0.188
       0.243
       0.300
       0.355
       0.401
       0.435
       0.450
       0.448
       0.431
       0.406
       0.375
       0.332
       0.268
       0.187
       0.106
       0.045
       0.016
       0.010
       0.002
      -0.026
      -0.081
      -0.153
      -0.229
      -0.295
      -0.344
      -0.375
      -0.386
      -0.377
      -0.349
      -0.320
      -0.308
      -0.325
      -0.366
      -0.413
      -0.450
      -0.470
      -0.478
      -0.477
      -0.465
      -0.438
      -0.395
      -0.343
      -0.289
      -0.238
      -0.190
      -0.144
      -0.100
      -0.066
      -0.050
      -0.058
      -0.080
      -0.096
      -0.095
      -0.078
      -0.060
      -0.053
      -0.052
      -0.043
      -0.006
       0.064
       0.160
       0.260
       0.347
       0.406
       0.433
       0.429
       0.401
       0.364
       0.329
       0.310
       0.306
       0.308
       0.302
       0.277
       0.230
       0.171
       0.108
       0.048
      -0.017
      -0.097
      -0.196
      -0.307
      -0.416
      -0.512
      -0.592
      -0.662
      -0.725
      -0.781
      -0.827
      -0.863
      -0.891
      -0.901
      -0.877
      -0.806
      -0.688
      -0.546
      -0.400
      -0.260
      -0.122
       0.023
       0.169
       0.296
       0.384
       0.433
       0.469
       0.526
       0.624
       0.750
       0.869
       0.947
       0.971
       0.948
       0.898
       0.837
       0.777
       0.723
       0.677
       0.634
       0.586
       0.520
       0.420
       0.280
       0.110
      -0.059
      -0.190
      -0.265
      -0.298
      -0.334
      -0.409
      -0.522
      -0.630
      -0.678
      -0.638
      -0.531
      -0.410
      -0.323
      -0.289
      -0.298
      -0.332
      -0.383
      -0.446
      -0.517
      -0.582
      -0.629
      -0.648
      -0.633
      -0.578
      -0.475
      -0.317
      -0.108
       0.123
       0.332
       0.476
       0.535
       0.521
       0.474
       0.439
       0.442
       0.483
       0.535
       0.569
       0.572
       0.554
       0.535
       0.530
       0.538
       0.541
       0.520
       0.470
       0.404
       0.339
       0.281
       0.217
       0.127
       0.009
      -0.106
      -0.169
      -0.150
      -0.062
       0.044
       0.114
       0.121
       0.076
       0.000
      -0.088
      -0.175
      -0.243
      -0.265
      -0.219
      -0.111
       0.023
       0.125
       0.153
       0.101
       0.013
      -0.055
      -0.055
       0.024
       0.157
       0.299
       0.400
       0.429
       0.382
       0.291
       0.196
       0.127
       0.086
       0.066
       0.059
       0.065
       0.083
       0.100
       0.091
       0.032
      -0.081
      -0.221
      -0.341
      -0.402
      -0.394
      -0.335
      -0.245
      -0.134
      -0.002
       0.142
       0.267
       0.339
       0.337
       0.268
       0.163
       0.055
      -0.035
      -0.115
      -0.206
      -0.324
      -0.457
      -0.568
      -0.622
      -0.613
      -0.572
      -0.544
      -0.546
      -0.557
      -0.531
      -0.426
      -0.234
       0.015
       0.262
       0.442
       0.515
       0.488
       0.409
       0.342
       0.334
       0.387
       0.470
       0.536
       0.554
       0.516
       0.436
       0.333
       0.217
       0.094
      -0.029
      -0.125
      -0.168
      -0.149
      -0.096
      -0.056
      -0.063
      -0.121
      -0.210
      -0.309
      -0.409
      -0.509
      -0.601
      -0.663
      -0.674
      -0.631
      -0.558
      -0.487
      -0.433
      -0.383
      -0.324
      -0.262
      -0.230
      -0.264
      -0.369
      -0.505
      -0.604
      -0.595
      -0.436
      -0.139
       0.225
       0.551
       0.748
       0.781
       0.691
       0.565
       0.479
       0.463
       0.492
       0.518
       0.504
       0.444
       0.351
       0.238
       0.112
      -0.012
      -0.107
      -0.141
      -0.108
      -0.041
       0.005
      -0.004
      -0.047
      -0.074
      -0.051
       0.007
       0.038
      -0.005
      -0.117
      -0.239
      -0.303
      -0.288
      -0.228
      -0.180
      -0.169
      -0.180
      -0.171
      -0.115
      -0.017
       0.094
       0.187
       0.254
       0.305
       0.359
       0.425
       0.494
       0.546
       0.556
       0.511
       0.421
       0.323
       0.266
       0.277
       0.347
       0.430
       0.472
       0.442
       0.344
       0.207
       0.066
      -0.055
      -0.147
      -0.215
      -0.265
      -0.303
      -0.333
      -0.368
      -0.423
      -0.507
      -0.611
      -0.705
      -0.757
      -0.752
      -0.704
      -0.647
      -0.605
      -0.581
      -0.543
      -0.447
      -0.254
       0.037
       0.387
       0.732
       1.010
       1.177
       1.220
       1.151
       1.000
       0.806
       0.606
       0.423
       0.263
       0.120
      -0.017
      -0.155
      -0.295
      -0.423
      -0.516
      -0.554
      -0.529
      -0.449
      -0.328
      -0.188
      -0.060
       0.018
       0.015
      -0.070
      -0.198
      -0.305
      -0.332
      -0.263
      -0.121
       0.043
       0.183
       0.281
       0.343
       0.379
       0.395
       0.389
       0.366
       0.343
       0.349
       0.399
       0.479
       0.540
       0.517
       0.371
       0.128
      -0.129
      -0.301
      -0.342
      -0.295
      -0.255
      -0.298
      -0.422
      -0.546
      -0.581
      -0.498
      -0.340
      -0.189
      -0.102
      -0.087
      -0.107
      -0.120
      -0.106
      -0.070
      -0.025
       0.016
       0.046
       0.059
       0.045
      -0.001
      -0.073
      -0.152
      -0.221
      -0.271
      -0.303
      -0.312
      -0.281
      -0.188
      -0.030
       0.161
       0.330
       0.420
       0.403
       0.300
       0.175
       0.095
       0.088
       0.121
       0.117
       0.011
      -0.197
      -0.436
      -0.596
      -0.604
      -0.459
      -0.231
       0.001
       0.188
       0.328
       0.428
       0.481
       0.473
       0.410
       0.335
       0.308
       0.363
       0.481
       0.598
       0.643
       0.580
       0.435
       0.270
       0.152
       0.108
       0.114
       0.119
       0.089
       0.023
      -0.046
      -0.089
      -0.092
      -0.055
       0.017
       0.115
       0.214
       0.278
       0.282
       0.227
       0.150
       0.085
       0.040
      -0.010
      -0.094
      -0.221
      -0.369
      -0.496
      -0.563
      -0.561
      -0.511
      -0.456
      -0.431
      -0.452
      -0.508
      -0.570
      -0.613
      -0.626
      -0.617
      -0.594
      -0.553
      -0.469
      -0.312
      -0.071
       0.225
       0.512
       0.722
       0.816
       0.810
       0.763
       0.733
       0.748
       0.791
       0.820
       0.794
       0.684
       0.482
       0.206
      -0.100
      -0.370
      -0.537
      -0.564
      -0.462
      -0.297
      -0.155
      -0.098
      -0.141
      -0.247
      -0.361
      -0.441
      -0.467
      -0.436
      -0.352
      -0.225
      -0.077
       0.059
       0.145
       0.155
       0.089
      -0.027
      -0.154
      -0.258
      -0.328
      -0.372
      -0.397
      -0.394
      -0.353
      -0.278
      -0.200
      -0.156
      -0.161
      -0.193
      -0.201
      -0.140
      -0.004
       0.167
       0.299
       0.323
       0.214
       0.012
      -0.197
      -0.325
      -0.332
      -0.243
      -0.123
      -0.030
       0.019
       0.050
       0.106
       0.206
       0.331
       0.430
       0.457
       0.403
       0.303
       0.220
       0.205
       0.272
       0.391
       0.518
       0.613
       0.660
       0.652
       0.587
       0.469
       0.308
       0.132
      -0.028
      -0.153
      -0.248
      -0.334
      -0.431
      -0.538
      -0.633
      -0.687
      -0.678
      -0.597
      -0.452
      -0.272
      -0.097
       0.033
       0.090
       0.076
       0.018
      -0.043
      -0.073
      -0.053
       0.008
       0.091
       0.176
       0.253
       0.320
       0.380
       0.437
       0.486
       0.507
       0.477
       0.377
       0.211
       0.018
      -0.141
      -0.205
      -0.148
       0.003
       0.172
       0.278
       0.283
       0.214
       0.134
       0.100
       0.124
       0.174
       0.214
       0.228
       0.226
       0.219
       0.197
       0.132
       0.008
      -0.157
      -0.318
      -0.430
      -0.485
      -0.507
      -0.535
      -0.590
      -0.660
      -0.712
      -0.715
      -0.662
      -0.565
      -0.443
      -0.309
      -0.177
      -0.068
      -0.012
      -0.035
      -0.137
      -0.280
      -0.394
      -0.413
      -0.309
      -0.116
       0.083
       0.209
       0.231
       0.179
       0.120
       0.108
       0.165
       0.271
       0.387
       0.474
       0.511
       0.496
       0.443
       0.366
       0.275
       0.175
       0.077
      -0.007
      -0.068
      -0.105
      -0.131
      -0.165
      -0.219
      -0.293
      -0.372
      -0.428
      -0.431
      -0.371
      -0.259
      -0.121
       0.014
       0.133
       0.232
       0.308
       0.359
       0.390
       0.422
       0.482
       0.584
       0.708
       0.808
       0.836
       0.778
       0.660
       0.534
       0.439
       0.375
       0.305
       0.196
       0.038
      -0.139
      -0.296
      -0.401
      -0.442
      -0.417
      -0.334
      -0.208
      -0.077
       0.016
       0.043
       0.016
      -0.008
       0.037
       0.184
       0.399
       0.599
       0.694
       0.643
       0.477
       0.280
       0.139
       0.095
       0.130
       0.179
       0.175
       0.087
      -0.062
      -0.209
      -0.300
      -0.318
      -0.300
      -0.293
      -0.315
      -0.336
      -0.314
      -0.238
      -0.157
      -0.149
      -0.258
      -0.463
      -0.683
      -0.826
      -0.835
      -0.706
      -0.466
      -0.161
       0.154
       0.419
       0.588
       0.650
       0.628
       0.563
       0.489
       0.419
       0.348
       0.266
       0.173
       0.083
       0.025
       0.021
       0.072
       0.152
       0.217
       0.225
       0.161
       0.036
      -0.127
      -0.309
      -0.495
      -0.668
      -0.797
      -0.846
      -0.795
      -0.656
      -0.471
      -0.298
      -0.182
      -0.137
      -0.142
      -0.152
      -0.129
      -0.070
      -0.007
       0.015
      -0.028
      -0.123
