Origin Time       3/1/2009 20:23:19   UTC
Lat.              36.5 N 
Long.             70.8 E 
Depth (Km)        188.0
Magnitude         6.4
 Region           HINDUKUSH-REGION-AFGHANISTAN                                     
 Above details taken from IMD 
    
Station Code      KLG
Station Lat.       32.559  N
Station Long.      77.001  E
Station Height(m) 3129.0
Site Class        A   Vs30 between 700 m/sec to 1400 m/sec * 
Record Time       03.01.2009 20:25:55.614 UTC
Sampling Rate     200. Hz
 Record Duration   65.920 Sec.
 Direction         N-S (N positive)
Max. Acceleration     -1.771 cm/sec**2
     
  * For reference see Site Classification link of website 
     
 Base Line Corrected and Low Pass Filtered (Cut Off at 35 Hz) Time History
 Acceleration data in cm/sec**2
    
[...]
       0.194
       0.163
       0.114
       0.060
       0.018
      -0.002
      -0.002
       0.004
       0.002
      -0.011
      -0.023
      -0.022
       0.000
       0.035
       0.068
       0.088
       0.094
       0.097
       0.110
       0.139
       0.182
       0.229
       0.271
       0.304
       0.327
       0.341
       0.344
       0.336
       0.320
       0.308
       0.313
       0.339
       0.373
       0.389
       0.366
       0.300
       0.211
       0.122
       0.051
      -0.003
      -0.054
      -0.116
      -0.189
      -0.258
      -0.310
      -0.336
      -0.339
      -0.326
      -0.312
      -0.308
      -0.320
      -0.351
      -0.394
      -0.437
      -0.460
      -0.447
      -0.394
      -0.310
      -0.216
      -0.132
      -0.067
      -0.020
       0.012
       0.033
       0.040
       0.034
       0.019
       0.004
      -0.004
      -0.004
      -0.004
      -0.019
      -0.056
      -0.111
      -0.167
      -0.204
      -0.213
      -0.201
      -0.188
      -0.191
      -0.213
      -0.238
      -0.241
      -0.211
      -0.154
      -0.095
      -0.059
      -0.057
      -0.080
      -0.110
      -0.130
      -0.138
      -0.142
      -0.150
      -0.166
      -0.178
      -0.173
      -0.138
      -0.073
       0.010
       0.090
       0.146
       0.164
       0.145
       0.103
       0.056
       0.023
       0.015
       0.031
       0.059
       0.088
       0.113
       0.140
       0.177
       0.218
       0.249
       0.256
       0.233
       0.191
       0.147
       0.115
       0.098
       0.090
       0.080
       0.056
       0.020
      -0.022
      -0.058
      -0.084
      -0.099
      -0.108
      -0.115
      -0.119
      -0.112
      -0.087
      -0.045
       0.000
       0.029
       0.024
      -0.011
      -0.062
      -0.107
      -0.130
      -0.124
      -0.092
      -0.049
      -0.009
       0.023
       0.051
       0.081
       0.112
       0.140
       0.158
       0.162
       0.158
       0.154
       0.153
       0.157
       0.161
       0.164
       0.166
       0.169
       0.175
       0.184
       0.193
       0.194
       0.179
       0.144
       0.093
       0.038
      -0.006
      -0.029
      -0.024
       0.009
       0.068
       0.145
       0.229
       0.303
       0.358
       0.395
       0.418
       0.427
       0.416
       0.383
       0.330
       0.269
       0.208
       0.154
       0.113
       0.084
       0.066
       0.058
       0.056
       0.059
       0.067
       0.080
       0.091
       0.093
       0.072
       0.020
      -0.056
      -0.137
      -0.206
      -0.252
      -0.281
      -0.301
      -0.315
      -0.316
      -0.298
      -0.263
      -0.222
      -0.184
      -0.150
      -0.113
      -0.067
      -0.013
       0.033
       0.055
       0.044
       0.008
      -0.039
      -0.078
      -0.102
      -0.114
      -0.125
      -0.145
      -0.180
      -0.227
      -0.278
      -0.329
      -0.378
      -0.425
      -0.460
      -0.466
      -0.436
      -0.379
      -0.315
      -0.263
      -0.222
      -0.181
      -0.129
      -0.070
      -0.020
      -0.002
      -0.021
      -0.064
      -0.102
      -0.115
      -0.104
      -0.092
      -0.100
      -0.131
      -0.169
      -0.190
      -0.182
      -0.150
      -0.107
      -0.063
      -0.018
       0.037
       0.100
       0.160
       0.199
       0.207
       0.192
       0.168
       0.147
       0.137
       0.136
       0.140
       0.141
       0.129
       0.099
       0.050
      -0.011
      -0.072
      -0.126
      -0.171
      -0.211
      -0.248
      -0.282
      -0.316
      -0.354
      -0.400
      -0.450
      -0.492
      -0.512
      -0.507
      -0.480
      -0.438
      -0.384
      -0.321
      -0.254
      -0.192
      -0.147
      -0.124
      -0.122
      -0.134
      -0.150
      -0.158
      -0.152
      -0.128
      -0.086
      -0.025
       0.051
       0.137
       0.225
       0.310
       0.386
       0.446
       0.483
       0.497
       0.493
       0.482
       0.470
       0.468
       0.482
       0.518
       0.566
       0.614
       0.643
       0.650
       0.641
       0.628
       0.618
       0.611
       0.595
       0.560
       0.503
       0.432
       0.361
       0.305
       0.266
       0.241
       0.215
       0.179
       0.121
       0.040
      -0.057
      -0.159
      -0.257
      -0.352
      -0.446
      -0.537
      -0.616
      -0.675
      -0.709
      -0.720
      -0.713
      -0.694
      -0.664
      -0.621
      -0.565
      -0.500
      -0.444
      -0.412
      -0.412
      -0.436
      -0.464
      -0.474
      -0.453
      -0.394
      -0.307
      -0.212
      -0.131
      -0.075
      -0.034
       0.013
       0.086
       0.182
       0.284
       0.364
       0.412
       0.435
       0.452
       0.470
       0.482
       0.468
       0.419
       0.342
       0.262
       0.197
       0.149
       0.101
       0.034
      -0.055
      -0.151
      -0.228
      -0.268
      -0.277
      -0.272
      -0.273
      -0.285
      -0.297
      -0.289
      -0.251
      -0.188
      -0.117
      -0.059
      -0.021
       0.000
       0.014
       0.027
       0.039
       0.046
       0.054
       0.071
       0.105
       0.151
       0.200
       0.239
       0.261
       0.267
       0.260
       0.248
       0.240
       0.239
       0.238
       0.229
       0.209
       0.188
       0.178
       0.189
       0.213
       0.236
       0.243
       0.238
       0.233
       0.244
       0.270
       0.295
       0.304
       0.287
       0.250
       0.196
       0.126
       0.038
      -0.061
      -0.157
      -0.234
      -0.280
      -0.300
      -0.307
      -0.314
      -0.326
      -0.339
      -0.343
      -0.333
      -0.315
      -0.297
      -0.283
      -0.265
      -0.226
      -0.151
      -0.035
       0.106
       0.244
       0.351
       0.415
       0.446
       0.460
       0.472
       0.479
       0.471
       0.443
       0.408
       0.386
       0.395
       0.437
       0.498
       0.562
       0.613
       0.638
       0.628
       0.581
       0.508
       0.427
       0.359
       0.312
       0.285
       0.269
       0.256
       0.244
       0.238
       0.241
       0.257
       0.282
       0.312
       0.341
       0.370
       0.399
       0.429
       0.449
       0.450
       0.427
       0.385
       0.335
       0.286
       0.234
       0.171
       0.088
      -0.012
      -0.114
      -0.201
      -0.258
      -0.287
      -0.300
      -0.308
      -0.316
      -0.324
      -0.328
      -0.328
      -0.332
      -0.351
      -0.395
      -0.458
      -0.522
      -0.565
      -0.575
      -0.556
      -0.519
      -0.470
      -0.405
      -0.321
      -0.222
      -0.125
      -0.047
       0.003
       0.034
       0.064
       0.108
       0.167
       0.225
       0.268
       0.290
       0.290
       0.269
       0.222
       0.142
       0.032
      -0.100
      -0.239
      -0.368
      -0.473
      -0.542
      -0.572
      -0.564
      -0.527
      -0.471
      -0.409
      -0.352
      -0.309
      -0.284
      -0.275
      -0.278
      -0.282
      -0.278
      -0.263
      -0.240
      -0.214
      -0.192
      -0.176
      -0.166
      -0.163
      -0.176
      -0.218
      -0.298
      -0.411
      -0.542
      -0.672
      -0.781
      -0.857
      -0.894
      -0.888
      -0.847
      -0.778
      -0.695
      -0.606
      -0.515
      -0.423
      -0.330
      -0.244
      -0.172
      -0.121
      -0.091
      -0.078
      -0.080
      -0.101
      -0.143
      -0.204
      -0.277
      -0.351
      -0.417
      -0.473
      -0.523
      -0.570
      -0.613
      -0.641
      -0.646
      -0.624
      -0.578
      -0.516
      -0.451
      -0.397
      -0.359
      -0.329
      -0.285
      -0.215
      -0.125
      -0.041
       0.010
       0.024
       0.017
       0.012
       0.018
       0.032
       0.042
       0.050
       0.068
       0.114
       0.201
       0.326
       0.475
       0.631
       0.779
       0.905
       1.004
       1.072
       1.111
       1.119
       1.092
       1.027
       0.928
       0.805
       0.667
       0.514
       0.340
       0.149
      -0.043
      -0.211
      -0.326
      -0.374
      -0.358
      -0.294
      -0.200
      -0.091
       0.023
       0.134
       0.236
       0.326
       0.411
       0.500
       0.593
       0.676
       0.727
       0.729
       0.687
       0.622
       0.565
       0.538
       0.545
       0.568
       0.581
       0.565
       0.516
       0.447
       0.379
       0.336
       0.333
       0.364
       0.407
       0.437
       0.448
       0.450
       0.459
       0.482
       0.512
       0.531
       0.521
       0.470
       0.384
       0.275
       0.161
       0.053
      -0.046
      -0.137
      -0.221
      -0.289
      -0.333
      -0.345
      -0.330
      -0.302
      -0.281
      -0.279
      -0.298
      -0.332
      -0.374
      -0.411
      -0.427
      -0.408
      -0.349
      -0.261
      -0.167
      -0.086
      -0.028
       0.008
       0.032
       0.054
       0.084
       0.126
       0.178
       0.227
       0.259
       0.261
       0.231
       0.175
       0.111
       0.063
       0.050
       0.073
       0.114
       0.149
       0.166
       0.168
       0.171
       0.186
       0.211
       0.232
       0.228
       0.189
       0.116
       0.019
      -0.088
      -0.194
      -0.292
      -0.377
      -0.442
      -0.481
      -0.498
      -0.505
      -0.515
      -0.537
      -0.570
      -0.601
      -0.616
      -0.605
      -0.568
      -0.505
      -0.424
      -0.331
      -0.243
      -0.172
      -0.120
      -0.078
      -0.027
       0.042
       0.118
       0.180
       0.205
       0.187
       0.138
       0.080
       0.027
      -0.020
      -0.068
      -0.124
      -0.186
      -0.249
      -0.309
      -0.358
      -0.386
      -0.385
      -0.359
      -0.318
      -0.276
      -0.235
      -0.186
      -0.119
      -0.037
       0.045
       0.108
       0.148
       0.175
       0.211
       0.270
       0.350
       0.436
       0.509
       0.555
       0.576
       0.584
       0.589
       0.595
       0.596
       0.588
       0.571
       0.558
       0.559
       0.573
       0.579
       0.553
       0.483
       0.384
       0.284
       0.210
       0.166
       0.134
       0.090
       0.019
      -0.077
      -0.182
      -0.278
      -0.363
      -0.449
      -0.554
      -0.692
      -0.860
      -1.034
      -1.176
      -1.260
      -1.285
      -1.272
      -1.246
      -1.216
      -1.182
      -1.133
      -1.069
      -0.987
      -0.892
      -0.786
      -0.669
      -0.540
      -0.398
      -0.248
      -0.101
       0.030
       0.141
       0.239
       0.331
       0.420
       0.504
       0.580
       0.650
       0.718
       0.781
       0.832
       0.865
       0.876
       0.876
       0.878
       0.892
       0.914
       0.935
       0.946
       0.939
       0.906
       0.839
       0.736
       0.612
       0.493
       0.402
       0.344
       0.300
       0.250
       0.183
       0.108
       0.041
      -0.008
      -0.040
      -0.065
      -0.092
      -0.127
      -0.170
      -0.222
      -0.275
      -0.316
      -0.331
      -0.317
      -0.294
      -0.295
      -0.340
      -0.427
      -0.533
      -0.633
      -0.716
      -0.776
      -0.804
      -0.791
      -0.739
      -0.666
      -0.593
      -0.529
      -0.469
      -0.403
      -0.324
      -0.235
      -0.147
      -0.069
      -0.004
       0.055
       0.113
       0.168
       0.203
       0.201
       0.158
       0.093
       0.038
       0.015
       0.023
       0.045
       0.060
       0.064
       0.065
       0.069
       0.076
       0.080
       0.081
       0.082
       0.087
       0.091
       0.083
       0.052
      -0.009
      -0.104
      -0.228
      -0.369
      -0.515
      -0.659
      -0.800
      -0.934
      -1.056
      -1.149
      -1.197
      -1.187
      -1.113
      -0.979
      -0.802
      -0.607
      -0.419
      -0.254
      -0.108
       0.034
       0.190
       0.364
       0.547
       0.716
       0.848
       0.938
       0.993
       1.030
       1.057
       1.065
       1.039
       0.975
       0.889
       0.806
       0.744
       0.700
       0.651
       0.578
       0.483
       0.386
       0.307
       0.247
       0.192
       0.126
       0.046
      -0.038
      -0.111
      -0.164
      -0.197
      -0.216
      -0.227
      -0.229
      -0.218
      -0.195
      -0.167
      -0.144
      -0.130
      -0.123
      -0.119
      -0.114
      -0.103
      -0.079
      -0.025
       0.073
       0.225
       0.423
       0.644
       0.852
       1.014
       1.113
       1.154
       1.151
       1.125
       1.093
       1.062
       1.029
       0.988
       0.935
       0.871
       0.805
       0.741
       0.680
       0.622
       0.574
       0.548
       0.549
       0.568
       0.582
       0.564
       0.504
       0.415
       0.328
       0.269
       0.237
       0.209
       0.154
       0.057
      -0.077
      -0.234
      -0.404
      -0.581
      -0.758
      -0.923
      -1.062
      -1.168
      -1.244
      -1.309
      -1.384
      -1.486
      -1.605
      -1.713
      -1.771
      -1.762
      -1.701
      -1.624
      -1.571
      -1.559
      -1.573
      -1.580
      -1.548
      -1.463
      -1.338
      -1.196
      -1.058
      -0.923
      -0.777
      -0.600
      -0.390
      -0.168
       0.031
       0.177
       0.259
       0.290
       0.290
       0.274
       0.254
       0.241
       0.244
       0.271
       0.321
       0.385
       0.457
       0.538
       0.632
       0.739
       0.851
       0.955
       1.037
       1.089
       1.104
       1.083
       1.029
       0.952
       0.859
       0.758
       0.657
       0.568
       0.498
       0.453
       0.427
       0.404
       0.363
       0.286
       0.177
       0.061
      -0.025
      -0.067
      -0.076
      -0.081
      -0.106
      -0.154
      -0.208
      -0.249
      -0.264
      -0.253
      -0.221
      -0.178
      -0.133
      -0.091
      -0.045
       0.012
       0.085
       0.166
       0.239
       0.289
       0.312
       0.313
       0.297
       0.270
       0.231
       0.179
       0.117
       0.052
      -0.012
      -0.079
      -0.155
      -0.243
      -0.330
      -0.393
      -0.412
      -0.385
      -0.334
      -0.280
      -0.228
      -0.158
      -0.043
       0.126
       0.336
       0.561
       0.773
       0.954
       1.098
       1.208
       1.288
       1.332
       1.326
       1.252
       1.105
       0.900
       0.674
       0.470
       0.318
       0.221
       0.161
       0.123
       0.097
       0.078
       0.058
       0.019
      -0.052
      -0.153
      -0.268
      -0.376
      -0.464
      -0.532
      -0.592
      -0.658
      -0.737
      -0.823
      -0.894
      -0.930
      -0.925
      -0.889
      -0.844
      -0.807
      -0.792
      -0.800
      -0.829
      -0.873
      -0.925
      -0.980
      -1.035
      -1.088
      -1.136
      -1.169
      -1.174
      -1.141
      -1.066
      -0.959
      -0.835
      -0.704
      -0.565
      -0.413
      -0.253
      -0.105
       0.014
       0.095
       0.145
       0.175
       0.194
       0.200
       0.193
       0.176
       0.162
       0.168
       0.204
       0.276
       0.376
       0.490
       0.598
       0.681
       0.732
       0.755
       0.765
       0.770
       0.771
       0.760
       0.737
       0.712
       0.694
       0.684
       0.672
       0.649
       0.613
       0.573
       0.540
       0.518
       0.501
       0.477
       0.435
       0.373
       0.297
       0.220
       0.160
       0.131
       0.146
       0.210
       0.318
       0.457
       0.608
       0.747
       0.854
       0.926
       0.977
       1.034
       1.108
       1.191
       1.253
       1.270
       1.233
       1.156
       1.058
       0.955
       0.852
       0.745
       0.634
       0.519
       0.408
       0.301
       0.189
       0.051
      -0.126
      -0.330
      -0.531
      -0.698
      -0.815
      -0.887
      -0.926
      -0.938
      -0.916
      -0.852
      -0.753
      -0.643
      -0.553
      -0.500
      -0.478
      -0.469
      -0.461
      -0.455
      -0.463
      -0.496
      -0.554
      -0.627
      -0.699
      -0.757
      -0.796
      -0.819
      -0.832
      -0.835
      -0.826
      -0.800
      -0.755
      -0.696
      -0.633
      -0.577
      -0.534
      -0.506
      -0.490
      -0.480
      -0.471
      -0.460
      -0.444
      -0.422
      -0.390
      -0.350
      -0.308
      -0.277
      -0.266
      -0.272
      -0.285
      -0.294
      -0.303
      -0.324
      -0.367
      -0.422
      -0.466
      -0.469
      -0.412
      -0.305
      -0.178
      -0.074
      -0.022
      -0.030
      -0.075
      -0.131
      -0.179
      -0.220
      -0.262
      -0.311
      -0.364
      -0.417
      -0.471
      -0.526
      -0.575
      -0.606
      -0.609
      -0.584
      -0.537
      -0.479
      -0.424
      -0.379
      -0.343
      -0.303
      -0.245
      -0.160
      -0.053
       0.059
       0.164
       0.253
       0.331
       0.403
       0.472
       0.529
       0.564
       0.574
       0.573
       0.582
       0.616
       0.680
       0.766
       0.863
       0.959
       1.044
       1.112
       1.160
       1.191
       1.205
       1.196
       1.158
       1.085
       0.981
       0.855
       0.726
       0.610
       0.512
       0.421
       0.324
       0.217
       0.115
       0.043
       0.019
       0.041
       0.085
       0.116
       0.117
       0.096
       0.084
       0.110
       0.182
       0.279
       0.374
       0.444
       0.483
       0.498
       0.503
       0.506
       0.510
       0.505
       0.478
       0.419
       0.334
       0.243
       0.168
       0.113
       0.066
       0.006
      -0.075
      -0.164
      -0.242
      -0.301
      -0.355
      -0.426
      -0.526
      -0.643
      -0.753
      -0.838
      -0.891
      -0.919
      -0.932
      -0.936
      -0.932
      -0.912
      -0.868
      -0.792
      -0.688
      -0.569
      -0.449
      -0.342
      -0.256
      -0.191
      -0.143
      -0.101
      -0.054
       0.007
       0.086
       0.181
       0.280
       0.368
       0.428
       0.459
       0.471
       0.480
       0.497
       0.517
       0.525
       0.506
       0.463
       0.411
       0.370
       0.345
       0.328
       0.303
       0.263
       0.209
       0.144
       0.075
       0.009
      -0.041
      -0.069
      -0.079
      -0.088
      -0.111
      -0.154
      -0.208
      -0.260
      -0.294
      -0.304
      -0.289
      -0.261
      -0.240
      -0.248
      -0.295
      -0.374
      -0.463
      -0.537
      -0.585
      -0.609
      -0.622
      -0.632
      -0.638
      -0.632
      -0.613
      -0.586
      -0.554
      -0.514
