Origin Time       31/1/2009 03:07:15 
Lat.              32.5 N 
Long.             75.9 E 
Depth (Km)         10.0
Magnitude         3.7
 Region           HIMACHAL-PRADESH                                                 
 Above details taken from IMD 
     
Station Code      KLG
Station Lat.       32.559  N
Station Long.      77.001  E
Station Height(m) 3129.0
Site Class        A   Vs30 between 700 m/sec to 1400 m/sec * 
Record Time       31.01.2009 03:07:19.634
Sampling Rate     200. Hz
 Record Duration   65.000 Sec.
 Direction         E-W (E positive)
Max. Acceleration      3.878 cm/sec**2
     
  * For reference see Site Classification link of website 
     
 Base Line Corrected and Low Pass Filtered (Cut Off at 35 Hz) Time History
 Acceleration data in cm/sec**2
    
[...]
       0.204
       0.022
      -0.075
       0.006
       0.223
       0.437
       0.499
       0.364
       0.127
      -0.042
      -0.042
       0.073
       0.143
       0.051
      -0.154
      -0.301
      -0.251
      -0.026
       0.208
       0.280
       0.131
      -0.149
      -0.388
      -0.446
      -0.315
      -0.127
      -0.042
      -0.100
      -0.183
      -0.124
       0.121
       0.415
       0.540
       0.367
      -0.040
      -0.459
      -0.634
      -0.424
       0.097
       0.659
       0.922
       0.699
       0.115
      -0.439
      -0.578
      -0.218
       0.335
       0.623
       0.406
      -0.143
      -0.587
      -0.590
      -0.178
       0.310
       0.506
       0.298
      -0.116
      -0.421
      -0.440
      -0.245
      -0.038
       0.052
       0.061
       0.107
       0.226
       0.320
       0.251
      -0.012
      -0.334
      -0.509
      -0.415
      -0.108
       0.219
       0.366
       0.256
      -0.028
      -0.308
      -0.425
      -0.339
      -0.135
       0.057
       0.161
       0.197
       0.236
       0.319
       0.412
       0.424
       0.273
      -0.039
      -0.394
      -0.606
      -0.532
      -0.191
       0.228
       0.486
       0.454
       0.203
      -0.079
      -0.238
      -0.244
      -0.156
      -0.031
       0.107
       0.225
       0.258
       0.142
      -0.102
      -0.347
      -0.446
      -0.343
      -0.119
       0.074
       0.130
       0.051
      -0.070
      -0.114
      -0.013
       0.198
       0.387
       0.413
       0.239
      -0.018
      -0.174
      -0.122
       0.085
       0.299
       0.393
       0.334
       0.174
      -0.019
      -0.190
      -0.298
      -0.315
      -0.239
      -0.121
      -0.042
      -0.055
      -0.153
      -0.269
      -0.323
      -0.256
      -0.068
       0.157
       0.282
       0.193
      -0.091
      -0.388
      -0.455
      -0.171
       0.337
       0.762
       0.826
       0.482
      -0.052
      -0.456
      -0.527
      -0.293
       0.047
       0.276
       0.291
       0.139
      -0.037
      -0.110
      -0.052
       0.053
       0.094
       0.027
      -0.100
      -0.186
      -0.156
      -0.009
       0.178
       0.292
       0.258
       0.084
      -0.141
      -0.311
      -0.358
      -0.274
      -0.092
       0.130
       0.301
       0.339
       0.221
       0.012
      -0.174
      -0.250
      -0.185
      -0.001
       0.247
       0.460
       0.502
       0.251
      -0.278
      -0.869
      -1.186
      -1.000
      -0.373
       0.366
       0.843
       0.885
       0.585
       0.194
      -0.073
      -0.145
      -0.083
      -0.001
       0.002
      -0.108
      -0.264
      -0.318
      -0.153
       0.186
       0.487
       0.535
       0.297
      -0.042
      -0.245
      -0.208
      -0.018
       0.155
       0.189
       0.074
      -0.115
      -0.281
      -0.341
      -0.261
      -0.080
       0.091
       0.145
       0.068
      -0.039
      -0.057
       0.022
       0.092
       0.059
      -0.039
      -0.074
       0.022
       0.168
       0.209
       0.067
      -0.181
      -0.365
      -0.347
      -0.118
       0.191
       0.384
       0.318
      -0.005
      -0.403
      -0.607
      -0.434
       0.047
       0.535
       0.715
       0.492
       0.048
      -0.326
      -0.439
      -0.288
      -0.005
       0.243
       0.335
       0.244
       0.058
      -0.079
      -0.080
       0.013
       0.074
       0.023
      -0.097
      -0.169
      -0.139
      -0.065
      -0.045
      -0.094
      -0.132
      -0.079
       0.050
       0.164
       0.184
       0.121
       0.062
       0.081
       0.167
       0.221
       0.139
      -0.082
      -0.323
      -0.422
      -0.297
      -0.014
       0.256
       0.350
       0.216
      -0.055
      -0.288
      -0.333
      -0.159
       0.132
       0.373
       0.433
       0.291
       0.049
      -0.142
      -0.185
      -0.092
       0.048
       0.149
       0.165
       0.092
      -0.042
      -0.176
      -0.228
      -0.153
       0.009
       0.151
       0.174
       0.062
      -0.110
      -0.231
      -0.217
      -0.051
       0.188
       0.341
       0.256
      -0.077
      -0.459
      -0.603
      -0.371
       0.078
       0.402
       0.362
       0.018
      -0.333
      -0.417
      -0.183
       0.183
       0.429
       0.421
       0.197
      -0.094
      -0.300
      -0.334
      -0.193
       0.048
       0.277
       0.392
       0.350
       0.176
      -0.059
      -0.274
      -0.399
      -0.389
      -0.247
      -0.037
       0.142
       0.206
       0.125
      -0.057
      -0.235
      -0.284
      -0.148
       0.104
       0.304
       0.307
       0.111
      -0.130
      -0.231
      -0.120
       0.116
       0.316
       0.363
       0.241
       0.017
      -0.199
      -0.313
      -0.289
      -0.169
      -0.045
       0.004
      -0.030
      -0.095
      -0.123
      -0.079
       0.030
       0.181
       0.337
       0.455
       0.487
       0.398
       0.197
      -0.059
      -0.281
      -0.391
      -0.360
      -0.217
      -0.031
       0.127
       0.218
       0.243
       0.224
       0.179
       0.108
       0.005
      -0.127
      -0.256
      -0.321
      -0.279
      -0.160
      -0.065
      -0.077
      -0.181
      -0.268
      -0.236
      -0.076
       0.126
       0.281
       0.367
       0.404
       0.408
       0.368
       0.287
       0.186
       0.081
      -0.035
      -0.157
      -0.255
      -0.280
      -0.210
      -0.061
       0.116
       0.245
       0.238
       0.055
      -0.245
      -0.501
      -0.556
      -0.378
      -0.091
       0.125
       0.190
       0.167
       0.173
       0.255
       0.356
       0.391
       0.313
       0.136
      -0.081
      -0.252
      -0.297
      -0.200
      -0.044
       0.036
      -0.037
      -0.221
      -0.391
      -0.431
      -0.312
      -0.107
       0.061
       0.114
       0.080
       0.050
       0.077
       0.101
       0.027
      -0.145
      -0.283
      -0.225
       0.058
       0.409
       0.596
       0.502
       0.214
      -0.075
      -0.229
      -0.249
      -0.216
      -0.177
      -0.120
      -0.014
       0.129
       0.259
       0.332
       0.324
       0.228
       0.044
      -0.182
      -0.335
      -0.294
      -0.057
       0.214
       0.305
       0.127
      -0.205
      -0.476
      -0.546
      -0.423
      -0.202
       0.018
       0.171
       0.215
       0.152
       0.043
      -0.034
      -0.055
      -0.066
      -0.111
      -0.165
      -0.145
       0.011
       0.274
       0.523
       0.629
       0.538
       0.304
       0.042
      -0.148
      -0.214
      -0.146
       0.035
       0.255
       0.375
       0.262
      -0.093
      -0.510
      -0.713
      -0.550
      -0.129
       0.256
       0.376
       0.251
       0.099
       0.089
       0.179
       0.191
       0.018
      -0.247
      -0.393
      -0.283
       0.021
       0.312
       0.399
       0.219
      -0.149
      -0.555
      -0.834
      -0.863
      -0.597
      -0.096
       0.483
       0.938
       1.094
       0.875
       0.372
      -0.165
      -0.451
      -0.358
      -0.023
       0.244
       0.205
      -0.098
      -0.374
      -0.339
       0.026
       0.437
       0.554
       0.263
      -0.225
      -0.557
      -0.530
      -0.232
       0.064
       0.149
       0.026
      -0.140
      -0.192
      -0.109
       0.001
       0.019
      -0.070
      -0.163
      -0.135
       0.045
       0.275
       0.396
       0.315
       0.085
      -0.124
      -0.146
       0.042
       0.279
       0.334
       0.101
      -0.295
      -0.590
      -0.592
      -0.327
       0.001
       0.195
       0.209
       0.142
       0.124
       0.201
       0.307
       0.313
       0.115
      -0.265
      -0.640
      -0.758
      -0.481
       0.081
       0.628
       0.870
       0.713
       0.275
      -0.239
      -0.664
      -0.898
      -0.875
      -0.595
      -0.174
       0.197
       0.386
       0.410
       0.370
       0.325
       0.256
       0.147
       0.045
       0.032
       0.115
       0.203
       0.195
       0.097
       0.009
       0.002
       0.017
      -0.065
      -0.263
      -0.426
      -0.356
      -0.013
       0.422
       0.691
       0.655
       0.370
      -0.002
      -0.320
      -0.503
      -0.501
      -0.274
       0.155
       0.628
       0.884
       0.718
       0.165
      -0.480
      -0.848
      -0.750
      -0.306
       0.171
       0.414
       0.381
       0.235
       0.171
       0.216
       0.186
      -0.149
      -0.814
      -1.521
      -1.830
      -1.474
      -0.569
       0.458
       1.168
       1.382
       1.213
       0.883
       0.526
       0.151
      -0.233
      -0.507
      -0.484
      -0.073
       0.565
       1.046
       1.011
       0.424
      -0.346
      -0.773
      -0.586
       0.008
       0.487
       0.424
      -0.191
      -0.955
      -1.340
      -1.056
      -0.244
       0.611
       0.985
       0.665
      -0.101
      -0.742
      -0.759
      -0.090
       0.796
       1.235
       0.865
      -0.082
      -0.958
      -1.179
      -0.637
       0.245
       0.854
       0.859
       0.435
       0.057
       0.036
       0.235
       0.209
      -0.343
      -1.230
      -1.850
      -1.654
      -0.633
       0.634
       1.410
       1.380
       0.853
       0.425
       0.424
       0.649
       0.625
       0.084
      -0.763
      -1.389
      -1.373
      -0.724
       0.145
       0.730
       0.793
       0.466
       0.080
      -0.110
      -0.084
      -0.008
      -0.072
      -0.347
      -0.756
      -1.126
      -1.277
      -1.095
      -0.598
       0.059
       0.664
       1.079
       1.308
       1.433
       1.489
       1.412
       1.098
       0.522
      -0.186
      -0.784
      -1.064
      -0.995
      -0.727
      -0.461
      -0.274
      -0.096
       0.166
       0.472
       0.639
       0.472
      -0.054
      -0.713
      -1.138
      -1.031
      -0.374
       0.534
       1.239
       1.408
       1.031
       0.419
      -0.031
      -0.139
      -0.067
      -0.142
      -0.537
      -1.085
      -1.426
      -1.322
      -0.845
      -0.267
       0.193
       0.507
       0.749
       0.921
       0.902
       0.577
       0.011
      -0.525
      -0.735
      -0.545
      -0.174
       0.064
       0.052
      -0.035
       0.078
       0.492
       1.027
       1.368
       1.305
       0.864
       0.257
      -0.267
      -0.563
      -0.651
      -0.656
      -0.692
      -0.766
      -0.799
      -0.711
      -0.507
      -0.272
      -0.102
       0.000
       0.163
       0.554
       1.191
       1.830
       2.064
       1.617
       0.579
      -0.630
      -1.524
      -1.840
      -1.623
      -1.106
      -0.532
      -0.055
       0.235
       0.271
       0.038
      -0.358
      -0.711
      -0.851
      -0.775
      -0.618
      -0.471
      -0.271
       0.116
       0.687
       1.219
       1.418
       1.168
       0.626
       0.072
      -0.311
      -0.499
      -0.526
      -0.375
      -0.038
       0.359
       0.547
       0.326
      -0.200
      -0.622
      -0.521
       0.173
       1.069
       1.565
       1.289
       0.384
      -0.576
      -0.982
      -0.631
       0.112
       0.569
       0.282
      -0.614
      -1.463
      -1.573
      -0.743
       0.578
       1.613
       1.814
       1.203
       0.262
      -0.511
      -0.937
      -1.134
      -1.248
      -1.260
      -1.042
      -0.547
       0.100
       0.687
       1.036
       1.056
       0.749
       0.220
      -0.334
      -0.711
      -0.816
      -0.707
      -0.513
      -0.305
      -0.031
       0.418
       1.040
       1.602
       1.744
       1.275
       0.404
      -0.364
      -0.626
      -0.421
      -0.155
      -0.190
      -0.486
      -0.680
      -0.500
      -0.058
       0.277
       0.258
      -0.040
      -0.354
      -0.472
      -0.333
       0.013
       0.439
       0.746
       0.745
       0.403
      -0.081
      -0.402
      -0.357
       0.049
       0.673
       1.350
       1.902
       2.087
       1.657
       0.581
      -0.778
      -1.826
      -2.144
      -1.785
      -1.147
      -0.605
      -0.279
      -0.122
      -0.133
      -0.392
      -0.882
      -1.354
      -1.488
      -1.226
      -0.879
      -0.764
      -0.754
      -0.308
       0.934
       2.599
       3.721
       3.503
       1.994
       0.073
      -1.219
      -1.402
      -0.779
      -0.058
       0.227
       0.028
      -0.320
      -0.423
      -0.080
       0.610
       1.281
       1.465
       0.868
      -0.366
      -1.670
      -2.389
      -2.217
      -1.382
      -0.425
       0.198
       0.391
       0.376
       0.409
       0.516
       0.471
       0.052
      -0.673
      -1.315
      -1.447
      -0.962
      -0.190
       0.368
       0.480
       0.414
       0.685
       1.509
       2.474
       2.781
       1.921
       0.190
      -1.443
      -2.042
      -1.386
      -0.095
       0.865
       0.873
       0.019
      -1.028
      -1.536
      -1.217
      -0.426
       0.109
      -0.162
      -1.155
      -2.152
      -2.289
      -1.181
       0.797
       2.762
       3.878
       3.782
       2.635
       0.903
      -0.878
      -2.217
      -2.746
      -2.339
      -1.226
       0.072
       1.021
       1.389
       1.333
       1.164
       1.022
       0.766
       0.189
      -0.675
      -1.474
      -1.772
      -1.364
      -0.414
       0.659
       1.400
       1.505
       0.951
       0.044
      -0.690
      -0.810
      -0.262
       0.569
       1.159
       1.213
       0.807
       0.216
      -0.345
      -0.806
      -1.122
      -1.157
      -0.767
      -0.023
       0.686
       0.849
       0.245
      -0.806
      -1.606
      -1.577
      -0.682
       0.574
       1.521
       1.733
       1.193
       0.215
      -0.736
      -1.223
      -0.979
      -0.030
       1.214
       2.065
       1.905
       0.651
      -1.080
      -2.349
      -2.555
      -1.819
      -0.758
       0.078
       0.580
       0.966
       1.389
       1.689
       1.510
       0.645
      -0.702
      -1.978
      -2.603
      -2.302
      -1.249
       0.022
       0.898
       1.019
       0.472
      -0.303
      -0.833
      -0.897
      -0.566
      -0.038
       0.544
       1.110
       1.550
       1.646
       1.190
       0.241
      -0.774
      -1.313
      -1.139
      -0.498
       0.109
       0.335
       0.189
      -0.081
      -0.222
      -0.104
       0.287
       0.874
       1.459
       1.717
       1.362
       0.410
      -0.726
      -1.461
      -1.447
      -0.833
      -0.153
       0.066
      -0.286
      -0.792
      -0.807
      -0.007
       1.263
       2.161
       1.970
       0.671
      -1.009
      -2.113
      -2.127
      -1.308
      -0.407
      -0.053
      -0.293
      -0.650
      -0.597
      -0.015
       0.739
       1.175
       1.094
       0.719
       0.452
       0.507
       0.758
       0.899
       0.728
       0.292
      -0.177
      -0.446
      -0.421
      -0.147
       0.247
       0.609
       0.784
       0.662
       0.268
      -0.214
      -0.568
      -0.716
      -0.747
      -0.769
      -0.764
      -0.625
      -0.323
       0.021
       0.244
       0.289
       0.225
       0.154
       0.140
       0.212
       0.371
       0.571
       0.724
       0.746
       0.632
       0.463
       0.316
       0.161
      -0.129
      -0.626
      -1.198
      -1.541
      -1.391
      -0.752
       0.071
       0.671
       0.834
       0.669
       0.466
       0.411
       0.419
       0.252
      -0.178
      -0.633
      -0.713
      -0.229
       0.568
       1.151
       1.125
       0.508
      -0.339
      -1.001
      -1.262
      -1.149
      -0.862
      -0.657
      -0.725
      -1.060
      -1.420
      -1.463
      -1.006
      -0.191
       0.573
       0.869
       0.545
      -0.162
      -0.760
      -0.819
      -0.281
       0.506
       1.059
       1.123
       0.818
       0.491
       0.425
       0.634
       0.882
       0.877
       0.525
       0.020
      -0.305
      -0.267
       0.008
       0.204
       0.103
      -0.251
      -0.619
      -0.766
      -0.595
      -0.161
       0.383
       0.835
       1.015
       0.848
       0.417
      -0.067
      -0.393
      -0.456
      -0.281
       0.035
       0.391
       0.677
       0.757
       0.522
      -0.020
      -0.686
      -1.206
      -1.382
      -1.209
      -0.850
      -0.501
      -0.259
      -0.092
       0.072
       0.255
       0.429
       0.583
       0.757
       0.971
       1.160
       1.205
       1.053
       0.791
       0.598
       0.597
       0.713
       0.691
       0.289
      -0.489
      -1.337
      -1.846
      -1.797
      -1.293
      -0.645
      -0.144
       0.098
       0.143
       0.127
       0.143
       0.202
       0.261
       0.253
       0.128
      -0.117
      -0.397
      -0.555
      -0.471
      -0.190
       0.071
       0.087
      -0.161
      -0.413
      -0.311
       0.292
       1.135
       1.677
       1.502
       0.658
      -0.367
      -1.025
      -1.069
      -0.620
       0.018
       0.543
       0.722
       0.445
      -0.170
      -0.750
      -0.893
      -0.492
       0.139
       0.516
       0.400
      -0.016
      -0.318
      -0.267
       0.004
       0.145
      -0.089
      -0.628
      -1.132
      -1.237
      -0.828
      -0.148
       0.364
       0.408
       0.056
      -0.320
      -0.385
      -0.120
       0.191
       0.258
       0.046
      -0.213
      -0.259
      -0.016
       0.381
       0.729
       0.883
       0.789
       0.479
       0.059
      -0.287
      -0.369
      -0.126
       0.291
       0.603
       0.620
       0.391
       0.143
       0.063
       0.138
       0.186
       0.043
      -0.262
      -0.513
      -0.494
      -0.184
       0.196
       0.371
       0.242
      -0.041
      -0.222
      -0.161
       0.074
       0.296
       0.361
       0.269
       0.128
       0.053
       0.081
       0.150
       0.149
      -0.015
      -0.329
      -0.643
      -0.748
      -0.540
      -0.143
       0.162
       0.156
      -0.143
      -0.482
      -0.553
      -0.222
       0.358
       0.830
       0.880
       0.470
      -0.125
      -0.518
      -0.495
      -0.152
       0.202
       0.284
       0.018
      -0.438
      -0.810
      -0.863
      -0.527
       0.046
       0.545
       0.665
       0.333
      -0.201
      -0.523
      -0.373
       0.142
       0.654
       0.844
       0.673
       0.347
       0.086
      -0.035
      -0.070
      -0.073
      -0.037
       0.053
       0.156
       0.205
       0.181
       0.143
       0.154
       0.198
       0.197
       0.120
       0.043
       0.080
       0.250
       0.434
       0.472
       0.308
       0.030
      -0.199
      -0.256
      -0.136
       0.045
