Origin Time       17/7/2009 11:07:47  UTC
Lat.              32.3 N 
Long.             76.1 E 
Depth (Km)         39.3
Magnitude         3.7
 Region           CHAMBA-(H.P.)                                                    
 Above details taken from IMD 
    
Station Code      KLG
Station Lat.       32.559  N
Station Long.      77.001  E
Station Height(m)    0.0
Site Class        A   Vs30 between 700 m/sec to 1400 m/sec * 
Record Time       17.07.2009 11:07:48.529 UTC
Sampling Rate     200. Hz
 Record Duration   69.040 Sec.
 Direction         N-S (N positive)
Max. Acceleration      8.069 cm/sec**2
     
  * For reference see Site Classification link of website 
     
 Base Line Corrected and Low Pass Filtered (Cut Off at 35 Hz) Time History
 Acceleration data in cm/sec**2
    
[...]
      -0.016
       0.306
       0.578
       0.695
       0.464
      -0.132
      -0.785
      -1.061
      -0.763
      -0.084
       0.569
       0.857
       0.672
       0.133
      -0.474
      -0.792
      -0.563
       0.173
       0.984
       1.268
       0.687
      -0.500
      -1.561
      -1.798
      -1.055
       0.183
       1.162
       1.387
       0.917
       0.225
      -0.218
      -0.257
      -0.045
       0.201
       0.381
       0.464
       0.377
       0.053
      -0.381
      -0.578
      -0.246
       0.514
       1.190
       1.224
       0.460
      -0.708
      -1.620
      -1.815
      -1.307
      -0.510
       0.101
       0.305
       0.209
       0.084
       0.112
       0.261
       0.388
       0.409
       0.363
       0.319
       0.279
       0.209
       0.109
       0.035
       0.021
       0.051
       0.099
       0.170
       0.247
       0.230
      -0.004
      -0.434
      -0.809
      -0.798
      -0.296
       0.398
       0.742
       0.375
      -0.554
      -1.463
      -1.756
      -1.253
      -0.278
       0.615
       1.022
       0.896
       0.484
       0.102
      -0.062
      -0.004
       0.182
       0.389
       0.508
       0.430
       0.110
      -0.352
      -0.725
      -0.803
      -0.563
      -0.160
       0.207
       0.422
       0.472
       0.416
       0.350
       0.358
       0.443
       0.527
       0.506
       0.342
       0.075
      -0.220
      -0.472
      -0.599
      -0.518
      -0.217
       0.177
       0.444
       0.437
       0.208
      -0.027
      -0.068
       0.118
       0.384
       0.514
       0.360
      -0.085
      -0.674
      -1.167
      -1.331
      -1.073
      -0.517
       0.046
       0.351
       0.333
       0.141
      -0.018
      -0.056
      -0.040
      -0.070
      -0.125
      -0.058
       0.244
       0.729
       1.178
       1.339
       1.075
       0.443
      -0.296
      -0.777
      -0.740
      -0.227
       0.389
       0.634
       0.267
      -0.545
      -1.330
      -1.616
      -1.229
      -0.389
       0.444
       0.880
       0.813
       0.402
      -0.125
      -0.594
      -0.863
      -0.797
      -0.354
       0.291
       0.803
       0.923
       0.677
       0.340
       0.179
       0.228
       0.315
       0.297
       0.207
       0.170
       0.198
       0.153
      -0.090
      -0.463
      -0.716
      -0.635
      -0.245
       0.217
       0.500
       0.497
       0.239
      -0.166
      -0.565
      -0.784
      -0.713
      -0.404
      -0.048
       0.187
       0.293
       0.383
       0.507
       0.548
       0.329
      -0.155
      -0.635
      -0.746
      -0.334
       0.368
       0.879
       0.812
       0.164
      -0.683
      -1.221
      -1.161
      -0.600
       0.095
       0.595
       0.789
       0.742
       0.529
       0.195
      -0.164
      -0.385
      -0.367
      -0.194
      -0.062
      -0.060
      -0.079
       0.037
       0.258
       0.352
       0.120
      -0.374
      -0.823
      -0.933
      -0.646
      -0.140
       0.342
       0.651
       0.772
       0.777
       0.740
       0.688
       0.592
       0.410
       0.150
      -0.121
      -0.332
      -0.466
      -0.538
      -0.532
      -0.393
      -0.121
       0.167
       0.311
       0.272
       0.155
       0.078
       0.026
      -0.096
      -0.300
      -0.471
      -0.491
      -0.358
      -0.149
       0.077
       0.299
       0.478
       0.534
       0.425
       0.205
      -0.007
      -0.127
      -0.156
      -0.142
      -0.110
      -0.044
       0.043
       0.067
      -0.068
      -0.344
      -0.598
      -0.660
      -0.514
      -0.291
      -0.093
       0.108
       0.373
       0.632
       0.691
       0.452
       0.071
      -0.158
      -0.089
       0.143
       0.290
       0.243
       0.107
       0.047
       0.100
       0.141
       0.023
      -0.249
      -0.484
      -0.461
      -0.160
       0.185
       0.270
       0.002
      -0.424
      -0.694
      -0.612
      -0.220
       0.263
       0.574
       0.548
       0.217
      -0.195
      -0.409
      -0.289
       0.054
       0.361
       0.461
       0.403
       0.344
       0.326
       0.227
      -0.050
      -0.405
      -0.613
      -0.557
      -0.349
      -0.208
      -0.238
      -0.344
      -0.363
      -0.244
      -0.077
       0.049
       0.156
       0.316
       0.510
       0.611
       0.531
       0.328
       0.149
       0.059
       0.003
      -0.070
      -0.102
       0.013
       0.262
       0.459
       0.393
       0.017
      -0.494
      -0.867
      -0.893
      -0.527
       0.099
       0.720
       1.030
       0.844
       0.222
      -0.530
      -1.019
      -0.990
      -0.479
       0.217
       0.724
       0.830
       0.572
       0.162
      -0.189
      -0.370
      -0.373
      -0.228
       0.017
       0.264
       0.383
       0.304
       0.110
      -0.026
      -0.006
       0.097
       0.122
      -0.021
      -0.260
      -0.407
      -0.303
       0.057
       0.514
       0.843
       0.872
       0.575
       0.114
      -0.231
      -0.256
      -0.038
       0.077
      -0.216
      -0.857
      -1.419
      -1.491
      -1.058
      -0.486
      -0.163
      -0.163
      -0.266
      -0.224
       0.006
       0.286
       0.478
       0.572
       0.623
       0.620
       0.478
       0.165
      -0.192
      -0.374
      -0.260
       0.061
       0.384
       0.590
       0.710
       0.800
       0.805
       0.599
       0.167
      -0.322
      -0.635
      -0.656
      -0.438
      -0.127
       0.141
       0.260
       0.163
      -0.128
      -0.458
      -0.599
      -0.420
      -0.017
       0.347
       0.449
       0.276
      -0.007
      -0.230
      -0.335
      -0.353
      -0.311
      -0.198
      -0.032
       0.100
       0.084
      -0.119
      -0.421
      -0.648
      -0.630
      -0.282
       0.339
       1.018
       1.464
       1.466
       1.043
       0.452
       0.013
      -0.114
      -0.013
       0.124
       0.182
       0.171
       0.134
       0.060
      -0.074
      -0.224
      -0.303
      -0.308
      -0.356
      -0.535
      -0.726
      -0.668
      -0.249
       0.306
       0.578
       0.323
      -0.310
      -0.907
      -1.109
      -0.840
      -0.287
       0.269
       0.595
       0.593
       0.317
      -0.069
      -0.377
      -0.454
      -0.231
       0.229
       0.681
       0.778
       0.326
      -0.476
      -1.097
      -1.063
      -0.342
       0.644
       1.370
       1.574
       1.341
       0.913
       0.478
       0.126
      -0.097
      -0.174
      -0.159
      -0.191
      -0.399
      -0.762
      -1.055
      -0.987
      -0.442
       0.364
       0.986
       1.075
       0.660
       0.113
      -0.190
      -0.183
      -0.104
      -0.195
      -0.439
      -0.581
      -0.412
       0.017
       0.441
       0.637
       0.592
       0.433
       0.248
       0.021
      -0.268
      -0.525
      -0.595
      -0.408
      -0.060
       0.253
       0.382
       0.282
      -0.018
      -0.424
      -0.753
      -0.786
      -0.431
       0.132
       0.550
       0.568
       0.232
      -0.176
      -0.376
      -0.274
       0.017
       0.277
       0.301
       0.014
      -0.469
      -0.892
      -1.030
      -0.865
      -0.571
      -0.340
      -0.207
      -0.084
       0.119
       0.405
       0.732
       1.052
       1.294
       1.335
       1.071
       0.548
       0.012
      -0.255
      -0.190
      -0.025
      -0.061
      -0.356
      -0.664
      -0.686
      -0.367
       0.062
       0.318
       0.298
       0.117
      -0.016
       0.055
       0.350
       0.731
       0.977
       0.910
       0.522
       0.002
      -0.364
      -0.381
      -0.089
       0.271
       0.448
       0.363
       0.135
      -0.063
      -0.151
      -0.189
      -0.305
      -0.595
      -1.025
      -1.407
      -1.493
      -1.198
      -0.731
      -0.468
      -0.611
      -0.980
      -1.187
      -1.008
      -0.556
      -0.083
       0.311
       0.704
       1.141
       1.487
       1.558
       1.347
       1.065
       0.949
       1.056
       1.238
       1.301
       1.174
       0.935
       0.705
       0.523
       0.345
       0.137
      -0.054
      -0.153
      -0.130
      -0.032
       0.054
       0.026
      -0.200
      -0.639
      -1.182
      -1.641
      -1.873
      -1.885
      -1.790
      -1.679
      -1.538
      -1.302
      -0.961
      -0.592
      -0.315
      -0.212
      -0.249
      -0.257
      -0.026
       0.484
       1.039
       1.280
       1.061
       0.637
       0.462
       0.767
       1.320
       1.598
       1.226
       0.300
      -0.649
      -1.024
      -0.589
       0.325
       1.042
       1.042
       0.383
      -0.356
      -0.556
      -0.054
       0.769
       1.341
       1.314
       0.723
      -0.153
      -0.988
      -1.500
      -1.505
      -1.007
      -0.276
       0.251
       0.235
      -0.321
      -1.065
      -1.534
      -1.467
      -0.956
      -0.310
       0.196
       0.495
       0.680
       0.838
       0.932
       0.842
       0.496
      -0.011
      -0.410
      -0.387
       0.213
       1.196
       2.029
       2.121
       1.220
      -0.375
      -2.000
      -3.046
      -3.275
      -2.835
      -2.061
      -1.251
      -0.532
       0.144
       0.867
       1.564
       1.929
       1.657
       0.846
       0.138
       0.315
       1.584
       3.220
       4.011
       3.189
       1.044
      -1.310
      -2.784
      -3.000
      -2.340
      -1.466
      -0.852
      -0.617
      -0.620
      -0.618
      -0.411
       0.044
       0.605
       1.069
       1.371
       1.627
       1.936
       2.150
       1.929
       1.108
      -0.028
      -0.928
      -1.255
      -1.166
      -1.108
      -1.340
      -1.705
      -1.820
      -1.455
      -0.695
       0.195
       0.974
       1.512
       1.764
       1.733
       1.464
       1.047
       0.615
       0.275
       0.010
      -0.343
      -0.959
      -1.832
      -2.713
      -3.227
      -3.083
      -2.228
      -0.885
       0.508
       1.462
       1.672
       1.209
       0.505
       0.087
       0.230
       0.776
       1.276
       1.334
       0.878
       0.171
      -0.398
      -0.553
      -0.266
       0.238
       0.622
       0.643
       0.307
      -0.179
      -0.593
      -0.824
      -0.877
      -0.817
      -0.749
      -0.757
      -0.786
      -0.568
       0.201
       1.515
       2.890
       3.632
       3.357
       2.289
       1.072
       0.279
       0.064
       0.196
       0.319
       0.144
      -0.510
      -1.685
      -3.159
      -4.390
      -4.739
      -3.895
      -2.137
      -0.179
       1.294
       1.991
       2.036
       1.700
       1.133
       0.303
      -0.808
      -1.968
      -2.669
      -2.460
      -1.357
       0.043
       0.934
       0.847
      -0.059
      -1.150
      -1.705
      -1.289
       0.062
       1.845
       3.299
       3.769
       3.074
       1.677
       0.443
       0.072
       0.608
       1.430
       1.800
       1.477
       0.850
       0.482
       0.548
       0.709
       0.510
      -0.181
      -1.102
      -1.845
      -2.100
      -1.710
      -0.708
       0.549
       1.343
       0.936
      -0.806
      -3.070
      -4.498
      -4.135
      -2.149
       0.269
       1.745
       1.648
       0.424
      -0.835
      -1.218
      -0.608
       0.361
       0.939
       0.864
       0.427
       0.034
      -0.172
      -0.276
      -0.334
      -0.298
      -0.177
      -0.085
      -0.051
       0.151
       0.792
       1.749
       2.381
       2.018
       0.646
      -0.940
      -1.736
      -1.315
      -0.056
       1.257
       2.006
       2.007
       1.481
       0.878
       0.628
       0.855
       1.253
       1.360
       1.056
       0.749
       0.957
       1.681
       2.264
       1.953
       0.621
      -1.071
      -2.209
      -2.341
      -1.767
      -1.234
      -1.367
      -2.235
      -3.346
      -4.010
      -3.806
      -2.834
      -1.594
      -0.605
      -0.069
       0.230
       0.730
       1.720
       3.011
       3.923
       3.706
       2.138
      -0.192
      -2.204
      -3.040
      -2.632
      -1.723
      -1.316
      -1.933
      -3.210
      -4.100
      -3.598
      -1.486
       1.457
       3.940
       4.988
       4.486
       3.058
       1.497
       0.251
      -0.639
      -1.253
      -1.553
      -1.406
      -0.782
       0.132
       1.027
       1.670
       2.015
       2.140
       2.109
       1.934
       1.698
       1.658
       2.059
       2.763
       3.111
       2.347
       0.313
      -2.224
      -4.030
      -4.287
      -3.143
      -1.488
      -0.250
       0.161
      -0.081
      -0.456
      -0.415
       0.342
       1.630
       2.758
       2.893
       1.639
      -0.644
      -3.096
      -4.960
      -6.000
      -6.393
      -6.306
      -5.600
      -3.973
      -1.375
       1.708
       4.415
       5.985
       6.151
       5.177
       3.604
       1.971
       0.673
      -0.053
      -0.138
       0.263
       0.731
       0.682
      -0.320
      -2.180
      -4.097
      -4.857
      -3.521
      -0.119
       4.145
       7.394
       8.069
       5.859
       1.954
      -1.649
      -3.384
      -3.049
      -1.740
      -0.896
      -1.266
      -2.565
      -3.879
      -4.340
      -3.582
      -1.788
       0.510
       2.695
       4.242
       4.790
       4.204
       2.658
       0.650
      -1.173
      -2.301
      -2.581
      -2.287
      -1.979
      -2.165
      -2.883
      -3.547
      -3.353
      -1.987
       0.028
       1.726
       2.429
       2.122
       1.234
       0.252
      -0.426
      -0.435
       0.456
       2.030
       3.447
       3.603
       1.943
      -0.935
      -3.485
      -4.220
      -2.777
      -0.210
       1.786
       2.118
       1.024
      -0.257
      -0.532
       0.524
       2.339
       4.056
       5.076
       5.112
       3.981
       1.629
      -1.526
      -4.396
      -5.632
      -4.466
      -1.304
       2.456
       5.261
       6.249
       5.517
       3.769
       1.765
       0.029
      -1.151
      -1.637
      -1.455
      -0.857
      -0.249
       0.014
      -0.171
      -0.662
      -1.259
      -1.854
      -2.385
      -2.676
      -2.444
      -1.522
      -0.129
       1.159
       1.751
       1.433
       0.419
      -0.950
      -2.492
      -4.129
      -5.592
      -6.343
      -5.901
      -4.303
      -2.217
      -0.558
       0.100
      -0.114
      -0.499
      -0.331
       0.571
       1.733
       2.455
       2.377
       1.676
       0.800
       0.092
      -0.342
      -0.517
      -0.471
      -0.275
      -0.061
       0.048
       0.053
       0.125
       0.530
       1.471
       2.899
       4.407
       5.327
       5.089
       3.666
       1.742
       0.337
       0.069
       0.638
       1.052
       0.437
      -1.263
      -3.296
      -4.769
      -5.292
      -5.035
      -4.254
      -2.920
      -0.894
       1.553
       3.572
       4.275
       3.539
       2.239
       1.552
       1.923
       2.677
       2.668
       1.334
      -0.843
      -2.864
      -4.119
      -4.750
      -5.188
      -5.429
      -4.911
      -3.154
      -0.489
       1.982
       3.281
       3.440
       3.444
       4.223
       5.700
       6.849
       6.646
       4.927
       2.405
      -0.013
      -1.845
      -3.077
      -3.807
      -3.988
      -3.505
      -2.428
      -1.121
      -0.097
       0.285
       0.077
      -0.273
      -0.280
       0.126
       0.506
       0.343
      -0.397
      -1.161
      -1.300
      -0.637
       0.459
       1.483
       2.185
       2.520
       2.397
       1.657
       0.394
      -0.811
      -1.159
      -0.264
       1.369
       2.554
       2.271
       0.524
      -1.558
      -2.583
      -2.039
      -0.696
       0.135
      -0.214
      -1.237
      -1.852
      -1.494
      -0.642
      -0.293
      -0.953
      -2.136
      -2.826
      -2.427
      -1.261
      -0.218
       0.013
      -0.595
      -1.555
      -2.339
      -2.676
      -2.546
      -2.026
      -1.242
      -0.377
       0.417
       1.157
       2.024
       3.101
       4.114
       4.471
       3.685
       1.814
      -0.494
      -2.406
      -3.393
      -3.395
      -2.647
      -1.403
       0.180
       1.926
       3.461
       4.213
       3.710
       1.971
      -0.367
      -2.332
      -3.135
      -2.581
      -1.122
       0.424
       1.309
       1.201
       0.291
      -0.831
      -1.469
      -1.160
       0.059
       1.652
       2.893
       3.326
       3.042
       2.550
       2.329
       2.427
       2.463
       2.031
       1.138
       0.259
      -0.061
       0.303
       0.889
       0.974
       0.161
      -1.259
      -2.471
      -2.735
      -1.951
      -0.727
       0.096
       0.034
      -0.816
      -2.008
      -3.129
      -3.984
      -4.497
      -4.581
      -4.167
      -3.345
      -2.380
      -1.544
      -0.917
      -0.377
       0.215
       0.850
       1.416
       1.854
       2.198
       2.429
       2.384
       1.920
       1.209
       0.795
       1.234
       2.567
       4.137
       4.995
       4.603
       3.248
       1.810
       1.094
       1.264
       1.784
       1.883
       1.156
      -0.161
      -1.404
      -2.001
      -1.844
      -1.270
      -0.711
      -0.362
      -0.131
       0.120
       0.337
       0.289
      -0.196
      -1.039
      -1.958
      -2.675
      -3.057
      -3.084
      -2.784
      -2.257
      -1.726
      -1.447
      -1.490
      -1.625
      -1.502
      -0.962
      -0.157
       0.615
       1.114
       1.215
       0.887
       0.253
      -0.331
      -0.403
       0.231
       1.213
       1.763
       1.199
      -0.543
      -2.771
      -4.395
      -4.568
      -3.213
      -1.072
       0.758
       1.505
       1.125
       0.203
      -0.482
      -0.433
       0.328
       1.369
       2.190
       2.521
       2.397
       2.015
       1.585
       1.250
       1.064
       0.969
       0.820
       0.461
      -0.147
      -0.842
      -1.285
      -1.111
      -0.187
       1.200
       2.408
       2.828
       2.312
       1.289
       0.471
       0.380
       1.065
       2.117
       2.884
       2.771
       1.526
      -0.537
      -2.614
      -3.834
      -3.785
      -2.721
      -1.302
      -0.180
       0.252
      -0.065
      -0.835
      -1.455
      -1.313
      -0.262
       1.156
       2.053
       1.886
       0.865
      -0.255
      -0.786
      -0.546
       0.157
       0.843
       1.157
       1.000
       0.528
       0.063
      -0.106
       0.064
       0.337
       0.390
       0.074
      -0.490
      -1.055
      -1.457
      -1.706
      -1.869
      -1.917
      -1.712
      -1.194
      -0.548
      -0.138
      -0.211
      -0.649
      -1.037
      -1.008
      -0.543
