Origin Time       3/1/2009 20:23:19  
Lat.              36.5 N 
Long.             70.8 E 
Depth (Km)        188.0
Magnitude         6.4
 Region           HINDUKUSH-REGION-AFGHANISTAN                                     
 Above details taken from IMD 
     
Station Code      KLG
Station Lat.       32.559  N
Station Long.      77.001  E
Station Height(m) 3129.0
Site Class        A   Vs30 between 700 m/sec to 1400 m/sec * 
Record Time       03.01.2009 20:25:55.614
Sampling Rate     200. Hz
 Record Duration   65.920 Sec.
 Direction         E-W (E positive)
Max. Acceleration      2.720 cm/sec**2
     
  * For reference see Site Classification link of website 
     
 Base Line Corrected and Low Pass Filtered (Cut Off at 35 Hz) Time History
 Acceleration data in cm/sec**2
    
[...]
      -0.029
       0.005
       0.053
       0.104
       0.150
       0.192
       0.235
       0.278
       0.317
       0.346
       0.361
       0.360
       0.340
       0.301
       0.246
       0.189
       0.140
       0.109
       0.092
       0.078
       0.054
       0.016
      -0.029
      -0.065
      -0.084
      -0.091
      -0.098
      -0.119
      -0.160
      -0.215
      -0.265
      -0.289
      -0.285
      -0.272
      -0.276
      -0.313
      -0.369
      -0.417
      -0.426
      -0.387
      -0.317
      -0.248
      -0.203
      -0.183
      -0.170
      -0.137
      -0.074
       0.009
       0.085
       0.130
       0.134
       0.105
       0.063
       0.027
       0.007
       0.001
      -0.002
      -0.009
      -0.012
      -0.003
       0.022
       0.053
       0.072
       0.063
       0.025
      -0.029
      -0.075
      -0.099
      -0.105
      -0.111
      -0.135
      -0.175
      -0.212
      -0.223
      -0.199
      -0.155
      -0.118
      -0.110
      -0.131
      -0.164
      -0.195
      -0.220
      -0.247
      -0.282
      -0.326
      -0.369
      -0.405
      -0.434
      -0.458
      -0.474
      -0.472
      -0.441
      -0.377
      -0.293
      -0.209
      -0.139
      -0.082
      -0.025
       0.045
       0.127
       0.207
       0.270
       0.311
       0.338
       0.364
       0.401
       0.453
       0.516
       0.578
       0.625
       0.646
       0.642
       0.619
       0.584
       0.543
       0.494
       0.434
       0.359
       0.272
       0.183
       0.100
       0.030
      -0.029
      -0.071
      -0.092
      -0.088
      -0.065
      -0.033
      -0.006
       0.011
       0.017
       0.017
       0.018
       0.023
       0.033
       0.044
       0.053
       0.061
       0.077
       0.099
       0.119
       0.121
       0.104
       0.079
       0.065
       0.069
       0.085
       0.097
       0.093
       0.071
       0.039
       0.010
      -0.008
      -0.010
       0.001
       0.018
       0.035
       0.047
       0.052
       0.052
       0.045
       0.031
       0.006
      -0.034
      -0.091
      -0.168
      -0.259
      -0.351
      -0.429
      -0.481
      -0.507
      -0.513
      -0.506
      -0.491
      -0.467
      -0.435
      -0.403
      -0.376
      -0.359
      -0.351
      -0.347
      -0.336
      -0.309
      -0.256
      -0.179
      -0.085
       0.014
       0.108
       0.192
       0.265
       0.328
       0.385
       0.439
       0.490
       0.536
       0.571
       0.590
       0.593
       0.579
       0.549
       0.498
       0.422
       0.321
       0.208
       0.100
       0.011
      -0.053
      -0.102
      -0.149
      -0.208
      -0.287
      -0.379
      -0.466
      -0.528
      -0.552
      -0.544
      -0.519
      -0.494
      -0.477
      -0.464
      -0.448
      -0.417
      -0.364
      -0.288
      -0.200
      -0.117
      -0.048
       0.011
       0.071
       0.143
       0.223
       0.296
       0.342
       0.350
       0.329
       0.301
       0.290
       0.306
       0.334
       0.352
       0.342
       0.308
       0.266
       0.239
       0.238
       0.258
       0.278
       0.273
       0.231
       0.164
       0.097
       0.054
       0.049
       0.078
       0.125
       0.175
       0.216
       0.247
       0.276
       0.312
       0.354
       0.392
       0.406
       0.383
       0.326
       0.253
       0.182
       0.126
       0.084
       0.045
       0.000
      -0.052
      -0.102
      -0.138
      -0.152
      -0.148
      -0.137
      -0.127
      -0.125
      -0.127
      -0.132
      -0.139
      -0.150
      -0.162
      -0.173
      -0.177
      -0.176
      -0.168
      -0.151
      -0.125
      -0.093
      -0.063
      -0.040
      -0.023
      -0.005
       0.015
       0.032
       0.037
       0.026
       0.001
      -0.029
      -0.058
      -0.085
      -0.116
      -0.156
      -0.207
      -0.262
      -0.307
      -0.333
      -0.346
      -0.360
      -0.389
      -0.438
      -0.498
      -0.552
      -0.588
      -0.602
      -0.603
      -0.605
      -0.610
      -0.609
      -0.589
      -0.541
      -0.466
      -0.372
      -0.270
      -0.166
      -0.070
       0.015
       0.085
       0.136
       0.174
       0.208
       0.246
       0.288
       0.328
       0.352
       0.360
       0.359
       0.371
       0.411
       0.483
       0.568
       0.637
       0.663
       0.644
       0.594
       0.538
       0.487
       0.438
       0.382
       0.320
       0.261
       0.215
       0.184
       0.162
       0.141
       0.121
       0.100
       0.081
       0.064
       0.043
       0.013
      -0.027
      -0.075
      -0.123
      -0.167
      -0.208
      -0.246
      -0.279
      -0.300
      -0.306
      -0.293
      -0.257
      -0.201
      -0.135
      -0.078
      -0.045
      -0.043
      -0.059
      -0.070
      -0.057
      -0.013
       0.050
       0.114
       0.163
       0.195
       0.216
       0.236
       0.257
       0.276
       0.285
       0.279
       0.256
       0.221
       0.181
       0.138
       0.093
       0.037
      -0.034
      -0.119
      -0.212
      -0.307
      -0.390
      -0.447
      -0.470
      -0.461
      -0.438
      -0.422
      -0.419
      -0.421
      -0.415
      -0.397
      -0.368
      -0.331
      -0.281
      -0.213
      -0.129
      -0.042
       0.035
       0.099
       0.165
       0.243
       0.330
       0.403
       0.442
       0.442
       0.419
       0.393
       0.377
       0.367
       0.358
       0.341
       0.315
       0.286
       0.264
       0.260
       0.275
       0.299
       0.318
       0.322
       0.307
       0.276
       0.241
       0.208
       0.177
       0.144
       0.102
       0.050
      -0.010
      -0.081
      -0.163
      -0.253
      -0.347
      -0.442
      -0.541
      -0.650
      -0.763
      -0.866
      -0.939
      -0.975
      -0.979
      -0.962
      -0.932
      -0.894
      -0.846
      -0.784
      -0.704
      -0.611
      -0.519
      -0.443
      -0.392
      -0.362
      -0.344
      -0.325
      -0.292
      -0.239
      -0.163
      -0.069
       0.034
       0.136
       0.231
       0.315
       0.390
       0.458
       0.517
       0.560
       0.578
       0.570
       0.546
       0.512
       0.471
       0.424
       0.375
       0.331
       0.301
       0.282
       0.269
       0.253
       0.235
       0.222
       0.222
       0.239
       0.261
       0.267
       0.246
       0.203
       0.161
       0.141
       0.150
       0.177
       0.204
       0.215
       0.208
       0.190
       0.169
       0.153
       0.146
       0.151
       0.172
       0.211
       0.261
       0.313
       0.360
       0.401
       0.442
       0.482
       0.518
       0.544
       0.556
       0.553
       0.531
       0.492
       0.440
       0.381
       0.316
       0.247
       0.172
       0.091
       0.007
      -0.077
      -0.160
      -0.245
      -0.339
      -0.450
      -0.582
      -0.725
      -0.862
      -0.977
      -1.068
      -1.140
      -1.205
      -1.266
      -1.322
      -1.360
      -1.365
      -1.329
      -1.257
      -1.165
      -1.067
      -0.972
      -0.874
      -0.764
      -0.635
      -0.486
      -0.321
      -0.148
       0.028
       0.200
       0.362
       0.507
       0.627
       0.724
       0.804
       0.867
       0.906
       0.914
       0.891
       0.850
       0.808
       0.776
       0.754
       0.738
       0.719
       0.691
       0.652
       0.599
       0.534
       0.461
       0.389
       0.329
       0.291
       0.278
       0.286
       0.305
       0.328
       0.355
       0.384
       0.414
       0.446
       0.480
       0.515
       0.545
       0.556
       0.539
       0.488
       0.406
       0.302
       0.189
       0.072
      -0.045
      -0.163
      -0.280
      -0.391
      -0.491
      -0.579
      -0.658
      -0.725
      -0.775
      -0.802
      -0.805
      -0.787
      -0.752
      -0.702
      -0.640
      -0.568
      -0.489
      -0.401
      -0.300
      -0.188
      -0.071
       0.045
       0.154
       0.253
       0.340
       0.418
       0.490
       0.554
       0.600
       0.617
       0.598
       0.552
       0.495
       0.441
       0.397
       0.356
       0.308
       0.249
       0.184
       0.122
       0.065
       0.014
      -0.027
      -0.052
      -0.059
      -0.053
      -0.041
      -0.026
      -0.009
       0.011
       0.025
       0.019
      -0.012
      -0.062
      -0.117
      -0.161
      -0.181
      -0.173
      -0.143
      -0.103
      -0.067
      -0.047
      -0.045
      -0.056
      -0.070
      -0.081
      -0.094
      -0.128
      -0.199
      -0.301
      -0.407
      -0.481
      -0.512
      -0.516
      -0.522
      -0.545
      -0.575
      -0.589
      -0.565
      -0.499
      -0.410
      -0.327
      -0.279
      -0.282
      -0.330
      -0.403
      -0.477
      -0.537
      -0.580
      -0.616
      -0.652
      -0.683
      -0.698
      -0.683
      -0.638
      -0.572
      -0.504
      -0.445
      -0.398
      -0.359
      -0.320
      -0.280
      -0.246
      -0.226
      -0.216
      -0.204
      -0.174
      -0.117
      -0.043
       0.033
       0.096
       0.144
       0.183
       0.222
       0.261
       0.299
       0.328
       0.350
       0.370
       0.394
       0.422
       0.440
       0.437
       0.414
       0.382
       0.357
       0.352
       0.367
       0.395
       0.424
       0.448
       0.469
       0.495
       0.536
       0.595
       0.669
       0.748
       0.819
       0.874
       0.904
       0.902
       0.861
       0.781
       0.667
       0.535
       0.400
       0.275
       0.161
       0.055
      -0.051
      -0.159
      -0.268
      -0.372
      -0.463
      -0.535
      -0.593
      -0.645
      -0.698
      -0.743
      -0.760
      -0.732
      -0.659
      -0.556
      -0.447
      -0.348
      -0.267
      -0.197
      -0.125
      -0.042
       0.047
       0.127
       0.182
       0.211
       0.224
       0.237
       0.257
       0.282
       0.311
       0.356
       0.436
       0.558
       0.702
       0.824
       0.887
       0.876
       0.811
       0.729
       0.656
       0.601
       0.557
       0.514
       0.466
       0.414
       0.366
       0.332
       0.313
       0.301
       0.275
       0.221
       0.140
       0.049
      -0.028
      -0.078
      -0.109
      -0.152
      -0.244
      -0.398
      -0.591
      -0.774
      -0.908
      -0.988
      -1.044
      -1.112
      -1.202
      -1.294
      -1.347
      -1.330
      -1.233
      -1.067
      -0.858
      -0.627
      -0.393
      -0.167
       0.043
       0.236
       0.414
       0.575
       0.715
       0.831
       0.915
       0.963
       0.968
       0.928
       0.849
       0.747
       0.637
       0.532
       0.435
       0.346
       0.260
       0.167
       0.062
      -0.056
      -0.180
      -0.304
      -0.431
      -0.562
      -0.693
      -0.806
      -0.880
      -0.902
      -0.877
      -0.828
      -0.780
      -0.745
      -0.710
      -0.653
      -0.557
      -0.420
      -0.261
      -0.104
       0.029
       0.133
       0.210
       0.274
       0.347
       0.446
       0.579
       0.733
       0.888
       1.030
       1.153
       1.253
       1.323
       1.348
       1.316
       1.223
       1.078
       0.902
       0.716
       0.532
       0.345
       0.145
      -0.074
      -0.310
      -0.547
      -0.765
      -0.945
      -1.073
      -1.143
      -1.158
      -1.124
      -1.046
      -0.930
      -0.790
      -0.640
      -0.488
      -0.335
      -0.182
      -0.038
       0.081
       0.151
       0.163
       0.121
       0.050
      -0.026
      -0.093
      -0.156
      -0.227
      -0.313
      -0.401
      -0.474
      -0.516
      -0.529
      -0.524
      -0.512
      -0.499
      -0.488
      -0.485
      -0.494
      -0.512
      -0.524
      -0.504
      -0.433
      -0.302
      -0.127
       0.065
       0.246
       0.400
       0.521
       0.613
       0.681
       0.728
       0.753
       0.754
       0.726
       0.670
       0.591
       0.497
       0.399
       0.306
       0.217
       0.128
       0.031
      -0.073
      -0.174
      -0.255
      -0.304
      -0.331
      -0.359
      -0.415
      -0.505
      -0.616
      -0.720
      -0.795
      -0.826
      -0.807
      -0.740
      -0.633
      -0.502
      -0.368
      -0.245
      -0.140
      -0.047
       0.035
       0.104
       0.148
       0.161
       0.146
       0.116
       0.086
       0.067
       0.058
       0.050
       0.039
       0.031
       0.043
       0.086
       0.160
       0.257
       0.365
       0.476
       0.578
       0.665
       0.730
       0.780
       0.830
       0.893
       0.968
       1.038
       1.072
       1.057
       0.995
       0.907
       0.806
       0.684
       0.517
       0.287
       0.004
      -0.299
      -0.582
      -0.820
      -1.007
      -1.142
      -1.224
      -1.250
      -1.221
      -1.139
      -1.010
      -0.832
      -0.603
      -0.325
      -0.011
       0.318
       0.640
       0.951
       1.256
       1.564
       1.874
       2.169
       2.417
       2.593
       2.690
       2.720
       2.705
       2.657
       2.570
       2.432
       2.233
       1.974
       1.669
       1.337
       0.990
       0.639
       0.290
      -0.054
      -0.391
      -0.723
      -1.049
      -1.363
      -1.657
      -1.916
      -2.121
      -2.258
      -2.323
      -2.328
      -2.294
      -2.241
      -2.184
      -2.135
      -2.100
      -2.081
      -2.069
      -2.049
      -2.008
      -1.944
      -1.860
      -1.762
      -1.648
      -1.512
      -1.351
      -1.163
      -0.954
      -0.731
      -0.504
      -0.284
      -0.081
       0.096
       0.242
       0.355
       0.440
       0.504
       0.565
       0.638
       0.737
       0.861
       0.989
       1.096
       1.158
       1.169
       1.138
       1.080
       1.011
       0.938
       0.862
       0.776
       0.672
       0.547
       0.398
       0.229
       0.050
      -0.126
      -0.295
      -0.465
      -0.655
      -0.877
      -1.115
      -1.339
      -1.517
      -1.634
      -1.697
      -1.724
      -1.724
      -1.690
      -1.598
      -1.436
      -1.213
      -0.971
      -0.751
      -0.575
      -0.435
      -0.308
      -0.182
      -0.052
       0.078
       0.209
       0.338
       0.457
       0.553
       0.620
       0.669
       0.715
       0.772
       0.839
       0.902
       0.942
       0.945
       0.914
       0.861
       0.805
       0.762
       0.742
       0.751
       0.793
       0.877
       1.006
       1.177
       1.371
       1.562
       1.724
       1.835
       1.888
       1.882
       1.825
       1.732
       1.615
       1.485
       1.341
       1.182
       1.008
       0.820
       0.624
       0.424
       0.222
       0.016
      -0.190
      -0.387
      -0.565
      -0.715
      -0.838
      -0.945
      -1.036
      -1.097
      -1.101
      -1.030
      -0.889
      -0.703
      -0.504
      -0.311
      -0.131
       0.038
       0.191
       0.318
       0.410
       0.470
       0.522
       0.596
       0.709
       0.849
       0.976
       1.054
       1.067
       1.027
       0.956
       0.863
       0.739
       0.560
       0.310
      -0.007
      -0.365
      -0.730
      -1.067
      -1.353
      -1.575
      -1.733
      -1.835
      -1.892
      -1.910
      -1.888
      -1.827
      -1.734
      -1.624
      -1.515
      -1.421
      -1.350
      -1.306
      -1.285
      -1.270
      -1.239
      -1.172
      -1.071
      -0.950
      -0.820
      -0.676
      -0.502
      -0.290
      -0.051
       0.178
       0.360
       0.480
       0.546
       0.582
       0.605
       0.614
       0.601
       0.563
       0.507
       0.448
       0.409
       0.408
       0.455
       0.532
       0.603
       0.633
       0.612
       0.558
       0.500
       0.455
       0.416
       0.357
       0.254
       0.098
      -0.095
      -0.296
      -0.475
      -0.617
      -0.721
      -0.791
      -0.834
      -0.857
      -0.874
      -0.901
      -0.949
      -1.011
      -1.069
      -1.102
      -1.101
      -1.070
      -1.022
      -0.964
      -0.894
      -0.797
      -0.657
      -0.463
      -0.223
       0.045
       0.311
       0.549
       0.746
       0.902
       1.029
       1.140
       1.240
       1.322
       1.378
       1.405
       1.413
       1.418
       1.431
       1.455
       1.481
       1.506
       1.532
       1.560
       1.575
       1.555
       1.480
       1.349
       1.183
       1.003
       0.820
       0.632
       0.435
       0.229
       0.028
      -0.149
      -0.284
      -0.368
      -0.410
      -0.432
      -0.457
      -0.498
      -0.553
      -0.616
      -0.684
      -0.756
      -0.830
      -0.898
      -0.954
      -0.989
      -0.997
      -0.971
      -0.910
      -0.822
      -0.721
      -0.625
      -0.540
      -0.461
      -0.372
      -0.263
      -0.132
       0.014
       0.165
       0.317
       0.468
       0.618
       0.770
       0.925
       1.075
       1.205
       1.295
       1.337
       1.334
       1.299
       1.243
       1.173
       1.091
       1.000
       0.903
       0.805
       0.711
       0.626
       0.551
       0.478
       0.396
       0.294
       0.168
       0.017
      -0.155
      -0.343
      -0.543
      -0.753
      -0.970
      -1.185
      -1.380
      -1.534
      -1.625
      -1.647
      -1.608
      -1.530
      -1.434
      -1.331
      -1.219
      -1.095
      -0.959
      -0.823
      -0.698
      -0.594
      -0.510
      -0.442
      -0.383
      -0.326
      -0.268
      -0.205
      -0.135
      -0.052
       0.049
       0.172
       0.314
       0.472
       0.639
       0.802
       0.937
       1.022
       1.047
       1.027
       0.987
       0.948
       0.910
       0.858
       0.774
       0.649
       0.488
       0.308
       0.130
      -0.021
      -0.132
      -0.202
      -0.247
      -0.290
      -0.346
      -0.411
      -0.472
      -0.519
      -0.556
      -0.596
      -0.647
      -0.702
      -0.749
      -0.774
      -0.769
      -0.729
      -0.657
      -0.553
      -0.424
      -0.281
      -0.138
      -0.004
       0.116
       0.224
       0.328
       0.434
       0.543
       0.649
       0.745
       0.823
       0.881
       0.919
       0.942
       0.951
       0.939
       0.893
       0.805
       0.675
       0.517
       0.349
       0.190
       0.053
      -0.054
      -0.134
      -0.190
      -0.226
      -0.237
      -0.219
      -0.176
      -0.121
      -0.073
      -0.051
      -0.067
      -0.129
      -0.235
      -0.376
      -0.537
      -0.707
      -0.881
      -1.053
      -1.215
      -1.350
      -1.438
      -1.471
      -1.456
      -1.409
      -1.348
      -1.281
      -1.206
      -1.111
      -0.983
