Origin Time       17/9/2010 19:21:09	 UTC
Lat.              36.5 N	
Long.             70.8 E	
Depth (Km)        167.0
Magnitude         6.5
 Region           Hindukush                                                        
 Above details taken from IMD 
    
Station Code      KLG
Station Lat.       32.559  N
Station Long.      77.001  E
Station Height(m) 3129.0
Site Class        A   Vs30 between 700 m/sec to 1400 m/sec * 
Record Time       17.09.2010 19:23:45.109 UTC
Sampling Rate     200. Hz
 Record Duration   71.895 Sec.
 Direction         N-S (N positive)
Max. Acceleration      4.861 cm/sec**2
     
  * For reference see Site Classification link of website 
     
 Base Line Corrected and Low Pass Filtered (Cut Off at 35 Hz) Time History
 Acceleration data in cm/sec**2
    
[...]
       0.120
       0.248
       0.355
       0.431
       0.483
       0.527
       0.583
       0.655
       0.738
       0.818
       0.879
       0.911
       0.918
       0.910
       0.900
       0.883
       0.836
       0.743
       0.617
       0.491
       0.401
       0.355
       0.333
       0.302
       0.235
       0.126
      -0.004
      -0.121
      -0.200
      -0.245
      -0.277
      -0.317
      -0.371
      -0.433
      -0.497
      -0.554
      -0.594
      -0.615
      -0.618
      -0.609
      -0.586
      -0.545
      -0.483
      -0.406
      -0.326
      -0.258
      -0.210
      -0.188
      -0.186
      -0.186
      -0.169
      -0.129
      -0.088
      -0.069
      -0.071
      -0.070
      -0.045
       0.001
       0.044
       0.061
       0.047
       0.015
      -0.009
      -0.002
       0.042
       0.107
       0.158
       0.174
       0.157
       0.132
       0.124
       0.146
       0.189
       0.233
       0.263
       0.274
       0.270
       0.261
       0.260
       0.273
       0.290
       0.296
       0.279
       0.239
       0.185
       0.130
       0.087
       0.056
       0.030
      -0.006
      -0.051
      -0.097
      -0.129
      -0.138
      -0.122
      -0.091
      -0.054
      -0.017
       0.022
       0.065
       0.112
       0.154
       0.173
       0.161
       0.131
       0.114
       0.137
       0.203
       0.295
       0.386
       0.450
       0.478
       0.479
       0.470
       0.464
       0.451
       0.407
       0.320
       0.213
       0.124
       0.080
       0.085
       0.124
       0.171
       0.192
       0.159
       0.071
      -0.039
      -0.129
      -0.175
      -0.189
      -0.205
      -0.247
      -0.318
      -0.400
      -0.467
      -0.492
      -0.460
      -0.383
      -0.302
      -0.262
      -0.269
      -0.290
      -0.283
      -0.235
      -0.167
      -0.111
      -0.077
      -0.054
      -0.028
       0.005
       0.042
       0.083
       0.124
       0.163
       0.200
       0.241
       0.291
       0.342
       0.384
       0.411
       0.421
       0.410
       0.372
       0.305
       0.224
       0.146
       0.085
       0.034
      -0.018
      -0.069
      -0.115
      -0.151
      -0.180
      -0.211
      -0.249
      -0.296
      -0.348
      -0.392
      -0.416
      -0.416
      -0.406
      -0.399
      -0.402
      -0.409
      -0.416
      -0.426
      -0.431
      -0.423
      -0.397
      -0.368
      -0.354
      -0.360
      -0.372
      -0.373
      -0.351
      -0.310
      -0.267
      -0.238
      -0.229
      -0.218
      -0.179
      -0.103
      -0.007
       0.071
       0.105
       0.095
       0.064
       0.040
       0.044
       0.080
       0.136
       0.186
       0.212
       0.219
       0.223
       0.238
       0.260
       0.269
       0.256
       0.235
       0.233
       0.272
       0.351
       0.452
       0.549
       0.620
       0.648
       0.632
       0.586
       0.537
       0.496
       0.456
       0.397
       0.318
       0.238
       0.181
       0.158
       0.157
       0.158
       0.141
       0.102
       0.055
       0.024
       0.028
       0.062
       0.101
       0.118
       0.096
       0.039
      -0.038
      -0.112
      -0.163
      -0.188
      -0.197
      -0.210
      -0.240
      -0.273
      -0.283
      -0.250
      -0.182
      -0.109
      -0.066
      -0.066
      -0.101
      -0.141
      -0.153
      -0.124
      -0.068
      -0.017
      -0.004
      -0.039
      -0.105
      -0.173
      -0.222
      -0.249
      -0.267
      -0.297
      -0.358
      -0.451
      -0.557
      -0.652
      -0.713
      -0.737
      -0.739
      -0.739
      -0.746
      -0.747
      -0.713
      -0.630
      -0.510
      -0.379
      -0.265
      -0.184
      -0.138
      -0.116
      -0.104
      -0.094
      -0.090
      -0.107
      -0.151
      -0.213
      -0.270
      -0.300
      -0.292
      -0.251
      -0.196
      -0.147
      -0.111
      -0.082
      -0.051
      -0.016
       0.019
       0.041
       0.037
      -0.001
      -0.061
      -0.104
      -0.089
      -0.014
       0.077
       0.121
       0.095
       0.031
      -0.014
      -0.004
       0.057
       0.140
       0.215
       0.258
       0.255
       0.216
       0.168
       0.147
       0.161
       0.186
       0.188
       0.163
       0.139
       0.156
       0.222
       0.313
       0.395
       0.457
       0.507
       0.560
       0.618
       0.678
       0.740
       0.807
       0.863
       0.884
       0.857
       0.805
       0.769
       0.774
       0.794
       0.780
       0.695
       0.550
       0.392
       0.264
       0.190
       0.170
       0.189
       0.227
       0.263
       0.292
       0.317
       0.343
       0.368
       0.380
       0.364
       0.312
       0.226
       0.125
       0.030
      -0.045
      -0.108
      -0.188
      -0.307
      -0.458
      -0.608
      -0.719
      -0.780
      -0.808
      -0.830
      -0.848
      -0.847
      -0.809
      -0.732
      -0.629
      -0.515
      -0.401
      -0.288
      -0.176
      -0.067
       0.039
       0.130
       0.193
       0.217
       0.209
       0.188
       0.177
       0.190
       0.229
       0.284
       0.330
       0.344
       0.322
       0.276
       0.224
       0.170
       0.098
      -0.014
      -0.166
      -0.340
      -0.508
      -0.660
      -0.803
      -0.939
      -1.044
      -1.081
      -1.033
      -0.927
      -0.813
      -0.720
      -0.634
      -0.521
      -0.371
      -0.214
      -0.085
       0.009
       0.093
       0.195
       0.317
       0.431
       0.519
       0.586
       0.657
       0.746
       0.847
       0.942
       1.021
       1.098
       1.191
       1.309
       1.431
       1.517
       1.537
       1.484
       1.382
       1.262
       1.142
       1.029
       0.924
       0.827
       0.740
       0.657
       0.568
       0.462
       0.340
       0.218
       0.126
       0.085
       0.092
       0.114
       0.109
       0.055
      -0.033
      -0.116
      -0.163
      -0.175
      -0.180
      -0.211
      -0.275
      -0.355
      -0.423
      -0.464
      -0.490
      -0.522
      -0.576
      -0.639
      -0.689
      -0.712
      -0.717
      -0.727
      -0.755
      -0.797
      -0.835
      -0.862
      -0.883
      -0.910
      -0.944
      -0.974
      -0.994
      -1.008
      -1.024
      -1.035
      -1.016
      -0.944
      -0.825
      -0.697
      -0.598
      -0.532
      -0.470
      -0.386
      -0.285
      -0.199
      -0.152
      -0.141
      -0.143
      -0.145
      -0.148
      -0.159
      -0.179
      -0.208
      -0.262
      -0.356
      -0.483
      -0.609
      -0.693
      -0.723
      -0.729
      -0.753
      -0.806
      -0.861
      -0.878
      -0.841
      -0.764
      -0.676
      -0.596
      -0.532
      -0.479
      -0.424
      -0.346
      -0.229
      -0.080
       0.081
       0.229
       0.353
       0.450
       0.523
       0.583
       0.642
       0.702
       0.750
       0.761
       0.729
       0.662
       0.579
       0.495
       0.413
       0.337
       0.269
       0.207
       0.149
       0.103
       0.075
       0.064
       0.062
       0.063
       0.062
       0.056
       0.043
       0.024
       0.002
      -0.024
      -0.057
      -0.097
      -0.137
      -0.171
      -0.189
      -0.187
      -0.168
      -0.139
      -0.097
      -0.018
       0.125
       0.334
       0.568
       0.771
       0.907
       0.984
       1.036
       1.091
       1.151
       1.199
       1.217
       1.190
       1.118
       1.014
       0.908
       0.839
       0.832
       0.878
       0.929
       0.936
       0.879
       0.784
       0.691
       0.620
       0.555
       0.462
       0.326
       0.160
      -0.008
      -0.165
      -0.317
      -0.476
      -0.643
      -0.813
      -0.980
      -1.143
      -1.286
      -1.382
      -1.404
      -1.351
      -1.251
      -1.138
      -1.038
      -0.947
      -0.845
      -0.714
      -0.563
      -0.430
      -0.356
      -0.360
      -0.424
      -0.519
      -0.617
      -0.702
      -0.766
      -0.817
      -0.871
      -0.945
      -1.033
      -1.109
      -1.138
      -1.107
      -1.028
      -0.924
      -0.816
      -0.707
      -0.589
      -0.460
      -0.330
      -0.223
      -0.150
      -0.095
      -0.011
       0.148
       0.406
       0.741
       1.091
       1.377
       1.551
       1.618
       1.630
       1.640
       1.666
       1.682
       1.664
       1.614
       1.563
       1.537
       1.536
       1.541
       1.532
       1.499
       1.436
       1.345
       1.244
       1.166
       1.139
       1.167
       1.218
       1.262
       1.292
       1.325
       1.379
       1.457
       1.549
       1.635
       1.696
       1.717
       1.700
       1.655
       1.590
       1.502
       1.385
       1.243
       1.100
       0.983
       0.902
       0.842
       0.773
       0.671
       0.531
       0.359
       0.164
      -0.046
      -0.260
      -0.459
      -0.636
      -0.803
      -0.988
      -1.200
      -1.424
      -1.625
      -1.782
      -1.898
      -1.993
      -2.076
      -2.145
      -2.194
      -2.222
      -2.233
      -2.225
      -2.198
      -2.157
      -2.120
      -2.104
      -2.109
      -2.108
      -2.063
      -1.947
      -1.765
      -1.558
      -1.378
      -1.264
      -1.210
      -1.173
      -1.100
      -0.974
      -0.827
      -0.706
      -0.634
      -0.585
      -0.509
      -0.370
      -0.187
      -0.016
       0.081
       0.076
      -0.008
      -0.120
      -0.214
      -0.276
      -0.320
      -0.364
      -0.409
      -0.433
      -0.412
      -0.346
      -0.261
      -0.192
      -0.147
      -0.099
      -0.014
       0.112
       0.244
       0.318
       0.285
       0.136
      -0.084
      -0.306
      -0.478
      -0.592
      -0.682
      -0.792
      -0.937
      -1.085
      -1.190
      -1.224
      -1.199
      -1.153
      -1.120
      -1.099
      -1.067
      -1.003
      -0.909
      -0.797
      -0.675
      -0.540
      -0.395
      -0.255
      -0.133
      -0.029
       0.071
       0.173
       0.260
       0.300
       0.276
       0.208
       0.138
       0.104
       0.118
       0.168
       0.234
       0.297
       0.340
       0.359
       0.374
       0.422
       0.529
       0.682
       0.838
       0.964
       1.062
       1.154
       1.253
       1.348
       1.431
       1.511
       1.612
       1.744
       1.893
       2.033
       2.149
       2.247
       2.332
       2.396
       2.422
       2.403
       2.355
       2.308
       2.278
       2.253
       2.207
       2.122
       2.002
       1.858
       1.703
       1.546
       1.389
       1.232
       1.080
       0.948
       0.851
       0.800
       0.783
       0.773
       0.735
       0.649
       0.532
       0.422
       0.353
       0.332
       0.331
       0.311
       0.241
       0.115
      -0.033
      -0.146
      -0.183
      -0.144
      -0.076
      -0.035
      -0.045
      -0.100
      -0.177
      -0.265
      -0.362
      -0.482
      -0.640
      -0.841
      -1.065
      -1.282
      -1.459
      -1.589
      -1.684
      -1.764
      -1.839
      -1.900
      -1.938
      -1.951
      -1.947
      -1.928
      -1.894
      -1.849
      -1.802
      -1.759
      -1.708
      -1.630
      -1.511
      -1.363
      -1.211
      -1.076
      -0.959
      -0.841
      -0.709
      -0.571
      -0.458
      -0.408
      -0.443
      -0.560
      -0.728
      -0.913
      -1.095
      -1.271
      -1.446
      -1.616
      -1.774
      -1.915
      -2.037
      -2.131
      -2.175
      -2.147
      -2.043
      -1.885
      -1.695
      -1.480
      -1.230
      -0.939
      -0.611
      -0.248
       0.148
       0.568
       0.991
       1.404
       1.804
       2.189
       2.538
       2.817
       3.004
       3.108
       3.173
       3.244
       3.333
       3.414
       3.446
       3.400
       3.276
       3.095
       2.892
       2.688
       2.472
       2.218
       1.914
       1.589
       1.294
       1.059
       0.872
       0.693
       0.500
       0.306
       0.143
       0.033
      -0.027
      -0.063
      -0.113
      -0.198
      -0.315
      -0.435
      -0.529
      -0.588
      -0.622
      -0.656
      -0.724
      -0.855
      -1.046
      -1.253
      -1.418
      -1.506
      -1.536
      -1.563
      -1.632
      -1.748
      -1.879
      -1.993
      -2.082
      -2.165
      -2.254
      -2.334
      -2.378
      -2.363
      -2.283
      -2.150
      -1.989
      -1.839
      -1.729
      -1.663
      -1.608
      -1.520
      -1.385
      -1.231
      -1.111
      -1.067
      -1.099
      -1.158
      -1.190
      -1.169
      -1.111
      -1.046
      -0.986
      -0.922
      -0.839
      -0.728
      -0.581
      -0.400
      -0.202
      -0.032
       0.066
       0.079
       0.044
       0.022
       0.065
       0.179
       0.330
       0.469
       0.572
       0.652
       0.744
       0.879
       1.065
       1.286
       1.516
       1.726
       1.902
       2.055
       2.219
       2.436
       2.725
       3.070
       3.434
       3.780
       4.087
       4.343
       4.542
       4.689
       4.794
       4.857
       4.861
       4.777
       4.596
       4.331
       4.009
       3.644
       3.237
       2.792
       2.334
       1.892
       1.487
       1.126
       0.807
       0.529
       0.282
       0.045
      -0.217
      -0.523
      -0.863
      -1.211
      -1.547
      -1.868
      -2.173
      -2.437
      -2.620
      -2.700
      -2.690
      -2.636
      -2.579
      -2.539
      -2.517
      -2.507
      -2.502
      -2.505
      -2.522
      -2.562
      -2.629
      -2.711
      -2.787
      -2.829
      -2.820
      -2.760
      -2.673
      -2.595
      -2.547
      -2.522
      -2.481
      -2.393
      -2.249
      -2.065
      -1.864
      -1.665
      -1.480
      -1.307
      -1.134
      -0.942
      -0.724
      -0.488
      -0.248
      -0.020
       0.186
       0.367
       0.531
       0.687
       0.834
       0.966
       1.083
       1.205
       1.351
       1.529
       1.716
       1.885
       2.016
       2.106
       2.161
       2.185
       2.186
       2.169
       2.134
       2.070
       1.967
       1.822
       1.646
       1.457
       1.262
       1.046
       0.788
       0.490
       0.183
      -0.088
      -0.302
      -0.468
      -0.605
      -0.718
      -0.794
      -0.816
      -0.782
      -0.711
      -0.631
      -0.560
      -0.501
      -0.449
      -0.405
      -0.378
      -0.380
      -0.415
      -0.476
      -0.559
      -0.659
      -0.752
      -0.799
      -0.758
      -0.616
      -0.393
      -0.132
       0.123
       0.339
       0.514
       0.663
       0.800
       0.921
       1.007
       1.037
       1.008
       0.938
       0.867
       0.835
       0.859
       0.924
       0.996
       1.046
       1.067
       1.069
       1.067
       1.077
       1.103
       1.126
       1.116
       1.059
       0.966
       0.869
       0.810
       0.826
       0.924
       1.073
       1.217
       1.315
       1.367
       1.405
       1.454
       1.499
       1.500
       1.419
       1.249
       1.016
       0.766
       0.535
       0.330
       0.128
      -0.092
      -0.321
      -0.531
      -0.697
      -0.822
      -0.932
      -1.052
      -1.184
      -1.306
      -1.391
      -1.428
      -1.430
      -1.429
      -1.472
      -1.594
      -1.795
      -2.035
      -2.262
      -2.442
      -2.570
      -2.665
      -2.746
      -2.823
      -2.892
      -2.932
      -2.920
      -2.842
      -2.704
      -2.532
      -2.344
      -2.142
      -1.908
      -1.636
      -1.340
      -1.051
      -0.795
      -0.580
      -0.391
      -0.207
      -0.023
       0.155
       0.307
       0.417
       0.477
       0.497
       0.506
       0.537
       0.604
       0.684
       0.741
       0.756
       0.747
       0.744
       0.768
       0.814
       0.870
       0.926
       0.978
       1.022
       1.062
       1.100
       1.132
       1.136
       1.084
       0.963
       0.788
       0.592
       0.403
       0.229
       0.066
      -0.072
      -0.167
      -0.211
      -0.223
      -0.230
      -0.239
      -0.224
      -0.159
      -0.052
       0.055
       0.115
       0.109
       0.049
      -0.043
      -0.149
      -0.256
      -0.352
      -0.426
      -0.465
      -0.471
      -0.453
      -0.419
      -0.374
      -0.321
      -0.258
      -0.184
      -0.094
       0.014
       0.123
       0.201
       0.211
       0.151
       0.067
       0.031
       0.093
       0.246
       0.440
       0.620
       0.748
       0.812
       0.822
       0.814
       0.833
       0.916
       1.061
       1.228
       1.373
       1.484
       1.588
       1.714
       1.870
       2.031
       2.167
       2.252
       2.276
       2.247
       2.182
       2.094
       1.983
       1.829
       1.624
       1.382
       1.130
       0.881
       0.625
       0.350
       0.053
      -0.251
      -0.545
      -0.817
      -1.052
      -1.234
      -1.351
      -1.413
      -1.445
      -1.474
      -1.508
      -1.540
      -1.552
      -1.538
      -1.499
      -1.442
      -1.363
      -1.253
      -1.104
      -0.927
      -0.750
      -0.605
      -0.511
      -0.466
      -0.459
      -0.483
      -0.542
      -0.640
      -0.765
      -0.901
      -1.032
      -1.161
      -1.296
      -1.428
      -1.527
      -1.554
      -1.500
      -1.393
      -1.269
      -1.148
      -1.028
      -0.904
      -0.779
      -0.658
      -0.534
      -0.394
      -0.231
      -0.050
       0.142
       0.345
       0.558
       0.764
       0.934
       1.052
       1.134
       1.218
       1.332
       1.466
       1.577
       1.625
       1.606
       1.558
       1.526
       1.516
       1.503
       1.454
       1.362
       1.246
       1.124
       1.003
       0.881
       0.761
       0.651
       0.550
       0.440
       0.312
       0.177
       0.075
       0.045
       0.099
       0.213
       0.341
       0.444
       0.510
       0.544
       0.561
       0.569
       0.561
       0.512
       0.401
       0.227
       0.019
      -0.178
      -0.340
      -0.474
      -0.603
      -0.738
      -0.863
      -0.955
      -1.014
      -1.076
      -1.184
      -1.354
      -1.560
      -1.752
      -1.886
      -1.947
      -1.937
      -1.869
      -1.766
      -1.655
      -1.561
      -1.486
      -1.411
      -1.317
      -1.205
      -1.094
      -1.001
      -0.925
      -0.849
      -0.762
      -0.664
      -0.560
      -0.453
      -0.338
      -0.214
      -0.087
       0.037
       0.162
       0.305
       0.476
       0.666
       0.840
       0.964
       1.030
       1.059
       1.083
       1.124
       1.182
       1.240
       1.284
       1.322
       1.380
       1.483
       1.636
       1.813
       1.973
       2.086
       2.153
