Origin Time       3/1/2009 20:23:19  
Lat.              36.5 N 
Long.             70.8 E 
Depth (Km)        188.0
Magnitude         6.4
 Region           HINDUKUSH-REGION-AFGHANISTAN                                     
 Above details taken from IMD 
   
Station Code      KLG
Station Lat.       32.559
Station Long.      77.001
Station Height(m) 3129.0
Site Class        A   Vs30 between 700 m/sec to 1400 m/sec * 
Record Time       03.01.2009 20:25:55.614
Sampling Rate     200. Hz
 Record Duration   65.920 Sec.
 Direction         Vert. (Up positive)
Max. Acceleration      1.726 cm/sec**2
     
  * For reference see Site Classification link of website 
     
 Base Line Corrected and Low Pass Filtered (Cut Off at 35 Hz) Time History
 Acceleration data in cm/sec**2
    
[...]
       0.098
       0.049
       0.007
      -0.015
      -0.014
       0.006
       0.038
       0.075
       0.111
       0.143
       0.168
       0.187
       0.203
       0.215
       0.217
       0.201
       0.161
       0.109
       0.067
       0.053
       0.064
       0.079
       0.074
       0.042
      -0.010
      -0.063
      -0.106
      -0.140
      -0.171
      -0.205
      -0.238
      -0.263
      -0.276
      -0.273
      -0.254
      -0.218
      -0.172
      -0.131
      -0.111
      -0.121
      -0.151
      -0.178
      -0.184
      -0.162
      -0.120
      -0.066
      -0.007
       0.050
       0.100
       0.137
       0.153
       0.145
       0.116
       0.076
       0.038
       0.015
       0.004
      -0.005
      -0.023
      -0.053
      -0.087
      -0.111
      -0.116
      -0.101
      -0.072
      -0.045
      -0.035
      -0.054
      -0.102
      -0.166
      -0.223
      -0.253
      -0.249
      -0.223
      -0.194
      -0.170
      -0.152
      -0.128
      -0.092
      -0.050
      -0.011
       0.017
       0.029
       0.026
       0.013
      -0.003
      -0.014
      -0.022
      -0.030
      -0.038
      -0.040
      -0.030
      -0.007
       0.022
       0.048
       0.068
       0.081
       0.087
       0.084
       0.074
       0.058
       0.047
       0.047
       0.064
       0.092
       0.127
       0.162
       0.195
       0.226
       0.251
       0.266
       0.267
       0.256
       0.237
       0.214
       0.190
       0.163
       0.130
       0.095
       0.066
       0.051
       0.050
       0.056
       0.058
       0.051
       0.034
       0.011
      -0.020
      -0.061
      -0.108
      -0.151
      -0.183
      -0.201
      -0.204
      -0.188
      -0.144
      -0.069
       0.029
       0.134
       0.226
       0.291
       0.324
       0.328
       0.310
       0.277
       0.241
       0.210
       0.188
       0.171
       0.154
       0.139
       0.130
       0.130
       0.136
       0.140
       0.141
       0.139
       0.136
       0.127
       0.105
       0.063
      -0.003
      -0.093
      -0.196
      -0.298
      -0.378
      -0.423
      -0.435
      -0.426
      -0.410
      -0.390
      -0.367
      -0.341
      -0.312
      -0.275
      -0.223
      -0.161
      -0.102
      -0.058
      -0.035
      -0.019
       0.001
       0.030
       0.062
       0.083
       0.088
       0.082
       0.081
       0.100
       0.140
       0.189
       0.225
       0.237
       0.224
       0.204
       0.191
       0.192
       0.198
       0.198
       0.183
       0.155
       0.120
       0.079
       0.036
      -0.004
      -0.033
      -0.044
      -0.040
      -0.029
      -0.020
      -0.015
      -0.009
       0.002
       0.015
       0.023
       0.018
       0.000
      -0.021
      -0.036
      -0.042
      -0.044
      -0.051
      -0.062
      -0.071
      -0.067
      -0.049
      -0.021
       0.005
       0.019
       0.013
      -0.013
      -0.055
      -0.106
      -0.155
      -0.191
      -0.204
      -0.198
      -0.188
      -0.189
      -0.205
      -0.226
      -0.243
      -0.255
      -0.266
      -0.276
      -0.278
      -0.261
      -0.219
      -0.160
      -0.097
      -0.038
       0.015
       0.065
       0.116
       0.171
       0.223
       0.266
       0.295
       0.313
       0.325
       0.338
       0.353
       0.369
       0.378
       0.378
       0.367
       0.351
       0.337
       0.328
       0.322
       0.314
       0.300
       0.280
       0.254
       0.223
       0.185
       0.140
       0.093
       0.052
       0.027
       0.029
       0.056
       0.096
       0.127
       0.131
       0.105
       0.058
       0.003
      -0.049
      -0.088
      -0.110
      -0.117
      -0.116
      -0.121
      -0.139
      -0.167
      -0.195
      -0.214
      -0.224
      -0.226
      -0.217
      -0.187
      -0.133
      -0.064
      -0.006
       0.015
      -0.006
      -0.051
      -0.092
      -0.117
      -0.129
      -0.140
      -0.152
      -0.155
      -0.144
      -0.124
      -0.113
      -0.124
      -0.155
      -0.190
      -0.214
      -0.227
      -0.240
      -0.261
      -0.287
      -0.307
      -0.306
      -0.281
      -0.238
      -0.188
      -0.145
      -0.114
      -0.095
      -0.080
      -0.063
      -0.044
      -0.025
      -0.006
       0.013
       0.037
       0.072
       0.120
       0.184
       0.260
       0.342
       0.416
       0.472
       0.506
       0.520
       0.519
       0.502
       0.468
       0.416
       0.358
       0.305
       0.263
       0.222
       0.170
       0.098
       0.019
      -0.046
      -0.081
      -0.086
      -0.077
      -0.080
      -0.105
      -0.152
      -0.209
      -0.261
      -0.295
      -0.301
      -0.273
      -0.213
      -0.132
      -0.048
       0.023
       0.073
       0.104
       0.123
       0.134
       0.140
       0.143
       0.149
       0.160
       0.169
       0.158
       0.118
       0.054
      -0.019
      -0.092
      -0.165
      -0.238
      -0.305
      -0.357
      -0.396
      -0.434
      -0.481
      -0.537
      -0.592
      -0.632
      -0.655
      -0.660
      -0.648
      -0.611
      -0.540
      -0.440
      -0.329
      -0.231
      -0.161
      -0.120
      -0.095
      -0.073
      -0.047
      -0.014
       0.027
       0.079
       0.142
       0.213
       0.285
       0.346
       0.386
       0.402
       0.400
       0.392
       0.388
       0.385
       0.375
       0.354
       0.328
       0.307
       0.297
       0.297
       0.300
       0.303
       0.311
       0.331
       0.364
       0.403
       0.441
       0.473
       0.502
       0.527
       0.543
       0.544
       0.532
       0.514
       0.496
       0.473
       0.437
       0.383
       0.316
       0.244
       0.171
       0.097
       0.021
      -0.057
      -0.137
      -0.214
      -0.285
      -0.343
      -0.385
      -0.416
      -0.443
      -0.468
      -0.487
      -0.493
      -0.483
      -0.466
      -0.460
      -0.477
      -0.511
      -0.549
      -0.580
      -0.605
      -0.631
      -0.653
      -0.659
      -0.643
      -0.614
      -0.590
      -0.578
      -0.570
      -0.551
      -0.511
      -0.455
      -0.397
      -0.343
      -0.291
      -0.233
      -0.171
      -0.113
      -0.069
      -0.035
       0.005
       0.065
       0.142
       0.216
       0.266
       0.289
       0.298
       0.309
       0.327
       0.341
       0.340
       0.326
       0.311
       0.311
       0.332
       0.367
       0.405
       0.438
       0.470
       0.498
       0.520
       0.529
       0.528
       0.522
       0.510
       0.481
       0.427
       0.347
       0.258
       0.177
       0.112
       0.053
      -0.009
      -0.078
      -0.140
      -0.178
      -0.183
      -0.162
      -0.133
      -0.110
      -0.095
      -0.080
      -0.061
      -0.042
      -0.033
      -0.035
      -0.046
      -0.061
      -0.085
      -0.124
      -0.178
      -0.239
      -0.296
      -0.343
      -0.383
      -0.420
      -0.458
      -0.492
      -0.514
      -0.518
      -0.501
      -0.470
      -0.435
      -0.399
      -0.358
      -0.308
      -0.249
      -0.184
      -0.123
      -0.069
      -0.020
       0.033
       0.094
       0.161
       0.229
       0.287
       0.336
       0.376
       0.413
       0.445
       0.465
       0.466
       0.442
       0.400
       0.345
       0.287
       0.229
       0.173
       0.115
       0.048
      -0.034
      -0.134
      -0.247
      -0.362
      -0.463
      -0.541
      -0.592
      -0.615
      -0.614
      -0.592
      -0.551
      -0.489
      -0.405
      -0.304
      -0.197
      -0.099
      -0.019
       0.037
       0.072
       0.093
       0.110
       0.135
       0.175
       0.234
       0.306
       0.386
       0.465
       0.538
       0.598
       0.636
       0.646
       0.628
       0.588
       0.543
       0.511
       0.507
       0.526
       0.554
       0.572
       0.577
       0.581
       0.599
       0.630
       0.655
       0.647
       0.591
       0.495
       0.385
       0.289
       0.217
       0.164
       0.113
       0.052
      -0.022
      -0.106
      -0.193
      -0.269
      -0.325
      -0.363
      -0.393
      -0.426
      -0.461
      -0.486
      -0.489
      -0.470
      -0.441
      -0.421
      -0.418
      -0.428
      -0.439
      -0.435
      -0.405
      -0.349
      -0.275
      -0.197
      -0.127
      -0.076
      -0.047
      -0.030
      -0.008
       0.028
       0.067
       0.091
       0.086
       0.059
       0.038
       0.049
       0.104
       0.190
       0.282
       0.356
       0.399
       0.412
       0.402
       0.370
       0.311
       0.225
       0.121
       0.015
      -0.070
      -0.118
      -0.128
      -0.113
      -0.095
      -0.084
      -0.086
      -0.096
      -0.108
      -0.115
      -0.112
      -0.099
      -0.081
      -0.065
      -0.057
      -0.054
      -0.046
      -0.024
       0.005
       0.024
       0.016
      -0.024
      -0.091
      -0.172
      -0.263
      -0.360
      -0.454
      -0.527
      -0.564
      -0.560
      -0.523
      -0.465
      -0.397
      -0.332
      -0.281
      -0.257
      -0.263
      -0.285
      -0.300
      -0.293
      -0.266
      -0.233
      -0.210
      -0.197
      -0.186
      -0.161
      -0.115
      -0.047
       0.035
       0.121
       0.201
       0.263
       0.304
       0.325
       0.330
       0.325
       0.314
       0.306
       0.306
       0.315
       0.330
       0.345
       0.352
       0.347
       0.330
       0.308
       0.292
       0.295
       0.322
       0.369
       0.420
       0.457
       0.471
       0.462
       0.440
       0.408
       0.366
       0.310
       0.245
       0.177
       0.110
       0.039
      -0.036
      -0.108
      -0.161
      -0.188
      -0.197
      -0.205
      -0.225
      -0.263
      -0.316
      -0.381
      -0.455
      -0.524
      -0.571
      -0.584
      -0.569
      -0.546
      -0.534
      -0.535
      -0.543
      -0.550
      -0.551
      -0.538
      -0.499
      -0.427
      -0.332
      -0.240
      -0.177
      -0.145
      -0.125
      -0.097
      -0.051
       0.005
       0.054
       0.083
       0.092
       0.096
       0.112
       0.148
       0.196
       0.245
       0.294
       0.353
       0.425
       0.494
       0.539
       0.554
       0.554
       0.561
       0.583
       0.611
       0.634
       0.644
       0.641
       0.622
       0.575
       0.496
       0.400
       0.317
       0.276
       0.283
       0.320
       0.359
       0.382
       0.389
       0.388
       0.382
       0.368
       0.342
       0.307
       0.269
       0.237
       0.207
       0.171
       0.115
       0.033
      -0.061
      -0.140
      -0.178
      -0.173
      -0.143
      -0.110
      -0.087
      -0.073
      -0.073
      -0.097
      -0.154
      -0.235
      -0.315
      -0.371
      -0.396
      -0.398
      -0.389
      -0.377
      -0.360
      -0.339
      -0.317
      -0.298
      -0.287
      -0.282
      -0.277
      -0.271
      -0.268
      -0.275
      -0.286
      -0.291
      -0.279
      -0.247
      -0.205
      -0.171
      -0.162
      -0.180
      -0.209
      -0.215
      -0.175
      -0.085
       0.030
       0.136
       0.208
       0.240
       0.247
       0.253
       0.277
       0.328
       0.401
       0.481
       0.554
       0.608
       0.632
       0.628
       0.606
       0.580
       0.563
       0.559
       0.556
       0.540
       0.499
       0.435
       0.362
       0.302
       0.273
       0.278
       0.311
       0.356
       0.401
       0.431
       0.431
       0.388
       0.298
       0.174
       0.045
      -0.063
      -0.138
      -0.185
      -0.216
      -0.245
      -0.276
      -0.310
      -0.343
      -0.371
      -0.391
      -0.406
      -0.424
      -0.456
      -0.511
      -0.584
      -0.658
      -0.710
      -0.737
      -0.751
      -0.772
      -0.813
      -0.866
      -0.919
      -0.956
      -0.972
      -0.975
      -0.976
      -0.991
      -1.023
      -1.057
      -1.069
      -1.039
      -0.968
      -0.873
      -0.775
      -0.683
      -0.602
      -0.530
      -0.466
      -0.405
      -0.334
      -0.245
      -0.138
      -0.026
       0.075
       0.153
       0.205
       0.232
       0.234
       0.216
       0.192
       0.187
       0.219
       0.290
       0.382
       0.470
       0.541
       0.608
       0.696
       0.821
       0.967
       1.091
       1.158
       1.170
       1.162
       1.172
       1.204
       1.229
       1.212
       1.145
       1.042
       0.920
       0.786
       0.635
       0.460
       0.268
       0.074
      -0.101
      -0.249
      -0.379
      -0.500
      -0.608
      -0.685
      -0.727
      -0.748
      -0.773
      -0.803
      -0.815
      -0.790
      -0.736
      -0.686
      -0.666
      -0.675
      -0.699
      -0.724
      -0.754
      -0.799
      -0.856
      -0.906
      -0.919
      -0.882
      -0.795
      -0.671
      -0.522
      -0.355
      -0.176
       0.011
       0.199
       0.382
       0.553
       0.713
       0.860
       0.989
       1.097
       1.187
       1.272
       1.370
       1.488
       1.610
       1.699
       1.726
       1.691
       1.620
       1.540
       1.453
       1.340
       1.188
       1.007
       0.821
       0.649
       0.488
       0.328
       0.160
      -0.010
      -0.177
      -0.337
      -0.495
      -0.653
      -0.807
      -0.949
      -1.070
      -1.165
      -1.236
      -1.283
      -1.305
      -1.303
      -1.285
      -1.270
      -1.282
      -1.336
      -1.423
      -1.506
      -1.545
      -1.514
      -1.417
      -1.279
      -1.127
      -0.974
      -0.829
      -0.693
      -0.571
      -0.461
      -0.359
      -0.259
      -0.160
      -0.065
       0.019
       0.088
       0.149
       0.214
       0.287
       0.366
       0.442
       0.512
       0.585
       0.663
       0.735
       0.774
       0.763
       0.710
       0.639
       0.577
       0.530
       0.494
       0.456
       0.410
       0.362
       0.320
       0.294
       0.280
       0.261
       0.222
       0.162
       0.101
       0.067
       0.077
       0.131
       0.215
       0.316
       0.425
       0.530
       0.614
       0.668
       0.699
       0.725
       0.761
       0.805
       0.840
       0.850
       0.829
       0.785
       0.726
       0.651
       0.562
       0.474
       0.411
       0.395
       0.419
       0.448
       0.440
       0.375
       0.263
       0.128
      -0.016
      -0.166
      -0.314
      -0.437
      -0.507
      -0.516
      -0.487
      -0.461
      -0.465
      -0.498
      -0.538
      -0.565
      -0.577
      -0.586
      -0.599
      -0.614
      -0.617
      -0.601
      -0.583
      -0.596
      -0.668
      -0.795
      -0.941
      -1.066
      -1.152
      -1.210
      -1.261
      -1.319
      -1.381
      -1.435
      -1.464
      -1.454
      -1.397
      -1.294
      -1.157
      -0.994
      -0.806
      -0.593
      -0.364
      -0.140
       0.062
       0.237
       0.392
       0.537
       0.674
       0.802
       0.921
       1.036
       1.148
       1.253
       1.336
       1.377
       1.362
       1.296
       1.200
       1.104
       1.028
       0.976
       0.938
       0.905
       0.873
       0.846
       0.825
       0.812
       0.810
       0.815
       0.822
       0.819
       0.800
       0.758
       0.689
       0.591
       0.463
       0.316
       0.162
       0.018
      -0.102
      -0.189
      -0.243
      -0.273
      -0.293
      -0.321
      -0.370
      -0.439
      -0.517
      -0.584
      -0.631
      -0.668
      -0.711
      -0.764
      -0.806
      -0.813
      -0.773
      -0.697
      -0.613
      -0.538
      -0.470
      -0.400
      -0.320
      -0.237
      -0.166
      -0.117
      -0.082
      -0.047
      -0.005
       0.038
       0.070
       0.089
       0.098
       0.108
       0.131
       0.173
       0.235
       0.310
       0.384
       0.442
       0.475
       0.481
       0.459
       0.410
       0.334
       0.230
       0.103
      -0.028
      -0.139
      -0.207
      -0.229
      -0.218
      -0.190
      -0.155
      -0.110
      -0.048
       0.031
       0.109
       0.166
       0.189
       0.190
       0.192
       0.210
       0.234
       0.235
       0.192
       0.112
       0.024
      -0.045
      -0.091
      -0.127
      -0.169
      -0.219
      -0.268
      -0.306
      -0.325
      -0.317
      -0.278
      -0.217
      -0.151
      -0.104
      -0.089
      -0.105
      -0.140
      -0.188
      -0.254
      -0.348
      -0.472
      -0.607
      -0.724
      -0.792
      -0.797
      -0.745
      -0.652
      -0.539
      -0.428
      -0.335
      -0.266
      -0.219
      -0.191
      -0.187
      -0.211
      -0.260
      -0.314
      -0.346
      -0.335
      -0.275
      -0.175
      -0.056
       0.065
       0.177
       0.280
       0.386
       0.510
       0.659
       0.824
       0.978
       1.093
       1.163
       1.201
       1.228
       1.246
       1.242
       1.205
       1.133
       1.039
       0.930
       0.810
       0.681
       0.549
       0.422
       0.300
       0.177
       0.041
      -0.113
      -0.280
      -0.449
      -0.607
      -0.740
      -0.842
      -0.906
      -0.925
      -0.900
      -0.841
      -0.767
      -0.699
      -0.654
      -0.636
      -0.641
      -0.658
      -0.669
      -0.659
      -0.612
      -0.523
      -0.403
      -0.271
      -0.142
      -0.019
       0.110
       0.256
       0.415
       0.566
       0.685
       0.763
       0.810
       0.843
       0.863
       0.854
       0.797
       0.700
       0.592
       0.504
       0.442
       0.391
       0.337
       0.281
       0.228
       0.171
       0.092
      -0.025
      -0.169
      -0.306
      -0.405
      -0.458
      -0.479
      -0.478
      -0.446
      -0.367
      -0.239
      -0.086
       0.056
       0.160
       0.222
       0.255
       0.276
       0.291
       0.299
       0.292
       0.267
       0.226
       0.183
       0.157
       0.158
       0.176
       0.189
       0.181
       0.156
       0.136
       0.144
       0.181
       0.222
       0.237
       0.210
       0.149
       0.076
       0.010
      -0.038
      -0.063
      -0.059
      -0.027
       0.023
       0.070
       0.089
       0.073
       0.028
      -0.026
      -0.071
      -0.108
      -0.147
      -0.202
      -0.274
      -0.354
      -0.431
      -0.502
      -0.566
      -0.612
      -0.621
      -0.585
      -0.516
      -0.438
      -0.370
      -0.311
      -0.250
      -0.185
      -0.127
      -0.093
      -0.092
      -0.118
      -0.160
      -0.209
      -0.267
      -0.333
      -0.396
      -0.436
      -0.438
      -0.406
      -0.359
      -0.317
      -0.286
      -0.260
      -0.228
      -0.175
      -0.093
       0.019
       0.153
