Origin Time       17/9/2010 19:21:09	
Lat.              36.5 N	
Long.             70.8 E	
Depth (Km)        167.0
Magnitude         6.5
 Region           Hindukush                                                        
 Above details taken from IMD 
     
Station Code      KLG
Station Lat.       32.559  N
Station Long.      77.001  E
Station Height(m) 3129.0
Site Class        A   Vs30 between 700 m/sec to 1400 m/sec * 
Record Time       17.09.2010 19:23:45.109
Sampling Rate     200. Hz
 Record Duration   71.895 Sec.
 Direction         E-W (E positive)
Max. Acceleration     -3.969 cm/sec**2
     
  * For reference see Site Classification link of website 
     
 Base Line Corrected and Low Pass Filtered (Cut Off at 35 Hz) Time History
 Acceleration data in cm/sec**2
    
[...]
      -0.578
      -0.578
      -0.544
      -0.504
      -0.502
      -0.557
      -0.649
      -0.736
      -0.784
      -0.785
      -0.751
      -0.702
      -0.653
      -0.608
      -0.560
      -0.496
      -0.404
      -0.296
      -0.207
      -0.167
      -0.185
      -0.236
      -0.274
      -0.259
      -0.184
      -0.072
       0.034
       0.101
       0.116
       0.100
       0.091
       0.122
       0.193
       0.269
       0.305
       0.290
       0.248
       0.220
       0.231
       0.281
       0.352
       0.415
       0.449
       0.449
       0.434
       0.429
       0.438
       0.450
       0.443
       0.404
       0.333
       0.252
       0.187
       0.151
       0.135
       0.120
       0.098
       0.078
       0.083
       0.130
       0.213
       0.305
       0.369
       0.380
       0.339
       0.273
       0.215
       0.188
       0.189
       0.198
       0.192
       0.160
       0.107
       0.052
       0.018
       0.016
       0.038
       0.063
       0.076
       0.079
       0.089
       0.121
       0.171
       0.217
       0.242
       0.242
       0.231
       0.227
       0.249
       0.300
       0.361
       0.400
       0.389
       0.333
       0.266
       0.221
       0.209
       0.213
       0.203
       0.163
       0.097
       0.023
      -0.034
      -0.071
      -0.103
      -0.146
      -0.211
      -0.294
      -0.389
      -0.481
      -0.553
      -0.594
      -0.607
      -0.612
      -0.634
      -0.684
      -0.751
      -0.808
      -0.830
      -0.808
      -0.757
      -0.711
      -0.703
      -0.742
      -0.806
      -0.851
      -0.845
      -0.788
      -0.707
      -0.624
      -0.542
      -0.441
      -0.307
      -0.141
       0.040
       0.215
       0.371
       0.504
       0.611
       0.699
       0.775
       0.838
       0.875
       0.863
       0.788
       0.662
       0.525
       0.416
       0.343
       0.288
       0.229
       0.161
       0.105
       0.087
       0.119
       0.188
       0.265
       0.321
       0.334
       0.299
       0.240
       0.200
       0.209
       0.255
       0.293
       0.286
       0.233
       0.162
       0.103
       0.066
       0.043
       0.025
       0.002
      -0.034
      -0.086
      -0.141
      -0.179
      -0.193
      -0.194
      -0.201
      -0.220
      -0.232
      -0.208
      -0.126
       0.008
       0.161
       0.292
       0.381
       0.437
       0.489
       0.561
       0.649
       0.728
       0.775
       0.777
       0.737
       0.666
       0.578
       0.482
       0.376
       0.256
       0.120
      -0.034
      -0.199
      -0.348
      -0.449
      -0.484
      -0.471
      -0.451
      -0.455
      -0.485
      -0.523
      -0.545
      -0.539
      -0.511
      -0.480
      -0.469
      -0.495
      -0.552
      -0.617
      -0.663
      -0.678
      -0.673
      -0.668
      -0.670
      -0.665
      -0.623
      -0.529
      -0.390
      -0.232
      -0.094
      -0.008
       0.025
       0.034
       0.051
       0.089
       0.134
       0.169
       0.187
       0.198
       0.224
       0.283
       0.378
       0.484
       0.567
       0.598
       0.580
       0.555
       0.572
       0.649
       0.756
       0.833
       0.832
       0.750
       0.624
       0.505
       0.428
       0.398
       0.392
       0.383
       0.347
       0.282
       0.210
       0.156
       0.128
       0.105
       0.053
      -0.050
      -0.198
      -0.362
      -0.509
      -0.614
      -0.679
      -0.726
      -0.778
      -0.838
      -0.884
      -0.879
      -0.800
      -0.656
      -0.484
      -0.330
      -0.219
      -0.143
      -0.077
       0.001
       0.088
       0.173
       0.239
       0.282
       0.306
       0.330
       0.380
       0.469
       0.578
       0.664
       0.693
       0.668
       0.622
       0.587
       0.562
       0.522
       0.437
       0.300
       0.124
      -0.059
      -0.212
      -0.311
      -0.359
      -0.390
      -0.444
      -0.537
      -0.644
      -0.720
      -0.740
      -0.719
      -0.690
      -0.679
      -0.691
      -0.720
      -0.752
      -0.774
      -0.782
      -0.784
      -0.791
      -0.799
      -0.795
      -0.759
      -0.688
      -0.597
      -0.502
      -0.412
      -0.327
      -0.252
      -0.188
      -0.126
      -0.056
       0.018
       0.076
       0.100
       0.096
       0.097
       0.142
       0.245
       0.392
       0.549
       0.682
       0.771
       0.822
       0.856
       0.893
       0.934
       0.968
       0.990
       0.997
       0.994
       0.988
       0.990
       1.011
       1.048
       1.078
       1.073
       1.022
       0.948
       0.891
       0.873
       0.882
       0.872
       0.807
       0.680
       0.523
       0.380
       0.284
       0.243
       0.240
       0.243
       0.219
       0.155
       0.071
       0.001
      -0.031
      -0.039
      -0.052
      -0.090
      -0.151
      -0.208
      -0.240
      -0.240
      -0.220
      -0.202
      -0.214
      -0.273
      -0.374
      -0.478
      -0.541
      -0.540
      -0.492
      -0.435
      -0.396
      -0.384
      -0.385
      -0.385
      -0.380
      -0.376
      -0.385
      -0.416
      -0.462
      -0.499
      -0.499
      -0.453
      -0.387
      -0.338
      -0.336
      -0.377
      -0.430
      -0.455
      -0.432
      -0.373
      -0.311
      -0.275
      -0.265
      -0.253
      -0.200
      -0.092
       0.054
       0.206
       0.341
       0.452
       0.546
       0.627
       0.695
       0.742
       0.751
       0.708
       0.607
       0.464
       0.307
       0.168
       0.063
      -0.017
      -0.101
      -0.214
      -0.361
      -0.518
      -0.653
      -0.753
      -0.834
      -0.922
      -1.030
      -1.150
      -1.262
      -1.347
      -1.385
      -1.369
      -1.308
      -1.218
      -1.113
      -0.994
      -0.854
      -0.684
      -0.478
      -0.240
       0.017
       0.261
       0.468
       0.639
       0.798
       0.966
       1.131
       1.262
       1.333
       1.347
       1.326
       1.299
       1.287
       1.295
       1.308
       1.299
       1.243
       1.133
       0.989
       0.846
       0.730
       0.645
       0.565
       0.459
       0.313
       0.137
      -0.039
      -0.200
      -0.348
      -0.496
      -0.643
      -0.775
      -0.870
      -0.918
      -0.928
      -0.921
      -0.912
      -0.906
      -0.897
      -0.872
      -0.816
      -0.720
      -0.588
      -0.441
      -0.311
      -0.221
      -0.159
      -0.089
       0.028
       0.194
       0.375
       0.520
       0.605
       0.637
       0.650
       0.669
       0.701
       0.729
       0.729
       0.681
       0.589
       0.482
       0.404
       0.378
       0.386
       0.383
       0.334
       0.241
       0.133
       0.050
       0.016
       0.031
       0.072
       0.111
       0.119
       0.093
       0.052
       0.025
       0.020
       0.015
      -0.021
      -0.102
      -0.217
      -0.338
      -0.431
      -0.478
      -0.478
      -0.454
      -0.442
      -0.474
      -0.555
      -0.656
      -0.739
      -0.790
      -0.822
      -0.862
      -0.919
      -0.978
      -1.008
      -0.989
      -0.928
      -0.859
      -0.824
      -0.846
      -0.914
      -0.980
      -0.997
      -0.946
      -0.849
      -0.751
      -0.685
      -0.655
      -0.626
      -0.553
      -0.419
      -0.240
      -0.052
       0.114
       0.248
       0.369
       0.506
       0.678
       0.869
       1.038
       1.148
       1.190
       1.188
       1.176
       1.178
       1.188
       1.182
       1.129
       1.005
       0.807
       0.562
       0.318
       0.116
      -0.035
      -0.158
      -0.286
      -0.422
      -0.537
      -0.587
      -0.549
      -0.435
      -0.278
      -0.118
       0.030
       0.177
       0.345
       0.539
       0.733
       0.881
       0.950
       0.946
       0.907
       0.872
       0.857
       0.847
       0.812
       0.726
       0.588
       0.422
       0.261
       0.134
       0.055
       0.017
       0.000
      -0.012
      -0.026
      -0.031
      -0.002
       0.078
       0.203
       0.345
       0.464
       0.539
       0.578
       0.612
       0.675
       0.775
       0.883
       0.950
       0.929
       0.809
       0.624
       0.430
       0.263
       0.112
      -0.063
      -0.292
      -0.561
      -0.818
      -1.004
      -1.097
      -1.122
      -1.123
      -1.131
      -1.147
      -1.147
      -1.101
      -0.990
      -0.815
      -0.594
      -0.349
      -0.100
       0.142
       0.383
       0.640
       0.922
       1.207
       1.447
       1.596
       1.642
       1.620
       1.571
       1.507
       1.407
       1.236
       0.986
       0.679
       0.354
       0.043
      -0.240
      -0.496
      -0.740
      -0.989
      -1.250
      -1.507
      -1.722
      -1.867
      -1.943
      -1.980
      -2.016
      -2.069
      -2.126
      -2.158
      -2.139
      -2.067
      -1.962
      -1.860
      -1.787
      -1.745
      -1.705
      -1.632
      -1.510
      -1.350
      -1.173
      -0.991
      -0.807
      -0.612
      -0.400
      -0.169
       0.068
       0.281
       0.441
       0.533
       0.575
       0.606
       0.660
       0.747
       0.848
       0.932
       0.978
       0.988
       0.988
       1.005
       1.045
       1.082
       1.080
       1.015
       0.894
       0.752
       0.632
       0.560
       0.523
       0.480
       0.391
       0.253
       0.112
       0.032
       0.054
       0.161
       0.290
       0.380
       0.416
       0.437
       0.491
       0.594
       0.718
       0.816
       0.858
       0.846
       0.807
       0.772
       0.755
       0.748
       0.736
       0.699
       0.623
       0.506
       0.364
       0.222
       0.097
      -0.012
      -0.123
      -0.242
      -0.356
      -0.423
      -0.409
      -0.320
      -0.205
      -0.127
      -0.119
      -0.165
      -0.227
      -0.281
      -0.334
      -0.407
      -0.522
      -0.680
      -0.870
      -1.066
      -1.239
      -1.366
      -1.449
      -1.507
      -1.559
      -1.614
      -1.664
      -1.695
      -1.691
      -1.654
      -1.597
      -1.539
      -1.480
      -1.398
      -1.265
      -1.069
      -0.819
      -0.540
      -0.257
       0.008
       0.240
       0.438
       0.621
       0.814
       1.025
       1.237
       1.419
       1.544
       1.617
       1.676
       1.769
       1.926
       2.139
       2.380
       2.622
       2.859
       3.092
       3.316
       3.519
       3.677
       3.761
       3.747
       3.630
       3.441
       3.229
       3.033
       2.851
       2.661
       2.452
       2.233
       2.025
       1.828
       1.624
       1.393
       1.132
       0.847
       0.540
       0.219
      -0.092
      -0.362
      -0.587
      -0.794
      -1.023
      -1.290
      -1.578
      -1.847
      -2.065
      -2.223
      -2.338
      -2.439
      -2.545
      -2.647
      -2.714
      -2.713
      -2.646
      -2.556
      -2.497
      -2.491
      -2.515
      -2.527
      -2.503
      -2.461
      -2.436
      -2.452
      -2.511
      -2.602
      -2.721
      -2.857
      -2.989
      -3.089
      -3.146
      -3.166
      -3.162
      -3.131
      -3.051
      -2.911
      -2.722
      -2.512
      -2.297
      -2.071
      -1.823
      -1.551
      -1.263
      -0.977
      -0.704
      -0.452
      -0.214
       0.025
       0.283
       0.569
       0.864
       1.137
       1.366
       1.545
       1.683
       1.795
       1.894
       1.989
       2.073
       2.132
       2.152
       2.140
       2.121
       2.126
       2.179
       2.279
       2.401
       2.506
       2.554
       2.525
       2.429
       2.299
       2.173
       2.069
       1.973
       1.852
       1.683
       1.469
       1.241
       1.030
       0.848
       0.692
       0.552
       0.419
       0.296
       0.195
       0.128
       0.095
       0.073
       0.029
      -0.062
      -0.189
      -0.307
      -0.370
      -0.365
      -0.321
      -0.283
      -0.274
      -0.277
      -0.251
      -0.164
      -0.023
       0.127
       0.236
       0.281
       0.271
       0.238
       0.212
       0.206
       0.217
       0.227
       0.214
       0.165
       0.092
       0.032
       0.022
       0.072
       0.151
       0.210
       0.222
       0.192
       0.148
       0.112
       0.083
       0.052
       0.016
      -0.028
      -0.077
      -0.118
      -0.125
      -0.069
       0.050
       0.198
       0.332
       0.438
       0.544
       0.693
       0.903
       1.153
       1.392
       1.577
       1.680
       1.703
       1.669
       1.608
       1.532
       1.418
       1.222
       0.912
       0.492
       0.008
      -0.474
      -0.899
      -1.241
      -1.505
      -1.709
      -1.861
      -1.947
      -1.944
      -1.850
      -1.686
      -1.485
      -1.278
      -1.080
      -0.896
      -0.719
      -0.542
      -0.372
      -0.228
      -0.129
      -0.083
      -0.082
      -0.113
      -0.163
      -0.232
      -0.336
      -0.508
      -0.776
      -1.146
      -1.578
      -2.012
      -2.395
      -2.717
      -2.997
      -3.266
      -3.530
      -3.762
      -3.919
      -3.969
      -3.923
      -3.824
      -3.714
      -3.602
      -3.465
      -3.274
      -3.025
      -2.742
      -2.460
      -2.205
      -1.980
      -1.771
      -1.558
      -1.332
      -1.092
      -0.842
      -0.582
      -0.301
       0.021
       0.405
       0.856
       1.355
       1.862
       2.327
       2.706
       2.973
       3.134
       3.224
       3.283
       3.330
       3.353
       3.333
       3.265
       3.165
       3.058
       2.956
       2.856
       2.746
       2.608
       2.431
       2.223
       2.016
       1.841
       1.714
       1.625
       1.559
       1.501
       1.451
       1.417
       1.404
       1.405
       1.401
       1.381
       1.344
       1.296
       1.247
       1.207
       1.178
       1.151
       1.101
       1.005
       0.856
       0.679
       0.519
       0.416
       0.380
       0.392
       0.418
       0.423
       0.388
       0.327
       0.268
       0.233
       0.210
       0.166
       0.079
      -0.032
      -0.119
      -0.149
      -0.130
      -0.102
      -0.098
      -0.123
      -0.159
      -0.188
      -0.201
      -0.209
      -0.230
      -0.285
      -0.373
      -0.476
      -0.559
      -0.597
      -0.583
      -0.534
      -0.475
      -0.437
      -0.442
      -0.488
      -0.544
      -0.572
      -0.554
      -0.514
      -0.510
      -0.590
      -0.759
      -0.969
      -1.150
      -1.264
      -1.325
      -1.378
      -1.463
      -1.586
      -1.733
      -1.879
      -2.005
      -2.099
      -2.152
      -2.160
      -2.130
      -2.072
      -1.990
      -1.872
      -1.696
      -1.450
      -1.151
      -0.831
      -0.520
      -0.230
       0.042
       0.291
       0.492
       0.608
       0.610
       0.496
       0.307
       0.106
      -0.048
      -0.138
      -0.194
      -0.271
      -0.406
      -0.584
      -0.750
      -0.855
      -0.897
      -0.908
      -0.921
      -0.931
      -0.895
      -0.774
      -0.564
      -0.304
      -0.045
       0.184
       0.383
       0.571
       0.768
       0.984
       1.202
       1.385
       1.495
       1.520
       1.484
       1.429
       1.392
       1.391
       1.427
       1.482
       1.527
       1.535
       1.510
       1.487
       1.511
       1.593
       1.702
       1.794
       1.849
       1.880
       1.907
       1.938
       1.960
       1.958
       1.925
       1.858
       1.757
       1.630
       1.489
       1.336
       1.152
       0.906
       0.582
       0.203
      -0.188
      -0.550
      -0.864
      -1.134
      -1.372
      -1.590
      -1.799
      -1.998
      -2.172
      -2.298
      -2.372
      -2.415
      -2.457
      -2.508
      -2.542
      -2.517
      -2.414
      -2.244
      -2.050
      -1.879
      -1.758
      -1.683
      -1.624
      -1.550
      -1.450
      -1.336
      -1.225
      -1.128
      -1.045
      -0.966
      -0.887
      -0.816
      -0.767
      -0.751
      -0.765
      -0.782
      -0.758
      -0.651
      -0.435
      -0.119
       0.261
       0.656
       1.028
       1.363
       1.666
       1.945
       2.181
       2.336
       2.374
       2.277
       2.063
       1.770
       1.445
       1.132
       0.855
       0.623
       0.432
       0.282
       0.193
       0.185
       0.265
       0.403
       0.543
       0.631
       0.654
       0.640
       0.641
       0.696
       0.814
       0.977
       1.164
       1.358
       1.559
       1.778
       2.017
       2.258
       2.466
       2.610
       2.679
       2.678
       2.622
       2.516
       2.359
       2.145
       1.876
       1.568
       1.240
       0.911
       0.598
       0.318
       0.076
      -0.136
      -0.336
      -0.535
      -0.727
      -0.886
      -0.989
      -1.032
      -1.034
      -1.023
      -1.013
      -0.999
      -0.975
      -0.946
      -0.936
      -0.968
      -1.052
      -1.191
      -1.383
      -1.617
      -1.867
      -2.098
      -2.287
      -2.431
      -2.539
      -2.611
      -2.633
      -2.592
      -2.491
      -2.346
      -2.188
      -2.043
      -1.915
      -1.791
      -1.647
      -1.469
      -1.260
      -1.033
      -0.799
      -0.558
      -0.299
      -0.017
       0.277
       0.551
       0.773
       0.922
       0.999
       1.020
       1.013
       0.998
       0.971
       0.906
       0.771
       0.560
       0.301
       0.046
      -0.155
      -0.283
      -0.357
      -0.414
      -0.466
      -0.497
      -0.474
      -0.387
      -0.260
      -0.134
      -0.039
       0.027
       0.083
       0.148
       0.233
       0.345
       0.490
       0.663
       0.830
       0.940
       0.957
       0.892
       0.804
       0.749
       0.740
       0.749
       0.741
       0.708
       0.661
       0.612
       0.551
       0.462
       0.332
       0.156
      -0.063
      -0.310
      -0.549
      -0.744
      -0.874
      -0.950
      -1.008
      -1.079
      -1.163
      -1.224
      -1.219
      -1.127
      -0.970
      -0.794
      -0.636
      -0.497
      -0.351
      -0.174
       0.032
       0.244
       0.435
       0.590
       0.711
       0.804
       0.877
       0.936
       0.996
       1.059
       1.112
       1.122
       1.071
       0.977
       0.876
       0.785
       0.678
       0.511
       0.272
       0.007
      -0.203
      -0.299
      -0.273
      -0.162
      -0.010
       0.164
       0.355
       0.562
       0.774
       0.971
       1.136
       1.258
       1.337
       1.382
       1.414
       1.458
       1.524
       1.600
       1.667
       1.708
       1.715
       1.677
       1.585
       1.436
       1.245
       1.036
       0.834
       0.649
       0.485
       0.350
       0.266
       0.252
