Origin Time       17/7/2009 11:07:47 
Lat.              32.3 N 
Long.             76.1 E 
Depth (Km)         39.3
Magnitude         3.7
 Region           CHAMBA-(H.P.)                                                    
 Above details taken from IMD 
   
Station Code      KLG
Station Lat.       32.559
Station Long.      77.001
Station Height(m)    0.0
Site Class        A   Vs30 between 700 m/sec to 1400 m/sec * 
Record Time       17.07.2009 11:07:48.529
Sampling Rate     200. Hz
 Record Duration   69.040 Sec.
 Direction         Vert. (Up positive)
Max. Acceleration     -7.521 cm/sec**2
     
  * For reference see Site Classification link of website 
     
 Base Line Corrected and Low Pass Filtered (Cut Off at 35 Hz) Time History
 Acceleration data in cm/sec**2
    
[...]
      -0.009
      -0.627
      -1.178
      -1.281
      -0.780
       0.033
       0.590
       0.529
       0.006
      -0.457
      -0.466
      -0.069
       0.379
       0.619
       0.700
       0.806
       0.948
       0.907
       0.502
      -0.136
      -0.597
      -0.539
      -0.020
       0.518
       0.628
       0.246
      -0.273
      -0.495
      -0.311
      -0.012
       0.021
      -0.309
      -0.743
      -0.940
      -0.774
      -0.414
      -0.144
      -0.124
      -0.262
      -0.316
      -0.135
       0.179
       0.367
       0.272
      -0.002
      -0.225
      -0.292
      -0.283
      -0.285
      -0.229
       0.037
       0.519
       0.971
       1.082
       0.768
       0.270
      -0.067
      -0.094
       0.051
       0.106
      -0.056
      -0.326
      -0.486
      -0.444
      -0.333
      -0.321
      -0.379
      -0.293
       0.069
       0.561
       0.876
       0.811
       0.391
      -0.204
      -0.733
      -0.950
      -0.717
      -0.156
       0.381
       0.577
       0.413
       0.164
       0.131
       0.352
       0.572
       0.495
       0.088
      -0.385
      -0.617
      -0.533
      -0.303
      -0.146
      -0.152
      -0.287
      -0.462
      -0.568
      -0.489
      -0.188
       0.223
       0.525
       0.572
       0.401
       0.176
       0.036
       0.031
       0.171
       0.429
       0.689
       0.751
       0.509
       0.113
      -0.137
      -0.085
       0.107
       0.131
      -0.144
      -0.529
      -0.707
      -0.532
      -0.138
       0.220
       0.378
       0.327
       0.116
      -0.219
      -0.619
      -0.932
      -0.981
      -0.711
      -0.268
       0.117
       0.300
       0.296
       0.199
       0.080
      -0.033
      -0.098
      -0.046
       0.138
       0.333
       0.351
       0.108
      -0.276
      -0.562
      -0.595
      -0.402
      -0.098
       0.265
       0.685
       1.070
       1.189
       0.866
       0.211
      -0.397
      -0.620
      -0.445
      -0.154
      -0.019
      -0.050
      -0.057
       0.093
       0.304
       0.365
       0.199
      -0.035
      -0.137
      -0.084
      -0.034
      -0.093
      -0.177
      -0.134
       0.035
       0.162
       0.132
       0.040
       0.080
       0.288
       0.485
       0.456
       0.160
      -0.242
      -0.537
      -0.606
      -0.448
      -0.123
       0.275
       0.603
       0.689
       0.434
      -0.068
      -0.531
      -0.666
      -0.431
      -0.088
       0.006
      -0.281
      -0.743
      -1.017
      -0.895
      -0.468
       0.017
       0.376
       0.560
       0.591
       0.532
       0.504
       0.628
       0.868
       0.984
       0.725
       0.112
      -0.523
      -0.823
      -0.749
      -0.595
      -0.658
      -0.909
      -1.030
      -0.757
      -0.172
       0.370
       0.562
       0.390
       0.068
      -0.201
      -0.357
      -0.396
      -0.261
       0.127
       0.716
       1.231
       1.332
       0.885
       0.105
      -0.592
      -0.884
      -0.743
      -0.379
      -0.024
       0.235
       0.444
       0.648
       0.799
       0.784
       0.549
       0.164
      -0.216
      -0.447
      -0.459
      -0.260
       0.075
       0.421
       0.653
       0.697
       0.553
       0.257
      -0.136
      -0.516
      -0.704
      -0.549
      -0.091
       0.407
       0.632
       0.432
      -0.122
      -0.791
      -1.279
      -1.371
      -1.075
      -0.627
      -0.301
      -0.181
      -0.105
       0.153
       0.606
       0.972
       0.907
       0.343
      -0.390
      -0.808
      -0.657
      -0.103
       0.440
       0.668
       0.583
       0.394
       0.274
       0.232
       0.192
       0.138
       0.145
       0.262
       0.409
       0.419
       0.183
      -0.222
      -0.566
      -0.630
      -0.381
      -0.010
       0.238
       0.287
       0.273
       0.332
       0.404
       0.279
      -0.120
      -0.594
      -0.831
      -0.717
      -0.436
      -0.280
      -0.398
      -0.710
      -1.004
      -1.077
      -0.839
      -0.363
       0.142
       0.477
       0.605
       0.670
       0.816
       1.022
       1.125
       0.994
       0.655
       0.254
      -0.060
      -0.192
      -0.114
       0.116
       0.340
       0.387
       0.228
       0.020
      -0.064
      -0.003
       0.081
       0.084
       0.008
      -0.103
      -0.236
      -0.395
      -0.523
      -0.506
      -0.277
       0.070
       0.312
       0.275
       0.012
      -0.224
      -0.221
      -0.041
       0.027
      -0.240
      -0.750
      -1.146
      -1.096
      -0.573
       0.120
       0.573
       0.584
       0.302
       0.072
       0.117
       0.343
       0.471
       0.345
       0.103
       0.029
       0.243
       0.573
       0.736
       0.645
       0.476
       0.421
       0.423
       0.257
      -0.154
      -0.593
      -0.776
      -0.666
      -0.497
      -0.486
      -0.589
      -0.572
      -0.301
       0.082
       0.290
       0.168
      -0.175
      -0.488
      -0.607
      -0.551
      -0.419
      -0.243
       0.006
       0.309
       0.532
       0.510
       0.208
      -0.207
      -0.454
      -0.353
       0.021
       0.384
       0.491
       0.337
       0.117
       0.003
      -0.006
      -0.009
      -0.023
       0.053
       0.300
       0.646
       0.899
       0.899
       0.648
       0.298
       0.024
      -0.113
      -0.183
      -0.290
      -0.459
      -0.592
      -0.518
      -0.125
       0.513
       1.119
       1.340
       0.980
       0.159
      -0.729
      -1.263
      -1.263
      -0.872
      -0.400
      -0.087
      -0.001
      -0.089
      -0.237
      -0.288
      -0.094
       0.334
       0.740
       0.790
       0.384
      -0.202
      -0.527
      -0.339
       0.225
       0.770
       0.947
       0.677
       0.139
      -0.386
      -0.681
      -0.685
      -0.515
      -0.392
      -0.470
      -0.685
      -0.756
      -0.432
       0.209
       0.738
       0.739
       0.228
      -0.341
      -0.502
      -0.198
       0.218
       0.332
       0.045
      -0.380
      -0.579
      -0.423
      -0.141
      -0.084
      -0.344
      -0.615
      -0.485
       0.126
       0.844
       1.170
       0.923
       0.356
      -0.114
      -0.278
      -0.236
      -0.205
      -0.273
      -0.343
      -0.289
      -0.121
       0.016
      -0.002
      -0.154
      -0.295
      -0.278
      -0.048
       0.344
       0.762
       1.023
       0.981
       0.642
       0.227
       0.044
       0.245
       0.667
       0.976
       0.964
       0.707
       0.421
       0.210
      -0.008
      -0.355
      -0.788
      -1.081
      -1.029
      -0.664
      -0.246
      -0.029
      -0.053
      -0.158
      -0.203
      -0.225
      -0.368
      -0.653
      -0.867
      -0.722
      -0.157
       0.518
       0.821
       0.491
      -0.276
      -0.971
      -1.167
      -0.815
      -0.223
       0.232
       0.378
       0.305
       0.188
       0.122
       0.111
       0.184
       0.423
       0.843
       1.274
       1.426
       1.118
       0.441
      -0.302
      -0.803
      -0.952
      -0.854
      -0.704
      -0.623
      -0.598
      -0.513
      -0.229
       0.333
       1.104
       1.834
       2.163
       1.833
       0.899
      -0.221
      -0.980
      -1.091
      -0.762
      -0.515
      -0.734
      -1.320
      -1.763
      -1.580
      -0.750
       0.234
       0.768
       0.637
       0.172
      -0.075
       0.163
       0.644
       0.887
       0.655
       0.162
      -0.169
      -0.116
       0.181
       0.412
       0.424
       0.341
       0.387
       0.588
       0.703
       0.472
      -0.052
      -0.464
      -0.373
       0.182
       0.741
       0.852
       0.479
      -0.033
      -0.332
      -0.338
      -0.196
      -0.072
      -0.075
      -0.272
      -0.645
      -0.984
      -0.952
      -0.400
       0.396
       0.870
       0.612
      -0.303
      -1.352
      -1.933
      -1.770
      -1.086
      -0.403
      -0.102
      -0.136
      -0.147
       0.134
       0.616
       0.950
       0.865
       0.416
      -0.057
      -0.178
       0.180
       0.785
       1.208
       1.150
       0.653
       0.040
      -0.361
      -0.433
      -0.265
       0.014
       0.349
       0.693
       0.896
       0.743
       0.154
      -0.657
      -1.235
      -1.194
      -0.540
       0.273
       0.666
       0.401
      -0.226
      -0.656
      -0.555
      -0.056
       0.411
       0.503
       0.199
      -0.240
      -0.507
      -0.501
      -0.400
      -0.453
      -0.681
      -0.800
      -0.480
       0.325
       1.290
       1.971
       2.109
       1.715
       0.941
      -0.047
      -1.052
      -1.803
      -2.024
      -1.618
      -0.784
       0.066
       0.532
       0.434
      -0.114
      -0.783
      -1.190
      -1.057
      -0.318
       0.807
       1.826
       2.187
       1.641
       0.480
      -0.624
      -1.079
      -0.735
       0.111
       0.964
       1.387
       1.141
       0.258
      -0.938
      -1.924
      -2.261
      -1.900
      -1.257
      -0.891
      -1.037
      -1.398
      -1.381
      -0.568
       0.969
       2.672
       3.799
       3.853
       2.879
       1.422
       0.159
      -0.512
      -0.609
      -0.421
      -0.275
      -0.366
      -0.668
      -0.918
      -0.767
      -0.043
       1.043
       1.958
       2.180
       1.602
       0.649
      -0.063
      -0.277
      -0.304
      -0.647
      -1.394
      -2.079
      -2.152
      -1.548
      -0.717
      -0.149
       0.062
       0.158
       0.324
       0.454
       0.340
      -0.018
      -0.373
      -0.511
      -0.479
      -0.493
      -0.673
      -0.929
      -1.081
      -1.027
      -0.804
      -0.541
      -0.390
      -0.444
      -0.652
      -0.795
      -0.619
      -0.036
       0.767
       1.433
       1.678
       1.484
       1.123
       0.979
       1.259
       1.801
       2.134
       1.834
       0.905
      -0.152
      -0.694
      -0.407
       0.534
       1.645
       2.396
       2.360
       1.320
      -0.569
      -2.674
      -4.115
      -4.262
      -3.130
      -1.335
       0.311
       1.237
       1.304
       0.743
      -0.011
      -0.504
      -0.459
       0.055
       0.644
       0.870
       0.593
       0.029
      -0.504
      -0.862
      -1.060
      -1.073
      -0.795
      -0.254
       0.219
       0.177
      -0.508
      -1.403
      -1.768
      -1.130
       0.341
       1.952
       2.960
       3.002
       2.201
       1.027
       0.072
      -0.204
       0.293
       1.211
       1.976
       2.198
       1.895
       1.335
       0.703
      -0.033
      -0.925
      -1.793
      -2.259
      -2.069
      -1.368
      -0.633
      -0.294
      -0.432
      -0.811
      -1.161
      -1.407
      -1.643
      -1.929
      -2.145
      -2.059
      -1.545
      -0.715
       0.157
       0.833
       1.214
       1.287
       1.062
       0.604
       0.091
      -0.278
      -0.484
      -0.708
      -1.037
      -1.164
      -0.572
       0.827
       2.297
       2.702
       1.511
      -0.563
      -1.999
      -1.673
       0.193
       2.202
       2.940
       2.094
       0.574
      -0.406
      -0.366
       0.250
       0.752
       0.899
       0.876
       0.803
       0.495
      -0.223
      -1.147
      -1.781
      -1.779
      -1.215
      -0.413
       0.394
       1.162
       1.842
       2.173
       1.799
       0.662
      -0.749
      -1.668
      -1.715
      -1.291
      -1.237
      -2.007
      -3.146
      -3.640
      -2.837
      -1.060
       0.654
       1.413
       1.119
       0.346
      -0.324
      -0.795
      -1.323
      -1.993
      -2.429
      -2.097
      -0.884
       0.654
       1.687
       1.777
       1.227
       0.811
       1.131
       2.105
       3.005
       3.091
       2.336
       1.532
       1.557
       2.445
       3.188
       2.551
       0.204
      -2.842
      -4.896
      -4.797
      -2.663
       0.379
       3.083
       4.763
       5.343
       5.042
       4.130
       2.843
       1.391
      -0.022
      -1.166
      -1.832
      -1.997
      -1.934
      -2.031
      -2.408
      -2.748
      -2.553
      -1.593
      -0.099
       1.463
       2.769
       3.756
       4.390
       4.394
       3.315
       0.978
      -2.102
      -4.789
      -5.971
      -5.319
      -3.504
      -1.680
      -0.652
      -0.467
      -0.702
      -1.036
      -1.468
      -2.049
      -2.554
      -2.523
      -1.634
      -0.077
       1.423
       2.011
       1.262
      -0.504
      -2.421
      -3.627
      -3.745
      -3.003
      -1.959
      -1.090
      -0.541
      -0.188
       0.115
       0.337
       0.277
      -0.236
      -1.138
      -2.106
      -2.742
      -2.780
      -2.159
      -0.953
       0.676
       2.458
       4.017
       4.990
       5.221
       4.853
       4.238
       3.736
       3.533
       3.549
       3.497
       3.073
       2.176
       0.951
      -0.318
      -1.314
      -1.687
      -1.119
       0.441
       2.608
       4.698
       6.130
       6.701
       6.514
       5.725
       4.399
       2.549
       0.244
      -2.287
      -4.652
      -6.425
      -7.365
      -7.521
      -7.108
      -6.308
      -5.189
      -3.796
      -2.271
      -0.851
       0.248
       0.948
       1.271
       1.212
       0.679
      -0.346
      -1.619
      -2.671
      -3.116
      -2.955
      -2.539
      -2.236
      -2.067
      -1.655
      -0.613
       0.926
       2.222
       2.529
       1.885
       1.211
       1.504
       2.839
       4.251
       4.663
       3.965
       3.086
       2.959
       3.489
       3.618
       2.445
       0.191
      -1.947
      -2.872
      -2.485
      -1.603
      -1.085
      -1.090
      -1.122
      -0.721
      -0.010
       0.462
       0.358
      -0.074
      -0.329
      -0.287
      -0.432
      -1.370
      -3.112
      -4.855
      -5.532
      -4.697
      -2.954
      -1.457
      -0.915
      -1.035
      -0.932
      -0.086
       1.108
       1.727
       1.282
       0.293
      -0.140
       0.556
       1.785
       2.327
       1.523
      -0.139
      -1.590
      -2.149
      -1.889
      -1.212
      -0.290
       0.988
       2.616
       4.175
       4.987
       4.601
       3.193
       1.493
       0.264
      -0.276
      -0.555
      -1.145
      -2.114
      -2.881
      -2.792
      -1.840
      -0.779
      -0.432
      -0.861
      -1.259
      -0.701
       0.965
       2.918
       4.053
       3.862
       2.713
       1.357
       0.252
      -0.624
      -1.432
      -2.094
      -2.302
      -1.782
      -0.536
       1.100
       2.568
       3.336
       3.187
       2.343
       1.276
       0.351
      -0.327
      -0.766
      -0.874
      -0.490
       0.370
       1.345
       1.916
       1.816
       1.282
       0.822
       0.680
       0.561
      -0.052
      -1.235
      -2.363
      -2.608
      -1.701
      -0.167
       1.193
       1.974
       2.288
       2.349
       2.097
       1.292
      -0.093
      -1.697
      -2.981
      -3.582
      -3.479
      -2.927
      -2.296
      -1.947
      -2.077
      -2.589
      -3.116
      -3.282
      -3.007
      -2.550
      -2.202
      -1.946
      -1.475
      -0.603
       0.378
       0.838
       0.401
      -0.602
      -1.264
      -0.797
       0.819
       2.759
       3.922
       3.696
       2.330
       0.700
      -0.297
      -0.253
       0.583
       1.532
       1.934
       1.587
       0.872
       0.435
       0.621
       1.136
       1.284
       0.638
      -0.475
      -1.176
      -0.789
       0.551
       1.971
       2.540
       1.935
       0.581
      -0.764
      -1.545
      -1.672
      -1.446
      -1.308
      -1.550
      -2.073
      -2.385
      -1.941
      -0.655
       0.884
       1.808
       1.687
       0.922
       0.360
       0.488
       0.978
       1.032
       0.198
      -1.117
      -1.961
      -1.686
      -0.561
       0.472
       0.641
       0.028
      -0.558
      -0.361
       0.661
       1.869
       2.551
       2.437
       1.733
       0.810
      -0.058
      -0.718
      -1.043
      -0.928
      -0.407
       0.256
       0.671
       0.611
       0.235
      -0.009
       0.188
       0.651
       0.858
       0.482
      -0.215
      -0.597
      -0.290
       0.433
       0.918
       0.729
      -0.047
      -0.976
      -1.648
      -1.843
      -1.501
      -0.676
       0.436
       1.497
       2.146
       2.194
       1.759
       1.217
       0.946
       1.010
       1.079
       0.736
      -0.098
      -1.054
      -1.667
      -1.823
      -1.842
      -2.105
      -2.612
      -2.888
      -2.411
      -1.171
       0.197
       0.894
       0.625
      -0.183
      -0.801
      -0.856
      -0.566
      -0.433
      -0.747
      -1.383
      -1.952
      -2.101
      -1.727
      -1.027
      -0.365
      -0.001
       0.103
       0.214
       0.507
       0.839
       0.897
       0.594
       0.258
       0.351
       0.992
       1.799
       2.214
       2.016
       1.491
       1.131
       1.192
       1.536
       1.817
       1.754
       1.263
       0.425
      -0.570
      -1.450
      -1.923
      -1.830
      -1.251
      -0.448
       0.330
       0.972
       1.468
       1.814
       1.994
       2.033
       1.971
       1.771
       1.291
       0.439
      -0.634
      -1.559
      -2.036
      -2.089
      -2.007
      -2.025
      -2.097
      -1.974
      -1.470
      -0.637
       0.281
       1.017
       1.412
       1.462
       1.285
       1.022
       0.739
       0.387
      -0.112
      -0.769
      -1.489
      -2.125
      -2.545
      -2.667
      -2.470
      -1.993
      -1.348
      -0.677
      -0.090
       0.373
       0.726
       0.992
       1.168
       1.229
       1.134
       0.827
       0.268
      -0.484
      -1.210
      -1.588
      -1.405
      -0.721
       0.161
       0.918
       1.395
       1.621
       1.685
       1.642
       1.524
       1.377
       1.237
       1.093
       0.912
       0.727
       0.653
       0.779
       1.018
       1.117
       0.864
       0.314
      -0.215
      -0.408
      -0.246
      -0.015
      -0.003
      -0.168
      -0.162
       0.294
       1.072
       1.705
       1.776
       1.247
       0.436
      -0.285
      -0.739
      -0.960
      -1.050
      -1.067
      -1.039
      -1.013
      -1.034
      -1.076
      -1.033
      -0.833
      -0.592
      -0.577
      -0.955
      -1.552
      -1.912
      -1.674
      -0.932
      -0.214
      -0.049
      -0.504
      -1.140
      -1.423
      -1.191
      -0.732
      -0.445
      -0.454
      -0.554
      -0.472
      -0.133
       0.307
       0.639
       0.782
       0.841
       0.993
       1.306
       1.652
       1.804
       1.647
       1.300
       1.029
       1.000
       1.110
       1.068
       0.682
       0.087
