Origin Time       22/10/2009 19:51:25
Lat.              36.5°N	
Long.             71.0°E	
Depth (Km)        168.0
Magnitude         6.3
 Region           HINDUKUSH-REGION-AFGHANISTAN                                     
 Above details taken from IMD 
     
Station Code      KLG
Station Lat.       32.559  N
Station Long.      77.001  E
Station Height(m) 3129.0
Site Class        A   Vs30 between 700 m/sec to 1400 m/sec * 
Record Time       22.10.2009 19:52:45.824
Sampling Rate     200. Hz
 Record Duration   65.465 Sec.
 Direction         E-W (E positive)
Max. Acceleration      1.548 cm/sec**2
     
  * For reference see Site Classification link of website 
     
 Base Line Corrected and Low Pass Filtered (Cut Off at 35 Hz) Time History
 Acceleration data in cm/sec**2
    
[...]
       0.010
      -0.002
      -0.012
      -0.014
      -0.007
       0.006
       0.014
       0.011
      -0.001
      -0.015
      -0.023
      -0.021
      -0.013
      -0.006
      -0.003
      -0.004
      -0.008
      -0.010
      -0.009
      -0.005
      -0.002
      -0.004
      -0.015
      -0.028
      -0.033
      -0.023
       0.001
       0.025
       0.035
       0.024
       0.004
      -0.007
      -0.003
       0.008
       0.012
       0.002
      -0.013
      -0.016
      -0.001
       0.021
       0.031
       0.019
      -0.006
      -0.025
      -0.026
      -0.010
       0.009
       0.016
       0.006
      -0.011
      -0.022
      -0.019
      -0.004
       0.011
       0.016
       0.009
      -0.003
      -0.009
      -0.006
       0.003
       0.010
       0.009
       0.003
      -0.003
      -0.004
      -0.003
      -0.004
      -0.006
      -0.007
      -0.002
       0.006
       0.011
       0.008
      -0.001
      -0.010
      -0.012
      -0.006
       0.003
       0.007
       0.004
      -0.001
      -0.007
      -0.009
      -0.004
       0.005
       0.015
       0.020
       0.015
       0.003
      -0.009
      -0.013
      -0.009
       0.001
       0.008
       0.008
       0.001
      -0.009
      -0.014
      -0.009
       0.002
       0.015
       0.021
       0.017
       0.006
      -0.006
      -0.012
      -0.012
      -0.008
      -0.003
       0.001
       0.004
       0.005
       0.006
       0.006
       0.004
       0.000
      -0.004
      -0.006
      -0.002
       0.005
       0.011
       0.011
       0.006
       0.001
       0.000
       0.002
       0.001
      -0.005
      -0.013
      -0.016
      -0.013
      -0.005
       0.002
       0.003
      -0.001
      -0.005
      -0.004
       0.001
       0.007
       0.009
       0.005
      -0.002
      -0.006
       0.000
       0.013
       0.025
       0.026
       0.012
      -0.007
      -0.014
      -0.003
       0.016
       0.027
       0.019
      -0.001
      -0.018
      -0.017
      -0.003
       0.009
       0.006
      -0.009
      -0.021
      -0.017
       0.003
       0.025
       0.034
       0.023
       0.001
      -0.016
      -0.015
      -0.002
       0.009
       0.009
       0.000
      -0.005
       0.000
       0.010
       0.015
       0.008
      -0.005
      -0.011
      -0.003
       0.016
       0.031
       0.030
       0.011
      -0.011
      -0.021
      -0.012
       0.004
       0.013
       0.011
       0.004
       0.004
       0.012
       0.020
       0.019
       0.009
      -0.002
      -0.006
      -0.002
       0.005
       0.011
       0.013
       0.011
       0.007
       0.005
       0.007
       0.012
       0.015
       0.014
       0.010
       0.007
       0.007
       0.012
       0.016
       0.015
       0.009
       0.003
       0.001
       0.003
       0.003
       0.003
       0.005
       0.011
       0.018
       0.017
       0.006
      -0.006
      -0.009
      -0.002
       0.008
       0.010
       0.001
      -0.008
      -0.008
       0.003
       0.014
       0.015
       0.006
      -0.002
      -0.001
       0.007
       0.013
       0.012
       0.003
      -0.004
      -0.006
      -0.004
      -0.003
      -0.006
      -0.009
      -0.012
      -0.010
      -0.006
      -0.001
       0.003
       0.003
       0.002
       0.005
       0.010
       0.014
       0.009
      -0.001
      -0.007
      -0.005
       0.003
       0.011
       0.010
       0.003
      -0.004
      -0.004
       0.000
       0.004
       0.004
      -0.002
      -0.009
      -0.012
      -0.010
      -0.007
      -0.005
      -0.002
       0.003
       0.011
       0.016
       0.012
       0.001
      -0.009
      -0.010
      -0.003
       0.005
       0.007
       0.002
      -0.004
      -0.007
      -0.009
      -0.011
      -0.014
      -0.017
      -0.018
      -0.017
      -0.011
       0.001
       0.013
       0.019
       0.016
       0.010
       0.005
       0.005
       0.008
       0.011
       0.009
       0.006
       0.007
       0.013
       0.022
       0.026
       0.022
       0.014
       0.009
       0.009
       0.010
       0.009
       0.004
      -0.001
      -0.003
       0.001
       0.007
       0.014
       0.017
       0.017
       0.010
       0.002
      -0.003
      -0.001
       0.006
       0.009
       0.005
      -0.004
      -0.008
      -0.002
       0.009
       0.016
       0.014
       0.008
       0.004
       0.008
       0.016
       0.022
       0.023
       0.017
       0.006
      -0.006
      -0.010
      -0.002
       0.011
       0.015
       0.005
      -0.012
      -0.020
      -0.011
       0.007
       0.019
       0.016
       0.003
      -0.007
      -0.005
       0.003
       0.007
       0.000
      -0.013
      -0.018
      -0.007
       0.015
       0.033
       0.034
       0.019
      -0.003
      -0.016
      -0.012
       0.005
       0.021
       0.023
       0.009
      -0.008
      -0.013
      -0.002
       0.016
       0.026
       0.020
       0.005
      -0.007
      -0.005
       0.010
       0.025
       0.025
       0.009
      -0.012
      -0.022
      -0.012
       0.008
       0.022
       0.019
       0.004
      -0.009
      -0.010
       0.000
       0.014
       0.021
       0.018
       0.006
      -0.010
      -0.021
      -0.019
      -0.002
       0.020
       0.033
       0.030
       0.015
       0.000
      -0.003
       0.006
       0.017
       0.018
       0.005
      -0.013
      -0.025
      -0.025
      -0.014
       0.000
       0.012
       0.017
       0.016
       0.009
       0.000
      -0.006
      -0.004
       0.004
       0.014
       0.017
       0.013
       0.004
      -0.002
      -0.002
       0.004
       0.011
       0.015
       0.014
       0.011
       0.008
       0.003
      -0.004
      -0.011
      -0.013
      -0.005
       0.007
       0.014
       0.011
       0.004
       0.003
       0.011
       0.021
       0.020
       0.006
      -0.008
      -0.010
      -0.001
       0.009
       0.009
       0.001
      -0.008
      -0.008
      -0.001
       0.006
       0.006
       0.002
      -0.003
      -0.005
      -0.004
       0.001
       0.008
       0.013
       0.009
      -0.004
      -0.016
      -0.015
       0.002
       0.018
       0.017
      -0.004
      -0.028
      -0.037
      -0.026
      -0.005
       0.011
       0.014
       0.010
       0.005
       0.000
      -0.008
      -0.020
      -0.032
      -0.037
      -0.037
      -0.034
      -0.032
      -0.031
      -0.029
      -0.025
      -0.022
      -0.019
      -0.016
      -0.015
      -0.019
      -0.028
      -0.039
      -0.047
      -0.051
      -0.055
      -0.061
      -0.069
      -0.074
      -0.078
      -0.082
      -0.086
      -0.085
      -0.080
      -0.074
      -0.072
      -0.073
      -0.076
      -0.075
      -0.071
      -0.067
      -0.069
      -0.078
      -0.091
      -0.098
      -0.092
      -0.079
      -0.070
      -0.078
      -0.101
      -0.124
      -0.135
      -0.132
      -0.122
      -0.116
      -0.121
      -0.131
      -0.133
      -0.118
      -0.090
      -0.065
      -0.051
      -0.043
      -0.032
      -0.014
       0.006
       0.020
       0.027
       0.034
       0.046
       0.061
       0.073
       0.074
       0.064
       0.047
       0.028
       0.008
      -0.013
      -0.034
      -0.051
      -0.061
      -0.067
      -0.072
      -0.075
      -0.075
      -0.069
      -0.054
      -0.029
       0.006
       0.047
       0.093
       0.146
       0.205
       0.266
       0.319
       0.359
       0.391
       0.421
       0.448
       0.464
       0.462
       0.444
       0.415
       0.376
       0.327
       0.269
       0.200
       0.123
       0.040
      -0.045
      -0.121
      -0.178
      -0.219
      -0.253
      -0.288
      -0.319
      -0.326
      -0.294
      -0.226
      -0.142
      -0.058
       0.024
       0.116
       0.225
       0.345
       0.459
       0.551
       0.617
       0.657
       0.677
       0.681
       0.670
       0.640
       0.581
       0.491
       0.379
       0.260
       0.147
       0.044
      -0.051
      -0.143
      -0.231
      -0.309
      -0.366
      -0.395
      -0.397
      -0.382
      -0.358
      -0.323
      -0.269
      -0.189
      -0.090
       0.014
       0.107
       0.188
       0.262
       0.331
       0.388
       0.425
       0.441
       0.442
       0.430
       0.407
       0.370
       0.319
       0.258
       0.194
       0.131
       0.069
       0.005
      -0.064
      -0.133
      -0.197
      -0.251
      -0.298
      -0.345
      -0.399
      -0.455
      -0.494
      -0.496
      -0.466
      -0.435
      -0.427
      -0.429
      -0.395
      -0.290
      -0.134
       0.019
       0.127
       0.194
       0.249
       0.311
       0.373
       0.418
       0.432
       0.416
       0.374
       0.306
       0.220
       0.126
       0.029
      -0.072
      -0.180
      -0.287
      -0.379
      -0.448
      -0.498
      -0.540
      -0.587
      -0.644
      -0.704
      -0.754
      -0.784
      -0.789
      -0.764
      -0.704
      -0.607
      -0.491
      -0.380
      -0.293
      -0.226
      -0.157
      -0.070
       0.030
       0.121
       0.187
       0.225
       0.234
       0.215
       0.166
       0.089
      -0.007
      -0.110
      -0.210
      -0.302
      -0.379
      -0.437
      -0.473
      -0.488
      -0.480
      -0.451
      -0.403
      -0.342
      -0.270
      -0.182
      -0.075
       0.048
       0.179
       0.306
       0.413
       0.488
       0.526
       0.538
       0.548
       0.568
       0.599
       0.624
       0.630
       0.618
       0.592
       0.554
       0.499
       0.419
       0.312
       0.184
       0.055
      -0.052
      -0.123
      -0.161
      -0.182
      -0.201
      -0.222
      -0.234
      -0.226
      -0.193
      -0.133
      -0.051
       0.048
       0.159
       0.270
       0.373
       0.462
       0.537
       0.598
       0.638
       0.650
       0.627
       0.576
       0.512
       0.446
       0.377
       0.292
       0.179
       0.044
      -0.095
      -0.218
      -0.317
      -0.392
      -0.441
      -0.463
      -0.456
      -0.430
      -0.392
      -0.351
      -0.311
      -0.276
      -0.247
      -0.216
      -0.164
      -0.070
       0.074
       0.252
       0.436
       0.603
       0.744
       0.863
       0.958
       1.024
       1.058
       1.059
       1.037
       0.996
       0.931
       0.827
       0.675
       0.483
       0.279
       0.091
      -0.068
      -0.206
      -0.338
      -0.469
      -0.588
      -0.682
      -0.745
      -0.780
      -0.792
      -0.773
      -0.713
      -0.612
      -0.485
      -0.359
      -0.250
      -0.156
      -0.056
       0.067
       0.212
       0.361
       0.491
       0.593
       0.663
       0.702
       0.705
       0.669
       0.596
       0.494
       0.366
       0.206
       0.004
      -0.236
      -0.493
      -0.733
      -0.922
      -1.048
      -1.121
      -1.166
      -1.198
      -1.205
      -1.158
      -1.033
      -0.836
      -0.600
      -0.366
      -0.159
       0.018
       0.178
       0.338
       0.499
       0.645
       0.752
       0.798
       0.779
       0.704
       0.587
       0.440
       0.267
       0.072
      -0.133
      -0.326
      -0.490
      -0.618
      -0.719
      -0.811
      -0.902
      -0.990
      -1.060
      -1.102
      -1.110
      -1.088
      -1.031
      -0.930
      -0.776
      -0.569
      -0.328
      -0.072
       0.188
       0.449
       0.709
       0.951
       1.148
       1.279
       1.333
       1.318
       1.253
       1.153
       1.017
       0.844
       0.640
       0.430
       0.241
       0.084
      -0.054
      -0.196
      -0.352
      -0.512
      -0.648
      -0.735
      -0.767
      -0.755
      -0.718
      -0.668
      -0.616
      -0.568
      -0.526
      -0.483
      -0.425
      -0.344
      -0.233
      -0.093
       0.076
       0.270
       0.472
       0.654
       0.787
       0.855
       0.865
       0.836
       0.785
       0.722
       0.654
       0.583
       0.496
       0.372
       0.191
      -0.050
      -0.336
      -0.639
      -0.929
      -1.167
      -1.315
      -1.346
      -1.262
      -1.098
      -0.907
      -0.733
      -0.588
      -0.451
      -0.291
      -0.090
       0.142
       0.377
       0.590
       0.773
       0.921
       1.022
       1.057
       1.006
       0.865
       0.655
       0.417
       0.196
       0.023
      -0.087
      -0.144
      -0.170
      -0.192
      -0.233
      -0.292
      -0.353
      -0.384
      -0.356
      -0.258
      -0.102
       0.081
       0.262
       0.427
       0.580
       0.732
       0.884
       1.025
       1.133
       1.191
       1.193
       1.146
       1.063
       0.958
       0.842
       0.726
       0.613
       0.497
       0.361
       0.190
      -0.022
      -0.264
      -0.517
      -0.759
      -0.973
      -1.147
      -1.272
      -1.348
      -1.385
      -1.400
      -1.403
      -1.397
      -1.383
      -1.359
      -1.310
      -1.209
      -1.029
      -0.766
      -0.454
      -0.149
       0.105
       0.303
       0.473
       0.654
       0.867
       1.103
       1.329
       1.493
       1.548
       1.482
       1.325
       1.135
       0.955
       0.789
       0.615
       0.415
       0.205
       0.026
      -0.091
      -0.151
      -0.201
      -0.298
      -0.462
      -0.667
      -0.860
      -0.990
      -1.030
      -0.976
      -0.847
      -0.670
      -0.479
      -0.300
      -0.141
       0.004
       0.149
       0.300
       0.445
       0.566
       0.655
       0.720
       0.774
       0.819
       0.840
       0.812
       0.721
       0.573
       0.392
       0.204
       0.028
      -0.128
      -0.267
      -0.399
      -0.531
      -0.666
      -0.800
      -0.920
      -1.012
      -1.060
      -1.056
      -0.999
      -0.903
      -0.782
      -0.646
      -0.497
      -0.339
      -0.181
      -0.041
       0.068
       0.145
       0.215
       0.304
       0.431
       0.586
       0.732
       0.818
       0.802
       0.672
       0.457
       0.216
       0.010
      -0.124
      -0.185
      -0.199
      -0.198
      -0.203
      -0.208
      -0.196
      -0.151
      -0.077
       0.016
       0.113
       0.210
       0.299
       0.370
       0.406
       0.398
       0.355
       0.298
       0.243
       0.190
       0.126
       0.042
      -0.053
      -0.138
      -0.197
      -0.235
      -0.282
      -0.358
      -0.452
      -0.522
      -0.511
      -0.386
      -0.161
       0.099
       0.309
       0.409
       0.385
       0.274
       0.136
       0.021
      -0.056
      -0.108
      -0.160
      -0.220
      -0.270
      -0.277
      -0.221
      -0.108
       0.032
       0.155
       0.229
       0.247
       0.233
       0.225
       0.252
       0.313
       0.372
       0.385
       0.328
       0.208
       0.057
      -0.097
      -0.243
      -0.383
      -0.518
      -0.639
      -0.733
      -0.786
      -0.794
      -0.766
      -0.715
      -0.657
      -0.601
      -0.542
      -0.469
      -0.378
      -0.274
      -0.171
      -0.089
      -0.039
      -0.020
      -0.017
       0.002
       0.070
       0.209
       0.405
       0.619
       0.798
       0.906
       0.930
       0.885
       0.793
       0.677
       0.546
       0.402
       0.242
       0.072
      -0.094
      -0.248
      -0.388
      -0.522
      -0.651
      -0.755
      -0.792
      -0.721
      -0.538
      -0.280
      -0.022
       0.165
       0.250
       0.255
       0.234
       0.237
       0.285
       0.365
       0.445
       0.500
       0.518
       0.498
       0.447
       0.381
       0.317
       0.275
       0.263
       0.270
       0.271
       0.246
       0.186
       0.103
       0.014
      -0.071
      -0.158
      -0.264
      -0.395
      -0.540
      -0.671
      -0.755
      -0.776
      -0.743
      -0.679
      -0.606
      -0.529
      -0.436
      -0.314
      -0.162
       0.001
       0.147
       0.248
       0.297
       0.304
       0.293
       0.286
       0.292
       0.303
       0.301
       0.272
       0.220
       0.175
       0.169
       0.214
       0.286
       0.332
       0.307
       0.206
       0.061
      -0.080
      -0.178
      -0.216
      -0.192
      -0.112
       0.007
       0.133
       0.226
       0.257
       0.230
       0.181
       0.159
       0.190
       0.267
       0.356
       0.423
       0.460
       0.482
       0.512
       0.565
       0.634
       0.697
       0.728
       0.714
       0.656
       0.563
       0.444
       0.307
       0.162
       0.021
      -0.108
      -0.223
      -0.334
      -0.452
      -0.584
      -0.726
      -0.860
      -0.963
      -1.013
      -1.005
      -0.948
      -0.859
      -0.756
      -0.652
      -0.550
      -0.450
      -0.347
      -0.239
      -0.125
      -0.011
       0.102
       0.209
       0.304
       0.375
       0.410
       0.403
       0.359
       0.292
       0.208
       0.105
      -0.024
      -0.176
      -0.336
      -0.481
      -0.594
      -0.663
      -0.679
      -0.637
      -0.539
      -0.404
      -0.260
      -0.137
      -0.057
      -0.026
      -0.040
      -0.086
      -0.134
      -0.149
      -0.101
       0.011
       0.161
       0.309
       0.430
       0.523
       0.600
       0.656
       0.673
       0.626
       0.506
       0.337
       0.160
       0.012
      -0.088
      -0.145
      -0.173
      -0.188
      -0.199
      -0.209
      -0.212
      -0.204
      -0.180
      -0.141
      -0.089
      -0.031
       0.016
       0.034
       0.007
      -0.066
      -0.168
      -0.272
      -0.350
      -0.386
      -0.381
      -0.348
      -0.307
      -0.268
      -0.228
      -0.179
      -0.107
      -0.011
       0.100
       0.208
       0.296
       0.352
       0.371
       0.353
       0.300
       0.220
       0.134
       0.063
       0.021
       0.002
      -0.012
      -0.042
      -0.089
      -0.132
      -0.143
      -0.107
      -0.031
       0.058
       0.141
       0.218
       0.299
       0.381
       0.437
       0.429
       0.342
       0.208
       0.089
       0.047
       0.097
       0.207
       0.316
       0.371
       0.352
       0.272
       0.170
       0.087
       0.045
       0.037
       0.039
       0.027
      -0.006
      -0.059
      -0.126
      -0.205
      -0.290
      -0.369
      -0.417
      -0.407
      -0.324
      -0.177
      -0.003
       0.152
       0.253
       0.298
       0.317
       0.355
       0.448
       0.600
       0.772
       0.903
       0.934
       0.841
       0.642
       0.390
       0.139
      -0.080
      -0.261
      -0.404
      -0.498
      -0.523
      -0.472
      -0.363
      -0.233
      -0.122
      -0.055
      -0.034
      -0.043
      -0.056
      -0.053
      -0.029
      -0.003
      -0.007
      -0.065
      -0.172
      -0.288
