Origin Time       17/9/2010 19:21:09	
Lat.              36.5 N	
Long.             70.8 E	
Depth (Km)        167.0
Magnitude         6.5
 Region           Hindukush                                                        
 Above details taken from IMD 
   
Station Code      KLG
Station Lat.       32.559
Station Long.      77.001
Station Height(m) 3129.0
Site Class        A   Vs30 between 700 m/sec to 1400 m/sec * 
Record Time       17.09.2010 19:23:45.109
Sampling Rate     200. Hz
 Record Duration   71.895 Sec.
 Direction         Vert. (Up positive)
Max. Acceleration     -4.496 cm/sec**2
     
  * For reference see Site Classification link of website 
     
 Base Line Corrected and Low Pass Filtered (Cut Off at 35 Hz) Time History
 Acceleration data in cm/sec**2
    
[...]
      -0.468
      -0.550
      -0.571
      -0.555
      -0.537
      -0.529
      -0.523
      -0.512
      -0.499
      -0.498
      -0.513
      -0.537
      -0.562
      -0.590
      -0.626
      -0.664
      -0.688
      -0.685
      -0.658
      -0.612
      -0.546
      -0.454
      -0.332
      -0.195
      -0.062
       0.049
       0.132
       0.184
       0.200
       0.181
       0.147
       0.122
       0.119
       0.129
       0.136
       0.133
       0.126
       0.132
       0.157
       0.186
       0.192
       0.167
       0.137
       0.134
       0.160
       0.183
       0.182
       0.166
       0.156
       0.151
       0.122
       0.060
       0.000
      -0.009
       0.031
       0.053
      -0.007
      -0.145
      -0.280
      -0.314
      -0.219
      -0.050
       0.091
       0.132
       0.067
      -0.047
      -0.141
      -0.174
      -0.156
      -0.126
      -0.124
      -0.162
      -0.216
      -0.254
      -0.254
      -0.217
      -0.164
      -0.110
      -0.063
      -0.011
       0.072
       0.200
       0.356
       0.496
       0.575
       0.564
       0.468
       0.323
       0.189
       0.123
       0.138
       0.201
       0.265
       0.293
       0.270
       0.206
       0.123
       0.038
      -0.040
      -0.104
      -0.146
      -0.165
      -0.188
      -0.251
      -0.364
      -0.488
      -0.571
      -0.607
      -0.640
      -0.712
      -0.799
      -0.826
      -0.748
      -0.602
      -0.471
      -0.407
      -0.385
      -0.351
      -0.283
      -0.199
      -0.128
      -0.078
      -0.050
      -0.055
      -0.097
      -0.159
      -0.210
      -0.238
      -0.261
      -0.297
      -0.336
      -0.342
      -0.290
      -0.197
      -0.101
      -0.026
       0.034
       0.105
       0.190
       0.278
       0.358
       0.429
       0.487
       0.522
       0.527
       0.519
       0.532
       0.592
       0.692
       0.783
       0.806
       0.741
       0.635
       0.556
       0.544
       0.579
       0.612
       0.601
       0.528
       0.406
       0.275
       0.176
       0.121
       0.084
       0.031
      -0.048
      -0.130
      -0.187
      -0.212
      -0.212
      -0.198
      -0.189
      -0.212
      -0.279
      -0.358
      -0.400
      -0.374
      -0.291
      -0.184
      -0.086
      -0.029
      -0.041
      -0.119
      -0.213
      -0.255
      -0.215
      -0.127
      -0.041
       0.021
       0.080
       0.157
       0.257
       0.369
       0.470
       0.532
       0.532
       0.476
       0.383
       0.278
       0.184
       0.115
       0.059
      -0.019
      -0.143
      -0.289
      -0.402
      -0.448
      -0.438
      -0.410
      -0.398
      -0.409
      -0.434
      -0.458
      -0.473
      -0.470
      -0.435
      -0.360
      -0.270
      -0.211
      -0.197
      -0.191
      -0.145
      -0.059
       0.020
       0.054
       0.054
       0.060
       0.105
       0.188
       0.282
       0.356
       0.399
       0.423
       0.447
       0.477
       0.507
       0.529
       0.549
       0.562
       0.545
       0.468
       0.343
       0.233
       0.199
       0.245
       0.315
       0.349
       0.345
       0.346
       0.383
       0.439
       0.464
       0.428
       0.346
       0.257
       0.179
       0.106
       0.039
       0.000
       0.012
       0.059
       0.108
       0.137
       0.148
       0.141
       0.113
       0.061
      -0.009
      -0.080
      -0.133
      -0.154
      -0.162
      -0.192
      -0.261
      -0.348
      -0.422
      -0.473
      -0.509
      -0.533
      -0.539
      -0.533
      -0.538
      -0.572
      -0.607
      -0.591
      -0.500
      -0.371
      -0.255
      -0.171
      -0.098
      -0.024
       0.038
       0.072
       0.084
       0.095
       0.106
       0.091
       0.025
      -0.079
      -0.175
      -0.228
      -0.238
      -0.237
      -0.252
      -0.288
      -0.328
      -0.349
      -0.331
      -0.276
      -0.220
      -0.212
      -0.271
      -0.360
      -0.417
      -0.406
      -0.340
      -0.259
      -0.200
      -0.180
      -0.202
      -0.252
      -0.305
      -0.330
      -0.324
      -0.313
      -0.324
      -0.362
      -0.400
      -0.405
      -0.362
      -0.277
      -0.171
      -0.065
       0.032
       0.132
       0.259
       0.423
       0.604
       0.761
       0.870
       0.933
       0.959
       0.953
       0.930
       0.922
       0.946
       0.980
       0.980
       0.914
       0.798
       0.677
       0.583
       0.517
       0.460
       0.397
       0.322
       0.230
       0.121
       0.008
      -0.085
      -0.136
      -0.152
      -0.157
      -0.166
      -0.170
      -0.152
      -0.111
      -0.064
      -0.033
      -0.034
      -0.077
      -0.171
      -0.307
      -0.442
      -0.518
      -0.516
      -0.478
      -0.466
      -0.494
      -0.517
      -0.485
      -0.407
      -0.340
      -0.315
      -0.310
      -0.286
      -0.237
      -0.195
      -0.192
      -0.229
      -0.290
      -0.358
      -0.422
      -0.461
      -0.451
      -0.391
      -0.310
      -0.241
      -0.202
      -0.191
      -0.193
      -0.193
      -0.181
      -0.158
      -0.126
      -0.085
      -0.025
       0.058
       0.149
       0.216
       0.233
       0.204
       0.155
       0.102
       0.051
       0.018
       0.031
       0.099
       0.181
       0.214
       0.172
       0.100
       0.069
       0.105
       0.174
       0.228
       0.247
       0.239
       0.226
       0.228
       0.258
       0.304
       0.338
       0.339
       0.311
       0.284
       0.293
       0.356
       0.462
       0.571
       0.624
       0.582
       0.462
       0.337
       0.275
       0.279
       0.290
       0.255
       0.165
       0.038
      -0.106
      -0.249
      -0.371
      -0.459
      -0.514
      -0.544
      -0.549
      -0.523
      -0.459
      -0.356
      -0.223
      -0.081
       0.044
       0.133
       0.192
       0.245
       0.310
       0.380
       0.435
       0.464
       0.454
       0.388
       0.272
       0.157
       0.110
       0.153
       0.231
       0.261
       0.200
       0.078
      -0.044
      -0.123
      -0.156
      -0.161
      -0.159
      -0.179
      -0.236
      -0.306
      -0.325
      -0.253
      -0.131
      -0.061
      -0.109
      -0.227
      -0.309
      -0.293
      -0.223
      -0.178
      -0.183
      -0.186
      -0.134
      -0.043
       0.030
       0.063
       0.101
       0.196
       0.341
       0.464
       0.501
       0.457
       0.397
       0.377
       0.395
       0.409
       0.383
       0.318
       0.243
       0.194
       0.199
       0.266
       0.362
       0.418
       0.382
       0.268
       0.140
       0.059
       0.028
       0.007
      -0.040
      -0.114
      -0.191
      -0.249
      -0.275
      -0.262
      -0.216
      -0.157
      -0.112
      -0.093
      -0.082
      -0.051
       0.015
       0.100
       0.166
       0.169
       0.084
      -0.080
      -0.275
      -0.437
      -0.528
      -0.563
      -0.602
      -0.694
      -0.831
      -0.953
      -1.014
      -1.019
      -1.008
      -1.001
      -0.990
      -0.949
      -0.859
      -0.710
      -0.511
      -0.293
      -0.093
       0.064
       0.162
       0.206
       0.224
       0.253
       0.310
       0.384
       0.459
       0.534
       0.603
       0.634
       0.602
       0.526
       0.469
       0.479
       0.542
       0.599
       0.607
       0.583
       0.575
       0.603
       0.636
       0.617
       0.525
       0.398
       0.299
       0.263
       0.281
       0.325
       0.380
       0.454
       0.551
       0.644
       0.680
       0.633
       0.527
       0.421
       0.342
       0.249
       0.087
      -0.147
      -0.374
      -0.506
      -0.520
      -0.483
      -0.476
      -0.518
      -0.557
      -0.524
      -0.406
      -0.254
      -0.137
      -0.093
      -0.105
      -0.128
      -0.123
      -0.095
      -0.080
      -0.115
      -0.211
      -0.330
      -0.417
      -0.437
      -0.407
      -0.381
      -0.399
      -0.451
      -0.486
      -0.476
      -0.454
      -0.492
      -0.628
      -0.813
      -0.948
      -0.967
      -0.896
      -0.820
      -0.784
      -0.747
      -0.638
      -0.453
      -0.278
      -0.205
      -0.233
      -0.281
      -0.291
      -0.304
      -0.404
      -0.591
      -0.750
      -0.760
      -0.625
      -0.471
      -0.411
      -0.446
      -0.485
      -0.459
      -0.383
      -0.319
      -0.295
      -0.276
      -0.206
      -0.076
       0.073
       0.195
       0.293
       0.417
       0.610
       0.865
       1.125
       1.341
       1.512
       1.675
       1.855
       2.033
       2.172
       2.259
       2.304
       2.322
       2.309
       2.259
       2.184
       2.109
       2.039
       1.952
       1.822
       1.647
       1.444
       1.230
       1.016
       0.806
       0.605
       0.403
       0.193
      -0.013
      -0.175
      -0.260
      -0.291
      -0.337
      -0.451
      -0.608
      -0.732
      -0.770
      -0.753
      -0.761
      -0.857
      -1.031
      -1.220
      -1.356
      -1.404
      -1.382
      -1.349
      -1.365
      -1.442
      -1.541
      -1.610
      -1.625
      -1.600
      -1.558
      -1.514
      -1.461
      -1.377
      -1.248
      -1.080
      -0.896
      -0.718
      -0.560
      -0.443
      -0.372
      -0.330
      -0.289
      -0.246
      -0.232
      -0.270
      -0.336
      -0.388
      -0.407
      -0.410
      -0.415
      -0.405
      -0.336
      -0.201
      -0.050
       0.058
       0.120
       0.195
       0.331
       0.506
       0.644
       0.703
       0.729
       0.804
       0.961
       1.154
       1.308
       1.401
       1.474
       1.581
       1.730
       1.867
       1.926
       1.872
       1.728
       1.548
       1.376
       1.222
       1.077
       0.927
       0.780
       0.663
       0.584
       0.518
       0.421
       0.279
       0.129
       0.021
      -0.038
      -0.093
      -0.197
      -0.351
      -0.502
      -0.602
      -0.642
      -0.643
      -0.633
      -0.641
      -0.682
      -0.749
      -0.816
      -0.861
      -0.892
      -0.948
      -1.057
      -1.208
      -1.359
      -1.471
      -1.520
      -1.495
      -1.395
      -1.247
      -1.099
      -0.980
      -0.883
      -0.780
      -0.653
      -0.505
      -0.366
      -0.283
      -0.272
      -0.303
      -0.324
      -0.312
      -0.285
      -0.265
      -0.246
      -0.206
      -0.119
       0.045
       0.314
       0.686
       1.092
       1.418
       1.601
       1.692
       1.819
       2.057
       2.342
       2.529
       2.520
       2.346
       2.118
       1.927
       1.778
       1.624
       1.435
       1.231
       1.059
       0.947
       0.882
       0.836
       0.784
       0.718
       0.637
       0.545
       0.451
       0.368
       0.298
       0.235
       0.169
       0.083
      -0.041
      -0.222
      -0.448
      -0.676
      -0.847
      -0.953
      -1.049
      -1.212
      -1.454
      -1.698
      -1.846
      -1.882
      -1.867
      -1.864
      -1.882
      -1.903
      -1.937
      -2.020
      -2.163
      -2.324
      -2.442
      -2.514
      -2.597
      -2.740
      -2.911
      -3.011
      -2.972
      -2.827
      -2.684
      -2.626
      -2.644
      -2.647
      -2.539
      -2.294
      -1.961
      -1.619
      -1.320
      -1.078
      -0.879
      -0.704
      -0.518
      -0.281
       0.027
       0.378
       0.692
       0.899
       0.997
       1.061
       1.177
       1.365
       1.559
       1.681
       1.713
       1.721
       1.774
       1.875
       1.967
       2.003
       1.996
       1.998
       2.040
       2.109
       2.176
       2.237
       2.318
       2.439
       2.586
       2.722
       2.813
       2.857
       2.867
       2.859
       2.848
       2.846
       2.854
       2.842
       2.760
       2.570
       2.281
       1.943
       1.602
       1.273
       0.941
       0.603
       0.276
      -0.021
      -0.295
      -0.572
      -0.858
      -1.114
      -1.296
      -1.410
      -1.518
      -1.677
      -1.879
      -2.064
      -2.190
      -2.279
      -2.382
      -2.516
      -2.648
      -2.747
      -2.825
      -2.918
      -3.031
      -3.118
      -3.132
      -3.081
      -3.016
      -2.969
      -2.912
      -2.785
      -2.557
      -2.254
      -1.934
      -1.634
      -1.368
      -1.136
      -0.922
      -0.693
      -0.426
      -0.151
       0.058
       0.161
       0.203
       0.284
       0.456
       0.671
       0.849
       0.979
       1.126
       1.358
       1.669
       1.985
       2.240
       2.434
       2.621
       2.843
       3.088
       3.295
       3.415
       3.449
       3.439
       3.419
       3.382
       3.302
       3.183
       3.076
       3.018
       2.988
       2.922
       2.770
       2.537
       2.263
       1.993
       1.746
       1.508
       1.249
       0.955
       0.640
       0.327
       0.023
      -0.291
      -0.635
      -0.995
      -1.328
      -1.602
      -1.823
      -2.029
      -2.252
      -2.515
      -2.812
      -3.111
      -3.366
      -3.575
      -3.785
      -4.035
      -4.293
      -4.469
      -4.496
      -4.395
      -4.250
      -4.141
      -4.068
      -3.962
      -3.754
      -3.446
      -3.102
      -2.786
      -2.521
      -2.300
      -2.112
      -1.925
      -1.693
      -1.388
      -1.045
      -0.751
      -0.566
      -0.455
      -0.311
      -0.051
       0.309
       0.673
       0.959
       1.180
       1.433
       1.817
       2.322
       2.802
       3.098
       3.203
       3.279
       3.470
       3.723
       3.852
       3.768
       3.594
       3.512
       3.526
       3.450
       3.144
       2.706
       2.388
       2.322
       2.380
       2.319
       2.046
       1.696
       1.451
       1.345
       1.276
       1.175
       1.088
       1.074
       1.092
       1.036
       0.878
       0.715
       0.650
       0.657
       0.605
       0.406
       0.120
      -0.119
      -0.243
      -0.321
      -0.472
      -0.742
      -1.083
      -1.411
      -1.677
      -1.885
      -2.070
      -2.263
      -2.485
      -2.734
      -2.975
      -3.146
      -3.208
      -3.183
      -3.132
      -3.104
      -3.091
      -3.048
      -2.944
      -2.793
      -2.630
      -2.483
      -2.363
      -2.283
      -2.243
      -2.218
      -2.163
      -2.054
      -1.909
      -1.765
      -1.634
      -1.499
      -1.349
      -1.204
      -1.097
      -1.024
      -0.937
      -0.791
      -0.599
      -0.424
      -0.289
      -0.131
       0.132
       0.488
       0.815
       1.020
       1.159
       1.382
       1.752
       2.159
       2.438
       2.537
       2.560
       2.652
       2.861
       3.105
       3.269
       3.308
       3.273
       3.251
       3.294
       3.391
       3.496
       3.574
       3.636
       3.708
       3.785
       3.824
       3.770
       3.601
       3.340
       3.037
       2.723
       2.390
       1.991
       1.481
       0.869
       0.238
      -0.293
      -0.651
      -0.866
      -1.038
      -1.242
      -1.457
      -1.603
      -1.628
      -1.564
      -1.509
      -1.550
      -1.686
      -1.822
      -1.846
      -1.723
      -1.518
      -1.335
      -1.225
      -1.175
      -1.152
      -1.153
      -1.195
      -1.266
      -1.318
      -1.319
      -1.298
      -1.322
      -1.420
      -1.542
      -1.618
      -1.634
      -1.642
      -1.692
      -1.765
      -1.786
      -1.695
      -1.499
      -1.254
      -1.014
      -0.810
      -0.652
      -0.536
      -0.437
      -0.329
      -0.210
      -0.121
      -0.101
      -0.148
      -0.205
      -0.207
      -0.136
      -0.026
       0.067
       0.128
       0.190
       0.310
       0.502
       0.721
       0.906
       1.049
       1.180
       1.301
       1.363
       1.325
       1.222
       1.136
       1.115
       1.126
       1.108
       1.033
       0.937
       0.868
       0.843
       0.836
       0.814
       0.764
       0.689
       0.612
       0.566
       0.568
       0.605
       0.640
       0.647
       0.638
       0.652
       0.712
       0.808
       0.905
       0.980
       1.031
       1.064
       1.086
       1.097
       1.104
       1.112
       1.121
       1.127
       1.123
       1.103
       1.051
       0.942
       0.767
       0.549
       0.327
       0.108
      -0.137
      -0.431
      -0.735
      -0.968
      -1.090
      -1.153
      -1.242
      -1.379
      -1.497
      -1.509
      -1.404
      -1.261
      -1.185
      -1.218
      -1.300
      -1.331
      -1.277
      -1.199
      -1.177
      -1.221
      -1.272
      -1.271
      -1.207
      -1.099
      -0.969
      -0.849
      -0.775
      -0.773
      -0.839
      -0.938
      -1.033
      -1.105
      -1.163
      -1.224
      -1.300
      -1.394
      -1.502
      -1.611
      -1.694
      -1.723
      -1.698
      -1.643
      -1.581
      -1.505
      -1.394
      -1.241
      -1.069
      -0.891
      -0.687
      -0.428
      -0.125
       0.159
       0.371
       0.528
       0.705
       0.955
       1.247
       1.483
       1.581
       1.550
       1.489
       1.503
       1.618
       1.768
       1.861
       1.857
       1.789
       1.723
       1.710
       1.751
       1.800
       1.796
       1.717
       1.596
       1.498
       1.470
       1.524
       1.634
       1.754
       1.836
       1.861
       1.834
       1.761
       1.636
       1.466
       1.290
       1.151
       1.037
       0.885
       0.653
       0.385
       0.183
       0.104
       0.090
       0.014
      -0.182
      -0.409
      -0.516
      -0.448
      -0.307
      -0.258
      -0.353
      -0.495
      -0.540
      -0.447
      -0.305
      -0.240
      -0.295
      -0.419
      -0.535
      -0.611
      -0.667
      -0.739
      -0.852
      -1.019
      -1.244
      -1.505
      -1.751
      -1.937
      -2.060
      -2.164
      -2.280
      -2.389
      -2.434
      -2.392
      -2.316
      -2.299
      -2.369
      -2.438
      -2.381
      -2.171
      -1.913
      -1.726
      -1.613
      -1.471
      -1.213
      -0.861
      -0.522
      -0.273
      -0.099
       0.069
       0.264
       0.456
       0.606
       0.728
       0.873
       1.059
       1.242
       1.360
       1.397
       1.399
       1.410
       1.416
       1.361
       1.220
       1.051
       0.962
       1.020
       1.195
       1.378
       1.468
       1.456
       1.411
       1.406
       1.447
       1.485
       1.485
       1.454
       1.425
       1.416
       1.431
       1.480
       1.576
       1.720
       1.879
       2.011
       2.092
       2.127
       2.115
       2.032
       1.851
       1.592
       1.316
       1.080
       0.888
       0.697
       0.471
       0.212
      -0.041
      -0.256
      -0.423
      -0.550
      -0.640
      -0.696
