Origin Time       09/2/2011 19:17:29	
Lat.              30.9 N	
Long.             78.2 E	
Depth (Km)         10.0
Magnitude         5.0
 Region           UTTARKASHI-UTTARAKHAND                                           
 Above details taken from IMD 
     
Station Code      KLU
Station Lat.       31.951  N
Station Long.      77.112  E
Station Height(m) 1234.0
Site Class        A   Vs30 between 700 m/sec to 1400 m/sec * 
Record Time       09.02.2012 19:17:50.259
Sampling Rate     200. Hz
 Record Duration   82.525 Sec.
 Direction         E-W (E positive)
Max. Acceleration      3.834 cm/sec**2
     
  * For reference see Site Classification link of website 
     
 Base Line Corrected and Low Pass Filtered (Cut Off at 35 Hz) Time History
 Acceleration data in cm/sec**2
    
[...]
       0.023
      -0.010
      -0.042
      -0.070
      -0.090
      -0.107
      -0.120
      -0.130
      -0.137
      -0.138
      -0.130
      -0.111
      -0.080
      -0.044
      -0.010
       0.019
       0.045
       0.071
       0.096
       0.115
       0.123
       0.120
       0.108
       0.089
       0.060
       0.017
      -0.040
      -0.107
      -0.173
      -0.223
      -0.247
      -0.245
      -0.225
      -0.201
      -0.187
      -0.181
      -0.173
      -0.145
      -0.094
      -0.028
       0.033
       0.072
       0.090
       0.097
       0.108
       0.131
       0.166
       0.206
       0.247
       0.284
       0.311
       0.321
       0.308
       0.270
       0.210
       0.137
       0.060
      -0.017
      -0.087
      -0.147
      -0.196
      -0.229
      -0.246
      -0.249
      -0.240
      -0.221
      -0.190
      -0.143
      -0.080
      -0.009
       0.055
       0.095
       0.104
       0.082
       0.037
      -0.021
      -0.084
      -0.146
      -0.198
      -0.229
      -0.229
      -0.196
      -0.136
      -0.063
       0.009
       0.070
       0.115
       0.140
       0.141
       0.111
       0.051
      -0.030
      -0.108
      -0.159
      -0.165
      -0.127
      -0.060
       0.016
       0.081
       0.121
       0.129
       0.108
       0.072
       0.044
       0.043
       0.072
       0.114
       0.146
       0.151
       0.129
       0.095
       0.060
       0.031
       0.004
      -0.029
      -0.072
      -0.121
      -0.167
      -0.198
      -0.204
      -0.185
      -0.142
      -0.087
      -0.032
       0.005
       0.013
      -0.009
      -0.046
      -0.076
      -0.081
      -0.056
      -0.007
       0.054
       0.115
       0.168
       0.205
       0.221
       0.209
       0.166
       0.098
       0.023
      -0.036
      -0.064
      -0.062
      -0.042
      -0.019
      -0.007
      -0.009
      -0.018
      -0.021
      -0.013
       0.003
       0.012
       0.002
      -0.031
      -0.075
      -0.107
      -0.106
      -0.060
       0.021
       0.112
       0.183
       0.213
       0.202
       0.170
       0.139
       0.124
       0.115
       0.095
       0.050
      -0.012
      -0.067
      -0.091
      -0.072
      -0.023
       0.034
       0.077
       0.091
       0.079
       0.050
       0.019
      -0.003
      -0.012
      -0.015
      -0.020
      -0.034
      -0.055
      -0.074
      -0.083
      -0.074
      -0.049
      -0.011
       0.029
       0.065
       0.091
       0.102
       0.095
       0.067
       0.019
      -0.045
      -0.114
      -0.173
      -0.218
      -0.246
      -0.262
      -0.266
      -0.255
      -0.231
      -0.196
      -0.156
      -0.117
      -0.074
      -0.022
       0.042
       0.111
       0.165
       0.186
       0.161
       0.092
      -0.009
      -0.123
      -0.233
      -0.325
      -0.390
      -0.424
      -0.425
      -0.394
      -0.334
      -0.255
      -0.171
      -0.089
      -0.014
       0.057
       0.124
       0.185
       0.237
       0.276
       0.301
       0.314
       0.315
       0.303
       0.276
       0.238
       0.192
       0.143
       0.095
       0.048
       0.001
      -0.045
      -0.089
      -0.124
      -0.146
      -0.154
      -0.152
      -0.148
      -0.147
      -0.150
      -0.154
      -0.154
      -0.149
      -0.141
      -0.134
      -0.132
      -0.126
      -0.104
      -0.053
       0.035
       0.155
       0.297
       0.444
       0.578
       0.679
       0.732
       0.730
       0.677
       0.580
       0.450
       0.297
       0.135
      -0.015
      -0.130
      -0.190
      -0.194
      -0.161
      -0.121
      -0.096
      -0.094
      -0.107
      -0.128
      -0.148
      -0.163
      -0.167
      -0.152
      -0.113
      -0.055
       0.006
       0.051
       0.065
       0.046
       0.005
      -0.045
      -0.091
      -0.126
      -0.151
      -0.169
      -0.182
      -0.188
      -0.182
      -0.160
      -0.127
      -0.096
      -0.076
      -0.069
      -0.070
      -0.064
      -0.044
      -0.009
       0.032
       0.067
       0.085
       0.080
       0.055
       0.010
      -0.048
      -0.114
      -0.180
      -0.235
      -0.269
      -0.275
      -0.253
      -0.204
      -0.128
      -0.030
       0.076
       0.161
       0.196
       0.168
       0.086
      -0.023
      -0.131
      -0.220
      -0.284
      -0.325
      -0.340
      -0.326
      -0.279
      -0.201
      -0.098
       0.021
       0.148
       0.277
       0.398
       0.500
       0.570
       0.601
       0.589
       0.538
       0.455
       0.348
       0.224
       0.096
      -0.019
      -0.107
      -0.165
      -0.196
      -0.212
      -0.220
      -0.227
      -0.234
      -0.240
      -0.240
      -0.236
      -0.227
      -0.214
      -0.200
      -0.186
      -0.177
      -0.172
      -0.165
      -0.147
      -0.106
      -0.038
       0.052
       0.150
       0.240
       0.307
       0.343
       0.343
       0.306
       0.239
       0.159
       0.081
       0.017
      -0.028
      -0.057
      -0.077
      -0.093
      -0.106
      -0.115
      -0.117
      -0.109
      -0.090
      -0.062
      -0.027
       0.013
       0.060
       0.114
       0.177
       0.244
       0.310
       0.363
       0.393
       0.388
       0.345
       0.271
       0.181
       0.099
       0.046
       0.034
       0.054
       0.088
       0.109
       0.103
       0.066
       0.006
      -0.068
      -0.150
      -0.235
      -0.316
      -0.384
      -0.427
      -0.437
      -0.413
      -0.357
      -0.276
      -0.178
      -0.075
       0.016
       0.077
       0.094
       0.066
       0.004
      -0.071
      -0.143
      -0.201
      -0.244
      -0.275
      -0.294
      -0.295
      -0.272
      -0.222
      -0.150
      -0.064
       0.023
       0.104
       0.168
       0.210
       0.225
       0.215
       0.183
       0.140
       0.101
       0.074
       0.062
       0.056
       0.046
       0.024
      -0.009
      -0.050
      -0.087
      -0.108
      -0.106
      -0.084
      -0.052
      -0.024
      -0.008
      -0.006
      -0.017
      -0.033
      -0.050
      -0.060
      -0.058
      -0.042
      -0.014
       0.025
       0.072
       0.124
       0.177
       0.222
       0.251
       0.259
       0.247
       0.221
       0.184
       0.135
       0.067
      -0.025
      -0.135
      -0.246
      -0.334
      -0.383
      -0.389
      -0.359
      -0.306
      -0.245
      -0.189
      -0.141
      -0.102
      -0.073
      -0.056
      -0.051
      -0.052
      -0.046
      -0.018
       0.040
       0.124
       0.217
       0.301
       0.365
       0.411
       0.445
       0.470
       0.477
       0.457
       0.403
       0.320
       0.224
       0.129
       0.043
      -0.032
      -0.098
      -0.151
      -0.183
      -0.183
      -0.146
      -0.083
      -0.014
       0.038
       0.055
       0.039
      -0.002
      -0.054
      -0.106
      -0.154
      -0.200
      -0.244
      -0.283
      -0.314
      -0.333
      -0.335
      -0.318
      -0.286
      -0.246
      -0.209
      -0.179
      -0.148
      -0.105
      -0.041
       0.037
       0.104
       0.130
       0.103
       0.033
      -0.053
      -0.129
      -0.183
      -0.215
      -0.225
      -0.210
      -0.163
      -0.080
       0.030
       0.154
       0.278
       0.388
       0.472
       0.516
       0.514
       0.463
       0.375
       0.264
       0.146
       0.033
      -0.071
      -0.162
      -0.236
      -0.290
      -0.324
      -0.346
      -0.361
      -0.366
      -0.352
      -0.311
      -0.243
      -0.159
      -0.067
       0.029
       0.127
       0.221
       0.298
       0.341
       0.342
       0.306
       0.255
       0.208
       0.181
       0.176
       0.185
       0.202
       0.218
       0.224
       0.214
       0.185
       0.144
       0.103
       0.075
       0.064
       0.065
       0.068
       0.065
       0.050
       0.024
      -0.010
      -0.051
      -0.098
      -0.152
      -0.209
      -0.258
      -0.286
      -0.285
      -0.253
      -0.199
      -0.130
      -0.053
       0.030
       0.114
       0.188
       0.235
       0.243
       0.213
       0.157
       0.091
       0.019
      -0.062
      -0.155
      -0.252
      -0.334
      -0.386
      -0.406
      -0.408
      -0.412
      -0.432
      -0.464
      -0.490
      -0.494
      -0.467
      -0.418
      -0.364
      -0.318
      -0.281
      -0.243
      -0.187
      -0.097
       0.028
       0.179
       0.338
       0.482
       0.596
       0.675
       0.719
       0.739
       0.743
       0.731
       0.692
       0.614
       0.488
       0.329
       0.168
       0.041
      -0.035
      -0.073
      -0.112
      -0.188
      -0.314
      -0.473
      -0.633
      -0.761
      -0.835
      -0.852
      -0.816
      -0.739
      -0.631
      -0.507
      -0.376
      -0.238
      -0.088
       0.075
       0.242
       0.385
       0.477
       0.507
       0.491
       0.464
       0.454
       0.472
       0.508
       0.550
       0.595
       0.652
       0.732
       0.832
       0.939
       1.028
       1.079
       1.078
       1.023
       0.917
       0.771
       0.597
       0.408
       0.222
       0.057
      -0.076
      -0.174
      -0.248
      -0.316
      -0.390
      -0.478
      -0.580
      -0.692
      -0.810
      -0.930
      -1.045
      -1.144
      -1.206
      -1.211
      -1.147
      -1.015
      -0.830
      -0.618
      -0.408
      -0.223
      -0.077
       0.020
       0.067
       0.073
       0.056
       0.038
       0.037
       0.063
       0.115
       0.185
       0.268
       0.358
       0.452
       0.545
       0.626
       0.682
       0.703
       0.683
       0.619
       0.515
       0.388
       0.264
       0.164
       0.097
       0.050
       0.007
      -0.042
      -0.092
      -0.130
      -0.151
      -0.164
      -0.185
      -0.223
      -0.272
      -0.321
      -0.359
      -0.390
      -0.426
      -0.481
      -0.561
      -0.657
      -0.749
      -0.813
      -0.835
      -0.811
      -0.751
      -0.675
      -0.601
      -0.545
      -0.517
      -0.518
      -0.543
      -0.581
      -0.616
      -0.635
      -0.623
      -0.571
      -0.468
      -0.306
      -0.080
       0.205
       0.528
       0.856
       1.153
       1.388
       1.546
       1.619
       1.602
       1.488
       1.278
       0.983
       0.630
       0.252
      -0.116
      -0.444
      -0.713
      -0.913
      -1.041
      -1.094
      -1.066
      -0.952
      -0.747
      -0.459
      -0.109
       0.268
       0.635
       0.950
       1.185
       1.325
       1.382
       1.383
       1.359
       1.323
       1.264
       1.153
       0.959
       0.669
       0.290
      -0.157
      -0.648
      -1.154
      -1.638
      -2.059
      -2.381
      -2.585
      -2.668
      -2.632
      -2.480
      -2.208
      -1.822
      -1.339
      -0.787
      -0.191
       0.438
       1.095
       1.765
       2.407
       2.965
       3.383
       3.628
       3.700
       3.613
       3.386
       3.028
       2.540
       1.935
       1.239
       0.498
      -0.238
      -0.923
      -1.531
      -2.044
      -2.457
      -2.769
      -2.987
      -3.124
      -3.197
      -3.223
      -3.205
      -3.135
      -2.992
      -2.757
      -2.426
      -2.014
      -1.556
      -1.086
      -0.635
      -0.219
       0.158
       0.496
       0.793
       1.044
       1.240
       1.379
       1.473
       1.551
       1.641
       1.763
       1.906
       2.044
       2.140
       2.173
       2.129
       2.007
       1.812
       1.560
       1.278
       1.002
       0.770
       0.616
       0.561
       0.603
       0.721
       0.875
       1.017
       1.112
       1.148
       1.134
       1.083
       0.994
       0.852
       0.643
       0.367
       0.046
      -0.286
      -0.601
      -0.881
      -1.124
      -1.335
      -1.513
      -1.655
      -1.756
      -1.817
      -1.843
      -1.846
      -1.835
      -1.817
      -1.786
      -1.728
      -1.629
      -1.478
      -1.272
      -1.014
      -0.719
      -0.410
      -0.116
       0.149
       0.386
       0.610
       0.842
       1.089
       1.342
       1.569
       1.729
       1.782
       1.702
       1.485
       1.153
       0.740
       0.282
      -0.199
      -0.683
      -1.146
      -1.553
      -1.866
      -2.066
      -2.145
      -2.108
      -1.952
      -1.671
      -1.265
      -0.753
      -0.171
       0.435
       1.023
       1.555
       2.000
       2.327
       2.512
       2.551
       2.460
       2.272
       2.022
       1.736
       1.433
       1.128
       0.840
       0.589
       0.383
       0.220
       0.090
      -0.014
      -0.090
      -0.135
      -0.153
      -0.164
      -0.195
      -0.272
      -0.422
      -0.661
      -0.989
      -1.392
      -1.833
      -2.265
      -2.642
      -2.928
      -3.108
      -3.187
      -3.179
      -3.100
      -2.955
      -2.740
      -2.454
      -2.113
      -1.747
      -1.393
      -1.078
      -0.812
      -0.586
      -0.379
      -0.165
       0.085
       0.389
       0.753
       1.173
       1.634
       2.117
       2.594
       3.034
       3.406
       3.684
       3.834
       3.813
       3.579
       3.112
       2.435
       1.611
       0.729
      -0.117
      -0.848
      -1.406
      -1.760
      -1.897
      -1.823
      -1.556
      -1.127
      -0.580
       0.030
       0.644
       1.208
       1.683
       2.041
       2.268
       2.351
       2.289
       2.096
       1.801
       1.448
       1.071
       0.682
       0.268
      -0.190
      -0.697
      -1.233
      -1.757
      -2.227
      -2.614
      -2.902
      -3.086
      -3.166
      -3.154
      -3.066
      -2.916
      -2.708
      -2.433
      -2.084
      -1.670
      -1.217
      -0.754
      -0.304
       0.120
       0.512
       0.861
       1.147
       1.358
       1.488
       1.544
       1.546
       1.523
       1.499
       1.492
       1.506
       1.535
       1.567
       1.591
       1.596
       1.575
       1.518
       1.414
       1.244
       0.991
       0.652
       0.253
      -0.162
      -0.533
      -0.815
      -0.987
      -1.054
      -1.031
      -0.926
      -0.741
      -0.483
      -0.175
       0.151
       0.459
       0.713
       0.883
       0.955
       0.931
       0.824
       0.658
       0.465
       0.281
       0.143
       0.077
       0.086
       0.144
       0.203
       0.203
       0.100
      -0.124
      -0.450
      -0.835
      -1.223
      -1.565
      -1.822
      -1.970
      -2.002
      -1.929
      -1.775
      -1.569
      -1.335
      -1.087
      -0.836
      -0.584
      -0.337
      -0.112
       0.062
       0.155
       0.155
       0.081
      -0.027
      -0.119
      -0.162
      -0.147
      -0.074
       0.053
       0.230
       0.442
       0.655
       0.823
       0.903
       0.874
       0.746
       0.554
       0.345
       0.155
       0.000
      -0.113
      -0.182
      -0.197
      -0.148
      -0.026
       0.167
       0.411
       0.664
       0.877
       1.017
       1.081
       1.093
       1.083
       1.069
       1.050
       1.017
       0.972
       0.932
       0.927
       0.985
       1.113
       1.289
       1.468
       1.590
       1.598
       1.458
       1.163
       0.735
       0.212
      -0.359
      -0.923
      -1.428
      -1.827
      -2.091
      -2.213
      -2.215
      -2.141
      -2.041
      -1.953
      -1.894
      -1.866
      -1.856
      -1.849
      -1.833
      -1.805
      -1.765
      -1.719
      -1.668
      -1.611
      -1.541
      -1.446
      -1.310
      -1.108
      -0.814
      -0.415
       0.079
       0.629
       1.178
       1.664
       2.036
       2.259
       2.325
       2.248
       2.049
       1.750
       1.373
       0.947
       0.502
       0.070
      -0.326
      -0.662
      -0.913
      -1.047
      -1.034
      -0.862
      -0.550
      -0.149
       0.277
       0.676
       1.024
       1.319
       1.569
       1.773
       1.915
       1.972
       1.927
       1.781
       1.558
       1.300
       1.050
       0.833
       0.654
       0.492
       0.318
       0.120
      -0.090
      -0.286
      -0.445
      -0.561
      -0.648
      -0.721
      -0.781
      -0.819
      -0.823
      -0.793
      -0.739
      -0.669
      -0.588
      -0.495
      -0.406
      -0.348
      -0.355
      -0.449
      -0.631
      -0.884
      -1.184
      -1.507
      -1.825
      -2.110
      -2.330
      -2.463
      -2.493
      -2.398
      -2.160
      -1.765
      -1.226
      -0.588
       0.077
       0.691
       1.189
       1.526
       1.681
       1.655
       1.467
       1.158
       0.788
       0.429
       0.149
      -0.010
      -0.034
       0.061
       0.244
       0.488
       0.773
       1.085
       1.408
       1.716
       1.979
       2.175
       2.291
       2.327
       2.284
       2.164
       1.977
       1.735
       1.448
       1.115
       0.732
       0.303
      -0.155
      -0.615
      -1.045
      -1.407
      -1.655
      -1.752
      -1.676
      -1.440
      -1.085
      -0.679
      -0.296
       0.003
       0.180
       0.229
       0.168
       0.027
      -0.157
      -0.356
      -0.555
      -0.757
      -0.985
      -1.261
      -1.593
      -1.958
      -2.309
      -2.595
      -2.789
      -2.890
      -2.897
      -2.787
      -2.519
      -2.064
      -1.433
      -0.693
       0.062
       0.739
       1.265
       1.599
       1.738
       1.722
       1.615
       1.484
       1.370
       1.287
       1.237
       1.228
       1.277
       1.396
       1.569
       1.750
       1.892
       1.969
       1.984
       1.950
       1.869
       1.719
       1.469
       1.107
       0.660
       0.204
      -0.177
      -0.429
      -0.556
      -0.608
      -0.650
      -0.729
      -0.863
      -1.039
      -1.231
      -1.411
      -1.553
      -1.636
      -1.644
      -1.566
      -1.396
      -1.125
      -0.753
      -0.300
       0.192
       0.663
       1.055
       1.329
       1.479
       1.534
       1.535
       1.521
       1.509
       1.492
       1.441
       1.333
       1.158
       0.934
       0.690
       0.462
       0.280
       0.165
       0.119
       0.138
       0.209
       0.318
       0.441
       0.543
       0.581
       0.513
       0.310
      -0.031
      -0.493
      -1.034
      -1.588
      -2.073
      -2.406
      -2.529
      -2.424
      -2.109
      -1.630
      -1.048
      -0.431
       0.157
       0.664
       1.048
       1.280
       1.347
       1.254
       1.017
       0.665
       0.238
      -0.213
      -0.639
      -1.005
      -1.293
      -1.501
      -1.634
      -1.702
      -1.727
      -1.732
      -1.725
      -1.688
      -1.587
      -1.396
      -1.114
      -0.758
      -0.359
       0.037
       0.389
       0.661
       0.840
       0.933
       0.956
