Origin Time       09/2/2011 19:17:29	
Lat.              30.9 N	
Long.             78.2 E	
Depth (Km)         10.0
Magnitude         5.0
 Region           UTTARKASHI-UTTARAKHAND                                           
 Above details taken from IMD 
   
Station Code      KLU
Station Lat.       31.951
Station Long.      77.112
Station Height(m) 1234.0
Site Class        A   Vs30 between 700 m/sec to 1400 m/sec * 
Record Time       09.02.2012 19:17:50.259
Sampling Rate     200. Hz
 Record Duration   82.525 Sec.
 Direction         Vert. (Up positive)
Max. Acceleration     -2.982 cm/sec**2
     
  * For reference see Site Classification link of website 
     
 Base Line Corrected and Low Pass Filtered (Cut Off at 35 Hz) Time History
 Acceleration data in cm/sec**2
    
[...]
      -0.069
      -0.154
      -0.195
      -0.184
      -0.128
      -0.044
       0.053
       0.153
       0.238
       0.293
       0.305
       0.278
       0.221
       0.146
       0.066
      -0.008
      -0.067
      -0.111
      -0.147
      -0.183
      -0.221
      -0.258
      -0.285
      -0.291
      -0.272
      -0.227
      -0.158
      -0.062
       0.063
       0.203
       0.322
       0.377
       0.341
       0.219
       0.046
      -0.128
      -0.255
      -0.305
      -0.272
      -0.176
      -0.054
       0.055
       0.126
       0.156
       0.165
       0.183
       0.233
       0.311
       0.383
       0.401
       0.335
       0.192
       0.016
      -0.137
      -0.229
      -0.256
      -0.240
      -0.209
      -0.180
      -0.153
      -0.128
      -0.108
      -0.096
      -0.090
      -0.085
      -0.075
      -0.059
      -0.034
      -0.003
       0.028
       0.059
       0.092
       0.133
       0.178
       0.206
       0.205
       0.178
       0.145
       0.126
       0.125
       0.133
       0.134
       0.113
       0.054
      -0.041
      -0.146
      -0.228
      -0.258
      -0.227
      -0.137
      -0.001
       0.151
       0.281
       0.349
       0.340
       0.261
       0.136
      -0.008
      -0.144
      -0.258
      -0.353
      -0.440
      -0.520
      -0.577
      -0.596
      -0.576
      -0.523
      -0.439
      -0.316
      -0.146
       0.062
       0.286
       0.490
       0.641
       0.718
       0.721
       0.663
       0.558
       0.412
       0.231
       0.031
      -0.167
      -0.346
      -0.497
      -0.612
      -0.673
      -0.656
      -0.551
      -0.367
      -0.138
       0.092
       0.270
       0.358
       0.350
       0.272
       0.168
       0.074
       0.009
      -0.021
      -0.021
      -0.003
       0.019
       0.034
       0.040
       0.039
       0.037
       0.034
       0.032
       0.029
       0.025
       0.019
       0.015
       0.013
       0.008
      -0.008
      -0.027
      -0.023
       0.025
       0.110
       0.191
       0.225
       0.190
       0.095
      -0.028
      -0.140
      -0.211
      -0.230
      -0.206
      -0.148
      -0.066
       0.026
       0.103
       0.135
       0.115
       0.055
      -0.028
      -0.118
      -0.201
      -0.254
      -0.259
      -0.212
      -0.127
      -0.024
       0.084
       0.192
       0.297
       0.395
       0.482
       0.542
       0.551
       0.490
       0.370
       0.225
       0.092
      -0.008
      -0.069
      -0.091
      -0.078
      -0.037
       0.014
       0.054
       0.064
       0.036
      -0.026
      -0.104
      -0.177
      -0.227
      -0.251
      -0.251
      -0.229
      -0.182
      -0.109
      -0.017
       0.071
       0.130
       0.141
       0.107
       0.049
      -0.012
      -0.067
      -0.115
      -0.145
      -0.140
      -0.086
       0.006
       0.106
       0.181
       0.216
       0.212
       0.176
       0.121
       0.058
      -0.009
      -0.080
      -0.158
      -0.235
      -0.292
      -0.309
      -0.275
      -0.192
      -0.072
       0.064
       0.190
       0.279
       0.312
       0.276
       0.171
       0.024
      -0.123
      -0.225
      -0.265
      -0.255
      -0.220
      -0.178
      -0.134
      -0.095
      -0.068
      -0.060
      -0.075
      -0.112
      -0.161
      -0.201
      -0.207
      -0.165
      -0.089
      -0.005
       0.067
       0.111
       0.123
       0.103
       0.062
       0.019
      -0.009
      -0.017
      -0.009
       0.012
       0.044
       0.085
       0.133
       0.191
       0.263
       0.343
       0.409
       0.432
       0.390
       0.281
       0.128
      -0.032
      -0.158
      -0.224
      -0.229
      -0.190
      -0.132
      -0.072
      -0.024
       0.009
       0.033
       0.060
       0.097
       0.126
       0.118
       0.053
      -0.060
      -0.191
      -0.303
      -0.368
      -0.370
      -0.313
      -0.226
      -0.151
      -0.116
      -0.125
      -0.163
      -0.211
      -0.246
      -0.239
      -0.172
      -0.054
       0.087
       0.223
       0.339
       0.423
       0.455
       0.422
       0.338
       0.234
       0.142
       0.074
       0.030
      -0.003
      -0.043
      -0.108
      -0.196
      -0.280
      -0.322
      -0.292
      -0.179
       0.005
       0.229
       0.437
       0.571
       0.599
       0.529
       0.397
       0.246
       0.106
      -0.010
      -0.109
      -0.207
      -0.312
      -0.406
      -0.449
      -0.416
      -0.308
      -0.157
      -0.003
       0.121
       0.190
       0.191
       0.130
       0.037
      -0.047
      -0.091
      -0.085
      -0.043
      -0.002
       0.002
      -0.046
      -0.121
      -0.182
      -0.200
      -0.173
      -0.121
      -0.062
      -0.009
       0.035
       0.073
       0.112
       0.156
       0.199
       0.222
       0.209
       0.154
       0.069
      -0.033
      -0.136
      -0.225
      -0.286
      -0.309
      -0.290
      -0.228
      -0.133
      -0.029
       0.052
       0.086
       0.063
      -0.009
      -0.108
      -0.197
      -0.233
      -0.187
      -0.064
       0.102
       0.261
       0.376
       0.424
       0.403
       0.326
       0.221
       0.117
       0.041
       0.004
       0.003
       0.025
       0.057
       0.087
       0.110
       0.120
       0.109
       0.065
      -0.013
      -0.107
      -0.182
      -0.210
      -0.186
      -0.127
      -0.062
      -0.011
       0.019
       0.039
       0.068
       0.122
       0.210
       0.329
       0.461
       0.575
       0.630
       0.598
       0.475
       0.290
       0.085
      -0.097
      -0.222
      -0.277
      -0.270
      -0.227
      -0.178
      -0.143
      -0.130
      -0.143
      -0.188
      -0.263
      -0.354
      -0.442
      -0.511
      -0.557
      -0.572
      -0.548
      -0.477
      -0.366
      -0.237
      -0.112
      -0.007
       0.074
       0.143
       0.218
       0.305
       0.386
       0.432
       0.425
       0.368
       0.282
       0.191
       0.110
       0.055
       0.027
       0.020
       0.028
       0.050
       0.090
       0.137
       0.167
       0.155
       0.098
       0.011
      -0.083
      -0.159
      -0.202
      -0.212
      -0.212
      -0.226
      -0.269
      -0.329
      -0.387
      -0.419
      -0.407
      -0.330
      -0.180
       0.026
       0.253
       0.453
       0.590
       0.636
       0.582
       0.443
       0.265
       0.102
      -0.001
      -0.028
       0.017
       0.114
       0.229
       0.317
       0.352
       0.333
       0.289
       0.241
       0.190
       0.123
       0.026
      -0.103
      -0.248
      -0.382
      -0.468
      -0.483
      -0.434
      -0.346
      -0.243
      -0.129
      -0.004
       0.122
       0.229
       0.295
       0.311
       0.281
       0.219
       0.146
       0.071
      -0.008
      -0.099
      -0.199
      -0.291
      -0.352
      -0.362
      -0.316
      -0.220
      -0.103
      -0.006
       0.042
       0.036
       0.001
      -0.032
      -0.048
      -0.047
      -0.038
      -0.035
      -0.045
      -0.064
      -0.070
      -0.042
       0.018
       0.085
       0.131
       0.150
       0.149
       0.140
       0.129
       0.117
       0.097
       0.057
      -0.009
      -0.091
      -0.169
      -0.224
      -0.253
      -0.258
      -0.243
      -0.213
      -0.176
      -0.145
      -0.121
      -0.093
      -0.047
       0.027
       0.129
       0.246
       0.362
       0.449
       0.484
       0.454
       0.356
       0.205
       0.035
      -0.113
      -0.202
      -0.216
      -0.172
      -0.100
      -0.030
       0.020
       0.048
       0.056
       0.053
       0.047
       0.042
       0.043
       0.051
       0.071
       0.094
       0.100
       0.069
      -0.004
      -0.096
      -0.171
      -0.195
      -0.156
      -0.068
       0.034
       0.111
       0.146
       0.143
       0.117
       0.079
       0.037
      -0.002
      -0.033
      -0.066
      -0.122
      -0.214
      -0.337
      -0.479
      -0.624
      -0.758
      -0.858
      -0.899
      -0.862
      -0.745
      -0.561
      -0.330
      -0.074
       0.178
       0.401
       0.580
       0.716
       0.818
       0.902
       0.975
       1.029
       1.040
       0.974
       0.815
       0.577
       0.302
       0.037
      -0.177
      -0.303
      -0.317
      -0.226
      -0.070
       0.093
       0.217
       0.278
       0.277
       0.232
       0.164
       0.090
       0.012
      -0.075
      -0.163
      -0.230
      -0.255
      -0.237
      -0.183
      -0.109
      -0.034
       0.012
       0.013
      -0.021
      -0.060
      -0.082
      -0.092
      -0.099
      -0.096
      -0.060
       0.018
       0.121
       0.220
       0.286
       0.296
       0.232
       0.087
      -0.122
      -0.359
      -0.573
      -0.714
      -0.750
      -0.682
      -0.554
      -0.427
      -0.347
      -0.318
      -0.317
      -0.312
      -0.282
      -0.221
      -0.139
      -0.056
       0.011
       0.053
       0.071
       0.073
       0.068
       0.066
       0.075
       0.091
       0.098
       0.089
       0.076
       0.081
       0.111
       0.153
       0.186
       0.201
       0.199
       0.183
       0.157
       0.128
       0.116
       0.140
       0.210
       0.327
       0.490
       0.684
       0.879
       1.036
       1.127
       1.145
       1.100
       1.001
       0.859
       0.688
       0.501
       0.309
       0.114
      -0.073
      -0.241
      -0.373
      -0.459
      -0.499
      -0.505
      -0.503
      -0.526
      -0.595
      -0.707
      -0.839
      -0.951
      -1.001
      -0.965
      -0.851
      -0.697
      -0.545
      -0.421
      -0.328
      -0.254
      -0.188
      -0.119
      -0.044
       0.029
       0.082
       0.102
       0.093
       0.073
       0.059
       0.055
       0.049
       0.018
      -0.054
      -0.158
      -0.259
      -0.305
      -0.263
      -0.146
      -0.004
       0.104
       0.154
       0.154
       0.131
       0.112
       0.122
       0.178
       0.279
       0.397
       0.496
       0.553
       0.568
       0.559
       0.552
       0.567
       0.607
       0.647
       0.647
       0.570
       0.403
       0.161
      -0.121
      -0.407
      -0.669
      -0.895
      -1.077
      -1.203
      -1.249
      -1.189
      -1.019
      -0.761
      -0.460
      -0.160
       0.102
       0.310
       0.477
       0.630
       0.784
       0.924
       1.013
       1.019
       0.933
       0.771
       0.553
       0.301
       0.040
      -0.196
      -0.370
      -0.459
      -0.459
      -0.388
      -0.278
      -0.167
      -0.087
      -0.057
      -0.070
      -0.103
      -0.130
      -0.139
      -0.133
      -0.124
      -0.111
      -0.083
      -0.037
       0.014
       0.052
       0.070
       0.084
       0.114
       0.170
       0.253
       0.359
       0.489
       0.647
       0.831
       1.022
       1.184
       1.277
       1.278
       1.194
       1.050
       0.856
       0.603
       0.285
      -0.071
      -0.408
      -0.655
      -0.765
      -0.719
      -0.533
      -0.262
       0.010
       0.199
       0.250
       0.161
      -0.039
      -0.302
      -0.576
      -0.820
      -1.015
      -1.169
      -1.288
      -1.351
      -1.316
      -1.164
      -0.918
      -0.631
      -0.359
      -0.155
      -0.065
      -0.094
      -0.192
      -0.286
      -0.341
      -0.368
      -0.381
      -0.361
      -0.279
      -0.143
       0.000
       0.102
       0.154
       0.178
       0.220
       0.328
       0.512
       0.722
       0.863
       0.854
       0.675
       0.357
      -0.043
      -0.461
      -0.823
      -1.059
      -1.136
      -1.068
      -0.906
      -0.706
      -0.513
      -0.344
      -0.186
      -0.001
       0.241
       0.542
       0.869
       1.180
       1.434
       1.606
       1.686
       1.690
       1.639
       1.537
       1.354
       1.054
       0.648
       0.203
      -0.201
      -0.523
      -0.770
      -0.964
      -1.110
      -1.196
      -1.202
      -1.109
      -0.919
      -0.673
      -0.430
      -0.228
      -0.064
       0.082
       0.209
       0.304
       0.368
       0.417
       0.454
       0.457
       0.416
       0.351
       0.301
       0.287
       0.303
       0.336
       0.364
       0.365
       0.322
       0.233
       0.119
       0.013
      -0.042
      -0.014
       0.093
       0.233
       0.332
       0.340
       0.244
       0.056
      -0.212
      -0.548
      -0.928
      -1.306
      -1.617
      -1.792
      -1.784
      -1.593
      -1.280
      -0.929
      -0.596
      -0.280
       0.046
       0.396
       0.753
       1.080
       1.331
       1.464
       1.459
       1.334
       1.144
       0.948
       0.775
       0.617
       0.449
       0.254
       0.039
      -0.171
      -0.346
      -0.459
      -0.496
      -0.457
      -0.349
      -0.181
       0.046
       0.314
       0.589
       0.839
       1.057
       1.256
       1.430
       1.530
       1.494
       1.291
       0.936
       0.468
      -0.071
      -0.641
      -1.207
      -1.738
      -2.205
      -2.583
      -2.845
      -2.978
      -2.982
      -2.858
      -2.598
      -2.207
      -1.710
      -1.144
      -0.551
       0.012
       0.478
       0.808
       1.019
       1.166
       1.281
       1.354
       1.366
       1.322
       1.246
       1.155
       1.067
       1.012
       1.017
       1.072
       1.141
       1.194
       1.215
       1.173
       1.020
       0.734
       0.351
      -0.051
      -0.409
      -0.689
      -0.875
      -0.945
      -0.891
      -0.729
      -0.489
      -0.205
       0.093
       0.372
       0.592
       0.710
       0.695
       0.528
       0.218
      -0.187
      -0.602
      -0.940
      -1.153
      -1.240
      -1.230
      -1.142
      -0.972
      -0.713
      -0.382
      -0.043
       0.207
       0.292
       0.205
       0.021
      -0.155
      -0.263
      -0.300
      -0.293
      -0.262
      -0.217
      -0.165
      -0.104
      -0.004
       0.169
       0.421
       0.714
       1.004
       1.274
       1.538
       1.814
       2.093
       2.332
       2.466
       2.428
       2.180
       1.724
       1.094
       0.341
      -0.467
      -1.244
      -1.896
      -2.352
      -2.581
      -2.586
      -2.382
      -1.995
      -1.473
      -0.876
      -0.277
       0.250
       0.627
       0.804
       0.770
       0.543
       0.160
      -0.321
      -0.809
      -1.202
      -1.434
      -1.488
      -1.375
      -1.105
      -0.689
      -0.163
       0.407
       0.940
       1.354
       1.587
       1.626
       1.528
       1.381
       1.229
       1.049
       0.796
       0.469
       0.117
      -0.196
      -0.430
      -0.563
      -0.598
      -0.560
      -0.489
      -0.408
      -0.308
      -0.166
       0.023
       0.245
       0.471
       0.656
       0.743
       0.670
       0.407
      -0.022
      -0.524
      -0.968
      -1.231
      -1.250
      -1.033
      -0.645
      -0.175
       0.278
       0.623
       0.814
       0.863
       0.814
       0.705
       0.534
       0.290
      -0.026
      -0.386
      -0.740
      -1.032
      -1.214
      -1.265
      -1.199
      -1.045
      -0.824
      -0.546
      -0.227
       0.097
       0.380
       0.580
       0.669
       0.638
       0.502
       0.308
       0.112
      -0.038
      -0.121
      -0.140
      -0.106
      -0.046
       0.008
       0.025
       0.000
      -0.052
      -0.099
      -0.114
      -0.078
       0.007
       0.118
       0.220
       0.274
       0.254
       0.150
      -0.028
      -0.239
      -0.421
      -0.514
      -0.495
      -0.386
      -0.240
      -0.114
      -0.053
      -0.072
      -0.153
      -0.254
      -0.333
      -0.366
      -0.333
      -0.213
       0.004
       0.302
       0.630
       0.923
       1.121
       1.191
       1.149
       1.060
       1.010
       1.048
       1.168
       1.331
       1.496
       1.621
       1.658
       1.567
       1.335
       0.991
       0.597
       0.233
      -0.025
      -0.143
      -0.154
      -0.134
      -0.147
      -0.206
      -0.294
      -0.402
      -0.548
      -0.746
      -0.975
      -1.183
      -1.320
      -1.367
      -1.344
      -1.280
      -1.184
      -1.044
      -0.861
      -0.676
      -0.555
      -0.543
      -0.623
      -0.734
      -0.818
      -0.858
      -0.860
      -0.817
      -0.689
      -0.428
      -0.029
       0.455
       0.939
       1.345
       1.625
       1.759
       1.758
       1.650
       1.480
       1.276
       1.041
       0.764
       0.437
       0.075
      -0.287
      -0.612
      -0.875
      -1.067
      -1.188
      -1.240
      -1.224
      -1.157
      -1.083
      -1.059
      -1.128
      -1.288
      -1.463
      -1.533
      -1.392
      -1.010
      -0.443
       0.207
       0.847
       1.413
       1.860
       2.145
       2.245
       2.172
       1.977
       1.720
       1.429
       1.094
       0.679
       0.173
      -0.390
      -0.934
      -1.383
      -1.694
      -1.858
      -1.885
      -1.793
      -1.604
      -1.330
      -0.971
      -0.545
      -0.122
       0.184
       0.292
       0.229
       0.104
       0.020
       0.007
       0.035
       0.058
       0.041
      -0.035
      -0.156
      -0.267
      -0.299
      -0.200
       0.043
       0.414
       0.860
       1.305
       1.692
       2.022
       2.327
       2.601
       2.757
       2.673
       2.278
       1.594
       0.737
      -0.121
      -0.807
      -1.227
      -1.415
      -1.501
      -1.599
      -1.728
      -1.832
      -1.843
      -1.703
      -1.387
      -0.925
      -0.423
      -0.017
       0.227
       0.353
       0.460
       0.595
       0.715
       0.728
       0.578
       0.291
      -0.030
      -0.266
      -0.341
      -0.244
      -0.030
       0.202
       0.336
       0.293
       0.103
      -0.106
      -0.199
      -0.130
       0.029
       0.156
       0.171
       0.085
      -0.015
      -0.045
       0.025
       0.170
       0.352
       0.535
       0.674
       0.718
       0.649
       0.522
       0.428
       0.426
       0.510
       0.621
       0.693
       0.668
       0.510
       0.219
      -0.157
      -0.547
      -0.899
      -1.191
      -1.418
      -1.559
      -1.586
      -1.502
      -1.364
      -1.244
      -1.175
      -1.120
      -1.005
      -0.783
      -0.467
      -0.108
       0.255
       0.605
       0.929
       1.205
       1.403
       1.496
       1.463
       1.302
       1.063
       0.840
       0.723
       0.734
       0.812
       0.869
       0.841
       0.712
       0.501
       0.255
       0.028
      -0.164
      -0.359
      -0.615
      -0.949
      -1.309
      -1.609
      -1.769
      -1.743
      -1.535
      -1.210
      -0.863
      -0.562
      -0.302
