Origin Time       09/2/2011 19:17:29	 UTC
Lat.              30.9 N	
Long.             78.2 E	
Depth (Km)         10.0
Magnitude         5.0
 Region           UTTARKASHI-UTTARAKHAND                                           
 Above details taken from IMD 
    
Station Code      KLU
Station Lat.       31.951  N
Station Long.      77.112  E
Station Height(m) 1234.0
Site Class        A   Vs30 between 700 m/sec to 1400 m/sec * 
Record Time       09.02.2012 19:17:50.259 UTC
Sampling Rate     200. Hz
 Record Duration   82.525 Sec.
 Direction         N-S (N positive)
Max. Acceleration      4.118 cm/sec**2
     
  * For reference see Site Classification link of website 
     
 Base Line Corrected and Low Pass Filtered (Cut Off at 35 Hz) Time History
 Acceleration data in cm/sec**2
    
[...]
      -0.203
      -0.212
      -0.191
      -0.150
      -0.100
      -0.051
      -0.005
       0.037
       0.073
       0.100
       0.113
       0.108
       0.085
       0.046
      -0.006
      -0.068
      -0.136
      -0.202
      -0.258
      -0.295
      -0.307
      -0.285
      -0.227
      -0.134
      -0.020
       0.096
       0.188
       0.238
       0.237
       0.195
       0.137
       0.090
       0.071
       0.079
       0.096
       0.104
       0.090
       0.057
       0.019
      -0.008
      -0.014
      -0.001
       0.020
       0.033
       0.026
      -0.007
      -0.063
      -0.125
      -0.171
      -0.185
      -0.162
      -0.113
      -0.055
      -0.001
       0.040
       0.066
       0.078
       0.079
       0.075
       0.070
       0.070
       0.081
       0.101
       0.121
       0.127
       0.105
       0.053
      -0.019
      -0.097
      -0.165
      -0.215
      -0.243
      -0.253
      -0.248
      -0.231
      -0.207
      -0.180
      -0.159
      -0.149
      -0.149
      -0.149
      -0.134
      -0.091
      -0.011
       0.095
       0.205
       0.290
       0.328
       0.309
       0.245
       0.159
       0.082
       0.033
       0.017
       0.016
       0.007
      -0.028
      -0.088
      -0.154
      -0.200
      -0.210
      -0.183
      -0.131
      -0.074
      -0.024
       0.012
       0.031
       0.032
       0.020
       0.004
      -0.001
       0.015
       0.049
       0.092
       0.135
       0.180
       0.228
       0.273
       0.302
       0.302
       0.266
       0.202
       0.126
       0.058
       0.011
      -0.009
      -0.005
       0.013
       0.034
       0.052
       0.065
       0.075
       0.080
       0.073
       0.047
       0.003
      -0.045
      -0.086
      -0.118
      -0.146
      -0.173
      -0.195
      -0.201
      -0.177
      -0.118
      -0.032
       0.067
       0.161
       0.238
       0.295
       0.326
       0.324
       0.283
       0.203
       0.098
      -0.011
      -0.106
      -0.175
      -0.217
      -0.235
      -0.234
      -0.220
      -0.192
      -0.150
      -0.090
      -0.014
       0.069
       0.142
       0.188
       0.192
       0.154
       0.087
       0.015
      -0.034
      -0.046
      -0.026
       0.010
       0.038
       0.039
       0.007
      -0.046
      -0.100
      -0.136
      -0.146
      -0.133
      -0.108
      -0.086
      -0.076
      -0.077
      -0.084
      -0.088
      -0.084
      -0.073
      -0.059
      -0.043
      -0.029
      -0.020
      -0.020
      -0.028
      -0.040
      -0.048
      -0.041
      -0.015
       0.028
       0.077
       0.116
       0.134
       0.131
       0.110
       0.071
       0.014
      -0.061
      -0.144
      -0.217
      -0.263
      -0.269
      -0.236
      -0.176
      -0.113
      -0.065
      -0.039
      -0.030
      -0.029
      -0.031
      -0.029
      -0.023
      -0.015
      -0.009
      -0.008
      -0.007
       0.002
       0.026
       0.064
       0.113
       0.164
       0.207
       0.235
       0.249
       0.251
       0.249
       0.247
       0.249
       0.251
       0.251
       0.245
       0.229
       0.201
       0.161
       0.114
       0.062
       0.010
      -0.039
      -0.081
      -0.113
      -0.133
      -0.142
      -0.140
      -0.132
      -0.125
      -0.123
      -0.125
      -0.127
      -0.126
      -0.119
      -0.100
      -0.062
      -0.002
       0.077
       0.162
       0.234
       0.278
       0.284
       0.250
       0.183
       0.097
       0.011
      -0.059
      -0.101
      -0.115
      -0.109
      -0.096
      -0.085
      -0.079
      -0.079
      -0.085
      -0.101
      -0.130
      -0.171
      -0.218
      -0.258
      -0.282
      -0.281
      -0.256
      -0.208
      -0.140
      -0.057
       0.026
       0.087
       0.111
       0.092
       0.043
      -0.014
      -0.061
      -0.088
      -0.096
      -0.087
      -0.065
      -0.029
       0.026
       0.097
       0.175
       0.242
       0.283
       0.286
       0.255
       0.198
       0.131
       0.078
       0.056
       0.070
       0.102
       0.124
       0.108
       0.049
      -0.036
      -0.112
      -0.152
      -0.148
      -0.119
      -0.095
      -0.096
      -0.125
      -0.167
      -0.200
      -0.209
      -0.186
      -0.139
      -0.087
      -0.051
      -0.046
      -0.065
      -0.096
      -0.122
      -0.134
      -0.133
      -0.123
      -0.110
      -0.093
      -0.062
      -0.011
       0.062
       0.149
       0.234
       0.300
       0.334
       0.330
       0.288
       0.220
       0.138
       0.053
      -0.032
      -0.116
      -0.204
      -0.292
      -0.376
      -0.440
      -0.467
      -0.442
      -0.367
      -0.258
      -0.139
      -0.033
       0.049
       0.111
       0.171
       0.244
       0.328
       0.405
       0.442
       0.419
       0.338
       0.225
       0.120
       0.059
       0.058
       0.109
       0.179
       0.231
       0.243
       0.218
       0.174
       0.133
       0.107
       0.090
       0.067
       0.022
      -0.051
      -0.142
      -0.227
      -0.280
      -0.288
      -0.251
      -0.184
      -0.108
      -0.037
       0.029
       0.096
       0.173
       0.256
       0.328
       0.367
       0.355
       0.294
       0.201
       0.109
       0.057
       0.069
       0.146
       0.258
       0.357
       0.397
       0.356
       0.246
       0.107
      -0.014
      -0.090
      -0.116
      -0.110
      -0.095
      -0.091
      -0.106
      -0.135
      -0.162
      -0.171
      -0.148
      -0.101
      -0.047
      -0.008
       0.002
      -0.018
      -0.059
      -0.103
      -0.135
      -0.149
      -0.147
      -0.139
      -0.135
      -0.143
      -0.157
      -0.171
      -0.176
      -0.176
      -0.186
      -0.220
      -0.279
      -0.347
      -0.405
      -0.438
      -0.451
      -0.451
      -0.447
      -0.436
      -0.417
      -0.387
      -0.349
      -0.302
      -0.247
      -0.175
      -0.084
       0.023
       0.136
       0.239
       0.318
       0.366
       0.380
       0.362
       0.315
       0.250
       0.184
       0.135
       0.121
       0.142
       0.187
       0.232
       0.253
       0.235
       0.178
       0.098
       0.021
      -0.031
      -0.049
      -0.044
      -0.036
      -0.042
      -0.062
      -0.086
      -0.098
      -0.088
      -0.054
      -0.004
       0.050
       0.099
       0.138
       0.170
       0.199
       0.225
       0.240
       0.236
       0.208
       0.162
       0.112
       0.075
       0.062
       0.069
       0.087
       0.108
       0.133
       0.165
       0.203
       0.235
       0.241
       0.201
       0.108
      -0.025
      -0.168
      -0.289
      -0.366
      -0.400
      -0.402
      -0.390
      -0.372
      -0.348
      -0.313
      -0.264
      -0.202
      -0.130
      -0.060
      -0.009
       0.008
      -0.021
      -0.094
      -0.191
      -0.278
      -0.321
      -0.299
      -0.218
      -0.107
      -0.004
       0.062
       0.078
       0.054
       0.013
      -0.020
      -0.025
       0.002
       0.058
       0.127
       0.196
       0.254
       0.300
       0.337
       0.368
       0.391
       0.400
       0.390
       0.356
       0.298
       0.217
       0.119
       0.014
      -0.087
      -0.172
      -0.232
      -0.263
      -0.264
      -0.247
      -0.231
      -0.231
      -0.252
      -0.286
      -0.312
      -0.314
      -0.282
      -0.217
      -0.136
      -0.057
       0.005
       0.041
       0.056
       0.060
       0.068
       0.091
       0.125
       0.158
       0.172
       0.159
       0.128
       0.097
       0.082
       0.085
       0.094
       0.089
       0.057
      -0.007
      -0.089
      -0.169
      -0.228
      -0.251
      -0.232
      -0.176
      -0.094
      -0.003
       0.078
       0.138
       0.170
       0.178
       0.166
       0.144
       0.123
       0.116
       0.132
       0.169
       0.216
       0.256
       0.272
       0.256
       0.206
       0.128
       0.035
      -0.054
      -0.123
      -0.163
      -0.175
      -0.167
      -0.148
      -0.127
      -0.110
      -0.103
      -0.106
      -0.114
      -0.123
      -0.131
      -0.148
      -0.182
      -0.239
      -0.311
      -0.380
      -0.432
      -0.458
      -0.457
      -0.441
      -0.418
      -0.391
      -0.351
      -0.290
      -0.211
      -0.128
      -0.057
      -0.005
       0.028
       0.051
       0.077
       0.115
       0.161
       0.199
       0.204
       0.169
       0.107
       0.052
       0.044
       0.107
       0.239
       0.415
       0.596
       0.747
       0.847
       0.895
       0.897
       0.864
       0.805
       0.722
       0.621
       0.511
       0.402
       0.303
       0.219
       0.144
       0.066
      -0.024
      -0.122
      -0.214
      -0.278
      -0.297
      -0.265
      -0.199
      -0.124
      -0.069
      -0.048
      -0.061
      -0.093
      -0.134
      -0.171
      -0.203
      -0.233
      -0.269
      -0.319
      -0.383
      -0.450
      -0.504
      -0.530
      -0.512
      -0.447
      -0.336
      -0.194
      -0.042
       0.104
       0.229
       0.323
       0.381
       0.404
       0.396
       0.365
       0.319
       0.268
       0.218
       0.170
       0.123
       0.076
       0.026
      -0.020
      -0.056
      -0.074
      -0.072
      -0.054
      -0.040
      -0.051
      -0.105
      -0.203
      -0.329
      -0.454
      -0.554
      -0.610
      -0.619
      -0.589
      -0.533
      -0.468
      -0.409
      -0.357
      -0.302
      -0.224
      -0.102
       0.067
       0.275
       0.497
       0.710
       0.896
       1.045
       1.150
       1.207
       1.213
       1.171
       1.085
       0.963
       0.809
       0.632
       0.443
       0.249
       0.052
      -0.150
      -0.360
      -0.576
      -0.793
      -0.993
      -1.155
      -1.255
      -1.282
      -1.238
      -1.139
      -1.005
      -0.855
      -0.710
      -0.583
      -0.475
      -0.379
      -0.282
      -0.172
      -0.047
       0.085
       0.208
       0.311
       0.395
       0.470
       0.549
       0.636
       0.725
       0.796
       0.829
       0.809
       0.737
       0.625
       0.496
       0.370
       0.266
       0.187
       0.127
       0.067
      -0.010
      -0.114
      -0.241
      -0.373
      -0.488
      -0.570
      -0.609
      -0.610
      -0.582
      -0.537
      -0.488
      -0.443
      -0.406
      -0.371
      -0.329
      -0.268
      -0.187
      -0.096
      -0.015
       0.042
       0.080
       0.118
       0.172
       0.239
       0.296
       0.311
       0.268
       0.175
       0.069
      -0.013
      -0.049
      -0.047
      -0.032
      -0.027
      -0.041
      -0.068
      -0.086
      -0.067
       0.013
       0.158
       0.346
       0.543
       0.716
       0.856
       0.967
       1.062
       1.144
       1.203
       1.220
       1.182
       1.086
       0.947
       0.787
       0.633
       0.501
       0.381
       0.243
       0.055
      -0.199
      -0.500
      -0.800
      -1.045
      -1.203
      -1.277
      -1.296
      -1.292
      -1.287
      -1.288
      -1.288
      -1.272
      -1.222
      -1.135
      -1.018
      -0.899
      -0.806
      -0.756
      -0.748
      -0.759
      -0.765
      -0.752
      -0.721
      -0.686
      -0.659
      -0.653
      -0.670
      -0.706
      -0.759
      -0.828
      -0.921
      -1.042
      -1.187
      -1.336
      -1.450
      -1.482
      -1.397
      -1.191
      -0.890
      -0.543
      -0.187
       0.163
       0.522
       0.908
       1.325
       1.751
       2.145
       2.462
       2.680
       2.808
       2.877
       2.921
       2.961
       2.997
       3.019
       3.014
       2.961
       2.848
       2.674
       2.456
       2.212
       1.953
       1.673
       1.364
       1.022
       0.647
       0.242
      -0.183
      -0.614
      -1.037
      -1.442
      -1.821
      -2.165
      -2.473
      -2.741
      -2.958
      -3.091
      -3.104
      -2.976
      -2.719
      -2.363
      -1.948
      -1.501
      -1.045
      -0.599
      -0.182
       0.187
       0.494
       0.736
       0.920
       1.059
       1.165
       1.251
       1.331
       1.409
       1.474
       1.501
       1.469
       1.375
       1.240
       1.095
       0.964
       0.847
       0.724
       0.563
       0.342
       0.066
      -0.238
      -0.533
      -0.790
      -0.997
      -1.153
      -1.261
      -1.322
      -1.336
      -1.302
      -1.218
      -1.083
      -0.901
      -0.684
      -0.441
      -0.184
       0.075
       0.314
       0.507
       0.631
       0.684
       0.677
       0.631
       0.565
       0.483
       0.379
       0.242
       0.072
      -0.108
      -0.268
      -0.388
      -0.475
      -0.560
      -0.684
      -0.875
      -1.127
      -1.406
      -1.657
      -1.833
      -1.911
      -1.897
      -1.810
      -1.674
      -1.505
      -1.312
      -1.112
      -0.924
      -0.760
      -0.601
      -0.403
      -0.130
       0.222
       0.616
       1.001
       1.349
       1.668
       1.993
       2.354
       2.758
       3.178
       3.566
       3.870
       4.058
       4.118
       4.054
       3.870
       3.571
       3.162
       2.659
       2.092
       1.499
       0.910
       0.333
      -0.237
      -0.813
      -1.398
      -1.964
      -2.464
      -2.847
      -3.089
      -3.201
      -3.219
      -3.178
      -3.100
      -2.992
      -2.855
      -2.689
      -2.495
      -2.274
      -2.027
      -1.764
      -1.500
      -1.254
      -1.038
      -0.857
      -0.700
      -0.549
      -0.395
      -0.243
      -0.110
      -0.022
       0.013
       0.012
       0.017
       0.068
       0.179
       0.329
       0.483
       0.618
       0.726
       0.812
       0.887
       0.958
       1.032
       1.116
       1.223
       1.368
       1.551
       1.753
       1.944
       2.104
       2.227
       2.316
       2.358
       2.328
       2.194
       1.938
       1.574
       1.148
       0.716
       0.317
      -0.049
      -0.406
      -0.769
      -1.120
      -1.415
      -1.609
      -1.685
      -1.658
      -1.568
      -1.454
      -1.344
      -1.241
      -1.128
      -0.989
      -0.820
      -0.644
      -0.508
      -0.466
      -0.550
      -0.753
      -1.031
      -1.312
      -1.520
      -1.602
      -1.539
      -1.345
      -1.046
      -0.667
      -0.221
       0.286
       0.844
       1.424
       1.971
       2.413
       2.683
       2.736
       2.570
       2.220
       1.748
       1.229
       0.722
       0.265
      -0.132
      -0.473
      -0.773
      -1.032
      -1.240
      -1.370
      -1.397
      -1.307
      -1.109
      -0.827
      -0.502
      -0.180
       0.098
       0.311
       0.459
       0.551
       0.596
       0.597
       0.560
       0.490
       0.390
       0.256
       0.089
      -0.104
      -0.307
      -0.495
      -0.640
      -0.722
      -0.732
      -0.672
      -0.549
      -0.369
      -0.146
       0.104
       0.362
       0.617
       0.852
       1.047
       1.179
       1.231
       1.192
       1.068
       0.876
       0.651
       0.427
       0.227
       0.056
      -0.089
      -0.206
      -0.287
      -0.329
      -0.335
      -0.312
      -0.272
      -0.238
      -0.251
      -0.353
      -0.568
      -0.882
      -1.243
      -1.581
      -1.833
      -1.962
      -1.965
      -1.865
      -1.691
      -1.467
      -1.204
      -0.896
      -0.531
      -0.108
       0.351
       0.795
       1.164
       1.411
       1.516
       1.494
       1.379
       1.211
       1.021
       0.829
       0.642
       0.458
       0.272
       0.080
      -0.109
      -0.271
      -0.377
      -0.401
      -0.334
      -0.186
       0.014
       0.229
       0.424
       0.579
       0.688
       0.748
       0.755
       0.707
       0.616
       0.521
       0.474
       0.517
       0.662
       0.878
       1.108
       1.289
       1.380
       1.373
       1.278
       1.115
       0.902
       0.650
       0.367
       0.058
      -0.262
      -0.571
      -0.841
      -1.047
      -1.175
      -1.229
      -1.227
      -1.202
      -1.193
      -1.234
      -1.335
      -1.481
      -1.635
      -1.759
      -1.817
      -1.789
      -1.676
      -1.497
      -1.277
      -1.035
      -0.769
      -0.475
      -0.150
       0.188
       0.498
       0.735
       0.861
       0.868
       0.778
       0.622
       0.431
       0.227
       0.029
      -0.153
      -0.319
      -0.474
      -0.614
      -0.728
      -0.795
      -0.797
      -0.729
      -0.598
      -0.423
      -0.226
      -0.020
       0.201
       0.461
       0.789
       1.203
       1.693
       2.221
       2.725
       3.132
       3.383
       3.442
       3.311
       3.022
       2.620
       2.144
       1.609
       1.012
       0.350
      -0.353
      -1.044
      -1.655
      -2.134
      -2.459
      -2.646
      -2.720
      -2.709
      -2.624
      -2.465
      -2.225
      -1.892
      -1.464
      -0.951
      -0.384
       0.195
       0.741
       1.222
       1.618
       1.921
       2.115
       2.173
       2.065
       1.783
       1.355
       0.844
       0.320
      -0.166
      -0.586
      -0.930
      -1.195
      -1.384
      -1.506
      -1.571
      -1.590
      -1.568
      -1.511
      -1.434
      -1.360
      -1.308
      -1.279
      -1.248
      -1.172
      -1.024
      -0.808
      -0.558
      -0.308
      -0.067
       0.191
       0.496
       0.862
       1.272
       1.676
       2.014
       2.233
       2.302
       2.227
       2.041
       1.794
       1.527
       1.259
       0.983
       0.679
       0.334
      -0.046
      -0.438
      -0.815
      -1.158
      -1.462
      -1.728
      -1.947
      -2.091
      -2.126
      -2.032
      -1.811
      -1.502
      -1.160
      -0.843
      -0.577
      -0.339
      -0.071
       0.280
       0.721
       1.203
       1.631
       1.910
       1.996
       1.918
       1.756
       1.586
       1.445
       1.321
       1.180
       0.994
       0.757
       0.498
       0.269
       0.116
       0.053
       0.044
       0.024
      -0.056
      -0.201
      -0.378
      -0.549
      -0.693
      -0.815
      -0.937
      -1.072
      -1.207
      -1.296
      -1.279
      -1.094
      -0.704
      -0.118
       0.592
       1.304
       1.895
       2.294
       2.497
       2.547
       2.486
       2.323
       2.035
       1.598
       1.023
       0.366
      -0.300
      -0.907
      -1.413
      -1.799
      -2.067
      -2.230
      -2.304
      -2.295
      -2.205
      -2.039
      -1.810
      -1.539
      -1.253
      -0.975
      -0.733
      -0.555
      -0.470
      -0.487
      -0.590
      -0.736
      -0.874
      -0.967
      -1.006
      -1.002
      -0.962
      -0.874
      -0.718
      -0.487
      -0.206
       0.076
