Origin Time       15/2/2009 07:35:55  UTC
Lat.              26.0 N 
Long.             90.2 E 
Depth (Km)         39.3
Magnitude         4.4
 Region           Assam-Meghalaya-Border                                           
 Above details taken from IMD 
    
Station Code      KOK
Station Lat.       26.400  N
Station Long.      90.261  E
Station Height(m)   53.0
Site Class        C   Vs30 between 200 m/sec to 375 m/sec *  
Record Time       15.02.2009 19:35:55.784 UTC
Sampling Rate     200. Hz
 Record Duration   74.415 Sec.
 Direction         N-S (N positive)
Max. Acceleration    -23.729 cm/sec**2
     
  * For reference see Site Classification link of website 
     
 Base Line Corrected and Low Pass Filtered (Cut Off at 35 Hz) Time History
 Acceleration data in cm/sec**2
    
[...]
       0.104
       0.304
       0.263
      -0.051
      -0.427
      -0.603
      -0.485
      -0.153
       0.267
       0.682
       0.974
       0.976
       0.606
       0.013
      -0.471
      -0.561
      -0.217
       0.363
       0.908
       1.242
       1.332
       1.240
       1.049
       0.843
       0.709
       0.723
       0.909
       1.206
       1.458
       1.478
       1.179
       0.666
       0.186
      -0.070
      -0.104
      -0.080
      -0.145
      -0.305
      -0.464
      -0.559
      -0.603
      -0.608
      -0.535
      -0.345
      -0.103
       0.030
      -0.089
      -0.431
      -0.776
      -0.872
      -0.649
      -0.284
      -0.075
      -0.208
      -0.601
      -0.954
      -0.983
      -0.654
      -0.212
       0.029
      -0.074
      -0.420
      -0.773
      -0.957
      -0.951
      -0.845
      -0.725
      -0.616
      -0.503
      -0.373
      -0.249
      -0.164
      -0.091
       0.061
       0.353
       0.702
       0.904
       0.825
       0.562
       0.411
       0.621
       1.170
       1.767
       2.088
       2.013
       1.665
       1.256
       0.919
       0.655
       0.436
       0.277
       0.209
       0.186
       0.074
      -0.216
      -0.618
      -0.918
      -0.920
      -0.618
      -0.224
       0.011
       0.009
      -0.110
      -0.209
      -0.310
      -0.556
      -0.985
      -1.402
      -1.499
      -1.126
      -0.430
       0.248
       0.606
       0.537
       0.149
      -0.299
      -0.536
      -0.447
      -0.185
      -0.077
      -0.350
      -0.914
      -1.434
      -1.608
      -1.403
      -1.009
      -0.617
      -0.266
       0.111
       0.553
       1.004
       1.359
       1.547
       1.579
       1.514
       1.398
       1.236
       1.019
       0.774
       0.598
       0.600
       0.777
       0.957
       0.911
       0.539
      -0.067
      -0.732
      -1.331
      -1.796
      -2.038
      -1.946
      -1.502
      -0.892
      -0.426
      -0.295
      -0.407
      -0.483
      -0.346
      -0.093
       0.000
      -0.233
      -0.663
      -0.968
      -0.921
      -0.571
      -0.163
       0.099
       0.185
       0.221
       0.354
       0.644
       1.024
       1.341
       1.470
       1.398
       1.211
       0.984
       0.701
       0.311
      -0.138
      -0.468
      -0.478
      -0.114
       0.490
       1.101
       1.525
       1.671
       1.550
       1.259
       0.959
       0.785
       0.742
       0.699
       0.528
       0.232
      -0.102
      -0.420
      -0.729
      -1.007
      -1.190
      -1.262
      -1.306
      -1.399
      -1.503
      -1.508
      -1.400
      -1.311
      -1.374
      -1.552
      -1.656
      -1.540
      -1.249
      -0.955
      -0.779
      -0.690
      -0.584
      -0.412
      -0.220
      -0.075
       0.012
       0.080
       0.180
       0.371
       0.719
       1.237
       1.820
       2.252
       2.337
       2.038
       1.527
       1.077
       0.887
       0.941
       1.048
       1.004
       0.752
       0.406
       0.134
       0.033
       0.092
       0.239
       0.393
       0.480
       0.441
       0.279
       0.079
      -0.044
      -0.039
       0.032
       0.030
      -0.184
      -0.653
      -1.284
      -1.866
      -2.191
      -2.167
      -1.862
      -1.434
      -1.026
      -0.708
      -0.501
      -0.414
      -0.425
      -0.467
      -0.446
      -0.315
      -0.099
       0.139
       0.361
       0.561
       0.738
       0.884
       0.983
       1.008
       0.923
       0.715
       0.443
       0.234
       0.189
       0.304
       0.456
       0.502
       0.384
       0.168
      -0.017
      -0.071
       0.021
       0.203
       0.388
       0.496
       0.491
       0.408
       0.299
       0.153
      -0.125
      -0.609
      -1.220
      -1.737
      -1.952
      -1.823
      -1.452
      -0.976
      -0.518
      -0.211
      -0.162
      -0.343
      -0.553
      -0.560
      -0.294
       0.106
       0.442
       0.620
       0.659
       0.593
       0.431
       0.219
       0.074
       0.096
       0.250
       0.405
       0.498
       0.618
       0.903
       1.364
       1.839
       2.121
       2.084
       1.719
       1.103
       0.390
      -0.208
      -0.513
      -0.479
      -0.236
      -0.014
       0.002
      -0.215
      -0.527
      -0.724
      -0.672
      -0.388
      -0.016
       0.281
       0.424
       0.422
       0.299
       0.060
      -0.282
      -0.669
      -1.039
      -1.392
      -1.770
      -2.132
      -2.266
      -1.913
      -1.037
       0.022
       0.711
       0.653
      -0.075
      -0.999
      -1.596
      -1.651
      -1.327
      -0.940
      -0.651
      -0.375
       0.040
       0.588
       1.067
       1.265
       1.163
       0.929
       0.757
       0.722
       0.789
       0.898
       1.021
       1.134
       1.170
       1.029
       0.671
       0.196
      -0.182
      -0.305
      -0.204
      -0.059
      -0.023
      -0.098
      -0.179
      -0.197
      -0.177
      -0.159
      -0.112
       0.016
       0.202
       0.343
       0.378
       0.355
       0.374
       0.467
       0.573
       0.619
       0.617
       0.644
       0.746
       0.856
       0.820
       0.503
      -0.090
      -0.750
      -1.139
      -1.011
      -0.439
       0.172
       0.370
       0.004
      -0.669
      -1.236
      -1.453
      -1.338
      -1.025
      -0.593
      -0.081
       0.408
       0.671
       0.525
      -0.025
      -0.706
      -1.108
      -0.964
      -0.377
       0.207
       0.305
      -0.217
      -1.006
      -1.495
      -1.354
      -0.719
       0.012
       0.545
       0.858
       1.053
       1.138
       1.021
       0.690
       0.323
       0.164
       0.302
       0.599
       0.804
       0.759
       0.501
       0.194
      -0.021
      -0.114
      -0.138
      -0.146
      -0.136
      -0.087
      -0.044
      -0.120
      -0.365
      -0.632
      -0.645
      -0.247
       0.398
       0.893
       0.917
       0.473
      -0.134
      -0.558
      -0.641
      -0.466
      -0.248
      -0.169
      -0.247
      -0.339
      -0.290
      -0.114
      -0.021
      -0.218
      -0.652
      -0.987
      -0.903
      -0.411
       0.155
       0.489
       0.598
       0.748
       1.129
       1.623
       1.914
       1.781
       1.264
       0.603
       0.072
      -0.141
      -0.002
       0.372
       0.779
       1.032
       1.034
       0.780
       0.338
      -0.169
      -0.591
      -0.820
      -0.879
      -0.910
      -1.024
      -1.139
      -1.000
      -0.436
       0.366
       0.892
       0.691
      -0.243
      -1.448
      -2.351
      -2.637
      -2.347
      -1.702
      -0.923
      -0.177
       0.421
       0.829
       1.111
       1.376
       1.628
       1.723
       1.498
       0.979
       0.402
       0.015
      -0.147
      -0.274
      -0.584
      -1.111
      -1.658
      -1.938
      -1.763
      -1.159
      -0.357
       0.334
       0.701
       0.766
       0.765
       0.917
       1.200
       1.336
       1.051
       0.354
      -0.419
      -0.841
      -0.693
      -0.074
       0.694
       1.219
       1.204
       0.614
      -0.228
      -0.769
      -0.633
       0.025
       0.625
       0.683
       0.274
      -0.092
      -0.031
       0.308
       0.419
      -0.029
      -0.858
      -1.559
      -1.751
      -1.466
      -1.031
      -0.709
      -0.481
      -0.134
       0.458
       1.149
       1.598
       1.530
       0.955
       0.152
      -0.526
      -0.901
      -1.055
      -1.217
      -1.526
      -1.866
      -1.921
      -1.438
      -0.464
       0.660
       1.537
       1.984
       2.077
       1.970
       1.691
       1.154
       0.358
      -0.474
      -1.009
      -1.039
      -0.633
      -0.088
       0.277
       0.324
       0.153
      -0.005
       0.028
       0.261
       0.537
       0.644
       0.477
       0.126
      -0.164
      -0.150
       0.202
       0.654
       0.837
       0.535
      -0.150
      -0.902
      -1.440
      -1.663
      -1.592
      -1.267
      -0.764
      -0.260
       0.033
       0.044
      -0.065
      -0.054
       0.133
       0.295
       0.168
      -0.270
      -0.717
      -0.771
      -0.292
       0.426
       0.833
       0.544
      -0.331
      -1.248
      -1.620
      -1.218
      -0.272
       0.768
       1.557
       1.990
       2.124
       2.042
       1.808
       1.464
       1.032
       0.545
       0.133
       0.004
       0.268
       0.739
       0.982
       0.677
      -0.063
      -0.771
      -1.053
      -0.894
      -0.554
      -0.232
       0.082
       0.449
       0.777
       0.851
       0.560
       0.037
      -0.478
      -0.880
      -1.275
      -1.830
      -2.542
      -3.175
      -3.392
      -2.992
      -2.080
      -1.053
      -0.351
      -0.163
      -0.319
      -0.485
      -0.449
      -0.255
      -0.044
       0.162
       0.498
       1.068
       1.758
       2.263
       2.297
       1.819
       1.101
       0.582
       0.618
       1.272
       2.294
       3.254
       3.745
       3.541
       2.669
       1.388
       0.088
      -0.882
      -1.382
      -1.544
      -1.647
      -1.904
      -2.336
      -2.787
      -3.001
      -2.700
      -1.704
      -0.108
       1.620
       2.823
       3.072
       2.467
       1.508
       0.663
       0.046
      -0.535
      -1.274
      -2.154
      -2.966
      -3.472
      -3.531
      -3.134
      -2.380
      -1.449
      -0.539
       0.209
       0.746
       1.089
       1.275
       1.364
       1.445
       1.609
       1.850
       2.032
       1.986
       1.681
       1.288
       1.058
       1.106
       1.309
       1.420
       1.303
       1.084
       1.064
       1.434
       2.030
       2.376
       2.035
       0.957
      -0.485
      -1.777
      -2.571
      -2.786
      -2.548
      -2.092
      -1.677
      -1.476
      -1.482
      -1.523
      -1.422
      -1.156
      -0.846
      -0.602
      -0.385
      -0.013
       0.708
       1.811
       3.093
       4.209
       4.884
       5.088
       5.058
       5.183
       5.790
       6.929
       8.277
       9.289
       9.524
       8.948
       7.948
       6.995
       6.267
       5.576
       4.629
       3.317
       1.756
       0.140
      -1.428
      -2.989
      -4.650
      -6.479
      -8.441
     -10.401
     -12.175
     -13.648
     -14.858
     -15.947
     -16.991
     -17.900
     -18.480
     -18.621
     -18.409
     -18.065
     -17.770
     -17.545
     -17.208
     -16.364
     -14.473
     -11.124
      -6.484
      -1.485
       2.583
       4.899
       5.667
       5.875
       6.487
       7.820
       9.616
      11.562
      13.645
      16.008
      18.548
      20.717
      21.796
      21.408
      19.777
      17.522
      15.222
      13.126
      11.177
       9.244
       7.336
       5.635
       4.355
       3.586
       3.297
       3.468
       4.159
       5.365
       6.792
       7.846
       7.906
       6.665
       4.245
       1.008
      -2.731
      -6.801
     -11.010
     -14.897
     -17.688
     -18.613
     -17.421
     -14.699
     -11.635
      -9.343
      -8.273
      -8.204
      -8.747
      -9.771
     -11.318
     -13.131
     -14.422
     -14.265
     -12.326
      -9.192
      -5.904
      -3.114
      -0.696
       1.865
       4.754
       7.491
       9.269
       9.616
       8.753
       7.388
       6.169
       5.268
       4.356
       2.963
       0.934
      -1.366
      -3.297
      -4.451
      -4.896
      -4.863
      -4.248
      -2.597
       0.289
       3.826
       6.914
       8.901
      10.219
      11.957
      14.736
      18.045
      20.636
      21.412
      19.872
      15.897
       9.509
       1.174
      -7.669
     -14.735
     -18.003
     -16.990
     -13.005
      -8.092
      -3.685
      -0.128
       2.788
       5.089
       6.401
       6.286
       4.657
       1.918
      -1.213
      -4.029
      -6.155
      -7.699
      -9.078
     -10.586
     -12.007
     -12.606
     -11.541
      -8.403
      -3.522
       2.146
       7.428
      11.379
      13.598
      14.321
      14.190
      13.772
      13.113
      11.711
       9.026
       5.118
       0.832
      -2.698
      -4.785
      -5.540
      -5.609
      -5.690
      -6.296
      -7.732
      -9.916
     -12.086
     -12.875
     -11.073
      -6.603
      -0.917
       3.596
       4.831
       2.088
      -3.540
      -9.712
     -14.033
     -15.213
     -13.507
     -10.217
      -6.730
      -3.791
      -1.478
       0.377
       1.830
       2.857
       3.573
       4.246
       4.984
       5.458
       5.066
       3.516
       1.198
      -1.100
      -2.887
      -4.314
      -5.738
      -6.973
      -7.093
      -5.082
      -0.757
       4.958
      10.621
      15.103
      17.921
      18.963
      18.126
      15.397
      11.330
       7.310
       4.978
       5.073
       6.723
       8.032
       7.657
       6.061
       5.223
       6.949
      11.248
      16.191
      19.288
      19.114
      15.898
      10.850
       5.090
      -0.811
      -6.481
     -11.243
     -14.208
     -14.960
     -14.143
     -13.286
     -13.859
     -16.280
     -19.683
     -22.571
     -23.729
     -22.711
     -19.789
     -15.753
     -11.747
      -8.992
      -8.196
      -8.981
      -9.921
      -9.462
      -7.101
      -3.812
      -1.266
      -0.477
      -1.050
      -1.587
      -0.840
       1.401
       4.289
       6.659
       7.889
       8.314
       8.913
      10.555
      13.351
      16.595
      19.229
      20.418
      19.821
      17.501
      13.722
       8.917
       3.827
      -0.465
      -2.804
      -2.437
       0.588
       5.279
       9.908
      12.593
      12.101
       8.471
       2.993
      -2.559
      -6.942
      -9.911
     -11.839
     -12.962
     -13.028
     -11.640
      -8.872
      -5.486
      -2.515
      -0.652
       0.003
      -0.301
      -1.331
      -2.986
      -5.156
      -7.552
      -9.691
     -11.032
     -11.196
     -10.168
      -8.341
      -6.288
      -4.368
      -2.513
      -0.415
       2.008
       4.320
       5.831
       6.214
       5.881
       5.656
       5.981
       6.464
       6.272
       5.005
       3.160
       1.716
       1.249
       1.479
       1.639
       1.268
       0.642
       0.479
       1.204
       2.493
       3.526
       3.684
       3.009
       2.055
       1.384
       1.255
       1.712
       2.750
       4.239
       5.656
       6.060
       4.567
       1.017
      -3.721
      -8.156
     -10.985
     -11.725
     -10.758
      -8.896
      -6.898
      -5.225
      -3.985
      -2.942
      -1.596
       0.513
       3.308
       5.872
       6.761
       4.929
       0.622
      -4.554
      -8.569
     -10.190
      -9.495
      -7.357
      -4.556
      -1.355
       2.203
       5.764
       8.500
       9.451
       8.090
       4.694
       0.345
      -3.477
      -5.541
      -5.463
      -3.844
      -1.836
      -0.433
       0.051
       0.008
       0.164
       1.126
       3.146
       6.077
       9.388
      12.230
      13.678
      13.110
      10.570
       6.848
       3.166
       0.543
      -0.791
      -1.451
      -2.306
      -3.693
      -5.149
      -5.887
      -5.571
      -4.638
      -3.896
      -3.849
      -4.397
      -5.047
      -5.290
      -4.787
      -3.400
      -1.284
       0.957
       2.364
       2.136
       0.273
      -2.232
      -3.929
      -3.817
      -1.945
       0.724
       3.039
       4.406
       5.040
       5.639
       6.772
       8.402
       9.786
       9.849
       7.834
       3.864
      -0.984
      -5.163
      -7.427
      -7.419
      -5.755
      -3.608
      -2.031
      -1.425
      -1.425
      -1.253
      -0.263
       1.644
       3.929
       5.644
       5.854
       4.124
       0.839
      -2.865
      -5.598
      -6.415
      -5.293
      -3.093
      -1.038
      -0.059
      -0.443
      -1.908
      -3.884
      -5.743
      -6.973
      -7.377
      -7.212
      -7.058
      -7.409
      -8.275
      -9.107
      -9.114
      -7.759
      -5.114
      -1.895
       0.873
       2.457
       2.946
       3.212
       4.162
       5.851
       7.312
       7.405
       5.966
       4.162
       3.610
       5.011
       7.580
       9.805
      10.759
      10.696
      10.466
      10.468
      10.243
       9.067
       6.854
       4.368
       2.537
       1.567
       0.750
      -0.824
      -3.288
      -5.662
      -6.532
      -5.230
      -2.452
       0.220
       1.455
       0.957
      -0.678
      -2.702
      -4.747
      -6.692
      -8.240
      -8.895
      -8.444
      -7.348
      -6.475
      -6.364
      -6.756
      -6.865
      -6.098
      -4.501
      -2.573
      -0.771
       0.772
       2.097
       3.159
       3.781
       3.870
       3.620
       3.432
       3.605
       4.113
       4.645
       4.815
       4.346
       3.188
       1.603
       0.144
      -0.616
      -0.487
       0.142
       0.616
       0.604
       0.379
       0.497
       1.185
       2.124
       2.821
       3.147
       3.411
       3.900
       4.374
       4.100
       2.453
      -0.460
      -3.713
      -6.129
      -7.018
      -6.519
      -5.300
      -3.967
      -2.727
      -1.568
      -0.588
      -0.010
       0.166
       0.420
       1.453
       3.537
       6.100
       8.029
       8.468
       7.374
       5.379
       3.190
       1.174
      -0.586
      -2.033
      -3.057
      -3.636
      -3.915
      -4.044
      -3.996
      -3.683
      -3.285
      -3.346
      -4.339
      -6.010
      -7.214
      -6.656
      -4.074
      -0.792
       0.989
      -0.247
      -4.144
      -8.625
     -11.274
     -10.866
      -7.945
      -4.169
      -1.099
       0.643
       1.431
       2.077
       3.093
       4.201
       4.458
       3.031
       0.107
      -2.879
      -4.072
      -2.520
       1.110
       5.055
       7.712
       8.513
       7.827
       6.301
       4.406
       2.495
       1.085
       0.859
       2.236
       4.837
       7.430
       8.603
       7.743
       5.518
       3.389
       2.542
       3.115
       4.333
       5.318
       5.753
       5.835
       5.677
       4.863
       2.646
      -1.366
      -6.634
     -11.737
     -15.047
     -15.573
     -13.427
      -9.663
      -5.676
      -2.560
      -0.725
       0.079
       0.445
       0.877
       1.503
       2.124
       2.562
       2.962
       3.693
       4.907
       6.217
       6.886
       6.406
       4.919
       3.094
       1.592
       0.638
       0.077
      -0.250
      -0.297
      -0.003
       0.396
       0.422
      -0.213
      -1.266
      -2.105
      -2.195
      -1.501
      -0.499
       0.149
       0.016
      -0.843
      -1.938
      -2.662
      -2.695
      -2.217
      -1.764
      -1.868
      -2.746
      -4.226
      -5.908
      -7.383
      -8.360
