Origin Time       18/9/2011 12:40:47	
Lat.              27.6 N	
Long.             88.2 E	
Depth (Km)         10.0
Magnitude         6.8
 Region           India(Sikkim)-Nepar-Border                                       
 Above details taken from IMD 
     
Station Code      KOK
Station Lat.       26.400  N
Station Long.      90.261  E
Station Height(m)   54.0
Site Class        C   Vs30 between 200 m/sec to 375 m/sec *  
Record Time       18.09.2011 12:41:04.704
Sampling Rate     200. Hz
 Record Duration  199.785 Sec.
 Direction         E-W (E positive)
Max. Acceleration    -43.710 cm/sec**2
     
  * For reference see Site Classification link of website 
     
 Base Line Corrected and Low Pass Filtered (Cut Off at 35 Hz) Time History
 Acceleration data in cm/sec**2
    
[...]
       4.528
       4.278
       4.050
       4.194
       5.064
       6.842
       9.422
      12.427
      15.360
      17.804
      19.529
      20.483
      20.715
      20.311
      19.364
      17.976
      16.232
      14.159
      11.696
       8.729
       5.201
       1.241
      -2.787
      -6.364
      -9.015
     -10.518
     -11.003
     -10.869
     -10.555
     -10.306
     -10.062
      -9.554
      -8.514
      -6.885
      -4.887
      -2.929
      -1.422
      -0.615
      -0.540
      -1.044
      -1.856
      -2.639
      -3.045
      -2.813
      -1.875
      -0.422
       1.156
       2.433
       3.129
       3.204
       2.861
       2.444
       2.283
       2.562
       3.263
       4.213
       5.181
       5.965
       6.445
       6.592
       6.468
       6.205
       5.954
       5.806
       5.720
       5.525
       4.990
       3.945
       2.354
       0.332
      -1.903
      -4.086
      -5.988
      -7.462
      -8.472
      -9.068
      -9.338
      -9.368
      -9.216
      -8.921
      -8.525
      -8.113
      -7.834
      -7.878
      -8.396
      -9.425
     -10.848
     -12.451
     -14.001
     -15.317
     -16.277
     -16.765
     -16.623
     -15.664
     -13.763
     -10.975
      -7.601
      -4.123
      -1.040
       1.330
       2.949
       4.033
       4.905
       5.825
       6.886
       8.008
       9.002
       9.671
       9.880
       9.591
       8.861
       7.823
       6.663
       5.599
       4.858
       4.624
       4.982
       5.858
       7.007
       8.087
       8.785
       8.927
       8.500
       7.593
       6.323
       4.804
       3.164
       1.556
       0.119
      -1.089
      -2.105
      -3.008
      -3.830
      -4.511
      -4.936
      -5.021
      -4.774
      -4.286
      -3.677
      -3.041
      -2.421
      -1.814
      -1.193
      -0.533
       0.141
       0.733
       1.100
       1.146
       0.914
       0.618
       0.560
       0.992
       1.982
       3.383
       4.892
       6.188
       7.040
       7.362
       7.206
       6.712
       6.052
       5.375
       4.787
       4.360
       4.171
       4.309
       4.816
       5.620
       6.511
       7.215
       7.518
       7.366
       6.866
       6.202
       5.525
       4.886
       4.256
       3.595
       2.931
       2.381
       2.081
       2.083
       2.271
       2.387
       2.155
       1.434
       0.278
      -1.126
      -2.577
      -3.949
      -5.191
      -6.280
      -7.189
      -7.894
      -8.400
      -8.733
      -8.904
      -8.856
      -8.472
      -7.646
      -6.389
      -4.909
      -3.577
      -2.775
      -2.699
      -3.237
      -4.030
      -4.679
      -4.973
      -4.967
      -4.870
      -4.840
      -4.827
      -4.575
      -3.777
      -2.276
      -0.194
       2.089
       4.077
       5.360
       5.767
       5.405
       4.585
       3.668
       2.921
       2.442
       2.162
       1.907
       1.501
       0.858
       0.035
      -0.795
      -1.420
      -1.691
      -1.594
      -1.281
      -1.020
      -1.080
      -1.594
      -2.473
      -3.440
      -4.174
      -4.464
      -4.296
      -3.829
      -3.305
      -2.944
      -2.886
      -3.164
      -3.706
      -4.346
      -4.886
      -5.165
      -5.107
      -4.698
      -3.935
      -2.791
      -1.234
       0.716
       2.935
       5.208
       7.286
       8.964
      10.141
      10.834
      11.148
      11.227
      11.201
      11.156
      11.130
      11.118
      11.075
      10.923
      10.585
      10.033
       9.334
       8.637
       8.106
       7.817
       7.690
       7.498
       6.950
       5.813
       4.017
       1.703
      -0.819
      -3.173
      -5.039
      -6.237
      -6.756
      -6.725
      -6.347
      -5.832
      -5.348
      -5.030
      -4.999
      -5.359
      -6.139
      -7.219
      -8.332
      -9.171
      -9.542
      -9.472
      -9.177
      -8.897
      -8.737
      -8.605
      -8.325
      -7.815
      -7.198
      -6.734
      -6.644
      -6.951
      -7.475
      -7.932
      -8.057
      -7.683
      -6.760
      -5.372
      -3.729
      -2.130
      -0.878
      -0.182
      -0.091
      -0.494
      -1.177
      -1.926
      -2.611
      -3.230
      -3.858
      -4.563
      -5.330
      -6.052
      -6.585
      -6.806
      -6.625
      -5.980
      -4.844
      -3.268
      -1.406
       0.501
       2.211
       3.588
       4.654
       5.575
       6.555
       7.735
       9.118
      10.586
      11.969
      13.124
      13.964
      14.429
      14.455
      13.961
      12.887
      11.240
       9.142
       6.820
       4.553
       2.564
       0.931
      -0.422
      -1.631
      -2.774
      -3.833
      -4.735
      -5.425
      -5.885
      -6.093
      -5.999
      -5.559
      -4.812
      -3.921
      -3.131
      -2.642
      -2.498
      -2.545
      -2.496
      -2.072
      -1.123
       0.317
       2.065
       3.874
       5.516
       6.821
       7.693
       8.117
       8.149
       7.898
       7.470
       6.929
       6.298
       5.619
       5.028
       4.754
       5.008
       5.842
       7.071
       8.352
       9.354
       9.918
      10.081
       9.982
       9.716
       9.246
       8.433
       7.155
       5.422
       3.403
       1.340
      -0.589
      -2.339
      -3.962
      -5.515
      -6.997
      -8.369
      -9.632
     -10.863
     -12.164
     -13.549
     -14.867
     -15.821
     -16.115
     -15.610
     -14.400
     -12.764
     -11.014
      -9.362
      -7.846
      -6.371
      -4.815
      -3.149
      -1.480
       0.004
       1.154
       1.958
       2.529
       3.011
       3.481
       3.929
       4.310
       4.602
       4.816
       4.961
       5.005
       4.892
       4.580
       4.077
       3.443
       2.766
       2.159
       1.761
       1.730
       2.177
       3.082
       4.258
       5.407
       6.263
       6.712
       6.824
       6.762
       6.660
       6.531
       6.267
       5.718
       4.787
       3.473
       1.854
       0.040
      -1.852
      -3.704
      -5.413
      -6.912
      -8.210
      -9.382
     -10.523
     -11.687
     -12.848
     -13.910
     -14.746
     -15.245
     -15.328
     -14.945
     -14.068
     -12.694
     -10.848
      -8.590
      -6.016
      -3.246
      -0.398
       2.428
       5.131
       7.590
       9.660
      11.206
      12.160
      12.528
      12.362
      11.717
      10.653
       9.276
       7.755
       6.271
       4.931
       3.740
       2.658
       1.711
       1.026
       0.774
       1.045
       1.783
       2.812
       3.932
       4.995
       5.913
       6.632
       7.083
       7.188
       6.881
       6.150
       5.056
       3.732
       2.345
       1.061
       0.004
      -0.758
      -1.208
      -1.353
      -1.218
      -0.840
      -0.263
       0.470
       1.312
       2.182
       2.954
       3.486
       3.659
       3.420
       2.776
       1.769
       0.468
      -0.997
      -2.400
      -3.441
      -3.874
      -3.658
      -3.009
      -2.306
      -1.886
      -1.905
      -2.308
      -2.926
      -3.597
      -4.219
      -4.729
      -5.059
      -5.116
      -4.814
      -4.121
      -3.087
      -1.832
      -0.504
       0.758
       1.845
       2.682
       3.265
       3.679
       4.071
       4.570
       5.227
       6.000
       6.805
       7.543
       8.093
       8.296
       7.995
       7.141
       5.877
       4.500
       3.321
       2.504
       2.006
       1.638
       1.176
       0.453
      -0.613
      -2.021
      -3.699
      -5.490
      -7.170
      -8.513
      -9.360
      -9.662
      -9.469
      -8.893
      -8.072
      -7.143
      -6.215
      -5.334
      -4.470
      -3.526
      -2.366
      -0.873
       0.972
       3.018
       4.941
       6.347
       6.944
       6.687
       5.807
       4.703
       3.776
       3.297
       3.349
       3.850
       4.608
       5.370
       5.881
       5.932
       5.427
       4.428
       3.163
       1.958
       1.114
       0.778
       0.898
       1.289
       1.769
       2.243
       2.698
       3.132
       3.494
       3.697
       3.686
       3.478
       3.148
       2.740
       2.180
       1.287
      -0.121
      -2.077
      -4.381
      -6.627
      -8.333
      -9.089
      -8.677
      -7.121
      -4.688
      -1.821
       0.968
       3.232
       4.696
       5.308
       5.217
       4.665
       3.871
       2.971
       2.021
       1.053
       0.109
      -0.744
      -1.431
      -1.893
      -2.095
      -2.026
      -1.701
      -1.178
      -0.573
      -0.042
       0.268
       0.297
       0.109
      -0.138
      -0.275
      -0.197
       0.115
       0.620
       1.246
       1.883
       2.375
       2.561
       2.353
       1.783
       0.979
       0.075
      -0.866
      -1.873
      -3.019
      -4.354
      -5.860
      -7.457
      -9.015
     -10.378
     -11.396
     -11.978
     -12.136
     -11.955
     -11.513
     -10.827
      -9.866
      -8.634
      -7.256
      -5.981
      -5.081
      -4.689
      -4.727
      -4.972
      -5.217
      -5.384
      -5.508
      -5.630
      -5.700
      -5.568
      -5.058
      -4.070
      -2.648
      -0.963
       0.751
       2.278
       3.472
       4.274
       4.714
       4.893
       4.962
       5.083
       5.369
       5.832
       6.392
       6.948
       7.474
       8.065
       8.865
       9.940
      11.177
      12.291
      12.952
      12.960
      12.369
      11.464
      10.586
       9.902
       9.267
       8.308
       6.662
       4.222
       1.220
      -1.890
      -4.652
      -6.777
      -8.205
      -9.064
      -9.600
     -10.099
     -10.815
     -11.886
     -13.262
     -14.724
     -15.975
     -16.784
     -17.076
     -16.921
     -16.463
     -15.821
     -15.050
     -14.164
     -13.193
     -12.213
     -11.325
     -10.592
      -9.995
      -9.453
      -8.878
      -8.224
      -7.488
      -6.678
      -5.796
      -4.847
      -3.873
      -2.946
      -2.112
      -1.343
      -0.546
       0.366
       1.396
       2.463
       3.482
       4.465
       5.571
       7.055
       9.129
      11.809
      14.840
      17.749
      20.010
      21.222
      21.195
      19.953
      17.668
      14.625
      11.216
       7.924
       5.233
       3.485
       2.782
       3.002
       3.890
       5.160
       6.547
       7.800
       8.664
       8.874
       8.204
       6.556
       4.034
       0.946
      -2.315
      -5.430
      -8.266
     -10.841
     -13.173
     -15.140
     -16.452
     -16.771
     -15.890
     -13.851
     -10.959
      -7.680
      -4.485
      -1.710
       0.524
       2.299
       3.796
       5.183
       6.556
       7.944
       9.356
      10.789
      12.221
      13.577
      14.743
      15.600
      16.079
      16.176
      15.917
      15.313
      14.345
      12.992
      11.274
       9.265
       7.065
       4.779
       2.507
       0.345
      -1.623
      -3.333
      -4.748
      -5.856
      -6.697
      -7.369
      -8.030
      -8.846
      -9.930
     -11.276
     -12.719
     -13.964
     -14.648
     -14.449
     -13.190
     -10.930
      -8.000
      -4.962
      -2.444
      -0.915
      -0.519
      -1.056
      -2.107
      -3.228
      -4.094
      -4.546
      -4.566
      -4.228
      -3.646
      -2.937
      -2.168
      -1.328
      -0.349
       0.826
       2.166
       3.540
       4.774
       5.736
       6.400
       6.850
       7.232
       7.710
       8.432
       9.519
      11.043
      12.971
      15.127
      17.184
      18.737
      19.404
      18.940
      17.312
      14.710
      11.514
       8.185
       5.127
       2.587
       0.627
      -0.819
      -1.863
      -2.618
      -3.196
      -3.703
      -4.220
      -4.762
      -5.285
      -5.716
      -6.001
      -6.149
      -6.229
      -6.336
      -6.549
      -6.903
      -7.393
      -7.953
      -8.411
      -8.481
      -7.884
      -6.550
      -4.760
      -3.061
      -1.983
      -1.750
      -2.213
      -3.017
      -3.836
      -4.500
      -4.960
      -5.176
      -5.047
      -4.411
      -3.107
      -1.041
       1.771
       5.183
       8.929
      12.682
      16.125
      19.008
      21.163
      22.468
      22.812
      22.115
      20.381
      17.748
      14.482
      10.905
       7.321
       3.981
       1.070
      -1.309
      -3.203
      -4.824
      -6.462
      -8.322
     -10.362
     -12.270
     -13.611
     -14.078
     -13.687
     -12.773
     -11.806
     -11.160
     -10.956
     -11.060
     -11.185
     -11.019
     -10.312
      -8.917
      -6.815
      -4.137
      -1.156
       1.798
       4.458
       6.702
       8.541
      10.043
      11.270
      12.271
      13.129
      13.965
      14.898
      15.967
      17.086
      18.073
      18.721
      18.845
      18.311
      17.059
      15.172
      12.935
      10.781
       9.085
       7.937
       7.080
       6.088
       4.635
       2.668
       0.367
      -2.017
      -4.327
      -6.547
      -8.746
     -10.984
     -13.263
     -15.549
     -17.800
     -19.995
     -22.151
     -24.334
     -26.655
     -29.211
     -31.993
     -34.840
     -37.500
     -39.753
     -41.493
     -42.717
     -43.450
     -43.710
     -43.529
     -42.985
     -42.166
     -41.087
     -39.653
     -37.722
     -35.233
     -32.262
     -28.970
     -25.491
     -21.864
     -18.063
     -14.092
     -10.026
      -5.993
      -2.113
       1.535
       4.890
       7.877
      10.424
      12.516
      14.255
      15.846
      17.487
      19.237
      20.969
      22.493
      23.743
      24.870
      26.163
      27.850
      29.925
      32.130
      34.080
      35.421
      35.927
      35.513
      34.213
      32.137
      29.431
      26.224
      22.641
      18.841
      15.028
      11.386
       7.989
       4.782
       1.666
      -1.385
      -4.265
      -6.793
      -8.839
     -10.416
     -11.666
     -12.756
     -13.788
     -14.752
     -15.545
     -16.033
     -16.139
     -15.891
     -15.415
     -14.881
     -14.437
     -14.161
     -14.038
     -13.966
     -13.783
     -13.324
     -12.480
     -11.247
      -9.713
      -8.031
      -6.360
      -4.832
      -3.530
      -2.473
      -1.619
      -0.877
      -0.149
       0.628
       1.462
       2.320
       3.167
       3.991
       4.815
       5.673
       6.571
       7.459
       8.240
       8.835
       9.252
       9.609
      10.066
      10.713
      11.506
      12.297
      12.952
      13.441
      13.867
      14.403
      15.195
      16.280
      17.553
      18.782
      19.670
      19.947
      19.476
      18.313
      16.670
      14.791
      12.843
      10.870
       8.839
       6.722
       4.554
       2.430
       0.469
      -1.231
      -2.612
      -3.676
      -4.503
      -5.242
      -6.050
      -7.013
      -8.089
      -9.136
     -10.006
     -10.636
     -11.062
     -11.357
     -11.550
     -11.618
     -11.551
     -11.420
     -11.342
     -11.382
     -11.477
     -11.475
     -11.261
     -10.842
     -10.337
      -9.889
      -9.581
      -9.406
      -9.289
      -9.145
      -8.939
      -8.721
      -8.611
      -8.745
      -9.193
      -9.905
     -10.702
     -11.329
     -11.520
     -11.082
      -9.951
      -8.226
      -6.156
      -4.069
      -2.255
      -0.832
       0.297
       1.376
       2.654
       4.254
       6.120
       8.059
       9.821
      11.192
      12.053
      12.409
      12.371
      12.104
      11.751
      11.395
      11.066
      10.790
      10.612
      10.585
      10.733
      11.013
      11.310
      11.456
      11.283
      10.696
       9.735
       8.558
       7.340
       6.136
       4.832
       3.235
       1.241
      -1.045
      -3.327
      -5.257
      -6.594
      -7.283
      -7.423
      -7.177
      -6.684
      -6.044
      -5.352
      -4.740
      -4.381
      -4.443
      -5.036
      -6.178
      -7.804
      -9.788
     -11.954
     -14.060
     -15.802
     -16.871
     -17.060
     -16.345
     -14.901
     -13.020
     -10.999
      -9.060
      -7.338
      -5.893
      -4.714
      -3.700
      -2.656
      -1.332
       0.484
       2.856
       5.639
       8.499
      11.026
      12.898
      13.987
      14.385
      14.341
      14.181
      14.241
      14.808
      16.039
      17.893
      20.104
      22.274
      24.042
      25.232
      25.894
      26.230
      26.462
      26.727
      27.007
      27.135
      26.834
      25.804
      23.824
      20.856
      17.080
      12.859
       8.617
       4.710
       1.333
      -1.482
      -3.808
      -5.744
      -7.360
      -8.700
      -9.807
     -10.749
     -11.601
     -12.400
     -13.104
     -13.623
     -13.911
     -14.049
     -14.242
     -14.727
     -15.648
     -16.981
     -18.513
     -19.895
     -20.745
     -20.779
     -19.881
     -18.103
     -15.610
     -12.635
      -9.463
      -6.408
      -3.764
      -1.735
      -0.391
       0.319
       0.514
       0.338
      -0.037
      -0.391
      -0.495
      -0.185
       0.565
       1.661
       2.977
       4.460
       6.160
       8.157
      10.443
      12.860
      15.140
      17.023
      18.355
      19.092
      19.228
      18.706
      17.418
      15.320
      12.562
       9.513
       6.632
       4.263
       2.512
       1.276
       0.377
      -0.296
      -0.768
      -1.047
      -1.212
      -1.419
      -1.828
      -2.506
      -3.401
      -4.370
      -5.251
      -5.927
      -6.340
      -6.490
      -6.419
      -6.206
      -5.956
      -5.777
      -5.758
      -5.962
      -6.443
      -7.240
      -8.361
      -9.744
     -11.250
     -12.691
     -13.884
     -14.685
     -14.969
     -14.609
     -13.488
     -11.565
      -8.941
      -5.881
      -2.754
       0.087
       2.414
       4.174
       5.449
       6.381
       7.111
       7.738
       8.326
       8.900
       9.447
       9.920
      10.263
      10.440
      10.441
      10.236
       9.719
       8.683
       6.893
       4.217
       0.753
      -3.125
      -6.861
      -9.920
     -12.002
     -13.147
     -13.664
     -13.935
     -14.206
     -14.480
     -14.556
     -14.173
     -13.177
     -11.623
      -9.757
      -7.874
      -6.156
      -4.605
      -3.131
      -1.725
      -0.557
       0.098
       0.028
      -0.782
      -2.150
      -3.818
      -5.569
      -7.273
      -8.851
     -10.207
     -11.214
     -11.745
     -11.727
     -11.173
     -10.183
      -8.896
      -7.433
      -5.860
      -4.195
      -2.441
      -0.614
       1.267
       3.186
       5.125
       7.025
       8.769
      10.212
      11.243
      11.826
      11.987
      11.788
      11.317
      10.722
      10.202
       9.959
      10.101
      10.574
      11.154
      11.485
      11.185
       9.980
       7.832
       4.989
       1.907
      -0.932
      -3.200
      -4.792
      -5.773
      -6.271
      -6.402
