Origin Time       29/10/2009 17:00:35 UTC
Lat.              27.3°N	
Long.             91.4°E	
Depth (Km)          5.0
Magnitude         5.2
 Region           BHUTAN                                                           
 Above details taken from IMD 
    
Station Code      KOK
Station Lat.       26.400  N
Station Long.      90.261  E
Station Height(m)   53.0
Site Class        C   Vs30 between 200 m/sec to 375 m/sec *  
Record Time       29.10.2009 17:01:10.729 UTC
Sampling Rate     200. Hz
 Record Duration   65.050 Sec.
 Direction         N-S (N positive)
Max. Acceleration      4.420 cm/sec**2
     
  * For reference see Site Classification link of website 
     
 Base Line Corrected and Low Pass Filtered (Cut Off at 35 Hz) Time History
 Acceleration data in cm/sec**2
    
[...]
      -0.043
      -0.073
      -0.107
      -0.135
      -0.155
      -0.163
      -0.153
      -0.119
      -0.061
       0.007
       0.069
       0.114
       0.140
       0.150
       0.147
       0.134
       0.114
       0.094
       0.079
       0.068
       0.053
       0.025
      -0.017
      -0.063
      -0.099
      -0.115
      -0.111
      -0.103
      -0.112
      -0.154
      -0.232
      -0.331
      -0.437
      -0.538
      -0.629
      -0.705
      -0.762
      -0.800
      -0.822
      -0.833
      -0.838
      -0.835
      -0.819
      -0.788
      -0.746
      -0.706
      -0.679
      -0.665
      -0.656
      -0.634
      -0.585
      -0.505
      -0.400
      -0.276
      -0.140
      -0.001
       0.126
       0.229
       0.301
       0.345
       0.373
       0.397
       0.425
       0.457
       0.490
       0.521
       0.552
       0.585
       0.617
       0.638
       0.631
       0.586
       0.504
       0.399
       0.283
       0.168
       0.059
      -0.037
      -0.113
      -0.157
      -0.164
      -0.142
      -0.108
      -0.079
      -0.063
      -0.052
      -0.034
      -0.004
       0.027
       0.038
       0.012
      -0.048
      -0.123
      -0.185
      -0.212
      -0.190
      -0.117
      -0.001
       0.135
       0.263
       0.363
       0.430
       0.472
       0.502
       0.520
       0.513
       0.472
       0.394
       0.293
       0.193
       0.114
       0.071
       0.065
       0.088
       0.133
       0.189
       0.250
       0.307
       0.355
       0.394
       0.429
       0.464
       0.496
       0.515
       0.508
       0.465
       0.385
       0.280
       0.162
       0.045
      -0.066
      -0.172
      -0.276
      -0.382
      -0.490
      -0.595
      -0.687
      -0.761
      -0.818
      -0.872
      -0.938
      -1.026
      -1.133
      -1.243
      -1.335
      -1.392
      -1.408
      -1.381
      -1.316
      -1.215
      -1.080
      -0.910
      -0.718
      -0.525
      -0.362
      -0.249
      -0.192
      -0.176
      -0.180
      -0.182
      -0.170
      -0.149
      -0.132
      -0.132
      -0.153
      -0.188
      -0.216
      -0.216
      -0.175
      -0.098
      -0.005
       0.080
       0.142
       0.180
       0.197
       0.201
       0.196
       0.183
       0.162
       0.131
       0.083
       0.008
      -0.097
      -0.227
      -0.362
      -0.472
      -0.531
      -0.522
      -0.443
      -0.306
      -0.135
       0.046
       0.208
       0.327
       0.388
       0.393
       0.364
       0.335
       0.334
       0.376
       0.453
       0.549
       0.656
       0.779
       0.934
       1.138
       1.392
       1.679
       1.969
       2.226
       2.424
       2.545
       2.582
       2.537
       2.423
       2.260
       2.081
       1.915
       1.782
       1.682
       1.600
       1.525
       1.457
       1.408
       1.389
       1.402
       1.438
       1.483
       1.522
       1.540
       1.525
       1.466
       1.362
       1.217
       1.046
       0.865
       0.692
       0.537
       0.401
       0.276
       0.149
       0.012
      -0.139
      -0.297
      -0.454
      -0.608
      -0.772
      -0.968
      -1.219
      -1.535
      -1.907
      -2.312
      -2.717
      -3.087
      -3.391
      -3.604
      -3.704
      -3.683
      -3.547
      -3.321
      -3.042
      -2.747
      -2.465
      -2.211
      -1.993
      -1.813
      -1.663
      -1.536
      -1.420
      -1.309
      -1.198
      -1.084
      -0.964
      -0.836
      -0.693
      -0.529
      -0.342
      -0.148
       0.027
       0.153
       0.219
       0.234
       0.220
       0.196
       0.170
       0.137
       0.095
       0.050
       0.010
      -0.011
       0.000
       0.048
       0.136
       0.262
       0.422
       0.613
       0.829
       1.053
       1.260
       1.417
       1.492
       1.471
       1.358
       1.180
       0.970
       0.757
       0.557
       0.371
       0.191
       0.011
      -0.172
      -0.350
      -0.518
      -0.666
      -0.785
      -0.869
      -0.910
      -0.898
      -0.834
      -0.726
      -0.597
      -0.471
      -0.363
      -0.275
      -0.202
      -0.135
      -0.064
       0.020
       0.130
       0.283
       0.488
       0.748
       1.045
       1.354
       1.643
       1.891
       2.090
       2.242
       2.356
       2.432
       2.466
       2.455
       2.398
       2.305
       2.185
       2.050
       1.915
       1.796
       1.705
       1.647
       1.614
       1.587
       1.545
       1.466
       1.336
       1.148
       0.908
       0.629
       0.327
       0.012
      -0.316
      -0.654
      -0.995
      -1.318
      -1.595
      -1.801
      -1.923
      -1.960
      -1.932
      -1.864
      -1.782
      -1.706
      -1.647
      -1.614
      -1.615
      -1.656
      -1.731
      -1.822
      -1.907
      -1.966
      -1.988
      -1.970
      -1.910
      -1.810
      -1.679
      -1.532
      -1.386
      -1.248
      -1.123
      -1.007
      -0.903
      -0.815
      -0.746
      -0.692
      -0.636
      -0.563
      -0.465
      -0.353
      -0.252
      -0.189
      -0.182
      -0.231
      -0.324
      -0.441
      -0.555
      -0.631
      -0.640
      -0.567
      -0.425
      -0.242
      -0.046
       0.154
       0.366
       0.597
       0.842
       1.075
       1.260
       1.366
       1.380
       1.308
       1.174
       1.007
       0.840
       0.699
       0.604
       0.558
       0.550
       0.554
       0.547
       0.513
       0.455
       0.388
       0.321
       0.250
       0.159
       0.033
      -0.126
      -0.296
      -0.444
      -0.544
      -0.585
      -0.573
      -0.519
      -0.435
      -0.323
      -0.183
      -0.020
       0.155
       0.332
       0.506
       0.682
       0.861
       1.033
       1.176
       1.267
       1.286
       1.231
       1.106
       0.927
       0.714
       0.497
       0.311
       0.190
       0.156
       0.212
       0.333
       0.478
       0.603
       0.677
       0.699
       0.692
       0.689
       0.707
       0.742
       0.774
       0.780
       0.750
       0.688
       0.607
       0.519
       0.435
       0.357
       0.281
       0.197
       0.102
       0.002
      -0.088
      -0.155
      -0.203
      -0.249
      -0.317
      -0.417
      -0.543
      -0.665
      -0.753
      -0.783
      -0.748
      -0.656
      -0.521
      -0.361
      -0.192
      -0.032
       0.103
       0.200
       0.258
       0.295
       0.337
       0.404
       0.497
       0.594
       0.659
       0.656
       0.572
       0.411
       0.191
      -0.066
      -0.341
      -0.613
      -0.864
      -1.080
      -1.259
      -1.407
      -1.534
      -1.643
      -1.736
      -1.815
      -1.881
      -1.936
      -1.974
      -1.987
      -1.975
      -1.947
      -1.916
      -1.894
      -1.876
      -1.848
      -1.787
      -1.675
      -1.503
      -1.275
      -1.008
      -0.729
      -0.473
      -0.266
      -0.122
      -0.037
       0.010
       0.055
       0.131
       0.262
       0.451
       0.685
       0.939
       1.188
       1.408
       1.578
       1.680
       1.703
       1.656
       1.567
       1.480
       1.433
       1.441
       1.489
       1.544
       1.569
       1.536
       1.433
       1.270
       1.073
       0.879
       0.726
       0.641
       0.630
       0.680
       0.760
       0.838
       0.885
       0.890
       0.849
       0.767
       0.647
       0.504
       0.360
       0.242
       0.167
       0.139
       0.153
       0.211
       0.317
       0.468
       0.647
       0.821
       0.958
       1.050
       1.111
       1.159
       1.194
       1.183
       1.086
       0.874
       0.553
       0.151
      -0.290
      -0.725
      -1.117
      -1.431
      -1.640
      -1.736
      -1.732
      -1.657
      -1.550
      -1.439
      -1.337
      -1.232
      -1.102
      -0.926
      -0.704
      -0.456
      -0.214
      -0.008
       0.143
       0.234
       0.270
       0.260
       0.220
       0.162
       0.097
       0.033
      -0.020
      -0.052
      -0.056
      -0.033
       0.014
       0.077
       0.154
       0.249
       0.363
       0.500
       0.649
       0.793
       0.904
       0.953
       0.915
       0.771
       0.521
       0.184
      -0.202
      -0.586
      -0.920
      -1.175
      -1.344
      -1.435
      -1.464
      -1.436
      -1.345
      -1.188
      -0.969
      -0.713
      -0.464
      -0.270
      -0.164
      -0.161
      -0.247
      -0.394
      -0.574
      -0.760
      -0.935
      -1.084
      -1.187
      -1.225
      -1.188
      -1.078
      -0.903
      -0.672
      -0.392
      -0.067
       0.288
       0.641
       0.954
       1.191
       1.332
       1.377
       1.339
       1.237
       1.092
       0.919
       0.734
       0.552
       0.383
       0.233
       0.104
      -0.004
      -0.083
      -0.126
      -0.126
      -0.084
      -0.010
       0.082
       0.182
       0.282
       0.377
       0.462
       0.522
       0.541
       0.498
       0.380
       0.193
      -0.030
      -0.243
      -0.407
      -0.505
      -0.548
      -0.558
      -0.553
      -0.543
      -0.526
      -0.499
      -0.460
      -0.407
      -0.344
      -0.274
      -0.195
      -0.106
      -0.005
       0.098
       0.185
       0.237
       0.240
       0.199
       0.131
       0.059
       0.009
      -0.001
       0.034
       0.111
       0.209
       0.304
       0.370
       0.394
       0.380
       0.342
       0.304
       0.290
       0.328
       0.438
       0.626
       0.872
       1.133
       1.361
       1.520
       1.600
       1.613
       1.586
       1.539
       1.479
       1.400
       1.298
       1.171
       1.024
       0.861
       0.681
       0.477
       0.244
      -0.012
      -0.277
      -0.529
      -0.750
      -0.935
      -1.090
      -1.222
      -1.342
      -1.452
      -1.557
      -1.656
      -1.748
      -1.831
      -1.902
      -1.962
      -2.015
      -2.068
      -2.123
      -2.174
      -2.211
      -2.221
      -2.197
      -2.138
      -2.049
      -1.943
      -1.826
      -1.696
      -1.537
      -1.330
      -1.054
      -0.702
      -0.276
       0.208
       0.719
       1.216
       1.655
       2.005
       2.255
       2.418
       2.523
       2.607
       2.702
       2.824
       2.967
       3.109
       3.219
       3.277
       3.271
       3.205
       3.082
       2.902
       2.662
       2.369
       2.034
       1.673
       1.297
       0.906
       0.495
       0.065
      -0.374
      -0.802
      -1.195
      -1.538
      -1.829
      -2.076
      -2.283
      -2.441
      -2.530
      -2.531
      -2.444
      -2.291
      -2.105
      -1.912
      -1.717
      -1.504
      -1.255
      -0.962
      -0.640
      -0.319
      -0.036
       0.195
       0.380
       0.540
       0.694
       0.843
       0.979
       1.095
       1.193
       1.277
       1.343
       1.374
       1.349
       1.253
       1.083
       0.848
       0.573
       0.283
       0.002
      -0.258
      -0.498
      -0.729
      -0.970
      -1.236
      -1.526
      -1.821
      -2.094
      -2.315
      -2.467
      -2.545
      -2.552
      -2.499
      -2.399
      -2.271
      -2.137
      -2.015
      -1.914
      -1.828
      -1.736
      -1.615
      -1.450
      -1.238
      -0.984
      -0.691
      -0.372
      -0.044
       0.266
       0.537
       0.763
       0.961
       1.164
       1.399
       1.675
       1.975
       2.266
       2.504
       2.652
       2.688
       2.611
       2.436
       2.188
       1.894
       1.577
       1.262
       0.975
       0.735
       0.547
       0.404
       0.290
       0.184
       0.065
      -0.086
      -0.280
      -0.511
      -0.755
      -0.973
      -1.127
      -1.193
      -1.167
      -1.067
      -0.922
      -0.762
      -0.613
      -0.484
      -0.372
      -0.252
      -0.094
       0.125
       0.407
       0.727
       1.044
       1.308
       1.484
       1.553
       1.524
       1.422
       1.289
       1.168
       1.094
       1.081
       1.113
       1.154
       1.168
       1.142
       1.089
       1.046
       1.044
       1.097
       1.189
       1.274
       1.292
       1.189
       0.943
       0.575
       0.138
      -0.310
      -0.723
      -1.082
      -1.385
      -1.638
      -1.849
      -2.025
      -2.184
      -2.341
      -2.504
      -2.664
      -2.794
      -2.858
      -2.825
      -2.679
      -2.425
      -2.087
      -1.694
      -1.286
      -0.899
      -0.563
      -0.292
      -0.080
       0.088
       0.217
       0.303
       0.333
       0.311
       0.257
       0.207
       0.184
       0.188
       0.199
       0.190
       0.139
       0.036
      -0.116
      -0.307
      -0.518
      -0.723
      -0.899
      -1.034
      -1.130
      -1.201
      -1.259
      -1.308
      -1.342
      -1.349
      -1.318
      -1.237
      -1.102
      -0.914
      -0.680
      -0.416
      -0.153
       0.067
       0.209
       0.268
       0.275
       0.283
       0.338
       0.466
       0.680
       0.982
       1.368
       1.821
       2.306
       2.782
       3.211
       3.570
       3.854
       4.066
       4.219
       4.322
       4.388
       4.420
       4.420
       4.375
       4.258
       4.029
       3.659
       3.148
       2.534
       1.883
       1.256
       0.692
       0.201
      -0.222
      -0.590
      -0.913
      -1.202
      -1.467
      -1.717
      -1.951
      -2.159
      -2.325
      -2.426
      -2.445
      -2.371
      -2.206
      -1.962
      -1.657
      -1.316
      -0.971
      -0.670
      -0.457
      -0.359
      -0.371
      -0.458
      -0.578
      -0.695
      -0.789
      -0.845
      -0.845
      -0.775
      -0.632
      -0.438
      -0.235
      -0.069
       0.029
       0.057
       0.035
      -0.006
      -0.053
      -0.115
      -0.213
      -0.356
      -0.526
      -0.679
      -0.775
      -0.800
      -0.768
      -0.704
      -0.626
      -0.533
      -0.419
      -0.286
      -0.151
      -0.033
       0.063
       0.146
       0.228
       0.307
       0.361
       0.364
       0.302
       0.182
       0.023
      -0.160
      -0.355
      -0.555
      -0.748
      -0.921
      -1.079
      -1.243
      -1.447
      -1.711
      -2.022
      -2.332
      -2.578
      -2.715
      -2.727
      -2.629
      -2.448
      -2.214
      -1.958
      -1.714
      -1.517
      -1.387
      -1.322
      -1.292
      -1.259
      -1.188
      -1.060
      -0.871
      -0.618
      -0.301
       0.076
       0.495
       0.919
       1.301
       1.596
       1.783
       1.870
       1.896
       1.919
       1.993
       2.148
       2.365
       2.586
       2.735
       2.759
       2.661
       2.489
       2.322
       2.222
       2.218
       2.292
       2.394
       2.464
       2.455
       2.352
       2.179
       1.980
       1.803
       1.678
       1.615
       1.602
       1.617
       1.627
       1.599
       1.506
       1.335
       1.093
       0.801
       0.491
       0.192
      -0.072
      -0.294
      -0.487
      -0.683
      -0.918
      -1.208
      -1.537
      -1.855
      -2.102
      -2.224
      -2.196
      -2.032
      -1.780
      -1.505
      -1.272
      -1.132
      -1.101
      -1.163
      -1.271
      -1.366
      -1.392
      -1.314
      -1.117
      -0.811
      -0.417
       0.040
       0.527
       0.989
       1.363
       1.603
       1.704
       1.704
       1.657
       1.611
       1.598
       1.628
       1.689
       1.753
       1.777
       1.720
       1.561
       1.303
       0.967
       0.586
       0.198
      -0.156
      -0.449
      -0.679
      -0.866
      -1.042
      -1.234
      -1.457
      -1.705
      -1.952
      -2.161
      -2.293
      -2.324
      -2.246
      -2.086
      -1.889
      -1.712
      -1.602
      -1.578
      -1.622
      -1.695
      -1.760
      -1.795
      -1.801
      -1.795
      -1.791
      -1.793
      -1.798
      -1.793
      -1.768
      -1.717
      -1.634
      -1.516
      -1.358
      -1.144
      -0.853
      -0.469
       0.002
       0.526
       1.048
       1.506
       1.860
       2.091
       2.211
       2.243
       2.216
       2.157
       2.078
       1.981
       1.865
       1.728
       1.582
       1.456
       1.390
       1.414
       1.533
       1.720
       1.930
       2.115
       2.240
       2.279
       2.219
       2.062
       1.825
       1.541
       1.253
       0.995
       0.781
       0.595
       0.403
       0.165
      -0.137
      -0.493
      -0.863
      -1.196
      -1.454
      -1.629
      -1.745
      -1.843
      -1.955
      -2.092
      -2.234
      -2.339
      -2.357
      -2.253
      -2.020
      -1.683
      -1.287
      -0.881
      -0.498
      -0.154
       0.152
       0.426
       0.668
       0.874
       1.034
       1.142
       1.199
       1.216
       1.204
       1.174
       1.133
       1.085
       1.036
       0.990
       0.949
       0.905
       0.853
       0.783
       0.681
       0.530
       0.314
       0.030
      -0.300
      -0.636
      -0.935
      -1.166
      -1.314
      -1.383
      -1.391
      -1.362
      -1.323
      -1.296
      -1.287
      -1.287
      -1.270
      -1.212
      -1.105
      -0.971
      -0.847
      -0.764
      -0.724
      -0.703
      -0.672
      -0.625
      -0.579
      -0.565
      -0.599
      -0.667
      -0.732
      -0.748
      -0.680
      -0.520
      -0.291
      -0.041
       0.183
       0.357
       0.486
       0.594
       0.700
       0.798
       0.861
       0.854
       0.757
       0.573
       0.329
       0.061
      -0.191
      -0.396
      -0.529
      -0.571
      -0.515
      -0.359
      -0.122
       0.156
       0.410
       0.577
       0.619
       0.538
       0.366
       0.149
      -0.067
      -0.242
      -0.350
      -0.390
      -0.392
      -0.400
      -0.447
      -0.530
      -0.610
      -0.636
      -0.583
      -0.466
      -0.335
      -0.242
      -0.214
      -0.237
      -0.269
      -0.268
      -0.215
      -0.111
       0.036
       0.220
       0.445
       0.708
       0.997
       1.289
       1.560
       1.799
       2.007
       2.186
       2.340
       2.462
       2.543
       2.575
       2.556
       2.494
       2.397
       2.276
       2.130
       1.951
       1.731
       1.466
       1.159
       0.828
       0.495
       0.193
      -0.046
      -0.199
      -0.269
      -0.282
      -0.280
      -0.295
      -0.340
      -0.403
      -0.468
      -0.520
      -0.555
      -0.573
      -0.574
      -0.562
      -0.552
      -0.567
      -0.630
      -0.754
      -0.936
      -1.157
      -1.395
      -1.631
      -1.856
      -2.069
      -2.267
      -2.444
      -2.590
      -2.691
      -2.734
      -2.707
      -2.599
      -2.409
      -2.148
      -1.843
      -1.523
      -1.212
      -0.923
      -0.662
      -0.429
      -0.222
      -0.026
