Origin Time       29/10/2009 17:00:35
Lat.              27.3°N	
Long.             91.4°E	
Depth (Km)          5.0
Magnitude         5.2
 Region           BHUTAN                                                           
 Above details taken from IMD 
     
Station Code      KOK
Station Lat.       26.400  N
Station Long.      90.261  E
Station Height(m)   53.0
Site Class        C   Vs30 between 200 m/sec to 375 m/sec *  
Record Time       29.10.2009 17:01:10.729
Sampling Rate     200. Hz
 Record Duration   65.050 Sec.
 Direction         E-W (E positive)
Max. Acceleration     -5.801 cm/sec**2
     
  * For reference see Site Classification link of website 
     
 Base Line Corrected and Low Pass Filtered (Cut Off at 35 Hz) Time History
 Acceleration data in cm/sec**2
    
[...]
       0.067
      -0.070
      -0.194
      -0.288
      -0.361
      -0.435
      -0.528
      -0.634
      -0.724
      -0.763
      -0.730
      -0.636
      -0.509
      -0.381
      -0.265
      -0.159
      -0.047
       0.078
       0.213
       0.345
       0.463
       0.558
       0.625
       0.669
       0.694
       0.708
       0.711
       0.698
       0.666
       0.617
       0.564
       0.527
       0.519
       0.538
       0.573
       0.605
       0.620
       0.616
       0.596
       0.568
       0.538
       0.510
       0.479
       0.440
       0.389
       0.329
       0.266
       0.206
       0.147
       0.087
       0.021
      -0.055
      -0.148
      -0.260
      -0.386
      -0.510
      -0.606
      -0.657
      -0.663
      -0.644
      -0.626
      -0.633
      -0.676
      -0.752
      -0.845
      -0.935
      -1.004
      -1.044
      -1.056
      -1.046
      -1.023
      -1.000
      -0.991
      -1.006
      -1.040
      -1.073
      -1.085
      -1.064
      -1.010
      -0.935
      -0.849
      -0.765
      -0.690
      -0.624
      -0.560
      -0.489
      -0.406
      -0.318
      -0.244
      -0.206
      -0.213
      -0.264
      -0.349
      -0.460
      -0.590
      -0.729
      -0.863
      -0.978
      -1.071
      -1.150
      -1.226
      -1.305
      -1.376
      -1.425
      -1.435
      -1.408
      -1.355
      -1.299
      -1.259
      -1.245
      -1.254
      -1.271
      -1.280
      -1.267
      -1.223
      -1.140
      -1.014
      -0.845
      -0.641
      -0.412
      -0.166
       0.091
       0.362
       0.650
       0.958
       1.286
       1.634
       1.994
       2.357
       2.710
       3.041
       3.338
       3.593
       3.798
       3.948
       4.041
       4.079
       4.063
       3.997
       3.890
       3.756
       3.615
       3.485
       3.373
       3.273
       3.173
       3.062
       2.937
       2.809
       2.694
       2.603
       2.533
       2.467
       2.383
       2.264
       2.100
       1.894
       1.650
       1.374
       1.072
       0.740
       0.369
      -0.053
      -0.522
      -1.015
      -1.492
      -1.914
      -2.256
      -2.513
      -2.694
      -2.808
      -2.858
      -2.844
      -2.777
      -2.681
      -2.594
      -2.550
      -2.560
      -2.610
      -2.670
      -2.714
      -2.732
      -2.731
      -2.726
      -2.729
      -2.734
      -2.722
      -2.662
      -2.527
      -2.308
      -2.018
      -1.694
      -1.383
      -1.130
      -0.963
      -0.884
      -0.874
      -0.906
      -0.956
      -1.012
      -1.068
      -1.120
      -1.163
      -1.187
      -1.180
      -1.139
      -1.070
      -0.993
      -0.936
      -0.922
      -0.961
      -1.051
      -1.175
      -1.316
      -1.458
      -1.594
      -1.720
      -1.829
      -1.914
      -1.964
      -1.973
      -1.935
      -1.848
      -1.709
      -1.515
      -1.263
      -0.964
      -0.635
      -0.305
       0.001
       0.262
       0.475
       0.652
       0.818
       1.000
       1.215
       1.465
       1.735
       1.995
       2.212
       2.360
       2.435
       2.458
       2.460
       2.475
       2.526
       2.619
       2.746
       2.888
       3.018
       3.113
       3.160
       3.166
       3.144
       3.114
       3.086
       3.057
       3.016
       2.940
       2.813
       2.630
       2.407
       2.175
       1.964
       1.789
       1.646
       1.519
       1.387
       1.228
       1.027
       0.783
       0.507
       0.226
      -0.038
      -0.279
      -0.507
      -0.740
      -0.982
      -1.222
      -1.437
      -1.605
      -1.714
      -1.768
      -1.775
      -1.744
      -1.671
      -1.548
      -1.369
      -1.143
      -0.891
      -0.637
      -0.399
      -0.185
       0.007
       0.187
       0.365
       0.546
       0.724
       0.886
       1.017
       1.107
       1.152
       1.154
       1.112
       1.034
       0.940
       0.862
       0.834
       0.875
       0.973
       1.093
       1.191
       1.236
       1.217
       1.140
       1.030
       0.912
       0.813
       0.737
       0.668
       0.569
       0.406
       0.168
      -0.130
      -0.459
      -0.789
      -1.098
      -1.370
      -1.586
      -1.729
      -1.788
      -1.772
      -1.705
      -1.625
      -1.574
      -1.581
      -1.652
      -1.765
      -1.878
      -1.945
      -1.941
      -1.883
      -1.820
      -1.808
      -1.889
      -2.068
      -2.314
      -2.575
      -2.806
      -2.980
      -3.094
      -3.158
      -3.182
      -3.172
      -3.127
      -3.052
      -2.953
      -2.832
      -2.688
      -2.529
      -2.370
      -2.229
      -2.113
      -2.013
      -1.913
      -1.797
      -1.659
      -1.489
      -1.282
      -1.036
      -0.757
      -0.461
      -0.157
       0.154
       0.480
       0.824
       1.171
       1.496
       1.777
       2.016
       2.235
       2.461
       2.706
       2.958
       3.190
       3.379
       3.521
       3.629
       3.723
       3.812
       3.896
       3.972
       4.042
       4.109
       4.170
       4.207
       4.192
       4.106
       3.947
       3.738
       3.510
       3.287
       3.077
       2.882
       2.703
       2.543
       2.405
       2.290
       2.194
       2.105
       2.009
       1.884
       1.708
       1.471
       1.180
       0.858
       0.530
       0.207
      -0.118
      -0.463
      -0.837
      -1.233
      -1.627
      -1.993
      -2.318
      -2.602
      -2.854
      -3.077
      -3.271
      -3.436
      -3.577
      -3.700
      -3.803
      -3.869
      -3.879
      -3.826
      -3.729
      -3.615
      -3.504
      -3.397
      -3.282
      -3.150
      -3.002
      -2.840
      -2.663
      -2.457
      -2.208
      -1.914
      -1.595
      -1.278
      -0.988
      -0.728
      -0.486
      -0.240
       0.029
       0.332
       0.673
       1.047
       1.437
       1.818
       2.161
       2.442
       2.650
       2.787
       2.862
       2.889
       2.882
       2.849
       2.794
       2.717
       2.612
       2.471
       2.289
       2.074
       1.846
       1.623
       1.408
       1.174
       0.887
       0.523
       0.093
      -0.359
      -0.777
      -1.124
      -1.396
      -1.625
      -1.861
      -2.144
      -2.490
      -2.876
      -3.250
      -3.550
      -3.731
      -3.784
      -3.732
      -3.619
      -3.488
      -3.367
      -3.268
      -3.189
      -3.124
      -3.071
      -3.032
      -3.002
      -2.966
      -2.892
      -2.746
      -2.508
      -2.187
      -1.815
      -1.425
      -1.032
      -0.629
      -0.194
       0.286
       0.808
       1.349
       1.877
       2.354
       2.754
       3.071
       3.321
       3.538
       3.750
       3.967
       4.177
       4.353
       4.472
       4.520
       4.504
       4.442
       4.360
       4.281
       4.215
       4.162
       4.109
       4.037
       3.935
       3.801
       3.645
       3.480
       3.317
       3.160
       3.001
       2.826
       2.623
       2.383
       2.103
       1.790
       1.461
       1.142
       0.853
       0.592
       0.333
       0.038
      -0.320
      -0.737
      -1.174
      -1.582
      -1.914
      -2.152
      -2.306
      -2.406
      -2.485
      -2.568
      -2.667
      -2.785
      -2.924
      -3.084
      -3.259
      -3.429
      -3.565
      -3.631
      -3.605
      -3.479
      -3.266
      -2.990
      -2.675
      -2.337
      -1.978
      -1.597
      -1.206
      -0.836
      -0.529
      -0.322
      -0.230
      -0.241
      -0.329
      -0.461
      -0.605
      -0.730
      -0.807
      -0.816
      -0.757
      -0.647
      -0.517
      -0.395
      -0.301
      -0.240
      -0.213
      -0.222
      -0.272
      -0.372
      -0.523
      -0.717
      -0.933
      -1.144
      -1.318
      -1.425
      -1.444
      -1.370
      -1.218
      -1.011
      -0.776
      -0.525
      -0.258
       0.017
       0.280
       0.499
       0.652
       0.742
       0.804
       0.873
       0.973
       1.105
       1.263
       1.445
       1.658
       1.905
       2.172
       2.431
       2.652
       2.816
       2.921
       2.979
       3.010
       3.031
       3.047
       3.042
       2.984
       2.842
       2.604
       2.289
       1.935
       1.588
       1.281
       1.023
       0.810
       0.626
       0.451
       0.266
       0.053
      -0.195
      -0.471
      -0.746
      -0.983
      -1.148
      -1.229
      -1.244
      -1.237
      -1.255
      -1.335
      -1.483
      -1.681
      -1.890
      -2.061
      -2.156
      -2.164
      -2.101
      -1.995
      -1.869
      -1.730
      -1.584
      -1.441
      -1.327
      -1.256
      -1.224
      -1.201
      -1.155
      -1.068
      -0.946
      -0.801
      -0.636
      -0.447
      -0.234
      -0.009
       0.207
       0.394
       0.539
       0.634
       0.674
       0.658
       0.592
       0.492
       0.378
       0.267
       0.175
       0.111
       0.080
       0.083
       0.112
       0.150
       0.174
       0.162
       0.114
       0.054
       0.025
       0.070
       0.203
       0.402
       0.616
       0.793
       0.899
       0.939
       0.936
       0.919
       0.904
       0.883
       0.831
       0.720
       0.531
       0.268
      -0.040
      -0.355
      -0.634
      -0.847
      -0.976
      -1.028
      -1.025
      -1.007
      -1.012
      -1.058
      -1.136
      -1.212
      -1.247
      -1.220
      -1.143
      -1.056
      -1.009
      -1.041
      -1.163
      -1.351
      -1.554
      -1.714
      -1.781
      -1.736
      -1.592
      -1.391
      -1.180
      -0.993
      -0.832
      -0.670
      -0.470
      -0.203
       0.128
       0.494
       0.854
       1.177
       1.456
       1.710
       1.963
       2.228
       2.488
       2.710
       2.867
       2.948
       2.961
       2.921
       2.833
       2.702
       2.535
       2.354
       2.192
       2.077
       2.021
       2.009
       2.012
       1.999
       1.944
       1.834
       1.660
       1.423
       1.133
       0.810
       0.476
       0.155
      -0.136
      -0.386
      -0.584
      -0.725
      -0.807
      -0.835
      -0.824
      -0.794
      -0.766
      -0.757
      -0.773
      -0.809
      -0.851
      -0.884
      -0.901
      -0.905
      -0.904
      -0.909
      -0.924
      -0.945
      -0.957
      -0.942
      -0.886
      -0.786
      -0.658
      -0.531
      -0.435
      -0.392
      -0.418
      -0.519
      -0.689
      -0.903
      -1.123
      -1.307
      -1.430
      -1.491
      -1.511
      -1.517
      -1.527
      -1.543
      -1.553
      -1.544
      -1.512
      -1.472
      -1.447
      -1.457
      -1.496
      -1.527
      -1.495
      -1.355
      -1.097
      -0.751
      -0.375
      -0.024
       0.267
       0.488
       0.648
       0.766
       0.865
       0.969
       1.100
       1.271
       1.485
       1.729
       1.977
       2.194
       2.346
       2.409
       2.379
       2.272
       2.116
       1.943
       1.783
       1.654
       1.563
       1.506
       1.476
       1.470
       1.501
       1.585
       1.731
       1.922
       2.115
       2.251
       2.284
       2.196
       2.005
       1.757
       1.500
       1.261
       1.038
       0.807
       0.540
       0.224
      -0.129
      -0.488
      -0.816
      -1.082
      -1.273
      -1.397
      -1.479
      -1.559
      -1.678
      -1.862
      -2.106
      -2.374
      -2.614
      -2.784
      -2.867
      -2.871
      -2.813
      -2.702
      -2.544
      -2.350
      -2.139
      -1.939
      -1.779
      -1.678
      -1.646
      -1.675
      -1.742
      -1.811
      -1.847
      -1.834
      -1.786
      -1.727
      -1.672
      -1.611
      -1.514
      -1.348
      -1.101
      -0.786
      -0.436
      -0.091
       0.212
       0.454
       0.627
       0.746
       0.835
       0.926
       1.037
       1.171
       1.313
       1.444
       1.556
       1.652
       1.751
       1.874
       2.024
       2.183
       2.311
       2.364
       2.309
       2.136
       1.862
       1.527
       1.177
       0.855
       0.584
       0.373
       0.213
       0.093
      -0.001
      -0.082
      -0.161
      -0.251
      -0.365
      -0.500
      -0.638
      -0.759
      -0.856
      -0.952
      -1.084
      -1.276
      -1.520
      -1.771
      -1.973
      -2.083
      -2.092
      -2.028
      -1.938
      -1.870
      -1.854
      -1.896
      -1.975
      -2.059
      -2.115
      -2.117
      -2.041
      -1.874
      -1.616
      -1.281
      -0.893
      -0.475
      -0.043
       0.400
       0.857
       1.330
       1.817
       2.306
       2.771
       3.171
       3.464
       3.623
       3.648
       3.564
       3.417
       3.258
       3.138
       3.102
       3.172
       3.336
       3.549
       3.754
       3.905
       3.986
       4.007
       3.991
       3.957
       3.903
       3.812
       3.665
       3.447
       3.152
       2.785
       2.360
       1.899
       1.429
       0.980
       0.569
       0.196
      -0.160
      -0.530
      -0.942
      -1.398
      -1.874
      -2.332
      -2.750
      -3.133
      -3.505
      -3.891
      -4.297
      -4.706
      -5.087
      -5.407
      -5.639
      -5.770
      -5.801
      -5.748
      -5.641
      -5.506
      -5.360
      -5.199
      -5.003
      -4.750
      -4.434
      -4.070
      -3.696
      -3.348
      -3.042
      -2.760
      -2.459
      -2.087
      -1.620
      -1.067
      -0.465
       0.148
       0.752
       1.348
       1.938
       2.505
       3.009
       3.408
       3.679
       3.832
       3.896
       3.898
       3.850
       3.754
       3.619
       3.463
       3.313
       3.189
       3.092
       3.006
       2.915
       2.801
       2.647
       2.437
       2.154
       1.799
       1.389
       0.958
       0.545
       0.188
      -0.092
      -0.291
      -0.423
      -0.517
      -0.597
      -0.670
      -0.725
      -0.730
      -0.652
      -0.482
      -0.251
      -0.022
       0.137
       0.189
       0.147
       0.067
       0.018
       0.049
       0.165
       0.327
       0.476
       0.564
       0.572
       0.526
       0.470
       0.449
       0.491
       0.594
       0.737
       0.885
       0.998
       1.044
       1.010
       0.910
       0.776
       0.645
       0.533
       0.428
       0.302
       0.132
      -0.079
      -0.310
      -0.530
      -0.717
      -0.864
      -0.976
      -1.063
      -1.140
      -1.223
      -1.329
      -1.471
      -1.645
      -1.829
      -1.990
      -2.106
      -2.170
      -2.192
      -2.176
      -2.119
      -2.018
      -1.882
      -1.733
      -1.602
      -1.513
      -1.475
      -1.478
      -1.492
      -1.472
      -1.373
      -1.171
      -0.865
      -0.486
      -0.072
       0.345
       0.750
       1.141
       1.511
       1.842
       2.104
       2.265
       2.305
       2.233
       2.075
       1.863
       1.614
       1.328
       1.006
       0.669
       0.357
       0.119
      -0.020
      -0.070
      -0.076
      -0.084
      -0.125
      -0.198
      -0.288
      -0.369
      -0.423
      -0.440
      -0.426
      -0.403
      -0.405
      -0.452
      -0.536
      -0.621
      -0.666
      -0.652
      -0.601
      -0.561
      -0.582
      -0.690
      -0.877
      -1.106
      -1.331
      -1.506
      -1.597
      -1.587
      -1.479
      -1.290
      -1.047
      -0.780
      -0.514
      -0.265
      -0.035
       0.183
       0.397
       0.603
       0.791
       0.942
       1.050
       1.120
       1.169
       1.215
       1.266
       1.323
       1.385
       1.452
       1.522
       1.590
       1.644
       1.667
       1.649
       1.589
       1.495
       1.382
       1.263
       1.141
       1.021
       0.907
       0.802
       0.708
       0.627
       0.562
       0.529
       0.552
       0.649
       0.811
       0.995
       1.145
       1.218
       1.201
       1.104
       0.946
       0.739
       0.488
       0.203
      -0.098
      -0.384
      -0.620
      -0.785
      -0.878
      -0.920
      -0.944
      -0.975
      -1.020
      -1.057
      -1.050
      -0.963
      -0.785
      -0.537
      -0.258
       0.005
       0.220
       0.371
       0.458
       0.489
       0.475
       0.425
       0.343
       0.227
       0.077
      -0.101
      -0.285
      -0.450
      -0.586
      -0.703
      -0.831
      -0.995
      -1.195
      -1.403
      -1.584
      -1.713
      -1.788
      -1.821
      -1.834
      -1.842
      -1.847
      -1.835
      -1.787
      -1.692
      -1.555
      -1.395
      -1.234
      -1.084
      -0.949
      -0.830
      -0.726
      -0.636
      -0.553
      -0.471
      -0.383
      -0.291
      -0.190
      -0.066
       0.110
       0.355
       0.663
       0.998
       1.318
       1.595
       1.831
       2.043
       2.248
       2.453
       2.658
       2.858
       3.044
       3.196
       3.298
       3.343
       3.346
       3.319
       3.259
       3.143
       2.947
       2.671
       2.342
       1.992
       1.637
       1.262
       0.840
       0.356
      -0.176
      -0.711
      -1.198
      -1.599
      -1.909
      -2.138
      -2.308
      -2.442
      -2.561
      -2.685
      -2.828
      -2.989
      -3.150
      -3.283
      -3.368
      -3.398
      -3.389
      -3.361
      -3.326
      -3.275
      -3.178
      -3.000
      -2.736
      -2.416
      -2.103
      -1.849
      -1.668
      -1.532
      -1.393
      -1.215
      -0.993
      -0.738
      -0.461
      -0.158
       0.179
       0.551
       0.942
       1.322
       1.658
       1.932
       2.140
       2.296
       2.416
       2.517
       2.605
       2.682
       2.745
       2.791
       2.821
       2.837
       2.843
       2.840
       2.826
       2.792
       2.722
       2.601
       2.418
       2.182
       1.913
       1.642
       1.400
       1.207
       1.063
       0.945
       0.815
       0.633
       0.380
       0.071
      -0.254
      -0.547
      -0.782
      -0.961
      -1.105
      -1.239
      -1.377
      -1.524
      -1.680
      -1.836
      -1.977
      -2.081
      -2.135
      -2.145
      -2.129
      -2.101
      -2.058
      -1.989
      -1.893
      -1.785
      -1.695
      -1.643
      -1.634
      -1.658
      -1.699
      -1.741
      -1.773
      -1.789
      -1.790
      -1.781
      -1.763
      -1.727
      -1.654
      -1.528
      -1.345
      -1.121
      -0.883
      -0.647
      -0.408
      -0.141
       0.175
       0.545
       0.941
       1.322
       1.642
       1.878
       2.026
       2.102
       2.133
       2.143
       2.148
       2.152
       2.151
       2.147
       2.159
       2.211
       2.320
       2.473
       2.629
       2.736
       2.749
       2.654
       2.470
       2.238
       2.010
       1.828
       1.723
       1.694
       1.710
       1.711
       1.633
       1.436
       1.128
       0.768
       0.431
