Origin Time       31/12/2009 09:57:00 UTC
Lat.              27.3°N	
Long.             91.4°E	
Depth (Km)          7.0
Magnitude         5.5
 Region           BHUTAN                                                           
 Above details taken from IMD 
    
Station Code      KOK
Station Lat.       26.400  N
Station Long.      90.261  E
Station Height(m)   53.0
Site Class        C   Vs30 between 200 m/sec to 375 m/sec *  
Record Time       31.12.2009 09:58:01.134 UTC
Sampling Rate     200. Hz
 Record Duration   78.130 Sec.
 Direction         N-S (N positive)
Max. Acceleration    -10.441 cm/sec**2
     
  * For reference see Site Classification link of website 
     
 Base Line Corrected and Low Pass Filtered (Cut Off at 35 Hz) Time History
 Acceleration data in cm/sec**2
    
[...]
      -0.972
      -0.896
      -0.775
      -0.628
      -0.474
      -0.331
      -0.211
      -0.112
      -0.028
       0.049
       0.119
       0.180
       0.233
       0.283
       0.338
       0.400
       0.467
       0.519
       0.536
       0.498
       0.405
       0.278
       0.157
       0.080
       0.069
       0.123
       0.226
       0.355
       0.490
       0.611
       0.701
       0.749
       0.759
       0.745
       0.718
       0.677
       0.610
       0.504
       0.360
       0.194
       0.025
      -0.125
      -0.243
      -0.318
      -0.346
      -0.329
      -0.286
      -0.245
      -0.233
      -0.255
      -0.292
      -0.315
      -0.310
      -0.285
      -0.261
      -0.246
      -0.226
      -0.177
      -0.083
       0.051
       0.207
       0.368
       0.528
       0.680
       0.810
       0.894
       0.907
       0.843
       0.718
       0.575
       0.458
       0.399
       0.401
       0.447
       0.505
       0.548
       0.561
       0.541
       0.496
       0.441
       0.385
       0.327
       0.252
       0.140
      -0.020
      -0.212
      -0.398
      -0.533
      -0.588
      -0.566
      -0.491
      -0.390
      -0.272
      -0.139
       0.004
       0.138
       0.233
       0.275
       0.270
       0.244
       0.228
       0.244
       0.304
       0.396
       0.494
       0.568
       0.600
       0.595
       0.581
       0.591
       0.644
       0.732
       0.825
       0.882
       0.872
       0.784
       0.632
       0.453
       0.282
       0.148
       0.058
       0.003
      -0.034
      -0.071
      -0.124
      -0.204
      -0.321
      -0.476
      -0.654
      -0.825
      -0.958
      -1.038
      -1.071
      -1.082
      -1.096
      -1.120
      -1.145
      -1.149
      -1.116
      -1.048
      -0.962
      -0.878
      -0.802
      -0.728
      -0.640
      -0.534
      -0.426
      -0.343
      -0.306
      -0.310
      -0.329
      -0.334
      -0.317
      -0.298
      -0.302
      -0.342
      -0.403
      -0.453
      -0.467
      -0.440
      -0.391
      -0.346
      -0.325
      -0.322
      -0.315
      -0.282
      -0.218
      -0.135
      -0.048
       0.032
       0.100
       0.151
       0.175
       0.159
       0.094
      -0.013
      -0.144
      -0.268
      -0.363
      -0.416
      -0.430
      -0.417
      -0.394
      -0.372
      -0.355
      -0.337
      -0.308
      -0.262
      -0.206
      -0.158
      -0.136
      -0.142
      -0.165
      -0.180
      -0.164
      -0.105
      -0.002
       0.131
       0.269
       0.386
       0.460
       0.484
       0.472
       0.452
       0.455
       0.501
       0.585
       0.682
       0.762
       0.807
       0.814
       0.786
       0.726
       0.636
       0.528
       0.424
       0.346
       0.301
       0.275
       0.250
       0.213
       0.163
       0.110
       0.062
       0.021
      -0.015
      -0.049
      -0.081
      -0.112
      -0.138
      -0.158
      -0.170
      -0.181
      -0.192
      -0.195
      -0.174
      -0.113
      -0.013
       0.100
       0.186
       0.210
       0.161
       0.064
      -0.037
      -0.101
      -0.105
      -0.049
       0.056
       0.196
       0.351
       0.493
       0.594
       0.631
       0.603
       0.526
       0.427
       0.324
       0.229
       0.148
       0.092
       0.077
       0.110
       0.180
       0.260
       0.317
       0.337
       0.328
       0.310
       0.298
       0.291
       0.270
       0.210
       0.099
      -0.052
      -0.203
      -0.307
      -0.336
      -0.300
      -0.241
      -0.197
      -0.181
      -0.173
      -0.150
      -0.114
      -0.101
      -0.155
      -0.290
      -0.475
      -0.657
      -0.787
      -0.849
      -0.852
      -0.819
      -0.765
      -0.697
      -0.610
      -0.501
      -0.376
      -0.248
      -0.131
      -0.025
       0.086
       0.222
       0.385
       0.554
       0.698
       0.796
       0.849
       0.877
       0.900
       0.926
       0.943
       0.929
       0.868
       0.759
       0.614
       0.445
       0.265
       0.079
      -0.103
      -0.280
      -0.453
      -0.623
      -0.784
      -0.917
      -0.994
      -0.997
      -0.930
      -0.824
      -0.720
      -0.653
      -0.627
      -0.612
      -0.568
      -0.478
      -0.358
      -0.250
      -0.185
      -0.163
      -0.161
      -0.148
      -0.108
      -0.036
       0.065
       0.190
       0.331
       0.474
       0.594
       0.663
       0.662
       0.589
       0.462
       0.314
       0.183
       0.097
       0.060
       0.056
       0.056
       0.044
       0.025
       0.019
       0.038
       0.080
       0.131
       0.178
       0.214
       0.239
       0.250
       0.242
       0.204
       0.133
       0.038
      -0.058
      -0.130
      -0.163
      -0.158
      -0.127
      -0.089
      -0.054
      -0.029
      -0.017
      -0.025
      -0.058
      -0.108
      -0.155
      -0.171
      -0.140
      -0.068
       0.020
       0.092
       0.130
       0.136
       0.138
       0.165
       0.231
       0.321
       0.405
       0.453
       0.458
       0.430
       0.386
       0.339
       0.296
       0.263
       0.241
       0.231
       0.225
       0.210
       0.169
       0.091
      -0.018
      -0.137
      -0.234
      -0.280
      -0.270
      -0.225
      -0.178
      -0.157
      -0.168
      -0.200
      -0.240
      -0.277
      -0.307
      -0.315
      -0.289
      -0.223
      -0.137
      -0.075
      -0.080
      -0.174
      -0.339
      -0.521
      -0.657
      -0.705
      -0.661
      -0.556
      -0.431
      -0.316
      -0.213
      -0.108
       0.013
       0.147
       0.279
       0.392
       0.477
       0.535
       0.572
       0.590
       0.583
       0.546
       0.476
       0.382
       0.284
       0.210
       0.184
       0.209
       0.264
       0.314
       0.327
       0.293
       0.222
       0.134
       0.038
      -0.070
      -0.194
      -0.329
      -0.454
      -0.552
      -0.615
      -0.656
      -0.698
      -0.753
      -0.816
      -0.860
      -0.858
      -0.792
      -0.674
      -0.544
      -0.445
      -0.400
      -0.398
      -0.402
      -0.378
      -0.309
      -0.202
      -0.072
       0.066
       0.201
       0.320
       0.401
       0.426
       0.383
       0.283
       0.154
       0.037
      -0.026
      -0.013
       0.079
       0.230
       0.411
       0.596
       0.764
       0.903
       0.995
       1.024
       0.978
       0.865
       0.703
       0.522
       0.348
       0.207
       0.115
       0.085
       0.112
       0.177
       0.252
       0.311
       0.338
       0.318
       0.240
       0.103
      -0.062
      -0.207
      -0.296
      -0.335
      -0.362
      -0.408
      -0.468
      -0.497
      -0.450
      -0.320
      -0.151
      -0.014
       0.037
       0.000
      -0.085
      -0.166
      -0.216
      -0.244
      -0.275
      -0.331
      -0.408
      -0.478
      -0.509
      -0.489
      -0.427
      -0.338
      -0.234
      -0.137
      -0.073
      -0.062
      -0.093
      -0.127
      -0.121
      -0.061
       0.031
       0.117
       0.163
       0.155
       0.098
       0.013
      -0.070
      -0.121
      -0.124
      -0.087
      -0.038
      -0.013
      -0.030
      -0.081
      -0.134
      -0.157
      -0.131
      -0.055
       0.070
       0.238
       0.440
       0.652
       0.840
       0.975
       1.051
       1.083
       1.094
       1.089
       1.060
       0.998
       0.914
       0.839
       0.806
       0.828
       0.888
       0.946
       0.966
       0.927
       0.840
       0.729
       0.619
       0.519
       0.420
       0.302
       0.149
      -0.040
      -0.255
      -0.472
      -0.657
      -0.782
      -0.835
      -0.826
      -0.789
      -0.762
      -0.774
      -0.835
      -0.929
      -1.027
      -1.097
      -1.121
      -1.100
      -1.048
      -0.978
      -0.899
      -0.814
      -0.733
      -0.671
      -0.645
      -0.663
      -0.716
      -0.786
      -0.854
      -0.904
      -0.921
      -0.890
      -0.800
      -0.652
      -0.460
      -0.248
      -0.038
       0.163
       0.356
       0.543
       0.717
       0.860
       0.952
       0.988
       0.989
       0.989
       1.020
       1.096
       1.201
       1.295
       1.327
       1.265
       1.108
       0.890
       0.660
       0.456
       0.297
       0.182
       0.103
       0.057
       0.038
       0.033
       0.022
      -0.016
      -0.090
      -0.196
      -0.323
      -0.462
      -0.608
      -0.754
      -0.885
      -0.980
      -1.023
      -1.009
      -0.951
      -0.871
      -0.784
      -0.689
      -0.576
      -0.439
      -0.293
      -0.170
      -0.110
      -0.142
      -0.273
      -0.478
      -0.706
      -0.899
      -1.012
      -1.026
      -0.953
      -0.824
      -0.672
      -0.520
      -0.378
      -0.248
      -0.122
       0.002
       0.118
       0.212
       0.261
       0.250
       0.174
       0.048
      -0.095
      -0.225
      -0.317
      -0.363
      -0.372
      -0.361
      -0.349
      -0.345
      -0.343
      -0.328
      -0.283
      -0.207
      -0.122
      -0.057
      -0.030
      -0.037
      -0.049
      -0.041
       0.000
       0.067
       0.148
       0.235
       0.323
       0.404
       0.470
       0.520
       0.561
       0.604
       0.661
       0.731
       0.807
       0.878
       0.927
       0.942
       0.917
       0.854
       0.762
       0.648
       0.513
       0.359
       0.197
       0.053
      -0.043
      -0.062
       0.002
       0.132
       0.290
       0.429
       0.510
       0.516
       0.462
       0.377
       0.293
       0.220
       0.147
       0.055
      -0.068
      -0.216
      -0.369
      -0.498
      -0.581
      -0.612
      -0.600
      -0.572
      -0.556
      -0.568
      -0.609
      -0.662
      -0.707
      -0.726
      -0.704
      -0.626
      -0.479
      -0.255
       0.034
       0.357
       0.669
       0.932
       1.126
       1.254
       1.339
       1.410
       1.491
       1.595
       1.722
       1.863
       1.997
       2.101
       2.153
       2.150
       2.107
       2.051
       2.000
       1.957
       1.912
       1.850
       1.765
       1.648
       1.484
       1.256
       0.952
       0.579
       0.162
      -0.270
      -0.701
      -1.140
      -1.603
      -2.092
      -2.582
      -3.029
      -3.395
      -3.671
      -3.871
      -4.023
      -4.140
      -4.220
      -4.246
      -4.202
      -4.086
      -3.913
      -3.701
      -3.460
      -3.183
      -2.843
      -2.417
      -1.899
      -1.303
      -0.657
       0.017
       0.708
       1.416
       2.129
       2.819
       3.446
       3.982
       4.423
       4.780
       5.068
       5.289
       5.439
       5.522
       5.547
       5.518
       5.419
       5.223
       4.910
       4.496
       4.026
       3.557
       3.131
       2.754
       2.404
       2.045
       1.634
       1.142
       0.555
      -0.117
      -0.842
      -1.582
      -2.300
      -2.966
      -3.560
      -4.068
      -4.477
      -4.782
      -4.989
      -5.111
      -5.170
      -5.191
      -5.194
      -5.197
      -5.210
      -5.233
      -5.249
      -5.228
      -5.136
      -4.947
      -4.653
      -4.266
      -3.801
      -3.272
      -2.687
      -2.051
      -1.373
      -0.678
      -0.002
       0.621
       1.165
       1.619
       1.976
       2.222
       2.342
       2.325
       2.182
       1.947
       1.668
       1.393
       1.159
       0.973
       0.821
       0.684
       0.555
       0.452
       0.401
       0.424
       0.519
       0.667
       0.834
       0.994
       1.139
       1.280
       1.442
       1.643
       1.885
       2.150
       2.412
       2.651
       2.858
       3.037
       3.188
       3.301
       3.361
       3.350
       3.266
       3.119
       2.929
       2.716
       2.489
       2.245
       1.978
       1.690
       1.398
       1.129
       0.907
       0.732
       0.575
       0.396
       0.168
      -0.096
      -0.360
      -0.582
      -0.750
      -0.879
      -1.000
      -1.139
      -1.305
      -1.500
      -1.728
      -2.002
      -2.330
      -2.692
      -3.046
      -3.351
      -3.590
      -3.775
      -3.925
      -4.047
      -4.139
      -4.205
      -4.265
      -4.337
      -4.414
      -4.458
      -4.433
      -4.336
      -4.198
      -4.065
      -3.961
      -3.883
      -3.804
      -3.689
      -3.505
      -3.231
      -2.867
      -2.448
      -2.032
      -1.680
      -1.415
      -1.208
      -1.003
      -0.746
      -0.399
       0.043
       0.557
       1.094
       1.606
       2.070
       2.500
       2.930
       3.397
       3.933
       4.558
       5.286
       6.103
       6.965
       7.792
       8.501
       9.037
       9.390
       9.589
       9.669
       9.649
       9.527
       9.309
       9.022
       8.715
       8.433
       8.194
       7.977
       7.732
       7.408
       6.961
       6.369
       5.622
       4.721
       3.677
       2.509
       1.248
      -0.068
      -1.402
      -2.710
      -3.958
      -5.122
      -6.195
      -7.175
      -8.054
      -8.818
      -9.451
      -9.936
     -10.258
     -10.418
     -10.441
     -10.383
     -10.287
     -10.162
      -9.975
      -9.688
      -9.288
      -8.804
      -8.287
      -7.784
      -7.318
      -6.885
      -6.470
      -6.070
      -5.694
      -5.355
      -5.049
      -4.750
      -4.416
      -4.002
      -3.488
      -2.882
      -2.207
      -1.477
      -0.688
       0.176
       1.119
       2.126
       3.168
       4.216
       5.240
       6.216
       7.126
       7.950
       8.666
       9.240
       9.639
       9.844
       9.858
       9.701
       9.409
       9.017
       8.544
       7.984
       7.321
       6.562
       5.750
       4.956
       4.246
       3.650
       3.160
       2.751
       2.394
       2.049
       1.663
       1.194
       0.658
       0.123
      -0.343
      -0.724
      -1.070
      -1.445
      -1.876
      -2.324
      -2.721
      -3.010
      -3.178
      -3.250
      -3.282
      -3.346
      -3.511
      -3.812
      -4.234
      -4.710
      -5.168
      -5.564
      -5.893
      -6.164
      -6.369
      -6.492
      -6.527
      -6.490
      -6.411
      -6.303
      -6.150
      -5.913
      -5.556
      -5.064
      -4.455
      -3.753
      -2.971
      -2.119
      -1.224
      -0.347
       0.449
       1.128
       1.690
       2.152
       2.520
       2.788
       2.945
       2.997
       2.961
       2.848
       2.665
       2.421
       2.150
       1.907
       1.752
       1.732
       1.874
       2.188
       2.653
       3.221
       3.838
       4.467
       5.108
       5.777
       6.474
       7.162
       7.784
       8.295
       8.670
       8.898
       8.962
       8.838
       8.506
       7.970
       7.253
       6.397
       5.455
       4.483
       3.535
       2.655
       1.868
       1.182
       0.588
       0.062
      -0.430
      -0.917
      -1.400
      -1.843
      -2.202
      -2.454
      -2.630
      -2.799
      -3.035
      -3.382
      -3.827
      -4.305
      -4.737
      -5.071
      -5.313
      -5.515
      -5.748
      -6.061
      -6.461
      -6.905
      -7.334
      -7.694
      -7.969
      -8.166
      -8.302
      -8.372
      -8.344
      -8.185
      -7.874
      -7.418
      -6.829
      -6.105
      -5.232
      -4.214
      -3.098
      -1.963
      -0.880
       0.118
       1.039
       1.893
       2.678
       3.380
       3.982
       4.479
       4.879
       5.189
       5.421
       5.584
       5.682
       5.709
       5.645
       5.470
       5.181
       4.804
       4.379
       3.941
       3.500
       3.047
       2.570
       2.069
       1.568
       1.104
       0.719
       0.444
       0.291
       0.252
       0.307
       0.435
       0.620
       0.849
       1.110
       1.377
       1.611
       1.763
       1.796
       1.691
       1.447
       1.065
       0.546
      -0.101
      -0.844
      -1.632
      -2.406
      -3.119
      -3.743
      -4.265
      -4.688
      -5.018
      -5.258
      -5.401
      -5.440
      -5.372
      -5.199
      -4.926
      -4.550
      -4.063
      -3.459
      -2.752
      -1.989
      -1.243
      -0.606
      -0.152
       0.087
       0.126
       0.022
      -0.153
      -0.328
      -0.447
      -0.474
      -0.400
      -0.240
      -0.025
       0.218
       0.480
       0.780
       1.147
       1.590
       2.076
       2.536
       2.897
       3.111
       3.171
       3.102
       2.958
       2.797
       2.672
       2.613
       2.620
       2.677
       2.766
       2.888
       3.068
       3.338
       3.708
       4.154
       4.614
       5.006
       5.260
       5.329
       5.212
       4.948
       4.596
       4.209
       3.805
       3.378
       2.916
       2.424
       1.927
       1.451
       0.999
       0.556
       0.110
      -0.329
      -0.734
      -1.073
      -1.325
      -1.489
      -1.584
      -1.636
      -1.664
      -1.670
      -1.646
      -1.587
      -1.507
      -1.443
      -1.445
      -1.558
      -1.802
      -2.157
      -2.571
      -2.987
      -3.374
      -3.736
      -4.094
      -4.464
      -4.841
      -5.195
      -5.483
      -5.660
      -5.687
      -5.548
      -5.245
      -4.804
      -4.260
      -3.661
      -3.066
      -2.542
      -2.147
      -1.904
      -1.791
      -1.751
      -1.724
      -1.671
      -1.582
      -1.457
      -1.289
      -1.056
      -0.733
      -0.311
       0.190
       0.729
       1.257
       1.735
       2.143
       2.473
       2.729
       2.930
       3.099
       3.260
       3.422
       3.586
       3.750
       3.914
       4.065
       4.172
       4.202
       4.140
       4.008
       3.860
       3.751
       3.701
       3.675
       3.597
       3.396
       3.043
       2.560
       1.997
       1.406
       0.823
       0.262
      -0.285
      -0.841
      -1.428
      -2.059
      -2.728
      -3.412
      -4.063
      -4.616
      -4.996
      -5.143
      -5.021
      -4.621
      -3.964
      -3.091
      -2.064
      -0.954
       0.154
       1.173
       2.022
       2.636
       2.986
       3.085
       2.981
       2.747
       2.447
       2.124
       1.799
       1.485
       1.208
       0.998
       0.879
       0.852
       0.885
       0.920
       0.892
       0.752
       0.489
       0.133
      -0.259
      -0.623
      -0.907
      -1.072
      -1.103
      -1.002
      -0.792
      -0.511
      -0.199
       0.113
       0.398
       0.634
       0.802
       0.893
       0.913
       0.878
       0.811
       0.721
       0.609
       0.473
       0.320
       0.175
       0.070
       0.042
       0.113
       0.286
       0.536
       0.823
       1.111
       1.380
       1.627
       1.857
       2.085
       2.331
       2.621
       2.974
       3.378
       3.774
