Origin Time       09/1/2013 01:41:52	 UTC
Lat.              25.4 N	
Long.             94.9 E	
Depth (Km)         89.0
Magnitude         5.9
 Region           Myanmar-India-Border-Region                                      
 Above details taken from IMD 
    
Station Code      KOK
Station Lat.       26.400  N
Station Long.      90.261  E
Station Height(m)   54.0
Site Class        C   Vs30 between 200 m/sec to 375 m/sec *  
Record Time       09.01.2013 01:43:18.289 UTC
Sampling Rate     200. Hz
 Record Duration   80.165 Sec.
 Direction         N-S (N positive)
Max. Acceleration     -4.114 cm/sec**2
     
  * For reference see Site Classification link of website 
     
 Base Line Corrected and Low Pass Filtered (Cut Off at 35 Hz) Time History
 Acceleration data in cm/sec**2
    
[...]
      -0.102
      -0.139
      -0.192
      -0.253
      -0.302
      -0.310
      -0.263
      -0.185
      -0.132
      -0.148
      -0.227
      -0.311
      -0.333
      -0.270
      -0.152
      -0.033
       0.046
       0.068
       0.043
       0.008
       0.016
       0.096
       0.233
       0.382
       0.494
       0.535
       0.485
       0.354
       0.189
       0.060
       0.007
       0.014
       0.035
       0.024
      -0.030
      -0.108
      -0.172
      -0.196
      -0.181
      -0.152
      -0.128
      -0.093
      -0.012
       0.124
       0.269
       0.355
       0.340
       0.244
       0.132
       0.062
       0.063
       0.127
       0.226
       0.315
       0.355
       0.326
       0.241
       0.137
       0.049
      -0.001
      -0.002
       0.051
       0.146
       0.254
       0.337
       0.383
       0.405
       0.426
       0.441
       0.426
       0.362
       0.247
       0.099
      -0.058
      -0.196
      -0.290
      -0.332
      -0.332
      -0.315
      -0.302
      -0.303
      -0.312
      -0.319
      -0.305
      -0.252
      -0.154
      -0.034
       0.059
       0.074
       0.003
      -0.106
      -0.177
      -0.164
      -0.082
       0.018
       0.093
       0.137
       0.170
       0.209
       0.249
       0.282
       0.310
       0.342
       0.371
       0.365
       0.302
       0.187
       0.055
      -0.059
      -0.132
      -0.157
      -0.139
      -0.089
      -0.008
       0.111
       0.268
       0.438
       0.571
       0.631
       0.617
       0.563
       0.497
       0.423
       0.320
       0.172
      -0.010
      -0.200
      -0.379
      -0.537
      -0.660
      -0.730
      -0.751
      -0.751
      -0.757
      -0.767
      -0.764
      -0.743
      -0.712
      -0.675
      -0.622
      -0.546
      -0.453
      -0.357
      -0.278
      -0.233
      -0.222
      -0.229
      -0.228
      -0.201
      -0.137
      -0.035
       0.089
       0.204
       0.273
       0.283
       0.256
       0.230
       0.224
       0.223
       0.201
       0.159
       0.126
       0.126
       0.151
       0.172
       0.179
       0.192
       0.227
       0.273
       0.315
       0.353
       0.396
       0.434
       0.424
       0.332
       0.171
      -0.006
      -0.146
      -0.232
      -0.267
      -0.261
      -0.220
      -0.168
      -0.146
      -0.178
      -0.251
      -0.330
      -0.392
      -0.445
      -0.508
      -0.591
      -0.687
      -0.771
      -0.804
      -0.753
      -0.608
      -0.396
      -0.161
       0.061
       0.255
       0.417
       0.546
       0.641
       0.713
       0.779
       0.840
       0.875
       0.856
       0.779
       0.668
       0.553
       0.433
       0.278
       0.062
      -0.198
      -0.429
      -0.551
      -0.532
      -0.414
      -0.272
      -0.166
      -0.113
      -0.102
      -0.109
      -0.108
      -0.081
      -0.035
      -0.003
      -0.011
      -0.055
      -0.111
      -0.166
      -0.235
      -0.335
      -0.458
      -0.557
      -0.587
      -0.541
      -0.451
      -0.359
      -0.289
      -0.251
      -0.261
      -0.327
      -0.433
      -0.531
      -0.572
      -0.538
      -0.450
      -0.350
      -0.264
      -0.196
      -0.125
      -0.030
       0.090
       0.206
       0.277
       0.281
       0.237
       0.199
       0.202
       0.240
       0.266
       0.251
       0.212
       0.200
       0.249
       0.346
       0.445
       0.502
       0.498
       0.432
       0.314
       0.157
      -0.015
      -0.168
      -0.282
      -0.360
      -0.408
      -0.418
      -0.365
      -0.231
      -0.040
       0.151
       0.286
       0.341
       0.334
       0.306
       0.301
       0.335
       0.377
       0.366
       0.264
       0.089
      -0.088
      -0.210
      -0.283
      -0.351
      -0.437
      -0.507
      -0.504
      -0.403
      -0.235
      -0.061
       0.055
       0.073
      -0.004
      -0.140
      -0.278
      -0.363
      -0.352
      -0.219
       0.023
       0.314
       0.559
       0.687
       0.699
       0.662
       0.659
       0.726
       0.844
       0.962
       1.038
       1.064
       1.058
       1.035
       0.987
       0.891
       0.737
       0.558
       0.417
       0.370
       0.427
       0.554
       0.703
       0.833
       0.911
       0.908
       0.817
       0.663
       0.475
       0.266
       0.027
      -0.242
      -0.524
      -0.795
      -1.049
      -1.293
      -1.529
      -1.738
      -1.899
      -2.006
      -2.057
      -2.044
      -1.949
      -1.764
      -1.514
      -1.242
      -0.973
      -0.702
      -0.423
      -0.144
       0.119
       0.365
       0.590
       0.773
       0.882
       0.903
       0.854
       0.766
       0.668
       0.581
       0.532
       0.554
       0.665
       0.850
       1.052
       1.192
       1.204
       1.054
       0.761
       0.389
       0.032
      -0.236
      -0.389
      -0.456
      -0.483
      -0.493
      -0.480
      -0.424
      -0.315
      -0.174
      -0.037
       0.062
       0.117
       0.138
       0.134
       0.099
       0.021
      -0.103
      -0.259
      -0.421
      -0.559
      -0.643
      -0.643
      -0.548
      -0.378
      -0.191
      -0.054
      -0.020
      -0.102
      -0.272
      -0.479
      -0.659
      -0.754
      -0.735
      -0.608
      -0.410
      -0.198
      -0.024
       0.083
       0.133
       0.164
       0.218
       0.332
       0.531
       0.822
       1.173
       1.511
       1.754
       1.848
       1.795
       1.634
       1.400
       1.107
       0.763
       0.395
       0.063
      -0.180
      -0.322
      -0.406
      -0.483
      -0.566
      -0.615
      -0.572
      -0.411
      -0.165
       0.101
       0.324
       0.465
       0.503
       0.433
       0.271
       0.059
      -0.148
      -0.314
      -0.428
      -0.497
      -0.514
      -0.457
      -0.318
      -0.121
       0.069
       0.182
       0.174
       0.043
      -0.182
      -0.452
      -0.715
      -0.938
      -1.113
      -1.252
      -1.358
      -1.413
      -1.378
      -1.220
      -0.934
      -0.542
      -0.091
       0.371
       0.798
       1.144
       1.356
       1.393
       1.248
       0.957
       0.581
       0.178
      -0.196
      -0.484
      -0.641
      -0.650
      -0.537
      -0.353
      -0.145
       0.066
       0.280
       0.491
       0.676
       0.797
       0.820
       0.722
       0.493
       0.145
      -0.273
      -0.675
      -0.960
      -1.059
      -0.951
      -0.680
      -0.331
      -0.011
       0.192
       0.238
       0.136
      -0.080
      -0.383
      -0.758
      -1.176
      -1.577
      -1.878
      -2.009
      -1.956
      -1.758
      -1.483
      -1.185
      -0.883
      -0.566
      -0.219
       0.158
       0.527
       0.828
       1.006
       1.042
       0.963
       0.818
       0.662
       0.545
       0.520
       0.631
       0.881
       1.205
       1.489
       1.629
       1.588
       1.413
       1.194
       1.015
       0.920
       0.901
       0.913
       0.891
       0.779
       0.553
       0.245
      -0.074
      -0.328
      -0.481
      -0.559
      -0.616
      -0.694
      -0.780
      -0.820
      -0.754
      -0.576
      -0.335
      -0.097
       0.107
       0.293
       0.485
       0.665
       0.773
       0.747
       0.575
       0.307
       0.016
      -0.257
      -0.518
      -0.792
      -1.073
      -1.310
      -1.421
      -1.337
      -1.041
      -0.578
      -0.044
       0.458
       0.857
       1.133
       1.301
       1.378
       1.361
       1.239
       1.019
       0.743
       0.477
       0.269
       0.135
       0.070
       0.059
       0.086
       0.133
       0.182
       0.231
       0.289
       0.360
       0.421
       0.418
       0.284
      -0.027
      -0.512
      -1.119
      -1.755
      -2.311
      -2.680
      -2.783
      -2.595
      -2.153
      -1.541
      -0.863
      -0.213
       0.342
       0.762
       1.020
       1.097
       1.000
       0.765
       0.457
       0.137
      -0.152
      -0.395
      -0.573
      -0.660
      -0.613
      -0.399
      -0.015
       0.496
       1.045
       1.520
       1.822
       1.896
       1.739
       1.400
       0.950
       0.463
       0.000
      -0.397
      -0.713
      -0.943
      -1.083
      -1.122
      -1.050
      -0.873
      -0.625
      -0.363
      -0.144
      -0.007
       0.049
       0.052
       0.030
      -0.011
      -0.086
      -0.204
      -0.346
      -0.477
      -0.563
      -0.591
      -0.573
      -0.527
      -0.465
      -0.386
      -0.287
      -0.166
      -0.042
       0.053
       0.094
       0.090
       0.079
       0.102
       0.177
       0.290
       0.413
       0.515
       0.569
       0.550
       0.439
       0.235
      -0.035
      -0.307
      -0.502
      -0.553
      -0.443
      -0.221
       0.020
       0.191
       0.264
       0.282
       0.324
       0.442
       0.623
       0.805
       0.922
       0.952
       0.918
       0.880
       0.902
       1.013
       1.187
       1.343
       1.396
       1.319
       1.168
       1.042
       1.014
       1.074
       1.143
       1.130
       0.983
       0.705
       0.329
      -0.122
      -0.623
      -1.122
      -1.530
      -1.762
      -1.803
      -1.728
      -1.642
      -1.596
      -1.549
      -1.423
      -1.180
      -0.873
      -0.609
      -0.470
      -0.446
      -0.445
      -0.352
      -0.111
       0.245
       0.619
       0.909
       1.055
       1.058
       0.956
       0.799
       0.633
       0.506
       0.457
       0.492
       0.560
       0.563
       0.416
       0.099
      -0.322
      -0.738
      -1.063
      -1.280
      -1.444
      -1.628
      -1.868
      -2.128
      -2.319
      -2.353
      -2.191
      -1.870
      -1.478
      -1.101
      -0.781
      -0.508
      -0.239
       0.064
       0.411
       0.766
       1.059
       1.210
       1.166
       0.932
       0.576
       0.208
      -0.069
      -0.199
      -0.180
      -0.048
       0.151
       0.381
       0.624
       0.870
       1.103
       1.294
       1.401
       1.389
       1.251
       1.020
       0.745
       0.464
       0.196
      -0.036
      -0.185
      -0.182
       0.037
       0.479
       1.070
       1.656
       2.049
       2.102
       1.771
       1.135
       0.345
      -0.439
      -1.096
      -1.568
      -1.855
      -1.995
      -2.041
      -2.033
      -1.974
      -1.837
      -1.593
      -1.240
      -0.811
      -0.364
       0.032
       0.309
       0.408
       0.297
      -0.003
      -0.405
      -0.786
      -1.022
      -1.031
      -0.783
      -0.308
       0.313
       0.975
       1.579
       2.063
       2.393
       2.541
       2.477
       2.192
       1.730
       1.203
       0.741
       0.424
       0.237
       0.096
      -0.095
      -0.364
      -0.649
      -0.829
      -0.794
      -0.513
      -0.057
       0.442
       0.850
       1.087
       1.142
       1.059
       0.910
       0.756
       0.613
       0.442
       0.178
      -0.212
      -0.684
      -1.124
      -1.409
      -1.464
      -1.288
      -0.945
      -0.543
      -0.208
      -0.047
      -0.098
      -0.323
      -0.633
      -0.939
      -1.186
      -1.344
      -1.396
      -1.335
      -1.187
      -0.999
      -0.821
      -0.672
      -0.529
      -0.349
      -0.105
       0.194
       0.505
       0.777
       0.957
       1.002
       0.885
       0.607
       0.205
      -0.245
      -0.647
      -0.905
      -0.961
      -0.808
      -0.489
      -0.070
       0.387
       0.847
       1.292
       1.699
       2.023
       2.197
       2.156
       1.870
       1.386
       0.817
       0.309
      -0.028
      -0.166
      -0.167
      -0.138
      -0.163
      -0.251
      -0.346
      -0.379
      -0.334
      -0.277
      -0.300
      -0.444
      -0.664
      -0.869
      -0.994
      -1.042
      -1.058
      -1.070
      -1.045
      -0.911
      -0.611
      -0.159
       0.357
       0.802
       1.054
       1.044
       0.790
       0.387
      -0.021
      -0.302
      -0.382
      -0.270
      -0.028
       0.267
       0.553
       0.780
       0.906
       0.909
       0.811
       0.674
       0.565
       0.499
       0.423
       0.259
      -0.029
      -0.390
      -0.714
      -0.890
      -0.869
      -0.681
      -0.403
      -0.118
       0.116
       0.276
       0.357
       0.369
       0.335
       0.299
       0.305
       0.379
       0.492
       0.568
       0.511
       0.275
      -0.092
      -0.454
      -0.654
      -0.604
      -0.334
       0.030
       0.342
       0.512
       0.538
       0.473
       0.375
       0.277
       0.182
       0.079
      -0.042
      -0.181
      -0.327
      -0.465
      -0.583
      -0.674
      -0.725
      -0.721
      -0.649
      -0.514
      -0.341
      -0.167
      -0.009
       0.148
       0.342
       0.599
       0.900
       1.186
       1.407
       1.549
       1.644
       1.722
       1.782
       1.787
       1.701
       1.513
       1.236
       0.886
       0.473
       0.006
      -0.485
      -0.946
      -1.317
      -1.568
      -1.744
      -1.958
      -2.327
      -2.877
      -3.494
      -3.969
      -4.114
      -3.879
      -3.378
      -2.821
      -2.401
      -2.203
      -2.177
      -2.188
      -2.101
      -1.857
      -1.500
      -1.139
      -0.869
      -0.711
      -0.600
      -0.432
      -0.148
       0.218
       0.551
       0.728
       0.702
       0.541
       0.393
       0.394
       0.586
       0.910
       1.256
       1.542
       1.747
       1.887
       1.977
       2.022
       2.025
       2.005
       1.984
       1.955
       1.890
       1.769
       1.624
       1.544
       1.615
       1.856
       2.196
       2.506
       2.671
       2.642
       2.452
       2.178
       1.895
       1.627
       1.332
       0.924
       0.343
      -0.377
      -1.104
      -1.672
      -1.971
      -1.986
      -1.770
      -1.399
      -0.958
      -0.548
      -0.280
      -0.232
      -0.410
      -0.737
      -1.091
      -1.358
      -1.478
      -1.451
      -1.328
      -1.184
      -1.077
      -1.021
      -0.974
      -0.873
      -0.685
      -0.436
      -0.199
      -0.045
      -0.011
      -0.093
      -0.258
      -0.461
      -0.644
      -0.740
      -0.682
      -0.427
       0.000
       0.491
       0.878
       1.020
       0.889
       0.592
       0.299
       0.144
       0.156
       0.275
       0.403
       0.465
       0.446
       0.380
       0.336
       0.377
       0.541
       0.815
       1.141
       1.433
       1.610
       1.630
       1.508
       1.296
       1.059
       0.840
       0.650
       0.474
       0.293
       0.105
      -0.073
      -0.221
      -0.327
      -0.394
      -0.436
      -0.479
      -0.550
      -0.670
      -0.839
      -1.040
      -1.259
      -1.494
      -1.732
      -1.931
      -2.019
      -1.942
      -1.695
      -1.329
      -0.915
      -0.518
      -0.200
      -0.027
      -0.046
      -0.242
      -0.514
      -0.705
      -0.691
      -0.447
      -0.063
       0.310
       0.549
       0.624
       0.602
       0.588
       0.632
       0.687
       0.653
       0.462
       0.144
      -0.193
      -0.427
      -0.485
      -0.362
      -0.103
       0.216
       0.520
       0.756
       0.904
       0.973
       0.970
       0.883
       0.688
       0.382
       0.013
      -0.340
      -0.610
      -0.770
      -0.836
      -0.834
      -0.784
      -0.699
      -0.581
      -0.411
      -0.152
       0.224
       0.692
       1.162
       1.507
       1.641
       1.560
       1.335
       1.048
       0.731
       0.362
      -0.085
      -0.569
      -0.949
      -1.049
      -0.774
      -0.205
       0.441
       0.939
       1.214
       1.357
       1.520
       1.757
       1.973
       2.009
       1.772
       1.310
       0.776
       0.335
       0.092
       0.063
       0.187
       0.367
       0.512
       0.580
       0.604
       0.653
       0.780
       0.955
       1.073
       1.008
       0.687
       0.115
      -0.637
      -1.465
      -2.241
      -2.828
      -3.112
      -3.049
      -2.681
      -2.132
      -1.558
      -1.112
      -0.901
      -0.962
      -1.243
      -1.620
      -1.949
      -2.130
      -2.135
      -1.994
      -1.750
      -1.436
      -1.078
      -0.710
      -0.378
      -0.120
       0.052
       0.169
       0.296
       0.498
       0.800
       1.146
       1.414
       1.481
       1.304
       0.950
       0.549
       0.213
      -0.022
      -0.158
      -0.182
      -0.038
       0.309
       0.790
       1.226
       1.416
       1.270
       0.859
       0.366
      -0.030
      -0.228
      -0.212
      -0.024
       0.268
       0.578
       0.821
       0.936
       0.920
       0.823
       0.716
       0.634
       0.542
       0.367
       0.079
      -0.255
      -0.498
      -0.535
      -0.357
      -0.068
       0.189
       0.336
       0.415
       0.552
       0.846
       1.272
       1.667
       1.819
       1.589
       0.987
       0.168
      -0.649
      -1.280
      -1.646
      -1.778
      -1.768
      -1.700
      -1.611
      -1.496
      -1.345
      -1.166
      -0.984
      -0.814
      -0.645
      -0.447
      -0.211
       0.041
       0.262
       0.402
       0.426
       0.323
       0.132
      -0.052
      -0.093
       0.106
       0.528
       1.030
       1.426
       1.599
       1.564
       1.428
       1.299
       1.220
       1.161
       1.063
       0.874
       0.573
       0.177
      -0.256
      -0.654
      -0.958
      -1.146
      -1.205
      -1.109
      -0.833
      -0.396
       0.115
       0.581
       0.913
       1.077
       1.076
       0.917
       0.622
       0.245
      -0.126
      -0.413
      -0.598
      -0.720
      -0.829
      -0.922
      -0.944
      -0.839
      -0.612
      -0.354
      -0.193
      -0.211
      -0.392
      -0.629
      -0.792
      -0.813
      -0.732
      -0.663
      -0.710
      -0.893
      -1.145
      -1.356
      -1.445
      -1.385
      -1.195
      -0.925
      -0.650
      -0.454
      -0.388
      -0.438
      -0.523
      -0.559
      -0.540
      -0.549
      -0.689
      -0.991
      -1.367
      -1.661
      -1.738
      -1.565
      -1.223
      -0.845
      -0.541
      -0.336
      -0.177
       0.008
       0.259
       0.564
       0.882
       1.165
       1.367
       1.453
       1.407
       1.253
       1.047
       0.850
       0.691
       0.562
       0.445
       0.353
       0.331
       0.429
       0.674
       1.039
       1.458
       1.832
       2.064
       2.093
       1.928
       1.653
       1.380
       1.183
       1.072
       1.002
       0.926
       0.823
       0.694
       0.542
       0.369
       0.186
       0.025
      -0.074
      -0.092
      -0.049
      -0.006
      -0.041
      -0.218
      -0.542
      -0.951
