Origin Time       11/5/2012 18:41:28	
Lat.              26.6 N	
Long.             93.0 E	
Depth (Km)         20.0
Magnitude         5.4
 Region           Assam                                                            
 Above details taken from IMD 
   
Station Code      KOK
Station Lat.       26.400
Station Long.      90.261
Station Height(m)   54.0
Site Class        C   Vs30 between 200 m/sec to 375 m/sec *  
Record Time       11.05.2012 12:42:11.164
Sampling Rate     200. Hz
 Record Duration  110.995 Sec.
 Direction         Vert. (Up positive)
Max. Acceleration      5.925 cm/sec**2
     
  * For reference see Site Classification link of website 
     
 Base Line Corrected and Low Pass Filtered (Cut Off at 35 Hz) Time History
 Acceleration data in cm/sec**2
    
[...]
       1.270
       0.607
       0.152
      -0.022
       0.101
       0.445
       0.853
       1.154
       1.265
       1.221
       1.114
       0.982
       0.776
       0.425
      -0.055
      -0.524
      -0.782
      -0.706
      -0.340
       0.139
       0.532
       0.730
       0.737
       0.612
       0.395
       0.091
      -0.289
      -0.687
      -0.992
      -1.082
      -0.886
      -0.428
       0.166
       0.699
       0.978
       0.898
       0.483
      -0.141
      -0.831
      -1.494
      -2.079
      -2.511
      -2.669
      -2.438
      -1.805
      -0.902
       0.043
       0.814
       1.291
       1.452
       1.326
       0.949
       0.366
      -0.348
      -1.064
      -1.625
      -1.893
      -1.793
      -1.339
      -0.640
       0.122
       0.755
       1.114
       1.136
       0.839
       0.298
      -0.377
      -1.066
      -1.664
      -2.096
      -2.308
      -2.245
      -1.858
      -1.162
      -0.282
       0.573
       1.217
       1.583
       1.717
       1.696
       1.570
       1.376
       1.179
       1.062
       1.058
       1.125
       1.179
       1.152
       1.020
       0.779
       0.426
      -0.047
      -0.627
      -1.253
      -1.804
      -2.131
      -2.135
      -1.836
      -1.372
      -0.912
      -0.564
      -0.363
      -0.314
      -0.437
      -0.732
      -1.119
      -1.446
      -1.573
      -1.455
      -1.149
      -0.728
      -0.217
       0.403
       1.129
       1.898
       2.584
       3.051
       3.206
       3.032
       2.597
       2.013
       1.401
       0.861
       0.472
       0.290
       0.322
       0.515
       0.765
       0.981
       1.133
       1.250
       1.357
       1.423
       1.379
       1.176
       0.841
       0.468
       0.154
      -0.058
      -0.175
      -0.214
      -0.183
      -0.103
      -0.024
      -0.006
      -0.077
      -0.216
      -0.382
      -0.570
      -0.820
      -1.173
      -1.601
      -2.013
      -2.318
      -2.499
      -2.585
      -2.579
      -2.429
      -2.092
      -1.630
      -1.193
      -0.905
      -0.769
      -0.680
      -0.540
      -0.325
      -0.075
       0.159
       0.335
       0.397
       0.275
      -0.042
      -0.452
      -0.766
      -0.844
      -0.686
      -0.412
      -0.153
       0.031
       0.138
       0.182
       0.178
       0.160
       0.188
       0.305
       0.506
       0.725
       0.876
       0.887
       0.726
       0.396
      -0.049
      -0.505
      -0.842
      -0.953
      -0.796
      -0.408
       0.129
       0.720
       1.285
       1.771
       2.151
       2.410
       2.529
       2.478
       2.229
       1.779
       1.159
       0.431
      -0.319
      -0.988
      -1.461
      -1.636
      -1.467
      -0.999
      -0.364
       0.278
       0.816
       1.228
       1.560
       1.864
       2.145
       2.358
       2.443
       2.361
       2.107
       1.704
       1.183
       0.576
      -0.072
      -0.683
      -1.134
      -1.304
      -1.143
      -0.721
      -0.200
       0.236
       0.444
       0.348
      -0.071
      -0.772
      -1.635
      -2.452
      -2.979
      -3.057
      -2.690
      -2.029
      -1.261
      -0.516
       0.153
       0.727
       1.179
       1.475
       1.578
       1.462
       1.129
       0.638
       0.129
      -0.203
      -0.203
       0.160
       0.773
       1.448
       2.022
       2.409
       2.564
       2.438
       1.966
       1.142
       0.074
      -1.019
      -1.917
      -2.507
      -2.810
      -2.895
      -2.777
      -2.402
      -1.738
      -0.891
      -0.105
       0.359
       0.374
      -0.004
      -0.590
      -1.173
      -1.567
      -1.636
      -1.311
      -0.627
       0.259
       1.120
       1.740
       2.003
       1.910
       1.555
       1.078
       0.622
       0.304
       0.167
       0.165
       0.199
       0.186
       0.113
       0.023
      -0.056
      -0.151
      -0.331
      -0.627
      -0.986
      -1.287
      -1.439
      -1.449
      -1.417
      -1.442
      -1.536
      -1.600
      -1.490
      -1.124
      -0.557
       0.040
       0.487
       0.712
       0.747
       0.649
       0.412
      -0.004
      -0.596
      -1.258
      -1.840
      -2.217
      -2.315
      -2.103
      -1.601
      -0.912
      -0.194
       0.442
       1.017
       1.635
       2.332
       2.994
       3.447
       3.632
       3.650
       3.636
       3.597
       3.403
       2.945
       2.259
       1.500
       0.809
       0.239
      -0.191
      -0.433
      -0.441
      -0.254
      -0.022
       0.078
      -0.043
      -0.370
      -0.845
      -1.426
      -2.067
      -2.671
      -3.101
      -3.277
      -3.238
      -3.087
      -2.858
      -2.454
      -1.740
      -0.691
       0.542
       1.717
       2.617
       3.114
       3.162
       2.790
       2.110
       1.313
       0.603
       0.121
      -0.065
       0.061
       0.475
       1.081
       1.717
       2.233
       2.548
       2.627
       2.405
       1.783
       0.737
      -0.562
      -1.785
      -2.620
      -2.923
      -2.740
      -2.229
      -1.588
      -1.022
      -0.699
      -0.682
      -0.895
      -1.192
      -1.466
      -1.715
      -2.008
      -2.377
      -2.742
      -2.936
      -2.793
      -2.271
      -1.498
      -0.720
      -0.187
      -0.039
      -0.273
      -0.760
      -1.295
      -1.665
      -1.718
      -1.411
      -0.804
      -0.005
       0.884
       1.772
       2.568
       3.167
       3.465
       3.404
       3.012
       2.424
       1.835
       1.413
       1.207
       1.143
       1.099
       0.999
       0.850
       0.706
       0.597
       0.496
       0.328
       0.011
      -0.501
      -1.168
      -1.848
      -2.345
      -2.514
      -2.340
      -1.916
      -1.355
      -0.730
      -0.091
       0.473
       0.828
       0.865
       0.578
       0.076
      -0.484
      -0.965
      -1.289
      -1.422
      -1.368
      -1.178
      -0.923
      -0.661
      -0.394
      -0.079
       0.324
       0.826
       1.412
       2.043
       2.648
       3.122
       3.380
       3.400
       3.234
       2.945
       2.559
       2.086
       1.565
       1.088
       0.735
       0.512
       0.359
       0.229
       0.139
       0.139
       0.233
       0.364
       0.482
       0.598
       0.752
       0.925
       1.003
       0.863
       0.472
      -0.093
      -0.722
      -1.343
      -1.908
      -2.360
      -2.624
      -2.662
      -2.490
      -2.152
      -1.686
      -1.138
      -0.620
      -0.297
      -0.284
      -0.528
      -0.820
      -0.944
      -0.807
      -0.450
       0.054
       0.673
       1.380
       2.078
       2.581
       2.689
       2.296
       1.443
       0.294
      -0.917
      -1.940
      -2.555
      -2.646
      -2.260
      -1.600
      -0.909
      -0.338
       0.084
       0.355
       0.417
       0.203
      -0.246
      -0.750
      -1.104
      -1.227
      -1.176
      -1.042
      -0.851
      -0.593
      -0.291
      -0.012
       0.182
       0.266
       0.222
       0.013
      -0.368
      -0.823
      -1.170
      -1.254
      -1.037
      -0.578
       0.046
       0.755
       1.419
       1.849
       1.871
       1.431
       0.645
      -0.232
      -0.906
      -1.147
      -0.874
      -0.155
       0.854
       1.990
       3.100
       3.998
       4.459
       4.285
       3.434
       2.080
       0.554
      -0.801
      -1.758
      -2.255
      -2.345
      -2.110
      -1.618
      -0.943
      -0.212
       0.382
       0.641
       0.480
      -0.006
      -0.583
      -1.022
      -1.205
      -1.122
      -0.795
      -0.232
       0.534
       1.380
       2.107
       2.546
       2.646
       2.453
       2.031
       1.429
       0.727
       0.074
      -0.357
      -0.476
      -0.319
       0.004
       0.371
       0.665
       0.729
       0.399
      -0.390
      -1.487
      -2.548
      -3.225
      -3.389
      -3.185
      -2.870
      -2.597
      -2.333
      -1.973
      -1.497
      -1.017
      -0.679
      -0.551
      -0.597
      -0.724
      -0.833
      -0.843
      -0.701
      -0.375
       0.174
       0.989
       2.064
       3.242
       4.209
       4.629
       4.344
       3.462
       2.239
       0.899
      -0.431
      -1.643
      -2.564
      -2.971
      -2.722
      -1.847
      -0.550
       0.875
       2.133
       2.997
       3.333
       3.117
       2.426
       1.411
       0.226
      -1.026
      -2.298
      -3.536
      -4.609
      -5.314
      -5.460
      -4.983
      -3.970
      -2.619
      -1.156
       0.199
       1.245
       1.817
       1.838
       1.369
       0.623
      -0.096
      -0.507
      -0.464
      -0.015
       0.638
       1.247
       1.624
       1.683
       1.420
       0.892
       0.229
      -0.352
      -0.622
      -0.471
       0.000
       0.537
       0.906
       1.027
       0.951
       0.737
       0.367
      -0.216
      -1.000
      -1.834
      -2.467
      -2.666
      -2.338
      -1.574
      -0.583
       0.431
       1.363
       2.202
       2.961
       3.582
       3.900
       3.706
       2.887
       1.571
       0.150
      -0.884
      -1.183
      -0.723
       0.234
       1.333
       2.311
       3.035
       3.413
       3.312
       2.613
       1.336
      -0.302
      -1.969
      -3.374
      -4.354
      -4.845
      -4.814
      -4.265
      -3.286
      -2.078
      -0.871
       0.157
       0.900
       1.277
       1.228
       0.798
       0.216
      -0.201
      -0.251
       0.008
       0.355
       0.641
       0.905
       1.264
       1.710
       2.041
       2.019
       1.581
       0.920
       0.358
       0.127
       0.262
       0.628
       1.046
       1.379
       1.566
       1.597
       1.487
       1.241
       0.850
       0.311
      -0.325
      -0.944
      -1.412
      -1.652
      -1.681
      -1.586
      -1.461
      -1.362
      -1.302
      -1.281
      -1.314
      -1.423
      -1.595
      -1.749
      -1.742
      -1.465
      -0.936
      -0.337
       0.089
       0.196
       0.034
      -0.187
      -0.249
      -0.075
       0.209
       0.348
       0.145
      -0.381
      -0.976
      -1.325
      -1.275
      -0.908
      -0.414
       0.116
       0.739
       1.529
       2.406
       3.131
       3.451
       3.273
       2.705
       1.961
       1.233
       0.633
       0.223
       0.054
       0.156
       0.477
       0.848
       1.054
       0.958
       0.580
       0.066
      -0.394
      -0.660
      -0.693
      -0.587
      -0.546
      -0.759
      -1.254
      -1.843
      -2.232
      -2.224
      -1.825
      -1.199
      -0.536
       0.034
       0.451
       0.699
       0.778
       0.683
       0.404
      -0.033
      -0.524
      -0.900
      -1.017
      -0.855
      -0.505
      -0.083
       0.337
       0.691
       0.863
       0.718
       0.217
      -0.502
      -1.199
      -1.684
      -1.920
      -1.963
      -1.853
      -1.586
      -1.172
      -0.683
      -0.195
       0.297
       0.871
       1.569
       2.298
       2.883
       3.184
       3.174
       2.905
       2.420
       1.751
       0.953
       0.144
      -0.529
      -0.960
      -1.120
      -1.052
      -0.840
      -0.591
      -0.417
      -0.421
      -0.671
      -1.177
      -1.877
      -2.639
      -3.294
      -3.697
      -3.779
      -3.545
      -3.017
      -2.186
      -1.014
       0.489
       2.192
       3.816
       5.002
       5.446
       5.032
       3.894
       2.359
       0.810
      -0.450
      -1.262
      -1.599
      -1.522
      -1.128
      -0.520
       0.206
       0.941
       1.541
       1.842
       1.719
       1.161
       0.262
      -0.834
      -1.991
      -3.051
      -3.801
      -4.020
      -3.621
      -2.732
      -1.618
      -0.499
       0.538
       1.475
       2.239
       2.692
       2.740
       2.432
       1.913
       1.315
       0.695
       0.107
      -0.345
      -0.540
      -0.465
      -0.270
      -0.172
      -0.284
      -0.538
      -0.761
      -0.844
      -0.818
      -0.802
      -0.883
      -1.044
      -1.192
      -1.217
      -1.022
      -0.529
       0.307
       1.440
       2.697
       3.834
       4.663
       5.117
       5.206
       4.899
       4.114
       2.820
       1.173
      -0.495
      -1.827
      -2.621
      -2.888
      -2.788
      -2.513
      -2.220
      -2.003
      -1.908
      -1.924
      -2.006
      -2.109
      -2.222
      -2.364
      -2.524
      -2.625
      -2.558
      -2.257
      -1.736
      -1.058
      -0.258
       0.679
       1.755
       2.868
       3.805
       4.345
       4.396
       4.044
       3.450
       2.713
       1.834
       0.814
      -0.235
      -1.125
      -1.736
      -2.122
      -2.445
      -2.816
      -3.180
      -3.354
      -3.165
      -2.559
      -1.615
      -0.487
       0.661
       1.677
       2.421
       2.753
       2.560
       1.824
       0.678
      -0.589
      -1.630
      -2.171
      -2.113
      -1.533
      -0.604
       0.493
       1.593
       2.525
       3.094
       3.124
       2.549
       1.465
       0.119
      -1.162
      -2.063
      -2.339
      -1.872
      -0.707
       0.947
       2.765
       4.396
       5.531
       5.925
       5.414
       3.985
       1.847
      -0.580
      -2.807
      -4.467
      -5.399
      -5.588
      -5.060
      -3.885
      -2.257
      -0.540
       0.828
       1.508
       1.389
       0.597
      -0.590
      -1.842
      -2.860
      -3.431
      -3.447
      -2.909
      -1.904
      -0.610
       0.713
       1.775
       2.361
       2.416
       2.049
       1.454
       0.831
       0.355
       0.154
       0.286
       0.700
       1.252
       1.772
       2.144
       2.337
       2.365
       2.239
       1.955
       1.518
       0.962
       0.322
      -0.390
      -1.185
      -2.029
      -2.787
      -3.252
      -3.253
      -2.767
      -1.945
      -1.018
      -0.176
       0.483
       0.916
       1.058
       0.817
       0.159
      -0.817
      -1.874
      -2.737
      -3.198
      -3.194
      -2.795
      -2.130
      -1.296
      -0.330
       0.743
       1.835
       2.761
       3.298
       3.298
       2.792
       1.986
       1.150
       0.496
       0.117
       0.031
       0.234
       0.683
       1.233
       1.651
       1.726
       1.419
       0.871
       0.276
      -0.267
      -0.785
      -1.343
      -1.951
      -2.544
      -3.008
      -3.207
      -3.005
      -2.319
      -1.214
       0.069
       1.212
       1.983
       2.347
       2.416
       2.325
       2.131
       1.820
       1.389
       0.907
       0.484
       0.188
      -0.005
      -0.187
      -0.441
      -0.792
      -1.191
      -1.526
      -1.660
      -1.497
      -1.063
      -0.503
       0.026
       0.485
       0.950
       1.462
       1.912
       2.080
       1.821
       1.202
       0.462
      -0.156
      -0.550
      -0.749
      -0.793
      -0.635
      -0.166
       0.659
       1.720
       2.752
       3.478
       3.730
       3.455
       2.645
       1.317
      -0.428
      -2.323
      -3.960
      -4.962
      -5.154
      -4.619
      -3.587
      -2.298
      -0.941
       0.293
       1.181
       1.526
       1.266
       0.524
      -0.450
      -1.397
      -2.130
      -2.525
      -2.501
      -2.035
      -1.211
      -0.226
       0.684
       1.328
       1.602
       1.482
       1.023
       0.376
      -0.227
      -0.555
      -0.485
      -0.094
       0.372
       0.645
       0.605
       0.359
       0.140
       0.103
       0.208
       0.294
       0.267
       0.199
       0.235
       0.419
       0.632
       0.707
       0.587
       0.369
       0.211
       0.201
       0.330
       0.535
       0.754
       0.937
       1.033
       0.996
       0.814
       0.512
       0.128
      -0.303
      -0.743
      -1.135
      -1.400
      -1.454
      -1.239
      -0.764
      -0.121
       0.540
       1.107
       1.548
       1.889
       2.112
       2.126
       1.845
       1.310
       0.698
       0.189
      -0.175
      -0.479
      -0.797
      -1.069
      -1.161
      -1.006
      -0.673
      -0.305
      -0.008
       0.176
       0.221
       0.096
      -0.200
      -0.597
      -0.979
      -1.236
      -1.270
      -0.982
      -0.302
       0.708
       1.793
       2.586
       2.814
       2.464
       1.764
       1.019
       0.432
       0.047
      -0.220
      -0.497
      -0.877
      -1.341
      -1.740
      -1.872
      -1.633
      -1.109
      -0.530
      -0.110
       0.081
       0.119
       0.130
       0.190
       0.320
       0.526
       0.818
       1.177
       1.519
       1.720
       1.685
       1.410
       0.969
       0.440
      -0.140
      -0.771
      -1.421
      -1.993
      -2.351
      -2.391
      -2.094
      -1.550
      -0.941
      -0.484
      -0.337
      -0.515
      -0.889
      -1.262
      -1.480
      -1.481
      -1.278
      -0.927
      -0.507
      -0.118
       0.140
       0.228
       0.207
       0.202
       0.318
       0.562
       0.854
       1.083
       1.151
       1.000
       0.634
       0.153
      -0.273
      -0.518
      -0.608
      -0.715
      -1.008
      -1.502
      -2.038
      -2.391
      -2.423
      -2.132
      -1.609
      -0.958
      -0.249
       0.464
       1.123
       1.646
       1.941
       1.914
       1.505
       0.742
      -0.214
      -1.076
      -1.531
      -1.393
      -0.704
       0.288
       1.281
       2.077
       2.618
       2.903
       2.907
       2.579
       1.926
       1.058
       0.162
      -0.575
      -1.022
      -1.126
      -0.916
      -0.499
      -0.001
       0.498
       0.982
       1.425
       1.706
       1.629
       1.065
       0.096
      -0.972
      -1.765
      -2.043
      -1.799
      -1.199
      -0.461
       0.255
       0.860
       1.313
       1.582
       1.633
       1.431
       0.973
       0.327
      -0.351
      -0.874
      -1.114
      -1.060
      -0.774
      -0.321
       0.273
       0.969
       1.662
       2.195
       2.423
       2.292
       1.865
       1.298
       0.776
       0.442
       0.350
       0.460
       0.676
       0.903
       1.086
       1.213
       1.285
       1.288
       1.169
       0.848
       0.268
      -0.534
      -1.398
      -2.094
      -2.435
      -2.368
      -1.970
      -1.364
      -0.680
      -0.069
       0.268
       0.140
      -0.503
      -1.494
      -2.512
      -3.249
      -3.549
      -3.427
      -2.978
      -2.290
      -1.421
      -0.432
       0.565
       1.396
       1.869
       1.859
       1.395
       0.677
      -0.001
      -0.398
      -0.448
      -0.263
      -0.022
       0.150
       0.226
       0.242
       0.244
       0.277
       0.385
       0.585
       0.837
       1.034
       1.043
       0.786
       0.300
      -0.262
      -0.696
      -0.843
      -0.648
      -0.178
       0.403
