Origin Time       26/2/2010 4:42:33	 
Lat.              28.5 N	
Long.             86.7 E	
Depth (Km)         28.0
Magnitude         5.4
 Region           Tibet                                                            
 Above details taken from IMD 
     
Station Code      KOK
Station Lat.       26.400  N
Station Long.      90.261  E
Station Height(m)   54.0
Site Class        C   Vs30 between 200 m/sec to 375 m/sec *  
Record Time       26.02.2010 04:43:50.169
Sampling Rate     200. Hz
 Record Duration   84.140 Sec.
 Direction         E-W (E positive)
Max. Acceleration     -3.419 cm/sec**2
     
  * For reference see Site Classification link of website 
     
 Base Line Corrected and Low Pass Filtered (Cut Off at 35 Hz) Time History
 Acceleration data in cm/sec**2
    
[...]
      -0.110
      -0.075
      -0.073
      -0.109
      -0.173
      -0.249
      -0.321
      -0.369
      -0.378
      -0.341
      -0.264
      -0.162
      -0.056
       0.042
       0.130
       0.212
       0.292
       0.368
       0.428
       0.463
       0.469
       0.448
       0.402
       0.330
       0.226
       0.097
      -0.039
      -0.163
      -0.260
      -0.329
      -0.370
      -0.385
      -0.378
      -0.358
      -0.332
      -0.302
      -0.268
      -0.232
      -0.198
      -0.166
      -0.136
      -0.114
      -0.107
      -0.124
      -0.163
      -0.210
      -0.247
      -0.259
      -0.247
      -0.218
      -0.184
      -0.144
      -0.091
      -0.021
       0.064
       0.156
       0.247
       0.338
       0.427
       0.511
       0.584
       0.637
       0.668
       0.678
       0.667
       0.640
       0.612
       0.599
       0.601
       0.608
       0.603
       0.576
       0.525
       0.459
       0.389
       0.323
       0.256
       0.184
       0.104
       0.024
      -0.050
      -0.127
      -0.222
      -0.345
      -0.494
      -0.653
      -0.803
      -0.930
      -1.029
      -1.101
      -1.146
      -1.154
      -1.111
      -1.011
      -0.861
      -0.679
      -0.478
      -0.268
      -0.053
       0.156
       0.350
       0.516
       0.640
       0.705
       0.697
       0.611
       0.463
       0.280
       0.095
      -0.068
      -0.197
      -0.286
      -0.330
      -0.325
      -0.271
      -0.176
      -0.055
       0.072
       0.196
       0.322
       0.459
       0.604
       0.743
       0.848
       0.897
       0.881
       0.803
       0.680
       0.531
       0.368
       0.196
       0.025
      -0.136
      -0.280
      -0.404
      -0.511
      -0.597
      -0.658
      -0.686
      -0.680
      -0.639
      -0.566
      -0.465
      -0.347
      -0.225
      -0.111
      -0.013
       0.071
       0.138
       0.181
       0.195
       0.181
       0.151
       0.124
       0.113
       0.122
       0.145
       0.176
       0.212
       0.254
       0.301
       0.342
       0.362
       0.345
       0.281
       0.171
       0.026
      -0.135
      -0.293
      -0.428
      -0.526
      -0.579
      -0.588
      -0.557
      -0.493
      -0.396
      -0.270
      -0.120
       0.036
       0.183
       0.309
       0.408
       0.481
       0.530
       0.558
       0.563
       0.544
       0.500
       0.430
       0.338
       0.227
       0.102
      -0.029
      -0.155
      -0.260
      -0.329
      -0.360
      -0.364
      -0.353
      -0.337
      -0.313
      -0.276
      -0.221
      -0.151
      -0.076
      -0.007
       0.047
       0.075
       0.075
       0.049
       0.007
      -0.035
      -0.066
      -0.080
      -0.078
      -0.062
      -0.035
      -0.001
       0.030
       0.046
       0.041
       0.016
      -0.022
      -0.073
      -0.140
      -0.222
      -0.305
      -0.366
      -0.386
      -0.359
      -0.297
      -0.214
      -0.115
       0.004
       0.149
       0.311
       0.473
       0.616
       0.729
       0.814
       0.878
       0.928
       0.958
       0.955
       0.905
       0.807
       0.676
       0.532
       0.388
       0.247
       0.104
      -0.047
      -0.204
      -0.359
      -0.496
      -0.603
      -0.675
      -0.716
      -0.740
      -0.759
      -0.780
      -0.795
      -0.788
      -0.746
      -0.667
      -0.566
      -0.468
      -0.394
      -0.354
      -0.350
      -0.373
      -0.411
      -0.446
      -0.464
      -0.456
      -0.424
      -0.377
      -0.327
      -0.281
      -0.241
      -0.198
      -0.138
      -0.052
       0.055
       0.162
       0.247
       0.298
       0.320
       0.324
       0.323
       0.330
       0.355
       0.407
       0.492
       0.605
       0.732
       0.850
       0.935
       0.965
       0.933
       0.854
       0.759
       0.682
       0.646
       0.647
       0.658
       0.650
       0.605
       0.525
       0.425
       0.313
       0.194
       0.068
      -0.059
      -0.176
      -0.267
      -0.320
      -0.325
      -0.283
      -0.200
      -0.088
       0.039
       0.168
       0.289
       0.393
       0.473
       0.519
       0.521
       0.464
       0.341
       0.153
      -0.086
      -0.356
      -0.631
      -0.889
      -1.110
      -1.280
      -1.393
      -1.457
      -1.484
      -1.484
      -1.463
      -1.417
      -1.338
      -1.223
      -1.074
      -0.900
      -0.713
      -0.523
      -0.339
      -0.172
      -0.035
       0.057
       0.087
       0.060
       0.004
      -0.040
      -0.030
       0.050
       0.189
       0.355
       0.509
       0.623
       0.688
       0.707
       0.692
       0.662
       0.633
       0.628
       0.666
       0.762
       0.916
       1.111
       1.322
       1.520
       1.680
       1.784
       1.822
       1.787
       1.678
       1.501
       1.266
       0.988
       0.680
       0.351
       0.010
      -0.328
      -0.640
      -0.899
      -1.085
      -1.189
      -1.217
      -1.176
      -1.078
      -0.946
      -0.815
      -0.725
      -0.708
      -0.772
      -0.894
      -1.029
      -1.127
      -1.153
      -1.097
      -0.973
      -0.812
      -0.655
      -0.535
      -0.470
      -0.455
      -0.469
      -0.485
      -0.484
      -0.461
      -0.426
      -0.390
      -0.351
      -0.302
      -0.229
      -0.127
       0.001
       0.142
       0.288
       0.427
       0.548
       0.641
       0.701
       0.734
       0.751
       0.764
       0.779
       0.792
       0.800
       0.795
       0.773
       0.730
       0.661
       0.558
       0.416
       0.243
       0.057
      -0.115
      -0.252
      -0.346
      -0.396
      -0.411
      -0.396
      -0.361
      -0.319
      -0.277
      -0.236
      -0.191
      -0.131
      -0.044
       0.078
       0.241
       0.442
       0.664
       0.882
       1.070
       1.213
       1.301
       1.331
       1.292
       1.174
       0.971
       0.693
       0.366
       0.026
      -0.291
      -0.556
      -0.746
      -0.843
      -0.840
      -0.748
      -0.594
      -0.411
      -0.221
      -0.031
       0.165
       0.368
       0.566
       0.738
       0.871
       0.967
       1.025
       1.034
       0.976
       0.839
       0.634
       0.389
       0.139
      -0.088
      -0.283
      -0.449
      -0.599
      -0.738
      -0.859
      -0.948
      -0.990
      -0.987
      -0.953
      -0.903
      -0.838
      -0.753
      -0.638
      -0.503
      -0.366
      -0.249
      -0.162
      -0.103
      -0.071
      -0.068
      -0.102
      -0.180
      -0.304
      -0.469
      -0.666
      -0.880
      -1.093
      -1.283
      -1.427
      -1.507
      -1.515
      -1.455
      -1.338
      -1.170
      -0.959
      -0.712
      -0.445
      -0.178
       0.071
       0.295
       0.493
       0.668
       0.824
       0.968
       1.107
       1.247
       1.380
       1.483
       1.529
       1.499
       1.391
       1.210
       0.963
       0.662
       0.321
      -0.038
      -0.389
      -0.712
      -0.992
      -1.219
      -1.376
      -1.441
      -1.397
      -1.242
      -0.992
      -0.682
      -0.354
      -0.052
       0.191
       0.364
       0.471
       0.528
       0.549
       0.547
       0.544
       0.562
       0.615
       0.703
       0.811
       0.919
       1.012
       1.084
       1.132
       1.158
       1.171
       1.177
       1.175
       1.147
       1.069
       0.925
       0.719
       0.474
       0.229
       0.024
      -0.105
      -0.140
      -0.084
       0.038
       0.191
       0.347
       0.482
       0.581
       0.635
       0.641
       0.595
       0.488
       0.301
       0.018
      -0.356
      -0.782
      -1.198
      -1.541
      -1.773
      -1.890
      -1.908
      -1.853
      -1.744
      -1.592
      -1.407
      -1.195
      -0.965
      -0.720
      -0.464
      -0.202
       0.052
       0.276
       0.452
       0.574
       0.642
       0.655
       0.614
       0.527
       0.414
       0.295
       0.181
       0.069
      -0.041
      -0.142
      -0.218
      -0.261
      -0.284
      -0.306
      -0.338
      -0.375
      -0.400
      -0.391
      -0.336
      -0.234
      -0.095
       0.063
       0.222
       0.363
       0.463
       0.497
       0.448
       0.318
       0.142
      -0.035
      -0.173
      -0.261
      -0.320
      -0.378
      -0.451
      -0.541
      -0.630
      -0.696
      -0.713
      -0.667
      -0.561
      -0.421
      -0.276
      -0.147
      -0.033
       0.082
       0.209
       0.347
       0.486
       0.618
       0.750
       0.889
       1.029
       1.150
       1.226
       1.245
       1.210
       1.138
       1.047
       0.937
       0.799
       0.614
       0.380
       0.120
      -0.122
      -0.296
      -0.377
      -0.376
      -0.329
      -0.277
      -0.239
      -0.217
      -0.204
      -0.189
      -0.169
      -0.144
      -0.118
      -0.091
      -0.053
       0.011
       0.113
       0.250
       0.398
       0.521
       0.582
       0.561
       0.460
       0.300
       0.113
      -0.078
      -0.254
      -0.398
      -0.489
      -0.508
      -0.451
      -0.339
      -0.210
      -0.103
      -0.045
      -0.053
      -0.133
      -0.283
      -0.486
      -0.708
      -0.906
      -1.047
      -1.114
      -1.112
      -1.067
      -1.011
      -0.966
      -0.922
      -0.843
      -0.689
      -0.439
      -0.106
       0.269
       0.628
       0.920
       1.105
       1.169
       1.129
       1.023
       0.892
       0.767
       0.666
       0.596
       0.560
       0.550
       0.557
       0.564
       0.556
       0.525
       0.473
       0.415
       0.373
       0.359
       0.365
       0.364
       0.326
       0.226
       0.057
      -0.179
      -0.469
      -0.790
      -1.114
      -1.412
      -1.657
      -1.826
      -1.907
      -1.907
      -1.849
      -1.765
      -1.668
      -1.557
      -1.421
      -1.261
      -1.087
      -0.913
      -0.743
      -0.580
      -0.421
      -0.267
      -0.113
       0.057
       0.265
       0.527
       0.845
       1.202
       1.562
       1.888
       2.153
       2.352
       2.493
       2.579
       2.604
       2.554
       2.428
       2.245
       2.039
       1.843
       1.679
       1.555
       1.474
       1.430
       1.406
       1.367
       1.272
       1.087
       0.803
       0.430
      -0.002
      -0.463
      -0.930
      -1.382
      -1.784
      -2.087
      -2.245
      -2.242
      -2.109
      -1.902
      -1.675
      -1.459
      -1.260
      -1.072
      -0.888
      -0.707
      -0.541
      -0.411
      -0.338
      -0.329
      -0.371
      -0.440
      -0.516
      -0.585
      -0.645
      -0.691
      -0.720
      -0.727
      -0.712
      -0.673
      -0.610
      -0.519
      -0.389
      -0.201
       0.059
       0.388
       0.756
       1.114
       1.417
       1.641
       1.778
       1.825
       1.769
       1.604
       1.342
       1.017
       0.669
       0.331
       0.027
      -0.227
      -0.416
      -0.535
      -0.590
      -0.599
      -0.588
      -0.582
      -0.596
      -0.630
      -0.669
      -0.694
      -0.699
      -0.693
      -0.698
      -0.727
      -0.785
      -0.872
      -0.983
      -1.108
      -1.224
      -1.303
      -1.326
      -1.283
      -1.181
      -1.035
      -0.869
      -0.707
      -0.566
      -0.443
      -0.323
      -0.190
      -0.038
       0.130
       0.306
       0.480
       0.636
       0.765
       0.864
       0.947
       1.031
       1.123
       1.220
       1.309
       1.383
       1.442
       1.496
       1.560
       1.648
       1.762
       1.887
       1.992
       2.045
       2.024
       1.922
       1.746
       1.503
       1.198
       0.833
       0.406
      -0.082
      -0.612
      -1.151
      -1.652
      -2.072
      -2.382
      -2.571
      -2.638
      -2.587
      -2.429
      -2.179
      -1.863
      -1.507
      -1.144
      -0.807
      -0.527
      -0.329
      -0.219
      -0.182
      -0.190
      -0.214
      -0.228
      -0.214
      -0.165
      -0.088
      -0.002
       0.076
       0.143
       0.227
       0.367
       0.594
       0.905
       1.259
       1.601
       1.892
       2.127
       2.326
       2.509
       2.670
       2.778
       2.796
       2.699
       2.482
       2.153
       1.728
       1.235
       0.715
       0.215
      -0.232
      -0.611
      -0.925
      -1.185
      -1.401
      -1.581
      -1.734
      -1.870
      -1.998
      -2.118
      -2.230
      -2.331
      -2.418
      -2.489
      -2.538
      -2.556
      -2.536
      -2.470
      -2.357
      -2.201
      -2.001
      -1.755
      -1.465
      -1.144
      -0.816
      -0.511
      -0.248
      -0.023
       0.181
       0.392
       0.627
       0.898
       1.204
       1.533
       1.865
       2.175
       2.445
       2.665
       2.834
       2.947
       2.994
       2.963
       2.846
       2.650
       2.397
       2.118
       1.836
       1.568
       1.320
       1.087
       0.856
       0.613
       0.345
       0.050
      -0.264
      -0.587
      -0.907
      -1.219
      -1.521
      -1.824
      -2.138
      -2.471
      -2.809
      -3.114
      -3.334
      -3.419
      -3.345
      -3.115
      -2.750
      -2.275
      -1.713
      -1.093
      -0.455
       0.153
       0.689
       1.132
       1.488
       1.773
       2.000
       2.161
       2.242
       2.237
       2.162
       2.046
       1.919
       1.797
       1.687
       1.596
       1.527
       1.479
       1.442
       1.403
       1.351
       1.270
       1.150
       0.987
       0.795
       0.600
       0.429
       0.298
       0.202
       0.123
       0.033
      -0.098
      -0.289
      -0.545
      -0.849
      -1.176
      -1.498
      -1.800
      -2.077
      -2.331
      -2.569
      -2.792
      -2.988
      -3.137
      -3.221
      -3.227
      -3.147
      -2.970
      -2.683
      -2.270
      -1.731
      -1.089
      -0.397
       0.284
       0.905
       1.437
       1.871
       2.198
       2.413
       2.509
       2.486
       2.343
       2.079
       1.703
       1.240
       0.729
       0.216
      -0.245
      -0.609
      -0.840
      -0.925
      -0.872
      -0.709
      -0.472
      -0.203
       0.053
       0.247
       0.352
       0.377
       0.356
       0.338
       0.355
       0.420
       0.523
       0.645
       0.759
       0.837
       0.860
       0.829
       0.757
       0.669
       0.581
       0.503
       0.438
       0.377
       0.307
       0.214
       0.087
      -0.080
      -0.280
      -0.505
      -0.737
      -0.958
      -1.146
      -1.280
      -1.347
      -1.344
      -1.280
      -1.171
      -1.037
      -0.897
      -0.762
      -0.634
      -0.505
      -0.368
      -0.227
      -0.091
       0.038
       0.168
       0.318
       0.500
       0.704
       0.907
       1.088
       1.240
       1.371
       1.486
       1.580
       1.642
       1.665
       1.647
       1.583
       1.468
       1.301
       1.096
       0.881
       0.687
       0.530
       0.403
       0.288
       0.162
       0.018
      -0.143
      -0.306
      -0.458
      -0.594
      -0.717
      -0.834
      -0.949
      -1.055
      -1.142
      -1.207
      -1.257
      -1.302
      -1.342
      -1.359
      -1.336
      -1.268
      -1.173
      -1.077
      -0.997
      -0.927
      -0.857
      -0.783
      -0.715
      -0.671
      -0.664
      -0.700
      -0.768
      -0.841
      -0.880
      -0.846
      -0.716
      -0.486
      -0.179
       0.170
       0.524
       0.853
       1.133
       1.351
       1.503
       1.595
       1.642
       1.664
       1.676
       1.685
       1.685
       1.668
       1.629
       1.569
       1.495
       1.408
       1.300
       1.157
       0.973
       0.750
       0.501
       0.241
      -0.016
      -0.259
      -0.481
      -0.680
      -0.851
      -0.987
      -1.078
      -1.128
      -1.154
      -1.182
      -1.225
      -1.280
      -1.331
      -1.367
      -1.385
      -1.391
      -1.388
      -1.370
      -1.330
      -1.260
      -1.153
      -1.005
      -0.806
      -0.547
      -0.232
       0.109
       0.429
       0.685
       0.859
       0.962
       1.021
       1.068
       1.125
       1.196
       1.267
       1.316
       1.324
       1.285
       1.212
       1.129
       1.058
       1.012
       0.984
       0.949
       0.878
       0.754
       0.577
       0.363
       0.139
      -0.081
      -0.292
      -0.500
      -0.712
      -0.927
      -1.134
      -1.304
      -1.389
      -1.344
      -1.154
      -0.852
      -0.506
      -0.181
       0.084
       0.280
       0.407
       0.462
       0.441
       0.352
       0.213
       0.046
      -0.127
      -0.288
      -0.422
      -0.522
      -0.591
      -0.643
      -0.689
      -0.723
      -0.727
      -0.692
      -0.624
      -0.551
      -0.499
      -0.482
      -0.486
      -0.486
      -0.455
      -0.379
      -0.265
      -0.125
       0.031
       0.199
       0.375
       0.549
       0.708
       0.850
       0.984
       1.120
       1.248
       1.344
       1.379
       1.347
       1.264
       1.155
       1.030
       0.885
       0.711
       0.510
       0.299
       0.102
      -0.064
      -0.186
      -0.262
      -0.297
      -0.304
      -0.298
      -0.282
      -0.255
      -0.219
      -0.182
      -0.149
      -0.115
      -0.071
      -0.018
       0.026
       0.031
      -0.025
      -0.143
      -0.309
      -0.498
      -0.683
      -0.842
      -0.959
      -1.031
      -1.059
      -1.042
      -0.977
      -0.863
      -0.703
      -0.510
      -0.295
      -0.064
       0.175
       0.410
       0.617
       0.767
       0.840
       0.833
       0.756
       0.637
       0.506
       0.391
       0.310
       0.260
       0.221
       0.170
       0.091
      -0.019
      -0.150
      -0.294
      -0.452
      -0.626
      -0.811
      -0.987
      -1.131
      -1.225
      -1.262
      -1.235
      -1.138
      -0.969
      -0.741
      -0.484
      -0.235
      -0.023
       0.139
       0.260
       0.356
       0.440
       0.519
       0.595
       0.672
       0.749
       0.820
       0.868
       0.880
       0.848
       0.779
       0.683
       0.566
       0.433
       0.295
       0.173
       0.081
       0.020
      -0.021
      -0.054
      -0.078
      -0.091
      -0.093
      -0.096
      -0.115
      -0.149
      -0.185
      -0.203
      -0.190
      -0.137
      -0.049
       0.062
       0.170
       0.248
       0.274
       0.238
       0.151
       0.028
      -0.118
      -0.284
      -0.466
      -0.653
      -0.818
      -0.933
      -0.983
      -0.976
      -0.927
      -0.843
      -0.713
      -0.526
      -0.274
       0.032
       0.366
       0.694
       0.985
       1.228
       1.436
       1.639
       1.862
       2.104
       2.335
       2.510
       2.585
