Origin Time       15/2/2009 07:35:55 
Lat.              26.0 N 
Long.             90.2 E 
Depth (Km)         39.3
Magnitude         4.4
 Region           Assam-Meghalaya-Border                                           
 Above details taken from IMD 
     
Station Code      KOK
Station Lat.       26.400  N
Station Long.      90.261  E
Station Height(m)   53.0
Site Class        C   Vs30 between 200 m/sec to 375 m/sec *  
Record Time       15.02.2009 19:35:55.784
Sampling Rate     200. Hz
 Record Duration   74.415 Sec.
 Direction         E-W (E positive)
Max. Acceleration    -32.909 cm/sec**2
     
  * For reference see Site Classification link of website 
     
 Base Line Corrected and Low Pass Filtered (Cut Off at 35 Hz) Time History
 Acceleration data in cm/sec**2
    
[...]
       2.250
       2.248
       1.961
       1.341
       0.439
      -0.552
      -1.331
      -1.620
      -1.343
      -0.711
      -0.115
       0.121
      -0.071
      -0.492
      -0.846
      -0.916
      -0.662
      -0.201
       0.238
       0.400
       0.134
      -0.477
      -1.119
      -1.442
      -1.305
      -0.862
      -0.407
      -0.132
      -0.023
       0.040
       0.116
       0.148
       0.041
      -0.220
      -0.518
      -0.651
      -0.464
       0.031
       0.608
       0.962
       0.899
       0.464
      -0.102
      -0.510
      -0.569
      -0.259
       0.277
       0.790
       1.060
       1.029
       0.830
       0.669
       0.661
       0.783
       0.938
       1.045
       1.063
       0.958
       0.693
       0.256
      -0.295
      -0.822
      -1.170
      -1.247
      -1.081
      -0.806
      -0.587
      -0.542
      -0.687
      -0.919
      -1.044
      -0.879
      -0.402
       0.189
       0.562
       0.463
      -0.093
      -0.791
      -1.212
      -1.108
      -0.573
       0.053
       0.440
       0.481
       0.323
       0.214
       0.305
       0.556
       0.788
       0.846
       0.712
       0.480
       0.234
      -0.022
      -0.308
      -0.565
      -0.641
      -0.414
       0.065
       0.570
       0.838
       0.751
       0.411
       0.064
      -0.073
       0.046
       0.276
       0.411
       0.353
       0.195
       0.124
       0.237
       0.444
       0.546
       0.414
       0.106
      -0.196
      -0.336
      -0.294
      -0.161
      -0.035
       0.052
       0.114
       0.160
       0.181
       0.183
       0.205
       0.258
       0.259
       0.050
      -0.455
      -1.118
      -1.563
      -1.427
      -0.670
       0.305
       0.905
       0.777
       0.053
      -0.773
      -1.216
      -1.105
      -0.620
      -0.115
       0.103
      -0.086
      -0.573
      -1.082
      -1.315
      -1.126
      -0.605
      -0.011
       0.403
       0.535
       0.461
       0.346
       0.318
       0.402
       0.531
       0.605
       0.557
       0.409
       0.269
       0.255
       0.402
       0.627
       0.800
       0.871
       0.909
       1.017
       1.175
       1.194
       0.865
       0.169
      -0.651
      -1.246
      -1.406
      -1.167
      -0.718
      -0.220
       0.254
       0.660
       0.929
       1.019
       0.981
       0.904
       0.776
       0.449
      -0.191
      -1.028
      -1.722
      -1.969
      -1.743
      -1.287
      -0.895
      -0.699
      -0.645
      -0.615
      -0.560
      -0.504
      -0.477
      -0.474
      -0.476
      -0.482
      -0.475
      -0.386
      -0.126
       0.330
       0.874
       1.311
       1.486
       1.374
       1.058
       0.664
       0.312
       0.101
       0.075
       0.187
       0.324
       0.384
       0.359
       0.320
       0.342
       0.430
       0.514
       0.510
       0.368
       0.113
      -0.151
      -0.278
      -0.176
       0.104
       0.370
       0.412
       0.148
      -0.321
      -0.773
      -0.990
      -0.856
      -0.411
       0.152
       0.574
       0.672
       0.425
      -0.033
      -0.502
      -0.817
      -0.898
      -0.761
      -0.502
      -0.242
      -0.058
       0.072
       0.243
       0.518
       0.841
       1.060
       1.051
       0.814
       0.443
       0.030
      -0.394
      -0.813
      -1.169
      -1.350
      -1.264
      -0.906
      -0.375
       0.164
       0.550
       0.674
       0.527
       0.208
      -0.109
      -0.265
      -0.187
       0.062
       0.315
       0.375
       0.124
      -0.401
      -0.985
      -1.322
      -1.186
      -0.592
       0.170
       0.708
       0.787
       0.483
       0.096
      -0.077
       0.065
       0.402
       0.705
       0.785
       0.598
       0.269
       0.027
       0.071
       0.450
       1.025
       1.535
       1.746
       1.573
       1.107
       0.524
      -0.037
      -0.532
      -0.992
      -1.456
      -1.912
      -2.260
      -2.328
      -1.959
      -1.147
      -0.117
       0.758
       1.156
       0.972
       0.341
      -0.451
      -1.083
      -1.303
      -1.014
      -0.335
       0.420
       0.869
       0.765
       0.168
      -0.550
      -0.912
      -0.647
       0.139
       1.050
       1.659
       1.712
       1.199
       0.331
      -0.511
      -0.908
      -0.643
       0.122
       0.888
       1.132
       0.678
      -0.153
      -0.742
      -0.619
       0.199
       1.240
       1.944
       2.043
       1.671
       1.159
       0.748
       0.462
       0.199
      -0.100
      -0.387
      -0.575
      -0.652
      -0.710
      -0.839
      -1.027
      -1.172
      -1.194
      -1.131
      -1.089
      -1.121
      -1.155
      -1.046
      -0.705
      -0.203
       0.261
       0.493
       0.434
       0.181
      -0.103
      -0.279
      -0.290
      -0.178
      -0.054
       0.007
       0.049
       0.213
       0.572
       1.015
       1.305
       1.289
       1.026
       0.723
       0.546
       0.505
       0.489
       0.375
       0.127
      -0.190
      -0.446
      -0.526
      -0.378
      -0.042
       0.336
       0.552
       0.468
       0.157
      -0.128
      -0.172
      -0.017
       0.060
      -0.203
      -0.815
      -1.514
      -1.979
      -2.068
      -1.895
      -1.698
      -1.613
      -1.588
      -1.467
      -1.166
      -0.740
      -0.331
      -0.057
       0.033
      -0.041
      -0.190
      -0.277
      -0.158
       0.244
       0.893
       1.641
       2.287
       2.655
       2.665
       2.341
       1.780
       1.098
       0.404
      -0.225
      -0.730
      -1.062
      -1.166
      -1.011
      -0.618
      -0.076
       0.489
       0.970
       1.327
       1.564
       1.677
       1.625
       1.376
       0.972
       0.523
       0.131
      -0.195
      -0.504
      -0.810
      -1.054
      -1.160
      -1.120
      -0.992
      -0.830
      -0.648
      -0.455
      -0.298
      -0.248
      -0.325
      -0.450
      -0.486
      -0.356
      -0.138
      -0.036
      -0.205
      -0.583
      -0.906
      -0.928
      -0.626
      -0.200
       0.137
       0.345
       0.545
       0.830
       1.113
       1.190
       0.943
       0.483
       0.072
      -0.109
      -0.103
      -0.112
      -0.269
      -0.511
      -0.675
      -0.684
      -0.611
      -0.558
      -0.516
      -0.378
      -0.068
       0.368
       0.797
       1.103
       1.237
       1.199
       0.993
       0.613
       0.074
      -0.553
      -1.132
      -1.500
      -1.564
      -1.367
      -1.070
      -0.831
      -0.686
      -0.538
      -0.270
       0.140
       0.591
       0.945
       1.110
       1.062
       0.813
       0.397
      -0.100
      -0.511
      -0.651
      -0.448
       0.001
       0.500
       0.867
       1.009
       0.913
       0.650
       0.369
       0.245
       0.383
       0.727
       1.060
       1.115
       0.767
       0.173
      -0.298
      -0.349
      -0.011
       0.355
       0.356
      -0.106
      -0.787
      -1.320
      -1.473
      -1.242
      -0.784
      -0.328
      -0.081
      -0.136
      -0.432
      -0.779
      -0.959
      -0.839
      -0.448
       0.041
       0.412
       0.546
       0.481
       0.345
       0.212
       0.050
      -0.193
      -0.485
      -0.711
      -0.794
      -0.755
      -0.665
      -0.532
      -0.274
       0.180
       0.759
       1.255
       1.484
       1.437
       1.252
       1.030
       0.721
       0.224
      -0.419
      -0.968
      -1.152
      -0.900
      -0.403
       0.031
       0.191
       0.081
      -0.122
      -0.212
      -0.076
       0.277
       0.756
       1.215
       1.481
       1.412
       1.000
       0.418
      -0.062
      -0.272
      -0.278
      -0.295
      -0.458
      -0.681
      -0.764
      -0.610
      -0.332
      -0.143
      -0.144
      -0.258
      -0.344
      -0.349
      -0.333
      -0.364
      -0.434
      -0.479
      -0.445
      -0.334
      -0.200
      -0.129
      -0.203
      -0.424
      -0.643
      -0.610
      -0.155
       0.625
       1.347
       1.595
       1.237
       0.558
       0.067
       0.112
       0.622
       1.152
       1.213
       0.630
      -0.308
      -1.040
      -1.132
      -0.594
       0.152
       0.614
       0.602
       0.306
       0.054
       0.009
       0.075
       0.035
      -0.236
      -0.666
      -1.035
      -1.127
      -0.880
      -0.420
       0.018
       0.244
       0.193
      -0.082
      -0.468
      -0.832
      -1.038
      -0.999
      -0.732
      -0.365
      -0.049
       0.147
       0.273
       0.442
       0.719
       1.049
       1.304
       1.395
       1.356
       1.310
       1.325
       1.305
       1.040
       0.394
      -0.512
      -1.315
      -1.638
      -1.352
      -0.661
       0.045
       0.440
       0.405
       0.006
      -0.586
      -1.143
      -1.421
      -1.267
      -0.743
      -0.149
       0.155
       0.000
      -0.468
      -0.877
      -0.902
      -0.511
       0.011
       0.311
       0.261
       0.047
      -0.025
       0.194
       0.577
       0.848
       0.811
       0.494
       0.103
      -0.141
      -0.159
      -0.049
       0.023
      -0.039
      -0.179
      -0.243
      -0.114
       0.167
       0.435
       0.544
       0.475
       0.309
       0.117
      -0.096
      -0.336
      -0.558
      -0.683
      -0.668
      -0.511
      -0.194
       0.328
       1.009
       1.592
       1.711
       1.210
       0.405
      -0.056
       0.293
       1.258
       2.039
       1.834
       0.511
      -1.274
      -2.596
      -2.915
      -2.330
      -1.356
      -0.508
      -0.042
       0.067
       0.003
      -0.036
       0.052
       0.218
       0.290
       0.110
      -0.322
      -0.813
      -1.104
      -1.070
      -0.807
      -0.516
      -0.286
      -0.039
       0.329
       0.765
       1.077
       1.109
       0.895
       0.637
       0.542
       0.672
       0.935
       1.194
       1.374
       1.475
       1.505
       1.446
       1.277
       1.012
       0.687
       0.314
      -0.114
      -0.581
      -1.016
      -1.347
      -1.575
      -1.779
      -2.022
      -2.247
      -2.296
      -2.059
      -1.627
      -1.245
      -1.074
      -0.981
      -0.635
       0.136
       1.082
       1.658
       1.465
       0.599
      -0.409
      -0.999
      -0.960
      -0.500
      -0.008
       0.218
       0.108
      -0.186
      -0.373
      -0.165
       0.515
       1.392
       1.939
       1.723
       0.746
      -0.533
      -1.529
      -1.922
      -1.779
      -1.368
      -0.881
      -0.347
       0.260
       0.889
       1.419
       1.778
       2.003
       2.169
       2.275
       2.220
       1.910
       1.372
       0.756
       0.215
      -0.194
      -0.511
      -0.774
      -0.961
      -1.018
      -0.925
      -0.729
      -0.498
      -0.263
      -0.019
       0.213
       0.345
       0.278
       0.031
      -0.207
      -0.175
       0.259
       0.956
       1.544
       1.646
       1.135
       0.245
      -0.574
      -0.937
      -0.750
      -0.241
       0.210
       0.286
      -0.124
      -0.890
      -1.707
      -2.252
      -2.364
      -2.136
      -1.852
      -1.802
      -2.088
      -2.554
      -2.872
      -2.721
      -1.955
      -0.676
       0.814
       2.155
       3.061
       3.382
       3.089
       2.279
       1.185
       0.133
      -0.585
      -0.839
      -0.714
      -0.412
      -0.088
       0.253
       0.712
       1.347
       2.083
       2.720
       3.040
       2.907
       2.333
       1.491
       0.641
       0.008
      -0.331
      -0.456
      -0.516
      -0.596
      -0.651
      -0.542
      -0.153
       0.493
       1.198
       1.666
       1.664
       1.171
       0.414
      -0.280
      -0.719
      -0.971
      -1.302
      -1.966
      -3.004
      -4.164
      -4.992
      -5.054
      -4.180
      -2.605
      -0.852
       0.556
       1.371
       1.653
       1.604
       1.370
       0.986
       0.468
      -0.072
      -0.437
      -0.499
      -0.307
      -0.045
       0.139
       0.250
       0.413
       0.711
       1.072
       1.267
       1.057
       0.340
      -0.777
      -2.046
      -3.248
      -4.347
      -5.492
      -6.868
      -8.515
     -10.261
     -11.764
     -12.638
     -12.613
     -11.671
     -10.091
      -8.325
      -6.730
      -5.297
      -3.634
      -1.228
       2.162
       6.286
      10.462
      13.856
      15.827
      16.183
      15.242
      13.658
      12.081
      10.855
       9.981
       9.344
       8.962
       8.991
       9.531
      10.450
      11.426
      12.138
      12.397
      12.105
      11.142
       9.377
       6.772
       3.442
      -0.431
      -4.711
      -9.261
     -13.727
     -17.370
     -19.171
     -18.260
     -14.416
      -8.274
      -1.121
       5.584
      10.676
      13.542
      14.110
      12.654
       9.590
       5.388
       0.622
      -3.977
      -7.608
      -9.627
      -9.754
      -8.117
      -5.105
      -1.184
       3.182
       7.460
      10.954
      12.845
      12.416
       9.343
       3.828
      -3.469
     -11.619
     -19.582
     -26.317
     -30.935
     -32.909
     -32.224
     -29.291
     -24.669
     -18.823
     -12.154
      -5.230
       1.121
       6.059
       9.131
      10.445
      10.463
       9.639
       8.222
       6.343
       4.251
       2.435
       1.558
       2.225
       4.717
       8.781
      13.557
      17.767
      20.192
      20.224
      18.157
      15.010
      11.947
       9.666
       8.085
       6.518
       4.200
       0.820
      -3.294
      -7.430
     -10.897
     -13.213
     -14.034
     -13.132
     -10.655
      -7.394
      -4.597
      -3.250
      -3.342
      -3.765
      -3.054
      -0.468
       3.398
       6.952
       8.598
       7.602
       4.298
      -0.282
      -4.900
      -8.446
     -10.177
      -9.947
      -8.321
      -6.337
      -4.920
      -4.308
      -3.929
      -2.820
      -0.265
       3.751
       8.492
      12.746
      15.257
      15.148
      12.239
       7.186
       1.315
      -3.850
      -7.214
      -8.544
      -8.470
      -8.068
      -8.265
      -9.326
     -10.694
     -11.266
     -10.038
      -6.756
      -2.181
       2.285
       5.367
       6.542
       6.115
       4.849
       3.549
       2.883
       3.322
       4.992
       7.466
       9.771
      10.788
       9.861
       7.232
       3.995
       1.610
       1.201
       2.957
       5.942
       8.437
       8.736
       6.052
       1.074
      -4.182
      -7.289
      -6.671
      -2.486
       3.411
       8.430
      10.557
       9.259
       5.500
       0.930
      -3.158
      -6.361
      -8.884
     -10.828
     -11.836
     -11.442
      -9.697
      -7.345
      -5.359
      -4.307
      -4.109
      -4.273
      -4.274
      -3.739
      -2.465
      -0.556
       1.284
       1.744
      -0.407
      -5.203
     -10.882
     -14.571
     -13.961
      -8.755
      -0.813
       7.033
      12.545
      14.928
      14.650
      12.664
       9.746
       6.291
       2.489
      -1.443
      -5.189
      -8.425
     -10.916
     -12.518
     -13.102
     -12.475
     -10.423
      -6.896
      -2.252
       2.660
       6.723
       9.008
       9.240
       7.957
       6.219
       4.992
       4.594
       4.591
       4.272
       3.328
       2.183
       1.662
       2.275
       3.783
       5.380
       6.244
       5.924
       4.375
       1.804
      -1.410
      -4.686
      -7.260
      -8.386
      -7.691
      -5.471
      -2.682
      -0.539
       0.096
      -0.801
      -2.373
      -3.320
      -2.649
      -0.321
       2.631
       4.697
       4.820
       3.039
       0.433
      -1.518
      -1.699
       0.131
       3.287
       6.571
       8.923
       9.935
       9.912
       9.479
       9.003
       8.218
       6.330
       2.660
      -2.578
      -8.025
     -11.828
     -12.827
     -11.292
      -8.601
      -6.194
      -4.766
      -4.285
      -4.473
      -5.088
      -5.779
      -5.925
      -4.887
      -2.543
       0.387
       2.594
       2.915
       1.080
      -2.015
      -4.734
      -5.616
      -4.166
      -0.987
       2.785
       6.180
       8.668
       9.950
       9.736
       7.885
       4.796
       1.537
      -0.583
      -0.782
       0.695
       2.763
       4.220
       4.453
       3.660
       2.515
       1.627
       1.176
       0.912
       0.423
      -0.545
      -1.945
      -3.516
      -4.969
      -6.055
      -6.457
      -5.706
      -3.382
       0.437
       4.908
       8.743
      10.973
      11.512
      10.971
       9.903
       8.232
       5.418
       1.162
      -4.067
      -9.190
     -13.192
     -15.648
     -16.693
     -16.634
     -15.680
     -13.914
     -11.314
      -7.712
      -2.925
       2.789
       8.309
      11.900
      12.251
       9.568
       5.677
       2.863
       2.276
       3.173
       3.615
       2.057
      -1.425
      -5.196
      -7.253
      -6.514
      -3.321
       0.944
       4.588
       6.231
       5.235
       1.939
      -2.447
      -6.432
      -9.009
     -10.014
      -9.802
      -8.671
      -6.635
      -3.666
       0.023
       4.009
       7.912
      11.553
      14.850
      17.627
      19.566
      20.346
      19.834
      18.154
      15.531
      12.025
       7.448
       1.627
      -5.127
     -11.775
     -16.869
     -19.318
     -19.075
     -17.210
     -15.311
     -14.626
     -15.455
     -17.052
     -17.964
     -16.667
     -12.311
      -5.283
       2.730
       9.380
      12.769
      12.452
       9.671
       6.620
       5.178
       5.974
       8.337
      10.955
      12.629
      12.636
      10.724
       7.041
       2.205
      -2.634
      -6.055
      -7.011
      -5.484
      -2.609
      -0.065
       0.912
       0.203
      -1.270
      -2.242
      -1.873
      -0.086
       2.597
       5.386
       7.443
       7.997
       6.572
       3.325
      -0.816
      -4.506
      -6.663
      -6.990
      -5.960
      -4.339
      -2.721
      -1.433
      -0.755
      -1.028
      -2.401
      -4.470
      -6.261
      -6.790
      -5.783
      -3.953
      -2.559
      -2.545
      -3.906
      -5.684
      -6.515
      -5.361
      -2.030
       2.691
       7.301
      10.134
      10.073
       7.169
       2.759
      -1.152
      -3.004
      -2.535
      -0.761
       0.897
       1.630
       1.617
       1.564
       1.960
       2.726
       3.436
       3.719
       3.422
       2.509
       0.966
      -1.090
      -3.260
      -4.922
      -5.571
      -5.128
      -3.897
      -2.231
      -0.285
       1.870
       3.933
       5.295
       5.417
       4.340
       2.822
       1.873
       2.042
       3.027
       3.919
       3.886
       2.738
       0.975
      -0.693
      -1.914
      -2.866
      -3.975
