Origin Time       31/12/2009 09:57:00
Lat.              27.3°N	
Long.             91.4°E	
Depth (Km)          7.0
Magnitude         5.5
 Region           BHUTAN                                                           
 Above details taken from IMD 
   
Station Code      KOK
Station Lat.       26.400
Station Long.      90.261
Station Height(m)   53.0
Site Class        C   Vs30 between 200 m/sec to 375 m/sec *  
Record Time       31.12.2009 09:58:01.134
Sampling Rate     200. Hz
 Record Duration   78.130 Sec.
 Direction         Vert. (Up positive)
Max. Acceleration     -7.110 cm/sec**2
     
  * For reference see Site Classification link of website 
     
 Base Line Corrected and Low Pass Filtered (Cut Off at 35 Hz) Time History
 Acceleration data in cm/sec**2
    
[...]
      -0.178
      -0.215
      -0.197
      -0.141
      -0.067
       0.016
       0.103
       0.187
       0.249
       0.257
       0.192
       0.065
      -0.083
      -0.207
      -0.279
      -0.303
      -0.300
      -0.288
      -0.272
      -0.243
      -0.198
      -0.144
      -0.091
      -0.048
      -0.008
       0.042
       0.110
       0.196
       0.291
       0.382
       0.460
       0.514
       0.541
       0.537
       0.503
       0.443
       0.369
       0.295
       0.233
       0.189
       0.173
       0.193
       0.251
       0.326
       0.371
       0.329
       0.169
      -0.094
      -0.398
      -0.661
      -0.817
      -0.831
      -0.712
      -0.506
      -0.278
      -0.083
       0.049
       0.106
       0.088
      -0.002
      -0.151
      -0.331
      -0.507
      -0.649
      -0.742
      -0.776
      -0.730
      -0.580
      -0.326
      -0.009
       0.295
       0.517
       0.626
       0.635
       0.573
       0.458
       0.298
       0.108
      -0.082
      -0.224
      -0.283
      -0.252
      -0.158
      -0.041
       0.067
       0.156
       0.219
       0.245
       0.220
       0.142
       0.030
      -0.079
      -0.153
      -0.179
      -0.158
      -0.090
       0.030
       0.208
       0.439
       0.697
       0.930
       1.078
       1.100
       0.981
       0.745
       0.443
       0.140
      -0.106
      -0.266
      -0.340
      -0.353
      -0.342
      -0.336
      -0.354
      -0.402
      -0.481
      -0.586
      -0.703
      -0.800
      -0.842
      -0.805
      -0.684
      -0.498
      -0.273
      -0.032
       0.205
       0.411
       0.554
       0.605
       0.552
       0.405
       0.187
      -0.065
      -0.310
      -0.502
      -0.603
      -0.591
      -0.465
      -0.252
       0.001
       0.236
       0.396
       0.449
       0.392
       0.244
       0.039
      -0.179
      -0.365
      -0.474
      -0.477
      -0.371
      -0.191
       0.005
       0.159
       0.238
       0.244
       0.197
       0.129
       0.073
       0.048
       0.057
       0.093
       0.145
       0.201
       0.257
       0.312
       0.367
       0.419
       0.464
       0.492
       0.497
       0.470
       0.401
       0.283
       0.121
      -0.062
      -0.228
      -0.342
      -0.383
      -0.346
      -0.244
      -0.099
       0.057
       0.195
       0.295
       0.357
       0.392
       0.413
       0.419
       0.395
       0.328
       0.230
       0.135
       0.083
       0.093
       0.156
       0.237
       0.296
       0.306
       0.254
       0.136
      -0.041
      -0.253
      -0.456
      -0.588
      -0.602
      -0.496
      -0.328
      -0.185
      -0.133
      -0.180
      -0.281
      -0.371
      -0.405
      -0.374
      -0.305
      -0.239
      -0.212
      -0.236
      -0.301
      -0.374
      -0.428
      -0.450
      -0.449
      -0.447
      -0.461
      -0.494
      -0.537
      -0.576
      -0.599
      -0.593
      -0.542
      -0.432
      -0.264
      -0.058
       0.145
       0.298
       0.362
       0.327
       0.215
       0.070
      -0.074
      -0.215
      -0.369
      -0.528
      -0.643
      -0.652
      -0.532
      -0.339
      -0.168
      -0.085
      -0.084
      -0.094
      -0.039
       0.105
       0.302
       0.491
       0.633
       0.725
       0.789
       0.845
       0.905
       0.978
       1.065
       1.152
       1.213
       1.225
       1.186
       1.100
       0.968
       0.787
       0.567
       0.337
       0.133
      -0.027
      -0.151
      -0.261
      -0.362
      -0.436
      -0.470
      -0.484
      -0.520
      -0.598
      -0.686
      -0.730
      -0.698
      -0.607
      -0.494
      -0.375
      -0.238
      -0.070
       0.116
       0.285
       0.407
       0.474
       0.502
       0.518
       0.550
       0.601
       0.644
       0.633
       0.531
       0.328
       0.051
      -0.253
      -0.539
      -0.778
      -0.965
      -1.105
      -1.197
      -1.233
      -1.211
      -1.137
      -1.012
      -0.821
      -0.544
      -0.185
       0.212
       0.582
       0.873
       1.059
       1.137
       1.115
       1.014
       0.871
       0.725
       0.598
       0.489
       0.374
       0.236
       0.081
      -0.058
      -0.141
      -0.147
      -0.084
       0.014
       0.109
       0.178
       0.205
       0.180
       0.099
      -0.031
      -0.192
      -0.355
      -0.492
      -0.574
      -0.571
      -0.456
      -0.221
       0.108
       0.472
       0.797
       1.029
       1.147
       1.157
       1.071
       0.897
       0.647
       0.344
       0.027
      -0.269
      -0.516
      -0.704
      -0.837
      -0.923
      -0.972
      -0.983
      -0.953
      -0.882
      -0.777
      -0.654
      -0.527
      -0.411
      -0.314
      -0.234
      -0.150
      -0.037
       0.124
       0.323
       0.518
       0.651
       0.674
       0.582
       0.410
       0.213
       0.038
      -0.088
      -0.160
      -0.191
      -0.205
      -0.223
      -0.257
      -0.300
      -0.335
      -0.356
      -0.378
      -0.431
      -0.533
      -0.667
      -0.785
      -0.836
      -0.802
      -0.694
      -0.535
      -0.336
      -0.102
       0.145
       0.360
       0.495
       0.530
       0.489
       0.425
       0.388
       0.406
       0.476
       0.580
       0.693
       0.792
       0.857
       0.875
       0.839
       0.738
       0.557
       0.288
      -0.046
      -0.389
      -0.672
      -0.845
      -0.894
      -0.821
      -0.625
      -0.312
       0.080
       0.470
       0.764
       0.895
       0.856
       0.689
       0.453
       0.190
      -0.076
      -0.327
      -0.536
      -0.667
      -0.693
      -0.608
      -0.438
      -0.222
       0.004
       0.217
       0.402
       0.534
       0.581
       0.519
       0.350
       0.105
      -0.165
      -0.399
      -0.543
      -0.574
      -0.512
      -0.414
      -0.340
      -0.327
      -0.369
      -0.430
      -0.468
      -0.453
      -0.370
      -0.221
      -0.028
       0.175
       0.346
       0.453
       0.480
       0.434
       0.339
       0.225
       0.110
      -0.003
      -0.113
      -0.212
      -0.287
      -0.329
      -0.325
      -0.252
      -0.080
       0.185
       0.464
       0.625
       0.565
       0.314
       0.034
      -0.087
       0.033
       0.317
       0.593
       0.723
       0.699
       0.618
       0.572
       0.556
       0.493
       0.326
       0.076
      -0.170
      -0.319
      -0.327
      -0.215
      -0.052
       0.069
       0.056
      -0.120
      -0.393
      -0.657
      -0.836
      -0.932
      -1.000
      -1.090
      -1.180
      -1.179
      -1.009
      -0.675
      -0.272
       0.091
       0.348
       0.472
       0.458
       0.322
       0.111
      -0.108
      -0.271
      -0.336
      -0.276
      -0.082
       0.237
       0.640
       1.059
       1.409
       1.611
       1.612
       1.404
       1.036
       0.595
       0.168
      -0.185
      -0.434
      -0.558
      -0.552
      -0.426
      -0.211
       0.045
       0.295
       0.501
       0.624
       0.630
       0.506
       0.274
      -0.009
      -0.265
      -0.421
      -0.430
      -0.292
      -0.044
       0.244
       0.500
       0.672
       0.735
       0.691
       0.563
       0.378
       0.165
      -0.046
      -0.231
      -0.377
      -0.483
      -0.546
      -0.565
      -0.545
      -0.509
      -0.492
      -0.521
      -0.595
      -0.685
      -0.753
      -0.770
      -0.721
      -0.605
      -0.430
      -0.218
      -0.001
       0.183
       0.298
       0.329
       0.286
       0.206
       0.131
       0.070
       0.003
      -0.097
      -0.229
      -0.353
      -0.420
      -0.410
      -0.354
      -0.308
      -0.317
      -0.391
      -0.503
      -0.620
      -0.714
      -0.776
      -0.808
      -0.818
      -0.805
      -0.751
      -0.627
      -0.413
      -0.114
       0.230
       0.560
       0.823
       0.999
       1.107
       1.190
       1.274
       1.343
       1.361
       1.307
       1.211
       1.125
       1.080
       1.054
       1.000
       0.883
       0.706
       0.494
       0.272
       0.037
      -0.224
      -0.511
      -0.803
      -1.059
      -1.240
      -1.319
      -1.299
      -1.212
      -1.100
      -0.990
      -0.869
      -0.694
      -0.430
      -0.086
       0.275
       0.569
       0.734
       0.765
       0.697
       0.574
       0.417
       0.224
      -0.009
      -0.264
      -0.498
      -0.660
      -0.709
      -0.629
      -0.434
      -0.171
       0.081
       0.238
       0.253
       0.140
      -0.031
      -0.188
      -0.295
      -0.357
      -0.384
      -0.364
      -0.259
      -0.046
       0.265
       0.627
       0.977
       1.257
       1.426
       1.473
       1.422
       1.317
       1.193
       1.061
       0.902
       0.697
       0.447
       0.184
      -0.046
      -0.201
      -0.261
      -0.231
      -0.146
      -0.054
       0.006
       0.021
       0.001
      -0.034
      -0.083
      -0.151
      -0.236
      -0.313
      -0.341
      -0.284
      -0.147
       0.027
       0.183
       0.286
       0.345
       0.396
       0.465
       0.541
       0.573
       0.512
       0.340
       0.078
      -0.236
      -0.574
      -0.922
      -1.268
      -1.587
      -1.850
      -2.023
      -2.083
      -2.013
      -1.805
      -1.457
      -0.983
      -0.426
       0.144
       0.644
       1.007
       1.198
       1.221
       1.119
       0.966
       0.851
       0.841
       0.953
       1.153
       1.379
       1.586
       1.752
       1.864
       1.902
       1.841
       1.668
       1.397
       1.071
       0.738
       0.434
       0.169
      -0.065
      -0.276
      -0.462
      -0.607
      -0.692
      -0.705
      -0.652
      -0.562
      -0.487
      -0.480
      -0.580
      -0.784
      -1.058
      -1.346
      -1.594
      -1.769
      -1.878
      -1.957
      -2.040
      -2.140
      -2.227
      -2.238
      -2.102
      -1.770
      -1.239
      -0.565
       0.146
       0.785
       1.277
       1.603
       1.778
       1.838
       1.828
       1.793
       1.767
       1.758
       1.751
       1.717
       1.636
       1.510
       1.340
       1.122
       0.842
       0.499
       0.112
      -0.283
      -0.641
      -0.926
      -1.119
      -1.217
      -1.232
      -1.180
      -1.079
      -0.949
      -0.825
      -0.744
      -0.742
      -0.830
      -0.986
      -1.166
      -1.329
      -1.451
      -1.527
      -1.562
      -1.564
      -1.542
      -1.507
      -1.477
      -1.477
      -1.507
      -1.531
      -1.473
      -1.255
      -0.840
      -0.251
       0.448
       1.189
       1.918
       2.596
       3.180
       3.622
       3.889
       3.977
       3.912
       3.729
       3.460
       3.123
       2.725
       2.266
       1.746
       1.164
       0.512
      -0.218
      -1.014
      -1.835
      -2.627
      -3.338
      -3.924
      -4.349
      -4.598
      -4.680
      -4.634
      -4.515
      -4.370
      -4.225
      -4.081
      -3.934
      -3.780
      -3.607
      -3.390
      -3.087
      -2.660
      -2.090
      -1.383
      -0.577
       0.263
       1.060
       1.747
       2.274
       2.617
       2.774
       2.756
       2.601
       2.376
       2.164
       2.041
       2.048
       2.183
       2.424
       2.731
       3.053
       3.320
       3.459
       3.408
       3.139
       2.674
       2.088
       1.481
       0.937
       0.500
       0.181
      -0.022
      -0.101
      -0.043
       0.139
       0.376
       0.549
       0.542
       0.306
      -0.120
      -0.643
      -1.167
      -1.623
      -1.950
      -2.079
      -1.938
      -1.485
      -0.755
       0.154
       1.119
       2.042
       2.862
       3.537
       4.033
       4.324
       4.410
       4.332
       4.174
       4.018
       3.895
       3.765
       3.541
       3.140
       2.530
       1.731
       0.778
      -0.311
      -1.506
      -2.734
      -3.871
      -4.800
      -5.472
      -5.897
      -6.093
      -6.053
      -5.748
      -5.177
      -4.402
      -3.547
      -2.756
      -2.132
      -1.699
      -1.397
      -1.123
      -0.777
      -0.314
       0.253
       0.870
       1.480
       2.048
       2.553
       2.967
       3.243
       3.333
       3.224
       2.958
       2.619
       2.292
       2.003
       1.718
       1.387
       0.996
       0.579
       0.189
      -0.148
      -0.449
      -0.747
      -1.065
      -1.398
      -1.719
      -1.977
      -2.105
      -2.043
      -1.765
      -1.297
      -0.727
      -0.169
       0.288
       0.597
       0.741
       0.699
       0.451
       0.031
      -0.445
      -0.833
      -1.080
      -1.277
      -1.559
      -1.975
      -2.446
      -2.834
      -3.036
      -3.024
      -2.844
      -2.574
      -2.246
      -1.823
      -1.251
      -0.526
       0.284
       1.107
       1.921
       2.752
       3.615
       4.472
       5.223
       5.739
       5.931
       5.814
       5.497
       5.091
       4.633
       4.092
       3.441
       2.693
       1.880
       1.009
       0.044
      -1.066
      -2.326
      -3.637
      -4.836
      -5.788
      -6.460
      -6.890
      -7.110
      -7.108
      -6.865
      -6.392
      -5.715
      -4.818
      -3.658
      -2.256
      -0.765
       0.577
       1.610
       2.350
       2.910
       3.329
       3.487
       3.218
       2.508
       1.546
       0.577
      -0.270
      -0.999
      -1.644
      -2.185
      -2.564
      -2.738
      -2.717
      -2.544
      -2.256
      -1.880
      -1.462
      -1.077
      -0.773
      -0.526
      -0.279
      -0.021
       0.177
       0.257
       0.295
       0.513
       1.119
       2.119
       3.298
       4.362
       5.118
       5.534
       5.676
       5.601
       5.309
       4.755
       3.930
       2.902
       1.806
       0.783
      -0.059
      -0.652
      -0.980
      -1.109
      -1.171
      -1.280
      -1.457
      -1.632
      -1.708
      -1.619
      -1.357
      -0.946
      -0.414
       0.234
       0.990
       1.823
       2.664
       3.432
       4.070
       4.543
       4.815
       4.828
       4.526
       3.889
       2.938
       1.733
       0.362
      -1.066
      -2.429
      -3.600
      -4.483
      -5.030
      -5.243
      -5.152
      -4.802
      -4.261
      -3.616
      -2.946
      -2.289
      -1.643
      -1.008
      -0.408
       0.127
       0.590
       1.005
       1.399
       1.786
       2.173
       2.553
       2.898
       3.145
       3.205
       3.005
       2.516
       1.769
       0.825
      -0.245
      -1.383
      -2.523
      -3.575
      -4.446
      -5.074
      -5.447
      -5.569
      -5.431
      -5.042
      -4.479
      -3.890
      -3.390
      -2.963
      -2.478
      -1.816
      -0.969
      -0.027
       0.911
       1.796
       2.629
       3.419
       4.126
       4.645
       4.856
       4.714
       4.276
       3.661
       2.971
       2.269
       1.599
       1.007
       0.529
       0.175
      -0.081
      -0.275
      -0.431
      -0.549
      -0.622
      -0.644
      -0.616
      -0.524
      -0.335
      -0.026
       0.378
       0.811
       1.201
       1.506
       1.725
       1.869
       1.929
       1.871
       1.662
       1.305
       0.832
       0.288
      -0.297
      -0.909
      -1.520
      -2.088
      -2.570
      -2.949
      -3.234
      -3.444
      -3.596
      -3.688
      -3.707
      -3.628
      -3.423
      -3.067
      -2.549
      -1.886
      -1.135
      -0.388
       0.257
       0.737
       1.049
       1.245
       1.408
       1.629
       1.985
       2.502
       3.130
       3.753
       4.237
       4.493
       4.503
       4.285
       3.849
       3.178
       2.276
       1.219
       0.160
      -0.731
      -1.349
      -1.689
      -1.826
      -1.847
      -1.802
      -1.689
      -1.478
      -1.150
      -0.710
      -0.180
       0.401
       0.967
       1.434
       1.727
       1.813
       1.715
       1.486
       1.173
       0.808
       0.424
       0.059
      -0.250
      -0.488
      -0.673
      -0.830
      -0.958
      -1.022
      -0.977
      -0.819
      -0.602
      -0.403
      -0.274
      -0.205
      -0.146
      -0.050
       0.099
       0.287
       0.485
       0.645
       0.706
       0.607
       0.321
      -0.113
      -0.602
      -1.023
      -1.273
      -1.301
      -1.107
      -0.725
      -0.198
       0.415
       1.023
       1.506
       1.738
       1.640
       1.204
       0.496
      -0.385
      -1.352
      -2.340
      -3.288
      -4.110
      -4.689
      -4.918
      -4.737
      -4.166
      -3.287
      -2.204
      -1.011
       0.189
       1.278
       2.140
       2.726
       3.091
       3.362
       3.663
       4.034
       4.425
       4.741
       4.902
       4.878
       4.680
       4.316
       3.774
       3.045
       2.154
       1.171
       0.184
      -0.728
      -1.511
      -2.140
      -2.615
      -2.959
      -3.216
      -3.418
      -3.562
      -3.628
      -3.611
      -3.548
      -3.508
      -3.543
      -3.635
      -3.692
      -3.600
      -3.293
      -2.786
      -2.164
      -1.533
      -0.968
      -0.499
      -0.119
       0.196
       0.477
       0.766
       1.111
       1.538
       2.008
       2.402
       2.559
       2.360
       1.795
       0.971
       0.056
      -0.793
      -1.487
      -1.987
      -2.265
      -2.275
      -2.004
      -1.511
      -0.936
      -0.445
      -0.171
      -0.150
      -0.316
      -0.542
      -0.717
      -0.795
      -0.783
      -0.703
      -0.553
      -0.293
       0.128
       0.716
       1.395
       2.023
       2.460
       2.618
       2.490
       2.121
       1.584
       0.946
       0.280
      -0.325
      -0.770
      -0.975
      -0.910
      -0.601
      -0.112
       0.466
       1.025
       1.454
       1.667
       1.625
       1.353
       0.916
       0.402
      -0.116
      -0.591
      -1.003
      -1.341
      -1.584
      -1.712
      -1.719
      -1.633
      -1.511
      -1.411
      -1.376
      -1.412
      -1.501
      -1.612
      -1.719
      -1.791
      -1.789
      -1.671
      -1.405
      -0.976
      -0.382
       0.363
       1.225
       2.149
       3.072
       3.930
       4.676
       5.287
       5.765
       6.119
       6.349
       6.450
       6.426
       6.292
       6.058
       5.711
       5.227
       4.580
       3.766
       2.804
       1.731
       0.595
      -0.548
      -1.636
      -2.619
      -3.463
      -4.143
      -4.628
      -4.882
      -4.891
      -4.696
      -4.388
      -4.064
      -3.778
      -3.528
      -3.273
      -2.970
      -2.591
      -2.123
      -1.573
      -0.965
      -0.324
       0.325
       0.957
       1.541
       2.045
       2.443
       2.716
       2.845
       2.805
       2.569
       2.128
       1.529
       0.872
