Origin Time       11/5/2012 18:41:28	 UTC
Lat.              26.6 N	
Long.             93.0 E	
Depth (Km)         20.0
Magnitude         5.4
 Region           Assam                                                            
 Above details taken from IMD 
    
Station Code      KOK
Station Lat.       26.400  N
Station Long.      90.261  E
Station Height(m)   54.0
Site Class        C   Vs30 between 200 m/sec to 375 m/sec *  
Record Time       11.05.2012 12:42:11.164 UTC
Sampling Rate     200. Hz
 Record Duration  110.995 Sec.
 Direction         N-S (N positive)
Max. Acceleration      7.702 cm/sec**2
     
  * For reference see Site Classification link of website 
     
 Base Line Corrected and Low Pass Filtered (Cut Off at 35 Hz) Time History
 Acceleration data in cm/sec**2
    
[...]
      -0.674
      -0.720
      -0.748
      -0.738
      -0.677
      -0.585
      -0.513
      -0.510
      -0.576
      -0.651
      -0.647
      -0.515
      -0.285
      -0.049
       0.099
       0.121
       0.043
      -0.072
      -0.162
      -0.191
      -0.152
      -0.063
       0.047
       0.141
       0.202
       0.234
       0.273
       0.357
       0.495
       0.649
       0.744
       0.717
       0.561
       0.338
       0.143
       0.041
       0.028
       0.048
       0.055
       0.041
       0.032
       0.045
       0.061
       0.040
      -0.042
      -0.178
      -0.341
      -0.514
      -0.701
      -0.907
      -1.114
      -1.288
      -1.398
      -1.442
      -1.439
      -1.396
      -1.295
      -1.103
      -0.810
      -0.451
      -0.099
       0.175
       0.333
       0.395
       0.416
       0.443
       0.480
       0.498
       0.468
       0.405
       0.368
       0.423
       0.598
       0.861
       1.142
       1.375
       1.534
       1.630
       1.684
       1.697
       1.658
       1.564
       1.437
       1.312
       1.206
       1.108
       0.986
       0.818
       0.607
       0.387
       0.201
       0.078
       0.014
      -0.024
      -0.080
      -0.175
      -0.305
      -0.452
      -0.603
      -0.764
      -0.940
      -1.123
      -1.277
      -1.359
      -1.352
      -1.286
      -1.222
      -1.202
      -1.218
      -1.223
      -1.178
      -1.085
      -0.972
      -0.859
      -0.731
      -0.565
      -0.359
      -0.143
       0.041
       0.175
       0.263
       0.322
       0.363
       0.381
       0.367
       0.324
       0.278
       0.271
       0.336
       0.470
       0.632
       0.774
       0.872
       0.942
       1.016
       1.104
       1.171
       1.154
       1.008
       0.742
       0.429
       0.172
       0.047
       0.064
       0.164
       0.262
       0.297
       0.266
       0.212
       0.179
       0.180
       0.185
       0.140
       0.009
      -0.202
      -0.437
      -0.623
      -0.717
      -0.730
      -0.709
      -0.695
      -0.689
      -0.657
      -0.572
      -0.450
      -0.337
      -0.279
      -0.284
      -0.317
      -0.331
      -0.300
      -0.242
      -0.202
      -0.214
      -0.270
      -0.326
      -0.328
      -0.253
      -0.125
       0.010
       0.117
       0.192
       0.260
       0.342
       0.436
       0.513
       0.543
       0.519
       0.457
       0.388
       0.338
       0.316
       0.312
       0.311
       0.316
       0.349
       0.428
       0.546
       0.654
       0.690
       0.631
       0.519
       0.424
       0.390
       0.392
       0.358
       0.236
       0.041
      -0.160
      -0.309
      -0.397
      -0.453
      -0.494
      -0.495
      -0.418
      -0.256
      -0.060
       0.089
       0.129
       0.054
      -0.095
      -0.262
      -0.415
      -0.544
      -0.646
      -0.702
      -0.685
      -0.589
      -0.441
      -0.284
      -0.155
      -0.062
       0.005
       0.053
       0.079
       0.076
       0.055
       0.044
       0.064
       0.114
       0.173
       0.213
       0.218
       0.176
       0.083
      -0.046
      -0.169
      -0.222
      -0.165
      -0.013
       0.166
       0.286
       0.296
       0.206
       0.082
       0.014
       0.067
       0.232
       0.428
       0.542
       0.506
       0.339
       0.135
      -0.004
      -0.033
       0.015
       0.053
       0.013
      -0.117
      -0.281
      -0.401
      -0.419
      -0.330
      -0.172
       0.007
       0.183
       0.354
       0.529
       0.702
       0.843
       0.912
       0.872
       0.716
       0.478
       0.230
       0.046
      -0.034
      -0.024
       0.026
       0.073
       0.104
       0.131
       0.168
       0.215
       0.253
       0.265
       0.244
       0.199
       0.157
       0.135
       0.120
       0.066
      -0.071
      -0.283
      -0.496
      -0.608
      -0.568
      -0.408
      -0.229
      -0.138
      -0.194
      -0.387
      -0.652
      -0.889
      -1.017
      -1.003
      -0.878
      -0.714
      -0.578
      -0.491
      -0.428
      -0.350
      -0.245
      -0.136
      -0.061
      -0.050
      -0.107
      -0.218
      -0.355
      -0.487
      -0.581
      -0.615
      -0.584
      -0.501
      -0.380
      -0.237
      -0.090
       0.033
       0.115
       0.169
       0.232
       0.334
       0.463
       0.574
       0.631
       0.639
       0.649
       0.708
       0.817
       0.916
       0.932
       0.837
       0.676
       0.541
       0.507
       0.587
       0.725
       0.836
       0.857
       0.771
       0.613
       0.436
       0.302
       0.257
       0.317
       0.442
       0.553
       0.568
       0.460
       0.276
       0.099
      -0.011
      -0.047
      -0.039
      -0.020
      -0.002
       0.013
       0.009
      -0.031
      -0.102
      -0.164
      -0.160
      -0.061
       0.101
       0.249
       0.306
       0.246
       0.109
      -0.031
      -0.116
      -0.141
      -0.152
      -0.206
      -0.317
      -0.440
      -0.498
      -0.435
      -0.248
       0.009
       0.255
       0.422
       0.479
       0.436
       0.330
       0.196
       0.061
      -0.057
      -0.146
      -0.200
      -0.226
      -0.240
      -0.255
      -0.274
      -0.288
      -0.285
      -0.259
      -0.215
      -0.161
      -0.106
      -0.056
      -0.018
       0.003
       0.006
       0.004
       0.007
       0.020
       0.032
       0.031
       0.010
      -0.030
      -0.080
      -0.127
      -0.158
      -0.166
      -0.154
      -0.137
      -0.135
      -0.167
      -0.241
      -0.342
      -0.443
      -0.522
      -0.581
      -0.647
      -0.739
      -0.840
      -0.899
      -0.868
      -0.732
      -0.524
      -0.301
      -0.107
       0.044
       0.161
       0.256
       0.328
       0.370
       0.388
       0.407
       0.455
       0.530
       0.595
       0.602
       0.535
       0.434
       0.363
       0.363
       0.410
       0.442
       0.405
       0.304
       0.206
       0.187
       0.277
       0.438
       0.597
       0.712
       0.795
       0.879
       0.965
       1.006
       0.953
       0.812
       0.647
       0.531
       0.485
       0.470
       0.429
       0.338
       0.225
       0.145
       0.136
       0.185
       0.239
       0.244
       0.176
       0.052
      -0.081
      -0.177
      -0.211
      -0.189
      -0.146
      -0.127
      -0.163
      -0.246
      -0.345
      -0.417
      -0.437
      -0.399
      -0.318
      -0.219
      -0.134
      -0.086
      -0.078
      -0.099
      -0.135
      -0.181
      -0.245
      -0.328
      -0.417
      -0.483
      -0.496
      -0.443
      -0.329
      -0.181
      -0.036
       0.072
       0.134
       0.171
       0.217
       0.292
       0.386
       0.462
       0.474
       0.393
       0.228
       0.035
      -0.104
      -0.141
      -0.099
      -0.070
      -0.144
      -0.344
      -0.608
      -0.848
      -1.005
      -1.070
      -1.067
      -1.023
      -0.954
      -0.872
      -0.783
      -0.699
      -0.635
      -0.609
      -0.638
      -0.715
      -0.811
      -0.881
      -0.895
      -0.845
      -0.743
      -0.604
      -0.434
      -0.233
      -0.008
       0.220
       0.419
       0.571
       0.694
       0.824
       0.976
       1.111
       1.159
       1.079
       0.909
       0.741
       0.648
       0.631
       0.629
       0.580
       0.487
       0.416
       0.448
       0.611
       0.848
       1.053
       1.142
       1.095
       0.955
       0.780
       0.596
       0.397
       0.168
      -0.063
      -0.235
      -0.287
      -0.218
      -0.093
       0.003
       0.029
       0.013
       0.004
       0.009
      -0.016
      -0.125
      -0.322
      -0.543
      -0.702
      -0.740
      -0.658
      -0.500
      -0.324
      -0.174
      -0.063
       0.017
       0.095
       0.197
       0.328
       0.456
       0.526
       0.500
       0.394
       0.275
       0.222
       0.273
       0.403
       0.551
       0.669
       0.747
       0.796
       0.818
       0.800
       0.725
       0.604
       0.475
       0.377
       0.315
       0.244
       0.102
      -0.131
      -0.406
      -0.630
      -0.738
      -0.743
      -0.714
      -0.719
      -0.765
      -0.811
      -0.822
      -0.806
      -0.810
      -0.859
      -0.920
      -0.921
      -0.811
      -0.606
      -0.381
      -0.202
      -0.083
       0.013
       0.121
       0.229
       0.291
       0.266
       0.164
       0.045
      -0.019
       0.011
       0.118
       0.256
       0.379
       0.481
       0.584
       0.713
       0.853
       0.953
       0.956
       0.842
       0.646
       0.429
       0.245
       0.116
       0.037
      -0.002
      -0.009
       0.012
       0.046
       0.068
       0.056
       0.002
      -0.087
      -0.195
      -0.307
      -0.406
      -0.478
      -0.522
      -0.560
      -0.626
      -0.736
      -0.873
      -0.989
      -1.035
      -0.990
      -0.864
      -0.681
      -0.459
      -0.216
       0.014
       0.189
       0.277
       0.280
       0.234
       0.187
       0.167
       0.176
       0.204
       0.249
       0.330
       0.467
       0.669
       0.913
       1.152
       1.337
       1.436
       1.452
       1.426
       1.406
       1.409
       1.405
       1.332
       1.147
       0.864
       0.542
       0.256
       0.056
      -0.041
      -0.046
       0.017
       0.112
       0.197
       0.240
       0.230
       0.188
       0.149
       0.141
       0.161
       0.182
       0.165
       0.086
      -0.052
      -0.219
      -0.370
      -0.463
      -0.475
      -0.412
      -0.307
      -0.202
      -0.115
      -0.027
       0.094
       0.263
       0.455
       0.624
       0.733
       0.778
       0.782
       0.787
       0.833
       0.939
       1.085
       1.219
       1.284
       1.254
       1.151
       1.032
       0.956
       0.960
       1.051
       1.202
       1.353
       1.428
       1.368
       1.177
       0.924
       0.706
       0.587
       0.566
       0.593
       0.609
       0.587
       0.529
       0.448
       0.349
       0.246
       0.169
       0.149
       0.190
       0.253
       0.280
       0.231
       0.104
      -0.075
      -0.267
      -0.429
      -0.536
      -0.603
      -0.692
      -0.875
      -1.166
      -1.493
      -1.739
      -1.828
      -1.794
      -1.760
      -1.848
      -2.104
      -2.475
      -2.857
      -3.165
      -3.373
      -3.517
      -3.655
      -3.819
      -3.987
      -4.092
      -4.059
      -3.855
      -3.514
      -3.134
      -2.820
      -2.635
      -2.567
      -2.548
      -2.501
      -2.393
      -2.243
      -2.086
      -1.936
      -1.781
      -1.615
      -1.464
      -1.357
      -1.292
      -1.217
      -1.064
      -0.807
      -0.478
      -0.142
       0.156
       0.414
       0.662
       0.933
       1.244
       1.581
       1.908
       2.180
       2.362
       2.449
       2.468
       2.471
       2.504
       2.585
       2.703
       2.828
       2.930
       2.990
       2.992
       2.915
       2.742
       2.471
       2.124
       1.743
       1.366
       1.020
       0.706
       0.405
       0.099
      -0.225
      -0.555
      -0.862
      -1.109
      -1.272
      -1.351
      -1.365
      -1.343
      -1.302
      -1.241
      -1.142
      -0.985
      -0.765
      -0.501
      -0.221
       0.055
       0.330
       0.628
       0.979
       1.402
       1.878
       2.350
       2.729
       2.953
       3.034
       3.061
       3.154
       3.375
       3.693
       4.007
       4.230
       4.338
       4.369
       4.375
       4.373
       4.349
       4.293
       4.220
       4.154
       4.082
       3.936
       3.617
       3.051
       2.244
       1.271
       0.238
      -0.767
      -1.694
      -2.519
      -3.223
      -3.783
      -4.192
      -4.470
      -4.677
      -4.881
      -5.123
      -5.404
      -5.695
      -5.960
      -6.169
      -6.307
      -6.377
      -6.411
      -6.444
      -6.482
      -6.476
      -6.347
      -6.046
      -5.592
      -5.061
      -4.524
      -4.008
      -3.493
      -2.949
      -2.367
      -1.766
      -1.184
      -0.662
      -0.219
       0.163
       0.537
       0.960
       1.459
       2.013
       2.583
       3.147
       3.710
       4.272
       4.794
       5.212
       5.478
       5.596
       5.616
       5.577
       5.473
       5.264
       4.935
       4.529
       4.136
       3.831
       3.622
       3.466
       3.318
       3.179
       3.081
       3.028
       2.965
       2.785
       2.397
       1.782
       1.010
       0.201
      -0.543
      -1.190
      -1.783
      -2.396
      -3.066
      -3.754
      -4.355
      -4.750
      -4.880
      -4.772
      -4.519
      -4.216
      -3.921
      -3.638
      -3.349
      -3.038
      -2.705
      -2.360
      -2.017
      -1.687
      -1.380
      -1.090
      -0.806
      -0.502
      -0.155
       0.253
       0.725
       1.249
       1.807
       2.393
       3.016
       3.687
       4.394
       5.089
       5.704
       6.190
       6.540
       6.789
       6.989
       7.182
       7.382
       7.569
       7.694
       7.702
       7.560
       7.281
       6.915
       6.521
       6.130
       5.735
       5.296
       4.764
       4.102
       3.298
       2.370
       1.358
       0.315
      -0.704
      -1.669
      -2.580
      -3.452
      -4.291
      -5.078
      -5.773
      -6.342
      -6.774
      -7.071
      -7.232
      -7.240
      -7.091
      -6.825
      -6.526
      -6.283
      -6.137
      -6.051
      -5.952
      -5.776
      -5.508
      -5.179
      -4.834
      -4.494
      -4.138
      -3.721
      -3.211
      -2.621
      -2.006
      -1.419
      -0.873
      -0.351
       0.159
       0.619
       0.949
       1.067
       0.951
       0.664
       0.340
       0.121
       0.075
       0.166
       0.266
       0.244
       0.055
      -0.231
      -0.479
      -0.586
      -0.553
      -0.487
      -0.532
      -0.783
      -1.228
      -1.752
      -2.200
      -2.446
      -2.455
      -2.281
      -2.036
      -1.831
      -1.715
      -1.652
      -1.536
      -1.255
      -0.763
      -0.109
       0.582
       1.169
       1.557
       1.732
       1.755
       1.711
       1.651
       1.571
       1.449
       1.312
       1.249
       1.347
       1.624
       2.015
       2.425
       2.799
       3.131
       3.420
       3.641
       3.757
       3.774
       3.752
       3.763
       3.830
       3.918
       3.966
       3.948
       3.893
       3.865
       3.908
       4.018
       4.133
       4.176
       4.094
       3.889
       3.611
       3.320
       3.037
       2.734
       2.377
       1.977
       1.596
       1.288
       1.026
       0.689
       0.132
      -0.709
      -1.750
      -2.790
      -3.608
      -4.073
      -4.187
      -4.054
      -3.794
      -3.496
      -3.221
      -3.030
      -2.984
      -3.102
      -3.312
      -3.466
      -3.422
      -3.140
      -2.712
      -2.303
      -2.052
      -2.003
      -2.104
      -2.249
      -2.339
      -2.308
      -2.140
      -1.856
      -1.496
      -1.097
      -0.690
      -0.306
       0.015
       0.234
       0.328
       0.303
       0.201
       0.077
      -0.021
      -0.072
      -0.076
      -0.037
       0.050
       0.189
       0.373
       0.564
       0.721
       0.823
       0.894
       0.988
       1.150
       1.356
       1.497
       1.422
       1.036
       0.361
      -0.467
      -1.268
      -1.911
      -2.361
      -2.668
      -2.902
      -3.091
      -3.202
      -3.174
      -2.981
      -2.683
      -2.413
      -2.318
      -2.475
      -2.830
      -3.214
      -3.423
      -3.327
      -2.930
      -2.365
      -1.824
      -1.460
      -1.315
      -1.306
      -1.274
      -1.065
      -0.609
       0.055
       0.807
       1.504
       2.028
       2.328
       2.433
       2.449
       2.505
       2.681
       2.941
       3.157
       3.203
       3.075
       2.929
       2.981
       3.334
       3.879
       4.365
       4.576
       4.480
       4.236
       4.052
       4.033
       4.118
       4.158
       4.030
       3.713
       3.276
       2.817
       2.415
       2.117
       1.949
       1.918
       2.001
       2.139
       2.256
       2.295
       2.253
       2.177
       2.128
       2.116
       2.081
       1.937
       1.656
       1.320
       1.092
       1.104
       1.361
       1.716
       1.961
       1.959
       1.727
       1.410
       1.182
       1.137
       1.260
       1.462
       1.636
       1.688
       1.542
       1.140
       0.462
      -0.456
      -1.528
      -2.657
      -3.746
      -4.706
      -5.446
      -5.909
      -6.105
      -6.115
      -6.044
      -5.976
      -5.946
      -5.949
      -5.941
      -5.844
      -5.584
      -5.152
      -4.642
      -4.213
      -3.996
      -4.001
      -4.101
      -4.107
      -3.884
      -3.429
      -2.863
      -2.339
      -1.942
      -1.646
      -1.352
      -0.973
      -0.520
      -0.102
       0.148
       0.186
       0.112
       0.118
       0.367
       0.900
       1.630
       2.400
       3.060
       3.506
       3.708
       3.723
       3.688
       3.749
       3.950
       4.187
       4.291
       4.185
       3.944
       3.708
       3.514
       3.233
       2.669
       1.738
       0.559
      -0.608
      -1.502
      -1.989
      -2.097
      -1.978
      -1.816
      -1.742
      -1.794
      -1.931
      -2.075
      -2.145
      -2.079
      -1.846
      -1.474
      -1.051
      -0.710
      -0.565
      -0.641
      -0.848
      -1.014
      -0.964
      -0.596
       0.074
       0.922
       1.764
       2.424
       2.810
       2.939
       2.930
       2.948
       3.138
       3.546
       4.070
       4.475
       4.489
       3.947
       2.896
       1.591
       0.375
      -0.471
      -0.836
      -0.758
      -0.342
       0.330
       1.200
       2.181
       3.099
       3.727
       3.867
       3.446
       2.553
       1.409
       0.288
      -0.589
      -1.137
      -1.425
      -1.597
      -1.745
      -1.827
      -1.710
      -1.299
      -0.669
      -0.060
       0.253
       0.143
      -0.281
      -0.740
      -0.964
      -0.858
      -0.549
      -0.276
      -0.219
      -0.390
      -0.666
      -0.899
      -1.020
      -1.059
      -1.095
      -1.188
      -1.344
      -1.510
      -1.609
      -1.579
      -1.433
      -1.281
      -1.293
      -1.607
      -2.221
      -2.962
      -3.568
      -3.827
      -3.683
      -3.238
      -2.666
      -2.109
      -1.620
      -1.181
      -0.757
      -0.351
      -0.026
       0.108
      -0.056
      -0.577
      -1.413
      -2.407
      -3.301
      -3.824
      -3.813
      -3.292
      -2.457
      -1.554
      -0.765
      -0.160
       0.250
       0.448
       0.403
