Origin Time       11/8/2009 21:43:39 
Lat.              24.4 N 
Long.             94.8 E 
Depth (Km)         22.0
Magnitude         5.6
 Region           MYANMAR-INDIA(MANIPUR)BORDER                                     
 Above details taken from IMD 
   
Station Code      KOK
Station Lat.       26.400
Station Long.      90.261
Station Height(m)   53.0
Site Class        C   Vs30 between 200 m/sec to 375 m/sec *  
Record Time       11.08.2009 21:45:30.344
Sampling Rate     200. Hz
 Record Duration   67.510 Sec.
 Direction         Vert. (Up positive)
Max. Acceleration      5.302 cm/sec**2
     
  * For reference see Site Classification link of website 
     
 Base Line Corrected and Low Pass Filtered (Cut Off at 35 Hz) Time History
 Acceleration data in cm/sec**2
    
[...]
      -0.275
      -0.292
      -0.264
      -0.191
      -0.105
      -0.043
      -0.028
      -0.049
      -0.082
      -0.100
      -0.086
      -0.031
       0.059
       0.165
       0.254
       0.301
       0.301
       0.264
       0.205
       0.132
       0.054
      -0.014
      -0.060
      -0.084
      -0.093
      -0.090
      -0.071
      -0.038
      -0.009
      -0.014
      -0.067
      -0.153
      -0.239
      -0.295
      -0.311
      -0.294
      -0.254
      -0.192
      -0.102
       0.026
       0.185
       0.350
       0.461
       0.451
       0.288
       0.007
      -0.298
      -0.523
      -0.608
      -0.552
      -0.396
      -0.193
       0.017
       0.207
       0.359
       0.455
       0.476
       0.414
       0.281
       0.110
      -0.049
      -0.146
      -0.146
      -0.046
       0.123
       0.308
       0.461
       0.562
       0.614
       0.620
       0.568
       0.436
       0.220
      -0.043
      -0.281
      -0.422
      -0.431
      -0.333
      -0.186
      -0.054
       0.032
       0.082
       0.124
       0.177
       0.236
       0.267
       0.239
       0.145
       0.015
      -0.098
      -0.148
      -0.124
      -0.054
       0.017
       0.061
       0.084
       0.104
       0.131
       0.153
       0.157
       0.147
       0.137
       0.139
       0.144
       0.136
       0.113
       0.082
       0.049
       0.004
      -0.073
      -0.180
      -0.289
      -0.358
      -0.376
      -0.369
      -0.384
      -0.444
      -0.528
      -0.586
      -0.570
      -0.462
      -0.277
      -0.057
       0.142
       0.271
       0.306
       0.260
       0.171
       0.084
       0.029
       0.011
       0.025
       0.058
       0.093
       0.112
       0.101
       0.063
       0.019
       0.008
       0.066
       0.199
       0.377
       0.534
       0.604
       0.552
       0.394
       0.186
      -0.008
      -0.151
      -0.244
      -0.306
      -0.359
      -0.411
      -0.461
      -0.504
      -0.523
      -0.481
      -0.339
      -0.094
       0.202
       0.468
       0.639
       0.706
       0.692
       0.618
       0.481
       0.277
       0.029
      -0.216
      -0.416
      -0.563
      -0.676
      -0.767
      -0.817
      -0.795
      -0.696
      -0.554
      -0.420
      -0.319
      -0.238
      -0.147
      -0.025
       0.118
       0.261
       0.380
       0.458
       0.480
       0.435
       0.329
       0.182
       0.026
      -0.125
      -0.274
      -0.430
      -0.580
      -0.689
      -0.714
      -0.632
      -0.446
      -0.178
       0.141
       0.470
       0.761
       0.966
       1.051
       1.011
       0.869
       0.658
       0.413
       0.169
      -0.037
      -0.176
      -0.234
      -0.218
      -0.144
      -0.028
       0.126
       0.307
       0.487
       0.619
       0.657
       0.577
       0.393
       0.153
      -0.076
      -0.236
      -0.300
      -0.282
      -0.223
      -0.167
      -0.137
      -0.133
      -0.147
      -0.175
      -0.228
      -0.321
      -0.464
      -0.643
      -0.822
      -0.951
      -0.993
      -0.946
      -0.850
      -0.759
      -0.702
      -0.678
      -0.665
      -0.645
      -0.611
      -0.547
      -0.429
      -0.227
       0.061
       0.414
       0.799
       1.197
       1.589
       1.935
       2.173
       2.246
       2.129
       1.841
       1.419
       0.900
       0.328
      -0.222
      -0.638
      -0.818
      -0.721
      -0.397
       0.040
       0.467
       0.798
       0.984
       1.001
       0.836
       0.495
       0.020
      -0.510
      -1.016
      -1.452
      -1.804
      -2.056
      -2.163
      -2.070
      -1.765
      -1.305
      -0.787
      -0.283
       0.181
       0.598
       0.942
       1.162
       1.216
       1.114
       0.912
       0.684
       0.484
       0.341
       0.262
       0.233
       0.215
       0.156
       0.025
      -0.149
      -0.291
      -0.327
      -0.248
      -0.126
      -0.060
      -0.112
      -0.263
      -0.446
      -0.601
      -0.702
      -0.742
      -0.716
      -0.616
      -0.448
      -0.240
      -0.027
       0.166
       0.336
       0.498
       0.663
       0.835
       1.003
       1.149
       1.258
       1.315
       1.310
       1.236
       1.093
       0.894
       0.662
       0.420
       0.182
      -0.046
      -0.254
      -0.420
      -0.523
      -0.562
      -0.565
      -0.567
      -0.586
      -0.624
      -0.681
      -0.757
      -0.834
      -0.869
      -0.814
      -0.653
      -0.433
      -0.230
      -0.099
      -0.038
       0.001
       0.050
       0.097
       0.086
      -0.027
      -0.230
      -0.455
      -0.623
      -0.683
      -0.624
      -0.464
      -0.231
       0.029
       0.241
       0.324
       0.239
       0.030
      -0.195
      -0.330
      -0.323
      -0.186
       0.056
       0.390
       0.817
       1.310
       1.799
       2.186
       2.392
       2.387
       2.182
       1.815
       1.332
       0.784
       0.235
      -0.251
      -0.620
      -0.847
      -0.938
      -0.922
      -0.852
      -0.799
      -0.840
      -1.020
      -1.320
      -1.651
      -1.898
      -1.979
      -1.876
      -1.620
      -1.261
      -0.852
      -0.454
      -0.124
       0.096
       0.209
       0.252
       0.274
       0.309
       0.372
       0.467
       0.597
       0.765
       0.963
       1.174
       1.372
       1.521
       1.580
       1.498
       1.232
       0.761
       0.120
      -0.598
      -1.265
      -1.770
      -2.054
      -2.119
      -2.001
      -1.738
      -1.359
      -0.901
      -0.428
      -0.025
       0.240
       0.353
       0.362
       0.343
       0.363
       0.452
       0.603
       0.791
       0.989
       1.181
       1.369
       1.565
       1.773
       1.970
       2.101
       2.089
       1.879
       1.468
       0.917
       0.314
      -0.259
      -0.753
      -1.147
      -1.428
      -1.594
      -1.662
      -1.662
      -1.623
      -1.545
      -1.404
      -1.179
      -0.886
      -0.576
      -0.317
      -0.162
      -0.125
      -0.187
      -0.311
      -0.458
      -0.594
      -0.696
      -0.752
      -0.764
      -0.739
      -0.684
      -0.585
      -0.417
      -0.158
       0.195
       0.617
       1.061
       1.464
       1.751
       1.855
       1.749
       1.467
       1.092
       0.718
       0.414
       0.194
       0.036
      -0.091
      -0.192
      -0.245
      -0.225
      -0.138
      -0.031
       0.033
       0.015
      -0.085
      -0.244
      -0.440
      -0.641
      -0.783
      -0.760
      -0.478
       0.073
       0.773
       1.406
       1.755
       1.699
       1.262
       0.583
      -0.153
      -0.791
      -1.255
      -1.542
      -1.698
      -1.768
      -1.773
      -1.699
      -1.516
      -1.202
      -0.779
      -0.308
       0.124
       0.444
       0.618
       0.655
       0.592
       0.483
       0.387
       0.369
       0.470
       0.688
       0.968
       1.238
       1.449
       1.590
       1.669
       1.673
       1.566
       1.327
       0.979
       0.578
       0.178
      -0.192
      -0.507
      -0.720
      -0.782
      -0.687
      -0.492
      -0.296
      -0.177
      -0.162
      -0.240
      -0.401
      -0.644
      -0.957
      -1.299
      -1.607
      -1.820
      -1.906
      -1.861
      -1.690
      -1.408
      -1.046
      -0.658
      -0.305
      -0.031
       0.158
       0.292
       0.428
       0.632
       0.954
       1.407
       1.943
       2.459
       2.822
       2.916
       2.682
       2.141
       1.381
       0.526
      -0.302
      -1.000
      -1.492
      -1.736
      -1.734
      -1.535
      -1.222
      -0.884
      -0.594
      -0.411
      -0.379
      -0.514
      -0.796
      -1.154
      -1.492
      -1.708
      -1.723
      -1.507
      -1.079
      -0.506
       0.125
       0.731
       1.243
       1.617
       1.835
       1.919
       1.928
       1.938
       2.010
       2.154
       2.340
       2.508
       2.593
       2.523
       2.237
       1.695
       0.913
      -0.024
      -0.982
      -1.827
      -2.474
      -2.897
      -3.096
      -3.066
      -2.789
      -2.276
      -1.593
      -0.878
      -0.294
       0.023
       0.016
      -0.274
      -0.729
      -1.187
      -1.498
      -1.560
      -1.343
      -0.887
      -0.265
       0.443
       1.163
       1.821
       2.336
       2.639
       2.693
       2.496
       2.070
       1.450
       0.701
      -0.070
      -0.724
      -1.152
      -1.319
      -1.269
      -1.085
      -0.838
      -0.581
      -0.358
      -0.211
      -0.159
      -0.177
      -0.201
      -0.166
      -0.041
       0.163
       0.410
       0.661
       0.876
       1.014
       1.038
       0.930
       0.700
       0.384
       0.032
      -0.301
      -0.558
      -0.683
      -0.621
      -0.348
       0.103
       0.638
       1.106
       1.352
       1.264
       0.813
       0.066
      -0.839
      -1.733
      -2.453
      -2.868
      -2.891
      -2.489
      -1.706
      -0.677
       0.397
       1.306
       1.898
       2.112
       1.967
       1.527
       0.882
       0.145
      -0.551
      -1.069
      -1.310
      -1.239
      -0.893
      -0.354
       0.274
       0.884
       1.368
       1.622
       1.572
       1.206
       0.591
      -0.141
      -0.837
      -1.376
      -1.688
      -1.759
      -1.607
      -1.282
      -0.861
      -0.445
      -0.130
       0.035
       0.066
       0.041
       0.068
       0.240
       0.598
       1.104
       1.659
       2.144
       2.462
       2.547
       2.351
       1.845
       1.045
       0.056
      -0.934
      -1.709
      -2.109
      -2.098
      -1.756
      -1.219
      -0.616
      -0.045
       0.420
       0.712
       0.766
       0.553
       0.114
      -0.430
      -0.920
      -1.229
      -1.304
      -1.165
      -0.866
      -0.457
       0.016
       0.494
       0.885
       1.072
       0.961
       0.525
      -0.173
      -0.994
      -1.761
      -2.299
      -2.473
      -2.219
      -1.568
      -0.645
       0.377
       1.320
       2.047
       2.471
       2.546
       2.278
       1.738
       1.067
       0.444
       0.024
      -0.112
       0.035
       0.404
       0.905
       1.433
       1.881
       2.149
       2.163
       1.893
       1.352
       0.608
      -0.226
      -1.002
      -1.580
      -1.857
      -1.804
      -1.469
      -0.962
      -0.417
       0.042
       0.334
       0.418
       0.284
      -0.045
      -0.507
      -0.998
      -1.394
      -1.609
      -1.620
      -1.465
      -1.194
      -0.846
      -0.465
      -0.114
       0.124
       0.190
       0.082
      -0.142
      -0.404
      -0.640
      -0.821
      -0.932
      -0.963
      -0.898
      -0.730
      -0.478
      -0.187
       0.073
       0.234
       0.272
       0.231
       0.210
       0.320
       0.626
       1.132
       1.782
       2.485
       3.125
       3.573
       3.714
       3.483
       2.890
       2.030
       1.045
       0.075
      -0.780
      -1.467
      -1.957
      -2.225
      -2.253
      -2.054
      -1.701
      -1.328
      -1.085
      -1.077
      -1.315
      -1.724
      -2.192
      -2.613
      -2.897
      -2.961
      -2.719
      -2.116
      -1.182
      -0.060
       1.024
       1.840
       2.254
       2.272
       2.025
       1.709
       1.499
       1.485
       1.644
       1.874
       2.060
       2.125
       2.046
       1.834
       1.508
       1.083
       0.574
       0.009
      -0.568
      -1.085
      -1.455
      -1.602
      -1.495
      -1.175
      -0.758
      -0.394
      -0.193
      -0.177
      -0.283
      -0.435
      -0.596
      -0.765
      -0.933
      -1.041
      -1.005
      -0.765
      -0.326
       0.232
       0.783
       1.197
       1.385
       1.334
       1.104
       0.782
       0.432
       0.081
      -0.253
      -0.527
      -0.671
      -0.628
      -0.411
      -0.112
       0.146
       0.277
       0.256
       0.099
      -0.168
      -0.526
      -0.942
      -1.349
      -1.649
      -1.757
      -1.636
      -1.314
      -0.860
      -0.356
       0.136
       0.577
       0.945
       1.213
       1.349
       1.322
       1.109
       0.709
       0.156
      -0.468
      -1.031
      -1.382
      -1.400
      -1.031
      -0.307
       0.657
       1.695
       2.621
       3.285
       3.608
       3.598
       3.328
       2.902
       2.412
       1.920
       1.449
       0.990
       0.532
       0.096
      -0.258
      -0.463
      -0.498
      -0.400
      -0.244
      -0.090
       0.034
       0.109
       0.094
      -0.070
      -0.420
      -0.939
      -1.551
      -2.164
      -2.718
      -3.202
      -3.627
      -3.989
      -4.244
      -4.327
      -4.171
      -3.725
      -2.967
      -1.921
      -0.679
       0.596
       1.702
       2.461
       2.770
       2.622
       2.094
       1.329
       0.510
      -0.171
      -0.564
      -0.599
      -0.299
       0.249
       0.940
       1.673
       2.352
       2.880
       3.148
       3.044
       2.478
       1.438
       0.021
      -1.554
      -2.988
      -3.964
      -4.230
      -3.681
      -2.398
      -0.626
       1.303
       3.069
       4.421
       5.192
       5.302
       4.774
       3.736
       2.395
       0.973
      -0.330
      -1.357
      -1.984
      -2.145
      -1.867
      -1.291
      -0.640
      -0.139
       0.061
      -0.092
      -0.552
      -1.214
      -1.932
      -2.548
      -2.923
      -2.967
      -2.666
      -2.077
      -1.306
      -0.473
       0.311
       0.945
       1.334
       1.408
       1.134
       0.531
      -0.325
      -1.306
      -2.237
      -2.932
      -3.249
      -3.156
      -2.737
      -2.148
      -1.532
      -0.957
      -0.408
       0.169
       0.801
       1.446
       1.988
       2.300
       2.312
       2.059
       1.669
       1.308
       1.118
       1.172
       1.465
       1.922
       2.434
       2.901
       3.266
       3.512
       3.627
       3.575
       3.296
       2.741
       1.908
       0.849
      -0.360
      -1.635
      -2.879
      -3.970
      -4.771
      -5.178
      -5.170
      -4.806
      -4.183
      -3.384
      -2.467
      -1.483
      -0.493
       0.430
       1.191
       1.670
       1.753
       1.386
       0.644
      -0.262
      -1.038
      -1.416
      -1.242
      -0.517
       0.616
       1.930
       3.178
       4.150
       4.698
       4.731
       4.216
       3.172
       1.698
      -0.017
      -1.716
      -3.140
      -4.094
      -4.476
      -4.284
      -3.605
      -2.597
      -1.467
      -0.429
       0.343
       0.751
       0.784
       0.521
       0.105
      -0.291
      -0.512
      -0.464
      -0.123
       0.486
       1.316
       2.293
       3.284
       4.078
       4.426
       4.145
       3.201
       1.731
       0.001
      -1.690
      -3.086
      -4.020
      -4.414
      -4.271
      -3.661
      -2.725
      -1.646
      -0.613
       0.234
       0.825
       1.144
       1.212
       1.084
       0.855
       0.667
       0.678
       1.006
       1.671
       2.561
       3.448
       4.059
       4.172
       3.704
       2.735
       1.456
       0.078
      -1.246
      -2.439
      -3.452
      -4.204
      -4.582
      -4.504
      -3.985
      -3.141
      -2.131
      -1.083
      -0.089
       0.761
       1.342
       1.525
       1.269
       0.696
       0.062
      -0.370
      -0.462
      -0.245
       0.146
       0.576
       0.977
       1.336
       1.648
       1.895
       2.046
       2.069
       1.942
       1.671
       1.307
       0.928
       0.604
       0.337
       0.058
      -0.328
      -0.872
      -1.547
      -2.266
      -2.919
      -3.397
      -3.618
      -3.541
      -3.179
      -2.602
      -1.913
      -1.207
      -0.547
       0.044
       0.566
       1.019
       1.387
       1.646
       1.779
       1.788
       1.695
       1.524
       1.302
       1.069
       0.886
       0.826
       0.936
       1.184
       1.452
       1.583
       1.470
       1.121
       0.642
       0.180
      -0.153
      -0.320
      -0.361
      -0.366
      -0.434
      -0.617
      -0.882
      -1.106
      -1.138
      -0.903
      -0.462
       0.010
       0.335
       0.436
       0.363
       0.230
       0.137
       0.128
       0.195
       0.300
       0.383
       0.380
       0.259
       0.040
      -0.221
      -0.488
      -0.775
      -1.123
      -1.526
      -1.895
      -2.086
      -2.000
      -1.643
      -1.133
      -0.638
      -0.282
      -0.106
      -0.076
      -0.126
      -0.198
      -0.232
      -0.163
       0.073
       0.508
       1.102
       1.747
       2.293
       2.607
       2.623
       2.354
       1.882
       1.325
       0.799
       0.382
       0.102
      -0.055
      -0.118
      -0.118
      -0.093
      -0.112
      -0.271
      -0.664
      -1.321
      -2.161
      -2.983
      -3.530
      -3.610
      -3.175
      -2.327
      -1.248
      -0.137
       0.827
       1.503
       1.808
       1.749
       1.416
       0.943
       0.454
       0.038
      -0.240
      -0.340
      -0.265
      -0.075
       0.138
       0.302
       0.399
       0.453
       0.473
       0.420
       0.234
      -0.103
      -0.514
      -0.851
      -0.977
      -0.854
      -0.566
      -0.273
      -0.104
      -0.071
      -0.041
       0.184
       0.744
       1.605
       2.554
       3.295
       3.591
       3.354
       2.658
       1.692
       0.678
      -0.185
      -0.758
      -0.969
      -0.808
      -0.332
       0.324
       0.948
       1.306
       1.228
       0.692
      -0.182
      -1.199
      -2.173
      -2.972
      -3.504
      -3.697
      -3.496
      -2.897
      -1.962
      -0.824
       0.314
       1.207
       1.638
       1.520
       0.960
       0.204
      -0.488
      -0.965
      -1.211
      -1.279
      -1.196
      -0.907
      -0.313
       0.631
       1.825
       3.020
       3.885
       4.147
       3.696
       2.624
       1.168
      -0.395
      -1.831
      -2.980
      -3.729
      -3.982
      -3.676
      -2.828
      -1.579
      -0.180
       1.084
       1.986
       2.421
       2.407
       2.036
       1.425
       0.691
      -0.048
      -0.670
      -1.064
      -1.144
      -0.873
      -0.284
       0.496
       1.257
       1.772
       1.882
       1.562
       0.911
       0.111
      -0.638
      -1.152
      -1.291
      -0.998
      -0.337
       0.499
       1.243
       1.646
       1.552
       0.939
      -0.090
      -1.329
      -2.521
      -3.404
      -3.781
      -3.570
      -2.824
      -1.704
      -0.420
       0.833
       1.909
       2.698
       3.092
       2.982
       2.292
       1.048
      -0.579
      -2.282
      -3.700
      -4.526
      -4.594
      -3.912
      -2.633
      -1.004
       0.703
       2.234
       3.401
       4.093
       4.267
       3.925
       3.116
