Origin Time       09/1/2013 01:41:52	
Lat.              25.4 N	
Long.             94.9 E	
Depth (Km)         89.0
Magnitude         5.9
 Region           Myanmar-India-Border-Region                                      
 Above details taken from IMD 
   
Station Code      KOK
Station Lat.       26.400
Station Long.      90.261
Station Height(m)   54.0
Site Class        C   Vs30 between 200 m/sec to 375 m/sec *  
Record Time       09.01.2013 01:43:18.289
Sampling Rate     200. Hz
 Record Duration   80.165 Sec.
 Direction         Vert. (Up positive)
Max. Acceleration      3.657 cm/sec**2
     
  * For reference see Site Classification link of website 
     
 Base Line Corrected and Low Pass Filtered (Cut Off at 35 Hz) Time History
 Acceleration data in cm/sec**2
    
[...]
      -0.357
      -0.234
      -0.044
       0.095
       0.106
       0.013
      -0.102
      -0.179
      -0.212
      -0.212
      -0.155
      -0.016
       0.172
       0.311
       0.320
       0.206
       0.042
      -0.109
      -0.248
      -0.412
      -0.610
      -0.799
      -0.905
      -0.890
      -0.772
      -0.592
      -0.356
      -0.052
       0.283
       0.536
       0.585
       0.403
       0.097
      -0.176
      -0.316
      -0.311
      -0.196
       0.000
       0.261
       0.561
       0.850
       1.065
       1.161
       1.103
       0.878
       0.515
       0.108
      -0.238
      -0.477
      -0.627
      -0.708
      -0.702
      -0.576
      -0.354
      -0.126
       0.012
       0.021
      -0.063
      -0.187
      -0.321
      -0.455
      -0.575
      -0.650
      -0.641
      -0.515
      -0.241
       0.191
       0.728
       1.226
       1.534
       1.584
       1.422
       1.127
       0.755
       0.349
      -0.025
      -0.290
      -0.406
      -0.404
      -0.368
      -0.365
      -0.380
      -0.345
      -0.245
      -0.175
      -0.244
      -0.438
      -0.601
      -0.564
      -0.286
       0.136
       0.558
       0.881
       1.076
       1.138
       1.042
       0.758
       0.313
      -0.183
      -0.577
      -0.757
      -0.712
      -0.519
      -0.270
      -0.019
       0.233
       0.501
       0.765
       0.940
       0.905
       0.591
       0.040
      -0.601
      -1.151
      -1.473
      -1.531
      -1.383
      -1.116
      -0.777
      -0.360
       0.146
       0.694
       1.161
       1.404
       1.343
       1.014
       0.552
       0.117
      -0.193
      -0.370
      -0.450
      -0.459
      -0.376
      -0.178
       0.100
       0.349
       0.457
       0.395
       0.227
       0.030
      -0.168
      -0.387
      -0.616
      -0.788
      -0.813
      -0.649
      -0.333
       0.036
       0.354
       0.562
       0.667
       0.708
       0.712
       0.667
       0.537
       0.317
       0.065
      -0.120
      -0.158
      -0.039
       0.170
       0.348
       0.387
       0.265
       0.071
      -0.062
      -0.067
       0.013
       0.079
       0.065
      -0.023
      -0.131
      -0.202
      -0.208
      -0.158
      -0.081
      -0.014
       0.023
       0.037
       0.051
       0.076
       0.089
       0.053
      -0.034
      -0.127
      -0.180
      -0.184
      -0.165
      -0.131
      -0.056
       0.078
       0.226
       0.302
       0.248
       0.086
      -0.115
      -0.295
      -0.440
      -0.566
      -0.688
      -0.794
      -0.857
      -0.856
      -0.783
      -0.635
      -0.409
      -0.126
       0.155
       0.355
       0.445
       0.469
       0.497
       0.550
       0.582
       0.537
       0.408
       0.251
       0.130
       0.075
       0.068
       0.073
       0.057
       0.005
      -0.077
      -0.156
      -0.204
      -0.223
      -0.243
      -0.285
      -0.322
      -0.303
      -0.216
      -0.120
      -0.091
      -0.150
      -0.257
      -0.380
      -0.534
      -0.749
      -0.982
      -1.091
      -0.923
      -0.439
       0.243
       0.911
       1.367
       1.515
       1.381
       1.070
       0.700
       0.344
       0.025
      -0.261
      -0.500
      -0.651
      -0.671
      -0.551
      -0.326
      -0.050
       0.229
       0.482
       0.681
       0.793
       0.777
       0.617
       0.335
       0.003
      -0.297
      -0.501
      -0.584
      -0.547
      -0.418
      -0.254
      -0.123
      -0.079
      -0.123
      -0.214
      -0.312
      -0.397
      -0.447
      -0.423
      -0.289
      -0.065
       0.160
       0.280
       0.260
       0.183
       0.172
       0.281
       0.460
       0.614
       0.682
       0.655
       0.547
       0.373
       0.167
      -0.010
      -0.105
      -0.111
      -0.072
      -0.034
       0.002
       0.094
       0.309
       0.643
       1.000
       1.248
       1.296
       1.115
       0.726
       0.191
      -0.383
      -0.869
      -1.177
      -1.292
      -1.259
      -1.123
      -0.896
      -0.579
      -0.213
       0.099
       0.236
       0.139
      -0.147
      -0.500
      -0.782
      -0.908
      -0.862
      -0.687
      -0.441
      -0.170
       0.109
       0.380
       0.617
       0.791
       0.885
       0.898
       0.841
       0.735
       0.606
       0.461
       0.285
       0.073
      -0.127
      -0.219
      -0.128
       0.137
       0.481
       0.776
       0.918
       0.856
       0.606
       0.240
      -0.140
      -0.450
      -0.660
      -0.796
      -0.897
      -0.976
      -1.021
      -1.001
      -0.882
      -0.645
      -0.319
       0.017
       0.276
       0.418
       0.473
       0.488
       0.482
       0.427
       0.293
       0.107
      -0.043
      -0.070
       0.035
       0.193
       0.321
       0.407
       0.518
       0.699
       0.887
       0.941
       0.780
       0.477
       0.208
       0.078
       0.026
      -0.119
      -0.461
      -0.932
      -1.344
      -1.548
      -1.539
      -1.418
      -1.293
      -1.195
      -1.099
      -0.960
      -0.750
      -0.464
      -0.125
       0.207
       0.461
       0.593
       0.588
       0.452
       0.194
      -0.146
      -0.471
      -0.655
      -0.612
      -0.354
       0.019
       0.392
       0.707
       0.967
       1.180
       1.305
       1.263
       0.992
       0.506
      -0.103
      -0.700
      -1.162
      -1.402
      -1.390
      -1.155
      -0.771
      -0.324
       0.124
       0.542
       0.911
       1.192
       1.323
       1.253
       0.979
       0.543
       0.012
      -0.557
      -1.106
      -1.552
      -1.772
      -1.639
      -1.102
      -0.250
       0.686
       1.445
       1.870
       1.969
       1.844
       1.562
       1.104
       0.440
      -0.355
      -1.079
      -1.514
      -1.573
      -1.340
      -0.966
      -0.546
      -0.086
       0.424
       0.937
       1.341
       1.522
       1.429
       1.093
       0.613
       0.119
      -0.286
      -0.563
      -0.749
      -0.904
      -1.031
      -1.047
      -0.835
      -0.370
       0.224
       0.738
       1.004
       0.984
       0.752
       0.413
       0.040
      -0.331
      -0.681
      -0.984
      -1.200
      -1.274
      -1.152
      -0.793
      -0.213
       0.497
       1.191
       1.727
       2.007
       1.993
       1.699
       1.179
       0.519
      -0.186
      -0.837
      -1.346
      -1.645
      -1.711
      -1.567
      -1.271
      -0.872
      -0.390
       0.169
       0.763
       1.288
       1.602
       1.622
       1.377
       0.995
       0.609
       0.275
      -0.017
      -0.293
      -0.530
      -0.650
      -0.579
      -0.329
      -0.006
       0.253
       0.363
       0.320
       0.155
      -0.098
      -0.415
      -0.756
      -1.066
      -1.289
      -1.402
      -1.400
      -1.281
      -1.033
      -0.656
      -0.186
       0.308
       0.743
       1.045
       1.165
       1.099
       0.907
       0.702
       0.599
       0.638
       0.763
       0.874
       0.907
       0.870
       0.798
       0.691
       0.522
       0.279
      -0.002
      -0.269
      -0.504
      -0.731
      -0.977
      -1.225
      -1.417
      -1.495
      -1.430
      -1.241
      -0.980
      -0.704
      -0.446
      -0.209
       0.026
       0.279
       0.552
       0.830
       1.074
       1.235
       1.263
       1.128
       0.838
       0.445
       0.018
      -0.396
      -0.764
      -1.037
      -1.136
      -1.000
      -0.655
      -0.229
       0.126
       0.318
       0.342
       0.240
       0.042
      -0.231
      -0.536
      -0.791
      -0.903
      -0.828
      -0.589
      -0.263
       0.067
       0.348
       0.560
       0.674
       0.633
       0.378
      -0.072
      -0.569
      -0.888
      -0.869
      -0.517
       0.009
       0.522
       0.910
       1.146
       1.228
       1.142
       0.867
       0.417
      -0.126
      -0.633
      -0.977
      -1.081
      -0.943
      -0.628
      -0.231
       0.153
       0.456
       0.643
       0.706
       0.663
       0.539
       0.338
       0.050
      -0.311
      -0.670
      -0.909
      -0.934
      -0.725
      -0.352
       0.066
       0.418
       0.633
       0.693
       0.628
       0.518
       0.470
       0.557
       0.756
       0.939
       0.965
       0.806
       0.557
       0.354
       0.260
       0.239
       0.228
       0.193
       0.147
       0.103
       0.051
      -0.035
      -0.174
      -0.346
      -0.506
      -0.623
      -0.724
      -0.881
      -1.154
      -1.519
      -1.850
      -1.992
      -1.862
      -1.499
      -1.007
      -0.471
       0.079
       0.630
       1.132
       1.493
       1.629
       1.523
       1.232
       0.861
       0.523
       0.309
       0.265
       0.375
       0.565
       0.742
       0.824
       0.770
       0.583
       0.308
       0.009
      -0.253
      -0.450
      -0.576
      -0.635
      -0.619
      -0.521
      -0.352
      -0.146
       0.043
       0.152
       0.118
      -0.101
      -0.507
      -1.041
      -1.571
      -1.905
      -1.849
      -1.306
      -0.358
       0.754
       1.741
       2.407
       2.717
       2.749
       2.593
       2.274
       1.768
       1.066
       0.236
      -0.571
      -1.178
      -1.464
      -1.417
      -1.117
      -0.676
      -0.193
       0.246
       0.539
       0.566
       0.239
      -0.413
      -1.229
      -1.967
      -2.409
      -2.446
      -2.110
      -1.533
      -0.876
      -0.268
       0.205
       0.475
       0.489
       0.248
      -0.158
      -0.573
      -0.834
      -0.843
      -0.579
      -0.085
       0.548
       1.189
       1.688
       1.935
       1.910
       1.675
       1.321
       0.911
       0.465
       0.009
      -0.386
      -0.617
      -0.609
      -0.375
      -0.006
       0.358
       0.578
       0.546
       0.221
      -0.347
      -1.032
      -1.651
      -2.026
      -2.024
      -1.610
      -0.849
       0.112
       1.111
       2.014
       2.725
       3.151
       3.187
       2.756
       1.889
       0.748
      -0.431
      -1.452
      -2.217
      -2.697
      -2.872
      -2.721
      -2.259
      -1.573
      -0.810
      -0.122
       0.385
       0.663
       0.720
       0.601
       0.384
       0.159
      -0.002
      -0.075
      -0.072
      -0.021
       0.056
       0.140
       0.196
       0.193
       0.131
       0.057
       0.039
       0.119
       0.291
       0.513
       0.735
       0.912
       1.003
       0.975
       0.817
       0.560
       0.259
      -0.034
      -0.278
      -0.449
      -0.534
      -0.542
      -0.496
      -0.428
      -0.371
      -0.347
      -0.361
      -0.389
      -0.376
      -0.268
      -0.047
       0.246
       0.518
       0.665
       0.631
       0.439
       0.167
      -0.101
      -0.299
      -0.377
      -0.301
      -0.077
       0.220
       0.477
       0.598
       0.564
       0.428
       0.270
       0.144
       0.051
      -0.029
      -0.094
      -0.098
       0.017
       0.252
       0.530
       0.735
       0.792
       0.706
       0.531
       0.307
       0.030
      -0.320
      -0.723
      -1.108
      -1.388
      -1.496
      -1.399
      -1.097
      -0.633
      -0.099
       0.383
       0.713
       0.856
       0.854
       0.772
       0.660
       0.535
       0.406
       0.297
       0.232
       0.200
       0.158
       0.058
      -0.099
      -0.259
      -0.345
      -0.313
      -0.179
      -0.009
       0.114
       0.135
       0.057
      -0.049
      -0.082
       0.002
       0.130
       0.149
      -0.064
      -0.488
      -0.966
      -1.306
      -1.410
      -1.306
      -1.077
      -0.773
      -0.392
       0.077
       0.613
       1.170
       1.691
       2.093
       2.259
       2.061
       1.447
       0.494
      -0.609
      -1.658
      -2.507
      -3.087
      -3.356
      -3.275
      -2.840
      -2.138
      -1.336
      -0.602
      -0.019
       0.434
       0.820
       1.155
       1.386
       1.446
       1.327
       1.099
       0.858
       0.676
       0.578
       0.558
       0.587
       0.627
       0.629
       0.554
       0.394
       0.187
      -0.001
      -0.112
      -0.136
      -0.109
      -0.075
      -0.054
      -0.043
      -0.040
      -0.051
      -0.072
      -0.070
       0.016
       0.228
       0.561
       0.960
       1.345
       1.642
       1.787
       1.736
       1.483
       1.059
       0.509
      -0.125
      -0.805
      -1.473
      -2.037
      -2.384
      -2.417
      -2.098
      -1.469
      -0.662
       0.127
       0.699
       0.935
       0.851
       0.568
       0.234
      -0.074
      -0.362
      -0.662
      -0.954
      -1.153
      -1.155
      -0.908
      -0.444
       0.152
       0.795
       1.427
       1.982
       2.351
       2.395
       2.023
       1.262
       0.252
      -0.828
      -1.822
      -2.609
      -3.084
      -3.172
      -2.868
      -2.262
      -1.505
      -0.740
      -0.059
       0.489
       0.863
       1.028
       0.984
       0.792
       0.547
       0.330
       0.177
       0.107
       0.159
       0.400
       0.896
       1.641
       2.511
       3.270
       3.657
       3.499
       2.783
       1.659
       0.376
      -0.782
      -1.580
      -1.911
      -1.830
      -1.508
      -1.120
      -0.762
      -0.451
      -0.209
      -0.098
      -0.180
      -0.444
      -0.792
      -1.097
      -1.261
      -1.246
      -1.058
      -0.739
      -0.334
       0.122
       0.599
       1.050
       1.389
       1.524
       1.406
       1.066
       0.595
       0.106
      -0.302
      -0.569
      -0.688
      -0.698
      -0.642
      -0.529
      -0.341
      -0.078
       0.209
       0.449
       0.616
       0.758
       0.937
       1.146
       1.289
       1.257
       1.023
       0.653
       0.245
      -0.140
      -0.492
      -0.822
      -1.134
      -1.415
      -1.632
      -1.745
      -1.725
      -1.571
      -1.323
      -1.043
      -0.793
      -0.618
      -0.558
      -0.652
      -0.914
      -1.285
      -1.628
      -1.778
      -1.630
      -1.179
      -0.499
       0.301
       1.115
       1.838
       2.357
       2.563
       2.385
       1.837
       1.043
       0.214
      -0.417
      -0.692
      -0.590
      -0.236
       0.175
       0.480
       0.607
       0.562
       0.382
       0.093
      -0.289
      -0.734
      -1.190
      -1.584
      -1.830
      -1.831
      -1.513
      -0.883
      -0.059
       0.776
       1.461
       1.892
       2.013
       1.799
       1.281
       0.584
      -0.097
      -0.581
      -0.786
      -0.744
      -0.529
      -0.202
       0.194
       0.606
       0.967
       1.228
       1.383
       1.453
       1.435
       1.289
       0.979
       0.558
       0.175
      -0.007
       0.064
       0.296
       0.531
       0.663
       0.693
       0.669
       0.595
       0.407
       0.036
      -0.496
      -1.057
      -1.465
      -1.598
      -1.459
      -1.148
      -0.791
      -0.489
      -0.329
      -0.392
      -0.713
      -1.219
      -1.731
      -2.050
      -2.058
      -1.757
      -1.219
      -0.538
       0.188
       0.845
       1.324
       1.555
       1.536
       1.318
       0.988
       0.638
       0.346
       0.146
       0.025
      -0.061
      -0.144
      -0.222
      -0.258
      -0.212
      -0.076
       0.105
       0.247
       0.265
       0.107
      -0.220
      -0.648
      -1.071
      -1.387
      -1.544
      -1.544
      -1.407
      -1.137
      -0.730
      -0.226
       0.266
       0.616
       0.746
       0.677
       0.492
       0.279
       0.111
       0.063
       0.217
       0.611
       1.176
       1.745
       2.141
       2.274
       2.169
       1.896
       1.512
       1.046
       0.546
       0.104
      -0.175
      -0.254
      -0.216
      -0.227
      -0.431
      -0.859
      -1.418
      -1.951
      -2.308
      -2.392
      -2.182
      -1.734
      -1.157
      -0.558
      -0.001
       0.506
       0.978
       1.409
       1.750
       1.939
       1.952
       1.816
       1.579
       1.273
       0.918
       0.556
       0.270
       0.145
       0.200
       0.354
       0.472
       0.457
       0.298
       0.038
      -0.286
      -0.667
      -1.090
      -1.494
      -1.765
      -1.790
      -1.515
      -0.984
      -0.334
       0.250
       0.610
       0.685
       0.520
       0.224
      -0.098
      -0.389
      -0.630
      -0.803
      -0.867
      -0.768
      -0.472
      -0.008
       0.521
       0.970
       1.222
       1.240
       1.081
       0.843
       0.613
       0.437
       0.338
       0.331
       0.418
       0.557
       0.665
       0.649
       0.456
       0.101
      -0.334
      -0.731
      -1.006
      -1.153
      -1.240
      -1.341
      -1.476
      -1.600
      -1.662
      -1.653
      -1.608
      -1.576
      -1.580
      -1.592
      -1.534
      -1.306
      -0.850
      -0.217
       0.441
       0.953
       1.246
       1.375
       1.451
       1.544
       1.640
       1.689
       1.668
       1.608
       1.557
       1.547
       1.561
       1.536
       1.375
       0.996
       0.390
      -0.331
      -0.975
      -1.375
      -1.470
      -1.311
      -0.997
      -0.622
      -0.264
       0.003
       0.124
       0.069
      -0.166
      -0.563
      -1.058
      -1.538
      -1.872
      -1.983
      -1.888
      -1.657
      -1.328
      -0.853
      -0.159
       0.729
       1.631
       2.292
       2.535
       2.353
       1.873
       1.264
       0.671
       0.204
      -0.055
      -0.080
       0.070
       0.268
       0.388
       0.376
       0.261
       0.128
       0.063
       0.121
       0.302
       0.564
       0.839
       1.066
       1.209
       1.240
       1.118
       0.787
       0.231
      -0.485
      -1.230
      -1.868
      -2.307
      -2.499
      -2.418
      -2.049
      -1.404
      -0.568
       0.296
       0.980
       1.317
       1.241
       0.808
       0.153
      -0.562
      -1.194
      -1.631
      -1.804
      -1.693
      -1.333
      -0.793
      -0.146
       0.551
       1.242
       1.840
       2.218
       2.270
       1.980
       1.450
       0.838
       0.263
      -0.243
      -0.698
      -1.094
      -1.363
      -1.419
      -1.226
      -0.827
      -0.326
       0.155
       0.521
       0.730
       0.805
       0.811
       0.796
       0.759
       0.651
       0.431
       0.098
      -0.290
      -0.631
      -0.806
      -0.725
      -0.390
       0.082
       0.516
       0.789
       0.883
       0.856
       0.751
       0.564
       0.288
      -0.037
      -0.334
      -0.551
      -0.691
      -0.788
      -0.859
      -0.877
      -0.801
      -0.599
      -0.264
       0.177
       0.647
       1.020
       1.156
       0.960
       0.442
      -0.264
      -0.942
      -1.388
