Origin Time       15/2/2009 07:35:55 
Lat.              26.0 N 
Long.             90.2 E 
Depth (Km)         39.3
Magnitude         4.4
 Region           Assam-Meghalaya-Border                                           
 Above details taken from IMD 
   
Station Code      KOK
Station Lat.       26.400
Station Long.      90.261
Station Height(m)   53.0
Site Class        C   Vs30 between 200 m/sec to 375 m/sec *  
Record Time       15.02.2009 19:35:55.784
Sampling Rate     200. Hz
 Record Duration   74.415 Sec.
 Direction         Vert. (Up positive)
Max. Acceleration     34.119 cm/sec**2
     
  * For reference see Site Classification link of website 
     
 Base Line Corrected and Low Pass Filtered (Cut Off at 35 Hz) Time History
 Acceleration data in cm/sec**2
    
[...]
      -3.139
      -3.306
      -2.905
      -2.216
      -1.604
      -1.213
      -0.830
      -0.122
       0.949
       2.001
       2.533
       2.333
       1.573
       0.582
      -0.406
      -1.246
      -1.703
      -1.427
      -0.214
       1.704
       3.687
       5.032
       5.318
       4.528
       2.953
       1.032
      -0.786
      -2.142
      -2.847
      -2.928
      -2.560
      -1.937
      -1.185
      -0.404
       0.260
       0.622
       0.587
       0.250
      -0.192
      -0.623
      -1.076
      -1.590
      -2.029
      -2.114
      -1.647
      -0.692
       0.474
       1.560
       2.371
       2.782
       2.703
       2.144
       1.294
       0.465
      -0.129
      -0.509
      -0.863
      -1.315
      -1.781
      -2.010
      -1.776
      -1.063
      -0.101
       0.751
       1.196
       1.116
       0.574
      -0.251
      -1.149
      -1.943
      -2.503
      -2.721
      -2.491
      -1.749
      -0.550
       0.878
       2.189
       3.076
       3.421
       3.316
       2.927
       2.360
       1.617
       0.663
      -0.451
      -1.514
      -2.204
      -2.276
      -1.726
      -0.809
       0.113
       0.744
       0.940
       0.696
       0.118
      -0.594
      -1.222
      -1.643
      -1.855
      -1.872
      -1.630
      -1.076
      -0.350
       0.231
       0.465
       0.523
       0.795
       1.452
       2.181
       2.437
       1.963
       0.989
      -0.033
      -0.794
      -1.209
      -1.257
      -0.920
      -0.296
       0.367
       0.823
       1.039
       1.169
       1.309
       1.326
       0.989
       0.251
      -0.644
      -1.314
      -1.482
      -1.123
      -0.441
       0.262
       0.754
       0.935
       0.813
       0.446
      -0.086
      -0.664
      -1.110
      -1.238
      -0.982
      -0.447
       0.173
       0.713
       1.059
       1.135
       0.896
       0.366
      -0.334
      -0.979
      -1.328
      -1.260
      -0.830
      -0.209
       0.405
       0.852
       1.058
       1.046
       0.860
       0.513
       0.027
      -0.481
      -0.814
      -0.835
      -0.629
      -0.468
      -0.554
      -0.776
      -0.805
      -0.454
       0.115
       0.544
       0.609
       0.382
       0.132
       0.070
       0.173
       0.232
       0.076
      -0.270
      -0.605
      -0.726
      -0.604
      -0.403
      -0.309
      -0.360
      -0.414
      -0.293
       0.077
       0.614
       1.136
       1.460
       1.463
       1.119
       0.550
       0.024
      -0.220
      -0.203
      -0.228
      -0.599
      -1.288
      -1.892
      -1.940
      -1.286
      -0.173
       1.059
       2.241
       3.304
       4.022
       4.006
       2.999
       1.154
      -0.996
      -2.844
      -4.026
      -4.506
      -4.408
      -3.818
      -2.748
      -1.246
       0.500
       2.178
       3.464
       4.153
       4.162
       3.438
       1.943
      -0.176
      -2.407
      -4.001
      -4.372
      -3.438
      -1.592
       0.586
       2.581
       3.980
       4.475
       3.962
       2.666
       1.058
      -0.422
      -1.553
      -2.277
      -2.540
      -2.298
      -1.671
      -0.984
      -0.533
      -0.312
      -0.063
       0.362
       0.768
       0.803
       0.361
      -0.255
      -0.598
      -0.482
      -0.126
       0.110
       0.077
      -0.090
      -0.172
      -0.064
       0.194
       0.469
       0.614
       0.569
       0.406
       0.253
       0.150
      -0.008
      -0.356
      -0.877
      -1.354
      -1.547
      -1.419
      -1.135
      -0.849
      -0.551
      -0.120
       0.498
       1.194
       1.734
       1.927
       1.783
       1.485
       1.184
       0.844
       0.319
      -0.410
      -1.107
      -1.429
      -1.256
      -0.815
      -0.414
      -0.108
       0.272
       0.766
       1.114
       0.986
       0.342
      -0.517
      -1.227
      -1.655
      -1.904
      -2.063
      -2.049
      -1.727
      -1.089
      -0.222
       0.842
       2.055
       3.121
       3.501
       2.826
       1.341
      -0.177
      -1.029
      -1.145
      -0.992
      -0.983
      -1.045
      -0.767
       0.096
       1.333
       2.407
       2.821
       2.418
       1.416
       0.196
      -0.972
      -2.018
      -2.919
      -3.487
      -3.389
      -2.436
      -0.854
       0.791
       2.001
       2.694
       3.121
       3.453
       3.538
       3.076
       1.969
       0.437
      -1.176
      -2.617
      -3.700
      -4.174
      -3.789
      -2.553
      -0.902
       0.500
       1.199
       1.223
       0.929
       0.593
       0.188
      -0.437
      -1.215
      -1.798
      -1.833
      -1.270
      -0.388
       0.472
       1.157
       1.710
       2.171
       2.422
       2.276
       1.678
       0.798
      -0.073
      -0.708
      -1.064
      -1.227
      -1.258
      -1.091
      -0.599
       0.234
       1.218
       1.999
       2.240
       1.824
       0.912
      -0.204
      -1.305
      -2.304
      -3.140
      -3.642
      -3.525
      -2.550
      -0.785
       1.265
       2.888
       3.629
       3.544
       2.971
       2.088
       0.802
      -0.895
      -2.574
      -3.560
      -3.520
      -2.772
      -1.900
      -1.121
      -0.164
       1.215
       2.730
       3.695
       3.646
       2.732
       1.450
       0.129
      -1.180
      -2.341
      -2.916
      -2.486
      -1.149
       0.455
       1.661
       2.250
       2.418
       2.380
       2.103
       1.414
       0.266
      -1.109
      -2.295
      -2.932
      -2.917
      -2.422
      -1.720
      -0.962
      -0.099
       0.989
       2.221
       3.168
       3.266
       2.294
       0.640
      -0.992
      -2.143
      -2.824
      -3.217
      -3.282
      -2.786
      -1.696
      -0.405
       0.531
       0.835
       0.661
       0.386
       0.312
       0.534
       0.963
       1.419
       1.720
       1.731
       1.377
       0.653
      -0.327
      -1.298
      -1.931
      -2.048
      -1.749
      -1.247
      -0.563
       0.505
       2.022
       3.583
       4.463
       4.179
       2.905
       1.312
       0.004
      -0.895
      -1.629
      -2.377
      -3.000
      -3.169
      -2.671
      -1.614
      -0.362
       0.691
       1.325
       1.529
       1.414
       1.127
       0.790
       0.442
       0.058
      -0.333
      -0.571
      -0.471
      -0.022
       0.543
       0.890
       0.819
       0.389
      -0.146
      -0.513
      -0.578
      -0.423
      -0.285
      -0.366
      -0.623
      -0.791
      -0.671
      -0.360
      -0.139
      -0.154
      -0.275
      -0.307
      -0.250
      -0.249
      -0.336
      -0.320
      -0.039
       0.371
       0.574
       0.419
       0.138
       0.132
       0.567
       1.193
       1.540
       1.295
       0.519
      -0.406
      -1.008
      -0.985
      -0.395
       0.350
       0.753
       0.578
      -0.029
      -0.752
      -1.385
      -1.860
      -2.094
      -1.918
      -1.263
      -0.343
       0.462
       0.907
       0.999
       0.840
       0.483
       0.013
      -0.348
      -0.345
       0.058
       0.570
       0.792
       0.546
       0.003
      -0.480
      -0.606
      -0.292
       0.281
       0.773
       0.934
       0.805
       0.645
       0.633
       0.694
       0.646
       0.485
       0.426
       0.593
       0.726
       0.369
      -0.606
      -1.729
      -2.283
      -1.938
      -0.997
      -0.060
       0.488
       0.650
       0.600
       0.454
       0.246
      -0.015
      -0.337
      -0.734
      -1.128
      -1.301
      -1.030
      -0.328
       0.506
       1.126
       1.414
       1.497
       1.541
       1.613
       1.682
       1.639
       1.294
       0.507
      -0.590
      -1.548
      -1.892
      -1.526
      -0.829
      -0.310
      -0.196
      -0.352
      -0.527
      -0.579
      -0.518
      -0.438
      -0.462
      -0.669
      -0.956
      -0.999
      -0.496
       0.457
       1.287
       1.385
       0.662
      -0.372
      -1.111
      -1.377
      -1.435
      -1.545
      -1.603
      -1.252
      -0.266
       1.238
       2.909
       4.355
       5.211
       5.162
       4.073
       2.156
      -0.064
      -2.026
      -3.410
      -4.142
      -4.203
      -3.538
      -2.201
      -0.536
       0.923
       1.792
       2.028
       1.799
       1.241
       0.409
      -0.584
      -1.501
      -2.117
      -2.406
      -2.492
      -2.378
      -1.813
      -0.528
       1.335
       3.132
       4.135
       4.095
       3.334
       2.287
       1.062
      -0.443
      -2.069
      -3.229
      -3.344
      -2.401
      -0.985
       0.259
       1.151
       1.903
       2.588
       2.851
       2.255
       0.851
      -0.736
      -1.831
      -2.303
      -2.605
      -3.216
      -4.033
      -4.363
      -3.543
      -1.590
       0.770
       2.668
       3.671
       3.904
       3.727
       3.360
       2.806
       2.041
       1.215
       0.628
       0.515
       0.830
       1.203
       1.128
       0.290
      -1.193
      -2.801
      -3.907
      -4.135
      -3.537
      -2.506
      -1.482
      -0.658
       0.092
       0.945
       1.739
       1.897
       0.866
      -1.270
      -3.612
      -4.989
      -4.753
      -3.145
      -0.933
       1.261
       3.276
       5.145
       6.680
       7.422
       6.995
       5.389
       2.929
       0.109
      -2.505
      -4.341
      -4.977
      -4.355
      -2.842
      -1.046
       0.531
       1.674
       2.327
       2.370
       1.627
       0.111
      -1.822
      -3.609
      -4.811
      -5.289
      -5.069
      -4.107
      -2.280
       0.305
       3.095
       5.284
       6.308
       6.171
       5.300
       4.129
       2.808
       1.267
      -0.463
      -2.000
      -2.715
      -2.161
      -0.492
       1.504
       2.851
       2.965
       1.889
       0.018
      -2.258
      -4.549
      -6.245
      -6.614
      -5.334
      -2.871
      -0.217
       1.818
       3.030
       3.588
       3.519
       2.610
       0.835
      -1.286
      -2.958
      -3.737
      -3.784
      -3.456
      -2.761
      -1.330
       1.072
       4.077
       6.779
       8.197
       7.725
       5.351
       1.687
      -2.199
      -5.200
      -6.673
      -6.643
      -5.543
      -3.797
      -1.677
       0.524
       2.336
       3.244
       3.027
       1.924
       0.490
      -0.733
      -1.422
      -1.503
      -1.067
      -0.323
       0.462
       1.041
       1.318
       1.416
       1.564
       1.828
       1.940
       1.481
       0.353
      -0.917
      -1.462
      -0.821
       0.594
       1.789
       1.962
       1.014
      -0.608
      -2.411
      -4.090
      -5.385
      -5.925
      -5.384
      -3.790
      -1.571
       0.697
       2.532
       3.598
       3.667
       2.677
       0.848
      -1.293
      -3.096
      -4.090
      -4.183
      -3.591
      -2.537
      -0.989
       1.305
       4.462
       8.092
      11.323
      13.279
      13.611
      12.572
      10.689
       8.410
       6.067
       4.010
       2.648
       2.266
       2.827
       3.973
       5.142
       5.649
       4.750
       1.886
      -2.907
      -8.822
     -14.624
     -19.296
     -22.401
     -23.904
     -23.818
     -22.125
     -18.978
     -14.783
     -10.025
      -5.112
      -0.465
       3.275
       5.314
       5.155
       3.073
       0.173
      -2.072
      -2.534
      -0.908
       2.373
       6.667
      11.527
      16.537
      20.864
      23.153
      22.101
      17.293
       9.562
       0.576
      -7.917
     -14.578
     -18.551
     -19.395
     -17.062
     -11.888
      -4.530
       4.117
      12.923
      20.440
      24.942
      24.916
      19.918
      11.103
       0.803
      -8.650
     -15.920
     -20.730
     -23.072
     -22.514
     -18.465
     -11.137
      -2.079
       6.416
      12.468
      15.342
      15.320
      13.054
       9.040
       3.599
      -2.819
      -9.419
     -15.096
     -18.638
     -19.031
     -15.869
      -9.668
      -1.815
       5.935
      12.107
      15.896
      17.140
      16.089
      13.281
       9.498
       5.633
       2.458
       0.464
      -0.159
       0.516
       2.173
       4.305
       6.363
       7.879
       8.477
       7.792
       5.521
       1.647
      -3.362
      -8.575
     -12.921
     -15.651
     -16.687
     -16.606
     -16.191
     -15.821
     -15.265
     -14.073
     -12.184
     -10.058
      -8.167
      -6.465
      -4.488
      -2.021
       0.473
       2.249
       3.143
       3.912
       5.613
       8.645
      12.425
      15.910
      18.320
      19.385
      19.028
      17.026
      13.135
       7.621
       1.615
      -3.172
      -5.274
      -4.300
      -1.191
       2.398
       5.203
       7.055
       8.498
       9.762
      10.244
       9.055
       5.975
       1.733
      -2.719
      -7.173
     -12.250
     -18.377
     -24.683
     -29.026
     -29.281
     -24.783
     -16.742
      -7.401
       1.285
       8.338
      13.450
      16.258
      16.098
      12.438
       5.479
      -3.573
     -12.705
     -19.692
     -22.818
     -21.351
     -15.594
      -6.648
       3.914
      14.444
      23.579
      30.360
      34.079
      34.119
      30.086
      22.224
      11.803
       0.988
      -8.014
     -13.998
     -17.030
     -17.619
     -15.720
     -10.796
      -3.076
       5.268
      10.490
       9.420
       1.843
      -8.967
     -18.262
     -22.782
     -22.242
     -18.400
     -12.987
      -6.555
       0.976
       9.101
      16.344
      20.977
      21.894
      18.843
      12.246
       3.172
      -6.545
     -14.539
     -18.685
     -17.922
     -12.524
      -3.771
       6.532
      16.355
      23.694
      26.986
      25.559
      19.743
      10.653
      -0.041
     -10.264
     -17.914
     -21.627
     -21.404
     -18.430
     -14.147
      -9.441
      -4.685
      -0.344
       2.741
       3.824
       2.876
       0.547
      -2.470
      -5.899
      -9.563
     -12.700
     -13.805
     -11.484
      -5.651
       2.163
       9.841
      16.017
      20.391
      22.921
      23.083
      20.167
      14.304
       7.003
       0.480
      -3.728
      -5.563
      -5.976
      -5.767
      -4.962
      -3.239
      -0.748
       1.656
       2.995
       2.867
       1.572
      -0.303
      -2.305
      -4.256
      -6.159
      -7.961
      -9.321
      -9.634
      -8.391
      -5.644
      -2.153
       0.941
       2.666
       2.534
       0.542
      -2.827
      -6.472
      -8.779
      -8.260
      -4.455
       1.624
       7.905
      12.305
      13.716
      12.236
       8.668
       3.975
      -0.901
      -5.073
      -7.982
      -9.699
     -10.776
     -11.605
     -11.816
     -10.393
      -6.519
      -0.460
       6.324
      11.986
      15.347
      16.351
      15.665
      13.914
      11.262
       7.609
       3.124
      -1.433
      -4.926
      -6.428
      -5.683
      -3.119
       0.491
       4.378
       7.902
      10.492
      11.568
      10.590
       7.286
       1.909
      -4.710
     -11.417
     -17.142
     -21.209
     -23.396
     -23.749
     -22.268
     -18.793
     -13.266
      -6.154
       1.406
       7.948
      12.279
      13.979
      13.458
      11.509
       8.717
       5.247
       1.179
      -2.978
      -6.135
      -7.096
      -5.242
      -0.908
       4.782
      10.413
      14.790
      17.256
      17.743
      16.545
      13.998
      10.253
       5.342
      -0.460
      -6.278
     -10.712
     -12.523
     -11.412
      -8.229
      -4.409
      -1.111
       1.274
       2.952
       4.137
       4.573
       3.615
       0.821
      -3.459
      -8.058
     -11.583
     -13.141
     -12.651
     -10.621
      -7.706
      -4.455
      -1.410
       0.705
       1.132
      -0.406
      -3.294
      -6.190
      -7.705
      -7.076
      -4.383
      -0.337
       4.080
       7.877
      10.272
      10.931
      10.111
       8.518
       6.893
       5.608
       4.628
       3.811
       3.171
       2.789
       2.506
       1.840
       0.345
      -1.887
      -4.113
      -5.366
      -5.080
      -3.480
      -1.514
      -0.366
      -0.753
      -2.413
      -4.201
      -4.862
      -3.927
      -1.970
      -0.090
       0.862
       0.677
      -0.378
      -1.926
      -3.653
      -5.196
      -6.008
      -5.493
      -3.363
       0.108
       4.150
       7.860
      10.576
      12.016
      12.146
      11.027
       8.867
       6.182
       3.717
       2.075
       1.358
       1.178
       1.049
       0.825
       0.725
       0.939
       1.257
       1.163
       0.268
      -1.361
      -3.265
      -4.913
      -5.971
      -6.343
      -6.061
      -5.246
      -4.178
      -3.254
      -2.739
      -2.524
      -2.186
      -1.320
       0.142
       1.861
       3.295
       3.977
       3.666
       2.361
       0.289
      -2.147
      -4.498
      -6.402
      -7.584
      -7.802
      -6.897
      -4.894
      -1.998
       1.472
       5.079
       8.223
      10.204
      10.489
       9.060
       6.520
       3.799
       1.653
       0.329
      -0.468
      -1.398
      -3.169
      -6.133
      -9.924
     -13.400
     -15.074
     -13.836
      -9.511
      -2.919
       4.472
      10.970
      14.979
      15.398
      12.128
       6.350
       0.080
      -4.936
      -8.178
     -10.244
     -11.753
     -12.357
     -10.930
      -6.717
      -0.215
       7.078
      13.636
      18.524
      21.199
      21.057
      17.555
      10.905
       2.513
      -5.462
     -11.121
     -13.544
     -12.809
      -9.623
      -5.032
      -0.330
       3.106
       4.264
       3.004
       0.121
      -3.194
      -6.027
      -8.006
      -9.096
      -9.260
      -8.309
      -6.082
      -2.775
       0.937
       4.186
       6.435
       7.725
       8.369
       8.312
       6.862
       3.308
      -2.013
      -7.337
     -10.396
      -9.854
      -5.980
      -0.189
       5.899
      10.996
      14.104
      14.384
      11.444
       5.869
      -0.697
      -6.253
      -9.454
     -10.115
      -8.887
      -6.490
      -3.282
       0.512
       4.356
       7.427
       9.109
       9.307
       8.204
       5.855
       2.198
      -2.484
      -7.193
     -10.454
     -11.067
      -8.767
      -4.277
       1.123
       6.130
       9.755
      11.438
      10.999
       8.506
       4.216
      -1.363
      -7.344
     -12.495
     -15.598
     -15.991
     -13.908
     -10.315
      -6.326
      -2.647
       0.545
       3.265
       5.324
       6.292
       5.879
       4.332
       2.489
       1.394
       1.667
       3.066
       4.648
       5.479
       5.318
       4.627
       3.979
       3.466
       2.696
       1.309
      -0.540
      -2.250
      -3.287
      -3.585
      -3.469
      -3.284
      -3.150
      -3.016
      -2.878
      -2.886
      -3.204
      -3.764
