Origin Time       11/8/2009 21:43:39 
Lat.              24.4 N 
Long.             94.8 E 
Depth (Km)         22.0
Magnitude         5.6
 Region           MYANMAR-INDIA(MANIPUR)BORDER                                     
 Above details taken from IMD 
     
Station Code      KOK
Station Lat.       26.400  N
Station Long.      90.261  E
Station Height(m)   53.0
Site Class        C   Vs30 between 200 m/sec to 375 m/sec *  
Record Time       11.08.2009 21:45:30.344
Sampling Rate     200. Hz
 Record Duration   67.510 Sec.
 Direction         E-W (E positive)
Max. Acceleration     -5.715 cm/sec**2
     
  * For reference see Site Classification link of website 
     
 Base Line Corrected and Low Pass Filtered (Cut Off at 35 Hz) Time History
 Acceleration data in cm/sec**2
    
[...]
       0.763
       0.804
       0.771
       0.675
       0.558
       0.458
       0.381
       0.302
       0.189
       0.035
      -0.128
      -0.256
      -0.320
      -0.320
      -0.290
      -0.272
      -0.299
      -0.377
      -0.488
      -0.596
      -0.665
      -0.673
      -0.631
      -0.574
      -0.539
      -0.547
      -0.593
      -0.643
      -0.662
      -0.624
      -0.534
      -0.422
      -0.327
      -0.278
      -0.278
      -0.308
      -0.336
      -0.332
      -0.275
      -0.159
       0.006
       0.195
       0.372
       0.505
       0.572
       0.572
       0.517
       0.423
       0.302
       0.172
       0.062
       0.004
       0.017
       0.092
       0.201
       0.314
       0.418
       0.514
       0.603
       0.676
       0.713
       0.698
       0.633
       0.538
       0.439
       0.352
       0.276
       0.200
       0.120
       0.052
       0.018
       0.022
       0.037
       0.027
      -0.029
      -0.109
      -0.169
      -0.176
      -0.139
      -0.104
      -0.130
      -0.247
      -0.445
      -0.679
      -0.896
      -1.062
      -1.171
      -1.244
      -1.308
      -1.379
      -1.447
      -1.478
      -1.430
      -1.273
      -1.010
      -0.682
      -0.354
      -0.086
       0.096
       0.205
       0.284
       0.373
       0.486
       0.606
       0.696
       0.721
       0.672
       0.567
       0.454
       0.400
       0.459
       0.648
       0.923
       1.203
       1.413
       1.524
       1.557
       1.554
       1.536
       1.490
       1.385
       1.192
       0.904
       0.539
       0.135
      -0.257
      -0.588
      -0.817
      -0.930
      -0.939
      -0.879
      -0.789
      -0.694
      -0.600
      -0.508
      -0.425
      -0.371
      -0.371
      -0.440
      -0.571
      -0.743
      -0.926
      -1.088
      -1.198
      -1.236
      -1.193
      -1.082
      -0.924
      -0.735
      -0.524
      -0.291
      -0.038
       0.227
       0.485
       0.714
       0.887
       0.980
       0.980
       0.893
       0.744
       0.568
       0.401
       0.272
       0.202
       0.204
       0.269
       0.375
       0.494
       0.609
       0.714
       0.804
       0.859
       0.852
       0.761
       0.587
       0.348
       0.070
      -0.216
      -0.474
      -0.664
      -0.753
      -0.737
      -0.649
      -0.544
      -0.466
      -0.428
      -0.414
      -0.399
      -0.382
      -0.379
      -0.412
      -0.478
      -0.556
      -0.621
      -0.674
      -0.735
      -0.815
      -0.891
      -0.906
      -0.812
      -0.600
      -0.311
      -0.003
       0.282
       0.535
       0.768
       0.990
       1.192
       1.347
       1.423
       1.396
       1.270
       1.086
       0.918
       0.836
       0.862
       0.953
       1.031
       1.038
       0.978
       0.901
       0.852
       0.833
       0.808
       0.737
       0.610
       0.446
       0.263
       0.060
      -0.176
      -0.447
      -0.718
      -0.936
      -1.059
      -1.091
      -1.081
      -1.095
      -1.171
      -1.308
      -1.468
      -1.605
      -1.687
      -1.696
      -1.632
      -1.506
      -1.351
      -1.212
      -1.130
      -1.116
      -1.143
      -1.162
      -1.125
      -1.015
      -0.850
      -0.670
      -0.512
      -0.396
      -0.316
      -0.249
      -0.171
      -0.066
       0.071
       0.241
       0.438
       0.649
       0.860
       1.073
       1.312
       1.608
       1.967
       2.342
       2.642
       2.769
       2.676
       2.389
       1.994
       1.596
       1.272
       1.045
       0.878
       0.709
       0.490
       0.220
      -0.046
      -0.225
      -0.255
      -0.134
       0.068
       0.245
       0.304
       0.201
      -0.044
      -0.376
      -0.737
      -1.091
      -1.418
      -1.699
      -1.900
      -1.971
      -1.875
      -1.614
      -1.239
      -0.822
      -0.435
      -0.118
       0.116
       0.278
       0.394
       0.488
       0.572
       0.634
       0.643
       0.563
       0.372
       0.085
      -0.251
      -0.577
      -0.847
      -1.052
      -1.205
      -1.316
      -1.373
      -1.344
      -1.204
      -0.963
      -0.659
      -0.341
      -0.051
       0.189
       0.367
       0.483
       0.555
       0.625
       0.737
       0.908
       1.109
       1.272
       1.333
       1.277
       1.134
       0.955
       0.767
       0.569
       0.344
       0.085
      -0.188
      -0.441
      -0.645
      -0.789
      -0.884
      -0.949
      -0.985
      -0.971
      -0.862
      -0.626
      -0.262
       0.180
       0.630
       1.029
       1.349
       1.597
       1.785
       1.908
       1.943
       1.867
       1.682
       1.420
       1.123
       0.833
       0.579
       0.384
       0.267
       0.242
       0.306
       0.437
       0.583
       0.681
       0.669
       0.508
       0.194
      -0.237
      -0.724
      -1.194
      -1.589
      -1.878
      -2.054
      -2.127
      -2.110
      -2.012
      -1.838
      -1.587
      -1.254
      -0.841
      -0.366
       0.116
       0.529
       0.805
       0.915
       0.878
       0.732
       0.509
       0.216
      -0.153
      -0.588
      -1.050
      -1.479
      -1.824
      -2.063
      -2.206
      -2.268
      -2.243
      -2.107
      -1.835
      -1.435
      -0.954
      -0.467
      -0.052
       0.237
       0.384
       0.409
       0.360
       0.296
       0.276
       0.346
       0.518
       0.768
       1.041
       1.275
       1.430
       1.496
       1.494
       1.460
       1.427
       1.415
       1.426
       1.447
       1.458
       1.441
       1.391
       1.322
       1.256
       1.218
       1.225
       1.275
       1.346
       1.395
       1.371
       1.235
       0.985
       0.670
       0.358
       0.106
      -0.071
      -0.201
      -0.319
      -0.439
      -0.547
      -0.629
      -0.689
      -0.756
      -0.870
      -1.055
      -1.312
      -1.618
      -1.941
      -2.256
      -2.537
      -2.751
      -2.851
      -2.796
      -2.578
      -2.244
      -1.871
      -1.526
      -1.224
      -0.930
      -0.604
      -0.255
       0.048
       0.227
       0.254
       0.188
       0.142
       0.215
       0.429
       0.721
       0.987
       1.136
       1.120
       0.946
       0.660
       0.334
       0.043
      -0.144
      -0.188
      -0.088
       0.115
       0.347
       0.538
       0.646
       0.681
       0.692
       0.745
       0.883
       1.108
       1.381
       1.642
       1.841
       1.946
       1.955
       1.885
       1.765
       1.620
       1.460
       1.273
       1.032
       0.717
       0.334
      -0.072
      -0.428
      -0.670
      -0.771
      -0.757
      -0.687
      -0.615
      -0.573
      -0.569
      -0.599
      -0.655
      -0.710
      -0.726
      -0.668
      -0.540
      -0.394
      -0.299
      -0.290
      -0.333
      -0.341
      -0.225
       0.042
       0.403
       0.740
       0.937
       0.941
       0.777
       0.531
       0.305
       0.174
       0.152
       0.194
       0.226
       0.179
       0.033
      -0.178
      -0.384
      -0.524
      -0.577
      -0.578
      -0.585
      -0.644
      -0.767
      -0.931
      -1.101
      -1.243
      -1.334
      -1.366
      -1.349
      -1.317
      -1.300
      -1.307
      -1.313
      -1.277
      -1.175
      -1.018
      -0.846
      -0.697
      -0.586
      -0.503
      -0.429
      -0.343
      -0.227
      -0.059
       0.180
       0.492
       0.852
       1.216
       1.541
       1.800
       1.989
       2.113
       2.183
       2.209
       2.198
       2.147
       2.043
       1.868
       1.626
       1.358
       1.141
       1.054
       1.130
       1.323
       1.529
       1.638
       1.592
       1.408
       1.154
       0.908
       0.725
       0.628
       0.614
       0.658
       0.715
       0.735
       0.686
       0.574
       0.435
       0.289
       0.115
      -0.156
      -0.588
      -1.197
      -1.934
      -2.708
      -3.424
      -4.018
      -4.449
      -4.701
      -4.775
      -4.698
      -4.512
      -4.253
      -3.944
      -3.592
      -3.215
      -2.843
      -2.506
      -2.195
      -1.858
      -1.429
      -0.873
      -0.213
       0.477
       1.100
       1.586
       1.910
       2.091
       2.169
       2.178
       2.141
       2.067
       1.962
       1.837
       1.719
       1.656
       1.689
       1.822
       1.986
       2.065
       1.955
       1.638
       1.200
       0.796
       0.564
       0.558
       0.727
       0.957
       1.136
       1.209
       1.195
       1.162
       1.176
       1.262
       1.389
       1.492
       1.508
       1.401
       1.180
       0.885
       0.570
       0.279
       0.026
      -0.216
      -0.504
      -0.896
      -1.413
      -2.025
      -2.660
      -3.230
      -3.662
      -3.905
      -3.937
      -3.765
      -3.420
      -2.943
      -2.365
      -1.712
      -1.024
      -0.364
       0.191
       0.585
       0.811
       0.902
       0.899
       0.815
       0.640
       0.384
       0.120
      -0.022
       0.086
       0.485
       1.093
       1.733
       2.224
       2.462
       2.448
       2.263
       1.998
       1.698
       1.350
       0.909
       0.339
      -0.356
      -1.119
      -1.849
      -2.422
      -2.732
      -2.747
      -2.520
      -2.172
      -1.820
      -1.524
      -1.272
      -1.011
      -0.698
      -0.321
       0.096
       0.511
       0.872
       1.126
       1.227
       1.157
       0.943
       0.647
       0.347
       0.103
      -0.057
      -0.140
      -0.166
      -0.142
      -0.046
       0.155
       0.469
       0.840
       1.164
       1.326
       1.267
       1.012
       0.663
       0.349
       0.168
       0.149
       0.252
       0.413
       0.594
       0.808
       1.094
       1.470
       1.900
       2.298
       2.570
       2.658
       2.557
       2.304
       1.948
       1.521
       1.037
       0.490
      -0.115
      -0.747
      -1.341
      -1.815
      -2.115
      -2.240
      -2.237
      -2.167
      -2.066
      -1.930
      -1.736
      -1.472
      -1.167
      -0.890
      -0.724
      -0.722
      -0.881
      -1.147
      -1.451
      -1.742
      -1.987
      -2.156
      -2.203
      -2.091
      -1.826
      -1.475
      -1.137
      -0.897
      -0.784
      -0.782
      -0.860
      -0.998
      -1.176
      -1.358
      -1.464
      -1.392
      -1.062
      -0.470
       0.291
       1.062
       1.689
       2.089
       2.278
       2.336
       2.352
       2.376
       2.419
       2.477
       2.561
       2.697
       2.897
       3.133
       3.322
       3.357
       3.159
       2.719
       2.110
       1.464
       0.915
       0.548
       0.378
       0.351
       0.385
       0.422
       0.457
       0.536
       0.712
       0.987
       1.290
       1.493
       1.473
       1.170
       0.618
      -0.074
      -0.763
      -1.328
      -1.700
      -1.874
      -1.891
      -1.813
      -1.693
      -1.548
      -1.369
      -1.139
      -0.875
      -0.650
      -0.569
      -0.723
      -1.128
      -1.710
      -2.337
      -2.873
      -3.228
      -3.377
      -3.352
      -3.211
      -3.003
      -2.738
      -2.371
      -1.835
      -1.083
      -0.141
       0.880
       1.804
       2.451
       2.706
       2.559
       2.104
       1.500
       0.914
       0.471
       0.232
       0.192
       0.297
       0.473
       0.654
       0.804
       0.930
       1.063
       1.236
       1.450
       1.659
       1.776
       1.706
       1.400
       0.890
       0.294
      -0.239
      -0.595
      -0.743
      -0.734
      -0.656
      -0.577
      -0.516
      -0.451
      -0.367
      -0.287
      -0.265
      -0.342
      -0.498
      -0.648
      -0.684
      -0.544
      -0.254
       0.075
       0.299
       0.301
       0.042
      -0.433
      -1.007
      -1.536
      -1.888
      -1.969
      -1.742
      -1.226
      -0.493
       0.345
       1.163
       1.854
       2.355
       2.649
       2.752
       2.696
       2.515
       2.241
       1.901
       1.517
       1.109
       0.688
       0.264
      -0.148
      -0.514
      -0.780
      -0.896
      -0.854
      -0.718
      -0.607
      -0.637
      -0.867
      -1.268
      -1.743
      -2.161
      -2.396
      -2.374
      -2.115
      -1.747
      -1.459
      -1.402
      -1.596
      -1.911
      -2.141
      -2.128
      -1.855
      -1.451
      -1.110
      -0.990
      -1.133
      -1.457
      -1.803
      -2.009
      -1.972
      -1.674
      -1.159
      -0.495
       0.263
       1.080
       1.930
       2.768
       3.534
       4.166
       4.614
       4.837
       4.795
       4.452
       3.811
       2.951
       2.039
       1.292
       0.894
       0.916
       1.284
       1.808
       2.261
       2.458
       2.314
       1.855
       1.198
       0.501
      -0.091
      -0.492
      -0.697
      -0.775
      -0.820
      -0.904
      -1.042
      -1.193
      -1.288
      -1.276
      -1.156
      -0.980
      -0.833
      -0.782
      -0.831
      -0.903
      -0.877
      -0.657
      -0.255
       0.184
       0.424
       0.233
      -0.500
      -1.703
      -3.129
      -4.453
      -5.375
      -5.715
      -5.451
      -4.717
      -3.751
      -2.803
      -2.036
      -1.474
      -1.028
      -0.593
      -0.151
       0.213
       0.369
       0.244
      -0.116
      -0.555
      -0.870
      -0.885
      -0.506
       0.251
       1.262
       2.330
       3.242
       3.849
       4.107
       4.069
       3.832
       3.481
       3.073
       2.658
       2.298
       2.054
       1.955
       1.984
       2.089
       2.217
       2.333
       2.413
       2.434
       2.379
       2.239
       2.015
       1.705
       1.282
       0.688
      -0.127
      -1.151
      -2.271
      -3.296
      -4.030
      -4.362
      -4.302
      -3.957
      -3.459
      -2.924
      -2.432
      -2.038
      -1.756
      -1.551
      -1.350
      -1.089
      -0.772
      -0.476
      -0.319
      -0.381
      -0.651
      -1.029
      -1.379
      -1.599
      -1.659
      -1.580
      -1.393
      -1.113
      -0.742
      -0.303
       0.135
       0.467
       0.608
       0.553
       0.412
       0.369
       0.595
       1.150
       1.937
       2.738
       3.317
       3.532
       3.382
       2.977
       2.469
       1.985
       1.604
       1.358
       1.238
       1.193
       1.135
       0.973
       0.668
       0.274
      -0.072
      -0.224
      -0.126
       0.139
       0.394
       0.470
       0.300
      -0.072
      -0.551
      -1.052
      -1.522
      -1.918
      -2.188
      -2.288
      -2.210
      -1.995
      -1.719
      -1.465
      -1.297
      -1.235
      -1.257
      -1.308
      -1.311
      -1.190
      -0.874
      -0.317
       0.485
       1.466
       2.483
       3.347
       3.887
       4.012
       3.739
       3.180
       2.488
       1.805
       1.219
       0.754
       0.393
       0.115
      -0.064
      -0.090
       0.080
       0.418
       0.795
       1.037
       1.012
       0.686
       0.126
      -0.557
      -1.244
      -1.843
      -2.293
      -2.578
      -2.730
      -2.814
      -2.882
      -2.918
      -2.828
      -2.476
      -1.766
      -0.711
       0.551
       1.802
       2.817
       3.426
       3.534
       3.128
       2.274
       1.106
      -0.185
      -1.396
      -2.346
      -2.914
      -3.048
      -2.769
      -2.165
      -1.384
      -0.606
      -0.002
       0.314
       0.320
       0.079
      -0.294
      -0.689
      -1.033
      -1.295
      -1.456
      -1.475
      -1.280
      -0.799
      -0.009
       1.026
       2.153
       3.187
       3.964
       4.377
       4.378
       3.959
       3.145
       2.011
       0.699
      -0.586
      -1.642
      -2.338
      -2.651
      -2.649
      -2.430
      -2.084
      -1.683
      -1.286
      -0.939
      -0.657
      -0.419
      -0.189
       0.045
       0.243
       0.329
       0.248
       0.030
      -0.205
      -0.312
      -0.218
       0.023
       0.268
       0.386
       0.349
       0.247
       0.238
       0.443
       0.871
       1.395
       1.805
       1.904
       1.595
       0.911
      -0.016
      -1.025
      -1.978
      -2.784
      -3.388
      -3.747
      -3.820
      -3.555
      -2.913
      -1.901
      -0.611
       0.783
       2.072
       3.093
       3.788
       4.199
       4.411
       4.488
       4.428
       4.172
       3.634
       2.759
       1.571
       0.190
      -1.198
      -2.408
      -3.312
      -3.854
      -4.035
      -3.905
      -3.565
      -3.178
      -2.921
      -2.900
      -3.072
      -3.238
      -3.144
      -2.608
      -1.621
      -0.341
       0.990
       2.146
       2.983
       3.438
       3.508
       3.237
       2.720
       2.088
       1.471
       0.937
       0.465
      -0.017
      -0.547
      -1.060
      -1.404
      -1.423
      -1.071
      -0.455
       0.214
       0.726
       0.978
       0.996
       0.894
       0.791
       0.748
       0.741
       0.694
       0.547
       0.304
       0.052
      -0.088
      -0.014
       0.321
       0.903
       1.669
       2.499
       3.223
       3.659
       3.686
       3.303
       2.632
       1.834
       1.015
       0.181
      -0.714
      -1.668
      -2.567
      -3.229
      -3.519
      -3.441
      -3.154
      -2.884
      -2.812
      -2.990
      -3.333
      -3.668
      -3.821
      -3.691
      -3.287
      -2.706
      -2.063
      -1.416
      -0.735
       0.038
       0.893
       1.698
       2.250
       2.398
       2.156
       1.699
       1.249
       0.936
       0.737
       0.532
       0.218
      -0.212
      -0.682
      -1.086
      -1.345
      -1.405
      -1.224
      -0.782
      -0.115
       0.667
       1.417
       2.032
       2.512
       2.942
       3.390
       3.814
       4.043
       3.881
       3.247
       2.261
       1.194
       0.322
      -0.212
      -0.453
      -0.556
      -0.665
      -0.818
      -0.941
      -0.915
      -0.670
      -0.242
       0.223
       0.516
       0.450
      -0.050
      -0.901
      -1.870
      -2.663
      -3.044
      -2.933
      -2.423
      -1.711
      -0.997
      -0.405
       0.034
       0.356
       0.617
       0.855
       1.062
       1.177
       1.115
       0.826
       0.360
      -0.125
      -0.430
      -0.437
      -0.191
       0.119
       0.288
       0.240
       0.082
       0.025
       0.219
       0.643
       1.113
       1.392
       1.318
       0.871
       0.154
      -0.658
      -1.389
      -1.923
      -2.240
      -2.409
      -2.518
      -2.596
      -2.579
      -2.355
      -1.860
      -1.143
      -0.366
       0.278
       0.648
       0.708
       0.529
       0.253
       0.033
      -0.033
       0.055
       0.196
       0.251
       0.125
      -0.177
      -0.562
      -0.909
      -1.131
