Origin Time       21/9/2009 8:53:04	 
Lat.              27.3 N	
Long.             91.5 E	
Depth (Km)          8.0
Magnitude         6.2
 Region           BHUTAN                                                           
 Above details taken from IMD 
     
Station Code      KOK
Station Lat.       26.400  N
Station Long.      90.261  E
Station Height(m)   53.0
Site Class        C   Vs30 between 200 m/sec to 375 m/sec *  
Record Time       21.09.2009 08:53:19.899
Sampling Rate     200. Hz
 Record Duration  108.310 Sec.
 Direction         E-W (E positive)
Max. Acceleration    -22.274 cm/sec**2
     
  * For reference see Site Classification link of website 
     
 Base Line Corrected and Low Pass Filtered (Cut Off at 35 Hz) Time History
 Acceleration data in cm/sec**2
    
[...]
      -2.932
      -3.055
      -2.990
      -2.714
      -2.294
      -1.855
      -1.523
      -1.381
      -1.446
      -1.669
      -1.963
      -2.227
      -2.380
      -2.380
      -2.231
      -1.965
      -1.632
      -1.281
      -0.960
      -0.709
      -0.554
      -0.496
      -0.498
      -0.498
      -0.429
      -0.259
      -0.002
       0.293
       0.568
       0.775
       0.883
       0.884
       0.800
       0.701
       0.687
       0.837
       1.144
       1.486
       1.682
       1.591
       1.200
       0.634
       0.080
      -0.305
      -0.455
      -0.385
      -0.153
       0.183
       0.575
       0.972
       1.321
       1.565
       1.663
       1.605
       1.420
       1.163
       0.893
       0.649
       0.433
       0.210
      -0.073
      -0.444
      -0.873
      -1.269
      -1.516
      -1.533
      -1.333
      -1.018
      -0.737
      -0.613
      -0.691
      -0.926
      -1.216
      -1.451
      -1.558
      -1.514
      -1.347
      -1.101
      -0.817
      -0.511
      -0.177
       0.195
       0.602
       1.014
       1.382
       1.653
       1.785
       1.755
       1.566
       1.243
       0.831
       0.402
       0.038
      -0.190
      -0.251
      -0.165
       0.012
       0.219
       0.422
       0.619
       0.817
       1.016
       1.200
       1.348
       1.432
       1.428
       1.319
       1.111
       0.839
       0.560
       0.320
       0.114
      -0.108
      -0.406
      -0.809
      -1.291
      -1.799
      -2.293
      -2.759
      -3.196
      -3.588
      -3.894
      -4.062
      -4.054
      -3.863
      -3.516
      -3.062
      -2.561
      -2.064
      -1.596
      -1.156
      -0.742
      -0.368
      -0.076
       0.087
       0.103
       0.015
      -0.092
      -0.142
      -0.122
      -0.094
      -0.153
      -0.353
      -0.656
      -0.950
      -1.128
      -1.151
      -1.066
      -0.941
      -0.807
      -0.639
      -0.404
      -0.107
       0.198
       0.448
       0.612
       0.706
       0.773
       0.852
       0.967
       1.114
       1.263
       1.354
       1.322
       1.127
       0.794
       0.408
       0.074
      -0.138
      -0.225
      -0.239
      -0.248
      -0.306
      -0.436
      -0.628
      -0.846
      -1.033
      -1.116
      -1.031
      -0.754
      -0.314
       0.202
       0.690
       1.070
       1.316
       1.456
       1.555
       1.685
       1.891
       2.167
       2.430
       2.550
       2.407
       1.967
       1.314
       0.612
       0.025
      -0.354
      -0.514
      -0.494
      -0.339
      -0.086
       0.225
       0.547
       0.831
       1.051
       1.226
       1.412
       1.666
       2.012
       2.430
       2.862
       3.243
       3.518
       3.644
       3.599
       3.387
       3.046
       2.634
       2.200
       1.753
       1.274
       0.754
       0.244
      -0.157
      -0.356
      -0.331
      -0.141
       0.134
       0.453
       0.831
       1.287
       1.779
       2.193
       2.390
       2.280
       1.874
       1.271
       0.620
       0.068
      -0.278
      -0.379
      -0.266
      -0.028
       0.223
       0.389
       0.420
       0.330
       0.187
       0.078
       0.061
       0.127
       0.200
       0.169
      -0.059
      -0.507
      -1.112
      -1.733
      -2.213
      -2.439
      -2.399
      -2.184
      -1.936
      -1.774
      -1.730
      -1.743
      -1.704
      -1.527
      -1.201
      -0.795
      -0.433
      -0.231
      -0.247
      -0.441
      -0.700
      -0.882
      -0.880
      -0.662
      -0.267
       0.220
       0.704
       1.108
       1.387
       1.538
       1.603
       1.654
       1.754
       1.918
       2.107
       2.259
       2.341
       2.365
       2.371
       2.380
       2.377
       2.329
       2.218
       2.059
       1.886
       1.732
       1.610
       1.529
       1.508
       1.582
       1.777
       2.083
       2.449
       2.803
       3.081
       3.248
       3.302
       3.258
       3.147
       3.002
       2.863
       2.765
       2.720
       2.698
       2.634
       2.451
       2.107
       1.633
       1.128
       0.710
       0.461
       0.384
       0.402
       0.414
       0.348
       0.201
       0.028
      -0.109
      -0.183
      -0.231
      -0.321
      -0.518
      -0.843
      -1.274
      -1.768
      -2.288
      -2.819
      -3.362
      -3.917
      -4.466
      -4.972
      -5.392
      -5.699
      -5.882
      -5.942
      -5.880
      -5.699
      -5.409
      -5.021
      -4.540
      -3.950
      -3.211
      -2.286
      -1.170
       0.079
       1.342
       2.481
       3.394
       4.066
       4.556
       4.959
       5.333
       5.670
       5.912
       6.003
       5.929
       5.724
       5.446
       5.165
       4.944
       4.832
       4.834
       4.898
       4.922
       4.809
       4.516
       4.081
       3.588
       3.100
       2.612
       2.043
       1.296
       0.341
      -0.739
      -1.772
      -2.592
      -3.126
      -3.438
      -3.675
      -3.989
      -4.457
      -5.058
      -5.699
      -6.268
      -6.681
      -6.916
      -7.018
      -7.071
      -7.162
      -7.337
      -7.581
      -7.817
      -7.932
      -7.823
      -7.442
      -6.824
      -6.089
      -5.404
      -4.925
      -4.735
      -4.815
      -5.061
      -5.332
      -5.499
      -5.495
      -5.332
      -5.098
      -4.920
      -4.910
      -5.113
      -5.484
      -5.910
      -6.270
      -6.487
      -6.565
      -6.577
      -6.621
      -6.763
      -6.995
      -7.237
      -7.382
      -7.358
      -7.150
      -6.793
      -6.315
      -5.701
      -4.889
      -3.820
      -2.492
      -0.984
       0.569
       2.028
       3.297
       4.334
       5.141
       5.745
       6.196
       6.561
       6.908
       7.284
       7.698
       8.112
       8.439
       8.571
       8.421
       7.959
       7.233
       6.364
       5.510
       4.807
       4.316
       3.998
       3.725
       3.357
       2.819
       2.151
       1.485
       0.973
       0.711
       0.698
       0.845
       1.012
       1.072
       0.960
       0.691
       0.340
      -0.012
      -0.318
      -0.584
      -0.838
      -1.083
      -1.273
      -1.330
      -1.206
      -0.919
      -0.542
      -0.154
       0.214
       0.582
       0.992
       1.453
       1.920
       2.312
       2.561
       2.653
       2.625
       2.522
       2.340
       2.010
       1.452
       0.658
      -0.258
      -1.081
      -1.585
      -1.621
      -1.164
      -0.297
       0.834
       2.067
       3.260
       4.314
       5.177
       5.852
       6.372
       6.783
       7.114
       7.366
       7.495
       7.417
       7.036
       6.299
       5.252
       4.051
       2.908
       2.007
       1.429
       1.117
       0.910
       0.618
       0.098
      -0.706
      -1.773
      -3.041
      -4.440
      -5.906
      -7.362
      -8.723
      -9.909
     -10.873
     -11.619
     -12.183
     -12.599
     -12.872
     -12.968
     -12.850
     -12.516
     -12.030
     -11.509
     -11.075
     -10.798
     -10.672
     -10.623
     -10.556
     -10.403
     -10.155
      -9.849
      -9.527
      -9.200
      -8.847
      -8.430
      -7.924
      -7.327
      -6.654
      -5.932
      -5.209
      -4.552
      -4.030
      -3.670
      -3.428
      -3.184
      -2.788
      -2.123
      -1.161
       0.038
       1.361
       2.696
       3.970
       5.154
       6.247
       7.249
       8.155
       8.954
       9.648
      10.245
      10.739
      11.083
      11.196
      11.005
      10.497
       9.758
       8.956
       8.293
       7.930
       7.934
       8.259
       8.774
       9.320
       9.770
      10.071
      10.247
      10.369
      10.517
      10.752
      11.092
      11.510
      11.938
      12.278
      12.420
      12.261
      11.729
      10.807
       9.547
       8.049
       6.431
       4.786
       3.167
       1.613
       0.179
      -1.046
      -1.962
      -2.491
      -2.603
      -2.315
      -1.687
      -0.812
       0.193
       1.202
       2.095
       2.769
       3.119
       3.025
       2.373
       1.116
      -0.664
      -2.753
      -4.864
      -6.739
      -8.219
      -9.265
      -9.922
     -10.255
     -10.305
     -10.074
      -9.536
      -8.664
      -7.455
      -5.950
      -4.252
      -2.510
      -0.886
       0.507
       1.645
       2.593
       3.467
       4.368
       5.345
       6.390
       7.467
       8.534
       9.548
      10.448
      11.160
      11.616
      11.783
      11.664
      11.284
      10.662
       9.800
       8.701
       7.392
       5.941
       4.441
       2.997
       1.709
       0.661
      -0.085
      -0.509
      -0.632
      -0.510
      -0.220
       0.146
       0.482
       0.670
       0.604
       0.238
      -0.397
      -1.209
      -2.104
      -3.034
      -4.011
      -5.075
      -6.243
      -7.484
      -8.714
      -9.811
     -10.641
     -11.091
     -11.113
     -10.758
     -10.177
      -9.571
      -9.109
      -8.862
      -8.802
      -8.843
      -8.905
      -8.936
      -8.902
      -8.775
      -8.524
      -8.131
      -7.602
      -6.947
      -6.171
      -5.258
      -4.190
      -2.971
      -1.641
      -0.280
       1.011
       2.116
       2.923
       3.350
       3.374
       3.063
       2.567
       2.078
       1.766
       1.718
       1.922
       2.290
       2.691
       3.005
       3.166
       3.190
       3.158
       3.158
       3.247
       3.430
       3.690
       4.003
       4.351
       4.704
       5.020
       5.262
       5.407
       5.452
       5.405
       5.268
       5.050
       4.766
       4.451
       4.152
       3.928
       3.832
       3.908
       4.166
       4.568
       5.016
       5.379
       5.558
       5.540
       5.413
       5.293
       5.225
       5.119
       4.775
       3.994
       2.694
       0.980
      -0.900
      -2.666
      -4.116
      -5.180
      -5.884
      -6.299
      -6.486
      -6.497
      -6.399
      -6.282
      -6.251
      -6.389
      -6.709
      -7.158
      -7.649
      -8.115
      -8.551
      -9.015
      -9.601
     -10.387
     -11.386
     -12.510
     -13.582
     -14.404
     -14.846
     -14.911
     -14.730
     -14.491
     -14.332
     -14.283
     -14.266
     -14.148
     -13.806
     -13.163
     -12.182
     -10.856
      -9.196
      -7.242
      -5.082
      -2.872
      -0.809
       0.909
       2.153
       2.892
       3.191
       3.157
       2.893
       2.473
       1.952
       1.396
       0.895
       0.555
       0.475
       0.722
       1.318
       2.240
       3.438
       4.847
       6.388
       7.976
       9.509
      10.885
      12.033
      12.939
      13.648
      14.244
      14.801
      15.353
      15.866
      16.247
      16.369
      16.104
      15.365
      14.142
      12.531
      10.731
       8.992
       7.526
       6.431
       5.662
       5.078
       4.539
       3.997
       3.522
       3.245
       3.261
       3.560
       4.029
       4.493
       4.790
       4.821
       4.572
       4.092
       3.455
       2.736
       1.994
       1.270
       0.574
      -0.116
      -0.866
      -1.763
      -2.880
      -4.217
      -5.678
      -7.096
      -8.303
      -9.195
      -9.750
     -10.006
     -10.011
      -9.809
      -9.431
      -8.898
      -8.224
      -7.410
      -6.467
      -5.433
      -4.381
      -3.408
      -2.602
      -2.024
      -1.700
      -1.622
      -1.753
      -2.023
      -2.330
      -2.559
      -2.615
      -2.456
      -2.108
      -1.658
      -1.215
      -0.876
      -0.703
      -0.710
      -0.873
      -1.114
      -1.311
      -1.322
      -1.041
      -0.459
       0.326
       1.167
       1.947
       2.635
       3.258
       3.836
       4.322
       4.602
       4.559
       4.147
       3.439
       2.602
       1.820
       1.210
       0.782
       0.457
       0.141
      -0.191
      -0.457
      -0.507
      -0.205
       0.492
       1.499
       2.621
       3.602
       4.193
       4.215
       3.622
       2.531
       1.209
      -0.016
      -0.875
      -1.265
      -1.273
      -1.113
      -1.014
      -1.127
      -1.491
      -2.055
      -2.711
      -3.340
      -3.837
      -4.142
      -4.238
      -4.149
      -3.928
      -3.639
      -3.362
      -3.183
      -3.185
      -3.420
      -3.882
      -4.491
      -5.096
      -5.504
      -5.534
      -5.076
      -4.128
      -2.788
      -1.225
       0.381
       1.866
       3.116
       4.080
       4.800
       5.414
       6.117
       7.066
       8.285
       9.646
      10.935
      11.969
      12.676
      13.108
      13.388
      13.664
      14.070
      14.692
      15.537
      16.502
      17.382
      17.942
      17.997
      17.474
      16.405
      14.891
      13.069
      11.110
       9.209
       7.552
       6.239
       5.230
       4.363
       3.440
       2.327
       1.009
      -0.425
      -1.833
      -3.089
      -4.142
      -5.039
      -5.918
      -6.951
      -8.266
      -9.882
     -11.688
     -13.479
     -15.048
     -16.277
     -17.192
     -17.913
     -18.575
     -19.242
     -19.908
     -20.539
     -21.116
     -21.629
     -22.042
     -22.274
     -22.219
     -21.798
     -20.997
     -19.874
     -18.517
     -17.020
     -15.459
     -13.912
     -12.467
     -11.213
     -10.193
      -9.378
      -8.658
      -7.900
      -7.011
      -5.980
      -4.864
      -3.742
      -2.671
      -1.680
      -0.788
      -0.017
       0.614
       1.114
       1.531
       1.941
       2.414
       2.956
       3.494
       3.904
       4.087
       4.037
       3.863
       3.733
       3.794
       4.095
       4.576
       5.114
       5.604
       6.033
       6.491
       7.114
       7.990
       9.089
      10.264
      11.329
      12.140
      12.635
      12.810
      12.672
      12.226
      11.489
      10.521
       9.430
       8.356
       7.429
       6.742
       6.345
       6.252
       6.449
       6.881
       7.440
       7.972
       8.312
       8.343
       8.039
       7.473
       6.781
       6.088
       5.454
       4.870
       4.297
       3.719
       3.157
       2.644
       2.188
       1.755
       1.293
       0.769
       0.196
      -0.377
      -0.889
      -1.292
      -1.564
      -1.704
      -1.718
      -1.606
      -1.367
      -1.022
      -0.642
      -0.346
      -0.255
      -0.429
      -0.826
      -1.308
      -1.684
      -1.780
      -1.492
      -0.811
       0.167
       1.261
       2.245
       2.919
       3.179
       3.049
       2.661
       2.197
       1.835
       1.710
       1.900
       2.413
       3.192
       4.136
       5.121
       6.047
       6.846
       7.459
       7.797
       7.732
       7.132
       5.929
       4.185
       2.103
      -0.036
      -1.962
      -3.503
      -4.616
      -5.358
      -5.834
      -6.147
      -6.367
      -6.517
      -6.559
      -6.427
      -6.084
      -5.595
      -5.153
      -5.018
      -5.398
      -6.346
      -7.733
      -9.319
     -10.878
     -12.263
     -13.410
     -14.273
     -14.780
     -14.832
     -14.350
     -13.338
     -11.921
     -10.337
      -8.887
      -7.853
      -7.417
      -7.612
      -8.331
      -9.380
     -10.544
     -11.625
     -12.443
     -12.821
     -12.597
     -11.666
     -10.039
      -7.873
      -5.448
      -3.076
      -1.004
       0.669
       1.999
       3.146
       4.287
       5.533
       6.879
       8.225
       9.431
      10.386
      11.047
      11.443
      11.638
      11.694
      11.630
      11.403
      10.929
      10.133
       8.998
       7.606
       6.120
       4.732
       3.605
       2.838
       2.462
       2.473
       2.858
       3.604
       4.689
       6.069
       7.662
       9.341
      10.928
      12.231
      13.083
      13.392
      13.154
      12.441
      11.378
      10.135
       8.904
       7.861
       7.105
       6.620
       6.300
       6.008
       5.646
       5.173
       4.599
       3.965
       3.324
       2.731
       2.216
       1.758
       1.284
       0.709
      -0.001
      -0.772
      -1.426
      -1.744
      -1.574
      -0.922
       0.031
       0.989
       1.637
       1.747
       1.236
       0.198
      -1.143
      -2.507
      -3.651
      -4.444
      -4.908
      -5.197
      -5.533
      -6.112
      -7.030
      -8.245
      -9.609
     -10.939
     -12.086
     -12.977
     -13.616
     -14.067
     -14.410
     -14.697
     -14.921
     -15.008
     -14.861
     -14.426
     -13.750
     -12.985
     -12.311
     -11.836
     -11.542
     -11.316
     -11.027
     -10.605
     -10.066
      -9.476
      -8.890
      -8.311
      -7.692
      -6.961
      -6.045
      -4.903
      -3.538
      -2.015
      -0.435
       1.090
       2.475
       3.692
       4.778
       5.814
       6.883
       8.013
       9.143
      10.141
      10.866
      11.249
      11.331
      11.249
      11.160
      11.168
      11.274
      11.403
      11.454
      11.355
      11.079
      10.649
      10.109
       9.504
       8.860
       8.189
       7.493
       6.783
       6.074
       5.375
       4.671
       3.940
       3.184
       2.458
       1.858
       1.487
       1.419
       1.677
       2.217
       2.918
       3.597
       4.054
       4.133
       3.757
       2.927
       1.689
       0.125
      -1.654
      -3.495
      -5.214
      -6.631
      -7.610
      -8.086
      -8.063
      -7.606
      -6.816
      -5.810
      -4.698
      -3.571
      -2.507
      -1.580
      -0.880
      -0.507
      -0.538
      -0.975
      -1.709
      -2.529
      -3.179
      -3.441
      -3.194
      -2.439
      -1.297
       0.025
       1.300
       2.363
       3.184
       3.849
       4.483
       5.146
       5.796
       6.327
       6.639
       6.693
       6.507
       6.135
       5.649
       5.123
       4.641
       4.282
       4.104
       4.138
       4.369
       4.733
       5.113
       5.374
       5.412
       5.206
       4.836
       4.434
       4.103
       3.859
       3.638
       3.352
       2.957
       2.468
       1.928
       1.364
       0.773
       0.135
      -0.557
      -1.278
      -1.973
      -2.579
      -3.056
      -3.425
      -3.767
      -4.185
      -4.746
      -5.424
      -6.112
      -6.673
      -7.008
      -7.094
      -6.985
      -6.799
      -6.683
      -6.771
      -7.130
      -7.719
      -8.390
      -8.947
      -9.241
      -9.236
      -9.015
      -8.724
      -8.500
      -8.426
      -8.512
      -8.705
      -8.906
      -8.987
      -8.814
      -8.266
      -7.258
      -5.761
      -3.821
      -1.560
       0.819
       3.075
       4.987
       6.416
       7.342
       7.841
       8.041
       8.060
       7.975
       7.828
       7.648
       7.478
       7.371
       7.368
       7.471
       7.649
       7.874
       8.153
       8.523
       9.004
