Origin Time       18/9/2011 12:40:47	
Lat.              27.6 N	
Long.             88.2 E	
Depth (Km)         10.0
Magnitude         6.8
 Region           India(Sikkim)-Nepar-Border                                       
 Above details taken from IMD 
   
Station Code      KOK
Station Lat.       26.400
Station Long.      90.261
Station Height(m)   54.0
Site Class        C   Vs30 between 200 m/sec to 375 m/sec *  
Record Time       18.09.2011 12:41:04.704
Sampling Rate     200. Hz
 Record Duration  199.785 Sec.
 Direction         Vert. (Up positive)
Max. Acceleration     29.138 cm/sec**2
     
  * For reference see Site Classification link of website 
     
 Base Line Corrected and Low Pass Filtered (Cut Off at 35 Hz) Time History
 Acceleration data in cm/sec**2
    
[...]
      -0.736
      -3.141
      -5.071
      -6.353
      -6.844
      -6.524
      -5.567
      -4.297
      -3.048
      -2.043
      -1.377
      -1.063
      -1.091
      -1.450
      -2.108
      -2.996
      -3.988
      -4.905
      -5.541
      -5.720
      -5.362
      -4.529
      -3.390
      -2.130
      -0.846
       0.461
       1.810
       3.122
       4.204
       4.834
       4.890
       4.431
       3.661
       2.811
       2.012
       1.279
       0.601
       0.045
      -0.227
      -0.072
       0.500
       1.284
       1.995
       2.433
       2.575
       2.542
       2.503
       2.603
       2.952
       3.617
       4.573
       5.654
       6.566
       7.003
       6.785
       5.917
       4.537
       2.825
       0.970
      -0.820
      -2.302
      -3.254
      -3.569
      -3.317
      -2.687
      -1.871
      -0.991
      -0.133
       0.563
       0.872
       0.572
      -0.389
      -1.802
      -3.274
      -4.430
      -5.067
      -5.137
      -4.608
      -3.393
      -1.454
       1.028
       3.609
       5.761
       7.109
       7.539
       7.154
       6.145
       4.700
       2.977
       1.141
      -0.608
      -2.040
      -2.934
      -3.174
      -2.810
      -2.051
      -1.174
      -0.403
       0.160
       0.506
       0.629
       0.466
      -0.068
      -1.004
      -2.272
      -3.726
      -5.208
      -6.572
      -7.678
      -8.377
      -8.548
      -8.144
      -7.213
      -5.861
      -4.214
      -2.416
      -0.644
       0.887
       1.974
       2.510
       2.562
       2.369
       2.248
       2.447
       3.035
       3.911
       4.905
       5.877
       6.719
       7.324
       7.574
       7.395
       6.822
       6.007
       5.148
       4.392
       3.810
       3.431
       3.306
       3.505
       4.044
       4.816
       5.623
       6.274
       6.663
       6.754
       6.516
       5.897
       4.845
       3.351
       1.464
      -0.697
      -2.949
      -5.064
      -6.823
      -8.078
      -8.780
      -8.970
      -8.758
      -8.296
      -7.755
      -7.267
      -6.869
      -6.509
      -6.095
      -5.549
      -4.823
      -3.894
      -2.773
      -1.539
      -0.351
       0.596
       1.153
       1.317
       1.248
       1.181
       1.287
       1.579
       1.947
       2.271
       2.517
       2.721
       2.910
       3.057
       3.101
       3.007
       2.780
       2.454
       2.062
       1.620
       1.116
       0.504
      -0.269
      -1.215
      -2.271
      -3.314
      -4.220
      -4.903
      -5.321
      -5.475
      -5.408
      -5.208
      -4.973
      -4.759
      -4.549
      -4.266
      -3.826
      -3.177
      -2.332
      -1.354
      -0.330
       0.658
       1.548
       2.310
       2.952
       3.520
       4.069
       4.620
       5.110
       5.386
       5.253
       4.569
       3.342
       1.758
       0.128
      -1.205
      -1.965
      -2.004
      -1.302
       0.060
       1.917
       4.014
       5.990
       7.401
       7.804
       6.898
       4.653
       1.363
      -2.415
      -6.024
      -8.891
     -10.654
     -11.171
     -10.431
      -8.484
      -5.467
      -1.708
       2.229
       5.658
       7.991
       8.919
       8.439
       6.773
       4.257
       1.270
      -1.775
      -4.428
      -6.233
      -6.840
      -6.139
      -4.324
      -1.825
       0.851
       3.280
       5.202
       6.518
       7.214
       7.263
       6.588
       5.123
       2.954
       0.402
      -2.037
      -3.890
      -4.897
      -5.075
      -4.620
      -3.755
      -2.647
      -1.426
      -0.244
       0.724
       1.328
       1.518
       1.367
       1.025
       0.638
       0.298
       0.067
       0.025
       0.271
       0.852
       1.685
       2.557
       3.227
       3.537
       3.455
       3.036
       2.366
       1.564
       0.813
       0.357
       0.430
       1.154
       2.473
       4.166
       5.923
       7.443
       8.491
       8.911
       8.637
       7.697
       6.212
       4.368
       2.350
       0.302
      -1.670
      -3.458
      -4.951
      -6.071
      -6.841
      -7.380
      -7.800
      -8.081
      -8.053
      -7.512
      -6.388
      -4.813
      -3.062
      -1.418
      -0.093
       0.786
       1.149
       0.993
       0.414
      -0.383
      -1.146
      -1.673
      -1.876
      -1.733
      -1.203
      -0.217
       1.227
       2.939
       4.516
       5.458
       5.360
       4.050
       1.630
      -1.569
      -5.081
      -8.441
     -11.327
     -13.616
     -15.304
     -16.340
     -16.548
     -15.709
     -13.735
     -10.762
      -7.090
      -3.045
       1.101
       5.100
       8.664
      11.446
      13.113
      13.471
      12.572
      10.730
       8.446
       6.259
       4.584
       3.604
       3.268
       3.386
       3.747
       4.180
       4.535
       4.651
       4.370
       3.604
       2.392
       0.891
      -0.685
      -2.147
      -3.365
      -4.249
      -4.706
      -4.623
      -3.912
      -2.592
      -0.845
       1.021
       2.700
       4.013
       4.964
       5.659
       6.165
       6.429
       6.325
       5.775
       4.814
       3.528
       1.944
       0.015
      -2.273
      -4.780
      -7.194
      -9.144
     -10.355
     -10.737
     -10.366
      -9.391
      -7.972
      -6.267
      -4.440
      -2.622
      -0.862
       0.856
       2.508
       3.942
       4.894
       5.142
       4.682
       3.793
       2.941
       2.579
       2.988
       4.213
       6.101
       8.353
      10.568
      12.295
      13.118
      12.755
      11.120
       8.331
       4.654
       0.458
      -3.801
      -7.602
     -10.413
     -11.807
     -11.596
      -9.930
      -7.265
      -4.219
      -1.377
       0.825
       2.150
       2.561
       2.221
       1.450
       0.615
      -0.009
      -0.313
      -0.307
      -0.049
       0.365
       0.745
       0.789
       0.185
      -1.198
      -3.190
      -5.390
      -7.379
      -8.903
      -9.880
     -10.250
      -9.861
      -8.518
      -6.187
      -3.144
       0.081
       2.941
       5.104
       6.492
       7.155
       7.132
       6.439
       5.180
       3.621
       2.153
       1.156
       0.843
       1.193
       2.000
       3.021
       4.103
       5.207
       6.334
       7.434
       8.390
       9.029
       9.150
       8.549
       7.088
       4.744
       1.634
      -2.010
      -5.858
      -9.485
     -12.405
     -14.170
     -14.524
     -13.496
     -11.374
      -8.591
      -5.564
      -2.604
       0.084
       2.327
       3.927
       4.682
       4.464
       3.292
       1.355
      -1.026
      -3.469
      -5.601
      -7.104
      -7.761
      -7.496
      -6.384
      -4.614
      -2.436
      -0.136
       1.965
       3.544
       4.362
       4.354
       3.641
       2.425
       0.859
      -0.995
      -3.078
      -5.247
      -7.268
      -8.887
      -9.903
     -10.178
      -9.624
      -8.205
      -5.986
      -3.165
      -0.050
       3.025
       5.790
       8.063
       9.703
      10.529
      10.326
       8.957
       6.522
       3.433
       0.298
      -2.309
      -4.028
      -4.739
      -4.485
      -3.378
      -1.578
       0.676
       3.053
       5.171
       6.703
       7.479
       7.508
       6.924
       5.922
       4.725
       3.597
       2.821
       2.641
       3.175
       4.354
       5.935
       7.564
       8.857
       9.481
       9.209
       7.979
       5.928
       3.387
       0.794
      -1.421
      -2.936
      -3.581
      -3.353
      -2.415
      -1.089
       0.216
       1.129
       1.443
       1.156
       0.418
      -0.557
      -1.567
      -2.430
      -2.990
      -3.115
      -2.728
      -1.861
      -0.677
       0.550
       1.530
       2.045
       2.007
       1.434
       0.382
      -1.077
      -2.827
      -4.664
      -6.334
      -7.617
      -8.360
      -8.450
      -7.809
      -6.476
      -4.697
      -2.910
      -1.582
      -1.003
      -1.186
      -1.939
      -2.989
      -4.054
      -4.845
      -5.096
      -4.638
      -3.489
      -1.860
      -0.034
       1.767
       3.416
       4.782
       5.628
       5.637
       4.599
       2.602
       0.067
      -2.402
      -4.259
      -5.216
      -5.288
      -4.673
      -3.554
      -1.988
       0.030
       2.395
       4.799
       6.839
       8.237
       8.970
       9.215
       9.184
       9.007
       8.750
       8.477
       8.287
       8.278
       8.477
       8.791
       8.999
       8.792
       7.867
       6.033
       3.290
      -0.142
      -3.863
      -7.411
     -10.427
     -12.750
     -14.371
     -15.272
     -15.349
     -14.501
     -12.816
     -10.660
      -8.559
      -6.955
      -6.031
      -5.742
      -5.955
      -6.560
      -7.453
      -8.429
      -9.113
      -9.050
      -7.912
      -5.693
      -2.737
       0.438
       3.375
       5.821
       7.707
       9.037
       9.805
       9.987
       9.565
       8.562
       7.060
       5.231
       3.362
       1.799
       0.827
       0.541
       0.840
       1.511
       2.329
       3.104
       3.686
       3.980
       3.974
       3.759
       3.469
       3.179
       2.826
       2.240
       1.277
      -0.044
      -1.536
      -2.957
      -4.136
      -5.008
      -5.573
      -5.839
      -5.800
      -5.459
      -4.881
      -4.238
      -3.783
      -3.735
      -4.153
      -4.898
      -5.744
      -6.510
      -7.114
      -7.516
      -7.618
      -7.262
      -6.324
      -4.808
      -2.860
      -0.715
       1.347
       3.056
       4.225
       4.846
       5.095
       5.215
       5.326
       5.340
       5.071
       4.443
       3.602
       2.794
       2.136
       1.507
       0.693
      -0.352
      -1.375
      -1.972
      -1.886
      -1.207
      -0.326
       0.308
       0.427
       0.038
      -0.634
      -1.281
      -1.624
      -1.473
      -0.756
       0.448
       1.907
       3.297
       4.312
       4.769
       4.649
       4.044
       3.080
       1.834
       0.312
      -1.516
      -3.625
      -5.844
      -7.828
      -9.148
      -9.480
      -8.765
      -7.254
      -5.384
      -3.564
      -2.031
      -0.852
      -0.039
       0.372
       0.372
       0.077
      -0.236
      -0.249
       0.235
       1.199
       2.476
       3.850
       5.139
       6.185
       6.835
       6.970
       6.584
       5.838
       5.021
       4.417
       4.175
       4.263
       4.520
       4.775
       4.944
       5.043
       5.120
       5.179
       5.172
       5.056
       4.851
       4.652
       4.588
       4.742
       5.098
       5.540
       5.937
       6.221
       6.397
       6.453
       6.259
       5.586
       4.218
       2.100
      -0.586
      -3.468
      -6.120
      -8.212
      -9.578
     -10.177
     -10.009
      -9.076
      -7.427
      -5.244
      -2.861
      -0.669
       1.032
       2.137
       2.743
       3.075
       3.376
       3.830
       4.508
       5.368
       6.294
       7.159
       7.878
       8.404
       8.675
       8.572
       7.946
       6.736
       5.034
       3.049
       0.984
      -1.052
      -3.029
      -4.913
      -6.632
      -8.104
      -9.287
     -10.176
     -10.760
     -10.968
     -10.668
      -9.753
      -8.240
      -6.324
      -4.308
      -2.504
      -1.132
      -0.293
      -0.004
      -0.245
      -0.999
      -2.242
      -3.870
      -5.646
      -7.227
      -8.270
      -8.555
      -8.045
      -6.864
      -5.231
      -3.394
      -1.591
      -0.039
       1.085
       1.697
       1.831
       1.609
       1.177
       0.684
       0.293
       0.180
       0.486
       1.236
       2.321
       3.526
       4.625
       5.442
       5.888
       5.953
       5.681
       5.144
       4.440
       3.655
       2.804
       1.782
       0.405
      -1.456
      -3.726
      -6.108
      -8.223
      -9.817
     -10.886
     -11.623
     -12.224
     -12.718
     -12.936
     -12.641
     -11.704
     -10.175
      -8.223
      -6.023
      -3.691
      -1.333
       0.871
       2.653
       3.723
       3.901
       3.197
       1.826
       0.125
      -1.539
      -2.871
      -3.723
      -4.122
      -4.221
      -4.219
      -4.250
      -4.338
      -4.417
      -4.416
      -4.309
      -4.095
      -3.726
      -3.085
      -2.048
      -0.554
       1.350
       3.528
       5.795
       7.953
       9.816
      11.227
      12.083
      12.360
      12.130
      11.545
      10.793
      10.046
       9.417
       8.932
       8.532
       8.113
       7.564
       6.776
       5.631
       4.038
       2.014
      -0.244
      -2.404
      -4.149
      -5.306
      -5.847
      -5.782
      -5.096
      -3.771
      -1.871
       0.419
       2.856
       5.226
       7.339
       8.932
       9.632
       9.055
       7.027
       3.744
      -0.247
      -4.266
      -7.769
     -10.488
     -12.398
     -13.575
     -14.083
     -13.965
     -13.294
     -12.203
     -10.884
      -9.544
      -8.382
      -7.546
      -7.087
      -6.946
      -6.970
      -6.940
      -6.565
      -5.511
      -3.504
      -0.449
       3.528
       8.151
      13.066
      17.871
      22.129
      25.466
      27.696
      28.864
      29.138
      28.671
      27.527
      25.716
      23.249
      20.191
      16.705
      13.061
       9.580
       6.523
       4.027
       2.113
       0.740
      -0.189
      -0.868
      -1.572
      -2.524
      -3.758
      -5.114
      -6.380
      -7.436
      -8.300
      -9.053
      -9.759
     -10.431
     -11.052
     -11.593
     -11.987
     -12.104
     -11.794
     -11.009
      -9.891
      -8.702
      -7.620
      -6.601
      -5.445
      -4.031
      -2.500
      -1.209
      -0.518
      -0.568
      -1.204
      -2.091
      -2.882
      -3.333
      -3.302
      -2.713
      -1.535
       0.174
       2.237
       4.371
       6.241
       7.533
       8.041
       7.737
       6.740
       5.231
       3.380
       1.319
      -0.835
      -2.995
      -5.123
      -7.210
      -9.198
     -10.868
     -11.839
     -11.771
     -10.620
      -8.737
      -6.688
      -4.987
      -3.942
      -3.676
      -4.172
      -5.287
      -6.761
      -8.270
      -9.517
     -10.306
     -10.537
     -10.154
      -9.098
      -7.318
      -4.844
      -1.862
       1.250
       3.971
       5.779
       6.352
       5.692
       4.089
       1.960
      -0.260
      -2.151
      -3.320
      -3.469
      -2.522
      -0.693
       1.563
       3.719
       5.347
       6.174
       6.052
       4.913
       2.800
      -0.065
      -3.275
      -6.332
      -8.774
     -10.293
     -10.804
     -10.426
      -9.387
      -7.907
      -6.176
      -4.382
      -2.714
      -1.266
       0.036
       1.390
       2.926
       4.536
       5.888
       6.609
       6.480
       5.549
       4.116
       2.627
       1.528
       1.132
       1.497
       2.409
       3.499
       4.442
       5.108
       5.574
       6.016
       6.584
       7.354
       8.338
       9.512
      10.792
      11.993
      12.834
      13.038
      12.497
      11.390
      10.161
       9.323
       9.210
       9.823
      10.870
      11.938
      12.668
      12.814
      12.187
      10.621
       7.993
       4.315
      -0.172
      -4.985
      -9.504
     -13.153
     -15.569
     -16.653
     -16.500
     -15.257
     -13.039
      -9.990
      -6.411
      -2.826
       0.120
       1.918
       2.429
       1.924
       0.914
      -0.119
      -0.885
      -1.268
      -1.199
      -0.598
       0.557
       2.114
       3.723
       4.934
       5.373
       4.870
       3.504
       1.535
      -0.685
      -2.792
      -4.455
      -5.413
      -5.511
      -4.769
      -3.421
      -1.856
      -0.473
       0.474
       0.935
       1.036
       0.988
       1.001
       1.239
       1.826
       2.883
       4.506
       6.691
       9.221
      11.633
      13.338
      13.871
      13.071
      11.114
       8.379
       5.281
       2.175
      -0.638
      -2.877
      -4.278
      -4.655
      -3.970
      -2.396
      -0.318
       1.752
       3.308
       3.987
       3.645
       2.346
       0.312
      -2.145
      -4.657
      -6.849
      -8.390
      -9.072
      -8.854
      -7.878
      -6.431
      -4.875
      -3.572
      -2.792
      -2.673
      -3.210
      -4.293
      -5.743
      -7.297
      -8.596
      -9.226
      -8.857
      -7.419
      -5.167
      -2.584
      -0.188
       1.623
       2.603
       2.614
       1.600
      -0.349
      -2.920
      -5.584
      -7.749
      -8.971
      -9.072
      -8.104
      -6.241
      -3.690
      -0.677
       2.560
       5.802
       8.888
      11.717
      14.173
      16.062
      17.151
      17.287
      16.494
      14.944
      12.870
      10.479
       7.945
       5.433
       3.096
       1.044
      -0.690
      -2.137
      -3.359
      -4.419
      -5.335
      -6.064
      -6.522
      -6.675
      -6.606
      -6.499
      -6.522
      -6.738
      -7.123
      -7.647
      -8.314
      -9.099
      -9.878
     -10.439
     -10.595
     -10.321
      -9.797
      -9.326
      -9.181
      -9.473
     -10.108
     -10.826
     -11.283
     -11.181
     -10.387
      -8.981
      -7.184
      -5.236
      -3.311
      -1.510
       0.116
       1.548
       2.783
       3.814
       4.609
       5.138
       5.423
       5.572
       5.726
       5.962
       6.232
       6.397
       6.350
       6.133
       5.962
       6.112
       6.725
       7.679
       8.652
       9.311
       9.493
       9.224
       8.596
       7.665
       6.432
       4.882
       3.049
       1.059
      -0.920
      -2.776
      -4.506
      -6.165
      -7.750
      -9.140
     -10.147
     -10.630
     -10.556
      -9.988
      -9.037
      -7.834
      -6.534
      -5.321
      -4.401
      -3.958
      -4.086
      -4.719
      -5.614
      -6.422
      -6.836
      -6.732
      -6.191
      -5.409
      -4.571
      -3.775
      -3.034
      -2.333
      -1.681
      -1.124
      -0.737
      -0.580
      -0.646
      -0.824
      -0.935
      -0.834
      -0.487
       0.032
       0.630
       1.269
       1.973
       2.746
       3.474
       3.944
       3.994
       3.675
       3.256
       3.038
       3.131
       3.389
       3.542
       3.405
       2.983
       2.412
       1.812
       1.194
       0.462
      -0.506
      -1.785
      -3.353
      -5.064
      -6.649
      -7.776
      -8.191
      -7.833
      -6.805
      -5.221
      -3.086
      -0.366
       2.802
       6.019
       8.755
      10.615
      11.457
      11.319
      10.291
       8.490
       6.154
       3.701
       1.626
       0.300
      -0.192
      -0.042
       0.418
       0.882
       1.148
       1.120
       0.784
       0.186
      -0.585
      -1.413
      -2.186
      -2.797
      -3.127
      -3.024
      -2.359
      -1.112
       0.590
       2.518
