Origin Time       31/12/2009 09:57:00
Lat.              27.3°N	
Long.             91.4°E	
Depth (Km)          7.0
Magnitude         5.5
 Region           BHUTAN                                                           
 Above details taken from IMD 
     
Station Code      KOK
Station Lat.       26.400  N
Station Long.      90.261  E
Station Height(m)   53.0
Site Class        C   Vs30 between 200 m/sec to 375 m/sec *  
Record Time       31.12.2009 09:58:01.134
Sampling Rate     200. Hz
 Record Duration   78.130 Sec.
 Direction         E-W (E positive)
Max. Acceleration     10.765 cm/sec**2
     
  * For reference see Site Classification link of website 
     
 Base Line Corrected and Low Pass Filtered (Cut Off at 35 Hz) Time History
 Acceleration data in cm/sec**2
    
[...]
       0.478
       0.597
       0.712
       0.833
       0.962
       1.096
       1.228
       1.347
       1.432
       1.454
       1.392
       1.249
       1.053
       0.849
       0.670
       0.526
       0.402
       0.281
       0.156
       0.033
      -0.077
      -0.168
      -0.248
      -0.319
      -0.377
      -0.401
      -0.376
      -0.306
      -0.225
      -0.184
      -0.222
      -0.345
      -0.521
      -0.691
      -0.806
      -0.840
      -0.804
      -0.730
      -0.652
      -0.595
      -0.566
      -0.557
      -0.550
      -0.523
      -0.460
      -0.364
      -0.256
      -0.168
      -0.124
      -0.128
      -0.159
      -0.189
      -0.189
      -0.146
      -0.065
       0.035
       0.131
       0.210
       0.263
       0.290
       0.297
       0.295
       0.299
       0.327
       0.393
       0.500
       0.637
       0.779
       0.892
       0.949
       0.940
       0.879
       0.790
       0.693
       0.599
       0.508
       0.422
       0.348
       0.289
       0.249
       0.226
       0.219
       0.226
       0.237
       0.237
       0.207
       0.147
       0.072
       0.007
      -0.034
      -0.066
      -0.111
      -0.186
      -0.281
      -0.367
      -0.409
      -0.392
      -0.322
      -0.226
      -0.131
      -0.058
      -0.017
      -0.012
      -0.047
      -0.118
      -0.207
      -0.291
      -0.349
      -0.374
      -0.377
      -0.375
      -0.377
      -0.380
      -0.367
      -0.324
      -0.248
      -0.161
      -0.098
      -0.088
      -0.140
      -0.238
      -0.356
      -0.463
      -0.534
      -0.556
      -0.532
      -0.476
      -0.408
      -0.348
      -0.306
      -0.285
      -0.278
      -0.275
      -0.264
      -0.235
      -0.183
      -0.103
       0.013
       0.167
       0.354
       0.555
       0.741
       0.883
       0.972
       1.014
       1.026
       1.017
       0.995
       0.958
       0.907
       0.834
       0.733
       0.603
       0.464
       0.353
       0.305
       0.342
       0.457
       0.619
       0.783
       0.905
       0.944
       0.883
       0.724
       0.491
       0.221
      -0.045
      -0.270
      -0.434
      -0.536
      -0.590
      -0.622
      -0.650
      -0.680
      -0.700
      -0.691
      -0.632
      -0.524
      -0.390
      -0.266
      -0.187
      -0.172
      -0.221
      -0.320
      -0.446
      -0.566
      -0.647
      -0.660
      -0.595
      -0.466
      -0.312
      -0.182
      -0.116
      -0.126
      -0.197
      -0.290
      -0.361
      -0.378
      -0.335
      -0.245
      -0.132
      -0.019
       0.090
       0.204
       0.333
       0.476
       0.621
       0.746
       0.835
       0.884
       0.900
       0.894
       0.879
       0.859
       0.832
       0.798
       0.755
       0.709
       0.660
       0.602
       0.514
       0.381
       0.204
       0.009
      -0.170
      -0.317
      -0.442
      -0.569
      -0.711
      -0.850
      -0.950
      -0.985
      -0.958
      -0.909
      -0.890
      -0.945
      -1.078
      -1.258
      -1.424
      -1.517
      -1.502
      -1.380
      -1.186
      -0.971
      -0.779
      -0.625
      -0.499
      -0.388
      -0.295
      -0.241
      -0.243
      -0.291
      -0.349
      -0.376
      -0.358
      -0.306
      -0.246
      -0.184
      -0.107
       0.008
       0.174
       0.376
       0.577
       0.742
       0.850
       0.903
       0.910
       0.876
       0.797
       0.671
       0.512
       0.354
       0.236
       0.183
       0.201
       0.274
       0.378
       0.478
       0.541
       0.546
       0.492
       0.398
       0.285
       0.169
       0.055
      -0.043
      -0.103
      -0.107
      -0.052
       0.034
       0.114
       0.152
       0.141
       0.095
       0.038
      -0.019
      -0.084
      -0.169
      -0.270
      -0.354
      -0.375
      -0.311
      -0.185
      -0.058
       0.019
       0.042
       0.056
       0.109
       0.204
       0.297
       0.334
       0.296
       0.213
       0.137
       0.111
       0.157
       0.267
       0.414
       0.558
       0.662
       0.703
       0.683
       0.626
       0.559
       0.488
       0.401
       0.276
       0.106
      -0.091
      -0.286
      -0.458
      -0.602
      -0.721
      -0.804
      -0.832
      -0.795
      -0.699
      -0.570
      -0.438
      -0.337
      -0.292
      -0.311
      -0.370
      -0.424
      -0.425
      -0.355
      -0.235
      -0.107
      -0.008
       0.041
       0.039
      -0.009
      -0.091
      -0.178
      -0.234
      -0.223
      -0.138
      -0.007
       0.119
       0.203
       0.246
       0.285
       0.364
       0.505
       0.694
       0.889
       1.039
       1.107
       1.085
       0.999
       0.894
       0.806
       0.742
       0.679
       0.586
       0.455
       0.310
       0.189
       0.113
       0.075
       0.046
       0.000
      -0.073
      -0.168
      -0.269
      -0.357
      -0.421
      -0.457
      -0.474
      -0.487
      -0.507
      -0.541
      -0.590
      -0.654
      -0.725
      -0.791
      -0.837
      -0.858
      -0.862
      -0.864
      -0.869
      -0.873
      -0.871
      -0.867
      -0.876
      -0.904
      -0.938
      -0.943
      -0.881
      -0.734
      -0.511
      -0.251
       0.006
       0.230
       0.417
       0.578
       0.727
       0.858
       0.951
       0.985
       0.959
       0.894
       0.827
       0.780
       0.763
       0.771
       0.792
       0.816
       0.825
       0.808
       0.760
       0.690
       0.615
       0.550
       0.500
       0.457
       0.402
       0.323
       0.230
       0.154
       0.128
       0.159
       0.223
       0.275
       0.276
       0.214
       0.094
      -0.070
      -0.261
      -0.464
      -0.651
      -0.793
      -0.865
      -0.861
      -0.796
      -0.703
      -0.611
      -0.535
      -0.471
      -0.410
      -0.352
      -0.306
      -0.284
      -0.285
      -0.295
      -0.295
      -0.274
      -0.224
      -0.135
       0.002
       0.182
       0.378
       0.551
       0.669
       0.723
       0.731
       0.718
       0.705
       0.702
       0.702
       0.698
       0.684
       0.665
       0.654
       0.664
       0.699
       0.744
       0.765
       0.725
       0.609
       0.435
       0.243
       0.070
      -0.072
      -0.195
      -0.306
      -0.395
      -0.437
      -0.418
      -0.353
      -0.277
      -0.216
      -0.177
      -0.153
      -0.142
      -0.155
      -0.213
      -0.331
      -0.506
      -0.713
      -0.908
      -1.044
      -1.092
      -1.057
      -0.978
      -0.904
      -0.872
      -0.883
      -0.905
      -0.891
      -0.806
      -0.654
      -0.483
      -0.357
      -0.320
      -0.367
      -0.454
      -0.526
      -0.559
      -0.564
      -0.569
      -0.580
      -0.571
      -0.501
      -0.353
      -0.152
       0.036
       0.147
       0.174
       0.185
       0.289
       0.545
       0.906
       1.230
       1.371
       1.276
       1.023
       0.764
       0.616
       0.585
       0.581
       0.519
       0.400
       0.303
       0.298
       0.377
       0.461
       0.477
       0.407
       0.278
       0.128
      -0.019
      -0.160
      -0.293
      -0.415
      -0.510
      -0.574
      -0.617
      -0.651
      -0.664
      -0.626
      -0.532
      -0.422
      -0.368
      -0.414
      -0.545
      -0.689
      -0.781
      -0.795
      -0.749
      -0.677
      -0.602
      -0.522
      -0.419
      -0.284
      -0.121
       0.047
       0.196
       0.311
       0.398
       0.470
       0.533
       0.576
       0.581
       0.545
       0.494
       0.463
       0.473
       0.518
       0.575
       0.617
       0.618
       0.570
       0.484
       0.391
       0.318
       0.270
       0.225
       0.145
       0.008
      -0.177
      -0.373
      -0.531
      -0.612
      -0.600
      -0.506
      -0.365
      -0.235
      -0.167
      -0.189
      -0.293
      -0.438
      -0.569
      -0.646
      -0.652
      -0.600
      -0.511
      -0.405
      -0.289
      -0.168
      -0.051
       0.053
       0.150
       0.261
       0.400
       0.552
       0.675
       0.727
       0.702
       0.633
       0.568
       0.539
       0.548
       0.571
       0.582
       0.566
       0.520
       0.455
       0.384
       0.321
       0.272
       0.235
       0.198
       0.148
       0.079
      -0.004
      -0.087
      -0.157
      -0.207
      -0.243
      -0.273
      -0.308
      -0.349
      -0.389
      -0.423
      -0.449
      -0.466
      -0.470
      -0.456
      -0.420
      -0.363
      -0.287
      -0.196
      -0.098
      -0.008
       0.054
       0.069
       0.030
      -0.058
      -0.170
      -0.272
      -0.329
      -0.320
      -0.246
      -0.136
      -0.042
      -0.012
      -0.062
      -0.163
      -0.252
      -0.272
      -0.200
      -0.055
       0.120
       0.277
       0.394
       0.470
       0.518
       0.558
       0.597
       0.636
       0.667
       0.682
       0.681
       0.665
       0.637
       0.593
       0.529
       0.441
       0.333
       0.222
       0.130
       0.079
       0.087
       0.153
       0.257
       0.361
       0.425
       0.426
       0.373
       0.306
       0.271
       0.291
       0.354
       0.425
       0.466
       0.462
       0.421
       0.371
       0.342
       0.351
       0.394
       0.449
       0.484
       0.469
       0.387
       0.236
       0.026
      -0.211
      -0.429
      -0.577
      -0.631
      -0.605
      -0.544
      -0.493
      -0.473
      -0.477
      -0.485
      -0.479
      -0.447
      -0.395
      -0.340
      -0.313
      -0.333
      -0.399
      -0.479
      -0.533
      -0.524
      -0.442
      -0.297
      -0.114
       0.078
       0.259
       0.419
       0.555
       0.658
       0.715
       0.714
       0.663
       0.596
       0.558
       0.585
       0.686
       0.837
       0.992
       1.108
       1.153
       1.119
       1.012
       0.847
       0.645
       0.434
       0.239
       0.077
      -0.046
      -0.140
      -0.214
      -0.274
      -0.313
      -0.321
      -0.299
      -0.262
      -0.242
      -0.269
      -0.365
      -0.534
      -0.759
      -1.006
      -1.228
      -1.384
      -1.454
      -1.456
      -1.431
      -1.416
      -1.421
      -1.424
      -1.390
      -1.296
      -1.145
      -0.974
      -0.830
      -0.750
      -0.743
      -0.790
      -0.861
      -0.925
      -0.959
      -0.947
      -0.885
      -0.777
      -0.637
      -0.485
      -0.341
      -0.221
      -0.130
      -0.066
      -0.024
       0.007
       0.034
       0.065
       0.104
       0.154
       0.215
       0.289
       0.372
       0.456
       0.529
       0.581
       0.606
       0.611
       0.614
       0.635
       0.678
       0.727
       0.746
       0.703
       0.595
       0.453
       0.321
       0.230
       0.184
       0.174
       0.195
       0.245
       0.322
       0.407
       0.466
       0.471
       0.404
       0.262
       0.045
      -0.243
      -0.591
      -0.972
      -1.349
      -1.692
      -1.996
      -2.269
      -2.517
      -2.718
      -2.832
      -2.824
      -2.690
      -2.459
      -2.178
      -1.894
      -1.637
      -1.417
      -1.218
      -1.005
      -0.731
      -0.354
       0.139
       0.732
       1.381
       2.030
       2.630
       3.145
       3.556
       3.854
       4.035
       4.100
       4.062
       3.944
       3.779
       3.596
       3.417
       3.258
       3.129
       3.043
       3.015
       3.048
       3.121
       3.195
       3.225
       3.184
       3.075
       2.919
       2.740
       2.559
       2.377
       2.188
       1.983
       1.757
       1.507
       1.237
       0.947
       0.647
       0.352
       0.086
      -0.130
      -0.292
      -0.414
      -0.520
      -0.627
      -0.738
      -0.842
      -0.926
      -0.986
      -1.030
      -1.077
      -1.146
      -1.247
      -1.370
      -1.497
      -1.616
      -1.731
      -1.861
      -2.028
      -2.235
      -2.462
      -2.671
      -2.830
      -2.920
      -2.949
      -2.942
      -2.922
      -2.901
      -2.883
      -2.878
      -2.908
      -2.999
      -3.160
      -3.377
      -3.613
      -3.838
      -4.033
      -4.194
      -4.305
      -4.335
      -4.245
      -4.007
      -3.610
      -3.068
      -2.403
      -1.638
      -0.792
       0.120
       1.073
       2.027
       2.925
       3.692
       4.256
       4.565
       4.599
       4.372
       3.927
       3.324
       2.629
       1.903
       1.188
       0.507
      -0.126
      -0.701
      -1.211
      -1.656
      -2.053
      -2.424
      -2.777
      -3.096
      -3.346
      -3.508
      -3.599
      -3.664
      -3.745
      -3.845
      -3.929
      -3.949
      -3.883
      -3.744
      -3.568
      -3.377
      -3.167
      -2.926
      -2.656
      -2.385
      -2.148
      -1.960
      -1.796
      -1.609
      -1.352
      -0.993
      -0.526
       0.018
       0.576
       1.068
       1.445
       1.726
       1.987
       2.321
       2.791
       3.415
       4.174
       5.026
       5.917
       6.796
       7.616
       8.351
       8.999
       9.570
      10.066
      10.464
      10.716
      10.765
      10.573
      10.145
       9.527
       8.791
       8.001
       7.187
       6.341
       5.438
       4.467
       3.464
       2.515
       1.727
       1.177
       0.879
       0.793
       0.858
       1.024
       1.251
       1.494
       1.701
       1.819
       1.824
       1.718
       1.513
       1.200
       0.756
       0.157
      -0.594
      -1.448
      -2.328
      -3.163
      -3.927
      -4.627
      -5.276
      -5.864
      -6.373
      -6.807
      -7.204
      -7.616
      -8.055
      -8.476
      -8.795
      -8.943
      -8.900
      -8.697
      -8.369
      -7.923
      -7.344
      -6.636
      -5.856
      -5.097
      -4.459
      -4.005
      -3.753
      -3.675
      -3.723
      -3.849
      -4.012
      -4.181
      -4.327
      -4.444
      -4.560
      -4.709
      -4.899
      -5.085
      -5.185
      -5.122
      -4.850
      -4.348
      -3.615
      -2.661
      -1.522
      -0.266
       1.028
       2.302
       3.546
       4.771
       5.965
       7.068
       7.992
       8.670
       9.075
       9.208
       9.086
       8.730
       8.181
       7.515
       6.829
       6.200
       5.655
       5.165
       4.670
       4.102
       3.401
       2.539
       1.534
       0.445
      -0.651
      -1.674
      -2.553
      -3.221
      -3.612
      -3.678
      -3.412
      -2.857
      -2.091
      -1.189
      -0.201
       0.840
       1.881
       2.819
       3.522
       3.877
       3.852
       3.482
       2.826
       1.934
       0.860
      -0.316
      -1.485
      -2.538
      -3.404
      -4.067
      -4.547
      -4.869
      -5.041
      -5.070
      -4.966
      -4.749
      -4.435
      -4.030
      -3.519
      -2.874
      -2.066
      -1.105
      -0.052
       0.996
       1.956
       2.798
       3.536
       4.191
       4.766
       5.248
       5.637
       5.954
       6.233
       6.481
       6.666
       6.726
       6.605
       6.288
       5.802
       5.197
       4.520
       3.799
       3.050
       2.296
       1.574
       0.933
       0.422
       0.071
      -0.121
      -0.180
      -0.142
      -0.034
       0.124
       0.306
       0.468
       0.548
       0.486
       0.248
      -0.150
      -0.648
      -1.167
      -1.645
      -2.053
      -2.398
      -2.696
      -2.958
      -3.189
      -3.404
      -3.641
      -3.953
      -4.379
      -4.911
      -5.485
      -6.005
      -6.378
      -6.558
      -6.548
      -6.380
      -6.079
      -5.634
      -5.012
      -4.193
      -3.208
      -2.132
      -1.053
      -0.046
       0.828
       1.510
       1.952
       2.131
       2.073
       1.848
       1.535
       1.194
       0.843
       0.471
       0.062
      -0.388
      -0.876
      -1.393
      -1.910
      -2.376
      -2.725
      -2.905
      -2.903
      -2.749
      -2.507
      -2.244
      -2.018
      -1.854
      -1.745
      -1.656
      -1.540
      -1.350
      -1.051
      -0.628
      -0.101
       0.473
       1.016
       1.452
       1.737
       1.874
       1.904
       1.893
       1.900
       1.963
       2.100
       2.322
       2.652
       3.119
       3.735
       4.463
       5.227
       5.939
       6.541
       7.019
       7.371
       7.587
       7.646
       7.539
       7.291
       6.960
       6.611
       6.288
       6.002
       5.729
       5.423
       5.034
       4.527
       3.885
       3.110
       2.215
       1.218
       0.138
      -1.001
      -2.173
      -3.345
      -4.470
      -5.496
      -6.370
      -7.052
      -7.513
      -7.737
      -7.721
      -7.485
      -7.064
      -6.499
      -5.819
      -5.039
      -4.178
      -3.279
      -2.425
      -1.717
      -1.225
      -0.956
      -0.850
      -0.818
      -0.780
      -0.693
      -0.550
      -0.375
      -0.212
      -0.114
      -0.134
      -0.305
      -0.624
      -1.046
      -1.508
      -1.952
      -2.346
      -2.690
      -2.990
      -3.241
      -3.414
      -3.465
      -3.361
      -3.090
      -2.661
      -2.102
      -1.455
      -0.776
      -0.125
       0.456
       0.954
       1.380
       1.761
       2.119
       2.470
       2.823
       3.185
       3.545
       3.868
       4.096
       4.168
       4.046
       3.738
       3.302
       2.836
       2.442
       2.195
       2.115
       2.169
       2.297
       2.442
       2.563
       2.625
       2.588
       2.416
       2.095
       1.644
       1.106
       0.533
      -0.030
      -0.549
      -1.007
      -1.398
      -1.724
      -1.979
      -2.149
      -2.207
      -2.125
      -1.886
      -1.500
      -1.015
      -0.508
      -0.064
       0.233
       0.309
       0.103
      -0.402
      -1.152
      -2.008
      -2.800
      -3.387
      -3.712
      -3.798
      -3.715
      -3.538
      -3.330
      -3.140
      -2.996
      -2.902
      -2.825
      -2.712
      -2.512
      -2.205
      -1.816
      -1.401
      -1.021
      -0.706
      -0.444
      -0.181
       0.138
       0.539
       0.999
       1.460
       1.859
       2.165
       2.389
       2.581
       2.794
       3.046
       3.306
       3.522
       3.675
       3.806
       4.001
       4.328
       4.784
       5.283
       5.708
       5.971
       6.054
       5.982
       5.794
       5.514
       5.146
       4.684
       4.120
       3.463
       2.733
       1.955
       1.157
       0.378
      -0.331
      -0.913
      -1.322
      -1.543
      -1.601
      -1.558
      -1.493
      -1.478
      -1.568
      -1.797
      -2.178
      -2.702
      -3.335
      -4.025
      -4.709
      -5.334
      -5.859
      -6.262
      -6.531
      -6.660
      -6.652
      -6.524
      -6.303
      -6.011
      -5.658
      -5.239
