Origin Time       26/2/2010 4:42:33	  UTC
Lat.              28.5 N	
Long.             86.7 E	
Depth (Km)         28.0
Magnitude         5.4
 Region           Tibet                                                            
 Above details taken from IMD 
    
Station Code      KOK
Station Lat.       26.400  N
Station Long.      90.261  E
Station Height(m)   54.0
Site Class        C   Vs30 between 200 m/sec to 375 m/sec *  
Record Time       26.02.2010 04:43:50.169 UTC
Sampling Rate     200. Hz
 Record Duration   84.140 Sec.
 Direction         N-S (N positive)
Max. Acceleration     -2.976 cm/sec**2
     
  * For reference see Site Classification link of website 
     
 Base Line Corrected and Low Pass Filtered (Cut Off at 35 Hz) Time History
 Acceleration data in cm/sec**2
    
[...]
      -0.052
      -0.093
      -0.137
      -0.165
      -0.168
      -0.154
      -0.133
      -0.110
      -0.085
      -0.052
      -0.007
       0.051
       0.113
       0.173
       0.226
       0.272
       0.304
       0.316
       0.308
       0.290
       0.273
       0.260
       0.248
       0.234
       0.227
       0.235
       0.260
       0.292
       0.322
       0.345
       0.361
       0.370
       0.367
       0.348
       0.312
       0.261
       0.194
       0.111
       0.020
      -0.063
      -0.126
      -0.164
      -0.181
      -0.186
      -0.186
      -0.186
      -0.188
      -0.193
      -0.203
      -0.216
      -0.230
      -0.245
      -0.261
      -0.276
      -0.288
      -0.293
      -0.292
      -0.288
      -0.284
      -0.275
      -0.256
      -0.227
      -0.192
      -0.159
      -0.126
      -0.081
      -0.013
       0.071
       0.150
       0.200
       0.212
       0.197
       0.179
       0.176
       0.189
       0.198
       0.179
       0.118
       0.025
      -0.071
      -0.141
      -0.174
      -0.180
      -0.175
      -0.172
      -0.175
      -0.181
      -0.193
      -0.213
      -0.239
      -0.259
      -0.256
      -0.222
      -0.167
      -0.115
      -0.092
      -0.102
      -0.131
      -0.151
      -0.146
      -0.120
      -0.088
      -0.064
      -0.045
      -0.018
       0.032
       0.108
       0.201
       0.291
       0.360
       0.402
       0.421
       0.428
       0.428
       0.420
       0.402
       0.379
       0.357
       0.341
       0.327
       0.312
       0.300
       0.301
       0.320
       0.353
       0.387
       0.410
       0.415
       0.401
       0.369
       0.319
       0.251
       0.167
       0.073
      -0.017
      -0.088
      -0.132
      -0.157
      -0.180
      -0.217
      -0.270
      -0.327
      -0.374
      -0.401
      -0.414
      -0.425
      -0.444
      -0.472
      -0.505
      -0.538
      -0.564
      -0.579
      -0.580
      -0.566
      -0.541
      -0.503
      -0.456
      -0.401
      -0.343
      -0.285
      -0.228
      -0.166
      -0.099
      -0.025
       0.053
       0.128
       0.194
       0.251
       0.302
       0.348
       0.388
       0.416
       0.428
       0.432
       0.440
       0.458
       0.482
       0.503
       0.515
       0.521
       0.530
       0.549
       0.574
       0.598
       0.611
       0.610
       0.592
       0.554
       0.489
       0.399
       0.292
       0.191
       0.114
       0.063
       0.024
      -0.022
      -0.086
      -0.162
      -0.235
      -0.294
      -0.338
      -0.373
      -0.412
      -0.462
      -0.523
      -0.585
      -0.640
      -0.679
      -0.697
      -0.692
      -0.668
      -0.636
      -0.610
      -0.597
      -0.597
      -0.600
      -0.594
      -0.574
      -0.548
      -0.525
      -0.505
      -0.477
      -0.425
      -0.340
      -0.226
      -0.094
       0.044
       0.186
       0.334
       0.491
       0.655
       0.814
       0.947
       1.039
       1.084
       1.090
       1.069
       1.031
       0.979
       0.912
       0.832
       0.740
       0.642
       0.543
       0.451
       0.367
       0.289
       0.212
       0.128
       0.037
      -0.053
      -0.136
      -0.212
      -0.284
      -0.361
      -0.442
      -0.519
      -0.578
      -0.608
      -0.612
      -0.602
      -0.595
      -0.592
      -0.582
      -0.547
      -0.482
      -0.399
      -0.320
      -0.262
      -0.223
      -0.195
      -0.173
      -0.158
      -0.155
      -0.160
      -0.162
      -0.149
      -0.117
      -0.079
      -0.051
      -0.041
      -0.038
      -0.027
       0.003
       0.052
       0.105
       0.145
       0.161
       0.153
       0.134
       0.118
       0.113
       0.122
       0.142
       0.167
       0.192
       0.213
       0.226
       0.224
       0.202
       0.161
       0.107
       0.051
       0.001
      -0.039
      -0.069
      -0.093
      -0.113
      -0.129
      -0.132
      -0.115
      -0.074
      -0.011
       0.068
       0.152
       0.232
       0.309
       0.386
       0.469
       0.552
       0.622
       0.665
       0.667
       0.626
       0.552
       0.459
       0.355
       0.243
       0.126
       0.012
      -0.083
      -0.150
      -0.188
      -0.198
      -0.186
      -0.160
      -0.131
      -0.110
      -0.105
      -0.115
      -0.138
      -0.174
      -0.222
      -0.285
      -0.359
      -0.436
      -0.511
      -0.578
      -0.635
      -0.680
      -0.700
      -0.685
      -0.626
      -0.529
      -0.406
      -0.279
      -0.165
      -0.068
       0.017
       0.096
       0.168
       0.223
       0.250
       0.251
       0.237
       0.228
       0.239
       0.271
       0.312
       0.346
       0.365
       0.376
       0.396
       0.444
       0.523
       0.620
       0.710
       0.770
       0.789
       0.770
       0.727
       0.670
       0.604
       0.523
       0.422
       0.305
       0.181
       0.063
      -0.047
      -0.149
      -0.251
      -0.360
      -0.473
      -0.582
      -0.674
      -0.737
      -0.765
      -0.762
      -0.734
      -0.690
      -0.641
      -0.601
      -0.575
      -0.563
      -0.554
      -0.541
      -0.526
      -0.516
      -0.513
      -0.507
      -0.482
      -0.427
      -0.344
      -0.247
      -0.151
      -0.066
       0.003
       0.062
       0.110
       0.144
       0.157
       0.151
       0.133
       0.117
       0.115
       0.128
       0.151
       0.175
       0.196
       0.218
       0.248
       0.293
       0.349
       0.406
       0.452
       0.491
       0.532
       0.580
       0.629
       0.663
       0.669
       0.648
       0.610
       0.566
       0.517
       0.451
       0.361
       0.251
       0.140
       0.051
       0.002
      -0.006
       0.012
       0.038
       0.057
       0.065
       0.069
       0.079
       0.098
       0.125
       0.156
       0.187
       0.214
       0.233
       0.245
       0.253
       0.263
       0.282
       0.307
       0.330
       0.343
       0.340
       0.316
       0.270
       0.197
       0.095
      -0.038
      -0.193
      -0.357
      -0.509
      -0.634
      -0.722
      -0.776
      -0.802
      -0.805
      -0.779
      -0.717
      -0.615
      -0.488
      -0.361
      -0.259
      -0.188
      -0.139
      -0.100
      -0.072
      -0.067
      -0.099
      -0.175
      -0.288
      -0.412
      -0.517
      -0.582
      -0.600
      -0.577
      -0.528
      -0.465
      -0.391
      -0.308
      -0.219
      -0.129
      -0.040
       0.042
       0.113
       0.165
       0.194
       0.201
       0.199
       0.203
       0.228
       0.280
       0.360
       0.465
       0.586
       0.711
       0.819
       0.892
       0.916
       0.891
       0.823
       0.721
       0.593
       0.446
       0.294
       0.159
       0.068
       0.042
       0.081
       0.162
       0.252
       0.321
       0.357
       0.360
       0.332
       0.274
       0.187
       0.076
      -0.046
      -0.167
      -0.278
      -0.376
      -0.468
      -0.563
      -0.668
      -0.777
      -0.877
      -0.951
      -0.993
      -1.006
      -1.003
      -0.997
      -1.000
      -1.014
      -1.036
      -1.053
      -1.050
      -1.012
      -0.937
      -0.830
      -0.702
      -0.559
      -0.398
      -0.209
       0.017
       0.284
       0.583
       0.904
       1.229
       1.542
       1.823
       2.051
       2.203
       2.262
       2.226
       2.108
       1.925
       1.697
       1.437
       1.154
       0.858
       0.565
       0.296
       0.073
      -0.091
      -0.192
      -0.232
      -0.217
      -0.158
      -0.078
      -0.002
       0.048
       0.054
       0.006
      -0.106
      -0.281
      -0.511
      -0.779
      -1.065
      -1.348
      -1.603
      -1.805
      -1.940
      -2.004
      -2.008
      -1.966
      -1.891
      -1.785
      -1.644
      -1.464
      -1.243
      -0.987
      -0.718
      -0.463
      -0.244
      -0.072
       0.063
       0.178
       0.293
       0.422
       0.566
       0.720
       0.873
       1.019
       1.155
       1.278
       1.380
       1.449
       1.480
       1.472
       1.430
       1.357
       1.250
       1.102
       0.911
       0.685
       0.442
       0.207
       0.006
      -0.138
      -0.217
      -0.240
      -0.234
      -0.229
      -0.242
      -0.272
      -0.306
      -0.328
      -0.336
      -0.331
      -0.315
      -0.282
      -0.226
      -0.148
      -0.066
       0.001
       0.050
       0.097
       0.164
       0.255
       0.356
       0.440
       0.487
       0.492
       0.463
       0.410
       0.333
       0.230
       0.096
      -0.061
      -0.221
      -0.352
      -0.430
      -0.445
      -0.415
      -0.367
      -0.326
      -0.297
      -0.268
      -0.221
      -0.147
      -0.054
       0.040
       0.111
       0.146
       0.138
       0.087
      -0.003
      -0.124
      -0.265
      -0.409
      -0.539
      -0.641
      -0.705
      -0.721
      -0.678
      -0.570
      -0.395
      -0.166
       0.093
       0.349
       0.576
       0.755
       0.881
       0.952
       0.966
       0.919
       0.806
       0.633
       0.421
       0.205
       0.021
      -0.108
      -0.179
      -0.205
      -0.202
      -0.178
      -0.130
      -0.051
       0.057
       0.181
       0.298
       0.391
       0.455
       0.492
       0.502
       0.475
       0.401
       0.285
       0.144
       0.002
      -0.121
      -0.218
      -0.281
      -0.301
      -0.272
      -0.204
      -0.118
      -0.038
       0.021
       0.063
       0.099
       0.135
       0.174
       0.217
       0.263
       0.312
       0.357
       0.383
       0.376
       0.327
       0.242
       0.137
       0.023
      -0.099
      -0.234
      -0.387
      -0.543
      -0.674
      -0.760
      -0.797
      -0.799
      -0.780
      -0.748
      -0.702
      -0.640
      -0.564
      -0.476
      -0.383
      -0.291
      -0.207
      -0.129
      -0.055
       0.020
       0.094
       0.163
       0.221
       0.269
       0.311
       0.357
       0.406
       0.460
       0.517
       0.584
       0.667
       0.762
       0.848
       0.891
       0.859
       0.745
       0.568
       0.364
       0.165
      -0.014
      -0.175
      -0.330
      -0.485
      -0.639
      -0.789
      -0.937
      -1.086
      -1.239
      -1.384
      -1.497
      -1.546
      -1.509
      -1.389
      -1.215
      -1.035
      -0.898
      -0.836
      -0.853
      -0.922
      -0.992
      -1.011
      -0.947
      -0.794
      -0.565
      -0.281
       0.040
       0.375
       0.699
       0.988
       1.232
       1.436
       1.612
       1.765
       1.889
       1.968
       1.988
       1.948
       1.862
       1.757
       1.666
       1.609
       1.591
       1.595
       1.596
       1.570
       1.507
       1.408
       1.274
       1.101
       0.874
       0.577
       0.196
      -0.264
      -0.782
      -1.320
      -1.829
      -2.259
      -2.571
      -2.752
      -2.806
      -2.754
      -2.619
      -2.425
      -2.191
      -1.935
      -1.669
      -1.403
      -1.142
      -0.888
      -0.635
      -0.377
      -0.109
       0.166
       0.433
       0.670
       0.863
       1.011
       1.121
       1.197
       1.239
       1.240
       1.201
       1.132
       1.049
       0.974
       0.922
       0.895
       0.880
       0.860
       0.817
       0.743
       0.639
       0.512
       0.368
       0.205
       0.020
      -0.188
      -0.414
      -0.640
      -0.846
      -1.006
      -1.097
      -1.102
      -1.016
      -0.853
      -0.643
      -0.420
      -0.210
      -0.015
       0.174
       0.366
       0.550
       0.701
       0.791
       0.804
       0.745
       0.636
       0.508
       0.389
       0.295
       0.225
       0.166
       0.111
       0.060
       0.025
       0.018
       0.047
       0.101
       0.163
       0.218
       0.261
       0.298
       0.331
       0.350
       0.331
       0.246
       0.074
      -0.184
      -0.501
      -0.832
      -1.133
      -1.369
      -1.529
      -1.621
      -1.663
      -1.662
      -1.607
      -1.474
      -1.244
      -0.917
      -0.514
      -0.071
       0.365
       0.756
       1.072
       1.303
       1.458
       1.555
       1.610
       1.633
       1.633
       1.617
       1.589
       1.551
       1.501
       1.445
       1.390
       1.345
       1.311
       1.279
       1.236
       1.163
       1.042
       0.862
       0.618
       0.308
      -0.066
      -0.493
      -0.947
      -1.392
      -1.790
      -2.118
      -2.368
      -2.542
      -2.645
      -2.675
      -2.633
      -2.526
      -2.369
      -2.179
      -1.964
      -1.727
      -1.459
      -1.159
      -0.830
      -0.482
      -0.128
       0.227
       0.579
       0.920
       1.237
       1.506
       1.702
       1.806
       1.812
       1.733
       1.591
       1.420
       1.249
       1.106
       1.013
       0.985
       1.025
       1.122
       1.252
       1.383
       1.487
       1.543
       1.539
       1.468
       1.323
       1.094
       0.772
       0.360
      -0.127
      -0.664
      -1.220
      -1.758
      -2.238
      -2.620
      -2.871
      -2.976
      -2.937
      -2.774
      -2.515
      -2.189
      -1.829
      -1.463
      -1.105
      -0.757
      -0.421
      -0.106
       0.177
       0.421
       0.631
       0.816
       0.981
       1.126
       1.249
       1.351
       1.431
       1.481
       1.485
       1.432
       1.327
       1.191
       1.050
       0.921
       0.803
       0.688
       0.578
       0.484
       0.425
       0.410
       0.432
       0.465
       0.475
       0.428
       0.302
       0.097
      -0.165
      -0.450
      -0.730
      -0.988
      -1.218
      -1.411
      -1.552
      -1.628
      -1.630
      -1.567
      -1.460
      -1.337
      -1.228
      -1.148
      -1.099
      -1.068
      -1.037
      -0.985
      -0.892
      -0.745
      -0.540
      -0.285
      -0.002
       0.282
       0.550
       0.792
       1.007
       1.200
       1.374
       1.532
       1.671
       1.787
       1.870
       1.912
       1.909
       1.869
       1.806
       1.736
       1.673
       1.621
       1.578
       1.529
       1.458
       1.351
       1.197
       0.994
       0.744
       0.461
       0.162
      -0.131
      -0.401
      -0.638
      -0.830
      -0.964
      -1.028
      -1.023
      -0.964
      -0.884
      -0.811
      -0.765
      -0.754
      -0.779
      -0.838
      -0.927
      -1.042
      -1.179
      -1.335
      -1.503
      -1.671
      -1.816
      -1.905
      -1.905
      -1.798
      -1.587
      -1.297
      -0.966
      -0.629
      -0.309
      -0.024
       0.209
       0.372
       0.450
       0.444
       0.369
       0.251
       0.117
      -0.012
      -0.129
      -0.237
      -0.336
      -0.412
      -0.438
      -0.390
      -0.257
      -0.052
       0.197
       0.458
       0.714
       0.952
       1.168
       1.351
       1.485
       1.556
       1.552
       1.477
       1.344
       1.179
       1.008
       0.850
       0.709
       0.582
       0.465
       0.352
       0.231
       0.084
      -0.109
      -0.357
      -0.662
      -1.007
      -1.362
      -1.691
      -1.955
      -2.130
      -2.199
      -2.157
      -2.007
      -1.760
      -1.441
      -1.090
      -0.740
      -0.410
      -0.092
       0.229
       0.558
       0.885
       1.189
       1.455
       1.679
       1.860
       1.995
       2.085
       2.133
       2.154
       2.162
       2.162
       2.142
       2.080
       1.953
       1.748
       1.468
       1.138
       0.796
       0.478
       0.203
      -0.023
      -0.210
      -0.368
      -0.504
      -0.615
      -0.696
      -0.741
      -0.749
      -0.737
      -0.734
      -0.777
      -0.887
      -1.059
      -1.266
      -1.476
      -1.668
      -1.833
      -1.968
      -2.068
      -2.120
      -2.110
      -2.025
      -1.869
      -1.656
      -1.404
      -1.123
      -0.814
      -0.478
      -0.116
       0.261
       0.641
       1.006
       1.339
       1.617
       1.824
       1.952
       2.011
       2.022
       2.006
       1.977
       1.941
       1.899
       1.846
       1.781
       1.696
       1.584
       1.430
       1.217
       0.936
       0.592
       0.203
      -0.204
      -0.609
      -0.998
      -1.358
      -1.670
      -1.912
      -2.073
      -2.158
      -2.186
      -2.178
      -2.153
      -2.131
      -2.126
      -2.148
      -2.189
      -2.227
      -2.233
      -2.182
      -2.061
      -1.873
      -1.630
      -1.349
      -1.052
      -0.757
      -0.476
      -0.217
       0.023
       0.255
       0.496
       0.763
       1.059
       1.364
       1.644
       1.868
       2.033
       2.166
       2.299
       2.446
       2.588
       2.689
       2.720
       2.669
       2.544
       2.364
       2.143
       1.883
       1.580
       1.231
       0.851
       0.472
       0.129
      -0.153
      -0.368
      -0.519
      -0.617
      -0.674
      -0.701
      -0.701
      -0.676
      -0.639
      -0.609
      -0.600
      -0.610
      -0.618
      -0.606
      -0.574
      -0.539
      -0.518
      -0.509
      -0.492
      -0.438
      -0.328
      -0.159
       0.052
       0.274
       0.471
       0.623
       0.724
       0.788
       0.832
       0.859
       0.858
       0.807
       0.697
       0.530
       0.324
       0.105
      -0.097
      -0.253
      -0.343
      -0.372
      -0.361
      -0.340
      -0.335
      -0.359
      -0.408
      -0.475
      -0.550
      -0.627
      -0.708
      -0.799
      -0.915
      -1.068
      -1.258
      -1.466
      -1.657
      -1.795
      -1.856
      -1.836
      -1.753
      -1.632
      -1.493
      -1.345
      -1.185
      -1.012
      -0.828
      -0.637
      -0.440
      -0.224
       0.024
       0.309
       0.622
       0.948
       1.271
       1.580
       1.856
       2.081
       2.231
       2.287
       2.235
       2.063
       1.773
       1.390
       0.967
       0.568
       0.243
       0.015
      -0.125
      -0.196
      -0.218
      -0.202
      -0.154
      -0.079
       0.014
       0.111
       0.199
       0.264
       0.288
       0.254
       0.156
       0.003
      -0.177
      -0.341
      -0.456
      -0.506
      -0.504
      -0.482
      -0.472
      -0.496
      -0.558
      -0.646
      -0.742
      -0.829
      -0.891
      -0.920
      -0.916
      -0.888
      -0.852
      -0.810
      -0.753
      -0.666
      -0.542
      -0.386
      -0.215
      -0.044
       0.110
       0.237
       0.338
       0.421
       0.499
       0.584
       0.680
       0.786
       0.902
       1.034
       1.188
       1.359
       1.528
       1.666
       1.747
       1.753
       1.685
       1.555
       1.381
       1.172
       0.936
       0.680
       0.416
       0.158
      -0.074
