Origin Time       11/5/2012 18:41:28	
Lat.              26.6 N	
Long.             93.0 E	
Depth (Km)         20.0
Magnitude         5.4
 Region           Assam                                                            
 Above details taken from IMD 
     
Station Code      KOK
Station Lat.       26.400  N
Station Long.      90.261  E
Station Height(m)   54.0
Site Class        C   Vs30 between 200 m/sec to 375 m/sec *  
Record Time       11.05.2012 12:42:11.164
Sampling Rate     200. Hz
 Record Duration  110.995 Sec.
 Direction         E-W (E positive)
Max. Acceleration      7.171 cm/sec**2
     
  * For reference see Site Classification link of website 
     
 Base Line Corrected and Low Pass Filtered (Cut Off at 35 Hz) Time History
 Acceleration data in cm/sec**2
    
[...]
       0.462
       0.489
       0.575
       0.725
       0.889
       0.997
       1.014
       0.971
       0.945
       0.997
       1.121
       1.248
       1.296
       1.234
       1.108
       1.002
       0.969
       0.994
       1.002
       0.925
       0.753
       0.536
       0.352
       0.259
       0.269
       0.345
       0.418
       0.411
       0.276
       0.010
      -0.336
      -0.669
      -0.895
      -0.961
      -0.882
      -0.724
      -0.553
      -0.401
      -0.276
      -0.181
      -0.135
      -0.155
      -0.236
      -0.345
      -0.445
      -0.521
      -0.593
      -0.693
      -0.831
      -0.987
      -1.109
      -1.152
      -1.101
      -0.979
      -0.843
      -0.751
      -0.736
      -0.783
      -0.836
      -0.832
      -0.743
      -0.600
      -0.470
      -0.409
      -0.412
      -0.410
      -0.316
      -0.086
       0.250
       0.611
       0.910
       1.087
       1.126
       1.054
       0.917
       0.762
       0.623
       0.515
       0.452
       0.442
       0.479
       0.530
       0.542
       0.475
       0.336
       0.177
       0.063
       0.020
       0.007
      -0.046
      -0.171
      -0.321
      -0.400
      -0.343
      -0.174
       0.005
       0.088
       0.037
      -0.090
      -0.180
      -0.139
       0.063
       0.381
       0.735
       1.046
       1.264
       1.358
       1.313
       1.122
       0.805
       0.414
       0.019
      -0.321
      -0.576
      -0.734
      -0.785
      -0.725
      -0.575
      -0.394
      -0.266
      -0.246
      -0.319
      -0.406
      -0.422
      -0.337
      -0.200
      -0.102
      -0.112
      -0.242
      -0.444
      -0.650
      -0.794
      -0.836
      -0.758
      -0.579
      -0.356
      -0.165
      -0.059
      -0.030
      -0.027
      -0.002
       0.048
       0.087
       0.076
       0.012
      -0.071
      -0.129
      -0.130
      -0.058
       0.087
       0.298
       0.556
       0.828
       1.063
       1.210
       1.242
       1.182
       1.090
       1.025
       0.996
       0.962
       0.863
       0.668
       0.391
       0.080
      -0.214
      -0.452
      -0.607
      -0.662
      -0.612
      -0.469
      -0.279
      -0.116
      -0.066
      -0.186
      -0.462
      -0.815
      -1.136
      -1.337
      -1.383
      -1.293
      -1.119
      -0.920
      -0.735
      -0.583
      -0.475
      -0.418
      -0.415
      -0.454
      -0.501
      -0.512
      -0.463
      -0.359
      -0.223
      -0.089
       0.017
       0.077
       0.092
       0.087
       0.104
       0.167
       0.253
       0.304
       0.275
       0.182
       0.105
       0.132
       0.295
       0.538
       0.753
       0.850
       0.803
       0.663
       0.524
       0.464
       0.498
       0.567
       0.577
       0.477
       0.292
       0.104
      -0.012
      -0.045
      -0.038
      -0.052
      -0.116
      -0.213
      -0.303
      -0.351
      -0.348
      -0.321
      -0.323
      -0.397
      -0.548
      -0.726
      -0.849
      -0.864
      -0.777
      -0.650
      -0.549
      -0.492
      -0.445
      -0.356
      -0.193
       0.043
       0.326
       0.615
       0.870
       1.058
       1.153
       1.155
       1.085
       0.989
       0.911
       0.872
       0.861
       0.847
       0.805
       0.740
       0.688
       0.692
       0.766
       0.871
       0.933
       0.880
       0.694
       0.421
       0.160
       0.010
       0.021
       0.163
       0.336
       0.426
       0.369
       0.195
      -0.001
      -0.118
      -0.129
      -0.097
      -0.126
      -0.285
      -0.549
      -0.815
      -0.974
      -0.990
      -0.925
      -0.885
      -0.937
      -1.074
      -1.240
      -1.382
      -1.477
      -1.525
      -1.522
      -1.455
      -1.307
      -1.083
      -0.813
      -0.543
      -0.318
      -0.159
      -0.066
      -0.022
      -0.003
       0.015
       0.047
       0.102
       0.177
       0.251
       0.290
       0.263
       0.167
       0.040
      -0.056
      -0.068
       0.012
       0.152
       0.308
       0.449
       0.555
       0.597
       0.542
       0.377
       0.140
      -0.096
      -0.261
      -0.331
      -0.330
      -0.295
      -0.247
      -0.184
      -0.110
      -0.050
      -0.040
      -0.094
      -0.185
      -0.264
      -0.292
      -0.273
      -0.250
      -0.277
      -0.370
      -0.497
      -0.594
      -0.612
      -0.550
      -0.446
      -0.336
      -0.222
      -0.089
       0.073
       0.254
       0.442
       0.636
       0.825
       0.965
       0.972
       0.786
       0.442
       0.076
      -0.149
      -0.154
       0.015
       0.240
       0.425
       0.548
       0.639
       0.721
       0.789
       0.821
       0.810
       0.767
       0.694
       0.573
       0.372
       0.087
      -0.236
      -0.517
      -0.688
      -0.742
      -0.737
      -0.744
      -0.781
      -0.794
      -0.703
      -0.473
      -0.156
       0.138
       0.312
       0.343
       0.288
       0.231
       0.218
       0.230
       0.217
       0.157
       0.070
      -0.005
      -0.063
      -0.141
      -0.283
      -0.475
      -0.627
      -0.631
      -0.443
      -0.139
       0.133
       0.249
       0.184
       0.012
      -0.161
      -0.260
      -0.278
      -0.246
      -0.206
      -0.184
      -0.198
      -0.262
      -0.369
      -0.489
      -0.571
      -0.577
      -0.508
      -0.404
      -0.308
      -0.251
      -0.261
      -0.368
      -0.587
      -0.884
      -1.167
      -1.326
      -1.305
      -1.139
      -0.923
      -0.753
      -0.672
      -0.663
      -0.676
      -0.674
      -0.643
      -0.589
      -0.521
      -0.451
      -0.401
      -0.401
      -0.465
      -0.569
      -0.649
      -0.640
      -0.516
      -0.310
      -0.088
       0.099
       0.234
       0.325
       0.370
       0.348
       0.239
       0.062
      -0.114
      -0.200
      -0.142
       0.034
       0.244
       0.404
       0.495
       0.580
       0.766
       1.120
       1.617
       2.137
       2.539
       2.741
       2.759
       2.676
       2.577
       2.509
       2.467
       2.429
       2.385
       2.340
       2.306
       2.280
       2.240
       2.168
       2.070
       1.976
       1.922
       1.919
       1.950
       1.979
       1.974
       1.905
       1.741
       1.456
       1.051
       0.576
       0.113
      -0.262
      -0.520
      -0.687
      -0.815
      -0.943
      -1.067
      -1.155
      -1.180
      -1.149
      -1.119
      -1.161
      -1.327
      -1.613
      -1.959
      -2.278
      -2.501
      -2.611
      -2.636
      -2.622
      -2.602
      -2.589
      -2.576
      -2.543
      -2.456
      -2.284
      -2.021
      -1.695
      -1.346
      -0.998
      -0.646
      -0.275
       0.113
       0.493
       0.840
       1.141
       1.403
       1.628
       1.805
       1.914
       1.949
       1.931
       1.900
       1.896
       1.939
       2.026
       2.136
       2.223
       2.237
       2.131
       1.892
       1.546
       1.135
       0.695
       0.241
      -0.224
      -0.688
      -1.131
      -1.538
      -1.906
      -2.232
      -2.509
      -2.737
      -2.929
      -3.113
      -3.326
      -3.605
      -3.964
      -4.379
      -4.783
      -5.089
      -5.236
      -5.226
      -5.112
      -4.965
      -4.833
      -4.716
      -4.578
      -4.363
      -4.033
      -3.586
      -3.048
      -2.449
      -1.808
      -1.147
      -0.497
       0.105
       0.649
       1.169
       1.720
       2.335
       2.989
       3.619
       4.167
       4.630
       5.047
       5.463
       5.887
       6.293
       6.633
       6.870
       6.986
       6.980
       6.862
       6.660
       6.421
       6.205
       6.050
       5.942
       5.806
       5.534
       5.051
       4.357
       3.534
       2.707
       1.981
       1.402
       0.953
       0.586
       0.257
      -0.051
      -0.341
      -0.616
      -0.899
      -1.226
      -1.623
      -2.081
      -2.552
      -2.966
      -3.272
      -3.464
      -3.581
      -3.682
      -3.800
      -3.926
      -4.014
      -4.027
      -3.961
      -3.846
      -3.713
      -3.576
      -3.445
      -3.339
      -3.288
      -3.301
      -3.340
      -3.334
      -3.230
      -3.025
      -2.758
      -2.465
      -2.160
      -1.848
      -1.548
      -1.299
      -1.117
      -0.971
      -0.803
      -0.578
      -0.333
      -0.151
      -0.104
      -0.187
      -0.322
      -0.409
      -0.402
      -0.322
      -0.225
      -0.152
      -0.098
      -0.034
       0.047
       0.115
       0.122
       0.049
      -0.066
      -0.152
      -0.155
      -0.067
       0.077
       0.222
       0.325
       0.380
       0.425
       0.516
       0.690
       0.926
       1.167
       1.367
       1.521
       1.652
       1.763
       1.819
       1.784
       1.670
       1.545
       1.485
       1.520
       1.602
       1.627
       1.490
       1.141
       0.630
       0.089
      -0.328
      -0.538
      -0.591
      -0.643
      -0.852
      -1.269
      -1.799
      -2.255
      -2.469
      -2.390
      -2.115
      -1.822
      -1.673
      -1.722
      -1.903
      -2.086
      -2.149
      -2.033
      -1.741
      -1.312
      -0.796
      -0.251
       0.260
       0.677
       0.979
       1.189
       1.361
       1.532
       1.697
       1.813
       1.832
       1.743
       1.581
       1.406
       1.271
       1.199
       1.183
       1.197
       1.203
       1.162
       1.064
       0.941
       0.856
       0.871
       1.017
       1.301
       1.720
       2.250
       2.829
       3.353
       3.723
       3.897
       3.900
       3.792
       3.618
       3.401
       3.158
       2.928
       2.758
       2.669
       2.642
       2.631
       2.602
       2.548
       2.475
       2.369
       2.193
       1.905
       1.479
       0.909
       0.203
      -0.615
      -1.497
      -2.360
      -3.122
      -3.737
      -4.218
      -4.616
      -4.974
      -5.305
      -5.596
      -5.839
      -6.029
      -6.152
      -6.172
      -6.048
      -5.772
      -5.387
      -4.970
      -4.599
      -4.331
      -4.202
      -4.210
      -4.288
      -4.287
      -4.029
      -3.383
      -2.338
      -0.996
       0.479
       1.935
       3.256
       4.362
       5.207
       5.779
       6.097
       6.192
       6.096
       5.838
       5.463
       5.031
       4.586
       4.125
       3.605
       2.993
       2.325
       1.706
       1.245
       0.981
       0.858
       0.784
       0.699
       0.595
       0.479
       0.333
       0.128
      -0.127
      -0.361
      -0.494
      -0.507
      -0.482
      -0.547
      -0.779
      -1.140
      -1.496
      -1.707
      -1.710
      -1.548
      -1.334
      -1.181
      -1.158
      -1.282
      -1.542
      -1.901
      -2.286
      -2.597
      -2.740
      -2.686
      -2.491
      -2.259
      -2.056
      -1.855
      -1.563
      -1.096
      -0.468
       0.195
       0.720
       0.976
       0.931
       0.665
       0.328
       0.080
       0.041
       0.249
       0.651
       1.121
       1.511
       1.709
       1.680
       1.470
       1.185
       0.948
       0.861
       0.963
       1.213
       1.489
       1.649
       1.597
       1.348
       1.019
       0.765
       0.692
       0.799
       0.987
       1.129
       1.143
       1.025
       0.822
       0.577
       0.305
       0.006
      -0.305
      -0.587
      -0.790
      -0.897
      -0.925
      -0.908
      -0.850
      -0.720
      -0.487
      -0.162
       0.179
       0.438
       0.555
       0.549
       0.502
       0.490
       0.526
       0.548
       0.465
       0.232
      -0.112
      -0.480
      -0.788
      -0.992
      -1.070
      -1.002
      -0.782
      -0.451
      -0.120
       0.084
       0.093
      -0.063
      -0.284
      -0.466
      -0.563
      -0.604
      -0.662
      -0.804
      -1.045
      -1.339
      -1.618
      -1.841
      -2.020
      -2.191
      -2.355
      -2.451
      -2.391
      -2.122
      -1.675
      -1.155
      -0.695
      -0.395
      -0.274
      -0.265
      -0.245
      -0.114
       0.136
       0.404
       0.535
       0.421
       0.065
      -0.427
      -0.924
      -1.338
      -1.644
      -1.841
      -1.909
      -1.816
      -1.539
      -1.088
      -0.494
       0.207
       0.966
       1.694
       2.267
       2.578
       2.612
       2.479
       2.371
       2.449
       2.758
       3.190
       3.548
       3.653
       3.458
       3.083
       2.745
       2.611
       2.691
       2.846
       2.894
       2.723
       2.314
       1.698
       0.908
      -0.016
      -0.983
      -1.830
      -2.379
      -2.547
      -2.425
      -2.247
      -2.252
      -2.540
      -3.033
      -3.564
      -4.013
      -4.376
      -4.727
      -5.127
      -5.581
      -6.052
      -6.488
      -6.822
      -6.957
      -6.774
      -6.174
      -5.142
      -3.767
      -2.238
      -0.791
       0.350
       1.037
       1.238
       1.050
       0.665
       0.306
       0.144
       0.255
       0.624
       1.190
       1.888
       2.661
       3.466
       4.272
       5.051
       5.777
       6.406
       6.882
       7.149
       7.171
       6.938
       6.471
       5.809
       5.015
       4.171
       3.356
       2.623
       1.982
       1.420
       0.923
       0.481
       0.067
      -0.363
      -0.850
      -1.378
      -1.866
      -2.216
      -2.400
      -2.500
      -2.658
      -2.970
      -3.409
      -3.826
      -4.033
      -3.904
      -3.427
      -2.684
      -1.804
      -0.909
      -0.098
       0.563
       1.055
       1.412
       1.712
       2.034
       2.391
       2.709
       2.870
       2.794
       2.520
       2.209
       2.044
       2.101
       2.290
       2.420
       2.339
       2.038
       1.641
       1.290
       1.041
       0.833
       0.559
       0.155
      -0.330
      -0.765
      -1.032
      -1.122
      -1.162
      -1.327
      -1.694
      -2.167
      -2.529
      -2.602
      -2.385
      -2.057
      -1.846
      -1.870
      -2.073
      -2.289
      -2.377
      -2.306
      -2.155
      -2.034
      -2.022
      -2.151
      -2.425
      -2.830
      -3.311
      -3.750
      -3.986
      -3.873
      -3.352
      -2.473
      -1.375
      -0.225
       0.831
       1.683
       2.257
       2.521
       2.510
       2.352
       2.239
       2.327
       2.637
       3.026
       3.269
       3.175
       2.684
       1.885
       0.998
       0.306
       0.055
       0.334
       1.002
       1.740
       2.210
       2.225
       1.821
       1.201
       0.609
       0.216
       0.066
       0.082
       0.134
       0.109
      -0.036
      -0.273
      -0.530
      -0.729
      -0.822
      -0.815
      -0.771
      -0.768
      -0.851
      -0.999
      -1.163
      -1.301
      -1.393
      -1.420
      -1.351
      -1.179
      -0.945
      -0.736
      -0.623
      -0.624
      -0.688
      -0.724
      -0.652
      -0.435
      -0.095
       0.310
       0.715
       1.072
       1.345
       1.506
       1.545
       1.493
       1.440
       1.504
       1.750
       2.121
       2.433
       2.464
       2.087
       1.381
       0.630
       0.194
       0.309
       0.937
       1.780
       2.444
       2.655
       2.375
       1.761
       1.026
       0.329
      -0.240
      -0.629
      -0.802
      -0.765
      -0.600
      -0.450
      -0.446
      -0.642
      -0.989
      -1.367
      -1.644
      -1.733
      -1.621
      -1.383
      -1.155
      -1.088
      -1.288
      -1.760
      -2.381
      -2.937
      -3.212
      -3.068
      -2.498
      -1.629
      -0.696
       0.012
       0.264
      -0.018
      -0.703
      -1.510
      -2.136
      -2.375
      -2.183
      -1.666
      -1.018
      -0.423
       0.007
       0.255
       0.359
       0.348
       0.228
       0.005
      -0.266
      -0.482
      -0.528
      -0.333
       0.085
       0.595
       0.982
       1.035
       0.664
      -0.014
      -0.712
      -1.121
      -1.075
      -0.631
      -0.005
       0.581
       1.005
       1.265
       1.406
       1.458
       1.432
       1.333
       1.162
       0.892
       0.460
      -0.190
      -1.036
      -1.934
      -2.645
      -2.943
      -2.726
      -2.082
      -1.236
      -0.434
       0.176
       0.578
       0.845
       1.072
       1.336
       1.693
       2.163
       2.703
       3.183
       3.428
       3.327
       2.927
       2.419
       2.025
       1.850
       1.842
       1.860
       1.789
       1.593
       1.279
       0.861
       0.367
      -0.134
      -0.535
      -0.761
      -0.860
      -1.001
      -1.363
      -1.971
      -2.620
      -2.982
      -2.813
      -2.126
      -1.186
      -0.329
       0.239
       0.526
       0.672
       0.794
       0.891
       0.868
       0.650
       0.269
      -0.142
      -0.457
      -0.643
      -0.761
      -0.875
      -0.969
      -0.955
      -0.748
      -0.364
       0.064
       0.335
       0.281
      -0.156
      -0.889
      -1.728
      -2.459
      -2.942
      -3.152
      -3.154
      -3.023
      -2.780
      -2.381
      -1.775
      -0.970
      -0.057
       0.832
       1.592
       2.173
       2.543
       2.634
       2.343
       1.600
       0.462
      -0.854
      -2.035
      -2.802
      -3.026
      -2.748
      -2.101
      -1.221
      -0.213
       0.830
       1.802
       2.596
       3.128
       3.361
       3.301
       2.993
       2.508
       1.933
       1.354
       0.855
       0.523
       0.443
       0.644
       1.056
       1.504
       1.783
       1.762
       1.456
       1.005
       0.578
       0.266
       0.025
      -0.278
      -0.751
      -1.382
      -2.035
      -2.551
      -2.860
      -3.002
      -3.044
      -2.984
      -2.749
      -2.283
      -1.630
      -0.915
      -0.254
       0.336
       0.934
       1.592
       2.217
       2.556
       2.330
       1.443
       0.093
      -1.299
      -2.299
      -2.657
      -2.400
      -1.761
      -1.045
      -0.486
      -0.186
      -0.139
      -0.288
      -0.589
      -1.000
      -1.460
      -1.862
      -2.075
      -1.981
      -1.510
      -0.682
       0.368
       1.397
       2.128
       2.393
       2.232
       1.876
       1.612
       1.619
       1.902
       2.344
       2.806
       3.195
       3.460
       3.553
       3.427
       3.062
       2.511
       1.894
       1.343
       0.939
       0.676
       0.503
       0.374
       0.282
       0.224
       0.167
       0.045
      -0.198
      -0.564
      -1.007
      -1.488
      -1.997
      -2.536
      -3.047
      -3.393
      -3.411
      -3.023
      -2.315
      -1.524
      -0.921
      -0.663
      -0.715
      -0.907
      -1.068
      -1.144
      -1.202
      -1.328
      -1.525
      -1.695
      -1.723
      -1.571
      -1.299
      -1.023
      -0.822
