Origin Time       4/2/2011 13:53:39	  UTC
Lat.              24.8 N	
Long.             94.6 E	
Depth (Km)         30.0
Magnitude         6.4
 Region           Myanmar-India-Border                                             
 Above details taken from IMD 
    
Station Code      KOK
Station Lat.       26.400  N
Station Long.      90.261  E
Station Height(m)   54.0
Site Class        C   Vs30 between 200 m/sec to 375 m/sec *  
Record Time       04.02.2011 13:52:11.109 UTC
Sampling Rate     200. Hz
 Record Duration  100.720 Sec.
 Direction         N-S (N positive)
Max. Acceleration     -6.179 cm/sec**2
     
  * For reference see Site Classification link of website 
     
 Base Line Corrected and Low Pass Filtered (Cut Off at 35 Hz) Time History
 Acceleration data in cm/sec**2
    
[...]
      -1.700
      -2.569
      -3.209
      -3.497
      -3.408
      -3.028
      -2.525
      -2.087
      -1.842
      -1.807
      -1.892
      -1.958
      -1.900
      -1.689
      -1.366
      -0.995
      -0.633
      -0.325
      -0.134
      -0.142
      -0.424
      -0.998
      -1.799
      -2.684
      -3.465
      -3.960
      -4.035
      -3.662
      -2.935
      -2.036
      -1.163
      -0.449
       0.084
       0.514
       0.964
       1.533
       2.234
       2.967
       3.557
       3.828
       3.686
       3.164
       2.397
       1.545
       0.718
      -0.038
      -0.705
      -1.234
      -1.522
      -1.464
      -1.028
      -0.309
       0.488
       1.147
       1.535
       1.646
       1.561
       1.364
       1.081
       0.691
       0.170
      -0.446
      -1.054
      -1.512
      -1.703
      -1.580
      -1.175
      -0.595
       0.005
       0.447
       0.565
       0.260
      -0.454
      -1.427
      -2.427
      -3.231
      -3.691
      -3.753
      -3.434
      -2.814
      -2.021
      -1.219
      -0.560
      -0.143
       0.023
       0.014
      -0.051
      -0.055
       0.080
       0.376
       0.804
       1.283
       1.685
       1.875
       1.790
       1.516
       1.274
       1.319
       1.782
       2.587
       3.482
       4.163
       4.396
       4.074
       3.217
       1.956
       0.521
      -0.811
      -1.815
      -2.410
      -2.692
      -2.840
      -2.981
      -3.103
      -3.071
      -2.744
      -2.081
      -1.165
      -0.143
       0.865
       1.795
       2.616
       3.287
       3.746
       3.941
       3.860
       3.539
       3.042
       2.437
       1.780
       1.102
       0.411
      -0.298
      -1.013
      -1.677
      -2.190
      -2.453
      -2.426
      -2.161
      -1.779
      -1.402
      -1.092
      -0.835
      -0.580
      -0.291
       0.009
       0.240
       0.316
       0.193
      -0.097
      -0.462
      -0.798
      -1.017
      -1.066
      -0.925
      -0.619
      -0.230
       0.115
       0.295
       0.262
       0.069
      -0.155
      -0.260
      -0.128
       0.281
       0.902
       1.556
       2.012
       2.084
       1.742
       1.136
       0.514
       0.095
      -0.037
       0.042
       0.160
       0.141
      -0.110
      -0.582
      -1.169
      -1.709
      -2.025
      -1.991
      -1.596
      -0.969
      -0.342
       0.041
       0.017
      -0.436
      -1.189
      -1.991
      -2.542
      -2.609
      -2.112
      -1.164
      -0.006
       1.102
       1.987
       2.605
       3.013
       3.306
       3.555
       3.764
       3.860
       3.710
       3.185
       2.256
       1.063
      -0.104
      -0.920
      -1.180
      -0.890
      -0.245
       0.459
       0.930
       0.961
       0.493
      -0.373
      -1.416
      -2.401
      -3.185
      -3.754
      -4.164
      -4.439
      -4.510
      -4.246
      -3.538
      -2.379
      -0.891
       0.704
       2.151
       3.244
       3.887
       4.103
       3.992
       3.652
       3.137
       2.460
       1.666
       0.880
       0.310
       0.152
       0.469
       1.117
       1.783
       2.127
       1.944
       1.256
       0.291
      -0.630
      -1.235
      -1.408
      -1.211
      -0.833
      -0.492
      -0.320
      -0.314
      -0.357
      -0.323
      -0.171
       0.031
       0.169
       0.156
      -0.010
      -0.237
      -0.368
      -0.245
       0.204
       0.907
       1.661
       2.225
       2.415
       2.166
       1.520
       0.594
      -0.463
      -1.501
      -2.409
      -3.138
      -3.696
      -4.081
      -4.237
      -4.055
      -3.467
      -2.521
      -1.380
      -0.237
       0.783
       1.655
       2.400
       3.014
       3.441
       3.605
       3.467
       3.050
       2.431
       1.718
       1.048
       0.563
       0.369
       0.462
       0.695
       0.841
       0.718
       0.292
      -0.328
      -0.985
      -1.575
      -2.088
      -2.582
      -3.129
      -3.760
      -4.427
      -5.006
      -5.339
      -5.296
      -4.825
      -3.944
      -2.717
      -1.228
       0.406
       2.002
       3.321
       4.147
       4.397
       4.168
       3.680
       3.144
       2.663
       2.210
       1.695
       1.041
       0.237
      -0.666
      -1.581
      -2.403
      -2.997
      -3.194
      -2.838
      -1.879
      -0.445
       1.150
       2.501
       3.278
       3.350
       2.827
       1.980
       1.126
       0.516
       0.265
       0.332
       0.545
       0.691
       0.624
       0.322
      -0.113
      -0.518
      -0.737
      -0.661
      -0.270
       0.340
       0.965
       1.354
       1.300
       0.724
      -0.286
      -1.493
      -2.573
      -3.229
      -3.281
      -2.732
      -1.759
      -0.632
       0.404
       1.206
       1.747
       2.062
       2.190
       2.133
       1.864
       1.367
       0.675
      -0.107
      -0.827
      -1.343
      -1.584
      -1.571
      -1.398
      -1.181
      -1.023
      -0.992
      -1.096
      -1.258
      -1.305
      -1.043
      -0.363
       0.662
       1.791
       2.729
       3.264
       3.348
       3.083
       2.647
       2.203
       1.829
       1.502
       1.136
       0.657
       0.062
      -0.594
      -1.246
      -1.848
      -2.368
      -2.778
      -3.057
      -3.199
      -3.204
      -3.071
      -2.815
      -2.479
      -2.119
      -1.781
      -1.476
      -1.172
      -0.809
      -0.337
       0.244
       0.849
       1.335
       1.565
       1.493
       1.193
       0.822
       0.547
       0.455
       0.518
       0.610
       0.570
       0.282
      -0.256
      -0.926
      -1.525
      -1.851
      -1.783
      -1.321
      -0.585
       0.218
       0.847
       1.094
       0.872
       0.266
      -0.495
      -1.141
      -1.502
      -1.573
      -1.475
      -1.318
      -1.103
      -0.745
      -0.189
       0.480
       1.044
       1.283
       1.122
       0.686
       0.227
      -0.018
       0.042
       0.315
       0.606
       0.740
       0.649
       0.365
      -0.051
      -0.567
      -1.171
      -1.812
      -2.362
      -2.650
      -2.538
      -1.991
      -1.083
       0.046
       1.238
       2.334
       3.170
       3.598
       3.563
       3.156
       2.594
       2.109
       1.816
       1.668
       1.540
       1.352
       1.148
       1.047
       1.132
       1.376
       1.667
       1.904
       2.042
       2.075
       1.983
       1.719
       1.280
       0.754
       0.287
      -0.016
      -0.170
      -0.290
      -0.503
      -0.866
      -1.334
      -1.784
      -2.051
      -1.993
      -1.546
      -0.761
       0.210
       1.165
       1.914
       2.316
       2.289
       1.832
       1.040
       0.111
      -0.693
      -1.131
      -1.067
      -0.522
       0.342
       1.286
       2.090
       2.619
       2.837
       2.758
       2.384
       1.689
       0.650
      -0.696
      -2.221
      -3.719
      -4.955
      -5.723
      -5.918
      -5.591
      -4.951
      -4.294
      -3.867
      -3.728
      -3.699
      -3.468
      -2.773
      -1.563
      -0.033
       1.486
       2.695
       3.450
       3.768
       3.735
       3.411
       2.807
       1.925
       0.820
      -0.398
      -1.585
      -2.602
      -3.326
      -3.658
      -3.522
      -2.894
      -1.835
      -0.517
       0.808
       1.886
       2.549
       2.768
       2.651
       2.382
       2.134
       2.011
       2.034
       2.176
       2.391
       2.595
       2.647
       2.384
       1.732
       0.820
      -0.030
      -0.459
      -0.280
       0.399
       1.221
       1.773
       1.782
       1.205
       0.213
      -0.902
      -1.825
      -2.319
      -2.329
      -2.012
      -1.643
      -1.433
      -1.376
      -1.281
      -0.941
      -0.324
       0.389
       0.940
       1.165
       1.078
       0.818
       0.523
       0.239
      -0.095
      -0.581
      -1.270
      -2.086
      -2.813
      -3.174
      -2.976
      -2.238
      -1.206
      -0.238
       0.383
       0.569
       0.420
       0.129
      -0.136
      -0.275
      -0.248
      -0.050
       0.296
       0.736
       1.187
       1.558
       1.775
       1.788
       1.593
       1.255
       0.929
       0.812
       1.042
       1.599
       2.279
       2.786
       2.878
       2.483
       1.715
       0.796
      -0.050
      -0.677
      -1.042
      -1.175
      -1.139
      -0.997
      -0.796
      -0.568
      -0.339
      -0.125
       0.057
       0.184
       0.228
       0.170
      -0.002
      -0.290
      -0.698
      -1.222
      -1.826
      -2.424
      -2.870
      -3.000
      -2.711
      -2.053
      -1.255
      -0.644
      -0.478
      -0.787
      -1.367
      -1.908
      -2.197
      -2.211
      -2.086
      -1.985
      -1.971
      -1.970
      -1.820
      -1.383
      -0.660
       0.177
       0.875
       1.254
       1.325
       1.267
       1.282
       1.455
       1.723
       1.949
       2.029
       1.934
       1.698
       1.385
       1.072
       0.857
       0.837
       1.069
       1.521
       2.070
       2.549
       2.807
       2.759
       2.382
       1.695
       0.752
      -0.345
      -1.408
      -2.186
      -2.441
      -2.055
      -1.108
       0.136
       1.320
       2.132
       2.430
       2.281
       1.886
       1.439
       1.019
       0.590
       0.105
      -0.409
      -0.850
      -1.144
      -1.325
      -1.512
      -1.808
      -2.209
      -2.593
      -2.802
      -2.726
      -2.348
      -1.740
      -1.040
      -0.402
       0.048
       0.252
       0.220
      -0.004
      -0.374
      -0.842
      -1.314
      -1.646
      -1.678
      -1.321
      -0.592
       0.404
       1.520
       2.580
       3.362
       3.614
       3.148
       1.981
       0.384
      -1.200
      -2.360
      -2.897
      -2.868
      -2.478
      -1.915
      -1.261
      -0.504
       0.360
       1.238
       1.932
       2.234
       2.051
       1.464
       0.666
      -0.160
      -0.922
      -1.600
      -2.175
      -2.577
      -2.701
      -2.479
      -1.938
      -1.210
      -0.480
       0.120
       0.587
       1.060
       1.712
       2.604
       3.600
       4.414
       4.770
       4.562
       3.914
       3.092
       2.344
       1.768
       1.309
       0.861
       0.383
      -0.055
      -0.350
      -0.456
      -0.430
      -0.378
      -0.366
      -0.377
      -0.353
      -0.264
      -0.172
      -0.223
      -0.582
      -1.322
      -2.328
      -3.281
      -3.798
      -3.636
      -2.847
      -1.759
      -0.809
      -0.325
      -0.387
      -0.818
      -1.305
      -1.571
      -1.500
      -1.134
      -0.604
      -0.040
       0.455
       0.811
       1.005
       1.082
       1.153
       1.348
       1.732
       2.252
       2.758
       3.098
       3.208
       3.130
       2.968
       2.821
       2.741
       2.707
       2.632
       2.404
       1.953
       1.310
       0.609
       0.034
      -0.279
      -0.307
      -0.161
      -0.039
      -0.143
      -0.580
      -1.320
      -2.196
      -2.972
      -3.429
      -3.437
      -3.000
      -2.256
      -1.410
      -0.642
      -0.020
       0.499
       0.990
       1.471
       1.848
       1.965
       1.703
       1.079
       0.273
      -0.442
      -0.818
      -0.742
      -0.257
       0.474
       1.268
       1.992
       2.573
       2.943
       2.995
       2.608
       1.766
       0.635
      -0.480
      -1.304
      -1.761
      -1.997
      -2.244
      -2.642
      -3.146
      -3.581
      -3.772
      -3.646
      -3.237
      -2.636
      -1.943
      -1.253
      -0.675
      -0.351
      -0.441
      -1.060
      -2.170
      -3.535
      -4.761
      -5.462
      -5.454
      -4.868
      -4.083
      -3.510
      -3.338
      -3.422
      -3.402
      -2.960
      -2.030
      -0.804
       0.428
       1.444
       2.148
       2.519
       2.578
       2.396
       2.116
       1.903
       1.848
       1.914
       1.991
       2.012
       2.014
       2.118
       2.437
       3.003
       3.724
       4.389
       4.742
       4.614
       4.051
       3.319
       2.742
       2.491
       2.466
       2.387
       1.988
       1.183
       0.091
      -1.051
      -2.004
      -2.615
      -2.837
      -2.707
      -2.315
      -1.767
      -1.179
      -0.648
      -0.243
       0.024
       0.183
       0.279
       0.323
       0.282
       0.127
      -0.102
      -0.275
      -0.233
       0.108
       0.700
       1.378
       1.927
       2.156
       1.947
       1.274
       0.216
      -1.056
      -2.315
      -3.338
      -3.963
      -4.124
      -3.856
      -3.285
      -2.612
      -2.044
      -1.702
      -1.543
      -1.380
      -1.022
      -0.430
       0.245
       0.767
       0.991
       0.954
       0.841
       0.854
       1.092
       1.502
       1.913
       2.132
       2.036
       1.630
       1.034
       0.435
       0.026
      -0.043
       0.305
       1.033
       1.967
       2.820
       3.293
       3.210
       2.625
       1.821
       1.187
       1.029
       1.413
       2.134
       2.822
       3.112
       2.758
       1.681
      -0.024
      -2.083
      -4.078
      -5.552
      -6.179
      -5.900
      -4.924
      -3.606
      -2.277
      -1.155
      -0.330
       0.191
       0.446
       0.490
       0.368
       0.106
      -0.289
      -0.806
      -1.426
      -2.107
      -2.779
      -3.330
      -3.623
      -3.537
      -3.013
      -2.104
      -0.980
       0.108
       0.911
       1.289
       1.288
       1.138
       1.158
       1.592
       2.468
       3.563
       4.536
       5.130
       5.316
       5.250
       5.087
       4.846
       4.428
       3.777
       2.990
       2.270
       1.778
       1.517
       1.367
       1.177
       0.851
       0.356
      -0.293
      -1.039
      -1.774
      -2.352
      -2.650
      -2.630
      -2.366
      -2.011
      -1.713
      -1.534
      -1.415
      -1.221
      -0.848
      -0.312
       0.256
       0.716
       1.040
       1.322
       1.690
       2.188
       2.732
       3.159
       3.316
       3.118
       2.563
       1.734
       0.791
      -0.041
      -0.533
      -0.537
      -0.058
       0.730
       1.546
       2.112
       2.237
       1.871
       1.101
       0.111
      -0.878
      -1.685
      -2.223
      -2.523
      -2.713
      -2.935
      -3.249
      -3.568
      -3.695
      -3.447
      -2.803
      -1.960
      -1.237
      -0.894
      -0.986
      -1.369
      -1.822
      -2.192
      -2.437
      -2.586
      -2.667
      -2.684
      -2.613
      -2.418
      -2.065
      -1.548
      -0.901
      -0.185
       0.560
       1.338
       2.157
       2.981
       3.716
       4.250
       4.517
       4.503
       4.231
       3.736
       3.076
       2.335
       1.616
       1.001
       0.525
       0.165
      -0.148
      -0.470
      -0.781
      -0.940
      -0.757
      -0.157
       0.691
       1.409
       1.627
       1.217
       0.355
      -0.633
      -1.488
      -2.127
      -2.575
      -2.852
      -2.918
      -2.724
      -2.296
      -1.740
      -1.189
      -0.745
      -0.467
      -0.386
      -0.503
      -0.781
      -1.150
      -1.540
      -1.901
      -2.175
      -2.293
      -2.194
      -1.882
      -1.447
      -1.023
      -0.706
      -0.505
      -0.357
      -0.184
       0.066
       0.400
       0.783
       1.150
       1.431
       1.589
       1.637
       1.627
       1.611
       1.635
       1.736
       1.947
       2.271
       2.660
       3.038
       3.351
       3.596
       3.784
       3.872
       3.730
       3.199
       2.208
       0.845
      -0.665
      -2.050
      -3.083
      -3.642
      -3.737
      -3.519
      -3.227
      -3.070
      -3.084
      -3.089
      -2.794
      -2.024
      -0.884
       0.284
       1.111
       1.420
       1.283
       0.901
       0.461
       0.061
      -0.272
      -0.555
      -0.840
      -1.197
      -1.655
      -2.137
      -2.454
      -2.391
      -1.841
      -0.905
       0.127
       0.913
       1.250
       1.187
       0.967
       0.846
       0.914
       1.040
       0.996
       0.637
       0.009
      -0.704
      -1.318
      -1.768
      -2.103
      -2.405
      -2.710
      -2.993
      -3.203
      -3.298
      -3.286
      -3.231
      -3.224
      -3.297
      -3.358
      -3.221
      -2.759
      -2.029
      -1.276
      -0.756
      -0.544
      -0.475
      -0.281
       0.182
       0.814
       1.346
       1.546
       1.388
       1.045
       0.743
       0.599
       0.569
       0.514
       0.314
      -0.057
      -0.513
      -0.901
      -1.050
      -0.822
      -0.147
       0.941
       2.275
       3.558
       4.428
       4.588
       3.951
       2.712
       1.277
       0.080
      -0.607
      -0.766
      -0.565
      -0.216
       0.159
       0.559
       1.045
       1.659
       2.371
       3.069
       3.581
       3.705
       3.292
       2.355
       1.138
       0.045
      -0.563
      -0.587
      -0.233
       0.147
       0.299
       0.198
      -0.008
      -0.169
      -0.248
      -0.337
      -0.551
      -0.926
      -1.371
      -1.696
      -1.703
      -1.280
      -0.474
       0.499
       1.344
       1.827
       1.900
       1.722
       1.556
       1.627
       2.004
       2.572
       3.103
       3.387
       3.343
       3.046
       2.645
       2.263
       1.940
       1.646
       1.353
       1.077
       0.878
       0.786
       0.732
       0.538
       0.030
      -0.818
      -1.822
      -2.679
      -3.159
      -3.231
      -3.049
      -2.808
      -2.607
      -2.423
      -2.194
      -1.922
      -1.697
      -1.623
      -1.736
      -1.988
      -2.295
      -2.597
      -2.863
      -3.049
      -3.068
      -2.817
      -2.239
      -1.380
      -0.382
       0.597
       1.457
       2.171
       2.734
       3.106
       3.234
       3.111
       2.807
       2.420
       1.987
       1.466
       0.810
       0.058
      -0.638
      -1.092
      -1.188
      -0.929
      -0.413
       0.212
       0.770
       1.083
       1.034
       0.655
       0.155
      -0.180
      -0.168
       0.147
       0.537
       0.753
       0.686
       0.407
       0.083
      -0.134
      -0.166
       0.012
       0.404
       0.977
       1.631
       2.201
       2.529
       2.543
       2.262
       1.753
       1.086
       0.327
      -0.431
      -1.059
      -1.415
      -1.395
      -0.990
      -0.317
       0.405
       0.936
       1.137
       1.049
       0.865
       0.812
       0.999
       1.344
       1.618
       1.584
       1.136
       0.369
      -0.472
      -1.105
      -1.336
      -1.133
      -0.625
      -0.042
       0.382
       0.499
       0.296
      -0.118
      -0.573
      -0.907
      -1.010
      -0.857
      -0.513
      -0.118
       0.187
       0.340
       0.388
