Origin Time       21/9/2009 8:53:04	  UTC
Lat.              27.3 N	
Long.             91.5 E	
Depth (Km)          8.0
Magnitude         6.2
 Region           BHUTAN                                                           
 Above details taken from IMD 
    
Station Code      KOK
Station Lat.       26.400  N
Station Long.      90.261  E
Station Height(m)   53.0
Site Class        C   Vs30 between 200 m/sec to 375 m/sec *  
Record Time       21.09.2009 08:53:19.899 UTC
Sampling Rate     200. Hz
 Record Duration  108.310 Sec.
 Direction         N-S (N positive)
Max. Acceleration     14.771 cm/sec**2
     
  * For reference see Site Classification link of website 
     
 Base Line Corrected and Low Pass Filtered (Cut Off at 35 Hz) Time History
 Acceleration data in cm/sec**2
    
[...]
       0.549
       0.530
       0.473
       0.351
       0.168
      -0.022
      -0.139
      -0.123
       0.023
       0.238
       0.434
       0.543
       0.538
       0.427
       0.241
       0.006
      -0.255
      -0.534
      -0.825
      -1.114
      -1.365
      -1.529
      -1.566
      -1.466
      -1.269
      -1.046
      -0.875
      -0.807
      -0.841
      -0.928
      -0.999
      -0.995
      -0.898
      -0.724
      -0.500
      -0.245
       0.033
       0.318
       0.577
       0.762
       0.829
       0.767
       0.593
       0.338
       0.034
      -0.296
      -0.619
      -0.886
      -1.037
      -1.032
      -0.883
      -0.664
      -0.475
      -0.384
      -0.390
      -0.429
      -0.429
      -0.351
      -0.205
      -0.025
       0.171
       0.383
       0.611
       0.832
       1.002
       1.081
       1.063
       0.993
       0.944
       0.978
       1.111
       1.295
       1.452
       1.517
       1.482
       1.380
       1.251
       1.101
       0.919
       0.712
       0.536
       0.479
       0.596
       0.856
       1.140
       1.308
       1.279
       1.068
       0.763
       0.441
       0.126
      -0.201
      -0.549
      -0.876
      -1.100
      -1.164
      -1.081
      -0.931
      -0.809
      -0.776
      -0.830
      -0.929
      -1.023
      -1.088
      -1.127
      -1.157
      -1.179
      -1.175
      -1.110
      -0.952
      -0.682
      -0.292
       0.207
       0.784
       1.374
       1.887
       2.239
       2.380
       2.311
       2.083
       1.771
       1.461
       1.226
       1.112
       1.125
       1.230
       1.362
       1.463
       1.493
       1.449
       1.348
       1.223
       1.115
       1.062
       1.083
       1.157
       1.216
       1.172
       0.959
       0.577
       0.114
      -0.294
      -0.530
      -0.550
      -0.410
      -0.229
      -0.128
      -0.171
      -0.352
      -0.612
      -0.878
      -1.090
      -1.227
      -1.310
      -1.385
      -1.499
      -1.660
      -1.825
      -1.914
      -1.852
      -1.609
      -1.211
      -0.725
      -0.215
       0.278
       0.733
       1.136
       1.469
       1.711
       1.845
       1.863
       1.773
       1.600
       1.382
       1.156
       0.941
       0.720
       0.460
       0.144
      -0.193
      -0.471
      -0.619
      -0.628
      -0.568
      -0.542
      -0.613
      -0.756
      -0.869
      -0.834
      -0.590
      -0.167
       0.326
       0.763
       1.054
       1.174
       1.172
       1.134
       1.152
       1.275
       1.484
       1.705
       1.838
       1.806
       1.586
       1.207
       0.729
       0.230
      -0.206
      -0.496
      -0.587
      -0.480
      -0.233
       0.072
       0.360
       0.594
       0.771
       0.893
       0.956
       0.946
       0.849
       0.673
       0.449
       0.224
       0.036
      -0.102
      -0.211
      -0.324
      -0.468
      -0.646
      -0.833
      -0.993
      -1.098
      -1.143
      -1.162
      -1.205
      -1.314
      -1.480
      -1.636
      -1.671
      -1.487
      -1.045
      -0.381
       0.401
       1.174
       1.819
       2.259
       2.480
       2.523
       2.469
       2.389
       2.317
       2.240
       2.128
       1.968
       1.784
       1.614
       1.481
       1.363
       1.205
       0.959
       0.618
       0.236
      -0.103
      -0.325
      -0.402
      -0.355
      -0.239
      -0.113
      -0.022
       0.009
      -0.018
      -0.084
      -0.155
      -0.207
      -0.226
      -0.202
      -0.135
      -0.037
       0.067
       0.134
       0.127
       0.023
      -0.182
      -0.478
      -0.836
      -1.203
      -1.501
      -1.647
      -1.580
      -1.291
      -0.837
      -0.318
       0.164
       0.542
       0.807
       0.992
       1.142
       1.279
       1.392
       1.451
       1.414
       1.248
       0.933
       0.478
      -0.070
      -0.636
      -1.138
      -1.524
      -1.790
      -1.971
      -2.116
      -2.260
      -2.415
      -2.572
      -2.711
      -2.819
      -2.889
      -2.927
      -2.949
      -2.984
      -3.062
      -3.194
      -3.349
      -3.462
      -3.457
      -3.290
      -2.972
      -2.558
      -2.132
      -1.772
      -1.539
      -1.464
      -1.535
      -1.697
      -1.866
      -1.957
      -1.922
      -1.759
      -1.504
      -1.197
      -0.860
      -0.506
      -0.153
       0.163
       0.401
       0.546
       0.626
       0.691
       0.777
       0.871
       0.905
       0.800
       0.496
      -0.019
      -0.719
      -1.561
      -2.508
      -3.521
      -4.551
      -5.520
      -6.329
      -6.889
      -7.162
      -7.186
      -7.060
      -6.906
      -6.810
      -6.794
      -6.817
      -6.800
      -6.669
      -6.381
      -5.933
      -5.352
      -4.680
      -3.961
      -3.230
      -2.515
      -1.830
      -1.183
      -0.581
      -0.031
       0.452
       0.851
       1.160
       1.401
       1.614
       1.841
       2.088
       2.326
       2.515
       2.640
       2.730
       2.841
       3.018
       3.262
       3.515
       3.671
       3.623
       3.309
       2.744
       2.011
       1.226
       0.492
      -0.135
      -0.634
      -1.002
      -1.243
      -1.370
      -1.413
      -1.416
      -1.421
      -1.439
      -1.450
      -1.411
      -1.285
      -1.058
      -0.734
      -0.333
       0.135
       0.668
       1.270
       1.948
       2.705
       3.530
       4.392
       5.231
       5.961
       6.492
       6.773
       6.813
       6.675
       6.441
       6.173
       5.900
       5.625
       5.333
       4.993
       4.566
       4.017
       3.349
       2.606
       1.852
       1.119
       0.387
      -0.396
      -1.257
      -2.165
      -3.035
      -3.781
      -4.359
      -4.785
      -5.119
      -5.420
      -5.702
      -5.921
      -6.000
      -5.873
      -5.531
      -5.018
      -4.410
      -3.763
      -3.094
      -2.400
      -1.690
      -1.001
      -0.381
       0.139
       0.566
       0.944
       1.332
       1.788
       2.338
       2.972
       3.651
       4.331
       4.985
       5.588
       6.102
       6.463
       6.610
       6.508
       6.164
       5.621
       4.936
       4.164
       3.358
       2.575
       1.873
       1.297
       0.866
       0.575
       0.397
       0.288
       0.186
       0.029
      -0.243
      -0.668
      -1.256
      -1.980
      -2.780
      -3.563
      -4.209
      -4.612
      -4.726
      -4.587
      -4.278
      -3.869
      -3.386
      -2.811
      -2.125
      -1.337
      -0.486
       0.394
       1.291
       2.218
       3.194
       4.227
       5.298
       6.366
       7.366
       8.238
       8.934
       9.433
       9.747
       9.910
       9.967
       9.965
       9.944
       9.923
       9.891
       9.808
       9.613
       9.245
       8.670
       7.896
       6.989
       6.055
       5.207
       4.524
       4.024
       3.667
       3.377
       3.078
       2.707
       2.226
       1.614
       0.871
       0.017
      -0.919
      -1.901
      -2.884
      -3.821
      -4.672
      -5.395
      -5.953
      -6.319
      -6.497
      -6.514
      -6.399
      -6.169
      -5.829
      -5.398
      -4.939
      -4.547
      -4.298
      -4.204
      -4.214
      -4.253
      -4.268
      -4.238
      -4.147
      -3.966
      -3.665
      -3.230
      -2.692
      -2.119
      -1.607
      -1.253
      -1.129
      -1.253
      -1.577
      -1.988
      -2.343
      -2.522
      -2.470
      -2.216
      -1.858
      -1.514
      -1.270
      -1.137
      -1.043
      -0.874
      -0.534
      -0.001
       0.649
       1.269
       1.697
       1.808
       1.556
       0.979
       0.189
      -0.658
      -1.399
      -1.908
      -2.132
      -2.092
      -1.860
      -1.529
      -1.202
      -0.998
      -1.041
      -1.420
      -2.148
      -3.139
      -4.249
      -5.336
      -6.308
      -7.124
      -7.768
      -8.223
      -8.468
      -8.474
      -8.212
      -7.662
      -6.821
      -5.719
      -4.424
      -3.022
      -1.607
      -0.267
       0.912
       1.843
       2.455
       2.711
       2.628
       2.272
       1.735
       1.117
       0.524
       0.078
      -0.089
       0.139
       0.819
       1.912
       3.292
       4.779
       6.188
       7.363
       8.183
       8.556
       8.420
       7.753
       6.595
       5.074
       3.385
       1.747
       0.339
      -0.736
      -1.456
      -1.853
      -1.987
      -1.941
      -1.820
      -1.742
      -1.819
      -2.126
      -2.680
      -3.443
      -4.327
      -5.220
      -6.016
      -6.639
      -7.042
      -7.194
      -7.062
      -6.618
      -5.865
      -4.854
      -3.675
      -2.423
      -1.178
       0.006
       1.090
       2.052
       2.887
       3.614
       4.256
       4.835
       5.369
       5.876
       6.368
       6.837
       7.230
       7.464
       7.459
       7.183
       6.677
       6.039
       5.389
       4.820
       4.370
       4.018
       3.709
       3.390
       3.028
       2.620
       2.182
       1.734
       1.286
       0.826
       0.310
      -0.340
      -1.201
      -2.301
      -3.581
      -4.900
      -6.100
      -7.084
      -7.859
      -8.514
      -9.154
      -9.823
     -10.476
     -11.001
     -11.277
     -11.242
     -10.923
     -10.433
      -9.911
      -9.455
      -9.084
      -8.742
      -8.332
      -7.755
      -6.942
      -5.866
      -4.558
      -3.091
      -1.567
      -0.076
       1.321
       2.589
       3.702
       4.623
       5.297
       5.678
       5.770
       5.660
       5.506
       5.495
       5.762
       6.326
       7.071
       7.792
       8.288
       8.449
       8.291
       7.916
       7.436
       6.914
       6.348
       5.708
       4.979
       4.187
       3.389
       2.650
       2.032
       1.596
       1.412
       1.532
       1.953
       2.571
       3.197
       3.629
       3.756
       3.621
       3.380
       3.197
       3.135
       3.121
       3.000
       2.633
       1.973
       1.083
       0.103
      -0.812
      -1.538
      -2.010
      -2.224
      -2.225
      -2.077
      -1.847
      -1.591
      -1.357
      -1.180
      -1.083
      -1.056
      -1.046
      -0.952
      -0.633
       0.049
       1.188
       2.768
       4.632
       6.485
       7.971
       8.778
       8.735
       7.864
       6.358
       4.521
       2.683
       1.112
      -0.038
      -0.745
      -1.090
      -1.190
      -1.151
      -1.040
      -0.883
      -0.682
      -0.426
      -0.090
       0.384
       1.070
       2.007
       3.148
       4.334
       5.338
       5.935
       5.974
       5.406
       4.278
       2.723
       0.945
      -0.817
      -2.358
      -3.576
      -4.507
      -5.285
      -6.064
      -6.928
      -7.862
      -8.772
      -9.524
      -9.997
     -10.114
      -9.855
      -9.277
      -8.506
      -7.704
      -7.009
      -6.470
      -6.031
      -5.569
      -4.979
      -4.241
      -3.427
      -2.636
      -1.922
      -1.263
      -0.588
       0.150
       0.931
       1.663
       2.221
       2.491
       2.410
       1.988
       1.309
       0.527
      -0.168
      -0.590
      -0.604
      -0.152
       0.730
       1.925
       3.267
       4.577
       5.704
       6.538
       6.995
       7.004
       6.526
       5.611
       4.445
       3.322
       2.523
       2.196
       2.302
       2.671
       3.120
       3.536
       3.878
       4.118
       4.193
       4.005
       3.464
       2.531
       1.241
      -0.304
      -1.952
      -3.496
      -4.684
      -5.249
      -4.994
      -3.895
      -2.156
      -0.164
       1.653
       2.987
       3.738
       3.987
       3.888
       3.581
       3.156
       2.688
       2.259
       1.969
       1.894
       2.042
       2.344
       2.679
       2.936
       3.053
       3.027
       2.877
       2.596
       2.125
       1.382
       0.317
      -1.040
      -2.580
      -4.145
      -5.558
      -6.646
      -7.258
      -7.310
      -6.844
      -6.055
      -5.249
      -4.735
      -4.719
      -5.254
      -6.267
      -7.607
      -9.102
     -10.585
     -11.913
     -12.964
     -13.656
     -13.940
     -13.788
     -13.186
     -12.124
     -10.621
      -8.746
      -6.646
      -4.531
      -2.628
      -1.120
      -0.102
       0.433
       0.567
       0.428
       0.162
      -0.087
      -0.189
      -0.052
       0.377
       1.114
       2.146
       3.428
       4.871
       6.326
       7.606
       8.541
       9.037
       9.114
       8.881
       8.471
       7.968
       7.367
       6.583
       5.516
       4.120
       2.447
       0.646
      -1.103
      -2.670
      -4.028
      -5.232
      -6.348
      -7.370
      -8.205
      -8.737
      -8.929
      -8.875
      -8.760
      -8.745
      -8.867
      -9.030
      -9.075
      -8.873
      -8.363
      -7.551
      -6.487
      -5.247
      -3.935
      -2.673
      -1.567
      -0.646
       0.154
       0.956
       1.855
       2.827
       3.718
       4.320
       4.510
       4.361
       4.124
       4.117
       4.574
       5.546
       6.905
       8.433
       9.931
      11.280
      12.446
      13.422
      14.178
      14.650
      14.771
      14.511
      13.902
      13.028
      11.983
      10.840
       9.645
       8.433
       7.234
       6.062
       4.892
       3.654
       2.260
       0.668
      -1.068
      -2.798
      -4.334
      -5.551
      -6.443
      -7.112
      -7.679
      -8.190
      -8.586
      -8.753
      -8.618
      -8.200
      -7.586
      -6.852
      -6.018
      -5.079
      -4.075
      -3.133
      -2.422
      -2.055
      -2.000
      -2.086
      -2.094
      -1.860
      -1.355
      -0.672
       0.029
       0.588
       0.884
       0.856
       0.510
      -0.087
      -0.808
      -1.501
      -2.022
      -2.273
      -2.213
      -1.856
      -1.257
      -0.510
       0.264
       0.932
       1.380
       1.538
       1.387
       0.950
       0.275
      -0.582
      -1.554
      -2.557
      -3.500
      -4.305
      -4.924
      -5.328
      -5.487
      -5.363
      -4.943
      -4.265
      -3.449
      -2.660
      -2.048
      -1.702
      -1.643
      -1.864
      -2.366
      -3.157
      -4.194
      -5.329
      -6.301
      -6.818
      -6.668
      -5.789
      -4.278
      -2.320
      -0.130
       2.091
       4.183
       6.033
       7.580
       8.800
       9.689
      10.257
      10.538
      10.603
      10.560
      10.522
      10.574
      10.748
      11.017
      11.312
      11.564
      11.726
      11.791
      11.768
      11.665
      11.478
      11.192
      10.782
      10.212
       9.425
       8.365
       7.017
       5.461
       3.883
       2.529
       1.621
       1.290
       1.549
       2.311
       3.437
       4.763
       6.113
       7.307
       8.190
       8.669
       8.749
       8.536
       8.179
       7.797
       7.417
       6.972
       6.337
       5.391
       4.058
       2.337
       0.316
      -1.819
      -3.822
      -5.449
      -6.526
      -6.989
      -6.882
      -6.324
      -5.503
      -4.646
      -3.984
      -3.677
      -3.767
      -4.166
      -4.716
      -5.270
      -5.748
      -6.146
      -6.490
      -6.798
      -7.069
      -7.301
      -7.504
      -7.689
      -7.855
      -7.980
      -8.042
      -8.048
      -8.033
      -8.032
      -8.047
      -8.022
      -7.869
      -7.513
      -6.936
      -6.184
      -5.349
      -4.542
      -3.855
      -3.349
      -3.029
      -2.831
      -2.639
      -2.354
      -1.973
      -1.605
      -1.410
      -1.509
      -1.918
      -2.545
      -3.233
      -3.814
      -4.150
      -4.157
      -3.835
      -3.277
      -2.672
      -2.248
      -2.197
      -2.588
      -3.332
      -4.214
      -4.995
      -5.521
      -5.780
      -5.860
      -5.860
      -5.804
      -5.613
      -5.157
      -4.337
      -3.143
      -1.658
      -0.019
       1.638
       3.198
       4.553
       5.596
       6.243
       6.483
       6.406
       6.180
       5.975
       5.888
       5.921
       6.023
       6.147
       6.269
       6.373
       6.422
       6.344
       6.061
       5.531
       4.782
       3.912
       3.050
       2.301
       1.717
       1.312
       1.101
       1.123
       1.422
       1.996
       2.755
       3.529
       4.122
       4.385
       4.250
       3.726
       2.891
       1.894
       0.928
       0.182
      -0.229
      -0.310
      -0.165
       0.063
       0.270
       0.424
       0.540
       0.647
       0.760
       0.875
       0.987
       1.095
       1.194
       1.273
       1.315
       1.327
       1.342
       1.408
       1.528
       1.616
       1.510
       1.050
       0.164
      -1.079
      -2.492
      -3.847
      -4.952
      -5.704
      -6.106
      -6.239
      -6.207
      -6.088
      -5.922
      -5.741
      -5.609
      -5.634
      -5.936
      -6.602
      -7.638
      -8.956
     -10.391
     -11.745
     -12.823
     -13.467
     -13.561
     -13.028
     -11.836
     -10.021
      -7.717
      -5.148
      -2.585
      -0.278
       1.589
       2.910
       3.643
       3.801
       3.451
       2.711
       1.727
       0.639
      -0.427
      -1.353
      -2.011
      -2.267
      -2.023
      -1.274
      -0.134
       1.182
       2.417
       3.349
       3.865
       3.976
       3.783
       3.401
       2.883
       2.201
       1.310
       0.233
      -0.893
      -1.856
      -2.464
      -2.639
      -2.423
      -1.923
      -1.233
      -0.400
       0.534
       1.467
       2.221
       2.588
       2.424
       1.715
       0.588
      -0.722
      -1.951
      -2.879
      -3.389
      -3.485
      -3.256
      -2.812
      -2.239
      -1.581
      -0.867
      -0.120
       0.641
       1.402
       2.157
       2.874
       3.497
       3.961
       4.230
       4.316
       4.264
       4.122
       3.901
       3.581
       3.139
       2.597
       2.062
       1.700
       1.654
       1.945
       2.430
       2.852
       2.977
       2.723
       2.203
       1.659
       1.334
       1.361
       1.736
       2.364
       3.129
       3.941
       4.729
       5.422
       5.939
       6.210
       6.183
       5.847
       5.251
       4.514
       3.821
       3.363
       3.260
       3.509
       3.992
       4.526
       4.943
       5.132
       5.061
       4.763
       4.323
       3.846
       3.406
       3.001
       2.543
       1.908
       1.024
      -0.059
      -1.182
      -2.155
      -2.850
      -3.232
      -3.331
      -3.189
      -2.847
      -2.369
      -1.866
      -1.489
      -1.363
      -1.526
      -1.898
      -2.312
      -2.589
      -2.613
      -2.371
      -1.947
      -1.479
      -1.101
      -0.896
      -0.870
      -0.961
      -1.069
      -1.099
      -1.001
      -0.793
      -0.541
      -0.317
      -0.136
       0.068
       0.421
