Origin Time       11/9/2010 07:02:09	 UTC
Lat.              25.9 N	
Long.             90.2 E	
Depth (Km)         20.0
Magnitude         5.0
 Region           Meghalaya-Assam-Border                                           
 Above details taken from IMD 
    
Station Code      KOK
Station Lat.       26.400  N
Station Long.      90.261  E
Station Height(m)   54.0
Site Class        C   Vs30 between 200 m/sec to 375 m/sec *  
Record Time       11.09.2010 07:00:09.069 UTC
Sampling Rate     200. Hz
 Record Duration   97.905 Sec.
 Direction         N-S (N positive)
Max. Acceleration    -12.571 cm/sec**2
     
  * For reference see Site Classification link of website 
     
 Base Line Corrected and Low Pass Filtered (Cut Off at 35 Hz) Time History
 Acceleration data in cm/sec**2
    
[...]
      -0.827
      -0.679
      -0.470
      -0.199
       0.077
       0.272
       0.346
       0.342
       0.337
       0.351
       0.310
       0.109
      -0.269
      -0.687
      -0.918
      -0.788
      -0.313
       0.291
       0.731
       0.815
       0.567
       0.204
      -0.031
      -0.042
       0.057
       0.057
      -0.156
      -0.498
      -0.753
      -0.753
      -0.504
      -0.166
       0.088
       0.192
       0.209
       0.237
       0.318
       0.398
       0.366
       0.137
      -0.259
      -0.660
      -0.845
      -0.677
      -0.201
       0.383
       0.863
       1.137
       1.228
       1.183
       0.995
       0.624
       0.096
      -0.441
      -0.781
      -0.802
      -0.559
      -0.245
      -0.044
      -0.010
      -0.054
      -0.044
       0.068
       0.198
       0.195
      -0.038
      -0.443
      -0.826
      -0.966
      -0.777
      -0.374
       0.001
       0.160
       0.103
      -0.012
      -0.031
       0.063
       0.168
       0.188
       0.112
      -0.018
      -0.168
      -0.342
      -0.534
      -0.699
      -0.767
      -0.675
      -0.398
       0.027
       0.492
       0.837
       0.920
       0.717
       0.358
       0.050
      -0.056
       0.042
       0.235
       0.410
       0.519
       0.561
       0.529
       0.412
       0.236
       0.087
       0.037
       0.088
       0.181
       0.272
       0.378
       0.519
       0.650
       0.660
       0.472
       0.115
      -0.290
      -0.617
      -0.800
      -0.838
      -0.761
      -0.604
      -0.398
      -0.162
       0.099
       0.367
       0.582
       0.649
       0.506
       0.177
      -0.231
      -0.604
      -0.887
      -1.075
      -1.158
      -1.108
      -0.905
      -0.569
      -0.163
       0.248
       0.604
       0.838
       0.865
       0.636
       0.196
      -0.289
      -0.606
      -0.623
      -0.371
      -0.022
       0.246
       0.356
       0.359
       0.350
       0.371
       0.383
       0.313
       0.128
      -0.118
      -0.321
      -0.385
      -0.282
      -0.052
       0.230
       0.481
       0.628
       0.614
       0.429
       0.130
      -0.175
      -0.390
      -0.485
      -0.483
      -0.424
      -0.338
      -0.251
      -0.178
      -0.101
       0.032
       0.256
       0.523
       0.695
       0.636
       0.333
      -0.063
      -0.319
      -0.278
       0.017
       0.336
       0.421
       0.179
      -0.243
      -0.568
      -0.605
      -0.383
      -0.109
       0.017
      -0.030
      -0.094
       0.014
       0.344
       0.737
       0.931
       0.748
       0.235
      -0.348
      -0.707
      -0.710
      -0.457
      -0.180
      -0.059
      -0.113
      -0.232
      -0.302
      -0.286
      -0.218
      -0.128
      -0.004
       0.179
       0.396
       0.558
       0.565
       0.388
       0.099
      -0.180
      -0.338
      -0.327
      -0.169
       0.071
       0.304
       0.458
       0.501
       0.434
       0.272
       0.022
      -0.291
      -0.572
      -0.672
      -0.476
      -0.007
       0.560
       1.002
       1.179
       1.092
       0.829
       0.487
       0.123
      -0.230
      -0.529
      -0.702
      -0.665
      -0.383
       0.074
       0.533
       0.793
       0.749
       0.470
       0.156
      -0.005
       0.031
       0.145
       0.164
       0.011
      -0.246
      -0.450
      -0.489
      -0.370
      -0.190
      -0.048
       0.028
       0.066
       0.097
       0.118
       0.096
       0.014
      -0.117
      -0.260
      -0.386
      -0.486
      -0.562
      -0.608
      -0.620
      -0.605
      -0.577
      -0.520
      -0.373
      -0.071
       0.367
       0.800
       1.022
       0.899
       0.468
      -0.081
      -0.531
      -0.758
      -0.772
      -0.674
      -0.561
      -0.479
      -0.416
      -0.343
      -0.255
      -0.182
      -0.155
      -0.169
      -0.187
      -0.177
      -0.164
      -0.217
      -0.378
      -0.590
      -0.704
      -0.576
      -0.182
       0.350
       0.822
       1.085
       1.101
       0.916
       0.604
       0.248
      -0.063
      -0.248
      -0.268
      -0.144
       0.068
       0.317
       0.563
       0.758
       0.839
       0.770
       0.595
       0.434
       0.396
       0.491
       0.619
       0.653
       0.529
       0.278
      -0.019
      -0.291
      -0.493
      -0.586
      -0.543
      -0.371
      -0.123
       0.147
       0.412
       0.654
       0.817
       0.810
       0.589
       0.227
      -0.125
      -0.346
      -0.422
      -0.405
      -0.327
      -0.195
      -0.053
      -0.008
      -0.145
      -0.419
      -0.676
      -0.769
      -0.673
      -0.470
      -0.258
      -0.088
       0.021
       0.053
      -0.003
      -0.121
      -0.227
      -0.242
      -0.139
       0.026
       0.155
       0.169
       0.065
      -0.092
      -0.211
      -0.223
      -0.110
       0.081
       0.256
       0.332
       0.300
       0.233
       0.202
       0.185
       0.084
      -0.165
      -0.496
      -0.759
      -0.840
      -0.749
      -0.580
      -0.415
      -0.260
      -0.087
       0.092
       0.205
       0.184
       0.057
      -0.062
      -0.065
       0.046
       0.161
       0.172
       0.072
      -0.058
      -0.129
      -0.110
      -0.021
       0.096
       0.193
       0.209
       0.092
      -0.151
      -0.427
      -0.603
      -0.606
      -0.480
      -0.330
      -0.214
      -0.082
       0.148
       0.482
       0.796
       0.925
       0.789
       0.466
       0.122
      -0.117
      -0.241
      -0.328
      -0.440
      -0.549
      -0.565
      -0.423
      -0.149
       0.156
       0.390
       0.505
       0.505
       0.412
       0.248
       0.045
      -0.137
      -0.224
      -0.173
      -0.025
       0.098
       0.076
      -0.114
      -0.358
      -0.497
      -0.456
      -0.296
      -0.137
      -0.032
       0.071
       0.249
       0.502
       0.748
       0.900
       0.931
       0.873
       0.772
       0.658
       0.550
       0.454
       0.351
       0.213
       0.045
      -0.102
      -0.175
      -0.180
      -0.174
      -0.194
      -0.196
      -0.097
       0.124
       0.380
       0.536
       0.516
       0.355
       0.168
       0.063
       0.086
       0.196
       0.271
       0.165
      -0.188
      -0.702
      -1.167
      -1.391
      -1.326
      -1.068
      -0.747
      -0.427
      -0.096
       0.253
       0.584
       0.828
       0.906
       0.748
       0.301
      -0.405
      -1.198
      -1.784
      -1.884
      -1.410
      -0.535
       0.403
       1.085
       1.373
       1.336
       1.163
       1.018
       0.931
       0.797
       0.473
      -0.081
      -0.718
      -1.157
      -1.150
      -0.670
       0.055
       0.682
       0.990
       1.002
       0.911
       0.878
       0.892
       0.813
       0.504
      -0.039
      -0.672
      -1.174
      -1.365
      -1.205
      -0.815
      -0.384
      -0.042
       0.218
       0.477
       0.771
       1.018
       1.065
       0.810
       0.281
      -0.369
      -0.926
      -1.210
      -1.153
      -0.840
      -0.459
      -0.160
       0.049
       0.280
       0.625
       1.024
       1.277
       1.196
       0.753
       0.110
      -0.492
      -0.878
      -1.010
      -0.956
      -0.803
      -0.594
      -0.328
      -0.001
       0.354
       0.669
       0.876
       0.945
       0.893
       0.758
       0.574
       0.355
       0.104
      -0.155
      -0.367
      -0.474
      -0.461
      -0.374
      -0.276
      -0.191
      -0.092
       0.044
       0.178
       0.221
       0.112
      -0.121
      -0.368
      -0.520
      -0.537
      -0.449
      -0.303
      -0.128
       0.067
       0.254
       0.387
       0.429
       0.396
       0.348
       0.339
       0.353
       0.308
       0.126
      -0.179
      -0.493
      -0.688
      -0.716
      -0.631
      -0.523
      -0.436
      -0.347
      -0.218
      -0.057
       0.078
       0.142
       0.149
       0.170
       0.257
       0.380
       0.435
       0.315
       0.001
      -0.398
      -0.707
      -0.802
      -0.690
      -0.487
      -0.306
      -0.168
      -0.011
       0.207
       0.436
       0.568
       0.540
       0.380
       0.170
      -0.025
      -0.177
      -0.267
      -0.282
      -0.225
      -0.117
       0.025
       0.188
       0.332
       0.384
       0.286
       0.069
      -0.146
      -0.233
      -0.159
       0.019
       0.234
       0.471
       0.738
       0.993
       1.125
       1.032
       0.717
       0.292
      -0.108
      -0.422
      -0.663
      -0.854
      -0.968
      -0.954
      -0.797
      -0.538
      -0.236
       0.062
       0.298
       0.398
       0.329
       0.173
       0.101
       0.222
       0.460
       0.616
       0.554
       0.337
       0.154
       0.129
       0.214
       0.251
       0.128
      -0.123
      -0.364
      -0.463
      -0.387
      -0.218
      -0.088
      -0.079
      -0.171
      -0.263
      -0.269
      -0.188
      -0.104
      -0.096
      -0.165
      -0.250
      -0.310
      -0.365
      -0.452
      -0.546
      -0.553
      -0.400
      -0.126
       0.123
       0.206
       0.106
      -0.056
      -0.127
      -0.051
       0.087
       0.135
       0.008
      -0.250
      -0.506
      -0.641
      -0.634
      -0.565
      -0.542
      -0.608
      -0.708
      -0.728
      -0.582
      -0.269
       0.126
       0.498
       0.769
       0.905
       0.894
       0.745
       0.507
       0.262
       0.084
       0.004
       0.027
       0.172
       0.449
       0.806
       1.104
       1.167
       0.884
       0.288
      -0.445
      -1.067
      -1.377
      -1.307
      -0.930
      -0.406
       0.108
       0.491
       0.668
       0.600
       0.319
      -0.053
      -0.354
      -0.484
      -0.477
      -0.468
      -0.552
      -0.690
      -0.724
      -0.513
      -0.054
       0.493
       0.901
       1.023
       0.870
       0.572
       0.273
       0.045
      -0.110
      -0.211
      -0.272
      -0.295
      -0.278
      -0.216
      -0.115
      -0.011
       0.040
       0.028
       0.034
       0.180
       0.517
       0.943
       1.260
       1.306
       1.054
       0.611
       0.142
      -0.205
      -0.350
      -0.300
      -0.128
       0.072
       0.234
       0.335
       0.376
       0.366
       0.329
       0.302
       0.312
       0.314
       0.198
      -0.138
      -0.666
      -1.196
      -1.463
      -1.315
      -0.821
      -0.225
       0.223
       0.420
       0.414
       0.297
       0.095
      -0.219
      -0.628
      -0.999
      -1.148
      -0.978
      -0.564
      -0.107
       0.200
       0.302
       0.305
       0.366
       0.529
       0.639
       0.460
      -0.092
      -0.796
      -1.233
      -1.092
      -0.409
       0.461
       1.116
       1.345
       1.178
       0.777
       0.312
      -0.075
      -0.280
      -0.252
      -0.044
       0.204
       0.344
       0.317
       0.187
       0.077
       0.074
       0.184
       0.344
       0.466
       0.477
       0.343
       0.096
      -0.174
      -0.377
      -0.487
      -0.559
      -0.663
      -0.799
      -0.879
      -0.772
      -0.408
       0.140
       0.668
       0.953
       0.899
       0.592
       0.224
      -0.046
      -0.169
      -0.188
      -0.172
      -0.143
      -0.068
       0.118
       0.439
       0.835
       1.155
       1.232
       0.994
       0.515
      -0.018
      -0.423
      -0.625
      -0.667
      -0.629
      -0.531
      -0.323
       0.051
       0.561
       1.076
       1.436
       1.556
       1.465
       1.249
       0.951
       0.544
       0.004
      -0.571
      -0.959
      -0.960
      -0.591
      -0.121
       0.101
      -0.097
      -0.607
      -1.143
      -1.444
      -1.399
      -1.045
      -0.499
       0.094
       0.588
       0.875
       0.922
       0.784
       0.560
       0.337
       0.146
      -0.024
      -0.191
      -0.334
      -0.391
      -0.291
      -0.024
       0.310
       0.539
       0.531
       0.289
      -0.065
      -0.415
      -0.756
      -1.161
      -1.641
      -2.045
      -2.133
      -1.770
      -1.061
      -0.312
       0.165
       0.228
      -0.056
      -0.512
      -0.993
      -1.461
      -1.968
      -2.566
      -3.219
      -3.792
      -4.104
      -4.029
      -3.565
      -2.833
      -2.014
      -1.250
      -0.613
      -0.121
       0.200
       0.312
       0.211
      -0.021
      -0.256
      -0.414
      -0.518
      -0.640
      -0.776
      -0.787
      -0.458
       0.354
       1.606
       3.076
       4.472
       5.554
       6.205
       6.413
       6.238
       5.780
       5.172
       4.550
       4.012
       3.596
       3.286
       3.060
       2.909
       2.835
       2.843
       2.969
       3.286
       3.856
       4.644
       5.473
       6.070
       6.169
       5.612
       4.409
       2.750
       0.945
      -0.688
      -1.947
      -2.784
      -3.214
      -3.211
      -2.704
      -1.710
      -0.444
       0.732
       1.506
       1.750
       1.476
       0.675
      -0.739
      -2.796
      -5.305
      -7.845
      -9.976
     -11.455
     -12.284
     -12.571
     -12.378
     -11.671
     -10.385
      -8.506
      -6.136
      -3.498
      -0.917
       1.228
       2.604
       3.022
       2.513
       1.334
      -0.089
      -1.273
      -1.816
      -1.540
      -0.551
       0.836
       2.267
       3.513
       4.487
       5.140
       5.372
       5.064
       4.228
       3.099
       2.038
       1.274
       0.755
       0.252
      -0.344
      -0.817
      -0.718
       0.312
       2.238
       4.578
       6.602
       7.661
       7.445
       6.055
       3.901
       1.508
      -0.633
      -2.135
      -2.748
      -2.425
      -1.383
      -0.080
       0.966
       1.412
       1.214
       0.558
      -0.324
      -1.282
      -2.242
      -3.114
      -3.757
      -4.066
      -4.103
      -4.114
      -4.364
      -4.898
      -5.419
      -5.444
      -4.658
      -3.195
      -1.615
      -0.569
      -0.408
      -1.001
      -1.861
      -2.448
      -2.455
      -1.904
      -1.036
      -0.087
       0.879
       1.955
       3.230
       4.605
       5.767
       6.335
       6.114
       5.240
       4.133
       3.238
       2.758
       2.543
       2.240
       1.604
       0.734
       0.049
      -0.005
       0.707
       1.871
       2.928
       3.437
       3.322
       2.843
       2.325
       1.899
       1.441
       0.745
      -0.231
      -1.276
      -2.075
      -2.464
      -2.514
      -2.398
      -2.167
      -1.700
      -0.884
       0.141
       0.925
       0.939
      -0.071
      -1.871
      -3.829
      -5.247
      -5.699
      -5.180
      -4.031
      -2.730
      -1.726
      -1.324
      -1.609
      -2.381
      -3.193
      -3.554
      -3.194
      -2.197
      -0.917
       0.271
       1.184
       1.871
       2.485
       3.120
       3.736
       4.235
       4.607
       4.976
       5.498
       6.180
       6.764
       6.788
       5.806
       3.647
       0.587
      -2.697
      -5.387
      -6.873
      -7.003
      -6.059
      -4.511
      -2.725
      -0.851
       1.056
       2.823
       4.061
       4.310
       3.358
       1.472
      -0.668
      -2.336
      -3.174
      -3.317
      -3.183
      -3.127
      -3.223
      -3.307
      -3.182
      -2.816
      -2.383
      -2.136
      -2.198
      -2.442
      -2.565
      -2.321
      -1.718
      -1.016
      -0.507
      -0.292
      -0.238
      -0.166
      -0.057
      -0.057
      -0.282
      -0.623
      -0.776
      -0.453
       0.433
       1.767
       3.353
       5.000
       6.501
       7.612
       8.124
       7.964
       7.201
       5.935
       4.212
       2.067
      -0.297
      -2.418
      -3.714
      -3.824
      -2.882
      -1.486
      -0.330
       0.233
       0.354
       0.474
       0.938
       1.760
       2.670
       3.336
       3.539
       3.214
       2.409
       1.216
      -0.292
      -2.064
      -3.992
      -5.798
      -7.038
      -7.285
      -6.411
      -4.721
      -2.812
      -1.275
      -0.447
      -0.382
      -0.959
      -1.962
      -3.079
      -3.881
      -3.940
      -3.036
      -1.334
       0.639
       2.206
       2.836
       2.367
       1.060
      -0.537
      -1.822
      -2.363
      -2.023
      -0.951
       0.546
       2.164
       3.710
       5.082
       6.162
       6.749
       6.619
       5.719
       4.298
       2.840
       1.793
       1.295
       1.113
       0.837
       0.195
      -0.724
      -1.497
      -1.619
      -0.835
       0.667
       2.329
       3.529
       3.920
       3.558
       2.772
       1.887
       1.053
       0.274
      -0.445
      -1.030
      -1.371
      -1.409
      -1.199
      -0.906
      -0.747
      -0.905
      -1.454
      -2.330
      -3.378
      -4.411
      -5.236
      -5.649
      -5.478
      -4.708
      -3.600
      -2.653
      -2.322
      -2.663
      -3.215
      -3.303
      -2.557
      -1.189
       0.233
       1.276
       1.902
       2.284
       2.470
       2.319
       1.791
       1.191
       1.024
       1.549
       2.491
       3.223
       3.269
       2.664
       1.865
       1.327
       1.152
       1.110
       0.949
       0.649
       0.406
       0.417
       0.719
       1.219
       1.795
       2.338
       2.721
       2.803
       2.515
       1.958
       1.384
       1.029
       0.938
       0.919
       0.693
       0.123
      -0.690
      -1.533
      -2.300
      -3.069
      -3.951
      -4.880
      -5.551
      -5.596
      -4.836
      -3.430
      -1.815
      -0.497
       0.184
       0.203
      -0.176
      -0.599
      -0.862
      -1.004
      -1.204
      -1.572
      -2.049
      -2.507
      -2.885
      -3.194
      -3.353
      -3.081
      -2.032
      -0.115
       2.291
       4.464
       5.741
       5.889
       5.158
       4.022
       2.855
       1.801
       0.876
       0.159
      -0.142
       0.163
       1.006
       1.986
       2.567
       2.438
       1.728
       0.894
       0.370
       0.256
       0.288
       0.086
      -0.539
      -1.456
      -2.326
      -2.819
      -2.764
      -2.150
      -1.079
       0.259
       1.588
       2.579
       2.945
       2.565
       1.574
       0.354
      -0.603
      -0.929
      -0.595
       0.070
       0.582
       0.600
       0.100
      -0.669
      -1.364
      -1.733
      -1.708
      -1.367
      -0.804
      -0.025
       1.028
       2.308
       3.549
       4.359
       4.480
       4.003
       3.289
       2.700
       2.362
       2.181
       2.029
       1.877
       1.714
       1.400
       0.672
      -0.633
      -2.333
      -3.904
      -4.783
      -4.725
      -3.911
      -2.764
      -1.684
      -0.940
      -0.711
      -1.094
      -2.037
      -3.289
