Origin Time       26/2/2010 4:42:33	 
Lat.              28.5 N	
Long.             86.7 E	
Depth (Km)         28.0
Magnitude         5.4
 Region           Tibet                                                            
 Above details taken from IMD 
   
Station Code      KOK
Station Lat.       26.400
Station Long.      90.261
Station Height(m)   54.0
Site Class        C   Vs30 between 200 m/sec to 375 m/sec *  
Record Time       26.02.2010 04:43:50.169
Sampling Rate     200. Hz
 Record Duration   84.140 Sec.
 Direction         Vert. (Up positive)
Max. Acceleration      2.595 cm/sec**2
     
  * For reference see Site Classification link of website 
     
 Base Line Corrected and Low Pass Filtered (Cut Off at 35 Hz) Time History
 Acceleration data in cm/sec**2
    
[...]
      -0.175
      -0.144
      -0.048
       0.097
       0.258
       0.401
       0.507
       0.574
       0.604
       0.597
       0.552
       0.472
       0.373
       0.278
       0.200
       0.137
       0.076
       0.009
      -0.059
      -0.118
      -0.158
      -0.174
      -0.174
      -0.171
      -0.177
      -0.185
      -0.174
      -0.127
      -0.046
       0.041
       0.093
       0.084
       0.020
      -0.059
      -0.102
      -0.092
      -0.050
      -0.021
      -0.042
      -0.119
      -0.221
      -0.298
      -0.307
      -0.239
      -0.124
      -0.019
       0.028
       0.005
      -0.057
      -0.112
      -0.131
      -0.116
      -0.088
      -0.064
      -0.043
      -0.019
       0.012
       0.044
       0.070
       0.079
       0.070
       0.049
       0.018
      -0.028
      -0.094
      -0.165
      -0.212
      -0.212
      -0.163
      -0.083
       0.000
       0.067
       0.111
       0.132
       0.136
       0.128
       0.111
       0.079
       0.025
      -0.053
      -0.134
      -0.185
      -0.179
      -0.111
       0.009
       0.162
       0.325
       0.479
       0.610
       0.709
       0.757
       0.731
       0.625
       0.457
       0.271
       0.111
       0.009
      -0.030
      -0.026
      -0.008
       0.002
      -0.007
      -0.045
      -0.129
      -0.271
      -0.469
      -0.692
      -0.895
      -1.033
      -1.078
      -1.026
      -0.902
      -0.744
      -0.592
      -0.467
      -0.367
      -0.280
      -0.197
      -0.114
      -0.038
       0.025
       0.075
       0.118
       0.162
       0.210
       0.253
       0.277
       0.264
       0.207
       0.120
       0.033
      -0.022
      -0.031
       0.002
       0.068
       0.161
       0.271
       0.390
       0.508
       0.612
       0.676
       0.679
       0.618
       0.520
       0.421
       0.359
       0.350
       0.381
       0.420
       0.432
       0.402
       0.331
       0.230
       0.113
      -0.005
      -0.120
      -0.232
      -0.340
      -0.435
      -0.498
      -0.515
      -0.484
      -0.414
      -0.320
      -0.220
      -0.130
      -0.074
      -0.072
      -0.133
      -0.248
      -0.392
      -0.535
      -0.642
      -0.686
      -0.648
      -0.526
      -0.329
      -0.076
       0.203
       0.465
       0.664
       0.755
       0.707
       0.520
       0.222
      -0.128
      -0.462
      -0.709
      -0.823
      -0.800
      -0.668
      -0.474
      -0.259
      -0.049
       0.135
       0.269
       0.328
       0.299
       0.203
       0.090
       0.013
       0.009
       0.073
       0.174
       0.271
       0.339
       0.372
       0.377
       0.367
       0.346
       0.313
       0.265
       0.211
       0.163
       0.130
       0.113
       0.107
       0.106
       0.111
       0.130
       0.170
       0.237
       0.324
       0.415
       0.484
       0.516
       0.509
       0.479
       0.436
       0.381
       0.302
       0.186
       0.039
      -0.111
      -0.230
      -0.294
      -0.303
      -0.279
      -0.258
      -0.273
      -0.333
      -0.431
      -0.554
      -0.688
      -0.830
      -0.978
      -1.118
      -1.221
      -1.248
      -1.173
      -0.998
      -0.748
      -0.467
      -0.199
       0.025
       0.195
       0.310
       0.374
       0.398
       0.402
       0.410
       0.435
       0.469
       0.494
       0.496
       0.477
       0.450
       0.419
       0.376
       0.307
       0.207
       0.090
      -0.024
      -0.112
      -0.163
      -0.170
      -0.127
      -0.035
       0.086
       0.208
       0.303
       0.362
       0.389
       0.401
       0.410
       0.413
       0.400
       0.360
       0.285
       0.169
       0.018
      -0.152
      -0.307
      -0.402
      -0.402
      -0.303
      -0.142
       0.027
       0.159
       0.222
       0.208
       0.124
      -0.012
      -0.181
      -0.358
      -0.518
      -0.645
      -0.726
      -0.741
      -0.668
      -0.503
      -0.271
      -0.031
       0.145
       0.213
       0.179
       0.089
      -0.004
      -0.069
      -0.102
      -0.108
      -0.089
      -0.040
       0.038
       0.139
       0.251
       0.351
       0.410
       0.401
       0.314
       0.158
      -0.030
      -0.205
      -0.334
      -0.405
      -0.421
      -0.387
      -0.307
      -0.181
      -0.018
       0.169
       0.356
       0.520
       0.633
       0.672
       0.636
       0.555
       0.479
       0.445
       0.453
       0.466
       0.443
       0.370
       0.265
       0.155
       0.056
      -0.039
      -0.141
      -0.247
      -0.332
      -0.359
      -0.305
      -0.176
       0.001
       0.190
       0.369
       0.525
       0.636
       0.668
       0.600
       0.436
       0.207
      -0.048
      -0.292
      -0.509
      -0.701
      -0.872
      -1.020
      -1.139
      -1.217
      -1.236
      -1.183
      -1.065
      -0.911
      -0.759
      -0.636
      -0.542
      -0.458
      -0.363
      -0.250
      -0.130
      -0.022
       0.069
       0.165
       0.314
       0.548
       0.855
       1.176
       1.436
       1.576
       1.579
       1.471
       1.291
       1.067
       0.813
       0.540
       0.270
       0.044
      -0.100
      -0.154
      -0.142
      -0.102
      -0.062
      -0.038
      -0.036
      -0.068
      -0.153
      -0.300
      -0.499
      -0.720
      -0.918
      -1.044
      -1.067
      -0.987
      -0.833
      -0.651
      -0.480
      -0.340
      -0.229
      -0.141
      -0.074
      -0.035
      -0.037
      -0.078
      -0.130
      -0.146
      -0.094
       0.026
       0.178
       0.312
       0.394
       0.413
       0.375
       0.286
       0.157
       0.013
      -0.112
      -0.187
      -0.188
      -0.109
       0.042
       0.242
       0.449
       0.609
       0.678
       0.636
       0.490
       0.274
       0.039
      -0.161
      -0.284
      -0.312
      -0.268
      -0.204
      -0.178
      -0.219
      -0.318
      -0.441
      -0.555
      -0.649
      -0.726
      -0.779
      -0.780
      -0.698
      -0.521
      -0.257
       0.072
       0.441
       0.823
       1.175
       1.444
       1.587
       1.584
       1.446
       1.212
       0.935
       0.668
       0.451
       0.304
       0.222
       0.188
       0.185
       0.195
       0.202
       0.194
       0.165
       0.111
       0.026
      -0.091
      -0.228
      -0.361
      -0.455
      -0.487
      -0.458
      -0.393
      -0.323
      -0.267
      -0.228
      -0.204
      -0.202
      -0.233
      -0.307
      -0.421
      -0.566
      -0.725
      -0.867
      -0.959
      -0.967
      -0.875
      -0.696
      -0.471
      -0.240
      -0.030
       0.146
       0.279
       0.368
       0.424
       0.465
       0.507
       0.549
       0.559
       0.497
       0.349
       0.140
      -0.074
      -0.237
      -0.314
      -0.305
      -0.227
      -0.099
       0.055
       0.203
       0.306
       0.325
       0.247
       0.092
      -0.097
      -0.279
      -0.430
      -0.539
      -0.591
      -0.569
      -0.466
      -0.290
      -0.069
       0.162
       0.365
       0.490
       0.497
       0.375
       0.161
      -0.073
      -0.253
      -0.334
      -0.305
      -0.183
       0.010
       0.244
       0.489
       0.715
       0.901
       1.034
       1.111
       1.129
       1.075
       0.934
       0.705
       0.413
       0.101
      -0.182
      -0.404
      -0.561
      -0.671
      -0.760
      -0.843
      -0.926
      -0.999
      -1.041
      -1.037
      -0.982
      -0.894
      -0.810
      -0.762
      -0.752
      -0.746
      -0.704
      -0.606
      -0.462
      -0.295
      -0.118
       0.063
       0.242
       0.411
       0.570
       0.726
       0.892
       1.074
       1.269
       1.450
       1.580
       1.623
       1.564
       1.423
       1.241
       1.055
       0.880
       0.705
       0.517
       0.323
       0.150
       0.026
      -0.045
      -0.093
      -0.164
      -0.293
      -0.478
      -0.680
      -0.853
      -0.966
      -1.017
      -1.036
      -1.054
      -1.075
      -1.067
      -0.991
      -0.841
      -0.654
      -0.492
      -0.400
      -0.382
      -0.410
      -0.449
      -0.478
      -0.480
      -0.443
      -0.354
      -0.206
      -0.003
       0.236
       0.480
       0.700
       0.869
       0.975
       1.024
       1.032
       1.011
       0.966
       0.899
       0.809
       0.697
       0.566
       0.421
       0.266
       0.112
      -0.026
      -0.131
      -0.194
      -0.224
      -0.243
      -0.279
      -0.352
      -0.464
      -0.602
      -0.745
      -0.878
      -0.993
      -1.085
      -1.144
      -1.160
      -1.120
      -1.017
      -0.856
      -0.668
      -0.497
      -0.367
      -0.275
      -0.193
      -0.089
       0.057
       0.248
       0.470
       0.692
       0.873
       0.984
       1.027
       1.027
       1.015
       1.005
       0.985
       0.938
       0.857
       0.754
       0.649
       0.557
       0.488
       0.440
       0.407
       0.381
       0.359
       0.330
       0.268
       0.139
      -0.086
      -0.416
      -0.819
      -1.229
      -1.565
      -1.762
      -1.779
      -1.610
      -1.286
      -0.865
      -0.420
      -0.016
       0.312
       0.558
       0.734
       0.857
       0.946
       1.026
       1.118
       1.234
       1.361
       1.452
       1.452
       1.316
       1.038
       0.652
       0.219
      -0.202
      -0.568
      -0.851
      -1.033
      -1.103
      -1.053
      -0.895
      -0.672
      -0.451
      -0.294
      -0.235
      -0.271
      -0.371
      -0.491
      -0.600
      -0.680
      -0.728
      -0.743
      -0.723
      -0.666
      -0.571
      -0.452
      -0.329
      -0.219
      -0.136
      -0.084
      -0.066
      -0.075
      -0.098
      -0.110
      -0.090
      -0.026
       0.075
       0.201
       0.341
       0.487
       0.614
       0.677
       0.647
       0.543
       0.439
       0.417
       0.523
       0.743
       1.019
       1.284
       1.480
       1.569
       1.525
       1.346
       1.056
       0.697
       0.317
      -0.044
      -0.356
      -0.609
      -0.805
      -0.956
      -1.077
      -1.183
      -1.294
      -1.424
      -1.581
      -1.757
      -1.917
      -2.010
      -1.983
      -1.809
      -1.490
      -1.064
      -0.583
      -0.100
       0.348
       0.748
       1.098
       1.394
       1.618
       1.741
       1.733
       1.598
       1.389
       1.191
       1.076
       1.061
       1.101
       1.124
       1.066
       0.905
       0.652
       0.337
      -0.008
      -0.342
      -0.613
      -0.769
      -0.781
      -0.649
      -0.397
      -0.066
       0.292
       0.617
       0.842
       0.912
       0.800
       0.515
       0.099
      -0.394
      -0.902
      -1.367
      -1.730
      -1.944
      -1.977
      -1.826
      -1.529
      -1.155
      -0.786
      -0.493
      -0.317
      -0.269
      -0.319
      -0.414
      -0.492
      -0.510
      -0.450
      -0.318
      -0.124
       0.124
       0.410
       0.700
       0.951
       1.127
       1.219
       1.237
       1.197
       1.105
       0.963
       0.790
       0.626
       0.513
       0.471
       0.481
       0.499
       0.485
       0.425
       0.331
       0.216
       0.090
      -0.041
      -0.173
      -0.304
      -0.431
      -0.549
      -0.646
      -0.706
      -0.728
      -0.727
      -0.726
      -0.735
      -0.746
      -0.742
      -0.700
      -0.606
      -0.465
      -0.292
      -0.089
       0.144
       0.405
       0.669
       0.893
       1.037
       1.089
       1.057
       0.951
       0.773
       0.529
       0.242
      -0.044
      -0.279
      -0.416
      -0.438
      -0.364
      -0.245
      -0.136
      -0.070
      -0.046
      -0.045
      -0.052
      -0.064
      -0.092
      -0.149
      -0.237
      -0.338
      -0.424
      -0.479
      -0.504
      -0.516
      -0.529
      -0.540
      -0.527
      -0.472
      -0.364
      -0.209
      -0.021
       0.180
       0.378
       0.568
       0.745
       0.904
       1.031
       1.104
       1.102
       1.015
       0.855
       0.641
       0.399
       0.150
      -0.090
      -0.312
      -0.519
      -0.723
      -0.930
      -1.128
      -1.283
      -1.363
      -1.359
      -1.281
      -1.153
      -0.999
      -0.834
      -0.658
      -0.462
      -0.242
      -0.005
       0.227
       0.432
       0.602
       0.749
       0.884
       1.000
       1.073
       1.081
       1.019
       0.897
       0.739
       0.572
       0.418
       0.298
       0.219
       0.175
       0.152
       0.144
       0.151
       0.179
       0.231
       0.312
       0.434
       0.599
       0.789
       0.961
       1.073
       1.110
       1.088
       1.021
       0.895
       0.678
       0.353
      -0.060
      -0.508
      -0.940
      -1.322
      -1.642
      -1.902
      -2.106
      -2.252
      -2.328
      -2.315
      -2.203
      -2.001
      -1.741
      -1.459
      -1.181
      -0.918
      -0.688
      -0.512
      -0.407
      -0.352
      -0.287
      -0.133
       0.165
       0.601
       1.108
       1.594
       1.991
       2.277
       2.463
       2.568
       2.595
       2.533
       2.370
       2.098
       1.720
       1.254
       0.736
       0.218
      -0.248
      -0.632
      -0.939
      -1.193
      -1.409
      -1.570
      -1.632
      -1.562
      -1.373
      -1.124
      -0.878
      -0.666
      -0.485
      -0.324
      -0.182
      -0.067
       0.023
       0.097
       0.150
       0.163
       0.122
       0.036
      -0.055
      -0.113
      -0.125
      -0.103
      -0.067
      -0.043
      -0.058
      -0.138
      -0.284
      -0.465
      -0.617
      -0.672
      -0.595
      -0.392
      -0.103
       0.231
       0.587
       0.952
       1.311
       1.642
       1.920
       2.120
       2.218
       2.188
       2.014
       1.701
       1.288
       0.835
       0.400
       0.019
      -0.302
      -0.572
      -0.798
      -0.969
      -1.065
      -1.083
      -1.049
      -1.007
      -1.002
      -1.060
      -1.176
      -1.323
      -1.462
      -1.563
      -1.609
      -1.600
      -1.536
      -1.408
      -1.200
      -0.901
      -0.521
      -0.092
       0.338
       0.720
       1.014
       1.196
       1.263
       1.233
       1.130
       0.990
       0.856
       0.776
       0.780
       0.869
       1.010
       1.155
       1.246
       1.242
       1.130
       0.933
       0.698
       0.471
       0.271
       0.092
      -0.081
      -0.253
      -0.420
      -0.574
      -0.711
      -0.827
      -0.924
      -1.012
      -1.109
      -1.240
      -1.411
      -1.592
      -1.722
      -1.742
      -1.641
      -1.454
      -1.228
      -0.982
      -0.699
      -0.363
       0.014
       0.388
       0.715
       0.965
       1.135
       1.233
       1.267
       1.260
       1.247
       1.268
       1.339
       1.431
       1.484
       1.455
       1.346
       1.197
       1.046
       0.890
       0.698
       0.447
       0.145
      -0.173
      -0.472
      -0.746
      -1.006
      -1.266
      -1.517
      -1.732
      -1.880
      -1.943
      -1.914
      -1.789
      -1.565
      -1.253
      -0.887
      -0.521
      -0.207
       0.022
       0.161
       0.231
       0.272
       0.323
       0.403
       0.507
       0.625
       0.742
       0.841
       0.909
       0.941
       0.951
       0.962
       0.995
       1.046
       1.084
       1.075
       1.010
       0.908
       0.789
       0.659
       0.507
       0.324
       0.118
      -0.085
      -0.258
      -0.396
      -0.520
      -0.663
      -0.849
      -1.082
      -1.342
      -1.589
      -1.787
      -1.907
      -1.925
      -1.825
      -1.607
      -1.289
      -0.906
      -0.502
      -0.114
       0.232
       0.517
       0.725
       0.848
       0.893
       0.883
       0.845
       0.797
       0.744
       0.696
       0.669
       0.683
       0.740
       0.815
       0.887
       0.951
       1.015
       1.073
       1.091
       1.027
       0.856
       0.595
       0.299
       0.024
      -0.198
      -0.364
      -0.489
      -0.589
      -0.673
      -0.745
      -0.811
      -0.882
      -0.958
      -1.033
      -1.091
      -1.122
      -1.111
      -1.045
      -0.914
      -0.723
      -0.490
      -0.238
       0.021
       0.285
       0.552
       0.800
       0.993
       1.094
       1.080
       0.951
       0.733
       0.466
       0.201
      -0.001
      -0.087
      -0.036
       0.132
       0.363
       0.601
       0.802
       0.942
       1.012
       1.008
       0.928
       0.776
       0.555
       0.262
      -0.096
      -0.499
      -0.905
      -1.270
      -1.558
      -1.749
      -1.834
      -1.808
      -1.674
      -1.446
      -1.161
      -0.861
      -0.586
      -0.352
      -0.154
       0.026
       0.204
       0.386
       0.569
       0.753
       0.939
       1.130
       1.316
       1.468
       1.542
       1.505
       1.346
       1.090
       0.792
       0.518
       0.315
       0.196
       0.151
       0.162
       0.205
       0.252
       0.276
       0.253
       0.174
       0.052
      -0.093
      -0.245
      -0.402
      -0.561
      -0.717
      -0.848
      -0.926
      -0.925
      -0.840
      -0.696
      -0.543
      -0.433
      -0.403
      -0.460
      -0.584
      -0.737
      -0.871
      -0.938
      -0.901
      -0.752
      -0.524
      -0.284
      -0.103
      -0.022
      -0.029
      -0.069
      -0.083
      -0.043
       0.043
       0.157
       0.294
       0.463
       0.668
       0.896
       1.119
       1.308
       1.449
       1.528
       1.529
       1.439
       1.251
       0.968
       0.607
       0.199
      -0.213
      -0.581
      -0.861
      -1.023
      -1.054
      -0.973
      -0.827
      -0.678
      -0.577
      -0.556
      -0.614
      -0.727
      -0.862
      -0.987
      -1.066
      -1.070
      -0.979
      -0.795
      -0.544
      -0.272
      -0.028
       0.166
       0.321
       0.457
       0.581
       0.681
       0.736
       0.745
       0.730
       0.728
       0.756
       0.796
       0.823
       0.831
       0.825
       0.811
       0.787
       0.749
       0.698
       0.641
       0.582
       0.515
       0.419
       0.282
       0.096
      -0.139
      -0.424
      -0.744
      -1.073
      -1.382
      -1.635
      -1.800
      -1.850
      -1.775
      -1.581
      -1.295
      -0.957
      -0.607
      -0.265
       0.064
       0.376
       0.665
       0.914
       1.103
       1.212
       1.232
       1.167
       1.037
       0.880
       0.743
       0.652
       0.602
       0.559
       0.484
       0.361
       0.207
       0.053
      -0.088
      -0.229
      -0.385
      -0.546
      -0.684
      -0.774
      -0.808
      -0.790
      -0.722
      -0.606
      -0.456
      -0.312
