Origin Time       21/9/2009 8:53:04	 
Lat.              27.3 N	
Long.             91.5 E	
Depth (Km)          8.0
Magnitude         6.2
 Region           BHUTAN                                                           
 Above details taken from IMD 
   
Station Code      KOK
Station Lat.       26.400
Station Long.      90.261
Station Height(m)   53.0
Site Class        C   Vs30 between 200 m/sec to 375 m/sec *  
Record Time       21.09.2009 08:53:19.899
Sampling Rate     200. Hz
 Record Duration  108.310 Sec.
 Direction         Vert. (Up positive)
Max. Acceleration     14.129 cm/sec**2
     
  * For reference see Site Classification link of website 
     
 Base Line Corrected and Low Pass Filtered (Cut Off at 35 Hz) Time History
 Acceleration data in cm/sec**2
    
[...]
       0.653
       0.638
       0.456
       0.139
      -0.228
      -0.541
      -0.720
      -0.738
      -0.626
      -0.447
      -0.261
      -0.102
       0.023
       0.112
       0.166
       0.200
       0.257
       0.402
       0.687
       1.108
       1.601
       2.067
       2.425
       2.636
       2.706
       2.664
       2.545
       2.373
       2.155
       1.881
       1.537
       1.116
       0.634
       0.127
      -0.359
      -0.783
      -1.120
      -1.351
      -1.446
      -1.377
      -1.140
      -0.777
      -0.375
      -0.035
       0.182
       0.284
       0.329
       0.381
       0.465
       0.560
       0.619
       0.611
       0.520
       0.337
       0.046
      -0.359
      -0.841
      -1.314
      -1.676
      -1.863
      -1.885
      -1.808
      -1.710
      -1.639
      -1.602
      -1.579
      -1.535
      -1.442
      -1.284
      -1.076
      -0.859
      -0.685
      -0.578
      -0.516
      -0.448
      -0.333
      -0.164
       0.031
       0.211
       0.340
       0.400
       0.394
       0.350
       0.313
       0.330
       0.416
       0.551
       0.690
       0.793
       0.841
       0.829
       0.753
       0.604
       0.392
       0.163
       0.001
      -0.009
       0.175
       0.527
       0.965
       1.388
       1.729
       1.972
       2.137
       2.231
       2.218
       2.030
       1.624
       1.029
       0.355
      -0.259
      -0.707
      -0.955
      -1.039
      -1.024
      -0.967
      -0.895
      -0.809
      -0.703
      -0.589
      -0.509
      -0.513
      -0.612
      -0.738
      -0.759
      -0.551
      -0.103
       0.464
       0.955
       1.216
       1.211
       1.006
       0.696
       0.348
      -0.003
      -0.316
      -0.543
      -0.663
      -0.714
      -0.787
      -0.973
      -1.303
      -1.726
      -2.139
      -2.436
      -2.550
      -2.464
      -2.203
      -1.828
      -1.413
      -1.036
      -0.750
      -0.569
      -0.459
      -0.355
      -0.184
       0.092
       0.471
       0.912
       1.358
       1.753
       2.042
       2.176
       2.115
       1.839
       1.357
       0.716
       0.001
      -0.678
      -1.208
      -1.499
      -1.503
      -1.219
      -0.692
       0.002
       0.762
       1.468
       1.980
       2.165
       1.947
       1.365
       0.591
      -0.122
      -0.552
      -0.600
      -0.324
       0.119
       0.558
       0.874
       1.011
       0.957
       0.733
       0.391
       0.010
      -0.330
      -0.573
      -0.712
      -0.779
      -0.822
      -0.879
      -0.958
      -1.031
      -1.050
      -0.978
      -0.820
      -0.614
      -0.408
      -0.221
      -0.026
       0.225
       0.569
       1.001
       1.463
       1.847
       2.015
       1.845
       1.297
       0.455
      -0.483
      -1.282
      -1.758
      -1.829
      -1.508
      -0.874
      -0.045
       0.830
       1.588
       2.086
       2.250
       2.086
       1.658
       1.045
       0.324
      -0.434
      -1.150
      -1.739
      -2.109
      -2.188
      -1.949
      -1.429
      -0.736
      -0.024
       0.549
       0.856
       0.842
       0.535
       0.033
      -0.525
      -1.003
      -1.314
      -1.431
      -1.381
      -1.219
      -1.014
      -0.834
      -0.728
      -0.704
      -0.710
      -0.655
      -0.460
      -0.090
       0.435
       1.067
       1.748
       2.402
       2.939
       3.261
       3.298
       3.043
       2.542
       1.859
       1.044
       0.140
      -0.794
      -1.653
      -2.301
      -2.612
      -2.512
      -2.016
      -1.219
      -0.276
       0.644
       1.396
       1.877
       2.027
       1.817
       1.259
       0.422
      -0.555
      -1.477
      -2.138
      -2.375
      -2.105
      -1.348
      -0.223
       1.061
       2.246
       3.085
       3.409
       3.159
       2.387
       1.225
      -0.140
      -1.491
      -2.628
      -3.406
      -3.753
      -3.667
      -3.198
      -2.433
      -1.492
      -0.503
       0.407
       1.136
       1.608
       1.773
       1.614
       1.167
       0.529
      -0.151
      -0.725
      -1.089
      -1.210
      -1.117
      -0.883
      -0.604
      -0.384
      -0.296
      -0.355
      -0.508
      -0.668
      -0.753
      -0.728
      -0.605
      -0.427
      -0.258
      -0.164
      -0.199
      -0.376
      -0.661
      -0.990
      -1.300
      -1.542
      -1.673
      -1.637
      -1.375
      -0.854
      -0.090
       0.852
       1.871
       2.856
       3.688
       4.248
       4.442
       4.219
       3.590
       2.629
       1.469
       0.295
      -0.677
      -1.255
      -1.334
      -0.939
      -0.215
       0.615
       1.324
       1.724
       1.709
       1.273
       0.506
      -0.427
      -1.338
      -2.065
      -2.498
      -2.593
      -2.368
      -1.887
      -1.244
      -0.538
       0.141
       0.722
       1.146
       1.368
       1.378
       1.205
       0.920
       0.604
       0.337
       0.188
       0.213
       0.417
       0.729
       0.992
       1.039
       0.780
       0.264
      -0.351
      -0.883
      -1.205
      -1.287
      -1.182
      -1.000
      -0.864
      -0.865
      -1.021
      -1.280
      -1.557
      -1.797
      -1.989
      -2.136
      -2.211
      -2.142
      -1.850
      -1.299
      -0.538
       0.312
       1.108
       1.737
       2.147
       2.340
       2.337
       2.150
       1.777
       1.216
       0.501
      -0.290
      -1.052
      -1.682
      -2.105
      -2.295
      -2.266
      -2.060
      -1.728
      -1.310
      -0.830
      -0.296
       0.285
       0.896
       1.516
       2.127
       2.699
       3.175
       3.462
       3.470
       3.163
       2.591
       1.874
       1.145
       0.513
       0.047
      -0.210
      -0.244
      -0.084
       0.178
       0.408
       0.472
       0.296
      -0.112
      -0.675
      -1.284
      -1.839
      -2.263
      -2.495
      -2.487
      -2.217
      -1.701
      -1.009
      -0.243
       0.495
       1.133
       1.635
       1.989
       2.181
       2.201
       2.049
       1.759
       1.395
       1.024
       0.692
       0.401
       0.129
      -0.137
      -0.383
      -0.569
      -0.653
      -0.625
      -0.511
      -0.373
      -0.294
      -0.353
      -0.602
      -1.043
      -1.617
      -2.214
      -2.711
      -3.004
      -3.030
      -2.764
      -2.208
      -1.395
      -0.402
       0.647
       1.598
       2.310
       2.684
       2.677
       2.298
       1.597
       0.678
      -0.316
      -1.220
      -1.898
      -2.275
      -2.351
      -2.178
      -1.825
      -1.355
      -0.819
      -0.264
       0.257
       0.699
       1.030
       1.234
       1.308
       1.260
       1.121
       0.950
       0.825
       0.801
       0.872
       0.957
       0.945
       0.757
       0.388
      -0.096
      -0.604
      -1.056
      -1.395
      -1.581
      -1.585
      -1.397
      -1.045
      -0.583
      -0.080
       0.412
       0.852
       1.203
       1.417
       1.436
       1.218
       0.760
       0.115
      -0.604
      -1.253
      -1.681
      -1.776
      -1.490
      -0.855
       0.020
       0.970
       1.816
       2.406
       2.652
       2.541
       2.126
       1.498
       0.763
       0.028
      -0.603
      -1.050
      -1.276
      -1.298
      -1.169
      -0.938
      -0.634
      -0.274
       0.100
       0.408
       0.545
       0.438
       0.072
      -0.493
      -1.148
      -1.771
      -2.244
      -2.469
      -2.383
      -1.985
      -1.342
      -0.579
       0.165
       0.760
       1.114
       1.180
       0.979
       0.608
       0.218
      -0.046
      -0.093
       0.093
       0.482
       1.028
       1.668
       2.307
       2.815
       3.066
       2.991
       2.609
       1.999
       1.255
       0.449
      -0.366
      -1.129
      -1.767
      -2.203
      -2.394
      -2.343
      -2.088
      -1.667
      -1.113
      -0.471
       0.168
       0.675
       0.921
       0.830
       0.409
      -0.244
      -0.961
      -1.553
      -1.878
      -1.883
      -1.601
      -1.097
      -0.416
       0.414
       1.335
       2.229
       2.942
       3.363
       3.465
       3.290
       2.884
       2.256
       1.411
       0.407
      -0.617
      -1.477
      -2.024
      -2.199
      -2.033
      -1.608
      -1.012
      -0.328
       0.362
       0.965
       1.381
       1.519
       1.328
       0.819
       0.067
      -0.810
      -1.688
      -2.459
      -3.046
      -3.393
      -3.461
      -3.216
      -2.643
      -1.770
      -0.689
       0.446
       1.446
       2.122
       2.330
       2.010
       1.221
       0.149
      -0.934
      -1.753
      -2.128
      -2.011
      -1.471
      -0.637
       0.346
       1.332
       2.186
       2.794
       3.076
       3.005
       2.597
       1.903
       1.007
       0.027
      -0.892
      -1.607
      -2.011
      -2.071
      -1.833
      -1.412
      -0.947
      -0.563
      -0.343
      -0.317
      -0.469
      -0.741
      -1.039
      -1.250
      -1.266
      -1.022
      -0.521
       0.175
       0.979
       1.801
       2.556
       3.142
       3.437
       3.334
       2.796
       1.892
       0.782
      -0.329
      -1.234
      -1.755
      -1.766
      -1.243
      -0.297
       0.841
       1.907
       2.693
       3.101
       3.108
       2.716
       1.949
       0.886
      -0.305
      -1.400
      -2.184
      -2.521
      -2.375
      -1.793
      -0.887
       0.175
       1.197
       2.010
       2.531
       2.762
       2.733
       2.435
       1.823
       0.895
      -0.223
      -1.275
      -1.977
      -2.168
      -1.882
      -1.302
      -0.616
       0.071
       0.748
       1.420
       2.052
       2.572
       2.908
       3.015
       2.866
       2.455
       1.823
       1.096
       0.459
       0.072
      -0.025
       0.089
       0.292
       0.507
       0.721
       0.920
       1.027
       0.934
       0.585
       0.047
      -0.530
      -1.000
      -1.297
      -1.429
      -1.419
      -1.277
      -1.010
      -0.652
      -0.255
       0.134
       0.488
       0.781
       0.967
       0.998
       0.860
       0.602
       0.309
       0.050
      -0.169
      -0.390
      -0.643
      -0.901
      -1.094
      -1.172
      -1.155
      -1.116
      -1.105
      -1.096
      -1.001
      -0.757
      -0.388
       0.005
       0.324
       0.547
       0.725
       0.924
       1.161
       1.402
       1.603
       1.751
       1.854
       1.903
       1.852
       1.642
       1.247
       0.696
       0.061
      -0.583
      -1.178
      -1.685
      -2.063
      -2.280
      -2.312
      -2.149
      -1.782
      -1.210
      -0.456
       0.409
       1.268
       1.990
       2.469
       2.657
       2.564
       2.250
       1.806
       1.324
       0.878
       0.499
       0.186
      -0.072
      -0.270
      -0.376
      -0.341
      -0.123
       0.268
       0.754
       1.195
       1.445
       1.415
       1.107
       0.595
      -0.020
      -0.644
      -1.211
      -1.673
      -1.989
      -2.112
      -1.994
      -1.607
      -0.966
      -0.161
       0.645
       1.249
       1.467
       1.194
       0.451
      -0.610
      -1.738
      -2.664
      -3.174
      -3.178
      -2.719
      -1.937
      -1.014
      -0.133
       0.551
       0.919
       0.912
       0.539
      -0.118
      -0.926
      -1.739
      -2.434
      -2.927
      -3.164
      -3.127
      -2.831
      -2.336
      -1.737
      -1.130
      -0.580
      -0.102
       0.316
       0.684
       1.005
       1.282
       1.530
       1.776
       2.037
       2.303
       2.527
       2.631
       2.532
       2.178
       1.578
       0.800
      -0.077
      -0.992
      -1.905
      -2.770
      -3.515
      -4.065
      -4.396
      -4.562
      -4.671
      -4.830
      -5.093
      -5.450
      -5.850
      -6.224
      -6.510
      -6.642
      -6.557
      -6.206
      -5.574
      -4.699
      -3.663
      -2.580
      -1.575
      -0.762
      -0.223
       0.015
       0.013
      -0.101
      -0.181
      -0.134
       0.059
       0.374
       0.785
       1.284
       1.865
       2.498
       3.119
       3.632
       3.928
       3.914
       3.543
       2.832
       1.863
       0.765
      -0.305
      -1.206
      -1.857
      -2.279
      -2.580
      -2.905
      -3.354
      -3.956
      -4.681
      -5.493
      -6.366
      -7.265
      -8.106
      -8.758
      -9.081
      -8.972
      -8.400
      -7.398
      -6.053
      -4.485
      -2.834
      -1.240
       0.173
       1.319
       2.171
       2.774
       3.245
       3.738
       4.375
       5.183
       6.086
       6.968
       7.741
       8.362
       8.800
       9.006
       8.897
       8.391
       7.436
       6.052
       4.346
       2.509
       0.774
      -0.651
      -1.648
      -2.216
      -2.466
      -2.567
      -2.683
      -2.919
      -3.306
      -3.816
      -4.376
      -4.872
      -5.160
      -5.101
      -4.621
      -3.756
      -2.645
      -1.473
      -0.393
       0.533
       1.315
       1.994
       2.619
       3.256
       3.999
       4.950
       6.170
       7.645
       9.279
      10.919
      12.389
      13.512
      14.129
      14.129
      13.487
      12.278
      10.656
       8.808
       6.926
       5.197
       3.788
       2.800
       2.246
       2.055
       2.107
       2.281
       2.450
       2.468
       2.186
       1.518
       0.513
      -0.647
      -1.734
      -2.576
      -3.129
      -3.452
      -3.633
      -3.723
      -3.738
      -3.693
      -3.625
      -3.600
      -3.700
      -3.985
      -4.467
      -5.090
      -5.733
      -6.234
      -6.439
      -6.263
      -5.712
      -4.857
      -3.778
      -2.513
      -1.059
       0.564
       2.258
       3.837
       5.108
       5.949
       6.332
       6.286
       5.868
       5.157
       4.276
       3.370
       2.564
       1.919
       1.417
       0.968
       0.440
      -0.293
      -1.304
      -2.576
      -4.010
      -5.451
      -6.735
      -7.720
      -8.302
      -8.426
      -8.097
      -7.391
      -6.437
      -5.368
      -4.296
      -3.305
      -2.446
      -1.735
      -1.166
      -0.722
      -0.381
      -0.117
       0.110
       0.359
       0.678
       1.081
       1.533
       1.969
       2.313
       2.488
       2.433
       2.115
       1.544
       0.791
      -0.008
      -0.677
      -1.057
      -1.054
      -0.678
      -0.042
       0.674
       1.272
       1.590
       1.545
       1.149
       0.490
      -0.341
      -1.275
      -2.244
      -3.143
      -3.825
      -4.156
      -4.092
      -3.725
      -3.243
      -2.838
      -2.635
      -2.683
      -2.992
      -3.551
      -4.312
      -5.150
      -5.840
      -6.098
      -5.673
      -4.452
      -2.513
      -0.118
       2.353
       4.491
       5.964
       6.604
       6.441
       5.668
       4.547
       3.319
       2.162
       1.207
       0.571
       0.348
       0.556
       1.086
       1.724
       2.238
       2.467
       2.352
       1.910
       1.197
       0.287
      -0.713
      -1.667
      -2.441
      -2.972
      -3.292
      -3.491
      -3.633
      -3.714
      -3.681
      -3.496
      -3.166
      -2.719
      -2.150
      -1.393
      -0.372
       0.903
       2.282
       3.527
       4.429
       4.916
       5.059
       4.984
       4.766
       4.399
       3.850
       3.142
       2.377
       1.684
       1.140
       0.735
       0.409
       0.112
      -0.163
      -0.391
      -0.529
      -0.530
      -0.360
      -0.042
       0.317
       0.553
       0.527
       0.205
      -0.337
      -0.970
      -1.587
      -2.128
      -2.561
      -2.835
      -2.900
      -2.755
      -2.472
      -2.135
      -1.774
      -1.359
      -0.843
      -0.216
       0.491
       1.235
       2.010
       2.862
       3.834
       4.902
       5.970
       6.924
       7.685
       8.236
       8.576
       8.670
       8.433
       7.803
       6.825
       5.672
       4.570
       3.686
       3.059
       2.621
       2.262
       1.887
       1.423
       0.805
       0.004
      -0.914
      -1.779
      -2.398
      -2.660
      -2.572
      -2.228
      -1.727
      -1.137
      -0.525
      -0.004
       0.259
       0.111
      -0.511
      -1.544
      -2.817
      -4.103
      -5.162
      -5.772
      -5.771
      -5.106
      -3.865
      -2.269
      -0.584
       0.967
       2.260
       3.232
       3.830
       3.975
       3.605
       2.714
       1.383
      -0.246
      -2.008
      -3.745
      -5.317
      -6.587
      -7.431
      -7.777
      -7.654
      -7.199
      -6.595
      -5.967
      -5.323
      -4.574
      -3.616
      -2.386
      -0.873
       0.905
       2.891
       4.959
       6.905
       8.521
       9.675
      10.339
      10.539
      10.302
       9.661
       8.694
       7.565
       6.487
       5.644
       5.112
       4.851
       4.717
       4.515
       4.063
       3.248
       2.056
       0.565
      -1.064
      -2.628
      -3.924
      -4.798
      -5.181
      -5.076
      -4.525
      -3.580
      -2.318
      -0.876
       0.550
       1.753
       2.566
       2.894
       2.708
       2.027
       0.908
      -0.531
      -2.089
      -3.514
      -4.574
      -5.145
      -5.227
      -4.910
      -4.331
      -3.640
      -2.983
      -2.470
      -2.146
      -1.981
      -1.899
      -1.831
      -1.737
      -1.596
      -1.394
      -1.124
      -0.804
      -0.496
      -0.288
      -0.228
      -0.272
      -0.280
      -0.080
       0.436
       1.243
       2.195
       3.096
       3.788
       4.187
       4.274
       4.080
       3.671
       3.133
       2.560
       2.034
       1.614
       1.317
       1.141
       1.104
       1.268
       1.718
       2.495
       3.548
       4.743
       5.896
       6.805
       7.298
       7.274
       6.732
       5.744
       4.401
       2.772
       0.911
      -1.092
      -3.062
      -4.754
      -5.920
      -6.394
      -6.154
      -5.319
      -4.117
      -2.830
      -1.751
      -1.140
      -1.188
      -1.973
      -3.422
      -5.304
      -7.266
      -8.914
      -9.920
     -10.088
      -9.352
      -7.745
      -5.377
      -2.461
       0.651
       3.472
       5.469
       6.211
       5.525
       3.566
       0.767
      -2.297
      -5.071
      -7.134
      -8.246
      -8.331
      -7.453
      -5.791
      -3.624
      -1.310
       0.773
       2.312
       3.129
       3.192
       2.592
       1.487
       0.069
      -1.457
      -2.880
      -4.001
      -4.665
      -4.793
      -4.401
      -3.604
      -2.603
      -1.657
      -1.018
      -0.852
      -1.192
      -1.932
      -2.862
      -3.719
      -4.257
      -4.310
      -3.808
      -2.764
      -1.276
       0.432
       2.022
       3.135
       3.516
       3.095
       1.987
       0.449
      -1.195
