Origin Time       29/10/2009 17:00:35
Lat.              27.3°N	
Long.             91.4°E	
Depth (Km)          5.0
Magnitude         5.2
 Region           BHUTAN                                                           
 Above details taken from IMD 
   
Station Code      KOK
Station Lat.       26.400
Station Long.      90.261
Station Height(m)   53.0
Site Class        C   Vs30 between 200 m/sec to 375 m/sec *  
Record Time       29.10.2009 17:01:10.729
Sampling Rate     200. Hz
 Record Duration   65.050 Sec.
 Direction         Vert. (Up positive)
Max. Acceleration     -2.760 cm/sec**2
     
  * For reference see Site Classification link of website 
     
 Base Line Corrected and Low Pass Filtered (Cut Off at 35 Hz) Time History
 Acceleration data in cm/sec**2
    
[...]
      -0.029
       0.036
       0.094
       0.128
       0.122
       0.067
      -0.035
      -0.166
      -0.306
      -0.433
      -0.533
      -0.595
      -0.609
      -0.563
      -0.452
      -0.287
      -0.089
       0.113
       0.296
       0.442
       0.541
       0.583
       0.569
       0.499
       0.383
       0.231
       0.061
      -0.105
      -0.244
      -0.335
      -0.364
      -0.331
      -0.245
      -0.131
      -0.014
       0.081
       0.140
       0.154
       0.127
       0.066
      -0.009
      -0.077
      -0.122
      -0.139
      -0.137
      -0.124
      -0.097
      -0.045
       0.042
       0.158
       0.280
       0.384
       0.453
       0.479
       0.464
       0.409
       0.324
       0.220
       0.111
       0.011
      -0.067
      -0.115
      -0.126
      -0.101
      -0.047
       0.020
       0.084
       0.131
       0.153
       0.144
       0.100
       0.020
      -0.095
      -0.235
      -0.377
      -0.489
      -0.542
      -0.522
      -0.438
      -0.312
      -0.166
      -0.018
       0.120
       0.234
       0.309
       0.338
       0.326
       0.290
       0.244
       0.196
       0.145
       0.089
       0.028
      -0.031
      -0.084
      -0.131
      -0.172
      -0.210
      -0.246
      -0.278
      -0.305
      -0.317
      -0.303
      -0.257
      -0.183
      -0.091
       0.003
       0.085
       0.150
       0.197
       0.228
       0.247
       0.257
       0.268
       0.288
       0.327
       0.388
       0.464
       0.542
       0.607
       0.646
       0.650
       0.614
       0.535
       0.419
       0.277
       0.125
      -0.016
      -0.125
      -0.186
      -0.192
      -0.146
      -0.060
       0.045
       0.142
       0.198
       0.192
       0.126
       0.024
      -0.080
      -0.161
      -0.214
      -0.250
      -0.280
      -0.313
      -0.346
      -0.369
      -0.371
      -0.341
      -0.278
      -0.189
      -0.090
       0.001
       0.065
       0.086
       0.062
       0.004
      -0.071
      -0.143
      -0.198
      -0.230
      -0.239
      -0.230
      -0.211
      -0.183
      -0.147
      -0.101
      -0.048
       0.006
       0.053
       0.089
       0.111
       0.115
       0.096
       0.053
      -0.011
      -0.077
      -0.122
      -0.130
      -0.094
      -0.026
       0.054
       0.126
       0.174
       0.189
       0.168
       0.113
       0.037
      -0.041
      -0.111
      -0.169
      -0.225
      -0.286
      -0.348
      -0.397
      -0.415
      -0.395
      -0.353
      -0.318
      -0.320
      -0.378
      -0.494
      -0.650
      -0.816
      -0.956
      -1.031
      -1.005
      -0.864
      -0.621
      -0.319
      -0.020
       0.225
       0.386
       0.460
       0.468
       0.436
       0.381
       0.311
       0.226
       0.130
       0.032
      -0.061
      -0.139
      -0.197
      -0.224
      -0.215
      -0.170
      -0.108
      -0.060
      -0.059
      -0.120
      -0.238
      -0.381
      -0.509
      -0.590
      -0.606
      -0.562
      -0.474
      -0.363
      -0.249
      -0.148
      -0.071
      -0.028
      -0.022
      -0.051
      -0.106
      -0.169
      -0.221
      -0.249
      -0.254
      -0.247
      -0.237
      -0.223
      -0.192
      -0.137
      -0.066
      -0.005
       0.005
      -0.065
      -0.226
      -0.458
      -0.718
      -0.951
      -1.106
      -1.148
      -1.065
      -0.876
      -0.618
      -0.329
      -0.044
       0.217
       0.436
       0.597
       0.691
       0.722
       0.712
       0.691
       0.680
       0.689
       0.724
       0.796
       0.920
       1.104
       1.336
       1.578
       1.777
       1.883
       1.865
       1.724
       1.485
       1.188
       0.878
       0.593
       0.365
       0.210
       0.131
       0.120
       0.161
       0.233
       0.311
       0.375
       0.418
       0.451
       0.494
       0.558
       0.639
       0.711
       0.746
       0.730
       0.668
       0.572
       0.451
       0.312
       0.162
       0.017
      -0.110
      -0.212
      -0.296
      -0.368
      -0.424
      -0.448
      -0.421
      -0.335
      -0.200
      -0.037
       0.130
       0.271
       0.363
       0.405
       0.421
       0.452
       0.535
       0.680
       0.870
       1.063
       1.212
       1.274
       1.224
       1.056
       0.785
       0.444
       0.070
      -0.302
      -0.644
      -0.948
      -1.208
      -1.417
      -1.554
      -1.594
      -1.519
      -1.335
      -1.073
      -0.786
      -0.532
      -0.360
      -0.298
      -0.349
      -0.491
      -0.689
      -0.905
      -1.106
      -1.266
      -1.369
      -1.403
      -1.366
      -1.261
      -1.104
      -0.918
      -0.724
      -0.536
      -0.362
      -0.208
      -0.084
      -0.006
       0.007
      -0.054
      -0.184
      -0.361
      -0.555
      -0.738
      -0.894
      -1.016
      -1.094
      -1.115
      -1.054
      -0.881
      -0.580
      -0.157
       0.348
       0.871
       1.341
       1.706
       1.932
       2.014
       1.958
       1.779
       1.508
       1.198
       0.917
       0.724
       0.646
       0.669
       0.755
       0.857
       0.932
       0.954
       0.901
       0.764
       0.543
       0.251
      -0.089
      -0.439
      -0.749
      -0.961
      -1.033
      -0.948
      -0.721
      -0.394
      -0.017
       0.359
       0.694
       0.954
       1.121
       1.190
       1.165
       1.059
       0.883
       0.653
       0.383
       0.088
      -0.218
      -0.524
      -0.819
      -1.090
      -1.330
      -1.538
      -1.723
      -1.893
      -2.046
      -2.161
      -2.212
      -2.179
      -2.067
      -1.901
      -1.710
      -1.509
      -1.300
      -1.081
      -0.856
      -0.636
      -0.430
      -0.240
      -0.057
       0.124
       0.307
       0.487
       0.659
       0.823
       0.983
       1.141
       1.297
       1.439
       1.551
       1.613
       1.617
       1.560
       1.451
       1.307
       1.151
       1.008
       0.906
       0.862
       0.881
       0.947
       1.025
       1.068
       1.030
       0.889
       0.649
       0.343
       0.019
      -0.271
      -0.492
      -0.627
      -0.678
      -0.657
      -0.582
      -0.469
      -0.331
      -0.177
      -0.021
       0.122
       0.235
       0.299
       0.305
       0.251
       0.146
       0.008
      -0.140
      -0.269
      -0.357
      -0.400
      -0.406
      -0.392
      -0.362
      -0.308
      -0.219
      -0.091
       0.062
       0.216
       0.349
       0.450
       0.511
       0.516
       0.443
       0.284
       0.059
      -0.187
      -0.403
      -0.554
      -0.629
      -0.638
      -0.597
      -0.524
      -0.439
      -0.374
      -0.357
      -0.410
      -0.530
      -0.696
      -0.874
      -1.038
      -1.174
      -1.275
      -1.333
      -1.337
      -1.276
      -1.146
      -0.958
      -0.735
      -0.505
      -0.294
      -0.117
       0.023
       0.125
       0.191
       0.223
       0.237
       0.255
       0.306
       0.416
       0.591
       0.816
       1.053
       1.254
       1.377
       1.398
       1.309
       1.120
       0.852
       0.538
       0.220
      -0.060
      -0.268
      -0.388
      -0.411
      -0.336
      -0.168
       0.076
       0.360
       0.632
       0.832
       0.916
       0.865
       0.697
       0.455
       0.185
      -0.075
      -0.306
      -0.494
      -0.622
      -0.660
      -0.579
      -0.369
      -0.052
       0.318
       0.669
       0.935
       1.071
       1.062
       0.925
       0.699
       0.438
       0.201
       0.035
      -0.034
      -0.011
       0.082
       0.212
       0.357
       0.501
       0.635
       0.752
       0.842
       0.890
       0.875
       0.784
       0.622
       0.422
       0.233
       0.099
       0.044
       0.063
       0.134
       0.232
       0.332
       0.405
       0.412
       0.313
       0.087
      -0.244
      -0.621
      -0.964
      -1.203
      -1.295
      -1.230
      -1.016
      -0.683
      -0.280
       0.128
       0.481
       0.737
       0.882
       0.920
       0.857
       0.699
       0.460
       0.178
      -0.096
      -0.313
      -0.447
      -0.507
      -0.530
      -0.558
      -0.628
      -0.761
      -0.962
      -1.223
      -1.513
      -1.783
      -1.979
      -2.062
      -2.027
      -1.904
      -1.736
      -1.558
      -1.381
      -1.196
      -0.986
      -0.741
      -0.467
      -0.182
       0.085
       0.310
       0.478
       0.593
       0.682
       0.782
       0.919
       1.095
       1.281
       1.438
       1.532
       1.540
       1.446
       1.244
       0.945
       0.584
       0.214
      -0.106
      -0.325
      -0.409
      -0.343
      -0.139
       0.155
       0.463
       0.700
       0.803
       0.750
       0.562
       0.278
      -0.059
      -0.405
      -0.714
      -0.938
      -1.048
      -1.046
      -0.961
      -0.827
      -0.666
      -0.484
      -0.293
      -0.122
      -0.015
      -0.004
      -0.092
      -0.248
      -0.419
      -0.555
      -0.617
      -0.577
      -0.417
      -0.130
       0.265
       0.715
       1.143
       1.477
       1.674
       1.730
       1.664
       1.493
       1.231
       0.893
       0.507
       0.110
      -0.262
      -0.579
      -0.819
      -0.969
      -1.018
      -0.977
      -0.872
      -0.748
      -0.643
      -0.585
      -0.575
      -0.602
      -0.644
      -0.677
      -0.676
      -0.618
      -0.490
      -0.304
      -0.090
       0.118
       0.295
       0.434
       0.538
       0.621
       0.707
       0.820
       0.973
       1.150
       1.302
       1.368
       1.306
       1.115
       0.828
       0.499
       0.177
      -0.107
      -0.344
      -0.552
      -0.763
      -1.012
      -1.316
      -1.662
      -2.007
      -2.297
      -2.484
      -2.541
      -2.455
      -2.227
      -1.867
      -1.398
      -0.861
      -0.312
       0.187
       0.579
       0.824
       0.905
       0.833
       0.644
       0.384
       0.103
      -0.150
      -0.333
      -0.412
      -0.372
      -0.218
       0.031
       0.346
       0.694
       1.029
       1.305
       1.482
       1.547
       1.522
       1.455
       1.399
       1.391
       1.442
       1.542
       1.667
       1.786
       1.862
       1.863
       1.764
       1.559
       1.260
       0.897
       0.510
       0.141
      -0.173
      -0.403
      -0.534
      -0.568
      -0.519
      -0.414
      -0.284
      -0.157
      -0.060
      -0.011
      -0.025
      -0.109
      -0.257
      -0.451
      -0.658
      -0.840
      -0.960
      -0.994
      -0.926
      -0.751
      -0.483
      -0.157
       0.172
       0.449
       0.631
       0.702
       0.674
       0.575
       0.440
       0.297
       0.168
       0.069
       0.002
      -0.043
      -0.084
      -0.147
      -0.248
      -0.391
      -0.566
      -0.752
      -0.925
      -1.064
      -1.152
      -1.175
      -1.125
      -1.004
      -0.826
      -0.613
      -0.387
      -0.166
       0.038
       0.210
       0.339
       0.417
       0.443
       0.421
       0.360
       0.274
       0.191
       0.136
       0.125
       0.154
       0.203
       0.243
       0.249
       0.207
       0.121
       0.007
      -0.113
      -0.222
      -0.316
      -0.400
      -0.476
      -0.541
      -0.589
      -0.618
      -0.636
      -0.655
      -0.680
      -0.705
      -0.721
      -0.719
      -0.704
      -0.691
      -0.702
      -0.752
      -0.838
      -0.939
      -1.022
      -1.060
      -1.041
      -0.972
      -0.860
      -0.706
      -0.497
      -0.227
       0.091
       0.429
       0.753
       1.034
       1.250
       1.385
       1.420
       1.340
       1.143
       0.849
       0.497
       0.139
      -0.170
      -0.392
      -0.503
      -0.502
      -0.404
      -0.239
      -0.043
       0.153
       0.326
       0.460
       0.537
       0.541
       0.470
       0.343
       0.198
       0.074
      -0.003
      -0.022
       0.021
       0.134
       0.314
       0.538
       0.757
       0.913
       0.962
       0.890
       0.709
       0.446
       0.136
      -0.176
      -0.437
      -0.610
      -0.687
      -0.689
      -0.643
      -0.555
      -0.415
      -0.214
       0.038
       0.317
       0.591
       0.835
       1.034
       1.173
       1.237
       1.220
       1.133
       1.021
       0.945
       0.949
       1.036
       1.161
       1.270
       1.321
       1.299
       1.206
       1.057
       0.869
       0.672
       0.495
       0.356
       0.254
       0.167
       0.070
      -0.052
      -0.201
      -0.377
      -0.580
      -0.806
      -1.041
      -1.259
      -1.436
      -1.562
      -1.640
      -1.683
      -1.697
      -1.685
      -1.640
      -1.557
      -1.430
      -1.254
      -1.025
      -0.745
      -0.432
      -0.115
       0.175
       0.421
       0.620
       0.778
       0.889
       0.932
       0.887
       0.758
       0.574
       0.385
       0.240
       0.165
       0.164
       0.219
       0.297
       0.355
       0.346
       0.232
      -0.005
      -0.349
      -0.759
      -1.182
      -1.575
      -1.915
      -2.202
      -2.438
      -2.619
      -2.730
      -2.760
      -2.709
      -2.589
      -2.404
      -2.151
      -1.826
      -1.446
      -1.052
      -0.692
      -0.395
      -0.157
       0.051
       0.255
       0.471
       0.705
       0.962
       1.243
       1.547
       1.857
       2.143
       2.373
       2.520
       2.568
       2.510
       2.354
       2.120
       1.840
       1.550
       1.285
       1.066
       0.898
       0.780
       0.712
       0.702
       0.758
       0.877
       1.036
       1.196
       1.313
       1.344
       1.265
       1.070
       0.782
       0.445
       0.119
      -0.146
      -0.324
      -0.424
      -0.468
      -0.473
      -0.458
      -0.452
      -0.500
      -0.644
      -0.886
      -1.174
      -1.414
      -1.510
      -1.409
      -1.118
      -0.689
      -0.186
       0.331
       0.798
       1.158
       1.367
       1.423
       1.366
       1.261
       1.168
       1.130
       1.164
       1.273
       1.453
       1.679
       1.903
       2.056
       2.073
       1.913
       1.571
       1.073
       0.469
      -0.171
      -0.761
      -1.216
      -1.478
      -1.552
      -1.500
      -1.419
      -1.389
      -1.446
      -1.577
      -1.744
      -1.903
      -2.015
      -2.047
      -1.973
      -1.783
      -1.487
      -1.124
      -0.752
      -0.431
      -0.201
      -0.072
      -0.031
      -0.051
      -0.108
      -0.180
      -0.247
      -0.279
      -0.254
      -0.160
      -0.008
       0.177
       0.365
       0.519
       0.608
       0.610
       0.519
       0.343
       0.098
      -0.190
      -0.491
      -0.773
      -0.999
      -1.130
      -1.133
      -1.001
      -0.765
      -0.491
      -0.257
      -0.114
      -0.075
      -0.123
      -0.233
      -0.393
      -0.599
      -0.840
      -1.086
      -1.296
      -1.432
      -1.472
      -1.406
      -1.230
      -0.949
      -0.589
      -0.206
       0.130
       0.369
       0.502
       0.563
       0.595
       0.628
       0.668
       0.718
       0.792
       0.914
       1.096
       1.322
       1.549
       1.736
       1.860
       1.922
       1.926
       1.876
       1.765
       1.587
       1.349
       1.062
       0.736
       0.378
      -0.003
      -0.378
      -0.701
      -0.923
      -1.013
      -0.975
      -0.833
      -0.622
      -0.373
      -0.117
       0.114
       0.294
       0.425
       0.532
       0.649
       0.792
       0.944
       1.064
       1.113
       1.074
       0.955
       0.782
       0.588
       0.406
       0.261
       0.165
       0.109
       0.065
      -0.012
      -0.154
      -0.369
      -0.622
      -0.860
      -1.027
      -1.081
      -1.004
      -0.801
      -0.512
      -0.215
      -0.006
       0.039
      -0.095
      -0.359
      -0.663
      -0.928
      -1.123
      -1.255
      -1.339
      -1.366
      -1.306
      -1.136
      -0.869
      -0.540
      -0.188
       0.160
       0.475
       0.710
       0.812
       0.748
       0.533
       0.232
      -0.069
      -0.301
      -0.427
      -0.441
      -0.355
      -0.192
       0.023
       0.260
       0.486
       0.674
       0.803
       0.853
       0.803
       0.642
       0.382
       0.066
      -0.246
      -0.502
      -0.675
      -0.766
      -0.787
      -0.747
      -0.656
      -0.538
      -0.427
      -0.359
      -0.353
      -0.411
      -0.517
      -0.645
      -0.761
      -0.823
      -0.791
      -0.649
      -0.419
      -0.151
       0.099
       0.305
       0.469
       0.610
       0.741
       0.861
       0.951
       0.979
       0.908
       0.713
       0.391
      -0.022
      -0.459
      -0.836
      -1.083
      -1.162
      -1.080
      -0.878
      -0.600
      -0.290
       0.017
       0.291
       0.502
       0.631
       0.677
       0.663
       0.632
       0.631
       0.702
       0.860
       1.097
       1.392
       1.708
       2.001
       2.212
       2.285
       2.193
       1.947
       1.594
       1.193
       0.796
       0.438
       0.132
      -0.120
      -0.305
      -0.406
      -0.410
      -0.312
      -0.125
       0.126
       0.408
       0.684
       0.911
       1.042
       1.041
       0.900
       0.639
       0.300
      -0.066
      -0.406
      -0.675
      -0.840
      -0.886
      -0.818
      -0.665
      -0.471
      -0.292
      -0.176
      -0.150
      -0.213
      -0.338
      -0.489
      -0.629
      -0.736
      -0.798
      -0.813
      -0.783
      -0.707
      -0.576
      -0.386
      -0.143
       0.120
       0.353
       0.503
       0.538
       0.454
       0.266
       0.004
      -0.290
      -0.567
      -0.773
      -0.869
      -0.844
      -0.724
      -0.563
      -0.423
      -0.351
      -0.376
      -0.507
      -0.735
      -1.033
      -1.355
      -1.645
      -1.856
      -1.963
      -1.961
      -1.865
      -1.699
      -1.507
      -1.342
      -1.250
      -1.245
      -1.296
      -1.344
      -1.334
      -1.239
      -1.068
      -0.843
      -0.587
      -0.316
      -0.047
       0.197
       0.391
       0.517
       0.568
       0.555
       0.503
       0.447
       0.426
       0.470
       0.588
       0.760
       0.943
       1.090
       1.172
       1.190
       1.164
       1.119
       1.062
       0.990
       0.903
       0.807
       0.713
       0.623
       0.530
       0.433
       0.345
       0.286
       0.267
       0.271
       0.258
       0.191
       0.055
      -0.128
      -0.308
      -0.437
      -0.484
      -0.449
      -0.354
      -0.225
      -0.076
       0.094
       0.299
       0.556
       0.866
       1.216
       1.568
       1.879
       2.110
       2.231
       2.227
       2.095
       1.846
       1.510
       1.129
       0.753
