Origin Time       09/1/2013 01:41:52	
Lat.              25.4 N	
Long.             94.9 E	
Depth (Km)         89.0
Magnitude         5.9
 Region           Myanmar-India-Border-Region                                      
 Above details taken from IMD 
     
Station Code      KOK
Station Lat.       26.400  N
Station Long.      90.261  E
Station Height(m)   54.0
Site Class        C   Vs30 between 200 m/sec to 375 m/sec *  
Record Time       09.01.2013 01:43:18.289
Sampling Rate     200. Hz
 Record Duration   80.165 Sec.
 Direction         E-W (E positive)
Max. Acceleration     -3.533 cm/sec**2
     
  * For reference see Site Classification link of website 
     
 Base Line Corrected and Low Pass Filtered (Cut Off at 35 Hz) Time History
 Acceleration data in cm/sec**2
    
[...]
      -0.252
      -0.249
      -0.248
      -0.231
      -0.216
      -0.228
      -0.277
      -0.355
      -0.446
      -0.525
      -0.568
      -0.557
      -0.499
      -0.417
      -0.339
      -0.273
      -0.205
      -0.125
      -0.041
       0.026
       0.067
       0.098
       0.126
       0.125
       0.057
      -0.078
      -0.207
      -0.240
      -0.143
       0.026
       0.172
       0.237
       0.234
       0.231
       0.292
       0.437
       0.634
       0.816
       0.911
       0.881
       0.740
       0.541
       0.329
       0.112
      -0.127
      -0.376
      -0.572
      -0.642
      -0.573
      -0.424
      -0.276
      -0.167
      -0.076
       0.031
       0.174
       0.331
       0.450
       0.460
       0.315
       0.045
      -0.242
      -0.420
      -0.430
      -0.306
      -0.140
      -0.001
       0.101
       0.199
       0.311
       0.415
       0.458
       0.405
       0.260
       0.063
      -0.150
      -0.360
      -0.551
      -0.693
      -0.751
      -0.702
      -0.563
      -0.387
      -0.231
      -0.113
      -0.010
       0.115
       0.270
       0.416
       0.491
       0.458
       0.328
       0.155
      -0.008
      -0.125
      -0.191
      -0.202
      -0.154
      -0.046
       0.097
       0.236
       0.337
       0.381
       0.359
       0.262
       0.100
      -0.081
      -0.218
      -0.275
      -0.273
      -0.270
      -0.308
      -0.382
      -0.450
      -0.475
      -0.444
      -0.364
      -0.255
      -0.140
      -0.047
       0.012
       0.038
       0.045
       0.056
       0.100
       0.199
       0.340
       0.458
       0.480
       0.390
       0.257
       0.173
       0.171
       0.201
       0.199
       0.161
       0.146
       0.208
       0.331
       0.448
       0.511
       0.531
       0.552
       0.587
       0.602
       0.551
       0.413
       0.201
      -0.055
      -0.309
      -0.503
      -0.575
      -0.495
      -0.303
      -0.085
       0.076
       0.142
       0.110
      -0.007
      -0.172
      -0.307
      -0.319
      -0.175
       0.051
       0.216
       0.206
       0.024
      -0.215
      -0.373
      -0.379
      -0.259
      -0.098
       0.019
       0.046
      -0.010
      -0.103
      -0.187
      -0.247
      -0.297
      -0.350
      -0.406
      -0.455
      -0.495
      -0.518
      -0.498
      -0.398
      -0.203
       0.045
       0.264
       0.375
       0.362
       0.280
       0.204
       0.174
       0.183
       0.211
       0.249
       0.295
       0.329
       0.319
       0.255
       0.162
       0.090
       0.091
       0.183
       0.331
       0.461
       0.505
       0.435
       0.270
       0.061
      -0.128
      -0.248
      -0.288
      -0.276
      -0.246
      -0.195
      -0.097
       0.052
       0.202
       0.281
       0.249
       0.134
       0.003
      -0.092
      -0.134
      -0.139
      -0.122
      -0.092
      -0.059
      -0.040
      -0.047
      -0.084
      -0.148
      -0.245
      -0.375
      -0.527
      -0.672
      -0.777
      -0.826
      -0.823
      -0.777
      -0.681
      -0.528
      -0.333
      -0.145
      -0.021
       0.022
       0.014
       0.010
       0.045
       0.114
       0.169
       0.150
       0.032
      -0.151
      -0.331
      -0.456
      -0.525
      -0.576
      -0.636
      -0.692
      -0.704
      -0.642
      -0.518
      -0.371
      -0.227
      -0.078
       0.109
       0.358
       0.644
       0.898
       1.036
       1.024
       0.903
       0.760
       0.665
       0.618
       0.563
       0.448
       0.288
       0.161
       0.139
       0.234
       0.384
       0.507
       0.548
       0.506
       0.420
       0.338
       0.283
       0.246
       0.201
       0.155
       0.144
       0.191
       0.263
       0.290
       0.231
       0.122
       0.053
       0.088
       0.215
       0.372
       0.494
       0.545
       0.507
       0.376
       0.167
      -0.071
      -0.283
      -0.447
      -0.576
      -0.689
      -0.770
      -0.774
      -0.676
      -0.489
      -0.258
      -0.029
       0.162
       0.286
       0.326
       0.297
       0.247
       0.232
       0.268
       0.318
       0.331
       0.289
       0.213
       0.128
       0.030
      -0.094
      -0.232
      -0.346
      -0.414
      -0.452
      -0.496
      -0.554
      -0.598
      -0.591
      -0.531
      -0.458
      -0.421
      -0.433
      -0.457
      -0.435
      -0.318
      -0.103
       0.152
       0.348
       0.408
       0.339
       0.228
       0.176
       0.214
       0.303
       0.384
       0.429
       0.444
       0.427
       0.357
       0.224
       0.066
      -0.044
      -0.058
      -0.002
       0.049
       0.042
      -0.018
      -0.094
      -0.154
      -0.182
      -0.160
      -0.074
       0.067
       0.219
       0.325
       0.341
       0.261
       0.119
      -0.036
      -0.169
      -0.264
      -0.322
      -0.359
      -0.402
      -0.475
      -0.571
      -0.655
      -0.692
      -0.685
      -0.671
      -0.689
      -0.742
      -0.802
      -0.837
      -0.829
      -0.761
      -0.619
      -0.398
      -0.126
       0.133
       0.320
       0.416
       0.444
       0.447
       0.471
       0.540
       0.646
       0.744
       0.775
       0.692
       0.485
       0.192
      -0.114
      -0.349
      -0.454
      -0.420
      -0.292
      -0.136
       0.000
       0.110
       0.222
       0.358
       0.509
       0.637
       0.709
       0.722
       0.697
       0.658
       0.617
       0.561
       0.467
       0.321
       0.141
      -0.030
      -0.152
      -0.219
      -0.263
      -0.319
      -0.383
      -0.420
      -0.404
      -0.350
      -0.300
      -0.275
      -0.254
      -0.209
      -0.149
      -0.122
      -0.175
      -0.302
      -0.441
      -0.529
      -0.545
      -0.520
      -0.491
      -0.468
      -0.425
      -0.327
      -0.168
       0.018
       0.166
       0.228
       0.200
       0.121
       0.038
      -0.037
      -0.123
      -0.249
      -0.413
      -0.576
      -0.686
      -0.709
      -0.637
      -0.469
      -0.208
       0.123
       0.471
       0.769
       0.983
       1.128
       1.244
       1.339
       1.376
       1.305
       1.107
       0.811
       0.473
       0.153
      -0.103
      -0.266
      -0.325
      -0.300
      -0.234
      -0.177
      -0.159
      -0.177
      -0.216
      -0.261
      -0.302
      -0.314
      -0.269
      -0.148
       0.039
       0.259
       0.477
       0.664
       0.798
       0.859
       0.838
       0.750
       0.632
       0.528
       0.453
       0.385
       0.293
       0.165
       0.016
      -0.131
      -0.266
      -0.395
      -0.529
      -0.666
      -0.784
      -0.865
      -0.905
      -0.925
      -0.939
      -0.934
      -0.871
      -0.712
      -0.441
      -0.072
       0.342
       0.729
       1.017
       1.158
       1.142
       0.993
       0.756
       0.472
       0.161
      -0.175
      -0.534
      -0.892
      -1.196
      -1.377
      -1.389
      -1.241
      -1.009
      -0.793
      -0.672
      -0.663
      -0.727
      -0.795
      -0.806
      -0.730
      -0.567
      -0.330
      -0.028
       0.328
       0.711
       1.069
       1.346
       1.509
       1.566
       1.539
       1.433
       1.235
       0.939
       0.584
       0.249
       0.007
      -0.119
      -0.159
      -0.152
      -0.102
       0.006
       0.182
       0.404
       0.629
       0.817
       0.928
       0.923
       0.775
       0.503
       0.184
      -0.078
      -0.206
      -0.180
      -0.030
       0.187
       0.404
       0.552
       0.585
       0.491
       0.295
       0.037
      -0.253
      -0.557
      -0.863
      -1.155
      -1.402
      -1.563
      -1.589
      -1.444
      -1.133
      -0.712
      -0.266
       0.119
       0.380
       0.487
       0.441
       0.277
       0.063
      -0.114
      -0.178
      -0.107
       0.059
       0.241
       0.373
       0.434
       0.444
       0.434
       0.423
       0.404
       0.363
       0.284
       0.167
       0.026
      -0.121
      -0.263
      -0.402
      -0.550
      -0.716
      -0.889
      -1.026
      -1.070
      -0.971
      -0.718
      -0.346
       0.064
       0.409
       0.593
       0.569
       0.364
       0.075
      -0.161
      -0.230
      -0.107
       0.128
       0.331
       0.380
       0.249
       0.007
      -0.238
      -0.410
      -0.498
      -0.534
      -0.556
      -0.577
      -0.588
      -0.574
      -0.536
      -0.484
      -0.431
      -0.384
      -0.335
      -0.277
      -0.220
      -0.189
      -0.199
      -0.228
      -0.212
      -0.082
       0.176
       0.507
       0.809
       1.001
       1.062
       1.016
       0.894
       0.704
       0.437
       0.108
      -0.234
      -0.522
      -0.699
      -0.733
      -0.608
      -0.330
       0.061
       0.479
       0.828
       1.050
       1.166
       1.245
       1.340
       1.424
       1.399
       1.164
       0.696
       0.077
      -0.542
      -1.007
      -1.218
      -1.153
      -0.875
      -0.497
      -0.139
       0.107
       0.200
       0.155
       0.023
      -0.124
      -0.227
      -0.265
      -0.258
      -0.250
      -0.273
      -0.325
      -0.381
      -0.421
      -0.441
      -0.448
      -0.433
      -0.374
      -0.248
      -0.049
       0.200
       0.451
       0.653
       0.772
       0.812
       0.806
       0.795
       0.799
       0.814
       0.823
       0.818
       0.806
       0.794
       0.782
       0.761
       0.727
       0.680
       0.617
       0.538
       0.447
       0.365
       0.324
       0.349
       0.430
       0.516
       0.540
       0.451
       0.245
      -0.030
      -0.297
      -0.497
      -0.613
      -0.678
      -0.743
      -0.844
      -0.984
      -1.124
      -1.206
      -1.187
      -1.071
      -0.921
      -0.830
      -0.862
      -1.021
      -1.250
      -1.469
      -1.619
      -1.666
      -1.599
      -1.415
      -1.130
      -0.787
      -0.455
      -0.195
      -0.030
       0.056
       0.105
       0.160
       0.242
       0.350
       0.466
       0.556
       0.581
       0.508
       0.340
       0.131
      -0.024
      -0.019
       0.199
       0.595
       1.044
       1.385
       1.495
       1.342
       0.987
       0.543
       0.116
      -0.233
      -0.497
      -0.703
      -0.876
      -1.012
      -1.078
      -1.040
      -0.888
      -0.652
      -0.378
      -0.108
       0.140
       0.358
       0.525
       0.592
       0.500
       0.221
      -0.217
      -0.725
      -1.190
      -1.514
      -1.647
      -1.593
      -1.394
      -1.100
      -0.751
      -0.372
       0.017
       0.403
       0.774
       1.110
       1.385
       1.572
       1.661
       1.670
       1.633
       1.573
       1.483
       1.352
       1.191
       1.046
       0.962
       0.952
       1.001
       1.079
       1.155
       1.200
       1.182
       1.080
       0.895
       0.636
       0.301
      -0.122
      -0.634
      -1.185
      -1.662
      -1.919
      -1.840
      -1.404
      -0.714
       0.021
       0.569
       0.786
       0.685
       0.421
       0.192
       0.131
       0.249
       0.467
       0.661
       0.726
       0.605
       0.313
      -0.071
      -0.431
      -0.676
      -0.773
      -0.756
      -0.708
      -0.712
      -0.813
      -0.989
      -1.166
      -1.251
      -1.203
      -1.048
      -0.860
      -0.708
      -0.616
      -0.572
      -0.550
      -0.531
      -0.490
      -0.378
      -0.127
       0.312
       0.919
       1.584
       2.144
       2.448
       2.423
       2.088
       1.533
       0.877
       0.234
      -0.306
      -0.690
      -0.899
      -0.958
      -0.915
      -0.817
      -0.684
      -0.507
      -0.272
       0.004
       0.254
       0.380
       0.310
       0.056
      -0.288
      -0.595
      -0.789
      -0.892
      -0.996
      -1.184
      -1.451
      -1.694
      -1.769
      -1.569
      -1.090
      -0.436
       0.233
       0.768
       1.074
       1.121
       0.928
       0.559
       0.123
      -0.249
      -0.457
      -0.487
      -0.410
      -0.327
      -0.294
      -0.291
      -0.236
      -0.047
       0.316
       0.812
       1.333
       1.737
       1.928
       1.897
       1.725
       1.513
       1.313
       1.115
       0.885
       0.613
       0.324
       0.062
      -0.139
      -0.264
      -0.318
      -0.320
      -0.313
      -0.347
      -0.463
      -0.661
      -0.908
      -1.158
      -1.377
      -1.543
      -1.642
      -1.666
      -1.623
      -1.532
      -1.406
      -1.233
      -0.984
      -0.650
      -0.263
       0.110
       0.405
       0.594
       0.685
       0.695
       0.646
       0.576
       0.537
       0.580
       0.707
       0.864
       0.971
       0.972
       0.874
       0.733
       0.615
       0.565
       0.596
       0.696
       0.833
       0.961
       1.032
       1.019
       0.927
       0.799
       0.698
       0.689
       0.808
       1.029
       1.256
       1.366
       1.280
       1.021
       0.693
       0.398
       0.154
      -0.111
      -0.498
      -1.061
      -1.764
      -2.495
      -3.112
      -3.483
      -3.533
      -3.270
      -2.789
      -2.236
      -1.738
      -1.352
      -1.066
      -0.842
      -0.668
      -0.561
      -0.545
      -0.608
      -0.706
      -0.790
      -0.835
      -0.833
      -0.760
      -0.569
      -0.208
       0.329
       0.976
       1.629
       2.193
       2.615
       2.874
       2.956
       2.845
       2.530
       2.025
       1.379
       0.687
       0.083
      -0.293
      -0.354
      -0.122
       0.272
       0.646
       0.861
       0.885
       0.788
       0.675
       0.610
       0.584
       0.546
       0.444
       0.256
      -0.010
      -0.328
      -0.658
      -0.962
      -1.217
      -1.426
      -1.598
      -1.733
      -1.806
      -1.772
      -1.592
      -1.249
      -0.780
      -0.287
       0.086
       0.213
       0.055
      -0.309
      -0.721
      -1.013
      -1.068
      -0.862
      -0.468
      -0.033
       0.285
       0.397
       0.330
       0.201
       0.148
       0.259
       0.554
       1.000
       1.529
       2.034
       2.383
       2.473
       2.289
       1.920
       1.511
       1.177
       0.954
       0.808
       0.676
       0.514
       0.334
       0.192
       0.147
       0.200
       0.271
       0.247
       0.065
      -0.243
      -0.575
      -0.825
      -0.946
      -0.953
      -0.896
      -0.823
      -0.767
      -0.751
      -0.810
      -0.986
      -1.292
      -1.668
      -1.989
      -2.134
      -2.077
      -1.914
      -1.801
      -1.839
      -2.000
      -2.153
      -2.163
      -1.987
      -1.695
      -1.401
      -1.167
      -0.954
      -0.667
      -0.254
       0.234
       0.656
       0.885
       0.898
       0.785
       0.690
       0.727
       0.935
       1.270
       1.636
       1.924
       2.051
       2.007
       1.869
       1.777
       1.862
       2.162
       2.600
       3.024
       3.296
       3.356
       3.228
       2.977
       2.659
       2.294
       1.887
       1.453
       1.027
       0.651
       0.341
       0.085
      -0.125
      -0.271
      -0.312
      -0.227
      -0.060
       0.080
       0.070
      -0.160
      -0.592
      -1.130
      -1.658
      -2.101
      -2.447
      -2.717
      -2.924
      -3.066
      -3.144
      -3.175
      -3.167
      -3.083
      -2.865
      -2.487
      -2.001
      -1.511
      -1.110
      -0.830
      -0.634
      -0.450
      -0.200
       0.158
       0.611
       1.085
       1.474
       1.675
       1.628
       1.342
       0.901
       0.451
       0.156
       0.107
       0.263
       0.458
       0.486
       0.229
      -0.280
      -0.876
      -1.339
      -1.496
      -1.293
      -0.827
      -0.310
       0.035
       0.090
      -0.108
      -0.412
      -0.668
      -0.788
      -0.759
      -0.604
      -0.353
      -0.039
       0.313
       0.691
       1.091
       1.490
       1.816
       1.954
       1.803
       1.345
       0.676
      -0.016
      -0.532
      -0.737
      -0.614
      -0.249
       0.210
       0.616
       0.866
       0.913
       0.765
       0.478
       0.153
      -0.090
      -0.156
      -0.012
       0.309
       0.729
       1.159
       1.513
       1.722
       1.738
       1.554
       1.211
       0.794
       0.405
       0.133
       0.020
       0.046
       0.121
       0.116
      -0.074
      -0.462
      -0.935
      -1.300
      -1.385
      -1.136
      -0.642
      -0.076
       0.402
       0.711
       0.857
       0.886
       0.837
       0.712
       0.499
       0.199
      -0.148
      -0.477
      -0.729
      -0.875
      -0.918
      -0.871
      -0.749
      -0.571
      -0.358
      -0.133
       0.097
       0.333
       0.554
       0.703
       0.706
       0.532
       0.229
      -0.097
      -0.351
      -0.500
      -0.554
      -0.523
      -0.392
      -0.136
       0.232
       0.649
       1.010
       1.214
       1.200
       0.983
       0.658
       0.348
       0.144
       0.059
       0.051
       0.091
       0.188
       0.358
       0.550
       0.639
       0.492
       0.074
      -0.513
      -1.081
      -1.465
      -1.595
      -1.514
      -1.331
      -1.168
      -1.112
      -1.190
      -1.362
      -1.529
      -1.575
      -1.418
      -1.059
      -0.583
      -0.114
       0.254
       0.490
       0.607
       0.623
       0.529
       0.322
       0.036
      -0.249
      -0.446
      -0.516
      -0.483
      -0.426
      -0.436
      -0.567
      -0.807
      -1.057
      -1.165
      -0.996
      -0.519
       0.139
       0.733
       1.015
       0.876
       0.407
      -0.151
      -0.525
      -0.522
      -0.096
       0.656
       1.532
       2.297
       2.766
       2.876
       2.700
       2.384
       2.056
       1.752
       1.422
       1.004
       0.483
      -0.077
      -0.578
      -0.933
      -1.106
      -1.115
      -1.010
      -0.843
      -0.659
      -0.483
      -0.335
      -0.240
      -0.229
      -0.339
      -0.590
      -0.949
      -1.322
      -1.588
      -1.658
      -1.534
      -1.289
      -1.007
      -0.729
      -0.447
      -0.144
       0.173
       0.479
       0.770
       1.064
       1.368
       1.632
       1.750
       1.633
       1.284
       0.809
       0.363
       0.058
      -0.085
      -0.118
      -0.104
      -0.068
       0.022
       0.215
       0.527
       0.901
       1.232
       1.428
       1.465
       1.384
       1.237
       1.021
       0.686
       0.175
      -0.499
      -1.233
      -1.869
      -2.266
      -2.373
      -2.239
      -1.972
      -1.665
      -1.357
      -1.045
      -0.727
      -0.444
      -0.262
      -0.235
      -0.364
      -0.592
      -0.833
      -1.008
      -1.076
      -1.035
      -0.909
