Origin Time       29/10/2009 19:56:58 UTC
Lat.              26.6°N	
Long.             90.0°E	
Depth (Km)         10.0
Magnitude         4.2
 Region           KOKRAJHAR-ASSAM                                                  
 Above details taken from IMD 
    
Station Code      KOK
Station Lat.       26.400  N
Station Long.      90.261  E
Station Height(m)   53.0
Site Class        C   Vs30 between 200 m/sec to 375 m/sec *  
Record Time       29.10.2009 19:56:57.694 UTC
Sampling Rate     200. Hz
 Record Duration   70.890 Sec.
 Direction         N-S (N positive)
Max. Acceleration    -31.910 cm/sec**2
     
  * For reference see Site Classification link of website 
     
 Base Line Corrected and Low Pass Filtered (Cut Off at 35 Hz) Time History
 Acceleration data in cm/sec**2
    
[...]
      -0.042
      -0.084
      -0.110
      -0.116
      -0.104
      -0.072
      -0.017
       0.063
       0.151
       0.228
       0.277
       0.295
       0.274
       0.204
       0.093
      -0.031
      -0.127
      -0.177
      -0.193
      -0.197
      -0.197
      -0.189
      -0.174
      -0.165
      -0.173
      -0.204
      -0.262
      -0.343
      -0.433
      -0.493
      -0.486
      -0.399
      -0.263
      -0.149
      -0.130
      -0.243
      -0.454
      -0.655
      -0.687
      -0.421
       0.159
       0.898
       1.525
       1.785
       1.592
       1.062
       0.448
       0.002
      -0.138
       0.012
       0.312
       0.586
       0.695
       0.582
       0.302
      -0.002
      -0.182
      -0.195
      -0.125
      -0.079
      -0.096
      -0.144
      -0.202
      -0.292
      -0.415
      -0.498
      -0.434
      -0.200
       0.100
       0.312
       0.349
       0.225
      -0.006
      -0.283
      -0.534
      -0.673
      -0.657
      -0.540
      -0.448
      -0.467
      -0.579
      -0.708
      -0.783
      -0.750
      -0.549
      -0.158
       0.327
       0.698
       0.783
       0.602
       0.349
       0.220
       0.240
       0.296
       0.290
       0.255
       0.300
       0.479
       0.727
       0.908
       0.909
       0.702
       0.335
      -0.092
      -0.444
      -0.574
      -0.382
       0.120
       0.764
       1.278
       1.398
       1.024
       0.305
      -0.416
      -0.794
      -0.691
      -0.262
       0.163
       0.301
       0.082
      -0.344
      -0.740
      -0.935
      -0.902
      -0.756
      -0.684
      -0.810
      -1.065
      -1.183
      -0.914
      -0.273
       0.427
       0.812
       0.744
       0.368
      -0.073
      -0.448
      -0.762
      -1.036
      -1.215
      -1.204
      -0.957
      -0.506
       0.075
       0.707
       1.286
       1.651
       1.630
       1.185
       0.506
      -0.071
      -0.297
      -0.182
       0.055
       0.206
       0.223
       0.192
       0.194
       0.241
       0.313
       0.406
       0.517
       0.594
       0.551
       0.336
      -0.030
      -0.467
      -0.863
      -1.086
      -1.022
      -0.667
      -0.181
       0.204
       0.369
       0.387
       0.410
       0.503
       0.609
       0.634
       0.525
       0.280
      -0.040
      -0.315
      -0.427
      -0.386
      -0.359
      -0.521
      -0.867
      -1.209
      -1.338
      -1.188
      -0.851
      -0.476
      -0.161
       0.079
       0.306
       0.605
       1.002
       1.399
       1.605
       1.481
       1.049
       0.464
      -0.098
      -0.508
      -0.672
      -0.548
      -0.218
       0.085
       0.121
      -0.145
      -0.474
      -0.551
      -0.264
       0.192
       0.498
       0.477
       0.214
      -0.051
      -0.129
      -0.007
       0.171
       0.239
       0.133
      -0.071
      -0.248
      -0.329
      -0.336
      -0.297
      -0.177
       0.086
       0.453
       0.728
       0.667
       0.164
      -0.611
      -1.275
      -1.460
      -1.071
      -0.372
       0.187
       0.295
      -0.009
      -0.415
      -0.618
      -0.515
      -0.210
       0.122
       0.353
       0.455
       0.495
       0.566
       0.701
       0.816
       0.784
       0.589
       0.400
       0.421
       0.644
       0.789
       0.535
      -0.169
      -1.021
      -1.593
      -1.608
      -1.068
      -0.181
       0.755
       1.435
       1.625
       1.278
       0.611
       0.021
      -0.132
       0.238
       0.850
       1.214
       0.972
       0.166
      -0.783
      -1.378
      -1.386
      -0.920
      -0.262
       0.359
       0.812
       0.956
       0.609
      -0.304
      -1.556
      -2.641
      -3.069
      -2.702
      -1.825
      -0.906
      -0.247
       0.169
       0.537
       0.959
       1.319
       1.394
       1.087
       0.544
       0.053
      -0.166
      -0.096
       0.108
       0.238
       0.151
      -0.161
      -0.550
      -0.765
      -0.580
       0.057
       0.954
       1.748
       2.091
       1.830
       1.069
       0.088
      -0.814
      -1.448
      -1.754
      -1.744
      -1.434
      -0.833
       0.005
       0.919
       1.655
       1.987
       1.851
       1.376
       0.798
       0.349
       0.170
       0.249
       0.404
       0.374
       0.002
      -0.615
      -1.143
      -1.233
      -0.771
       0.010
       0.674
       0.867
       0.514
      -0.186
      -0.943
      -1.549
      -1.914
      -1.996
      -1.761
      -1.233
      -0.558
       0.058
       0.504
       0.867
       1.321
       1.882
       2.283
       2.140
       1.315
       0.107
      -0.912
      -1.279
      -0.940
      -0.241
       0.330
       0.448
       0.105
      -0.455
      -0.935
      -1.161
      -1.145
      -1.027
      -0.929
      -0.839
      -0.601
      -0.079
       0.648
       1.268
       1.468
       1.227
       0.881
       0.835
       1.201
       1.684
       1.812
       1.314
       0.320
      -0.734
      -1.412
      -1.550
      -1.346
      -1.188
      -1.343
      -1.718
      -1.884
      -1.390
      -0.154
       1.391
       2.537
       2.759
       2.024
       0.773
      -0.376
      -0.959
      -0.863
      -0.310
       0.315
       0.669
       0.591
       0.120
      -0.573
      -1.282
      -1.825
      -2.049
      -1.828
      -1.106
       0.024
       1.254
       2.136
       2.278
       1.588
       0.373
      -0.797
      -1.420
      -1.337
      -0.789
      -0.187
       0.188
       0.336
       0.427
       0.581
       0.767
       0.871
       0.831
       0.677
       0.469
       0.219
      -0.107
      -0.518
      -0.955
      -1.317
      -1.503
      -1.440
      -1.101
      -0.542
       0.093
       0.634
       0.966
       1.061
       0.960
       0.732
       0.443
       0.142
      -0.129
      -0.328
      -0.411
      -0.360
      -0.197
       0.008
       0.177
       0.258
       0.231
       0.119
       0.002
      -0.011
       0.116
       0.280
       0.294
       0.064
      -0.274
      -0.427
      -0.200
       0.323
       0.830
       1.007
       0.727
       0.100
      -0.602
      -1.072
      -1.104
      -0.701
      -0.066
       0.535
       0.951
       1.183
       1.264
       1.137
       0.719
       0.061
      -0.592
      -0.945
      -0.866
      -0.464
       0.007
       0.307
       0.336
       0.176
       0.024
       0.014
       0.057
      -0.115
      -0.703
      -1.614
      -2.465
      -2.803
      -2.364
      -1.212
       0.295
       1.650
       2.412
       2.409
       1.813
       1.005
       0.334
      -0.055
      -0.208
      -0.250
      -0.285
      -0.352
      -0.428
      -0.447
      -0.343
      -0.119
       0.107
       0.184
       0.078
      -0.080
      -0.121
      -0.038
      -0.024
      -0.275
      -0.754
      -1.169
      -1.186
      -0.689
       0.166
       1.101
       1.908
       2.507
       2.867
       2.888
       2.430
       1.451
       0.122
      -1.215
      -2.218
      -2.691
      -2.635
      -2.176
      -1.477
      -0.693
       0.016
       0.487
       0.616
       0.423
       0.061
      -0.244
      -0.298
      -0.050
       0.350
       0.611
       0.486
      -0.034
      -0.695
      -1.166
      -1.267
      -1.017
      -0.516
       0.156
       0.899
       1.508
       1.731
       1.447
       0.796
       0.090
      -0.385
      -0.516
      -0.373
      -0.137
      -0.019
      -0.161
      -0.519
      -0.860
      -0.924
      -0.652
      -0.247
       0.038
       0.153
       0.262
       0.493
       0.752
       0.813
       0.567
       0.126
      -0.285
      -0.500
      -0.454
      -0.133
       0.441
       1.128
       1.623
       1.585
       0.904
      -0.152
      -1.077
      -1.480
      -1.343
      -0.958
      -0.650
      -0.513
      -0.389
      -0.070
       0.456
       0.943
       1.070
       0.701
       0.013
      -0.605
      -0.811
      -0.538
      -0.022
       0.403
       0.547
       0.451
       0.269
       0.117
       0.053
       0.128
       0.367
       0.679
       0.836
       0.608
      -0.029
      -0.822
      -1.384
      -1.462
      -1.090
      -0.512
       0.002
       0.294
       0.314
       0.075
      -0.357
      -0.815
      -1.040
      -0.808
      -0.087
       0.912
       1.854
       2.443
       2.529
       2.082
       1.138
      -0.146
      -1.426
      -2.260
      -2.400
      -1.997
      -1.454
      -1.049
      -0.728
      -0.280
       0.330
       0.854
       0.969
       0.580
      -0.084
      -0.617
      -0.691
      -0.263
       0.387
       0.821
       0.755
       0.271
      -0.278
      -0.575
      -0.546
      -0.276
       0.179
       0.824
       1.561
       2.097
       2.111
       1.513
       0.523
      -0.531
      -1.425
      -2.064
      -2.388
      -2.335
      -1.913
      -1.241
      -0.504
       0.140
       0.623
       0.979
       1.288
       1.595
       1.878
       2.046
       1.985
       1.621
       0.973
       0.167
      -0.585
      -1.027
      -0.942
      -0.293
       0.635
       1.289
       1.160
       0.165
      -1.220
      -2.226
      -2.277
      -1.357
      -0.032
       0.881
       0.826
      -0.107
      -1.224
      -1.699
      -1.191
      -0.102
       0.717
       0.622
      -0.344
      -1.507
      -2.076
      -1.693
      -0.590
       0.649
       1.467
       1.585
       1.061
       0.217
      -0.518
      -0.814
      -0.582
       0.028
       0.764
       1.401
       1.772
       1.740
       1.241
       0.386
      -0.522
      -1.133
      -1.244
      -0.870
      -0.195
       0.510
       0.968
       1.023
       0.771
       0.539
       0.668
       1.188
       1.703
       1.664
       0.842
      -0.411
      -1.412
      -1.679
      -1.289
      -0.751
      -0.558
      -0.813
      -1.235
      -1.446
      -1.251
      -0.692
       0.065
       0.854
       1.540
       1.970
       1.966
       1.428
       0.482
      -0.487
      -1.016
      -0.852
      -0.139
       0.624
       0.848
       0.205
      -1.140
      -2.553
      -3.264
      -2.811
      -1.314
       0.578
       2.031
       2.494
       1.998
       1.052
       0.192
      -0.406
      -0.914
      -1.513
      -2.131
      -2.481
      -2.312
      -1.596
      -0.519
       0.639
       1.608
       2.173
       2.229
       1.855
       1.322
       0.950
       0.888
       1.019
       1.096
       0.954
       0.593
       0.076
      -0.546
      -1.189
      -1.680
      -1.848
      -1.673
      -1.309
      -0.959
      -0.722
      -0.564
      -0.348
       0.098
       0.886
       1.912
       2.787
       3.012
       2.364
       1.138
      -0.032
      -0.668
      -0.762
      -0.629
      -0.497
      -0.325
      -0.013
       0.327
       0.426
       0.168
      -0.265
      -0.586
      -0.690
      -0.672
      -0.625
      -0.513
      -0.291
      -0.065
      -0.009
      -0.110
      -0.105
       0.262
       0.932
       1.541
       1.714
       1.326
       0.515
      -0.449
      -1.252
      -1.580
      -1.278
      -0.539
       0.140
       0.314
      -0.048
      -0.568
      -0.810
      -0.611
      -0.140
       0.274
       0.322
      -0.163
      -1.125
      -2.269
      -3.166
      -3.476
      -3.128
      -2.276
      -1.108
       0.252
       1.628
       2.652
       2.903
       2.258
       1.122
       0.222
       0.108
       0.798
       1.850
       2.720
       3.041
       2.681
       1.685
       0.277
      -1.147
      -2.134
      -2.377
      -1.851
      -0.790
       0.440
       1.455
       1.903
       1.566
       0.513
      -0.849
      -1.930
      -2.256
      -1.681
      -0.431
       0.976
       1.900
       1.849
       0.766
      -0.848
      -2.186
      -2.595
      -1.909
      -0.461
       1.112
       2.131
       2.135
       1.067
      -0.692
      -2.531
      -3.907
      -4.534
      -4.336
      -3.330
      -1.630
       0.405
       2.154
       3.004
       2.715
       1.577
       0.210
      -0.768
      -1.004
      -0.500
       0.460
       1.489
       2.298
       2.802
       3.080
       3.245
       3.331
       3.287
       3.066
       2.714
       2.329
       1.899
       1.194
      -0.092
      -2.005
      -4.077
      -5.439
      -5.325
      -3.614
      -0.964
       1.565
       3.076
       3.193
       2.084
       0.321
      -1.326
      -2.147
      -1.823
      -0.648
       0.596
       1.112
       0.582
      -0.700
      -2.105
      -3.052
      -3.253
      -2.737
      -1.764
      -0.700
       0.111
       0.468
       0.382
       0.074
      -0.146
      -0.052
       0.395
       1.063
       1.733
       2.164
       2.157
       1.675
       0.906
       0.165
      -0.329
      -0.570
      -0.634
      -0.502
      -0.111
       0.422
       0.766
       0.714
       0.566
       1.053
       2.774
       5.671
       9.045
      12.060
      14.173
      15.154
      14.888
      13.324
      10.561
       6.883
       2.670
      -1.593
      -5.196
      -7.285
      -7.370
      -5.959
      -4.639
      -5.299
      -9.005
     -15.327
     -22.558
     -28.589
     -31.860
     -31.910
     -29.296
     -25.002
     -19.768
     -13.782
      -6.914
       0.774
       8.686
      15.792
      21.002
      23.494
      22.887
      19.390
      13.965
       8.241
       3.968
       2.225
       2.934
       4.976
       6.705
       6.564
       3.670
      -1.702
      -8.005
     -12.926
     -14.342
     -11.233
      -4.150
       4.863
      12.814
      16.761
      15.106
       8.551
      -0.059
      -7.143
     -10.174
      -8.674
      -3.826
       2.675
       9.409
      15.154
      18.578
      18.542
      14.941
       9.149
       3.428
      -0.334
      -1.558
      -0.974
       0.096
       0.475
      -0.466
      -2.675
      -5.444
      -7.689
      -8.547
      -7.949
      -6.743
      -6.179
      -7.072
      -9.227
     -11.506
     -12.460
     -11.072
      -7.221
      -1.709
       4.102
       8.839
      11.643
      12.459
      11.941
      10.928
       9.811
       8.249
       5.528
       1.272
      -4.022
      -9.037
     -12.294
     -13.015
     -11.611
      -9.388
      -7.641
      -6.850
      -6.607
      -6.207
      -5.304
      -4.086
      -3.035
      -2.627
      -3.170
      -4.641
      -6.454
      -7.400
      -6.075
      -1.707
       5.203
      12.973
      19.581
      23.615
      24.677
      23.130
      19.611
      14.772
       9.310
       3.990
      -0.594
      -4.355
      -7.752
     -11.337
     -15.087
     -18.111
     -19.052
     -16.971
     -12.052
      -5.581
       0.828
       6.141
      10.232
      13.456
      15.986
      17.507
      17.452
      15.422
      11.417
       5.824
      -0.687
      -7.201
     -12.590
     -15.742
     -15.988
     -13.478
      -9.168
      -4.423
      -0.503
       1.719
       1.774
      -0.399
      -4.289
      -8.702
     -12.041
     -12.992
     -11.204
      -7.427
      -3.007
       0.839
       3.446
       4.654
       4.604
       3.685
       2.598
       2.236
       3.221
       5.461
       8.200
      10.506
      11.776
      11.877
      10.929
       9.021
       6.172
       2.561
      -1.231
      -4.287
      -5.820
      -5.741
      -4.780
      -3.965
      -3.877
      -4.319
      -4.604
      -4.137
      -2.804
      -0.961
       0.806
       1.928
       2.019
       1.038
      -0.635
      -2.336
      -3.441
      -3.630
      -2.857
      -1.174
       1.252
       3.872
       5.651
       5.448
       2.701
      -2.053
      -7.219
     -10.799
     -11.325
      -8.563
      -3.599
       1.763
       5.905
       8.062
       8.403
       7.634
       6.482
       5.385
       4.467
       3.699
       3.114
       2.935
       3.548
       5.303
       8.206
      11.672
      14.522
      15.313
      12.899
       7.005
      -1.462
     -10.569
     -18.019
     -22.090
     -22.363
     -19.771
     -15.920
     -12.165
      -9.073
      -6.532
      -4.285
      -2.388
      -1.260
      -1.309
      -2.446
      -3.923
      -4.655
      -3.839
      -1.409
       1.953
       5.177
       7.271
       7.675
       6.419
       4.098
       1.684
       0.159
       0.091
       1.326
       3.006
       3.982
       3.454
       1.472
      -1.022
      -2.659
      -2.388
      -0.051
       3.525
       6.960
       9.006
       9.070
       7.315
       4.390
       1.110
      -1.688
      -3.239
      -3.131
      -1.653
       0.196
       1.250
       0.964
      -0.208
      -1.175
      -1.031
       0.312
       2.148
       3.548
       3.947
       3.337
       2.054
       0.500
      -0.972
      -2.049
      -2.522
      -2.445
      -2.217
      -2.425
      -3.478
      -5.259
      -7.053
      -7.842
      -6.826
      -3.892
       0.230
       4.249
       6.892
       7.428
       5.861
       2.745
      -1.145
      -5.019
      -8.056
      -9.376
      -8.242
      -4.479
       1.178
       7.170
      11.751
      13.783
      13.119
      10.378
       6.464
       2.303
      -1.227
      -3.436
      -4.108
      -3.645
      -2.795
      -2.113
      -1.607
      -0.892
       0.286
       1.648
       2.449
       1.951
      -0.038
      -2.930
      -5.542
      -6.642
      -5.604
      -2.805
       0.536
       2.994
       3.613
       2.227
      -0.626
      -3.953
      -6.561
      -7.401
      -5.982
      -2.650
       1.490
       5.038
       6.849
       6.346
       3.601
      -0.667
      -5.163
      -8.343
      -9.053
      -7.163
      -3.645
       0.019
       2.702
       4.099
       4.540
       4.455
       3.988
       3.063
       1.754
       0.572
       0.324
       1.595
       4.195
       7.008
       8.452
       7.394
       3.920
      -0.609
      -4.346
      -5.999
      -5.413
      -3.336
      -0.758
       1.531
       2.949
       2.993
       1.360
      -1.727
      -5.307
      -7.975
      -8.649
      -7.310
      -5.097
      -3.585
      -3.674
      -4.933
      -5.874
      -4.998
      -1.839
       2.739
       7.133
       9.921
      10.442
       8.813
       5.646
       1.800
      -1.756
      -4.152
      -4.924
      -4.223
      -2.741
      -1.416
      -1.068
      -2.013
      -3.801
      -5.301
      -5.275
      -3.188
       0.353
       3.920
       6.199
       6.834
       6.539
       6.398
       6.963
       7.917
       8.507
       8.280
       7.415
       6.435
       5.688
       5.086
       4.252
       2.844
       0.818
      -1.479
      -3.416
      -4.419
      -4.364
      -3.732
      -3.319
      -3.696
      -4.842
      -6.224
      -7.212
      -7.467
      -7.026
      -6.143
      -5.088
      -4.025
      -2.976
      -1.887
      -0.764
       0.227
       0.838
       0.961
       0.780
       0.692
       0.997
