Origin Time       4/2/2011 13:53:39	 
Lat.              24.8 N	
Long.             94.6 E	
Depth (Km)         30.0
Magnitude         6.4
 Region           Myanmar-India-Border                                             
 Above details taken from IMD 
     
Station Code      KOK
Station Lat.       26.400  N
Station Long.      90.261  E
Station Height(m)   54.0
Site Class        C   Vs30 between 200 m/sec to 375 m/sec *  
Record Time       04.02.2011 13:52:11.109
Sampling Rate     200. Hz
 Record Duration  100.720 Sec.
 Direction         E-W (E positive)
Max. Acceleration     -7.746 cm/sec**2
     
  * For reference see Site Classification link of website 
     
 Base Line Corrected and Low Pass Filtered (Cut Off at 35 Hz) Time History
 Acceleration data in cm/sec**2
    
[...]
      -0.173
      -0.070
       0.071
       0.269
       0.498
       0.685
       0.735
       0.601
       0.320
       0.004
      -0.233
      -0.353
      -0.420
      -0.537
      -0.758
      -1.034
      -1.242
      -1.263
      -1.044
      -0.621
      -0.099
       0.381
       0.687
       0.735
       0.529
       0.179
      -0.146
      -0.312
      -0.297
      -0.200
      -0.151
      -0.218
      -0.371
      -0.523
      -0.595
      -0.551
      -0.397
      -0.168
       0.079
       0.259
       0.301
       0.181
      -0.049
      -0.284
      -0.430
      -0.448
      -0.365
      -0.241
      -0.115
       0.020
       0.204
       0.461
       0.762
       1.033
       1.197
       1.224
       1.151
       1.041
       0.934
       0.816
       0.640
       0.375
       0.052
      -0.249
      -0.442
      -0.486
      -0.413
      -0.292
      -0.184
      -0.104
      -0.027
       0.076
       0.196
       0.290
       0.306
       0.223
       0.074
      -0.067
      -0.138
      -0.124
      -0.067
      -0.023
      -0.015
      -0.026
      -0.016
       0.039
       0.130
       0.217
       0.252
       0.208
       0.087
      -0.083
      -0.261
      -0.406
      -0.479
      -0.463
      -0.374
      -0.251
      -0.125
       0.010
       0.186
       0.417
       0.655
       0.812
       0.816
       0.673
       0.462
       0.281
       0.185
       0.168
       0.190
       0.209
       0.207
       0.187
       0.161
       0.130
       0.070
      -0.047
      -0.230
      -0.440
      -0.605
      -0.665
      -0.615
      -0.508
      -0.413
      -0.361
      -0.335
      -0.311
      -0.292
      -0.301
      -0.342
      -0.368
      -0.311
      -0.141
       0.085
       0.258
       0.300
       0.222
       0.103
       0.013
      -0.043
      -0.107
      -0.227
      -0.403
      -0.597
      -0.760
      -0.857
      -0.877
      -0.830
      -0.738
      -0.624
      -0.507
      -0.401
      -0.314
      -0.258
      -0.236
      -0.228
      -0.190
      -0.084
       0.090
       0.289
       0.460
       0.580
       0.667
       0.751
       0.833
       0.873
       0.810
       0.607
       0.294
      -0.042
      -0.304
      -0.432
      -0.425
      -0.332
      -0.226
      -0.178
      -0.227
      -0.353
      -0.492
      -0.570
      -0.558
      -0.483
      -0.400
      -0.332
      -0.254
      -0.132
       0.019
       0.129
       0.124
      -0.002
      -0.172
      -0.274
      -0.236
      -0.061
       0.199
       0.489
       0.764
       0.980
       1.081
       1.026
       0.822
       0.536
       0.275
       0.126
       0.126
       0.247
       0.408
       0.513
       0.496
       0.374
       0.235
       0.186
       0.269
       0.421
       0.526
       0.503
       0.357
       0.150
      -0.079
      -0.337
      -0.642
      -0.962
      -1.201
      -1.258
      -1.094
      -0.764
      -0.385
      -0.075
       0.093
       0.107
      -0.005
      -0.190
      -0.376
      -0.499
      -0.530
      -0.493
      -0.444
      -0.436
      -0.485
      -0.551
      -0.566
      -0.467
      -0.235
       0.084
       0.396
       0.610
       0.692
       0.687
       0.676
       0.715
       0.787
       0.828
       0.773
       0.604
       0.355
       0.105
      -0.052
      -0.040
       0.170
       0.537
       0.962
       1.323
       1.525
       1.534
       1.364
       1.057
       0.662
       0.223
      -0.210
      -0.577
      -0.812
      -0.863
      -0.724
      -0.454
      -0.168
       0.013
       0.003
      -0.209
      -0.556
      -0.920
      -1.191
      -1.323
      -1.359
      -1.395
      -1.512
      -1.723
      -1.971
      -2.153
      -2.164
      -1.945
      -1.515
      -0.970
      -0.448
      -0.063
       0.144
       0.211
       0.206
       0.188
       0.193
       0.253
       0.397
       0.630
       0.907
       1.159
       1.331
       1.419
       1.469
       1.533
       1.649
       1.817
       2.009
       2.171
       2.221
       2.066
       1.635
       0.942
       0.114
      -0.643
      -1.130
      -1.252
      -1.054
      -0.675
      -0.263
       0.094
       0.385
       0.636
       0.865
       1.060
       1.181
       1.183
       1.031
       0.700
       0.184
      -0.486
      -1.228
      -1.899
      -2.338
      -2.435
      -2.181
      -1.677
      -1.089
      -0.585
      -0.262
      -0.118
      -0.075
      -0.041
       0.027
       0.121
       0.201
       0.236
       0.206
       0.107
      -0.042
      -0.196
      -0.302
      -0.321
      -0.244
      -0.084
       0.153
       0.462
       0.817
       1.146
       1.338
       1.296
       0.997
       0.533
       0.091
      -0.110
       0.079
       0.645
       1.389
       1.999
       2.196
       1.869
       1.119
       0.204
      -0.591
      -1.076
      -1.218
      -1.126
      -0.973
      -0.901
      -0.972
      -1.156
      -1.372
      -1.518
      -1.511
      -1.322
      -1.007
      -0.696
      -0.513
      -0.496
      -0.564
      -0.589
      -0.500
      -0.350
      -0.264
      -0.339
      -0.559
      -0.797
      -0.908
      -0.816
      -0.557
      -0.241
       0.017
       0.168
       0.244
       0.330
       0.492
       0.725
       0.965
       1.148
       1.259
       1.322
       1.342
       1.270
       1.032
       0.602
       0.045
      -0.509
      -0.932
      -1.143
      -1.116
      -0.852
      -0.391
       0.169
       0.681
       1.003
       1.072
       0.947
       0.752
       0.590
       0.472
       0.331
       0.101
      -0.202
      -0.466
      -0.555
      -0.414
      -0.128
       0.114
       0.133
      -0.126
      -0.549
      -0.927
      -1.095
      -1.037
      -0.885
      -0.824
      -0.977
      -1.347
      -1.833
      -2.283
      -2.550
      -2.515
      -2.126
      -1.429
      -0.580
       0.202
       0.741
       0.978
       0.977
       0.870
       0.779
       0.775
       0.879
       1.079
       1.349
       1.664
       2.014
       2.417
       2.890
       3.417
       3.917
       4.271
       4.372
       4.170
       3.666
       2.887
       1.859
       0.631
      -0.691
      -1.937
      -2.908
      -3.457
      -3.546
      -3.258
      -2.757
      -2.232
      -1.839
      -1.663
      -1.710
      -1.919
      -2.197
      -2.449
      -2.598
      -2.597
      -2.429
      -2.110
      -1.676
      -1.186
      -0.704
      -0.285
       0.040
       0.264
       0.414
       0.546
       0.721
       0.968
       1.258
       1.518
       1.679
       1.727
       1.687
       1.576
       1.370
       1.038
       0.633
       0.336
       0.376
       0.871
       1.699
       2.539
       3.054
       3.090
       2.730
       2.202
       1.721
       1.384
       1.170
       1.005
       0.820
       0.581
       0.296
       0.015
      -0.176
      -0.185
       0.025
       0.397
       0.790
       1.027
       0.960
       0.537
      -0.180
      -1.037
      -1.842
      -2.437
      -2.740
      -2.756
      -2.547
      -2.202
      -1.818
      -1.494
      -1.304
      -1.246
      -1.223
      -1.089
      -0.747
      -0.210
       0.402
       0.947
       1.331
       1.531
       1.552
       1.397
       1.069
       0.607
       0.117
      -0.262
      -0.424
      -0.350
      -0.124
       0.119
       0.267
       0.274
       0.177
       0.063
       0.024
       0.120
       0.367
       0.737
       1.165
       1.549
       1.761
       1.680
       1.270
       0.625
      -0.051
      -0.551
      -0.777
      -0.770
      -0.651
      -0.539
      -0.508
      -0.603
      -0.852
      -1.255
      -1.747
      -2.198
      -2.461
      -2.443
      -2.165
      -1.755
      -1.378
      -1.153
      -1.098
      -1.134
      -1.148
      -1.043
      -0.751
      -0.227
       0.548
       1.527
       2.568
       3.456
       3.963
       3.917
       3.248
       2.001
       0.346
      -1.439
      -3.029
      -4.144
      -4.641
      -4.555
      -4.046
      -3.313
      -2.495
      -1.652
      -0.806
      -0.009
       0.631
       1.002
       1.067
       0.905
       0.670
       0.506
       0.491
       0.632
       0.906
       1.276
       1.708
       2.160
       2.573
       2.871
       2.972
       2.818
       2.414
       1.830
       1.166
       0.486
      -0.217
      -1.020
      -2.006
      -3.205
      -4.535
      -5.797
      -6.727
      -7.084
      -6.747
      -5.750
      -4.259
      -2.517
      -0.792
       0.662
       1.646
       2.080
       2.049
       1.769
       1.490
       1.378
       1.464
       1.677
       1.922
       2.136
       2.295
       2.391
       2.408
       2.315
       2.082
       1.692
       1.168
       0.591
       0.098
      -0.154
      -0.069
       0.315
       0.816
       1.187
       1.241
       0.951
       0.458
      -0.011
      -0.264
      -0.236
       0.004
       0.318
       0.572
       0.676
       0.579
       0.239
      -0.369
      -1.211
      -2.145
      -2.934
      -3.333
      -3.226
      -2.694
      -1.968
      -1.303
      -0.854
      -0.633
      -0.559
      -0.510
      -0.374
      -0.054
       0.521
       1.362
       2.376
       3.357
       4.056
       4.293
       4.061
       3.541
       3.026
       2.772
       2.880
       3.254
       3.663
       3.858
       3.692
       3.171
       2.421
       1.631
       0.983
       0.609
       0.556
       0.764
       1.066
       1.227
       1.021
       0.328
      -0.793
      -2.079
      -3.147
      -3.623
      -3.294
      -2.193
      -0.602
       1.039
       2.285
       2.840
       2.647
       1.864
       0.748
      -0.486
      -1.728
      -2.940
      -4.079
      -5.041
      -5.667
      -5.810
      -5.409
      -4.539
      -3.410
      -2.298
      -1.442
      -0.930
      -0.672
      -0.460
      -0.106
       0.428
       0.991
       1.326
       1.230
       0.685
      -0.113
      -0.841
      -1.205
      -1.076
      -0.534
       0.187
       0.822
       1.193
       1.274
       1.166
       1.035
       1.024
       1.196
       1.499
       1.799
       1.956
       1.913
       1.732
       1.532
       1.379
       1.218
       0.915
       0.395
      -0.252
      -0.782
      -0.939
      -0.613
       0.079
       0.841
       1.321
       1.254
       0.561
      -0.601
      -1.865
      -2.785
      -3.011
      -2.463
      -1.377
      -0.218
       0.532
       0.586
      -0.046
      -1.106
      -2.234
      -3.133
      -3.646
      -3.760
      -3.554
      -3.145
      -2.642
      -2.126
      -1.635
      -1.171
      -0.705
      -0.186
       0.429
       1.145
       1.912
       2.645
       3.281
       3.801
       4.216
       4.511
       4.633
       4.532
       4.219
       3.777
       3.302
       2.823
       2.293
       1.647
       0.884
       0.104
      -0.522
      -0.839
      -0.792
      -0.469
      -0.081
       0.121
      -0.036
      -0.577
      -1.369
      -2.206
      -2.901
      -3.361
      -3.588
      -3.654
      -3.640
      -3.593
      -3.500
      -3.312
      -2.993
      -2.561
      -2.090
      -1.668
      -1.346
      -1.102
      -0.846
      -0.455
       0.141
       0.872
       1.503
       1.734
       1.393
       0.604
      -0.251
      -0.747
      -0.682
      -0.186
       0.406
       0.808
       0.973
       1.092
       1.425
       2.107
       3.066
       4.055
       4.778
       5.009
       4.672
       3.874
       2.866
       1.958
       1.398
       1.277
       1.517
       1.942
       2.384
       2.747
       3.003
       3.110
       2.967
       2.450
       1.491
       0.160
      -1.331
      -2.690
      -3.692
      -4.301
      -4.689
      -5.114
      -5.749
      -6.554
      -7.272
      -7.572
      -7.249
      -6.353
      -5.160
      -4.027
      -3.225
      -2.828
      -2.718
      -2.672
      -2.489
      -2.073
      -1.479
      -0.873
      -0.447
      -0.312
      -0.433
      -0.642
      -0.709
      -0.436
       0.261
       1.307
       2.488
       3.546
       4.299
       4.710
       4.866
       4.872
       4.779
       4.599
       4.370
       4.193
       4.174
       4.331
       4.553
       4.657
       4.471
       3.891
       2.896
       1.546
      -0.013
      -1.562
      -2.863
      -3.746
      -4.171
      -4.245
      -4.145
      -4.000
      -3.798
      -3.394
      -2.625
      -1.460
      -0.065
       1.263
       2.224
       2.626
       2.417
       1.683
       0.625
      -0.484
      -1.388
      -1.959
      -2.249
      -2.434
      -2.659
      -2.906
      -2.987
      -2.673
      -1.866
      -0.688
       0.584
       1.663
       2.379
       2.722
       2.790
       2.708
       2.576
       2.454
       2.364
       2.294
       2.208
       2.080
       1.934
       1.861
       1.991
       2.406
       3.063
       3.771
       4.251
       4.256
       3.686
       2.625
       1.313
       0.059
      -0.854
      -1.254
      -1.137
      -0.681
      -0.189
       0.031
      -0.200
      -0.842
      -1.643
      -2.254
      -2.404
      -2.068
      -1.509
      -1.178
      -1.483
      -2.562
      -4.203
      -5.940
      -7.249
      -7.746
      -7.303
      -6.061
      -4.354
      -2.578
      -1.043
       0.135
       1.040
       1.856
       2.719
       3.615
       4.382
       4.797
       4.692
       4.022
       2.882
       1.483
       0.096
      -1.013
      -1.644
      -1.703
      -1.217
      -0.307
       0.856
       2.098
       3.266
       4.229
       4.876
       5.114
       4.898
       4.238
       3.190
       1.831
       0.245
      -1.460
      -3.129
      -4.559
      -5.523
      -5.828
      -5.403
      -4.354
      -2.972
      -1.655
      -0.754
      -0.424
      -0.549
      -0.817
      -0.918
      -0.734
      -0.424
      -0.306
      -0.622
      -1.345
      -2.170
      -2.706
      -2.724
      -2.295
      -1.730
      -1.382
      -1.449
      -1.895
      -2.500
      -2.976
      -3.094
      -2.750
      -1.982
      -0.945
       0.152
       1.122
       1.861
       2.373
       2.750
       3.123
       3.616
       4.302
       5.171
       6.113
       6.926
       7.377
       7.308
       6.724
       5.807
       4.836
       4.049
       3.527
       3.179
       2.829
       2.356
       1.768
       1.166
       0.634
       0.169
      -0.291
      -0.766
      -1.174
      -1.370
      -1.267
      -0.949
      -0.673
      -0.745
      -1.334
      -2.346
      -3.445
      -4.223
      -4.418
      -4.049
      -3.392
      -2.822
      -2.615
      -2.829
      -3.308
      -3.778
      -3.985
      -3.815
      -3.339
      -2.761
      -2.295
      -2.049
      -2.003
      -2.058
      -2.113
      -2.091
      -1.929
      -1.566
      -0.968
      -0.165
       0.753
       1.698
       2.651
       3.638
       4.622
       5.400
       5.651
       5.148
       3.979
       2.571
       1.468
       1.007
       1.154
       1.594
       1.961
       2.015
       1.687
       1.045
       0.256
      -0.459
      -0.903
      -0.994
      -0.814
      -0.585
      -0.563
      -0.902
      -1.556
      -2.279
      -2.748
      -2.749
      -2.304
      -1.633
      -0.975
      -0.422
       0.098
       0.683
       1.315
       1.842
       2.090
       1.974
       1.532
       0.863
       0.071
      -0.759
      -1.545
      -2.204
      -2.680
      -2.970
      -3.111
      -3.106
      -2.867
      -2.261
      -1.247
       0.022
       1.225
       2.050
       2.378
       2.334
       2.192
       2.193
       2.427
       2.807
       3.119
       3.118
       2.626
       1.623
       0.286
      -1.066
      -2.093
      -2.570
      -2.463
      -1.922
      -1.196
      -0.541
      -0.152
      -0.130
      -0.464
      -1.027
      -1.618
      -2.041
      -2.185
      -2.058
      -1.744
      -1.332
      -0.872
      -0.380
       0.128
       0.594
       0.921
       1.000
       0.760
       0.204
      -0.563
      -1.356
      -1.957
      -2.187
      -1.965
      -1.339
      -0.492
       0.300
       0.755
       0.697
       0.160
      -0.611
      -1.252
      -1.440
      -1.001
       0.062
       1.604
       3.380
       5.073
       6.345
       6.918
       6.668
       5.662
       4.137
       2.440
       0.946
      -0.054
      -0.465
      -0.438
      -0.279
      -0.253
      -0.414
      -0.597
      -0.561
      -0.173
       0.497
       1.212
       1.660
       1.569
       0.813
      -0.516
      -2.099
      -3.493
      -4.327
      -4.470
      -4.079
      -3.498
      -3.084
      -3.047
      -3.371
      -3.824
      -4.052
      -3.736
      -2.760
      -1.321
       0.120
       1.053
       1.190
       0.622
      -0.262
      -1.040
      -1.498
      -1.692
      -1.782
      -1.842
      -1.801
      -1.562
      -1.153
      -0.746
      -0.513
      -0.470
      -0.438
      -0.167
       0.490
       1.489
       2.618
       3.611
       4.251
       4.441
       4.216
       3.715
       3.113
       2.536
       1.991
       1.390
       0.641
      -0.235
      -1.070
      -1.636
      -1.788
      -1.556
      -1.106
      -0.601
      -0.115
       0.358
       0.812
       1.186
       1.397
       1.396
       1.179
       0.768
       0.195
      -0.482
      -1.152
      -1.678
      -1.947
      -1.920
      -1.632
      -1.173
      -0.662
      -0.242
      -0.064
      -0.240
      -0.776
      -1.541
      -2.293
      -2.762
      -2.740
      -2.145
      -1.040
       0.406
       1.995
       3.544
       4.902
       5.917
       6.442
       6.363
       5.648
       4.375
       2.719
       0.928
      -0.701
      -1.877
      -2.394
      -2.219
      -1.535
      -0.678
      -0.002
       0.252
       0.029
      -0.555
      -1.278
      -1.908
      -2.287
      -2.359
      -2.177
      -1.879
      -1.654
      -1.678
      -2.020
      -2.566
      -3.026
      -3.063
      -2.493
      -1.406
      -0.114
       1.031
       1.820
       2.242
       2.408
       2.422
       2.312
       2.048
       1.622
       1.107
       0.629
       0.277
       0.046
      -0.147
      -0.355
      -0.520
      -0.490
      -0.142
       0.505
       1.285
       1.987
       2.473
       2.738
       2.873
       2.993
       3.156
       3.333
       3.425
       3.316
       2.936
       2.297
       1.477
       0.572
      -0.343
      -1.209
      -1.940
      -2.396
      -2.422
      -1.947
      -1.070
      -0.058
       0.774
       1.229
       1.334
       1.311
       1.428
       1.829
       2.426
       2.923
       2.987
       2.455
       1.459
       0.368
      -0.411
      -0.646
      -0.360
       0.218
       0.777
       1.008
       0.678
      -0.287
      -1.736
      -3.318
      -4.625
      -5.383
      -5.549
      -5.268
      -4.727
      -4.051
      -3.295
      -2.519
