Origin Time       4/2/2011 13:53:39	 
Lat.              24.8 N	
Long.             94.6 E	
Depth (Km)         30.0
Magnitude         6.4
 Region           Myanmar-India-Border                                             
 Above details taken from IMD 
   
Station Code      KOK
Station Lat.       26.400
Station Long.      90.261
Station Height(m)   54.0
Site Class        C   Vs30 between 200 m/sec to 375 m/sec *  
Record Time       04.02.2011 13:52:11.109
Sampling Rate     200. Hz
 Record Duration  100.720 Sec.
 Direction         Vert. (Up positive)
Max. Acceleration      6.996 cm/sec**2
     
  * For reference see Site Classification link of website 
     
 Base Line Corrected and Low Pass Filtered (Cut Off at 35 Hz) Time History
 Acceleration data in cm/sec**2
    
[...]
      -0.133
      -0.292
      -0.373
      -0.296
      -0.065
       0.233
       0.483
       0.592
       0.523
       0.311
       0.071
      -0.040
       0.098
       0.470
       0.902
       1.150
       1.060
       0.674
       0.181
      -0.211
      -0.389
      -0.347
      -0.133
       0.189
       0.537
       0.804
       0.899
       0.799
       0.560
       0.272
      -0.002
      -0.240
      -0.424
      -0.518
      -0.504
      -0.417
      -0.344
      -0.363
      -0.483
      -0.619
      -0.663
      -0.563
      -0.362
      -0.146
       0.025
       0.136
       0.176
       0.119
      -0.036
      -0.224
      -0.323
      -0.241
       0.005
       0.287
       0.454
       0.434
       0.260
       0.026
      -0.181
      -0.305
      -0.324
      -0.244
      -0.124
      -0.054
      -0.109
      -0.290
      -0.504
      -0.612
      -0.503
      -0.153
       0.366
       0.918
       1.347
       1.538
       1.457
       1.172
       0.803
       0.430
       0.046
      -0.397
      -0.894
      -1.342
      -1.609
      -1.645
      -1.507
      -1.282
      -1.006
      -0.660
      -0.244
       0.178
       0.512
       0.700
       0.734
       0.626
       0.399
       0.121
      -0.083
      -0.107
       0.062
       0.337
       0.619
       0.856
       1.020
       1.059
       0.909
       0.580
       0.204
      -0.027
       0.000
       0.228
       0.472
       0.553
       0.416
       0.137
      -0.166
      -0.418
      -0.621
      -0.806
      -0.978
      -1.095
      -1.113
      -1.021
      -0.845
      -0.614
      -0.353
      -0.099
       0.100
       0.215
       0.273
       0.325
       0.396
       0.464
       0.499
       0.500
       0.487
       0.469
       0.432
       0.357
       0.256
       0.166
       0.109
       0.044
      -0.099
      -0.340
      -0.596
      -0.718
      -0.591
      -0.217
       0.294
       0.792
       1.161
       1.338
       1.289
       1.019
       0.593
       0.134
      -0.245
      -0.507
      -0.680
      -0.777
      -0.760
      -0.581
      -0.246
       0.173
       0.575
       0.867
       0.978
       0.853
       0.481
      -0.070
      -0.659
      -1.141
      -1.441
      -1.569
      -1.566
      -1.452
      -1.239
      -0.955
      -0.646
      -0.345
      -0.066
       0.168
       0.297
       0.251
       0.032
      -0.246
      -0.389
      -0.250
       0.153
       0.626
       0.933
       0.956
       0.755
       0.478
       0.228
       0.010
      -0.219
      -0.476
      -0.715
      -0.867
      -0.882
      -0.751
      -0.507
      -0.221
       0.018
       0.141
       0.139
       0.057
      -0.042
      -0.124
      -0.174
      -0.170
      -0.069
       0.149
       0.437
       0.690
       0.819
       0.810
       0.737
       0.678
       0.629
       0.501
       0.203
      -0.238
      -0.659
      -0.848
      -0.683
      -0.195
       0.454
       1.057
       1.443
       1.516
       1.265
       0.774
       0.185
      -0.363
      -0.800
      -1.114
      -1.299
      -1.305
      -1.066
      -0.587
       0.014
       0.550
       0.876
       0.969
       0.919
       0.837
       0.781
       0.741
       0.680
       0.565
       0.369
       0.071
      -0.319
      -0.739
      -1.098
      -1.321
      -1.388
      -1.321
      -1.146
      -0.887
      -0.577
      -0.264
       0.019
       0.281
       0.563
       0.890
       1.213
       1.428
       1.436
       1.198
       0.747
       0.164
      -0.443
      -0.961
      -1.292
      -1.381
      -1.224
      -0.853
      -0.320
       0.307
       0.931
       1.417
       1.613
       1.412
       0.817
      -0.040
      -0.938
      -1.660
      -2.072
      -2.143
      -1.916
      -1.453
      -0.825
      -0.138
       0.480
       0.923
       1.147
       1.161
       0.995
       0.694
       0.341
       0.062
      -0.027
       0.130
       0.503
       1.004
       1.512
       1.896
       2.045
       1.902
       1.496
       0.938
       0.361
      -0.146
      -0.566
      -0.910
      -1.158
      -1.256
      -1.175
      -0.973
      -0.777
      -0.686
      -0.700
      -0.738
      -0.738
      -0.711
      -0.688
      -0.633
      -0.438
      -0.035
       0.489
       0.927
       1.098
       0.959
       0.582
       0.063
      -0.522
      -1.082
      -1.490
      -1.634
      -1.489
      -1.116
      -0.583
       0.094
       0.886
       1.646
       2.124
       2.121
       1.647
       0.902
       0.119
      -0.564
      -1.088
      -1.381
      -1.342
      -0.936
      -0.278
       0.399
       0.888
       1.127
       1.165
       1.054
       0.793
       0.392
      -0.050
      -0.362
      -0.436
      -0.316
      -0.150
      -0.055
      -0.042
      -0.074
      -0.151
      -0.320
      -0.581
      -0.848
      -1.015
      -1.055
      -1.034
      -1.009
      -0.939
      -0.725
      -0.328
       0.178
       0.664
       1.032
       1.229
       1.206
       0.915
       0.368
      -0.301
      -0.858
      -1.095
      -0.969
      -0.620
      -0.255
       0.007
       0.187
       0.360
       0.548
       0.700
       0.755
       0.706
       0.599
       0.466
       0.297
       0.066
      -0.223
      -0.512
      -0.723
      -0.795
      -0.709
      -0.500
      -0.235
       0.014
       0.209
       0.341
       0.388
       0.304
       0.066
      -0.264
      -0.516
      -0.502
      -0.138
       0.481
       1.115
       1.516
       1.566
       1.317
       0.919
       0.509
       0.141
      -0.197
      -0.516
      -0.772
      -0.887
      -0.806
      -0.551
      -0.230
       0.020
       0.098
      -0.012
      -0.226
      -0.394
      -0.384
      -0.156
       0.213
       0.599
       0.915
       1.120
       1.173
       0.991
       0.503
      -0.246
      -1.061
      -1.676
      -1.902
      -1.714
      -1.206
      -0.500
       0.311
       1.134
       1.843
       2.293
       2.393
       2.158
       1.697
       1.125
       0.510
      -0.119
      -0.694
      -1.075
      -1.128
      -0.850
      -0.394
       0.048
       0.372
       0.582
       0.681
       0.601
       0.259
      -0.315
      -0.940
      -1.390
      -1.524
      -1.339
      -0.917
      -0.374
       0.150
       0.486
       0.503
       0.212
      -0.206
      -0.500
      -0.495
      -0.180
       0.321
       0.857
       1.325
       1.687
       1.928
       2.032
       1.978
       1.754
       1.340
       0.706
      -0.144
      -1.101
      -1.940
      -2.408
      -2.369
      -1.869
      -1.090
      -0.235
       0.538
       1.111
       1.384
       1.293
       0.858
       0.193
      -0.540
      -1.183
      -1.600
      -1.676
      -1.333
      -0.578
       0.455
       1.521
       2.342
       2.706
       2.554
       1.983
       1.175
       0.300
      -0.513
      -1.161
      -1.560
      -1.682
      -1.572
      -1.306
      -0.913
      -0.371
       0.320
       1.058
       1.664
       1.968
       1.885
       1.416
       0.617
      -0.391
      -1.399
      -2.164
      -2.525
      -2.494
      -2.218
      -1.855
      -1.499
      -1.181
      -0.918
      -0.723
      -0.596
      -0.507
      -0.418
      -0.293
      -0.099
       0.196
       0.609
       1.101
       1.559
       1.832
       1.804
       1.463
       0.893
       0.232
      -0.378
      -0.807
      -0.953
      -0.779
      -0.336
       0.256
       0.859
       1.355
       1.670
       1.764
       1.617
       1.222
       0.600
      -0.171
      -0.966
      -1.675
      -2.248
      -2.693
      -3.012
      -3.169
      -3.110
      -2.813
      -2.305
      -1.619
      -0.768
       0.226
       1.246
       2.071
       2.475
       2.374
       1.871
       1.165
       0.416
      -0.291
      -0.878
      -1.219
      -1.178
      -0.711
       0.093
       1.066
       2.048
       2.895
       3.439
       3.487
       2.923
       1.824
       0.438
      -0.946
      -2.131
      -3.018
      -3.547
      -3.653
      -3.295
      -2.501
      -1.390
      -0.143
       1.049
       2.023
       2.646
       2.803
       2.409
       1.460
       0.092
      -1.411
      -2.693
      -3.447
      -3.511
      -2.871
      -1.638
      -0.005
       1.764
       3.388
       4.623
       5.290
       5.256
       4.436
       2.860
       0.763
      -1.428
      -3.237
      -4.317
      -4.547
      -3.999
      -2.860
      -1.379
       0.169
       1.528
       2.512
       3.031
       3.060
       2.610
       1.760
       0.695
      -0.296
      -0.925
      -1.033
      -0.657
       0.018
       0.765
       1.408
       1.850
       2.039
       1.917
       1.428
       0.566
      -0.581
      -1.822
      -2.905
      -3.596
      -3.759
      -3.392
      -2.626
      -1.671
      -0.749
      -0.019
       0.466
       0.737
       0.829
       0.736
       0.455
       0.083
      -0.189
      -0.193
       0.077
       0.456
       0.742
       0.840
       0.795
       0.711
       0.655
       0.618
       0.560
       0.459
       0.344
       0.280
       0.344
       0.589
       0.992
       1.408
       1.609
       1.399
       0.732
      -0.249
      -1.293
      -2.144
      -2.624
      -2.662
      -2.281
      -1.580
      -0.699
       0.186
       0.897
       1.273
       1.211
       0.693
      -0.196
      -1.285
      -2.344
      -3.126
      -3.412
      -3.073
      -2.124
      -0.733
       0.840
       2.316
       3.460
       4.093
       4.110
       3.517
       2.462
       1.220
       0.099
      -0.667
      -0.973
      -0.832
      -0.335
       0.372
       1.087
       1.583
       1.670
       1.277
       0.462
      -0.631
      -1.818
      -2.895
      -3.636
      -3.861
      -3.537
      -2.814
      -1.945
      -1.156
      -0.568
      -0.248
      -0.267
      -0.678
      -1.406
      -2.188
      -2.681
      -2.654
      -2.093
      -1.156
      -0.041
       1.089
       2.087
       2.799
       3.097
       2.953
       2.472
       1.836
       1.211
       0.702
       0.370
       0.269
       0.417
       0.749
       1.093
       1.264
       1.170
       0.869
       0.487
       0.101
      -0.312
      -0.798
      -1.303
      -1.660
      -1.705
      -1.417
      -0.940
      -0.491
      -0.250
      -0.320
      -0.735
      -1.456
      -2.358
      -3.244
      -3.888
      -4.094
      -3.728
      -2.736
      -1.186
       0.698
       2.552
       3.974
       4.662
       4.499
       3.566
       2.109
       0.487
      -0.920
      -1.814
      -2.049
      -1.621
      -0.625
       0.741
       2.166
       3.262
       3.714
       3.421
       2.535
       1.344
       0.103
      -1.042
      -2.019
      -2.747
      -3.111
      -3.012
      -2.435
      -1.454
      -0.182
       1.263
       2.741
       4.046
       4.910
       5.111
       4.603
       3.560
       2.282
       1.034
      -0.053
      -0.967
      -1.747
      -2.435
      -3.065
      -3.630
      -4.030
      -4.065
      -3.521
      -2.330
      -0.665
       1.093
       2.528
       3.352
       3.475
       2.960
       1.954
       0.660
      -0.671
      -1.748
      -2.300
      -2.146
      -1.259
       0.203
       1.924
       3.513
       4.621
       5.048
       4.775
       3.907
       2.604
       1.027
      -0.658
      -2.265
      -3.571
      -4.343
      -4.421
      -3.814
      -2.737
      -1.530
      -0.507
       0.146
       0.354
       0.089
      -0.633
      -1.681
      -2.754
      -3.455
      -3.468
      -2.723
      -1.410
       0.147
       1.668
       2.987
       4.021
       4.703
       4.976
       4.853
       4.430
       3.819
       3.080
       2.231
       1.333
       0.526
      -0.043
      -0.327
      -0.403
      -0.401
      -0.427
      -0.544
      -0.800
      -1.225
      -1.789
      -2.378
      -2.831
      -3.029
      -2.971
      -2.781
      -2.643
      -2.708
      -3.032
      -3.543
      -4.057
      -4.316
      -4.045
      -3.048
      -1.309
       0.936
       3.232
       5.045
       5.960
       5.820
       4.763
       3.135
       1.356
      -0.202
      -1.285
      -1.764
      -1.624
      -0.947
       0.092
       1.240
       2.228
       2.857
       3.052
       2.821
       2.185
       1.170
      -0.123
      -1.462
      -2.558
      -3.232
      -3.504
      -3.517
      -3.351
      -2.944
      -2.190
      -1.128
      -0.008
       0.822
       1.093
       0.714
      -0.236
      -1.560
      -2.974
      -4.147
      -4.770
      -4.664
      -3.826
      -2.382
      -0.521
       1.527
       3.483
       5.047
       5.996
       6.260
       5.916
       5.096
       3.937
       2.606
       1.351
       0.471
       0.190
       0.517
       1.218
       1.929
       2.335
       2.313
       1.944
       1.407
       0.831
       0.214
      -0.538
      -1.502
      -2.656
      -3.868
      -4.934
      -5.630
      -5.769
      -5.265
      -4.162
      -2.611
      -0.814
       1.001
       2.586
       3.686
       4.104
       3.782
       2.837
       1.514
       0.102
      -1.128
      -1.933
      -2.118
      -1.571
      -0.310
       1.499
       3.550
       5.428
       6.686
       6.996
       6.293
       4.815
       2.980
       1.149
      -0.520
      -2.051
      -3.480
      -4.703
      -5.471
      -5.518
      -4.730
      -3.249
      -1.453
       0.186
       1.284
       1.681
       1.431
       0.711
      -0.283
      -1.357
      -2.313
      -2.959
      -3.185
      -3.014
      -2.573
      -2.008
      -1.417
      -0.851
      -0.358
       0.004
       0.189
       0.203
       0.123
       0.078
       0.184
       0.484
       0.925
       1.385
       1.752
       1.992
       2.172
       2.398
       2.730
       3.129
       3.474
       3.614
       3.425
       2.847
       1.905
       0.714
      -0.555
      -1.730
      -2.694
      -3.395
      -3.814
      -3.958
      -3.870
      -3.636
      -3.334
      -2.986
      -2.555
      -2.019
      -1.437
      -0.922
      -0.544
      -0.254
       0.061
       0.468
       0.915
       1.294
       1.546
       1.679
       1.692
       1.519
       1.064
       0.305
      -0.637
      -1.519
      -2.068
      -2.112
      -1.666
      -0.920
      -0.138
       0.489
       0.900
       1.135
       1.228
       1.170
       0.944
       0.596
       0.232
      -0.033
      -0.129
      -0.047
       0.157
       0.371
       0.455
       0.329
       0.045
      -0.228
      -0.341
      -0.286
      -0.186
      -0.156
      -0.200
      -0.248
      -0.271
      -0.320
      -0.465
      -0.708
      -0.962
      -1.097
      -1.009
      -0.678
      -0.187
       0.285
       0.542
       0.477
       0.136
      -0.307
      -0.654
      -0.786
      -0.717
      -0.560
      -0.450
      -0.472
      -0.612
      -0.742
      -0.665
      -0.223
       0.577
       1.527
       2.327
       2.768
       2.840
       2.672
       2.367
       1.883
       1.086
      -0.084
      -1.498
      -2.884
      -3.983
      -4.669
      -4.935
      -4.788
      -4.182
      -3.059
      -1.465
       0.381
       2.132
       3.465
       4.231
       4.508
       4.502
       4.381
       4.180
       3.832
       3.285
       2.578
       1.813
       1.073
       0.377
      -0.312
      -1.025
      -1.740
      -2.355
      -2.733
      -2.789
      -2.563
      -2.207
      -1.869
      -1.592
      -1.292
      -0.863
      -0.292
       0.312
       0.782
       1.006
       0.988
       0.837
       0.693
       0.653
       0.750
       0.991
       1.379
       1.887
       2.385
       2.632
       2.365
       1.466
       0.082
      -1.404
      -2.566
      -3.155
      -3.181
      -2.812
      -2.208
      -1.434
      -0.508
       0.526
       1.586
       2.598
       3.505
       4.198
       4.499
       4.255
       3.473
       2.365
       1.202
       0.147
      -0.780
      -1.593
      -2.230
      -2.588
      -2.621
      -2.380
      -1.935
      -1.296
      -0.435
       0.608
       1.685
       2.624
       3.329
       3.787
       3.975
       3.798
       3.151
       2.033
       0.595
      -0.924
      -2.306
      -3.412
      -4.179
      -4.579
      -4.611
      -4.299
      -3.688
      -2.861
      -1.959
      -1.183
      -0.722
      -0.645
      -0.852
      -1.141
      -1.315
      -1.240
      -0.828
      -0.024
       1.143
       2.509
       3.792
       4.712
       5.098
       4.907
       4.152
       2.861
       1.139
      -0.752
      -2.427
      -3.557
      -4.040
      -3.992
      -3.583
      -2.918
      -2.042
      -1.051
      -0.128
       0.534
       0.865
       0.947
       0.911
       0.809
       0.606
       0.292
      -0.018
      -0.122
       0.113
       0.651
       1.334
       1.974
       2.403
       2.475
       2.092
       1.296
       0.313
      -0.532
      -1.024
      -1.211
      -1.371
      -1.787
      -2.496
      -3.244
      -3.684
      -3.656
      -3.288
      -2.833
      -2.422
      -1.984
      -1.403
      -0.715
      -0.091
       0.344
       0.642
       0.959
       1.371
       1.770
       1.945
       1.760
       1.254
       0.622
       0.105
      -0.113
       0.055
       0.596
       1.409
       2.305
       3.047
       3.430
       3.364
       2.894
       2.127
       1.130
      -0.091
      -1.498
      -2.893
      -3.922
      -4.259
      -3.829
      -2.850
      -1.642
      -0.395
       0.863
       2.097
       3.120
       3.643
       3.470
       2.646
       1.418
       0.087
      -1.113
      -2.024
      -2.538
      -2.614
      -2.312
      -1.796
      -1.262
      -0.864
      -0.684
      -0.755
      -1.075
      -1.594
      -2.189
      -2.677
      -2.862
      -2.633
      -2.010
      -1.115
      -0.080
       1.004
       2.077
       3.055
       3.825
       4.282
       4.393
       4.210
       3.831
       3.346
       2.831
       2.347
       1.925
       1.525
       1.057
       0.480
      -0.115
      -0.528
      -0.587
      -0.283
       0.207
       0.627
       0.784
       0.629
       0.242
      -0.234
      -0.659
      -0.937
      -1.032
      -0.980
      -0.860
      -0.764
      -0.773
      -0.948
      -1.311
      -1.787
      -2.185
      -2.279
      -1.959
      -1.304
      -0.509
       0.269
       0.971
       1.556
       1.894
       1.799
       1.202
       0.286
      -0.590
      -1.114
      -1.195
      -0.947
      -0.542
      -0.103
       0.278
       0.491
       0.450
       0.184
      -0.152
      -0.419
      -0.639
      -0.968
      -1.506
      -2.147
      -2.644
      -2.797
      -2.559
      -1.965
      -1.056
       0.093
       1.300
       2.312
       2.959
       3.254
       3.329
       3.274
       3.062
       2.605
       1.874
       0.962
       0.048
      -0.682
      -1.103
      -1.193
      -1.025
