Origin Time       11/9/2010 07:02:09	
Lat.              25.9 N	
Long.             90.2 E	
Depth (Km)         20.0
Magnitude         5.0
 Region           Meghalaya-Assam-Border                                           
 Above details taken from IMD 
   
Station Code      KOK
Station Lat.       26.400
Station Long.      90.261
Station Height(m)   54.0
Site Class        C   Vs30 between 200 m/sec to 375 m/sec *  
Record Time       11.09.2010 07:00:09.069
Sampling Rate     200. Hz
 Record Duration   97.905 Sec.
 Direction         Vert. (Up positive)
Max. Acceleration    -11.085 cm/sec**2
     
  * For reference see Site Classification link of website 
     
 Base Line Corrected and Low Pass Filtered (Cut Off at 35 Hz) Time History
 Acceleration data in cm/sec**2
    
[...]
      -1.524
      -1.068
      -0.395
       0.415
       1.148
       1.565
       1.567
       1.258
       0.819
       0.352
      -0.168
      -0.759
      -1.284
      -1.485
      -1.190
      -0.504
       0.216
       0.604
       0.551
       0.256
       0.025
       0.017
       0.161
       0.279
       0.274
       0.212
       0.241
       0.456
       0.820
       1.174
       1.317
       1.097
       0.491
      -0.339
      -1.085
      -1.456
      -1.384
      -1.072
      -0.796
      -0.655
      -0.503
      -0.135
       0.480
       1.152
       1.620
       1.731
       1.488
       0.995
       0.392
      -0.199
      -0.708
      -1.122
      -1.445
      -1.618
      -1.494
      -0.963
      -0.118
       0.713
       1.167
       1.119
       0.753
       0.364
       0.094
      -0.140
      -0.493
      -0.971
      -1.384
      -1.485
      -1.175
      -0.574
       0.080
       0.595
       0.924
       1.123
       1.239
       1.226
       0.963
       0.386
      -0.386
      -1.056
      -1.308
      -1.024
      -0.372
       0.311
       0.760
       0.928
       0.915
       0.807
       0.619
       0.341
      -0.014
      -0.418
      -0.850
      -1.247
      -1.471
      -1.358
      -0.860
      -0.141
       0.491
       0.799
       0.776
       0.595
       0.416
       0.271
       0.118
      -0.026
      -0.064
       0.068
       0.286
       0.379
       0.168
      -0.342
      -0.935
      -1.307
      -1.246
      -0.769
      -0.111
       0.438
       0.731
       0.822
       0.856
       0.914
       0.955
       0.889
       0.684
       0.391
       0.072
      -0.259
      -0.605
      -0.913
      -1.077
      -1.015
      -0.740
      -0.358
      -0.010
       0.204
       0.268
       0.256
       0.289
       0.458
       0.750
       1.037
       1.158
       1.017
       0.621
       0.045
      -0.618
      -1.251
      -1.701
      -1.815
      -1.535
      -0.957
      -0.293
       0.266
       0.662
       0.960
       1.227
       1.437
       1.475
       1.240
       0.750
       0.166
      -0.299
      -0.518
      -0.524
      -0.450
      -0.398
      -0.371
      -0.328
      -0.270
      -0.258
      -0.350
      -0.517
      -0.648
      -0.632
      -0.437
      -0.095
       0.369
       0.947
       1.558
       1.978
       1.930
       1.296
       0.262
      -0.777
      -1.505
      -1.889
      -2.093
      -2.214
      -2.133
      -1.640
      -0.680
       0.537
       1.666
       2.430
       2.737
       2.658
       2.302
       1.728
       0.939
      -0.043
      -1.105
      -2.034
      -2.603
      -2.692
      -2.337
      -1.673
      -0.844
       0.044
       0.901
       1.612
       2.032
       2.059
       1.699
       1.065
       0.321
      -0.377
      -0.915
      -1.234
      -1.335
      -1.263
      -1.077
      -0.802
      -0.418
       0.083
       0.636
       1.097
       1.328
       1.277
       0.998
       0.592
       0.140
      -0.309
      -0.715
      -1.019
      -1.125
      -0.940
      -0.464
       0.137
       0.575
       0.613
       0.253
      -0.253
      -0.610
      -0.711
      -0.683
      -0.692
      -0.724
      -0.580
      -0.081
       0.717
       1.522
       2.007
       2.009
       1.595
       0.966
       0.297
      -0.365
      -1.068
      -1.826
      -2.507
      -2.833
      -2.544
      -1.606
      -0.291
       0.969
       1.850
       2.289
       2.405
       2.312
       2.024
       1.516
       0.811
       0.000
      -0.813
      -1.540
      -2.068
      -2.248
      -1.968
      -1.269
      -0.369
       0.458
       1.044
       1.402
       1.634
       1.765
       1.676
       1.230
       0.439
      -0.482
      -1.245
      -1.658
      -1.706
      -1.495
      -1.137
      -0.696
      -0.239
       0.112
       0.241
       0.160
       0.051
       0.141
       0.502
       0.971
       1.268
       1.221
       0.897
       0.532
       0.337
       0.332
       0.356
       0.244
      -0.013
      -0.272
      -0.378
      -0.309
      -0.216
      -0.283
      -0.545
      -0.834
      -0.915
      -0.718
      -0.415
      -0.259
      -0.328
      -0.421
      -0.237
       0.320
       0.982
       1.321
       1.120
       0.550
      -0.015
      -0.353
      -0.546
      -0.804
      -1.172
      -1.433
      -1.297
      -0.663
       0.293
       1.238
       1.863
       1.993
       1.615
       0.874
       0.018
      -0.702
      -1.160
      -1.403
      -1.539
      -1.585
      -1.412
      -0.879
      -0.040
       0.811
       1.333
       1.381
       1.088
       0.697
       0.331
      -0.052
      -0.504
      -0.934
      -1.143
      -1.002
      -0.567
      -0.005
       0.551
       1.047
       1.431
       1.586
       1.398
       0.896
       0.264
      -0.292
      -0.686
      -0.938
      -1.067
      -1.026
      -0.781
      -0.411
      -0.091
       0.066
       0.118
       0.235
       0.505
       0.809
       0.907
       0.654
       0.131
      -0.425
      -0.802
      -0.953
      -0.985
      -1.023
      -1.057
      -0.922
      -0.449
       0.358
       1.257
       1.913
       2.103
       1.840
       1.312
       0.723
       0.199
      -0.228
      -0.575
      -0.881
      -1.163
      -1.373
      -1.409
      -1.206
      -0.814
      -0.370
      -0.006
       0.240
       0.412
       0.555
       0.644
       0.598
       0.365
      -0.007
      -0.371
      -0.569
      -0.547
      -0.395
      -0.274
      -0.255
      -0.227
      -0.011
       0.437
       0.935
       1.222
       1.196
       1.001
       0.865
       0.849
       0.789
       0.492
      -0.040
      -0.594
      -0.948
      -1.048
      -0.986
      -0.837
      -0.576
      -0.181
       0.249
       0.541
       0.617
       0.573
       0.575
       0.684
       0.787
       0.706
       0.384
      -0.037
      -0.331
      -0.396
      -0.343
      -0.384
      -0.598
      -0.817
      -0.740
      -0.202
       0.649
       1.422
       1.758
       1.565
       1.015
       0.330
      -0.403
      -1.220
      -2.073
      -2.706
      -2.774
      -2.155
      -1.101
      -0.046
       0.736
       1.274
       1.719
       2.073
       2.131
       1.700
       0.832
      -0.184
      -1.051
      -1.641
      -1.968
      -2.049
      -1.841
      -1.302
      -0.469
       0.526
       1.510
       2.321
       2.808
       2.827
       2.284
       1.213
      -0.190
      -1.596
      -2.628
      -3.000
      -2.667
      -1.879
      -1.030
      -0.398
      -0.002
       0.331
       0.751
       1.215
       1.527
       1.521
       1.193
       0.697
       0.220
      -0.124
      -0.328
      -0.438
      -0.457
      -0.310
       0.058
       0.562
       0.983
       1.129
       0.978
       0.653
       0.256
      -0.210
      -0.749
      -1.230
      -1.423
      -1.215
      -0.767
      -0.380
      -0.216
      -0.173
      -0.056
       0.186
       0.425
       0.546
       0.599
       0.693
       0.782
       0.625
       0.059
      -0.737
      -1.301
      -1.272
      -0.714
      -0.052
       0.343
       0.493
       0.722
       1.235
       1.830
       2.055
       1.621
       0.652
      -0.453
      -1.363
      -1.999
      -2.400
      -2.516
      -2.203
      -1.432
      -0.437
       0.406
       0.874
       1.036
       1.119
       1.234
       1.272
       1.056
       0.552
      -0.072
      -0.583
      -0.855
      -0.884
      -0.705
      -0.342
       0.141
       0.597
       0.840
       0.785
       0.534
       0.289
       0.172
       0.119
      -0.041
      -0.399
      -0.851
      -1.143
      -1.039
      -0.495
       0.287
       0.936
       1.112
       0.716
      -0.011
      -0.616
      -0.711
      -0.235
       0.483
       0.960
       0.912
       0.446
      -0.069
      -0.319
      -0.269
      -0.119
      -0.064
      -0.093
      -0.047
       0.157
       0.399
       0.475
       0.316
       0.055
      -0.128
      -0.205
      -0.328
      -0.646
      -1.115
      -1.516
      -1.646
      -1.478
      -1.142
      -0.766
      -0.333
       0.270
       1.086
       1.942
       2.504
       2.489
       1.881
       0.943
       0.043
      -0.583
      -0.907
      -1.008
      -0.929
      -0.672
      -0.297
       0.035
       0.154
       0.017
      -0.257
      -0.486
      -0.570
      -0.526
      -0.406
      -0.229
       0.014
       0.304
       0.557
       0.672
       0.604
       0.409
       0.208
       0.093
       0.046
      -0.018
      -0.120
      -0.164
      -0.051
       0.161
       0.265
       0.112
      -0.200
      -0.372
      -0.156
       0.423
       1.073
       1.457
       1.405
       0.974
       0.347
      -0.286
      -0.795
      -1.126
      -1.302
      -1.390
      -1.419
      -1.346
      -1.092
      -0.658
      -0.165
       0.208
       0.382
       0.441
       0.527
       0.647
       0.634
       0.317
      -0.268
      -0.863
      -1.181
      -1.127
      -0.813
      -0.401
       0.062
       0.611
       1.208
       1.659
       1.727
       1.326
       0.594
      -0.210
      -0.867
      -1.282
      -1.440
      -1.332
      -0.962
      -0.425
       0.086
       0.388
       0.446
       0.389
       0.391
       0.516
       0.657
       0.626
       0.323
      -0.150
      -0.561
      -0.725
      -0.632
      -0.419
      -0.235
      -0.117
       0.016
       0.253
       0.576
       0.860
       0.972
       0.873
       0.642
       0.422
       0.325
       0.351
       0.375
       0.249
      -0.069
      -0.464
      -0.759
      -0.854
      -0.772
      -0.572
      -0.257
       0.183
       0.662
       0.984
       0.979
       0.653
       0.194
      -0.194
      -0.449
      -0.652
      -0.877
      -1.071
      -1.111
      -0.936
      -0.581
      -0.102
       0.449
       0.961
       1.242
       1.168
       0.855
       0.621
       0.693
       0.954
       1.025
       0.631
      -0.127
      -0.868
      -1.266
      -1.292
      -1.164
      -1.104
      -1.164
      -1.230
      -1.156
      -0.873
      -0.415
       0.142
       0.750
       1.391
       2.010
       2.460
       2.550
       2.158
       1.308
       0.180
      -0.977
      -1.944
      -2.575
      -2.773
      -2.470
      -1.664
      -0.478
       0.819
       1.860
       2.315
       2.065
       1.305
       0.429
      -0.239
      -0.656
      -0.995
      -1.414
      -1.854
      -2.049
      -1.750
      -0.957
       0.032
       0.803
       1.104
       0.976
       0.672
       0.435
       0.327
       0.250
       0.106
      -0.068
      -0.135
      -0.002
       0.261
       0.468
       0.479
       0.324
       0.160
       0.112
       0.159
       0.172
       0.066
      -0.112
      -0.253
      -0.297
      -0.281
      -0.276
      -0.294
      -0.284
      -0.209
      -0.105
      -0.033
       0.000
       0.036
       0.076
       0.023
      -0.227
      -0.612
      -0.859
      -0.665
       0.017
       0.870
       1.429
       1.437
       1.037
       0.627
       0.499
       0.590
       0.563
       0.159
      -0.494
      -0.928
      -0.731
       0.065
       0.962
       1.391
       1.158
       0.533
      -0.064
      -0.445
      -0.736
      -1.150
      -1.702
      -2.139
      -2.134
      -1.549
      -0.554
       0.481
       1.241
       1.653
       1.867
       2.012
       1.999
       1.598
       0.712
      -0.438
      -1.426
      -1.925
      -1.911
      -1.599
      -1.222
      -0.870
      -0.519
      -0.173
       0.060
       0.027
      -0.314
      -0.795
      -1.100
      -0.983
      -0.481
       0.093
       0.400
       0.319
      -0.017
      -0.410
      -0.788
      -1.198
      -1.634
      -1.908
      -1.714
      -0.853
       0.595
       2.306
       3.897
       5.081
       5.684
       5.572
       4.679
       3.104
       1.168
      -0.693
      -2.108
      -2.898
      -3.065
      -2.714
      -1.967
      -0.924
       0.308
       1.573
       2.676
       3.453
       3.828
       3.808
       3.400
       2.575
       1.339
      -0.113
      -1.371
      -1.993
      -1.786
      -0.962
      -0.003
       0.675
       0.996
       1.204
       1.558
       2.042
       2.354
       2.163
       1.378
       0.179
      -1.201
      -2.687
      -4.318
      -6.038
      -7.565
      -8.482
      -8.487
      -7.565
      -5.958
      -3.997
      -1.962
      -0.061
       1.512
       2.572
       3.038
       3.020
       2.763
       2.494
       2.270
       1.984
       1.501
       0.797
      -0.021
      -0.801
      -1.427
      -1.824
      -1.946
      -1.803
      -1.497
      -1.182
      -0.957
      -0.788
      -0.568
      -0.252
       0.043
       0.136
      -0.017
      -0.240
      -0.277
      -0.028
       0.389
       0.802
       1.199
       1.771
       2.729
       4.074
       5.514
       6.625
       7.095
       6.824
       5.837
       4.166
       1.856
      -0.894
      -3.651
      -5.840
      -6.978
      -6.868
      -5.622
      -3.543
      -1.001
       1.613
       3.893
       5.463
       6.067
       5.609
       4.123
       1.732
      -1.323
      -4.634
      -7.656
      -9.881
     -11.032
     -11.085
     -10.104
      -8.118
      -5.182
      -1.547
       2.293
       5.747
       8.352
       9.895
      10.361
       9.798
       8.228
       5.705
       2.467
      -0.991
      -4.043
      -6.205
      -7.346
      -7.654
      -7.374
      -6.556
      -5.075
      -2.880
      -0.195
       2.534
       4.856
       6.496
       7.407
       7.703
       7.535
       6.961
       5.919
       4.315
       2.171
      -0.288
      -2.669
      -4.564
      -5.695
      -5.961
      -5.387
      -4.065
      -2.150
       0.116
       2.381
       4.231
       5.327
       5.530
       4.925
       3.712
       2.053
       0.020
      -2.350
      -4.913
      -7.313
      -9.038
      -9.599
      -8.754
      -6.616
      -3.613
      -0.291
       2.887
       5.659
       7.905
       9.518
      10.313
      10.067
       8.657
       6.187
       3.025
      -0.274
      -3.143
      -5.213
      -6.445
      -7.056
      -7.265
      -7.064
      -6.225
      -4.557
      -2.209
       0.245
       2.054
       2.710
       2.229
       1.071
      -0.217
      -1.318
      -2.202
      -2.902
      -3.281
      -3.050
      -2.038
      -0.442
       1.228
       2.496
       3.268
       3.852
       4.611
       5.587
       6.408
       6.588
       5.910
       4.577
       3.016
       1.563
       0.281
      -0.948
      -2.151
      -3.079
      -3.339
      -2.706
      -1.321
       0.398
       2.020
       3.284
       4.096
       4.404
       4.129
       3.234
       1.833
       0.154
      -1.614
      -3.431
      -5.323
      -7.210
      -8.839
      -9.899
     -10.174
      -9.582
      -8.113
      -5.778
      -2.657
       1.002
       4.736
       7.937
      10.010
      10.545
       9.423
       6.843
       3.242
      -0.816
      -4.692
      -7.680
      -9.082
      -8.453
      -5.891
      -2.115
       1.818
       4.996
       6.964
       7.672
       7.183
       5.521
       2.773
      -0.724
      -4.339
      -7.308
      -9.025
      -9.281
      -8.277
      -6.366
      -3.787
      -0.622
       2.978
       6.532
       9.262
      10.512
      10.195
       8.816
       6.998
       4.980
       2.626
      -0.068
      -2.610
      -4.220
      -4.462
      -3.690
      -2.816
      -2.559
      -2.860
      -3.023
      -2.419
      -1.090
       0.278
       0.934
       0.661
      -0.120
      -0.762
      -0.932
      -0.795
      -0.762
      -1.076
      -1.630
      -2.141
      -2.460
      -2.711
      -3.089
      -3.573
      -3.861
      -3.614
      -2.769
      -1.581
      -0.359
       0.805
       2.012
       3.254
       4.220
       4.508
       4.023
       3.078
       2.080
       1.169
       0.208
      -0.903
      -1.966
      -2.553
      -2.339
      -1.347
       0.097
       1.643
       3.140
       4.589
       5.918
       6.844
       7.000
       6.175
       4.444
       2.101
      -0.489
      -2.925
      -4.736
      -5.436
      -4.759
      -2.893
      -0.452
       1.862
       3.606
       4.661
       5.009
       4.538
       3.119
       0.905
      -1.519
      -3.362
      -4.123
      -3.895
      -3.198
      -2.510
      -1.928
      -1.241
      -0.297
       0.727
       1.419
       1.461
       0.839
      -0.214
      -1.425
      -2.589
      -3.516
      -3.986
      -3.838
      -3.110
      -2.061
      -1.040
      -0.300
       0.104
       0.273
       0.351
       0.397
       0.353
       0.123
      -0.289
      -0.735
      -1.028
      -1.123
      -1.154
      -1.278
      -1.454
      -1.406
      -0.819
       0.381
       1.927
       3.396
       4.493
       5.150
       5.339
       4.879
       3.548
       1.428
      -0.918
      -2.704
      -3.435
      -3.211
      -2.569
      -2.015
      -1.703
      -1.513
      -1.367
      -1.353
      -1.518
      -1.634
      -1.320
      -0.422
       0.762
       1.680
       1.957
       1.614
       0.896
      -0.048
      -1.254
      -2.728
      -4.184
      -5.064
      -4.880
      -3.540
      -1.429
       0.802
       2.566
       3.566
       3.875
       3.828
       3.790
       3.875
       3.828
       3.252
       2.013
       0.445
      -0.886
      -1.625
      -1.829
      -1.780
      -1.603
      -1.090
       0.077
       1.898
       3.887
       5.361
       5.921
       5.679
       5.002
       4.046
       2.591
       0.407
      -2.233
      -4.467
      -5.386
      -4.713
      -2.979
      -1.026
       0.664
       2.129
       3.513
       4.642
       5.084
       4.571
       3.289
       1.754
       0.436
      -0.479
      -1.060
      -1.445
      -1.732
      -1.962
      -2.114
      -2.107
      -1.865
      -1.394
      -0.790
      -0.166
       0.389
       0.758
       0.745
       0.181
      -0.845
      -1.895
      -2.404
      -2.090
      -1.210
      -0.386
      -0.117
      -0.423
      -0.922
      -1.226
      -1.295
      -1.433
      -1.915
      -2.642
      -3.183
      -3.158
      -2.602
      -1.962
      -1.731
      -2.034
      -2.556
      -2.861
      -2.757
      -2.350
      -1.762
      -0.897
       0.482
       2.415
       4.515
       6.104
       6.650
       6.103
       4.841
       3.329
       1.797
       0.239
      -1.350
      -2.778
      -3.719
      -3.929
      -3.416
      -2.417
      -1.253
      -0.196
       0.583
       0.979
       0.927
       0.445
      -0.290
      -1.000
      -1.512
      -1.867
      -2.193
      -2.451
      -2.367
      -1.663
      -0.405
       0.925
       1.758
       1.905
       1.680
       1.564
       1.748
       1.993
       1.929
       1.469
       0.896
       0.554
       0.477
       0.358
      -0.132
      -0.992
