Origin Time       18/9/2011 12:40:47	 UTC
Lat.              27.6 N	
Long.             88.2 E	
Depth (Km)         10.0
Magnitude         6.8
 Region           India(Sikkim)-Nepar-Border                                       
 Above details taken from IMD 
    
Station Code      KOK
Station Lat.       26.400  N
Station Long.      90.261  E
Station Height(m)   54.0
Site Class        C   Vs30 between 200 m/sec to 375 m/sec *  
Record Time       18.09.2011 12:41:04.704 UTC
Sampling Rate     200. Hz
 Record Duration  199.785 Sec.
 Direction         N-S (N positive)
Max. Acceleration     52.386 cm/sec**2
     
  * For reference see Site Classification link of website 
     
 Base Line Corrected and Low Pass Filtered (Cut Off at 35 Hz) Time History
 Acceleration data in cm/sec**2
    
[...]
      -4.610
      -6.486
      -8.181
      -9.518
     -10.405
     -10.863
     -11.004
     -10.945
     -10.733
     -10.307
      -9.549
      -8.382
      -6.830
      -5.005
      -3.028
      -0.972
       1.124
       3.209
       5.201
       7.021
       8.655
      10.166
      11.647
      13.141
      14.601
      15.901
      16.894
      17.466
      17.580
      17.293
      16.736
      16.050
      15.322
      14.569
      13.783
      12.989
      12.265
      11.695
      11.307
      11.049
      10.808
      10.457
       9.899
       9.095
       8.088
       6.976
       5.860
       4.784
       3.698
       2.467
       0.937
      -0.974
      -3.219
      -5.608
      -7.890
      -9.853
     -11.408
     -12.598
     -13.543
     -14.353
     -15.075
     -15.675
     -16.068
     -16.177
     -15.988
     -15.596
     -15.165
     -14.828
     -14.565
     -14.179
     -13.403
     -12.062
     -10.171
      -7.867
      -5.282
      -2.453
       0.627
       3.908
       7.211
      10.265
      12.801
      14.644
      15.753
      16.197
      16.106
      15.611
      14.792
      13.673
      12.263
      10.617
       8.875
       7.231
       5.870
       4.902
       4.344
       4.151
       4.277
       4.713
       5.475
       6.520
       7.677
       8.656
       9.172
       9.092
       8.504
       7.626
       6.648
       5.610
       4.418
       2.953
       1.175
      -0.824
      -2.832
      -4.552
      -5.655
      -5.889
      -5.186
      -3.727
      -1.882
      -0.065
       1.402
       2.348
       2.744
       2.690
       2.396
       2.124
       2.076
       2.278
       2.585
       2.804
       2.849
       2.791
       2.763
       2.815
       2.854
       2.732
       2.387
       1.904
       1.435
       1.039
       0.626
       0.049
      -0.731
      -1.586
      -2.321
      -2.840
      -3.209
      -3.590
      -4.111
      -4.784
      -5.523
      -6.208
      -6.743
      -7.072
      -7.161
      -6.983
      -6.525
      -5.806
      -4.891
      -3.870
      -2.822
      -1.812
      -0.929
      -0.302
      -0.057
      -0.226
      -0.703
      -1.291
      -1.792
      -2.067
      -2.020
      -1.563
      -0.636
       0.723
       2.313
       3.788
       4.777
       5.022
       4.466
       3.254
       1.648
      -0.076
      -1.717
      -3.194
      -4.561
      -5.968
      -7.587
      -9.497
     -11.587
     -13.533
     -14.881
     -15.207
     -14.303
     -12.305
      -9.685
      -7.112
      -5.208
      -4.320
      -4.404
      -5.079
      -5.811
      -6.130
      -5.789
      -4.800
      -3.354
      -1.691
       0.019
       1.713
       3.384
       4.998
       6.465
       7.658
       8.479
       8.886
       8.890
       8.529
       7.875
       7.035
       6.128
       5.243
       4.414
       3.643
       2.952
       2.398
       2.030
       1.816
       1.627
       1.305
       0.755
      -0.006
      -0.884
      -1.788
      -2.691
      -3.626
      -4.639
      -5.720
      -6.762
      -7.583
      -8.000
      -7.921
      -7.403
      -6.616
      -5.763
      -4.995
      -4.372
      -3.853
      -3.315
      -2.603
      -1.578
      -0.185
       1.525
       3.421
       5.343
       7.141
       8.684
       9.872
      10.648
      11.023
      11.086
      10.997
      10.951
      11.123
      11.602
      12.336
      13.098
      13.546
      13.342
      12.300
      10.477
       8.142
       5.660
       3.331
       1.280
      -0.557
      -2.349
      -4.232
      -6.227
      -8.245
     -10.152
     -11.834
     -13.212
     -14.227
     -14.827
     -14.978
     -14.684
     -14.012
     -13.108
     -12.175
     -11.409
     -10.937
     -10.785
     -10.911
     -11.244
     -11.699
     -12.168
     -12.505
     -12.553
     -12.193
     -11.390
     -10.201
      -8.727
      -7.051
      -5.204
      -3.211
      -1.143
       0.864
       2.662
       4.162
       5.365
       6.329
       7.104
       7.663
       7.892
       7.638
       6.809
       5.495
       4.027
       2.910
       2.647
       3.513
       5.414
       7.909
      10.422
      12.487
      13.908
      14.734
      15.112
      15.147
      14.849
      14.168
      13.049
      11.462
       9.432
       7.065
       4.579
       2.297
       0.596
      -0.196
       0.092
       1.403
       3.477
       5.956
       8.517
      10.943
      13.108
      14.910
      16.245
      17.031
      17.262
      17.002
      16.337
      15.317
      13.960
      12.313
      10.492
       8.660
       6.944
       5.374
       3.886
       2.388
       0.817
      -0.830
      -2.522
      -4.237
      -5.991
      -7.847
      -9.885
     -12.158
     -14.648
     -17.254
     -19.786
     -21.996
     -23.627
     -24.494
     -24.563
     -23.968
     -22.918
     -21.557
     -19.874
     -17.748
     -15.112
     -12.101
      -9.078
      -6.485
      -4.636
      -3.587
      -3.172
      -3.135
      -3.255
      -3.404
      -3.514
      -3.532
      -3.379
      -2.958
      -2.199
      -1.119
       0.153
       1.395
       2.376
       2.933
       3.039
       2.807
       2.422
       2.041
       1.700
       1.299
       0.683
      -0.240
      -1.405
      -2.569
      -3.378
      -3.482
      -2.664
      -0.932
       1.467
       4.112
       6.526
       8.287
       9.115
       8.929
       7.874
       6.278
       4.537
       2.975
       1.758
       0.915
       0.431
       0.311
       0.587
       1.288
       2.423
       3.954
       5.764
       7.624
       9.223
      10.290
      10.720
      10.618
      10.213
       9.719
       9.239
       8.779
       8.311
       7.800
       7.184
       6.354
       5.183
       3.590
       1.577
      -0.791
      -3.413
      -6.154
      -8.825
     -11.194
     -13.056
     -14.319
     -15.034
     -15.353
     -15.454
     -15.503
     -15.642
     -15.966
     -16.465
     -16.982
     -17.240
     -16.958
     -15.968
     -14.251
     -11.875
      -8.943
      -5.596
      -2.055
       1.381
       4.417
       6.849
       8.585
       9.599
       9.884
       9.452
       8.405
       6.970
       5.465
       4.193
       3.341
       2.953
       2.982
       3.344
       3.937
       4.627
       5.253
       5.668
       5.771
       5.498
       4.797
       3.637
       2.042
       0.126
      -1.948
      -4.041
      -6.080
      -8.016
      -9.749
     -11.090
     -11.803
     -11.712
     -10.792
      -9.191
      -7.169
      -4.998
      -2.904
      -1.075
       0.351
       1.320
       1.897
       2.233
       2.467
       2.687
       2.958
       3.384
       4.108
       5.213
       6.613
       8.037
       9.164
       9.815
      10.034
      10.005
       9.879
       9.682
       9.347
       8.839
       8.223
       7.651
       7.269
       7.145
       7.241
       7.422
       7.476
       7.181
       6.389
       5.095
       3.417
       1.526
      -0.409
      -2.219
      -3.725
      -4.781
      -5.354
      -5.561
      -5.602
      -5.654
      -5.803
      -6.065
      -6.461
      -7.072
      -8.029
      -9.448
     -11.331
     -13.518
     -15.704
     -17.538
     -18.755
     -19.237
     -18.999
     -18.114
     -16.662
     -14.745
     -12.542
     -10.321
      -8.378
      -6.927
      -6.018
      -5.538
      -5.289
      -5.074
      -4.757
      -4.280
      -3.651
      -2.905
      -2.069
      -1.152
      -0.167
       0.853
       1.852
       2.757
       3.465
       3.831
       3.684
       2.887
       1.426
      -0.530
      -2.665
      -4.602
      -6.021
      -6.734
      -6.691
      -5.954
      -4.633
      -2.853
      -0.750
       1.509
       3.724
       5.696
       7.262
       8.283
       8.599
       8.006
       6.327
       3.549
      -0.070
      -4.018
      -7.686
     -10.568
     -12.391
     -13.112
     -12.830
     -11.706
      -9.936
      -7.761
      -5.447
      -3.240
      -1.300
       0.342
       1.774
       3.133
       4.500
       5.808
       6.859
       7.443
       7.498
       7.152
       6.620
       6.022
       5.277
       4.153
       2.441
       0.124
      -2.583
      -5.326
      -7.773
      -9.751
     -11.266
     -12.429
     -13.343
     -14.026
     -14.421
     -14.445
     -14.047
     -13.220
     -11.997
     -10.441
      -8.655
      -6.769
      -4.921
      -3.202
      -1.635
      -0.183
       1.195
       2.495
       3.658
       4.610
       5.299
       5.706
       5.837
       5.703
       5.318
       4.700
       3.869
       2.874
       1.808
       0.813
       0.025
      -0.497
      -0.799
      -0.985
      -1.121
      -1.168
      -1.011
      -0.538
       0.286
       1.416
       2.761
       4.219
       5.685
       7.051
       8.238
       9.224
      10.054
      10.784
      11.428
      11.938
      12.246
      12.312
      12.147
      11.772
      11.171
      10.289
       9.085
       7.602
       6.006
       4.541
       3.445
       2.847
       2.719
       2.884
       3.082
       3.066
       2.678
       1.891
       0.793
      -0.479
      -1.804
      -3.139
      -4.515
      -6.000
      -7.625
      -9.353
     -11.093
     -12.748
     -14.232
     -15.459
     -16.329
     -16.761
     -16.738
     -16.324
     -15.629
     -14.755
     -13.771
     -12.703
     -11.541
     -10.262
      -8.849
      -7.307
      -5.655
      -3.920
      -2.139
      -0.379
       1.256
       2.678
       3.898
       5.074
       6.469
       8.324
      10.732
      13.592
      16.661
      19.689
      22.524
      25.135
      27.550
      29.771
      31.745
      33.412
      34.751
      35.791
      36.538
      36.910
      36.718
      35.759
      33.949
      31.398
      28.388
      25.249
      22.241
      19.493
      17.010
      14.719
      12.519
      10.325
       8.096
       5.849
       3.667
       1.662
      -0.072
      -1.506
      -2.683
      -3.698
      -4.680
      -5.769
      -7.073
      -8.625
     -10.352
     -12.088
     -13.629
     -14.806
     -15.531
     -15.797
     -15.634
     -15.067
     -14.114
     -12.800
     -11.185
      -9.368
      -7.465
      -5.575
      -3.744
      -1.969
      -0.228
       1.502
       3.240
       5.015
       6.854
       8.748
      10.629
      12.386
      13.930
      15.269
      16.511
      17.786
      19.111
      20.307
      21.048
      21.029
      20.137
      18.503
      16.395
      14.038
      11.511
       8.771
       5.772
       2.565
      -0.700
      -3.840
      -6.705
      -9.196
     -11.262
     -12.895
     -14.136
     -15.051
     -15.711
     -16.187
     -16.562
     -16.921
     -17.312
     -17.685
     -17.886
     -17.724
     -17.086
     -16.009
     -14.651
     -13.189
     -11.728
     -10.282
      -8.824
      -7.341
      -5.870
      -4.470
      -3.163
      -1.886
      -0.497
       1.155
       3.119
       5.273
       7.333
       8.941
       9.789
       9.729
       8.825
       7.351
       5.723
       4.370
       3.586
       3.407
       3.638
       3.991
       4.278
       4.498
       4.783
       5.241
       5.831
       6.353
       6.520
       6.065
       4.810
       2.717
      -0.072
      -3.260
      -6.497
      -9.525
     -12.254
     -14.720
     -16.969
     -18.972
     -20.639
     -21.910
     -22.811
     -23.439
     -23.874
     -24.100
     -24.003
     -23.442
     -22.353
     -20.830
     -19.109
     -17.469
     -16.086
     -14.934
     -13.805
     -12.434
     -10.667
      -8.551
      -6.312
      -4.224
      -2.464
      -1.028
       0.239
       1.533
       2.977
       4.566
       6.203
       7.765
       9.161
      10.354
      11.369
      12.286
      13.239
      14.355
      15.691
      17.179
      18.646
      19.891
      20.761
      21.186
      21.151
      20.664
      19.748
      18.455
      16.889
      15.183
      13.469
      11.833
      10.289
       8.759
       7.063
       4.950
       2.186
      -1.326
      -5.445
      -9.802
     -13.921
     -17.396
     -20.024
     -21.814
     -22.894
     -23.403
     -23.410
     -22.908
     -21.842
     -20.162
     -17.885
     -15.124
     -12.087
      -9.016
      -6.116
      -3.488
      -1.116
       1.080
       3.161
       5.089
       6.721
       7.876
       8.438
       8.415
       7.932
       7.155
       6.237
       5.316
       4.534
       4.036
       3.897
       4.049
       4.265
       4.258
       3.825
       2.968
       1.880
       0.834
       0.019
      -0.560
      -1.061
      -1.684
      -2.537
      -3.579
      -4.698
      -5.833
      -7.040
      -8.456
     -10.177
     -12.186
     -14.374
     -16.626
     -18.866
     -21.034
     -23.038
     -24.783
     -26.236
     -27.483
     -28.690
     -30.003
     -31.456
     -32.936
     -34.226
     -35.069
     -35.246
     -34.617
     -33.135
     -30.820
     -27.740
     -23.995
     -19.732
     -15.134
     -10.378
      -5.564
      -0.676
       4.373
       9.628
      15.002
      20.273
      25.171
      29.460
      33.003
      35.794
      37.976
      39.788
      41.467
      43.155
      44.866
      46.539
      48.103
      49.519
      50.760
      51.753
      52.350
      52.386
      51.776
      50.578
      48.953
      47.060
      44.970
      42.661
      40.070
      37.132
      33.782
      29.910
      25.360
      19.989
      13.791
       7.011
       0.157
      -6.126
     -11.286
     -15.091
     -17.709
     -19.604
     -21.312
     -23.220
     -25.478
     -28.045
     -30.785
     -33.531
     -36.096
     -38.285
     -39.926
     -40.899
     -41.117
     -40.493
     -38.952
     -36.490
     -33.216
     -29.335
     -25.062
     -20.560
     -15.966
     -11.448
      -7.236
      -3.541
      -0.447
       2.141
       4.408
       6.458
       8.203
       9.425
       9.965
       9.879
       9.426
       8.907
       8.496
       8.225
       8.082
       8.090
       8.275
       8.566
       8.774
       8.707
       8.311
       7.690
       6.977
       6.207
       5.326
       4.305
       3.218
       2.178
       1.199
       0.115
      -1.345
      -3.370
      -5.903
      -8.622
     -11.104
     -13.032
     -14.324
     -15.119
     -15.683
     -16.293
     -17.150
     -18.316
     -19.699
     -21.086
     -22.218
     -22.878
     -22.957
     -22.479
     -21.567
     -20.397
     -19.135
     -17.912
     -16.806
     -15.840
     -14.990
     -14.221
     -13.526
     -12.958
     -12.599
     -12.491
     -12.575
     -12.695
     -12.659
     -12.283
     -11.419
      -9.960
      -7.871
      -5.240
      -2.304
       0.604
       3.186
       5.306
       7.035
       8.554
       9.994
      11.341
      12.486
      13.331
      13.852
      14.062
      13.961
      13.573
      13.014
      12.496
      12.217
      12.244
      12.507
      12.895
      13.362
      13.913
      14.527
      15.093
      15.454
      15.517
      15.322
      15.017
      14.771
      14.688
      14.787
      15.001
      15.211
      15.284
      15.129
      14.744
      14.215
      13.627
      12.970
      12.129
      10.982
       9.536
       7.986
       6.628
       5.704
       5.293
       5.311
       5.587
       5.925
       6.114
       5.949
       5.292
       4.140
       2.610
       0.828
      -1.182
      -3.498
      -6.164
      -9.061
     -11.906
     -14.410
     -16.437
     -18.022
     -19.264
     -20.210
     -20.837
     -21.118
     -21.082
     -20.804
     -20.363
     -19.805
     -19.159
     -18.482
     -17.890
     -17.509
     -17.385
     -17.389
     -17.231
     -16.585
     -15.254
     -13.270
     -10.853
      -8.267
      -5.671
      -3.079
      -0.401
       2.458
       5.525
       8.733
      11.935
      14.945
      17.591
      19.745
      21.339
      22.371
      22.884
      22.947
      22.650
      22.131
      21.592
      21.271
      21.365
      21.963
      23.030
      24.437
      25.990
      27.453
      28.586
      29.212
      29.300
      28.978
      28.462
      27.922
      27.406
      26.836
      26.073
      24.978
      23.453
      21.499
      19.223
      16.785
      14.283
      11.678
       8.843
       5.708
       2.364
      -0.965
      -4.056
      -6.804
      -9.261
     -11.564
     -13.841
     -16.143
     -18.442
     -20.676
     -22.796
     -24.780
     -26.616
     -28.269
     -29.654
     -30.643
     -31.092
     -30.878
     -29.922
     -28.207
     -25.805
     -22.897
     -19.753
     -16.640
     -13.704
     -10.916
      -8.124
      -5.192
      -2.112
       0.981
       3.887
       6.447
       8.610
      10.430
      12.019
      13.490
      14.936
      16.409
      17.922
      19.444
      20.894
      22.139
      23.017
      23.360
      23.046
      22.052
      20.481
      18.557
      16.557
      14.702
      13.067
      11.561
       9.997
       8.213
       6.161
       3.936
       1.754
      -0.111
      -1.403
      -1.994
      -1.944
      -1.480
      -0.875
      -0.331
       0.059
       0.271
       0.296
       0.147
      -0.104
      -0.315
      -0.336
      -0.121
       0.210
       0.418
       0.254
      -0.416
      -1.565
      -3.018
      -4.514
      -5.782
      -6.630
      -7.026
      -7.119
      -7.166
      -7.396
      -7.891
      -8.562
      -9.233
      -9.758
     -10.091
     -10.283
     -10.435
     -10.630
     -10.886
     -11.116
     -11.149
     -10.803
      -9.998
      -8.840
      -7.584
      -6.504
      -5.742
      -5.258
      -4.895
      -4.500
      -4.016
      -3.497
      -3.067
      -2.861
      -2.961
      -3.328
      -3.772
      -4.019
      -3.846
      -3.222
      -2.323
      -1.412
      -0.677
      -0.167
       0.158
       0.320
       0.277
      -0.017
      -0.522
      -1.086
      -1.515
      -1.689
      -1.614
      -1.401
      -1.185
      -1.068
      -1.095
      -1.255
      -1.478
      -1.651
      -1.672
      -1.530
      -1.351
      -1.364
      -1.799
      -2.774
      -4.241
      -6.006
      -7.822
      -9.478
     -10.835
     -11.815
     -12.380
     -12.551
     -12.433
     -12.181
     -11.918
     -11.681
     -11.432
     -11.106
     -10.639
      -9.963
      -9.023
      -7.825
      -6.477
      -5.175
      -4.127
      -3.474
      -3.241
      -3.313
      -3.457
      -3.384
      -2.868
      -1.843
      -0.422
       1.192
       2.825
       4.387
       5.835
       7.128
       8.208
       9.058
       9.757
      10.483
      11.434
      12.704
      14.202
      15.680
      16.874
      17.685
      18.258
      18.892
      19.839
      21.126
      22.533
      23.724
      24.409
      24.415
      23.649
      22.049
      19.610
      16.446
      12.839
       9.192
       5.923
       3.336
       1.536
       0.417
      -0.278
      -0.822
      -1.357
      -1.811
      -1.961
      -1.615
      -0.786
