Origin Time       11/8/2009 21:43:39  UTC
Lat.              24.4 N 
Long.             94.8 E 
Depth (Km)         22.0
Magnitude         5.6
 Region           MYANMAR-INDIA(MANIPUR)BORDER                                     
 Above details taken from IMD 
    
Station Code      KOK
Station Lat.       26.400  N
Station Long.      90.261  E
Station Height(m)   53.0
Site Class        C   Vs30 between 200 m/sec to 375 m/sec *  
Record Time       11.08.2009 21:45:30.344 UTC
Sampling Rate     200. Hz
 Record Duration   67.510 Sec.
 Direction         N-S (N positive)
Max. Acceleration      5.490 cm/sec**2
     
  * For reference see Site Classification link of website 
     
 Base Line Corrected and Low Pass Filtered (Cut Off at 35 Hz) Time History
 Acceleration data in cm/sec**2
    
[...]
       1.569
       1.540
       1.503
       1.434
       1.286
       1.008
       0.565
      -0.037
      -0.750
      -1.482
      -2.103
      -2.470
      -2.470
      -2.064
      -1.317
      -0.382
       0.540
       1.264
       1.674
       1.748
       1.547
       1.161
       0.677
       0.163
      -0.317
      -0.694
      -0.904
      -0.916
      -0.748
      -0.455
      -0.108
       0.224
       0.484
       0.623
       0.618
       0.472
       0.219
      -0.104
      -0.468
      -0.859
      -1.255
      -1.613
      -1.877
      -2.002
      -1.983
      -1.852
      -1.658
      -1.437
      -1.181
      -0.847
      -0.382
       0.226
       0.906
       1.512
       1.877
       1.900
       1.589
       1.054
       0.449
      -0.081
      -0.428
      -0.526
      -0.350
       0.079
       0.682
       1.336
       1.909
       2.285
       2.390
       2.190
       1.696
       0.968
       0.113
      -0.725
      -1.388
      -1.742
      -1.705
      -1.271
      -0.520
       0.391
       1.268
       1.939
       2.303
       2.346
       2.120
       1.706
       1.180
       0.611
       0.054
      -0.442
      -0.847
      -1.158
      -1.391
      -1.567
      -1.689
      -1.731
      -1.645
      -1.404
      -1.034
      -0.631
      -0.314
      -0.170
      -0.215
      -0.396
      -0.624
      -0.819
      -0.930
      -0.937
      -0.842
      -0.665
      -0.439
      -0.197
       0.039
       0.263
       0.481
       0.705
       0.938
       1.164
       1.342
       1.403
       1.260
       0.844
       0.148
      -0.740
      -1.648
      -2.369
      -2.739
      -2.695
      -2.273
      -1.578
      -0.733
       0.141
       0.920
       1.478
       1.714
       1.586
       1.146
       0.519
      -0.137
      -0.687
      -1.040
      -1.154
      -1.020
      -0.668
      -0.169
       0.365
       0.798
       1.005
       0.924
       0.589
       0.119
      -0.329
      -0.642
      -0.783
      -0.789
      -0.719
      -0.613
      -0.477
      -0.300
      -0.073
       0.201
       0.513
       0.851
       1.205
       1.570
       1.941
       2.322
       2.712
       3.095
       3.429
       3.670
       3.795
       3.809
       3.714
       3.480
       3.048
       2.384
       1.527
       0.592
      -0.285
      -1.010
      -1.557
      -1.947
      -2.215
      -2.392
      -2.506
      -2.575
      -2.603
      -2.569
      -2.444
      -2.214
      -1.906
      -1.591
      -1.356
      -1.271
      -1.358
      -1.579
      -1.865
      -2.145
      -2.382
      -2.561
      -2.678
      -2.720
      -2.678
      -2.569
      -2.447
      -2.376
      -2.392
      -2.477
      -2.572
      -2.609
      -2.541
      -2.331
      -1.929
      -1.284
      -0.380
       0.711
       1.829
       2.795
       3.484
       3.875
       4.017
       3.973
       3.793
       3.524
       3.225
       2.962
       2.766
       2.618
       2.476
       2.322
       2.189
       2.132
       2.168
       2.252
       2.298
       2.234
       2.045
       1.774
       1.480
       1.205
       0.954
       0.705
       0.438
       0.156
      -0.096
      -0.241
      -0.211
       0.004
       0.331
       0.618
       0.694
       0.430
      -0.204
      -1.117
      -2.122
      -3.005
      -3.602
      -3.855
      -3.811
      -3.572
      -3.243
      -2.908
      -2.627
      -2.440
      -2.350
      -2.305
      -2.216
      -2.010
      -1.678
      -1.296
      -0.974
      -0.799
      -0.791
      -0.896
      -1.012
      -1.024
      -0.845
      -0.461
       0.058
       0.590
       1.029
       1.340
       1.575
       1.812
       2.082
       2.326
       2.423
       2.270
       1.846
       1.221
       0.513
      -0.173
      -0.759
      -1.191
      -1.415
      -1.378
      -1.068
      -0.550
       0.027
       0.487
       0.702
       0.652
       0.421
       0.156
       0.016
       0.120
       0.514
       1.153
       1.913
       2.642
       3.225
       3.629
       3.893
       4.077
       4.219
       4.317
       4.349
       4.284
       4.078
       3.678
       3.046
       2.195
       1.213
       0.242
      -0.585
      -1.212
      -1.682
      -2.112
      -2.604
      -3.168
      -3.695
      -3.997
      -3.898
      -3.337
      -2.412
      -1.363
      -0.486
      -0.019
      -0.056
      -0.533
      -1.276
      -2.093
      -2.835
      -3.416
      -3.783
      -3.903
      -3.765
      -3.404
      -2.901
      -2.364
      -1.896
      -1.569
      -1.417
      -1.423
      -1.521
      -1.601
      -1.537
      -1.246
      -0.749
      -0.171
       0.319
       0.611
       0.728
       0.826
       1.089
       1.605
       2.305
       3.002
       3.496
       3.670
       3.532
       3.194
       2.820
       2.554
       2.475
       2.580
       2.791
       2.996
       3.095
       3.046
       2.863
       2.599
       2.306
       2.001
       1.665
       1.279
       0.862
       0.480
       0.221
       0.140
       0.225
       0.395
       0.532
       0.543
       0.403
       0.155
      -0.130
      -0.399
      -0.635
      -0.840
      -1.005
      -1.111
      -1.169
      -1.249
      -1.453
      -1.835
      -2.358
      -2.915
      -3.399
      -3.765
      -4.032
      -4.228
      -4.351
      -4.375
      -4.301
      -4.188
      -4.127
      -4.161
      -4.230
      -4.194
      -3.921
      -3.386
      -2.683
      -1.957
      -1.294
      -0.664
       0.035
       0.895
       1.911
       2.972
       3.902
       4.528
       4.739
       4.524
       3.999
       3.379
       2.896
       2.693
       2.752
       2.918
       2.987
       2.829
       2.431
       1.869
       1.219
       0.508
      -0.265
      -1.053
      -1.704
      -2.003
      -1.791
      -1.086
      -0.097
       0.875
       1.579
       1.916
       1.932
       1.748
       1.489
       1.247
       1.078
       0.991
       0.953
       0.909
       0.818
       0.671
       0.490
       0.285
       0.039
      -0.267
      -0.619
      -0.963
      -1.241
      -1.441
      -1.599
      -1.756
      -1.913
      -2.033
      -2.084
      -2.084
      -2.073
      -2.045
      -1.902
      -1.497
      -0.739
       0.311
       1.443
       2.399
       2.997
       3.201
       3.091
       2.787
       2.380
       1.903
       1.362
       0.787
       0.254
      -0.132
      -0.303
      -0.292
      -0.235
      -0.318
      -0.674
      -1.317
      -2.128
      -2.926
      -3.564
      -3.978
      -4.182
      -4.201
      -4.034
      -3.669
      -3.137
      -2.538
      -2.000
      -1.618
      -1.391
      -1.241
      -1.064
      -0.794
      -0.435
      -0.043
       0.314
       0.595
       0.810
       1.017
       1.303
       1.747
       2.377
       3.157
       3.976
       4.685
       5.131
       5.204
       4.877
       4.215
       3.356
       2.464
       1.695
       1.166
       0.940
       1.011
       1.289
       1.629
       1.893
       2.013
       2.003
       1.915
       1.770
       1.530
       1.122
       0.505
      -0.277
      -1.090
      -1.770
      -2.200
      -2.374
      -2.400
      -2.440
      -2.615
      -2.946
      -3.351
      -3.713
      -3.946
      -4.026
      -3.972
      -3.796
      -3.492
      -3.049
      -2.494
      -1.899
      -1.346
      -0.895
      -0.571
      -0.387
      -0.356
      -0.463
      -0.626
      -0.713
      -0.618
      -0.340
       0.011
       0.297
       0.452
       0.513
       0.569
       0.680
       0.834
       0.962
       0.995
       0.903
       0.723
       0.547
       0.498
       0.667
       1.058
       1.564
       2.023
       2.306
       2.392
       2.366
       2.337
       2.357
       2.383
       2.327
       2.129
       1.804
       1.423
       1.067
       0.779
       0.563
       0.398
       0.258
       0.110
      -0.079
      -0.328
      -0.632
      -0.966
      -1.299
      -1.614
      -1.898
      -2.117
      -2.217
      -2.145
      -1.903
      -1.575
      -1.295
      -1.171
      -1.219
      -1.339
      -1.358
      -1.109
      -0.492
       0.481
       1.683
       2.876
       3.758
       4.085
       3.794
       3.080
       2.304
       1.797
       1.661
       1.737
       1.750
       1.521
       1.068
       0.539
       0.055
      -0.390
      -0.891
      -1.509
      -2.170
      -2.673
      -2.800
      -2.457
      -1.739
      -0.899
      -0.233
       0.047
      -0.112
      -0.607
      -1.240
      -1.808
      -2.171
      -2.282
      -2.190
      -2.001
      -1.824
      -1.720
      -1.670
      -1.591
      -1.384
      -1.005
      -0.505
      -0.020
       0.307
       0.418
       0.393
       0.409
       0.643
       1.166
       1.893
       2.617
       3.108
       3.219
       2.954
       2.459
       1.923
       1.472
       1.118
       0.814
       0.543
       0.370
       0.399
       0.672
       1.101
       1.483
       1.592
       1.293
       0.609
      -0.295
      -1.179
      -1.812
      -2.035
      -1.797
      -1.171
      -0.333
       0.497
       1.143
       1.533
       1.676
       1.591
       1.246
       0.596
      -0.324
      -1.341
      -2.187
      -2.629
      -2.597
      -2.212
      -1.719
      -1.359
      -1.256
      -1.370
      -1.530
      -1.526
      -1.223
      -0.641
       0.033
       0.509
       0.529
      -0.005
      -0.963
      -2.045
      -2.919
      -3.376
      -3.391
      -3.082
      -2.600
      -2.052
      -1.474
      -0.863
      -0.198
       0.539
       1.344
       2.174
       2.931
       3.488
       3.744
       3.683
       3.386
       2.979
       2.560
       2.161
       1.776
       1.429
       1.211
       1.224
       1.492
       1.888
       2.166
       2.085
       1.552
       0.679
      -0.269
      -1.002
      -1.341
      -1.277
      -0.945
      -0.529
      -0.172
       0.071
       0.223
       0.345
       0.485
       0.632
       0.699
       0.554
       0.102
      -0.627
      -1.471
      -2.199
      -2.640
      -2.759
      -2.650
      -2.470
      -2.353
      -2.364
      -2.491
      -2.659
      -2.755
      -2.664
      -2.314
      -1.717
      -0.992
      -0.321
       0.125
       0.266
       0.135
      -0.156
      -0.492
      -0.789
      -0.993
      -1.045
      -0.871
      -0.419
       0.292
       1.144
       1.963
       2.604
       3.025
       3.298
       3.535
       3.796
       4.044
       4.179
       4.117
       3.847
       3.443
       3.019
       2.675
       2.446
       2.289
       2.103
       1.788
       1.288
       0.616
      -0.159
      -0.939
      -1.624
      -2.126
      -2.394
      -2.435
      -2.326
      -2.182
      -2.119
      -2.209
      -2.453
      -2.791
      -3.130
      -3.389
      -3.522
      -3.533
      -3.459
      -3.329
      -3.133
      -2.817
      -2.323
      -1.651
      -0.894
      -0.202
       0.297
       0.576
       0.716
       0.823
       0.941
       1.017
       0.957
       0.718
       0.367
       0.049
      -0.090
       0.034
       0.417
       0.992
       1.671
       2.363
       2.985
       3.460
       3.717
       3.715
       3.464
       3.035
       2.533
       2.052
       1.637
       1.275
       0.935
       0.613
       0.350
       0.207
       0.216
       0.360
       0.589
       0.851
       1.111
       1.325
       1.414
       1.263
       0.781
      -0.043
      -1.108
      -2.244
      -3.277
      -4.083
      -4.603
      -4.822
      -4.747
      -4.402
      -3.852
      -3.225
      -2.685
      -2.363
      -2.277
      -2.315
      -2.297
      -2.084
      -1.655
      -1.108
      -0.594
      -0.235
      -0.066
      -0.027
       0.008
       0.173
       0.550
       1.121
       1.780
       2.376
       2.805
       3.060
       3.219
       3.376
       3.562
       3.731
       3.801
       3.720
       3.489
       3.138
       2.704
       2.237
       1.804
       1.472
       1.255
       1.090
       0.879
       0.564
       0.160
      -0.273
      -0.688
      -1.075
      -1.451
      -1.838
      -2.256
      -2.712
      -3.188
      -3.626
      -3.939
      -4.044
      -3.916
      -3.608
      -3.225
      -2.870
      -2.590
      -2.375
      -2.186
      -1.997
      -1.803
      -1.593
      -1.319
      -0.899
      -0.252
       0.652
       1.744
       2.860
       3.781
       4.319
       4.398
       4.093
       3.585
       3.077
       2.714
       2.548
       2.561
       2.691
       2.860
       2.987
       2.991
       2.813
       2.433
       1.881
       1.234
       0.600
       0.101
      -0.160
      -0.133
       0.135
       0.487
       0.701
       0.617
       0.234
      -0.277
      -0.685
      -0.841
      -0.761
      -0.595
      -0.525
      -0.670
      -1.038
      -1.530
      -1.981
      -2.240
      -2.243
      -2.052
      -1.832
      -1.758
      -1.910
      -2.227
      -2.546
      -2.706
      -2.652
      -2.465
      -2.307
      -2.316
      -2.522
      -2.837
      -3.115
      -3.237
      -3.165
      -2.926
      -2.563
      -2.089
      -1.495
      -0.770
       0.072
       1.005
       1.999
       3.020
       3.994
       4.804
       5.325
       5.490
       5.325
       4.933
       4.429
       3.889
       3.345
       2.820
       2.363
       2.041
       1.891
       1.881
       1.906
       1.840
       1.599
       1.175
       0.626
       0.023
      -0.577
      -1.141
      -1.648
      -2.090
      -2.473
      -2.803
      -3.069
      -3.234
      -3.254
      -3.118
      -2.859
      -2.532
      -2.177
      -1.815
      -1.464
      -1.168
      -0.981
      -0.931
      -1.006
      -1.158
      -1.344
      -1.538
      -1.724
      -1.883
      -1.996
      -2.045
      -2.006
      -1.837
      -1.492
      -0.961
      -0.312
       0.332
       0.860
       1.245
       1.540
       1.813
       2.070
       2.245
       2.266
       2.147
       2.003
       1.981
       2.147
       2.428
       2.649
       2.639
       2.325
       1.775
       1.168
       0.720
       0.594
       0.825
       1.291
       1.755
       1.967
       1.787
       1.242
       0.495
      -0.260
      -0.896
      -1.391
      -1.800
      -2.189
      -2.580
      -2.935
      -3.165
      -3.165
      -2.865
      -2.283
      -1.535
      -0.797
      -0.215
       0.159
       0.369
       0.495
       0.582
       0.614
       0.538
       0.329
       0.029
      -0.264
      -0.441
      -0.443
      -0.300
      -0.115
      -0.009
      -0.050
      -0.194
      -0.311
      -0.256
       0.033
       0.499
       0.992
       1.343
       1.448
       1.310
       1.040
       0.796
       0.703
       0.788
       0.971
       1.128
       1.160
       1.027
       0.741
       0.329
      -0.187
      -0.783
      -1.411
      -2.007
      -2.505
      -2.865
      -3.079
      -3.159
      -3.119
      -2.970
      -2.721
      -2.386
      -1.973
      -1.483
      -0.918
      -0.308
       0.271
       0.729
       1.020
       1.192
       1.368
       1.661
       2.096
       2.591
       3.009
       3.233
       3.226
       3.037
       2.766
       2.495
       2.244
       1.968
       1.615
       1.180
       0.724
       0.328
       0.043
      -0.130
      -0.219
      -0.261
      -0.302
      -0.418
      -0.691
      -1.150
      -1.704
      -2.160
      -2.327
      -2.134
      -1.672
      -1.123
      -0.641
      -0.271
       0.033
       0.332
       0.614
       0.781
       0.708
       0.350
      -0.194
      -0.708
      -0.973
      -0.901
      -0.586
      -0.251
      -0.119
      -0.293
      -0.727
      -1.261
      -1.696
      -1.878
      -1.750
      -1.387
      -0.959
      -0.651
      -0.559
      -0.637
      -0.731
      -0.682
      -0.428
      -0.039
       0.345
       0.603
       0.706
       0.724
       0.775
       0.954
       1.281
       1.678
       2.005
       2.126
       1.994
       1.676
       1.321
       1.061
       0.938
       0.894
       0.835
       0.709
       0.531
       0.359
       0.239
       0.185
       0.187
       0.237
       0.336
       0.488
       0.687
       0.915
       1.148
       1.370
       1.553
       1.642
       1.554
       1.229
       0.693
       0.083
      -0.406
      -0.625
      -0.552
      -0.293
      -0.006
       0.205
       0.345
       0.490
       0.711
       1.008
       1.306
       1.506
       1.546
       1.428
       1.180
       0.820
       0.344
      -0.252
      -0.934
      -1.632
      -2.261
      -2.751
      -3.059
      -3.150
      -3.011
      -2.659
      -2.165
      -1.639
      -1.195
      -0.913
      -0.826
      -0.930
      -1.185
      -1.506
      -1.775
      -1.879
      -1.772
      -1.504
      -1.189
      -0.940
      -0.809
      -0.787
      -0.838
      -0.925
      -1.020
      -1.097
      -1.122
      -1.064
      -0.913
      -0.678
      -0.381
      -0.047
       0.301
       0.631
       0.917
       1.138
       1.285
       1.354
       1.349
       1.291
       1.234
       1.247
       1.376
       1.601
       1.833
       1.964
       1.932
       1.753
       1.504
       1.279
       1.137
       1.085
       1.071
       1.005
       0.804
       0.454
       0.050
      -0.232
      -0.226
       0.111
       0.656
       1.174
       1.453
       1.411
       1.134
       0.794
       0.548
       0.454
       0.474
       0.515
       0.489
       0.354
       0.115
      -0.196
      -0.564
      -1.008
      -1.547
      -2.146
      -2.693
      -3.057
      -3.170
      -3.062
      -2.818
      -2.510
      -2.174
      -1.854
      -1.636
      -1.620
      -1.837
      -2.197
      -2.517
      -2.612
      -2.377
      -1.820
      -1.036
      -0.166
       0.651
       1.310
       1.774
       2.064
       2.235
       2.325
       2.334
       2.244
       2.057
       1.830
       1.660
       1.635
       1.771
       2.009
       2.237
       2.343
       2.251
       1.930
       1.416
       0.822
       0.314
       0.042
       0.056
       0.282
       0.569
       0.798
       0.934
       1.015
       1.085
       1.140
       1.139
       1.040
       0.852
       0.629
       0.433
       0.288
       0.178
       0.071
      -0.048
      -0.168
      -0.280
      -0.401
      -0.572
      -0.816
      -1.097
      -1.337
      -1.467
      -1.487
      -1.465
      -1.484
      -1.581
      -1.726
      -1.854
      -1.915
      -1.908
      -1.880
      -1.892
      -1.976
      -2.105
      -2.184
      -2.099
      -1.784
      -1.283
      -0.749
      -0.374
      -0.294
      -0.510
      -0.889
      -1.248
      -1.451
      -1.473
      -1.368
      -1.198
      -0.978
      -0.688
      -0.308
       0.155
       0.686
       1.271
       1.883
       2.440
       2.807
       2.846
       2.499
       1.849
       1.091
       0.454
       0.101
       0.066
