Origin Time       11/9/2010 07:02:09	
Lat.              25.9 N	
Long.             90.2 E	
Depth (Km)         20.0
Magnitude         5.0
 Region           Meghalaya-Assam-Border                                           
 Above details taken from IMD 
     
Station Code      KOK
Station Lat.       26.400  N
Station Long.      90.261  E
Station Height(m)   54.0
Site Class        C   Vs30 between 200 m/sec to 375 m/sec *  
Record Time       11.09.2010 07:00:09.069
Sampling Rate     200. Hz
 Record Duration   97.905 Sec.
 Direction         E-W (E positive)
Max. Acceleration    -10.552 cm/sec**2
     
  * For reference see Site Classification link of website 
     
 Base Line Corrected and Low Pass Filtered (Cut Off at 35 Hz) Time History
 Acceleration data in cm/sec**2
    
[...]
      -0.190
       0.006
       0.220
       0.355
       0.376
       0.321
       0.264
       0.265
       0.340
       0.461
       0.572
       0.621
       0.597
       0.532
       0.469
       0.430
       0.404
       0.381
       0.384
       0.451
       0.589
       0.741
       0.805
       0.714
       0.495
       0.268
       0.169
       0.242
       0.398
       0.458
       0.287
      -0.093
      -0.498
      -0.713
      -0.651
      -0.416
      -0.213
      -0.176
      -0.282
      -0.385
      -0.354
      -0.173
       0.054
       0.185
       0.138
      -0.060
      -0.305
      -0.491
      -0.584
      -0.626
      -0.673
      -0.727
      -0.723
      -0.598
      -0.378
      -0.180
      -0.119
      -0.211
      -0.355
      -0.418
      -0.338
      -0.143
       0.096
       0.317
       0.474
       0.512
       0.382
       0.090
      -0.268
      -0.545
      -0.622
      -0.471
      -0.157
       0.200
       0.481
       0.621
       0.632
       0.588
       0.575
       0.627
       0.715
       0.768
       0.718
       0.540
       0.263
      -0.045
      -0.311
      -0.490
      -0.564
      -0.534
      -0.403
      -0.182
       0.092
       0.336
       0.440
       0.341
       0.086
      -0.174
      -0.271
      -0.127
       0.200
       0.563
       0.800
       0.806
       0.558
       0.123
      -0.353
      -0.696
      -0.793
      -0.667
      -0.455
      -0.305
      -0.247
      -0.180
       0.026
       0.393
       0.794
       1.037
       0.987
       0.648
       0.140
      -0.351
      -0.657
      -0.696
      -0.513
      -0.248
      -0.043
       0.033
       0.001
      -0.072
      -0.124
      -0.121
      -0.058
       0.040
       0.128
       0.170
       0.163
       0.129
       0.075
      -0.020
      -0.173
      -0.347
      -0.458
      -0.435
      -0.291
      -0.126
      -0.060
      -0.137
      -0.299
      -0.442
      -0.502
      -0.485
      -0.417
      -0.294
      -0.090
       0.193
       0.475
       0.627
       0.562
       0.311
       0.007
      -0.198
      -0.240
      -0.160
      -0.053
       0.017
       0.039
       0.040
       0.038
       0.030
       0.000
      -0.061
      -0.138
      -0.183
      -0.124
       0.089
       0.424
       0.761
       0.944
       0.888
       0.638
       0.336
       0.119
       0.032
       0.032
       0.054
       0.071
       0.098
       0.141
       0.170
       0.143
       0.056
      -0.024
      -0.011
       0.116
       0.265
       0.276
       0.048
      -0.353
      -0.726
      -0.874
      -0.749
      -0.472
      -0.216
      -0.065
       0.010
       0.064
       0.083
      -0.004
      -0.224
      -0.494
      -0.665
      -0.659
      -0.543
      -0.466
      -0.515
      -0.618
      -0.606
      -0.362
       0.067
       0.498
       0.748
       0.761
       0.625
       0.470
       0.350
       0.208
      -0.046
      -0.409
      -0.744
      -0.868
      -0.696
      -0.329
       0.024
       0.199
       0.188
       0.112
       0.094
       0.171
       0.294
       0.400
       0.464
       0.494
       0.501
       0.490
       0.464
       0.431
       0.385
       0.297
       0.136
      -0.096
      -0.349
      -0.551
      -0.654
      -0.647
      -0.535
      -0.323
      -0.034
       0.272
       0.495
       0.545
       0.394
       0.105
      -0.197
      -0.391
      -0.430
      -0.362
      -0.308
      -0.380
      -0.595
      -0.828
      -0.858
      -0.509
       0.184
       0.922
       1.286
       1.020
       0.246
      -0.576
      -0.951
      -0.691
      -0.034
       0.562
       0.756
       0.527
       0.112
      -0.219
      -0.342
      -0.294
      -0.172
      -0.052
       0.029
       0.049
       0.003
      -0.079
      -0.145
      -0.152
      -0.088
       0.045
       0.242
       0.475
       0.671
       0.723
       0.562
       0.219
      -0.173
      -0.452
      -0.518
      -0.372
      -0.101
       0.172
       0.334
       0.321
       0.154
      -0.071
      -0.238
      -0.274
      -0.190
      -0.063
       0.023
       0.029
      -0.030
      -0.114
      -0.197
      -0.269
      -0.303
      -0.242
      -0.029
       0.325
       0.713
       0.975
       0.992
       0.765
       0.415
       0.104
      -0.068
      -0.113
      -0.113
      -0.139
      -0.206
      -0.281
      -0.345
      -0.414
      -0.514
      -0.614
      -0.616
      -0.413
       0.012
       0.539
       0.970
       1.146
       1.037
       0.722
       0.309
      -0.126
      -0.532
      -0.846
      -0.994
      -0.934
      -0.703
      -0.407
      -0.152
       0.026
       0.168
       0.327
       0.493
       0.574
       0.474
       0.180
      -0.202
      -0.509
      -0.623
      -0.538
      -0.353
      -0.207
      -0.179
      -0.229
      -0.226
      -0.054
       0.282
       0.634
       0.809
       0.709
       0.392
       0.023
      -0.248
      -0.369
      -0.384
      -0.360
      -0.311
      -0.201
      -0.005
       0.241
       0.451
       0.561
       0.569
       0.518
       0.440
       0.329
       0.171
      -0.023
      -0.213
      -0.368
      -0.484
      -0.569
      -0.611
      -0.567
      -0.390
      -0.070
       0.332
       0.695
       0.889
       0.862
       0.673
       0.446
       0.266
       0.120
      -0.062
      -0.311
      -0.585
      -0.804
      -0.910
      -0.889
      -0.753
      -0.524
      -0.250
       0.007
       0.197
       0.317
       0.406
       0.491
       0.543
       0.493
       0.310
       0.050
      -0.165
      -0.224
      -0.101
       0.125
       0.317
       0.367
       0.269
       0.120
       0.038
       0.069
       0.158
       0.212
       0.189
       0.101
      -0.036
      -0.237
      -0.495
      -0.724
      -0.783
      -0.584
      -0.181
       0.259
       0.577
       0.725
       0.761
       0.739
       0.641
       0.415
       0.069
      -0.278
      -0.471
      -0.440
      -0.250
      -0.044
       0.042
      -0.052
      -0.299
      -0.595
      -0.808
      -0.834
      -0.659
      -0.365
      -0.085
       0.089
       0.146
       0.145
       0.156
       0.205
       0.285
       0.368
       0.410
       0.328
       0.041
      -0.450
      -0.987
      -1.319
      -1.260
      -0.824
      -0.214
       0.314
       0.589
       0.591
       0.413
       0.208
       0.105
       0.154
       0.277
       0.314
       0.139
      -0.218
      -0.556
      -0.644
      -0.397
       0.040
       0.388
       0.431
       0.157
      -0.235
      -0.470
      -0.371
       0.035
       0.539
       0.873
       0.864
       0.532
       0.069
      -0.278
      -0.348
      -0.154
       0.138
       0.332
       0.343
       0.239
       0.146
       0.112
       0.055
      -0.146
      -0.506
      -0.887
      -1.093
      -1.040
      -0.818
      -0.592
      -0.430
      -0.257
       0.032
       0.409
       0.691
       0.697
       0.427
       0.078
      -0.129
      -0.128
      -0.041
      -0.043
      -0.212
      -0.493
      -0.765
      -0.918
      -0.896
      -0.694
      -0.341
       0.108
       0.586
       1.012
       1.300
       1.375
       1.217
       0.896
       0.551
       0.294
       0.130
      -0.027
      -0.243
      -0.465
      -0.558
      -0.422
      -0.091
       0.299
       0.612
       0.798
       0.869
       0.832
       0.651
       0.314
      -0.091
      -0.385
      -0.428
      -0.255
      -0.060
      -0.022
      -0.137
      -0.227
      -0.127
       0.147
       0.419
       0.521
       0.434
       0.264
       0.110
      -0.020
      -0.182
      -0.393
      -0.582
      -0.637
      -0.499
      -0.225
       0.039
       0.157
       0.103
      -0.007
      -0.002
       0.185
       0.425
       0.463
       0.129
      -0.495
      -1.089
      -1.313
      -1.051
      -0.479
       0.079
       0.385
       0.414
       0.314
       0.257
       0.329
       0.495
       0.636
       0.605
       0.304
      -0.225
      -0.769
      -1.037
      -0.847
      -0.280
       0.352
       0.701
       0.611
       0.209
      -0.204
      -0.361
      -0.204
       0.095
       0.278
       0.190
      -0.121
      -0.466
      -0.664
      -0.655
      -0.499
      -0.298
      -0.133
      -0.049
      -0.058
      -0.142
      -0.238
      -0.266
      -0.173
       0.028
       0.281
       0.521
       0.690
       0.737
       0.621
       0.344
      -0.009
      -0.296
      -0.402
      -0.312
      -0.114
       0.075
       0.187
       0.207
       0.130
      -0.053
      -0.310
      -0.518
      -0.496
      -0.142
       0.456
       1.041
       1.350
       1.270
       0.873
       0.329
      -0.193
      -0.572
      -0.752
      -0.766
      -0.718
      -0.711
      -0.750
      -0.735
      -0.562
      -0.233
       0.134
       0.414
       0.567
       0.625
       0.615
       0.510
       0.280
      -0.048
      -0.380
      -0.627
      -0.765
      -0.832
      -0.857
      -0.810
      -0.620
      -0.255
       0.216
       0.632
       0.828
       0.742
       0.458
       0.144
      -0.063
      -0.139
      -0.128
      -0.053
       0.133
       0.464
       0.859
       1.111
       1.032
       0.607
       0.026
      -0.447
      -0.650
      -0.590
      -0.364
      -0.054
       0.297
       0.631
       0.858
       0.909
       0.818
       0.703
       0.658
       0.644
       0.508
       0.124
      -0.455
      -0.986
      -1.181
      -0.901
      -0.269
       0.396
       0.770
       0.708
       0.309
      -0.183
      -0.533
      -0.628
      -0.499
      -0.271
      -0.089
      -0.050
      -0.166
      -0.358
      -0.510
      -0.538
      -0.433
      -0.254
      -0.072
       0.072
       0.181
       0.265
       0.307
       0.256
       0.072
      -0.224
      -0.541
      -0.773
      -0.864
      -0.829
      -0.711
      -0.533
      -0.292
       0.009
       0.341
       0.638
       0.824
       0.839
       0.668
       0.361
       0.014
      -0.271
      -0.422
      -0.418
      -0.286
      -0.102
       0.043
       0.088
       0.049
      -0.006
      -0.022
      -0.018
      -0.057
      -0.156
      -0.241
      -0.194
       0.032
       0.352
       0.601
       0.662
       0.562
       0.437
       0.415
       0.504
       0.596
       0.579
       0.442
       0.277
       0.174
       0.122
       0.019
      -0.206
      -0.478
      -0.607
      -0.454
      -0.088
       0.231
       0.257
      -0.013
      -0.310
      -0.304
       0.117
       0.746
       1.197
       1.183
       0.703
       0.020
      -0.538
      -0.781
      -0.751
      -0.637
      -0.604
      -0.671
      -0.719
      -0.623
      -0.363
      -0.032
       0.248
       0.413
       0.448
       0.347
       0.095
      -0.267
      -0.604
      -0.730
      -0.552
      -0.172
       0.176
       0.305
       0.229
       0.116
       0.112
       0.203
       0.261
       0.192
       0.035
      -0.088
      -0.094
       0.002
       0.135
       0.258
       0.369
       0.466
       0.516
       0.454
       0.231
      -0.133
      -0.523
      -0.754
      -0.670
      -0.252
       0.328
       0.791
       0.917
       0.691
       0.298
      -0.024
      -0.153
      -0.129
      -0.063
      -0.017
       0.020
       0.063
       0.078
      -0.001
      -0.203
      -0.498
      -0.812
      -1.066
      -1.167
      -1.040
      -0.683
      -0.221
       0.141
       0.244
       0.078
      -0.223
      -0.497
      -0.675
      -0.833
      -1.115
      -1.592
      -2.166
      -2.595
      -2.658
      -2.337
      -1.864
      -1.568
      -1.645
      -2.030
      -2.477
      -2.750
      -2.761
      -2.576
      -2.315
      -2.066
      -1.863
      -1.737
      -1.750
      -1.971
      -2.398
      -2.915
      -3.335
      -3.517
      -3.443
      -3.176
      -2.744
      -2.096
      -1.192
      -0.139
       0.802
       1.394
       1.621
       1.723
       1.986
       2.485
       3.004
       3.209
       2.925
       2.290
       1.652
       1.328
       1.415
       1.783
       2.227
       2.639
       3.063
       3.620
       4.351
       5.149
       5.835
       6.301
       6.569
       6.712
       6.737
       6.545
       6.025
       5.187
       4.215
       3.387
       2.925
       2.885
       3.144
       3.479
       3.688
       3.676
       3.480
       3.200
       2.904
       2.561
       2.068
       1.351
       0.460
      -0.417
      -1.063
      -1.374
      -1.436
      -1.455
      -1.587
      -1.821
      -1.996
      -1.921
      -1.494
      -0.726
       0.283
       1.390
       2.408
       3.108
       3.247
       2.639
       1.245
      -0.780
      -3.116
      -5.385
      -7.275
      -8.592
      -9.245
      -9.179
      -8.373
      -6.892
      -4.949
      -2.890
      -1.079
       0.243
       1.019
       1.320
       1.228
       0.769
      -0.057
      -1.180
      -2.387
      -3.369
      -3.853
      -3.732
      -3.089
      -2.109
      -0.955
       0.314
       1.718
       3.277
       4.908
       6.372
       7.310
       7.352
       6.252
       3.982
       0.768
      -2.923
      -6.452
      -9.158
     -10.552
     -10.475
      -9.124
      -6.922
      -4.362
      -1.900
       0.081
       1.310
       1.720
       1.513
       1.091
       0.872
       1.095
       1.758
       2.684
       3.632
       4.380
       4.763
       4.670
       4.017
       2.756
       0.936
      -1.212
      -3.271
      -4.783
      -5.450
      -5.250
      -4.380
      -3.104
      -1.628
      -0.080
       1.463
       2.940
       4.305
       5.510
       6.488
       7.167
       7.479
       7.371
       6.772
       5.592
       3.766
       1.340
      -1.453
      -4.193
      -6.339
      -7.344
      -6.808
      -4.641
      -1.169
       2.890
       6.621
       9.180
      10.010
       8.954
       6.247
       2.468
      -1.574
      -5.041
      -7.320
      -8.253
      -8.148
      -7.562
      -6.943
      -6.378
      -5.628
      -4.377
      -2.514
      -0.233
       2.075
       4.020
       5.366
       6.054
       6.145
       5.762
       5.056
       4.173
       3.204
       2.155
       0.989
      -0.273
      -1.501
      -2.492
      -3.108
      -3.373
      -3.468
      -3.582
      -3.753
      -3.815
      -3.524
      -2.768
      -1.676
      -0.519
       0.507
       1.434
       2.470
       3.755
       5.168
       6.325
       6.789
       6.311
       4.931
       2.931
       0.718
      -1.311
      -2.862
      -3.797
      -4.128
      -3.991
      -3.601
      -3.186
      -2.883
      -2.656
      -2.350
      -1.856
      -1.274
      -0.925
      -1.167
      -2.155
      -3.711
      -5.410
      -6.785
      -7.523
      -7.496
      -6.693
      -5.159
      -3.044
      -0.683
       1.427
       2.818
       3.304
       3.064
       2.451
       1.680
       0.688
      -0.673
      -2.312
      -3.768
      -4.452
      -4.066
      -2.849
      -1.449
      -0.526
      -0.353
      -0.708
      -1.070
      -0.958
      -0.205
       0.999
       2.245
       3.130
       3.440
       3.210
       2.672
       2.111
       1.709
       1.466
       1.278
       1.124
       1.203
       1.848
       3.237
       5.131
       6.881
       7.772
       7.437
       6.035
       4.080
       2.087
       0.349
      -1.028
      -1.942
      -2.200
      -1.632
      -0.302
       1.385
       2.803
       3.377
       2.856
       1.420
      -0.400
      -1.956
      -2.739
      -2.564
      -1.639
      -0.477
       0.318
       0.321
      -0.506
      -1.790
      -2.921
      -3.333
      -2.759
      -1.339
       0.450
       1.990
       2.774
       2.594
       1.611
       0.271
      -0.866
      -1.335
      -0.918
       0.277
       1.848
       3.248
       4.016
       3.961
       3.180
       1.897
       0.281
      -1.556
      -3.410
      -4.851
      -5.346
      -4.587
      -2.794
      -0.700
       0.828
       1.323
       0.993
       0.507
       0.436
       0.818
       1.202
       1.130
       0.585
      -0.009
      -0.239
      -0.126
      -0.097
      -0.529
      -1.347
      -2.069
      -2.259
      -1.927
      -1.475
      -1.262
      -1.221
      -0.926
      -0.078
       1.056
       1.711
       1.179
      -0.607
      -2.976
      -4.976
      -5.974
      -5.914
      -5.106
      -3.834
      -2.175
      -0.126
       2.152
       4.248
       5.671
       6.131
       5.718
       4.855
       4.050
       3.611
       3.510
       3.450
       3.083
       2.213
       0.879
      -0.711
      -2.287
      -3.601
      -4.421
      -4.492
      -3.569
      -1.583
       1.166
       3.963
       5.919
       6.414
       5.430
       3.519
       1.426
      -0.328
      -1.593
      -2.440
      -2.928
      -3.024
      -2.686
      -1.981
      -1.110
      -0.346
       0.077
       0.052
      -0.344
      -0.879
      -1.287
      -1.422
      -1.329
      -1.178
      -1.104
      -1.117
      -1.154
      -1.214
      -1.418
      -1.894
      -2.604
      -3.286
      -3.604
      -3.407
      -2.841
      -2.227
      -1.795
      -1.514
      -1.149
      -0.443
       0.692
       2.106
       3.432
       4.238
       4.272
       3.647
       2.805
       2.197
       1.928
       1.683
       1.033
      -0.142
      -1.478
      -2.358
      -2.321
      -1.325
       0.300
       2.104
       3.724
       4.949
       5.652
       5.739
       5.162
       4.005
       2.548
       1.210
       0.382
       0.241
       0.680
       1.393
       2.040
       2.372
       2.285
       1.820
       1.155
       0.539
       0.175
       0.115
       0.238
       0.334
       0.230
      -0.144
      -0.758
      -1.505
      -2.196
      -2.573
      -2.396
      -1.603
      -0.428
       0.631
       1.036
       0.499
      -0.846
      -2.507
      -3.912
      -4.694
      -4.817
      -4.488
      -3.967
      -3.411
      -2.863
      -2.334
      -1.880
      -1.574
      -1.428
      -1.330
      -1.076
      -0.496
       0.400
       1.338
       1.869
       1.618
       0.552
      -0.947
      -2.286
      -3.012
      -3.033
      -2.587
      -2.013
      -1.528
      -1.164
      -0.859
      -0.602
      -0.487
      -0.627
      -0.981
      -1.257
      -1.036
      -0.060
       1.511
       3.129
       4.169
       4.291
       3.569
       2.349
       1.030
      -0.047
      -0.604
      -0.467
       0.323
       1.451
       2.454
       2.979
       2.938
       2.445
       1.642
       0.641
      -0.380
      -1.096
      -1.177
      -0.572
       0.352
       1.014
       1.038
       0.502
      -0.171
      -0.574
      -0.576
      -0.332
      -0.109
      -0.115
      -0.433
      -1.021
      -1.715
      -2.252
      -2.396
      -2.099
      -1.548
      -0.988
      -0.483
       0.143
