Origin Time       29/10/2009 19:56:58
Lat.              26.6°N	
Long.             90.0°E	
Depth (Km)         10.0
Magnitude         4.2
 Region           KOKRAJHAR-ASSAM                                                  
 Above details taken from IMD 
   
Station Code      KOK
Station Lat.       26.400
Station Long.      90.261
Station Height(m)   53.0
Site Class        C   Vs30 between 200 m/sec to 375 m/sec *  
Record Time       29.10.2009 19:56:57.694
Sampling Rate     200. Hz
 Record Duration   70.890 Sec.
 Direction         Vert. (Up positive)
Max. Acceleration     26.263 cm/sec**2
     
  * For reference see Site Classification link of website 
     
 Base Line Corrected and Low Pass Filtered (Cut Off at 35 Hz) Time History
 Acceleration data in cm/sec**2
    
[...]
       0.250
       0.122
      -0.176
      -0.460
      -0.560
      -0.384
       0.064
       0.671
       1.245
       1.573
       1.529
       1.148
       0.598
       0.048
      -0.423
      -0.794
      -1.017
      -1.048
      -0.963
      -0.957
      -1.147
      -1.377
      -1.294
      -0.698
       0.199
       0.901
       1.048
       0.676
       0.079
      -0.502
      -0.985
      -1.298
      -1.281
      -0.824
      -0.043
       0.767
       1.394
       1.866
       2.295
       2.616
       2.584
       2.060
       1.214
       0.392
      -0.177
      -0.527
      -0.822
      -1.139
      -1.389
      -1.403
      -1.084
      -0.481
       0.205
       0.683
       0.737
       0.393
      -0.069
      -0.338
      -0.345
      -0.298
      -0.455
      -0.828
      -1.151
      -1.124
      -0.681
      -0.008
       0.650
       1.144
       1.410
       1.420
       1.188
       0.803
       0.383
      -0.014
      -0.431
      -0.906
      -1.336
      -1.479
      -1.137
      -0.364
       0.524
       1.162
       1.367
       1.177
       0.730
       0.161
      -0.420
      -0.896
      -1.149
      -1.106
      -0.801
      -0.387
      -0.052
       0.111
       0.168
       0.249
       0.388
       0.443
       0.199
      -0.407
      -1.168
      -1.735
      -1.893
      -1.688
      -1.287
      -0.743
       0.058
       1.162
       2.305
       3.011
       2.991
       2.398
       1.648
       0.996
       0.357
      -0.456
      -1.379
      -2.065
      -2.189
      -1.739
      -0.970
      -0.134
       0.649
       1.282
       1.599
       1.475
       0.972
       0.304
      -0.346
      -0.911
      -1.342
      -1.526
      -1.364
      -0.907
      -0.361
       0.078
       0.368
       0.598
       0.869
       1.181
       1.412
       1.397
       1.070
       0.568
       0.158
       0.008
       0.042
       0.051
      -0.053
      -0.168
      -0.176
      -0.131
      -0.234
      -0.587
      -0.997
      -1.074
      -0.593
       0.229
       0.838
       0.767
       0.011
      -0.967
      -1.604
      -1.660
      -1.339
      -1.019
      -0.881
      -0.804
      -0.603
      -0.284
      -0.027
       0.076
       0.192
       0.590
       1.333
       2.148
       2.627
       2.549
       2.025
       1.368
       0.840
       0.496
       0.203
      -0.209
      -0.799
      -1.480
      -2.091
      -2.489
      -2.588
      -2.348
      -1.791
      -1.018
      -0.180
       0.607
       1.316
       1.946
       2.401
       2.457
       1.901
       0.756
      -0.647
      -1.828
      -2.406
      -2.247
      -1.480
      -0.385
       0.755
       1.765
       2.553
       3.038
       3.123
       2.767
       2.057
       1.187
       0.314
      -0.564
      -1.576
      -2.763
      -3.902
      -4.575
      -4.433
      -3.397
      -1.686
       0.294
       2.095
       3.297
       3.579
       2.845
       1.343
      -0.398
      -1.833
      -2.649
      -2.802
      -2.360
      -1.392
      -0.016
       1.482
       2.690
       3.301
       3.297
       2.867
       2.165
       1.196
      -0.056
      -1.432
      -2.597
      -3.252
      -3.317
      -2.898
      -2.103
      -0.952
       0.505
       1.996
       3.039
       3.244
       2.630
       1.592
       0.557
      -0.334
      -1.179
      -1.998
      -2.517
      -2.331
      -1.279
       0.343
       1.967
       3.098
       3.504
       3.149
       2.087
       0.508
      -1.195
      -2.526
      -3.168
      -3.141
      -2.676
      -1.922
      -0.861
       0.471
       1.781
       2.641
       2.814
       2.386
       1.579
       0.497
      -0.883
      -2.449
      -3.767
      -4.250
      -3.598
      -2.039
      -0.132
       1.610
       2.905
       3.627
       3.722
       3.233
       2.323
       1.217
       0.106
      -0.858
      -1.522
      -1.782
      -1.713
      -1.586
      -1.625
      -1.733
      -1.533
      -0.775
       0.314
       1.134
       1.220
       0.649
      -0.048
      -0.380
      -0.255
       0.110
       0.498
       0.831
       1.048
       1.017
       0.632
      -0.028
      -0.711
      -1.174
      -1.346
      -1.290
      -1.020
      -0.430
       0.562
       1.801
       2.830
       3.107
       2.346
       0.773
      -0.958
      -2.164
      -2.558
      -2.337
      -1.879
      -1.368
      -0.727
       0.126
       1.028
       1.630
       1.713
       1.383
       0.952
       0.649
       0.467
       0.259
      -0.068
      -0.479
      -0.888
      -1.261
      -1.564
      -1.630
      -1.160
      -0.022
       1.426
       2.399
       2.232
       0.986
      -0.505
      -1.280
      -1.028
      -0.256
       0.301
       0.357
       0.163
       0.045
      -0.002
      -0.244
      -0.810
      -1.446
      -1.685
      -1.235
      -0.236
       0.841
       1.518
       1.580
       1.136
       0.493
      -0.023
      -0.214
      -0.082
       0.194
       0.358
       0.251
      -0.048
      -0.231
       0.016
       0.726
       1.537
       1.885
       1.400
       0.198
      -1.202
      -2.261
      -2.739
      -2.714
      -2.371
      -1.821
      -1.074
      -0.133
       0.888
       1.761
       2.243
       2.207
       1.712
       0.986
       0.335
      -0.036
      -0.149
      -0.193
      -0.310
      -0.424
      -0.312
       0.137
       0.737
       1.115
       1.029
       0.553
      -0.015
      -0.376
      -0.393
      -0.184
      -0.076
      -0.400
      -1.205
      -2.139
      -2.627
      -2.249
      -1.064
       0.413
       1.540
       1.931
       1.614
       0.902
       0.118
      -0.589
      -1.216
      -1.737
      -2.021
      -1.899
      -1.294
      -0.271
       0.997
       2.283
       3.323
       3.871
       3.835
       3.372
       2.758
       2.087
       1.113
      -0.490
      -2.640
      -4.628
      -5.493
      -4.749
      -2.783
      -0.563
       1.062
       1.814
       1.919
       1.707
       1.308
       0.683
      -0.139
      -0.945
      -1.480
      -1.634
      -1.462
      -1.045
      -0.399
       0.452
       1.345
       2.018
       2.308
       2.294
       2.170
       1.977
       1.517
       0.572
      -0.764
      -2.012
      -2.639
      -2.483
      -1.823
      -1.066
      -0.424
       0.112
       0.586
       0.928
       0.972
       0.585
      -0.237
      -1.329
      -2.366
      -2.924
      -2.675
      -1.612
      -0.106
       1.291
       2.165
       2.451
       2.419
       2.440
       2.670
       2.919
       2.783
       1.946
       0.419
      -1.441
      -3.135
      -4.302
      -4.830
      -4.758
      -4.100
      -2.790
      -0.788
       1.735
       4.295
       6.184
       6.732
       5.646
       3.224
       0.268
      -2.339
      -4.091
      -4.965
      -5.139
      -4.657
      -3.424
      -1.473
       0.822
       2.869
       4.238
       4.892
       5.025
       4.706
       3.748
       1.996
      -0.313
      -2.529
      -3.980
      -4.416
      -4.081
      -3.374
      -2.483
      -1.353
       0.030
       1.403
       2.325
       2.524
       2.141
       1.605
       1.244
       1.013
       0.622
      -0.083
      -0.938
      -1.647
      -2.072
      -2.260
      -2.252
      -1.963
      -1.293
      -0.334
       0.605
       1.225
       1.529
       1.797
       2.239
       2.660
       2.550
       1.578
       0.033
      -1.284
      -1.682
      -1.150
      -0.327
       0.063
      -0.254
      -1.065
      -2.032
      -2.953
      -3.664
      -3.819
      -2.974
      -0.980
       1.721
       4.260
       5.826
       6.033
       4.926
       2.829
       0.258
      -2.126
      -3.672
      -4.001
      -3.186
      -1.742
      -0.363
       0.457
       0.698
       0.750
       1.073
       1.820
       2.691
       3.144
       2.813
       1.776
       0.433
      -0.857
      -2.005
      -3.084
      -4.005
      -4.348
      -3.663
      -2.031
      -0.218
       0.898
       1.097
       0.931
       1.078
       1.647
       2.175
       2.212
       1.778
       1.207
       0.655
      -0.055
      -1.073
      -2.158
      -2.797
      -2.654
      -1.799
      -0.523
       0.957
       2.503
       3.846
       4.513
       4.068
       2.457
       0.120
      -2.197
      -3.765
      -4.172
      -3.489
      -2.197
      -0.872
       0.127
       0.734
       1.039
       1.138
       1.096
       0.959
       0.770
       0.543
       0.247
      -0.182
      -0.781
      -1.491
      -2.111
      -2.334
      -1.897
      -0.778
       0.733
       2.164
       3.069
       3.163
       2.425
       1.143
      -0.177
      -1.071
      -1.413
      -1.464
      -1.584
      -1.827
      -1.866
      -1.384
      -0.524
       0.167
       0.284
      -0.015
      -0.172
       0.229
       1.159
       2.288
       3.256
       3.724
       3.315
       1.749
      -0.813
      -3.580
      -5.441
      -5.611
      -4.071
      -1.441
       1.466
       3.958
       5.504
       5.707
       4.421
       1.948
      -0.931
      -3.265
      -4.435
      -4.438
      -3.706
      -2.684
      -1.556
      -0.265
       1.260
       2.872
       4.160
       4.641
       4.042
       2.464
       0.375
      -1.584
      -2.893
      -3.350
      -3.063
      -2.297
      -1.377
      -0.626
      -0.219
      -0.047
       0.190
       0.667
       1.217
       1.465
       1.171
       0.418
      -0.507
      -1.375
      -2.076
      -2.432
      -2.059
      -0.610
       1.732
       4.091
       5.352
       4.888
       2.921
       0.296
      -2.050
      -3.471
      -3.684
      -2.732
      -1.016
       0.739
       1.832
       2.094
       1.990
       2.080
       2.363
       2.219
       1.064
      -0.946
      -2.897
      -3.810
      -3.365
      -2.003
      -0.445
       0.818
       1.662
       2.195
       2.546
       2.684
       2.369
       1.315
      -0.498
      -2.661
      -4.521
      -5.549
      -5.577
      -4.739
      -3.309
      -1.619
      -0.018
       1.219
       1.974
       2.224
       1.946
       1.192
       0.263
      -0.294
      -0.030
       1.019
       2.310
       3.233
       3.531
       3.297
       2.644
       1.526
      -0.069
      -1.852
      -3.289
      -3.990
      -3.951
      -3.333
      -2.116
      -0.196
       2.146
       4.083
       4.754
       3.945
       2.236
       0.473
      -0.855
      -1.763
      -2.431
      -2.834
      -2.747
      -2.004
      -0.716
       0.716
       1.755
       1.988
       1.393
       0.403
      -0.380
      -0.620
      -0.442
      -0.164
       0.099
       0.490
       1.062
       1.520
       1.444
       0.764
      -0.105
      -0.667
      -0.789
      -0.717
      -0.720
      -0.839
      -1.030
      -1.400
      -2.089
      -2.864
      -3.029
      -2.001
      -0.049
       1.699
       2.159
       1.283
       0.147
       0.056
       1.539
       4.139
       6.943
       9.101
       9.913
       8.819
       5.633
       0.856
      -4.386
      -8.827
     -11.544
     -12.087
     -10.390
      -6.867
      -2.635
       0.696
       1.889
       0.930
      -1.017
      -2.485
      -2.608
      -1.401
       0.517
       2.360
       3.480
       3.563
       2.791
       1.850
       1.584
       2.434
       4.105
       5.744
       6.458
       5.840
       4.191
       2.300
       0.942
       0.499
       0.951
       2.060
       3.450
       4.569
       4.753
       3.512
       0.854
      -2.662
      -6.195
      -8.960
     -10.348
      -9.917
      -7.592
      -4.011
      -0.531
       1.403
       1.082
      -1.155
      -4.358
      -7.638
     -10.470
     -12.485
     -13.154
     -11.841
      -8.319
      -3.265
       1.864
       5.674
       7.747
       8.800
       9.923
      11.522
      12.913
      12.873
      10.602
       6.298
       1.075
      -3.489
      -5.924
      -5.440
      -2.314
       2.136
       6.108
       8.122
       7.571
       4.663
      -0.009
      -5.740
     -11.611
     -16.416
     -18.973
     -18.635
     -15.520
     -10.291
      -3.754
       3.397
      10.564
      17.109
      22.269
      25.182
      25.029
      21.308
      14.249
       5.137
      -3.882
     -10.638
     -13.933
     -13.923
     -11.637
      -8.145
      -4.178
      -0.387
       2.332
       3.037
       1.358
      -2.140
      -6.200
      -9.487
     -11.027
     -10.347
      -7.518
      -3.201
       1.473
       5.338
       7.730
       8.713
       8.816
       8.494
       7.772
       6.341
       3.953
       0.716
      -2.959
      -6.632
     -10.031
     -12.975
     -15.097
     -15.687
     -14.011
      -9.982
      -4.567
       0.534
       3.771
       4.586
       3.716
       2.782
       3.410
       6.381
      11.310
      16.951
      21.836
      24.794
      25.146
      22.681
      17.673
      10.917
       3.572
      -3.247
      -8.874
     -13.162
     -16.180
     -17.901
     -18.194
     -17.054
     -14.745
     -11.740
      -8.573
      -5.718
      -3.516
      -2.165
      -1.809
      -2.627
      -4.707
      -7.684
     -10.495
     -11.707
     -10.343
      -6.432
      -0.679
       6.224
      13.707
      20.749
      25.567
      26.263
      22.065
      14.061
       4.747
      -3.282
      -8.390
     -10.084
      -8.674
      -5.013
      -0.349
       3.941
       6.798
       7.809
       7.121
       5.022
       1.688
      -2.603
      -7.165
     -10.945
     -12.933
     -12.554
      -9.840
      -5.377
      -0.105
       4.852
       8.307
       9.272
       7.461
       3.635
      -0.653
      -3.887
      -5.382
      -5.464
      -5.012
      -4.749
      -4.821
      -4.818
      -4.132
      -2.376
       0.305
       3.235
       5.541
       6.625
       6.412
       5.243
       3.543
       1.589
      -0.453
      -2.299
      -3.398
      -3.067
      -0.865
       3.027
       7.668
      11.614
      13.478
      12.524
       8.940
       3.631
      -2.273
      -7.785
     -12.115
     -14.583
     -14.743
     -12.689
      -9.221
      -5.563
      -2.742
      -1.073
      -0.130
       0.739
       1.748
       2.417
       1.942
      -0.140
      -3.496
      -7.028
      -9.302
      -9.135
      -6.118
      -0.798
       5.584
      11.603
      16.080
      18.191
      17.432
      13.738
       7.754
       0.885
      -5.162
      -9.110
     -10.556
      -9.826
      -7.500
      -4.073
       0.052
       4.377
       8.257
      11.024
      12.126
      11.198
       8.151
       3.340
      -2.371
      -7.838
     -12.084
     -14.624
     -15.353
     -14.195
     -11.019
      -5.995
       0.016
       5.579
       9.363
      10.815
      10.240
       8.268
       5.309
       1.514
      -2.820
      -6.982
     -10.068
     -11.464
     -11.079
      -9.198
      -6.217
      -2.531
       1.452
       5.272
       8.460
      10.613
      11.461
      10.888
       9.008
       6.243
       3.295
       0.952
      -0.192
       0.025
       1.235
       2.677
       3.573
       3.538
       2.689
       1.331
      -0.429
      -2.695
      -5.417
      -8.138
     -10.192
     -11.171
     -11.091
     -10.096
      -8.144
      -5.185
      -1.611
       1.715
       3.978
       4.910
       4.744
       3.819
       2.358
       0.619
      -0.924
      -1.699
      -1.367
      -0.023
       1.910
       3.884
       5.343
       5.818
       5.102
       3.415
       1.306
      -0.737
      -2.594
      -4.372
      -5.926
      -6.640
      -5.867
      -3.601
      -0.610
       2.123
       4.071
       5.331
       6.262
       7.034
       7.507
       7.458
       6.788
       5.466
       3.412
       0.676
      -2.227
      -4.385
      -5.151
      -4.724
      -3.974
      -3.584
      -3.427
      -2.846
      -1.519
       0.041
       0.877
       0.405
      -1.194
      -3.269
      -5.196
      -6.569
      -7.098
      -6.543
      -4.855
      -2.279
       0.802
       4.077
       7.199
       9.476
       9.910
       7.867
       3.767
      -1.009
      -4.967
      -7.229
      -7.531
      -5.821
      -2.206
       2.676
       7.466
      10.558
      10.919
       8.578
       4.499
       0.062
      -3.451
      -5.221
      -5.075
      -3.496
      -1.429
       0.116
       0.516
      -0.191
      -1.406
      -2.382
      -2.653
      -2.204
      -1.350
      -0.535
      -0.168
      -0.469
      -1.330
      -2.333
      -2.988
      -3.056
      -2.658
      -2.016
      -1.096
       0.383
       2.483
       4.651
       5.952
       5.780
       4.372
       2.598
       1.233
       0.426
      -0.203
      -1.081
      -2.372
      -3.952
      -5.441
      -6.205
      -5.578
      -3.324
      -0.018
       3.118
       4.922
       5.025
       3.970
       2.660
       1.697
       1.175
       0.928
       0.824
       0.821
       0.841
       0.751
       0.480
       0.130
      -0.078
       0.035
       0.491
       1.152
       1.841
       2.408
       2.685
       2.411
       1.332
      -0.554
      -2.885
      -5.075
      -6.576
      -7.082
      -6.593
      -5.352
      -3.727
      -2.101
      -0.768
       0.186
       0.869
       1.367
       1.503
       0.913
      -0.549
      -2.438
      -3.834
      -3.975
      -2.849
      -1.194
       0.116
       0.743
       1.049
       1.642
       2.788
       4.183
       5.182
       5.220
       4.142
       2.265
       0.163
      -1.659
      -2.961
      -3.707
      -3.837
      -3.111
      -1.257
       1.649
       4.979
       7.762
       9.167
       8.891
       7.267
       5.076
       3.084
       1.562
       0.151
      -1.731
      -4.207
      -6.560
      -7.565
      -6.348
      -3.071
       1.101
       4.651
       6.411
       5.937
       3.538
       0.025
      -3.703
      -6.989
      -9.432
     -10.706
     -10.504
      -8.776
      -5.977
      -2.926
      -0.284
       1.860
       3.859
       5.997
       8.091
       9.543
       9.750
       8.532
       6.253
       3.590
       1.131
      -0.870
      -2.484
      -3.901
      -5.174
      -6.043
      -6.021
      -4.757
      -2.387
       0.464
       3.009
       4.676
       5.255
       4.815
       3.554
       1.700
      -0.483
      -2.636
      -4.306
      -5.037
      -4.545
      -2.916
      -0.671
       1.395
       2.593
       2.705
       2.075
       1.297
       0.720
       0.248
      -0.373
      -1.116
      -1.610
      -1.537
      -1.035
      -0.628
      -0.705
      -1.086
      -1.189
      -0.639
       0.322
       1.064
       1.138
       0.574
      -0.323
      -1.388
      -2.712
      -4.377
      -6.171
      -7.615
      -8.231
      -7.713
      -5.914
      -2.823
       1.290
       5.735
       9.504
      11.682
      11.880
      10.399
       7.997
       5.481
       3.385
       1.854
       0.738
      -0.196
      -1.057
      -1.736
      -1.972
