Origin Time       29/10/2009 19:56:58
Lat.              26.6°N	
Long.             90.0°E	
Depth (Km)         10.0
Magnitude         4.2
 Region           KOKRAJHAR-ASSAM                                                  
 Above details taken from IMD 
     
Station Code      KOK
Station Lat.       26.400  N
Station Long.      90.261  E
Station Height(m)   53.0
Site Class        C   Vs30 between 200 m/sec to 375 m/sec *  
Record Time       29.10.2009 19:56:57.694
Sampling Rate     200. Hz
 Record Duration   70.890 Sec.
 Direction         E-W (E positive)
Max. Acceleration     27.735 cm/sec**2
     
  * For reference see Site Classification link of website 
     
 Base Line Corrected and Low Pass Filtered (Cut Off at 35 Hz) Time History
 Acceleration data in cm/sec**2
    
[...]
       0.027
       0.036
       0.038
       0.040
       0.040
       0.035
       0.021
      -0.003
      -0.037
      -0.075
      -0.102
      -0.093
      -0.037
       0.053
       0.134
       0.170
       0.147
       0.085
       0.018
      -0.032
      -0.068
      -0.109
      -0.165
      -0.215
      -0.225
      -0.176
      -0.080
       0.024
       0.106
       0.163
       0.209
       0.248
       0.257
       0.203
       0.075
      -0.105
      -0.286
      -0.418
      -0.463
      -0.411
      -0.285
      -0.145
      -0.064
      -0.090
      -0.200
      -0.301
      -0.282
      -0.097
       0.189
       0.431
       0.494
       0.341
       0.061
      -0.170
      -0.199
       0.008
       0.333
       0.583
       0.620
       0.452
       0.198
      -0.017
      -0.136
      -0.167
      -0.145
      -0.106
      -0.088
      -0.123
      -0.211
      -0.298
      -0.313
      -0.222
      -0.070
       0.046
       0.052
      -0.046
      -0.170
      -0.233
      -0.195
      -0.076
       0.076
       0.226
       0.365
       0.496
       0.614
       0.684
       0.657
       0.511
       0.283
       0.060
      -0.081
      -0.114
      -0.072
      -0.014
      -0.007
      -0.097
      -0.279
      -0.466
      -0.529
      -0.396
      -0.146
       0.034
       0.004
      -0.183
      -0.303
      -0.166
       0.200
       0.538
       0.560
       0.185
      -0.398
      -0.862
      -0.965
      -0.678
      -0.170
       0.314
       0.569
       0.514
       0.208
      -0.184
      -0.470
      -0.519
      -0.334
      -0.047
       0.146
       0.115
      -0.108
      -0.330
      -0.335
      -0.051
       0.373
       0.670
       0.650
       0.334
      -0.067
      -0.318
      -0.319
      -0.146
       0.046
       0.163
       0.217
       0.258
       0.298
       0.302
       0.244
       0.130
      -0.016
      -0.158
      -0.262
      -0.315
      -0.344
      -0.382
      -0.402
      -0.326
      -0.113
       0.150
       0.293
       0.225
       0.033
      -0.078
       0.030
       0.296
       0.512
       0.517
       0.342
       0.177
       0.167
       0.275
       0.331
       0.213
      -0.042
      -0.293
      -0.441
      -0.516
      -0.611
      -0.768
      -0.910
      -0.904
      -0.676
      -0.279
       0.147
       0.474
       0.645
       0.674
       0.614
       0.526
       0.482
       0.556
       0.790
       1.123
       1.381
       1.361
       0.969
       0.315
      -0.345
      -0.760
      -0.831
      -0.640
      -0.379
      -0.236
      -0.303
      -0.542
      -0.813
      -0.939
      -0.816
      -0.485
      -0.134
       0.006
      -0.192
      -0.647
      -1.092
      -1.235
      -0.954
      -0.388
       0.177
       0.515
       0.599
       0.568
       0.579
       0.684
       0.806
       0.807
       0.589
       0.163
      -0.338
      -0.723
      -0.840
      -0.661
      -0.287
       0.103
       0.337
       0.315
       0.042
      -0.358
      -0.671
      -0.687
      -0.325
       0.274
       0.804
       0.980
       0.745
       0.328
       0.089
       0.263
       0.803
       1.418
       1.771
       1.675
       1.180
       0.499
      -0.135
      -0.600
      -0.900
      -1.099
      -1.230
      -1.260
      -1.132
      -0.832
      -0.426
      -0.022
       0.289
       0.478
       0.572
       0.598
       0.556
       0.429
       0.221
      -0.028
      -0.249
      -0.366
      -0.328
      -0.139
       0.126
       0.331
       0.320
       0.012
      -0.529
      -1.086
      -1.409
      -1.367
      -1.036
      -0.648
      -0.447
      -0.556
      -0.911
      -1.280
      -1.359
      -0.946
      -0.076
       0.980
       1.867
       2.328
       2.292
       1.839
       1.129
       0.346
      -0.322
      -0.718
      -0.764
      -0.502
      -0.070
       0.371
       0.709
       0.908
       0.963
       0.848
       0.508
      -0.063
      -0.733
      -1.240
      -1.349
      -1.042
      -0.562
      -0.235
      -0.220
      -0.402
      -0.514
      -0.350
       0.091
       0.644
       1.103
       1.335
       1.321
       1.133
       0.899
       0.735
       0.681
       0.663
       0.539
       0.205
      -0.304
      -0.813
      -1.130
      -1.206
      -1.191
      -1.304
      -1.617
      -1.946
      -1.990
      -1.583
      -0.853
      -0.123
       0.338
       0.509
       0.582
       0.766
       1.095
       1.421
       1.570
       1.495
       1.277
       1.015
       0.740
       0.461
       0.232
       0.145
       0.211
       0.298
       0.204
      -0.172
      -0.721
      -1.181
      -1.325
      -1.110
      -0.708
      -0.384
      -0.331
      -0.552
      -0.864
      -1.016
      -0.849
      -0.389
       0.177
       0.645
       0.933
       1.107
       1.284
       1.503
       1.668
       1.594
       1.127
       0.263
      -0.787
      -1.645
      -1.957
      -1.633
      -0.952
      -0.393
      -0.288
      -0.581
      -0.908
      -0.914
      -0.535
      -0.004
       0.383
       0.517
       0.538
       0.673
       1.022
       1.459
       1.741
       1.702
       1.357
       0.854
       0.352
      -0.049
      -0.310
      -0.447
      -0.531
      -0.663
      -0.899
      -1.185
      -1.385
      -1.378
      -1.146
      -0.791
      -0.469
      -0.284
      -0.217
      -0.146
       0.047
       0.351
       0.614
       0.671
       0.511
       0.309
       0.272
       0.436
       0.626
       0.615
       0.339
      -0.047
      -0.326
      -0.406
      -0.361
      -0.303
      -0.256
      -0.172
      -0.037
       0.077
       0.084
      -0.018
      -0.146
      -0.221
      -0.222
      -0.164
      -0.045
       0.163
       0.453
       0.731
       0.839
       0.661
       0.258
      -0.134
      -0.269
      -0.089
       0.243
       0.501
       0.580
       0.519
       0.389
       0.220
       0.041
      -0.066
      -0.023
       0.125
       0.183
      -0.050
      -0.591
      -1.224
      -1.642
      -1.654
      -1.287
      -0.732
      -0.204
       0.183
       0.436
       0.615
       0.729
       0.703
       0.454
       0.011
      -0.428
      -0.589
      -0.322
       0.258
       0.828
       1.068
       0.847
       0.278
      -0.373
      -0.849
      -1.013
      -0.884
      -0.592
      -0.310
      -0.177
      -0.242
      -0.422
      -0.538
      -0.425
      -0.050
       0.473
       0.970
       1.335
       1.566
       1.710
       1.784
       1.739
       1.490
       0.992
       0.294
      -0.438
      -0.968
      -1.124
      -0.952
      -0.720
      -0.721
      -1.023
      -1.402
      -1.526
      -1.225
      -0.593
       0.129
       0.733
       1.122
       1.249
       1.072
       0.614
       0.029
      -0.444
      -0.648
      -0.618
      -0.529
      -0.518
      -0.575
      -0.596
      -0.521
      -0.404
      -0.348
      -0.378
      -0.408
      -0.338
      -0.174
      -0.034
      -0.036
      -0.196
      -0.414
      -0.565
      -0.577
      -0.459
      -0.243
       0.046
       0.394
       0.764
       1.104
       1.356
       1.473
       1.419
       1.205
       0.903
       0.634
       0.488
       0.443
       0.373
       0.144
      -0.285
      -0.800
      -1.158
      -1.097
      -0.507
       0.423
       1.234
       1.452
       0.924
      -0.025
      -0.794
      -0.932
      -0.454
       0.189
       0.454
       0.107
      -0.631
      -1.270
      -1.413
      -0.991
      -0.259
       0.410
       0.738
       0.657
       0.303
      -0.094
      -0.323
      -0.283
      -0.031
       0.237
       0.285
      -0.010
      -0.553
      -1.081
      -1.328
      -1.194
      -0.798
      -0.392
      -0.178
      -0.179
      -0.244
      -0.184
       0.073
       0.433
       0.723
       0.825
       0.748
       0.586
       0.435
       0.356
       0.390
       0.549
       0.761
       0.845
       0.612
       0.040
      -0.644
      -1.085
      -1.055
      -0.619
      -0.089
       0.220
       0.209
       0.034
      -0.073
      -0.024
       0.081
       0.114
       0.096
       0.167
       0.388
       0.619
       0.641
       0.405
       0.131
       0.113
       0.415
       0.752
       0.726
       0.196
      -0.558
      -1.059
      -1.046
      -0.704
      -0.488
      -0.709
      -1.236
      -1.596
      -1.362
      -0.515
       0.536
       1.258
       1.371
       0.997
       0.504
       0.224
       0.258
       0.469
       0.612
       0.505
       0.161
      -0.197
      -0.289
      -0.005
       0.499
       0.930
       1.080
       0.932
       0.590
       0.143
      -0.386
      -0.962
      -1.452
      -1.660
      -1.495
      -1.097
      -0.780
      -0.784
      -1.070
      -1.339
      -1.271
      -0.759
       0.056
       0.938
       1.719
       2.315
       2.647
       2.594
       2.057
       1.071
      -0.149
      -1.265
      -1.982
      -2.186
      -1.972
      -1.551
      -1.123
      -0.798
      -0.586
      -0.416
      -0.187
       0.150
       0.537
       0.842
       0.957
       0.857
       0.594
       0.248
      -0.093
      -0.310
      -0.266
       0.112
       0.727
       1.295
       1.501
       1.225
       0.647
       0.135
      -0.011
       0.234
       0.592
       0.682
       0.312
      -0.364
      -0.946
      -1.081
      -0.718
      -0.144
       0.236
       0.178
      -0.246
      -0.728
      -0.938
      -0.716
      -0.113
       0.683
       1.448
       1.974
       2.079
       1.649
       0.724
      -0.430
      -1.379
      -1.738
      -1.438
      -0.807
      -0.380
      -0.515
      -1.109
      -1.637
      -1.552
      -0.735
       0.366
       1.054
       0.883
      -0.020
      -1.055
      -1.571
      -1.274
      -0.348
       0.708
       1.381
       1.382
       0.760
      -0.130
      -0.793
      -0.857
      -0.276
       0.603
       1.206
       1.085
       0.247
      -0.818
      -1.476
      -1.391
      -0.704
       0.147
       0.787
       1.097
       1.164
       1.096
       0.937
       0.732
       0.585
       0.593
       0.708
       0.741
       0.535
       0.140
      -0.206
      -0.285
      -0.109
       0.080
       0.022
      -0.306
      -0.649
      -0.673
      -0.246
       0.449
       1.049
       1.271
       1.049
       0.483
      -0.295
      -1.155
      -1.915
      -2.318
      -2.171
      -1.510
      -0.643
       0.031
       0.288
       0.223
       0.140
       0.287
       0.692
       1.194
       1.598
       1.752
       1.545
       0.917
      -0.071
      -1.158
      -1.942
      -2.063
      -1.407
      -0.210
       0.981
       1.505
       0.927
      -0.627
      -2.412
      -3.438
      -3.095
      -1.553
       0.365
       1.731
       2.058
       1.496
       0.622
       0.035
       0.023
       0.480
       1.029
       1.263
       0.975
       0.299
      -0.355
      -0.582
      -0.268
       0.347
       0.883
       1.094
       1.000
       0.804
       0.718
       0.842
       1.094
       1.225
       0.940
       0.116
      -1.038
      -2.065
      -2.549
      -2.382
      -1.805
      -1.204
      -0.861
      -0.810
      -0.873
      -0.802
      -0.428
       0.266
       1.135
       1.917
       2.346
       2.297
       1.866
       1.278
       0.694
       0.124
      -0.481
      -1.078
      -1.528
      -1.736
      -1.752
      -1.684
      -1.549
      -1.251
      -0.726
      -0.054
       0.564
       0.914
       0.855
       0.352
      -0.474
      -1.319
      -1.772
      -1.525
      -0.576
       0.721
       1.825
       2.275
       1.891
       0.838
      -0.434
      -1.359
      -1.511
      -0.858
       0.196
       1.057
       1.326
       1.012
       0.462
       0.097
       0.158
       0.589
       1.088
       1.273
       0.898
       0.011
      -1.020
      -1.669
      -1.546
      -0.625
       0.728
       1.930
       2.459
       2.106
       1.079
      -0.098
      -0.865
      -0.907
      -0.315
       0.500
       1.072
       1.154
       0.797
       0.211
      -0.419
      -0.985
      -1.411
      -1.637
      -1.661
      -1.548
      -1.351
      -1.013
      -0.360
       0.764
       2.295
       3.853
       4.853
       4.810
       3.623
       1.653
      -0.479
      -2.219
      -3.328
      -3.896
      -4.148
      -4.200
      -3.960
      -3.234
      -1.955
      -0.317
       1.292
       2.507
       3.164
       3.313
       3.144
       2.918
       2.901
       3.301
       4.181
       5.399
       6.602
       7.309
       7.069
       5.663
       3.259
       0.415
      -2.105
      -3.642
      -3.924
      -3.155
      -1.898
      -0.808
      -0.364
      -0.677
      -1.447
      -2.067
      -1.855
      -0.381
       2.258
       5.380
       7.933
       8.869
       7.491
       3.699
      -1.856
      -7.808
     -12.448
     -14.426
     -13.439
     -10.443
      -7.173
      -5.251
      -5.457
      -7.577
     -10.766
     -14.055
     -16.641
     -17.897
     -17.301
     -14.577
     -10.075
      -5.066
      -1.478
      -0.896
      -3.364
      -6.899
      -8.358
      -5.282
       2.505
      12.663
      21.687
      26.895
      27.735
      25.633
      22.687
      20.219
      18.120
      15.261
      10.485
       3.474
      -4.930
     -12.934
     -18.360
     -19.433
     -15.611
      -8.146
       0.112
       5.845
       6.846
       3.096
      -3.320
      -9.280
     -11.973
      -9.906
      -3.303
       6.090
      15.631
      22.635
      25.242
      23.070
      17.434
      10.915
       6.273
       5.049
       6.645
       8.581
       7.981
       3.349
      -4.549
     -13.247
     -20.045
     -23.306
     -22.861
     -19.584
     -14.740
      -9.552
      -5.047
      -2.032
      -1.032
      -2.153
      -4.944
      -8.391
     -11.134
     -11.901
     -10.046
      -5.934
      -0.866
       3.505
       5.983
       6.376
       5.497
       4.661
       4.995
       6.913
       9.957
      13.043
      14.971
      14.908
      12.593
       8.249
       2.426
      -4.074
     -10.231
     -14.956
     -17.377
     -17.073
     -14.110
      -8.926
      -2.260
       4.816
      10.968
      14.999
      16.420
      15.769
      14.316
      13.307
      13.260
      13.729
      13.624
      11.840
       7.898
       2.341
      -3.343
      -7.348
      -8.508
      -7.061
      -4.652
      -3.496
      -5.171
      -9.784
     -15.966
     -21.561
     -24.558
     -23.763
     -19.087
     -11.498
      -2.730
       5.244
      10.899
      13.723
      14.295
      13.747
      12.935
      11.900
      10.040
       6.807
       2.343
      -2.412
      -6.223
      -8.289
      -8.690
      -8.249
      -7.945
      -8.310
      -9.209
     -10.079
     -10.414
     -10.136
      -9.618
      -9.346
      -9.469
      -9.576
      -8.903
      -6.796
      -3.139
       1.524
       6.240
      10.143
      12.926
      14.930
      16.735
      18.564
      20.011
      20.242
      18.440
      14.163
       7.584
      -0.311
      -7.710
     -12.471
     -13.105
      -9.708
      -4.082
       1.172
       4.031
       3.997
       2.062
      -0.139
      -1.360
      -1.303
      -0.441
       0.626
       1.654
       2.686
       3.599
       3.863
       2.856
       0.482
      -2.505
      -4.777
      -5.097
      -2.935
       1.254
       6.151
      10.001
      11.253
       9.187
       4.286
      -1.877
      -7.260
     -10.197
     -10.042
      -7.308
      -3.339
       0.235
       2.067
       1.600
      -0.618
      -3.013
      -3.669
      -1.385
       3.497
       9.112
      13.029
      13.574
      10.670
       5.683
       0.476
      -3.632
      -6.357
      -8.237
      -9.982
     -11.862
     -13.499
     -14.177
     -13.409
     -11.334
      -8.667
      -6.251
      -4.572
      -3.557
      -2.742
      -1.590
       0.236
       2.728
       5.440
       7.565
       8.269
       7.205
       4.787
       1.947
      -0.420
      -1.803
      -2.001
      -0.915
       1.436
       4.711
       8.227
      11.234
      13.250
      14.106
      13.715
      11.918
       8.611
       4.040
      -1.045
      -5.561
      -8.542
      -9.599
      -9.116
      -8.045
      -7.381
      -7.571
      -8.158
      -7.938
      -5.670
      -0.989
       5.101
      10.580
      13.446
      12.739
       8.908
       3.373
      -2.285
      -6.965
     -10.209
     -11.964
     -12.234
     -10.967
      -8.257
      -4.632
      -1.037
       1.600
       2.912
       3.291
       3.532
       4.226
       5.326
       6.158
       5.820
       3.657
      -0.408
      -5.795
     -11.383
     -15.823
     -18.016
     -17.592
     -15.071
     -11.490
      -7.706
      -3.893
       0.355
       5.390
      10.887
      15.756
      18.692
      18.928
      16.644
      12.824
       8.705
       5.226
       2.749
       1.187
       0.358
       0.231
       0.805
       1.773
       2.440
       2.118
       0.693
      -1.194
      -2.577
      -2.847
      -2.146
      -1.189
      -0.722
      -1.035
      -1.871
      -2.718
      -3.181
      -3.142
      -2.639
      -1.654
      -0.123
       1.836
       3.753
       4.985
       5.146
       4.376
       3.170
       1.944
       0.768
      -0.479
      -1.722
      -2.554
      -2.545
      -1.752
      -0.883
      -0.864
      -2.086
      -3.935
      -5.092
      -4.439
      -1.949
       1.147
       3.045
       2.474
      -0.558
      -4.859
      -8.840
     -11.338
     -11.946
     -10.832
      -8.429
      -5.266
      -1.919
       1.042
       3.188
       4.354
       4.697
       4.673
       4.860
       5.653
       6.975
       8.256
       8.764
       8.047
       6.166
       3.566
       0.771
      -1.827
      -3.946
      -5.270
      -5.413
      -4.098
      -1.483
       1.683
       4.284
       5.407
       4.869
       3.304
       1.727
       0.888
       0.881
       1.214
       1.209
       0.413
      -1.192
      -3.205
      -4.979
      -5.906
      -5.703
      -4.576
      -3.105
      -1.895
      -1.217
      -0.893
      -0.505
       0.269
       1.422
       2.639
       3.474
       3.530
       2.579
       0.695
      -1.627
      -3.544
      -4.235
      -3.370
      -1.334
       1.008
       2.835
       3.785
       3.975
       3.734
       3.339
       2.959
       2.725
       2.723
       2.858
       2.770
       1.995
       0.361
      -1.728
      -3.417
      -3.917
      -3.062
      -1.493
      -0.316
      -0.442
      -2.029
      -4.420
      -6.593
      -7.778
      -7.771
      -6.807
      -5.224
      -3.277
      -1.197
       0.711
       2.142
       2.956
       3.264
       3.303
       3.268
       3.243
       3.259
       3.340
       3.446
       3.395
       2.887
       1.727
       0.062
      -1.562
      -2.438
      -2.069
