Origin Time       04/04/2011 11:31:40
Lat.              29.6 N	
Long.             80.8 E	
Depth (Km)         10.0
Magnitude         5.7
 Region           NEPAL-INDIA-BORDER-REGION                                        
 Above details taken from IMD 
     
Station Code      KOT
Station Lat.       29.748  N
Station Long.      78.523  E
Station Height(m)  389.0
Site Class        B   Vs30 between 375 m/sec to 700 m/sec *  
Record Time       04.04.2011 19:12:38.569
Sampling Rate     200. Hz
 Record Duration   65.015 Sec.
 Direction         E-W (E positive)
Max. Acceleration     -6.413 cm/sec**2
     
  * For reference see Site Classification link of website 
     
 Base Line Corrected and Low Pass Filtered (Cut Off at 35 Hz) Time History
 Acceleration data in cm/sec**2
    
[...]
       0.261
       0.055
      -0.166
      -0.365
      -0.512
      -0.586
      -0.581
      -0.499
      -0.356
      -0.174
       0.022
       0.207
       0.365
       0.485
       0.563
       0.599
       0.597
       0.563
       0.513
       0.462
       0.424
       0.402
       0.393
       0.392
       0.393
       0.393
       0.390
       0.387
       0.390
       0.409
       0.448
       0.500
       0.552
       0.595
       0.629
       0.659
       0.687
       0.705
       0.693
       0.633
       0.516
       0.348
       0.146
      -0.067
      -0.270
      -0.452
      -0.609
      -0.742
      -0.853
      -0.940
      -1.001
      -1.041
      -1.067
      -1.084
      -1.095
      -1.093
      -1.071
      -1.030
      -0.973
      -0.906
      -0.829
      -0.739
      -0.640
      -0.548
      -0.479
      -0.440
      -0.414
      -0.375
      -0.301
      -0.193
      -0.073
       0.029
       0.086
       0.090
       0.054
       0.008
      -0.020
      -0.015
       0.027
       0.099
       0.189
       0.284
       0.369
       0.428
       0.454
       0.451
       0.429
       0.397
       0.357
       0.301
       0.221
       0.111
      -0.028
      -0.190
      -0.361
      -0.519
      -0.638
      -0.699
      -0.700
      -0.653
      -0.582
      -0.508
      -0.445
      -0.399
      -0.366
      -0.346
      -0.338
      -0.347
      -0.379
      -0.439
      -0.523
      -0.617
      -0.706
      -0.787
      -0.863
      -0.933
      -0.974
      -0.956
      -0.870
      -0.740
      -0.613
      -0.516
      -0.428
      -0.302
      -0.105
       0.155
       0.436
       0.699
       0.928
       1.127
       1.294
       1.411
       1.449
       1.390
       1.238
       1.011
       0.738
       0.444
       0.158
      -0.083
      -0.243
      -0.297
      -0.244
      -0.108
       0.077
       0.283
       0.487
       0.671
       0.815
       0.907
       0.953
       0.969
       0.969
       0.957
       0.927
       0.876
       0.804
       0.720
       0.631
       0.543
       0.454
       0.354
       0.235
       0.099
      -0.042
      -0.173
      -0.282
      -0.364
      -0.421
      -0.461
      -0.491
      -0.513
      -0.519
      -0.500
      -0.447
      -0.369
      -0.280
      -0.196
      -0.127
      -0.075
      -0.034
       0.008
       0.071
       0.168
       0.305
       0.472
       0.646
       0.798
       0.897
       0.924
       0.871
       0.749
       0.579
       0.385
       0.180
      -0.024
      -0.219
      -0.393
      -0.535
      -0.641
      -0.707
      -0.725
      -0.680
      -0.562
      -0.375
      -0.139
       0.111
       0.344
       0.543
       0.701
       0.821
       0.904
       0.948
       0.946
       0.889
       0.775
       0.601
       0.372
       0.100
      -0.193
      -0.477
      -0.718
      -0.890
      -0.987
      -1.019
      -1.001
      -0.943
      -0.853
      -0.734
      -0.592
      -0.431
      -0.259
      -0.086
       0.076
       0.214
       0.323
       0.399
       0.441
       0.440
       0.387
       0.280
       0.130
      -0.044
      -0.226
      -0.402
      -0.563
      -0.702
      -0.808
      -0.873
      -0.894
      -0.876
      -0.830
      -0.762
      -0.672
      -0.551
      -0.387
      -0.175
       0.084
       0.368
       0.642
       0.853
       0.953
       0.911
       0.736
       0.467
       0.164
      -0.120
      -0.348
      -0.509
      -0.611
      -0.672
      -0.712
      -0.747
      -0.777
      -0.792
      -0.776
      -0.707
      -0.568
      -0.349
      -0.056
       0.282
       0.618
       0.899
       1.087
       1.175
       1.192
       1.187
       1.198
       1.227
       1.245
       1.210
       1.109
       0.960
       0.802
       0.665
       0.559
       0.491
       0.479
       0.541
       0.676
       0.847
       1.004
       1.114
       1.182
       1.232
       1.279
       1.310
       1.296
       1.212
       1.057
       0.845
       0.599
       0.335
       0.068
      -0.186
      -0.405
      -0.572
      -0.679
      -0.728
      -0.726
      -0.678
      -0.589
      -0.476
      -0.359
      -0.260
      -0.189
      -0.142
      -0.112
      -0.087
      -0.054
      -0.002
       0.072
       0.157
       0.229
       0.272
       0.280
       0.261
       0.229
       0.199
       0.190
       0.222
       0.302
       0.420
       0.546
       0.646
       0.688
       0.656
       0.556
       0.406
       0.236
       0.077
      -0.049
      -0.136
      -0.188
      -0.221
      -0.251
      -0.289
      -0.335
      -0.377
      -0.398
      -0.381
      -0.313
      -0.194
      -0.037
       0.128
       0.269
       0.361
       0.394
       0.373
       0.310
       0.221
       0.124
       0.037
      -0.026
      -0.066
      -0.095
      -0.139
      -0.224
      -0.370
      -0.575
      -0.822
      -1.079
      -1.314
      -1.509
      -1.662
      -1.787
      -1.902
      -2.025
      -2.165
      -2.322
      -2.488
      -2.640
      -2.757
      -2.817
      -2.805
      -2.708
      -2.527
      -2.279
      -2.002
      -1.739
      -1.519
      -1.354
      -1.238
      -1.161
      -1.113
      -1.090
      -1.091
      -1.119
      -1.177
      -1.264
      -1.371
      -1.481
      -1.573
      -1.627
      -1.630
      -1.577
      -1.473
      -1.329
      -1.163
      -0.990
      -0.829
      -0.691
      -0.582
      -0.499
      -0.438
      -0.397
      -0.380
      -0.393
      -0.445
      -0.537
      -0.663
      -0.808
      -0.952
      -1.067
      -1.130
      -1.118
      -1.016
      -0.811
      -0.501
      -0.098
       0.368
       0.858
       1.322
       1.715
       2.000
       2.163
       2.217
       2.184
       2.079
       1.898
       1.628
       1.263
       0.816
       0.330
      -0.139
      -0.547
      -0.878
      -1.134
      -1.312
      -1.386
      -1.316
      -1.076
      -0.683
      -0.187
       0.361
       0.934
       1.534
       2.159
       2.785
       3.361
       3.838
       4.192
       4.428
       4.557
       4.581
       4.491
       4.284
       3.972
       3.580
       3.139
       2.669
       2.187
       1.707
       1.236
       0.783
       0.353
      -0.045
      -0.389
      -0.653
      -0.817
      -0.877
      -0.844
      -0.733
      -0.559
      -0.329
      -0.051
       0.259
       0.573
       0.854
       1.066
       1.185
       1.213
       1.168
       1.078
       0.970
       0.859
       0.754
       0.654
       0.554
       0.453
       0.355
       0.273
       0.220
       0.207
       0.239
       0.320
       0.443
       0.594
       0.755
       0.912
       1.053
       1.163
       1.222
       1.211
       1.124
       0.968
       0.758
       0.507
       0.222
      -0.102
      -0.468
      -0.874
      -1.306
      -1.729
      -2.100
      -2.379
      -2.548
      -2.614
      -2.599
      -2.530
      -2.431
      -2.319
      -2.213
      -2.129
      -2.075
      -2.045
      -2.019
      -1.968
      -1.872
      -1.724
      -1.530
      -1.307
      -1.070
      -0.825
      -0.574
      -0.312
      -0.032
       0.278
       0.629
       1.021
       1.439
       1.854
       2.235
       2.560
       2.822
       3.018
       3.143
       3.185
       3.124
       2.946
       2.645
       2.234
       1.735
       1.177
       0.590
       0.004
      -0.548
      -1.037
      -1.430
      -1.703
      -1.837
      -1.829
      -1.694
      -1.460
      -1.163
      -0.831
      -0.487
      -0.149
       0.166
       0.443
       0.669
       0.834
       0.932
       0.959
       0.914
       0.801
       0.627
       0.402
       0.132
      -0.184
      -0.542
      -0.926
      -1.298
      -1.598
      -1.772
      -1.789
      -1.655
      -1.403
      -1.071
      -0.692
      -0.288
       0.121
       0.519
       0.897
       1.250
       1.577
       1.878
       2.152
       2.400
       2.621
       2.803
       2.929
       2.989
       2.992
       2.968
       2.945
       2.937
       2.932
       2.901
       2.806
       2.620
       2.333
       1.957
       1.513
       1.033
       0.550
       0.105
      -0.264
      -0.530
      -0.687
      -0.749
      -0.745
      -0.709
      -0.672
      -0.655
      -0.670
      -0.728
      -0.838
      -0.998
      -1.184
      -1.358
      -1.484
      -1.561
      -1.631
      -1.753
      -1.965
      -2.265
      -2.622
      -3.003
      -3.377
      -3.710
      -3.951
      -4.055
      -3.998
      -3.798
      -3.499
      -3.146
      -2.765
      -2.360
      -1.915
      -1.416
      -0.860
      -0.259
       0.353
       0.928
       1.414
       1.767
       1.965
       2.010
       1.923
       1.723
       1.422
       1.025
       0.544
       0.001
      -0.580
      -1.178
      -1.779
      -2.359
      -2.878
      -3.280
      -3.505
      -3.513
      -3.292
      -2.861
      -2.267
      -1.563
      -0.804
      -0.027
       0.742
       1.479
       2.158
       2.744
       3.204
       3.520
       3.689
       3.717
       3.601
       3.334
       2.909
       2.342
       1.669
       0.937
       0.193
      -0.527
      -1.188
      -1.752
      -2.181
      -2.455
      -2.578
      -2.571
      -2.451
      -2.218
      -1.864
      -1.389
      -0.824
      -0.228
       0.325
       0.769
       1.061
       1.188
       1.158
       0.992
       0.714
       0.354
      -0.062
      -0.503
      -0.948
      -1.378
      -1.784
      -2.155
      -2.483
      -2.748
      -2.924
      -2.982
      -2.903
      -2.688
      -2.357
      -1.938
      -1.455
      -0.926
      -0.371
       0.183
       0.699
       1.138
       1.466
       1.656
       1.699
       1.607
       1.399
       1.102
       0.736
       0.328
      -0.089
      -0.475
      -0.793
      -1.026
      -1.174
      -1.250
      -1.267
      -1.235
      -1.153
      -1.027
      -0.864
      -0.684
      -0.507
      -0.347
      -0.198
      -0.046
       0.120
       0.293
       0.449
       0.558
       0.600
       0.567
       0.470
       0.334
       0.189
       0.058
      -0.045
      -0.114
      -0.133
      -0.085
       0.043
       0.239
       0.473
       0.709
       0.928
       1.131
       1.328
       1.520
       1.695
       1.840
       1.952
       2.045
       2.141
       2.258
       2.397
       2.534
       2.634
       2.662
       2.594
       2.422
       2.148
       1.774
       1.304
       0.744
       0.115
      -0.544
      -1.180
      -1.731
      -2.145
      -2.389
      -2.464
      -2.397
      -2.230
      -2.002
      -1.739
      -1.459
      -1.171
      -0.868
      -0.519
      -0.086
       0.444
       1.031
       1.604
       2.088
       2.445
       2.666
       2.752
       2.701
       2.517
       2.225
       1.866
       1.477
       1.076
       0.666
       0.255
      -0.132
      -0.448
      -0.643
      -0.678
      -0.541
      -0.251
       0.151
       0.604
       1.034
       1.372
       1.574
       1.641
       1.606
       1.510
       1.371
       1.179
       0.919
       0.591
       0.212
      -0.194
      -0.611
      -1.019
      -1.390
      -1.683
      -1.861
      -1.894
      -1.774
      -1.509
      -1.125
      -0.661
      -0.168
       0.300
       0.686
       0.943
       1.044
       0.994
       0.826
       0.599
       0.375
       0.212
       0.142
       0.165
       0.252
       0.358
       0.451
       0.528
       0.616
       0.754
       0.964
       1.231
       1.508
       1.735
       1.862
       1.870
       1.767
       1.578
       1.331
       1.046
       0.727
       0.368
      -0.041
      -0.505
      -1.018
      -1.556
      -2.084
      -2.558
      -2.935
      -3.179
      -3.272
      -3.218
      -3.041
      -2.776
      -2.458
      -2.119
      -1.787
      -1.489
      -1.250
      -1.089
      -1.009
      -0.991
      -0.997
      -0.982
      -0.910
      -0.768
      -0.562
      -0.313
      -0.056
       0.178
       0.367
       0.511
       0.634
       0.766
       0.936
       1.155
       1.425
       1.730
       2.042
       2.321
       2.519
       2.599
       2.541
       2.347
       2.033
       1.617
       1.113
       0.531
      -0.105
      -0.748
      -1.328
      -1.776
      -2.047
      -2.136
      -2.073
      -1.907
      -1.677
      -1.406
      -1.106
      -0.791
      -0.477
      -0.182
       0.079
       0.292
       0.440
       0.502
       0.453
       0.277
      -0.023
      -0.422
      -0.879
      -1.355
      -1.818
      -2.243
      -2.607
      -2.881
      -3.037
      -3.057
      -2.936
      -2.681
      -2.306
      -1.826
      -1.248
      -0.574
       0.189
       1.018
       1.859
       2.636
       3.269
       3.688
       3.846
       3.717
       3.301
       2.622
       1.738
       0.731
      -0.307
      -1.296
      -2.181
      -2.926
      -3.495
      -3.842
      -3.924
      -3.717
      -3.230
      -2.506
      -1.596
      -0.547
       0.608
       1.826
       3.037
       4.134
       4.998
       5.539
       5.724
       5.579
       5.154
       4.489
       3.597
       2.487
       1.193
      -0.214
      -1.649
      -3.029
      -4.280
      -5.319
      -6.055
      -6.413
      -6.360
      -5.912
      -5.124
      -4.075
      -2.858
      -1.570
      -0.302
       0.875
       1.904
       2.740
       3.354
       3.722
       3.831
       3.679
       3.285
       2.701
       2.010
       1.305
       0.660
       0.115
      -0.316
      -0.636
      -0.850
      -0.965
      -0.977
      -0.870
      -0.620
      -0.214
       0.329
       0.953
       1.575
       2.099
       2.440
       2.540
       2.377
       1.976
       1.391
       0.692
      -0.060
      -0.810
      -1.516
      -2.139
      -2.647
      -3.020
      -3.252
      -3.338
      -3.267
      -3.011
      -2.546
      -1.869
      -1.013
      -0.048
       0.944
       1.882
       2.702
       3.363
       3.846
       4.145
       4.264
       4.208
       3.984
       3.603
       3.077
       2.416
       1.632
       0.741
      -0.218
      -1.186
      -2.080
      -2.816
      -3.331
      -3.601
      -3.632
      -3.446
      -3.069
      -2.533
      -1.885
      -1.182
      -0.480
       0.178
       0.762
       1.248
       1.611
       1.832
       1.911
       1.875
       1.777
       1.679
       1.633
       1.665
       1.763
       1.892
       2.009
       2.077
       2.078
       2.010
       1.890
       1.747
       1.605
       1.476
       1.362
       1.263
       1.179
       1.105
       1.015
       0.875
       0.664
       0.387
       0.076
      -0.230
      -0.506
      -0.740
      -0.928
      -1.065
      -1.134
      -1.120
      -1.019
      -0.850
      -0.654
      -0.475
      -0.350
      -0.291
      -0.298
      -0.366
      -0.498
      -0.689
      -0.921
      -1.160
      -1.367
      -1.512
      -1.575
      -1.551
      -1.440
      -1.252
      -1.011
      -0.746
      -0.484
      -0.240
      -0.016
       0.203
       0.437
       0.699
       0.985
       1.279
       1.549
       1.759
       1.863
       1.813
       1.572
       1.134
       0.538
      -0.143
      -0.826
      -1.446
      -1.969
      -2.386
      -2.715
      -2.978
      -3.181
      -3.300
      -3.300
      -3.156
      -2.881
      -2.507
      -2.059
      -1.543
      -0.963
      -0.348
       0.240
       0.737
       1.106
       1.340
       1.436
       1.372
       1.119
       0.667
       0.052
      -0.658
      -1.390
      -2.085
      -2.698
      -3.181
      -3.486
      -3.582
      -3.467
      -3.172
      -2.735
      -2.182
      -1.522
      -0.758
       0.084
       0.949
       1.757
       2.431
       2.923
       3.214
       3.313
       3.242
       3.040
       2.754
       2.426
       2.080
       1.708
       1.287
       0.796
       0.241
      -0.336
      -0.869
      -1.284
      -1.536
      -1.618
      -1.569
      -1.452
      -1.336
      -1.264
      -1.243
      -1.249
      -1.250
      -1.227
      -1.186
      -1.143
      -1.113
      -1.100
      -1.099
      -1.104
      -1.102
      -1.083
      -1.034
      -0.949
      -0.824
      -0.663
      -0.474
      -0.275
      -0.088
       0.063
       0.165
       0.213
       0.205
       0.145
       0.043
      -0.079
      -0.188
      -0.254
      -0.259
      -0.190
      -0.046
       0.169
       0.437
       0.728
       1.015
       1.275
       1.492
       1.653
       1.743
       1.750
       1.667
       1.503
       1.289
       1.062
       0.858
       0.687
       0.536
       0.382
       0.211
       0.034
      -0.123
      -0.230
      -0.264
      -0.215
      -0.080
       0.130
       0.390
       0.653
       0.869
       0.999
       1.034
       0.990
       0.901
       0.796
       0.689
       0.582
       0.467
       0.332
       0.165
      -0.044
      -0.293
      -0.566
      -0.829
      -1.036
      -1.150
      -1.153
      -1.054
      -0.880
      -0.672
      -0.472
      -0.311
      -0.211
      -0.179
      -0.210
      -0.279
      -0.353
      -0.402
      -0.401
      -0.341
      -0.224
      -0.058
       0.149
       0.385
       0.641
       0.910
       1.175
       1.413
       1.595
       1.700
       1.721
       1.668
       1.561
       1.425
       1.292
       1.190
       1.139
       1.135
       1.154
       1.154
       1.094
       0.955
       0.741
       0.483
       0.221
      -0.008
      -0.177
      -0.271
      -0.278
      -0.192
      -0.023
       0.192
       0.401
       0.555
       0.635
       0.646
       0.614
       0.565
       0.517
       0.483
       0.461
       0.444
       0.422
       0.390
       0.352
       0.318
       0.294
       0.275
       0.250
       0.205
       0.130
       0.025
      -0.090
      -0.184
      -0.222
      -0.178
      -0.051
       0.136
       0.345
       0.533
       0.669
       0.738
       0.742
       0.698
       0.627
       0.544
       0.456
       0.358
       0.240
       0.093
      -0.090
      -0.309
      -0.557
      -0.815
      -1.054
      -1.246
      -1.371
      -1.426
      -1.424
      -1.379
      -1.295
      -1.167
      -0.991
      -0.768
      -0.516
      -0.259
      -0.024
       0.175
       0.338
       0.474
       0.589
       0.677
       0.724
       0.717
       0.655
       0.542
       0.390
       0.210
       0.017
      -0.175
      -0.350
      -0.495
      -0.610
      -0.701
      -0.769
      -0.805
      -0.789
      -0.700
      -0.525
      -0.264
       0.068
       0.441
       0.818
       1.162
       1.450
       1.675
       1.856
       2.026
       2.215
       2.427
       2.635
       2.782
       2.815
       2.705
       2.466
       2.145
       1.801
       1.483
       1.214
       0.990
       0.782
       0.547
       0.247
      -0.136
      -0.579
      -1.028
      -1.414
      -1.676
      -1.773
