Origin Time       04/04/2011 11:31:40
Lat.              29.6 N	
Long.             80.8 E	
Depth (Km)         10.0
Magnitude         5.7
 Region           NEPAL-INDIA-BORDER-REGION                                        
 Above details taken from IMD 
   
Station Code      KOT
Station Lat.       29.748
Station Long.      78.523
Station Height(m)  389.0
Site Class        B   Vs30 between 375 m/sec to 700 m/sec *  
Record Time       04.04.2011 19:12:38.569
Sampling Rate     200. Hz
 Record Duration   65.015 Sec.
 Direction         Vert. (Up positive)
Max. Acceleration      4.123 cm/sec**2
     
  * For reference see Site Classification link of website 
     
 Base Line Corrected and Low Pass Filtered (Cut Off at 35 Hz) Time History
 Acceleration data in cm/sec**2
    
[...]
      -0.492
      -0.646
      -0.695
      -0.661
      -0.585
      -0.505
      -0.445
      -0.417
      -0.420
      -0.441
      -0.453
      -0.430
      -0.350
      -0.210
      -0.026
       0.172
       0.362
       0.549
       0.758
       0.994
       1.215
       1.341
       1.300
       1.089
       0.777
       0.472
       0.259
       0.181
       0.234
       0.390
       0.593
       0.773
       0.869
       0.858
       0.768
       0.648
       0.537
       0.438
       0.335
       0.212
       0.074
      -0.061
      -0.177
      -0.266
      -0.327
      -0.351
      -0.328
      -0.255
      -0.157
      -0.082
      -0.070
      -0.112
      -0.143
      -0.081
       0.111
       0.389
       0.661
       0.859
       0.971
       1.027
       1.043
       1.010
       0.919
       0.804
       0.719
       0.694
       0.693
       0.642
       0.503
       0.308
       0.126
      -0.003
      -0.089
      -0.164
      -0.226
      -0.239
      -0.178
      -0.067
       0.027
       0.045
      -0.024
      -0.150
      -0.294
      -0.444
      -0.605
      -0.774
      -0.929
      -1.037
      -1.082
      -1.078
      -1.042
      -0.976
      -0.858
      -0.671
      -0.430
      -0.182
       0.034
       0.206
       0.349
       0.466
       0.526
       0.488
       0.342
       0.132
      -0.057
      -0.153
      -0.131
      -0.016
       0.147
       0.316
       0.454
       0.527
       0.506
       0.388
       0.216
       0.063
       0.003
       0.059
       0.191
       0.333
       0.445
       0.542
       0.656
       0.789
       0.901
       0.952
       0.937
       0.886
       0.812
       0.697
       0.504
       0.227
      -0.087
      -0.357
      -0.514
      -0.541
      -0.472
      -0.360
      -0.250
      -0.174
      -0.154
      -0.197
      -0.295
      -0.430
      -0.572
      -0.689
      -0.752
      -0.748
      -0.679
      -0.563
      -0.438
      -0.353
      -0.338
      -0.376
      -0.421
      -0.429
      -0.400
      -0.357
      -0.310
      -0.236
      -0.110
       0.050
       0.189
       0.261
       0.266
       0.235
       0.180
       0.080
      -0.085
      -0.287
      -0.461
      -0.561
      -0.608
      -0.675
      -0.820
      -1.032
      -1.233
      -1.335
      -1.295
      -1.125
      -0.860
      -0.532
      -0.171
       0.172
       0.430
       0.559
       0.572
       0.530
       0.483
       0.431
       0.342
       0.196
       0.012
      -0.163
      -0.288
      -0.347
      -0.350
      -0.320
      -0.285
      -0.266
      -0.259
      -0.235
      -0.158
      -0.017
       0.169
       0.367
       0.543
       0.666
       0.709
       0.657
       0.525
       0.352
       0.180
       0.031
      -0.080
      -0.126
      -0.075
       0.086
       0.320
       0.562
       0.757
       0.892
       0.977
       1.023
       1.024
       0.972
       0.875
       0.753
       0.623
       0.498
       0.384
       0.294
       0.240
       0.227
       0.243
       0.252
       0.206
       0.066
      -0.167
      -0.454
      -0.739
      -0.977
      -1.149
      -1.241
      -1.236
      -1.131
      -0.956
      -0.767
      -0.604
      -0.460
      -0.291
      -0.066
       0.211
       0.504
       0.775
       0.995
       1.134
       1.165
       1.085
       0.931
       0.770
       0.653
       0.587
       0.545
       0.491
       0.415
       0.314
       0.185
       0.011
      -0.210
      -0.450
      -0.657
      -0.782
      -0.806
      -0.737
      -0.595
      -0.397
      -0.165
       0.058
       0.220
       0.283
       0.244
       0.141
       0.010
      -0.129
      -0.281
      -0.449
      -0.611
      -0.732
      -0.785
      -0.765
      -0.678
      -0.532
      -0.329
      -0.075
       0.218
       0.525
       0.809
       1.019
       1.098
       1.014
       0.783
       0.466
       0.143
      -0.141
      -0.383
      -0.612
      -0.842
      -1.062
      -1.243
      -1.373
      -1.455
      -1.492
      -1.468
      -1.363
      -1.183
      -0.967
      -0.772
      -0.644
      -0.595
      -0.607
      -0.647
      -0.684
      -0.690
      -0.642
      -0.525
      -0.341
      -0.110
       0.138
       0.363
       0.517
       0.559
       0.477
       0.300
       0.083
      -0.112
      -0.231
      -0.225
      -0.055
       0.283
       0.726
       1.155
       1.463
       1.611
       1.640
       1.607
       1.532
       1.400
       1.197
       0.951
       0.707
       0.493
       0.300
       0.115
      -0.049
      -0.136
      -0.091
       0.098
       0.369
       0.613
       0.738
       0.720
       0.600
       0.437
       0.254
       0.042
      -0.203
      -0.444
      -0.617
      -0.670
      -0.604
      -0.458
      -0.275
      -0.080
       0.113
       0.280
       0.385
       0.406
       0.346
       0.242
       0.131
       0.026
      -0.090
      -0.240
      -0.430
      -0.638
      -0.834
      -0.988
      -1.071
      -1.037
      -0.845
      -0.495
      -0.055
       0.353
       0.622
       0.705
       0.622
       0.429
       0.185
      -0.055
      -0.251
      -0.381
      -0.450
      -0.477
      -0.469
      -0.419
      -0.316
      -0.172
      -0.010
       0.154
       0.323
       0.508
       0.703
       0.886
       1.032
       1.124
       1.159
       1.135
       1.055
       0.932
       0.787
       0.635
       0.481
       0.321
       0.155
      -0.014
      -0.189
      -0.378
      -0.587
      -0.813
      -1.038
      -1.234
      -1.374
      -1.438
      -1.409
      -1.282
      -1.070
      -0.807
      -0.543
      -0.327
      -0.182
      -0.097
      -0.036
       0.035
       0.124
       0.209
       0.265
       0.283
       0.271
       0.243
       0.205
       0.157
       0.103
       0.061
       0.050
       0.073
       0.113
       0.150
       0.177
       0.208
       0.251
       0.291
       0.302
       0.278
       0.242
       0.216
       0.183
       0.087
      -0.111
      -0.378
      -0.620
      -0.746
      -0.742
      -0.667
      -0.602
      -0.589
      -0.606
      -0.606
      -0.557
      -0.457
      -0.318
      -0.154
       0.024
       0.199
       0.361
       0.507
       0.637
       0.746
       0.826
       0.872
       0.881
       0.847
       0.751
       0.575
       0.331
       0.083
      -0.083
      -0.119
      -0.050
       0.050
       0.117
       0.128
       0.088
      -0.004
      -0.163
      -0.400
      -0.694
      -1.005
      -1.294
      -1.526
      -1.663
      -1.655
      -1.466
      -1.101
      -0.617
      -0.107
       0.329
       0.608
       0.684
       0.559
       0.281
      -0.065
      -0.376
      -0.555
      -0.541
      -0.333
      -0.002
       0.344
       0.611
       0.761
       0.815
       0.811
       0.776
       0.715
       0.625
       0.500
       0.332
       0.100
      -0.210
      -0.599
      -1.030
      -1.435
      -1.728
      -1.837
      -1.735
      -1.453
      -1.074
      -0.693
      -0.386
      -0.191
      -0.114
      -0.141
      -0.240
      -0.361
      -0.443
      -0.423
      -0.265
       0.030
       0.427
       0.872
       1.314
       1.706
       2.006
       2.177
       2.201
       2.091
       1.888
       1.652
       1.437
       1.271
       1.154
       1.068
       0.988
       0.900
       0.798
       0.680
       0.551
       0.417
       0.287
       0.158
       0.017
      -0.156
      -0.359
      -0.565
      -0.733
      -0.827
      -0.842
      -0.808
      -0.771
      -0.782
      -0.871
      -1.039
      -1.250
      -1.438
      -1.541
      -1.525
      -1.394
      -1.174
      -0.888
      -0.552
      -0.182
       0.198
       0.549
       0.828
       0.997
       1.026
       0.911
       0.671
       0.346
      -0.021
      -0.393
      -0.735
      -1.006
      -1.168
      -1.199
      -1.103
      -0.903
      -0.635
      -0.349
      -0.111
       0.020
       0.019
      -0.077
      -0.201
      -0.296
      -0.350
      -0.376
      -0.390
      -0.399
      -0.410
      -0.438
      -0.486
      -0.535
      -0.552
      -0.514
      -0.423
      -0.300
      -0.174
      -0.070
      -0.005
       0.022
       0.029
       0.044
       0.096
       0.199
       0.347
       0.510
       0.643
       0.700
       0.653
       0.504
       0.274
       0.005
      -0.247
      -0.419
      -0.460
      -0.357
      -0.145
       0.114
       0.378
       0.638
       0.883
       1.073
       1.142
       1.040
       0.777
       0.423
       0.081
      -0.156
      -0.238
      -0.160
       0.042
       0.301
       0.544
       0.715
       0.781
       0.735
       0.590
       0.393
       0.223
       0.162
       0.254
       0.485
       0.795
       1.114
       1.379
       1.550
       1.616
       1.593
       1.517
       1.430
       1.358
       1.292
       1.197
       1.025
       0.743
       0.356
      -0.080
      -0.470
      -0.724
      -0.801
      -0.723
      -0.555
      -0.376
      -0.247
      -0.193
      -0.202
      -0.231
      -0.231
      -0.181
      -0.101
      -0.039
      -0.035
      -0.094
      -0.184
      -0.261
      -0.281
      -0.219
      -0.075
       0.120
       0.309
       0.436
       0.476
       0.455
       0.426
       0.438
       0.508
       0.631
       0.794
       0.975
       1.131
       1.188
       1.076
       0.770
       0.320
      -0.182
      -0.646
      -1.024
      -1.309
      -1.500
      -1.598
      -1.607
      -1.543
      -1.429
      -1.284
      -1.123
      -0.957
      -0.802
      -0.677
      -0.603
      -0.598
      -0.675
      -0.826
      -1.015
      -1.192
      -1.310
      -1.346
      -1.294
      -1.164
      -0.972
      -0.738
      -0.480
      -0.210
       0.073
       0.364
       0.649
       0.910
       1.130
       1.298
       1.392
       1.375
       1.216
       0.922
       0.547
       0.167
      -0.150
      -0.374
      -0.511
      -0.585
      -0.628
      -0.658
      -0.675
      -0.656
      -0.572
      -0.418
      -0.223
      -0.041
       0.079
       0.108
       0.052
      -0.061
      -0.196
      -0.319
      -0.401
      -0.427
      -0.392
      -0.322
      -0.266
      -0.276
      -0.364
      -0.481
      -0.543
      -0.483
      -0.301
      -0.055
       0.182
       0.362
       0.466
       0.494
       0.463
       0.415
       0.400
       0.451
       0.562
       0.705
       0.859
       1.040
       1.273
       1.551
       1.814
       1.979
       1.989
       1.842
       1.571
       1.229
       0.873
       0.567
       0.362
       0.264
       0.220
       0.147
      -0.023
      -0.307
      -0.679
      -1.085
      -1.468
      -1.776
      -1.970
      -2.037
      -1.978
      -1.802
      -1.515
      -1.126
      -0.650
      -0.117
       0.422
       0.896
       1.233
       1.381
       1.331
       1.106
       0.754
       0.335
      -0.075
      -0.388
      -0.525
      -0.448
      -0.199
       0.109
       0.350
       0.445
       0.393
       0.237
       0.024
      -0.227
      -0.524
      -0.874
      -1.250
      -1.598
      -1.871
      -2.054
      -2.159
      -2.179
      -2.069
      -1.786
      -1.349
      -0.840
      -0.349
       0.092
       0.502
       0.883
       1.176
       1.301
       1.235
       1.041
       0.809
       0.588
       0.374
       0.161
      -0.015
      -0.097
      -0.046
       0.126
       0.373
       0.642
       0.891
       1.084
       1.182
       1.141
       0.934
       0.574
       0.121
      -0.328
      -0.691
      -0.938
      -1.091
      -1.194
      -1.280
      -1.352
      -1.398
      -1.397
      -1.324
      -1.140
      -0.819
      -0.374
       0.127
       0.586
       0.928
       1.134
       1.229
       1.249
       1.203
       1.071
       0.830
       0.485
       0.088
      -0.274
      -0.516
      -0.594
      -0.516
      -0.331
      -0.104
       0.101
       0.235
       0.272
       0.228
       0.171
       0.188
       0.324
       0.537
       0.718
       0.755
       0.589
       0.223
      -0.293
      -0.881
      -1.443
      -1.878
      -2.113
      -2.132
      -1.961
      -1.642
      -1.209
      -0.693
      -0.147
       0.360
       0.763
       1.018
       1.110
       1.049
       0.865
       0.609
       0.348
       0.152
       0.076
       0.141
       0.323
       0.563
       0.792
       0.957
       1.035
       1.034
       0.978
       0.891
       0.795
       0.697
       0.597
       0.490
       0.377
       0.264
       0.154
       0.032
      -0.127
      -0.336
      -0.575
      -0.786
      -0.905
      -0.901
      -0.793
      -0.635
      -0.487
      -0.390
      -0.363
      -0.404
      -0.494
      -0.599
      -0.677
      -0.681
      -0.574
      -0.351
      -0.040
       0.297
       0.594
       0.803
       0.901
       0.890
       0.788
       0.624
       0.437
       0.258
       0.100
      -0.036
      -0.149
      -0.217
      -0.214
      -0.133
      -0.013
       0.079
       0.089
       0.013
      -0.106
      -0.218
      -0.290
      -0.298
      -0.199
       0.062
       0.513
       1.111
       1.757
       2.353
       2.862
       3.308
       3.704
       4.007
       4.123
       3.984
       3.589
       3.004
       2.307
       1.547
       0.745
      -0.081
      -0.898
      -1.659
      -2.311
      -2.819
      -3.183
      -3.436
      -3.595
      -3.618
      -3.425
      -2.976
      -2.321
      -1.573
      -0.829
      -0.133
       0.491
       0.999
       1.328
       1.438
       1.338
       1.066
       0.665
       0.189
      -0.280
      -0.647
      -0.857
      -0.916
      -0.866
      -0.740
      -0.549
      -0.316
      -0.086
       0.095
       0.225
       0.334
       0.448
       0.560
       0.657
       0.749
       0.874
       1.048
       1.225
       1.322
       1.272
       1.068
       0.743
       0.332
      -0.150
      -0.690
      -1.252
      -1.776
      -2.204
      -2.501
      -2.647
      -2.618
      -2.388
      -1.944
      -1.311
      -0.559
       0.206
       0.872
       1.353
       1.614
       1.672
       1.575
       1.374
       1.102
       0.783
       0.446
       0.128
      -0.123
      -0.267
      -0.281
      -0.168
       0.052
       0.345
       0.670
       0.970
       1.182
       1.259
       1.189
       1.000
       0.742
       0.468
       0.223
       0.038
      -0.084
      -0.168
      -0.244
      -0.311
      -0.346
      -0.335
      -0.312
      -0.345
      -0.484
      -0.726
      -1.018
      -1.297
      -1.514
      -1.632
      -1.631
      -1.511
      -1.302
      -1.051
      -0.807
      -0.610
      -0.483
      -0.433
      -0.445
      -0.484
      -0.515
      -0.523
      -0.510
      -0.494
      -0.498
      -0.547
      -0.659
      -0.828
      -1.012
      -1.150
      -1.201
      -1.170
      -1.098
      -1.026
      -0.970
      -0.921
      -0.867
      -0.799
      -0.712
      -0.598
      -0.456
      -0.300
      -0.155
      -0.053
      -0.018
      -0.052
      -0.130
      -0.204
      -0.222
      -0.150
       0.017
       0.271
       0.604
       1.003
       1.435
       1.848
       2.192
       2.448
       2.614
       2.693
       2.687
       2.611
       2.499
       2.372
       2.216
       1.993
       1.688
       1.328
       0.950
       0.549
       0.094
      -0.414
      -0.905
      -1.277
      -1.473
      -1.509
      -1.425
      -1.227
      -0.893
      -0.436
       0.061
       0.482
       0.754
       0.884
       0.933
       0.962
       0.999
       1.034
       1.053
       1.050
       1.022
       0.959
       0.849
       0.682
       0.449
       0.158
      -0.167
      -0.500
      -0.842
      -1.222
      -1.657
      -2.117
      -2.537
      -2.864
      -3.079
      -3.192
      -3.196
      -3.056
      -2.740
      -2.254
      -1.649
      -1.000
      -0.378
       0.159
       0.558
       0.783
       0.825
       0.703
       0.454
       0.126
      -0.218
      -0.510
      -0.688
      -0.730
      -0.649
      -0.480
      -0.238
       0.077
       0.450
       0.821
       1.108
       1.250
       1.245
       1.138
       0.971
       0.759
       0.509
       0.254
       0.053
      -0.054
      -0.066
      -0.008
       0.108
       0.292
       0.538
       0.796
       0.986
       1.051
       0.990
       0.853
       0.706
       0.603
       0.574
       0.618
       0.690
       0.718
       0.638
       0.427
       0.111
      -0.252
      -0.582
      -0.800
      -0.852
      -0.747
      -0.561
      -0.390
      -0.294
      -0.265
      -0.260
      -0.236
      -0.178
      -0.087
       0.026
       0.130
       0.183
       0.156
       0.064
      -0.039
      -0.089
      -0.053
       0.062
       0.228
       0.412
       0.577
       0.685
       0.713
       0.679
       0.631
       0.617
       0.654
       0.719
       0.776
       0.792
       0.737
       0.585
       0.320
      -0.042
      -0.448
      -0.831
      -1.145
      -1.376
      -1.538
      -1.644
      -1.702
      -1.712
      -1.680
      -1.612
      -1.518
      -1.409
      -1.293
      -1.168
      -1.028
      -0.859
      -0.653
      -0.413
      -0.147
       0.129
       0.395
       0.618
       0.775
       0.856
       0.874
       0.848
       0.797
       0.740
       0.705
       0.719
       0.793
       0.908
       1.036
       1.156
       1.251
       1.295
       1.256
       1.122
       0.921
       0.702
       0.491
       0.275
       0.029
      -0.242
      -0.493
      -0.670
      -0.742
      -0.704
      -0.555
      -0.294
       0.056
       0.436
       0.767
       0.998
       1.131
       1.204
       1.244
       1.248
       1.189
       1.045
       0.819
       0.533
       0.227
      -0.049
      -0.244
      -0.324
      -0.289
      -0.169
      -0.005
       0.165
       0.318
       0.432
       0.488
       0.478
       0.422
       0.366
       0.349
       0.384
       0.455
       0.533
       0.606
       0.677
       0.752
       0.823
       0.864
       0.846
       0.742
       0.545
       0.267
      -0.051
      -0.347
      -0.553
      -0.625
      -0.561
      -0.409
      -0.251
      -0.170
      -0.227
      -0.436
      -0.763
      -1.136
      -1.467
      -1.674
      -1.706
      -1.562
      -1.298
      -1.005
      -0.772
      -0.648
      -0.632
      -0.685
      -0.748
      -0.751
      -0.625
      -0.323
       0.146
       0.714
       1.276
       1.739
       2.041
       2.162
       2.108
       1.919
       1.655
       1.383
       1.140
       0.921
       0.702
       0.477
       0.269
       0.112
       0.027
       0.005
       0.017
       0.031
       0.018
      -0.040
      -0.149
      -0.286
      -0.402
      -0.433
      -0.331
      -0.093
       0.242
       0.608
       0.942
       1.198
       1.348
       1.374
       1.268
