Origin Time       04/04/2011 11:31:40 UTC
Lat.              29.6 N	
Long.             80.8 E	
Depth (Km)         10.0
Magnitude         5.7
 Region           NEPAL-INDIA-BORDER-REGION                                        
 Above details taken from IMD 
    
Station Code      KOT
Station Lat.       29.748  N
Station Long.      78.523  E
Station Height(m)  389.0
Site Class        B   Vs30 between 375 m/sec to 700 m/sec *  
Record Time       04.04.2011 19:12:38.569 UTC
Sampling Rate     200. Hz
 Record Duration   65.015 Sec.
 Direction         N-S (N positive)
Max. Acceleration      4.099 cm/sec**2
     
  * For reference see Site Classification link of website 
     
 Base Line Corrected and Low Pass Filtered (Cut Off at 35 Hz) Time History
 Acceleration data in cm/sec**2
    
[...]
       0.442
       0.531
       0.636
       0.750
       0.854
       0.927
       0.957
       0.946
       0.899
       0.824
       0.731
       0.637
       0.561
       0.519
       0.508
       0.513
       0.511
       0.487
       0.435
       0.359
       0.264
       0.154
       0.030
      -0.108
      -0.248
      -0.369
      -0.448
      -0.475
      -0.466
      -0.454
      -0.470
      -0.532
      -0.632
      -0.743
      -0.831
      -0.869
      -0.846
      -0.774
      -0.675
      -0.571
      -0.466
      -0.357
      -0.238
      -0.108
       0.026
       0.158
       0.295
       0.440
       0.586
       0.709
       0.780
       0.787
       0.742
       0.668
       0.581
       0.479
       0.353
       0.200
       0.028
      -0.154
      -0.342
      -0.529
      -0.703
      -0.843
      -0.933
      -0.966
      -0.949
      -0.892
      -0.797
      -0.667
      -0.503
      -0.313
      -0.110
       0.094
       0.289
       0.468
       0.622
       0.737
       0.798
       0.805
       0.772
       0.717
       0.643
       0.536
       0.380
       0.183
      -0.019
      -0.181
      -0.279
      -0.318
      -0.314
      -0.270
      -0.171
      -0.008
       0.198
       0.417
       0.636
       0.859
       1.083
       1.273
       1.381
       1.379
       1.282
       1.133
       0.981
       0.862
       0.792
       0.773
       0.791
       0.816
       0.815
       0.754
       0.615
       0.414
       0.193
       0.003
      -0.120
      -0.167
      -0.148
      -0.077
       0.035
       0.172
       0.308
       0.409
       0.454
       0.445
       0.398
       0.333
       0.266
       0.205
       0.151
       0.107
       0.076
       0.068
       0.097
       0.168
       0.272
       0.381
       0.461
       0.483
       0.439
       0.328
       0.159
      -0.057
      -0.305
      -0.561
      -0.797
      -0.990
      -1.124
      -1.198
      -1.216
      -1.181
      -1.096
      -0.963
      -0.794
      -0.610
      -0.433
      -0.274
      -0.134
      -0.010
       0.091
       0.155
       0.175
       0.165
       0.146
       0.135
       0.139
       0.153
       0.182
       0.234
       0.313
       0.403
       0.477
       0.514
       0.509
       0.479
       0.447
       0.432
       0.443
       0.474
       0.510
       0.528
       0.514
       0.465
       0.393
       0.320
       0.266
       0.241
       0.244
       0.260
       0.276
       0.280
       0.265
       0.231
       0.183
       0.132
       0.090
       0.059
       0.043
       0.044
       0.064
       0.097
       0.122
       0.118
       0.072
      -0.009
      -0.107
      -0.212
      -0.321
      -0.432
      -0.538
      -0.621
      -0.666
      -0.664
      -0.619
      -0.545
      -0.465
      -0.399
      -0.365
      -0.365
      -0.387
      -0.408
      -0.412
      -0.392
      -0.357
      -0.321
      -0.295
      -0.289
      -0.308
      -0.352
      -0.408
      -0.458
      -0.482
      -0.465
      -0.402
      -0.291
      -0.138
       0.040
       0.220
       0.377
       0.488
       0.536
       0.509
       0.409
       0.248
       0.050
      -0.154
      -0.338
      -0.485
      -0.598
      -0.695
      -0.801
      -0.931
      -1.079
      -1.223
      -1.336
      -1.403
      -1.428
      -1.424
      -1.396
      -1.331
      -1.208
      -1.018
      -0.785
      -0.546
      -0.331
      -0.137
       0.057
       0.257
       0.442
       0.583
       0.678
       0.748
       0.807
       0.849
       0.855
       0.817
       0.737
       0.622
       0.470
       0.288
       0.092
      -0.083
      -0.208
      -0.270
      -0.279
      -0.259
      -0.227
      -0.176
      -0.083
       0.076
       0.301
       0.573
       0.860
       1.138
       1.385
       1.574
       1.674
       1.663
       1.543
       1.337
       1.076
       0.780
       0.456
       0.100
      -0.285
      -0.687
      -1.072
      -1.394
      -1.607
      -1.688
      -1.641
      -1.502
      -1.313
      -1.113
      -0.925
      -0.756
      -0.601
      -0.442
      -0.261
      -0.046
       0.197
       0.455
       0.708
       0.945
       1.163
       1.360
       1.532
       1.668
       1.757
       1.795
       1.788
       1.747
       1.682
       1.595
       1.484
       1.355
       1.223
       1.110
       1.035
       0.995
       0.972
       0.939
       0.878
       0.788
       0.686
       0.596
       0.539
       0.522
       0.536
       0.554
       0.545
       0.484
       0.367
       0.208
       0.031
      -0.142
      -0.296
      -0.420
      -0.501
      -0.528
      -0.493
      -0.408
      -0.303
      -0.215
      -0.178
      -0.199
      -0.259
      -0.318
      -0.346
      -0.336
      -0.303
      -0.266
      -0.231
      -0.192
      -0.149
      -0.114
      -0.108
      -0.142
      -0.210
      -0.297
      -0.383
      -0.458
      -0.517
      -0.550
      -0.546
      -0.492
      -0.380
      -0.210
       0.005
       0.243
       0.470
       0.651
       0.761
       0.792
       0.755
       0.672
       0.559
       0.426
       0.275
       0.101
      -0.094
      -0.304
      -0.516
      -0.717
      -0.900
      -1.070
      -1.228
      -1.364
      -1.458
      -1.490
      -1.459
      -1.383
      -1.287
      -1.188
      -1.091
      -0.995
      -0.905
      -0.829
      -0.775
      -0.744
      -0.723
      -0.695
      -0.640
      -0.554
      -0.458
      -0.386
      -0.364
      -0.376
      -0.381
      -0.337
      -0.235
      -0.089
       0.083
       0.275
       0.485
       0.685
       0.832
       0.894
       0.877
       0.816
       0.742
       0.664
       0.579
       0.482
       0.383
       0.300
       0.248
       0.237
       0.272
       0.355
       0.476
       0.616
       0.743
       0.830
       0.866
       0.860
       0.829
       0.781
       0.708
       0.590
       0.418
       0.213
       0.017
      -0.134
      -0.233
      -0.307
      -0.396
      -0.525
      -0.693
      -0.871
      -1.031
      -1.154
      -1.233
      -1.274
      -1.281
      -1.257
      -1.206
      -1.135
      -1.063
      -1.007
      -0.976
      -0.960
      -0.935
      -0.880
      -0.794
      -0.696
      -0.618
      -0.588
      -0.615
      -0.691
      -0.787
      -0.873
      -0.924
      -0.924
      -0.869
      -0.757
      -0.595
      -0.397
      -0.184
       0.028
       0.235
       0.437
       0.632
       0.809
       0.953
       1.059
       1.130
       1.177
       1.203
       1.210
       1.197
       1.175
       1.151
       1.128
       1.086
       0.995
       0.831
       0.591
       0.303
       0.007
      -0.263
      -0.491
      -0.674
      -0.813
      -0.906
      -0.948
      -0.935
      -0.868
      -0.751
      -0.586
      -0.381
      -0.149
       0.094
       0.331
       0.552
       0.747
       0.901
       0.994
       1.003
       0.923
       0.770
       0.579
       0.377
       0.179
      -0.020
      -0.229
      -0.446
      -0.654
      -0.826
      -0.946
      -1.016
      -1.058
      -1.101
      -1.167
      -1.262
      -1.379
      -1.505
      -1.623
      -1.711
      -1.747
      -1.712
      -1.599
      -1.426
      -1.219
      -1.002
      -0.789
      -0.585
      -0.395
      -0.225
      -0.079
       0.045
       0.156
       0.260
       0.355
       0.432
       0.475
       0.466
       0.383
       0.205
      -0.083
      -0.472
      -0.929
      -1.404
      -1.850
      -2.233
      -2.536
      -2.750
      -2.867
      -2.881
      -2.788
      -2.588
      -2.291
      -1.919
      -1.504
      -1.079
      -0.669
      -0.286
       0.061
       0.357
       0.592
       0.771
       0.921
       1.085
       1.293
       1.553
       1.844
       2.130
       2.366
       2.512
       2.541
       2.448
       2.258
       2.021
       1.802
       1.659
       1.620
       1.684
       1.832
       2.040
       2.275
       2.494
       2.650
       2.704
       2.650
       2.509
       2.311
       2.075
       1.799
       1.485
       1.154
       0.836
       0.555
       0.322
       0.138
       0.008
      -0.066
      -0.096
      -0.098
      -0.089
      -0.066
      -0.015
       0.080
       0.227
       0.426
       0.678
       0.986
       1.350
       1.752
       2.149
       2.488
       2.722
       2.830
       2.813
       2.686
       2.467
       2.179
       1.859
       1.548
       1.283
       1.072
       0.896
       0.726
       0.539
       0.335
       0.129
      -0.060
      -0.209
      -0.304
      -0.337
      -0.317
      -0.263
      -0.194
      -0.120
      -0.042
       0.043
       0.133
       0.229
       0.341
       0.485
       0.668
       0.879
       1.084
       1.238
       1.307
       1.281
       1.177
       1.031
       0.884
       0.764
       0.684
       0.636
       0.600
       0.551
       0.472
       0.354
       0.202
       0.036
      -0.115
      -0.227
      -0.289
      -0.303
      -0.287
      -0.260
      -0.237
      -0.231
      -0.247
      -0.291
      -0.365
      -0.467
      -0.591
      -0.723
      -0.849
      -0.951
      -1.015
      -1.034
      -1.015
      -0.978
      -0.945
      -0.933
      -0.956
      -1.026
      -1.158
      -1.363
      -1.636
      -1.946
      -2.239
      -2.460
      -2.572
      -2.562
      -2.441
      -2.229
      -1.949
      -1.621
      -1.260
      -0.881
      -0.505
      -0.154
       0.152
       0.408
       0.621
       0.803
       0.967
       1.113
       1.236
       1.328
       1.388
       1.420
       1.425
       1.400
       1.332
       1.206
       1.018
       0.790
       0.565
       0.387
       0.278
       0.228
       0.204
       0.180
       0.141
       0.073
      -0.045
      -0.235
      -0.503
      -0.831
      -1.184
      -1.525
      -1.830
      -2.082
      -2.272
      -2.396
      -2.452
      -2.448
      -2.385
      -2.260
      -2.064
      -1.802
      -1.507
      -1.231
      -1.016
      -0.878
      -0.797
      -0.727
      -0.618
      -0.434
      -0.168
       0.157
       0.491
       0.776
       0.965
       1.034
       0.988
       0.853
       0.667
       0.465
       0.276
       0.104
      -0.063
      -0.237
      -0.418
      -0.591
      -0.742
      -0.871
      -0.986
      -1.088
      -1.170
      -1.226
      -1.270
      -1.318
      -1.365
      -1.378
      -1.328
      -1.217
      -1.070
      -0.908
      -0.728
      -0.521
      -0.295
      -0.079
       0.097
       0.225
       0.315
       0.374
       0.402
       0.384
       0.304
       0.157
      -0.042
      -0.265
      -0.473
      -0.639
      -0.751
      -0.820
      -0.868
      -0.920
      -0.987
      -1.054
      -1.087
      -1.048
      -0.923
      -0.733
      -0.524
      -0.332
      -0.162
       0.000
       0.165
       0.322
       0.438
       0.480
       0.434
       0.308
       0.134
      -0.046
      -0.192
      -0.278
      -0.303
      -0.288
      -0.267
      -0.267
      -0.289
      -0.305
      -0.272
      -0.153
       0.063
       0.364
       0.731
       1.152
       1.616
       2.099
       2.550
       2.898
       3.079
       3.049
       2.794
       2.331
       1.702
       0.971
       0.211
      -0.513
      -1.156
      -1.692
      -2.104
      -2.379
      -2.511
      -2.513
      -2.418
      -2.265
      -2.075
      -1.845
      -1.560
      -1.210
      -0.815
      -0.419
      -0.077
       0.173
       0.320
       0.376
       0.353
       0.252
       0.061
      -0.229
      -0.601
      -1.012
      -1.404
      -1.728
      -1.951
      -2.052
      -2.006
      -1.800
      -1.437
      -0.944
      -0.370
       0.235
       0.821
       1.346
       1.771
       2.072
       2.242
       2.295
       2.252
       2.135
       1.963
       1.755
       1.525
       1.276
       0.993
       0.656
       0.256
      -0.200
      -0.692
      -1.195
      -1.685
      -2.137
      -2.512
      -2.771
      -2.881
      -2.831
      -2.637
      -2.339
      -1.984
      -1.617
      -1.271
      -0.976
      -0.759
      -0.639
      -0.617
      -0.664
      -0.731
      -0.761
      -0.716
      -0.586
      -0.394
      -0.171
       0.059
       0.288
       0.516
       0.745
       0.971
       1.183
       1.373
       1.539
       1.684
       1.806
       1.895
       1.935
       1.912
       1.832
       1.718
       1.596
       1.477
       1.348
       1.182
       0.955
       0.659
       0.304
      -0.084
      -0.475
      -0.839
      -1.157
      -1.420
      -1.629
      -1.778
      -1.849
      -1.819
      -1.693
      -1.507
      -1.318
      -1.158
      -1.009
      -0.825
      -0.580
      -0.292
      -0.007
       0.251
       0.494
       0.750
       1.024
       1.295
       1.542
       1.769
       2.003
       2.261
       2.544
       2.834
       3.107
       3.337
       3.483
       3.492
       3.313
       2.926
       2.351
       1.652
       0.912
       0.202
      -0.433
      -0.976
      -1.414
      -1.719
      -1.855
      -1.807
      -1.598
      -1.272
      -0.867
      -0.397
       0.137
       0.733
       1.372
       2.021
       2.646
       3.207
       3.662
       3.968
       4.099
       4.046
       3.812
       3.401
       2.815
       2.070
       1.212
       0.316
      -0.532
      -1.256
      -1.808
      -2.155
      -2.275
      -2.160
      -1.819
      -1.284
      -0.611
       0.138
       0.908
       1.649
       2.325
       2.905
       3.365
       3.685
       3.843
       3.819
       3.596
       3.177
       2.591
       1.894
       1.154
       0.427
      -0.252
      -0.872
      -1.427
      -1.905
      -2.281
      -2.523
      -2.602
      -2.500
      -2.224
      -1.803
      -1.291
      -0.751
      -0.250
       0.159
       0.445
       0.594
       0.608
       0.495
       0.264
      -0.073
      -0.499
      -0.983
      -1.492
      -1.990
      -2.453
      -2.863
      -3.201
      -3.440
      -3.541
      -3.468
      -3.205
      -2.768
      -2.187
      -1.498
      -0.731
       0.081
       0.887
       1.621
       2.220
       2.639
       2.871
       2.925
       2.816
       2.557
       2.164
       1.670
       1.117
       0.546
      -0.013
      -0.524
      -0.945
      -1.231
      -1.365
      -1.369
      -1.299
      -1.213
      -1.149
      -1.112
      -1.085
      -1.049
      -0.990
      -0.916
      -0.841
      -0.782
      -0.745
      -0.728
      -0.727
      -0.747
      -0.800
      -0.895
      -1.033
      -1.207
      -1.405
      -1.619
      -1.834
      -2.020
      -2.126
      -2.100
      -1.900
      -1.510
      -0.948
      -0.256
       0.493
       1.215
       1.825
       2.267
       2.522
       2.615
       2.595
       2.506
       2.366
       2.164
       1.879
       1.504
       1.051
       0.549
       0.034
      -0.467
      -0.935
      -1.369
      -1.773
      -2.140
      -2.437
      -2.622
      -2.673
      -2.613
      -2.481
      -2.302
      -2.055
      -1.704
      -1.234
      -0.681
      -0.107
       0.446
       0.959
       1.427
       1.841
       2.199
       2.508
       2.773
       2.989
       3.132
       3.176
       3.115
       2.963
       2.748
       2.495
       2.208
       1.876
       1.476
       0.998
       0.454
      -0.123
      -0.695
      -1.238
      -1.732
      -2.153
      -2.467
      -2.648
      -2.700
      -2.654
      -2.541
      -2.358
      -2.078
      -1.673
      -1.151
      -0.559
       0.040
       0.591
       1.049
       1.375
       1.541
       1.539
       1.395
       1.163
       0.900
       0.642
       0.397
       0.157
      -0.085
      -0.315
      -0.504
      -0.615
      -0.621
      -0.518
      -0.319
      -0.047
       0.278
       0.642
       1.031
       1.421
       1.784
       2.087
       2.312
       2.454
       2.519
       2.521
       2.475
       2.396
       2.294
       2.182
       2.071
       1.975
       1.906
       1.870
       1.860
       1.855
       1.821
       1.720
       1.525
       1.236
       0.886
       0.530
       0.223
      -0.011
      -0.184
      -0.342
      -0.532
      -0.785
      -1.104
      -1.468
      -1.842
      -2.183
      -2.443
      -2.586
      -2.596
      -2.488
      -2.296
      -2.065
      -1.833
      -1.624
      -1.452
      -1.319
      -1.220
      -1.144
      -1.078
      -1.010
      -0.928
      -0.825
      -0.697
      -0.552
      -0.401
      -0.255
      -0.115
       0.023
       0.157
       0.283
       0.389
       0.470
       0.523
       0.549
       0.547
       0.514
       0.442
       0.327
       0.183
       0.036
      -0.080
      -0.138
      -0.139
      -0.107
      -0.081
      -0.087
      -0.123
      -0.160
      -0.162
      -0.112
      -0.017
       0.102
       0.219
       0.312
       0.368
       0.383
       0.371
       0.358
       0.375
       0.441
       0.555
       0.697
       0.841
       0.955
       1.008
       0.975
       0.855
       0.667
       0.454
       0.261
       0.120
       0.036
      -0.018
      -0.084
      -0.205
      -0.403
      -0.677
      -1.010
      -1.382
      -1.767
      -2.142
      -2.476
      -2.739
      -2.909
      -2.983
      -2.986
      -2.949
      -2.894
      -2.825
      -2.730
      -2.596
      -2.420
      -2.207
      -1.963
      -1.690
      -1.383
      -1.039
      -0.660
      -0.263
       0.127
       0.480
       0.776
       1.008
       1.183
       1.314
       1.418
       1.517
       1.631
       1.775
       1.943
       2.107
       2.225
       2.251
       2.154
       1.928
       1.602
       1.236
       0.899
       0.650
       0.513
       0.478
       0.509
       0.563
       0.603
       0.602
       0.546
       0.428
       0.251
       0.025
      -0.229
      -0.472
      -0.664
      -0.772
      -0.793
      -0.756
      -0.703
      -0.670
      -0.666
      -0.685
      -0.719
      -0.763
      -0.817
      -0.867
      -0.883
      -0.827
      -0.668
      -0.399
      -0.035
       0.393
       0.850
       1.295
       1.688
       1.998
       2.208
       2.322
       2.354
       2.322
       2.233
       2.087
       1.884
       1.631
       1.341
       1.024
       0.682
       0.309
      -0.098
      -0.534
      -0.978
      -1.398
      -1.761
      -2.044
      -2.234
      -2.329
      -2.331
      -2.245
      -2.076
      -1.830
      -1.519
      -1.163
      -0.787
      -0.425
      -0.108
       0.144
       0.328
       0.458
       0.555
       0.636
       0.708
       0.769
       0.817
       0.857
       0.901
       0.955
       1.022
       1.095
       1.169
       1.236
       1.287
       1.306
       1.274
       1.174
       1.004
       0.780
       0.541
       0.332
       0.192
       0.133
       0.136
       0.154
       0.131
       0.016
      -0.217
      -0.562
      -0.981
      -1.408
