Origin Time       12/12/2010 01:40:04
Lat.              25.0 N	
Long.             93.3 E	
Depth (Km)         15.0
Magnitude         4.8
 Region           Manipur-Assam-Border                                             
 Above details taken from IMD 
   
Station Code      KRM
Station Lat.       24.870
Station Long.      92.354
Station Height(m)   35.0
Site Class        C   Vs30 between 200 m/sec to 375 m/sec *  
Record Time       12.12.2010 01:40:09.879
Sampling Rate     200. Hz
 Record Duration   82.205 Sec.
 Direction         Vert. (Up positive)
Max. Acceleration     -1.030 cm/sec**2
     
  * For reference see Site Classification link of website 
     
 Base Line Corrected and Low Pass Filtered (Cut Off at 35 Hz) Time History
 Acceleration data in cm/sec**2
    
[...]
      -0.017
      -0.010
       0.005
       0.011
       0.002
      -0.010
      -0.010
       0.009
       0.028
       0.028
       0.003
      -0.029
      -0.043
      -0.028
      -0.001
       0.010
      -0.001
      -0.018
      -0.019
      -0.001
       0.020
       0.021
       0.003
      -0.013
      -0.008
       0.015
       0.034
       0.028
       0.001
      -0.018
      -0.010
       0.018
       0.036
       0.028
       0.001
      -0.019
      -0.014
       0.007
       0.018
       0.007
      -0.013
      -0.017
       0.006
       0.036
       0.046
       0.024
      -0.009
      -0.024
      -0.009
       0.018
       0.027
       0.008
      -0.021
      -0.029
      -0.010
       0.016
       0.021
       0.001
      -0.022
      -0.024
      -0.002
       0.023
       0.028
       0.010
      -0.010
      -0.010
       0.009
       0.029
       0.027
       0.005
      -0.019
      -0.025
      -0.011
       0.006
       0.010
       0.002
      -0.003
       0.005
       0.021
       0.026
       0.011
      -0.013
      -0.025
      -0.014
       0.007
       0.018
       0.011
      -0.002
      -0.003
       0.013
       0.029
       0.025
       0.002
      -0.023
      -0.027
      -0.011
       0.008
       0.011
      -0.003
      -0.018
      -0.016
       0.004
       0.024
       0.024
       0.005
      -0.014
      -0.016
      -0.001
       0.014
       0.014
       0.002
      -0.004
       0.006
       0.024
       0.028
       0.010
      -0.017
      -0.030
      -0.019
       0.001
       0.007
      -0.007
      -0.023
      -0.021
       0.000
       0.021
       0.022
      -0.002
      -0.029
      -0.035
      -0.015
       0.011
       0.021
       0.009
      -0.009
      -0.013
       0.003
       0.024
       0.031
       0.017
      -0.005
      -0.017
      -0.012
      -0.004
      -0.004
      -0.011
      -0.010
       0.006
       0.030
       0.039
       0.025
      -0.001
      -0.016
      -0.006
       0.019
       0.033
       0.024
       0.003
      -0.008
       0.001
       0.021
       0.030
       0.018
      -0.004
      -0.016
      -0.007
       0.009
       0.014
      -0.001
      -0.019
      -0.018
       0.005
       0.028
       0.028
       0.003
      -0.027
      -0.036
      -0.020
       0.003
       0.008
      -0.004
      -0.015
      -0.007
       0.015
       0.027
       0.015
      -0.015
      -0.036
      -0.029
      -0.002
       0.019
       0.016
      -0.005
      -0.017
      -0.006
       0.017
       0.029
       0.015
      -0.013
      -0.028
      -0.018
       0.006
       0.018
       0.008
      -0.013
      -0.020
      -0.004
       0.020
       0.027
       0.010
      -0.014
      -0.022
      -0.008
       0.009
       0.009
      -0.009
      -0.023
      -0.015
       0.012
       0.033
       0.029
       0.005
      -0.016
      -0.016
       0.001
       0.014
       0.009
      -0.006
      -0.011
       0.004
       0.026
       0.033
       0.017
      -0.010
      -0.025
      -0.017
       0.001
       0.008
      -0.005
      -0.026
      -0.030
      -0.010
       0.019
       0.030
       0.015
      -0.008
      -0.016
      -0.002
       0.018
       0.021
       0.003
      -0.018
      -0.020
       0.002
       0.028
       0.032
       0.010
      -0.018
      -0.026
      -0.011
       0.007
       0.009
      -0.008
      -0.023
      -0.019
       0.001
       0.018
       0.016
      -0.001
      -0.016
      -0.012
       0.004
       0.013
       0.006
      -0.009
      -0.011
       0.005
       0.028
       0.035
       0.018
      -0.008
      -0.019
      -0.011
       0.003
       0.002
      -0.016
      -0.033
      -0.029
      -0.007
       0.015
       0.016
      -0.005
      -0.026
      -0.026
      -0.006
       0.018
       0.022
       0.005
      -0.016
      -0.020
      -0.004
       0.014
       0.018
       0.003
      -0.014
      -0.017
      -0.004
       0.008
       0.008
      -0.004
      -0.011
      -0.003
       0.009
       0.010
      -0.009
      -0.032
      -0.037
      -0.016
       0.013
       0.022
       0.004
      -0.021
      -0.025
      -0.004
       0.021
       0.025
       0.003
      -0.024
      -0.034
      -0.021
      -0.003
      -0.002
      -0.017
      -0.029
      -0.020
       0.007
       0.027
       0.023
      -0.002
      -0.023
      -0.019
       0.004
       0.021
       0.015
      -0.008
      -0.022
      -0.012
       0.012
       0.024
       0.011
      -0.016
      -0.032
      -0.023
      -0.001
       0.010
      -0.002
      -0.025
      -0.033
      -0.014
       0.017
       0.033
       0.023
      -0.002
      -0.016
      -0.008
       0.012
       0.020
       0.006
      -0.016
      -0.024
      -0.013
       0.004
       0.005
      -0.012
      -0.030
      -0.029
      -0.008
       0.014
       0.016
       0.001
      -0.013
      -0.009
       0.011
       0.025
       0.021
       0.004
      -0.008
      -0.004
       0.009
       0.015
       0.006
      -0.008
      -0.009
       0.008
       0.027
       0.029
       0.008
      -0.018
      -0.024
      -0.005
       0.020
       0.026
       0.007
      -0.017
      -0.019
       0.006
       0.034
       0.036
       0.007
      -0.026
      -0.033
      -0.008
       0.021
       0.027
       0.006
      -0.018
      -0.021
       0.000
       0.024
       0.028
       0.013
      -0.004
      -0.006
       0.006
       0.014
       0.004
      -0.013
      -0.018
      -0.003
       0.021
       0.026
       0.005
      -0.024
      -0.032
      -0.009
       0.023
       0.035
       0.017
      -0.008
      -0.015
       0.002
       0.023
       0.024
       0.003
      -0.018
      -0.017
       0.005
       0.025
       0.021
      -0.003
      -0.021
      -0.014
       0.014
       0.034
       0.025
      -0.005
      -0.030
      -0.029
      -0.005
       0.015
       0.012
      -0.006
      -0.017
      -0.006
       0.018
       0.032
       0.021
      -0.002
      -0.013
      -0.001
       0.020
       0.024
       0.004
      -0.022
      -0.027
      -0.005
       0.023
       0.030
       0.011
      -0.014
      -0.020
      -0.001
       0.022
       0.023
       0.000
      -0.026
      -0.030
      -0.012
       0.007
       0.006
      -0.015
      -0.034
      -0.029
      -0.002
       0.024
       0.029
       0.011
      -0.007
      -0.007
       0.009
       0.019
       0.009
      -0.014
      -0.028
      -0.021
      -0.001
       0.010
       0.001
      -0.016
      -0.019
      -0.003
       0.019
       0.024
       0.006
      -0.019
      -0.030
      -0.020
      -0.004
      -0.001
      -0.015
      -0.028
      -0.024
      -0.004
       0.015
       0.014
      -0.006
      -0.026
      -0.029
      -0.015
      -0.001
      -0.003
      -0.020
      -0.030
      -0.019
       0.008
       0.025
       0.015
      -0.013
      -0.034
      -0.030
      -0.009
       0.003
      -0.008
      -0.031
      -0.039
      -0.020
       0.009
       0.022
       0.006
      -0.023
      -0.038
      -0.027
      -0.004
       0.008
      -0.001
      -0.017
      -0.017
       0.002
       0.022
       0.020
      -0.008
      -0.040
      -0.050
      -0.031
      -0.004
       0.004
      -0.010
      -0.027
      -0.025
      -0.004
       0.016
       0.014
      -0.010
      -0.031
      -0.031
      -0.010
       0.009
       0.011
      -0.003
      -0.012
      -0.006
       0.010
       0.018
       0.007
      -0.014
      -0.025
      -0.017
       0.000
       0.007
      -0.003
      -0.017
      -0.016
       0.001
       0.020
       0.020
       0.000
      -0.023
      -0.026
      -0.007
       0.015
       0.015
      -0.010
      -0.037
      -0.042
      -0.020
       0.009
       0.020
       0.008
      -0.010
      -0.013
       0.001
       0.014
       0.010
      -0.007
      -0.017
      -0.007
       0.014
       0.026
       0.013
      -0.013
      -0.028
      -0.020
       0.003
       0.016
       0.006
      -0.015
      -0.024
      -0.008
       0.020
       0.032
       0.014
      -0.018
      -0.037
      -0.026
       0.002
       0.019
       0.012
      -0.007
      -0.013
       0.000
       0.017
       0.016
      -0.005
      -0.029
      -0.034
      -0.017
       0.005
       0.009
      -0.006
      -0.022
      -0.021
      -0.002
       0.013
       0.005
      -0.022
      -0.045
      -0.045
      -0.023
      -0.004
      -0.004
      -0.019
      -0.028
      -0.016
       0.007
       0.017
       0.004
      -0.020
      -0.031
      -0.021
      -0.002
       0.001
      -0.017
      -0.037
      -0.037
      -0.016
       0.007
       0.009
      -0.012
      -0.038
      -0.045
      -0.029
      -0.007
       0.002
      -0.008
      -0.022
      -0.020
      -0.003
       0.012
       0.007
      -0.017
      -0.037
      -0.035
      -0.014
       0.003
       0.001
      -0.016
      -0.026
      -0.015
       0.009
       0.023
       0.012
      -0.014
      -0.028
      -0.017
       0.008
       0.020
       0.008
      -0.017
      -0.030
      -0.020
       0.000
       0.010
       0.000
      -0.016
      -0.018
      -0.001
       0.020
       0.024
       0.006
      -0.017
      -0.023
      -0.007
       0.010
       0.008
      -0.014
      -0.034
      -0.030
      -0.004
       0.019
       0.018
      -0.004
      -0.022
      -0.016
       0.007
       0.022
       0.010
      -0.019
      -0.036
      -0.026
       0.001
       0.018
       0.008
      -0.018
      -0.032
      -0.019
       0.009
       0.024
       0.013
      -0.009
      -0.019
      -0.007
       0.013
       0.016
      -0.005
      -0.031
      -0.039
      -0.023
      -0.003
      -0.001
      -0.020
      -0.039
      -0.036
      -0.008
       0.023
       0.030
       0.010
      -0.016
      -0.025
      -0.013
       0.005
       0.011
       0.000
      -0.014
      -0.014
       0.001
       0.013
       0.007
      -0.013
      -0.024
      -0.012
       0.014
       0.030
       0.020
      -0.006
      -0.023
      -0.014
       0.008
       0.018
       0.008
      -0.008
      -0.007
       0.014
       0.035
       0.033
       0.006
      -0.025
      -0.034
      -0.019
       0.000
       0.003
      -0.012
      -0.025
      -0.019
       0.003
       0.019
       0.014
      -0.009
      -0.030
      -0.029
      -0.011
       0.008
       0.007
      -0.010
      -0.025
      -0.024
      -0.009
       0.002
      -0.002
      -0.016
      -0.021
      -0.006
       0.016
       0.022
       0.004
      -0.022
      -0.030
      -0.014
       0.008
       0.013
      -0.006
      -0.030
      -0.035
      -0.019
       0.001
       0.003
      -0.012
      -0.028
      -0.024
      -0.001
       0.020
       0.016
      -0.008
      -0.033
      -0.037
      -0.020
      -0.003
      -0.004
      -0.021
      -0.033
      -0.025
      -0.003
       0.012
       0.005
      -0.016
      -0.027
      -0.015
       0.008
       0.019
       0.006
      -0.018
      -0.030
      -0.018
       0.002
       0.008
      -0.010
      -0.034
      -0.040
      -0.021
       0.006
       0.016
       0.003
      -0.016
      -0.020
      -0.002
       0.018
       0.019
      -0.002
      -0.024
      -0.024
      -0.001
       0.023
       0.023
      -0.001
      -0.023
      -0.023
       0.000
       0.021
       0.019
      -0.004
      -0.025
      -0.024
      -0.007
       0.004
      -0.002
      -0.016
      -0.016
       0.006
       0.033
       0.040
       0.017
      -0.019
      -0.039
      -0.030
      -0.004
       0.011
       0.003
      -0.015
      -0.020
      -0.004
       0.017
       0.021
      -0.001
      -0.029
      -0.041
      -0.030
      -0.011
      -0.005
      -0.016
      -0.029
      -0.028
      -0.013
       0.000
      -0.004
      -0.021
      -0.034
      -0.026
      -0.003
       0.015
       0.012
      -0.005
      -0.016
      -0.006
       0.013
       0.021
       0.005
      -0.022
      -0.037
      -0.029
      -0.008
       0.001
      -0.009
      -0.026
      -0.029
      -0.009
       0.015
       0.024
       0.008
      -0.016
      -0.023
      -0.005
       0.023
       0.038
       0.031
       0.018
       0.020
       0.040
       0.061
       0.065
       0.051
       0.035
       0.036
       0.054
       0.074
       0.081
       0.076
       0.075
       0.092
       0.121
       0.142
       0.145
       0.136
       0.135
       0.158
       0.197
       0.231
       0.245
       0.242
       0.242
       0.258
       0.280
       0.284
       0.259
       0.214
       0.174
       0.150
       0.128
       0.083
       0.005
      -0.087
      -0.162
      -0.207
      -0.238
      -0.280
      -0.340
      -0.396
      -0.422
      -0.409
      -0.376
      -0.349
      -0.340
      -0.341
      -0.340
      -0.330
      -0.321
      -0.317
      -0.307
      -0.270
      -0.192
      -0.086
       0.019
       0.102
       0.168
       0.244
       0.346
       0.458
       0.536
       0.549
       0.497
       0.407
       0.307
       0.205
       0.088
      -0.048
      -0.186
      -0.299
      -0.375
      -0.426
      -0.479
      -0.552
      -0.642
      -0.739
      -0.836
      -0.931
      -1.008
      -1.030
      -0.959
      -0.780
      -0.527
      -0.267
      -0.061
       0.062
       0.117
       0.136
       0.144
       0.146
       0.141
       0.142
       0.169
       0.230
       0.315
       0.392
       0.443
       0.470
       0.495
       0.530
       0.559
       0.551
       0.488
       0.389
       0.289
       0.213
       0.153
       0.079
      -0.027
      -0.148
      -0.235
      -0.245
      -0.170
      -0.036
       0.112
       0.239
       0.323
       0.350
       0.317
       0.237
       0.147
       0.090
       0.090
       0.130
       0.173
       0.196
       0.211
       0.243
       0.297
       0.328
       0.270
       0.086
      -0.196
      -0.498
      -0.737
      -0.867
      -0.891
      -0.833
      -0.718
      -0.570
      -0.414
      -0.285
      -0.205
      -0.177
      -0.181
      -0.195
      -0.205
      -0.206
      -0.190
      -0.133
      -0.013
       0.169
       0.377
       0.552
       0.643
       0.636
       0.560
       0.461
       0.374
       0.308
       0.253
       0.198
       0.144
       0.092
       0.031
      -0.049
      -0.144
      -0.230
      -0.273
      -0.257
      -0.195
      -0.121
      -0.058
      -0.010
       0.033
       0.070
       0.081
       0.040
      -0.053
      -0.166
      -0.251
      -0.271
      -0.222
      -0.131
      -0.027
       0.072
       0.164
       0.241
       0.284
       0.273
       0.214
       0.139
       0.086
       0.074
       0.088
       0.104
       0.114
       0.129
       0.153
       0.163
       0.121
       0.009
      -0.148
      -0.291
      -0.366
      -0.356
      -0.276
      -0.158
      -0.035
       0.068
       0.124
       0.114
       0.039
      -0.067
      -0.156
      -0.185
      -0.146
      -0.062
       0.031
       0.109
       0.171
       0.230
       0.287
       0.318
       0.289
       0.186
       0.031
      -0.120
      -0.218
      -0.248
      -0.229
      -0.185
      -0.128
      -0.058
       0.017
       0.071
       0.078
       0.036
      -0.024
      -0.064
      -0.067
      -0.044
      -0.015
       0.012
       0.040
       0.069
       0.083
       0.067
       0.018
      -0.040
      -0.074
      -0.069
      -0.038
      -0.007
       0.009
       0.017
       0.035
       0.066
       0.094
       0.097
       0.072
       0.039
       0.025
       0.040
       0.061
       0.053
       0.003
      -0.074
      -0.143
      -0.182
      -0.194
      -0.189
      -0.172
      -0.133
      -0.064
       0.018
       0.077
       0.090
       0.061
       0.023
       0.007
       0.014
       0.024
       0.017
      -0.007
      -0.027
      -0.025
      -0.003
       0.027
       0.054
       0.087
       0.133
       0.188
       0.228
       0.225
       0.175
       0.098
       0.023
      -0.038
      -0.092
      -0.152
      -0.207
      -0.227
      -0.190
      -0.111
      -0.034
      -0.006
      -0.036
      -0.095
      -0.135
      -0.128
      -0.079
      -0.012
       0.048
       0.096
       0.130
       0.146
       0.125
       0.059
      -0.044
      -0.154
      -0.239
      -0.281
      -0.282
      -0.250
      -0.188
      -0.102
      -0.015
       0.039
       0.033
      -0.024
      -0.090
      -0.120
      -0.101
      -0.056
      -0.019
      -0.006
      -0.004
       0.009
       0.037
       0.063
       0.072
       0.068
       0.073
       0.105
       0.159
       0.204
       0.212
       0.176
       0.117
       0.060
       0.018
      -0.014
      -0.044
      -0.065
      -0.065
      -0.040
      -0.012
      -0.013
      -0.062
      -0.148
      -0.229
      -0.270
      -0.267
      -0.246
      -0.229
      -0.217
      -0.191
      -0.143
      -0.091
      -0.060
      -0.056
      -0.059
      -0.041
       0.008
       0.066
       0.107
       0.118
       0.114
       0.116
       0.135
       0.163
       0.191
       0.219
       0.256
       0.302
       0.343
       0.352
       0.316
       0.245
       0.172
       0.127
       0.111
       0.096
       0.048
      -0.041
      -0.146
      -0.227
      -0.256
      -0.234
      -0.178
      -0.105
      -0.026
       0.051
       0.105
       0.114
       0.073
       0.002
      -0.063
      -0.096
      -0.096
      -0.074
      -0.035
       0.027
       0.120
       0.235
       0.337
       0.389
       0.374
       0.301
       0.197
       0.083
      -0.036
      -0.159
      -0.274
      -0.353
      -0.372
      -0.330
      -0.260
      -0.203
      -0.173
      -0.155
      -0.124
      -0.077
      -0.039
      -0.039
      -0.080
      -0.139
      -0.180
      -0.188
      -0.168
      -0.130
      -0.078
      -0.010
       0.072
       0.151
       0.205
       0.224
       0.214
       0.198
       0.192
       0.190
       0.169
       0.112
       0.028
      -0.051
      -0.101
      -0.123
      -0.138
      -0.162
      -0.189
      -0.198
      -0.176
      -0.134
      -0.091
      -0.054
      -0.016
       0.028
       0.064
       0.064
       0.011
      -0.071
      -0.135
      -0.141
      -0.087
      -0.010
       0.044
       0.061
       0.061
       0.074
       0.106
       0.134
       0.127
       0.074
      -0.007
      -0.086
      -0.141
      -0.166
      -0.162
      -0.128
      -0.066
       0.006
       0.053
       0.045
      -0.013
      -0.088
      -0.142
      -0.162
      -0.167
      -0.183
      -0.208
      -0.218
      -0.184
      -0.106
      -0.011
       0.067
       0.116
       0.148
       0.177
       0.207
       0.223
       0.209
       0.168
       0.126
       0.107
       0.119
       0.140
       0.145
       0.120
       0.076
       0.030
      -0.009
      -0.049
