Origin Time       12/12/2010 01:40:04 UTC
Lat.              25.0 N	
Long.             93.3 E	
Depth (Km)         15.0
Magnitude         4.8
 Region           Manipur-Assam-Border                                             
 Above details taken from IMD 
    
Station Code      KRM
Station Lat.       24.870  N
Station Long.      92.354  E
Station Height(m)   35.0
Site Class        C   Vs30 between 200 m/sec to 375 m/sec *  
Record Time       12.12.2010 01:40:09.879 UTC
Sampling Rate     200. Hz
 Record Duration   82.205 Sec.
 Direction         N-S (N positive)
Max. Acceleration      4.639 cm/sec**2
     
  * For reference see Site Classification link of website 
     
 Base Line Corrected and Low Pass Filtered (Cut Off at 35 Hz) Time History
 Acceleration data in cm/sec**2
    
[...]
       0.056
       0.030
      -0.008
      -0.041
      -0.061
      -0.073
      -0.091
      -0.119
      -0.147
      -0.162
      -0.162
      -0.160
      -0.166
      -0.177
      -0.178
      -0.154
      -0.111
      -0.064
      -0.028
      -0.004
       0.019
       0.047
       0.076
       0.089
       0.077
       0.046
       0.010
      -0.018
      -0.039
      -0.060
      -0.084
      -0.102
      -0.100
      -0.074
      -0.034
       0.006
       0.039
       0.068
       0.101
       0.139
       0.175
       0.202
       0.221
       0.236
       0.257
       0.288
       0.327
       0.366
       0.401
       0.430
       0.449
       0.444
       0.404
       0.327
       0.228
       0.128
       0.042
      -0.031
      -0.102
      -0.178
      -0.249
      -0.298
      -0.315
      -0.309
      -0.297
      -0.288
      -0.276
      -0.248
      -0.202
      -0.150
      -0.109
      -0.085
      -0.067
      -0.037
       0.009
       0.060
       0.099
       0.117
       0.118
       0.112
       0.103
       0.089
       0.061
       0.018
      -0.030
      -0.068
      -0.093
      -0.116
      -0.151
      -0.202
      -0.257
      -0.300
      -0.324
      -0.335
      -0.339
      -0.335
      -0.313
      -0.267
      -0.206
      -0.146
      -0.099
      -0.063
      -0.028
       0.013
       0.055
       0.089
       0.106
       0.108
       0.106
       0.104
       0.099
       0.084
       0.059
       0.034
       0.023
       0.027
       0.036
       0.038
       0.031
       0.024
       0.026
       0.032
       0.029
       0.010
      -0.014
      -0.025
      -0.007
       0.037
       0.087
       0.121
       0.129
       0.119
       0.108
       0.107
       0.114
       0.120
       0.119
       0.114
       0.114
       0.119
       0.125
       0.127
       0.125
       0.128
       0.144
       0.173
       0.204
       0.221
       0.221
       0.206
       0.183
       0.150
       0.103
       0.043
      -0.017
      -0.060
      -0.077
      -0.077
      -0.076
      -0.086
      -0.101
      -0.106
      -0.094
      -0.071
      -0.049
      -0.035
      -0.021
       0.002
       0.035
       0.065
       0.080
       0.079
       0.076
       0.085
       0.104
       0.115
       0.104
       0.071
       0.031
      -0.001
      -0.025
      -0.052
      -0.092
      -0.144
      -0.196
      -0.235
      -0.260
      -0.277
      -0.289
      -0.287
      -0.263
      -0.215
      -0.156
      -0.101
      -0.056
      -0.016
       0.029
       0.086
       0.149
       0.205
       0.242
       0.263
       0.278
       0.289
       0.293
       0.280
       0.251
       0.216
       0.187
       0.169
       0.151
       0.118
       0.069
       0.017
      -0.024
      -0.054
      -0.081
      -0.115
      -0.153
      -0.181
      -0.187
      -0.174
      -0.149
      -0.121
      -0.089
      -0.044
       0.012
       0.065
       0.098
       0.108
       0.104
       0.101
       0.108
       0.120
       0.123
       0.111
       0.085
       0.056
       0.026
      -0.010
      -0.056
      -0.106
      -0.144
      -0.158
      -0.149
      -0.136
      -0.136
      -0.152
      -0.176
      -0.192
      -0.202
      -0.213
      -0.234
      -0.258
      -0.273
      -0.269
      -0.248
      -0.224
      -0.207
      -0.197
      -0.183
      -0.158
      -0.124
      -0.094
      -0.073
      -0.054
      -0.027
       0.013
       0.057
       0.092
       0.113
       0.130
       0.151
       0.181
       0.210
       0.224
       0.221
       0.210
       0.204
       0.205
       0.208
       0.203
       0.188
       0.170
       0.156
       0.144
       0.126
       0.098
       0.065
       0.038
       0.025
       0.020
       0.011
      -0.007
      -0.028
      -0.039
      -0.034
      -0.018
       0.003
       0.025
       0.054
       0.100
       0.158
       0.216
       0.258
       0.278
       0.280
       0.273
       0.263
       0.244
       0.211
       0.166
       0.120
       0.085
       0.062
       0.043
       0.018
      -0.009
      -0.029
      -0.036
      -0.038
      -0.051
      -0.085
      -0.133
      -0.175
      -0.196
      -0.197
      -0.188
      -0.180
      -0.171
      -0.154
      -0.128
      -0.102
      -0.085
      -0.084
      -0.091
      -0.096
      -0.096
      -0.095
      -0.101
      -0.117
      -0.132
      -0.139
      -0.139
      -0.139
      -0.148
      -0.164
      -0.175
      -0.172
      -0.152
      -0.131
      -0.122
      -0.128
      -0.135
      -0.130
      -0.113
      -0.094
      -0.083
      -0.076
      -0.059
      -0.024
       0.023
       0.063
       0.079
       0.076
       0.070
       0.071
       0.076
       0.074
       0.058
       0.038
       0.030
       0.044
       0.075
       0.104
       0.121
       0.129
       0.140
       0.155
       0.165
       0.156
       0.129
       0.100
       0.090
       0.104
       0.131
       0.152
       0.160
       0.164
       0.173
       0.185
       0.183
       0.155
       0.103
       0.046
       0.004
      -0.019
      -0.029
      -0.036
      -0.038
      -0.026
       0.005
       0.045
       0.074
       0.081
       0.070
       0.055
       0.050
       0.053
       0.056
       0.053
       0.050
       0.057
       0.075
       0.090
       0.087
       0.061
       0.025
      -0.002
      -0.011
      -0.009
      -0.007
      -0.011
      -0.016
      -0.013
      -0.005
      -0.009
      -0.039
      -0.093
      -0.149
      -0.180
      -0.175
      -0.143
      -0.105
      -0.075
      -0.049
      -0.016
       0.023
       0.058
       0.074
       0.070
       0.058
       0.048
       0.040
       0.026
       0.001
      -0.029
      -0.052
      -0.063
      -0.069
      -0.081
      -0.104
      -0.127
      -0.136
      -0.124
      -0.098
      -0.072
      -0.059
      -0.056
      -0.054
      -0.049
      -0.047
      -0.062
      -0.092
      -0.122
      -0.128
      -0.101
      -0.054
      -0.011
       0.012
       0.012
      -0.003
      -0.028
      -0.062
      -0.103
      -0.144
      -0.170
      -0.170
      -0.148
      -0.121
      -0.101
      -0.092
      -0.085
      -0.075
      -0.059
      -0.041
      -0.019
       0.014
       0.064
       0.126
       0.186
       0.225
       0.237
       0.231
       0.221
       0.212
       0.200
       0.175
       0.137
       0.098
       0.069
       0.055
       0.046
       0.030
       0.002
      -0.028
      -0.049
      -0.057
      -0.060
      -0.069
      -0.086
      -0.100
      -0.097
      -0.073
      -0.037
      -0.001
       0.032
       0.072
       0.125
       0.188
       0.246
       0.285
       0.304
       0.311
       0.313
       0.305
       0.276
       0.217
       0.136
       0.055
      -0.008
      -0.048
      -0.071
      -0.084
      -0.092
      -0.095
      -0.095
      -0.099
      -0.116
      -0.149
      -0.182
      -0.194
      -0.176
      -0.135
      -0.090
      -0.052
      -0.019
       0.017
       0.058
       0.095
       0.120
       0.132
       0.139
       0.150
       0.161
       0.160
       0.136
       0.094
       0.047
       0.007
      -0.024
      -0.051
      -0.080
      -0.105
      -0.119
      -0.119
      -0.116
      -0.124
      -0.148
      -0.175
      -0.188
      -0.182
      -0.163
      -0.143
      -0.125
      -0.106
      -0.077
      -0.041
      -0.008
       0.011
       0.020
       0.034
       0.066
       0.114
       0.157
       0.177
       0.169
       0.143
       0.112
       0.081
       0.044
      -0.005
      -0.060
      -0.104
      -0.127
      -0.134
      -0.143
      -0.165
      -0.199
      -0.231
      -0.253
      -0.266
      -0.278
      -0.292
      -0.301
      -0.291
      -0.260
      -0.216
      -0.175
      -0.145
      -0.121
      -0.092
      -0.055
      -0.016
       0.016
       0.040
       0.064
       0.099
       0.144
       0.181
       0.192
       0.175
       0.148
       0.130
       0.125
       0.123
       0.109
       0.079
       0.046
       0.024
       0.013
       0.002
      -0.017
      -0.037
      -0.043
      -0.029
       0.003
       0.037
       0.064
       0.081
       0.095
       0.111
       0.125
       0.125
       0.108
       0.082
       0.062
       0.057
       0.064
       0.074
       0.081
       0.084
       0.091
       0.103
       0.112
       0.108
       0.088
       0.063
       0.045
       0.037
       0.029
       0.010
      -0.021
      -0.053
      -0.069
      -0.065
      -0.053
      -0.048
      -0.053
      -0.055
      -0.040
      -0.007
       0.029
       0.055
       0.070
       0.085
       0.111
       0.147
       0.183
       0.209
       0.227
       0.246
       0.271
       0.297
       0.308
       0.294
       0.258
       0.213
       0.173
       0.139
       0.103
       0.059
       0.014
      -0.023
      -0.050
      -0.074
      -0.104
      -0.138
      -0.165
      -0.172
      -0.160
      -0.140
      -0.128
      -0.132
      -0.142
      -0.147
      -0.143
      -0.140
      -0.146
      -0.160
      -0.170
      -0.162
      -0.140
      -0.117
      -0.104
      -0.101
      -0.093
      -0.069
      -0.031
       0.007
       0.034
       0.052
       0.069
       0.087
       0.101
       0.102
       0.090
       0.080
       0.087
       0.116
       0.155
       0.188
       0.206
       0.211
       0.211
       0.205
       0.184
       0.139
       0.074
       0.003
      -0.055
      -0.097
      -0.131
      -0.165
      -0.197
      -0.217
      -0.215
      -0.200
      -0.187
      -0.185
      -0.186
      -0.176
      -0.145
      -0.101
      -0.061
      -0.037
      -0.022
      -0.001
       0.036
       0.077
       0.101
       0.093
       0.058
       0.013
      -0.030
      -0.068
      -0.109
      -0.156
      -0.200
      -0.228
      -0.232
      -0.219
      -0.201
      -0.187
      -0.175
      -0.157
      -0.130
      -0.099
      -0.069
      -0.040
      -0.002
       0.052
       0.117
       0.176
       0.212
       0.228
       0.238
       0.256
       0.282
       0.305
       0.312
       0.303
       0.286
       0.268
       0.250
       0.223
       0.184
       0.139
       0.103
       0.083
       0.076
       0.066
       0.045
       0.014
      -0.013
      -0.029
      -0.040
      -0.059
      -0.092
      -0.131
      -0.160
      -0.172
      -0.170
      -0.163
      -0.152
      -0.136
      -0.112
      -0.082
      -0.060
      -0.054
      -0.060
      -0.065
      -0.055
      -0.033
      -0.006
       0.019
       0.044
       0.075
       0.108
       0.131
       0.131
       0.103
       0.063
       0.032
       0.019
       0.015
       0.004
      -0.018
      -0.042
      -0.055
      -0.055
      -0.056
      -0.072
      -0.103
      -0.129
      -0.128
      -0.096
      -0.048
      -0.004
       0.026
       0.044
       0.062
       0.082
       0.102
       0.119
       0.135
       0.158
       0.191
       0.224
       0.234
       0.208
       0.150
       0.082
       0.022
      -0.027
      -0.074
      -0.128
      -0.178
      -0.205
      -0.198
      -0.165
      -0.128
      -0.098
      -0.070
      -0.031
       0.025
       0.085
       0.130
       0.149
       0.150
       0.151
       0.165
       0.184
       0.195
       0.193
       0.186
       0.185
       0.188
       0.181
       0.153
       0.103
       0.049
       0.008
      -0.015
      -0.030
      -0.047
      -0.067
      -0.077
      -0.063
      -0.024
       0.029
       0.083
       0.137
       0.199
       0.275
       0.357
       0.427
       0.472
       0.501
       0.529
       0.566
       0.603
       0.620
       0.614
       0.597
       0.590
       0.601
       0.621
       0.633
       0.629
       0.617
       0.613
       0.625
       0.648
       0.671
       0.694
       0.724
       0.768
       0.821
       0.873
       0.912
       0.938
       0.953
       0.959
       0.946
       0.899
       0.808
       0.675
       0.517
       0.344
       0.159
      -0.048
      -0.280
      -0.527
      -0.769
      -0.995
      -1.209
      -1.429
      -1.661
      -1.893
      -2.107
      -2.295
      -2.460
      -2.611
      -2.748
      -2.859
      -2.930
      -2.961
      -2.964
      -2.955
      -2.936
      -2.895
      -2.816
      -2.697
      -2.548
      -2.379
      -2.192
      -1.982
      -1.740
      -1.467
      -1.170
      -0.858
      -0.530
      -0.181
       0.187
       0.562
       0.924
       1.258
       1.564
       1.845
       2.103
       2.326
       2.501
       2.622
       2.697
       2.738
       2.746
       2.707
       2.600
       2.417
       2.168
       1.868
       1.534
       1.171
       0.777
       0.359
      -0.064
      -0.469
      -0.843
      -1.186
      -1.507
      -1.807
      -2.074
      -2.293
      -2.463
      -2.598
      -2.711
      -2.807
      -2.872
      -2.898
      -2.885
      -2.843
      -2.775
      -2.671
      -2.512
      -2.286
      -2.001
      -1.672
      -1.307
      -0.899
      -0.441
       0.067
       0.604
       1.144
       1.674
       2.193
       2.702
       3.189
       3.626
       3.989
       4.269
       4.470
       4.596
       4.639
       4.580
       4.407
       4.123
       3.746
       3.296
       2.781
       2.212
       1.604
       0.987
       0.393
      -0.158
      -0.661
      -1.117
      -1.521
      -1.855
      -2.100
      -2.251
      -2.314
      -2.298
      -2.200
      -2.014
      -1.746
      -1.419
      -1.062
      -0.701
      -0.348
      -0.009
       0.301
       0.554
       0.717
       0.771
       0.726
       0.608
       0.438
       0.225
      -0.028
      -0.310
      -0.595
      -0.855
      -1.073
      -1.244
      -1.369
      -1.436
      -1.426
      -1.325
      -1.135
      -0.873
      -0.563
      -0.219
       0.153
       0.545
       0.941
       1.320
       1.665
       1.969
       2.228
       2.433
       2.565
       2.600
       2.529
       2.359
       2.110
       1.802
       1.449
       1.059
       0.648
       0.243
      -0.136
      -0.478
      -0.790
      -1.073
      -1.319
      -1.505
      -1.614
      -1.645
      -1.612
      -1.537
      -1.431
      -1.297
      -1.139
      -0.972
      -0.817
      -0.687
      -0.578
      -0.473
      -0.361
      -0.251
      -0.161
      -0.109
      -0.093
      -0.099
      -0.110
      -0.123
      -0.142
      -0.168
      -0.190
      -0.193
      -0.169
      -0.126
      -0.078
      -0.032
       0.020
       0.090
       0.177
       0.265
       0.332
       0.373
       0.398
       0.422
       0.441
       0.432
       0.373
       0.258
       0.102
      -0.077
      -0.263
      -0.454
      -0.647
      -0.831
      -0.988
      -1.101
      -1.168
      -1.201
      -1.211
      -1.197
      -1.145
      -1.045
      -0.896
      -0.712
      -0.511
      -0.294
      -0.052
       0.224
       0.526
       0.835
       1.131
       1.404
       1.654
       1.876
       2.058
       2.187
       2.260
       2.286
       2.278
       2.235
       2.142
       1.983
       1.762
       1.500
       1.224
       0.947
       0.666
       0.375
       0.076
      -0.218
      -0.496
      -0.755
      -1.003
      -1.240
      -1.449
      -1.604
      -1.689
      -1.706
      -1.669
      -1.588
      -1.465
      -1.294
      -1.080
      -0.840
      -0.599
      -0.368
      -0.140
       0.101
       0.359
       0.623
       0.875
       1.105
       1.312
       1.496
       1.648
       1.743
       1.763
       1.703
       1.576
       1.398
       1.175
       0.909
       0.606
       0.282
      -0.043
      -0.352
      -0.640
      -0.907
      -1.152
      -1.362
      -1.517
      -1.600
      -1.616
      -1.578
      -1.503
      -1.394
      -1.248
      -1.071
      -0.877
      -0.693
      -0.537
      -0.413
      -0.308
      -0.215
      -0.135
      -0.076
      -0.040
      -0.017
       0.004
       0.020
       0.017
      -0.022
      -0.105
      -0.216
      -0.330
      -0.430
      -0.511
      -0.570
      -0.600
      -0.587
      -0.521
      -0.406
      -0.254
      -0.082
       0.102
       0.292
       0.476
       0.640
       0.766
       0.848
       0.895
       0.924
       0.939
       0.927
       0.867
       0.746
       0.572
       0.364
       0.139
      -0.099
      -0.346
      -0.592
      -0.817
      -0.999
      -1.133
      -1.231
      -1.306
      -1.362
      -1.386
      -1.360
      -1.280
      -1.158
      -1.012
      -0.853
      -0.681
      -0.494
      -0.304
      -0.134
       0.001
       0.102
       0.182
       0.254
       0.322
       0.381
       0.428
       0.473
       0.531
       0.617
       0.724
       0.841
       0.956
       1.072
       1.193
       1.320
       1.439
       1.536
       1.603
       1.641
       1.655
       1.638
       1.568
       1.430
       1.222
       0.960
       0.668
       0.357
       0.030
      -0.312
      -0.655
      -0.974
      -1.241
      -1.447
      -1.595
      -1.692
      -1.733
      -1.703
      -1.589
      -1.394
      -1.136
      -0.834
      -0.497
      -0.133
       0.248
       0.620
       0.950
       1.217
       1.420
       1.567
       1.654
       1.670
       1.598
       1.438
       1.205
       0.924
       0.612
       0.279
      -0.068
      -0.408
      -0.708
      -0.941
      -1.098
      -1.185
      -1.212
      -1.176
      -1.065
      -0.872
      -0.615
      -0.325
      -0.035
       0.244
       0.514
       0.776
       1.018
       1.213
       1.336
       1.377
       1.338
       1.227
       1.050
       0.807
       0.503
       0.159
      -0.198
      -0.541
      -0.861
      -1.156
      -1.423
      -1.646
      -1.807
      -1.892
      -1.905
      -1.855
      -1.748
      -1.586
      -1.368
      -1.108
      -0.829
      -0.559
      -0.311
      -0.083
       0.131
       0.330
       0.498
       0.614
       0.667
       0.667
       0.634
       0.582
       0.510
       0.411
       0.290
       0.166
       0.061
      -0.011
      -0.053
      -0.069
      -0.061
      -0.024
       0.048
       0.147
       0.262
       0.383
       0.507
       0.642
       0.786
       0.929
       1.047
       1.122
       1.147
       1.127
       1.066
       0.966
       0.823
       0.643
       0.442
       0.241
       0.052
      -0.125
      -0.292
      -0.439
      -0.552
      -0.616
      -0.639
      -0.640
      -0.639
      -0.641
      -0.633
      -0.603
      -0.554
      -0.501
      -0.456
      -0.417
      -0.375
      -0.327
      -0.283
      -0.259
      -0.263
      -0.283
      -0.297
      -0.295
      -0.280
      -0.270
      -0.272
      -0.279
      -0.275
      -0.251
      -0.209
      -0.158
      -0.103
      -0.040
       0.037
       0.123
       0.206
       0.276
       0.333
       0.380
       0.422
       0.452
