Origin Time       12/12/2010 01:40:04
Lat.              25.0 N	
Long.             93.3 E	
Depth (Km)         15.0
Magnitude         4.8
 Region           Manipur-Assam-Border                                             
 Above details taken from IMD 
     
Station Code      KRM
Station Lat.       24.870  N
Station Long.      92.354  E
Station Height(m)   35.0
Site Class        C   Vs30 between 200 m/sec to 375 m/sec *  
Record Time       12.12.2010 01:40:09.879
Sampling Rate     200. Hz
 Record Duration   82.205 Sec.
 Direction         E-W (E positive)
Max. Acceleration      2.951 cm/sec**2
     
  * For reference see Site Classification link of website 
     
 Base Line Corrected and Low Pass Filtered (Cut Off at 35 Hz) Time History
 Acceleration data in cm/sec**2
    
[...]
       0.074
       0.120
       0.129
       0.093
       0.042
       0.019
       0.035
       0.063
       0.065
       0.035
       0.005
       0.011
       0.052
       0.089
       0.080
       0.020
      -0.053
      -0.095
      -0.092
      -0.070
      -0.063
      -0.073
      -0.076
      -0.048
       0.000
       0.034
       0.029
      -0.007
      -0.037
      -0.037
      -0.016
      -0.009
      -0.035
      -0.079
      -0.104
      -0.093
      -0.066
      -0.059
      -0.085
      -0.124
      -0.141
      -0.124
      -0.097
      -0.091
      -0.111
      -0.127
      -0.106
      -0.050
       0.006
       0.022
      -0.008
      -0.053
      -0.075
      -0.066
      -0.053
      -0.064
      -0.097
      -0.118
      -0.100
      -0.048
      -0.001
       0.014
       0.002
      -0.007
       0.009
       0.038
       0.048
       0.020
      -0.028
      -0.055
      -0.036
       0.014
       0.056
       0.063
       0.047
       0.041
       0.064
       0.100
       0.116
       0.099
       0.071
       0.068
       0.099
       0.140
       0.156
       0.137
       0.109
       0.108
       0.145
       0.200
       0.241
       0.260
       0.274
       0.299
       0.330
       0.339
       0.305
       0.242
       0.184
       0.157
       0.156
       0.149
       0.113
       0.058
       0.017
       0.009
       0.022
       0.020
      -0.014
      -0.061
      -0.081
      -0.055
      -0.001
       0.039
       0.044
       0.030
       0.029
       0.056
       0.093
       0.111
       0.103
       0.094
       0.115
       0.168
       0.218
       0.225
       0.182
       0.124
       0.089
       0.086
       0.086
       0.053
      -0.015
      -0.088
      -0.130
      -0.138
      -0.135
      -0.146
      -0.165
      -0.162
      -0.123
      -0.068
      -0.038
      -0.055
      -0.105
      -0.149
      -0.160
      -0.150
      -0.154
      -0.189
      -0.237
      -0.262
      -0.248
      -0.219
      -0.211
      -0.240
      -0.283
      -0.297
      -0.267
      -0.217
      -0.191
      -0.202
      -0.226
      -0.227
      -0.197
      -0.161
      -0.149
      -0.160
      -0.163
      -0.129
      -0.060
       0.009
       0.045
       0.051
       0.062
       0.102
       0.160
       0.198
       0.188
       0.148
       0.119
       0.134
       0.181
       0.221
       0.222
       0.193
       0.166
       0.162
       0.167
       0.148
       0.090
       0.018
      -0.028
      -0.027
      -0.001
       0.008
      -0.016
      -0.048
      -0.052
      -0.019
       0.020
       0.027
      -0.008
      -0.057
      -0.083
      -0.080
      -0.075
      -0.097
      -0.141
      -0.171
      -0.155
      -0.098
      -0.040
      -0.018
      -0.032
      -0.045
      -0.024
       0.029
       0.082
       0.106
       0.103
       0.100
       0.116
       0.137
       0.130
       0.082
       0.015
      -0.025
      -0.017
       0.020
       0.046
       0.037
       0.013
       0.006
       0.028
       0.053
       0.046
       0.002
      -0.048
      -0.064
      -0.037
       0.008
       0.041
       0.058
       0.083
       0.136
       0.201
       0.237
       0.211
       0.131
       0.043
      -0.011
      -0.025
      -0.028
      -0.047
      -0.077
      -0.091
      -0.073
      -0.043
      -0.042
      -0.091
      -0.168
      -0.224
      -0.232
      -0.207
      -0.188
      -0.195
      -0.208
      -0.189
      -0.123
      -0.038
       0.020
       0.033
       0.024
       0.037
       0.087
       0.147
       0.175
       0.160
       0.129
       0.120
       0.140
       0.159
       0.143
       0.088
       0.027
      -0.002
       0.007
       0.026
       0.022
      -0.007
      -0.032
      -0.029
      -0.007
       0.004
      -0.021
      -0.067
      -0.097
      -0.084
      -0.039
       0.002
       0.013
       0.004
       0.005
       0.031
       0.063
       0.073
       0.049
       0.020
       0.023
       0.071
       0.137
       0.177
       0.176
       0.159
       0.164
       0.196
       0.229
       0.226
       0.188
       0.151
       0.154
       0.196
       0.234
       0.223
       0.161
       0.083
       0.026
      -0.006
      -0.042
      -0.103
      -0.174
      -0.216
      -0.201
      -0.144
      -0.086
      -0.058
      -0.052
      -0.036
       0.005
       0.052
       0.070
       0.045
       0.002
      -0.015
       0.011
       0.057
       0.077
       0.049
      -0.010
      -0.060
      -0.083
      -0.096
      -0.129
      -0.187
      -0.237
      -0.241
      -0.189
      -0.116
      -0.068
      -0.062
      -0.077
      -0.083
      -0.076
      -0.074
      -0.096
      -0.125
      -0.128
      -0.080
       0.001
       0.070
       0.093
       0.075
       0.050
       0.044
       0.047
       0.031
      -0.021
      -0.087
      -0.128
      -0.122
      -0.088
      -0.063
      -0.065
      -0.079
      -0.076
      -0.046
      -0.014
      -0.012
      -0.043
      -0.074
      -0.065
      -0.008
       0.061
       0.100
       0.093
       0.066
       0.058
       0.076
       0.097
       0.090
       0.059
       0.036
       0.050
       0.089
       0.113
       0.089
       0.031
      -0.014
      -0.014
       0.022
       0.055
       0.055
       0.038
       0.041
       0.088
       0.158
       0.205
       0.200
       0.158
       0.116
       0.098
       0.092
       0.069
       0.017
      -0.042
      -0.074
      -0.066
      -0.048
      -0.052
      -0.087
      -0.121
      -0.123
      -0.095
      -0.076
      -0.101
      -0.170
      -0.242
      -0.279
      -0.278
      -0.270
      -0.284
      -0.314
      -0.324
      -0.285
      -0.204
      -0.114
      -0.050
      -0.008
       0.041
       0.118
       0.207
       0.266
       0.267
       0.226
       0.185
       0.174
       0.185
       0.185
       0.158
       0.120
       0.107
       0.136
       0.186
       0.220
       0.218
       0.194
       0.176
       0.171
       0.160
       0.125
       0.072
       0.034
       0.044
       0.098
       0.156
       0.177
       0.157
       0.128
       0.118
       0.126
       0.120
       0.079
       0.015
      -0.035
      -0.044
      -0.026
      -0.019
      -0.046
      -0.089
      -0.109
      -0.086
      -0.042
      -0.019
      -0.034
      -0.064
      -0.067
      -0.027
       0.031
       0.068
       0.062
       0.035
       0.024
       0.045
       0.079
       0.094
       0.077
       0.051
       0.050
       0.083
       0.127
       0.150
       0.144
       0.135
       0.146
       0.176
       0.190
       0.159
       0.090
       0.020
      -0.020
      -0.030
      -0.044
      -0.089
      -0.161
      -0.228
      -0.264
      -0.276
      -0.293
      -0.332
      -0.373
      -0.376
      -0.319
      -0.228
      -0.148
      -0.108
      -0.096
      -0.076
      -0.032
       0.021
       0.051
       0.049
       0.037
       0.048
       0.093
       0.145
       0.167
       0.149
       0.115
       0.097
       0.103
       0.105
       0.073
       0.009
      -0.051
      -0.073
      -0.056
      -0.036
      -0.048
      -0.088
      -0.122
      -0.122
      -0.093
      -0.070
      -0.074
      -0.095
      -0.097
      -0.064
      -0.014
       0.010
      -0.010
      -0.054
      -0.084
      -0.085
      -0.080
      -0.103
      -0.165
      -0.238
      -0.277
      -0.268
      -0.237
      -0.226
      -0.250
      -0.288
      -0.305
      -0.291
      -0.268
      -0.264
      -0.282
      -0.293
      -0.265
      -0.196
      -0.118
      -0.059
      -0.021
       0.025
       0.105
       0.212
       0.311
       0.368
       0.380
       0.369
       0.362
       0.354
       0.324
       0.258
       0.175
       0.115
       0.097
       0.104
       0.100
       0.065
       0.014
      -0.014
      -0.004
       0.024
       0.031
       0.004
      -0.033
      -0.046
      -0.024
       0.004
       0.000
      -0.041
      -0.089
      -0.106
      -0.087
      -0.062
      -0.062
      -0.090
      -0.116
      -0.114
      -0.092
      -0.082
      -0.103
      -0.139
      -0.147
      -0.098
      -0.009
       0.072
       0.110
       0.116
       0.131
       0.183
       0.256
       0.311
       0.327
       0.320
       0.329
       0.373
       0.431
       0.465
       0.450
       0.403
       0.359
       0.331
       0.299
       0.233
       0.129
       0.016
      -0.068
      -0.113
      -0.142
      -0.186
      -0.241
      -0.278
      -0.267
      -0.213
      -0.152
      -0.114
      -0.098
      -0.076
      -0.023
       0.051
       0.111
       0.127
       0.107
       0.087
       0.095
       0.120
       0.125
       0.088
       0.028
      -0.014
      -0.015
       0.007
       0.015
      -0.009
      -0.046
      -0.060
      -0.039
      -0.006
       0.002
      -0.027
      -0.064
      -0.069
      -0.029
       0.031
       0.078
       0.099
       0.118
       0.159
       0.223
       0.277
       0.287
       0.254
       0.213
       0.198
       0.209
       0.214
       0.185
       0.124
       0.064
       0.029
       0.012
      -0.019
      -0.086
      -0.176
      -0.246
      -0.269
      -0.257
      -0.250
      -0.274
      -0.316
      -0.343
      -0.334
      -0.306
      -0.296
      -0.324
      -0.371
      -0.400
      -0.390
      -0.355
      -0.328
      -0.316
      -0.296
      -0.237
      -0.135
      -0.023
       0.059
       0.098
       0.122
       0.167
       0.236
       0.303
       0.333
       0.326
       0.313
       0.322
       0.346
       0.353
       0.315
       0.239
       0.165
       0.128
       0.128
       0.130
       0.105
       0.059
       0.019
       0.003
      -0.002
      -0.028
      -0.083
      -0.145
      -0.173
      -0.149
      -0.092
      -0.044
      -0.023
      -0.011
       0.023
       0.088
       0.161
       0.206
       0.212
       0.203
       0.213
       0.249
       0.287
       0.300
       0.290
       0.292
       0.331
       0.394
       0.436
       0.422
       0.362
       0.296
       0.263
       0.260
       0.255
       0.224
       0.180
       0.156
       0.172
       0.209
       0.229
       0.212
       0.174
       0.152
       0.167
       0.199
       0.210
       0.181
       0.133
       0.103
       0.106
       0.116
       0.096
       0.038
      -0.023
      -0.040
       0.003
       0.075
       0.134
       0.163
       0.181
       0.217
       0.274
       0.324
       0.341
       0.327
       0.311
       0.317
       0.344
       0.358
       0.333
       0.272
       0.207
       0.159
       0.117
       0.043
      -0.081
      -0.236
      -0.378
      -0.480
      -0.560
      -0.652
      -0.776
      -0.908
      -1.012
      -1.071
      -1.105
      -1.152
      -1.229
      -1.314
      -1.370
      -1.380
      -1.367
      -1.363
      -1.379
      -1.391
      -1.369
      -1.314
      -1.258
      -1.228
      -1.216
      -1.180
      -1.083
      -0.930
      -0.761
      -0.610
      -0.477
      -0.329
      -0.138
       0.084
       0.297
       0.466
       0.599
       0.732
       0.889
       1.056
       1.192
       1.271
       1.305
       1.328
       1.358
       1.374
       1.343
       1.248
       1.114
       0.982
       0.871
       0.765
       0.632
       0.466
       0.296
       0.151
       0.036
      -0.079
      -0.220
      -0.383
      -0.533
      -0.641
      -0.710
      -0.773
      -0.858
      -0.959
      -1.045
      -1.098
      -1.125
      -1.147
      -1.170
      -1.170
      -1.114
      -0.990
      -0.826
      -0.660
      -0.504
      -0.332
      -0.113
       0.157
       0.447
       0.720
       0.967
       1.207
       1.456
       1.703
       1.910
       2.050
       2.131
       2.183
       2.224
       2.242
       2.207
       2.106
       1.958
       1.795
       1.630
       1.444
       1.209
       0.924
       0.626
       0.355
       0.121
      -0.097
      -0.324
      -0.547
      -0.726
      -0.832
      -0.874
      -0.896
      -0.928
      -0.963
      -0.967
      -0.919
      -0.837
      -0.759
      -0.707
      -0.665
      -0.602
      -0.514
      -0.431
      -0.395
      -0.420
      -0.476
      -0.518
      -0.529
      -0.532
      -0.563
      -0.631
      -0.708
      -0.758
      -0.777
      -0.792
      -0.826
      -0.871
      -0.889
      -0.854
      -0.776
      -0.694
      -0.635
      -0.586
      -0.510
      -0.383
      -0.222
      -0.070
       0.048
       0.147
       0.263
       0.411
       0.568
       0.690
       0.756
       0.785
       0.816
       0.865
       0.909
       0.917
       0.885
       0.841
       0.823
       0.837
       0.851
       0.828
       0.761
       0.682
       0.622
       0.580
       0.518
       0.395
       0.206
      -0.019
      -0.247
      -0.477
      -0.736
      -1.041
      -1.373
      -1.678
      -1.914
      -2.080
      -2.198
      -2.280
      -2.303
      -2.229
      -2.049
      -1.789
      -1.491
      -1.173
      -0.817
      -0.395
       0.085
       0.578
       1.024
       1.399
       1.724
       2.034
       2.334
       2.595
       2.780
       2.882
       2.928
       2.951
       2.950
       2.894
       2.747
       2.510
       2.221
       1.918
       1.605
       1.256
       0.853
       0.421
       0.015
      -0.323
      -0.590
      -0.821
      -1.043
      -1.246
      -1.398
      -1.481
      -1.514
      -1.535
      -1.560
      -1.564
      -1.512
      -1.396
      -1.250
      -1.124
      -1.037
      -0.966
      -0.873
      -0.747
      -0.620
      -0.533
      -0.498
      -0.486
      -0.462
      -0.420
      -0.390
      -0.407
      -0.477
      -0.569
      -0.645
      -0.694
      -0.737
      -0.796
      -0.861
      -0.899
      -0.881
      -0.811
      -0.723
      -0.641
      -0.563
      -0.460
      -0.314
      -0.138
       0.034
       0.184
       0.326
       0.492
       0.695
       0.908
       1.088
       1.208
       1.276
       1.319
       1.350
       1.352
       1.303
       1.201
       1.077
       0.967
       0.879
       0.786
       0.656
       0.483
       0.291
       0.108
      -0.064
      -0.252
      -0.477
      -0.731
      -0.975
      -1.172
      -1.313
      -1.417
      -1.499
      -1.545
      -1.523
      -1.412
      -1.228
      -1.007
      -0.772
      -0.518
      -0.224
       0.113
       0.458
       0.764
       1.004
       1.188
       1.336
       1.455
       1.522
       1.510
       1.420
       1.289
       1.157
       1.036
       0.906
       0.741
       0.546
       0.354
       0.200
       0.090
      -0.001
      -0.102
      -0.209
      -0.291
      -0.318
      -0.295
      -0.257
      -0.236
      -0.223
      -0.186
      -0.099
       0.019
       0.124
       0.187
       0.215
       0.241
       0.285
       0.330
       0.336
       0.288
       0.210
       0.143
       0.108
       0.083
       0.038
      -0.036
      -0.109
      -0.147
      -0.144
      -0.131
      -0.147
      -0.195
      -0.240
      -0.246
      -0.213
      -0.175
      -0.172
      -0.205
      -0.245
      -0.262
      -0.257
      -0.260
      -0.297
      -0.353
      -0.393
      -0.390
      -0.356
      -0.327
      -0.326
      -0.336
      -0.321
      -0.260
      -0.172
      -0.097
      -0.052
      -0.017
       0.046
       0.142
       0.239
       0.290
       0.280
       0.236
       0.195
       0.168
       0.127
       0.035
      -0.112
      -0.277
      -0.415
      -0.509
      -0.581
      -0.657
      -0.738
      -0.789
      -0.779
      -0.708
      -0.610
      -0.516
      -0.424
      -0.304
      -0.136
       0.057
       0.229
       0.349
       0.426
       0.495
       0.579
       0.662
       0.708
       0.700
       0.655
       0.604
       0.563
       0.511
       0.417
       0.274
       0.109
      -0.033
      -0.132
      -0.207
      -0.287
      -0.379
      -0.455
      -0.476
      -0.435
      -0.362
      -0.294
      -0.239
      -0.168
      -0.056
       0.090
       0.230
       0.329
       0.387
       0.434
       0.495
       0.553
       0.568
       0.514
       0.407
       0.296
       0.211
       0.141
       0.044
      -0.102
      -0.274
      -0.426
      -0.525
      -0.584
      -0.636
      -0.695
      -0.736
      -0.720
      -0.633
      -0.500
      -0.360
      -0.227
      -0.080
       0.103
       0.314
       0.513
       0.660
       0.745
       0.797
       0.843
       0.883
       0.887
       0.831
       0.731
       0.630
       0.564
       0.530
       0.491
       0.418
       0.324
       0.248
       0.224
       0.240
       0.250
       0.221
       0.164
       0.116
       0.107
       0.123
       0.125
       0.091
       0.042
       0.023
       0.057
       0.126
       0.184
       0.210
       0.223
       0.258
       0.324
       0.392
       0.422
       0.402
       0.356
       0.318
       0.291
       0.245
       0.147
       0.000
      -0.158
      -0.294
      -0.407
      -0.526
      -0.672
      -0.836
      -0.975
      -1.060
      -1.090
      -1.094
      -1.092
      -1.073
      -1.005
      -0.876
      -0.712
      -0.557
      -0.435
      -0.335
      -0.227
      -0.103
       0.008
       0.072
       0.079
       0.062
       0.066
       0.104
       0.150
       0.165
       0.142
       0.111
       0.108
       0.139
       0.174
       0.178
       0.150
       0.119
       0.115
       0.132
       0.134
       0.092
       0.014
      -0.058
      -0.086
      -0.069
      -0.043
      -0.042
      -0.066
      -0.082
      -0.066
      -0.030
      -0.017
      -0.054
      -0.126
      -0.191
      -0.224
      -0.238
      -0.270
      -0.336
      -0.416
      -0.475
      -0.499
      -0.506
      -0.528
      -0.569
      -0.601
      -0.595
      -0.545
      -0.480
      -0.426
      -0.383
      -0.323
      -0.221
      -0.084
       0.053
       0.160
       0.238
       0.321
       0.436
       0.575
       0.699
       0.779
       0.824
       0.869
       0.938
       1.019
       1.074
       1.080
       1.054
       1.035
       1.043
       1.064
       1.056
       1.004
       0.924
       0.850
       0.794
       0.730
       0.622
       0.462
       0.278
       0.116
      -0.008
      -0.114
      -0.232
      -0.368
      -0.492
      -0.571
      -0.600
      -0.609
      -0.632
      -0.671
      -0.697
      -0.680
      -0.621
      -0.559
      -0.524
      -0.514
      -0.493
      -0.435
      -0.349
      -0.274
      -0.233
      -0.214
      -0.179
      -0.110
      -0.023
       0.044
       0.073
       0.086
       0.121
       0.187
       0.260
       0.301
       0.301
       0.286
       0.294
       0.336
       0.385
       0.403
       0.382
       0.349
       0.338
       0.353
       0.364
       0.342
       0.288
       0.236
