Origin Time       13/8/2012 20:32:59	
Lat.              34.8 N	
Long.             73.7 E	
Depth (Km)         30.0
Magnitude         5.2
 Region           INDIA-PAKISTAN-BORDER                                            
 Above details taken from IMD 
   
Station Code      KSL
Station Lat.       30.899
Station Long.      76.960
Station Height(m) 1802.0
Site Class        B   Vs30 between 375 m/sec to 700 m/sec *  
Record Time       13.08.2012 20:34:38.909
Sampling Rate     200. Hz
 Record Duration   80.910 Sec.
 Direction         Vert. (Up positive)
Max. Acceleration      0.451 cm/sec**2
     
  * For reference see Site Classification link of website 
     
 Base Line Corrected and Low Pass Filtered (Cut Off at 35 Hz) Time History
 Acceleration data in cm/sec**2
    
[...]
       0.014
       0.009
       0.005
       0.010
       0.024
       0.035
       0.032
       0.014
      -0.010
      -0.025
      -0.022
      -0.005
       0.013
       0.019
       0.010
      -0.008
      -0.021
      -0.023
      -0.019
      -0.016
      -0.020
      -0.027
      -0.031
      -0.026
      -0.014
      -0.001
       0.008
       0.011
       0.009
       0.004
       0.000
      -0.001
       0.002
       0.009
       0.018
       0.025
       0.028
       0.027
       0.022
       0.018
       0.017
       0.018
       0.021
       0.023
       0.023
       0.020
       0.015
       0.007
       0.000
      -0.003
      -0.001
       0.006
       0.014
       0.021
       0.022
       0.017
       0.005
      -0.010
      -0.024
      -0.032
      -0.035
      -0.035
      -0.038
      -0.044
      -0.050
      -0.051
      -0.045
      -0.037
      -0.031
      -0.029
      -0.031
      -0.031
      -0.029
      -0.024
      -0.020
      -0.020
      -0.025
      -0.029
      -0.028
      -0.020
      -0.009
      -0.002
      -0.001
      -0.008
      -0.016
      -0.020
      -0.020
      -0.018
      -0.015
      -0.011
      -0.006
       0.000
       0.006
       0.009
       0.011
       0.013
       0.016
       0.018
       0.020
       0.022
       0.024
       0.022
       0.012
      -0.002
      -0.010
      -0.002
       0.016
       0.024
       0.008
      -0.026
      -0.051
      -0.048
      -0.024
      -0.007
      -0.016
      -0.045
      -0.069
      -0.064
      -0.035
      -0.006
       0.000
      -0.018
      -0.040
      -0.047
      -0.031
       0.001
       0.032
       0.046
       0.038
       0.021
       0.009
       0.016
       0.039
       0.067
       0.083
       0.082
       0.070
       0.058
       0.053
       0.056
       0.058
       0.051
       0.035
       0.018
       0.008
       0.008
       0.012
       0.010
      -0.004
      -0.026
      -0.045
      -0.054
      -0.053
      -0.051
      -0.053
      -0.063
      -0.075
      -0.080
      -0.075
      -0.063
      -0.052
      -0.047
      -0.049
      -0.053
      -0.052
      -0.043
      -0.031
      -0.022
      -0.016
      -0.011
      -0.006
       0.001
       0.012
       0.025
       0.034
       0.037
       0.035
       0.029
       0.026
       0.025
       0.024
       0.020
       0.012
       0.004
      -0.002
      -0.003
      -0.001
       0.001
       0.001
      -0.002
      -0.005
      -0.005
      -0.001
       0.004
       0.006
       0.004
      -0.002
      -0.009
      -0.017
      -0.022
      -0.025
      -0.026
      -0.027
      -0.028
      -0.027
      -0.024
      -0.021
      -0.020
      -0.020
      -0.022
      -0.023
      -0.022
      -0.019
      -0.014
      -0.008
      -0.004
      -0.002
       0.000
       0.001
       0.003
       0.007
       0.016
       0.028
       0.039
       0.044
       0.041
       0.033
       0.026
       0.018
       0.003
      -0.020
      -0.041
      -0.040
      -0.013
       0.017
       0.015
      -0.027
      -0.070
      -0.066
      -0.011
       0.039
       0.031
      -0.028
      -0.080
      -0.077
      -0.031
       0.006
       0.000
      -0.035
      -0.056
      -0.046
      -0.021
      -0.003
       0.005
       0.014
       0.025
       0.025
       0.008
      -0.014
      -0.022
      -0.010
       0.006
       0.007
      -0.007
      -0.019
      -0.016
      -0.003
       0.003
      -0.008
      -0.032
      -0.052
      -0.056
      -0.041
      -0.021
      -0.011
      -0.016
      -0.028
      -0.030
      -0.009
       0.027
       0.058
       0.068
       0.058
       0.041
       0.033
       0.036
       0.044
       0.047
       0.040
       0.026
       0.010
       0.000
      -0.002
       0.004
       0.010
       0.012
       0.010
       0.008
       0.009
       0.014
       0.020
       0.021
       0.014
      -0.001
      -0.020
      -0.038
      -0.048
      -0.051
      -0.050
      -0.051
      -0.057
      -0.064
      -0.067
      -0.066
      -0.059
      -0.049
      -0.040
      -0.030
      -0.021
      -0.011
      -0.004
       0.002
       0.007
       0.014
       0.022
       0.030
       0.035
       0.037
       0.035
       0.031
       0.029
       0.034
       0.047
       0.057
       0.047
       0.014
      -0.026
      -0.044
      -0.026
       0.009
       0.025
       0.002
      -0.041
      -0.066
      -0.061
      -0.053
      -0.067
      -0.091
      -0.094
      -0.063
      -0.019
       0.006
       0.003
      -0.015
      -0.028
      -0.028
      -0.020
      -0.010
       0.003
       0.023
       0.042
       0.043
       0.025
       0.003
      -0.002
       0.013
       0.030
       0.034
       0.021
       0.003
      -0.010
      -0.015
      -0.016
      -0.014
      -0.012
      -0.012
      -0.013
      -0.016
      -0.020
      -0.027
      -0.036
      -0.044
      -0.044
      -0.032
      -0.016
      -0.005
      -0.003
      -0.005
      -0.003
       0.010
       0.029
       0.047
       0.059
       0.063
       0.060
       0.052
       0.039
       0.027
       0.020
       0.021
       0.028
       0.035
       0.038
       0.036
       0.029
       0.021
       0.014
       0.009
       0.004
      -0.003
      -0.009
      -0.013
      -0.014
      -0.013
      -0.013
      -0.011
      -0.008
      -0.005
      -0.007
      -0.011
      -0.014
      -0.013
      -0.010
      -0.010
      -0.014
      -0.019
      -0.019
      -0.015
      -0.007
       0.001
       0.009
       0.020
       0.034
       0.044
       0.040
       0.018
      -0.009
      -0.022
      -0.007
       0.030
       0.065
       0.072
       0.049
       0.012
      -0.016
      -0.028
      -0.034
      -0.043
      -0.053
      -0.048
      -0.022
       0.012
       0.028
       0.013
      -0.024
      -0.053
      -0.051
      -0.024
       0.004
       0.008
      -0.014
      -0.042
      -0.051
      -0.029
       0.011
       0.046
       0.055
       0.037
       0.009
      -0.009
      -0.006
       0.011
       0.027
       0.026
       0.007
      -0.021
      -0.041
      -0.046
      -0.038
      -0.032
      -0.039
      -0.057
      -0.073
      -0.073
      -0.060
      -0.043
      -0.035
      -0.036
      -0.039
      -0.035
      -0.020
      -0.001
       0.011
       0.011
       0.003
      -0.006
      -0.007
      -0.001
       0.004
       0.005
       0.002
       0.001
       0.004
       0.012
       0.017
       0.014
       0.001
      -0.016
      -0.030
      -0.036
      -0.034
      -0.029
      -0.022
      -0.014
      -0.006
       0.003
       0.013
       0.022
       0.027
       0.026
       0.018
       0.003
      -0.015
      -0.032
      -0.044
      -0.049
      -0.049
      -0.046
      -0.042
      -0.038
      -0.035
      -0.030
      -0.024
      -0.018
      -0.011
      -0.005
       0.000
       0.007
       0.017
       0.032
       0.049
       0.067
       0.082
       0.092
       0.095
       0.095
       0.093
       0.092
       0.091
       0.085
       0.074
       0.059
       0.043
       0.029
       0.019
       0.012
       0.008
       0.007
       0.005
       0.003
      -0.002
      -0.010
      -0.020
      -0.029
      -0.034
      -0.033
      -0.030
      -0.028
      -0.030
      -0.034
      -0.035
      -0.034
      -0.032
      -0.029
      -0.026
      -0.022
      -0.013
      -0.002
       0.008
       0.013
       0.015
       0.015
       0.013
       0.008
      -0.004
      -0.019
      -0.034
      -0.044
      -0.048
      -0.051
      -0.054
      -0.057
      -0.060
      -0.064
      -0.066
      -0.067
      -0.063
      -0.057
      -0.055
      -0.056
      -0.060
      -0.061
      -0.056
      -0.045
      -0.031
      -0.017
      -0.006
       0.003
       0.009
       0.014
       0.018
       0.022
       0.027
       0.029
       0.025
       0.014
       0.000
      -0.013
      -0.020
      -0.024
      -0.027
      -0.030
      -0.034
      -0.036
      -0.035
      -0.031
      -0.025
      -0.019
      -0.014
      -0.011
      -0.009
      -0.006
      -0.002
       0.002
       0.003
       0.003
       0.003
       0.007
       0.016
       0.029
       0.041
       0.051
       0.058
       0.063
       0.069
       0.076
       0.086
       0.099
       0.110
       0.119
       0.124
       0.127
       0.127
       0.126
       0.121
       0.112
       0.098
       0.078
       0.056
       0.036
       0.022
       0.015
       0.012
       0.007
      -0.004
      -0.020
      -0.035
      -0.042
      -0.040
      -0.033
      -0.027
      -0.026
      -0.030
      -0.037
      -0.044
      -0.049
      -0.051
      -0.053
      -0.059
      -0.071
      -0.087
      -0.102
      -0.115
      -0.123
      -0.128
      -0.130
      -0.131
      -0.132
      -0.134
      -0.137
      -0.137
      -0.132
      -0.124
      -0.116
      -0.110
      -0.106
      -0.104
      -0.104
      -0.106
      -0.108
      -0.106
      -0.097
      -0.085
      -0.072
      -0.061
      -0.054
      -0.047
      -0.037
      -0.025
      -0.013
      -0.004
       0.005
       0.016
       0.032
       0.050
       0.067
       0.079
       0.086
       0.092
       0.099
       0.110
       0.124
       0.137
       0.149
       0.156
       0.161
       0.163
       0.163
       0.158
       0.150
       0.140
       0.129
       0.119
       0.107
       0.090
       0.070
       0.050
       0.034
       0.023
       0.014
       0.008
       0.005
       0.009
       0.017
       0.026
       0.032
       0.031
       0.023
       0.010
      -0.008
      -0.029
      -0.051
      -0.074
      -0.098
      -0.123
      -0.147
      -0.170
      -0.192
      -0.214
      -0.234
      -0.249
      -0.256
      -0.255
      -0.251
      -0.245
      -0.239
      -0.230
      -0.219
      -0.206
      -0.189
      -0.166
      -0.132
      -0.090
      -0.047
      -0.009
       0.019
       0.044
       0.069
       0.098
       0.127
       0.153
       0.173
       0.190
       0.209
       0.229
       0.249
       0.260
       0.261
       0.252
       0.241
       0.234
       0.234
       0.240
       0.247
       0.246
       0.233
       0.213
       0.193
       0.179
       0.171
       0.162
       0.146
       0.120
       0.090
       0.060
       0.032
       0.006
      -0.020
      -0.043
      -0.063
      -0.082
      -0.102
      -0.126
      -0.147
      -0.158
      -0.155
      -0.142
      -0.130
      -0.127
      -0.133
      -0.142
      -0.150
      -0.156
      -0.163
      -0.175
      -0.192
      -0.210
      -0.228
      -0.244
      -0.256
      -0.262
      -0.260
      -0.250
      -0.239
      -0.231
      -0.225
      -0.217
      -0.199
      -0.170
      -0.136
      -0.100
      -0.064
      -0.024
       0.021
       0.068
       0.111
       0.149
       0.185
       0.220
       0.250
       0.269
       0.276
       0.276
       0.275
       0.277
       0.277
       0.271
       0.257
       0.234
       0.206
       0.176
       0.148
       0.124
       0.104
       0.084
       0.062
       0.040
       0.022
       0.010
       0.000
      -0.013
      -0.031
      -0.051
      -0.072
      -0.093
      -0.113
      -0.133
      -0.153
      -0.171
      -0.187
      -0.197
      -0.204
      -0.207
      -0.208
      -0.209
      -0.207
      -0.198
      -0.182
      -0.161
      -0.141
      -0.123
      -0.103
      -0.080
      -0.052
      -0.023
       0.003
       0.023
       0.040
       0.055
       0.066
       0.072
       0.071
       0.060
       0.041
       0.017
      -0.005
      -0.026
      -0.046
      -0.066
      -0.081
      -0.085
      -0.074
      -0.055
      -0.034
      -0.019
      -0.011
      -0.002
       0.014
       0.039
       0.071
       0.101
       0.125
       0.137
       0.135
       0.123
       0.107
       0.096
       0.091
       0.089
       0.084
       0.071
       0.046
       0.014
      -0.023
      -0.062
      -0.099
      -0.128
      -0.148
      -0.157
      -0.157
      -0.150
      -0.137
      -0.118
      -0.097
      -0.077
      -0.057
      -0.036
      -0.011
       0.018
       0.045
       0.066
       0.082
       0.094
       0.108
       0.127
       0.150
       0.175
       0.199
       0.222
       0.244
       0.262
       0.275
       0.280
       0.281
       0.281
       0.281
       0.276
       0.259
       0.226
       0.178
       0.123
       0.067
       0.017
      -0.028
      -0.067
      -0.102
      -0.133
      -0.163
      -0.194
      -0.229
      -0.270
      -0.315
      -0.353
      -0.372
      -0.369
      -0.356
      -0.351
      -0.360
      -0.372
      -0.368
      -0.345
      -0.313
      -0.283
      -0.253
      -0.222
      -0.189
      -0.156
      -0.124
      -0.099
      -0.083
      -0.067
      -0.043
      -0.013
       0.010
       0.021
       0.026
       0.032
       0.041
       0.045
       0.036
       0.018
       0.001
      -0.007
      -0.007
      -0.005
      -0.003
      -0.002
       0.000
       0.004
       0.015
       0.032
       0.055
       0.083
       0.113
       0.144
       0.177
       0.215
       0.256
       0.296
       0.332
       0.363
       0.394
       0.422
       0.443
       0.451
       0.442
       0.421
       0.396
       0.375
       0.357
       0.334
       0.295
       0.237
       0.172
       0.120
       0.088
       0.063
       0.020
      -0.055
      -0.141
      -0.205
      -0.225
      -0.219
      -0.221
      -0.257
      -0.322
      -0.386
      -0.427
      -0.435
      -0.419
      -0.392
      -0.364
      -0.341
      -0.322
      -0.306
      -0.289
      -0.268
      -0.245
      -0.222
      -0.196
      -0.163
      -0.117
      -0.060
      -0.003
       0.043
       0.076
       0.100
       0.123
       0.145
       0.160
       0.164
       0.163
       0.161
       0.161
       0.157
       0.145
       0.128
       0.116
       0.118
       0.130
       0.139
       0.132
       0.108
       0.072
       0.037
       0.009
      -0.012
      -0.030
      -0.046
      -0.064
      -0.087
      -0.116
      -0.148
      -0.175
      -0.190
      -0.188
      -0.171
      -0.141
      -0.103
      -0.067
      -0.041
      -0.032
      -0.032
      -0.021
       0.012
       0.058
       0.089
       0.088
       0.065
       0.049
       0.056
       0.078
       0.098
       0.104
       0.092
       0.069
       0.051
       0.041
       0.031
       0.013
      -0.005
      -0.011
      -0.005
       0.002
       0.006
       0.006
       0.008
       0.015
       0.025
       0.028
       0.021
       0.007
      -0.008
      -0.022
      -0.030
      -0.034
      -0.038
      -0.049
      -0.062
      -0.076
      -0.087
      -0.097
      -0.105
      -0.114
      -0.124
      -0.131
      -0.133
      -0.130
      -0.124
      -0.119
      -0.114
      -0.108
      -0.101
      -0.091
      -0.078
      -0.060
      -0.038
      -0.014
       0.007
       0.019
       0.023
       0.022
       0.018
       0.016
       0.017
       0.023
       0.030
       0.034
       0.034
       0.032
       0.033
       0.044
       0.067
       0.097
       0.128
       0.155
       0.179
       0.205
       0.229
       0.244
       0.243
       0.232
       0.226
       0.238
       0.266
       0.291
       0.295
       0.270
       0.225
       0.179
       0.147
       0.134
       0.131
       0.127
       0.109
       0.075
       0.032
      -0.011
      -0.048
      -0.080
      -0.106
      -0.126
      -0.140
      -0.147
      -0.152
      -0.160
      -0.172
      -0.189
      -0.207
      -0.220
      -0.226
      -0.226
      -0.220
      -0.209
      -0.193
      -0.173
      -0.154
      -0.138
      -0.124
      -0.109
      -0.090
      -0.068
      -0.048
      -0.030
      -0.015
      -0.003
       0.008
       0.016
       0.024
       0.032
       0.035
       0.033
       0.030
       0.033
       0.047
       0.063
       0.069
       0.061
       0.053
       0.055
       0.063
       0.065
       0.055
       0.038
       0.023
       0.016
       0.021
       0.031
       0.035
       0.031
       0.026
       0.024
       0.018
       0.007
      -0.008
      -0.020
      -0.027
      -0.031
      -0.041
      -0.063
      -0.089
      -0.111
      -0.122
      -0.122
      -0.117
      -0.112
      -0.113
      -0.121
      -0.132
      -0.140
      -0.139
      -0.129
      -0.114
      -0.096
      -0.076
      -0.054
      -0.028
       0.001
       0.030
       0.054
       0.070
       0.076
       0.074
       0.066
       0.053
       0.037
       0.022
       0.008
      -0.005
      -0.020
      -0.039
      -0.060
      -0.078
      -0.092
      -0.100
      -0.106
      -0.110
      -0.108
      -0.098
      -0.078
      -0.051
      -0.021
       0.009
       0.040
       0.071
       0.102
       0.130
       0.156
       0.186
       0.216
       0.238
       0.239
       0.212
       0.166
       0.121
       0.095
       0.090
       0.095
       0.092
       0.074
       0.047
       0.025
       0.018
       0.025
       0.032
       0.025
      -0.001
      -0.039
      -0.075
      -0.098
      -0.103
      -0.096
      -0.089
      -0.090
      -0.100
      -0.113
      -0.123
      -0.131
      -0.136
      -0.138
      -0.137
      -0.130
      -0.115
      -0.093
      -0.068
      -0.040
      -0.013
       0.011
       0.030
       0.046
       0.062
       0.081
       0.104
       0.129
       0.151
       0.170
       0.189
       0.208
       0.226
       0.235
       0.230
       0.212
       0.187
       0.161
       0.138
       0.118
       0.099
       0.082
       0.071
       0.066
       0.066
       0.065
       0.059
       0.048
       0.035
       0.025
       0.021
       0.019
       0.015
       0.007
      -0.006
      -0.020
      -0.033
      -0.044
      -0.056
      -0.073
      -0.094
      -0.114
      -0.129
      -0.137
      -0.142
      -0.145
      -0.146
      -0.143
      -0.133
      -0.117
      -0.095
      -0.070
      -0.048
      -0.029
      -0.014
       0.001
       0.016
       0.033
       0.049
       0.063
       0.071
       0.077
       0.080
       0.082
       0.081
       0.076
       0.064
       0.046
       0.027
       0.008
      -0.012
      -0.034
      -0.058
      -0.080
      -0.095
      -0.101
      -0.098
      -0.089
      -0.074
      -0.053
      -0.030
      -0.007
       0.010
       0.018
       0.018
       0.015
       0.011
       0.007
       0.004
       0.002
       0.000
      -0.001
      -0.002
      -0.004
      -0.009
      -0.017
      -0.031
      -0.051
      -0.076
      -0.105
      -0.132
      -0.151
      -0.159
      -0.159
      -0.156
      -0.155
      -0.153
      -0.145
      -0.127
      -0.098
      -0.061
      -0.022
       0.016
       0.046
       0.067
       0.080
       0.089
       0.102
       0.119
       0.139
       0.153
       0.160
