Origin Time       29/08/2013 10:13:21
Lat.              31.4 N	
Long.             76.1 E	
Depth (Km)         10.0
Magnitude         4.7
 Region           HIMACHAL-PUNJAB-(HOSHIARPUR)-BORDER                              
 Above details taken from IMD 
   
Station Code      KSL
Station Lat.       30.899
Station Long.      76.960
Station Height(m) 1802.0
Site Class        B   Vs30 between 375 m/sec to 700 m/sec *  
Record Time       29.08.2013 10:13:20.314
Sampling Rate     200. Hz
 Record Duration   81.545 Sec.
 Direction         Vert. (Up positive)
Max. Acceleration      2.877 cm/sec**2
     
  * For reference see Site Classification link of website 
     
 Base Line Corrected and Low Pass Filtered (Cut Off at 35 Hz) Time History
 Acceleration data in cm/sec**2
    
[...]
       0.014
       0.006
      -0.004
      -0.007
      -0.002
       0.005
       0.002
      -0.012
      -0.027
      -0.030
      -0.015
       0.006
       0.015
       0.008
      -0.003
      -0.005
       0.005
       0.016
       0.016
       0.004
      -0.011
      -0.015
      -0.005
       0.009
       0.014
       0.007
      -0.005
      -0.011
      -0.008
      -0.001
      -0.002
      -0.009
      -0.014
      -0.009
       0.004
       0.014
       0.011
      -0.004
      -0.019
      -0.023
      -0.015
      -0.001
       0.010
       0.013
       0.009
       0.002
      -0.006
      -0.011
      -0.013
      -0.012
      -0.008
      -0.002
       0.001
       0.001
      -0.005
      -0.011
      -0.013
      -0.010
      -0.005
      -0.002
      -0.003
      -0.005
      -0.005
      -0.003
      -0.002
      -0.003
      -0.006
      -0.007
      -0.007
      -0.003
       0.003
       0.006
       0.005
       0.000
      -0.005
      -0.004
       0.001
       0.001
      -0.005
      -0.013
      -0.016
      -0.011
      -0.004
      -0.003
      -0.009
      -0.013
      -0.009
       0.005
       0.018
       0.023
       0.017
       0.004
      -0.007
      -0.013
      -0.014
      -0.013
      -0.011
      -0.009
      -0.008
      -0.008
      -0.006
      -0.001
       0.008
       0.016
       0.017
       0.008
      -0.006
      -0.015
      -0.011
       0.005
       0.021
       0.025
       0.019
       0.008
       0.001
       0.000
       0.001
       0.002
       0.004
       0.008
       0.015
       0.017
       0.009
      -0.003
      -0.008
      -0.001
       0.009
       0.010
      -0.002
      -0.016
      -0.018
      -0.008
       0.005
       0.009
       0.005
      -0.001
      -0.001
       0.007
       0.016
       0.016
       0.004
      -0.011
      -0.016
      -0.008
       0.006
       0.013
       0.008
      -0.004
      -0.009
      -0.006
       0.001
       0.002
      -0.004
      -0.013
      -0.016
      -0.012
      -0.006
      -0.003
      -0.001
       0.001
       0.006
       0.010
       0.012
       0.009
       0.003
      -0.004
      -0.008
      -0.005
       0.003
       0.010
       0.010
       0.001
      -0.008
      -0.010
      -0.004
       0.006
       0.012
       0.010
       0.000
      -0.011
      -0.012
       0.001
       0.019
       0.019
      -0.008
      -0.039
      -0.028
       0.032
       0.083
       0.044
      -0.069
      -0.120
      -0.011
       0.152
       0.154
      -0.038
      -0.201
      -0.131
       0.088
       0.192
       0.062
      -0.135
      -0.167
      -0.009
       0.143
       0.127
      -0.010
      -0.106
      -0.078
       0.015
       0.071
       0.052
      -0.005
      -0.045
      -0.037
       0.015
       0.072
       0.090
       0.056
      -0.003
      -0.039
      -0.026
       0.012
       0.031
       0.012
      -0.025
      -0.040
      -0.015
       0.028
       0.048
       0.027
      -0.010
      -0.024
      -0.005
       0.016
       0.010
      -0.015
      -0.024
       0.000
       0.035
       0.040
       0.009
      -0.022
      -0.020
       0.005
       0.013
      -0.009
      -0.031
      -0.024
       0.010
       0.032
       0.017
      -0.019
      -0.039
      -0.026
      -0.003
       0.005
      -0.002
      -0.011
      -0.011
      -0.001
       0.012
       0.025
       0.030
       0.020
       0.000
      -0.013
      -0.008
       0.009
       0.017
       0.005
      -0.014
      -0.019
      -0.006
       0.009
       0.008
      -0.006
      -0.013
       0.000
       0.022
       0.029
       0.012
      -0.013
      -0.019
      -0.002
       0.016
       0.016
       0.002
      -0.006
       0.000
       0.012
       0.015
       0.011
       0.004
       0.001
       0.000
       0.001
       0.008
       0.018
       0.023
       0.018
       0.009
       0.004
       0.006
       0.006
      -0.003
      -0.013
      -0.012
       0.002
       0.017
       0.023
       0.018
       0.008
       0.004
       0.011
       0.021
       0.023
       0.012
      -0.004
      -0.010
      -0.002
       0.009
       0.010
       0.003
       0.002
       0.009
       0.015
       0.005
      -0.017
      -0.030
      -0.020
       0.010
       0.042
       0.055
       0.044
       0.022
       0.007
       0.003
       0.003
      -0.001
      -0.008
      -0.010
       0.004
       0.030
       0.051
       0.048
       0.020
      -0.010
      -0.018
      -0.003
       0.014
       0.017
       0.008
       0.000
      -0.001
       0.001
       0.004
       0.008
       0.016
       0.025
       0.027
       0.018
       0.001
      -0.012
      -0.011
       0.001
       0.013
       0.016
       0.012
       0.006
       0.002
      -0.002
      -0.006
      -0.008
      -0.008
      -0.004
       0.001
       0.005
       0.007
       0.004
       0.000
      -0.001
       0.002
       0.005
       0.005
       0.004
       0.008
       0.017
       0.024
       0.022
       0.010
      -0.006
      -0.014
      -0.008
       0.007
       0.020
       0.020
       0.007
      -0.006
      -0.008
       0.001
       0.013
       0.018
       0.013
       0.006
       0.000
      -0.003
      -0.002
       0.000
       0.003
       0.007
       0.011
       0.013
       0.013
       0.012
       0.009
       0.006
       0.002
      -0.001
      -0.004
      -0.006
      -0.007
      -0.003
       0.003
       0.007
       0.008
       0.007
       0.010
       0.018
       0.020
       0.007
      -0.015
      -0.024
      -0.003
       0.037
       0.058
       0.030
      -0.030
      -0.060
      -0.023
       0.039
       0.049
      -0.006
      -0.056
      -0.034
       0.036
       0.070
       0.026
      -0.041
      -0.058
      -0.023
       0.012
       0.027
       0.049
       0.067
       0.023
      -0.083
      -0.146
      -0.078
       0.067
       0.138
       0.069
      -0.059
      -0.109
      -0.039
       0.063
       0.064
      -0.052
      -0.146
      -0.076
       0.124
       0.260
       0.175
      -0.095
      -0.338
      -0.318
       0.017
       0.404
       0.451
       0.061
      -0.375
      -0.401
      -0.060
       0.208
       0.157
      -0.033
      -0.107
      -0.025
       0.096
       0.130
       0.023
      -0.146
      -0.218
      -0.108
       0.100
       0.238
       0.193
      -0.007
      -0.204
      -0.223
      -0.041
       0.176
       0.226
       0.086
      -0.089
      -0.160
      -0.111
      -0.005
       0.083
       0.095
       0.037
      -0.030
      -0.060
      -0.052
      -0.017
       0.023
       0.038
       0.020
      -0.005
      -0.016
      -0.016
       0.000
       0.028
       0.036
       0.004
      -0.039
      -0.039
       0.008
       0.045
       0.022
      -0.037
      -0.062
      -0.018
       0.052
       0.077
       0.035
      -0.032
      -0.065
      -0.043
       0.009
       0.049
       0.053
       0.023
      -0.017
      -0.038
      -0.028
       0.004
       0.031
       0.033
       0.011
      -0.011
      -0.014
      -0.003
       0.003
      -0.001
      -0.007
      -0.008
      -0.003
       0.011
       0.031
       0.030
      -0.015
      -0.071
      -0.070
      -0.001
       0.061
       0.054
       0.002
      -0.026
      -0.013
       0.003
      -0.007
      -0.021
      -0.006
       0.034
       0.061
       0.046
       0.001
      -0.044
      -0.060
      -0.031
       0.030
       0.075
       0.065
       0.023
       0.007
       0.020
       0.005
      -0.057
      -0.092
      -0.029
       0.074
       0.097
       0.021
      -0.045
      -0.018
       0.047
       0.053
      -0.005
      -0.046
      -0.026
       0.012
       0.016
      -0.005
      -0.013
      -0.004
       0.001
       0.000
       0.011
       0.028
       0.021
      -0.012
      -0.034
      -0.018
       0.018
       0.033
       0.011
      -0.028
      -0.039
      -0.005
       0.041
       0.044
      -0.003
      -0.045
      -0.036
       0.014
       0.051
       0.041
       0.003
      -0.024
      -0.019
       0.009
       0.038
       0.045
       0.021
      -0.016
      -0.030
      -0.003
       0.034
       0.036
      -0.003
      -0.037
      -0.028
       0.011
       0.035
       0.020
      -0.016
      -0.035
      -0.021
       0.006
       0.017
       0.009
       0.002
       0.005
       0.009
       0.006
       0.002
       0.005
       0.010
       0.007
       0.000
       0.002
       0.017
       0.027
       0.016
      -0.004
      -0.004
       0.016
       0.026
       0.006
      -0.023
      -0.031
      -0.015
       0.008
       0.018
       0.012
      -0.001
      -0.006
       0.002
       0.014
       0.017
       0.006
      -0.004
      -0.001
       0.015
       0.030
       0.031
       0.019
       0.004
      -0.003
      -0.003
       0.000
      -0.001
      -0.006
      -0.010
      -0.008
       0.000
       0.009
       0.011
       0.006
      -0.002
      -0.009
      -0.011
      -0.007
      -0.001
       0.005
       0.011
       0.016
       0.019
       0.020
       0.019
       0.017
       0.012
       0.003
      -0.008
      -0.013
      -0.008
       0.002
       0.011
       0.014
       0.011
       0.005
      -0.001
      -0.007
      -0.009
      -0.005
       0.004
       0.013
       0.017
       0.017
       0.014
       0.010
       0.005
       0.001
       0.003
       0.012
       0.020
       0.022
       0.014
       0.003
      -0.004
      -0.004
       0.000
       0.002
       0.002
       0.000
       0.001
       0.002
       0.003
       0.002
       0.001
       0.001
       0.003
       0.002
       0.000
      -0.003
      -0.005
      -0.004
       0.000
       0.007
       0.014
       0.019
       0.017
       0.009
      -0.003
      -0.012
      -0.012
      -0.002
       0.010
       0.014
       0.006
      -0.005
      -0.008
       0.000
       0.013
       0.017
       0.011
      -0.002
      -0.010
      -0.006
       0.006
       0.016
       0.015
       0.006
      -0.003
      -0.005
       0.001
       0.010
       0.013
       0.008
       0.000
      -0.005
      -0.004
       0.000
       0.001
      -0.003
      -0.011
      -0.015
      -0.011
      -0.003
       0.002
       0.000
      -0.007
      -0.014
      -0.013
      -0.004
       0.005
       0.009
       0.003
      -0.011
      -0.023
      -0.022
      -0.008
       0.009
       0.020
       0.021
       0.016
       0.008
      -0.002
      -0.016
      -0.030
      -0.036
      -0.024
       0.000
       0.023
       0.031
       0.024
       0.009
      -0.003
      -0.005
       0.002
       0.013
       0.026
       0.037
       0.045
       0.048
       0.048
       0.051
       0.062
       0.085
       0.116
       0.146
       0.168
       0.181
       0.189
       0.201
       0.219
       0.241
       0.260
       0.272
       0.277
       0.276
       0.273
       0.265
       0.251
       0.226
       0.192
       0.154
       0.114
       0.073
       0.029
      -0.021
      -0.075
      -0.123
      -0.161
      -0.190
      -0.216
      -0.246
      -0.281
      -0.317
      -0.348
      -0.372
      -0.386
      -0.392
      -0.392
      -0.381
      -0.356
      -0.317
      -0.267
      -0.217
      -0.173
      -0.138
      -0.112
      -0.093
      -0.085
      -0.085
      -0.095
      -0.111
      -0.134
      -0.160
      -0.186
      -0.208
      -0.232
      -0.266
      -0.320
      -0.395
      -0.481
      -0.562
      -0.624
      -0.656
      -0.644
      -0.574
      -0.435
      -0.233
       0.013
       0.270
       0.496
       0.655
       0.716
       0.665
       0.511
       0.284
       0.027
      -0.207
      -0.369
      -0.415
      -0.315
      -0.066
       0.300
       0.723
       1.130
       1.463
       1.682
       1.771
       1.729
       1.563
       1.291
       0.937
       0.530
       0.100
      -0.316
      -0.671
      -0.908
      -0.980
      -0.872
      -0.619
      -0.299
      -0.013
       0.151
       0.142
      -0.029
      -0.304
      -0.592
      -0.802
      -0.872
      -0.779
      -0.545
      -0.228
       0.102
       0.382
       0.563
       0.625
       0.566
       0.398
       0.145
      -0.154
      -0.446
      -0.673
      -0.784
      -0.757
      -0.606
      -0.375
      -0.125
       0.091
       0.239
       0.310
       0.313
       0.272
       0.213
       0.150
       0.081
      -0.010
      -0.145
      -0.335
      -0.581
      -0.858
      -1.113
      -1.283
      -1.311
      -1.172
      -0.872
      -0.447
       0.042
       0.517
       0.899
       1.135
       1.213
       1.163
       1.036
       0.885
       0.745
       0.631
       0.538
       0.455
       0.378
       0.322
       0.318
       0.390
       0.527
       0.674
       0.748
       0.675
       0.430
       0.044
      -0.397
      -0.786
      -1.038
      -1.121
      -1.065
      -0.929
      -0.764
      -0.587
      -0.382
      -0.127
       0.182
       0.518
       0.827
       1.042
       1.104
       0.978
       0.669
       0.215
      -0.319
      -0.859
      -1.329
      -1.665
      -1.806
      -1.708
      -1.345
      -0.730
       0.086
       1.005
       1.891
       2.574
       2.877
       2.672
       1.943
       0.813
      -0.481
      -1.655
      -2.450
      -2.700
      -2.380
      -1.609
      -0.609
       0.367
       1.103
       1.476
       1.466
       1.145
       0.647
       0.124
      -0.295
      -0.536
      -0.589
      -0.492
      -0.314
      -0.123
       0.034
       0.154
       0.266
       0.402
       0.563
       0.706
       0.763
       0.683
       0.462
       0.154
      -0.159
      -0.417
      -0.604
      -0.734
      -0.830
      -0.910
      -0.968
      -0.971
      -0.852
      -0.550
      -0.053
       0.571
       1.184
       1.623
       1.761
       1.555
       1.061
       0.400
      -0.296
      -0.926
      -1.442
      -1.822
      -2.049
      -2.090
      -1.904
      -1.459
      -0.755
       0.153
       1.143
       2.037
       2.642
       2.801
       2.451
       1.651
       0.570
      -0.553
      -1.474
      -2.007
      -2.066
      -1.676
      -0.961
      -0.109
       0.673
       1.209
       1.407
       1.278
       0.915
       0.441
      -0.035
      -0.448
      -0.772
      -0.992
      -1.088
      -1.026
      -0.777
      -0.347
       0.199
       0.737
       1.120
       1.230
       1.035
       0.609
       0.100
      -0.341
      -0.624
      -0.743
      -0.750
      -0.705
      -0.634
      -0.520
      -0.315
       0.012
       0.443
       0.891
       1.218
       1.294
       1.056
       0.540
      -0.120
      -0.738
      -1.142
      -1.226
      -0.980
      -0.485
       0.125
       0.699
       1.110
       1.276
       1.166
       0.809
       0.290
      -0.266
      -0.725
      -0.983
      -0.998
      -0.799
      -0.471
      -0.125
       0.136
       0.254
       0.228
       0.107
      -0.038
      -0.142
      -0.175
      -0.138
      -0.057
       0.039
       0.125
       0.183
       0.198
       0.165
       0.094
       0.014
      -0.037
      -0.026
       0.058
       0.190
       0.311
       0.349
       0.256
       0.038
      -0.240
      -0.482
      -0.603
      -0.565
      -0.385
      -0.129
       0.117
       0.289
       0.360
       0.347
       0.288
       0.209
       0.115
      -0.002
      -0.144
      -0.296
      -0.438
      -0.552
      -0.626
      -0.648
      -0.598
      -0.457
      -0.220
       0.089
       0.421
       0.715
       0.921
       1.004
       0.950
       0.773
       0.507
       0.209
      -0.060
      -0.256
      -0.372
      -0.441
      -0.507
      -0.595
      -0.682
      -0.710
      -0.618
      -0.382
      -0.034
       0.353
       0.690
       0.898
       0.933
       0.790
       0.504
       0.139
      -0.229
      -0.527
      -0.703
      -0.736
      -0.633
      -0.423
      -0.143
       0.165
       0.457
       0.683
       0.802
       0.785
       0.631
       0.363
       0.021
      -0.347
      -0.679
      -0.908
      -0.964
      -0.809
      -0.463
      -0.006
       0.449
       0.801
       0.987
       0.977
       0.779
       0.443
       0.048
      -0.321
      -0.593
      -0.730
      -0.735
      -0.637
      -0.472
      -0.264
      -0.032
       0.189
       0.352
       0.407
       0.342
       0.186
       0.004
      -0.130
      -0.168
      -0.105
       0.019
       0.139
       0.196
       0.155
       0.012
      -0.198
      -0.407
      -0.538
      -0.524
      -0.339
      -0.017
       0.360
       0.672
       0.809
       0.705
       0.371
      -0.103
      -0.578
      -0.921
      -1.041
      -0.922
      -0.609
      -0.191
       0.231
       0.576
       0.793
       0.868
       0.811
       0.651
       0.423
       0.168
      -0.074
      -0.264
      -0.374
      -0.392
      -0.330
      -0.222
      -0.110
      -0.028
       0.008
       0.005
      -0.018
      -0.033
      -0.016
       0.049
       0.161
       0.299
       0.419
       0.468
       0.404
       0.213
      -0.072
      -0.375
      -0.597
      -0.653
      -0.508
      -0.197
       0.185
       0.515
       0.694
       0.676
       0.485
       0.192
      -0.119
      -0.386
      -0.577
      -0.683
      -0.698
      -0.619
      -0.442
      -0.181
       0.134
       0.451
       0.711
       0.857
       0.851
       0.686
       0.391
       0.032
      -0.308
      -0.553
      -0.659
      -0.625
      -0.477
      -0.255
       0.007
       0.275
       0.511
       0.675
       0.736
       0.678
       0.500
       0.214
      -0.142
      -0.503
      -0.787
      -0.919
      -0.854
      -0.604
      -0.238
       0.136
       0.415
       0.547
       0.544
       0.455
       0.329
       0.191
       0.043
      -0.117
      -0.274
      -0.398
      -0.456
      -0.439
      -0.361
      -0.262
      -0.175
      -0.111
      -0.054
       0.019
       0.121
       0.246
       0.368
       0.451
       0.465
       0.397
       0.252
       0.052
      -0.167
      -0.365
      -0.507
      -0.560
      -0.509
      -0.360
      -0.146
       0.083
       0.278
       0.408
       0.467
       0.454
       0.366
       0.196
      -0.052
      -0.343
      -0.615
      -0.802
      -0.855
      -0.759
      -0.535
      -0.234
       0.076
       0.337
       0.521
       0.631
       0.687
       0.700
       0.663
       0.564
       0.402
       0.203
       0.015
      -0.104
      -0.112
       0.007
       0.221
       0.458
       0.624
       0.634
       0.453
       0.105
      -0.326
      -0.725
      -0.983
      -1.044
      -0.913
      -0.641
      -0.294
       0.075
       0.423
       0.703
       0.862
       0.855
       0.670
       0.344
      -0.045
      -0.397
      -0.629
      -0.696
      -0.611
      -0.442
      -0.281
      -0.211
      -0.260
