Origin Time       29/08/2013 10:13:21 UTC
Lat.              31.4 N	
Long.             76.1 E	
Depth (Km)         10.0
Magnitude         4.7
 Region           HIMACHAL-PUNJAB-(HOSHIARPUR)-BORDER                              
 Above details taken from IMD 
    
Station Code      KSL
Station Lat.       30.899  N
Station Long.      76.960  E
Station Height(m) 1802.0
Site Class        B   Vs30 between 375 m/sec to 700 m/sec *  
Record Time       29.08.2013 10:13:20.314 UTC
Sampling Rate     200. Hz
 Record Duration   81.545 Sec.
 Direction         N-S (N positive)
Max. Acceleration     -2.489 cm/sec**2
     
  * For reference see Site Classification link of website 
     
 Base Line Corrected and Low Pass Filtered (Cut Off at 35 Hz) Time History
 Acceleration data in cm/sec**2
    
[...]
      -0.032
      -0.121
      -0.196
      -0.268
      -0.345
      -0.420
      -0.476
      -0.495
      -0.465
      -0.386
      -0.270
      -0.138
      -0.014
       0.081
       0.138
       0.156
       0.148
       0.140
       0.158
       0.219
       0.317
       0.422
       0.490
       0.489
       0.415
       0.292
       0.158
       0.045
      -0.039
      -0.108
      -0.182
      -0.268
      -0.350
      -0.391
      -0.359
      -0.248
      -0.090
       0.060
       0.159
       0.193
       0.185
       0.169
       0.171
       0.194
       0.226
       0.251
       0.255
       0.233
       0.188
       0.125
       0.049
      -0.040
      -0.146
      -0.267
      -0.393
      -0.500
      -0.560
      -0.551
      -0.470
      -0.339
      -0.198
      -0.087
      -0.029
      -0.020
      -0.026
      -0.004
       0.076
       0.216
       0.385
       0.534
       0.612
       0.594
       0.480
       0.301
       0.099
      -0.088
      -0.234
      -0.331
      -0.384
      -0.405
      -0.408
      -0.401
      -0.380
      -0.339
      -0.273
      -0.192
      -0.113
      -0.047
       0.013
       0.083
       0.171
       0.268
       0.345
       0.371
       0.337
       0.259
       0.167
       0.091
       0.045
       0.022
       0.002
      -0.043
      -0.124
      -0.227
      -0.322
      -0.377
      -0.379
      -0.335
      -0.261
      -0.171
      -0.078
       0.005
       0.071
       0.123
       0.179
       0.261
       0.372
       0.493
       0.584
       0.610
       0.551
       0.411
       0.222
       0.025
      -0.138
      -0.245
      -0.292
      -0.291
      -0.259
      -0.211
      -0.165
      -0.135
      -0.134
      -0.163
      -0.210
      -0.254
      -0.271
      -0.240
      -0.153
      -0.022
       0.122
       0.234
       0.275
       0.231
       0.121
      -0.013
      -0.122
      -0.167
      -0.132
      -0.032
       0.092
       0.185
       0.210
       0.160
       0.067
      -0.018
      -0.060
      -0.053
      -0.027
      -0.018
      -0.047
      -0.105
      -0.158
      -0.169
      -0.117
      -0.010
       0.131
       0.281
       0.418
       0.513
       0.527
       0.429
       0.221
      -0.049
      -0.299
      -0.448
      -0.452
      -0.321
      -0.110
       0.102
       0.249
       0.291
       0.232
       0.107
      -0.033
      -0.144
      -0.203
      -0.212
      -0.191
      -0.163
      -0.139
      -0.116
      -0.078
      -0.011
       0.081
       0.171
       0.219
       0.193
       0.097
      -0.024
      -0.107
      -0.105
      -0.017
       0.111
       0.210
       0.226
       0.142
      -0.016
      -0.196
      -0.346
      -0.428
      -0.429
      -0.353
      -0.223
      -0.069
       0.069
       0.157
       0.177
       0.131
       0.042
      -0.058
      -0.143
      -0.193
      -0.200
      -0.164
      -0.088
       0.028
       0.177
       0.339
       0.473
       0.529
       0.477
       0.330
       0.143
      -0.004
      -0.053
       0.011
       0.152
       0.303
       0.399
       0.390
       0.259
       0.017
      -0.282
      -0.563
      -0.753
      -0.808
      -0.723
      -0.538
      -0.318
      -0.129
      -0.019
       0.012
       0.003
       0.009
       0.064
       0.161
       0.266
       0.344
       0.375
       0.356
       0.296
       0.212
       0.126
       0.063
       0.042
       0.068
       0.123
       0.168
       0.155
       0.054
      -0.120
      -0.310
      -0.448
      -0.504
      -0.488
      -0.419
      -0.292
      -0.095
       0.146
       0.359
       0.485
       0.512
       0.464
       0.359
       0.205
       0.013
      -0.156
      -0.213
      -0.121
       0.015
       0.037
      -0.085
      -0.226
      -0.278
      -0.256
      -0.229
      -0.220
      -0.201
      -0.148
      -0.084
      -0.031
       0.022
       0.085
       0.122
       0.092
       0.009
      -0.056
      -0.029
       0.098
       0.268
       0.415
       0.497
       0.509
       0.452
       0.333
       0.170
       0.006
      -0.115
      -0.174
      -0.178
      -0.151
      -0.127
      -0.142
      -0.191
      -0.213
      -0.152
      -0.039
       0.025
      -0.025
      -0.165
      -0.324
      -0.436
      -0.468
      -0.415
      -0.284
      -0.108
       0.056
       0.149
       0.153
       0.091
       0.009
      -0.058
      -0.088
      -0.061
       0.025
       0.145
       0.252
       0.301
       0.272
       0.174
       0.048
      -0.051
      -0.083
      -0.038
       0.055
       0.154
       0.228
       0.275
       0.297
       0.297
       0.274
       0.229
       0.167
       0.099
       0.042
       0.008
      -0.010
      -0.033
      -0.087
      -0.183
      -0.303
      -0.406
      -0.451
      -0.416
      -0.311
      -0.167
      -0.025
       0.087
       0.144
       0.135
       0.066
      -0.030
      -0.098
      -0.092
       0.003
       0.158
       0.317
       0.416
       0.416
       0.314
       0.152
       0.001
      -0.076
      -0.053
       0.044
       0.157
       0.216
       0.173
       0.021
      -0.205
      -0.427
      -0.559
      -0.538
      -0.366
      -0.103
       0.148
       0.292
       0.270
       0.088
      -0.194
      -0.474
      -0.653
      -0.669
      -0.524
      -0.280
      -0.025
       0.165
       0.251
       0.240
       0.167
       0.085
       0.042
       0.069
       0.164
       0.304
       0.447
       0.550
       0.579
       0.518
       0.386
       0.234
       0.115
       0.064
       0.073
       0.106
       0.114
       0.060
      -0.064
      -0.240
      -0.425
      -0.566
      -0.627
      -0.595
      -0.492
      -0.350
      -0.199
      -0.058
       0.059
       0.140
       0.179
       0.180
       0.156
       0.120
       0.073
       0.009
      -0.072
      -0.148
      -0.176
      -0.121
       0.015
       0.184
       0.314
       0.347
       0.268
       0.107
      -0.072
      -0.206
      -0.252
      -0.210
      -0.119
      -0.034
      -0.006
      -0.062
      -0.186
      -0.321
      -0.381
      -0.291
      -0.040
       0.304
       0.608
       0.746
       0.664
       0.406
       0.075
      -0.214
      -0.378
      -0.383
      -0.250
      -0.045
       0.141
       0.239
       0.232
       0.157
       0.075
       0.041
       0.072
       0.141
       0.191
       0.172
       0.068
      -0.088
      -0.230
      -0.299
      -0.268
      -0.148
       0.031
       0.222
       0.374
       0.441
       0.405
       0.285
       0.128
      -0.010
      -0.094
      -0.119
      -0.109
      -0.112
      -0.170
      -0.301
      -0.472
      -0.612
      -0.637
      -0.503
      -0.230
       0.102
       0.381
       0.516
       0.475
       0.295
       0.063
      -0.117
      -0.164
      -0.054
       0.168
       0.408
       0.566
       0.577
       0.442
       0.220
      -0.006
      -0.168
      -0.242
      -0.246
      -0.223
      -0.207
      -0.207
      -0.202
      -0.170
      -0.103
      -0.015
       0.061
       0.091
       0.053
      -0.049
      -0.186
      -0.307
      -0.366
      -0.332
      -0.206
      -0.023
       0.162
       0.298
       0.362
       0.361
       0.320
       0.262
       0.193
       0.105
      -0.009
      -0.143
      -0.276
      -0.378
      -0.424
      -0.408
      -0.338
      -0.234
      -0.127
      -0.044
      -0.006
      -0.010
      -0.035
      -0.056
      -0.061
      -0.061
      -0.080
      -0.131
      -0.201
      -0.249
      -0.224
      -0.100
       0.106
       0.335
       0.509
       0.567
       0.493
       0.318
       0.097
      -0.107
      -0.246
      -0.291
      -0.245
      -0.136
      -0.014
       0.078
       0.117
       0.107
       0.070
       0.029
      -0.004
      -0.030
      -0.060
      -0.099
      -0.146
      -0.190
      -0.217
      -0.217
      -0.188
      -0.136
      -0.074
      -0.009
       0.059
       0.137
       0.232
       0.343
       0.463
       0.579
       0.669
       0.706
       0.666
       0.541
       0.351
       0.135
      -0.062
      -0.212
      -0.314
      -0.379
      -0.423
      -0.449
      -0.456
      -0.446
      -0.428
      -0.415
      -0.412
      -0.407
      -0.376
      -0.301
      -0.182
      -0.040
       0.095
       0.209
       0.304
       0.396
       0.489
       0.571
       0.617
       0.604
       0.526
       0.388
       0.203
      -0.007
      -0.211
      -0.372
      -0.457
      -0.451
      -0.368
      -0.241
      -0.110
      -0.004
       0.063
       0.094
       0.099
       0.087
       0.062
       0.026
      -0.015
      -0.046
      -0.046
       0.002
       0.111
       0.280
       0.489
       0.695
       0.839
       0.865
       0.748
       0.504
       0.189
      -0.122
      -0.359
      -0.477
      -0.467
      -0.360
      -0.217
      -0.110
      -0.090
      -0.154
      -0.252
      -0.316
      -0.294
      -0.180
      -0.006
       0.176
       0.324
       0.421
       0.469
       0.483
       0.479
       0.466
       0.446
       0.415
       0.357
       0.253
       0.087
      -0.134
      -0.379
      -0.601
      -0.752
      -0.816
      -0.805
      -0.753
      -0.700
      -0.670
      -0.672
      -0.691
      -0.698
      -0.659
      -0.550
      -0.367
      -0.126
       0.144
       0.409
       0.633
       0.782
       0.827
       0.757
       0.592
       0.380
       0.178
       0.021
      -0.085
      -0.159
      -0.226
      -0.298
      -0.363
      -0.399
      -0.384
      -0.314
      -0.204
      -0.076
       0.048
       0.154
       0.232
       0.276
       0.286
       0.274
       0.267
       0.289
       0.351
       0.432
       0.486
       0.458
       0.320
       0.084
      -0.187
      -0.405
      -0.493
      -0.421
      -0.225
       0.008
       0.170
       0.181
       0.025
      -0.245
      -0.522
      -0.691
      -0.677
      -0.475
      -0.155
       0.170
       0.390
       0.443
       0.335
       0.133
      -0.070
      -0.201
      -0.228
      -0.175
      -0.100
      -0.061
      -0.087
      -0.168
      -0.264
      -0.338
      -0.367
      -0.348
      -0.285
      -0.191
      -0.086
       0.001
       0.042
       0.027
      -0.032
      -0.102
      -0.141
      -0.123
      -0.044
       0.077
       0.214
       0.346
       0.461
       0.547
       0.590
       0.574
       0.490
       0.344
       0.158
      -0.036
      -0.198
      -0.294
      -0.304
      -0.236
      -0.122
      -0.015
       0.034
       0.003
      -0.090
      -0.197
      -0.260
      -0.244
      -0.154
      -0.032
       0.059
       0.065
      -0.035
      -0.219
      -0.424
      -0.566
      -0.578
      -0.440
      -0.189
       0.095
       0.322
       0.430
       0.400
       0.263
       0.076
      -0.090
      -0.181
      -0.164
      -0.042
       0.152
       0.356
       0.505
       0.554
       0.499
       0.378
       0.247
       0.155
       0.126
       0.161
       0.248
       0.366
       0.487
       0.581
       0.619
       0.585
       0.481
       0.335
       0.191
       0.100
       0.092
       0.162
       0.272
       0.365
       0.388
       0.310
       0.139
      -0.077
      -0.271
      -0.385
      -0.399
      -0.339
      -0.260
      -0.213
      -0.220
      -0.272
      -0.343
      -0.397
      -0.403
      -0.342
      -0.215
      -0.048
       0.113
       0.220
       0.249
       0.226
       0.211
       0.260
       0.392
       0.564
       0.699
       0.731
       0.639
       0.461
       0.262
       0.105
       0.021
      -0.003
      -0.004
      -0.034
      -0.131
      -0.316
      -0.585
      -0.907
      -1.226
      -1.476
      -1.601
      -1.586
      -1.461
      -1.285
      -1.115
      -0.987
      -0.914
      -0.886
      -0.891
      -0.916
      -0.949
      -0.981
      -0.992
      -0.952
      -0.830
      -0.611
      -0.316
      -0.002
       0.268
       0.449
       0.533
       0.549
       0.541
       0.552
       0.609
       0.713
       0.848
       0.986
       1.109
       1.207
       1.280
       1.331
       1.356
       1.353
       1.320
       1.255
       1.155
       1.016
       0.841
       0.643
       0.435
       0.230
       0.037
      -0.137
      -0.280
      -0.380
      -0.427
      -0.424
      -0.378
      -0.303
      -0.221
      -0.155
      -0.126
      -0.140
      -0.181
      -0.225
      -0.254
      -0.267
      -0.277
      -0.297
      -0.329
      -0.360
      -0.370
      -0.340
      -0.268
      -0.162
      -0.043
       0.078
       0.200
       0.328
       0.458
       0.581
       0.687
       0.781
       0.880
       1.000
       1.139
       1.269
       1.349
       1.346
       1.254
       1.098
       0.926
       0.791
       0.726
       0.733
       0.780
       0.809
       0.768
       0.628
       0.398
       0.113
      -0.178
      -0.426
      -0.596
      -0.667
      -0.632
      -0.505
      -0.323
      -0.141
      -0.021
      -0.018
      -0.160
      -0.441
      -0.819
      -1.227
      -1.585
      -1.823
      -1.910
      -1.865
      -1.760
      -1.690
      -1.733
      -1.908
      -2.162
      -2.392
      -2.489
      -2.387
      -2.081
      -1.623
      -1.092
      -0.573
      -0.123
       0.235
       0.517
       0.756
       0.985
       1.220
       1.452
       1.651
       1.776
       1.794
       1.697
       1.511
       1.292
       1.107
       1.006
       0.996
       1.044
       1.094
       1.085
       0.981
       0.771
       0.476
       0.145
      -0.157
      -0.365
      -0.440
      -0.375
      -0.204
       0.021
       0.245
       0.421
       0.516
       0.512
       0.409
       0.225
      -0.015
      -0.283
      -0.555
      -0.799
      -0.975
      -1.043
      -0.983
      -0.813
      -0.587
      -0.371
      -0.218
      -0.138
      -0.102
      -0.050
       0.080
       0.318
       0.648
       1.009
       1.312
       1.472
       1.440
       1.214
       0.842
       0.413
       0.019
      -0.261
      -0.393
      -0.391
      -0.308
      -0.218
      -0.188
      -0.254
      -0.406
      -0.594
      -0.750
      -0.821
      -0.798
      -0.713
      -0.617
      -0.544
      -0.503
      -0.481
      -0.467
      -0.464
      -0.483
      -0.533
      -0.614
      -0.713
      -0.808
      -0.880
      -0.920
      -0.933
      -0.930
      -0.903
      -0.822
      -0.651
      -0.381
      -0.031
       0.371
       0.804
       1.254
       1.688
       2.058
       2.315
       2.436
       2.430
       2.323
       2.136
       1.872
       1.518
       1.063
       0.514
      -0.093
      -0.690
      -1.194
      -1.531
      -1.679
      -1.670
      -1.579
      -1.480
      -1.407
      -1.347
      -1.255
      -1.094
      -0.848
      -0.523
      -0.133
       0.307
       0.769
       1.209
       1.577
       1.828
       1.935
       1.895
       1.724
       1.457
       1.138
       0.804
       0.480
       0.188
      -0.047
      -0.197
      -0.254
      -0.240
      -0.208
      -0.211
      -0.265
      -0.341
      -0.384
      -0.360
      -0.284
      -0.212
      -0.208
      -0.298
      -0.459
      -0.628
      -0.750
      -0.803
      -0.799
      -0.770
      -0.746
      -0.749
      -0.784
      -0.847
      -0.918
      -0.970
      -0.976
      -0.916
      -0.792
      -0.626
      -0.458
      -0.321
      -0.220
      -0.116
       0.055
       0.343
       0.735
       1.148
       1.463
       1.588
       1.500
       1.244
       0.905
       0.556
       0.237
      -0.045
      -0.301
      -0.550
      -0.803
      -1.062
      -1.316
      -1.545
      -1.717
      -1.795
      -1.747
      -1.558
      -1.242
      -0.843
      -0.426
      -0.047
       0.265
       0.518
       0.743
       0.971
       1.212
       1.454
       1.671
       1.837
       1.929
       1.938
       1.872
       1.758
       1.634
       1.535
       1.475
       1.437
       1.383
       1.272
       1.075
       0.785
       0.424
       0.038
      -0.314
      -0.578
      -0.725
      -0.760
      -0.718
      -0.642
      -0.566
      -0.499
      -0.437
      -0.377
      -0.340
      -0.364
      -0.474
      -0.655
      -0.847
      -0.976
      -0.989
      -0.875
      -0.661
      -0.395
      -0.129
       0.090
       0.232
       0.299
       0.323
       0.355
       0.433
       0.559
       0.699
       0.797
       0.794
       0.663
       0.413
       0.093
      -0.234
      -0.515
      -0.716
      -0.824
      -0.836
      -0.767
      -0.645
      -0.519
      -0.436
      -0.436
      -0.527
      -0.694
      -0.895
      -1.078
      -1.186
      -1.180
      -1.047
      -0.813
      -0.538
      -0.289
      -0.114
      -0.027
      -0.005
      -0.009
      -0.005
       0.028
       0.083
       0.133
       0.143
       0.089
      -0.023
      -0.156
      -0.250
      -0.245
      -0.111
       0.140
       0.455
       0.760
       0.991
       1.116
       1.138
       1.087
       0.994
       0.885
       0.776
       0.674
       0.587
       0.513
       0.447
       0.379
       0.299
       0.197
       0.072
      -0.065
      -0.195
      -0.293
      -0.343
      -0.346
      -0.320
      -0.281
      -0.234
      -0.165
      -0.056
       0.097
       0.279
       0.458
       0.605
       0.709
       0.786
       0.865
       0.968
       1.091
       1.195
       1.224
       1.129
       0.888
       0.516
       0.070
      -0.373
      -0.739
      -0.978
      -1.080
      -1.078
      -1.033
      -1.013
      -1.075
      -1.239
      -1.476
      -1.713
      -1.863
      -1.865
      -1.712
      -1.445
      -1.125
      -0.797
      -0.484
      -0.191
       0.083
       0.340
       0.592
       0.848
       1.098
       1.298
       1.382
       1.305
       1.074
       0.759
       0.455
       0.238
       0.132
       0.112
       0.124
       0.123
       0.088
       0.025
      -0.040
      -0.078
      -0.067
       0.009
       0.155
       0.361
       0.604
       0.842
       1.030
       1.138
       1.151
       1.074
       0.923
       0.722
       0.495
       0.267
       0.053
      -0.147
      -0.352
      -0.587
      -0.863
      -1.163
      -1.450
      -1.685
      -1.837
      -1.894
      -1.846
      -1.695
      -1.456
      -1.160
      -0.850
      -0.568
      -0.335
      -0.139
       0.057
       0.302
       0.618
       0.979
       1.310
       1.518
       1.533
       1.335
       0.963
       0.503
       0.057
      -0.290
      -0.501
      -0.596
      -0.635
      -0.681
      -0.766
      -0.869
      -0.932
      -0.894
      -0.725
      -0.445
      -0.118
       0.175
       0.374
       0.464
       0.476
       0.467
       0.480
       0.527
       0.596
       0.669
       0.738
       0.808
       0.879
       0.941
       0.972
       0.942
