Origin Time       18/01/2011 20:23:27 UTC
Lat.              28.9 N	
Long.             64.0 E	
Depth (Km)          5.0
Magnitude         7.4
 Region           Southwestern-Pakistan                                            
 Above details taken from IMD 
    
Station Code      KSL
Station Lat.       30.899  N
Station Long.      76.960  E
Station Height(m) 1802.0
Site Class        B   Vs30 between 375 m/sec to 700 m/sec *  
Record Time       18.01.2011 20:27:39.989 UTC
Sampling Rate     200. Hz
 Record Duration   88.525 Sec.
 Direction         N-S (N positive)
Max. Acceleration     -2.126 cm/sec**2
     
  * For reference see Site Classification link of website 
     
 Base Line Corrected and Low Pass Filtered (Cut Off at 35 Hz) Time History
 Acceleration data in cm/sec**2
    
[...]
       0.128
       0.123
       0.116
       0.104
       0.087
       0.065
       0.041
       0.017
      -0.005
      -0.027
      -0.044
      -0.056
      -0.061
      -0.061
      -0.056
      -0.046
      -0.033
      -0.020
      -0.006
       0.009
       0.029
       0.055
       0.085
       0.115
       0.142
       0.166
       0.187
       0.205
       0.216
       0.221
       0.220
       0.217
       0.214
       0.211
       0.204
       0.189
       0.168
       0.143
       0.117
       0.093
       0.074
       0.059
       0.049
       0.044
       0.041
       0.042
       0.046
       0.050
       0.050
       0.045
       0.037
       0.029
       0.022
       0.017
       0.010
       0.002
      -0.007
      -0.018
      -0.030
      -0.041
      -0.055
      -0.070
      -0.084
      -0.095
      -0.098
      -0.096
      -0.092
      -0.090
      -0.086
      -0.076
      -0.056
      -0.029
       0.001
       0.030
       0.060
       0.090
       0.117
       0.137
       0.147
       0.151
       0.152
       0.157
       0.163
       0.163
       0.153
       0.129
       0.095
       0.058
       0.021
      -0.014
      -0.045
      -0.071
      -0.093
      -0.111
      -0.130
      -0.151
      -0.171
      -0.183
      -0.181
      -0.161
      -0.130
      -0.096
      -0.064
      -0.036
      -0.011
       0.010
       0.028
       0.039
       0.043
       0.041
       0.033
       0.022
       0.010
       0.000
      -0.011
      -0.025
      -0.046
      -0.072
      -0.102
      -0.131
      -0.160
      -0.187
      -0.212
      -0.232
      -0.248
      -0.260
      -0.271
      -0.275
      -0.269
      -0.251
      -0.227
      -0.203
      -0.184
      -0.171
      -0.161
      -0.149
      -0.136
      -0.121
      -0.107
      -0.094
      -0.086
      -0.084
      -0.093
      -0.113
      -0.141
      -0.173
      -0.202
      -0.225
      -0.242
      -0.254
      -0.265
      -0.275
      -0.284
      -0.287
      -0.283
      -0.275
      -0.264
      -0.251
      -0.233
      -0.208
      -0.177
      -0.141
      -0.100
      -0.053
      -0.001
       0.053
       0.105
       0.150
       0.186
       0.211
       0.224
       0.225
       0.216
       0.203
       0.187
       0.169
       0.148
       0.124
       0.099
       0.073
       0.047
       0.018
      -0.014
      -0.043
      -0.064
      -0.075
      -0.077
      -0.074
      -0.070
      -0.061
      -0.045
      -0.023
       0.000
       0.019
       0.031
       0.035
       0.031
       0.015
      -0.011
      -0.046
      -0.084
      -0.124
      -0.165
      -0.209
      -0.259
      -0.313
      -0.371
      -0.426
      -0.472
      -0.504
      -0.518
      -0.519
      -0.514
      -0.506
      -0.497
      -0.483
      -0.461
      -0.434
      -0.402
      -0.368
      -0.333
      -0.298
      -0.265
      -0.239
      -0.220
      -0.209
      -0.206
      -0.208
      -0.213
      -0.220
      -0.230
      -0.244
      -0.261
      -0.278
      -0.291
      -0.298
      -0.296
      -0.284
      -0.265
      -0.238
      -0.208
      -0.174
      -0.140
      -0.107
      -0.076
      -0.046
      -0.021
       0.000
       0.015
       0.023
       0.024
       0.018
       0.005
      -0.020
      -0.055
      -0.099
      -0.145
      -0.186
      -0.219
      -0.243
      -0.260
      -0.275
      -0.288
      -0.294
      -0.289
      -0.272
      -0.245
      -0.215
      -0.187
      -0.163
      -0.145
      -0.132
      -0.125
      -0.125
      -0.129
      -0.138
      -0.149
      -0.162
      -0.175
      -0.191
      -0.211
      -0.231
      -0.252
      -0.269
      -0.281
      -0.283
      -0.277
      -0.262
      -0.242
      -0.220
      -0.199
      -0.178
      -0.157
      -0.129
      -0.093
      -0.051
      -0.010
       0.019
       0.031
       0.026
       0.007
      -0.019
      -0.047
      -0.078
      -0.111
      -0.144
      -0.174
      -0.196
      -0.207
      -0.211
      -0.211
      -0.209
      -0.205
      -0.195
      -0.177
      -0.151
      -0.122
      -0.095
      -0.073
      -0.056
      -0.042
      -0.029
      -0.018
      -0.013
      -0.017
      -0.032
      -0.055
      -0.078
      -0.096
      -0.107
      -0.116
      -0.126
      -0.135
      -0.135
      -0.122
      -0.099
      -0.068
      -0.035
       0.002
       0.046
       0.098
       0.155
       0.214
       0.267
       0.314
       0.352
       0.381
       0.404
       0.422
       0.431
       0.429
       0.416
       0.395
       0.372
       0.352
       0.332
       0.308
       0.277
       0.245
       0.217
       0.198
       0.188
       0.183
       0.182
       0.188
       0.203
       0.225
       0.249
       0.270
       0.282
       0.284
       0.275
       0.259
       0.235
       0.209
       0.183
       0.159
       0.136
       0.112
       0.083
       0.050
       0.015
      -0.017
      -0.045
      -0.065
      -0.077
      -0.078
      -0.065
      -0.037
       0.000
       0.041
       0.081
       0.119
       0.154
       0.184
       0.206
       0.220
       0.229
       0.240
       0.255
       0.274
       0.298
       0.321
       0.341
       0.351
       0.350
       0.341
       0.329
       0.319
       0.317
       0.323
       0.339
       0.361
       0.386
       0.410
       0.430
       0.449
       0.469
       0.492
       0.517
       0.539
       0.557
       0.569
       0.578
       0.590
       0.603
       0.614
       0.618
       0.613
       0.602
       0.588
       0.575
       0.562
       0.546
       0.527
       0.505
       0.483
       0.461
       0.438
       0.411
       0.380
       0.348
       0.320
       0.299
       0.287
       0.281
       0.277
       0.275
       0.274
       0.277
       0.288
       0.308
       0.341
       0.384
       0.434
       0.486
       0.535
       0.579
       0.618
       0.652
       0.679
       0.699
       0.709
       0.709
       0.701
       0.683
       0.656
       0.619
       0.573
       0.519
       0.456
       0.386
       0.314
       0.244
       0.179
       0.116
       0.050
      -0.019
      -0.087
      -0.151
      -0.207
      -0.256
      -0.298
      -0.337
      -0.373
      -0.405
      -0.433
      -0.457
      -0.477
      -0.495
      -0.511
      -0.525
      -0.537
      -0.548
      -0.558
      -0.567
      -0.576
      -0.580
      -0.577
      -0.565
      -0.544
      -0.514
      -0.477
      -0.433
      -0.382
      -0.322
      -0.252
      -0.172
      -0.087
      -0.006
       0.066
       0.131
       0.194
       0.258
       0.321
       0.377
       0.422
       0.456
       0.481
       0.499
       0.509
       0.512
       0.506
       0.492
       0.473
       0.453
       0.436
       0.421
       0.408
       0.394
       0.376
       0.360
       0.353
       0.358
       0.376
       0.398
       0.419
       0.437
       0.453
       0.466
       0.472
       0.468
       0.450
       0.420
       0.381
       0.336
       0.282
       0.220
       0.153
       0.087
       0.022
      -0.042
      -0.110
      -0.181
      -0.251
      -0.311
      -0.357
      -0.387
      -0.403
      -0.405
      -0.396
      -0.380
      -0.360
      -0.338
      -0.315
      -0.290
      -0.265
      -0.241
      -0.220
      -0.207
      -0.202
      -0.205
      -0.213
      -0.224
      -0.239
      -0.257
      -0.278
      -0.298
      -0.316
      -0.330
      -0.341
      -0.347
      -0.347
      -0.340
      -0.323
      -0.295
      -0.258
      -0.212
      -0.160
      -0.107
      -0.053
       0.000
       0.052
       0.103
       0.151
       0.193
       0.230
       0.263
       0.288
       0.306
       0.315
       0.318
       0.314
       0.303
       0.285
       0.261
       0.232
       0.202
       0.170
       0.136
       0.101
       0.069
       0.046
       0.033
       0.026
       0.022
       0.017
       0.015
       0.013
       0.010
       0.003
      -0.008
      -0.020
      -0.028
      -0.034
      -0.038
      -0.043
      -0.050
      -0.056
      -0.062
      -0.068
      -0.073
      -0.076
      -0.078
      -0.080
      -0.085
      -0.095
      -0.108
      -0.119
      -0.125
      -0.125
      -0.122
      -0.120
      -0.123
      -0.130
      -0.140
      -0.150
      -0.156
      -0.160
      -0.164
      -0.176
      -0.201
      -0.241
      -0.293
      -0.353
      -0.420
      -0.491
      -0.565
      -0.639
      -0.714
      -0.788
      -0.864
      -0.940
      -1.016
      -1.092
      -1.166
      -1.236
      -1.297
      -1.344
      -1.374
      -1.390
      -1.397
      -1.397
      -1.390
      -1.370
      -1.337
      -1.294
      -1.244
      -1.191
      -1.133
      -1.067
      -0.998
      -0.929
      -0.860
      -0.785
      -0.700
      -0.609
      -0.522
      -0.447
      -0.382
      -0.321
      -0.256
      -0.185
      -0.114
      -0.045
       0.020
       0.081
       0.137
       0.186
       0.224
       0.249
       0.262
       0.263
       0.256
       0.249
       0.245
       0.239
       0.222
       0.186
       0.132
       0.066
      -0.004
      -0.073
      -0.141
      -0.205
      -0.262
      -0.309
      -0.342
      -0.359
      -0.366
      -0.367
      -0.368
      -0.372
      -0.377
      -0.376
      -0.367
      -0.352
      -0.334
      -0.319
      -0.308
      -0.301
      -0.299
      -0.305
      -0.317
      -0.337
      -0.362
      -0.387
      -0.408
      -0.425
      -0.442
      -0.461
      -0.478
      -0.488
      -0.485
      -0.471
      -0.450
      -0.424
      -0.392
      -0.352
      -0.298
      -0.230
      -0.150
      -0.062
       0.027
       0.110
       0.187
       0.262
       0.334
       0.404
       0.463
       0.506
       0.534
       0.550
       0.559
       0.565
       0.565
       0.555
       0.530
       0.495
       0.455
       0.415
       0.375
       0.332
       0.286
       0.239
       0.199
       0.173
       0.158
       0.149
       0.142
       0.136
       0.138
       0.149
       0.165
       0.181
       0.194
       0.209
       0.229
       0.255
       0.283
       0.307
       0.329
       0.348
       0.367
       0.386
       0.402
       0.414
       0.422
       0.429
       0.434
       0.433
       0.427
       0.415
       0.400
       0.385
       0.369
       0.349
       0.323
       0.292
       0.258
       0.223
       0.186
       0.149
       0.111
       0.076
       0.045
       0.016
      -0.011
      -0.035
      -0.051
      -0.057
      -0.056
      -0.054
      -0.054
      -0.053
      -0.045
      -0.027
      -0.001
       0.031
       0.069
       0.116
       0.172
       0.237
       0.307
       0.379
       0.448
       0.512
       0.573
       0.632
       0.687
       0.737
       0.780
       0.814
       0.839
       0.856
       0.863
       0.859
       0.846
       0.823
       0.792
       0.757
       0.721
       0.684
       0.650
       0.618
       0.588
       0.560
       0.533
       0.511
       0.493
       0.477
       0.463
       0.447
       0.430
       0.408
       0.383
       0.356
       0.327
       0.296
       0.262
       0.223
       0.177
       0.125
       0.067
       0.004
      -0.062
      -0.130
      -0.199
      -0.269
      -0.341
      -0.413
      -0.481
      -0.541
      -0.589
      -0.623
      -0.644
      -0.652
      -0.647
      -0.628
      -0.595
      -0.549
      -0.488
      -0.409
      -0.310
      -0.192
      -0.059
       0.083
       0.229
       0.377
       0.526
       0.678
       0.833
       0.987
       1.134
       1.265
       1.374
       1.462
       1.529
       1.578
       1.605
       1.606
       1.579
       1.527
       1.456
       1.371
       1.273
       1.160
       1.030
       0.889
       0.742
       0.591
       0.440
       0.290
       0.147
       0.021
      -0.085
      -0.171
      -0.244
      -0.308
      -0.365
      -0.413
      -0.455
      -0.493
      -0.527
      -0.553
      -0.564
      -0.553
      -0.521
      -0.475
      -0.426
      -0.381
      -0.337
      -0.290
      -0.238
      -0.185
      -0.137
      -0.093
      -0.044
       0.018
       0.093
       0.178
       0.265
       0.353
       0.440
       0.529
       0.620
       0.712
       0.803
       0.893
       0.981
       1.061
       1.130
       1.182
       1.213
       1.222
       1.208
       1.177
       1.133
       1.076
       1.003
       0.910
       0.799
       0.676
       0.550
       0.427
       0.307
       0.190
       0.073
      -0.040
      -0.146
      -0.239
      -0.310
      -0.353
      -0.366
      -0.350
      -0.309
      -0.249
      -0.174
      -0.084
       0.018
       0.128
       0.241
       0.352
       0.458
       0.556
       0.646
       0.725
       0.787
       0.831
       0.855
       0.864
       0.862
       0.853
       0.834
       0.801
       0.748
       0.675
       0.588
       0.491
       0.383
       0.262
       0.133
       0.002
      -0.123
      -0.240
      -0.353
      -0.467
      -0.586
      -0.709
      -0.836
      -0.965
      -1.095
      -1.224
      -1.350
      -1.474
      -1.595
      -1.707
      -1.807
      -1.891
      -1.962
      -2.024
      -2.075
      -2.110
      -2.126
      -2.123
      -2.106
      -2.079
      -2.044
      -2.000
      -1.949
      -1.894
      -1.841
      -1.791
      -1.742
      -1.690
      -1.632
      -1.568
      -1.497
      -1.421
      -1.341
      -1.258
      -1.170
      -1.080
      -0.989
      -0.901
      -0.817
      -0.739
      -0.664
      -0.590
      -0.515
      -0.440
      -0.366
      -0.293
      -0.224
      -0.162
      -0.111
      -0.075
      -0.057
      -0.060
      -0.084
      -0.125
      -0.175
      -0.231
      -0.291
      -0.357
      -0.432
      -0.515
      -0.601
      -0.684
      -0.759
      -0.817
      -0.857
      -0.876
      -0.876
      -0.859
      -0.824
      -0.773
      -0.709
      -0.638
      -0.562
      -0.482
      -0.394
      -0.299
      -0.200
      -0.105
      -0.020
       0.049
       0.101
       0.135
       0.150
       0.144
       0.120
       0.082
       0.035
      -0.018
      -0.076
      -0.143
      -0.224
      -0.318
      -0.419
      -0.520
      -0.618
      -0.714
      -0.818
      -0.932
      -1.055
      -1.179
      -1.294
      -1.397
      -1.487
      -1.566
      -1.632
      -1.681
      -1.713
      -1.725
      -1.718
      -1.689
      -1.634
      -1.554
      -1.451
      -1.326
      -1.183
      -1.024
      -0.853
      -0.672
      -0.484
      -0.292
      -0.099
       0.094
       0.286
       0.476
       0.660
       0.831
       0.983
       1.115
       1.231
       1.332
       1.417
       1.482
       1.527
       1.555
       1.574
       1.587
       1.592
       1.583
       1.554
       1.507
       1.446
       1.375
       1.295
       1.201
       1.094
       0.977
       0.861
       0.752
       0.648
       0.544
       0.431
       0.311
       0.192
       0.082
      -0.013
      -0.097
      -0.171
      -0.237
      -0.292
      -0.340
      -0.382
      -0.423
      -0.461
      -0.492
      -0.512
      -0.522
      -0.522
      -0.509
      -0.482
      -0.436
      -0.373
      -0.297
      -0.212
      -0.125
      -0.039
       0.047
       0.133
       0.218
       0.305
       0.392
       0.483
       0.579
       0.676
       0.771
       0.862
       0.948
       1.026
       1.094
       1.145
       1.179
       1.197
       1.205
       1.203
       1.188
       1.157
       1.107
       1.042
       0.968
       0.890
       0.808
       0.720
       0.624
       0.523
       0.426
       0.338
       0.262
       0.196
       0.140
       0.092
       0.055
       0.032
       0.021
       0.019
       0.025
       0.038
       0.060
       0.090
       0.126
       0.168
       0.215
       0.265
       0.319
       0.376
       0.438
       0.504
       0.571
       0.634
       0.691
       0.743
       0.795
       0.848
       0.899
       0.946
       0.985
       1.016
       1.042
       1.065
       1.087
       1.106
       1.122
       1.130
       1.127
       1.114
       1.094
       1.072
       1.053
       1.035
       1.019
       1.007
       1.003
       1.010
       1.027
       1.048
       1.067
       1.082
       1.096
       1.111
       1.127
       1.140
       1.144
       1.135
       1.111
       1.076
       1.031
       0.976
       0.909
       0.829
       0.743
       0.653
       0.565
       0.476
       0.387
       0.294
       0.200
       0.108
       0.020
      -0.062
      -0.138
      -0.208
      -0.272
      -0.332
      -0.387
      -0.436
      -0.476
      -0.502
      -0.513
      -0.509
      -0.491
      -0.462
      -0.423
      -0.373
      -0.312
      -0.245
      -0.175
      -0.107
      -0.042
       0.024
       0.095
       0.171
       0.251
       0.331
       0.410
       0.489
       0.568
       0.641
       0.702
       0.745
       0.766
       0.769
       0.752
       0.717
       0.662
       0.589
       0.500
       0.399
       0.292
       0.186
       0.087
      -0.003
      -0.087
      -0.169
      -0.249
      -0.325
      -0.393
      -0.449
      -0.490
      -0.511
      -0.512
      -0.492
      -0.456
      -0.406
      -0.344
      -0.274
      -0.203
      -0.135
      -0.069
      -0.004
       0.062
       0.126
       0.184
       0.230
       0.263
       0.283
       0.294
       0.301
       0.305
       0.304
       0.296
       0.279
       0.259
       0.246
       0.242
       0.249
       0.262
       0.277
       0.288
       0.294
       0.295
       0.293
       0.287
       0.272
       0.245
       0.208
       0.165
       0.121
       0.074
       0.016
      -0.054
      -0.135
      -0.219
      -0.299
      -0.376
      -0.451
      -0.525
      -0.597
      -0.660
      -0.711
      -0.748
      -0.771
      -0.779
      -0.777
      -0.766
      -0.753
      -0.740
      -0.731
      -0.725
      -0.720
      -0.713
      -0.705
      -0.701
      -0.705
      -0.722
      -0.751
      -0.788
      -0.829
      -0.875
      -0.926
      -0.983
      -1.041
      -1.096
      -1.141
      -1.174
      -1.196
      -1.210
      -1.218
      -1.221
      -1.216
      -1.203
      -1.182
      -1.150
      -1.104
      -1.047
      -0.985
      -0.925
      -0.868
      -0.811
      -0.751
      -0.690
      -0.632
      -0.582
      -0.543
      -0.511
      -0.481
      -0.451
      -0.419
      -0.385
      -0.346
      -0.301
      -0.255
      -0.207
      -0.157
      -0.101
      -0.036
       0.036
       0.112
       0.189
       0.266
       0.338
       0.403
       0.454
       0.488
       0.503
       0.495
       0.465
       0.414
       0.344
       0.257
       0.155
       0.042
      -0.079
      -0.202
      -0.322
      -0.436
      -0.546
      -0.655
      -0.767
      -0.882
      -0.996
      -1.102
      -1.194
