Origin Time       29/08/2013 10:13:21
Lat.              31.4 N	
Long.             76.1 E	
Depth (Km)         10.0
Magnitude         4.7
 Region           HIMACHAL-PUNJAB-(HOSHIARPUR)-BORDER                              
 Above details taken from IMD 
     
Station Code      KSL
Station Lat.       30.899  N
Station Long.      76.960  E
Station Height(m) 1802.0
Site Class        B   Vs30 between 375 m/sec to 700 m/sec *  
Record Time       29.08.2013 10:13:20.314
Sampling Rate     200. Hz
 Record Duration   81.545 Sec.
 Direction         E-W (E positive)
Max. Acceleration     -4.365 cm/sec**2
     
  * For reference see Site Classification link of website 
     
 Base Line Corrected and Low Pass Filtered (Cut Off at 35 Hz) Time History
 Acceleration data in cm/sec**2
    
[...]
       0.215
       0.154
       0.092
       0.044
       0.018
       0.011
       0.007
      -0.021
      -0.088
      -0.194
      -0.321
      -0.438
      -0.516
      -0.526
      -0.451
      -0.289
      -0.063
       0.186
       0.413
       0.584
       0.685
       0.714
       0.676
       0.579
       0.435
       0.267
       0.108
      -0.010
      -0.072
      -0.085
      -0.076
      -0.076
      -0.108
      -0.175
      -0.263
      -0.350
      -0.418
      -0.453
      -0.448
      -0.397
      -0.300
      -0.167
      -0.019
       0.119
       0.233
       0.318
       0.371
       0.388
       0.359
       0.283
       0.170
       0.042
      -0.079
      -0.179
      -0.255
      -0.307
      -0.336
      -0.340
      -0.320
      -0.278
      -0.219
      -0.154
      -0.098
      -0.061
      -0.047
      -0.046
      -0.031
       0.028
       0.154
       0.334
       0.523
       0.660
       0.695
       0.620
       0.470
       0.306
       0.183
       0.121
       0.105
       0.100
       0.075
       0.018
      -0.068
      -0.171
      -0.277
      -0.366
      -0.417
      -0.420
      -0.379
      -0.310
      -0.232
      -0.148
      -0.051
       0.068
       0.202
       0.329
       0.411
       0.417
       0.343
       0.217
       0.100
       0.048
       0.078
       0.161
       0.234
       0.243
       0.170
       0.040
      -0.102
      -0.218
      -0.293
      -0.331
      -0.351
      -0.366
      -0.380
      -0.385
      -0.366
      -0.312
      -0.224
      -0.121
      -0.025
       0.047
       0.094
       0.131
       0.170
       0.212
       0.239
       0.230
       0.172
       0.068
      -0.060
      -0.185
      -0.277
      -0.316
      -0.297
      -0.228
      -0.131
      -0.033
       0.049
       0.107
       0.144
       0.169
       0.185
       0.201
       0.221
       0.250
       0.290
       0.337
       0.390
       0.441
       0.475
       0.466
       0.396
       0.262
       0.088
      -0.080
      -0.201
      -0.252
      -0.245
      -0.219
      -0.214
      -0.252
      -0.317
      -0.372
      -0.376
      -0.315
      -0.205
      -0.086
       0.002
       0.033
       0.011
      -0.037
      -0.075
      -0.073
      -0.022
       0.058
       0.129
       0.157
       0.128
       0.053
      -0.037
      -0.114
      -0.164
      -0.192
      -0.211
      -0.227
      -0.240
      -0.241
      -0.216
      -0.156
      -0.059
       0.064
       0.196
       0.316
       0.418
       0.505
       0.591
       0.681
       0.765
       0.814
       0.793
       0.681
       0.480
       0.217
      -0.063
      -0.312
      -0.490
      -0.578
      -0.588
      -0.557
      -0.528
      -0.531
      -0.569
      -0.618
      -0.644
      -0.615
      -0.508
      -0.318
      -0.057
       0.239
       0.518
       0.730
       0.850
       0.881
       0.848
       0.777
       0.684
       0.574
       0.450
       0.314
       0.168
       0.012
      -0.151
      -0.317
      -0.475
      -0.613
      -0.719
      -0.788
      -0.817
      -0.809
      -0.766
      -0.684
      -0.551
      -0.356
      -0.097
       0.200
       0.487
       0.708
       0.821
       0.811
       0.695
       0.512
       0.309
       0.126
      -0.018
      -0.119
      -0.184
      -0.219
      -0.237
      -0.251
      -0.282
      -0.353
      -0.476
      -0.642
      -0.823
      -0.968
      -1.022
      -0.940
      -0.701
      -0.320
       0.153
       0.635
       1.045
       1.319
       1.436
       1.407
       1.264
       1.049
       0.807
       0.578
       0.391
       0.248
       0.130
       0.004
      -0.153
      -0.347
      -0.561
      -0.767
      -0.935
      -1.044
      -1.085
      -1.055
      -0.955
      -0.782
      -0.534
      -0.224
       0.112
       0.419
       0.641
       0.751
       0.759
       0.708
       0.652
       0.629
       0.645
       0.684
       0.712
       0.693
       0.591
       0.387
       0.095
      -0.241
      -0.561
      -0.812
      -0.964
      -1.010
      -0.963
      -0.845
      -0.689
      -0.523
      -0.366
      -0.224
      -0.094
       0.028
       0.146
       0.266
       0.389
       0.508
       0.609
       0.671
       0.682
       0.646
       0.567
       0.441
       0.270
       0.069
      -0.134
      -0.319
      -0.474
      -0.588
      -0.638
      -0.622
      -0.565
      -0.505
      -0.448
      -0.362
      -0.194
       0.073
       0.376
       0.611
       0.746
       0.826
       0.870
       0.833
       0.705
       0.545
       0.420
       0.337
       0.250
       0.110
      -0.084
      -0.301
      -0.527
      -0.771
      -1.013
      -1.201
      -1.280
      -1.227
      -1.064
      -0.836
      -0.582
      -0.330
      -0.108
       0.052
       0.150
       0.226
       0.335
       0.496
       0.692
       0.881
       1.029
       1.112
       1.116
       1.033
       0.858
       0.599
       0.301
       0.032
      -0.169
      -0.313
      -0.419
      -0.480
      -0.479
      -0.425
      -0.342
      -0.258
      -0.198
      -0.178
      -0.188
      -0.201
      -0.181
      -0.104
       0.032
       0.201
       0.362
       0.473
       0.501
       0.430
       0.281
       0.098
      -0.071
      -0.197
      -0.270
      -0.297
      -0.299
      -0.299
      -0.313
      -0.340
      -0.370
      -0.391
      -0.398
      -0.388
      -0.356
      -0.295
      -0.205
      -0.089
       0.049
       0.201
       0.349
       0.466
       0.526
       0.512
       0.435
       0.327
       0.231
       0.181
       0.178
       0.197
       0.199
       0.152
       0.038
      -0.133
      -0.329
      -0.497
      -0.591
      -0.590
      -0.508
      -0.385
      -0.266
      -0.178
      -0.123
      -0.080
      -0.019
       0.085
       0.233
       0.399
       0.540
       0.617
       0.613
       0.536
       0.417
       0.300
       0.221
       0.193
       0.199
       0.196
       0.148
       0.036
      -0.124
      -0.297
      -0.442
      -0.521
      -0.514
      -0.420
      -0.268
      -0.100
       0.037
       0.116
       0.137
       0.115
       0.074
       0.038
       0.022
       0.034
       0.068
       0.103
       0.117
       0.098
       0.043
      -0.043
      -0.155
      -0.279
      -0.384
      -0.434
      -0.401
      -0.293
      -0.146
      -0.010
       0.079
       0.111
       0.098
       0.072
       0.065
       0.102
       0.186
       0.297
       0.402
       0.468
       0.477
       0.427
       0.332
       0.215
       0.099
      -0.004
      -0.093
      -0.173
      -0.245
      -0.295
      -0.309
      -0.286
      -0.241
      -0.202
      -0.189
      -0.201
      -0.223
      -0.233
      -0.216
      -0.172
      -0.109
      -0.043
       0.014
       0.051
       0.071
       0.084
       0.115
       0.188
       0.310
       0.458
       0.580
       0.620
       0.555
       0.402
       0.207
       0.020
      -0.122
      -0.204
      -0.230
      -0.215
      -0.181
      -0.158
      -0.168
      -0.214
      -0.274
      -0.315
      -0.312
      -0.254
      -0.149
      -0.019
       0.109
       0.212
       0.276
       0.299
       0.284
       0.236
       0.161
       0.069
      -0.024
      -0.098
      -0.141
      -0.157
      -0.160
      -0.166
      -0.179
      -0.192
      -0.201
      -0.199
      -0.186
      -0.163
      -0.129
      -0.084
      -0.028
       0.044
       0.136
       0.244
       0.351
       0.427
       0.443
       0.391
       0.286
       0.169
       0.081
       0.048
       0.070
       0.116
       0.143
       0.111
       0.002
      -0.165
      -0.344
      -0.475
      -0.512
      -0.446
      -0.315
      -0.179
      -0.088
      -0.056
      -0.066
      -0.086
      -0.094
      -0.089
      -0.082
      -0.082
      -0.087
      -0.086
      -0.071
      -0.034
       0.026
       0.104
       0.179
       0.220
       0.198
       0.116
       0.012
      -0.053
      -0.032
       0.078
       0.231
       0.352
       0.380
       0.291
       0.114
      -0.092
      -0.258
      -0.332
      -0.298
      -0.178
      -0.024
       0.107
       0.175
       0.176
       0.134
       0.081
       0.040
       0.009
      -0.027
      -0.085
      -0.168
      -0.256
      -0.321
      -0.335
      -0.289
      -0.201
      -0.106
      -0.040
      -0.019
      -0.034
      -0.053
      -0.045
       0.007
       0.093
       0.184
       0.243
       0.248
       0.196
       0.110
       0.029
      -0.016
      -0.010
       0.036
       0.088
       0.104
       0.061
      -0.041
      -0.173
      -0.300
      -0.397
      -0.450
      -0.454
      -0.406
      -0.303
      -0.152
       0.028
       0.208
       0.360
       0.468
       0.521
       0.522
       0.475
       0.388
       0.275
       0.153
       0.042
      -0.042
      -0.085
      -0.083
      -0.046
       0.010
       0.065
       0.103
       0.115
       0.099
       0.061
       0.016
      -0.021
      -0.038
      -0.029
       0.001
       0.042
       0.087
       0.136
       0.193
       0.258
       0.320
       0.359
       0.355
       0.298
       0.196
       0.068
      -0.062
      -0.174
      -0.254
      -0.295
      -0.293
      -0.257
      -0.208
      -0.171
      -0.165
      -0.193
      -0.242
      -0.297
      -0.345
      -0.378
      -0.384
      -0.346
      -0.252
      -0.108
       0.068
       0.248
       0.409
       0.534
       0.613
       0.643
       0.620
       0.542
       0.412
       0.239
       0.042
      -0.155
      -0.330
      -0.469
      -0.568
      -0.635
      -0.681
      -0.719
      -0.746
      -0.742
      -0.676
      -0.521
      -0.273
       0.032
       0.333
       0.567
       0.695
       0.722
       0.682
       0.622
       0.574
       0.544
       0.518
       0.477
       0.405
       0.305
       0.193
       0.091
       0.013
      -0.046
      -0.102
      -0.172
      -0.254
      -0.329
      -0.369
      -0.356
      -0.292
      -0.198
      -0.105
      -0.031
       0.015
       0.041
       0.060
       0.085
       0.124
       0.172
       0.216
       0.237
       0.221
       0.168
       0.093
       0.017
      -0.041
      -0.081
      -0.118
      -0.176
      -0.274
      -0.410
      -0.565
      -0.709
      -0.806
      -0.821
      -0.734
      -0.544
      -0.284
      -0.007
       0.229
       0.383
       0.438
       0.411
       0.341
       0.282
       0.273
       0.328
       0.425
       0.523
       0.576
       0.555
       0.462
       0.320
       0.162
       0.008
      -0.134
      -0.274
      -0.420
      -0.573
      -0.721
      -0.833
      -0.878
      -0.838
      -0.723
      -0.575
      -0.443
      -0.359
      -0.323
      -0.302
      -0.252
      -0.139
       0.046
       0.284
       0.529
       0.728
       0.835
       0.833
       0.736
       0.589
       0.442
       0.328
       0.253
       0.201
       0.155
       0.108
       0.062
       0.020
      -0.018
      -0.057
      -0.105
      -0.163
      -0.222
      -0.261
      -0.253
      -0.178
      -0.037
       0.139
       0.302
       0.403
       0.416
       0.342
       0.210
       0.063
      -0.062
      -0.146
      -0.186
      -0.192
      -0.173
      -0.134
      -0.082
      -0.024
       0.032
       0.077
       0.109
       0.124
       0.116
       0.077
       0.001
      -0.109
      -0.237
      -0.358
      -0.443
      -0.468
      -0.416
      -0.286
      -0.101
       0.097
       0.245
       0.292
       0.221
       0.067
      -0.101
      -0.210
      -0.224
      -0.144
       0.000
       0.163
       0.303
       0.390
       0.411
       0.375
       0.304
       0.220
       0.137
       0.065
       0.017
       0.011
       0.060
       0.156
       0.265
       0.345
       0.360
       0.290
       0.137
      -0.078
      -0.310
      -0.498
      -0.588
      -0.561
      -0.444
      -0.302
      -0.207
      -0.208
      -0.307
      -0.458
      -0.593
      -0.639
      -0.557
      -0.361
      -0.114
       0.102
       0.226
       0.241
       0.175
       0.072
      -0.023
      -0.080
      -0.085
      -0.046
       0.012
       0.054
       0.047
      -0.026
      -0.160
      -0.328
      -0.494
      -0.631
      -0.736
      -0.823
      -0.909
      -0.991
      -1.048
      -1.055
      -1.007
      -0.918
      -0.823
      -0.753
      -0.727
      -0.746
      -0.793
      -0.839
      -0.846
      -0.783
      -0.643
      -0.446
      -0.233
      -0.046
       0.100
       0.220
       0.344
       0.492
       0.658
       0.818
       0.949
       1.041
       1.105
       1.162
       1.235
       1.335
       1.454
       1.566
       1.646
       1.690
       1.715
       1.759
       1.854
       2.013
       2.223
       2.446
       2.633
       2.744
       2.763
       2.713
       2.634
       2.573
       2.552
       2.567
       2.585
       2.564
       2.471
       2.290
       2.019
       1.672
       1.264
       0.817
       0.353
      -0.100
      -0.521
      -0.902
      -1.250
      -1.585
      -1.929
      -2.294
      -2.677
      -3.061
      -3.421
      -3.737
      -3.993
      -4.184
      -4.309
      -4.365
      -4.347
      -4.252
      -4.088
      -3.874
      -3.642
      -3.420
      -3.225
      -3.054
      -2.892
      -2.725
      -2.550
      -2.378
      -2.219
      -2.080
      -1.951
      -1.818
      -1.670
      -1.505
      -1.325
      -1.136
      -0.937
      -0.719
      -0.461
      -0.138
       0.271
       0.773
       1.352
       1.970
       2.570
       3.083
       3.457
       3.670
       3.746
       3.740
       3.712
       3.700
       3.710
       3.721
       3.708
       3.657
       3.574
       3.471
       3.364
       3.258
       3.152
       3.047
       2.952
       2.884
       2.854
       2.861
       2.878
       2.856
       2.744
       2.501
       2.113
       1.602
       1.017
       0.425
      -0.114
      -0.561
      -0.910
      -1.192
      -1.467
      -1.799
      -2.228
      -2.743
      -3.280
      -3.740
      -4.031
      -4.108
      -3.983
      -3.713
      -3.370
      -3.016
      -2.692
      -2.418
      -2.194
      -2.015
      -1.874
      -1.772
      -1.710
      -1.692
      -1.722
      -1.805
      -1.940
      -2.117
      -2.314
      -2.502
      -2.642
      -2.697
      -2.635
      -2.452
      -2.169
      -1.828
      -1.465
      -1.089
      -0.686
      -0.231
       0.287
       0.866
       1.485
       2.115
       2.711
       3.227
       3.622
       3.879
       4.002
       4.011
       3.921
       3.745
       3.500
       3.209
       2.900
       2.599
       2.322
       2.068
       1.816
       1.528
       1.168
       0.734
       0.277
      -0.107
      -0.320
      -0.308
      -0.080
       0.294
       0.715
       1.083
       1.325
       1.403
       1.321
       1.106
       0.798
       0.434
       0.042
      -0.360
      -0.759
      -1.148
      -1.534
      -1.923
      -2.319
      -2.710
      -3.066
      -3.338
      -3.473
      -3.427
      -3.180
      -2.751
      -2.189
      -1.568
      -0.966
      -0.451
      -0.070
       0.164
       0.271
       0.309
       0.340
       0.413
       0.539
       0.696
       0.844
       0.939
       0.959
       0.906
       0.813
       0.730
       0.706
       0.777
       0.947
       1.197
       1.491
       1.790
       2.055
       2.262
       2.401
       2.477
       2.495
       2.447
       2.310
       2.053
       1.662
       1.156
       0.590
       0.036
      -0.454
      -0.866
      -1.225
      -1.569
      -1.918
      -2.257
      -2.547
      -2.739
      -2.798
      -2.713
      -2.504
      -2.218
      -1.910
      -1.623
      -1.381
      -1.185
      -1.026
      -0.894
      -0.789
      -0.718
      -0.695
      -0.726
      -0.802
      -0.892
      -0.956
      -0.966
      -0.929
      -0.883
      -0.869
      -0.905
      -0.964
      -0.985
      -0.906
      -0.691
      -0.348
       0.082
       0.534
       0.946
       1.276
       1.518
       1.694
       1.833
       1.939
       1.991
       1.957
       1.822
       1.600
       1.323
       1.027
       0.742
       0.491
       0.285
       0.127
       0.009
      -0.073
      -0.105
      -0.067
       0.062
       0.281
       0.558
       0.839
       1.066
       1.194
       1.210
       1.135
       1.016
       0.907
       0.847
       0.842
       0.867
       0.884
       0.863
       0.792
       0.682
       0.547
       0.387
       0.187
      -0.077
      -0.419
      -0.826
      -1.257
      -1.662
      -1.996
      -2.239
      -2.393
      -2.470
      -2.480
      -2.424
      -2.289
      -2.058
      -1.725
      -1.302
      -0.824
      -0.337
       0.113
       0.494
       0.793
       1.019
       1.200
       1.363
       1.519
       1.650
       1.720
       1.695
       1.567
       1.359
       1.110
       0.858
       0.629
       0.442
       0.305
       0.220
       0.165
       0.103
      -0.006
      -0.178
      -0.397
      -0.623
      -0.812
      -0.928
      -0.943
      -0.834
      -0.597
      -0.263
       0.091
       0.370
       0.493
       0.428
       0.199
      -0.128
      -0.466
      -0.736
      -0.888
      -0.914
      -0.839
      -0.702
      -0.535
      -0.353
      -0.159
       0.051
       0.278
       0.521
       0.778
       1.042
       1.306
       1.559
       1.783
       1.953
       2.036
       1.996
       1.813
       1.496
       1.083
       0.640
       0.241
      -0.051
      -0.202
      -0.225
      -0.173
      -0.125
      -0.143
      -0.247
      -0.407
      -0.564
      -0.666
      -0.686
      -0.633
      -0.541
      -0.453
      -0.405
      -0.407
      -0.442
      -0.473
      -0.471
      -0.431
      -0.377
      -0.345
      -0.360
      -0.429
      -0.543
      -0.698
      -0.891
      -1.120
      -1.374
      -1.630
      -1.856
      -2.010
      -2.048
      -1.943
      -1.700
      -1.378
      -1.064
      -0.842
      -0.752
      -0.770
      -0.825
      -0.834
      -0.743
      -0.548
      -0.285
      -0.010
       0.234
       0.421
       0.549
       0.630
       0.679
       0.707
       0.722
       0.729
       0.736
       0.761
       0.820
       0.909
       0.996
       1.031
       0.972
       0.817
       0.607
       0.410
       0.290
       0.286
       0.397
       0.583
       0.776
       0.914
       0.961
       0.916
       0.798
       0.629
       0.429
       0.230
       0.083
       0.034
       0.097
       0.248
       0.438
       0.619
       0.763
       0.858
       0.901
       0.904
       0.890
       0.887
       0.904
       0.918
       0.884
       0.772
       0.590
       0.373
       0.164
      -0.015
      -0.165
      -0.304
      -0.457
      -0.639
      -0.850
      -1.069
      -1.259
      -1.383
