Origin Time       18/01/2011 20:23:27
Lat.              28.9 N	
Long.             64.0 E	
Depth (Km)          5.0
Magnitude         7.4
 Region           Southwestern-Pakistan                                            
 Above details taken from IMD 
   
Station Code      KSL
Station Lat.       30.899
Station Long.      76.960
Station Height(m) 1802.0
Site Class        B   Vs30 between 375 m/sec to 700 m/sec *  
Record Time       18.01.2011 20:27:39.989
Sampling Rate     200. Hz
 Record Duration   88.525 Sec.
 Direction         Vert. (Up positive)
Max. Acceleration      0.956 cm/sec**2
     
  * For reference see Site Classification link of website 
     
 Base Line Corrected and Low Pass Filtered (Cut Off at 35 Hz) Time History
 Acceleration data in cm/sec**2
    
[...]
       0.046
       0.038
       0.033
       0.026
       0.016
       0.005
      -0.003
      -0.003
       0.003
       0.013
       0.028
       0.047
       0.068
       0.083
       0.085
       0.074
       0.056
       0.043
       0.038
       0.039
       0.037
       0.026
       0.009
      -0.009
      -0.018
      -0.017
      -0.007
       0.008
       0.021
       0.029
       0.031
       0.029
       0.027
       0.027
       0.027
       0.026
       0.027
       0.032
       0.043
       0.057
       0.070
       0.077
       0.080
       0.076
       0.062
       0.040
       0.017
      -0.004
      -0.023
      -0.046
      -0.070
      -0.084
      -0.075
      -0.043
       0.002
       0.043
       0.072
       0.088
       0.093
       0.086
       0.066
       0.037
       0.007
      -0.018
      -0.036
      -0.049
      -0.060
      -0.067
      -0.069
      -0.067
      -0.061
      -0.054
      -0.049
      -0.051
      -0.059
      -0.069
      -0.077
      -0.080
      -0.077
      -0.070
      -0.060
      -0.047
      -0.035
      -0.026
      -0.022
      -0.020
      -0.017
      -0.013
      -0.009
      -0.011
      -0.019
      -0.030
      -0.041
      -0.052
      -0.064
      -0.078
      -0.096
      -0.120
      -0.154
      -0.199
      -0.254
      -0.314
      -0.376
      -0.439
      -0.499
      -0.550
      -0.583
      -0.594
      -0.586
      -0.564
      -0.533
      -0.498
      -0.463
      -0.437
      -0.422
      -0.414
      -0.401
      -0.377
      -0.340
      -0.297
      -0.254
      -0.212
      -0.171
      -0.131
      -0.091
      -0.053
      -0.018
       0.009
       0.021
       0.021
       0.016
       0.017
       0.026
       0.040
       0.052
       0.062
       0.068
       0.072
       0.073
       0.074
       0.079
       0.091
       0.113
       0.142
       0.174
       0.199
       0.210
       0.207
       0.189
       0.161
       0.124
       0.084
       0.041
      -0.001
      -0.040
      -0.078
      -0.116
      -0.154
      -0.188
      -0.211
      -0.222
      -0.226
      -0.229
      -0.235
      -0.245
      -0.256
      -0.264
      -0.264
      -0.256
      -0.241
      -0.221
      -0.197
      -0.167
      -0.128
      -0.080
      -0.027
       0.029
       0.083
       0.131
       0.169
       0.194
       0.212
       0.229
       0.252
       0.281
       0.315
       0.350
       0.381
       0.404
       0.417
       0.423
       0.423
       0.420
       0.415
       0.410
       0.404
       0.398
       0.389
       0.375
       0.354
       0.328
       0.295
       0.248
       0.187
       0.117
       0.048
      -0.013
      -0.064
      -0.115
      -0.171
      -0.232
      -0.294
      -0.354
      -0.408
      -0.453
      -0.482
      -0.493
      -0.489
      -0.478
      -0.463
      -0.449
      -0.438
      -0.429
      -0.421
      -0.412
      -0.399
      -0.377
      -0.343
      -0.297
      -0.237
      -0.168
      -0.094
      -0.025
       0.036
       0.089
       0.137
       0.182
       0.219
       0.246
       0.267
       0.288
       0.310
       0.332
       0.347
       0.351
       0.349
       0.346
       0.345
       0.346
       0.343
       0.329
       0.300
       0.256
       0.198
       0.131
       0.062
      -0.001
      -0.052
      -0.086
      -0.106
      -0.117
      -0.129
      -0.145
      -0.168
      -0.192
      -0.215
      -0.239
      -0.268
      -0.302
      -0.336
      -0.362
      -0.377
      -0.382
      -0.379
      -0.366
      -0.339
      -0.301
      -0.257
      -0.213
      -0.174
      -0.140
      -0.110
      -0.080
      -0.052
      -0.024
       0.002
       0.021
       0.031
       0.033
       0.032
       0.033
       0.038
       0.045
       0.055
       0.066
       0.079
       0.090
       0.097
       0.100
       0.104
       0.111
       0.122
       0.135
       0.148
       0.161
       0.175
       0.189
       0.201
       0.208
       0.213
       0.220
       0.230
       0.245
       0.262
       0.277
       0.289
       0.298
       0.303
       0.302
       0.291
       0.270
       0.244
       0.221
       0.208
       0.207
       0.215
       0.225
       0.235
       0.245
       0.257
       0.272
       0.282
       0.281
       0.265
       0.236
       0.199
       0.163
       0.132
       0.112
       0.108
       0.118
       0.135
       0.151
       0.162
       0.169
       0.171
       0.168
       0.159
       0.149
       0.141
       0.140
       0.145
       0.155
       0.171
       0.190
       0.207
       0.215
       0.214
       0.209
       0.207
       0.211
       0.222
       0.238
       0.263
       0.300
       0.341
       0.378
       0.401
       0.407
       0.398
       0.371
       0.328
       0.276
       0.225
       0.188
       0.169
       0.166
       0.175
       0.188
       0.202
       0.214
       0.221
       0.222
       0.214
       0.193
       0.159
       0.118
       0.078
       0.043
       0.013
      -0.013
      -0.037
      -0.056
      -0.065
      -0.063
      -0.051
      -0.037
      -0.026
      -0.026
      -0.041
      -0.070
      -0.105
      -0.139
      -0.162
      -0.175
      -0.178
      -0.178
      -0.176
      -0.169
      -0.157
      -0.136
      -0.110
      -0.082
      -0.060
      -0.048
      -0.051
      -0.067
      -0.092
      -0.118
      -0.143
      -0.165
      -0.187
      -0.209
      -0.228
      -0.243
      -0.249
      -0.246
      -0.233
      -0.212
      -0.188
      -0.162
      -0.137
      -0.117
      -0.107
      -0.112
      -0.128
      -0.150
      -0.168
      -0.180
      -0.186
      -0.189
      -0.191
      -0.194
      -0.199
      -0.214
      -0.242
      -0.282
      -0.329
      -0.375
      -0.417
      -0.450
      -0.466
      -0.459
      -0.429
      -0.378
      -0.313
      -0.236
      -0.154
      -0.073
       0.001
       0.066
       0.122
       0.171
       0.210
       0.238
       0.255
       0.261
       0.258
       0.244
       0.220
       0.190
       0.164
       0.148
       0.142
       0.142
       0.144
       0.145
       0.145
       0.143
       0.140
       0.135
       0.129
       0.124
       0.121
       0.121
       0.124
       0.131
       0.137
       0.138
       0.132
       0.117
       0.093
       0.060
       0.020
      -0.028
      -0.080
      -0.133
      -0.182
      -0.224
      -0.256
      -0.275
      -0.274
      -0.250
      -0.208
      -0.157
      -0.110
      -0.074
      -0.047
      -0.026
      -0.010
      -0.001
       0.003
       0.001
      -0.007
      -0.022
      -0.044
      -0.068
      -0.086
      -0.098
      -0.101
      -0.097
      -0.087
      -0.073
      -0.058
      -0.044
      -0.032
      -0.023
      -0.016
      -0.012
      -0.009
      -0.003
       0.004
       0.014
       0.023
       0.028
       0.023
       0.001
      -0.041
      -0.099
      -0.168
      -0.241
      -0.311
      -0.372
      -0.420
      -0.450
      -0.464
      -0.464
      -0.449
      -0.421
      -0.380
      -0.331
      -0.277
      -0.222
      -0.164
      -0.104
      -0.040
       0.025
       0.088
       0.142
       0.184
       0.213
       0.231
       0.240
       0.243
       0.239
       0.227
       0.206
       0.175
       0.139
       0.100
       0.055
       0.004
      -0.053
      -0.110
      -0.160
      -0.200
      -0.228
      -0.245
      -0.256
      -0.264
      -0.273
      -0.289
      -0.314
      -0.344
      -0.373
      -0.392
      -0.402
      -0.407
      -0.414
      -0.421
      -0.423
      -0.411
      -0.388
      -0.362
      -0.340
      -0.326
      -0.321
      -0.318
      -0.310
      -0.289
      -0.251
      -0.200
      -0.146
      -0.089
      -0.032
       0.023
       0.067
       0.092
       0.097
       0.092
       0.088
       0.090
       0.093
       0.091
       0.078
       0.052
       0.016
      -0.031
      -0.087
      -0.146
      -0.203
      -0.252
      -0.289
      -0.309
      -0.312
      -0.300
      -0.276
      -0.245
      -0.213
      -0.189
      -0.178
      -0.186
      -0.209
      -0.241
      -0.276
      -0.309
      -0.339
      -0.362
      -0.375
      -0.374
      -0.363
      -0.345
      -0.323
      -0.296
      -0.263
      -0.226
      -0.189
      -0.159
      -0.136
      -0.120
      -0.105
      -0.088
      -0.065
      -0.033
       0.008
       0.055
       0.101
       0.138
       0.156
       0.156
       0.139
       0.113
       0.086
       0.064
       0.051
       0.048
       0.056
       0.076
       0.105
       0.138
       0.167
       0.183
       0.181
       0.167
       0.153
       0.150
       0.164
       0.192
       0.227
       0.267
       0.311
       0.351
       0.377
       0.380
       0.360
       0.328
       0.296
       0.267
       0.238
       0.207
       0.178
       0.161
       0.164
       0.183
       0.209
       0.235
       0.265
       0.299
       0.336
       0.367
       0.389
       0.401
       0.409
       0.416
       0.425
       0.436
       0.453
       0.477
       0.509
       0.546
       0.586
       0.623
       0.652
       0.671
       0.676
       0.664
       0.631
       0.579
       0.515
       0.451
       0.397
       0.356
       0.326
       0.300
       0.275
       0.249
       0.219
       0.186
       0.149
       0.111
       0.072
       0.033
      -0.007
      -0.047
      -0.086
      -0.120
      -0.142
      -0.146
      -0.129
      -0.091
      -0.034
       0.041
       0.130
       0.230
       0.337
       0.442
       0.537
       0.617
       0.679
       0.721
       0.742
       0.740
       0.716
       0.672
       0.615
       0.557
       0.508
       0.474
       0.456
       0.448
       0.445
       0.440
       0.429
       0.408
       0.375
       0.334
       0.293
       0.258
       0.232
       0.214
       0.200
       0.188
       0.176
       0.163
       0.146
       0.125
       0.099
       0.065
       0.020
      -0.036
      -0.097
      -0.158
      -0.213
      -0.257
      -0.288
      -0.303
      -0.302
      -0.288
      -0.266
      -0.241
      -0.216
      -0.191
      -0.166
      -0.141
      -0.115
      -0.089
      -0.059
      -0.026
       0.009
       0.047
       0.083
       0.113
       0.129
       0.128
       0.106
       0.067
       0.016
      -0.040
      -0.092
      -0.129
      -0.146
      -0.146
      -0.139
      -0.135
      -0.144
      -0.165
      -0.196
      -0.238
      -0.289
      -0.348
      -0.409
      -0.467
      -0.521
      -0.572
      -0.618
      -0.654
      -0.671
      -0.668
      -0.647
      -0.613
      -0.573
      -0.530
      -0.487
      -0.446
      -0.409
      -0.377
      -0.350
      -0.326
      -0.308
      -0.297
      -0.292
      -0.292
      -0.293
      -0.296
      -0.303
      -0.314
      -0.329
      -0.350
      -0.373
      -0.395
      -0.414
      -0.426
      -0.430
      -0.427
      -0.419
      -0.409
      -0.402
      -0.396
      -0.390
      -0.375
      -0.347
      -0.304
      -0.254
      -0.203
      -0.157
      -0.118
      -0.085
      -0.059
      -0.042
      -0.035
      -0.039
      -0.056
      -0.084
      -0.119
      -0.160
      -0.205
      -0.256
      -0.318
      -0.390
      -0.469
      -0.547
      -0.616
      -0.673
      -0.714
      -0.742
      -0.760
      -0.774
      -0.787
      -0.799
      -0.803
      -0.791
      -0.760
      -0.712
      -0.650
      -0.574
      -0.491
      -0.404
      -0.323
      -0.256
      -0.207
      -0.173
      -0.150
      -0.134
      -0.120
      -0.103
      -0.079
      -0.043
       0.001
       0.044
       0.078
       0.095
       0.093
       0.074
       0.039
      -0.009
      -0.064
      -0.118
      -0.160
      -0.179
      -0.166
      -0.123
      -0.063
       0.000
       0.057
       0.102
       0.134
       0.148
       0.143
       0.118
       0.080
       0.034
      -0.017
      -0.075
      -0.138
      -0.202
      -0.262
      -0.309
      -0.338
      -0.345
      -0.331
      -0.299
      -0.259
      -0.220
      -0.191
      -0.175
      -0.172
      -0.176
      -0.182
      -0.186
      -0.182
      -0.166
      -0.133
      -0.084
      -0.025
       0.033
       0.080
       0.111
       0.126
       0.128
       0.121
       0.107
       0.093
       0.087
       0.098
       0.134
       0.194
       0.272
       0.357
       0.436
       0.496
       0.534
       0.551
       0.554
       0.548
       0.532
       0.507
       0.480
       0.459
       0.450
       0.456
       0.473
       0.500
       0.532
       0.564
       0.593
       0.618
       0.635
       0.640
       0.631
       0.609
       0.579
       0.545
       0.509
       0.473
       0.441
       0.416
       0.401
       0.397
       0.402
       0.419
       0.451
       0.497
       0.551
       0.604
       0.650
       0.689
       0.722
       0.750
       0.771
       0.787
       0.800
       0.809
       0.805
       0.782
       0.739
       0.682
       0.622
       0.565
       0.511
       0.461
       0.418
       0.385
       0.369
       0.373
       0.396
       0.437
       0.493
       0.560
       0.634
       0.711
       0.787
       0.856
       0.912
       0.947
       0.956
       0.942
       0.909
       0.865
       0.812
       0.751
       0.682
       0.610
       0.542
       0.482
       0.433
       0.396
       0.371
       0.361
       0.364
       0.381
       0.410
       0.447
       0.487
       0.525
       0.553
       0.565
       0.557
       0.529
       0.484
       0.430
       0.372
       0.311
       0.242
       0.161
       0.068
      -0.031
      -0.127
      -0.212
      -0.275
      -0.309
      -0.310
      -0.284
      -0.239
      -0.184
      -0.125
      -0.065
      -0.006
       0.047
       0.089
       0.117
       0.132
       0.134
       0.129
       0.120
       0.109
       0.097
       0.078
       0.049
       0.007
      -0.046
      -0.109
      -0.179
      -0.253
      -0.323
      -0.380
      -0.416
      -0.428
      -0.416
      -0.383
      -0.337
      -0.284
      -0.227
      -0.170
      -0.116
      -0.064
      -0.016
       0.024
       0.049
       0.054
       0.037
       0.007
      -0.029
      -0.065
      -0.104
      -0.146
      -0.189
      -0.225
      -0.249
      -0.259
      -0.255
      -0.240
      -0.221
      -0.205
      -0.195
      -0.190
      -0.186
      -0.180
      -0.172
      -0.160
      -0.147
      -0.139
      -0.144
      -0.165
      -0.198
      -0.236
      -0.275
      -0.317
      -0.364
      -0.413
      -0.460
      -0.502
      -0.537
      -0.565
      -0.584
      -0.597
      -0.609
      -0.623
      -0.643
      -0.662
      -0.676
      -0.687
      -0.704
      -0.735
      -0.781
      -0.833
      -0.878
      -0.909
      -0.923
      -0.925
      -0.919
      -0.905
      -0.881
      -0.844
      -0.796
      -0.741
      -0.683
      -0.627
      -0.575
      -0.527
      -0.487
      -0.454
      -0.426
      -0.399
      -0.367
      -0.329
      -0.290
      -0.253
      -0.224
      -0.203
      -0.192
      -0.190
      -0.199
      -0.216
      -0.239
      -0.264
      -0.285
      -0.304
      -0.322
      -0.346
      -0.377
      -0.411
      -0.441
      -0.459
      -0.458
      -0.439
      -0.405
      -0.359
      -0.307
      -0.248
      -0.186
      -0.127
      -0.084
      -0.062
      -0.063
      -0.079
      -0.100
      -0.119
      -0.132
      -0.137
      -0.140
      -0.153
      -0.183
      -0.229
      -0.285
      -0.341
      -0.398
      -0.463
      -0.536
      -0.611
      -0.675
      -0.717
      -0.731
      -0.717
      -0.679
      -0.621
      -0.546
      -0.460
      -0.370
      -0.287
      -0.220
      -0.176
      -0.156
      -0.157
      -0.174
      -0.200
      -0.230
      -0.256
      -0.270
      -0.268
      -0.247
      -0.216
      -0.184
      -0.157
      -0.137
      -0.122
      -0.107
      -0.090
      -0.069
      -0.041
      -0.003
       0.048
       0.114
       0.193
       0.286
       0.390
       0.496
       0.591
       0.661
       0.700
       0.712
       0.704
       0.684
       0.656
       0.622
       0.582
       0.538
       0.487
       0.430
       0.372
       0.319
       0.277
       0.248
       0.231
       0.226
       0.236
       0.257
       0.281
       0.293
       0.287
       0.263
       0.229
       0.199
       0.182
       0.182
       0.194
       0.209
       0.220
       0.221
       0.211
       0.190
       0.163
       0.131
       0.098
       0.071
       0.057
       0.063
       0.089
       0.127
       0.168
       0.205
       0.235
       0.261
       0.282
       0.302
       0.321
       0.341
       0.362
       0.380
       0.395
       0.406
       0.406
       0.385
       0.336
       0.264
       0.185
       0.120
       0.079
       0.057
       0.050
       0.051
       0.059
       0.073
       0.089
       0.106
       0.127
       0.153
       0.182
       0.211
       0.240
       0.270
       0.299
       0.324
       0.342
       0.358
       0.379
       0.409
       0.442
       0.471
       0.493
       0.511
       0.523
       0.527
       0.520
       0.500
       0.476
       0.453
       0.437
       0.427
       0.422
       0.422
       0.425
       0.426
       0.421
       0.404
       0.371
       0.317
       0.238
       0.139
       0.030
      -0.079
      -0.180
      -0.269
      -0.343
      -0.393
      -0.418
      -0.418
      -0.399
      -0.368
      -0.323
      -0.264
      -0.192
      -0.114
      -0.039
       0.026
       0.079
       0.126
       0.171
       0.214
       0.252
       0.283
       0.302
       0.310
       0.308
       0.297
       0.277
       0.247
       0.206
       0.159
       0.115
       0.087
       0.083
       0.104
       0.145
       0.200
       0.258
       0.311
       0.358
       0.398
       0.436
       0.470
       0.494
       0.502
       0.495
       0.480
       0.463
       0.441
       0.408
       0.360
       0.303
       0.245
       0.196
       0.157
       0.126
       0.102
       0.081
       0.063
       0.042
       0.017
      -0.006
      -0.023
      -0.026
      -0.020
      -0.010
      -0.005
      -0.009
      -0.021
      -0.041
      -0.064
      -0.085
      -0.099
      -0.100
      -0.088
      -0.071
      -0.053
      -0.038
      -0.027
      -0.019
      -0.015
      -0.017
      -0.024
      -0.031
      -0.030
      -0.014
       0.015
       0.051
       0.085
       0.112
       0.129
       0.138
       0.142
       0.145
       0.150
       0.155
       0.154
       0.141
       0.113
       0.071
       0.027
      -0.013
      -0.042
      -0.059
      -0.060
      -0.047
      -0.016
       0.027
       0.076
       0.120
       0.154
       0.172
       0.174
       0.158
       0.128
       0.089
       0.056
       0.040
       0.044
       0.062
       0.081
