Origin Time       1/5/2013 06:57:12	 
Lat.              33.1 N	
Long.             75.8 E	
Depth (Km)         15.0
Magnitude         5.8
 Region           JK-HP-Border                                                     
 Above details taken from IMD 
     
Station Code      KSL
Station Lat.       30.899  N
Station Long.      76.960  E
Station Height(m) 1802.0
Site Class        B   Vs30 between 375 m/sec to 700 m/sec *  
Record Time       01.05.2013 06:58:01.279
Sampling Rate     200. Hz
 Record Duration   96.545 Sec.
 Direction         E-W (E positive)
Max. Acceleration      9.895 cm/sec**2
     
  * For reference see Site Classification link of website 
     
 Base Line Corrected and Low Pass Filtered (Cut Off at 35 Hz) Time History
 Acceleration data in cm/sec**2
    
[...]
       1.704
       1.473
       1.265
       1.070
       0.869
       0.643
       0.382
       0.085
      -0.244
      -0.593
      -0.953
      -1.315
      -1.674
      -2.025
      -2.366
      -2.691
      -2.994
      -3.269
      -3.510
      -3.711
      -3.870
      -3.983
      -4.050
      -4.064
      -4.019
      -3.908
      -3.730
      -3.496
      -3.219
      -2.909
      -2.573
      -2.214
      -1.837
      -1.454
      -1.078
      -0.718
      -0.379
      -0.066
       0.213
       0.454
       0.657
       0.826
       0.968
       1.085
       1.173
       1.227
       1.252
       1.258
       1.264
       1.289
       1.347
       1.444
       1.571
       1.712
       1.845
       1.956
       2.039
       2.095
       2.122
       2.113
       2.057
       1.953
       1.811
       1.651
       1.485
       1.318
       1.143
       0.951
       0.739
       0.503
       0.247
      -0.022
      -0.290
      -0.537
      -0.743
      -0.896
      -0.996
      -1.048
      -1.060
      -1.040
      -0.997
      -0.935
      -0.854
      -0.755
      -0.638
      -0.512
      -0.395
      -0.301
      -0.241
      -0.216
      -0.223
      -0.260
      -0.330
      -0.429
      -0.553
      -0.690
      -0.828
      -0.959
      -1.073
      -1.165
      -1.233
      -1.282
      -1.320
      -1.353
      -1.376
      -1.382
      -1.360
      -1.305
      -1.209
      -1.072
      -0.897
      -0.694
      -0.477
      -0.260
      -0.055
       0.129
       0.286
       0.412
       0.504
       0.560
       0.576
       0.552
       0.489
       0.392
       0.270
       0.134
      -0.004
      -0.137
      -0.257
      -0.359
      -0.428
      -0.452
      -0.419
      -0.334
      -0.207
      -0.052
       0.121
       0.309
       0.513
       0.732
       0.964
       1.204
       1.445
       1.680
       1.906
       2.119
       2.314
       2.485
       2.629
       2.750
       2.857
       2.956
       3.043
       3.109
       3.142
       3.136
       3.097
       3.034
       2.958
       2.872
       2.776
       2.670
       2.552
       2.413
       2.237
       2.010
       1.730
       1.414
       1.085
       0.758
       0.435
       0.106
      -0.231
      -0.572
      -0.911
      -1.247
      -1.585
      -1.929
      -2.277
      -2.626
      -2.969
      -3.299
      -3.606
      -3.876
      -4.094
      -4.252
      -4.350
      -4.401
      -4.420
      -4.417
      -4.393
      -4.342
      -4.259
      -4.136
      -3.972
      -3.766
      -3.520
      -3.241
      -2.932
      -2.598
      -2.242
      -1.864
      -1.463
      -1.035
      -0.574
      -0.079
       0.441
       0.968
       1.480
       1.954
       2.375
       2.734
       3.028
       3.257
       3.418
       3.513
       3.549
       3.539
       3.494
       3.419
       3.319
       3.204
       3.087
       2.983
       2.897
       2.828
       2.769
       2.720
       2.683
       2.660
       2.644
       2.623
       2.585
       2.524
       2.440
       2.335
       2.208
       2.048
       1.848
       1.606
       1.324
       1.005
       0.648
       0.253
      -0.180
      -0.643
      -1.124
      -1.601
      -2.054
      -2.463
      -2.809
      -3.084
      -3.284
      -3.417
      -3.489
      -3.511
      -3.488
      -3.435
      -3.365
      -3.296
      -3.236
      -3.187
      -3.145
      -3.109
      -3.078
      -3.049
      -3.021
      -2.993
      -2.967
      -2.947
      -2.934
      -2.916
      -2.872
      -2.780
      -2.619
      -2.382
      -2.071
      -1.692
      -1.252
      -0.756
      -0.214
       0.359
       0.943
       1.524
       2.090
       2.630
       3.130
       3.570
       3.932
       4.207
       4.395
       4.497
       4.518
       4.457
       4.313
       4.093
       3.809
       3.480
       3.121
       2.748
       2.371
       1.999
       1.639
       1.299
       0.989
       0.718
       0.497
       0.335
       0.232
       0.183
       0.171
       0.177
       0.183
       0.173
       0.141
       0.086
       0.010
      -0.078
      -0.172
      -0.269
      -0.370
      -0.480
      -0.597
      -0.719
      -0.841
      -0.960
      -1.080
      -1.203
      -1.329
      -1.448
      -1.546
      -1.609
      -1.627
      -1.599
      -1.529
      -1.430
      -1.315
      -1.195
      -1.076
      -0.957
      -0.836
      -0.713
      -0.591
      -0.474
      -0.365
      -0.269
      -0.188
      -0.125
      -0.085
      -0.073
      -0.095
      -0.151
      -0.231
      -0.322
      -0.412
      -0.487
      -0.539
      -0.562
      -0.554
      -0.508
      -0.421
      -0.291
      -0.122
       0.076
       0.297
       0.540
       0.810
       1.105
       1.415
       1.722
       2.002
       2.231
       2.390
       2.466
       2.453
       2.351
       2.162
       1.889
       1.540
       1.122
       0.652
       0.147
      -0.369
      -0.870
      -1.339
      -1.765
      -2.146
      -2.480
      -2.760
      -2.974
      -3.109
      -3.156
      -3.111
      -2.974
      -2.745
      -2.432
      -2.046
      -1.613
      -1.159
      -0.707
      -0.276
       0.119
       0.457
       0.723
       0.910
       1.020
       1.062
       1.045
       0.976
       0.864
       0.722
       0.563
       0.402
       0.247
       0.107
      -0.009
      -0.093
      -0.140
      -0.149
      -0.127
      -0.076
       0.004
       0.116
       0.254
       0.405
       0.551
       0.676
       0.769
       0.818
       0.812
       0.734
       0.577
       0.345
       0.058
      -0.259
      -0.584
      -0.899
      -1.186
      -1.427
      -1.606
      -1.704
      -1.713
      -1.631
      -1.463
      -1.222
      -0.925
      -0.596
      -0.259
       0.065
       0.365
       0.642
       0.898
       1.125
       1.310
       1.433
       1.481
       1.448
       1.339
       1.165
       0.943
       0.691
       0.425
       0.163
      -0.080
      -0.291
      -0.458
      -0.571
      -0.625
      -0.613
      -0.537
      -0.406
      -0.235
      -0.039
       0.173
       0.391
       0.604
       0.799
       0.963
       1.087
       1.166
       1.196
       1.172
       1.090
       0.950
       0.760
       0.528
       0.265
      -0.020
      -0.319
      -0.618
      -0.900
      -1.145
      -1.337
      -1.468
      -1.540
      -1.560
      -1.528
      -1.446
      -1.315
      -1.136
      -0.913
      -0.648
      -0.347
      -0.017
       0.325
       0.659
       0.964
       1.219
       1.416
       1.554
       1.640
       1.681
       1.684
       1.656
       1.603
       1.535
       1.460
       1.392
       1.339
       1.309
       1.302
       1.316
       1.349
       1.404
       1.484
       1.594
       1.733
       1.900
       2.088
       2.282
       2.468
       2.628
       2.748
       2.818
       2.831
       2.783
       2.668
       2.486
       2.242
       1.951
       1.627
       1.274
       0.889
       0.467
       0.010
      -0.471
      -0.966
      -1.460
      -1.937
      -2.373
      -2.744
      -3.034
      -3.239
      -3.363
      -3.419
      -3.415
      -3.356
      -3.246
      -3.090
      -2.899
      -2.685
      -2.459
      -2.229
      -1.999
      -1.779
      -1.578
      -1.406
      -1.267
      -1.161
      -1.089
      -1.058
      -1.077
      -1.145
      -1.243
      -1.343
      -1.415
      -1.445
      -1.429
      -1.370
      -1.272
      -1.137
      -0.964
      -0.751
      -0.496
      -0.200
       0.133
       0.500
       0.897
       1.317
       1.754
       2.193
       2.615
       3.001
       3.326
       3.575
       3.739
       3.817
       3.813
       3.736
       3.597
       3.407
       3.173
       2.898
       2.577
       2.211
       1.812
       1.402
       1.006
       0.645
       0.330
       0.062
      -0.164
      -0.351
      -0.504
      -0.626
      -0.716
      -0.774
      -0.802
      -0.817
      -0.837
      -0.880
      -0.952
      -1.053
      -1.182
      -1.340
      -1.531
      -1.751
      -1.994
      -2.249
      -2.509
      -2.765
      -3.003
      -3.202
      -3.341
      -3.403
      -3.379
      -3.268
      -3.072
      -2.803
      -2.468
      -2.082
      -1.658
      -1.220
      -0.795
      -0.408
      -0.074
       0.198
       0.409
       0.562
       0.653
       0.678
       0.631
       0.511
       0.325
       0.088
      -0.182
      -0.464
      -0.736
      -0.982
      -1.187
      -1.346
      -1.459
      -1.526
      -1.535
      -1.466
      -1.303
      -1.039
      -0.684
      -0.257
       0.220
       0.724
       1.234
       1.729
       2.191
       2.605
       2.953
       3.214
       3.371
       3.412
       3.342
       3.184
       2.967
       2.724
       2.487
       2.279
       2.115
       1.998
       1.921
       1.868
       1.828
       1.799
       1.788
       1.803
       1.846
       1.910
       1.984
       2.051
       2.099
       2.114
       2.083
       1.986
       1.808
       1.538
       1.175
       0.723
       0.192
      -0.401
      -1.034
      -1.681
      -2.314
      -2.909
      -3.448
      -3.916
      -4.301
      -4.596
      -4.798
      -4.908
      -4.928
      -4.854
      -4.686
      -4.431
      -4.101
      -3.707
      -3.260
      -2.766
      -2.241
      -1.708
      -1.188
      -0.699
      -0.250
       0.153
       0.504
       0.801
       1.044
       1.235
       1.379
       1.479
       1.546
       1.593
       1.638
       1.696
       1.773
       1.867
       1.971
       2.083
       2.202
       2.323
       2.435
       2.522
       2.568
       2.570
       2.531
       2.455
       2.344
       2.189
       1.981
       1.714
       1.384
       0.990
       0.541
       0.053
      -0.449
      -0.936
      -1.387
      -1.786
      -2.125
      -2.402
      -2.616
      -2.764
      -2.845
      -2.851
      -2.775
      -2.613
      -2.369
      -2.057
      -1.702
      -1.329
      -0.962
      -0.617
      -0.306
      -0.033
       0.203
       0.400
       0.552
       0.647
       0.677
       0.640
       0.552
       0.432
       0.292
       0.140
      -0.025
      -0.201
      -0.378
      -0.543
      -0.679
      -0.770
      -0.805
      -0.778
      -0.693
      -0.561
      -0.401
      -0.232
      -0.069
       0.081
       0.219
       0.352
       0.486
       0.618
       0.744
       0.857
       0.957
       1.048
       1.131
       1.202
       1.254
       1.281
       1.284
       1.273
       1.258
       1.249
       1.243
       1.229
       1.201
       1.159
       1.113
       1.067
       1.013
       0.938
       0.830
       0.688
       0.517
       0.324
       0.117
      -0.094
      -0.297
      -0.482
      -0.648
      -0.801
      -0.952
      -1.117
      -1.306
      -1.523
      -1.759
      -1.995
      -2.208
      -2.383
      -2.510
      -2.593
      -2.631
      -2.624
      -2.567
      -2.453
      -2.278
      -2.037
      -1.730
      -1.366
      -0.964
      -0.549
      -0.141
       0.251
       0.637
       1.031
       1.441
       1.857
       2.262
       2.636
       2.971
       3.262
       3.507
       3.696
       3.822
       3.881
       3.878
       3.827
       3.743
       3.643
       3.544
       3.459
       3.402
       3.377
       3.375
       3.382
       3.380
       3.357
       3.309
       3.234
       3.130
       2.997
       2.836
       2.653
       2.450
       2.215
       1.929
       1.570
       1.131
       0.616
       0.045
      -0.564
      -1.196
      -1.842
      -2.487
      -3.118
      -3.723
      -4.290
      -4.804
      -5.242
      -5.581
      -5.807
      -5.923
      -5.938
      -5.864
      -5.708
      -5.481
      -5.198
      -4.872
      -4.514
      -4.132
      -3.739
      -3.347
      -2.974
      -2.631
      -2.322
      -2.046
      -1.797
      -1.570
      -1.359
      -1.158
      -0.962
      -0.767
      -0.570
      -0.367
      -0.152
       0.080
       0.331
       0.606
       0.909
       1.246
       1.616
       2.015
       2.427
       2.839
       3.238
       3.622
       3.982
       4.300
       4.546
       4.696
       4.743
       4.694
       4.561
       4.352
       4.076
       3.744
       3.367
       2.953
       2.511
       2.058
       1.618
       1.216
       0.863
       0.558
       0.300
       0.096
      -0.041
      -0.102
      -0.088
      -0.012
       0.106
       0.243
       0.375
       0.483
       0.557
       0.591
       0.577
       0.497
       0.331
       0.070
      -0.280
      -0.702
      -1.179
      -1.694
      -2.230
      -2.767
      -3.285
      -3.763
      -4.189
      -4.558
      -4.872
      -5.128
      -5.317
      -5.426
      -5.449
      -5.387
      -5.255
      -5.073
      -4.858
      -4.622
      -4.372
      -4.115
      -3.863
      -3.635
      -3.447
      -3.304
      -3.199
      -3.121
      -3.053
      -2.985
      -2.908
      -2.811
      -2.681
      -2.505
      -2.272
      -1.981
      -1.629
      -1.213
      -0.725
      -0.155
       0.494
       1.213
       1.991
       2.817
       3.682
       4.572
       5.466
       6.334
       7.144
       7.873
       8.508
       9.034
       9.441
       9.719
       9.868
       9.895
       9.808
       9.605
       9.276
       8.815
       8.228
       7.534
       6.759
       5.925
       5.048
       4.139
       3.215
       2.293
       1.391
       0.518
      -0.323
      -1.128
      -1.889
      -2.596
      -3.244
      -3.837
      -4.390
      -4.915
      -5.418
      -5.891
      -6.315
      -6.667
      -6.928
      -7.091
      -7.155
      -7.128
      -7.028
      -6.869
      -6.655
      -6.379
      -6.029
      -5.601
      -5.104
      -4.560
      -3.990
      -3.409
      -2.828
      -2.252
      -1.689
      -1.143
      -0.618
      -0.113
       0.371
       0.836
       1.281
       1.701
       2.086
       2.428
       2.716
       2.943
       3.107
       3.213
       3.270
       3.289
       3.277
       3.235
       3.161
       3.056
       2.926
       2.781
       2.629
       2.470
       2.303
       2.126
       1.940
       1.749
       1.561
       1.381
       1.215
       1.066
       0.930
       0.794
       0.643
       0.471
       0.286
       0.106
      -0.052
      -0.185
      -0.295
      -0.386
      -0.452
      -0.482
      -0.471
      -0.425
      -0.359
      -0.292
      -0.240
      -0.218
      -0.240
      -0.316
      -0.446
      -0.619
      -0.818
      -1.029
      -1.239
      -1.444
      -1.634
      -1.800
      -1.934
      -2.030
      -2.083
      -2.079
      -2.002
      -1.842
      -1.597
      -1.280
      -0.907
      -0.501
      -0.081
       0.336
       0.740
       1.123
       1.475
       1.780
       2.021
       2.184
       2.267
       2.273
       2.208
       2.075
       1.875
       1.609
       1.289
       0.926
       0.535
       0.124
      -0.293
      -0.698
      -1.062
      -1.359
      -1.574
      -1.705
      -1.756
      -1.723
      -1.594
      -1.361
      -1.038
      -0.666
      -0.293
       0.053
       0.369
       0.666
       0.945
       1.185
       1.356
       1.433
       1.405
       1.268
       1.031
       0.715
       0.349
      -0.036
      -0.418
      -0.783
      -1.118
      -1.407
      -1.627
      -1.761
      -1.804
      -1.764
      -1.650
      -1.464
      -1.204
      -0.870
      -0.477
      -0.047
       0.395
       0.826
       1.227
       1.579
       1.867
       2.074
       2.183
       2.183
       2.071
       1.862
       1.586
       1.279
       0.966
       0.649
       0.313
      -0.057
      -0.451
      -0.837
      -1.183
      -1.468
      -1.692
      -1.860
      -1.973
      -2.027
      -2.015
      -1.930
      -1.774
      -1.556
      -1.299
      -1.030
      -0.771
      -0.534
      -0.319
      -0.116
       0.090
       0.308
       0.533
       0.748
       0.934
       1.080
       1.189
       1.269
       1.324
       1.355
       1.366
       1.364
       1.358
       1.354
       1.343
       1.316
       1.261
       1.176
       1.058
       0.906
       0.718
       0.494
       0.233
      -0.061
      -0.379
      -0.707
      -1.031
      -1.338
      -1.619
      -1.868
      -2.082
      -2.260
      -2.394
      -2.471
      -2.476
      -2.400
      -2.250
      -2.042
      -1.794
      -1.526
      -1.253
      -0.989
      -0.735
      -0.487
      -0.246
      -0.027
       0.150
       0.268
       0.327
       0.345
       0.338
       0.316
       0.288
       0.263
       0.263
       0.310
       0.420
       0.590
       0.803
       1.038
       1.279
       1.515
       1.740
       1.954
       2.159
       2.350
       2.517
       2.644
       2.719
       2.740
       2.709
       2.629
       2.498
       2.314
       2.070
       1.764
       1.402
       0.993
       0.556
       0.110
      -0.332
      -0.757
      -1.156
      -1.523
      -1.854
      -2.145
      -2.384
      -2.559
      -2.654
      -2.663
      -2.592
      -2.458
      -2.284
      -2.089
      -1.885
      -1.680
      -1.477
      -1.272
      -1.058
      -0.831
      -0.589
      -0.341
      -0.097
       0.127
       0.323
       0.487
       0.619
       0.724
       0.809
       0.882
       0.949
       1.013
       1.075
       1.136
       1.200
       1.270
       1.352
       1.453
       1.572
       1.698
       1.799
       1.840
       1.802
       1.694
       1.546
       1.387
       1.232
       1.079
       0.914
       0.726
       0.506
       0.250
      -0.037
      -0.347
      -0.665
      -0.971
      -1.247
      -1.478
      -1.656
      -1.778
      -1.849
      -1.883
      -1.889
      -1.871
      -1.822
      -1.737
      -1.620
      -1.485
      -1.341
      -1.197
      -1.057
      -0.928
      -0.813
      -0.714
      -0.629
      -0.565
      -0.533
      -0.531
      -0.530
      -0.491
      -0.380
      -0.193
       0.049
       0.320
       0.602
       0.884
       1.157
       1.412
       1.643
       1.852
       2.044
       2.214
       2.352
       2.447
       2.491
       2.484
       2.428
       2.328
       2.188
       2.013
       1.814
       1.609
       1.416
       1.246
       1.097
       0.956
       0.811
       0.660
       0.509
       0.369
       0.249
       0.159
       0.105
       0.095
       0.128
       0.195
       0.276
       0.345
       0.385
       0.388
       0.354
       0.287
       0.191
       0.065
      -0.087
      -0.262
      -0.454
      -0.660
      -0.880
      -1.112
      -1.352
      -1.585
      -1.797
      -1.973
      -2.105
      -2.189
      -2.221
      -2.198
      -2.115
      -1.976
      -1.794
      -1.588
      -1.385
      -1.210
      -1.078
      -0.991
      -0.935
      -0.882
      -0.810
      -0.712
      -0.600
      -0.495
      -0.411
      -0.349
      -0.300
      -0.253
      -0.206
      -0.164
      -0.134
