Origin Time       1/5/2013 06:57:12	  UTC
Lat.              33.1 N	
Long.             75.8 E	
Depth (Km)         15.0
Magnitude         5.8
 Region           JK-HP-Border                                                     
 Above details taken from IMD 
    
Station Code      KSL
Station Lat.       30.899  N
Station Long.      76.960  E
Station Height(m) 1802.0
Site Class        B   Vs30 between 375 m/sec to 700 m/sec *  
Record Time       01.05.2013 06:58:01.279 UTC
Sampling Rate     200. Hz
 Record Duration   96.545 Sec.
 Direction         N-S (N positive)
Max. Acceleration     -5.560 cm/sec**2
     
  * For reference see Site Classification link of website 
     
 Base Line Corrected and Low Pass Filtered (Cut Off at 35 Hz) Time History
 Acceleration data in cm/sec**2
    
[...]
       0.031
       0.152
       0.281
       0.415
       0.539
       0.628
       0.662
       0.634
       0.553
       0.445
       0.340
       0.266
       0.246
       0.290
       0.394
       0.542
       0.713
       0.885
       1.050
       1.210
       1.376
       1.552
       1.730
       1.891
       2.012
       2.075
       2.068
       1.991
       1.845
       1.636
       1.369
       1.057
       0.717
       0.367
       0.023
      -0.303
      -0.603
      -0.872
      -1.099
      -1.280
      -1.411
      -1.496
      -1.535
      -1.521
      -1.438
      -1.270
      -1.015
      -0.687
      -0.316
       0.061
       0.407
       0.684
       0.864
       0.928
       0.876
       0.728
       0.518
       0.278
       0.032
      -0.210
      -0.450
      -0.698
      -0.969
      -1.270
      -1.592
      -1.903
      -2.161
      -2.331
      -2.399
      -2.370
      -2.258
      -2.074
      -1.825
      -1.524
      -1.191
      -0.852
      -0.522
      -0.205
       0.098
       0.387
       0.651
       0.878
       1.055
       1.174
       1.234
       1.241
       1.207
       1.153
       1.096
       1.048
       1.011
       0.987
       0.978
       0.988
       1.020
       1.071
       1.131
       1.192
       1.247
       1.287
       1.301
       1.280
       1.217
       1.112
       0.974
       0.812
       0.638
       0.463
       0.298
       0.149
       0.022
      -0.085
      -0.173
      -0.246
      -0.308
      -0.363
      -0.413
      -0.452
      -0.465
      -0.434
      -0.343
      -0.188
       0.022
       0.260
       0.501
       0.721
       0.898
       1.015
       1.056
       1.019
       0.917
       0.774
       0.613
       0.445
       0.269
       0.072
      -0.155
      -0.420
      -0.725
      -1.065
      -1.428
      -1.791
      -2.134
      -2.439
      -2.695
      -2.901
      -3.062
      -3.186
      -3.287
      -3.371
      -3.432
      -3.453
      -3.409
      -3.286
      -3.087
      -2.826
      -2.517
      -2.168
      -1.785
      -1.367
      -0.913
      -0.421
       0.108
       0.666
       1.238
       1.802
       2.339
       2.837
       3.290
       3.700
       4.074
       4.415
       4.716
       4.958
       5.117
       5.175
       5.121
       4.960
       4.704
       4.371
       3.978
       3.541
       3.073
       2.591
       2.107
       1.632
       1.170
       0.722
       0.297
      -0.097
      -0.452
      -0.768
      -1.045
      -1.284
      -1.482
      -1.639
      -1.761
      -1.861
      -1.948
      -2.025
      -2.087
      -2.126
      -2.138
      -2.130
      -2.116
      -2.110
      -2.116
      -2.134
      -2.156
      -2.171
      -2.170
      -2.145
      -2.096
      -2.028
      -1.950
      -1.866
      -1.773
      -1.665
      -1.538
      -1.391
      -1.228
      -1.056
      -0.882
      -0.715
      -0.560
      -0.414
      -0.265
      -0.097
       0.100
       0.325
       0.565
       0.806
       1.034
       1.237
       1.403
       1.525
       1.606
       1.657
       1.688
       1.708
       1.713
       1.693
       1.636
       1.531
       1.368
       1.138
       0.845
       0.505
       0.150
      -0.191
      -0.499
      -0.766
      -0.992
      -1.177
      -1.325
      -1.439
      -1.528
      -1.596
      -1.644
      -1.659
      -1.625
      -1.526
      -1.353
      -1.109
      -0.802
      -0.447
      -0.061
       0.335
       0.718
       1.070
       1.379
       1.637
       1.842
       1.992
       2.095
       2.157
       2.182
       2.165
       2.097
       1.971
       1.785
       1.545
       1.255
       0.922
       0.562
       0.193
      -0.163
      -0.492
      -0.790
      -1.058
      -1.298
      -1.505
      -1.668
      -1.778
      -1.829
      -1.823
      -1.770
      -1.677
      -1.550
      -1.400
      -1.242
      -1.093
      -0.971
      -0.882
      -0.824
      -0.788
      -0.764
      -0.737
      -0.696
      -0.635
      -0.554
      -0.457
      -0.347
      -0.219
      -0.068
       0.106
       0.300
       0.511
       0.735
       0.967
       1.190
       1.383
       1.525
       1.608
       1.633
       1.609
       1.539
       1.428
       1.281
       1.104
       0.903
       0.679
       0.434
       0.179
      -0.073
      -0.307
      -0.514
      -0.686
      -0.808
      -0.866
      -0.845
      -0.739
      -0.553
      -0.299
       0.007
       0.348
       0.707
       1.062
       1.391
       1.673
       1.893
       2.045
       2.118
       2.107
       2.009
       1.831
       1.586
       1.288
       0.949
       0.576
       0.183
      -0.209
      -0.577
      -0.908
      -1.196
      -1.443
      -1.645
      -1.790
      -1.866
      -1.864
      -1.786
      -1.642
      -1.447
      -1.218
      -0.980
      -0.754
      -0.548
      -0.354
      -0.159
       0.039
       0.230
       0.395
       0.519
       0.597
       0.632
       0.626
       0.590
       0.544
       0.517
       0.536
       0.616
       0.751
       0.920
       1.103
       1.284
       1.449
       1.589
       1.693
       1.753
       1.771
       1.754
       1.709
       1.639
       1.537
       1.391
       1.188
       0.920
       0.581
       0.177
      -0.275
      -0.741
      -1.183
      -1.566
      -1.872
      -2.096
      -2.245
      -2.326
      -2.348
      -2.322
      -2.255
      -2.151
      -2.003
      -1.803
      -1.547
      -1.242
      -0.906
      -0.561
      -0.233
       0.054
       0.280
       0.432
       0.507
       0.502
       0.421
       0.273
       0.074
      -0.153
      -0.385
      -0.607
      -0.812
      -0.998
      -1.166
      -1.311
      -1.423
      -1.494
      -1.524
      -1.517
      -1.485
      -1.440
      -1.392
      -1.345
      -1.298
      -1.243
      -1.174
      -1.090
      -0.993
      -0.890
      -0.781
      -0.656
      -0.505
      -0.321
      -0.110
       0.121
       0.368
       0.634
       0.920
       1.221
       1.522
       1.803
       2.051
       2.258
       2.418
       2.528
       2.585
       2.590
       2.545
       2.453
       2.317
       2.140
       1.930
       1.692
       1.429
       1.145
       0.850
       0.568
       0.325
       0.137
      -0.004
      -0.120
      -0.227
      -0.328
      -0.413
      -0.467
      -0.487
      -0.475
      -0.439
      -0.385
      -0.319
      -0.251
      -0.198
      -0.177
      -0.193
      -0.236
      -0.290
      -0.338
      -0.369
      -0.382
      -0.382
      -0.376
      -0.366
      -0.352
      -0.330
      -0.302
      -0.273
      -0.253
      -0.251
      -0.266
      -0.295
      -0.332
      -0.375
      -0.423
      -0.480
      -0.552
      -0.648
      -0.779
      -0.951
      -1.159
      -1.391
      -1.628
      -1.854
      -2.062
      -2.253
      -2.430
      -2.587
      -2.713
      -2.790
      -2.805
      -2.744
      -2.598
      -2.362
      -2.043
      -1.655
      -1.219
      -0.754
      -0.272
       0.222
       0.723
       1.222
       1.712
       2.183
       2.625
       3.023
       3.359
       3.621
       3.805
       3.914
       3.957
       3.942
       3.871
       3.746
       3.573
       3.364
       3.129
       2.875
       2.601
       2.308
       1.994
       1.660
       1.305
       0.931
       0.548
       0.180
      -0.149
      -0.419
      -0.628
      -0.787
      -0.913
      -1.025
      -1.134
      -1.247
      -1.364
      -1.484
      -1.597
      -1.694
      -1.765
      -1.805
      -1.812
      -1.790
      -1.749
      -1.700
      -1.660
      -1.637
      -1.635
      -1.646
      -1.653
      -1.641
      -1.601
      -1.530
      -1.436
      -1.329
      -1.224
      -1.140
      -1.092
      -1.081
      -1.095
      -1.108
      -1.093
      -1.029
      -0.902
      -0.704
      -0.437
      -0.113
       0.241
       0.594
       0.920
       1.205
       1.449
       1.659
       1.847
       2.023
       2.193
       2.359
       2.519
       2.659
       2.761
       2.810
       2.796
       2.716
       2.576
       2.384
       2.150
       1.886
       1.603
       1.310
       1.011
       0.712
       0.422
       0.153
      -0.095
      -0.331
      -0.570
      -0.819
      -1.069
      -1.306
      -1.511
      -1.670
      -1.773
      -1.823
      -1.832
      -1.819
      -1.800
      -1.780
      -1.754
      -1.709
      -1.633
      -1.516
      -1.353
      -1.141
      -0.882
      -0.587
      -0.272
       0.047
       0.359
       0.667
       0.976
       1.289
       1.598
       1.885
       2.136
       2.341
       2.496
       2.600
       2.649
       2.638
       2.564
       2.423
       2.214
       1.936
       1.594
       1.200
       0.770
       0.317
      -0.146
      -0.610
      -1.059
      -1.474
      -1.841
      -2.158
      -2.428
      -2.651
      -2.821
      -2.929
      -2.962
      -2.906
      -2.753
      -2.504
      -2.174
      -1.785
      -1.366
      -0.939
      -0.522
      -0.128
       0.229
       0.536
       0.786
       0.984
       1.139
       1.256
       1.333
       1.361
       1.336
       1.262
       1.150
       1.010
       0.849
       0.675
       0.494
       0.317
       0.146
      -0.017
      -0.175
      -0.327
      -0.473
      -0.613
      -0.743
      -0.857
      -0.942
      -0.986
      -0.975
      -0.906
      -0.788
      -0.641
      -0.486
      -0.343
      -0.225
      -0.145
      -0.108
      -0.111
      -0.140
      -0.175
      -0.196
      -0.187
      -0.141
      -0.063
       0.034
       0.131
       0.213
       0.279
       0.339
       0.408
       0.497
       0.615
       0.764
       0.941
       1.139
       1.343
       1.538
       1.712
       1.864
       1.996
       2.110
       2.202
       2.258
       2.266
       2.219
       2.121
       1.973
       1.772
       1.509
       1.181
       0.797
       0.378
      -0.053
      -0.479
      -0.889
      -1.279
      -1.640
      -1.964
      -2.243
      -2.472
      -2.648
      -2.766
      -2.823
      -2.820
      -2.767
      -2.684
      -2.586
      -2.484
      -2.374
      -2.249
      -2.114
      -1.982
      -1.874
      -1.806
      -1.782
      -1.793
      -1.822
      -1.850
      -1.857
      -1.826
      -1.744
      -1.599
      -1.390
      -1.121
      -0.811
      -0.488
      -0.180
       0.099
       0.352
       0.599
       0.856
       1.132
       1.425
       1.724
       2.015
       2.280
       2.500
       2.660
       2.754
       2.783
       2.751
       2.667
       2.540
       2.379
       2.191
       1.978
       1.739
       1.475
       1.196
       0.916
       0.659
       0.449
       0.303
       0.232
       0.232
       0.287
       0.371
       0.448
       0.491
       0.486
       0.436
       0.355
       0.254
       0.140
       0.014
      -0.124
      -0.276
      -0.444
      -0.629
      -0.823
      -1.009
      -1.163
      -1.268
      -1.322
      -1.336
      -1.320
      -1.278
      -1.204
      -1.095
      -0.953
      -0.785
      -0.607
      -0.433
      -0.276
      -0.141
      -0.034
       0.044
       0.091
       0.104
       0.078
       0.011
      -0.100
      -0.258
      -0.461
      -0.700
      -0.957
      -1.206
      -1.426
      -1.601
      -1.722
      -1.790
      -1.813
      -1.797
      -1.749
      -1.669
      -1.553
      -1.400
      -1.206
      -0.973
      -0.706
      -0.417
      -0.127
       0.144
       0.383
       0.587
       0.756
       0.894
       1.002
       1.077
       1.120
       1.138
       1.146
       1.161
       1.195
       1.251
       1.334
       1.448
       1.592
       1.760
       1.935
       2.102
       2.254
       2.390
       2.508
       2.605
       2.672
       2.703
       2.686
       2.608
       2.452
       2.216
       1.909
       1.559
       1.195
       0.842
       0.516
       0.225
      -0.031
      -0.257
      -0.461
      -0.650
      -0.823
      -0.972
      -1.091
      -1.180
      -1.240
      -1.272
      -1.270
      -1.231
      -1.154
      -1.050
      -0.929
      -0.801
      -0.679
      -0.573
      -0.493
      -0.452
      -0.452
      -0.489
      -0.550
      -0.614
      -0.664
      -0.684
      -0.672
      -0.628
      -0.561
      -0.476
      -0.381
      -0.274
      -0.153
      -0.018
       0.128
       0.273
       0.404
       0.511
       0.582
       0.607
       0.578
       0.497
       0.369
       0.204
       0.011
      -0.210
      -0.457
      -0.722
      -0.992
      -1.255
      -1.502
      -1.732
      -1.945
      -2.137
      -2.303
      -2.436
      -2.527
      -2.567
      -2.544
      -2.454
      -2.300
      -2.091
      -1.846
      -1.577
      -1.288
      -0.972
      -0.619
      -0.224
       0.204
       0.649
       1.094
       1.526
       1.938
       2.322
       2.674
       2.991
       3.276
       3.531
       3.758
       3.950
       4.096
       4.184
       4.204
       4.148
       4.012
       3.797
       3.507
       3.152
       2.743
       2.286
       1.787
       1.252
       0.694
       0.126
      -0.442
      -1.011
      -1.588
      -2.179
      -2.775
      -3.358
      -3.901
      -4.383
      -4.788
      -5.112
      -5.350
      -5.501
      -5.560
      -5.527
      -5.407
      -5.209
      -4.943
      -4.613
      -4.215
      -3.746
      -3.209
      -2.615
      -1.980
      -1.320
      -0.655
       0.001
       0.634
       1.236
       1.806
       2.338
       2.829
       3.268
       3.651
       3.979
       4.257
       4.488
       4.671
       4.799
       4.866
       4.867
       4.800
       4.666
       4.470
       4.220
       3.925
       3.595
       3.238
       2.857
       2.450
       2.010
       1.532
       1.023
       0.496
      -0.034
      -0.552
      -1.047
      -1.515
      -1.950
      -2.343
      -2.684
      -2.963
      -3.180
      -3.339
      -3.444
      -3.496
      -3.494
      -3.438
      -3.330
      -3.177
      -2.988
      -2.766
      -2.508
      -2.213
      -1.882
      -1.525
      -1.162
      -0.809
      -0.476
      -0.161
       0.138
       0.418
       0.671
       0.893
       1.093
       1.282
       1.460
       1.614
       1.721
       1.774
       1.783
       1.776
       1.775
       1.783
       1.792
       1.787
       1.759
       1.706
       1.627
       1.522
       1.391
       1.239
       1.078
       0.914
       0.745
       0.562
       0.358
       0.133
      -0.105
      -0.346
      -0.582
      -0.801
      -0.998
      -1.175
      -1.343
      -1.518
      -1.703
      -1.880
      -2.017
      -2.076
      -2.035
      -1.888
      -1.647
      -1.333
      -0.970
      -0.582
      -0.197
       0.165
       0.490
       0.786
       1.067
       1.348
       1.631
       1.906
       2.152
       2.346
       2.470
       2.514
       2.481
       2.378
       2.215
       2.001
       1.744
       1.454
       1.139
       0.804
       0.444
       0.053
      -0.374
      -0.833
      -1.313
      -1.798
      -2.262
      -2.676
      -3.010
      -3.246
      -3.384
      -3.439
      -3.432
      -3.383
      -3.300
      -3.176
      -3.002
      -2.767
      -2.480
      -2.163
      -1.841
      -1.529
      -1.227
      -0.932
      -0.648
      -0.388
      -0.166
       0.020
       0.185
       0.346
       0.508
       0.667
       0.814
       0.948
       1.078
       1.212
       1.355
       1.498
       1.629
       1.737
       1.817
       1.872
       1.908
       1.929
       1.938
       1.938
       1.932
       1.921
       1.895
       1.843
       1.756
       1.636
       1.495
       1.345
       1.190
       1.030
       0.860
       0.681
       0.494
       0.298
       0.093
      -0.114
      -0.303
      -0.452
      -0.546
      -0.588
      -0.591
      -0.574
      -0.553
      -0.538
      -0.533
      -0.528
      -0.508
      -0.463
      -0.395
      -0.319
      -0.255
      -0.217
      -0.208
      -0.228
      -0.273
      -0.338
      -0.411
      -0.479
      -0.531
      -0.570
      -0.617
      -0.699
      -0.828
      -0.987
      -1.136
      -1.235
      -1.267
      -1.244
      -1.179
      -1.073
      -0.913
      -0.701
      -0.464
      -0.249
      -0.094
      -0.008
       0.032
       0.057
       0.097
       0.171
       0.284
       0.431
       0.591
       0.739
       0.855
       0.925
       0.948
       0.932
       0.889
       0.838
       0.798
       0.778
       0.779
       0.789
       0.792
       0.777
       0.745
       0.698
       0.637
       0.565
       0.489
       0.423
       0.375
       0.340
       0.298
       0.234
       0.151
       0.068
       0.001
      -0.057
      -0.129
      -0.239
      -0.388
      -0.559
      -0.728
      -0.881
      -1.011
      -1.111
      -1.175
      -1.199
      -1.192
      -1.175
      -1.161
      -1.153
      -1.138
      -1.105
      -1.046
      -0.969
      -0.887
      -0.815
      -0.765
      -0.740
      -0.739
      -0.755
      -0.776
      -0.787
      -0.776
      -0.741
      -0.684
      -0.607
      -0.511
      -0.395
      -0.262
      -0.115
       0.040
       0.199
       0.354
       0.500
       0.630
       0.740
       0.830
       0.898
       0.940
       0.949
       0.917
       0.835
       0.702
       0.526
       0.320
       0.101
      -0.116
      -0.319
      -0.500
      -0.648
      -0.755
      -0.818
      -0.844
      -0.840
      -0.810
      -0.749
      -0.653
      -0.515
      -0.337
      -0.124
       0.112
       0.357
       0.598
       0.825
       1.030
       1.207
       1.343
       1.425
       1.442
       1.395
       1.295
       1.162
       1.010
       0.846
       0.672
       0.490
       0.305
       0.123
      -0.044
      -0.177
      -0.258
      -0.277
      -0.237
      -0.158
      -0.069
       0.002
       0.041
       0.052
       0.047
       0.040
       0.044
       0.065
       0.103
       0.159
       0.222
       0.275
       0.295
       0.268
       0.188
       0.061
      -0.100
      -0.273
      -0.437
      -0.571
      -0.663
      -0.709
      -0.711
      -0.669
      -0.585
      -0.458
      -0.297
      -0.111
       0.084
       0.278
       0.461
       0.631
       0.794
       0.961
       1.140
       1.339
       1.547
       1.745
       1.901
       1.990
       2.001
       1.948
       1.855
       1.749
       1.642
       1.534
       1.414
       1.269
       1.089
       0.865
       0.591
       0.271
      -0.077
      -0.421
      -0.723
      -0.951
      -1.098
      -1.178
      -1.222
      -1.260
      -1.311
      -1.376
      -1.445
      -1.500
      -1.523
      -1.501
      -1.432
      -1.318
      -1.167
      -0.996
      -0.829
      -0.696
      -0.620
      -0.605
      -0.634
      -0.682
      -0.727
      -0.754
      -0.757
      -0.734
      -0.688
      -0.635
      -0.589
      -0.558
      -0.532
      -0.488
      -0.405
