Origin Time       1/5/2013 06:57:12	 
Lat.              33.1 N	
Long.             75.8 E	
Depth (Km)         15.0
Magnitude         5.8
 Region           JK-HP-Border                                                     
 Above details taken from IMD 
   
Station Code      KSL
Station Lat.       30.899
Station Long.      76.960
Station Height(m) 1802.0
Site Class        B   Vs30 between 375 m/sec to 700 m/sec *  
Record Time       01.05.2013 06:58:01.279
Sampling Rate     200. Hz
 Record Duration   96.545 Sec.
 Direction         Vert. (Up positive)
Max. Acceleration      1.845 cm/sec**2
     
  * For reference see Site Classification link of website 
     
 Base Line Corrected and Low Pass Filtered (Cut Off at 35 Hz) Time History
 Acceleration data in cm/sec**2
    
[...]
       0.159
       0.189
       0.228
       0.267
       0.294
       0.298
       0.267
       0.191
       0.074
      -0.064
      -0.191
      -0.284
      -0.342
      -0.387
      -0.439
      -0.504
      -0.571
      -0.621
      -0.639
      -0.619
      -0.567
      -0.494
      -0.420
      -0.360
      -0.325
      -0.307
      -0.288
      -0.250
      -0.189
      -0.116
      -0.043
       0.025
       0.093
       0.164
       0.235
       0.288
       0.312
       0.309
       0.294
       0.278
       0.256
       0.216
       0.152
       0.080
       0.026
       0.012
       0.045
       0.112
       0.192
       0.256
       0.277
       0.243
       0.157
       0.046
      -0.056
      -0.117
      -0.126
      -0.094
      -0.050
      -0.023
      -0.025
      -0.048
      -0.077
      -0.095
      -0.099
      -0.096
      -0.093
      -0.095
      -0.101
      -0.105
      -0.095
      -0.062
      -0.003
       0.078
       0.164
       0.235
       0.276
       0.282
       0.265
       0.237
       0.209
       0.184
       0.166
       0.151
       0.131
       0.094
       0.032
      -0.054
      -0.153
      -0.245
      -0.316
      -0.358
      -0.368
      -0.350
      -0.309
      -0.256
      -0.205
      -0.163
      -0.132
      -0.110
      -0.087
      -0.058
      -0.023
       0.014
       0.041
       0.049
       0.038
       0.011
      -0.023
      -0.056
      -0.084
      -0.107
      -0.124
      -0.136
      -0.140
      -0.130
      -0.100
      -0.046
       0.029
       0.115
       0.202
       0.279
       0.334
       0.359
       0.348
       0.300
       0.221
       0.122
       0.019
      -0.070
      -0.132
      -0.159
      -0.156
      -0.136
      -0.117
      -0.113
      -0.126
      -0.144
      -0.145
      -0.110
      -0.035
       0.067
       0.171
       0.255
       0.306
       0.326
       0.324
       0.305
       0.272
       0.226
       0.171
       0.110
       0.045
      -0.021
      -0.084
      -0.145
      -0.205
      -0.271
      -0.355
      -0.461
      -0.582
      -0.701
      -0.788
      -0.813
      -0.756
      -0.612
      -0.397
      -0.140
       0.120
       0.350
       0.524
       0.626
       0.652
       0.611
       0.526
       0.429
       0.355
       0.322
       0.326
       0.345
       0.355
       0.339
       0.290
       0.216
       0.127
       0.037
      -0.044
      -0.108
      -0.148
      -0.157
      -0.126
      -0.057
       0.039
       0.135
       0.202
       0.220
       0.188
       0.121
       0.040
      -0.036
      -0.089
      -0.113
      -0.112
      -0.102
      -0.103
      -0.126
      -0.174
      -0.235
      -0.295
      -0.346
      -0.381
      -0.395
      -0.382
      -0.333
      -0.248
      -0.137
      -0.019
       0.085
       0.160
       0.201
       0.210
       0.200
       0.188
       0.190
       0.210
       0.238
       0.260
       0.263
       0.242
       0.195
       0.126
       0.038
      -0.060
      -0.151
      -0.221
      -0.258
      -0.261
      -0.231
      -0.167
      -0.067
       0.064
       0.211
       0.345
       0.437
       0.468
       0.428
       0.323
       0.165
      -0.016
      -0.189
      -0.324
      -0.404
      -0.431
      -0.414
      -0.369
      -0.308
      -0.243
      -0.188
      -0.154
      -0.141
      -0.134
      -0.109
      -0.049
       0.045
       0.153
       0.242
       0.284
       0.262
       0.178
       0.046
      -0.106
      -0.245
      -0.342
      -0.378
      -0.350
      -0.269
      -0.153
      -0.027
       0.086
       0.170
       0.217
       0.232
       0.233
       0.236
       0.242
       0.234
       0.189
       0.100
      -0.014
      -0.121
      -0.191
      -0.219
      -0.219
      -0.208
      -0.198
      -0.188
      -0.178
      -0.165
      -0.150
      -0.130
      -0.104
      -0.078
      -0.065
      -0.078
      -0.120
      -0.175
      -0.219
      -0.230
      -0.197
      -0.126
      -0.027
       0.090
       0.217
       0.343
       0.452
       0.522
       0.540
       0.502
       0.424
       0.329
       0.238
       0.157
       0.086
       0.022
      -0.028
      -0.060
      -0.080
      -0.099
      -0.127
      -0.164
      -0.196
      -0.213
      -0.211
      -0.197
      -0.176
      -0.151
      -0.121
      -0.090
      -0.070
      -0.077
      -0.118
      -0.187
      -0.266
      -0.329
      -0.354
      -0.324
      -0.237
      -0.105
       0.054
       0.219
       0.371
       0.492
       0.567
       0.583
       0.533
       0.421
       0.271
       0.116
      -0.007
      -0.081
      -0.105
      -0.094
      -0.060
      -0.009
       0.058
       0.137
       0.213
       0.263
       0.271
       0.234
       0.164
       0.079
      -0.007
      -0.089
      -0.175
      -0.267
      -0.359
      -0.435
      -0.480
      -0.486
      -0.460
      -0.418
      -0.382
      -0.362
      -0.359
      -0.359
      -0.343
      -0.297
      -0.222
      -0.135
      -0.059
      -0.012
       0.002
      -0.008
      -0.020
      -0.017
       0.006
       0.040
       0.076
       0.104
       0.121
       0.121
       0.101
       0.058
       0.002
      -0.050
      -0.077
      -0.064
      -0.006
       0.095
       0.223
       0.353
       0.455
       0.506
       0.500
       0.448
       0.371
       0.285
       0.195
       0.104
       0.026
      -0.023
      -0.033
      -0.013
       0.013
       0.025
       0.014
      -0.013
      -0.049
      -0.087
      -0.122
      -0.151
      -0.166
      -0.161
      -0.131
      -0.072
       0.012
       0.113
       0.214
       0.295
       0.339
       0.340
       0.302
       0.234
       0.148
       0.048
      -0.061
      -0.171
      -0.271
      -0.341
      -0.368
      -0.344
      -0.274
      -0.176
      -0.069
       0.028
       0.105
       0.154
       0.175
       0.172
       0.152
       0.121
       0.089
       0.066
       0.060
       0.071
       0.087
       0.088
       0.067
       0.025
      -0.026
      -0.074
      -0.117
      -0.158
      -0.201
      -0.246
      -0.286
      -0.314
      -0.328
      -0.328
      -0.320
      -0.306
      -0.275
      -0.216
      -0.121
      -0.004
       0.108
       0.187
       0.228
       0.241
       0.245
       0.249
       0.249
       0.237
       0.214
       0.191
       0.177
       0.163
       0.130
       0.068
      -0.018
      -0.105
      -0.168
      -0.190
      -0.168
      -0.102
       0.005
       0.139
       0.269
       0.362
       0.394
       0.362
       0.286
       0.195
       0.114
       0.055
       0.015
      -0.015
      -0.048
      -0.089
      -0.137
      -0.185
      -0.230
      -0.268
      -0.305
      -0.348
      -0.398
      -0.452
      -0.501
      -0.536
      -0.551
      -0.544
      -0.515
      -0.469
      -0.412
      -0.349
      -0.282
      -0.218
      -0.165
      -0.130
      -0.115
      -0.115
      -0.112
      -0.092
      -0.044
       0.029
       0.120
       0.220
       0.325
       0.436
       0.545
       0.640
       0.705
       0.731
       0.719
       0.682
       0.638
       0.603
       0.583
       0.571
       0.550
       0.501
       0.410
       0.279
       0.118
      -0.057
      -0.231
      -0.397
      -0.547
      -0.674
      -0.768
      -0.818
      -0.819
      -0.776
      -0.701
      -0.609
      -0.510
      -0.410
      -0.304
      -0.184
      -0.045
       0.112
       0.274
       0.427
       0.551
       0.630
       0.648
       0.605
       0.517
       0.411
       0.310
       0.226
       0.162
       0.116
       0.085
       0.065
       0.044
       0.003
      -0.070
      -0.175
      -0.293
      -0.397
      -0.456
      -0.458
      -0.404
      -0.306
      -0.184
      -0.058
       0.052
       0.131
       0.169
       0.169
       0.140
       0.099
       0.061
       0.035
       0.026
       0.037
       0.064
       0.097
       0.122
       0.124
       0.099
       0.056
       0.007
      -0.039
      -0.075
      -0.101
      -0.115
      -0.112
      -0.087
      -0.037
       0.035
       0.117
       0.194
       0.249
       0.267
       0.241
       0.173
       0.080
      -0.015
      -0.089
      -0.134
      -0.154
      -0.162
      -0.175
      -0.205
      -0.255
      -0.319
      -0.383
      -0.429
      -0.443
      -0.423
      -0.375
      -0.313
      -0.249
      -0.191
      -0.141
      -0.094
      -0.039
       0.026
       0.101
       0.177
       0.242
       0.288
       0.311
       0.317
       0.317
       0.325
       0.345
       0.377
       0.415
       0.454
       0.493
       0.528
       0.559
       0.585
       0.605
       0.614
       0.605
       0.563
       0.483
       0.369
       0.240
       0.113
      -0.001
      -0.103
      -0.204
      -0.308
      -0.415
      -0.517
      -0.604
      -0.664
      -0.693
      -0.690
      -0.660
      -0.609
      -0.543
      -0.467
      -0.389
      -0.323
      -0.277
      -0.248
      -0.218
      -0.165
      -0.073
       0.056
       0.200
       0.332
       0.430
       0.488
       0.516
       0.528
       0.538
       0.549
       0.556
       0.543
       0.499
       0.420
       0.320
       0.223
       0.152
       0.116
       0.104
       0.092
       0.059
      -0.002
      -0.080
      -0.155
      -0.214
      -0.259
      -0.310
      -0.386
      -0.488
      -0.593
      -0.660
      -0.648
      -0.539
      -0.353
      -0.141
       0.039
       0.149
       0.184
       0.162
       0.111
       0.056
       0.014
      -0.008
      -0.004
       0.030
       0.099
       0.204
       0.333
       0.461
       0.555
       0.591
       0.563
       0.484
       0.385
       0.293
       0.222
       0.164
       0.102
       0.022
      -0.077
      -0.178
      -0.256
      -0.292
      -0.288
      -0.264
      -0.251
      -0.268
      -0.317
      -0.379
      -0.436
      -0.474
      -0.492
      -0.499
      -0.497
      -0.484
      -0.445
      -0.365
      -0.237
      -0.067
       0.127
       0.321
       0.485
       0.600
       0.653
       0.649
       0.603
       0.533
       0.455
       0.376
       0.305
       0.249
       0.209
       0.180
       0.146
       0.092
       0.011
      -0.088
      -0.190
      -0.277
      -0.340
      -0.382
      -0.415
      -0.457
      -0.524
      -0.620
      -0.737
      -0.857
      -0.954
      -1.008
      -1.004
      -0.937
      -0.810
      -0.633
      -0.423
      -0.201
       0.016
       0.211
       0.368
       0.470
       0.504
       0.468
       0.383
       0.283
       0.204
       0.170
       0.187
       0.243
       0.319
       0.394
       0.447
       0.471
       0.466
       0.440
       0.397
       0.334
       0.243
       0.120
      -0.030
      -0.191
      -0.339
      -0.449
      -0.501
      -0.486
      -0.407
      -0.282
      -0.131
       0.021
       0.159
       0.275
       0.360
       0.408
       0.412
       0.370
       0.290
       0.184
       0.063
      -0.066
      -0.194
      -0.312
      -0.415
      -0.501
      -0.566
      -0.608
      -0.618
      -0.591
      -0.526
      -0.430
      -0.312
      -0.180
      -0.040
       0.099
       0.233
       0.355
       0.465
       0.563
       0.650
       0.718
       0.753
       0.748
       0.702
       0.621
       0.512
       0.376
       0.211
       0.015
      -0.208
      -0.445
      -0.668
      -0.839
      -0.920
      -0.890
      -0.756
      -0.564
      -0.376
      -0.253
      -0.232
      -0.316
      -0.481
      -0.687
      -0.884
      -1.023
      -1.061
      -0.977
      -0.781
      -0.506
      -0.200
       0.095
       0.349
       0.548
       0.685
       0.757
       0.768
       0.731
       0.669
       0.600
       0.538
       0.495
       0.480
       0.498
       0.546
       0.608
       0.659
       0.680
       0.659
       0.599
       0.501
       0.367
       0.206
       0.037
      -0.114
      -0.224
      -0.284
      -0.295
      -0.262
      -0.184
      -0.066
       0.077
       0.216
       0.313
       0.338
       0.281
       0.155
      -0.013
      -0.187
      -0.332
      -0.420
      -0.436
      -0.388
      -0.294
      -0.181
      -0.070
       0.027
       0.111
       0.185
       0.253
       0.312
       0.359
       0.391
       0.405
       0.404
       0.386
       0.352
       0.296
       0.210
       0.097
      -0.035
      -0.170
      -0.288
      -0.381
      -0.447
      -0.489
      -0.511
      -0.515
      -0.502
      -0.468
      -0.402
      -0.285
      -0.097
       0.169
       0.495
       0.843
       1.159
       1.392
       1.506
       1.494
       1.378
       1.197
       0.997
       0.817
       0.679
       0.589
       0.531
       0.470
       0.372
       0.214
      -0.007
      -0.273
      -0.548
      -0.793
      -0.975
      -1.079
      -1.109
      -1.085
      -1.032
      -0.966
      -0.897
      -0.830
      -0.764
      -0.686
      -0.578
      -0.434
      -0.269
      -0.109
       0.029
       0.140
       0.228
       0.291
       0.326
       0.329
       0.311
       0.295
       0.305
       0.361
       0.477
       0.663
       0.917
       1.219
       1.519
       1.748
       1.845
       1.776
       1.553
       1.216
       0.826
       0.439
       0.091
      -0.213
      -0.488
      -0.751
      -1.002
      -1.230
      -1.423
      -1.569
      -1.662
      -1.701
      -1.692
      -1.648
      -1.583
      -1.505
      -1.405
      -1.268
      -1.080
      -0.839
      -0.553
      -0.238
       0.093
       0.425
       0.731
       0.977
       1.135
       1.195
       1.170
       1.094
       0.995
       0.887
       0.765
       0.621
       0.457
       0.292
       0.148
       0.043
      -0.021
      -0.041
      -0.018
       0.053
       0.167
       0.308
       0.445
       0.545
       0.584
       0.557
       0.478
       0.371
       0.257
       0.150
       0.059
      -0.003
      -0.019
       0.017
       0.096
       0.181
       0.220
       0.171
       0.019
      -0.217
      -0.491
      -0.752
      -0.955
      -1.068
      -1.070
      -0.960
      -0.756
      -0.495
      -0.224
       0.012
       0.184
       0.273
       0.278
       0.209
       0.084
      -0.069
      -0.222
      -0.351
      -0.446
      -0.509
      -0.557
      -0.607
      -0.663
      -0.711
      -0.725
      -0.682
      -0.579
      -0.435
      -0.281
      -0.138
      -0.012
       0.103
       0.218
       0.341
       0.476
       0.615
       0.741
       0.834
       0.875
       0.858
       0.786
       0.673
       0.531
       0.369
       0.191
      -0.002
      -0.204
      -0.405
      -0.584
      -0.721
      -0.792
      -0.785
      -0.697
      -0.543
      -0.346
      -0.132
       0.080
       0.268
       0.413
       0.501
       0.526
       0.497
       0.430
       0.345
       0.249
       0.145
       0.034
      -0.074
      -0.157
      -0.201
      -0.209
      -0.203
      -0.202
      -0.214
      -0.236
      -0.264
      -0.305
      -0.370
      -0.461
      -0.562
      -0.652
      -0.714
      -0.744
      -0.747
      -0.731
      -0.701
      -0.668
      -0.643
      -0.635
      -0.649
      -0.679
      -0.713
      -0.738
      -0.745
      -0.733
      -0.701
      -0.642
      -0.546
      -0.405
      -0.215
       0.025
       0.305
       0.603
       0.884
       1.108
       1.239
       1.260
       1.178
       1.020
       0.825
       0.632
       0.469
       0.347
       0.263
       0.202
       0.142
       0.068
      -0.026
      -0.129
      -0.225
      -0.293
      -0.317
      -0.291
      -0.219
      -0.127
      -0.056
      -0.044
      -0.105
      -0.223
      -0.358
      -0.474
      -0.546
      -0.562
      -0.518
      -0.409
      -0.230
       0.013
       0.296
       0.580
       0.817
       0.969
       1.018
       0.979
       0.889
       0.797
       0.742
       0.738
       0.768
       0.803
       0.819
       0.808
       0.771
       0.709
       0.613
       0.474
       0.290
       0.077
      -0.135
      -0.321
      -0.465
      -0.568
      -0.636
      -0.675
      -0.684
      -0.665
      -0.627
      -0.584
      -0.549
      -0.528
      -0.520
      -0.527
      -0.552
      -0.589
      -0.618
      -0.608
      -0.534
      -0.384
      -0.172
       0.072
       0.312
       0.522
       0.686
       0.795
       0.841
       0.822
       0.741
       0.612
       0.460
       0.312
       0.186
       0.089
       0.017
      -0.039
      -0.090
      -0.143
      -0.198
      -0.253
      -0.307
      -0.353
      -0.379
      -0.364
      -0.287
      -0.144
       0.045
       0.246
       0.427
       0.577
       0.707
       0.836
       0.978
       1.135
       1.298
       1.455
       1.589
       1.681
       1.708
       1.654
       1.518
       1.316
       1.072
       0.812
       0.563
       0.343
       0.163
       0.022
      -0.087
      -0.170
      -0.230
      -0.263
      -0.273
      -0.263
      -0.243
      -0.222
      -0.202
      -0.187
      -0.180
      -0.189
      -0.228
      -0.303
      -0.413
      -0.545
      -0.682
      -0.811
      -0.926
      -1.029
      -1.123
      -1.210
      -1.285
      -1.343
      -1.379
      -1.385
      -1.352
      -1.275
      -1.161
      -1.032
      -0.911
      -0.808
      -0.716
      -0.619
      -0.500
      -0.340
      -0.127
       0.143
       0.450
       0.743
       0.959
       1.052
       1.011
       0.868
       0.675
       0.477
       0.307
       0.184
       0.122
       0.124
       0.188
       0.296
       0.422
       0.539
       0.628
       0.683
       0.712
       0.728
       0.754
       0.813
       0.913
       1.038
       1.146
       1.183
       1.109
       0.912
       0.616
       0.267
      -0.080
      -0.377
      -0.590
      -0.709
      -0.748
      -0.738
      -0.713
      -0.701
      -0.712
      -0.747
      -0.795
      -0.845
      -0.881
      -0.889
      -0.852
      -0.755
      -0.592
      -0.370
      -0.120
       0.113
       0.282
       0.358
       0.334
       0.224
       0.049
      -0.171
      -0.416
      -0.665
      -0.891
      -1.064
      -1.155
      -1.146
      -1.033
      -0.826
      -0.545
      -0.219
       0.113
       0.412
       0.651
       0.817
       0.918
       0.967
       0.980
       0.972
       0.954
       0.938
       0.922
       0.892
       0.826
       0.706
       0.531
       0.317
       0.089
      -0.125
      -0.302
      -0.431
      -0.508
      -0.534
      -0.514
      -0.466
      -0.406
      -0.344
      -0.281
      -0.212
      -0.130
      -0.032
       0.086
       0.224
       0.375
       0.520
       0.634
       0.693
       0.688
       0.623
       0.514
       0.370
       0.196
      -0.006
      -0.226
      -0.448
      -0.648
      -0.806
      -0.909
      -0.952
      -0.939
