Origin Time       13/8/2012 20:32:59	
Lat.              34.8 N	
Long.             73.7 E	
Depth (Km)         30.0
Magnitude         5.2
 Region           INDIA-PAKISTAN-BORDER                                            
 Above details taken from IMD 
     
Station Code      KSL
Station Lat.       30.899  N
Station Long.      76.960  E
Station Height(m) 1802.0
Site Class        B   Vs30 between 375 m/sec to 700 m/sec *  
Record Time       13.08.2012 20:34:38.909
Sampling Rate     200. Hz
 Record Duration   80.910 Sec.
 Direction         E-W (E positive)
Max. Acceleration      1.870 cm/sec**2
     
  * For reference see Site Classification link of website 
     
 Base Line Corrected and Low Pass Filtered (Cut Off at 35 Hz) Time History
 Acceleration data in cm/sec**2
    
[...]
      -0.068
      -0.076
      -0.078
      -0.072
      -0.060
      -0.044
      -0.031
      -0.021
      -0.013
      -0.004
       0.007
       0.016
       0.022
       0.021
       0.016
       0.010
       0.006
       0.004
       0.001
      -0.007
      -0.016
      -0.022
      -0.021
      -0.013
      -0.005
      -0.003
      -0.009
      -0.015
      -0.018
      -0.015
      -0.007
       0.001
       0.008
       0.011
       0.011
       0.009
       0.008
       0.012
       0.022
       0.035
       0.044
       0.046
       0.040
       0.031
       0.024
       0.023
       0.027
       0.030
       0.030
       0.028
       0.026
       0.027
       0.029
       0.030
       0.029
       0.028
       0.027
       0.026
       0.026
       0.024
       0.015
       0.001
      -0.013
      -0.022
      -0.023
      -0.019
      -0.016
      -0.016
      -0.019
      -0.023
      -0.026
      -0.025
      -0.019
      -0.011
      -0.005
      -0.005
      -0.009
      -0.013
      -0.011
      -0.001
       0.012
       0.023
       0.026
       0.025
       0.020
       0.014
       0.007
       0.002
      -0.003
      -0.009
      -0.018
      -0.027
      -0.032
      -0.033
      -0.034
      -0.037
      -0.043
      -0.049
      -0.052
      -0.055
      -0.057
      -0.059
      -0.056
      -0.048
      -0.036
      -0.024
      -0.018
      -0.022
      -0.032
      -0.037
      -0.028
      -0.005
       0.018
       0.025
       0.015
      -0.001
      -0.012
      -0.011
      -0.005
       0.001
       0.005
       0.009
       0.010
       0.007
       0.001
      -0.003
       0.000
       0.011
       0.023
       0.030
       0.033
       0.040
       0.054
       0.070
       0.077
       0.069
       0.054
       0.049
       0.061
       0.085
       0.103
       0.102
       0.084
       0.064
       0.056
       0.060
       0.068
       0.065
       0.049
       0.026
       0.006
      -0.004
      -0.007
      -0.009
      -0.015
      -0.025
      -0.036
      -0.041
      -0.038
      -0.029
      -0.020
      -0.014
      -0.013
      -0.014
      -0.017
      -0.020
      -0.021
      -0.019
      -0.012
      -0.005
      -0.003
      -0.007
      -0.015
      -0.022
      -0.025
      -0.025
      -0.023
      -0.021
      -0.018
      -0.014
      -0.011
      -0.010
      -0.010
      -0.009
      -0.003
       0.010
       0.028
       0.047
       0.060
       0.065
       0.064
       0.066
       0.072
       0.080
       0.086
       0.084
       0.075
       0.060
       0.044
       0.030
       0.017
       0.006
      -0.005
      -0.016
      -0.027
      -0.036
      -0.043
      -0.048
      -0.052
      -0.057
      -0.061
      -0.061
      -0.058
      -0.050
      -0.039
      -0.028
      -0.017
      -0.009
       0.000
       0.009
       0.018
       0.026
       0.032
       0.035
       0.037
       0.038
       0.039
       0.035
       0.023
       0.004
      -0.017
      -0.029
      -0.024
      -0.006
       0.005
      -0.009
      -0.049
      -0.085
      -0.085
      -0.043
       0.006
       0.026
       0.009
      -0.012
      -0.009
       0.019
       0.044
       0.046
       0.037
       0.038
       0.053
       0.062
       0.048
       0.015
      -0.019
      -0.037
      -0.033
      -0.014
       0.007
       0.017
       0.012
      -0.002
      -0.014
      -0.018
      -0.013
      -0.003
       0.013
       0.029
       0.040
       0.041
       0.034
       0.032
       0.044
       0.066
       0.085
       0.087
       0.069
       0.040
       0.012
      -0.008
      -0.024
      -0.040
      -0.061
      -0.080
      -0.093
      -0.099
      -0.104
      -0.114
      -0.126
      -0.133
      -0.130
      -0.118
      -0.103
      -0.090
      -0.078
      -0.064
      -0.046
      -0.026
      -0.010
       0.003
       0.015
       0.029
       0.043
       0.053
       0.053
       0.049
       0.047
       0.052
       0.062
       0.069
       0.065
       0.051
       0.032
       0.015
       0.004
      -0.002
      -0.006
      -0.008
      -0.009
      -0.007
      -0.004
      -0.001
       0.001
       0.001
       0.000
       0.000
       0.000
      -0.001
      -0.004
      -0.009
      -0.014
      -0.020
      -0.025
      -0.030
      -0.032
      -0.026
      -0.014
      -0.001
       0.006
       0.003
      -0.004
      -0.005
       0.008
       0.038
       0.075
       0.102
       0.109
       0.103
       0.099
       0.101
       0.101
       0.089
       0.066
       0.045
       0.033
       0.025
       0.013
      -0.005
      -0.022
      -0.032
      -0.034
      -0.032
      -0.029
      -0.028
      -0.029
      -0.033
      -0.043
      -0.057
      -0.072
      -0.080
      -0.074
      -0.058
      -0.039
      -0.029
      -0.034
      -0.048
      -0.062
      -0.065
      -0.060
      -0.053
      -0.051
      -0.054
      -0.057
      -0.055
      -0.047
      -0.039
      -0.035
      -0.035
      -0.036
      -0.031
      -0.022
      -0.010
       0.002
       0.011
       0.018
       0.023
       0.028
       0.034
       0.038
       0.040
       0.040
       0.038
       0.035
       0.031
       0.027
       0.026
       0.029
       0.034
       0.039
       0.041
       0.042
       0.044
       0.047
       0.048
       0.046
       0.042
       0.041
       0.048
       0.065
       0.087
       0.107
       0.117
       0.114
       0.106
       0.100
       0.100
       0.103
       0.103
       0.098
       0.090
       0.082
       0.073
       0.061
       0.043
       0.021
      -0.003
      -0.026
      -0.046
      -0.057
      -0.055
      -0.043
      -0.030
      -0.028
      -0.031
      -0.025
       0.004
       0.048
       0.081
       0.083
       0.053
       0.009
      -0.032
      -0.063
      -0.083
      -0.090
      -0.072
      -0.026
       0.037
       0.089
       0.107
       0.087
       0.044
       0.000
      -0.032
      -0.051
      -0.065
      -0.074
      -0.073
      -0.058
      -0.030
      -0.001
       0.018
       0.021
       0.009
      -0.013
      -0.037
      -0.055
      -0.064
      -0.066
      -0.069
      -0.078
      -0.091
      -0.101
      -0.104
      -0.104
      -0.112
      -0.132
      -0.162
      -0.191
      -0.211
      -0.217
      -0.212
      -0.202
      -0.190
      -0.179
      -0.171
      -0.164
      -0.159
      -0.155
      -0.152
      -0.149
      -0.145
      -0.136
      -0.125
      -0.112
      -0.100
      -0.089
      -0.079
      -0.073
      -0.071
      -0.075
      -0.082
      -0.091
      -0.097
      -0.096
      -0.087
      -0.072
      -0.051
      -0.027
       0.000
       0.026
       0.048
       0.066
       0.078
       0.088
       0.098
       0.110
       0.126
       0.146
       0.172
       0.203
       0.235
       0.262
       0.281
       0.291
       0.299
       0.310
       0.324
       0.338
       0.347
       0.351
       0.354
       0.360
       0.368
       0.375
       0.378
       0.376
       0.372
       0.366
       0.360
       0.354
       0.349
       0.345
       0.341
       0.335
       0.325
       0.311
       0.294
       0.273
       0.249
       0.222
       0.195
       0.169
       0.143
       0.114
       0.083
       0.050
       0.017
      -0.014
      -0.042
      -0.069
      -0.096
      -0.126
      -0.159
      -0.195
      -0.233
      -0.271
      -0.304
      -0.330
      -0.350
      -0.369
      -0.392
      -0.420
      -0.448
      -0.474
      -0.495
      -0.514
      -0.531
      -0.547
      -0.560
      -0.568
      -0.568
      -0.562
      -0.550
      -0.534
      -0.514
      -0.490
      -0.462
      -0.430
      -0.397
      -0.361
      -0.322
      -0.278
      -0.232
      -0.186
      -0.143
      -0.099
      -0.054
      -0.011
       0.026
       0.058
       0.090
       0.126
       0.167
       0.207
       0.240
       0.262
       0.280
       0.298
       0.318
       0.339
       0.358
       0.375
       0.393
       0.412
       0.430
       0.444
       0.453
       0.462
       0.475
       0.489
       0.501
       0.506
       0.502
       0.491
       0.473
       0.448
       0.418
       0.383
       0.349
       0.317
       0.291
       0.271
       0.253
       0.233
       0.207
       0.177
       0.146
       0.114
       0.083
       0.049
       0.015
      -0.018
      -0.045
      -0.066
      -0.084
      -0.103
      -0.125
      -0.152
      -0.181
      -0.210
      -0.238
      -0.268
      -0.305
      -0.347
      -0.390
      -0.426
      -0.454
      -0.475
      -0.495
      -0.517
      -0.536
      -0.549
      -0.555
      -0.554
      -0.551
      -0.546
      -0.539
      -0.528
      -0.510
      -0.482
      -0.447
      -0.407
      -0.364
      -0.317
      -0.269
      -0.225
      -0.188
      -0.160
      -0.136
      -0.109
      -0.078
      -0.045
      -0.012
       0.017
       0.044
       0.071
       0.098
       0.125
       0.153
       0.179
       0.204
       0.228
       0.252
       0.279
       0.311
       0.350
       0.391
       0.430
       0.464
       0.492
       0.520
       0.549
       0.580
       0.609
       0.630
       0.641
       0.645
       0.645
       0.642
       0.635
       0.623
       0.603
       0.575
       0.538
       0.491
       0.437
       0.378
       0.321
       0.268
       0.218
       0.167
       0.114
       0.059
       0.002
      -0.057
      -0.118
      -0.179
      -0.240
      -0.299
      -0.355
      -0.407
      -0.455
      -0.500
      -0.544
      -0.586
      -0.623
      -0.652
      -0.673
      -0.686
      -0.692
      -0.691
      -0.685
      -0.671
      -0.647
      -0.612
      -0.567
      -0.516
      -0.460
      -0.400
      -0.337
      -0.271
      -0.205
      -0.141
      -0.079
      -0.020
       0.036
       0.088
       0.137
       0.182
       0.224
       0.261
       0.293
       0.317
       0.336
       0.355
       0.375
       0.394
       0.404
       0.397
       0.372
       0.338
       0.312
       0.309
       0.332
       0.372
       0.413
       0.439
       0.446
       0.438
       0.423
       0.408
       0.393
       0.374
       0.349
       0.319
       0.289
       0.263
       0.240
       0.212
       0.171
       0.122
       0.069
       0.017
      -0.042
      -0.119
      -0.220
      -0.338
      -0.453
      -0.548
      -0.614
      -0.662
      -0.708
      -0.764
      -0.826
      -0.880
      -0.916
      -0.933
      -0.942
      -0.953
      -0.964
      -0.968
      -0.954
      -0.919
      -0.866
      -0.802
      -0.734
      -0.664
      -0.594
      -0.520
      -0.441
      -0.352
      -0.252
      -0.140
      -0.018
       0.115
       0.257
       0.406
       0.556
       0.701
       0.837
       0.965
       1.089
       1.213
       1.334
       1.448
       1.550
       1.635
       1.699
       1.741
       1.759
       1.756
       1.734
       1.695
       1.636
       1.554
       1.447
       1.321
       1.182
       1.038
       0.893
       0.747
       0.596
       0.438
       0.272
       0.102
      -0.068
      -0.234
      -0.392
      -0.541
      -0.682
      -0.815
      -0.944
      -1.066
      -1.181
      -1.287
      -1.381
      -1.464
      -1.539
      -1.607
      -1.669
      -1.723
      -1.765
      -1.786
      -1.783
      -1.759
      -1.718
      -1.663
      -1.594
      -1.509
      -1.405
      -1.282
      -1.144
      -0.995
      -0.839
      -0.674
      -0.502
      -0.327
      -0.155
       0.008
       0.161
       0.305
       0.440
       0.564
       0.674
       0.768
       0.846
       0.908
       0.952
       0.984
       1.006
       1.019
       1.021
       1.006
       0.977
       0.943
       0.914
       0.896
       0.889
       0.887
       0.886
       0.881
       0.867
       0.845
       0.819
       0.794
       0.772
       0.748
       0.716
       0.674
       0.627
       0.579
       0.536
       0.500
       0.467
       0.434
       0.392
       0.336
       0.264
       0.181
       0.095
       0.017
      -0.051
      -0.111
      -0.165
      -0.216
      -0.259
      -0.291
      -0.312
      -0.323
      -0.328
      -0.326
      -0.317
      -0.304
      -0.291
      -0.280
      -0.268
      -0.254
      -0.238
      -0.222
      -0.208
      -0.200
      -0.200
      -0.209
      -0.226
      -0.248
      -0.273
      -0.295
      -0.313
      -0.328
      -0.342
      -0.353
      -0.359
      -0.356
      -0.346
      -0.334
      -0.318
      -0.293
      -0.254
      -0.202
      -0.148
      -0.104
      -0.075
      -0.050
      -0.021
       0.009
       0.027
       0.025
       0.005
      -0.021
      -0.047
      -0.077
      -0.122
      -0.187
      -0.266
      -0.345
      -0.418
      -0.489
      -0.564
      -0.641
      -0.711
      -0.769
      -0.816
      -0.856
      -0.890
      -0.912
      -0.917
      -0.901
      -0.866
      -0.816
      -0.752
      -0.674
      -0.582
      -0.477
      -0.359
      -0.231
      -0.096
       0.044
       0.188
       0.338
       0.493
       0.650
       0.802
       0.947
       1.089
       1.231
       1.369
       1.496
       1.603
       1.691
       1.762
       1.819
       1.857
       1.870
       1.859
       1.825
       1.771
       1.700
       1.606
       1.487
       1.341
       1.171
       0.991
       0.814
       0.642
       0.462
       0.253
       0.003
      -0.269
      -0.522
      -0.715
      -0.843
      -0.937
      -1.039
      -1.172
      -1.324
      -1.463
      -1.566
      -1.635
      -1.681
      -1.719
      -1.752
      -1.776
      -1.780
      -1.752
      -1.679
      -1.563
      -1.418
      -1.264
      -1.119
      -0.988
      -0.867
      -0.746
      -0.621
      -0.489
      -0.345
      -0.187
      -0.018
       0.153
       0.310
       0.442
       0.547
       0.632
       0.708
       0.780
       0.841
       0.881
       0.892
       0.876
       0.842
       0.803
       0.761
       0.713
       0.650
       0.568
       0.468
       0.353
       0.227
       0.095
      -0.034
      -0.154
      -0.259
      -0.345
      -0.416
      -0.478
      -0.534
      -0.586
      -0.625
      -0.643
      -0.634
      -0.600
      -0.541
      -0.459
      -0.356
      -0.238
      -0.118
      -0.007
       0.096
       0.204
       0.325
       0.456
       0.582
       0.685
       0.753
       0.795
       0.830
       0.871
       0.915
       0.951
       0.975
       0.988
       0.996
       0.997
       0.990
       0.973
       0.949
       0.925
       0.909
       0.900
       0.896
       0.889
       0.879
       0.864
       0.845
       0.819
       0.780
       0.726
       0.655
       0.570
       0.471
       0.360
       0.239
       0.108
      -0.032
      -0.182
      -0.340
      -0.503
      -0.671
      -0.837
      -1.000
      -1.155
      -1.299
      -1.429
      -1.544
      -1.641
      -1.722
      -1.784
      -1.826
      -1.845
      -1.841
      -1.819
      -1.784
      -1.737
      -1.674
      -1.595
      -1.497
      -1.384
      -1.256
      -1.116
      -0.968
      -0.815
      -0.662
      -0.506
      -0.347
      -0.186
      -0.023
       0.140
       0.301
       0.458
       0.608
       0.752
       0.894
       1.040
       1.189
       1.331
       1.453
       1.548
       1.617
       1.668
       1.706
       1.728
       1.730
       1.704
       1.648
       1.563
       1.462
       1.356
       1.253
       1.153
       1.051
       0.936
       0.799
       0.639
       0.463
       0.282
       0.113
      -0.036
      -0.166
      -0.278
      -0.378
      -0.470
      -0.556
      -0.636
      -0.706
      -0.764
      -0.804
      -0.825
      -0.827
      -0.817
      -0.802
      -0.788
      -0.773
      -0.752
      -0.722
      -0.686
      -0.650
      -0.620
      -0.597
      -0.579
      -0.566
      -0.557
      -0.548
      -0.537
      -0.518
      -0.490
      -0.460
      -0.437
      -0.421
      -0.405
      -0.380
      -0.341
      -0.292
      -0.238
      -0.186
      -0.135
      -0.080
      -0.022
       0.036
       0.090
       0.141
       0.193
       0.247
       0.305
       0.365
       0.422
       0.474
       0.519
       0.560
       0.599
       0.636
       0.671
       0.702
       0.724
       0.734
       0.732
       0.718
       0.694
       0.663
       0.623
       0.570
       0.504
       0.428
       0.346
       0.260
       0.173
       0.087
       0.005
      -0.073
      -0.148
      -0.224
      -0.299
      -0.367
      -0.426
      -0.474
      -0.511
      -0.536
      -0.548
      -0.547
      -0.538
      -0.528
      -0.517
      -0.500
      -0.472
      -0.429
      -0.375
      -0.315
      -0.252
      -0.185
      -0.112
      -0.033
       0.051
       0.139
       0.226
       0.312
       0.398
       0.483
       0.565
       0.642
       0.714
       0.782
       0.843
       0.888
       0.912
       0.915
       0.908
       0.898
       0.878
       0.829
       0.744
       0.634
       0.527
       0.442
       0.378
       0.318
       0.243
       0.147
       0.031
      -0.100
      -0.237
      -0.373
      -0.500
      -0.619
      -0.735
      -0.850
      -0.957
      -1.043
      -1.100
      -1.131
      -1.144
      -1.151
      -1.159
      -1.175
      -1.200
      -1.227
      -1.247
      -1.247
      -1.221
      -1.169
      -1.100
      -1.022
      -0.939
      -0.853
      -0.761
      -0.663
      -0.557
      -0.445
      -0.324
      -0.195
      -0.058
       0.085
       0.227
       0.364
       0.497
       0.630
       0.761
       0.885
       0.991
       1.074
       1.135
       1.178
       1.208
       1.225
       1.229
       1.220
       1.199
       1.165
       1.112
       1.035
       0.936
       0.826
       0.715
       0.612
       0.517
       0.428
       0.340
       0.252
       0.165
       0.083
       0.010
      -0.055
      -0.115
      -0.173
      -0.229
      -0.280
      -0.325
      -0.365
      -0.401
      -0.436
      -0.468
      -0.495
      -0.515
      -0.528
      -0.536
      -0.541
      -0.543
      -0.540
      -0.529
      -0.509
      -0.478
      -0.439
      -0.390
      -0.332
      -0.264
      -0.185
      -0.097
      -0.005
       0.086
       0.171
       0.250
       0.326
       0.401
       0.472
       0.533
       0.579
       0.611
       0.631
       0.643
       0.644
       0.629
       0.596
       0.548
       0.492
       0.432
       0.369
       0.300
       0.222
       0.138
       0.054
      -0.028
      -0.109
      -0.192
      -0.278
      -0.361
      -0.434
      -0.493
      -0.543
      -0.588
      -0.628
      -0.663
      -0.694
      -0.722
      -0.748
      -0.769
      -0.779
      -0.779
      -0.772
      -0.762
      -0.751
      -0.734
      -0.703
      -0.655
      -0.589
      -0.503
      -0.402
      -0.293
      -0.183
      -0.078
