Origin Time       18/01/2011 20:23:27
Lat.              28.9 N	
Long.             64.0 E	
Depth (Km)          5.0
Magnitude         7.4
 Region           Southwestern-Pakistan                                            
 Above details taken from IMD 
     
Station Code      KSL
Station Lat.       30.899  N
Station Long.      76.960  E
Station Height(m) 1802.0
Site Class        B   Vs30 between 375 m/sec to 700 m/sec *  
Record Time       18.01.2011 20:27:39.989
Sampling Rate     200. Hz
 Record Duration   88.525 Sec.
 Direction         E-W (E positive)
Max. Acceleration      2.237 cm/sec**2
     
  * For reference see Site Classification link of website 
     
 Base Line Corrected and Low Pass Filtered (Cut Off at 35 Hz) Time History
 Acceleration data in cm/sec**2
    
[...]
       0.519
       0.600
       0.669
       0.730
       0.789
       0.848
       0.908
       0.965
       1.018
       1.066
       1.111
       1.153
       1.190
       1.220
       1.245
       1.269
       1.298
       1.337
       1.384
       1.433
       1.478
       1.518
       1.555
       1.586
       1.608
       1.614
       1.601
       1.570
       1.523
       1.462
       1.388
       1.301
       1.202
       1.093
       0.972
       0.840
       0.700
       0.555
       0.412
       0.274
       0.141
       0.011
      -0.115
      -0.233
      -0.340
      -0.436
      -0.523
      -0.606
      -0.684
      -0.758
      -0.826
      -0.889
      -0.949
      -1.008
      -1.064
      -1.118
      -1.171
      -1.222
      -1.272
      -1.320
      -1.361
      -1.393
      -1.415
      -1.425
      -1.421
      -1.405
      -1.376
      -1.336
      -1.284
      -1.217
      -1.132
      -1.032
      -0.918
      -0.794
      -0.661
      -0.518
      -0.364
      -0.198
      -0.022
       0.162
       0.344
       0.520
       0.683
       0.831
       0.965
       1.089
       1.206
       1.312
       1.402
       1.469
       1.517
       1.549
       1.569
       1.574
       1.559
       1.522
       1.466
       1.401
       1.336
       1.271
       1.204
       1.132
       1.053
       0.972
       0.889
       0.801
       0.705
       0.596
       0.477
       0.355
       0.236
       0.125
       0.019
      -0.082
      -0.178
      -0.267
      -0.345
      -0.409
      -0.459
      -0.494
      -0.511
      -0.509
      -0.485
      -0.442
      -0.383
      -0.311
      -0.233
      -0.150
      -0.062
       0.028
       0.116
       0.198
       0.266
       0.320
       0.360
       0.385
       0.394
       0.385
       0.359
       0.319
       0.266
       0.204
       0.137
       0.069
       0.002
      -0.063
      -0.125
      -0.184
      -0.240
      -0.294
      -0.345
      -0.395
      -0.441
      -0.484
      -0.526
      -0.567
      -0.606
      -0.644
      -0.680
      -0.715
      -0.748
      -0.776
      -0.801
      -0.825
      -0.852
      -0.883
      -0.914
      -0.943
      -0.967
      -0.988
      -1.008
      -1.028
      -1.044
      -1.051
      -1.045
      -1.024
      -0.991
      -0.950
      -0.901
      -0.844
      -0.772
      -0.684
      -0.577
      -0.455
      -0.319
      -0.176
      -0.032
       0.107
       0.235
       0.351
       0.460
       0.560
       0.648
       0.714
       0.753
       0.765
       0.757
       0.733
       0.694
       0.636
       0.558
       0.468
       0.376
       0.290
       0.214
       0.145
       0.085
       0.039
       0.011
       0.005
       0.018
       0.045
       0.080
       0.120
       0.166
       0.219
       0.280
       0.347
       0.416
       0.482
       0.541
       0.587
       0.610
       0.606
       0.574
       0.520
       0.447
       0.355
       0.241
       0.106
      -0.044
      -0.199
      -0.353
      -0.504
      -0.649
      -0.786
      -0.912
      -1.020
      -1.104
      -1.160
      -1.183
      -1.175
      -1.139
      -1.082
      -1.009
      -0.926
      -0.839
      -0.754
      -0.673
      -0.594
      -0.516
      -0.440
      -0.370
      -0.310
      -0.265
      -0.239
      -0.236
      -0.253
      -0.288
      -0.331
      -0.377
      -0.425
      -0.470
      -0.508
      -0.532
      -0.539
      -0.532
      -0.514
      -0.485
      -0.443
      -0.386
      -0.315
      -0.230
      -0.134
      -0.029
       0.086
       0.205
       0.322
       0.431
       0.531
       0.623
       0.703
       0.767
       0.804
       0.809
       0.784
       0.734
       0.663
       0.573
       0.468
       0.353
       0.234
       0.117
       0.009
      -0.087
      -0.167
      -0.231
      -0.279
      -0.313
      -0.330
      -0.332
      -0.320
      -0.296
      -0.264
      -0.227
      -0.186
      -0.144
      -0.105
      -0.074
      -0.057
      -0.054
      -0.065
      -0.086
      -0.122
      -0.177
      -0.254
      -0.351
      -0.457
      -0.562
      -0.658
      -0.745
      -0.821
      -0.886
      -0.934
      -0.958
      -0.956
      -0.925
      -0.867
      -0.780
      -0.666
      -0.529
      -0.378
      -0.218
      -0.054
       0.111
       0.268
       0.410
       0.533
       0.637
       0.726
       0.803
       0.865
       0.907
       0.924
       0.919
       0.906
       0.892
       0.882
       0.874
       0.868
       0.868
       0.880
       0.907
       0.949
       1.002
       1.061
       1.123
       1.187
       1.251
       1.311
       1.362
       1.396
       1.408
       1.399
       1.371
       1.325
       1.259
       1.169
       1.057
       0.929
       0.794
       0.656
       0.515
       0.372
       0.230
       0.100
      -0.013
      -0.107
      -0.184
      -0.247
      -0.296
      -0.328
      -0.345
      -0.348
      -0.339
      -0.321
      -0.295
      -0.265
      -0.235
      -0.213
      -0.202
      -0.206
      -0.222
      -0.250
      -0.290
      -0.343
      -0.403
      -0.464
      -0.517
      -0.559
      -0.593
      -0.623
      -0.647
      -0.662
      -0.661
      -0.638
      -0.590
      -0.517
      -0.420
      -0.305
      -0.177
      -0.046
       0.080
       0.197
       0.302
       0.398
       0.490
       0.578
       0.663
       0.743
       0.816
       0.880
       0.928
       0.956
       0.963
       0.959
       0.952
       0.949
       0.949
       0.952
       0.960
       0.977
       1.003
       1.035
       1.070
       1.105
       1.139
       1.167
       1.185
       1.192
       1.185
       1.167
       1.133
       1.077
       0.993
       0.875
       0.725
       0.546
       0.347
       0.136
      -0.078
      -0.292
      -0.503
      -0.712
      -0.915
      -1.104
      -1.272
      -1.414
      -1.530
      -1.622
      -1.692
      -1.736
      -1.752
      -1.735
      -1.688
      -1.616
      -1.523
      -1.418
      -1.305
      -1.189
      -1.073
      -0.956
      -0.837
      -0.719
      -0.604
      -0.495
      -0.393
      -0.293
      -0.191
      -0.086
       0.018
       0.118
       0.211
       0.300
       0.389
       0.477
       0.562
       0.641
       0.717
       0.792
       0.865
       0.932
       0.989
       1.032
       1.058
       1.069
       1.063
       1.041
       0.995
       0.919
       0.812
       0.681
       0.539
       0.394
       0.242
       0.079
      -0.097
      -0.277
      -0.449
      -0.605
      -0.750
      -0.890
      -1.034
      -1.178
      -1.312
      -1.428
      -1.523
      -1.604
      -1.679
      -1.748
      -1.808
      -1.854
      -1.886
      -1.906
      -1.916
      -1.918
      -1.907
      -1.883
      -1.848
      -1.805
      -1.753
      -1.688
      -1.605
      -1.502
      -1.379
      -1.239
      -1.086
      -0.925
      -0.763
      -0.605
      -0.455
      -0.315
      -0.182
      -0.056
       0.064
       0.178
       0.287
       0.393
       0.496
       0.595
       0.684
       0.757
       0.810
       0.845
       0.863
       0.866
       0.855
       0.831
       0.795
       0.750
       0.698
       0.644
       0.587
       0.526
       0.461
       0.389
       0.309
       0.220
       0.123
       0.020
      -0.088
      -0.202
      -0.320
      -0.436
      -0.545
      -0.644
      -0.735
      -0.824
      -0.907
      -0.982
      -1.041
      -1.086
      -1.119
      -1.147
      -1.171
      -1.187
      -1.188
      -1.176
      -1.157
      -1.137
      -1.118
      -1.095
      -1.068
      -1.041
      -1.021
      -1.011
      -1.009
      -1.012
      -1.014
      -1.014
      -1.012
      -1.010
      -1.005
      -0.990
      -0.959
      -0.906
      -0.835
      -0.751
      -0.657
      -0.553
      -0.435
      -0.306
      -0.170
      -0.036
       0.090
       0.204
       0.306
       0.402
       0.494
       0.584
       0.665
       0.730
       0.774
       0.800
       0.819
       0.836
       0.856
       0.876
       0.896
       0.919
       0.948
       0.987
       1.036
       1.091
       1.149
       1.208
       1.271
       1.334
       1.395
       1.449
       1.493
       1.530
       1.562
       1.591
       1.617
       1.637
       1.647
       1.644
       1.629
       1.602
       1.560
       1.500
       1.422
       1.329
       1.228
       1.118
       0.997
       0.864
       0.725
       0.590
       0.465
       0.356
       0.264
       0.193
       0.143
       0.117
       0.112
       0.127
       0.157
       0.202
       0.259
       0.328
       0.405
       0.488
       0.571
       0.649
       0.717
       0.776
       0.824
       0.859
       0.878
       0.876
       0.856
       0.819
       0.768
       0.706
       0.641
       0.579
       0.522
       0.469
       0.419
       0.377
       0.348
       0.340
       0.353
       0.385
       0.434
       0.498
       0.577
       0.665
       0.752
       0.827
       0.880
       0.907
       0.913
       0.905
       0.887
       0.857
       0.812
       0.756
       0.697
       0.642
       0.591
       0.540
       0.488
       0.442
       0.411
       0.398
       0.401
       0.417
       0.444
       0.485
       0.543
       0.611
       0.681
       0.745
       0.801
       0.849
       0.890
       0.923
       0.945
       0.955
       0.949
       0.929
       0.895
       0.847
       0.787
       0.715
       0.636
       0.553
       0.471
       0.395
       0.327
       0.270
       0.224
       0.187
       0.159
       0.140
       0.133
       0.138
       0.152
       0.174
       0.202
       0.233
       0.261
       0.283
       0.297
       0.302
       0.293
       0.266
       0.217
       0.147
       0.060
      -0.040
      -0.150
      -0.267
      -0.389
      -0.511
      -0.628
      -0.731
      -0.815
      -0.879
      -0.928
      -0.965
      -0.991
      -1.004
      -1.002
      -0.986
      -0.964
      -0.942
      -0.925
      -0.914
      -0.907
      -0.907
      -0.917
      -0.937
      -0.970
      -1.015
      -1.072
      -1.137
      -1.205
      -1.274
      -1.340
      -1.398
      -1.442
      -1.468
      -1.472
      -1.458
      -1.425
      -1.373
      -1.299
      -1.205
      -1.095
      -0.970
      -0.831
      -0.680
      -0.524
      -0.372
      -0.229
      -0.100
       0.015
       0.114
       0.192
       0.249
       0.283
       0.291
       0.275
       0.235
       0.179
       0.113
       0.039
      -0.045
      -0.137
      -0.234
      -0.328
      -0.412
      -0.483
      -0.538
      -0.575
      -0.593
      -0.597
      -0.589
      -0.574
      -0.554
      -0.530
      -0.505
      -0.480
      -0.458
      -0.444
      -0.438
      -0.443
      -0.460
      -0.487
      -0.522
      -0.565
      -0.616
      -0.676
      -0.742
      -0.810
      -0.875
      -0.937
      -0.996
      -1.049
      -1.094
      -1.128
      -1.152
      -1.169
      -1.178
      -1.179
      -1.174
      -1.160
      -1.138
      -1.114
      -1.093
      -1.080
      -1.077
      -1.084
      -1.099
      -1.122
      -1.150
      -1.182
      -1.214
      -1.244
      -1.268
      -1.289
      -1.305
      -1.319
      -1.328
      -1.329
      -1.318
      -1.295
      -1.259
      -1.209
      -1.145
      -1.067
      -0.979
      -0.885
      -0.787
      -0.687
      -0.585
      -0.481
      -0.380
      -0.286
      -0.205
      -0.139
      -0.083
      -0.031
       0.018
       0.061
       0.091
       0.104
       0.105
       0.099
       0.093
       0.085
       0.078
       0.071
       0.067
       0.069
       0.078
       0.095
       0.118
       0.145
       0.173
       0.198
       0.220
       0.241
       0.268
       0.299
       0.329
       0.352
       0.365
       0.370
       0.368
       0.362
       0.352
       0.339
       0.323
       0.305
       0.287
       0.270
       0.255
       0.245
       0.241
       0.245
       0.257
       0.273
       0.290
       0.306
       0.319
       0.336
       0.358
       0.387
       0.419
       0.447
       0.470
       0.487
       0.506
       0.530
       0.560
       0.594
       0.625
       0.650
       0.670
       0.688
       0.708
       0.734
       0.768
       0.811
       0.857
       0.904
       0.951
       1.000
       1.051
       1.100
       1.136
       1.157
       1.165
       1.164
       1.160
       1.149
       1.128
       1.091
       1.035
       0.964
       0.878
       0.780
       0.669
       0.551
       0.432
       0.317
       0.214
       0.126
       0.053
      -0.008
      -0.057
      -0.096
      -0.125
      -0.145
      -0.154
      -0.152
      -0.134
      -0.101
      -0.055
      -0.005
       0.042
       0.081
       0.113
       0.140
       0.161
       0.174
       0.177
       0.173
       0.168
       0.167
       0.171
       0.176
       0.180
       0.187
       0.203
       0.235
       0.284
       0.348
       0.423
       0.511
       0.610
       0.722
       0.846
       0.980
       1.119
       1.258
       1.392
       1.520
       1.642
       1.757
       1.864
       1.958
       2.036
       2.097
       2.144
       2.180
       2.208
       2.228
       2.237
       2.235
       2.221
       2.197
       2.166
       2.133
       2.097
       2.056
       2.003
       1.937
       1.863
       1.786
       1.705
       1.615
       1.509
       1.387
       1.254
       1.115
       0.976
       0.834
       0.689
       0.536
       0.377
       0.215
       0.056
      -0.092
      -0.226
      -0.341
      -0.436
      -0.506
      -0.550
      -0.566
      -0.558
      -0.531
      -0.487
      -0.427
      -0.353
      -0.268
      -0.182
      -0.101
      -0.029
       0.036
       0.093
       0.139
       0.169
       0.178
       0.170
       0.147
       0.114
       0.073
       0.024
      -0.029
      -0.084
      -0.134
      -0.174
      -0.201
      -0.213
      -0.209
      -0.185
      -0.139
      -0.074
       0.006
       0.094
       0.189
       0.289
       0.390
       0.485
       0.565
       0.629
       0.674
       0.700
       0.701
       0.669
       0.600
       0.496
       0.366
       0.219
       0.058
      -0.115
      -0.296
      -0.482
      -0.664
      -0.839
      -1.003
      -1.150
      -1.277
      -1.381
      -1.462
      -1.518
      -1.552
      -1.567
      -1.569
      -1.563
      -1.552
      -1.538
      -1.522
      -1.508
      -1.499
      -1.497
      -1.498
      -1.503
      -1.511
      -1.526
      -1.545
      -1.559
      -1.560
      -1.543
      -1.512
      -1.470
      -1.417
      -1.347
      -1.257
      -1.147
      -1.022
      -0.888
      -0.750
      -0.606
      -0.458
      -0.312
      -0.177
      -0.064
       0.021
       0.077
       0.105
       0.105
       0.077
       0.024
      -0.056
      -0.162
      -0.291
      -0.439
      -0.602
      -0.776
      -0.958
      -1.141
      -1.319
      -1.485
      -1.632
      -1.759
      -1.869
      -1.963
      -2.042
      -2.103
      -2.144
      -2.165
      -2.170
      -2.162
      -2.141
      -2.103
      -2.047
      -1.975
      -1.890
      -1.796
      -1.693
      -1.582
      -1.464
      -1.347
      -1.235
      -1.131
      -1.032
      -0.933
      -0.832
      -0.728
      -0.625
      -0.526
      -0.432
      -0.344
      -0.260
      -0.178
      -0.097
      -0.016
       0.063
       0.143
       0.223
       0.303
       0.381
       0.450
       0.508
       0.555
       0.587
       0.605
       0.608
       0.604
       0.596
       0.589
       0.576
       0.550
       0.510
       0.456
       0.395
       0.329
       0.256
       0.173
       0.078
      -0.029
      -0.141
      -0.254
      -0.366
      -0.477
      -0.586
      -0.689
      -0.783
      -0.863
      -0.928
      -0.979
      -1.015
      -1.032
      -1.029
      -1.004
      -0.958
      -0.893
      -0.817
      -0.735
      -0.649
      -0.557
      -0.455
      -0.343
      -0.225
      -0.106
       0.008
       0.116
       0.213
       0.302
       0.386
       0.467
       0.544
       0.613
       0.675
       0.735
       0.797
       0.865
       0.936
       1.006
       1.072
       1.136
       1.203
       1.275
       1.351
       1.428
       1.505
       1.581
       1.654
       1.721
       1.777
       1.820
       1.852
       1.874
       1.885
       1.881
       1.856
       1.811
       1.747
       1.669
       1.582
       1.486
       1.384
       1.275
       1.162
       1.047
       0.929
       0.808
       0.683
       0.555
       0.426
       0.296
       0.167
       0.041
      -0.083
      -0.203
      -0.318
      -0.421
      -0.510
      -0.579
      -0.631
      -0.668
      -0.691
      -0.703
      -0.705
      -0.695
      -0.677
      -0.650
      -0.617
      -0.580
      -0.540
      -0.496
      -0.447
      -0.391
      -0.330
      -0.261
      -0.189
      -0.114
      -0.038
       0.039
       0.116
       0.191
       0.260
       0.326
       0.389
       0.452
       0.516
       0.580
       0.644
       0.707
       0.767
       0.824
       0.879
       0.936
       0.999
       1.068
       1.138
       1.202
       1.254
       1.293
       1.321
       1.341
       1.355
       1.362
       1.358
       1.341
       1.312
       1.270
       1.216
       1.148
       1.068
       0.979
       0.885
       0.787
       0.688
       0.588
       0.490
       0.396
       0.308
       0.226
       0.147
       0.070
      -0.008
      -0.088
      -0.172
      -0.258
      -0.343
      -0.421
      -0.490
      -0.550
      -0.605
      -0.657
      -0.710
      -0.762
      -0.812
      -0.858
      -0.897
      -0.930
      -0.954
      -0.972
      -0.983
      -0.985
      -0.976
      -0.952
      -0.913
      -0.863
      -0.808
      -0.747
      -0.675
      -0.591
      -0.495
      -0.390
      -0.280
      -0.168
      -0.055
       0.054
       0.155
       0.243
       0.320
       0.387
       0.450
       0.511
       0.571
       0.626
       0.673
       0.709
       0.734
       0.750
       0.759
       0.763
       0.761
       0.753
       0.742
       0.733
       0.734
       0.744
       0.761
       0.777
       0.787
       0.789
       0.783
       0.771
       0.755
       0.737
       0.715
       0.688
       0.652
       0.605
       0.548
       0.485
       0.418
       0.345
       0.266
       0.183
       0.102
       0.027
      -0.043
      -0.113
      -0.188
      -0.268
      -0.350
      -0.433
      -0.520
      -0.611
      -0.709
      -0.810
      -0.914
      -1.018
      -1.117
      -1.208
      -1.290
      -1.367
      -1.439
      -1.501
      -1.552
      -1.592
      -1.625
      -1.655
      -1.682
      -1.697
      -1.696
      -1.676
      -1.640
      -1.591
      -1.534
      -1.467
      -1.393
      -1.316
      -1.240
      -1.167
      -1.097
