Origin Time       13/8/2012 20:32:59	 UTC
Lat.              34.8 N	
Long.             73.7 E	
Depth (Km)         30.0
Magnitude         5.2
 Region           INDIA-PAKISTAN-BORDER                                            
 Above details taken from IMD 
    
Station Code      KSL
Station Lat.       30.899  N
Station Long.      76.960  E
Station Height(m) 1802.0
Site Class        B   Vs30 between 375 m/sec to 700 m/sec *  
Record Time       13.08.2012 20:34:38.909 UTC
Sampling Rate     200. Hz
 Record Duration   80.910 Sec.
 Direction         N-S (N positive)
Max. Acceleration      1.807 cm/sec**2
     
  * For reference see Site Classification link of website 
     
 Base Line Corrected and Low Pass Filtered (Cut Off at 35 Hz) Time History
 Acceleration data in cm/sec**2
    
[...]
      -0.034
      -0.032
      -0.032
      -0.036
      -0.040
      -0.041
      -0.040
      -0.038
      -0.035
      -0.030
      -0.021
      -0.010
      -0.002
       0.002
       0.003
       0.007
       0.016
       0.026
       0.034
       0.033
       0.025
       0.012
       0.006
       0.011
       0.027
       0.043
       0.047
       0.036
       0.019
       0.009
       0.013
       0.026
       0.036
       0.038
       0.033
       0.030
       0.031
       0.034
       0.036
       0.034
       0.030
       0.026
       0.026
       0.028
       0.027
       0.021
       0.012
       0.004
      -0.002
      -0.005
      -0.009
      -0.013
      -0.019
      -0.025
      -0.029
      -0.027
      -0.021
      -0.015
      -0.015
      -0.020
      -0.028
      -0.032
      -0.029
      -0.023
      -0.019
      -0.019
      -0.021
      -0.022
      -0.015
      -0.003
       0.014
       0.029
       0.042
       0.051
       0.056
       0.057
       0.057
       0.056
       0.055
       0.052
       0.047
       0.038
       0.028
       0.019
       0.011
       0.002
      -0.009
      -0.022
      -0.034
      -0.042
      -0.045
      -0.048
      -0.053
      -0.062
      -0.072
      -0.077
      -0.076
      -0.070
      -0.061
      -0.053
      -0.048
      -0.045
      -0.040
      -0.030
      -0.017
      -0.004
       0.005
       0.011
       0.015
       0.019
       0.022
       0.022
       0.023
       0.025
       0.027
       0.025
       0.019
       0.011
       0.005
       0.003
       0.004
       0.006
       0.010
       0.014
       0.019
       0.023
       0.028
       0.030
       0.027
       0.021
       0.015
       0.009
       0.005
      -0.001
      -0.008
      -0.015
      -0.022
      -0.028
      -0.033
      -0.038
      -0.041
      -0.041
      -0.040
      -0.038
      -0.036
      -0.028
      -0.013
       0.005
       0.017
       0.019
       0.015
       0.017
       0.028
       0.043
       0.050
       0.044
       0.027
       0.012
       0.006
       0.007
       0.006
      -0.003
      -0.018
      -0.033
      -0.042
      -0.047
      -0.054
      -0.067
      -0.083
      -0.089
      -0.079
      -0.061
      -0.047
      -0.045
      -0.050
      -0.053
      -0.048
      -0.034
      -0.018
      -0.003
       0.007
       0.016
       0.022
       0.025
       0.025
       0.022
       0.018
       0.014
       0.013
       0.012
       0.012
       0.011
       0.011
       0.009
       0.005
      -0.001
      -0.008
      -0.013
      -0.016
      -0.017
      -0.018
      -0.019
      -0.019
      -0.019
      -0.018
      -0.016
      -0.014
      -0.013
      -0.013
      -0.015
      -0.016
      -0.014
      -0.011
      -0.009
      -0.011
      -0.017
      -0.024
      -0.026
      -0.024
      -0.020
      -0.017
      -0.018
      -0.021
      -0.024
      -0.026
      -0.024
      -0.018
      -0.011
      -0.003
       0.003
       0.008
       0.011
       0.014
       0.018
       0.025
       0.030
       0.029
       0.020
       0.009
       0.001
      -0.001
       0.002
       0.006
       0.007
       0.002
      -0.004
      -0.006
      -0.003
       0.004
       0.010
       0.012
       0.011
       0.011
       0.013
       0.014
       0.014
       0.012
       0.012
       0.017
       0.024
       0.030
       0.033
       0.031
       0.025
       0.018
       0.012
       0.007
       0.004
       0.002
      -0.002
      -0.010
      -0.022
      -0.033
      -0.037
      -0.033
      -0.028
      -0.032
      -0.046
      -0.057
      -0.048
      -0.019
       0.009
       0.009
      -0.021
      -0.052
      -0.048
      -0.008
       0.035
       0.043
       0.016
      -0.012
      -0.010
       0.016
       0.033
       0.020
      -0.009
      -0.019
       0.007
       0.052
       0.088
       0.093
       0.072
       0.042
       0.024
       0.025
       0.039
       0.052
       0.054
       0.044
       0.030
       0.021
       0.021
       0.026
       0.030
       0.028
       0.013
      -0.011
      -0.036
      -0.052
      -0.056
      -0.053
      -0.049
      -0.045
      -0.039
      -0.032
      -0.027
      -0.025
      -0.027
      -0.030
      -0.034
      -0.035
      -0.032
      -0.023
      -0.013
      -0.006
      -0.008
      -0.016
      -0.025
      -0.031
      -0.031
      -0.028
      -0.024
      -0.026
      -0.032
      -0.038
      -0.038
      -0.030
      -0.017
      -0.007
      -0.003
      -0.002
       0.003
       0.014
       0.029
       0.043
       0.054
       0.062
       0.066
       0.066
       0.063
       0.057
       0.049
       0.040
       0.029
       0.019
       0.010
       0.003
      -0.002
      -0.004
      -0.004
      -0.001
       0.002
       0.002
      -0.001
      -0.006
      -0.013
      -0.019
      -0.020
      -0.013
       0.001
       0.016
       0.019
       0.003
      -0.024
      -0.038
      -0.028
      -0.004
       0.005
      -0.013
      -0.044
      -0.061
      -0.057
      -0.047
      -0.047
      -0.059
      -0.068
      -0.065
      -0.054
      -0.044
      -0.038
      -0.031
      -0.019
      -0.003
       0.012
       0.022
       0.025
       0.026
       0.033
       0.046
       0.060
       0.069
       0.068
       0.059
       0.048
       0.036
       0.026
       0.017
       0.008
       0.001
      -0.006
      -0.013
      -0.017
      -0.020
      -0.024
      -0.031
      -0.040
      -0.047
      -0.046
      -0.038
      -0.031
      -0.029
      -0.029
      -0.024
      -0.014
      -0.001
       0.010
       0.015
       0.015
       0.014
       0.011
       0.009
       0.009
       0.011
       0.012
       0.009
       0.001
      -0.007
      -0.010
      -0.007
       0.000
       0.003
       0.001
      -0.003
      -0.005
      -0.003
       0.000
       0.002
       0.002
       0.003
       0.005
       0.010
       0.017
       0.026
       0.035
       0.041
       0.043
       0.042
       0.040
       0.040
       0.043
       0.047
       0.049
       0.048
       0.042
       0.033
       0.024
       0.015
       0.005
      -0.005
      -0.009
      -0.009
      -0.013
      -0.030
      -0.059
      -0.089
      -0.102
      -0.090
      -0.065
      -0.045
      -0.040
      -0.049
      -0.060
      -0.066
      -0.062
      -0.053
      -0.042
      -0.034
      -0.030
      -0.029
      -0.028
      -0.027
      -0.024
      -0.021
      -0.020
      -0.026
      -0.042
      -0.060
      -0.067
      -0.054
      -0.028
      -0.007
      -0.006
      -0.024
      -0.046
      -0.058
      -0.058
      -0.053
      -0.051
      -0.054
      -0.060
      -0.065
      -0.068
      -0.071
      -0.075
      -0.078
      -0.077
      -0.071
      -0.065
      -0.062
      -0.064
      -0.069
      -0.071
      -0.070
      -0.069
      -0.068
      -0.067
      -0.061
      -0.046
      -0.023
       0.000
       0.016
       0.021
       0.017
       0.010
       0.006
       0.005
       0.007
       0.009
       0.010
       0.012
       0.019
       0.028
       0.035
       0.038
       0.036
       0.034
       0.032
       0.034
       0.038
       0.048
       0.064
       0.085
       0.107
       0.127
       0.143
       0.156
       0.168
       0.183
       0.199
       0.214
       0.225
       0.232
       0.236
       0.240
       0.243
       0.245
       0.241
       0.228
       0.206
       0.182
       0.161
       0.145
       0.132
       0.117
       0.095
       0.071
       0.048
       0.028
       0.013
      -0.002
      -0.018
      -0.035
      -0.051
      -0.065
      -0.078
      -0.092
      -0.108
      -0.122
      -0.132
      -0.137
      -0.140
      -0.144
      -0.152
      -0.162
      -0.172
      -0.185
      -0.198
      -0.211
      -0.221
      -0.224
      -0.220
      -0.211
      -0.207
      -0.212
      -0.224
      -0.237
      -0.244
      -0.245
      -0.245
      -0.247
      -0.250
      -0.250
      -0.246
      -0.240
      -0.233
      -0.225
      -0.215
      -0.201
      -0.182
      -0.159
      -0.134
      -0.108
      -0.081
      -0.051
      -0.016
       0.024
       0.064
       0.103
       0.138
       0.172
       0.205
       0.236
       0.265
       0.289
       0.311
       0.330
       0.347
       0.361
       0.371
       0.379
       0.382
       0.381
       0.377
       0.372
       0.363
       0.349
       0.331
       0.311
       0.290
       0.268
       0.243
       0.216
       0.188
       0.161
       0.133
       0.105
       0.077
       0.046
       0.012
      -0.024
      -0.058
      -0.088
      -0.116
      -0.144
      -0.174
      -0.205
      -0.232
      -0.255
      -0.277
      -0.300
      -0.325
      -0.349
      -0.368
      -0.383
      -0.396
      -0.410
      -0.424
      -0.434
      -0.439
      -0.440
      -0.441
      -0.442
      -0.444
      -0.446
      -0.447
      -0.446
      -0.444
      -0.437
      -0.424
      -0.407
      -0.387
      -0.368
      -0.351
      -0.334
      -0.314
      -0.291
      -0.262
      -0.226
      -0.186
      -0.143
      -0.100
      -0.060
      -0.020
       0.025
       0.077
       0.134
       0.193
       0.249
       0.301
       0.352
       0.404
       0.458
       0.512
       0.564
       0.611
       0.652
       0.687
       0.716
       0.741
       0.761
       0.773
       0.775
       0.767
       0.753
       0.739
       0.725
       0.709
       0.686
       0.653
       0.612
       0.568
       0.526
       0.487
       0.450
       0.409
       0.363
       0.312
       0.262
       0.215
       0.170
       0.121
       0.064
       0.001
      -0.063
      -0.125
      -0.183
      -0.244
      -0.311
      -0.385
      -0.460
      -0.529
      -0.591
      -0.649
      -0.707
      -0.767
      -0.822
      -0.866
      -0.898
      -0.919
      -0.934
      -0.947
      -0.954
      -0.946
      -0.922
      -0.883
      -0.837
      -0.787
      -0.731
      -0.665
      -0.589
      -0.507
      -0.426
      -0.345
      -0.263
      -0.178
      -0.091
      -0.005
       0.076
       0.153
       0.228
       0.299
       0.365
       0.424
       0.478
       0.530
       0.577
       0.620
       0.658
       0.690
       0.718
       0.742
       0.761
       0.770
       0.768
       0.753
       0.728
       0.694
       0.654
       0.608
       0.555
       0.494
       0.422
       0.340
       0.251
       0.161
       0.076
      -0.004
      -0.081
      -0.154
      -0.224
      -0.290
      -0.357
      -0.428
      -0.504
      -0.577
      -0.638
      -0.682
      -0.713
      -0.739
      -0.765
      -0.787
      -0.799
      -0.796
      -0.784
      -0.769
      -0.760
      -0.756
      -0.749
      -0.728
      -0.687
      -0.629
      -0.561
      -0.498
      -0.442
      -0.393
      -0.341
      -0.283
      -0.219
      -0.151
      -0.078
       0.001
       0.089
       0.185
       0.284
       0.378
       0.461
       0.530
       0.592
       0.655
       0.724
       0.798
       0.866
       0.922
       0.964
       0.997
       1.025
       1.050
       1.073
       1.093
       1.110
       1.122
       1.124
       1.115
       1.095
       1.067
       1.033
       0.993
       0.946
       0.890
       0.824
       0.746
       0.656
       0.554
       0.441
       0.319
       0.193
       0.069
      -0.052
      -0.172
      -0.295
      -0.421
      -0.547
      -0.664
      -0.771
      -0.868
      -0.957
      -1.039
      -1.110
      -1.167
      -1.211
      -1.247
      -1.276
      -1.298
      -1.308
      -1.303
      -1.285
      -1.257
      -1.221
      -1.177
      -1.123
      -1.061
      -0.992
      -0.917
      -0.836
      -0.749
      -0.653
      -0.548
      -0.435
      -0.317
      -0.200
      -0.086
       0.021
       0.122
       0.217
       0.307
       0.392
       0.469
       0.536
       0.594
       0.642
       0.680
       0.705
       0.719
       0.720
       0.711
       0.693
       0.671
       0.648
       0.628
       0.611
       0.594
       0.573
       0.549
       0.524
       0.507
       0.501
       0.500
       0.495
       0.480
       0.457
       0.435
       0.420
       0.411
       0.402
       0.390
       0.373
       0.355
       0.341
       0.330
       0.315
       0.292
       0.259
       0.220
       0.185
       0.158
       0.142
       0.136
       0.135
       0.132
       0.116
       0.084
       0.039
      -0.006
      -0.041
      -0.070
      -0.100
      -0.141
      -0.193
      -0.250
      -0.303
      -0.354
      -0.410
      -0.475
      -0.547
      -0.616
      -0.673
      -0.717
      -0.757
      -0.799
      -0.847
      -0.897
      -0.940
      -0.973
      -0.993
      -1.003
      -1.002
      -0.992
      -0.974
      -0.955
      -0.938
      -0.920
      -0.894
      -0.856
      -0.806
      -0.751
      -0.699
      -0.651
      -0.606
      -0.562
      -0.515
      -0.460
      -0.394
      -0.313
      -0.221
      -0.121
      -0.019
       0.085
       0.193
       0.308
       0.435
       0.571
       0.709
       0.842
       0.966
       1.086
       1.206
       1.325
       1.434
       1.525
       1.600
       1.667
       1.732
       1.783
       1.807
       1.796
       1.760
       1.715
       1.664
       1.598
       1.509
       1.396
       1.261
       1.111
       0.949
       0.778
       0.603
       0.426
       0.250
       0.080
      -0.081
      -0.233
      -0.377
      -0.512
      -0.637
      -0.747
      -0.842
      -0.923
      -0.994
      -1.054
      -1.101
      -1.133
      -1.151
      -1.157
      -1.156
      -1.149
      -1.137
      -1.120
      -1.101
      -1.080
      -1.061
      -1.043
      -1.025
      -1.006
      -0.984
      -0.960
      -0.936
      -0.914
      -0.897
      -0.881
      -0.858
      -0.825
      -0.781
      -0.734
      -0.689
      -0.643
      -0.587
      -0.515
      -0.436
      -0.365
      -0.310
      -0.264
      -0.203
      -0.118
      -0.018
       0.073
       0.144
       0.206
       0.284
       0.393
       0.523
       0.648
       0.749
       0.823
       0.878
       0.931
       0.994
       1.071
       1.156
       1.233
       1.286
       1.310
       1.313
       1.308
       1.300
       1.283
       1.246
       1.187
       1.115
       1.043
       0.979
       0.918
       0.845
       0.747
       0.622
       0.483
       0.350
       0.237
       0.144
       0.058
      -0.035
      -0.140
      -0.250
      -0.350
      -0.429
      -0.480
      -0.510
      -0.526
      -0.540
      -0.558
      -0.581
      -0.605
      -0.623
      -0.630
      -0.624
      -0.608
      -0.585
      -0.562
      -0.549
      -0.550
      -0.566
      -0.595
      -0.630
      -0.663
      -0.689
      -0.709
      -0.727
      -0.754
      -0.796
      -0.851
      -0.901
      -0.925
      -0.918
      -0.892
      -0.868
      -0.851
      -0.829
      -0.783
      -0.709
      -0.617
      -0.519
      -0.420
      -0.318
      -0.207
      -0.086
       0.042
       0.164
       0.275
       0.372
       0.463
       0.552
       0.637
       0.713
       0.774
       0.817
       0.843
       0.853
       0.849
       0.836
       0.821
       0.808
       0.795
       0.775
       0.746
       0.710
       0.673
       0.642
       0.614
       0.585
       0.550
       0.514
       0.480
       0.455
       0.437
       0.422
       0.405
       0.388
       0.372
       0.356
       0.339
       0.319
       0.298
       0.277
       0.253
       0.223
       0.188
       0.147
       0.103
       0.057
       0.006
      -0.047
      -0.101
      -0.156
      -0.213
      -0.271
      -0.331
      -0.392
      -0.453
      -0.514
      -0.576
      -0.640
      -0.704
      -0.764
      -0.815
      -0.855
      -0.889
      -0.925
      -0.966
      -1.007
      -1.037
      -1.048
      -1.034
      -0.999
      -0.950
      -0.894
      -0.836
      -0.774
      -0.701
      -0.612
      -0.502
      -0.373
      -0.231
      -0.083
       0.064
       0.204
       0.336
       0.463
       0.590
       0.716
       0.838
       0.953
       1.061
       1.158
       1.239
       1.296
       1.323
       1.323
       1.305
       1.276
       1.240
       1.197
       1.141
       1.066
       0.972
       0.858
       0.733
       0.607
       0.489
       0.380
       0.277
       0.173
       0.062
      -0.054
      -0.168
      -0.273
      -0.363
      -0.438
      -0.507
      -0.576
      -0.651
      -0.726
      -0.789
      -0.839
      -0.883
      -0.931
      -0.983
      -1.026
      -1.050
      -1.057
      -1.058
      -1.060
      -1.061
      -1.052
      -1.023
      -0.973
      -0.910
      -0.845
      -0.779
      -0.710
      -0.627
      -0.528
      -0.418
      -0.305
      -0.197
      -0.092
       0.014
       0.122
       0.227
       0.325
       0.413
       0.490
       0.556
       0.608
       0.645
       0.667
       0.677
       0.680
       0.679
       0.675
       0.668
       0.654
       0.628
       0.591
       0.549
       0.509
       0.477
       0.455
       0.441
       0.429
       0.416
       0.400
       0.383
       0.367
       0.350
       0.333
       0.318
       0.303
       0.287
       0.264
       0.231
       0.188
       0.140
       0.093
       0.047
       0.003
      -0.043
      -0.092
      -0.146
      -0.204
      -0.259
      -0.307
      -0.343
      -0.370
      -0.393
      -0.414
      -0.431
      -0.435
      -0.424
      -0.401
      -0.377
      -0.361
      -0.351
      -0.336
      -0.310
      -0.273
      -0.233
      -0.193
      -0.151
      -0.106
      -0.059
      -0.013
       0.031
       0.073
       0.110
       0.142
       0.172
       0.205
       0.246
       0.293
       0.337
       0.370
       0.391
       0.404
       0.411
       0.414
       0.409
       0.393
       0.366
       0.327
       0.283
       0.243
       0.209
       0.175
       0.132
       0.073
       0.001
      -0.072
      -0.138
      -0.186
      -0.215
      -0.228
      -0.234
      -0.241
      -0.253
      -0.265
      -0.271
      -0.266
      -0.251
      -0.233
      -0.213
      -0.192
      -0.171
      -0.154
      -0.141
      -0.131
      -0.119
      -0.101
      -0.079
      -0.059
      -0.048
      -0.050
      -0.062
      -0.078
      -0.092
      -0.102
      -0.108
      -0.112
      -0.116
      -0.120
      -0.129
      -0.145
      -0.168
      -0.195
      -0.218
      -0.234
      -0.243
      -0.249
      -0.259
      -0.274
      -0.293
      -0.310
      -0.318
      -0.317
      -0.306
      -0.290
      -0.270
      -0.244
      -0.212
      -0.175
      -0.133
      -0.084
      -0.025
       0.044
       0.124
       0.208
       0.290
       0.365
       0.434
       0.500
       0.562
       0.618
       0.662
       0.692
       0.710
       0.717
       0.713
       0.696
       0.665
