Origin Time       03/06/2011 00:53:21 UTC
Lat.              27.5 N	
Long.             88.0 E	
Depth (Km)         26.0
Magnitude         4.9
Region            India(Sikkim)-Nepar-Border                                       
 Above details taken from IMD 
    
Station Code      KSN
Station Lat.       26.097  N
Station Long.      87.950  E
Station Height(m)   58.0
Site Class        C   Vs30 between 200 m/sec to 375 m/sec *  
Record Time       03.06.2011 00:53:58.569 UTC
Sampling Rate     200. Hz
Record Duration    65.135 Sec.
Direction         N-S (N positive)
Max. Acceleration     -4.827 cm/sec**2
     
  * For reference see Site Classification link of website 
     
 Base Line Corrected and Low Pass Filtered (Cut Off at 35 Hz) Time History
 Acceleration data in cm/sec**2
    
[...]
      -0.185
      -0.279
      -0.321
      -0.326
      -0.315
      -0.300
      -0.299
      -0.329
      -0.392
      -0.463
      -0.495
      -0.452
      -0.333
      -0.180
      -0.052
       0.010
       0.011
       0.002
       0.039
       0.138
       0.263
       0.349
       0.345
       0.245
       0.090
      -0.057
      -0.133
      -0.113
      -0.026
       0.065
       0.100
       0.064
      -0.016
      -0.104
      -0.176
      -0.226
      -0.243
      -0.222
      -0.180
      -0.147
      -0.138
      -0.134
      -0.100
      -0.023
       0.073
       0.140
       0.143
       0.085
       0.011
      -0.013
       0.056
       0.198
       0.337
       0.388
       0.319
       0.180
       0.062
       0.037
       0.104
       0.195
       0.226
       0.155
       0.009
      -0.137
      -0.219
      -0.235
      -0.238
      -0.283
      -0.379
      -0.486
      -0.548
      -0.543
      -0.489
      -0.426
      -0.389
      -0.381
      -0.376
      -0.341
      -0.251
      -0.112
       0.048
       0.196
       0.311
       0.391
       0.447
       0.488
       0.519
       0.537
       0.536
       0.517
       0.489
       0.464
       0.443
       0.413
       0.349
       0.234
       0.077
      -0.087
      -0.212
      -0.264
      -0.246
      -0.200
      -0.174
      -0.199
      -0.270
      -0.358
      -0.428
      -0.452
      -0.424
      -0.359
      -0.291
      -0.255
      -0.267
      -0.313
      -0.352
      -0.339
      -0.248
      -0.101
       0.047
       0.139
       0.155
       0.125
       0.111
       0.165
       0.297
       0.469
       0.612
       0.665
       0.601
       0.448
       0.267
       0.132
       0.080
       0.097
       0.123
       0.096
      -0.010
      -0.168
      -0.314
      -0.387
      -0.362
      -0.275
      -0.192
      -0.172
      -0.231
      -0.333
      -0.420
      -0.440
      -0.374
      -0.236
      -0.070
       0.074
       0.160
       0.186
       0.182
       0.189
       0.236
       0.317
       0.404
       0.466
       0.483
       0.453
       0.387
       0.312
       0.254
       0.226
       0.211
       0.175
       0.091
      -0.034
      -0.160
      -0.243
      -0.262
      -0.230
      -0.189
      -0.182
      -0.234
      -0.342
      -0.471
      -0.575
      -0.614
      -0.581
      -0.499
      -0.404
      -0.318
      -0.246
      -0.178
      -0.107
      -0.027
       0.062
       0.157
       0.251
       0.327
       0.369
       0.367
       0.330
       0.277
       0.229
       0.193
       0.167
       0.158
       0.182
       0.248
       0.328
       0.367
       0.316
       0.178
       0.012
      -0.106
      -0.135
      -0.090
      -0.020
       0.023
       0.019
      -0.015
      -0.052
      -0.086
      -0.134
      -0.215
      -0.319
      -0.407
      -0.442
      -0.417
      -0.355
      -0.292
      -0.245
      -0.207
      -0.147
      -0.040
       0.114
       0.275
       0.388
       0.406
       0.336
       0.230
       0.159
       0.160
       0.212
       0.254
       0.234
       0.139
       0.001
      -0.126
      -0.200
      -0.196
      -0.117
       0.010
       0.132
       0.188
       0.139
       0.001
      -0.160
      -0.262
      -0.255
      -0.148
      -0.003
       0.097
       0.099
       0.008
      -0.107
      -0.155
      -0.088
       0.067
       0.218
       0.282
       0.232
       0.118
       0.022
       0.000
       0.049
       0.115
       0.133
       0.071
      -0.056
      -0.207
      -0.332
      -0.393
      -0.376
      -0.296
      -0.197
      -0.142
      -0.171
      -0.280
      -0.425
      -0.540
      -0.566
      -0.477
      -0.300
      -0.105
       0.038
       0.102
       0.118
       0.147
       0.239
       0.397
       0.586
       0.748
       0.845
       0.862
       0.807
       0.698
       0.568
       0.448
       0.357
       0.284
       0.195
       0.064
      -0.110
      -0.298
      -0.456
      -0.555
      -0.590
      -0.581
      -0.557
      -0.546
      -0.566
      -0.616
      -0.674
      -0.704
      -0.670
      -0.559
      -0.386
      -0.188
      -0.008
       0.126
       0.220
       0.300
       0.402
       0.543
       0.706
       0.849
       0.926
       0.916
       0.838
       0.736
       0.641
       0.552
       0.447
       0.309
       0.148
      -0.013
      -0.154
      -0.271
      -0.375
      -0.471
      -0.557
      -0.631
      -0.697
      -0.763
      -0.832
      -0.888
      -0.907
      -0.868
      -0.770
      -0.630
      -0.481
      -0.342
      -0.211
      -0.074
       0.077
       0.230
       0.365
       0.469
       0.549
       0.628
       0.714
       0.790
       0.814
       0.761
       0.644
       0.516
       0.434
       0.415
       0.421
       0.394
       0.294
       0.139
      -0.010
      -0.097
      -0.113
      -0.096
      -0.101
      -0.158
      -0.256
      -0.357
      -0.422
      -0.445
      -0.445
      -0.442
      -0.432
      -0.395
      -0.314
      -0.197
      -0.068
       0.041
       0.108
       0.130
       0.126
       0.132
       0.183
       0.298
       0.458
       0.609
       0.679
       0.632
       0.496
       0.345
       0.248
       0.221
       0.225
       0.199
       0.100
      -0.071
      -0.280
      -0.475
      -0.611
      -0.660
      -0.627
      -0.545
      -0.461
      -0.419
      -0.436
      -0.501
      -0.570
      -0.587
      -0.514
      -0.364
      -0.204
      -0.101
      -0.063
      -0.035
       0.053
       0.214
       0.392
       0.508
       0.525
       0.475
       0.430
       0.439
       0.496
       0.542
       0.516
       0.410
       0.268
       0.151
       0.085
       0.048
       0.001
      -0.079
      -0.185
      -0.298
      -0.411
      -0.531
      -0.664
      -0.795
      -0.887
      -0.900
      -0.824
      -0.688
      -0.529
      -0.371
      -0.213
      -0.054
       0.098
       0.227
       0.330
       0.427
       0.544
       0.688
       0.835
       0.948
       1.001
       0.996
       0.952
       0.884
       0.801
       0.702
       0.581
       0.433
       0.260
       0.075
      -0.104
      -0.267
      -0.417
      -0.562
      -0.704
      -0.835
      -0.940
      -1.009
      -1.034
      -1.007
      -0.923
      -0.783
      -0.613
      -0.447
      -0.316
      -0.217
      -0.120
       0.005
       0.166
       0.340
       0.492
       0.599
       0.671
       0.733
       0.796
       0.832
       0.796
       0.670
       0.489
       0.314
       0.194
       0.137
       0.121
       0.111
       0.078
       0.004
      -0.117
      -0.275
      -0.450
      -0.615
      -0.738
      -0.790
      -0.765
      -0.688
      -0.601
      -0.532
      -0.465
      -0.355
      -0.169
       0.074
       0.304
       0.444
       0.460
       0.380
       0.282
       0.242
       0.292
       0.399
       0.487
       0.493
       0.398
       0.248
       0.121
       0.082
       0.136
       0.218
       0.240
       0.150
      -0.032
      -0.229
      -0.356
      -0.371
      -0.291
      -0.180
      -0.108
      -0.117
      -0.206
      -0.332
      -0.430
      -0.449
      -0.378
      -0.247
      -0.105
       0.001
       0.042
       0.020
      -0.033
      -0.068
      -0.052
       0.017
       0.117
       0.215
       0.298
       0.374
       0.460
       0.549
       0.602
       0.582
       0.500
       0.416
       0.390
       0.421
       0.446
       0.390
       0.232
       0.024
      -0.149
      -0.225
      -0.207
      -0.152
      -0.135
      -0.195
      -0.312
      -0.419
      -0.453
      -0.397
      -0.290
      -0.191
      -0.135
      -0.117
      -0.109
      -0.079
      -0.024
       0.031
       0.040
      -0.032
      -0.175
      -0.340
      -0.452
      -0.451
      -0.323
      -0.102
       0.127
       0.266
       0.255
       0.112
      -0.066
      -0.169
      -0.145
      -0.040
       0.046
       0.029
      -0.102
      -0.286
      -0.436
      -0.491
      -0.450
      -0.360
      -0.286
      -0.270
      -0.319
      -0.397
      -0.450
      -0.430
      -0.326
      -0.170
      -0.009
       0.113
       0.180
       0.196
       0.195
       0.220
       0.301
       0.429
       0.558
       0.637
       0.646
       0.605
       0.563
       0.571
       0.646
       0.748
       0.797
       0.734
       0.567
       0.372
       0.233
       0.189
       0.206
       0.214
       0.159
       0.030
      -0.143
      -0.319
      -0.462
      -0.544
      -0.550
      -0.485
      -0.383
      -0.288
      -0.232
      -0.219
      -0.226
      -0.218
      -0.174
      -0.098
      -0.010
       0.073
       0.143
       0.203
       0.259
       0.329
       0.434
       0.582
       0.753
       0.906
       1.007
       1.034
       0.979
       0.856
       0.696
       0.537
       0.402
       0.286
       0.163
       0.013
      -0.156
      -0.312
      -0.428
      -0.499
      -0.547
      -0.604
      -0.682
      -0.772
      -0.840
      -0.854
      -0.796
      -0.678
      -0.531
      -0.392
      -0.291
      -0.246
      -0.246
      -0.256
      -0.240
      -0.188
      -0.106
       0.007
       0.162
       0.361
       0.571
       0.735
       0.806
       0.780
       0.698
       0.614
       0.552
       0.494
       0.401
       0.251
       0.065
      -0.106
      -0.224
      -0.294
      -0.357
      -0.455
      -0.594
      -0.737
      -0.829
      -0.824
      -0.713
      -0.527
      -0.329
      -0.178
      -0.086
      -0.022
       0.057
       0.170
       0.307
       0.447
       0.579
       0.703
       0.823
       0.934
       1.017
       1.038
       0.960
       0.772
       0.497
       0.188
      -0.102
      -0.342
      -0.534
      -0.697
      -0.861
      -1.049
      -1.276
      -1.533
      -1.784
      -1.974
      -2.055
      -2.013
      -1.880
      -1.717
      -1.580
      -1.490
      -1.418
      -1.311
      -1.131
      -0.868
      -0.545
      -0.201
       0.116
       0.378
       0.589
       0.789
       1.015
       1.270
       1.512
       1.687
       1.758
       1.737
       1.670
       1.616
       1.612
       1.662
       1.734
       1.793
       1.817
       1.808
       1.784
       1.768
       1.777
       1.813
       1.858
       1.880
       1.843
       1.730
       1.545
       1.306
       1.023
       0.705
       0.358
      -0.016
      -0.406
      -0.795
      -1.152
      -1.455
      -1.701
      -1.900
      -2.059
      -2.168
      -2.216
      -2.212
      -2.180
      -2.141
      -2.098
      -2.036
      -1.936
      -1.780
      -1.555
      -1.261
      -0.922
      -0.584
      -0.294
      -0.070
       0.112
       0.308
       0.564
       0.887
       1.242
       1.570
       1.819
       1.977
       2.067
       2.129
       2.198
       2.285
       2.377
       2.439
       2.426
       2.307
       2.079
       1.762
       1.376
       0.928
       0.418
      -0.138
      -0.710
      -1.273
      -1.822
      -2.358
      -2.875
      -3.341
      -3.721
      -4.000
      -4.189
      -4.298
      -4.314
      -4.202
      -3.943
      -3.570
      -3.164
      -2.800
      -2.501
      -2.225
      -1.904
      -1.499
      -1.017
      -0.495
       0.031
       0.541
       1.029
       1.504
       1.968
       2.402
       2.758
       2.986
       3.069
       3.041
       2.973
       2.939
       2.985
       3.102
       3.228
       3.278
       3.191
       2.972
       2.690
       2.440
       2.286
       2.232
       2.211
       2.124
       1.888
       1.479
       0.928
       0.293
      -0.372
      -1.033
      -1.671
      -2.271
      -2.825
      -3.326
      -3.757
      -4.092
      -4.310
      -4.420
      -4.463
      -4.487
      -4.512
      -4.524
      -4.487
      -4.369
      -4.155
      -3.853
      -3.483
      -3.065
      -2.606
      -2.110
      -1.587
      -1.050
      -0.510
       0.043
       0.634
       1.284
       1.983
       2.675
       3.281
       3.733
       4.020
       4.193
       4.323
       4.438
       4.497
       4.429
       4.183
       3.760
       3.188
       2.503
       1.740
       0.943
       0.153
      -0.619
      -1.383
      -2.145
      -2.885
      -3.550
      -4.078
      -4.428
      -4.600
      -4.634
      -4.585
      -4.496
      -4.369
      -4.160
      -3.808
      -3.269
      -2.556
      -1.738
      -0.908
      -0.138
       0.552
       1.176
       1.760
       2.304
       2.793
       3.213
       3.551
       3.789
       3.894
       3.844
       3.656
       3.391
       3.113
       2.851
       2.588
       2.288
       1.933
       1.546
       1.171
       0.850
       0.595
       0.385
       0.190
      -0.011
      -0.212
      -0.385
      -0.494
      -0.508
      -0.412
      -0.205
       0.101
       0.485
       0.918
       1.374
       1.837
       2.297
       2.742
       3.142
       3.444
       3.590
       3.549
       3.343
       3.036
       2.700
       2.379
       2.073
       1.756
       1.398
       0.985
       0.523
       0.031
      -0.478
      -1.000
      -1.544
      -2.122
      -2.734
      -3.360
      -3.951
      -4.436
      -4.745
      -4.827
      -4.666
      -4.282
      -3.727
      -3.072
      -2.382
      -1.695
      -1.014
      -0.327
       0.360
       1.009
       1.575
       2.041
       2.426
       2.757
       3.033
       3.220
       3.277
       3.181
       2.927
       2.515
       1.949
       1.245
       0.435
      -0.428
      -1.281
      -2.073
      -2.770
      -3.352
      -3.800
      -4.095
      -4.223
      -4.188
      -3.999
      -3.662
      -3.182
      -2.580
      -1.906
      -1.220
      -0.557
       0.077
       0.688
       1.266
       1.783
       2.204
       2.514
       2.718
       2.854
       2.971
       3.108
       3.263
       3.387
       3.413
       3.294
       3.013
       2.582
       2.028
       1.396
       0.734
       0.084
      -0.538
      -1.136
      -1.713
      -2.249
      -2.702
      -3.029
      -3.217
      -3.294
      -3.313
      -3.320
      -3.335
      -3.341
      -3.300
      -3.169
      -2.914
      -2.520
      -2.005
      -1.412
      -0.785
      -0.149
       0.493
       1.142
       1.768
       2.311
       2.708
       2.924
       2.977
       2.924
       2.832
       2.741
       2.649
       2.509
       2.263
       1.877
       1.359
       0.753
       0.111
      -0.524
      -1.127
      -1.675
      -2.137
      -2.485
      -2.707
      -2.814
      -2.819
      -2.717
      -2.475
      -2.074
      -1.530
      -0.904
      -0.273
       0.305
       0.802
       1.218
       1.556
       1.818
       2.000
       2.096
       2.104
       2.029
       1.878
       1.664
       1.404
       1.117
       0.820
       0.529
       0.255
      -0.003
      -0.250
      -0.493
      -0.719
      -0.898
      -1.001
      -1.027
      -1.009
      -0.994
      -1.006
      -1.038
      -1.067
      -1.066
      -1.009
      -0.881
      -0.693
      -0.483
      -0.296
      -0.144
       0.004
       0.195
       0.454
       0.751
       1.015
       1.172
       1.190
       1.099
       0.967
       0.868
       0.839
       0.871
       0.916
       0.924
       0.860
       0.723
       0.541
       0.357
       0.207
       0.102
       0.021
      -0.071
      -0.203
      -0.389
      -0.627
      -0.889
      -1.120
      -1.265
      -1.306
      -1.280
      -1.240
      -1.213
      -1.178
      -1.094
      -0.937
      -0.712
      -0.443
      -0.145
       0.185
       0.556
       0.972
       1.412
       1.841
       2.219
       2.526
       2.757
       2.918
       3.010
       3.018
       2.918
       2.691
       2.332
       1.869
       1.355
       0.847
       0.388
      -0.016
      -0.387
      -0.757
      -1.144
      -1.537
      -1.901
      -2.178
      -2.314
      -2.288
      -2.126
      -1.897
      -1.670
      -1.468
      -1.262
      -1.002
      -0.656
      -0.237
       0.204
       0.615
       0.970
       1.262
       1.488
       1.629
       1.659
       1.565
       1.354
       1.055
       0.711
       0.371
       0.077
      -0.152
      -0.323
      -0.462
      -0.589
      -0.714
      -0.836
      -0.949
      -1.045
      -1.125
      -1.205
      -1.307
      -1.446
      -1.609
      -1.769
      -1.909
      -2.050
      -2.230
      -2.462
      -2.703
      -2.865
      -2.861
      -2.660
      -2.310
      -1.913
      -1.561
      -1.278
      -1.006
      -0.652
      -0.152
       0.479
       1.165
       1.810
       2.347
       2.759
       3.061
       3.277
       3.415
       3.462
       3.404
       3.235
       2.963
       2.601
       2.162
       1.680
       1.212
       0.816
       0.502
       0.218
      -0.101
      -0.483
      -0.891
      -1.247
      -1.480
      -1.559
      -1.510
      -1.391
      -1.259
      -1.133
      -0.989
      -0.786
      -0.492
      -0.108
       0.326
       0.738
       1.053
       1.219
       1.230
       1.119
       0.934
       0.716
       0.484
       0.231
      -0.053
      -0.362
      -0.663
      -0.917
      -1.102
      -1.225
      -1.299
      -1.334
      -1.319
      -1.248
      -1.133
      -1.005
      -0.898
      -0.821
      -0.752
      -0.652
      -0.502
      -0.313
      -0.117
       0.064
       0.233
       0.405
       0.583
       0.753
       0.911
       1.074
       1.275
       1.533
       1.827
       2.110
       2.325
       2.434
       2.430
       2.347
       2.235
       2.116
       1.956
       1.694
       1.295
       0.786
       0.239
      -0.290
      -0.792
      -1.285
      -1.770
      -2.212
      -2.554
      -2.759
      -2.844
      -2.868
      -2.887
      -2.906
      -2.878
      -2.752
      -2.521
      -2.226
      -1.906
      -1.568
      -1.184
      -0.727
      -0.202
       0.350
       0.869
       1.301
       1.613
       1.793
       1.842
       1.763
       1.567
       1.277
       0.929
       0.560
       0.195
      -0.161
      -0.509
      -0.843
      -1.140
      -1.372
      -1.518
      -1.578
      -1.571
      -1.536
      -1.512
      -1.507
      -1.474
      -1.320
      -0.969
      -0.410
       0.280
       0.976
       1.560
       1.983
       2.263
       2.453
       2.582
       2.641
       2.603
       2.456
       2.218
       1.921
       1.601
       1.296
       1.034
       0.823
       0.628
       0.396
       0.091
      -0.279
      -0.668
      -1.026
      -1.319
      -1.538
      -1.695
      -1.819
      -1.947
      -2.111
      -2.303
      -2.472
      -2.531
      -2.403
      -2.065
      -1.570
      -1.016
      -0.488
      -0.014
       0.417
       0.821
       1.189
       1.499
       1.734
       1.887
       1.960
       1.962
       1.910
       1.827
       1.717
       1.567
       1.355
       1.069
       0.715
