Origin Time       03/06/2011 00:53:21
Lat.              27.5 N	
Long.             88.0 E	
Depth (Km)         26.0
Magnitude         4.9
Region            India(Sikkim)-Nepar-Border                                       
 Above details taken from IMD 
     
Station Code      KSN
Station Lat.       26.097  N
Station Long.      87.950  E
Station Height(m)   58.0
Site Class        C   Vs30 between 200 m/sec to 375 m/sec *  
Record Time       03.06.2011 00:53:58.569
Sampling Rate     200. Hz
Record Duration    65.135 Sec.
Direction         E-W (E positive)
Max. Acceleration     -5.890 cm/sec**2
     
  * For reference see Site Classification link of website 
     
 Base Line Corrected and Low Pass Filtered (Cut Off at 35 Hz) Time History
 Acceleration data in cm/sec**2
    
[...]
       0.203
       0.246
       0.290
       0.313
       0.303
       0.268
       0.224
       0.197
       0.203
       0.238
       0.269
       0.253
       0.178
       0.078
       0.021
       0.052
       0.150
       0.238
       0.233
       0.100
      -0.124
      -0.352
      -0.498
      -0.525
      -0.467
      -0.397
      -0.373
      -0.404
      -0.450
      -0.460
      -0.406
      -0.300
      -0.187
      -0.114
      -0.096
      -0.109
      -0.112
      -0.089
      -0.056
      -0.036
      -0.029
      -0.015
       0.018
       0.067
       0.127
       0.208
       0.321
       0.442
       0.516
       0.492
       0.373
       0.223
       0.110
       0.057
       0.037
       0.023
       0.015
       0.037
       0.100
       0.190
       0.277
       0.328
       0.319
       0.242
       0.116
      -0.002
      -0.053
      -0.024
       0.025
       0.013
      -0.085
      -0.206
      -0.256
      -0.205
      -0.112
      -0.071
      -0.131
      -0.262
      -0.384
      -0.422
      -0.348
      -0.190
      -0.022
       0.077
       0.059
      -0.066
      -0.238
      -0.366
      -0.381
      -0.265
      -0.065
       0.127
       0.219
       0.172
       0.018
      -0.147
      -0.214
      -0.125
       0.091
       0.325
       0.450
       0.408
       0.251
       0.107
       0.089
       0.222
       0.427
       0.583
       0.607
       0.487
       0.280
       0.076
      -0.046
      -0.053
       0.029
       0.130
       0.177
       0.131
       0.009
      -0.136
      -0.250
      -0.303
      -0.293
      -0.242
      -0.188
      -0.179
      -0.244
      -0.374
      -0.520
      -0.625
      -0.653
      -0.602
      -0.497
      -0.371
      -0.258
      -0.176
      -0.119
      -0.060
       0.030
       0.152
       0.271
       0.331
       0.291
       0.166
       0.029
      -0.039
       0.000
       0.111
       0.222
       0.277
       0.266
       0.210
       0.134
       0.063
       0.030
       0.073
       0.199
       0.350
       0.428
       0.370
       0.198
       0.009
      -0.101
      -0.107
      -0.054
      -0.014
      -0.021
      -0.058
      -0.091
      -0.113
      -0.147
      -0.208
      -0.275
      -0.304
      -0.277
      -0.215
      -0.158
      -0.119
      -0.073
       0.007
       0.113
       0.206
       0.244
       0.210
       0.117
       0.005
      -0.068
      -0.052
       0.056
       0.186
       0.233
       0.131
      -0.089
      -0.312
      -0.418
      -0.361
      -0.187
       0.008
       0.147
       0.212
       0.221
       0.196
       0.149
       0.103
       0.092
       0.135
       0.200
       0.223
       0.170
       0.080
       0.048
       0.131
       0.291
       0.412
       0.390
       0.212
      -0.031
      -0.206
      -0.231
      -0.138
      -0.044
      -0.063
      -0.207
      -0.377
      -0.443
      -0.354
      -0.180
      -0.062
      -0.101
      -0.281
      -0.485
      -0.595
      -0.581
      -0.503
      -0.437
      -0.408
      -0.384
      -0.330
      -0.244
      -0.152
      -0.074
       0.001
       0.097
       0.222
       0.357
       0.463
       0.514
       0.515
       0.500
       0.506
       0.537
       0.556
       0.525
       0.445
       0.362
       0.316
       0.306
       0.283
       0.200
       0.051
      -0.118
      -0.242
      -0.287
      -0.278
      -0.284
      -0.361
      -0.500
      -0.631
      -0.677
      -0.617
      -0.500
      -0.402
      -0.364
      -0.363
      -0.338
      -0.239
      -0.062
       0.146
       0.322
       0.419
       0.424
       0.356
       0.252
       0.155
       0.108
       0.146
       0.273
       0.440
       0.555
       0.538
       0.379
       0.161
       0.011
       0.003
       0.105
       0.206
       0.211
       0.109
      -0.032
      -0.143
      -0.201
      -0.228
      -0.251
      -0.270
      -0.267
      -0.234
      -0.188
      -0.166
      -0.188
      -0.235
      -0.258
      -0.211
      -0.103
       0.010
       0.057
       0.015
      -0.076
      -0.142
      -0.126
      -0.026
       0.103
       0.183
       0.161
       0.054
      -0.065
      -0.111
      -0.056
       0.056
       0.155
       0.196
       0.190
       0.174
       0.171
       0.176
       0.172
       0.152
       0.128
       0.107
       0.081
       0.032
      -0.040
      -0.099
      -0.103
      -0.048
       0.011
       0.010
      -0.067
      -0.159
      -0.185
      -0.110
       0.030
       0.162
       0.229
       0.219
       0.159
       0.089
       0.038
       0.014
       0.013
       0.025
       0.039
       0.050
       0.055
       0.059
       0.067
       0.073
       0.059
       0.009
      -0.069
      -0.139
      -0.165
      -0.141
      -0.091
      -0.042
      -0.009
       0.007
      -0.001
      -0.044
      -0.127
      -0.235
      -0.339
      -0.415
      -0.454
      -0.462
      -0.446
      -0.410
      -0.352
      -0.278
      -0.206
      -0.162
      -0.149
      -0.142
      -0.101
      -0.017
       0.076
       0.129
       0.128
       0.118
       0.165
       0.284
       0.424
       0.501
       0.460
       0.314
       0.136
       0.013
       0.004
       0.108
       0.265
       0.385
       0.397
       0.297
       0.149
       0.047
       0.045
       0.119
       0.194
       0.198
       0.121
       0.006
      -0.089
      -0.133
      -0.133
      -0.112
      -0.095
      -0.109
      -0.168
      -0.254
      -0.311
      -0.289
      -0.185
      -0.065
      -0.013
      -0.070
      -0.201
      -0.316
      -0.333
      -0.231
      -0.057
       0.103
       0.188
       0.190
       0.149
       0.115
       0.115
       0.144
       0.176
       0.187
       0.169
       0.130
       0.086
       0.054
       0.045
       0.064
       0.108
       0.167
       0.225
       0.260
       0.256
       0.208
       0.136
       0.064
       0.004
      -0.057
      -0.141
      -0.249
      -0.352
      -0.403
      -0.373
      -0.278
      -0.162
      -0.061
       0.018
       0.093
       0.177
       0.254
       0.289
       0.260
       0.180
       0.089
       0.030
       0.019
       0.043
       0.078
       0.098
       0.092
       0.060
       0.012
      -0.037
      -0.074
      -0.100
      -0.125
      -0.166
      -0.230
      -0.304
      -0.353
      -0.344
      -0.279
      -0.203
      -0.174
      -0.212
      -0.282
      -0.315
      -0.266
      -0.151
      -0.029
       0.045
       0.055
       0.029
       0.005
       0.009
       0.049
       0.115
       0.182
       0.209
       0.173
       0.094
       0.030
       0.033
       0.100
       0.172
       0.190
       0.140
       0.062
       0.007
       0.001
       0.041
       0.102
       0.155
       0.174
       0.146
       0.088
       0.039
       0.036
       0.085
       0.153
       0.195
       0.185
       0.140
       0.103
       0.098
       0.106
       0.084
       0.010
      -0.093
      -0.184
      -0.233
      -0.239
      -0.220
      -0.187
      -0.146
      -0.106
      -0.091
      -0.121
      -0.193
      -0.266
      -0.292
      -0.260
      -0.210
      -0.195
      -0.229
      -0.267
      -0.233
      -0.090
       0.113
       0.272
       0.307
       0.235
       0.146
       0.122
       0.174
       0.252
       0.298
       0.289
       0.243
       0.188
       0.140
       0.098
       0.069
       0.066
       0.099
       0.161
       0.224
       0.257
       0.243
       0.185
       0.104
       0.016
      -0.070
      -0.160
      -0.251
      -0.323
      -0.343
      -0.293
      -0.205
      -0.145
      -0.158
      -0.219
      -0.244
      -0.164
       0.002
       0.159
       0.210
       0.140
       0.021
      -0.045
      -0.006
       0.108
       0.209
       0.221
       0.134
       0.007
      -0.087
      -0.107
      -0.063
       0.015
       0.109
       0.212
       0.302
       0.333
       0.271
       0.128
      -0.031
      -0.134
      -0.154
      -0.121
      -0.079
      -0.053
      -0.031
       0.009
       0.068
       0.123
       0.140
       0.100
       0.003
      -0.128
      -0.264
      -0.379
      -0.454
      -0.483
      -0.464
      -0.396
      -0.284
      -0.148
      -0.026
       0.036
       0.019
      -0.051
      -0.112
      -0.114
      -0.064
      -0.024
      -0.055
      -0.156
      -0.258
      -0.282
      -0.203
      -0.069
       0.046
       0.099
       0.103
       0.099
       0.110
       0.123
       0.104
       0.039
      -0.047
      -0.108
      -0.117
      -0.089
      -0.065
      -0.069
      -0.082
      -0.062
       0.013
       0.116
       0.191
       0.195
       0.132
       0.042
      -0.029
      -0.064
      -0.079
      -0.103
      -0.147
      -0.190
      -0.201
      -0.168
      -0.107
      -0.037
       0.043
       0.150
       0.284
       0.403
       0.448
       0.392
       0.273
       0.177
       0.185
       0.307
       0.473
       0.574
       0.537
       0.371
       0.150
      -0.028
      -0.103
      -0.082
      -0.028
      -0.021
      -0.101
      -0.241
      -0.374
      -0.439
      -0.434
      -0.409
      -0.415
      -0.465
      -0.528
      -0.564
      -0.546
      -0.467
      -0.339
      -0.204
      -0.122
      -0.132
      -0.217
      -0.303
      -0.310
      -0.204
      -0.021
       0.155
       0.241
       0.214
       0.125
       0.071
       0.126
       0.276
       0.413
       0.417
       0.262
       0.063
      -0.014
       0.110
       0.347
       0.514
       0.490
       0.311
       0.121
       0.037
       0.052
       0.071
       0.027
      -0.052
      -0.077
      -0.002
       0.130
       0.226
       0.226
       0.152
       0.075
       0.052
       0.081
       0.117
       0.118
       0.084
       0.046
       0.036
       0.054
       0.080
       0.090
       0.083
       0.076
       0.082
       0.085
       0.034
      -0.123
      -0.387
      -0.684
      -0.893
      -0.931
      -0.823
      -0.690
      -0.650
      -0.726
      -0.827
      -0.827
      -0.669
      -0.409
      -0.172
      -0.052
      -0.059
      -0.129
      -0.187
      -0.188
      -0.113
       0.039
       0.255
       0.480
       0.636
       0.662
       0.564
       0.417
       0.325
       0.357
       0.498
       0.657
       0.722
       0.643
       0.462
       0.283
       0.190
       0.201
       0.275
       0.358
       0.411
       0.415
       0.373
       0.299
       0.215
       0.133
       0.056
      -0.005
      -0.035
      -0.033
      -0.019
      -0.018
      -0.022
       0.012
       0.124
       0.298
       0.462
       0.538
       0.508
       0.424
       0.371
       0.404
       0.514
       0.629
       0.664
       0.568
       0.362
       0.116
      -0.090
      -0.210
      -0.232
      -0.171
      -0.055
       0.079
       0.193
       0.258
       0.263
       0.226
       0.190
       0.199
       0.269
       0.375
       0.475
       0.554
       0.638
       0.756
       0.900
       1.018
       1.063
       1.050
       1.042
       1.086
       1.160
       1.191
       1.110
       0.900
       0.590
       0.226
      -0.148
      -0.513
      -0.859
      -1.182
      -1.472
      -1.724
      -1.937
      -2.112
      -2.250
      -2.354
      -2.441
      -2.527
      -2.608
      -2.640
      -2.567
      -2.374
      -2.102
      -1.819
      -1.563
      -1.321
      -1.063
      -0.765
      -0.425
      -0.053
       0.334
       0.709
       1.051
       1.365
       1.683
       2.040
       2.438
       2.828
       3.131
       3.284
       3.279
       3.171
       3.043
       2.945
       2.867
       2.746
       2.510
       2.131
       1.653
       1.167
       0.748
       0.398
       0.047
      -0.385
      -0.912
      -1.464
      -1.942
      -2.300
      -2.570
      -2.818
      -3.072
      -3.298
      -3.440
      -3.461
      -3.355
      -3.132
      -2.817
      -2.445
      -2.060
      -1.694
      -1.350
      -1.022
      -0.712
      -0.432
      -0.191
       0.020
       0.231
       0.463
       0.715
       0.964
       1.194
       1.416
       1.645
       1.863
       2.019
       2.063
       2.006
       1.921
       1.874
       1.861
       1.801
       1.607
       1.249
       0.779
       0.282
      -0.163
      -0.520
      -0.785
      -0.982
      -1.141
      -1.284
      -1.409
      -1.501
      -1.555
      -1.586
      -1.631
      -1.716
      -1.840
      -1.981
      -2.110
      -2.205
      -2.254
      -2.251
      -2.217
      -2.196
      -2.227
      -2.292
      -2.316
      -2.225
      -2.005
      -1.716
      -1.428
      -1.167
      -0.909
      -0.625
      -0.314
       0.004
       0.315
       0.626
       0.956
       1.312
       1.672
       1.996
       2.245
       2.426
       2.599
       2.849
       3.221
       3.677
       4.124
       4.469
       4.676
       4.771
       4.802
       4.800
       4.754
       4.630
       4.406
       4.087
       3.689
       3.213
       2.637
       1.945
       1.161
       0.348
      -0.434
      -1.164
      -1.867
      -2.577
      -3.297
      -3.987
      -4.588
      -5.061
      -5.405
      -5.642
      -5.798
      -5.883
      -5.890
      -5.813
      -5.643
      -5.361
      -4.928
      -4.320
      -3.562
      -2.748
      -1.993
      -1.359
      -0.825
      -0.314
       0.238
       0.840
       1.441
       1.961
       2.338
       2.560
       2.669
       2.744
       2.856
       3.031
       3.240
       3.414
       3.486
       3.428
       3.279
       3.120
       3.007
       2.917
       2.767
       2.476
       2.029
       1.489
       0.950
       0.492
       0.158
      -0.041
      -0.136
      -0.185
      -0.251
      -0.349
      -0.437
      -0.441
      -0.329
      -0.146
       0.003
       0.025
      -0.095
      -0.285
      -0.440
      -0.497
      -0.465
      -0.414
      -0.407
      -0.462
      -0.539
      -0.570
      -0.501
      -0.327
      -0.090
       0.150
       0.351
       0.508
       0.638
       0.751
       0.843
       0.918
       0.999
       1.117
       1.274
       1.439
       1.563
       1.612
       1.583
       1.495
       1.370
       1.209
       0.992
       0.703
       0.357
      -0.008
      -0.363
      -0.714
      -1.077
      -1.430
      -1.708
      -1.850
      -1.861
      -1.808
      -1.764
      -1.751
      -1.727
      -1.623
      -1.393
      -1.047
      -0.665
      -0.361
      -0.219
      -0.240
      -0.341
      -0.418
      -0.418
      -0.366
      -0.324
      -0.327
      -0.364
      -0.403
      -0.422
      -0.421
      -0.395
      -0.321
      -0.177
       0.022
       0.213
       0.316
       0.300
       0.202
       0.107
       0.087
       0.150
       0.245
       0.298
       0.264
       0.162
       0.056
       0.008
       0.040
       0.127
       0.241
       0.384
       0.587
       0.864
       1.186
       1.494
       1.737
       1.903
       2.001
       2.028
       1.947
       1.703
       1.268
       0.677
       0.016
      -0.625
      -1.197
      -1.711
      -2.196
      -2.672
      -3.125
      -3.520
      -3.810
      -3.957
      -3.943
      -3.792
      -3.553
      -3.282
      -3.004
      -2.714
      -2.389
      -2.012
      -1.579
      -1.103
      -0.607
      -0.126
       0.308
       0.680
       1.010
       1.329
       1.650
       1.936
       2.112
       2.118
       1.963
       1.731
       1.525
       1.392
       1.305
       1.213
       1.098
       0.982
       0.876
       0.761
       0.610
       0.440
       0.311
       0.268
       0.295
       0.330
       0.315
       0.236
       0.112
      -0.023
      -0.129
      -0.168
      -0.111
       0.037
       0.233
       0.419
       0.552
       0.628
       0.667
       0.688
       0.692
       0.681
       0.668
       0.678
       0.718
       0.777
       0.836
       0.887
       0.921
       0.914
       0.818
       0.601
       0.283
      -0.063
      -0.349
      -0.520
      -0.574
      -0.550
      -0.502
      -0.475
      -0.474
      -0.455
      -0.358
      -0.166
       0.060
       0.206
       0.199
       0.071
      -0.070
      -0.137
      -0.130
      -0.121
      -0.165
      -0.257
      -0.345
      -0.394
      -0.422
      -0.467
      -0.546
      -0.645
      -0.737
      -0.811
      -0.874
      -0.923
      -0.942
      -0.911
      -0.829
      -0.721
      -0.613
      -0.527
      -0.472
      -0.448
      -0.450
      -0.472
      -0.523
      -0.623
      -0.786
      -0.986
      -1.171
      -1.290
      -1.325
      -1.300
      -1.247
      -1.170
      -1.032
      -0.781
      -0.393
       0.096
       0.601
       1.034
       1.359
       1.590
       1.773
       1.939
       2.089
       2.202
       2.259
       2.260
       2.224
       2.177
       2.146
       2.150
       2.196
       2.268
       2.326
       2.314
       2.188
       1.946
       1.633
       1.320
       1.064
       0.869
       0.688
       0.450
       0.109
      -0.322
      -0.784
      -1.199
      -1.507
      -1.681
      -1.729
      -1.687
      -1.602
      -1.511
      -1.430
      -1.351
      -1.254
      -1.127
      -0.969
      -0.790
      -0.607
      -0.434
      -0.270
      -0.104
       0.080
       0.280
       0.475
       0.629
       0.719
       0.750
       0.744
       0.724
       0.693
       0.636
       0.527
       0.337
       0.047
      -0.339
      -0.779
      -1.206
      -1.541
      -1.729
      -1.752
      -1.635
      -1.425
      -1.170
      -0.900
      -0.615
      -0.286
       0.111
       0.578
       1.071
       1.517
       1.851
       2.042
       2.095
       2.027
       1.852
       1.588
       1.276
       0.989
       0.799
       0.728
       0.730
       0.716
       0.617
       0.416
       0.147
      -0.152
      -0.470
      -0.830
      -1.266
      -1.777
      -2.311
      -2.776
      -3.093
      -3.229
      -3.211
      -3.102
      -2.968
      -2.837
      -2.678
      -2.413
      -1.965
      -1.319
      -0.546
       0.234
       0.914
       1.446
       1.841
       2.147
       2.416
       2.675
       2.905
       3.050
       3.051
       2.895
       2.644
       2.398
       2.215
       2.060
       1.826
       1.411
       0.801
       0.083
      -0.611
      -1.185
      -1.617
      -1.956
      -2.278
      -2.622
      -2.959
      -3.210
      -3.305
      -3.232
      -3.047
      -2.822
      -2.583
      -2.295
      -1.906
      -1.401
      -0.816
      -0.199
       0.419
       1.025
       1.604
       2.121
       2.532
       2.804
       2.930
       2.922
       2.804
       2.606
       2.369
       2.129
       1.897
       1.660
       1.396
       1.106
       0.809
       0.527
       0.261
      -0.003
      -0.279
      -0.561
      -0.838
      -1.113
      -1.404
      -1.706
      -1.956
      -2.051
