Origin Time       03/06/2011 00:53:21
Lat.              27.5 N	
Long.             88.0 E	
Depth (Km)         26.0
Magnitude         4.9
Region            India(Sikkim)-Nepar-Border                                       
 Above details taken from IMD 
   
Station Code      KSN
Station Lat.       26.097
Station Long.      87.950
Station Height(m)   58.0
Site Class        C   Vs30 between 200 m/sec to 375 m/sec *  
Record Time       03.06.2011 00:53:58.569
Sampling Rate     200. Hz
Record Duration    65.135 Sec.
Direction         Vert. (Up positi
Max. Acceleration     -4.132 cm/sec**2
     
  * For reference see Site Classification link of website 
     
 Base Line Corrected and Low Pass Filtered (Cut Off at 35 Hz) Time History
 Acceleration data in cm/sec**2
    
[...]
      -1.101
      -0.790
      -0.422
      -0.078
       0.170
       0.274
       0.238
       0.128
       0.039
       0.041
       0.138
       0.285
       0.445
       0.607
       0.758
       0.866
       0.899
       0.853
       0.760
       0.655
       0.550
       0.446
       0.349
       0.283
       0.277
       0.346
       0.458
       0.537
       0.491
       0.269
      -0.113
      -0.566
      -0.972
      -1.247
      -1.369
      -1.383
      -1.346
      -1.274
      -1.124
      -0.848
      -0.462
      -0.074
       0.172
       0.209
       0.112
       0.052
       0.156
       0.418
       0.711
       0.896
       0.929
       0.871
       0.809
       0.749
       0.596
       0.253
      -0.248
      -0.729
      -0.978
      -0.893
      -0.544
      -0.112
       0.205
       0.294
       0.162
      -0.078
      -0.290
      -0.402
      -0.424
      -0.399
      -0.341
      -0.226
      -0.040
       0.181
       0.351
       0.391
       0.286
       0.097
      -0.060
      -0.087
       0.056
       0.329
       0.650
       0.929
       1.101
       1.121
       0.964
       0.657
       0.286
      -0.040
      -0.254
      -0.363
      -0.414
      -0.445
      -0.480
      -0.542
      -0.643
      -0.778
      -0.925
      -1.074
      -1.218
      -1.318
      -1.293
      -1.085
      -0.715
      -0.284
       0.102
       0.387
       0.583
       0.735
       0.879
       1.012
       1.097
       1.100
       1.028
       0.918
       0.802
       0.692
       0.605
       0.566
       0.584
       0.630
       0.659
       0.631
       0.523
       0.317
       0.001
      -0.409
      -0.852
      -1.239
      -1.503
      -1.615
      -1.571
      -1.379
      -1.083
      -0.787
      -0.628
      -0.683
      -0.891
      -1.087
      -1.113
      -0.906
      -0.512
      -0.022
       0.480
       0.941
       1.317
       1.552
       1.599
       1.474
       1.277
       1.137
       1.115
       1.170
       1.214
       1.180
       1.038
       0.771
       0.385
      -0.078
      -0.527
      -0.870
      -1.059
      -1.107
      -1.066
      -0.986
      -0.890
      -0.795
      -0.727
      -0.712
      -0.742
      -0.764
      -0.717
      -0.571
      -0.338
      -0.058
       0.220
       0.447
       0.588
       0.630
       0.590
       0.514
       0.450
       0.418
       0.405
       0.398
       0.399
       0.413
       0.417
       0.376
       0.276
       0.137
      -0.018
      -0.171
      -0.288
      -0.329
      -0.273
      -0.151
      -0.039
      -0.012
      -0.109
      -0.303
      -0.516
      -0.657
      -0.684
      -0.625
      -0.542
      -0.459
      -0.343
      -0.148
       0.125
       0.412
       0.610
       0.634
       0.457
       0.145
      -0.144
      -0.234
      -0.054
       0.290
       0.591
       0.703
       0.636
       0.495
       0.360
       0.232
       0.082
      -0.093
      -0.262
      -0.376
      -0.389
      -0.273
      -0.039
       0.238
       0.436
       0.432
       0.172
      -0.293
      -0.822
      -1.244
      -1.438
      -1.381
      -1.141
      -0.841
      -0.593
      -0.439
      -0.314
      -0.088
       0.319
       0.816
       1.172
       1.204
       0.953
       0.676
       0.645
       0.927
       1.362
       1.702
       1.777
       1.561
       1.150
       0.684
       0.272
      -0.059
      -0.346
      -0.621
      -0.852
      -0.968
      -0.952
      -0.882
      -0.858
      -0.928
      -1.069
      -1.248
      -1.442
      -1.606
      -1.640
      -1.437
      -0.990
      -0.430
       0.049
       0.311
       0.373
       0.389
       0.512
       0.762
       1.004
       1.073
       0.924
       0.678
       0.513
       0.528
       0.688
       0.874
       0.977
       0.954
       0.832
       0.665
       0.489
       0.303
       0.066
      -0.261
      -0.660
      -1.042
      -1.290
      -1.332
      -1.183
      -0.938
      -0.719
      -0.619
      -0.668
      -0.815
      -0.948
      -0.945
      -0.732
      -0.320
       0.190
       0.654
       0.959
       1.086
       1.106
       1.097
       1.079
       1.014
       0.885
       0.745
       0.679
       0.725
       0.815
       0.811
       0.599
       0.165
      -0.387
      -0.890
      -1.195
      -1.238
      -1.042
      -0.693
      -0.302
       0.017
       0.178
       0.141
      -0.081
      -0.418
      -0.748
      -0.931
      -0.863
      -0.546
      -0.089
       0.351
       0.646
       0.738
       0.641
       0.410
       0.140
      -0.055
      -0.080
       0.086
       0.369
       0.636
       0.764
       0.704
       0.475
       0.147
      -0.181
      -0.416
      -0.510
      -0.480
      -0.366
      -0.195
       0.026
       0.269
       0.464
       0.522
       0.390
       0.084
      -0.306
      -0.651
      -0.837
      -0.807
      -0.582
      -0.254
       0.040
       0.168
       0.068
      -0.205
      -0.499
      -0.666
      -0.650
      -0.504
      -0.309
      -0.095
       0.168
       0.495
       0.821
       1.018
       0.986
       0.719
       0.321
      -0.044
      -0.228
      -0.167
       0.087
       0.398
       0.634
       0.738
       0.729
       0.639
       0.458
       0.142
      -0.319
      -0.821
      -1.172
      -1.226
      -0.997
      -0.656
      -0.388
      -0.263
      -0.222
      -0.170
      -0.073
       0.041
       0.132
       0.181
       0.180
       0.133
       0.069
       0.048
       0.120
       0.279
       0.459
       0.587
       0.630
       0.602
       0.549
       0.513
       0.513
       0.520
       0.471
       0.319
       0.081
      -0.169
      -0.363
      -0.477
      -0.520
      -0.517
      -0.495
      -0.482
      -0.497
      -0.526
      -0.540
      -0.530
      -0.515
      -0.517
      -0.530
      -0.529
      -0.472
      -0.304
       0.026
       0.510
       1.044
       1.453
       1.603
       1.488
       1.211
       0.902
       0.641
       0.439
       0.282
       0.167
       0.117
       0.136
       0.196
       0.233
       0.176
      -0.021
      -0.354
      -0.752
      -1.087
      -1.244
      -1.198
      -1.041
      -0.906
      -0.875
      -0.942
      -1.044
      -1.117
      -1.126
      -1.043
      -0.834
      -0.471
       0.029
       0.583
       1.068
       1.386
       1.512
       1.491
       1.383
       1.224
       1.020
       0.786
       0.577
       0.477
       0.523
       0.643
       0.686
       0.537
       0.205
      -0.185
      -0.489
      -0.651
      -0.720
      -0.789
      -0.915
      -1.078
      -1.212
      -1.257
      -1.185
      -0.997
      -0.722
      -0.422
      -0.179
      -0.058
      -0.063
      -0.134
      -0.177
      -0.126
       0.022
       0.231
       0.466
       0.722
       0.995
       1.242
       1.378
       1.341
       1.135
       0.824
       0.494
       0.226
       0.075
       0.056
       0.128
       0.203
       0.196
       0.066
      -0.181
      -0.512
      -0.873
      -1.177
      -1.319
      -1.236
      -0.976
      -0.686
      -0.500
      -0.447
      -0.453
      -0.430
      -0.357
      -0.285
      -0.282
      -0.347
      -0.388
      -0.283
       0.010
       0.395
       0.707
       0.837
       0.810
       0.757
       0.816
       1.031
       1.313
       1.490
       1.411
       1.033
       0.435
      -0.215
      -0.743
      -1.046
      -1.135
      -1.090
      -0.980
      -0.819
      -0.597
      -0.329
      -0.055
       0.173
       0.302
       0.284
       0.123
      -0.091
      -0.210
      -0.116
       0.176
       0.487
       0.593
       0.406
       0.057
      -0.209
      -0.239
      -0.074
       0.137
       0.285
       0.344
       0.330
       0.250
       0.098
      -0.137
      -0.437
      -0.739
      -0.931
      -0.929
      -0.760
      -0.568
      -0.506
      -0.629
      -0.873
      -1.125
      -1.300
      -1.355
      -1.252
      -0.937
      -0.388
       0.325
       1.011
       1.429
       1.437
       1.102
       0.674
       0.420
       0.450
       0.678
       0.936
       1.122
       1.238
       1.325
       1.372
       1.299
       1.034
       0.603
       0.144
      -0.177
      -0.274
      -0.177
       0.016
       0.205
       0.320
       0.308
       0.141
      -0.175
      -0.586
      -0.996
      -1.298
      -1.429
      -1.413
      -1.347
      -1.332
      -1.396
      -1.469
      -1.456
      -1.316
      -1.102
      -0.899
      -0.741
      -0.561
      -0.251
       0.226
       0.770
       1.187
       1.329
       1.206
       0.971
       0.798
       0.758
       0.793
       0.825
       0.852
       0.925
       1.047
       1.117
       1.020
       0.747
       0.424
       0.203
       0.133
       0.146
       0.133
       0.033
      -0.129
      -0.283
      -0.378
      -0.423
      -0.475
      -0.585
      -0.741
      -0.871
      -0.885
      -0.739
      -0.464
      -0.165
       0.030
       0.044
      -0.107
      -0.316
      -0.449
      -0.415
      -0.214
       0.068
       0.284
       0.295
       0.040
      -0.401
      -0.839
      -1.080
      -1.045
      -0.801
      -0.506
      -0.294
      -0.205
      -0.178
      -0.101
       0.089
       0.348
       0.548
       0.586
       0.462
       0.296
       0.241
       0.379
       0.657
       0.914
       0.970
       0.746
       0.331
      -0.057
      -0.192
       0.031
       0.548
       1.178
       1.717
       2.022
       2.040
       1.804
       1.419
       0.991
       0.559
       0.096
      -0.408
      -0.862
      -1.126
      -1.144
      -1.026
      -0.985
      -1.178
      -1.610
      -2.146
      -2.605
      -2.848
      -2.812
      -2.503
      -1.990
      -1.414
      -0.944
      -0.667
      -0.501
      -0.254
       0.189
       0.734
       1.144
       1.255
       1.128
       0.986
       1.016
       1.219
       1.438
       1.506
       1.380
       1.160
       1.021
       1.087
       1.326
       1.550
       1.531
       1.176
       0.597
       0.030
      -0.334
      -0.440
      -0.358
      -0.201
      -0.076
      -0.063
      -0.188
      -0.406
      -0.607
      -0.694
      -0.657
      -0.581
      -0.573
      -0.672
      -0.800
      -0.807
      -0.582
      -0.150
       0.316
       0.595
       0.559
       0.253
      -0.139
      -0.398
      -0.396
      -0.168
       0.124
       0.324
       0.395
       0.390
       0.354
       0.268
       0.113
      -0.069
      -0.199
      -0.223
      -0.143
       0.009
       0.188
       0.339
       0.413
       0.387
       0.255
       0.019
      -0.279
      -0.525
      -0.568
      -0.340
       0.066
       0.451
       0.648
       0.613
       0.411
       0.135
      -0.158
      -0.424
      -0.602
      -0.608
      -0.392
       0.009
       0.475
       0.877
       1.138
       1.243
       1.210
       1.065
       0.824
       0.517
       0.206
      -0.018
      -0.096
      -0.059
      -0.024
      -0.110
      -0.355
      -0.714
      -1.083
      -1.345
      -1.425
      -1.319
      -1.080
      -0.755
      -0.372
       0.030
       0.377
       0.597
       0.684
       0.672
       0.583
       0.428
       0.260
       0.179
       0.252
       0.438
       0.610
       0.658
       0.568
       0.396
       0.208
       0.050
      -0.026
       0.039
       0.259
       0.549
       0.754
       0.746
       0.482
       0.013
      -0.555
      -1.107
      -1.548
      -1.808
      -1.839
      -1.632
      -1.254
      -0.853
      -0.576
      -0.454
      -0.394
      -0.284
      -0.092
       0.142
       0.382
       0.636
       0.920
       1.211
       1.454
       1.605
       1.646
       1.561
       1.348
       1.050
       0.757
       0.533
       0.352
       0.127
      -0.185
      -0.520
      -0.759
      -0.824
      -0.741
      -0.608
      -0.528
      -0.539
      -0.605
      -0.675
      -0.747
      -0.869
      -1.087
      -1.404
      -1.774
      -2.117
      -2.323
      -2.272
      -1.905
      -1.303
      -0.664
      -0.166
       0.151
       0.379
       0.632
       0.948
       1.291
       1.621
       1.939
       2.251
       2.538
       2.753
       2.830
       2.704
       2.332
       1.740
       1.043
       0.402
      -0.052
      -0.271
      -0.300
      -0.264
      -0.321
      -0.578
      -1.027
      -1.560
      -2.055
      -2.436
      -2.646
      -2.611
      -2.271
      -1.643
      -0.855
      -0.084
       0.510
       0.824
       0.821
       0.542
       0.110
      -0.296
      -0.506
      -0.429
      -0.063
       0.507
       1.134
       1.651
       1.930
       1.936
       1.713
       1.338
       0.879
       0.395
      -0.041
      -0.366
      -0.548
      -0.592
      -0.536
      -0.451
      -0.435
      -0.573
      -0.886
      -1.317
      -1.759
      -2.099
      -2.232
      -2.088
      -1.672
      -1.064
      -0.377
       0.308
       0.946
       1.497
       1.901
       2.108
       2.118
       1.982
       1.776
       1.581
       1.473
       1.487
       1.598
       1.729
       1.800
       1.776
       1.642
       1.351
       0.818
      -0.007
      -1.066
      -2.194
      -3.181
      -3.853
      -4.132
      -4.050
      -3.719
      -3.275
      -2.827
      -2.447
      -2.182
      -2.039
      -1.958
      -1.825
      -1.535
      -1.040
      -0.354
       0.466
       1.336
       2.136
       2.736
       3.062
       3.145
       3.095
       3.037
       3.046
       3.132
       3.249
       3.318
       3.263
       3.057
       2.742
       2.382
       1.985
       1.497
       0.872
       0.130
      -0.633
      -1.298
      -1.785
      -2.098
      -2.331
      -2.607
      -2.974
      -3.356
      -3.624
      -3.700
      -3.601
      -3.364
      -3.000
      -2.507
      -1.921
      -1.307
      -0.703
      -0.100
       0.507
       1.067
       1.471
       1.634
       1.563
       1.380
       1.255
       1.307
       1.525
       1.774
       1.881
       1.762
       1.478
       1.178
       0.982
       0.892
       0.807
       0.602
       0.222
      -0.279
      -0.777
      -1.169
      -1.438
      -1.636
      -1.800
      -1.915
      -1.938
      -1.842
      -1.603
      -1.188
      -0.589
       0.116
       0.771
       1.261
       1.593
       1.861
       2.131
       2.378
       2.527
       2.527
       2.381
       2.135
       1.864
       1.631
       1.417
       1.098
       0.536
      -0.284
      -1.196
      -1.967
      -2.447
      -2.640
      -2.642
      -2.565
      -2.475
      -2.373
      -2.213
      -1.948
      -1.580
      -1.164
      -0.759
      -0.376
       0.010
       0.427
       0.877
       1.349
       1.823
       2.248
       2.518
       2.502
       2.116
       1.403
       0.532
      -0.262
      -0.783
      -0.954
      -0.846
      -0.610
      -0.383
      -0.234
      -0.174
      -0.198
      -0.295
      -0.435
      -0.567
      -0.629
      -0.556
      -0.299
       0.143
       0.687
       1.185
       1.494
       1.541
       1.348
       0.998
       0.603
       0.267
       0.060
      -0.011
       0.016
       0.093
       0.200
       0.338
       0.496
       0.626
       0.665
       0.578
       0.368
       0.077
      -0.229
      -0.494
      -0.718
      -0.957
      -1.275
      -1.663
      -2.017
      -2.205
      -2.145
      -1.835
      -1.354
      -0.844
      -0.454
      -0.248
      -0.162
      -0.042
       0.254
       0.764
       1.418
       2.093
       2.669
       3.051
       3.195
       3.097
       2.788
       2.322
       1.763
       1.180
       0.635
       0.175
      -0.182
      -0.427
      -0.569
      -0.659
      -0.793
      -1.055
      -1.451
      -1.892
      -2.267
      -2.519
      -2.628
      -2.558
      -2.258
      -1.737
      -1.101
      -0.494
      -0.009
       0.350
       0.628
       0.851
       1.025
       1.164
       1.304
       1.488
       1.725
       1.958
       2.082
       2.007
       1.702
       1.201
       0.555
      -0.182
      -0.941
      -1.612
      -2.091
      -2.337
      -2.386
      -2.287
      -2.068
      -1.744
      -1.359
      -0.969
      -0.589
      -0.189
       0.234
       0.614
       0.863
       0.973
       1.038
       1.159
       1.337
       1.469
       1.435
       1.199
       0.814
       0.376
      -0.040
      -0.402
      -0.717
      -1.013
      -1.323
      -1.651
      -1.930
      -2.027
      -1.805
      -1.220
      -0.383
       0.492
       1.210
       1.689
       1.943
       2.013
       1.911
       1.634
       1.217
       0.743
       0.315
       0.014
      -0.132
      -0.170
      -0.205
      -0.349
      -0.651
      -1.054
      -1.449
      -1.752
      -1.945
      -2.049
      -2.064
      -1.947
      -1.639
      -1.122
      -0.444
       0.294
       0.976
       1.496
       1.793
       1.870
       1.819
       1.786
       1.888
       2.124
       2.363
       2.419
       2.158
       1.570
       0.773
      -0.042
      -0.686
      -1.066
      -1.225
      -1.303
      -1.414
      -1.551
      -1.606
      -1.474
      -1.150
      -0.746
      -0.422
      -0.294
      -0.378
      -0.592
      -0.808
      -0.932
      -0.922
      -0.788
      -0.575
      -0.361
      -0.235
      -0.235
      -0.308
      -0.335
      -0.233
      -0.016
       0.233
       0.446
       0.624
       0.813
       1.051
       1.327
       1.587
       1.767
       1.827
       1.772
       1.651
       1.501
       1.316
       1.048
       0.657
       0.170
      -0.341
      -0.819
      -1.257
      -1.657
      -1.991
      -2.206
      -2.284
      -2.263
      -2.201
      -2.119
      -1.971
      -1.689
      -1.256
      -0.758
      -0.340
      -0.089
       0.053
       0.237
       0.568
       1.024
       1.515
       1.974
       2.389
       2.735
       2.936
       2.916
       2.661
       2.213
       1.607
       0.850
      -0.042
      -0.997
      -1.887
      -2.575
      -2.957
      -2.982
      -2.669
      -2.122
      -1.513
      -1.018
      -0.734
      -0.641
      -0.627
      -0.563
      -0.376
      -0.067
       0.304
       0.683
       1.050
       1.400
       1.704
       1.916
       2.022
       2.071
       2.130
       2.205
       2.229
       2.141
       1.946
       1.691
       1.399
       1.044
       0.585
       0.024
      -0.577
      -1.118
      -1.510
      -1.726
      -1.821
      -1.899
      -2.039
      -2.248
      -2.466
      -2.603
      -2.600
      -2.461
      -2.234
      -1.965
      -1.648
      -1.231
      -0.696
      -0.108
       0.422
       0.816
       1.081
       1.289
       1.522
       1.831
       2.239
       2.731
       3.225
       3.581
       3.671
       3.453
       2.994
       2.407
       1.782
       1.158
       0.544
      -0.062
      -0.658
      -1.211
      -1.669
      -2.011
