Origin Time       21/10/2008 15:09:06
Lat.              31.5 N 
Long.             77.3 E 
Depth (Km)         10.0
Magnitude         4.5
 Region           KULLU-HIMACHAL-PRADESH                                           
 Above details taken from IMD 
   
Station Code      KUL
Station Lat.       31.951
Station Long.      77.112
Station Height(m) 1234.0
Site Class        A   Vs30 between 700 m/sec to 1400 m/sec * 
Record Time       21.10.2008 15:09:08.694
Sampling Rate     200. Hz
 Record Duration   66.665 Sec.
 Direction         Vert. (Up positive)
Max. Acceleration     -4.325 cm/sec**2
     
  * For reference see Site Classification link of website 
     
 Base Line Corrected and Low Pass Filtered (Cut Off at 35 Hz) Time History
 Acceleration data in cm/sec**2
    
[...]
       0.866
       0.824
       0.664
       0.402
       0.094
      -0.196
      -0.427
      -0.600
      -0.750
      -0.918
      -1.095
      -1.204
      -1.119
      -0.766
      -0.210
       0.345
       0.673
       0.683
       0.470
       0.239
       0.153
       0.235
       0.378
       0.432
       0.311
       0.057
      -0.192
      -0.292
      -0.187
       0.068
       0.362
       0.600
       0.736
       0.762
       0.681
       0.503
       0.239
      -0.097
      -0.469
      -0.803
      -0.998
      -0.985
      -0.788
      -0.518
      -0.280
      -0.099
       0.064
       0.227
       0.345
       0.344
       0.178
      -0.136
      -0.522
      -0.870
      -1.068
      -1.041
      -0.790
      -0.381
       0.096
       0.573
       0.999
       1.320
       1.467
       1.388
       1.082
       0.595
       0.003
      -0.595
      -1.077
      -1.310
      -1.210
      -0.794
      -0.187
       0.420
       0.844
       0.983
       0.846
       0.533
       0.176
      -0.131
      -0.344
      -0.455
      -0.461
      -0.348
      -0.131
       0.113
       0.266
       0.251
       0.111
      -0.013
       0.011
       0.203
       0.463
       0.651
       0.686
       0.569
       0.351
       0.080
      -0.216
      -0.505
      -0.716
      -0.761
      -0.612
      -0.329
      -0.029
       0.186
       0.280
       0.278
       0.242
       0.224
       0.217
       0.163
       0.013
      -0.214
      -0.424
      -0.530
      -0.512
      -0.420
      -0.296
      -0.143
       0.048
       0.262
       0.468
       0.650
       0.802
       0.902
       0.903
       0.768
       0.512
       0.193
      -0.130
      -0.437
      -0.735
      -1.013
      -1.221
      -1.291
      -1.193
      -0.954
      -0.638
      -0.288
       0.083
       0.462
       0.791
       0.971
       0.918
       0.626
       0.196
      -0.209
      -0.445
      -0.454
      -0.285
      -0.054
       0.131
       0.223
       0.251
       0.276
       0.331
       0.383
       0.359
       0.217
       0.001
      -0.180
      -0.219
      -0.090
       0.135
       0.348
       0.472
       0.503
       0.469
       0.380
       0.205
      -0.087
      -0.490
      -0.952
      -1.395
      -1.708
      -1.758
      -1.455
      -0.840
      -0.105
       0.499
       0.822
       0.905
       0.915
       0.988
       1.126
       1.226
       1.179
       0.956
       0.606
       0.191
      -0.250
      -0.683
      -1.037
      -1.220
      -1.185
      -0.997
      -0.782
      -0.613
      -0.439
      -0.157
       0.238
       0.608
       0.773
       0.686
       0.484
       0.369
       0.426
       0.552
       0.553
       0.306
      -0.149
      -0.642
      -0.982
      -1.062
      -0.896
      -0.582
      -0.231
       0.067
       0.250
       0.297
       0.256
       0.246
       0.382
       0.671
       0.984
       1.129
       0.976
       0.534
      -0.069
      -0.655
      -1.071
      -1.238
      -1.161
      -0.900
      -0.529
      -0.112
       0.298
       0.637
       0.826
       0.802
       0.548
       0.114
      -0.388
      -0.819
      -1.052
      -1.014
      -0.711
      -0.223
       0.325
       0.799
       1.094
       1.173
       1.081
       0.918
       0.768
       0.649
       0.510
       0.278
      -0.085
      -0.545
      -1.000
      -1.315
      -1.384
      -1.181
      -0.768
      -0.267
       0.196
       0.528
       0.697
       0.728
       0.679
       0.597
       0.492
       0.337
       0.120
      -0.125
      -0.332
      -0.446
      -0.442
      -0.315
      -0.079
       0.212
       0.438
       0.458
       0.208
      -0.222
      -0.626
      -0.816
      -0.737
      -0.474
      -0.166
       0.082
       0.229
       0.276
       0.235
       0.119
      -0.032
      -0.145
      -0.142
      -0.003
       0.205
       0.368
       0.418
       0.373
       0.309
       0.286
       0.303
       0.319
       0.290
       0.194
       0.040
      -0.139
      -0.289
      -0.358
      -0.335
      -0.274
      -0.274
      -0.406
      -0.635
      -0.805
      -0.742
      -0.391
       0.122
       0.560
       0.726
       0.559
       0.144
      -0.366
      -0.812
      -1.076
      -1.091
      -0.846
      -0.383
       0.196
       0.746
       1.128
       1.268
       1.203
       1.043
       0.891
       0.765
       0.610
       0.364
       0.026
      -0.347
      -0.687
      -0.951
      -1.114
      -1.148
      -1.022
      -0.741
      -0.353
       0.057
       0.408
       0.647
       0.761
       0.752
       0.627
       0.398
       0.099
      -0.210
      -0.455
      -0.567
      -0.503
      -0.275
       0.042
       0.334
       0.507
       0.529
       0.437
       0.293
       0.151
       0.033
      -0.056
      -0.124
      -0.185
      -0.248
      -0.310
      -0.358
      -0.381
      -0.381
      -0.359
      -0.322
      -0.288
      -0.265
      -0.226
      -0.106
       0.132
       0.426
       0.632
       0.627
       0.409
       0.102
      -0.137
      -0.226
      -0.200
      -0.163
      -0.193
      -0.285
      -0.357
      -0.330
      -0.200
      -0.042
       0.074
       0.145
       0.234
       0.395
       0.609
       0.785
       0.817
       0.653
       0.333
      -0.036
      -0.322
      -0.436
      -0.367
      -0.181
       0.021
       0.143
       0.119
      -0.060
      -0.340
      -0.603
      -0.702
      -0.541
      -0.147
       0.322
       0.677
       0.806
       0.715
       0.492
       0.242
       0.054
      -0.018
       0.009
       0.052
       0.018
      -0.117
      -0.289
      -0.398
      -0.382
      -0.261
      -0.128
      -0.098
      -0.219
      -0.428
      -0.577
      -0.545
      -0.322
       0.001
       0.301
       0.497
       0.585
       0.605
       0.598
       0.559
       0.441
       0.206
      -0.099
      -0.345
      -0.409
      -0.269
      -0.011
       0.252
       0.447
       0.535
       0.486
       0.286
      -0.035
      -0.397
      -0.710
      -0.914
      -0.984
      -0.930
      -0.794
      -0.644
      -0.518
      -0.386
      -0.175
       0.134
       0.452
       0.632
       0.600
       0.427
       0.275
       0.259
       0.355
       0.441
       0.409
       0.260
       0.095
       0.025
       0.075
       0.166
       0.177
       0.043
      -0.203
      -0.449
      -0.582
      -0.555
      -0.388
      -0.135
       0.145
       0.378
       0.489
       0.435
       0.246
       0.011
      -0.185
      -0.306
      -0.357
      -0.349
      -0.287
      -0.190
      -0.100
      -0.066
      -0.099
      -0.148
      -0.131
       0.000
       0.218
       0.432
       0.548
       0.530
       0.399
       0.193
      -0.055
      -0.307
      -0.506
      -0.603
      -0.608
      -0.584
      -0.579
      -0.571
      -0.476
      -0.234
       0.131
       0.512
       0.778
       0.833
       0.662
       0.341
       0.003
      -0.220
      -0.265
      -0.169
      -0.032
       0.059
       0.086
       0.091
       0.123
       0.199
       0.294
       0.363
       0.365
       0.275
       0.086
      -0.175
      -0.441
      -0.608
      -0.580
      -0.325
       0.081
       0.477
       0.693
       0.640
       0.358
      -0.013
      -0.331
      -0.540
      -0.667
      -0.755
      -0.782
      -0.675
      -0.385
       0.048
       0.508
       0.872
       1.069
       1.084
       0.937
       0.659
       0.285
      -0.133
      -0.522
      -0.787
      -0.847
      -0.680
      -0.357
      -0.022
       0.201
       0.270
       0.235
       0.166
       0.091
      -0.004
      -0.132
      -0.276
      -0.403
      -0.501
      -0.558
      -0.542
      -0.389
      -0.066
       0.373
       0.787
       1.031
       1.039
       0.849
       0.564
       0.281
       0.035
      -0.191
      -0.405
      -0.547
      -0.505
      -0.232
       0.182
       0.550
       0.739
       0.758
       0.704
       0.638
       0.540
       0.385
       0.210
       0.082
       0.011
      -0.084
      -0.317
      -0.732
      -1.252
      -1.704
      -1.909
      -1.782
      -1.362
      -0.769
      -0.138
       0.427
       0.864
       1.161
       1.347
       1.458
       1.498
       1.433
       1.217
       0.847
       0.381
      -0.092
      -0.503
      -0.820
      -1.024
      -1.088
      -0.994
      -0.771
      -0.502
      -0.291
      -0.194
      -0.185
      -0.176
      -0.091
       0.063
       0.200
       0.240
       0.202
       0.195
       0.298
       0.453
       0.501
       0.322
      -0.045
      -0.439
      -0.695
      -0.742
      -0.618
      -0.433
      -0.308
      -0.317
      -0.443
      -0.587
      -0.643
      -0.561
      -0.362
      -0.097
       0.180
       0.421
       0.575
       0.599
       0.480
       0.249
      -0.019
      -0.232
      -0.326
      -0.319
      -0.312
      -0.412
      -0.614
      -0.780
      -0.714
      -0.314
       0.342
       1.030
       1.501
       1.597
       1.303
       0.732
       0.067
      -0.479
      -0.719
      -0.543
       0.008
       0.730
       1.329
       1.559
       1.313
       0.652
      -0.230
      -1.086
      -1.708
      -1.997
      -1.976
      -1.732
      -1.356
      -0.908
      -0.439
       0.004
       0.383
       0.685
       0.919
       1.087
       1.166
       1.121
       0.943
       0.672
       0.398
       0.222
       0.197
       0.289
       0.404
       0.454
       0.415
       0.338
       0.298
       0.331
       0.398
       0.405
       0.275
       0.027
      -0.218
      -0.313
      -0.192
       0.089
       0.398
       0.607
       0.653
       0.548
       0.352
       0.119
      -0.147
      -0.488
      -0.915
      -1.357
      -1.700
      -1.882
      -1.930
      -1.884
      -1.713
      -1.340
      -0.753
      -0.064
       0.559
       1.016
       1.326
       1.565
       1.781
       1.953
       2.030
       1.967
       1.748
       1.406
       1.000
       0.571
       0.099
      -0.462
      -1.103
      -1.709
      -2.107
      -2.189
      -1.980
      -1.587
      -1.098
      -0.542
       0.037
       0.500
       0.630
       0.277
      -0.499
      -1.421
      -2.154
      -2.471
      -2.331
      -1.851
      -1.224
      -0.628
      -0.168
       0.144
       0.377
       0.630
       0.971
       1.405
       1.878
       2.315
       2.652
       2.847
       2.863
       2.660
       2.193
       1.434
       0.411
      -0.734
      -1.743
      -2.345
      -2.403
      -1.978
      -1.260
      -0.441
       0.379
       1.181
       1.938
       2.544
       2.834
       2.680
       2.063
       1.073
      -0.126
      -1.337
      -2.369
      -3.093
      -3.474
      -3.560
      -3.411
      -3.055
      -2.489
      -1.742
      -0.921
      -0.178
       0.392
       0.798
       1.107
       1.358
       1.538
       1.643
       1.708
       1.774
       1.836
       1.836
       1.690
       1.341
       0.813
       0.230
      -0.214
      -0.333
      -0.063
       0.461
       0.945
       1.083
       0.752
       0.098
      -0.542
      -0.842
      -0.701
      -0.297
       0.032
       0.004
      -0.428
      -1.065
      -1.592
      -1.759
      -1.487
      -0.873
      -0.133
       0.481
       0.753
       0.549
      -0.098
      -0.930
      -1.533
      -1.552
      -0.916
       0.112
       1.075
       1.577
       1.506
       1.045
       0.509
       0.130
      -0.013
       0.038
       0.192
       0.360
       0.461
       0.404
       0.124
      -0.312
      -0.678
      -0.723
      -0.386
       0.135
       0.533
       0.638
       0.535
       0.406
       0.300
       0.070
      -0.448
      -1.224
      -1.965
      -2.298
      -2.070
      -1.459
      -0.807
      -0.356
      -0.126
       0.033
       0.287
       0.722
       1.343
       2.072
       2.706
       2.950
       2.592
       1.657
       0.422
      -0.732
      -1.513
      -1.838
      -1.828
      -1.672
      -1.508
      -1.359
      -1.170
      -0.887
      -0.483
       0.055
       0.722
       1.429
       1.980
       2.153
       1.870
       1.265
       0.603
       0.106
      -0.137
      -0.155
      -0.022
       0.196
       0.421
       0.518
       0.328
      -0.215
      -0.985
      -1.691
      -2.038
      -1.891
      -1.341
      -0.631
      -0.029
       0.291
       0.307
       0.116
      -0.145
      -0.368
      -0.497
      -0.509
      -0.400
      -0.203
       0.002
       0.125
       0.126
       0.055
       0.039
       0.219
       0.650
       1.248
       1.821
       2.162
       2.140
       1.745
       1.093
       0.382
      -0.200
      -0.554
      -0.698
      -0.700
      -0.610
      -0.447
      -0.248
      -0.085
      -0.029
      -0.085
      -0.188
      -0.223
      -0.078
       0.300
       0.832
       1.282
       1.331
       0.767
      -0.350
      -1.666
      -2.684
      -3.028
      -2.631
      -1.734
      -0.704
       0.181
       0.804
       1.148
       1.222
       1.091
       0.926
       0.932
       1.187
       1.578
       1.895
       1.986
       1.811
       1.379
       0.667
      -0.357
      -1.623
      -2.907
      -3.895
      -4.325
      -4.085
      -3.249
      -2.028
      -0.678
       0.559
       1.492
       2.005
       2.071
       1.760
       1.222
       0.626
       0.072
      -0.435
      -0.922
      -1.364
      -1.654
      -1.667
      -1.356
      -0.813
      -0.215
       0.284
       0.646
       0.939
       1.272
       1.697
       2.152
       2.485
       2.549
       2.307
       1.856
       1.355
       0.910
       0.523
       0.128
      -0.331
      -0.850
      -1.372
      -1.820
      -2.118
      -2.216
      -2.110
      -1.823
      -1.382
      -0.822
      -0.219
       0.332
       0.786
       1.168
       1.524
       1.825
       1.957
       1.791
       1.298
       0.589
      -0.170
      -0.868
      -1.485
      -2.024
      -2.431
      -2.582
      -2.355
      -1.715
      -0.743
       0.383
       1.429
       2.150
       2.355
       1.968
       1.082
      -0.050
      -1.093
      -1.747
      -1.826
      -1.287
      -0.214
       1.191
       2.625
       3.737
       4.205
       3.851
       2.737
       1.177
      -0.390
      -1.592
      -2.248
      -2.364
      -2.067
      -1.534
      -0.939
      -0.412
      -0.020
       0.223
       0.323
       0.284
       0.097
      -0.246
      -0.714
      -1.218
      -1.616
      -1.766
      -1.583
      -1.077
      -0.347
       0.441
       1.086
       1.436
       1.470
       1.315
       1.148
       1.063
       1.013
       0.884
       0.589
       0.133
      -0.402
      -0.897
      -1.267
      -1.506
      -1.676
      -1.834
      -1.956
      -1.944
      -1.693
      -1.174
      -0.458
       0.320
       1.034
       1.640
       2.146
       2.504
       2.572
       2.217
       1.476
       0.581
      -0.180
      -0.644
      -0.842
      -0.928
      -1.038
      -1.194
      -1.296
      -1.195
      -0.795
      -0.120
       0.696
       1.451
       1.961
       2.120
       1.925
       1.458
       0.865
       0.307
      -0.095
      -0.291
      -0.282
      -0.109
       0.148
       0.358
       0.364
       0.074
      -0.452
      -1.011
      -1.390
      -1.494
      -1.372
      -1.136
      -0.866
      -0.589
      -0.310
      -0.063
       0.103
       0.179
       0.214
       0.262
       0.300
       0.232
      -0.015
      -0.378
      -0.679
      -0.754
      -0.601
      -0.381
      -0.274
      -0.325
      -0.412
      -0.364
      -0.094
       0.331
       0.740
       0.997
       1.088
       1.089
       1.051
       0.945
       0.723
       0.413
       0.136
       0.023
       0.113
       0.324
       0.520
       0.611
       0.599
       0.552
       0.527
       0.514
       0.445
       0.245
      -0.119
      -0.623
      -1.170
      -1.607
      -1.789
      -1.671
      -1.359
      -1.032
      -0.808
      -0.679
      -0.560
      -0.381
      -0.130
       0.144
       0.351
       0.390
       0.195
      -0.225
      -0.761
      -1.240
      -1.483
      -1.370
      -0.897
      -0.175
       0.621
       1.339
       1.892
       2.256
       2.431
       2.411
       2.174
       1.708
       1.043
       0.274
      -0.478
      -1.120
      -1.604
      -1.886
      -1.895
      -1.592
      -1.055
      -0.475
      -0.059
       0.085
      -0.018
      -0.231
      -0.374
      -0.294
       0.054
       0.574
       1.093
       1.465
       1.625
       1.574
       1.329
       0.925
       0.428
      -0.046
      -0.381
      -0.524
      -0.528
      -0.507
      -0.537
      -0.590
      -0.548
      -0.300
       0.163
       0.733
       1.238
       1.520
       1.478
       1.099
       0.465
      -0.263
      -0.898
      -1.299
      -1.421
      -1.320
      -1.104
      -0.876
      -0.689
      -0.536
      -0.390
      -0.251
      -0.158
      -0.147
      -0.215
      -0.314
      -0.396
      -0.442
      -0.457
      -0.443
      -0.394
      -0.318
      -0.245
      -0.209
      -0.213
      -0.196
      -0.049
       0.327
       0.932
       1.622
       2.156
       2.316
       2.036
       1.453
       0.822
       0.364
       0.133
       0.017
      -0.160
      -0.487
      -0.923
      -1.339
      -1.592
      -1.568
      -1.214
      -0.583
       0.153
       0.748
       0.992
       0.810
       0.306
      -0.308
      -0.819
      -1.113
      -1.184
      -1.097
      -0.918
      -0.671
      -0.350
       0.030
       0.399
       0.670
       0.818
       0.901
       1.020
       1.238
       1.542
       1.842
       1.983
       1.798
       1.210
       0.317
      -0.619
      -1.306
      -1.585
      -1.486
      -1.160
      -0.768
      -0.418
      -0.174
      -0.069
      -0.087
      -0.148
      -0.149
      -0.046
       0.110
       0.217
       0.217
       0.148
       0.118
       0.203
       0.380
       0.521
       0.472
       0.162
      -0.334
      -0.827
      -1.129
      -1.161
      -0.982
      -0.734
      -0.551
      -0.484
      -0.483
      -0.442
      -0.274
       0.022
       0.340
       0.535
       0.515
       0.315
       0.079
      -0.024
       0.101
       0.418
       0.791
       1.076
       1.200
       1.166
       1.000
       0.709
       0.291
      -0.221
      -0.739
      -1.130
      -1.259
      -1.056
      -0.580
       0.001
       0.498
       0.803
       0.898
       0.813
       0.567
       0.175
      -0.315
      -0.799
      -1.142
      -1.253
      -1.145
      -0.918
      -0.676
      -0.453
      -0.211
       0.081
       0.396
       0.659
       0.795
       0.776
       0.618
       0.373
       0.110
      -0.103
      -0.234
      -0.304
      -0.347
      -0.346
      -0.239
       0.011
       0.350
       0.656
       0.820
       0.803
