Origin Time       6/9/2008 05:47:33  
Lat.              36.7 N 
Long.             70.6 E 
Depth (Km)        160.0
Magnitude         5.8
 Region           HINDUKUS-AFGHANISTAN                                             
 Above details taken from IMD 
   
Station Code      KUL
Station Lat.       31.951
Station Long.      77.112
Station Height(m) 1234.0
Site Class        A   Vs30 between 700 m/sec to 1400 m/sec * 
Record Time       06.09.2008 05:50:18.429
Sampling Rate     200. Hz
 Record Duration   68.300 Sec.
 Direction         Vert. (Up positive)
Max. Acceleration      3.502 cm/sec**2
     
  * For reference see Site Classification link of website 
     
 Base Line Corrected and Low Pass Filtered (Cut Off at 35 Hz) Time History
 Acceleration data in cm/sec**2
    
[...]
      -0.350
      -0.261
      -0.191
      -0.136
      -0.089
      -0.048
      -0.017
       0.002
       0.012
       0.016
       0.014
       0.002
      -0.027
      -0.071
      -0.126
      -0.188
      -0.255
      -0.332
      -0.417
      -0.502
      -0.576
      -0.632
      -0.667
      -0.687
      -0.693
      -0.686
      -0.665
      -0.633
      -0.595
      -0.554
      -0.506
      -0.452
      -0.395
      -0.336
      -0.261
      -0.153
      -0.010
       0.136
       0.231
       0.253
       0.240
       0.267
       0.370
       0.503
       0.594
       0.616
       0.609
       0.617
       0.628
       0.605
       0.552
       0.515
       0.519
       0.538
       0.533
       0.510
       0.504
       0.534
       0.578
       0.606
       0.618
       0.632
       0.657
       0.681
       0.694
       0.701
       0.708
       0.708
       0.690
       0.659
       0.631
       0.616
       0.611
       0.613
       0.620
       0.629
       0.626
       0.597
       0.548
       0.509
       0.505
       0.529
       0.546
       0.525
       0.471
       0.414
       0.375
       0.348
       0.323
       0.301
       0.289
       0.280
       0.259
       0.220
       0.163
       0.093
       0.011
      -0.076
      -0.155
      -0.219
      -0.276
      -0.336
      -0.397
      -0.443
      -0.470
      -0.488
      -0.505
      -0.511
      -0.494
      -0.458
      -0.429
      -0.419
      -0.419
      -0.411
      -0.389
      -0.363
      -0.338
      -0.311
      -0.278
      -0.251
      -0.242
      -0.249
      -0.255
      -0.241
      -0.194
      -0.111
      -0.002
       0.114
       0.211
       0.276
       0.308
       0.322
       0.328
       0.324
       0.301
       0.256
       0.193
       0.123
       0.056
      -0.003
      -0.050
      -0.091
      -0.127
      -0.151
      -0.147
      -0.103
      -0.027
       0.057
       0.118
       0.138
       0.113
       0.054
      -0.026
      -0.108
      -0.182
      -0.238
      -0.271
      -0.274
      -0.250
      -0.207
      -0.156
      -0.099
      -0.032
       0.050
       0.148
       0.250
       0.338
       0.404
       0.451
       0.489
       0.528
       0.574
       0.628
       0.684
       0.734
       0.770
       0.786
       0.786
       0.775
       0.759
       0.741
       0.724
       0.710
       0.695
       0.667
       0.618
       0.556
       0.494
       0.435
       0.364
       0.261
       0.125
      -0.017
      -0.142
      -0.249
      -0.361
      -0.484
      -0.595
      -0.664
      -0.684
      -0.682
      -0.684
      -0.692
      -0.690
      -0.676
      -0.662
      -0.656
      -0.653
      -0.646
      -0.638
      -0.636
      -0.642
      -0.651
      -0.660
      -0.678
      -0.711
      -0.757
      -0.810
      -0.872
      -0.952
      -1.050
      -1.146
      -1.216
      -1.250
      -1.260
      -1.266
      -1.277
      -1.284
      -1.277
      -1.261
      -1.245
      -1.229
      -1.196
      -1.133
      -1.045
      -0.950
      -0.856
      -0.751
      -0.627
      -0.496
      -0.379
      -0.282
      -0.199
      -0.121
      -0.049
       0.005
       0.032
       0.028
      -0.006
      -0.069
      -0.155
      -0.247
      -0.326
      -0.379
      -0.405
      -0.413
      -0.411
      -0.409
      -0.406
      -0.392
      -0.346
      -0.256
      -0.122
       0.036
       0.192
       0.330
       0.448
       0.553
       0.645
       0.722
       0.780
       0.818
       0.837
       0.835
       0.814
       0.778
       0.731
       0.672
       0.597
       0.504
       0.404
       0.311
       0.231
       0.154
       0.064
      -0.043
      -0.148
      -0.221
      -0.239
      -0.202
      -0.120
      -0.004
       0.144
       0.321
       0.522
       0.738
       0.956
       1.160
       1.335
       1.469
       1.559
       1.615
       1.649
       1.679
       1.715
       1.759
       1.802
       1.830
       1.836
       1.825
       1.800
       1.753
       1.664
       1.519
       1.320
       1.087
       0.850
       0.637
       0.459
       0.313
       0.183
       0.065
      -0.033
      -0.091
      -0.098
      -0.057
       0.011
       0.086
       0.167
       0.273
       0.421
       0.597
       0.750
       0.833
       0.851
       0.845
       0.843
       0.824
       0.747
       0.609
       0.458
       0.344
       0.278
       0.228
       0.162
       0.086
       0.033
       0.013
      -0.002
      -0.049
      -0.140
      -0.261
      -0.394
      -0.528
      -0.654
      -0.763
      -0.849
      -0.899
      -0.895
      -0.826
      -0.698
      -0.543
      -0.392
      -0.256
      -0.132
      -0.016
       0.087
       0.164
       0.206
       0.199
       0.127
      -0.021
      -0.240
      -0.499
      -0.751
      -0.968
      -1.149
      -1.318
      -1.487
      -1.649
      -1.776
      -1.840
      -1.839
      -1.797
      -1.739
      -1.675
      -1.615
      -1.566
      -1.533
      -1.522
      -1.536
      -1.566
      -1.588
      -1.575
      -1.516
      -1.409
      -1.262
      -1.084
      -0.889
      -0.696
      -0.532
      -0.416
      -0.362
      -0.372
      -0.440
      -0.553
      -0.695
      -0.845
      -0.991
      -1.128
      -1.248
      -1.342
      -1.399
      -1.422
      -1.418
      -1.387
      -1.324
      -1.220
      -1.083
      -0.933
      -0.789
      -0.649
      -0.492
      -0.295
      -0.054
       0.209
       0.469
       0.714
       0.951
       1.197
       1.458
       1.717
       1.940
       2.101
       2.197
       2.236
       2.227
       2.170
       2.059
       1.893
       1.676
       1.418
       1.139
       0.866
       0.623
       0.420
       0.263
       0.151
       0.088
       0.079
       0.121
       0.202
       0.298
       0.385
       0.454
       0.511
       0.572
       0.643
       0.718
       0.778
       0.816
       0.847
       0.898
       0.994
       1.127
       1.261
       1.355
       1.397
       1.411
       1.415
       1.389
       1.293
       1.112
       0.879
       0.646
       0.442
       0.252
       0.056
      -0.135
      -0.281
      -0.348
      -0.341
      -0.294
      -0.235
      -0.169
      -0.085
       0.024
       0.163
       0.328
       0.505
       0.656
       0.750
       0.776
       0.753
       0.700
       0.617
       0.490
       0.331
       0.174
       0.051
      -0.035
      -0.107
      -0.185
      -0.275
      -0.365
      -0.443
      -0.503
      -0.550
      -0.599
      -0.668
      -0.754
      -0.830
      -0.875
      -0.896
      -0.925
      -0.978
      -1.027
      -1.008
      -0.875
      -0.646
      -0.391
      -0.182
      -0.049
       0.024
       0.076
       0.133
       0.179
       0.186
       0.142
       0.067
      -0.006
      -0.057
      -0.087
      -0.107
      -0.122
      -0.128
      -0.119
      -0.088
      -0.036
       0.020
       0.050
       0.032
      -0.037
      -0.137
      -0.244
      -0.341
      -0.408
      -0.421
      -0.354
      -0.212
      -0.034
       0.125
       0.239
       0.326
       0.420
       0.541
       0.665
       0.745
       0.752
       0.691
       0.594
       0.484
       0.371
       0.257
       0.149
       0.054
      -0.025
      -0.096
      -0.172
      -0.265
      -0.381
      -0.512
      -0.656
      -0.816
      -0.993
      -1.168
      -1.314
      -1.402
      -1.419
      -1.364
      -1.245
      -1.075
      -0.871
      -0.644
      -0.389
      -0.096
       0.230
       0.555
       0.827
       1.004
       1.083
       1.087
       1.047
       0.978
       0.875
       0.726
       0.531
       0.315
       0.113
      -0.047
      -0.165
      -0.260
      -0.351
      -0.438
      -0.499
      -0.516
      -0.493
      -0.456
      -0.431
      -0.428
      -0.436
      -0.438
      -0.421
      -0.377
      -0.309
      -0.226
      -0.141
      -0.072
      -0.021
       0.018
       0.053
       0.073
       0.055
      -0.016
      -0.136
      -0.293
      -0.480
      -0.695
      -0.924
      -1.138
      -1.303
      -1.402
      -1.446
      -1.453
      -1.434
      -1.380
      -1.283
      -1.149
      -0.994
      -0.835
      -0.682
      -0.540
      -0.416
      -0.308
      -0.206
      -0.096
       0.028
       0.162
       0.297
       0.427
       0.544
       0.638
       0.699
       0.713
       0.669
       0.568
       0.423
       0.258
       0.100
      -0.031
      -0.129
      -0.197
      -0.237
      -0.252
      -0.248
      -0.242
      -0.247
      -0.256
      -0.243
      -0.177
      -0.043
       0.148
       0.362
       0.567
       0.739
       0.869
       0.965
       1.044
       1.124
       1.211
       1.299
       1.376
       1.434
       1.467
       1.469
       1.433
       1.360
       1.266
       1.187
       1.146
       1.134
       1.101
       0.993
       0.797
       0.561
       0.357
       0.233
       0.187
       0.184
       0.193
       0.210
       0.247
       0.321
       0.435
       0.575
       0.706
       0.796
       0.833
       0.823
       0.777
       0.702
       0.593
       0.447
       0.270
       0.085
      -0.082
      -0.220
      -0.334
      -0.439
      -0.550
      -0.678
      -0.827
      -0.991
      -1.155
      -1.294
      -1.391
      -1.446
      -1.477
      -1.505
      -1.535
      -1.559
      -1.557
      -1.514
      -1.424
      -1.286
      -1.107
      -0.892
      -0.652
      -0.403
      -0.170
       0.025
       0.172
       0.278
       0.358
       0.428
       0.496
       0.562
       0.621
       0.665
       0.686
       0.684
       0.664
       0.643
       0.637
       0.658
       0.713
       0.796
       0.892
       0.979
       1.041
       1.074
       1.095
       1.130
       1.194
       1.277
       1.349
       1.376
       1.342
       1.257
       1.147
       1.036
       0.934
       0.832
       0.718
       0.596
       0.468
       0.329
       0.159
      -0.057
      -0.316
      -0.602
      -0.886
      -1.134
      -1.323
      -1.441
      -1.492
      -1.494
      -1.474
      -1.445
      -1.406
      -1.354
      -1.293
      -1.228
      -1.163
      -1.089
      -0.997
      -0.885
      -0.759
      -0.621
      -0.477
      -0.327
      -0.175
      -0.029
       0.093
       0.168
       0.185
       0.146
       0.073
      -0.016
      -0.121
      -0.255
      -0.422
      -0.608
      -0.796
      -0.975
      -1.146
      -1.309
      -1.458
      -1.586
      -1.691
      -1.776
      -1.841
      -1.882
      -1.893
      -1.862
      -1.771
      -1.609
      -1.390
      -1.155
      -0.951
      -0.807
      -0.712
      -0.631
      -0.532
      -0.410
      -0.280
      -0.170
      -0.103
      -0.087
      -0.113
      -0.166
      -0.227
      -0.278
      -0.299
      -0.276
      -0.211
      -0.118
      -0.014
       0.094
       0.207
       0.327
       0.444
       0.540
       0.610
       0.657
       0.685
       0.687
       0.644
       0.557
       0.446
       0.349
       0.298
       0.311
       0.392
       0.529
       0.697
       0.862
       0.993
       1.074
       1.107
       1.116
       1.129
       1.168
       1.234
       1.315
       1.395
       1.470
       1.543
       1.614
       1.675
       1.718
       1.744
       1.766
       1.800
       1.857
       1.920
       1.951
       1.919
       1.820
       1.680
       1.537
       1.412
       1.298
       1.166
       1.000
       0.812
       0.646
       0.543
       0.508
       0.498
       0.461
       0.382
       0.292
       0.241
       0.256
       0.322
       0.404
       0.468
       0.494
       0.482
       0.439
       0.382
       0.341
       0.338
       0.364
       0.389
       0.378
       0.319
       0.225
       0.125
       0.050
       0.025
       0.054
       0.120
       0.194
       0.253
       0.292
       0.321
       0.356
       0.405
       0.471
       0.541
       0.590
       0.587
       0.515
       0.376
       0.188
      -0.029
      -0.256
      -0.464
      -0.621
      -0.708
      -0.734
      -0.737
      -0.758
      -0.814
      -0.899
      -0.983
      -1.040
      -1.064
      -1.073
      -1.104
      -1.192
      -1.349
      -1.560
      -1.787
      -1.984
      -2.117
      -2.168
      -2.142
      -2.060
      -1.953
      -1.845
      -1.751
      -1.680
      -1.636
      -1.610
      -1.578
      -1.520
      -1.438
      -1.356
      -1.308
      -1.308
      -1.335
      -1.352
      -1.345
      -1.340
      -1.374
      -1.455
      -1.546
      -1.581
      -1.511
      -1.326
      -1.061
      -0.771
      -0.523
      -0.367
      -0.305
      -0.286
      -0.246
      -0.155
      -0.029
       0.102
       0.199
       0.222
       0.149
      -0.003
      -0.183
      -0.339
      -0.456
      -0.566
      -0.720
      -0.944
      -1.226
      -1.530
      -1.819
      -2.058
      -2.219
      -2.275
      -2.212
      -2.036
      -1.767
      -1.430
      -1.049
      -0.650
      -0.264
       0.085
       0.392
       0.669
       0.932
       1.191
       1.436
       1.655
       1.845
       2.016
       2.186
       2.368
       2.565
       2.774
       2.982
       3.174
       3.332
       3.442
       3.499
       3.502
       3.451
       3.342
       3.169
       2.937
       2.669
       2.406
       2.185
       2.024
       1.917
       1.840
       1.773
       1.700
       1.617
       1.522
       1.420
       1.326
       1.250
       1.194
       1.143
       1.079
       0.987
       0.859
       0.701
       0.524
       0.341
       0.172
       0.033
      -0.063
      -0.114
      -0.133
      -0.136
      -0.133
      -0.124
      -0.109
      -0.096
      -0.096
      -0.111
      -0.139
      -0.169
      -0.193
      -0.210
      -0.222
      -0.239
      -0.271
      -0.323
      -0.389
      -0.449
      -0.472
      -0.432
      -0.322
      -0.169
      -0.019
       0.088
       0.140
       0.158
       0.169
       0.179
       0.164
       0.093
      -0.046
      -0.243
      -0.475
      -0.725
      -0.983
      -1.228
      -1.425
      -1.531
      -1.521
      -1.411
      -1.249
      -1.086
      -0.949
      -0.846
      -0.777
      -0.750
      -0.764
      -0.805
      -0.842
      -0.847
      -0.815
      -0.754
      -0.677
      -0.588
      -0.483
      -0.360
      -0.221
      -0.074
       0.076
       0.225
       0.370
       0.504
       0.612
       0.672
       0.667
       0.592
       0.464
       0.309
       0.156
       0.028
      -0.075
      -0.170
      -0.276
      -0.388
      -0.479
      -0.511
      -0.471
      -0.382
      -0.293
      -0.245
      -0.247
      -0.283
      -0.332
      -0.386
      -0.459
      -0.567
      -0.705
      -0.843
      -0.943
      -0.995
      -1.011
      -1.010
      -1.000
      -0.983
      -0.957
      -0.931
      -0.912
      -0.896
      -0.862
      -0.795
      -0.693
      -0.569
      -0.435
      -0.310
      -0.216
      -0.165
      -0.144
      -0.114
      -0.047
       0.048
       0.128
       0.158
       0.139
       0.103
       0.083
       0.091
       0.126
       0.177
       0.240
       0.306
       0.362
       0.396
       0.397
       0.355
       0.265
       0.129
      -0.042
      -0.230
      -0.413
      -0.571
      -0.694
      -0.779
      -0.827
      -0.834
      -0.791
      -0.696
      -0.562
      -0.412
      -0.269
      -0.139
      -0.016
       0.109
       0.235
       0.351
       0.435
       0.471
       0.456
       0.409
       0.365
       0.359
       0.402
       0.473
       0.541
       0.581
       0.587
       0.564
       0.516
       0.441
       0.338
       0.212
       0.088
       0.000
      -0.026
       0.009
       0.081
       0.161
       0.238
       0.324
       0.429
       0.552
       0.668
       0.751
       0.790
       0.795
       0.783
       0.766
       0.741
       0.698
       0.631
       0.545
       0.454
       0.375
       0.320
       0.294
       0.298
       0.335
       0.401
       0.484
       0.563
       0.615
       0.630
       0.619
       0.606
       0.610
       0.632
       0.650
       0.631
       0.551
       0.417
       0.259
       0.118
       0.023
      -0.017
      -0.011
       0.022
       0.059
       0.081
       0.075
       0.040
      -0.017
      -0.090
      -0.173
      -0.258
      -0.326
      -0.361
      -0.356
      -0.326
      -0.294
      -0.280
      -0.293
      -0.327
      -0.369
      -0.398
      -0.403
      -0.376
      -0.310
      -0.200
      -0.055
       0.102
       0.231
       0.311
       0.345
       0.349
       0.323
       0.259
       0.168
       0.090
       0.073
       0.138
       0.262
       0.393
       0.496
       0.566
       0.612
       0.633
       0.623
       0.580
       0.511
       0.433
       0.362
       0.310
       0.281
       0.269
       0.257
       0.235
       0.211
       0.205
       0.225
       0.256
       0.273
       0.263
       0.236
       0.212
       0.188
       0.148
       0.077
      -0.021
      -0.121
      -0.197
      -0.233
      -0.224
      -0.178
      -0.107
      -0.028
       0.043
       0.100
       0.138
       0.154
       0.144
       0.106
       0.048
      -0.019
      -0.089
      -0.164
      -0.256
      -0.372
      -0.504
      -0.628
      -0.711
      -0.737
      -0.714
      -0.672
      -0.646
      -0.657
      -0.716
      -0.815
      -0.931
      -1.035
      -1.105
      -1.145
      -1.172
      -1.202
      -1.231
      -1.245
      -1.230
      -1.183
      -1.116
      -1.047
      -0.992
      -0.960
      -0.959
      -0.992
      -1.057
      -1.144
      -1.231
      -1.291
      -1.305
      -1.260
      -1.162
      -1.033
      -0.902
      -0.785
      -0.679
      -0.571
      -0.453
      -0.336
      -0.240
      -0.175
      -0.131
      -0.082
      -0.017
       0.052
       0.100
       0.109
       0.086
       0.055
       0.039
       0.049
       0.077
       0.113
       0.148
       0.175
       0.190
       0.194
       0.197
       0.211
       0.243
       0.292
       0.342
       0.371
       0.360
       0.304
       0.213
       0.110
       0.019
      -0.039
      -0.060
      -0.058
      -0.046
      -0.036
      -0.028
      -0.017
       0.009
       0.059
       0.128
       0.198
       0.247
       0.269
       0.275
       0.276
       0.285
       0.307
       0.339
       0.367
       0.375
       0.356
       0.318
       0.276
       0.250
       0.268
       0.347
       0.485
       0.657
       0.826
       0.964
       1.062
       1.123
       1.148
       1.136
       1.095
       1.055
       1.043
       1.062
       1.088
       1.098
       1.097
       1.103
       1.133
       1.178
       1.209
       1.197
       1.133
       1.034
       0.926
       0.833
       0.770
       0.748
       0.778
       0.863
       0.988
       1.129
       1.255
       1.338
       1.363
