Origin Time       17/9/2010 19:21:09	
Lat.              36.5 N	
Long.             70.8 E	
Depth (Km)        167.0
Magnitude         6.5
 Region           Hindukush                                                        
 Above details taken from IMD 
     
Station Code      KUL
Station Lat.       31.951  N
Station Long.      77.112  E
Station Height(m) 1234.0
Site Class        A   Vs30 between 700 m/sec to 1400 m/sec * 
Record Time       17.09.2010 19:23:10.369
Sampling Rate     200. Hz
 Record Duration   87.675 Sec.
 Direction         E-W (E positive)
Max. Acceleration      3.139 cm/sec**2
     
  * For reference see Site Classification link of website 
     
 Base Line Corrected and Low Pass Filtered (Cut Off at 35 Hz) Time History
 Acceleration data in cm/sec**2
    
[...]
       0.327
       0.346
       0.353
       0.345
       0.327
       0.305
       0.282
       0.261
       0.245
       0.237
       0.240
       0.256
       0.284
       0.320
       0.355
       0.379
       0.388
       0.390
       0.396
       0.418
       0.450
       0.479
       0.492
       0.484
       0.460
       0.427
       0.391
       0.347
       0.288
       0.210
       0.113
       0.009
      -0.086
      -0.161
      -0.209
      -0.232
      -0.235
      -0.225
      -0.208
      -0.185
      -0.153
      -0.107
      -0.049
       0.013
       0.075
       0.137
       0.204
       0.276
       0.351
       0.425
       0.500
       0.582
       0.671
       0.761
       0.840
       0.900
       0.935
       0.944
       0.929
       0.897
       0.853
       0.802
       0.747
       0.687
       0.623
       0.556
       0.492
       0.433
       0.384
       0.341
       0.298
       0.250
       0.194
       0.138
       0.091
       0.058
       0.036
       0.016
      -0.004
      -0.025
      -0.046
      -0.064
      -0.081
      -0.106
      -0.145
      -0.198
      -0.257
      -0.307
      -0.338
      -0.353
      -0.364
      -0.383
      -0.417
      -0.465
      -0.526
      -0.596
      -0.673
      -0.755
      -0.839
      -0.922
      -0.997
      -1.054
      -1.083
      -1.077
      -1.038
      -0.973
      -0.896
      -0.814
      -0.732
      -0.650
      -0.569
      -0.489
      -0.412
      -0.334
      -0.251
      -0.161
      -0.070
       0.013
       0.081
       0.136
       0.180
       0.215
       0.242
       0.259
       0.264
       0.258
       0.245
       0.228
       0.210
       0.193
       0.175
       0.156
       0.137
       0.120
       0.104
       0.089
       0.075
       0.070
       0.077
       0.098
       0.132
       0.174
       0.225
       0.286
       0.350
       0.412
       0.464
       0.509
       0.557
       0.616
       0.684
       0.747
       0.787
       0.795
       0.771
       0.725
       0.666
       0.594
       0.504
       0.394
       0.271
       0.151
       0.046
      -0.039
      -0.111
      -0.183
      -0.264
      -0.362
      -0.477
      -0.604
      -0.731
      -0.848
      -0.949
      -1.030
      -1.092
      -1.134
      -1.154
      -1.148
      -1.118
      -1.070
      -1.012
      -0.952
      -0.897
      -0.856
      -0.842
      -0.868
      -0.938
      -1.040
      -1.154
      -1.258
      -1.338
      -1.397
      -1.444
      -1.489
      -1.533
      -1.570
      -1.587
      -1.575
      -1.538
      -1.485
      -1.423
      -1.352
      -1.262
      -1.143
      -0.996
      -0.828
      -0.651
      -0.476
      -0.305
      -0.137
       0.034
       0.213
       0.402
       0.594
       0.772
       0.916
       1.011
       1.060
       1.080
       1.093
       1.111
       1.134
       1.154
       1.168
       1.180
       1.199
       1.229
       1.268
       1.315
       1.361
       1.400
       1.428
       1.444
       1.455
       1.472
       1.501
       1.543
       1.592
       1.638
       1.671
       1.690
       1.694
       1.686
       1.668
       1.640
       1.602
       1.547
       1.475
       1.384
       1.277
       1.162
       1.041
       0.919
       0.795
       0.665
       0.532
       0.404
       0.292
       0.204
       0.144
       0.108
       0.092
       0.090
       0.097
       0.110
       0.131
       0.162
       0.202
       0.245
       0.285
       0.316
       0.335
       0.340
       0.333
       0.312
       0.274
       0.214
       0.126
       0.010
      -0.128
      -0.276
      -0.428
      -0.582
      -0.739
      -0.901
      -1.064
      -1.220
      -1.355
      -1.461
      -1.534
      -1.581
      -1.607
      -1.619
      -1.621
      -1.622
      -1.627
      -1.636
      -1.640
      -1.623
      -1.576
      -1.498
      -1.402
      -1.307
      -1.226
      -1.167
      -1.125
      -1.092
      -1.061
      -1.032
      -1.011
      -1.003
      -1.001
      -0.993
      -0.971
      -0.935
      -0.895
      -0.860
      -0.829
      -0.797
      -0.754
      -0.695
      -0.617
      -0.518
      -0.398
      -0.256
      -0.091
       0.095
       0.293
       0.492
       0.684
       0.867
       1.046
       1.222
       1.389
       1.536
       1.656
       1.749
       1.820
       1.876
       1.921
       1.954
       1.970
       1.964
       1.934
       1.883
       1.818
       1.745
       1.668
       1.585
       1.495
       1.394
       1.285
       1.173
       1.060
       0.946
       0.829
       0.706
       0.580
       0.456
       0.338
       0.232
       0.138
       0.058
      -0.005
      -0.045
      -0.059
      -0.046
      -0.017
       0.011
       0.022
       0.006
      -0.040
      -0.110
      -0.195
      -0.283
      -0.361
      -0.424
      -0.471
      -0.504
      -0.528
      -0.551
      -0.576
      -0.607
      -0.641
      -0.678
      -0.716
      -0.751
      -0.782
      -0.808
      -0.828
      -0.843
      -0.853
      -0.858
      -0.859
      -0.859
      -0.862
      -0.876
      -0.911
      -0.968
      -1.042
      -1.121
      -1.192
      -1.243
      -1.270
      -1.277
      -1.270
      -1.250
      -1.213
      -1.150
      -1.062
      -0.958
      -0.852
      -0.752
      -0.657
      -0.561
      -0.457
      -0.347
      -0.239
      -0.147
      -0.083
      -0.051
      -0.051
      -0.079
      -0.131
      -0.205
      -0.300
      -0.409
      -0.519
      -0.618
      -0.696
      -0.753
      -0.789
      -0.809
      -0.812
      -0.801
      -0.777
      -0.740
      -0.685
      -0.604
      -0.497
      -0.363
      -0.204
      -0.018
       0.194
       0.421
       0.644
       0.838
       0.988
       1.092
       1.155
       1.178
       1.161
       1.103
       1.009
       0.891
       0.762
       0.634
       0.516
       0.412
       0.324
       0.250
       0.190
       0.146
       0.122
       0.121
       0.146
       0.204
       0.295
       0.417
       0.558
       0.709
       0.864
       1.020
       1.176
       1.328
       1.473
       1.608
       1.727
       1.825
       1.892
       1.923
       1.910
       1.855
       1.759
       1.631
       1.483
       1.326
       1.168
       1.016
       0.873
       0.744
       0.632
       0.540
       0.469
       0.424
       0.404
       0.400
       0.399
       0.389
       0.364
       0.327
       0.287
       0.251
       0.221
       0.189
       0.150
       0.100
       0.046
      -0.006
      -0.047
      -0.075
      -0.094
      -0.111
      -0.136
      -0.177
      -0.239
      -0.321
      -0.423
      -0.542
      -0.672
      -0.808
      -0.940
      -1.066
      -1.188
      -1.306
      -1.423
      -1.535
      -1.641
      -1.739
      -1.823
      -1.889
      -1.932
      -1.957
      -1.970
      -1.979
      -1.985
      -1.983
      -1.967
      -1.933
      -1.879
      -1.801
      -1.701
      -1.580
      -1.440
      -1.286
      -1.118
      -0.937
      -0.749
      -0.561
      -0.383
      -0.217
      -0.058
       0.103
       0.273
       0.449
       0.615
       0.760
       0.882
       0.983
       1.070
       1.148
       1.220
       1.291
       1.364
       1.434
       1.489
       1.515
       1.511
       1.488
       1.465
       1.452
       1.441
       1.418
       1.367
       1.291
       1.204
       1.125
       1.068
       1.037
       1.016
       0.985
       0.927
       0.832
       0.706
       0.560
       0.404
       0.241
       0.073
      -0.099
      -0.269
      -0.428
      -0.569
      -0.684
      -0.767
      -0.812
      -0.821
      -0.796
      -0.744
      -0.668
      -0.573
      -0.467
      -0.361
      -0.262
      -0.179
      -0.116
      -0.083
      -0.090
      -0.140
      -0.231
      -0.352
      -0.494
      -0.648
      -0.805
      -0.958
      -1.095
      -1.208
      -1.295
      -1.357
      -1.395
      -1.409
      -1.398
      -1.360
      -1.296
      -1.208
      -1.100
      -0.978
      -0.850
      -0.724
      -0.603
      -0.487
      -0.369
      -0.243
      -0.107
       0.034
       0.169
       0.288
       0.389
       0.475
       0.551
       0.620
       0.683
       0.734
       0.771
       0.790
       0.791
       0.777
       0.752
       0.719
       0.681
       0.644
       0.617
       0.606
       0.620
       0.660
       0.720
       0.791
       0.865
       0.933
       0.986
       1.017
       1.017
       0.984
       0.923
       0.845
       0.759
       0.670
       0.584
       0.510
       0.456
       0.429
       0.423
       0.425
       0.425
       0.419
       0.417
       0.428
       0.458
       0.506
       0.560
       0.609
       0.644
       0.662
       0.664
       0.658
       0.651
       0.650
       0.660
       0.687
       0.732
       0.792
       0.860
       0.930
       0.994
       1.053
       1.110
       1.167
       1.216
       1.246
       1.248
       1.219
       1.158
       1.065
       0.940
       0.785
       0.607
       0.416
       0.224
       0.040
      -0.134
      -0.299
      -0.457
      -0.604
      -0.738
      -0.854
      -0.950
      -1.027
      -1.091
      -1.145
      -1.189
      -1.221
      -1.241
      -1.254
      -1.267
      -1.286
      -1.316
      -1.356
      -1.399
      -1.439
      -1.471
      -1.496
      -1.517
      -1.536
      -1.546
      -1.538
      -1.509
      -1.463
      -1.417
      -1.384
      -1.374
      -1.380
      -1.389
      -1.388
      -1.373
      -1.351
      -1.336
      -1.335
      -1.344
      -1.351
      -1.343
      -1.316
      -1.269
      -1.206
      -1.134
      -1.056
      -0.979
      -0.905
      -0.836
      -0.767
      -0.693
      -0.614
      -0.535
      -0.461
      -0.390
      -0.313
      -0.222
      -0.116
      -0.006
       0.093
       0.167
       0.209
       0.221
       0.214
       0.198
       0.180
       0.162
       0.148
       0.149
       0.174
       0.233
       0.322
       0.433
       0.557
       0.691
       0.838
       0.996
       1.152
       1.282
       1.362
       1.385
       1.356
       1.294
       1.217
       1.129
       1.033
       0.932
       0.839
       0.764
       0.717
       0.693
       0.689
       0.701
       0.732
       0.783
       0.853
       0.931
       1.002
       1.045
       1.047
       1.003
       0.919
       0.803
       0.670
       0.531
       0.400
       0.286
       0.191
       0.109
       0.033
      -0.042
      -0.116
      -0.180
      -0.227
      -0.252
      -0.248
      -0.212
      -0.144
      -0.044
       0.085
       0.241
       0.423
       0.629
       0.849
       1.068
       1.269
       1.436
       1.558
       1.628
       1.641
       1.599
       1.505
       1.369
       1.204
       1.019
       0.820
       0.608
       0.384
       0.150
      -0.088
      -0.330
      -0.574
      -0.816
      -1.047
      -1.250
      -1.409
      -1.517
      -1.573
      -1.585
      -1.561
      -1.506
      -1.421
      -1.309
      -1.177
      -1.032
      -0.886
      -0.746
      -0.620
      -0.511
      -0.423
      -0.357
      -0.312
      -0.286
      -0.273
      -0.271
      -0.272
      -0.268
      -0.253
      -0.227
      -0.195
      -0.164
      -0.136
      -0.112
      -0.088
      -0.057
      -0.014
       0.042
       0.099
       0.142
       0.152
       0.122
       0.051
      -0.050
      -0.162
      -0.266
      -0.349
      -0.409
      -0.457
      -0.501
      -0.544
      -0.573
      -0.571
      -0.526
      -0.433
      -0.298
      -0.134
       0.037
       0.194
       0.323
       0.418
       0.479
       0.512
       0.519
       0.503
       0.459
       0.376
       0.243
       0.065
      -0.139
      -0.345
      -0.538
      -0.713
      -0.873
      -1.018
      -1.142
      -1.239
      -1.303
      -1.334
      -1.332
      -1.301
      -1.246
      -1.172
      -1.084
      -0.987
      -0.875
      -0.741
      -0.580
      -0.395
      -0.202
      -0.018
       0.149
       0.303
       0.457
       0.620
       0.788
       0.947
       1.085
       1.196
       1.284
       1.349
       1.387
       1.392
       1.362
       1.311
       1.258
       1.222
       1.209
       1.213
       1.221
       1.221
       1.211
       1.199
       1.197
       1.210
       1.230
       1.239
       1.219
       1.167
       1.092
       1.012
       0.939
       0.869
       0.783
       0.665
       0.505
       0.310
       0.087
      -0.157
      -0.418
      -0.688
      -0.955
      -1.204
      -1.432
      -1.645
      -1.849
      -2.047
      -2.227
      -2.377
      -2.484
      -2.545
      -2.560
      -2.532
      -2.465
      -2.362
      -2.231
      -2.073
      -1.897
      -1.713
      -1.531
      -1.361
      -1.207
      -1.070
      -0.947
      -0.839
      -0.743
      -0.659
      -0.580
      -0.494
      -0.396
      -0.282
      -0.156
      -0.028
       0.095
       0.205
       0.302
       0.390
       0.476
       0.564
       0.654
       0.745
       0.836
       0.937
       1.059
       1.210
       1.389
       1.590
       1.806
       2.028
       2.247
       2.452
       2.634
       2.792
       2.931
       3.047
       3.124
       3.139
       3.074
       2.930
       2.724
       2.485
       2.235
       1.993
       1.771
       1.582
       1.435
       1.334
       1.271
       1.235
       1.215
       1.199
       1.181
       1.155
       1.116
       1.064
       0.999
       0.920
       0.827
       0.724
       0.614
       0.495
       0.363
       0.210
       0.033
      -0.161
      -0.352
      -0.521
      -0.655
      -0.758
      -0.846
      -0.938
      -1.045
      -1.161
      -1.274
      -1.371
      -1.451
      -1.522
      -1.595
      -1.674
      -1.752
      -1.813
      -1.845
      -1.844
      -1.814
      -1.762
      -1.691
      -1.607
      -1.521
      -1.447
      -1.394
      -1.362
      -1.341
      -1.320
      -1.293
      -1.262
      -1.236
      -1.218
      -1.207
      -1.193
      -1.170
      -1.137
      -1.102
      -1.073
      -1.055
      -1.044
      -1.031
      -1.009
      -0.975
      -0.937
      -0.903
      -0.879
      -0.862
      -0.842
      -0.804
      -0.735
      -0.628
      -0.485
      -0.320
      -0.145
       0.026
       0.187
       0.332
       0.457
       0.560
       0.635
       0.675
       0.681
       0.663
       0.633
       0.597
       0.548
       0.472
       0.363
       0.230
       0.095
      -0.022
      -0.111
      -0.175
      -0.217
      -0.238
      -0.235
      -0.201
      -0.130
      -0.017
       0.134
       0.312
       0.498
       0.671
       0.816
       0.927
       1.007
       1.063
       1.096
       1.102
       1.071
       0.996
       0.883
       0.744
       0.595
       0.448
       0.309
       0.180
       0.059
      -0.050
      -0.136
      -0.182
      -0.171
      -0.090
       0.057
       0.249
       0.458
       0.656
       0.835
       1.000
       1.165
       1.332
       1.484
       1.592
       1.626
       1.573
       1.445
       1.274
       1.094
       0.928
       0.780
       0.643
       0.509
       0.376
       0.252
       0.139
       0.037
      -0.060
      -0.163
      -0.288
      -0.448
      -0.645
      -0.870
      -1.101
      -1.319
      -1.514
      -1.688
      -1.843
      -1.972
      -2.056
      -2.075
      -2.025
      -1.918
      -1.774
      -1.615
      -1.455
      -1.299
      -1.153
      -1.027
      -0.935
      -0.885
      -0.876
      -0.899
      -0.943
      -1.003
      -1.072
      -1.143
      -1.204
      -1.246
      -1.266
      -1.259
      -1.221
      -1.147
      -1.038
      -0.900
      -0.751
      -0.606
      -0.476
      -0.358
      -0.238
      -0.103
       0.056
       0.237
       0.430
       0.624
       0.810
       0.983
       1.144
       1.300
       1.459
       1.622
       1.779
       1.914
       2.016
       2.084
       2.127
       2.156
       2.174
       2.179
       2.174
       2.165
       2.161
       2.164
       2.169
       2.171
       2.168
       2.171
       2.189
       2.226
       2.277
       2.329
       2.369
       2.388
       2.387
       2.366
       2.329
       2.276
       2.202
       2.107
       1.990
       1.860
       1.728
       1.606
       1.499
       1.402
       1.310
       1.214
       1.111
       1.003
       0.898
       0.799
       0.704
       0.601
       0.476
       0.314
       0.107
      -0.139
      -0.409
      -0.684
      -0.946
      -1.184
      -1.387
      -1.551
      -1.675
      -1.763
      -1.824
      -1.870
      -1.913
      -1.960
      -2.013
      -2.069
      -2.126
      -2.187
      -2.253
      -2.328
      -2.407
      -2.484
      -2.551
      -2.598
      -2.621
      -2.618
      -2.591
      -2.541
      -2.475
      -2.402
      -2.333
      -2.278
      -2.237
      -2.203
      -2.163
      -2.117
      -2.073
      -2.048
      -2.057
      -2.100
      -2.157
      -2.201
      -2.205
      -2.161
      -2.072
      -1.952
      -1.815
      -1.666
      -1.507
      -1.339
      -1.162
      -0.988
      -0.829
      -0.693
      -0.581
      -0.483
      -0.397
      -0.325
      -0.270
      -0.223
      -0.167
      -0.082
       0.036
       0.181
       0.336
       0.487
       0.632
       0.772
       0.909
       1.045
       1.178
       1.310
       1.441
       1.566
       1.677
       1.763
       1.819
       1.845
       1.848
       1.832
       1.800
       1.749
       1.679
       1.592
       1.493
       1.393
       1.304
       1.232
       1.180
       1.150
       1.145
       1.164
       1.204
       1.262
       1.331
       1.411
       1.501
       1.600
       1.704
       1.807
       1.902
       1.977
       2.015
       2.005
       1.945
       1.843
       1.713
       1.565
       1.401
       1.221
       1.027
       0.828
       0.635
       0.455
       0.288
       0.128
      -0.023
      -0.161
      -0.278
      -0.370
      -0.441
      -0.497
      -0.543
      -0.576
      -0.592
      -0.590
      -0.569
      -0.532
      -0.481
      -0.423
      -0.367
      -0.323
      -0.294
      -0.275
      -0.255
      -0.227
      -0.186
      -0.132
      -0.071
      -0.017
       0.017
       0.020
      -0.005
      -0.048
      -0.093
      -0.131
      -0.156
      -0.172
      -0.178
      -0.174
      -0.151
      -0.105
      -0.038
       0.039
       0.110
       0.166
       0.215
       0.264
       0.319
       0.370
       0.406
       0.422
       0.422
       0.413
       0.398
       0.373
       0.326
       0.252
       0.152
       0.033
      -0.093
      -0.217
      -0.338
      -0.458
      -0.582
      -0.710
      -0.840
      -0.960
      -1.065
      -1.146
      -1.204
      -1.238
      -1.249
      -1.235
      -1.193
      -1.127
      -1.041
      -0.945
      -0.846
      -0.749
      -0.656
