Origin Time       6/9/2008 05:47:33   UTC
Lat.              36.7 N 
Long.             70.6 E 
Depth (Km)        160.0
Magnitude         5.8
 Region           HINDUKUS-AFGHANISTAN                                             
 Above details taken from IMD 
    
Station Code      KUL
Station Lat.       31.951  N
Station Long.      77.112  E
Station Height(m) 1234.0
Site Class        A   Vs30 between 700 m/sec to 1400 m/sec * 
Record Time       06.09.2008 05:50:18.429 UTC
Sampling Rate     200. Hz
 Record Duration   68.300 Sec.
 Direction         N-S (N positive)
Max. Acceleration      3.668 cm/sec**2
     
  * For reference see Site Classification link of website 
     
 Base Line Corrected and Low Pass Filtered (Cut Off at 35 Hz) Time History
 Acceleration data in cm/sec**2
    
[...]
      -0.200
      -0.207
      -0.215
      -0.225
      -0.233
      -0.241
      -0.254
      -0.273
      -0.298
      -0.320
      -0.333
      -0.336
      -0.331
      -0.320
      -0.304
      -0.291
      -0.288
      -0.297
      -0.314
      -0.326
      -0.327
      -0.317
      -0.304
      -0.298
      -0.305
      -0.317
      -0.324
      -0.322
      -0.311
      -0.298
      -0.286
      -0.272
      -0.252
      -0.225
      -0.193
      -0.161
      -0.136
      -0.118
      -0.105
      -0.089
      -0.066
      -0.031
       0.008
       0.040
       0.052
       0.042
       0.017
      -0.012
      -0.039
      -0.060
      -0.074
      -0.078
      -0.072
      -0.059
      -0.041
      -0.018
       0.015
       0.059
       0.111
       0.166
       0.219
       0.266
       0.301
       0.324
       0.337
       0.350
       0.369
       0.392
       0.408
       0.409
       0.399
       0.391
       0.396
       0.416
       0.438
       0.452
       0.452
       0.441
       0.427
       0.422
       0.434
       0.461
       0.496
       0.523
       0.534
       0.529
       0.513
       0.496
       0.487
       0.489
       0.497
       0.502
       0.498
       0.486
       0.466
       0.438
       0.400
       0.360
       0.324
       0.297
       0.274
       0.245
       0.204
       0.154
       0.104
       0.067
       0.048
       0.041
       0.029
      -0.002
      -0.055
      -0.113
      -0.155
      -0.170
      -0.164
      -0.152
      -0.148
      -0.152
      -0.160
      -0.167
      -0.170
      -0.174
      -0.184
      -0.203
      -0.228
      -0.255
      -0.278
      -0.293
      -0.295
      -0.285
      -0.266
      -0.245
      -0.228
      -0.219
      -0.219
      -0.227
      -0.246
      -0.275
      -0.316
      -0.366
      -0.416
      -0.458
      -0.484
      -0.495
      -0.501
      -0.513
      -0.540
      -0.578
      -0.615
      -0.644
      -0.663
      -0.677
      -0.695
      -0.719
      -0.746
      -0.772
      -0.790
      -0.799
      -0.802
      -0.806
      -0.816
      -0.837
      -0.867
      -0.902
      -0.937
      -0.970
      -0.998
      -1.019
      -1.030
      -1.024
      -1.001
      -0.965
      -0.919
      -0.863
      -0.792
      -0.704
      -0.601
      -0.493
      -0.390
      -0.298
      -0.216
      -0.144
      -0.083
      -0.031
       0.011
       0.041
       0.058
       0.056
       0.041
       0.021
       0.004
      -0.003
       0.000
       0.016
       0.045
       0.089
       0.140
       0.190
       0.232
       0.268
       0.305
       0.350
       0.396
       0.428
       0.432
       0.408
       0.369
       0.331
       0.302
       0.286
       0.283
       0.291
       0.304
       0.316
       0.331
       0.359
       0.408
       0.480
       0.568
       0.662
       0.752
       0.832
       0.900
       0.955
       0.997
       1.026
       1.043
       1.052
       1.060
       1.067
       1.070
       1.062
       1.042
       1.015
       0.991
       0.980
       0.979
       0.981
       0.982
       0.978
       0.972
       0.967
       0.962
       0.959
       0.956
       0.954
       0.953
       0.952
       0.946
       0.933
       0.906
       0.864
       0.805
       0.733
       0.659
       0.593
       0.537
       0.490
       0.444
       0.391
       0.333
       0.275
       0.229
       0.199
       0.177
       0.149
       0.102
       0.035
      -0.040
      -0.109
      -0.165
      -0.212
      -0.260
      -0.319
      -0.388
      -0.461
      -0.529
      -0.586
      -0.636
      -0.686
      -0.744
      -0.810
      -0.874
      -0.922
      -0.948
      -0.959
      -0.968
      -0.987
      -1.018
      -1.047
      -1.058
      -1.042
      -1.000
      -0.942
      -0.884
      -0.834
      -0.794
      -0.757
      -0.715
      -0.662
      -0.601
      -0.545
      -0.508
      -0.490
      -0.479
      -0.457
      -0.415
      -0.354
      -0.283
      -0.211
      -0.147
      -0.096
      -0.060
      -0.036
      -0.019
      -0.006
       0.003
       0.006
       0.007
       0.015
       0.046
       0.108
       0.200
       0.311
       0.424
       0.530
       0.626
       0.708
       0.771
       0.806
       0.811
       0.797
       0.776
       0.756
       0.736
       0.710
       0.679
       0.646
       0.619
       0.609
       0.623
       0.657
       0.701
       0.740
       0.764
       0.774
       0.777
       0.779
       0.778
       0.771
       0.755
       0.728
       0.689
       0.633
       0.560
       0.468
       0.360
       0.243
       0.121
       0.000
      -0.117
      -0.233
      -0.346
      -0.454
      -0.551
      -0.636
      -0.713
      -0.789
      -0.866
      -0.936
      -0.989
      -1.021
      -1.042
      -1.064
      -1.102
      -1.155
      -1.216
      -1.274
      -1.326
      -1.373
      -1.420
      -1.460
      -1.485
      -1.490
      -1.480
      -1.469
      -1.465
      -1.461
      -1.443
      -1.397
      -1.320
      -1.219
      -1.106
      -0.990
      -0.878
      -0.772
      -0.669
      -0.567
      -0.467
      -0.377
      -0.309
      -0.270
      -0.257
      -0.263
      -0.279
      -0.301
      -0.327
      -0.357
      -0.391
      -0.425
      -0.452
      -0.463
      -0.450
      -0.410
      -0.346
      -0.268
      -0.190
      -0.125
      -0.076
      -0.038
       0.005
       0.062
       0.131
       0.200
       0.260
       0.312
       0.365
       0.426
       0.498
       0.579
       0.665
       0.752
       0.839
       0.923
       0.999
       1.064
       1.118
       1.164
       1.202
       1.228
       1.232
       1.209
       1.158
       1.085
       0.996
       0.896
       0.788
       0.676
       0.572
       0.488
       0.436
       0.421
       0.440
       0.490
       0.562
       0.641
       0.709
       0.756
       0.779
       0.783
       0.769
       0.739
       0.690
       0.625
       0.546
       0.460
       0.374
       0.298
       0.238
       0.195
       0.168
       0.155
       0.155
       0.165
       0.178
       0.188
       0.189
       0.180
       0.160
       0.129
       0.084
       0.026
      -0.042
      -0.118
      -0.203
      -0.298
      -0.402
      -0.509
      -0.615
      -0.712
      -0.793
      -0.847
      -0.870
      -0.862
      -0.833
      -0.789
      -0.731
      -0.656
      -0.563
      -0.457
      -0.342
      -0.226
      -0.117
      -0.020
       0.058
       0.119
       0.171
       0.227
       0.295
       0.378
       0.469
       0.555
       0.624
       0.668
       0.686
       0.688
       0.682
       0.677
       0.669
       0.645
       0.593
       0.508
       0.401
       0.293
       0.204
       0.144
       0.110
       0.093
       0.083
       0.076
       0.072
       0.079
       0.101
       0.140
       0.190
       0.241
       0.283
       0.313
       0.328
       0.332
       0.329
       0.322
       0.314
       0.302
       0.282
       0.245
       0.181
       0.084
      -0.042
      -0.182
      -0.313
      -0.414
      -0.472
      -0.492
      -0.486
      -0.468
      -0.445
      -0.414
      -0.368
      -0.303
      -0.220
      -0.133
      -0.058
      -0.009
       0.009
      -0.003
      -0.040
      -0.094
      -0.160
      -0.231
      -0.301
      -0.366
      -0.424
      -0.474
      -0.517
      -0.557
      -0.596
      -0.639
      -0.684
      -0.725
      -0.756
      -0.773
      -0.778
      -0.771
      -0.750
      -0.710
      -0.646
      -0.559
      -0.453
      -0.338
      -0.227
      -0.128
      -0.044
       0.026
       0.090
       0.153
       0.215
       0.273
       0.325
       0.370
       0.413
       0.457
       0.500
       0.534
       0.549
       0.533
       0.481
       0.393
       0.278
       0.149
       0.012
      -0.127
      -0.265
      -0.397
      -0.520
      -0.634
      -0.743
      -0.852
      -0.960
      -1.059
      -1.141
      -1.201
      -1.243
      -1.274
      -1.299
      -1.310
      -1.299
      -1.258
      -1.185
      -1.086
      -0.971
      -0.844
      -0.705
      -0.546
      -0.366
      -0.171
       0.017
       0.173
       0.286
       0.364
       0.427
       0.492
       0.564
       0.632
       0.683
       0.703
       0.690
       0.647
       0.588
       0.534
       0.504
       0.506
       0.540
       0.596
       0.667
       0.751
       0.852
       0.968
       1.096
       1.225
       1.345
       1.446
       1.522
       1.569
       1.586
       1.568
       1.510
       1.408
       1.267
       1.100
       0.921
       0.736
       0.544
       0.343
       0.134
      -0.080
      -0.291
      -0.491
      -0.670
      -0.820
      -0.938
      -1.024
      -1.082
      -1.112
      -1.106
      -1.050
      -0.932
      -0.752
      -0.524
      -0.269
      -0.008
       0.238
       0.452
       0.620
       0.735
       0.795
       0.799
       0.744
       0.624
       0.444
       0.218
      -0.028
      -0.268
      -0.489
      -0.684
      -0.856
      -1.008
      -1.134
      -1.231
      -1.296
      -1.330
      -1.329
      -1.289
      -1.209
      -1.096
      -0.963
      -0.821
      -0.675
      -0.519
      -0.347
      -0.161
       0.026
       0.191
       0.317
       0.389
       0.403
       0.368
       0.303
       0.231
       0.166
       0.114
       0.068
       0.021
      -0.029
      -0.078
      -0.114
      -0.127
      -0.112
      -0.072
      -0.016
       0.040
       0.085
       0.109
       0.112
       0.097
       0.071
       0.047
       0.042
       0.071
       0.144
       0.260
       0.406
       0.569
       0.734
       0.899
       1.065
       1.235
       1.400
       1.539
       1.618
       1.609
       1.498
       1.300
       1.051
       0.795
       0.567
       0.381
       0.241
       0.144
       0.088
       0.079
       0.122
       0.217
       0.354
       0.514
       0.674
       0.821
       0.953
       1.078
       1.195
       1.293
       1.355
       1.362
       1.307
       1.198
       1.056
       0.914
       0.799
       0.717
       0.659
       0.602
       0.529
       0.435
       0.331
       0.229
       0.136
       0.052
      -0.032
      -0.124
      -0.231
      -0.357
      -0.500
      -0.651
      -0.794
      -0.907
      -0.969
      -0.973
      -0.925
      -0.840
      -0.732
      -0.603
      -0.450
      -0.277
      -0.092
       0.091
       0.266
       0.431
       0.589
       0.730
       0.836
       0.892
       0.893
       0.848
       0.770
       0.669
       0.548
       0.405
       0.240
       0.051
      -0.166
      -0.412
      -0.682
      -0.962
      -1.236
      -1.490
      -1.723
      -1.944
      -2.165
      -2.390
      -2.610
      -2.807
      -2.959
      -3.053
      -3.095
      -3.098
      -3.073
      -3.021
      -2.931
      -2.792
      -2.601
      -2.369
      -2.112
      -1.843
      -1.570
      -1.295
      -1.026
      -0.774
      -0.547
      -0.353
      -0.197
      -0.082
      -0.013
       0.005
      -0.026
      -0.101
      -0.208
      -0.329
      -0.445
      -0.533
      -0.574
      -0.557
      -0.480
      -0.351
      -0.178
       0.033
       0.284
       0.571
       0.876
       1.170
       1.417
       1.593
       1.692
       1.726
       1.717
       1.679
       1.616
       1.521
       1.391
       1.236
       1.076
       0.937
       0.839
       0.785
       0.758
       0.733
       0.683
       0.599
       0.490
       0.381
       0.299
       0.260
       0.263
       0.294
       0.336
       0.376
       0.414
       0.460
       0.533
       0.652
       0.825
       1.042
       1.271
       1.478
       1.634
       1.726
       1.749
       1.702
       1.585
       1.407
       1.194
       0.981
       0.796
       0.653
       0.547
       0.468
       0.410
       0.369
       0.344
       0.328
       0.314
       0.296
       0.275
       0.257
       0.244
       0.240
       0.243
       0.258
       0.295
       0.359
       0.446
       0.540
       0.617
       0.657
       0.650
       0.602
       0.528
       0.439
       0.335
       0.201
       0.020
      -0.214
      -0.487
      -0.773
      -1.043
      -1.281
      -1.485
      -1.658
      -1.805
      -1.924
      -2.010
      -2.055
      -2.055
      -2.013
      -1.941
      -1.855
      -1.768
      -1.682
      -1.585
      -1.466
      -1.325
      -1.176
      -1.039
      -0.926
      -0.831
      -0.739
      -0.638
      -0.530
      -0.423
      -0.337
      -0.285
      -0.280
      -0.320
      -0.389
      -0.461
      -0.509
      -0.515
      -0.479
      -0.413
      -0.340
      -0.278
      -0.247
      -0.257
      -0.307
      -0.385
      -0.473
      -0.549
      -0.603
      -0.630
      -0.634
      -0.614
      -0.569
      -0.492
      -0.380
      -0.226
      -0.031
       0.197
       0.440
       0.679
       0.901
       1.101
       1.282
       1.442
       1.569
       1.640
       1.638
       1.563
       1.435
       1.280
       1.126
       0.990
       0.887
       0.830
       0.834
       0.911
       1.069
       1.309
       1.622
       1.987
       2.377
       2.760
       3.104
       3.381
       3.572
       3.668
       3.668
       3.579
       3.412
       3.178
       2.886
       2.543
       2.158
       1.750
       1.340
       0.953
       0.600
       0.282
      -0.012
      -0.286
      -0.536
      -0.751
      -0.914
      -1.015
      -1.049
      -1.015
      -0.926
      -0.808
      -0.703
      -0.652
      -0.682
      -0.796
      -0.984
      -1.231
      -1.522
      -1.840
      -2.162
      -2.462
      -2.717
      -2.910
      -3.033
      -3.089
      -3.086
      -3.032
      -2.936
      -2.805
      -2.646
      -2.465
      -2.273
      -2.080
      -1.901
      -1.741
      -1.599
      -1.460
      -1.310
      -1.140
      -0.956
      -0.774
      -0.617
      -0.495
      -0.402
      -0.325
      -0.248
      -0.169
      -0.097
      -0.042
      -0.007
       0.009
       0.011
       0.000
      -0.025
      -0.065
      -0.118
      -0.186
      -0.267
      -0.355
      -0.440
      -0.515
      -0.582
      -0.654
      -0.744
      -0.853
      -0.964
      -1.050
      -1.085
      -1.058
      -0.972
      -0.842
      -0.683
      -0.505
      -0.312
      -0.109
       0.100
       0.312
       0.522
       0.726
       0.913
       1.062
       1.146
       1.146
       1.064
       0.929
       0.782
       0.661
       0.582
       0.547
       0.545
       0.567
       0.606
       0.664
       0.744
       0.854
       1.000
       1.177
       1.375
       1.580
       1.776
       1.948
       2.078
       2.148
       2.144
       2.056
       1.891
       1.670
       1.430
       1.209
       1.028
       0.884
       0.748
       0.596
       0.419
       0.237
       0.088
       0.004
      -0.002
       0.063
       0.180
       0.324
       0.472
       0.605
       0.710
       0.785
       0.840
       0.891
       0.943
       0.985
       0.996
       0.956
       0.854
       0.697
       0.500
       0.281
       0.060
      -0.150
      -0.338
      -0.510
      -0.678
      -0.853
      -1.028
      -1.176
      -1.264
      -1.275
      -1.219
      -1.126
      -1.024
      -0.928
      -0.834
      -0.729
      -0.603
      -0.462
      -0.323
      -0.207
      -0.127
      -0.082
      -0.052
      -0.010
       0.075
       0.223
       0.425
       0.642
       0.823
       0.931
       0.960
       0.938
       0.902
       0.879
       0.869
       0.855
       0.809
       0.714
       0.570
       0.404
       0.249
       0.134
       0.065
       0.033
       0.025
       0.032
       0.054
       0.090
       0.132
       0.164
       0.170
       0.134
       0.056
      -0.058
      -0.190
      -0.326
      -0.451
      -0.551
      -0.616
      -0.644
      -0.642
      -0.622
      -0.591
      -0.539
      -0.446
      -0.299
      -0.103
       0.117
       0.329
       0.507
       0.640
       0.730
       0.784
       0.807
       0.795
       0.742
       0.646
       0.506
       0.318
       0.080
      -0.205
      -0.518
      -0.830
      -1.111
      -1.343
      -1.519
      -1.634
      -1.687
      -1.682
      -1.628
      -1.544
      -1.449
      -1.356
      -1.267
      -1.182
      -1.106
      -1.054
      -1.038
      -1.065
      -1.131
      -1.222
      -1.320
      -1.408
      -1.479
      -1.534
      -1.574
      -1.598
      -1.601
      -1.577
      -1.515
      -1.409
      -1.258
      -1.069
      -0.861
      -0.655
      -0.469
      -0.307
      -0.157
      -0.005
       0.159
       0.330
       0.495
       0.642
       0.767
       0.878
       0.984
       1.091
       1.194
       1.286
       1.351
       1.377
       1.353
       1.276
       1.153
       0.999
       0.836
       0.692
       0.589
       0.535
       0.528
       0.559
       0.620
       0.712
       0.836
       0.985
       1.139
       1.269
       1.350
       1.364
       1.307
       1.184
       1.007
       0.792
       0.553
       0.306
       0.059
      -0.178
      -0.394
      -0.575
      -0.707
      -0.782
      -0.800
      -0.769
      -0.701
      -0.608
      -0.498
      -0.380
      -0.262
      -0.145
      -0.032
       0.081
       0.195
       0.303
       0.391
       0.444
       0.450
       0.410
       0.334
       0.243
       0.158
       0.091
       0.041
      -0.001
      -0.043
      -0.081
      -0.103
      -0.097
      -0.068
      -0.031
      -0.003
       0.005
      -0.013
      -0.054
      -0.118
      -0.193
      -0.262
      -0.306
      -0.317
      -0.308
      -0.305
      -0.335
      -0.400
      -0.487
      -0.578
      -0.665
      -0.748
      -0.826
      -0.887
      -0.915
      -0.903
      -0.856
      -0.789
      -0.720
      -0.661
      -0.611
      -0.567
      -0.526
      -0.491
      -0.466
      -0.447
      -0.421
      -0.372
      -0.288
      -0.165
      -0.012
       0.158
       0.332
       0.506
       0.687
       0.887
       1.115
       1.365
       1.620
       1.854
       2.050
       2.198
       2.298
       2.351
       2.358
       2.322
       2.241
       2.118
       1.956
       1.760
       1.545
       1.332
       1.138
       0.978
       0.857
       0.771
       0.714
       0.676
       0.646
       0.611
       0.562
       0.496
       0.415
       0.323
       0.217
       0.096
      -0.034
      -0.157
      -0.258
      -0.327
      -0.364
      -0.377
      -0.371
      -0.351
      -0.323
      -0.298
      -0.285
      -0.292
      -0.321
      -0.367
      -0.420
      -0.473
      -0.522
      -0.568
      -0.621
      -0.688
      -0.767
      -0.846
      -0.910
      -0.944
      -0.946
      -0.919
      -0.877
      -0.834
      -0.794
      -0.757
      -0.710
      -0.643
      -0.551
      -0.440
      -0.327
      -0.234
      -0.182
