Origin Time       21/10/2008 15:09:06
Lat.              31.5 N 
Long.             77.3 E 
Depth (Km)         10.0
Magnitude         4.5
 Region           KULLU-HIMACHAL-PRADESH                                           
 Above details taken from IMD 
     
Station Code      KUL
Station Lat.       31.951  N
Station Long.      77.112  E
Station Height(m) 1234.0
Site Class        A   Vs30 between 700 m/sec to 1400 m/sec * 
Record Time       21.10.2008 15:09:08.694
Sampling Rate     200. Hz
 Record Duration   66.665 Sec.
 Direction         E-W (E positive)
Max. Acceleration      6.417 cm/sec**2
     
  * For reference see Site Classification link of website 
     
 Base Line Corrected and Low Pass Filtered (Cut Off at 35 Hz) Time History
 Acceleration data in cm/sec**2
    
[...]
      -0.087
      -0.337
      -0.522
      -0.566
      -0.458
      -0.260
      -0.062
       0.076
       0.157
       0.216
       0.266
       0.277
       0.202
       0.028
      -0.194
      -0.372
      -0.428
      -0.356
      -0.220
      -0.102
      -0.037
       0.018
       0.135
       0.344
       0.590
       0.761
       0.772
       0.622
       0.388
       0.149
      -0.074
      -0.315
      -0.584
      -0.816
      -0.899
      -0.772
      -0.490
      -0.192
      -0.002
       0.045
      -0.001
      -0.054
      -0.054
       0.022
       0.164
       0.342
       0.518
       0.649
       0.696
       0.641
       0.493
       0.292
       0.081
      -0.117
      -0.295
      -0.453
      -0.577
      -0.636
      -0.599
      -0.465
      -0.272
      -0.079
       0.072
       0.182
       0.274
       0.357
       0.398
       0.359
       0.232
       0.065
      -0.077
      -0.149
      -0.144
      -0.072
       0.053
       0.210
       0.348
       0.391
       0.287
       0.054
      -0.219
      -0.422
      -0.487
      -0.416
      -0.264
      -0.106
      -0.009
      -0.010
      -0.097
      -0.203
      -0.234
      -0.132
       0.080
       0.295
       0.399
       0.342
       0.170
      -0.018
      -0.132
      -0.140
      -0.064
       0.044
       0.140
       0.205
       0.248
       0.284
       0.309
       0.302
       0.236
       0.115
      -0.025
      -0.130
      -0.168
      -0.145
      -0.099
      -0.062
      -0.050
      -0.065
      -0.101
      -0.158
      -0.227
      -0.287
      -0.306
      -0.265
      -0.185
      -0.115
      -0.102
      -0.145
      -0.193
      -0.186
      -0.106
       0.015
       0.125
       0.190
       0.212
       0.210
       0.194
       0.156
       0.087
       0.006
      -0.042
      -0.013
       0.101
       0.247
       0.346
       0.344
       0.248
       0.115
      -0.011
      -0.126
      -0.249
      -0.378
      -0.474
      -0.494
      -0.431
      -0.320
      -0.205
      -0.101
       0.016
       0.182
       0.401
       0.618
       0.743
       0.707
       0.533
       0.322
       0.181
       0.132
       0.097
      -0.018
      -0.228
      -0.455
      -0.598
      -0.619
      -0.569
      -0.524
      -0.515
      -0.508
      -0.448
      -0.311
      -0.119
       0.083
       0.261
       0.412
       0.548
       0.657
       0.699
       0.626
       0.437
       0.188
      -0.042
      -0.212
      -0.328
      -0.410
      -0.454
      -0.422
      -0.283
      -0.046
       0.232
       0.467
       0.596
       0.606
       0.537
       0.452
       0.390
       0.339
       0.245
       0.049
      -0.260
      -0.614
      -0.887
      -0.963
      -0.824
      -0.571
      -0.366
      -0.306
      -0.352
      -0.355
      -0.181
       0.188
       0.626
       0.948
       1.020
       0.846
       0.555
       0.309
       0.192
       0.165
       0.110
      -0.070
      -0.368
      -0.674
      -0.850
      -0.820
      -0.618
      -0.357
      -0.151
      -0.042
       0.006
       0.067
       0.189
       0.360
       0.523
       0.608
       0.576
       0.430
       0.217
       0.004
      -0.151
      -0.224
      -0.237
      -0.231
      -0.238
      -0.255
      -0.256
      -0.222
      -0.159
      -0.101
      -0.084
      -0.113
      -0.148
      -0.122
       0.005
       0.213
       0.422
       0.542
       0.530
       0.414
       0.263
       0.142
       0.080
       0.061
       0.041
      -0.022
      -0.135
      -0.262
      -0.342
      -0.330
      -0.232
      -0.112
      -0.045
      -0.073
      -0.172
      -0.264
      -0.269
      -0.147
       0.069
       0.290
       0.415
       0.386
       0.236
       0.070
      -0.005
       0.037
       0.128
       0.164
       0.103
      -0.012
      -0.095
      -0.102
      -0.066
      -0.056
      -0.117
      -0.235
      -0.364
      -0.450
      -0.449
      -0.332
      -0.110
       0.150
       0.355
       0.452
       0.472
       0.494
       0.561
       0.620
       0.559
       0.309
      -0.080
      -0.459
      -0.675
      -0.655
      -0.438
      -0.137
       0.109
       0.187
       0.063
      -0.194
      -0.439
      -0.534
      -0.435
      -0.211
       0.012
       0.139
       0.165
       0.165
       0.222
       0.357
       0.504
       0.561
       0.460
       0.217
      -0.085
      -0.354
      -0.525
      -0.565
      -0.467
      -0.258
      -0.015
       0.163
       0.212
       0.151
       0.074
       0.070
       0.147
       0.230
       0.234
       0.135
      -0.019
      -0.163
      -0.257
      -0.293
      -0.277
      -0.233
      -0.212
      -0.270
      -0.409
      -0.548
      -0.566
      -0.395
      -0.079
       0.263
       0.516
       0.632
       0.627
       0.554
       0.471
       0.423
       0.414
       0.393
       0.296
       0.111
      -0.082
      -0.165
      -0.084
       0.087
       0.187
       0.099
      -0.165
      -0.473
      -0.679
      -0.714
      -0.613
      -0.460
      -0.322
      -0.208
      -0.081
       0.098
       0.323
       0.525
       0.613
       0.540
       0.345
       0.134
       0.008
       0.004
       0.077
       0.139
       0.118
      -0.008
      -0.201
      -0.391
      -0.507
      -0.506
      -0.386
      -0.191
       0.009
       0.154
       0.231
       0.273
       0.323
       0.382
       0.399
       0.316
       0.138
      -0.053
      -0.151
      -0.113
       0.010
       0.109
       0.098
      -0.031
      -0.208
      -0.345
      -0.392
      -0.353
      -0.259
      -0.140
      -0.019
       0.076
       0.117
       0.087
      -0.006
      -0.134
      -0.259
      -0.340
      -0.340
      -0.241
      -0.067
       0.111
       0.217
       0.218
       0.149
       0.085
       0.084
       0.144
       0.222
       0.271
       0.286
       0.309
       0.399
       0.581
       0.796
       0.907
       0.781
       0.395
      -0.116
      -0.531
      -0.709
      -0.686
      -0.641
      -0.725
      -0.934
      -1.112
      -1.086
      -0.798
      -0.343
       0.096
       0.366
       0.427
       0.353
       0.273
       0.283
       0.392
       0.535
       0.623
       0.593
       0.433
       0.186
      -0.067
      -0.237
      -0.278
      -0.214
      -0.117
      -0.058
      -0.056
      -0.086
      -0.101
      -0.071
      -0.005
       0.047
       0.027
      -0.072
      -0.189
      -0.237
      -0.185
      -0.096
      -0.068
      -0.125
      -0.177
      -0.103
       0.124
       0.394
       0.551
       0.524
       0.375
       0.235
       0.195
       0.249
       0.332
       0.372
       0.332
       0.211
       0.031
      -0.176
      -0.375
      -0.530
      -0.623
      -0.647
      -0.612
      -0.535
      -0.441
      -0.357
      -0.296
      -0.242
      -0.162
      -0.031
       0.143
       0.321
       0.460
       0.536
       0.550
       0.513
       0.444
       0.362
       0.285
       0.220
       0.157
       0.083
      -0.013
      -0.124
      -0.240
      -0.352
      -0.457
      -0.550
      -0.602
      -0.559
      -0.376
      -0.063
       0.287
       0.544
       0.625
       0.554
       0.432
       0.363
       0.378
       0.433
       0.449
       0.365
       0.170
      -0.088
      -0.335
      -0.515
      -0.625
      -0.694
      -0.738
      -0.727
      -0.618
      -0.409
      -0.165
       0.028
       0.120
       0.129
       0.119
       0.137
       0.182
       0.227
       0.253
       0.264
       0.263
       0.227
       0.116
      -0.072
      -0.271
      -0.377
      -0.310
      -0.077
       0.233
       0.501
       0.650
       0.679
       0.637
       0.568
       0.469
       0.305
       0.064
      -0.197
      -0.370
      -0.366
      -0.190
       0.049
       0.212
       0.217
       0.079
      -0.128
      -0.331
      -0.479
      -0.532
      -0.457
      -0.262
      -0.024
       0.140
       0.147
       0.020
      -0.132
      -0.197
      -0.141
      -0.029
       0.040
       0.016
      -0.064
      -0.105
      -0.048
       0.074
       0.155
       0.110
      -0.044
      -0.198
      -0.240
      -0.143
       0.016
       0.119
       0.099
      -0.018
      -0.139
      -0.174
      -0.089
       0.075
       0.231
       0.306
       0.287
       0.226
       0.197
       0.236
       0.317
       0.374
       0.348
       0.228
       0.050
      -0.111
      -0.176
      -0.103
       0.073
       0.244
       0.297
       0.189
      -0.016
      -0.201
      -0.287
      -0.298
      -0.316
      -0.387
      -0.468
      -0.455
      -0.282
       0.008
       0.285
       0.418
       0.351
       0.127
      -0.146
      -0.359
      -0.448
      -0.417
      -0.324
      -0.242
      -0.203
      -0.173
      -0.087
       0.092
       0.328
       0.536
       0.637
       0.593
       0.415
       0.165
      -0.053
      -0.128
      -0.014
       0.213
       0.390
       0.370
       0.134
      -0.216
      -0.535
      -0.738
      -0.816
      -0.799
      -0.705
      -0.530
      -0.269
       0.062
       0.425
       0.764
       1.024
       1.153
       1.121
       0.925
       0.605
       0.234
      -0.100
      -0.329
      -0.429
      -0.427
      -0.365
      -0.279
      -0.176
      -0.050
       0.091
       0.208
       0.244
       0.171
       0.022
      -0.107
      -0.124
      -0.005
       0.177
       0.298
       0.268
       0.093
      -0.128
      -0.264
      -0.244
      -0.110
       0.004
      -0.024
      -0.206
      -0.413
      -0.472
      -0.296
       0.038
       0.338
       0.422
       0.238
      -0.116
      -0.462
      -0.653
      -0.641
      -0.468
      -0.217
       0.040
       0.256
       0.416
       0.522
       0.599
       0.667
       0.728
       0.742
       0.645
       0.388
      -0.003
      -0.408
      -0.664
      -0.659
      -0.415
      -0.085
       0.144
       0.152
      -0.058
      -0.374
      -0.641
      -0.738
      -0.642
      -0.430
      -0.222
      -0.087
      -0.001
       0.115
       0.297
       0.492
       0.588
       0.494
       0.195
      -0.251
      -0.731
      -1.106
      -1.250
      -1.103
      -0.715
      -0.225
       0.216
       0.521
       0.686
       0.742
       0.710
       0.594
       0.405
       0.177
      -0.044
      -0.213
      -0.300
      -0.297
      -0.219
      -0.120
      -0.077
      -0.152
      -0.339
      -0.565
      -0.740
      -0.825
      -0.830
      -0.767
      -0.602
      -0.285
       0.189
       0.730
       1.191
       1.454
       1.497
       1.392
       1.222
       1.013
       0.735
       0.364
      -0.064
      -0.462
      -0.750
      -0.907
      -0.953
      -0.903
      -0.750
      -0.502
      -0.220
      -0.008
       0.065
       0.011
      -0.089
      -0.161
      -0.187
      -0.188
      -0.174
      -0.130
      -0.028
       0.135
       0.335
       0.529
       0.676
       0.745
       0.736
       0.670
       0.580
       0.474
       0.337
       0.158
      -0.035
      -0.178
      -0.213
      -0.130
       0.022
       0.169
       0.263
       0.297
       0.291
       0.270
       0.243
       0.208
       0.157
       0.099
       0.056
       0.047
       0.076
       0.141
       0.252
       0.429
       0.672
       0.925
       1.088
       1.072
       0.854
       0.485
       0.034
      -0.466
      -1.025
      -1.640
      -2.251
      -2.751
      -3.047
      -3.102
      -2.931
      -2.584
      -2.126
      -1.629
      -1.143
      -0.669
      -0.160
       0.436
       1.124
       1.853
       2.529
       3.054
       3.353
       3.390
       3.172
       2.751
       2.208
       1.621
       1.047
       0.509
       0.028
      -0.357
      -0.579
      -0.585
      -0.383
      -0.067
       0.229
       0.400
       0.419
       0.305
       0.076
      -0.269
      -0.729
      -1.269
      -1.820
      -2.301
      -2.644
      -2.791
      -2.686
      -2.288
      -1.609
      -0.728
       0.221
       1.101
       1.797
       2.220
       2.313
       2.061
       1.521
       0.804
       0.052
      -0.601
      -1.056
      -1.255
      -1.199
      -0.953
      -0.623
      -0.310
      -0.065
       0.120
       0.286
       0.472
       0.689
       0.931
       1.197
       1.503
       1.858
       2.214
       2.450
       2.412
       2.007
       1.279
       0.398
      -0.437
      -1.096
      -1.559
      -1.869
      -2.057
      -2.111
      -2.012
      -1.777
      -1.472
      -1.174
      -0.936
      -0.779
      -0.704
      -0.696
      -0.717
      -0.716
      -0.666
      -0.599
      -0.606
      -0.778
      -1.119
      -1.504
      -1.713
      -1.545
      -0.927
       0.035
       1.112
       2.082
       2.824
       3.324
       3.614
       3.715
       3.635
       3.403
       3.071
       2.659
       2.129
       1.406
       0.474
      -0.571
      -1.554
      -2.330
      -2.854
      -3.169
      -3.338
      -3.410
      -3.441
      -3.505
      -3.670
      -3.926
      -4.150
      -4.163
      -3.840
      -3.178
      -2.256
      -1.143
       0.148
       1.601
       3.119
       4.523
       5.616
       6.265
       6.417
       6.078
       5.318
       4.295
       3.237
       2.366
       1.792
       1.474
       1.273
       1.034
       0.649
       0.058
      -0.748
      -1.701
      -2.635
      -3.316
      -3.541
      -3.263
      -2.627
      -1.905
      -1.346
      -1.069
      -1.050
      -1.201
      -1.462
      -1.840
      -2.372
      -3.029
      -3.659
      -3.997
      -3.789
      -2.922
      -1.492
       0.242
       1.985
       3.509
       4.703
       5.537
       6.019
       6.173
       6.052
       5.748
       5.342
       4.838
       4.127
       3.058
       1.550
      -0.309
      -2.272
      -4.017
      -5.275
      -5.899
      -5.873
      -5.270
      -4.216
      -2.882
      -1.474
      -0.206
       0.746
       1.284
       1.398
       1.165
       0.713
       0.170
      -0.400
      -0.995
      -1.614
      -2.171
      -2.498
      -2.426
      -1.898
      -1.000
       0.097
       1.224
       2.250
       3.067
       3.573
       3.699
       3.451
       2.931
       2.252
       1.452
       0.482
      -0.684
      -1.920
      -2.946
      -3.474
      -3.391
      -2.831
      -2.072
      -1.382
      -0.925
      -0.763
      -0.890
      -1.224
      -1.580
      -1.715
      -1.433
      -0.716
       0.241
       1.117
       1.641
       1.731
       1.519
       1.259
       1.170
       1.332
       1.671
       2.026
       2.251
       2.283
       2.164
       2.003
       1.911
       1.944
       2.058
       2.112
       1.914
       1.316
       0.288
      -1.047
      -2.465
      -3.729
      -4.661
      -5.155
      -5.151
      -4.628
      -3.619
      -2.244
      -0.723
       0.673
       1.708
       2.260
       2.357
       2.131
       1.758
       1.393
       1.142
       1.043
       1.077
       1.178
       1.261
       1.250
       1.119
       0.911
       0.737
       0.726
       0.941
       1.309
       1.641
       1.735
       1.490
       0.965
       0.338
      -0.198
      -0.545
      -0.758
      -0.999
      -1.421
      -2.036
      -2.676
      -3.087
      -3.073
      -2.615
      -1.860
      -1.041
      -0.367
       0.043
       0.177
       0.112
      -0.026
      -0.108
      -0.048
       0.173
       0.517
       0.918
       1.289
       1.531
       1.559
       1.335
       0.890
       0.312
      -0.278
      -0.744
      -0.955
      -0.829
      -0.390
       0.203
       0.702
       0.897
       0.729
       0.338
      -0.023
      -0.134
       0.048
       0.371
       0.587
       0.519
       0.171
      -0.300
      -0.713
      -0.993
      -1.194
      -1.417
      -1.705
      -1.989
      -2.121
      -1.954
      -1.412
      -0.533
       0.531
       1.543
       2.238
       2.416
       2.026
       1.198
       0.190
      -0.729
      -1.369
      -1.646
      -1.550
      -1.110
      -0.394
       0.491
       1.414
       2.245
       2.854
       3.120
       2.946
       2.328
       1.403
       0.423
      -0.353
      -0.787
      -0.910
      -0.859
      -0.757
      -0.649
      -0.527
      -0.401
      -0.342
      -0.435
      -0.702
      -1.069
      -1.395
      -1.560
      -1.528
      -1.349
      -1.109
      -0.855
      -0.568
      -0.210
       0.214
       0.626
       0.924
       1.064
       1.094
       1.105
       1.161
       1.252
       1.327
       1.341
       1.276
       1.119
       0.848
       0.450
      -0.029
      -0.460
      -0.689
      -0.623
      -0.299
       0.118
       0.427
       0.486
       0.276
      -0.121
      -0.586
      -1.034
      -1.436
      -1.793
      -2.090
      -2.257
      -2.196
      -1.852
      -1.297
      -0.721
      -0.319
      -0.144
      -0.055
       0.190
       0.758
       1.620
       2.572
       3.355
       3.770
       3.724
       3.225
       2.357
       1.263
       0.118
      -0.913
      -1.725
      -2.295
      -2.664
      -2.880
      -2.954
      -2.850
      -2.522
      -1.959
      -1.199
      -0.312
       0.618
       1.510
       2.286
       2.891
       3.290
       3.455
       3.335
       2.884
       2.118
       1.172
       0.257
      -0.456
      -0.937
      -1.302
      -1.719
      -2.292
      -2.978
      -3.599
      -3.912
      -3.737
      -3.069
      -2.090
      -1.064
      -0.180
       0.535
       1.160
       1.751
       2.268
       2.616
       2.740
       2.669
       2.472
       2.171
       1.712
       1.031
       0.173
      -0.661
      -1.207
      -1.309
      -1.045
      -0.670
      -0.447
      -0.496
      -0.755
      -1.065
      -1.258
      -1.226
      -0.944
      -0.468
       0.094
       0.624
       1.026
       1.230
       1.188
       0.878
       0.331
      -0.346
      -0.988
      -1.419
      -1.517
      -1.262
      -0.742
      -0.121
       0.450
       0.897
       1.231
       1.495
       1.697
       1.797
       1.746
       1.538
       1.217
       0.853
       0.504
       0.197
      -0.066
      -0.291
      -0.474
      -0.605
      -0.671
      -0.678
      -0.642
      -0.592
      -0.574
      -0.641
      -0.838
      -1.151
      -1.493
      -1.737
      -1.782
      -1.618
      -1.324
      -1.011
      -0.734
      -0.449
      -0.058
       0.470
       1.030
       1.426
       1.511
       1.298
       0.949
       0.671
       0.605
       0.772
       1.085
       1.398
       1.587
       1.602
       1.476
       1.269
       1.004
       0.657
       0.205
      -0.307
      -0.751
      -0.990
      -0.986
      -0.841
      -0.736
      -0.802
      -1.029
      -1.302
      -1.493
      -1.551
      -1.513
      -1.460
      -1.436
      -1.393
      -1.190
      -0.665
       0.228
       1.324
