Origin Time       17/9/2010 19:21:09	
Lat.              36.5 N	
Long.             70.8 E	
Depth (Km)        167.0
Magnitude         6.5
 Region           Hindukush                                                        
 Above details taken from IMD 
   
Station Code      KUL
Station Lat.       31.951
Station Long.      77.112
Station Height(m) 1234.0
Site Class        A   Vs30 between 700 m/sec to 1400 m/sec * 
Record Time       17.09.2010 19:23:10.369
Sampling Rate     200. Hz
 Record Duration   87.675 Sec.
 Direction         Vert. (Up positive)
Max. Acceleration     -3.127 cm/sec**2
     
  * For reference see Site Classification link of website 
     
 Base Line Corrected and Low Pass Filtered (Cut Off at 35 Hz) Time History
 Acceleration data in cm/sec**2
    
[...]
       0.397
       0.400
       0.408
       0.419
       0.427
       0.427
       0.415
       0.398
       0.389
       0.405
       0.452
       0.521
       0.593
       0.655
       0.705
       0.749
       0.787
       0.809
       0.807
       0.779
       0.733
       0.679
       0.622
       0.567
       0.520
       0.485
       0.454
       0.417
       0.368
       0.312
       0.259
       0.219
       0.194
       0.182
       0.183
       0.190
       0.197
       0.192
       0.167
       0.120
       0.061
       0.006
      -0.028
      -0.035
      -0.025
      -0.013
      -0.010
      -0.011
      -0.004
       0.018
       0.056
       0.106
       0.160
       0.209
       0.241
       0.247
       0.223
       0.176
       0.123
       0.078
       0.054
       0.045
       0.033
      -0.008
      -0.088
      -0.189
      -0.280
      -0.330
      -0.333
      -0.305
      -0.264
      -0.222
      -0.185
      -0.160
      -0.153
      -0.168
      -0.203
      -0.248
      -0.286
      -0.307
      -0.310
      -0.302
      -0.286
      -0.259
      -0.214
      -0.152
      -0.082
      -0.016
       0.040
       0.086
       0.120
       0.130
       0.112
       0.068
       0.017
      -0.023
      -0.043
      -0.044
      -0.037
      -0.028
      -0.012
       0.026
       0.096
       0.194
       0.297
       0.381
       0.429
       0.443
       0.433
       0.408
       0.374
       0.336
       0.298
       0.260
       0.218
       0.169
       0.111
       0.045
      -0.029
      -0.112
      -0.202
      -0.294
      -0.385
      -0.477
      -0.572
      -0.675
      -0.792
      -0.923
      -1.055
      -1.170
      -1.247
      -1.279
      -1.271
      -1.242
      -1.209
      -1.178
      -1.149
      -1.113
      -1.065
      -1.002
      -0.926
      -0.844
      -0.761
      -0.686
      -0.624
      -0.578
      -0.545
      -0.519
      -0.497
      -0.480
      -0.475
      -0.486
      -0.516
      -0.565
      -0.633
      -0.716
      -0.803
      -0.871
      -0.902
      -0.893
      -0.857
      -0.813
      -0.772
      -0.734
      -0.696
      -0.659
      -0.624
      -0.595
      -0.567
      -0.531
      -0.468
      -0.372
      -0.247
      -0.108
       0.033
       0.173
       0.315
       0.455
       0.582
       0.684
       0.753
       0.787
       0.790
       0.774
       0.752
       0.736
       0.728
       0.725
       0.722
       0.719
       0.721
       0.737
       0.780
       0.858
       0.973
       1.109
       1.239
       1.336
       1.385
       1.390
       1.368
       1.341
       1.320
       1.311
       1.314
       1.331
       1.364
       1.413
       1.473
       1.536
       1.595
       1.643
       1.673
       1.672
       1.630
       1.544
       1.422
       1.275
       1.114
       0.945
       0.775
       0.614
       0.469
       0.341
       0.228
       0.130
       0.053
       0.007
      -0.005
       0.011
       0.044
       0.082
       0.114
       0.135
       0.149
       0.159
       0.165
       0.162
       0.142
       0.098
       0.035
      -0.036
      -0.103
      -0.156
      -0.199
      -0.241
      -0.288
      -0.337
      -0.384
      -0.431
      -0.484
      -0.547
      -0.611
      -0.660
      -0.682
      -0.679
      -0.656
      -0.623
      -0.583
      -0.540
      -0.499
      -0.463
      -0.438
      -0.426
      -0.422
      -0.419
      -0.409
      -0.389
      -0.358
      -0.315
      -0.261
      -0.196
      -0.132
      -0.087
      -0.070
      -0.077
      -0.087
      -0.087
      -0.076
      -0.064
      -0.056
      -0.045
      -0.019
       0.028
       0.097
       0.181
       0.269
       0.351
       0.419
       0.471
       0.512
       0.544
       0.564
       0.568
       0.555
       0.526
       0.482
       0.419
       0.331
       0.221
       0.097
      -0.030
      -0.156
      -0.284
      -0.416
      -0.554
      -0.698
      -0.848
      -1.005
      -1.165
      -1.320
      -1.451
      -1.540
      -1.577
      -1.577
      -1.573
      -1.596
      -1.646
      -1.685
      -1.666
      -1.572
      -1.428
      -1.286
      -1.184
      -1.123
      -1.072
      -1.000
      -0.900
      -0.787
      -0.679
      -0.585
      -0.510
      -0.459
      -0.448
      -0.488
      -0.577
      -0.690
      -0.794
      -0.866
      -0.904
      -0.927
      -0.948
      -0.969
      -0.985
      -0.990
      -0.980
      -0.949
      -0.889
      -0.793
      -0.667
      -0.530
      -0.395
      -0.263
      -0.124
       0.031
       0.197
       0.364
       0.523
       0.668
       0.796
       0.904
       0.989
       1.055
       1.109
       1.159
       1.202
       1.238
       1.262
       1.269
       1.259
       1.234
       1.205
       1.179
       1.155
       1.124
       1.084
       1.044
       1.016
       1.004
       1.001
       1.004
       1.012
       1.027
       1.042
       1.050
       1.049
       1.041
       1.032
       1.023
       1.012
       0.997
       0.969
       0.918
       0.841
       0.741
       0.631
       0.521
       0.413
       0.313
       0.235
       0.195
       0.202
       0.248
       0.319
       0.407
       0.513
       0.643
       0.787
       0.922
       1.020
       1.064
       1.057
       1.011
       0.941
       0.858
       0.767
       0.668
       0.562
       0.451
       0.341
       0.236
       0.144
       0.070
       0.022
      -0.002
      -0.017
      -0.039
      -0.080
      -0.138
      -0.202
      -0.261
      -0.310
      -0.348
      -0.374
      -0.380
      -0.358
      -0.304
      -0.227
      -0.146
      -0.078
      -0.026
       0.017
       0.066
       0.121
       0.172
       0.202
       0.204
       0.180
       0.136
       0.077
       0.003
      -0.080
      -0.169
      -0.259
      -0.350
      -0.443
      -0.537
      -0.619
      -0.668
      -0.673
      -0.640
      -0.595
      -0.568
      -0.569
      -0.593
      -0.626
      -0.656
      -0.684
      -0.717
      -0.755
      -0.791
      -0.811
      -0.805
      -0.770
      -0.712
      -0.641
      -0.563
      -0.482
      -0.402
      -0.337
      -0.306
      -0.326
      -0.394
      -0.491
      -0.594
      -0.691
      -0.786
      -0.887
      -0.995
      -1.094
      -1.164
      -1.184
      -1.150
      -1.067
      -0.949
      -0.808
      -0.652
      -0.481
      -0.296
      -0.103
       0.079
       0.229
       0.328
       0.375
       0.385
       0.377
       0.362
       0.337
       0.293
       0.229
       0.161
       0.115
       0.111
       0.152
       0.216
       0.275
       0.299
       0.276
       0.212
       0.127
       0.036
      -0.054
      -0.149
      -0.250
      -0.349
      -0.437
      -0.502
      -0.535
      -0.531
      -0.491
      -0.424
      -0.343
      -0.261
      -0.190
      -0.134
      -0.085
      -0.025
       0.059
       0.169
       0.291
       0.401
       0.479
       0.510
       0.496
       0.446
       0.377
       0.303
       0.234
       0.172
       0.111
       0.044
      -0.041
      -0.153
      -0.294
      -0.452
      -0.602
      -0.726
      -0.814
      -0.871
      -0.897
      -0.891
      -0.852
      -0.785
      -0.693
      -0.576
      -0.431
      -0.256
      -0.058
       0.143
       0.324
       0.463
       0.546
       0.570
       0.542
       0.481
       0.404
       0.331
       0.270
       0.221
       0.177
       0.133
       0.090
       0.062
       0.063
       0.098
       0.157
       0.220
       0.263
       0.268
       0.229
       0.159
       0.080
       0.013
      -0.027
      -0.039
      -0.030
      -0.006
       0.031
       0.086
       0.160
       0.248
       0.334
       0.402
       0.445
       0.467
       0.480
       0.494
       0.512
       0.533
       0.559
       0.594
       0.638
       0.686
       0.731
       0.772
       0.819
       0.882
       0.965
       1.061
       1.156
       1.240
       1.309
       1.362
       1.396
       1.403
       1.381
       1.334
       1.278
       1.233
       1.213
       1.221
       1.248
       1.284
       1.319
       1.345
       1.351
       1.330
       1.283
       1.214
       1.125
       1.007
       0.860
       0.691
       0.520
       0.361
       0.215
       0.074
      -0.067
      -0.202
      -0.319
      -0.409
      -0.464
      -0.483
      -0.484
      -0.487
      -0.508
      -0.541
      -0.571
      -0.597
      -0.637
      -0.713
      -0.828
      -0.963
      -1.093
      -1.205
      -1.303
      -1.393
      -1.472
      -1.527
      -1.547
      -1.533
      -1.498
      -1.462
      -1.442
      -1.443
      -1.460
      -1.484
      -1.505
      -1.518
      -1.523
      -1.523
      -1.526
      -1.533
      -1.541
      -1.543
      -1.530
      -1.499
      -1.452
      -1.396
      -1.329
      -1.246
      -1.142
      -1.029
      -0.924
      -0.843
      -0.786
      -0.739
      -0.687
      -0.628
      -0.571
      -0.529
      -0.511
      -0.516
      -0.538
      -0.568
      -0.595
      -0.614
      -0.622
      -0.619
      -0.606
      -0.585
      -0.564
      -0.545
      -0.527
      -0.506
      -0.479
      -0.452
      -0.429
      -0.407
      -0.382
      -0.348
      -0.311
      -0.282
      -0.264
      -0.244
      -0.207
      -0.144
      -0.062
       0.025
       0.102
       0.159
       0.187
       0.181
       0.140
       0.068
      -0.026
      -0.133
      -0.240
      -0.335
      -0.403
      -0.427
      -0.400
      -0.323
      -0.208
      -0.075
       0.055
       0.172
       0.276
       0.373
       0.463
       0.542
       0.615
       0.696
       0.808
       0.966
       1.162
       1.366
       1.539
       1.658
       1.723
       1.761
       1.801
       1.865
       1.956
       2.061
       2.159
       2.233
       2.274
       2.288
       2.288
       2.288
       2.288
       2.275
       2.236
       2.170
       2.082
       1.981
       1.870
       1.749
       1.618
       1.483
       1.351
       1.220
       1.080
       0.914
       0.716
       0.490
       0.258
       0.048
      -0.120
      -0.236
      -0.298
      -0.314
      -0.289
      -0.235
      -0.163
      -0.086
      -0.009
       0.065
       0.139
       0.214
       0.292
       0.366
       0.419
       0.430
       0.384
       0.283
       0.146
      -0.003
      -0.144
      -0.266
      -0.367
      -0.447
      -0.512
      -0.565
      -0.609
      -0.644
      -0.667
      -0.671
      -0.642
      -0.570
      -0.456
      -0.322
      -0.202
      -0.124
      -0.092
      -0.091
      -0.094
      -0.080
      -0.039
       0.022
       0.083
       0.127
       0.146
       0.151
       0.159
       0.178
       0.208
       0.242
       0.274
       0.305
       0.330
       0.339
       0.319
       0.257
       0.157
       0.035
      -0.085
      -0.192
      -0.295
      -0.414
      -0.563
      -0.727
      -0.873
      -0.973
      -1.025
      -1.057
      -1.099
      -1.167
      -1.258
      -1.357
      -1.452
      -1.540
      -1.625
      -1.710
      -1.789
      -1.849
      -1.887
      -1.914
      -1.950
      -2.011
      -2.094
      -2.178
      -2.242
      -2.273
      -2.276
      -2.265
      -2.255
      -2.252
      -2.255
      -2.257
      -2.240
      -2.184
      -2.077
      -1.916
      -1.715
      -1.494
      -1.274
      -1.061
      -0.853
      -0.643
      -0.438
      -0.257
      -0.123
      -0.046
      -0.014
       0.004
       0.035
       0.095
       0.181
       0.287
       0.415
       0.569
       0.749
       0.947
       1.146
       1.335
       1.508
       1.660
       1.778
       1.844
       1.849
       1.803
       1.736
       1.677
       1.633
       1.592
       1.540
       1.475
       1.403
       1.332
       1.263
       1.196
       1.134
       1.082
       1.042
       1.020
       1.019
       1.041
       1.081
       1.128
       1.170
       1.194
       1.193
       1.158
       1.082
       0.969
       0.833
       0.701
       0.592
       0.510
       0.448
       0.398
       0.357
       0.320
       0.284
       0.241
       0.192
       0.150
       0.129
       0.130
       0.141
       0.144
       0.125
       0.077
      -0.001
      -0.099
      -0.194
      -0.254
      -0.262
      -0.224
      -0.169
      -0.122
      -0.100
      -0.102
      -0.123
      -0.150
      -0.167
      -0.157
      -0.115
      -0.048
       0.031
       0.110
       0.186
       0.262
       0.352
       0.469
       0.616
       0.779
       0.935
       1.071
       1.190
       1.303
       1.418
       1.526
       1.614
       1.680
       1.736
       1.797
       1.872
       1.961
       2.048
       2.108
       2.133
       2.136
       2.131
       2.113
       2.059
       1.953
       1.809
       1.659
       1.525
       1.402
       1.271
       1.118
       0.950
       0.782
       0.617
       0.450
       0.278
       0.108
      -0.050
      -0.202
      -0.367
      -0.563
      -0.794
      -1.045
      -1.294
      -1.518
      -1.709
      -1.872
      -2.013
      -2.134
      -2.230
      -2.300
      -2.354
      -2.412
      -2.493
      -2.604
      -2.735
      -2.872
      -2.993
      -3.082
      -3.126
      -3.127
      -3.095
      -3.043
      -2.976
      -2.893
      -2.792
      -2.686
      -2.590
      -2.517
      -2.462
      -2.405
      -2.324
      -2.216
      -2.102
      -2.011
      -1.953
      -1.912
      -1.857
      -1.764
      -1.625
      -1.454
      -1.273
      -1.097
      -0.935
      -0.784
      -0.639
      -0.494
      -0.341
      -0.174
       0.007
       0.188
       0.350
       0.474
       0.559
       0.619
       0.679
       0.760
       0.870
       1.004
       1.149
       1.285
       1.388
       1.444
       1.455
       1.441
       1.424
       1.418
       1.421
       1.425
       1.428
       1.434
       1.453
       1.483
       1.506
       1.498
       1.450
       1.372
       1.284
       1.191
       1.087
       0.965
       0.840
       0.742
       0.693
       0.684
       0.685
       0.668
       0.627
       0.579
       0.546
       0.540
       0.558
       0.582
       0.596
       0.591
       0.568
       0.536
       0.504
       0.471
       0.436
       0.390
       0.327
       0.249
       0.169
       0.106
       0.076
       0.077
       0.093
       0.107
       0.108
       0.092
       0.064
       0.024
      -0.021
      -0.060
      -0.081
      -0.072
      -0.029
       0.046
       0.148
       0.266
       0.392
       0.519
       0.648
       0.780
       0.917
       1.051
       1.171
       1.259
       1.303
       1.300
       1.252
       1.158
       1.015
       0.823
       0.598
       0.370
       0.172
       0.026
      -0.063
      -0.102
      -0.095
      -0.051
       0.024
       0.119
       0.226
       0.335
       0.438
       0.531
       0.618
       0.702
       0.772
       0.804
       0.783
       0.716
       0.631
       0.564
       0.539
       0.559
       0.610
       0.666
       0.698
       0.677
       0.591
       0.451
       0.287
       0.130
      -0.006
      -0.124
      -0.229
      -0.315
      -0.364
      -0.363
      -0.317
      -0.255
      -0.217
      -0.229
      -0.295
      -0.394
      -0.500
      -0.585
      -0.637
      -0.665
      -0.695
      -0.758
      -0.856
      -0.966
      -1.052
      -1.091
      -1.081
      -1.032
      -0.956
      -0.868
      -0.790
      -0.742
      -0.734
      -0.760
      -0.808
      -0.868
      -0.938
      -1.019
      -1.107
      -1.195
      -1.276
      -1.342
      -1.380
      -1.377
      -1.321
      -1.207
      -1.038
      -0.832
      -0.615
      -0.420
      -0.269
      -0.163
      -0.088
      -0.033
       0.001
       0.002
      -0.044
      -0.138
      -0.267
      -0.398
      -0.499
      -0.547
      -0.542
      -0.499
      -0.437
      -0.363
      -0.276
      -0.172
      -0.060
       0.050
       0.152
       0.240
       0.308
       0.347
       0.350
       0.313
       0.242
       0.146
       0.037
      -0.074
      -0.180
      -0.283
      -0.393
      -0.515
      -0.641
      -0.758
      -0.849
      -0.914
      -0.965
      -1.025
      -1.108
      -1.209
      -1.302
      -1.352
      -1.336
      -1.253
      -1.120
      -0.967
      -0.819
      -0.692
      -0.588
      -0.495
      -0.403
      -0.315
      -0.247
      -0.218
      -0.234
      -0.286
      -0.356
      -0.426
      -0.481
      -0.509
      -0.504
      -0.462
      -0.381
      -0.260
      -0.109
       0.057
       0.217
       0.361
       0.485
       0.584
       0.658
       0.707
       0.741
       0.767
       0.785
       0.786
       0.762
       0.716
       0.659
       0.607
       0.577
       0.577
       0.606
       0.649
       0.687
       0.712
       0.734
       0.774
       0.851
       0.971
       1.115
       1.257
       1.369
       1.434
       1.447
       1.417
       1.364
       1.315
       1.296
       1.324
       1.394
       1.481
       1.542
       1.546
       1.488
       1.395
       1.302
       1.225
       1.162
       1.100
       1.033
       0.963
       0.899
       0.851
       0.825
       0.820
       0.831
       0.855
       0.886
       0.921
       0.950
       0.961
       0.940
       0.886
       0.806
       0.719
       0.639
       0.580
       0.543
       0.526
       0.522
       0.524
       0.525
       0.517
       0.495
       0.452
       0.382
       0.289
       0.179
       0.064
      -0.048
      -0.149
      -0.232
      -0.300
      -0.356
      -0.407
      -0.450
      -0.475
      -0.469
      -0.427
      -0.359
      -0.281
      -0.209
      -0.154
      -0.120
      -0.106
      -0.114
      -0.147
      -0.204
      -0.281
      -0.369
      -0.465
      -0.563
      -0.655
      -0.732
      -0.786
      -0.815
      -0.827
      -0.838
      -0.864
      -0.915
      -0.997
      -1.109
      -1.244
      -1.387
      -1.519
      -1.627
      -1.704
      -1.756
      -1.789
      -1.811
      -1.827
      -1.840
      -1.851
      -1.856
      -1.848
      -1.822
      -1.779
      -1.727
      -1.672
      -1.615
      -1.552
      -1.484
      -1.426
      -1.397
      -1.410
      -1.458
      -1.513
      -1.543
      -1.525
      -1.456
      -1.343
      -1.202
      -1.044
      -0.880
      -0.720
      -0.572
      -0.446
      -0.351
      -0.292
      -0.274
      -0.298
      -0.355
      -0.421
      -0.464
      -0.457
      -0.396
      -0.296
      -0.175
      -0.046
       0.083
       0.205
       0.307
       0.376
       0.404
       0.392
       0.346
       0.275
       0.192
       0.110
       0.042
      -0.001
      -0.009
       0.020
       0.085
       0.176
       0.280
       0.390
       0.504
       0.622
       0.742
       0.856
       0.958
       1.036
       1.086
       1.110
       1.119
       1.124
       1.130
