Origin Time       17/9/2010 19:21:09	 UTC
Lat.              36.5 N	
Long.             70.8 E	
Depth (Km)        167.0
Magnitude         6.5
 Region           Hindukush                                                        
 Above details taken from IMD 
    
Station Code      KUL
Station Lat.       31.951  N
Station Long.      77.112  E
Station Height(m) 1234.0
Site Class        A   Vs30 between 700 m/sec to 1400 m/sec * 
Record Time       17.09.2010 19:23:10.369 UTC
Sampling Rate     200. Hz
 Record Duration   87.675 Sec.
 Direction         N-S (N positive)
Max. Acceleration     -3.791 cm/sec**2
     
  * For reference see Site Classification link of website 
     
 Base Line Corrected and Low Pass Filtered (Cut Off at 35 Hz) Time History
 Acceleration data in cm/sec**2
    
[...]
      -0.009
       0.004
       0.015
       0.023
       0.029
       0.039
       0.054
       0.070
       0.081
       0.079
       0.067
       0.050
       0.038
       0.038
       0.049
       0.066
       0.082
       0.093
       0.096
       0.089
       0.074
       0.053
       0.033
       0.018
       0.011
       0.011
       0.017
       0.028
       0.044
       0.064
       0.089
       0.119
       0.152
       0.180
       0.195
       0.190
       0.169
       0.141
       0.120
       0.109
       0.105
       0.101
       0.093
       0.082
       0.072
       0.065
       0.058
       0.049
       0.036
       0.017
      -0.008
      -0.032
      -0.046
      -0.040
      -0.010
       0.038
       0.091
       0.132
       0.152
       0.148
       0.132
       0.117
       0.115
       0.125
       0.135
       0.134
       0.120
       0.096
       0.072
       0.055
       0.053
       0.069
       0.102
       0.144
       0.180
       0.197
       0.189
       0.160
       0.120
       0.087
       0.073
       0.079
       0.095
       0.108
       0.106
       0.088
       0.061
       0.033
       0.008
      -0.015
      -0.040
      -0.070
      -0.104
      -0.141
      -0.175
      -0.206
      -0.236
      -0.267
      -0.298
      -0.324
      -0.337
      -0.335
      -0.321
      -0.305
      -0.297
      -0.304
      -0.324
      -0.353
      -0.383
      -0.407
      -0.424
      -0.432
      -0.431
      -0.420
      -0.401
      -0.382
      -0.371
      -0.371
      -0.374
      -0.370
      -0.353
      -0.331
      -0.317
      -0.321
      -0.340
      -0.362
      -0.376
      -0.378
      -0.374
      -0.375
      -0.385
      -0.401
      -0.411
      -0.410
      -0.395
      -0.375
      -0.358
      -0.351
      -0.357
      -0.370
      -0.386
      -0.399
      -0.402
      -0.393
      -0.376
      -0.358
      -0.343
      -0.333
      -0.320
      -0.293
      -0.245
      -0.177
      -0.097
      -0.016
       0.058
       0.121
       0.177
       0.226
       0.266
       0.297
       0.318
       0.335
       0.348
       0.357
       0.355
       0.339
       0.309
       0.276
       0.249
       0.233
       0.227
       0.223
       0.218
       0.211
       0.202
       0.192
       0.180
       0.166
       0.153
       0.146
       0.151
       0.167
       0.189
       0.208
       0.216
       0.212
       0.200
       0.188
       0.179
       0.177
       0.180
       0.187
       0.195
       0.206
       0.220
       0.240
       0.268
       0.304
       0.350
       0.402
       0.453
       0.501
       0.543
       0.579
       0.603
       0.609
       0.590
       0.548
       0.492
       0.436
       0.394
       0.370
       0.361
       0.363
       0.372
       0.388
       0.411
       0.438
       0.461
       0.469
       0.459
       0.434
       0.402
       0.372
       0.345
       0.314
       0.272
       0.220
       0.166
       0.120
       0.087
       0.069
       0.060
       0.058
       0.064
       0.080
       0.101
       0.118
       0.120
       0.105
       0.075
       0.039
       0.000
      -0.040
      -0.081
      -0.122
      -0.159
      -0.189
      -0.206
      -0.210
      -0.202
      -0.183
      -0.155
      -0.121
      -0.091
      -0.075
      -0.079
      -0.100
      -0.126
      -0.148
      -0.159
      -0.162
      -0.160
      -0.160
      -0.163
      -0.173
      -0.188
      -0.206
      -0.221
      -0.229
      -0.228
      -0.223
      -0.217
      -0.211
      -0.202
      -0.188
      -0.166
      -0.136
      -0.101
      -0.063
      -0.026
       0.009
       0.045
       0.086
       0.132
       0.180
       0.223
       0.254
       0.269
       0.272
       0.270
       0.270
       0.272
       0.270
       0.255
       0.222
       0.174
       0.117
       0.057
      -0.001
      -0.055
      -0.103
      -0.139
      -0.160
      -0.166
      -0.165
      -0.166
      -0.175
      -0.193
      -0.216
      -0.239
      -0.257
      -0.271
      -0.280
      -0.285
      -0.288
      -0.295
      -0.311
      -0.337
      -0.367
      -0.396
      -0.415
      -0.423
      -0.421
      -0.414
      -0.407
      -0.407
      -0.417
      -0.440
      -0.472
      -0.506
      -0.533
      -0.547
      -0.546
      -0.531
      -0.507
      -0.482
      -0.459
      -0.436
      -0.404
      -0.353
      -0.284
      -0.207
      -0.141
      -0.099
      -0.082
      -0.079
      -0.077
      -0.069
      -0.053
      -0.040
      -0.036
      -0.047
      -0.070
      -0.100
      -0.128
      -0.148
      -0.160
      -0.163
      -0.163
      -0.167
      -0.180
      -0.202
      -0.224
      -0.231
      -0.213
      -0.170
      -0.114
      -0.062
      -0.027
      -0.008
       0.001
       0.012
       0.032
       0.058
       0.085
       0.103
       0.103
       0.084
       0.050
       0.008
      -0.038
      -0.081
      -0.121
      -0.157
      -0.189
      -0.221
      -0.253
      -0.282
      -0.302
      -0.311
      -0.310
      -0.302
      -0.290
      -0.272
      -0.247
      -0.217
      -0.188
      -0.163
      -0.141
      -0.114
      -0.077
      -0.028
       0.027
       0.084
       0.140
       0.193
       0.243
       0.293
       0.345
       0.403
       0.469
       0.536
       0.592
       0.629
       0.648
       0.653
       0.652
       0.648
       0.645
       0.642
       0.644
       0.654
       0.669
       0.684
       0.694
       0.697
       0.700
       0.707
       0.718
       0.730
       0.739
       0.742
       0.745
       0.747
       0.746
       0.734
       0.708
       0.668
       0.619
       0.566
       0.512
       0.460
       0.413
       0.379
       0.357
       0.345
       0.336
       0.323
       0.310
       0.303
       0.308
       0.321
       0.329
       0.318
       0.281
       0.221
       0.151
       0.082
       0.019
      -0.038
      -0.094
      -0.153
      -0.214
      -0.273
      -0.326
      -0.368
      -0.395
      -0.404
      -0.395
      -0.374
      -0.350
      -0.330
      -0.314
      -0.296
      -0.270
      -0.239
      -0.213
      -0.202
      -0.209
      -0.231
      -0.254
      -0.268
      -0.264
      -0.248
      -0.229
      -0.215
      -0.209
      -0.202
      -0.190
      -0.169
      -0.146
      -0.122
      -0.098
      -0.073
      -0.046
      -0.020
       0.002
       0.013
       0.010
      -0.007
      -0.029
      -0.048
      -0.059
      -0.062
      -0.065
      -0.076
      -0.101
      -0.137
      -0.176
      -0.207
      -0.220
      -0.215
      -0.197
      -0.173
      -0.150
      -0.133
      -0.118
      -0.104
      -0.089
      -0.075
      -0.068
      -0.072
      -0.086
      -0.108
      -0.134
      -0.161
      -0.189
      -0.220
      -0.251
      -0.280
      -0.304
      -0.323
      -0.341
      -0.361
      -0.385
      -0.411
      -0.438
      -0.461
      -0.472
      -0.466
      -0.439
      -0.396
      -0.343
      -0.290
      -0.239
      -0.188
      -0.136
      -0.083
      -0.034
       0.010
       0.047
       0.080
       0.106
       0.126
       0.141
       0.150
       0.154
       0.149
       0.133
       0.108
       0.083
       0.067
       0.066
       0.076
       0.090
       0.096
       0.089
       0.072
       0.054
       0.043
       0.043
       0.053
       0.072
       0.100
       0.136
       0.172
       0.198
       0.208
       0.208
       0.209
       0.219
       0.234
       0.242
       0.230
       0.195
       0.143
       0.084
       0.024
      -0.034
      -0.089
      -0.140
      -0.183
      -0.211
      -0.223
      -0.225
      -0.222
      -0.215
      -0.201
      -0.178
      -0.151
      -0.125
      -0.105
      -0.088
      -0.069
      -0.047
      -0.025
      -0.009
      -0.004
      -0.010
      -0.023
      -0.035
      -0.037
      -0.020
       0.022
       0.086
       0.164
       0.239
       0.300
       0.339
       0.360
       0.370
       0.377
       0.379
       0.371
       0.349
       0.314
       0.273
       0.234
       0.206
       0.196
       0.202
       0.223
       0.250
       0.278
       0.302
       0.319
       0.327
       0.327
       0.321
       0.311
       0.299
       0.284
       0.268
       0.249
       0.224
       0.196
       0.169
       0.151
       0.145
       0.149
       0.155
       0.156
       0.146
       0.125
       0.100
       0.077
       0.062
       0.054
       0.044
       0.027
       0.003
      -0.019
      -0.027
      -0.014
       0.014
       0.045
       0.064
       0.068
       0.061
       0.053
       0.044
       0.027
      -0.003
      -0.048
      -0.102
      -0.155
      -0.204
      -0.250
      -0.299
      -0.353
      -0.411
      -0.469
      -0.517
      -0.551
      -0.569
      -0.572
      -0.563
      -0.548
      -0.534
      -0.521
      -0.505
      -0.478
      -0.437
      -0.382
      -0.317
      -0.247
      -0.183
      -0.138
      -0.121
      -0.132
      -0.153
      -0.161
      -0.138
      -0.085
      -0.016
       0.049
       0.097
       0.127
       0.151
       0.181
       0.218
       0.252
       0.268
       0.256
       0.221
       0.179
       0.148
       0.137
       0.141
       0.152
       0.160
       0.165
       0.169
       0.174
       0.183
       0.200
       0.227
       0.263
       0.302
       0.338
       0.365
       0.385
       0.403
       0.421
       0.436
       0.444
       0.438
       0.415
       0.374
       0.314
       0.234
       0.140
       0.043
      -0.048
      -0.125
      -0.185
      -0.231
      -0.267
      -0.296
      -0.318
      -0.328
      -0.323
      -0.300
      -0.264
      -0.219
      -0.171
      -0.120
      -0.072
      -0.032
      -0.006
       0.003
       0.002
       0.001
       0.009
       0.027
       0.048
       0.064
       0.071
       0.074
       0.081
       0.097
       0.116
       0.126
       0.116
       0.084
       0.042
       0.005
      -0.010
       0.001
       0.037
       0.086
       0.137
       0.181
       0.215
       0.243
       0.268
       0.290
       0.302
       0.303
       0.293
       0.278
       0.263
       0.253
       0.244
       0.232
       0.213
       0.185
       0.149
       0.109
       0.065
       0.014
      -0.046
      -0.117
      -0.195
      -0.271
      -0.336
      -0.382
      -0.411
      -0.430
      -0.449
      -0.472
      -0.501
      -0.529
      -0.549
      -0.554
      -0.544
      -0.522
      -0.492
      -0.454
      -0.406
      -0.344
      -0.272
      -0.192
      -0.109
      -0.021
       0.069
       0.160
       0.245
       0.321
       0.380
       0.418
       0.431
       0.422
       0.395
       0.356
       0.304
       0.233
       0.143
       0.040
      -0.063
      -0.153
      -0.220
      -0.262
      -0.284
      -0.294
      -0.297
      -0.291
      -0.274
      -0.245
      -0.203
      -0.156
      -0.114
      -0.085
      -0.071
      -0.066
      -0.056
      -0.032
       0.012
       0.080
       0.171
       0.279
       0.393
       0.503
       0.606
       0.703
       0.798
       0.890
       0.977
       1.050
       1.100
       1.119
       1.102
       1.051
       0.972
       0.875
       0.771
       0.670
       0.581
       0.510
       0.458
       0.420
       0.387
       0.351
       0.305
       0.251
       0.194
       0.141
       0.100
       0.078
       0.075
       0.088
       0.108
       0.125
       0.129
       0.113
       0.067
      -0.013
      -0.131
      -0.280
      -0.451
      -0.632
      -0.810
      -0.973
      -1.112
      -1.220
      -1.296
      -1.339
      -1.357
      -1.358
      -1.354
      -1.353
      -1.356
      -1.360
      -1.362
      -1.359
      -1.351
      -1.340
      -1.332
      -1.330
      -1.334
      -1.341
      -1.349
      -1.355
      -1.361
      -1.369
      -1.385
      -1.409
      -1.446
      -1.494
      -1.546
      -1.593
      -1.625
      -1.640
      -1.643
      -1.639
      -1.633
      -1.622
      -1.599
      -1.553
      -1.480
      -1.381
      -1.262
      -1.131
      -0.993
      -0.851
      -0.709
      -0.574
      -0.447
      -0.330
      -0.224
      -0.129
      -0.049
       0.018
       0.075
       0.128
       0.179
       0.230
       0.279
       0.331
       0.397
       0.484
       0.592
       0.719
       0.859
       1.012
       1.178
       1.358
       1.544
       1.726
       1.890
       2.024
       2.122
       2.184
       2.218
       2.236
       2.249
       2.261
       2.271
       2.278
       2.284
       2.302
       2.342
       2.410
       2.503
       2.609
       2.712
       2.805
       2.884
       2.949
       2.998
       3.025
       3.025
       2.992
       2.926
       2.828
       2.700
       2.541
       2.355
       2.152
       1.952
       1.775
       1.635
       1.532
       1.456
       1.390
       1.321
       1.244
       1.162
       1.086
       1.021
       0.968
       0.920
       0.863
       0.784
       0.668
       0.504
       0.287
       0.019
      -0.289
      -0.624
      -0.973
      -1.329
      -1.690
      -2.052
      -2.407
      -2.742
      -3.040
      -3.289
      -3.482
      -3.621
      -3.714
      -3.769
      -3.791
      -3.787
      -3.761
      -3.716
      -3.651
      -3.557
      -3.428
      -3.265
      -3.073
      -2.862
      -2.638
      -2.402
      -2.149
      -1.878
      -1.588
      -1.287
      -0.988
      -0.709
      -0.464
      -0.263
      -0.105
       0.023
       0.135
       0.235
       0.319
       0.373
       0.393
       0.389
       0.381
       0.389
       0.423
       0.480
       0.550
       0.618
       0.680
       0.733
       0.781
       0.829
       0.879
       0.930
       0.976
       1.010
       1.028
       1.038
       1.052
       1.078
       1.120
       1.170
       1.219
       1.261
       1.292
       1.317
       1.339
       1.367
       1.400
       1.433
       1.452
       1.448
       1.414
       1.352
       1.268
       1.169
       1.067
       0.970
       0.880
       0.795
       0.714
       0.643
       0.595
       0.586
       0.625
       0.707
       0.818
       0.935
       1.035
       1.102
       1.122
       1.092
       1.015
       0.901
       0.757
       0.589
       0.398
       0.183
      -0.051
      -0.287
      -0.504
      -0.679
      -0.803
      -0.877
      -0.907
      -0.899
      -0.858
      -0.787
      -0.693
      -0.583
      -0.464
      -0.344
      -0.237
      -0.153
      -0.103
      -0.093
      -0.123
      -0.186
      -0.275
      -0.379
      -0.492
      -0.608
      -0.724
      -0.840
      -0.958
      -1.076
      -1.188
      -1.282
      -1.344
      -1.369
      -1.364
      -1.341
      -1.320
      -1.309
      -1.317
      -1.342
      -1.384
      -1.439
      -1.508
      -1.586
      -1.671
      -1.755
      -1.827
      -1.877
      -1.898
      -1.883
      -1.832
      -1.747
      -1.633
      -1.503
      -1.366
      -1.234
      -1.109
      -0.994
      -0.892
      -0.809
      -0.748
      -0.708
      -0.677
      -0.644
      -0.598
      -0.533
      -0.454
      -0.368
      -0.284
      -0.204
      -0.126
      -0.043
       0.047
       0.147
       0.255
       0.370
       0.490
       0.615
       0.746
       0.884
       1.028
       1.175
       1.316
       1.444
       1.553
       1.634
       1.683
       1.700
       1.691
       1.667
       1.640
       1.616
       1.598
       1.588
       1.588
       1.601
       1.624
       1.647
       1.658
       1.651
       1.626
       1.592
       1.553
       1.508
       1.452
       1.381
       1.295
       1.200
       1.106
       1.020
       0.944
       0.871
       0.800
       0.728
       0.657
       0.588
       0.516
       0.433
       0.330
       0.206
       0.060
      -0.103
      -0.275
      -0.443
      -0.598
      -0.739
      -0.866
      -0.978
      -1.069
      -1.130
      -1.155
      -1.150
      -1.130
      -1.106
      -1.084
      -1.060
      -1.031
      -0.994
      -0.953
      -0.917
      -0.896
      -0.898
      -0.927
      -0.981
      -1.051
      -1.132
      -1.221
      -1.315
      -1.407
      -1.484
      -1.527
      -1.522
      -1.469
      -1.378
      -1.260
      -1.121
      -0.962
      -0.785
      -0.603
      -0.435
      -0.300
      -0.205
      -0.144
      -0.100
      -0.065
      -0.033
      -0.010
      -0.003
      -0.017
      -0.060
      -0.131
      -0.221
      -0.311
      -0.382
      -0.427
      -0.446
      -0.448
      -0.434
      -0.402
      -0.345
      -0.263
      -0.161
      -0.047
       0.078
       0.216
       0.370
       0.536
       0.702
       0.854
       0.982
       1.084
       1.162
       1.224
       1.276
       1.322
       1.359
       1.389
       1.410
       1.424
       1.428
       1.424
       1.412
       1.402
       1.404
       1.431
       1.489
       1.570
       1.661
       1.744
       1.807
       1.845
       1.858
       1.846
       1.811
       1.757
       1.683
       1.589
       1.474
       1.339
       1.190
       1.039
       0.897
       0.772
       0.662
       0.560
       0.457
       0.349
       0.237
       0.125
       0.012
      -0.107
      -0.240
      -0.395
      -0.573
      -0.770
      -0.973
      -1.169
      -1.346
      -1.496
      -1.623
      -1.731
      -1.827
      -1.914
      -1.992
      -2.058
      -2.111
      -2.149
      -2.171
      -2.178
      -2.167
      -2.138
      -2.096
      -2.045
      -1.991
      -1.934
      -1.870
      -1.790
      -1.688
      -1.567
      -1.439
      -1.322
      -1.233
      -1.185
      -1.177
      -1.194
      -1.214
      -1.225
      -1.226
      -1.220
      -1.209
      -1.185
      -1.138
      -1.058
      -0.941
      -0.786
      -0.591
      -0.362
      -0.115
       0.131
       0.357
       0.557
       0.736
       0.908
       1.082
       1.253
       1.408
       1.533
       1.625
       1.692
       1.744
       1.781
       1.794
       1.773
       1.716
       1.633
       1.540
       1.445
       1.349
       1.250
       1.146
       1.044
       0.962
       0.922
       0.942
       1.022
       1.144
       1.282
       1.412
       1.523
       1.612
       1.683
       1.736
       1.768
       1.769
       1.730
       1.652
       1.546
       1.427
       1.304
       1.169
       1.012
       0.828
       0.618
       0.392
       0.151
      -0.110
      -0.394
      -0.699
      -1.008
      -1.304
      -1.570
      -1.796
      -1.976
      -2.109
      -2.198
      -2.251
      -2.282
      -2.300
      -2.311
      -2.319
      -2.322
      -2.314
      -2.287
      -2.226
      -2.123
      -1.974
      -1.782
      -1.554
      -1.296
      -1.013
      -0.714
      -0.423
      -0.165
       0.034
       0.162
       0.223
       0.228
       0.186
       0.106
      -0.002
      -0.123
      -0.244
