Origin Time       21/10/2008 15:09:06 UTC
Lat.              31.5 N 
Long.             77.3 E 
Depth (Km)         10.0
Magnitude         4.5
 Region           KULLU-HIMACHAL-PRADESH                                           
 Above details taken from IMD 
    
Station Code      KUL
Station Lat.       31.951  N
Station Long.      77.112  E
Station Height(m) 1234.0
Site Class        A   Vs30 between 700 m/sec to 1400 m/sec * 
Record Time       21.10.2008 15:09:08.694 UTC
Sampling Rate     200. Hz
 Record Duration   66.665 Sec.
 Direction         N-S (N positive)
Max. Acceleration     -4.219 cm/sec**2
     
  * For reference see Site Classification link of website 
     
 Base Line Corrected and Low Pass Filtered (Cut Off at 35 Hz) Time History
 Acceleration data in cm/sec**2
    
[...]
       0.234
       0.380
       0.457
       0.468
       0.420
       0.320
       0.188
       0.068
       0.012
       0.049
       0.163
       0.296
       0.388
       0.401
       0.335
       0.211
       0.053
      -0.119
      -0.290
      -0.443
      -0.564
      -0.644
      -0.671
      -0.633
      -0.528
      -0.376
      -0.209
      -0.048
       0.108
       0.265
       0.401
       0.470
       0.423
       0.250
       0.004
      -0.214
      -0.292
      -0.177
       0.087
       0.378
       0.553
       0.524
       0.299
      -0.034
      -0.361
      -0.590
      -0.670
      -0.606
      -0.443
      -0.256
      -0.113
      -0.050
      -0.055
      -0.070
      -0.029
       0.107
       0.319
       0.543
       0.702
       0.743
       0.653
       0.451
       0.174
      -0.128
      -0.405
      -0.610
      -0.704
      -0.662
      -0.484
      -0.211
       0.079
       0.301
       0.397
       0.360
       0.227
       0.057
      -0.093
      -0.183
      -0.194
      -0.128
      -0.007
       0.137
       0.268
       0.357
       0.393
       0.384
       0.353
       0.317
       0.276
       0.206
       0.080
      -0.107
      -0.317
      -0.493
      -0.603
      -0.661
      -0.702
      -0.741
      -0.741
      -0.637
      -0.390
      -0.024
       0.372
       0.684
       0.818
       0.744
       0.500
       0.175
      -0.135
      -0.359
      -0.469
      -0.468
      -0.366
      -0.183
       0.049
       0.273
       0.430
       0.483
       0.435
       0.318
       0.174
       0.039
      -0.060
      -0.104
      -0.090
      -0.033
       0.039
       0.098
       0.126
       0.128
       0.130
       0.160
       0.220
       0.274
       0.261
       0.132
      -0.115
      -0.425
      -0.694
      -0.811
      -0.704
      -0.387
       0.042
       0.438
       0.684
       0.745
       0.669
       0.545
       0.444
       0.398
       0.396
       0.400
       0.351
       0.194
      -0.097
      -0.479
      -0.851
      -1.098
      -1.156
      -1.040
      -0.816
      -0.553
      -0.283
      -0.010
       0.276
       0.562
       0.807
       0.957
       0.971
       0.845
       0.607
       0.297
      -0.049
      -0.386
      -0.648
      -0.770
      -0.719
      -0.531
      -0.300
      -0.126
      -0.062
      -0.088
      -0.137
      -0.151
      -0.125
      -0.106
      -0.145
      -0.249
      -0.355
      -0.366
      -0.215
       0.082
       0.420
       0.665
       0.724
       0.600
       0.372
       0.140
      -0.039
      -0.157
      -0.225
      -0.239
      -0.180
      -0.040
       0.153
       0.345
       0.491
       0.583
       0.642
       0.690
       0.712
       0.666
       0.515
       0.250
      -0.094
      -0.451
      -0.749
      -0.939
      -1.005
      -0.959
      -0.829
      -0.648
      -0.456
      -0.287
      -0.159
      -0.059
       0.036
       0.137
       0.236
       0.309
       0.345
       0.357
       0.368
       0.396
       0.439
       0.483
       0.509
       0.500
       0.441
       0.323
       0.158
      -0.018
      -0.159
      -0.231
      -0.235
      -0.204
      -0.172
      -0.150
      -0.128
      -0.099
      -0.075
      -0.085
      -0.147
      -0.245
      -0.335
      -0.368
      -0.324
      -0.228
      -0.133
      -0.086
      -0.103
      -0.160
      -0.214
      -0.230
      -0.197
      -0.133
      -0.068
      -0.028
      -0.015
      -0.004
       0.044
       0.161
       0.351
       0.570
       0.736
       0.774
       0.656
       0.426
       0.172
      -0.035
      -0.173
      -0.272
      -0.368
      -0.466
      -0.533
      -0.521
      -0.396
      -0.159
       0.140
       0.421
       0.593
       0.600
       0.447
       0.207
      -0.022
      -0.173
      -0.244
      -0.290
      -0.367
      -0.469
      -0.523
      -0.447
      -0.227
       0.061
       0.292
       0.375
       0.309
       0.171
       0.058
       0.028
       0.073
       0.139
       0.171
       0.135
       0.025
      -0.136
      -0.297
      -0.387
      -0.351
      -0.179
       0.070
       0.303
       0.436
       0.435
       0.330
       0.178
       0.038
      -0.059
      -0.110
      -0.123
      -0.097
      -0.029
       0.077
       0.188
       0.238
       0.169
      -0.035
      -0.317
      -0.577
      -0.726
      -0.738
      -0.643
      -0.492
      -0.310
      -0.095
       0.152
       0.393
       0.576
       0.669
       0.680
       0.633
       0.538
       0.382
       0.160
      -0.097
      -0.329
      -0.477
      -0.521
      -0.473
      -0.364
      -0.210
      -0.014
       0.214
       0.439
       0.600
       0.638
       0.527
       0.286
      -0.031
      -0.349
      -0.586
      -0.665
      -0.548
      -0.255
       0.119
       0.445
       0.611
       0.571
       0.365
       0.097
      -0.112
      -0.185
      -0.128
      -0.015
       0.061
       0.049
      -0.032
      -0.120
      -0.162
      -0.152
      -0.118
      -0.089
      -0.060
      -0.002
       0.105
       0.240
       0.354
       0.397
       0.354
       0.240
       0.086
      -0.084
      -0.257
      -0.424
      -0.561
      -0.638
      -0.621
      -0.493
      -0.266
       0.015
       0.273
       0.428
       0.434
       0.299
       0.088
      -0.095
      -0.156
      -0.063
       0.122
       0.269
       0.265
       0.097
      -0.134
      -0.282
      -0.251
      -0.051
       0.216
       0.412
       0.433
       0.255
      -0.058
      -0.391
      -0.636
      -0.737
      -0.691
      -0.529
      -0.303
      -0.079
       0.071
       0.097
       0.012
      -0.112
      -0.183
      -0.150
      -0.037
       0.087
       0.162
       0.178
       0.161
       0.134
       0.094
       0.022
      -0.081
      -0.179
      -0.215
      -0.147
       0.021
       0.235
       0.409
       0.468
       0.395
       0.243
       0.110
       0.074
       0.150
       0.279
       0.366
       0.339
       0.191
      -0.025
      -0.237
      -0.387
      -0.444
      -0.400
      -0.266
      -0.082
       0.095
       0.223
       0.298
       0.343
       0.380
       0.395
       0.352
       0.222
       0.020
      -0.186
      -0.308
      -0.285
      -0.120
       0.130
       0.382
       0.559
       0.608
       0.500
       0.256
      -0.054
      -0.333
      -0.517
      -0.601
      -0.615
      -0.584
      -0.505
      -0.372
      -0.189
       0.020
       0.237
       0.452
       0.655
       0.819
       0.906
       0.880
       0.735
       0.496
       0.214
      -0.056
      -0.256
      -0.345
      -0.302
      -0.143
       0.075
       0.264
       0.343
       0.276
       0.097
      -0.105
      -0.238
      -0.254
      -0.173
      -0.059
       0.030
       0.072
       0.080
       0.070
       0.044
      -0.012
      -0.104
      -0.214
      -0.296
      -0.304
      -0.233
      -0.129
      -0.060
      -0.050
      -0.046
       0.044
       0.249
       0.478
       0.571
       0.415
       0.039
      -0.408
      -0.765
      -0.950
      -0.967
      -0.861
      -0.677
      -0.461
      -0.264
      -0.125
      -0.050
      -0.013
       0.012
       0.014
      -0.037
      -0.153
      -0.310
      -0.457
      -0.558
      -0.600
      -0.575
      -0.473
      -0.296
      -0.088
       0.064
       0.081
      -0.043
      -0.222
      -0.327
      -0.280
      -0.106
       0.091
       0.215
       0.244
       0.229
       0.237
       0.294
       0.373
       0.422
       0.396
       0.272
       0.059
      -0.205
      -0.458
      -0.633
      -0.693
      -0.655
      -0.585
      -0.566
      -0.648
      -0.821
      -1.013
      -1.128
      -1.096
      -0.907
      -0.619
      -0.320
      -0.088
       0.051
       0.123
       0.181
       0.265
       0.379
       0.483
       0.528
       0.493
       0.417
       0.380
       0.450
       0.632
       0.858
       1.028
       1.085
       1.054
       1.026
       1.086
       1.254
       1.470
       1.639
       1.681
       1.559
       1.276
       0.868
       0.411
       0.013
      -0.231
      -0.283
      -0.189
      -0.050
       0.037
       0.017
      -0.117
      -0.330
      -0.558
      -0.725
      -0.773
      -0.702
      -0.572
      -0.461
      -0.408
      -0.379
      -0.304
      -0.142
       0.074
       0.264
       0.362
       0.372
       0.363
       0.406
       0.511
       0.617
       0.621
       0.456
       0.134
      -0.245
      -0.546
      -0.655
      -0.537
      -0.242
       0.110
       0.377
       0.446
       0.276
      -0.085
      -0.512
      -0.865
      -1.042
      -1.027
      -0.867
      -0.638
      -0.394
      -0.157
       0.076
       0.312
       0.549
       0.769
       0.946
       1.066
       1.139
       1.197
       1.267
       1.333
       1.326
       1.168
       0.834
       0.380
      -0.091
      -0.496
      -0.815
      -1.087
      -1.380
      -1.744
      -2.182
      -2.624
      -2.947
      -3.021
      -2.776
      -2.244
      -1.545
      -0.837
      -0.245
       0.180
       0.464
       0.668
       0.841
       0.991
       1.092
       1.123
       1.097
       1.058
       1.049
       1.068
       1.074
       1.014
       0.868
       0.659
       0.435
       0.251
       0.152
       0.162
       0.265
       0.407
       0.510
       0.507
       0.353
       0.026
      -0.468
      -1.072
      -1.658
      -2.065
      -2.166
      -1.921
      -1.384
      -0.659
       0.136
       0.868
       1.389
       1.563
       1.355
       0.886
       0.394
       0.093
       0.048
       0.146
       0.212
       0.152
       0.014
      -0.066
       0.007
       0.226
       0.496
       0.705
       0.780
       0.698
       0.485
       0.212
      -0.011
      -0.060
       0.148
       0.601
       1.173
       1.655
       1.840
       1.607
       0.980
       0.114
      -0.782
      -1.538
      -2.086
      -2.439
      -2.632
      -2.663
      -2.491
      -2.081
      -1.441
      -0.645
       0.178
       0.866
       1.268
       1.305
       1.023
       0.606
       0.286
       0.221
       0.411
       0.715
       0.950
       0.981
       0.757
       0.292
      -0.368
      -1.144
      -1.908
      -2.487
      -2.706
      -2.469
      -1.811
      -0.902
       0.022
       0.753
       1.199
       1.388
       1.411
       1.321
       1.086
       0.653
       0.039
      -0.603
      -1.047
      -1.106
      -0.733
      -0.033
       0.804
       1.575
       2.109
       2.290
       2.078
       1.525
       0.749
      -0.110
      -0.917
      -1.546
      -1.883
      -1.859
      -1.493
      -0.900
      -0.241
       0.348
       0.789
       1.044
       1.099
       0.971
       0.736
       0.507
       0.372
       0.331
       0.298
       0.178
      -0.061
      -0.371
      -0.663
      -0.866
      -0.940
      -0.865
      -0.631
      -0.251
       0.229
       0.730
       1.153
       1.376
       1.285
       0.845
       0.161
      -0.517
      -0.895
      -0.781
      -0.185
       0.680
       1.493
       1.956
       1.896
       1.328
       0.447
      -0.454
      -1.106
      -1.368
      -1.257
      -0.902
      -0.454
      -0.036
       0.258
       0.355
       0.205
      -0.179
      -0.676
      -1.068
      -1.144
      -0.829
      -0.263
       0.266
       0.487
       0.320
      -0.072
      -0.399
      -0.434
      -0.148
       0.294
       0.650
       0.742
       0.521
       0.050
      -0.545
      -1.117
      -1.514
      -1.602
      -1.306
      -0.654
       0.217
       1.099
       1.789
       2.154
       2.163
       1.870
       1.357
       0.698
      -0.056
      -0.852
      -1.622
      -2.286
      -2.779
      -3.061
      -3.108
      -2.898
      -2.425
      -1.722
      -0.875
      -0.007
       0.764
       1.337
       1.635
       1.611
       1.284
       0.762
       0.240
      -0.063
       0.012
       0.492
       1.249
       2.045
       2.629
       2.845
       2.693
       2.304
       1.836
       1.367
       0.875
       0.303
      -0.334
      -0.920
      -1.297
      -1.363
      -1.142
      -0.774
      -0.466
      -0.413
      -0.723
      -1.346
      -2.067
      -2.585
      -2.657
      -2.217
      -1.407
      -0.483
       0.310
       0.830
       1.057
       1.061
       0.969
       0.918
       0.991
       1.162
       1.290
       1.208
       0.841
       0.263
      -0.332
      -0.739
      -0.825
      -0.573
      -0.076
       0.491
       0.940
       1.148
       1.113
       0.939
       0.747
       0.590
       0.425
       0.190
      -0.119
      -0.415
      -0.581
      -0.559
      -0.416
      -0.316
      -0.409
      -0.724
      -1.136
      -1.435
      -1.452
      -1.143
      -0.611
      -0.045
       0.361
       0.482
       0.293
      -0.117
      -0.582
      -0.916
      -0.996
      -0.814
      -0.461
      -0.056
       0.324
       0.662
       0.973
       1.262
       1.506
       1.660
       1.679
       1.544
       1.270
       0.918
       0.584
       0.367
       0.327
       0.437
       0.580
       0.575
       0.250
      -0.476
      -1.534
      -2.708
      -3.699
      -4.219
      -4.093
      -3.317
      -2.063
      -0.619
       0.700
       1.646
       2.104
       2.118
       1.863
       1.583
       1.475
       1.592
       1.834
       2.018
       2.004
       1.777
       1.438
       1.120
       0.904
       0.777
       0.653
       0.431
       0.033
      -0.559
      -1.270
      -1.931
      -2.331
      -2.329
      -1.958
      -1.437
      -1.051
      -0.976
      -1.178
      -1.455
      -1.596
      -1.518
      -1.298
      -1.074
      -0.926
      -0.807
      -0.590
      -0.170
       0.444
       1.126
       1.704
       2.065
       2.203
       2.195
       2.126
       2.027
       1.866
       1.599
       1.220
       0.771
       0.304
      -0.165
      -0.666
      -1.223
      -1.795
      -2.271
      -2.517
      -2.466
      -2.142
      -1.647
      -1.098
      -0.584
      -0.153
       0.180
       0.430
       0.636
       0.850
       1.112
       1.435
       1.791
       2.123
       2.349
       2.379
       2.149
       1.663
       1.027
       0.414
      -0.024
      -0.243
      -0.329
      -0.433
      -0.666
      -1.034
      -1.442
      -1.769
      -1.941
      -1.946
      -1.821
      -1.611
      -1.347
      -1.039
      -0.700
      -0.377
      -0.157
      -0.123
      -0.282
      -0.528
      -0.697
      -0.664
      -0.421
      -0.067
       0.275
       0.534
       0.716
       0.866
       1.005
       1.124
       1.194
       1.185
       1.065
       0.801
       0.383
      -0.135
      -0.631
      -0.958
      -1.023
      -0.824
      -0.434
       0.043
       0.513
       0.914
       1.215
       1.418
       1.542
       1.602
       1.588
       1.470
       1.234
       0.910
       0.569
       0.274
       0.031
      -0.224
      -0.570
      -1.021
      -1.484
      -1.798
      -1.836
      -1.584
      -1.143
      -0.661
      -0.248
       0.072
       0.357
       0.697
       1.138
       1.623
       2.006
       2.120
       1.892
       1.388
       0.775
       0.227
      -0.170
      -0.436
      -0.657
      -0.909
      -1.207
      -1.496
      -1.693
      -1.736
      -1.633
      -1.461
      -1.306
      -1.208
      -1.131
      -0.993
      -0.726
      -0.324
       0.157
       0.620
       0.966
       1.122
       1.065
       0.828
       0.488
       0.133
      -0.179
      -0.422
      -0.572
      -0.574
      -0.363
       0.074
       0.639
       1.136
       1.367
       1.237
       0.797
       0.207
      -0.353
      -0.754
      -0.937
      -0.902
      -0.686
      -0.345
       0.046
       0.404
       0.655
       0.756
       0.712
       0.575
       0.431
       0.358
       0.394
       0.502
       0.585
       0.542
       0.334
       0.020
      -0.275
      -0.435
      -0.423
      -0.286
      -0.118
      -0.012
      -0.034
      -0.211
      -0.514
      -0.851
      -1.088
      -1.111
      -0.901
      -0.562
      -0.271
      -0.175
      -0.293
      -0.507
      -0.627
      -0.510
      -0.130
       0.409
       0.941
       1.335
       1.553
       1.646
       1.685
       1.697
       1.651
       1.503
       1.243
       0.904
       0.524
       0.108
      -0.360
      -0.872
      -1.346
      -1.641
      -1.633
      -1.301
      -0.766
      -0.244
       0.058
       0.053
      -0.184
      -0.460
      -0.577
      -0.431
      -0.071
       0.335
       0.583
       0.546
       0.234
      -0.213
      -0.605
      -0.808
      -0.810
      -0.702
      -0.605
      -0.587
      -0.633
      -0.668
      -0.621
      -0.468
      -0.238
       0.011
       0.219
       0.345
       0.377
       0.339
       0.296
       0.327
       0.482
       0.734
       0.968
       1.028
       0.796
       0.274
      -0.395
      -0.983
      -1.298
      -1.287
      -1.054
      -0.772
      -0.566
      -0.434
      -0.286
      -0.040
       0.301
       0.652
       0.926
       1.099
       1.208
       1.286
       1.312
       1.237
       1.042
       0.770
       0.491
       0.246
       0.034
      -0.153
      -0.300
      -0.387
      -0.440
      -0.534
      -0.736
      -1.028
      -1.298
      -1.415
      -1.318
      -1.054
      -0.734
      -0.460
      -0.281
      -0.185
      -0.127
      -0.061
       0.042
       0.184
       0.343
       0.487
       0.603
       0.721
       0.907
       1.204
       1.577
       1.900
       2.013
       1.817
       1.339
       0.721
       0.139
      -0.286
      -0.534
      -0.666
      -0.755
      -0.834
      -0.898
      -0.924
      -0.902
      -0.845
      -0.774
      -0.704
      -0.642
      -0.598
      -0.584
      -0.612
      -0.661
      -0.679
      -0.600
      -0.394
      -0.098
       0.186
       0.348
       0.338
       0.205
       0.058
      -0.005
       0.034
       0.119
       0.179
       0.189
       0.183
       0.220
       0.326
       0.476
       0.606
       0.650
       0.577
       0.404
       0.194
       0.033
      -0.012
       0.072
       0.217
       0.302
       0.218
      -0.058
      -0.434
      -0.747
      -0.865
      -0.764
      -0.540
      -0.344
      -0.283
      -0.352
      -0.450
      -0.442
      -0.255
       0.082
       0.460
       0.754
       0.895
       0.894
       0.809
       0.691
       0.549
       0.362
       0.119
      -0.162
      -0.438
      -0.671
      -0.834
      -0.910
      -0.875
      -0.711
      -0.419
      -0.041
       0.349
       0.665
       0.846
       0.874
       0.784
       0.653
       0.567
       0.593
       0.746
       0.974
       1.169
       1.217
       1.054
       0.700
       0.241
      -0.229
      -0.642
      -0.959
      -1.149
      -1.179
      -1.043
