Origin Time       6/9/2008 05:47:33  
Lat.              36.7 N 
Long.             70.6 E 
Depth (Km)        160.0
Magnitude         5.8
 Region           HINDUKUS-AFGHANISTAN                                             
 Above details taken from IMD 
     
Station Code      KUL
Station Lat.       31.951  N
Station Long.      77.112  E
Station Height(m) 1234.0
Site Class        A   Vs30 between 700 m/sec to 1400 m/sec * 
Record Time       06.09.2008 05:50:18.429
Sampling Rate     200. Hz
 Record Duration   68.300 Sec.
 Direction         E-W (E positive)
Max. Acceleration     -2.985 cm/sec**2
     
  * For reference see Site Classification link of website 
     
 Base Line Corrected and Low Pass Filtered (Cut Off at 35 Hz) Time History
 Acceleration data in cm/sec**2
    
[...]
      -0.017
      -0.021
      -0.014
       0.008
       0.039
       0.066
       0.078
       0.076
       0.069
       0.069
       0.075
       0.084
       0.094
       0.108
       0.121
       0.127
       0.122
       0.107
       0.091
       0.079
       0.072
       0.071
       0.075
       0.080
       0.084
       0.085
       0.084
       0.088
       0.099
       0.118
       0.140
       0.154
       0.152
       0.128
       0.092
       0.062
       0.051
       0.058
       0.070
       0.078
       0.078
       0.073
       0.065
       0.060
       0.065
       0.082
       0.101
       0.108
       0.102
       0.092
       0.088
       0.087
       0.087
       0.086
       0.092
       0.110
       0.131
       0.145
       0.148
       0.144
       0.141
       0.142
       0.147
       0.157
       0.169
       0.176
       0.175
       0.164
       0.145
       0.116
       0.075
       0.026
      -0.024
      -0.067
      -0.103
      -0.131
      -0.152
      -0.162
      -0.157
      -0.143
      -0.128
      -0.117
      -0.105
      -0.085
      -0.057
      -0.025
      -0.001
       0.010
       0.007
      -0.003
      -0.011
      -0.013
      -0.011
      -0.012
      -0.018
      -0.029
      -0.041
      -0.056
      -0.074
      -0.097
      -0.118
      -0.131
      -0.133
      -0.123
      -0.107
      -0.092
      -0.084
      -0.085
      -0.087
      -0.083
      -0.067
      -0.040
      -0.011
       0.012
       0.025
       0.026
       0.022
       0.018
       0.018
       0.018
       0.020
       0.024
       0.032
       0.044
       0.053
       0.053
       0.040
       0.022
       0.011
       0.011
       0.014
       0.012
      -0.001
      -0.022
      -0.042
      -0.050
      -0.039
      -0.011
       0.021
       0.043
       0.056
       0.072
       0.097
       0.126
       0.146
       0.148
       0.133
       0.108
       0.077
       0.043
       0.014
      -0.003
      -0.004
       0.002
      -0.005
      -0.031
      -0.065
      -0.086
      -0.088
      -0.088
      -0.104
      -0.136
      -0.165
      -0.176
      -0.171
      -0.159
      -0.142
      -0.120
      -0.097
      -0.081
      -0.072
      -0.059
      -0.030
       0.009
       0.044
       0.062
       0.062
       0.050
       0.035
       0.023
       0.017
       0.012
      -0.001
      -0.034
      -0.082
      -0.127
      -0.151
      -0.147
      -0.125
      -0.104
      -0.095
      -0.098
      -0.106
      -0.112
      -0.109
      -0.099
      -0.089
      -0.085
      -0.094
      -0.111
      -0.125
      -0.128
      -0.114
      -0.085
      -0.049
      -0.015
       0.009
       0.023
       0.028
       0.031
       0.037
       0.045
       0.054
       0.059
       0.056
       0.047
       0.038
       0.033
       0.032
       0.028
       0.018
       0.002
      -0.015
      -0.025
      -0.024
      -0.013
       0.004
       0.020
       0.030
       0.031
       0.026
       0.021
       0.021
       0.026
       0.031
       0.030
       0.023
       0.015
       0.012
       0.018
       0.031
       0.047
       0.061
       0.076
       0.097
       0.124
       0.153
       0.175
       0.190
       0.203
       0.215
       0.225
       0.225
       0.212
       0.193
       0.179
       0.176
       0.180
       0.185
       0.186
       0.183
       0.183
       0.192
       0.210
       0.230
       0.247
       0.255
       0.254
       0.242
       0.219
       0.190
       0.156
       0.121
       0.088
       0.063
       0.048
       0.038
       0.026
       0.016
       0.015
       0.028
       0.047
       0.066
       0.079
       0.085
       0.080
       0.056
       0.017
      -0.027
      -0.061
      -0.082
      -0.093
      -0.104
      -0.122
      -0.150
      -0.186
      -0.220
      -0.242
      -0.246
      -0.239
      -0.230
      -0.224
      -0.217
      -0.204
      -0.189
      -0.181
      -0.184
      -0.197
      -0.212
      -0.224
      -0.234
      -0.245
      -0.258
      -0.276
      -0.303
      -0.338
      -0.374
      -0.400
      -0.410
      -0.409
      -0.402
      -0.393
      -0.378
      -0.353
      -0.317
      -0.276
      -0.235
      -0.195
      -0.155
      -0.111
      -0.068
      -0.031
      -0.003
       0.020
       0.047
       0.081
       0.119
       0.153
       0.176
       0.184
       0.178
       0.161
       0.137
       0.109
       0.074
       0.026
      -0.040
      -0.120
      -0.209
      -0.295
      -0.373
      -0.441
      -0.499
      -0.547
      -0.587
      -0.620
      -0.646
      -0.661
      -0.661
      -0.643
      -0.606
      -0.553
      -0.490
      -0.421
      -0.351
      -0.281
      -0.216
      -0.154
      -0.094
      -0.032
       0.033
       0.097
       0.156
       0.204
       0.242
       0.266
       0.279
       0.282
       0.278
       0.272
       0.266
       0.257
       0.239
       0.207
       0.162
       0.112
       0.072
       0.053
       0.052
       0.058
       0.063
       0.073
       0.097
       0.137
       0.184
       0.228
       0.271
       0.316
       0.361
       0.401
       0.440
       0.484
       0.533
       0.575
       0.597
       0.594
       0.577
       0.558
       0.543
       0.534
       0.527
       0.520
       0.514
       0.508
       0.502
       0.495
       0.488
       0.483
       0.480
       0.481
       0.485
       0.492
       0.496
       0.495
       0.488
       0.480
       0.471
       0.457
       0.433
       0.400
       0.365
       0.333
       0.305
       0.278
       0.247
       0.212
       0.175
       0.138
       0.102
       0.065
       0.029
      -0.010
      -0.053
      -0.103
      -0.158
      -0.214
      -0.266
      -0.311
      -0.350
      -0.384
      -0.415
      -0.443
      -0.466
      -0.478
      -0.478
      -0.471
      -0.464
      -0.464
      -0.474
      -0.486
      -0.489
      -0.474
      -0.435
      -0.380
      -0.322
      -0.274
      -0.245
      -0.234
      -0.239
      -0.256
      -0.286
      -0.333
      -0.395
      -0.466
      -0.536
      -0.594
      -0.633
      -0.652
      -0.650
      -0.627
      -0.583
      -0.519
      -0.439
      -0.347
      -0.247
      -0.141
      -0.034
       0.072
       0.172
       0.267
       0.352
       0.424
       0.481
       0.526
       0.563
       0.600
       0.643
       0.693
       0.748
       0.800
       0.842
       0.865
       0.862
       0.835
       0.789
       0.731
       0.662
       0.579
       0.477
       0.359
       0.238
       0.134
       0.064
       0.031
       0.022
       0.027
       0.045
       0.086
       0.149
       0.217
       0.271
       0.306
       0.333
       0.364
       0.398
       0.428
       0.445
       0.446
       0.429
       0.393
       0.344
       0.290
       0.234
       0.169
       0.087
      -0.014
      -0.128
      -0.246
      -0.360
      -0.465
      -0.551
      -0.612
      -0.646
      -0.663
      -0.674
      -0.687
      -0.701
      -0.715
      -0.729
      -0.744
      -0.763
      -0.789
      -0.817
      -0.841
      -0.855
      -0.857
      -0.856
      -0.865
      -0.896
      -0.942
      -0.989
      -1.022
      -1.037
      -1.039
      -1.031
      -1.011
      -0.977
      -0.925
      -0.853
      -0.764
      -0.664
      -0.565
      -0.472
      -0.382
      -0.288
      -0.186
      -0.087
      -0.001
       0.069
       0.130
       0.189
       0.251
       0.318
       0.393
       0.474
       0.555
       0.627
       0.681
       0.714
       0.723
       0.711
       0.683
       0.649
       0.615
       0.581
       0.543
       0.499
       0.456
       0.425
       0.414
       0.419
       0.429
       0.437
       0.443
       0.456
       0.480
       0.511
       0.539
       0.552
       0.543
       0.513
       0.466
       0.410
       0.349
       0.283
       0.208
       0.119
       0.019
      -0.079
      -0.159
      -0.211
      -0.234
      -0.236
      -0.226
      -0.208
      -0.181
      -0.144
      -0.101
      -0.059
      -0.027
      -0.008
      -0.003
      -0.007
      -0.021
      -0.049
      -0.096
      -0.160
      -0.234
      -0.307
      -0.372
      -0.428
      -0.479
      -0.526
      -0.561
      -0.574
      -0.557
      -0.515
      -0.459
      -0.406
      -0.363
      -0.327
      -0.288
      -0.234
      -0.159
      -0.069
       0.026
       0.117
       0.196
       0.263
       0.320
       0.365
       0.398
       0.424
       0.449
       0.477
       0.500
       0.506
       0.486
       0.445
       0.394
       0.342
       0.290
       0.237
       0.183
       0.134
       0.094
       0.068
       0.063
       0.084
       0.130
       0.195
       0.267
       0.340
       0.411
       0.480
       0.545
       0.596
       0.627
       0.633
       0.617
       0.586
       0.552
       0.525
       0.508
       0.495
       0.481
       0.465
       0.454
       0.456
       0.476
       0.511
       0.553
       0.597
       0.639
       0.677
       0.703
       0.710
       0.699
       0.675
       0.645
       0.615
       0.587
       0.561
       0.536
       0.505
       0.464
       0.417
       0.376
       0.357
       0.369
       0.404
       0.450
       0.492
       0.528
       0.557
       0.580
       0.592
       0.584
       0.546
       0.475
       0.374
       0.253
       0.123
      -0.004
      -0.125
      -0.242
      -0.364
      -0.498
      -0.642
      -0.791
      -0.936
      -1.067
      -1.177
      -1.262
      -1.321
      -1.354
      -1.359
      -1.336
      -1.285
      -1.208
      -1.112
      -1.006
      -0.899
      -0.798
      -0.704
      -0.615
      -0.527
      -0.442
      -0.366
      -0.313
      -0.296
      -0.323
      -0.395
      -0.505
      -0.644
      -0.808
      -0.990
      -1.186
      -1.382
      -1.565
      -1.723
      -1.849
      -1.940
      -1.993
      -2.001
      -1.961
      -1.879
      -1.764
      -1.628
      -1.475
      -1.308
      -1.129
      -0.939
      -0.737
      -0.524
      -0.309
      -0.103
       0.082
       0.243
       0.384
       0.515
       0.638
       0.749
       0.833
       0.880
       0.882
       0.840
       0.761
       0.650
       0.517
       0.365
       0.199
       0.025
      -0.151
      -0.313
      -0.444
      -0.533
      -0.578
      -0.582
      -0.546
      -0.463
      -0.327
      -0.145
       0.061
       0.264
       0.451
       0.621
       0.783
       0.933
       1.058
       1.137
       1.161
       1.126
       1.037
       0.906
       0.750
       0.587
       0.432
       0.296
       0.180
       0.081
      -0.004
      -0.075
      -0.122
      -0.133
      -0.100
      -0.020
       0.099
       0.248
       0.415
       0.591
       0.772
       0.960
       1.155
       1.352
       1.543
       1.718
       1.872
       1.999
       2.099
       2.173
       2.227
       2.267
       2.296
       2.315
       2.319
       2.300
       2.253
       2.178
       2.079
       1.964
       1.836
       1.693
       1.537
       1.371
       1.205
       1.043
       0.888
       0.741
       0.604
       0.475
       0.350
       0.228
       0.112
       0.008
      -0.075
      -0.132
      -0.166
      -0.184
      -0.194
      -0.206
      -0.226
      -0.255
      -0.289
      -0.325
      -0.361
      -0.401
      -0.453
      -0.523
      -0.618
      -0.738
      -0.876
      -1.019
      -1.155
      -1.281
      -1.400
      -1.519
      -1.642
      -1.763
      -1.870
      -1.952
      -2.006
      -2.033
      -2.042
      -2.039
      -2.028
      -2.011
      -1.986
      -1.943
      -1.871
      -1.761
      -1.618
      -1.456
      -1.292
      -1.144
      -1.025
      -0.946
      -0.912
      -0.920
      -0.962
      -1.026
      -1.095
      -1.158
      -1.203
      -1.228
      -1.232
      -1.220
      -1.201
      -1.184
      -1.180
      -1.195
      -1.232
      -1.290
      -1.359
      -1.423
      -1.470
      -1.490
      -1.476
      -1.415
      -1.295
      -1.114
      -0.888
      -0.646
      -0.412
      -0.194
       0.014
       0.217
       0.416
       0.607
       0.790
       0.966
       1.130
       1.263
       1.349
       1.385
       1.385
       1.367
       1.338
       1.294
       1.234
       1.163
       1.097
       1.056
       1.053
       1.086
       1.140
       1.196
       1.243
       1.288
       1.343
       1.415
       1.496
       1.568
       1.616
       1.638
       1.640
       1.634
       1.630
       1.632
       1.642
       1.659
       1.678
       1.693
       1.696
       1.683
       1.657
       1.618
       1.562
       1.475
       1.344
       1.167
       0.954
       0.724
       0.499
       0.299
       0.136
       0.013
      -0.081
      -0.158
      -0.220
      -0.255
      -0.252
      -0.210
      -0.143
      -0.069
       0.000
       0.067
       0.138
       0.220
       0.313
       0.410
       0.498
       0.564
       0.596
       0.590
       0.554
       0.496
       0.422
       0.328
       0.204
       0.042
      -0.160
      -0.397
      -0.659
      -0.939
      -1.237
      -1.554
      -1.885
      -2.211
      -2.502
      -2.730
      -2.882
      -2.963
      -2.985
      -2.959
      -2.884
      -2.758
      -2.588
      -2.395
      -2.199
      -2.013
      -1.831
      -1.640
      -1.429
      -1.203
      -0.980
      -0.783
      -0.630
      -0.530
      -0.475
      -0.453
      -0.454
      -0.476
      -0.531
      -0.625
      -0.751
      -0.885
      -1.000
      -1.080
      -1.120
      -1.127
      -1.111
      -1.077
      -1.023
      -0.935
      -0.801
      -0.613
      -0.372
      -0.090
       0.214
       0.522
       0.824
       1.118
       1.406
       1.686
       1.946
       2.167
       2.330
       2.430
       2.472
       2.471
       2.434
       2.366
       2.262
       2.120
       1.939
       1.726
       1.494
       1.263
       1.056
       0.889
       0.771
       0.700
       0.672
       0.688
       0.751
       0.860
       1.006
       1.174
       1.354
       1.544
       1.746
       1.957
       2.167
       2.361
       2.526
       2.650
       2.721
       2.721
       2.638
       2.463
       2.202
       1.869
       1.492
       1.099
       0.715
       0.354
       0.019
      -0.292
      -0.574
      -0.811
      -0.984
      -1.083
      -1.110
      -1.083
      -1.019
      -0.932
      -0.825
      -0.702
      -0.569
      -0.436
      -0.311
      -0.203
      -0.115
      -0.045
       0.012
       0.060
       0.097
       0.113
       0.090
       0.017
      -0.102
      -0.250
      -0.408
      -0.569
      -0.737
      -0.917
      -1.111
      -1.314
      -1.527
      -1.748
      -1.969
      -2.168
      -2.313
      -2.379
      -2.357
      -2.258
      -2.100
      -1.904
      -1.684
      -1.450
      -1.213
      -0.987
      -0.787
      -0.630
      -0.527
      -0.481
      -0.479
      -0.508
      -0.558
      -0.626
      -0.713
      -0.818
      -0.937
      -1.061
      -1.179
      -1.281
      -1.362
      -1.417
      -1.444
      -1.439
      -1.399
      -1.325
      -1.228
      -1.120
      -1.008
      -0.894
      -0.776
      -0.650
      -0.522
      -0.399
      -0.292
      -0.203
      -0.123
      -0.033
       0.085
       0.237
       0.416
       0.603
       0.780
       0.932
       1.053
       1.146
       1.209
       1.242
       1.243
       1.219
       1.185
       1.158
       1.150
       1.163
       1.194
       1.241
       1.302
       1.375
       1.454
       1.529
       1.590
       1.627
       1.642
       1.640
       1.627
       1.603
       1.566
       1.509
       1.426
       1.316
       1.179
       1.020
       0.841
       0.641
       0.416
       0.160
      -0.124
      -0.424
      -0.722
      -0.996
      -1.230
      -1.423
      -1.582
      -1.722
      -1.850
      -1.962
      -2.039
      -2.061
      -2.014
      -1.898
      -1.722
      -1.503
      -1.260
      -1.019
      -0.801
      -0.619
      -0.474
      -0.359
      -0.267
      -0.188
      -0.112
      -0.032
       0.056
       0.151
       0.247
       0.345
       0.442
       0.531
       0.602
       0.643
       0.649
       0.625
       0.584
       0.539
       0.500
       0.474
       0.464
       0.468
       0.486
       0.514
       0.553
       0.606
       0.675
       0.761
       0.864
       0.988
       1.139
       1.322
       1.535
       1.769
       2.012
       2.250
       2.468
       2.648
       2.767
       2.813
       2.778
       2.668
       2.489
       2.249
       1.957
       1.627
       1.281
       0.940
       0.623
       0.341
       0.098
      -0.102
      -0.258
      -0.371
      -0.443
      -0.471
      -0.458
      -0.409
      -0.336
      -0.251
      -0.163
      -0.073
       0.020
       0.115
       0.206
       0.279
       0.319
       0.304
       0.219
       0.059
      -0.161
      -0.416
      -0.672
      -0.906
      -1.111
      -1.294
      -1.465
      -1.629
      -1.782
      -1.920
      -2.042
      -2.153
      -2.259
      -2.359
      -2.449
      -2.521
      -2.572
      -2.602
      -2.614
      -2.609
      -2.583
      -2.526
      -2.434
      -2.307
      -2.159
      -2.008
      -1.866
      -1.742
      -1.638
      -1.550
      -1.468
      -1.380
      -1.273
      -1.139
      -0.984
      -0.817
      -0.655
      -0.511
      -0.391
      -0.298
      -0.221
      -0.147
      -0.059
       0.052
       0.180
       0.309
       0.422
       0.510
       0.575
       0.622
       0.655
       0.670
       0.666
       0.641
       0.598
       0.538
       0.461
       0.371
       0.281
       0.213
       0.190
       0.218
       0.282
       0.358
       0.422
       0.463
       0.481
       0.480
       0.467
       0.447
       0.430
       0.425
       0.439
       0.473
       0.518
       0.558
       0.582
       0.583
       0.556
       0.500
       0.406
       0.265
       0.079
      -0.138
      -0.362
      -0.566
      -0.729
      -0.838
      -0.887
      -0.884
      -0.843
      -0.786
      -0.718
      -0.628
      -0.492
      -0.291
      -0.026
       0.283
       0.612
       0.938
       1.245
       1.526
       1.779
       2.003
       2.198
       2.361
       2.482
       2.545
       2.536
       2.452
       2.311
       2.147
       1.995
       1.874
       1.783
       1.711
       1.653
       1.612
       1.591
       1.581
       1.570
       1.547
       1.513
       1.478
       1.450
       1.427
       1.398
       1.343
       1.251
       1.123
       0.969
       0.799
       0.616
       0.419
       0.214
       0.007
      -0.198
      -0.403
      -0.605
      -0.790
      -0.936
      -1.029
      -1.079
      -1.104
      -1.127
      -1.163
      -1.216
      -1.282
      -1.349
      -1.402
      -1.429
      -1.421
      -1.374
      -1.292
