Origin Time       21/9/2009 9:43:47	 
Lat.              30.9 N	
Long.             79.1 E	
Depth (Km)         13.0
Magnitude         4.7
 Region           UTTARKASHI-UTTARAKHAND                                           
 Above details taken from IMD 
   
Station Code      LAN
Station Lat.       29.840
Station Long.      78.680
Station Height(m) 1655.0
Site Class        A   Vs30 between 700 m/sec to 1400 m/sec * 
Record Time       21.09.2009 09:44:13.984
Sampling Rate     200. Hz
 Record Duration   65.005 Sec.
 Direction         Vert. (Up positive)
Max. Acceleration     -1.645 cm/sec**2
     
  * For reference see Site Classification link of website 
     
 Base Line Corrected and Low Pass Filtered (Cut Off at 35 Hz) Time History
 Acceleration data in cm/sec**2
    
[...]
       0.116
       0.118
       0.084
       0.046
       0.023
       0.006
      -0.024
      -0.073
      -0.115
      -0.116
      -0.056
       0.052
       0.176
       0.283
       0.356
       0.391
       0.399
       0.395
       0.389
       0.388
       0.384
       0.363
       0.302
       0.186
       0.029
      -0.125
      -0.218
      -0.222
      -0.153
      -0.064
       0.000
       0.025
       0.033
       0.053
       0.093
       0.137
       0.152
       0.113
       0.016
      -0.122
      -0.270
      -0.397
      -0.479
      -0.512
      -0.501
      -0.454
      -0.374
      -0.265
      -0.133
       0.001
       0.120
       0.213
       0.283
       0.339
       0.389
       0.425
       0.427
       0.368
       0.236
       0.058
      -0.104
      -0.190
      -0.183
      -0.124
      -0.083
      -0.105
      -0.179
      -0.245
      -0.239
      -0.140
       0.017
       0.155
       0.200
       0.125
      -0.035
      -0.203
      -0.302
      -0.302
      -0.235
      -0.166
      -0.141
      -0.156
      -0.159
      -0.092
       0.067
       0.283
       0.474
       0.561
       0.516
       0.383
       0.252
       0.195
       0.213
       0.252
       0.249
       0.179
       0.061
      -0.074
      -0.199
      -0.288
      -0.323
      -0.300
      -0.231
      -0.139
      -0.047
       0.028
       0.074
       0.080
       0.042
      -0.033
      -0.127
      -0.211
      -0.261
      -0.272
      -0.257
      -0.241
      -0.235
      -0.226
      -0.193
      -0.137
      -0.080
      -0.052
      -0.052
      -0.049
      -0.010
       0.069
       0.153
       0.203
       0.205
       0.178
       0.152
       0.151
       0.176
       0.222
       0.283
       0.353
       0.414
       0.437
       0.398
       0.296
       0.155
       0.016
      -0.079
      -0.102
      -0.053
       0.047
       0.158
       0.239
       0.252
       0.184
       0.058
      -0.076
      -0.174
      -0.227
      -0.255
      -0.281
      -0.315
      -0.349
      -0.375
      -0.398
      -0.421
      -0.441
      -0.429
      -0.357
      -0.222
      -0.059
       0.084
       0.167
       0.181
       0.138
       0.066
       0.005
      -0.011
       0.034
       0.125
       0.224
       0.292
       0.315
       0.309
       0.309
       0.333
       0.364
       0.363
       0.304
       0.200
       0.089
       0.002
      -0.063
      -0.138
      -0.244
      -0.375
      -0.497
      -0.578
      -0.601
      -0.563
      -0.472
      -0.337
      -0.178
      -0.024
       0.099
       0.175
       0.210
       0.222
       0.230
       0.237
       0.235
       0.217
       0.183
       0.143
       0.113
       0.100
       0.101
       0.109
       0.121
       0.139
       0.166
       0.202
       0.244
       0.286
       0.312
       0.300
       0.234
       0.115
      -0.033
      -0.172
      -0.273
      -0.325
      -0.342
      -0.349
      -0.362
      -0.385
      -0.405
      -0.407
      -0.384
      -0.344
      -0.294
      -0.236
      -0.167
      -0.092
      -0.027
       0.003
      -0.016
      -0.074
      -0.136
      -0.155
      -0.092
       0.058
       0.256
       0.431
       0.520
       0.500
       0.402
       0.290
       0.216
       0.198
       0.209
       0.202
       0.141
       0.026
      -0.111
      -0.227
      -0.290
      -0.294
      -0.252
      -0.183
      -0.108
      -0.038
       0.021
       0.069
       0.107
       0.146
       0.193
       0.245
       0.289
       0.302
       0.269
       0.194
       0.094
      -0.006
      -0.091
      -0.163
      -0.228
      -0.297
      -0.373
      -0.449
      -0.504
      -0.513
      -0.461
      -0.359
      -0.240
      -0.138
      -0.070
      -0.028
       0.006
       0.040
       0.070
       0.085
       0.083
       0.073
       0.070
       0.085
       0.107
       0.118
       0.106
       0.078
       0.057
       0.062
       0.101
       0.163
       0.215
       0.228
       0.188
       0.110
       0.040
       0.026
       0.084
       0.191
       0.300
       0.376
       0.409
       0.414
       0.410
       0.408
       0.419
       0.445
       0.473
       0.471
       0.416
       0.308
       0.172
       0.040
      -0.072
      -0.173
      -0.284
      -0.417
      -0.569
      -0.724
      -0.867
      -0.988
      -1.086
      -1.162
      -1.217
      -1.241
      -1.221
      -1.138
      -0.982
      -0.760
      -0.489
      -0.203
       0.065
       0.291
       0.472
       0.616
       0.731
       0.816
       0.875
       0.916
       0.946
       0.970
       0.981
       0.968
       0.928
       0.864
       0.786
       0.701
       0.604
       0.490
       0.352
       0.199
       0.046
      -0.084
      -0.163
      -0.170
      -0.103
       0.012
       0.133
       0.214
       0.223
       0.147
      -0.007
      -0.211
      -0.426
      -0.613
      -0.761
      -0.879
      -0.991
      -1.107
      -1.215
      -1.287
      -1.299
      -1.245
      -1.135
      -0.981
      -0.790
      -0.564
      -0.311
      -0.047
       0.205
       0.422
       0.590
       0.708
       0.790
       0.858
       0.934
       1.032
       1.147
       1.244
       1.277
       1.205
       1.022
       0.764
       0.491
       0.253
       0.070
      -0.072
      -0.195
      -0.310
      -0.408
      -0.470
      -0.485
      -0.454
      -0.392
      -0.312
      -0.223
      -0.123
      -0.019
       0.080
       0.161
       0.215
       0.244
       0.255
       0.262
       0.265
       0.250
       0.187
       0.045
      -0.176
      -0.443
      -0.690
      -0.851
      -0.896
      -0.840
      -0.726
      -0.598
      -0.469
      -0.328
      -0.160
       0.029
       0.218
       0.377
       0.492
       0.560
       0.583
       0.557
       0.472
       0.332
       0.158
      -0.016
      -0.162
      -0.272
      -0.357
      -0.428
      -0.486
      -0.519
      -0.518
      -0.490
      -0.453
      -0.420
      -0.388
      -0.329
      -0.218
      -0.050
       0.146
       0.327
       0.457
       0.522
       0.537
       0.523
       0.499
       0.471
       0.441
       0.407
       0.372
       0.337
       0.304
       0.277
       0.254
       0.224
       0.175
       0.105
       0.030
      -0.012
       0.010
       0.098
       0.217
       0.313
       0.340
       0.280
       0.139
      -0.052
      -0.244
      -0.380
      -0.412
      -0.329
      -0.174
      -0.026
       0.033
      -0.035
      -0.204
      -0.405
      -0.570
      -0.666
      -0.703
      -0.706
      -0.690
      -0.653
      -0.581
      -0.460
      -0.282
      -0.048
       0.228
       0.511
       0.749
       0.886
       0.892
       0.779
       0.592
       0.384
       0.190
       0.025
      -0.110
      -0.216
      -0.285
      -0.304
      -0.268
      -0.184
      -0.075
       0.028
       0.098
       0.126
       0.132
       0.154
       0.222
       0.329
       0.429
       0.459
       0.381
       0.207
       0.005
      -0.150
      -0.218
      -0.206
      -0.151
      -0.090
      -0.035
       0.019
       0.078
       0.135
       0.176
       0.188
       0.176
       0.154
       0.139
       0.140
       0.153
       0.167
       0.166
       0.139
       0.085
       0.019
      -0.028
      -0.035
      -0.010
       0.007
      -0.027
      -0.134
      -0.289
      -0.448
      -0.573
      -0.652
      -0.686
      -0.676
      -0.607
      -0.471
      -0.292
      -0.123
      -0.013
       0.032
       0.049
       0.085
       0.156
       0.240
       0.299
       0.321
       0.316
       0.305
       0.288
       0.248
       0.171
       0.075
       0.016
       0.049
       0.189
       0.392
       0.572
       0.650
       0.598
       0.449
       0.282
       0.178
       0.174
       0.244
       0.310
       0.294
       0.164
      -0.035
      -0.211
      -0.280
      -0.224
      -0.109
      -0.035
      -0.070
      -0.205
      -0.366
      -0.469
      -0.478
      -0.420
      -0.351
      -0.316
      -0.331
      -0.378
      -0.434
      -0.472
      -0.476
      -0.439
      -0.374
      -0.305
      -0.257
      -0.236
      -0.228
      -0.208
      -0.155
      -0.065
       0.050
       0.172
       0.289
       0.389
       0.457
       0.473
       0.427
       0.330
       0.218
       0.135
       0.110
       0.146
       0.224
       0.328
       0.448
       0.581
       0.708
       0.794
       0.804
       0.732
       0.613
       0.502
       0.441
       0.425
       0.400
       0.292
       0.057
      -0.282
      -0.640
      -0.905
      -0.986
      -0.865
      -0.609
      -0.334
      -0.141
      -0.066
      -0.073
      -0.098
      -0.098
      -0.071
      -0.043
      -0.032
      -0.033
      -0.031
      -0.024
      -0.035
      -0.087
      -0.173
      -0.239
      -0.207
      -0.032
       0.258
       0.562
       0.762
       0.797
       0.691
       0.536
       0.432
       0.422
       0.473
       0.495
       0.399
       0.155
      -0.183
      -0.505
      -0.712
      -0.772
      -0.738
      -0.696
      -0.702
      -0.746
      -0.765
      -0.700
      -0.537
      -0.322
      -0.128
      -0.008
       0.029
       0.009
      -0.031
      -0.068
      -0.094
      -0.109
      -0.109
      -0.082
      -0.015
       0.099
       0.254
       0.426
       0.579
       0.669
       0.666
       0.557
       0.359
       0.104
      -0.164
      -0.408
      -0.605
      -0.735
      -0.789
      -0.761
      -0.659
      -0.507
      -0.337
      -0.179
      -0.053
       0.030
       0.063
       0.044
      -0.023
      -0.133
      -0.277
      -0.454
      -0.657
      -0.864
      -1.025
      -1.082
      -0.995
      -0.769
      -0.460
      -0.151
       0.087
       0.227
       0.289
       0.311
       0.318
       0.304
       0.239
       0.098
      -0.115
      -0.362
      -0.586
      -0.741
      -0.805
      -0.781
      -0.690
      -0.557
      -0.410
      -0.257
      -0.090
       0.103
       0.318
       0.519
       0.645
       0.645
       0.506
       0.260
      -0.026
      -0.276
      -0.421
      -0.425
      -0.295
      -0.083
       0.132
       0.272
       0.299
       0.224
       0.099
      -0.016
      -0.077
      -0.072
      -0.024
       0.029
       0.055
       0.051
       0.039
       0.058
       0.144
       0.316
       0.569
       0.872
       1.169
       1.390
       1.477
       1.413
       1.235
       1.016
       0.831
       0.719
       0.672
       0.642
       0.561
       0.380
       0.092
      -0.251
      -0.559
      -0.753
      -0.811
      -0.774
      -0.704
      -0.635
      -0.558
      -0.442
      -0.285
      -0.127
      -0.027
      -0.016
      -0.072
      -0.134
      -0.145
      -0.091
      -0.009
       0.046
       0.040
      -0.022
      -0.097
      -0.135
      -0.100
       0.014
       0.180
       0.357
       0.494
       0.554
       0.531
       0.464
       0.420
       0.456
       0.584
       0.759
       0.913
       1.005
       1.046
       1.086
       1.168
       1.283
       1.360
       1.309
       1.077
       0.680
       0.197
      -0.269
      -0.642
      -0.897
      -1.055
      -1.148
      -1.193
      -1.179
      -1.080
      -0.894
      -0.663
      -0.460
      -0.352
      -0.356
      -0.427
      -0.493
      -0.502
      -0.450
      -0.373
      -0.307
      -0.261
      -0.212
      -0.123
       0.029
       0.245
       0.509
       0.799
       1.094
       1.359
       1.549
       1.621
       1.557
       1.391
       1.190
       1.031
       0.951
       0.934
       0.922
       0.851
       0.677
       0.388
       0.015
      -0.379
      -0.718
      -0.952
      -1.078
      -1.142
      -1.204
      -1.290
      -1.379
      -1.420
      -1.365
      -1.205
      -0.973
      -0.719
      -0.483
      -0.277
      -0.092
       0.085
       0.255
       0.395
       0.468
       0.439
       0.300
       0.086
      -0.134
      -0.284
      -0.324
      -0.266
      -0.166
      -0.080
      -0.034
      -0.011
       0.025
       0.097
       0.188
       0.252
       0.241
       0.132
      -0.060
      -0.298
      -0.537
      -0.742
      -0.897
      -1.003
      -1.065
      -1.077
      -1.021
      -0.880
      -0.656
      -0.380
      -0.110
       0.096
       0.201
       0.195
       0.095
      -0.071
      -0.261
      -0.430
      -0.536
      -0.559
      -0.504
      -0.399
      -0.280
      -0.176
      -0.100
      -0.045
       0.013
       0.109
       0.267
       0.477
       0.687
       0.819
       0.813
       0.663
       0.423
       0.171
      -0.030
      -0.161
      -0.235
      -0.274
      -0.285
      -0.263
      -0.203
      -0.122
      -0.050
      -0.004
       0.031
       0.094
       0.213
       0.371
       0.512
       0.584
       0.582
       0.553
       0.569
       0.666
       0.827
       0.990
       1.087
       1.085
       1.000
       0.885
       0.800
       0.772
       0.788
       0.798
       0.749
       0.612
       0.401
       0.162
      -0.049
      -0.188
      -0.250
      -0.265
      -0.289
      -0.372
      -0.540
      -0.786
      -1.071
      -1.342
      -1.546
      -1.645
      -1.634
      -1.553
      -1.468
      -1.431
      -1.449
      -1.469
      -1.410
      -1.207
      -0.852
      -0.403
       0.042
       0.380
       0.558
       0.591
       0.561
       0.573
       0.700
       0.939
       1.213
       1.413
       1.464
       1.367
       1.185
       1.005
       0.880
       0.822
       0.812
       0.828
       0.853
       0.865
       0.829
       0.705
       0.485
       0.210
      -0.043
      -0.204
      -0.252
      -0.231
      -0.211
      -0.255
      -0.387
      -0.585
      -0.797
      -0.959
      -1.028
      -0.999
      -0.911
      -0.821
      -0.775
      -0.774
      -0.786
      -0.771
      -0.716
      -0.631
      -0.535
      -0.433
      -0.310
      -0.137
       0.108
       0.413
       0.731
       0.995
       1.149
       1.180
       1.119
       1.025
       0.945
       0.898
       0.869
       0.827
       0.750
       0.643
       0.535
       0.453
       0.403
       0.353
       0.261
       0.105
      -0.090
      -0.266
      -0.375
      -0.410
      -0.408
      -0.420
      -0.480
      -0.589
      -0.731
      -0.878
      -0.999
      -1.059
      -1.036
      -0.941
      -0.825
      -0.754
      -0.766
      -0.841
      -0.907
      -0.883
      -0.732
      -0.497
      -0.276
      -0.163
      -0.189
      -0.290
      -0.340
      -0.220
       0.103
       0.551
       0.974
       1.236
       1.281
       1.160
       0.982
       0.844
       0.771
       0.716
       0.608
       0.410
       0.149
      -0.102
      -0.273
      -0.330
      -0.284
      -0.171
      -0.030
       0.113
       0.232
       0.296
       0.274
       0.153
      -0.033
      -0.218
      -0.333
      -0.352
      -0.309
      -0.267
      -0.276
      -0.340
      -0.418
      -0.453
      -0.408
      -0.289
      -0.132
       0.022
       0.155
       0.272
       0.385
       0.479
       0.523
       0.489
       0.391
       0.287
       0.256
       0.341
       0.524
       0.718
       0.815
       0.748
       0.529
       0.241
      -0.009
      -0.155
      -0.195
      -0.188
      -0.202
      -0.276
      -0.402
      -0.537
      -0.627
      -0.633
      -0.551
      -0.416
      -0.279
      -0.182
      -0.136
      -0.120
      -0.105
      -0.073
      -0.029
       0.002
       0.004
      -0.010
      -0.006
       0.049
       0.155
       0.272
       0.352
       0.368
       0.350
       0.359
       0.451
       0.625
       0.824
       0.967
       0.992
       0.878
       0.652
       0.372
       0.103
      -0.113
      -0.274
      -0.403
      -0.524
      -0.632
      -0.699
      -0.698
      -0.632
      -0.531
      -0.433
      -0.363
      -0.320
      -0.289
      -0.252
      -0.194
      -0.107
       0.018
       0.189
       0.392
       0.587
       0.709
       0.708
       0.583
       0.395
       0.245
       0.212
       0.311
       0.476
       0.598
       0.581
       0.403
       0.130
      -0.119
      -0.248
      -0.245
      -0.193
      -0.212
      -0.368
      -0.620
      -0.841
      -0.903
      -0.759
      -0.476
      -0.188
      -0.009
       0.025
      -0.033
      -0.090
      -0.086
      -0.042
      -0.047
      -0.195
      -0.509
      -0.917
      -1.283
      -1.472
      -1.417
      -1.143
      -0.755
      -0.370
      -0.058
       0.187
       0.414
       0.666
       0.942
       1.207
       1.413
       1.523
       1.512
       1.369
       1.104
       0.761
       0.406
       0.102
      -0.124
      -0.290
      -0.436
      -0.596
      -0.771
      -0.934
      -1.044
      -1.067
      -0.998
      -0.862
      -0.710
      -0.597
      -0.554
      -0.577
      -0.621
      -0.633
      -0.585
      -0.479
      -0.330
      -0.149
       0.061
       0.286
       0.481
       0.583
       0.552
       0.407
       0.225
       0.100
       0.082
       0.145
       0.202
       0.173
       0.048
      -0.088
      -0.113
       0.043
       0.350
       0.690
       0.938
       1.037
       1.025
       0.994
       1.007
       1.047
       1.024
       0.846
       0.494
       0.044
      -0.371
      -0.645
      -0.748
      -0.735
      -0.696
      -0.696
      -0.739
      -0.776
      -0.749
      -0.630
      -0.441
      -0.225
      -0.019
       0.165
       0.325
       0.454
       0.542
       0.590
       0.617
       0.651
       0.714
       0.799
       0.873
       0.885
       0.797
       0.608
       0.361
       0.120
      -0.072
      -0.208
      -0.308
      -0.395
      -0.474
      -0.535
      -0.562
      -0.544
      -0.479
      -0.373
      -0.242
      -0.116
      -0.031
      -0.019
      -0.080
      -0.175
      -0.253
      -0.281
      -0.260
      -0.214
      -0.173
      -0.158
      -0.179
      -0.227
      -0.264
      -0.239
      -0.120
       0.071
       0.256
       0.348
       0.311
       0.190
       0.074
       0.046
       0.120
       0.234
       0.293
       0.231
       0.062
      -0.134
      -0.264
      -0.282
      -0.208
      -0.104
      -0.029
       0.000
      -0.001
      -0.003
       0.008
       0.022
       0.012
      -0.040
      -0.132
      -0.233
      -0.297
      -0.287
      -0.206
      -0.092
       0.004
       0.063
       0.099
       0.143
       0.204
       0.264
       0.304
       0.317
       0.305
       0.259
       0.153
      -0.031
      -0.264
      -0.477
      -0.595
      -0.581
      -0.460
      -0.312
      -0.218
      -0.217
      -0.284
      -0.348
      -0.334
      -0.214
      -0.018
       0.183
       0.320
       0.359
       0.311
       0.226
       0.157
       0.134
       0.140
       0.136
       0.093
       0.020
