Origin Time       21/9/2009 9:43:47	  UTC
Lat.              30.9 N	
Long.             79.1 E	
Depth (Km)         13.0
Magnitude         4.7
 Region           UTTARKASHI-UTTARAKHAND                                           
 Above details taken from IMD 
    
Station Code      LAN
Station Lat.       29.840  N
Station Long.      78.680  E
Station Height(m) 1655.0
Site Class        A   Vs30 between 700 m/sec to 1400 m/sec * 
Record Time       21.09.2009 09:44:13.984 UTC
Sampling Rate     200. Hz
 Record Duration   65.005 Sec.
 Direction         N-S (N positive)
Max. Acceleration     -4.899 cm/sec**2
     
  * For reference see Site Classification link of website 
     
 Base Line Corrected and Low Pass Filtered (Cut Off at 35 Hz) Time History
 Acceleration data in cm/sec**2
    
[...]
      -0.084
      -0.067
      -0.048
      -0.042
      -0.054
      -0.076
      -0.091
      -0.089
      -0.073
      -0.057
      -0.052
      -0.059
      -0.067
      -0.060
      -0.034
      -0.002
       0.015
       0.007
      -0.021
      -0.050
      -0.067
      -0.070
      -0.062
      -0.047
      -0.024
       0.005
       0.039
       0.078
       0.119
       0.154
       0.171
       0.166
       0.148
       0.132
       0.131
       0.147
       0.167
       0.172
       0.142
       0.070
      -0.035
      -0.149
      -0.241
      -0.289
      -0.284
      -0.233
      -0.153
      -0.070
      -0.006
       0.029
       0.043
       0.052
       0.063
       0.069
       0.058
       0.027
      -0.014
      -0.051
      -0.079
      -0.106
      -0.140
      -0.180
      -0.219
      -0.243
      -0.247
      -0.226
      -0.181
      -0.116
      -0.042
       0.027
       0.081
       0.119
       0.143
       0.153
       0.144
       0.112
       0.061
       0.004
      -0.044
      -0.070
      -0.071
      -0.055
      -0.034
      -0.014
       0.005
       0.031
       0.071
       0.121
       0.168
       0.197
       0.197
       0.165
       0.113
       0.060
       0.030
       0.035
       0.065
       0.093
       0.089
       0.048
      -0.011
      -0.058
      -0.067
      -0.040
       0.004
       0.042
       0.058
       0.052
       0.035
       0.021
       0.022
       0.036
       0.050
       0.049
       0.029
       0.000
      -0.024
      -0.034
      -0.031
      -0.029
      -0.045
      -0.091
      -0.164
      -0.241
      -0.287
      -0.281
      -0.229
      -0.165
      -0.127
      -0.130
      -0.164
      -0.203
      -0.231
      -0.246
      -0.250
      -0.239
      -0.209
      -0.154
      -0.082
      -0.006
       0.064
       0.125
       0.183
       0.240
       0.295
       0.339
       0.364
       0.361
       0.325
       0.259
       0.179
       0.107
       0.058
       0.039
       0.046
       0.068
       0.094
       0.120
       0.149
       0.186
       0.227
       0.261
       0.276
       0.268
       0.237
       0.188
       0.125
       0.054
      -0.019
      -0.088
      -0.147
      -0.201
      -0.252
      -0.299
      -0.330
      -0.335
      -0.312
      -0.275
      -0.242
      -0.227
      -0.228
      -0.238
      -0.251
      -0.263
      -0.266
      -0.252
      -0.213
      -0.148
      -0.066
       0.024
       0.114
       0.199
       0.274
       0.335
       0.378
       0.402
       0.406
       0.389
       0.351
       0.289
       0.209
       0.117
       0.026
      -0.053
      -0.108
      -0.132
      -0.125
      -0.099
      -0.075
      -0.066
      -0.072
      -0.074
      -0.057
      -0.023
       0.006
       0.008
      -0.020
      -0.063
      -0.101
      -0.117
      -0.114
      -0.110
      -0.127
      -0.182
      -0.267
      -0.348
      -0.392
      -0.377
      -0.313
      -0.228
      -0.154
      -0.108
      -0.085
      -0.062
      -0.019
       0.042
       0.100
       0.127
       0.111
       0.066
       0.019
      -0.005
       0.000
       0.023
       0.048
       0.064
       0.063
       0.046
       0.021
       0.002
      -0.002
       0.004
       0.009
       0.008
       0.004
      -0.002
      -0.014
      -0.039
      -0.074
      -0.104
      -0.110
      -0.085
      -0.035
       0.031
       0.101
       0.163
       0.205
       0.222
       0.224
       0.224
       0.228
       0.227
       0.206
       0.165
       0.114
       0.070
       0.037
       0.007
      -0.034
      -0.090
      -0.150
      -0.195
      -0.206
      -0.182
      -0.130
      -0.071
      -0.020
       0.010
       0.020
       0.019
       0.014
       0.005
      -0.004
      -0.011
      -0.009
       0.001
       0.007
      -0.005
      -0.044
      -0.102
      -0.160
      -0.194
      -0.187
      -0.135
      -0.052
       0.041
       0.125
       0.189
       0.232
       0.250
       0.236
       0.189
       0.122
       0.059
       0.020
       0.013
       0.031
       0.051
       0.050
       0.014
      -0.051
      -0.128
      -0.190
      -0.219
      -0.209
      -0.168
      -0.114
      -0.066
      -0.031
      -0.006
       0.016
       0.028
       0.021
      -0.009
      -0.049
      -0.074
      -0.063
      -0.016
       0.049
       0.107
       0.139
       0.141
       0.125
       0.105
       0.087
       0.068
       0.041
       0.003
      -0.041
      -0.081
      -0.116
      -0.157
      -0.210
      -0.268
      -0.309
      -0.313
      -0.275
      -0.207
      -0.128
      -0.050
       0.026
       0.100
       0.170
       0.227
       0.263
       0.274
       0.261
       0.221
       0.153
       0.063
      -0.038
      -0.135
      -0.220
      -0.288
      -0.328
      -0.329
      -0.284
      -0.199
      -0.092
       0.011
       0.094
       0.153
       0.196
       0.233
       0.259
       0.269
       0.258
       0.237
       0.217
       0.202
       0.181
       0.135
       0.048
      -0.072
      -0.194
      -0.281
      -0.308
      -0.276
      -0.215
      -0.164
      -0.155
      -0.192
      -0.254
      -0.309
      -0.330
      -0.307
      -0.246
      -0.162
      -0.066
       0.033
       0.131
       0.218
       0.282
       0.315
       0.316
       0.295
       0.263
       0.229
       0.193
       0.149
       0.095
       0.032
      -0.027
      -0.073
      -0.099
      -0.111
      -0.118
      -0.125
      -0.124
      -0.101
      -0.047
       0.031
       0.113
       0.172
       0.198
       0.194
       0.177
       0.160
       0.139
       0.101
       0.034
      -0.058
      -0.155
      -0.232
      -0.272
      -0.277
      -0.257
      -0.227
      -0.192
      -0.148
      -0.090
      -0.019
       0.055
       0.119
       0.160
       0.177
       0.175
       0.167
       0.162
       0.160
       0.158
       0.149
       0.130
       0.099
       0.055
       0.002
      -0.054
      -0.100
      -0.130
      -0.147
      -0.156
      -0.164
      -0.173
      -0.179
      -0.185
      -0.196
      -0.218
      -0.250
      -0.278
      -0.285
      -0.259
      -0.198
      -0.110
      -0.003
       0.105
       0.199
       0.262
       0.295
       0.308
       0.310
       0.301
       0.274
       0.227
       0.164
       0.097
       0.035
      -0.021
      -0.072
      -0.118
      -0.155
      -0.176
      -0.178
      -0.162
      -0.140
      -0.118
      -0.100
      -0.083
      -0.062
      -0.028
       0.023
       0.086
       0.151
       0.206
       0.243
       0.257
       0.247
       0.209
       0.142
       0.052
      -0.054
      -0.162
      -0.262
      -0.343
      -0.399
      -0.427
      -0.432
      -0.425
      -0.415
      -0.412
      -0.416
      -0.415
      -0.392
      -0.329
      -0.224
      -0.089
       0.050
       0.168
       0.250
       0.297
       0.318
       0.322
       0.317
       0.300
       0.269
       0.222
       0.165
       0.108
       0.059
       0.015
      -0.035
      -0.095
      -0.157
      -0.199
      -0.201
      -0.155
      -0.069
       0.041
       0.158
       0.265
       0.350
       0.407
       0.444
       0.473
       0.509
       0.552
       0.587
       0.598
       0.575
       0.525
       0.461
       0.388
       0.300
       0.183
       0.030
      -0.152
      -0.344
      -0.526
      -0.683
      -0.810
      -0.906
      -0.962
      -0.969
      -0.922
      -0.829
      -0.706
      -0.570
      -0.436
      -0.307
      -0.179
      -0.047
       0.094
       0.237
       0.364
       0.456
       0.504
       0.515
       0.505
       0.488
       0.459
       0.408
       0.327
       0.228
       0.137
       0.077
       0.053
       0.049
       0.055
       0.071
       0.111
       0.180
       0.268
       0.352
       0.412
       0.442
       0.450
       0.436
       0.395
       0.313
       0.191
       0.046
      -0.099
      -0.231
      -0.349
      -0.461
      -0.571
      -0.675
      -0.762
      -0.821
      -0.847
      -0.841
      -0.803
      -0.734
      -0.635
      -0.510
      -0.367
      -0.216
      -0.062
       0.092
       0.239
       0.364
       0.451
       0.493
       0.499
       0.489
       0.481
       0.480
       0.475
       0.450
       0.399
       0.329
       0.254
       0.186
       0.129
       0.082
       0.042
       0.008
      -0.023
      -0.056
      -0.095
      -0.138
      -0.177
      -0.203
      -0.208
      -0.189
      -0.153
      -0.116
      -0.093
      -0.098
      -0.126
      -0.165
      -0.195
      -0.204
      -0.188
      -0.154
      -0.115
      -0.088
      -0.074
      -0.059
      -0.014
       0.085
       0.243
       0.429
       0.600
       0.718
       0.771
       0.770
       0.729
       0.652
       0.537
       0.386
       0.215
       0.057
      -0.053
      -0.101
      -0.099
      -0.081
      -0.074
      -0.088
      -0.108
      -0.110
      -0.078
      -0.013
       0.071
       0.156
       0.227
       0.275
       0.296
       0.286
       0.241
       0.158
       0.040
      -0.108
      -0.267
      -0.410
      -0.511
      -0.563
      -0.580
      -0.593
      -0.624
      -0.672
      -0.709
      -0.700
      -0.626
      -0.497
      -0.345
      -0.200
      -0.075
       0.033
       0.134
       0.226
       0.298
       0.347
       0.379
       0.407
       0.434
       0.449
       0.432
       0.375
       0.286
       0.189
       0.108
       0.054
       0.018
      -0.019
      -0.074
      -0.145
      -0.221
      -0.289
      -0.347
      -0.399
      -0.440
      -0.454
      -0.423
      -0.341
      -0.225
      -0.108
      -0.020
       0.025
       0.041
       0.054
       0.087
       0.139
       0.189
       0.214
       0.206
       0.189
       0.195
       0.248
       0.348
       0.470
       0.579
       0.643
       0.650
       0.612
       0.551
       0.485
       0.421
       0.350
       0.263
       0.151
       0.023
      -0.108
      -0.220
      -0.303
      -0.363
      -0.412
      -0.465
      -0.526
      -0.583
      -0.623
      -0.634
      -0.617
      -0.581
      -0.532
      -0.467
      -0.380
      -0.264
      -0.124
       0.031
       0.191
       0.353
       0.512
       0.665
       0.796
       0.887
       0.926
       0.914
       0.862
       0.786
       0.690
       0.565
       0.397
       0.186
      -0.049
      -0.269
      -0.431
      -0.505
      -0.493
      -0.427
      -0.356
      -0.314
      -0.307
      -0.313
      -0.303
      -0.260
      -0.194
      -0.133
      -0.111
      -0.150
      -0.247
      -0.383
      -0.537
      -0.693
      -0.844
      -0.979
      -1.085
      -1.147
      -1.161
      -1.138
      -1.100
      -1.063
      -1.021
      -0.948
      -0.813
      -0.605
      -0.345
      -0.079
       0.143
       0.293
       0.382
       0.445
       0.518
       0.612
       0.703
       0.752
       0.733
       0.646
       0.513
       0.359
       0.191
       0.001
      -0.220
      -0.464
      -0.704
      -0.908
      -1.053
      -1.134
      -1.160
      -1.140
      -1.074
      -0.946
      -0.741
      -0.457
      -0.122
       0.214
       0.502
       0.713
       0.842
       0.903
       0.912
       0.882
       0.817
       0.722
       0.603
       0.466
       0.319
       0.167
       0.019
      -0.115
      -0.217
      -0.275
      -0.285
      -0.259
      -0.215
      -0.169
      -0.128
      -0.091
      -0.054
      -0.013
       0.027
       0.056
       0.068
       0.061
       0.044
       0.029
       0.026
       0.042
       0.080
       0.142
       0.229
       0.338
       0.462
       0.578
       0.656
       0.664
       0.590
       0.449
       0.287
       0.154
       0.081
       0.064
       0.074
       0.075
       0.045
      -0.012
      -0.080
      -0.145
      -0.205
      -0.270
      -0.353
      -0.462
      -0.588
      -0.711
      -0.809
      -0.869
      -0.890
      -0.883
      -0.858
      -0.824
      -0.782
      -0.733
      -0.675
      -0.611
      -0.541
      -0.466
      -0.382
      -0.284
      -0.173
      -0.053
       0.068
       0.192
       0.329
       0.502
       0.735
       1.034
       1.384
       1.750
       2.093
       2.384
       2.610
       2.773
       2.883
       2.950
       2.967
       2.914
       2.763
       2.493
       2.100
       1.607
       1.051
       0.474
      -0.089
      -0.613
      -1.093
      -1.532
      -1.937
      -2.306
      -2.622
      -2.863
      -3.016
      -3.090
      -3.106
      -3.087
      -3.043
      -2.968
      -2.854
      -2.695
      -2.499
      -2.278
      -2.042
      -1.786
      -1.493
      -1.144
      -0.740
      -0.306
       0.114
       0.483
       0.785
       1.037
       1.272
       1.518
       1.788
       2.078
       2.376
       2.666
       2.929
       3.145
       3.299
       3.386
       3.412
       3.387
       3.318
       3.199
       3.020
       2.773
       2.462
       2.104
       1.714
       1.297
       0.843
       0.333
      -0.234
      -0.839
      -1.443
      -2.005
      -2.511
      -2.970
      -3.405
      -3.825
      -4.211
      -4.531
      -4.754
      -4.872
      -4.899
      -4.851
      -4.731
      -4.521
      -4.194
      -3.736
      -3.157
      -2.489
      -1.768
      -1.024
      -0.272
       0.475
       1.197
       1.870
       2.471
       2.990
       3.426
       3.778
       4.036
       4.188
       4.224
       4.156
       4.010
       3.822
       3.618
       3.405
       3.172
       2.893
       2.543
       2.108
       1.604
       1.074
       0.580
       0.173
      -0.126
      -0.328
      -0.472
      -0.597
      -0.725
      -0.861
      -0.993
      -1.114
      -1.228
      -1.347
      -1.479
      -1.616
      -1.737
      -1.814
      -1.825
      -1.762
      -1.630
      -1.446
      -1.223
      -0.973
      -0.696
      -0.395
      -0.073
       0.258
       0.575
       0.853
       1.068
       1.211
       1.292
       1.337
       1.384
       1.455
       1.551
       1.644
       1.696
       1.681
       1.600
       1.468
       1.303
       1.108
       0.879
       0.620
       0.352
       0.106
      -0.092
      -0.230
      -0.314
      -0.358
      -0.383
      -0.398
      -0.405
      -0.393
      -0.350
      -0.273
      -0.174
      -0.084
      -0.040
      -0.066
      -0.165
      -0.318
      -0.507
      -0.719
      -0.953
      -1.201
      -1.445
      -1.654
      -1.801
      -1.868
      -1.851
      -1.754
      -1.581
      -1.338
      -1.038
      -0.705
      -0.370
      -0.072
       0.157
       0.297
       0.344
       0.310
       0.214
       0.079
      -0.065
      -0.186
      -0.256
      -0.267
      -0.243
      -0.223
      -0.241
      -0.299
      -0.365
      -0.401
      -0.386
      -0.330
      -0.253
      -0.169
      -0.073
       0.049
       0.200
       0.365
       0.517
       0.632
       0.702
       0.736
       0.747
       0.746
       0.731
       0.700
       0.659
       0.618
       0.585
       0.555
       0.510
       0.427
       0.294
       0.115
      -0.093
      -0.313
      -0.529
      -0.737
      -0.937
      -1.135
      -1.330
      -1.516
      -1.673
      -1.770
      -1.781
      -1.693
      -1.519
      -1.294
      -1.058
      -0.836
      -0.630
      -0.423
      -0.196
       0.054
       0.307
       0.527
       0.686
       0.771
       0.789
       0.756
       0.693
       0.621
       0.567
       0.554
       0.596
       0.686
       0.794
       0.886
       0.938
       0.953
       0.950
       0.952
       0.967
       0.985
       0.984
       0.944
       0.854
       0.719
       0.551
       0.365
       0.170
      -0.024
      -0.211
      -0.384
      -0.538
      -0.672
      -0.781
      -0.858
      -0.900
      -0.915
      -0.918
      -0.929
      -0.959
      -0.999
      -1.029
      -1.030
      -1.007
      -0.983
      -0.990
      -1.044
      -1.134
      -1.224
      -1.275
      -1.262
      -1.184
      -1.060
      -0.909
      -0.736
      -0.529
      -0.270
       0.039
       0.374
       0.695
       0.969
       1.186
       1.361
       1.512
       1.649
       1.769
       1.860
       1.919
       1.947
       1.950
       1.933
       1.891
       1.825
       1.738
       1.633
       1.508
       1.354
       1.161
       0.925
       0.656
       0.372
       0.094
      -0.169
      -0.422
      -0.683
      -0.968
      -1.272
      -1.565
      -1.797
      -1.925
      -1.932
      -1.843
      -1.702
      -1.547
      -1.381
      -1.178
      -0.911
      -0.575
      -0.202
       0.158
       0.453
       0.651
       0.749
       0.761
       0.717
       0.644
       0.564
       0.491
       0.433
       0.396
       0.381
       0.383
       0.396
       0.415
       0.444
       0.486
       0.539
       0.589
       0.620
       0.622
       0.599
       0.563
       0.527
       0.502
       0.492
       0.492
       0.493
       0.476
       0.425
       0.325
       0.167
      -0.053
      -0.332
      -0.656
      -0.989
      -1.280
      -1.489
      -1.605
      -1.653
      -1.677
      -1.713
      -1.769
      -1.815
      -1.800
      -1.675
      -1.424
      -1.064
      -0.638
      -0.195
       0.228
       0.604
       0.917
       1.155
       1.307
       1.366
       1.331
       1.209
       1.019
       0.797
       0.581
       0.410
       0.307
       0.280
       0.318
       0.402
       0.513
       0.628
       0.726
       0.783
       0.787
       0.740
       0.658
       0.568
       0.499
       0.477
       0.515
       0.600
       0.694
       0.739
       0.688
       0.529
       0.289
       0.022
      -0.226
      -0.436
      -0.610
      -0.757
      -0.871
      -0.936
      -0.942
      -0.897
      -0.824
      -0.749
      -0.685
      -0.631
      -0.576
      -0.511
      -0.433
      -0.353
      -0.288
      -0.251
      -0.250
      -0.287
      -0.363
      -0.479
      -0.624
      -0.770
      -0.880
      -0.916
      -0.866
      -0.747
      -0.604
      -0.479
      -0.379
      -0.277
      -0.127
       0.097
       0.381
       0.678
       0.934
       1.111
       1.200
       1.213
       1.169
       1.079
       0.939
       0.741
       0.487
       0.203
      -0.065
      -0.267
      -0.377
      -0.408
      -0.408
      -0.428
      -0.486
      -0.553
      -0.574
      -0.500
      -0.320
      -0.074
       0.168
       0.337
       0.401
       0.379
       0.319
       0.262
       0.218
       0.173
       0.106
       0.006
      -0.117
      -0.247
      -0.364
      -0.454
      -0.507
      -0.513
      -0.466
      -0.364
      -0.212
      -0.022
       0.190
       0.403
       0.589
       0.733
       0.830
       0.891
       0.927
       0.944
       0.947
       0.940
       0.923
       0.886
       0.815
       0.699
