Origin Time       21/9/2009 9:43:47	 
Lat.              30.9 N	
Long.             79.1 E	
Depth (Km)         13.0
Magnitude         4.7
 Region           UTTARKASHI-UTTARAKHAND                                           
 Above details taken from IMD 
     
Station Code      LAN
Station Lat.       29.840  N
Station Long.      78.680  E
Station Height(m) 1655.0
Site Class        A   Vs30 between 700 m/sec to 1400 m/sec * 
Record Time       21.09.2009 09:44:13.984
Sampling Rate     200. Hz
 Record Duration   65.005 Sec.
 Direction         E-W (E positive)
Max. Acceleration     -4.786 cm/sec**2
     
  * For reference see Site Classification link of website 
     
 Base Line Corrected and Low Pass Filtered (Cut Off at 35 Hz) Time History
 Acceleration data in cm/sec**2
    
[...]
      -0.214
      -0.133
      -0.053
       0.021
       0.077
       0.108
       0.110
       0.083
       0.033
      -0.028
      -0.084
      -0.119
      -0.133
      -0.135
      -0.137
      -0.144
      -0.158
      -0.176
      -0.193
      -0.203
      -0.198
      -0.173
      -0.128
      -0.068
      -0.005
       0.054
       0.108
       0.165
       0.225
       0.279
       0.306
       0.289
       0.231
       0.165
       0.134
       0.163
       0.234
       0.299
       0.317
       0.276
       0.196
       0.110
       0.033
      -0.034
      -0.099
      -0.167
      -0.231
      -0.277
      -0.292
      -0.277
      -0.244
      -0.212
      -0.193
      -0.192
      -0.212
      -0.249
      -0.285
      -0.299
      -0.276
      -0.223
      -0.161
      -0.107
      -0.062
      -0.015
       0.043
       0.109
       0.171
       0.214
       0.234
       0.235
       0.233
       0.238
       0.259
       0.293
       0.329
       0.356
       0.367
       0.362
       0.347
       0.330
       0.311
       0.279
       0.221
       0.135
       0.042
      -0.033
      -0.073
      -0.085
      -0.094
      -0.118
      -0.159
      -0.201
      -0.230
      -0.247
      -0.256
      -0.260
      -0.256
      -0.246
      -0.238
      -0.240
      -0.245
      -0.242
      -0.226
      -0.204
      -0.179
      -0.151
      -0.114
      -0.065
      -0.006
       0.061
       0.134
       0.204
       0.254
       0.268
       0.242
       0.189
       0.128
       0.076
       0.037
      -0.001
      -0.051
      -0.117
      -0.187
      -0.239
      -0.258
      -0.249
      -0.228
      -0.211
      -0.194
      -0.168
      -0.128
      -0.077
      -0.025
       0.031
       0.094
       0.164
       0.228
       0.270
       0.285
       0.273
       0.237
       0.177
       0.104
       0.041
       0.006
      -0.003
      -0.005
      -0.016
      -0.032
      -0.041
      -0.034
      -0.015
       0.010
       0.037
       0.058
       0.067
       0.061
       0.049
       0.046
       0.060
       0.084
       0.100
       0.096
       0.070
       0.029
      -0.014
      -0.050
      -0.074
      -0.089
      -0.105
      -0.132
      -0.169
      -0.196
      -0.197
      -0.173
      -0.148
      -0.144
      -0.166
      -0.196
      -0.216
      -0.218
      -0.204
      -0.172
      -0.121
      -0.065
      -0.032
      -0.039
      -0.080
      -0.123
      -0.138
      -0.120
      -0.083
      -0.044
      -0.005
       0.046
       0.117
       0.203
       0.280
       0.325
       0.335
       0.322
       0.305
       0.286
       0.260
       0.224
       0.181
       0.132
       0.073
       0.003
      -0.074
      -0.143
      -0.191
      -0.214
      -0.220
      -0.216
      -0.197
      -0.152
      -0.076
       0.017
       0.104
       0.162
       0.193
       0.209
       0.225
       0.241
       0.251
       0.246
       0.222
       0.179
       0.116
       0.037
      -0.051
      -0.131
      -0.179
      -0.185
      -0.158
      -0.123
      -0.103
      -0.100
      -0.105
      -0.114
      -0.136
      -0.173
      -0.216
      -0.249
      -0.258
      -0.242
      -0.213
      -0.187
      -0.168
      -0.153
      -0.140
      -0.133
      -0.136
      -0.140
      -0.128
      -0.090
      -0.035
       0.016
       0.052
       0.075
       0.097
       0.127
       0.162
       0.190
       0.197
       0.190
       0.193
       0.227
       0.289
       0.354
       0.390
       0.382
       0.330
       0.247
       0.156
       0.084
       0.052
       0.061
       0.091
       0.115
       0.120
       0.114
       0.108
       0.103
       0.090
       0.055
      -0.002
      -0.069
      -0.132
      -0.181
      -0.214
      -0.239
      -0.258
      -0.268
      -0.264
      -0.243
      -0.209
      -0.172
      -0.137
      -0.107
      -0.089
      -0.092
      -0.113
      -0.139
      -0.149
      -0.129
      -0.077
      -0.007
       0.065
       0.124
       0.157
       0.159
       0.135
       0.095
       0.047
      -0.005
      -0.061
      -0.118
      -0.170
      -0.212
      -0.244
      -0.270
      -0.292
      -0.302
      -0.289
      -0.244
      -0.167
      -0.058
       0.073
       0.206
       0.312
       0.371
       0.381
       0.362
       0.340
       0.328
       0.327
       0.331
       0.331
       0.321
       0.298
       0.262
       0.215
       0.157
       0.089
       0.014
      -0.057
      -0.112
      -0.142
      -0.152
      -0.153
      -0.154
      -0.157
      -0.164
      -0.176
      -0.194
      -0.216
      -0.231
      -0.229
      -0.209
      -0.180
      -0.153
      -0.136
      -0.130
      -0.133
      -0.138
      -0.142
      -0.141
      -0.137
      -0.135
      -0.136
      -0.138
      -0.135
      -0.114
      -0.069
      -0.001
       0.079
       0.155
       0.217
       0.267
       0.314
       0.365
       0.416
       0.455
       0.468
       0.447
       0.394
       0.316
       0.227
       0.136
       0.048
      -0.043
      -0.146
      -0.259
      -0.365
      -0.441
      -0.473
      -0.469
      -0.445
      -0.406
      -0.345
      -0.250
      -0.123
       0.011
       0.128
       0.219
       0.290
       0.339
       0.355
       0.332
       0.280
       0.228
       0.195
       0.178
       0.158
       0.114
       0.048
      -0.026
      -0.092
      -0.138
      -0.166
      -0.178
      -0.181
      -0.177
      -0.169
      -0.154
      -0.128
      -0.086
      -0.034
       0.013
       0.041
       0.052
       0.057
       0.070
       0.091
       0.106
       0.098
       0.059
      -0.009
      -0.101
      -0.212
      -0.333
      -0.446
      -0.533
      -0.583
      -0.596
      -0.573
      -0.515
      -0.419
      -0.294
      -0.154
      -0.021
       0.093
       0.189
       0.270
       0.334
       0.377
       0.395
       0.401
       0.411
       0.435
       0.475
       0.521
       0.567
       0.603
       0.614
       0.588
       0.516
       0.403
       0.258
       0.098
      -0.062
      -0.204
      -0.317
      -0.398
      -0.449
      -0.478
      -0.489
      -0.486
      -0.473
      -0.456
      -0.443
      -0.440
      -0.439
      -0.423
      -0.376
      -0.291
      -0.171
      -0.032
       0.106
       0.222
       0.306
       0.355
       0.370
       0.351
       0.301
       0.233
       0.164
       0.109
       0.076
       0.062
       0.061
       0.069
       0.084
       0.109
       0.149
       0.210
       0.294
       0.392
       0.488
       0.559
       0.589
       0.572
       0.513
       0.421
       0.304
       0.170
       0.025
      -0.120
      -0.246
      -0.339
      -0.390
      -0.409
      -0.416
      -0.431
      -0.465
      -0.513
      -0.557
      -0.581
      -0.573
      -0.526
      -0.444
      -0.333
      -0.203
      -0.066
       0.068
       0.187
       0.279
       0.331
       0.337
       0.296
       0.217
       0.119
       0.018
      -0.070
      -0.139
      -0.182
      -0.195
      -0.181
      -0.147
      -0.101
      -0.052
      -0.003
       0.045
       0.095
       0.153
       0.222
       0.294
       0.360
       0.412
       0.452
       0.484
       0.513
       0.535
       0.545
       0.540
       0.516
       0.469
       0.388
       0.263
       0.089
      -0.116
      -0.324
      -0.505
      -0.644
      -0.737
      -0.791
      -0.810
      -0.801
      -0.768
      -0.721
      -0.665
      -0.604
      -0.540
      -0.475
      -0.415
      -0.371
      -0.350
      -0.345
      -0.338
      -0.307
      -0.242
      -0.150
      -0.050
       0.037
       0.103
       0.144
       0.159
       0.152
       0.130
       0.107
       0.101
       0.124
       0.176
       0.254
       0.356
       0.480
       0.618
       0.750
       0.845
       0.880
       0.848
       0.764
       0.653
       0.537
       0.427
       0.330
       0.258
       0.225
       0.238
       0.288
       0.355
       0.416
       0.459
       0.482
       0.485
       0.461
       0.408
       0.332
       0.253
       0.195
       0.168
       0.167
       0.175
       0.179
       0.169
       0.142
       0.095
       0.028
      -0.057
      -0.148
      -0.234
      -0.309
      -0.369
      -0.409
      -0.424
      -0.411
      -0.373
      -0.313
      -0.235
      -0.141
      -0.034
       0.080
       0.195
       0.300
       0.383
       0.430
       0.431
       0.390
       0.320
       0.233
       0.133
       0.023
      -0.089
      -0.187
      -0.256
      -0.293
      -0.305
      -0.303
      -0.293
      -0.279
      -0.265
      -0.255
      -0.257
      -0.268
      -0.281
      -0.290
      -0.289
      -0.284
      -0.279
      -0.279
      -0.287
      -0.297
      -0.305
      -0.309
      -0.310
      -0.313
      -0.323
      -0.337
      -0.346
      -0.338
      -0.306
      -0.245
      -0.166
      -0.084
      -0.018
       0.027
       0.067
       0.124
       0.204
       0.288
       0.337
       0.317
       0.220
       0.068
      -0.106
      -0.272
      -0.417
      -0.547
      -0.668
      -0.784
      -0.888
      -0.969
      -1.017
      -1.030
      -1.007
      -0.958
      -0.894
      -0.826
      -0.752
      -0.663
      -0.549
      -0.418
      -0.293
      -0.203
      -0.160
      -0.147
      -0.135
      -0.105
      -0.065
      -0.040
      -0.044
      -0.071
      -0.101
      -0.112
      -0.099
      -0.070
      -0.039
      -0.015
       0.000
       0.012
       0.026
       0.043
       0.064
       0.089
       0.119
       0.151
       0.171
       0.163
       0.113
       0.021
      -0.104
      -0.245
      -0.382
      -0.490
      -0.547
      -0.546
      -0.503
      -0.442
      -0.387
      -0.337
      -0.274
      -0.174
      -0.027
       0.156
       0.354
       0.544
       0.717
       0.869
       0.996
       1.087
       1.130
       1.117
       1.052
       0.949
       0.827
       0.703
       0.593
       0.504
       0.443
       0.413
       0.424
       0.481
       0.586
       0.730
       0.891
       1.046
       1.180
       1.299
       1.421
       1.557
       1.693
       1.797
       1.834
       1.785
       1.658
       1.467
       1.225
       0.938
       0.608
       0.247
      -0.128
      -0.494
      -0.825
      -1.100
      -1.307
      -1.448
      -1.537
      -1.588
      -1.609
      -1.587
      -1.506
      -1.349
      -1.119
      -0.838
      -0.538
      -0.243
       0.037
       0.306
       0.561
       0.790
       0.975
       1.101
       1.166
       1.178
       1.153
       1.113
       1.080
       1.065
       1.070
       1.086
       1.098
       1.095
       1.068
       1.019
       0.954
       0.879
       0.791
       0.681
       0.539
       0.367
       0.177
      -0.024
      -0.240
      -0.484
      -0.765
      -1.076
      -1.392
      -1.689
      -1.955
      -2.197
      -2.434
      -2.684
      -2.955
      -3.242
      -3.527
      -3.782
      -3.975
      -4.077
      -4.074
      -3.978
      -3.810
      -3.590
      -3.328
      -3.029
      -2.699
      -2.352
      -2.008
      -1.678
      -1.364
      -1.057
      -0.747
      -0.423
      -0.074
       0.299
       0.690
       1.080
       1.444
       1.762
       2.022
       2.228
       2.388
       2.510
       2.592
       2.622
       2.591
       2.490
       2.323
       2.096
       1.822
       1.524
       1.231
       0.976
       0.780
       0.652
       0.588
       0.573
       0.590
       0.618
       0.645
       0.671
       0.702
       0.742
       0.785
       0.812
       0.800
       0.731
       0.597
       0.406
       0.177
      -0.065
      -0.294
      -0.492
      -0.650
      -0.766
      -0.834
      -0.841
      -0.776
      -0.629
      -0.404
      -0.114
       0.226
       0.601
       1.000
       1.410
       1.813
       2.185
       2.497
       2.729
       2.868
       2.921
       2.904
       2.831
       2.698
       2.488
       2.178
       1.763
       1.262
       0.713
       0.160
      -0.364
      -0.838
      -1.253
      -1.600
      -1.870
      -2.048
      -2.123
      -2.097
      -1.982
      -1.805
      -1.592
      -1.363
      -1.126
      -0.884
      -0.631
      -0.358
      -0.054
       0.273
       0.595
       0.868
       1.057
       1.154
       1.177
       1.156
       1.103
       1.016
       0.883
       0.712
       0.526
       0.353
       0.203
       0.066
      -0.076
      -0.226
      -0.359
      -0.436
      -0.421
      -0.296
      -0.072
       0.225
       0.557
       0.886
       1.177
       1.401
       1.542
       1.591
       1.549
       1.424
       1.227
       0.972
       0.674
       0.349
       0.016
      -0.315
      -0.632
      -0.927
      -1.181
      -1.380
      -1.522
      -1.621
      -1.690
      -1.725
      -1.705
      -1.606
      -1.414
      -1.134
      -0.785
      -0.388
       0.034
       0.459
       0.866
       1.237
       1.558
       1.817
       2.001
       2.086
       2.046
       1.860
       1.531
       1.079
       0.537
      -0.069
      -0.719
      -1.397
      -2.073
      -2.712
      -3.278
      -3.751
      -4.124
      -4.407
      -4.610
      -4.738
      -4.786
      -4.737
      -4.574
      -4.292
      -3.903
      -3.441
      -2.951
      -2.475
      -2.040
      -1.658
      -1.335
      -1.075
      -0.887
      -0.780
      -0.753
      -0.787
      -0.849
      -0.902
      -0.916
      -0.874
      -0.774
      -0.629
      -0.462
      -0.296
      -0.146
      -0.006
       0.146
       0.335
       0.579
       0.877
       1.217
       1.577
       1.929
       2.232
       2.444
       2.535
       2.494
       2.332
       2.068
       1.732
       1.357
       0.985
       0.649
       0.375
       0.173
       0.045
      -0.006
       0.019
       0.113
       0.267
       0.478
       0.750
       1.083
       1.460
       1.850
       2.218
       2.542
       2.811
       3.021
       3.164
       3.229
       3.211
       3.116
       2.962
       2.766
       2.541
       2.289
       2.004
       1.684
       1.336
       0.989
       0.688
       0.478
       0.383
       0.395
       0.474
       0.575
       0.666
       0.730
       0.754
       0.725
       0.632
       0.474
       0.269
       0.050
      -0.146
      -0.296
      -0.390
      -0.427
      -0.416
      -0.366
      -0.298
      -0.237
      -0.208
      -0.227
      -0.297
      -0.403
      -0.520
      -0.614
      -0.654
      -0.629
      -0.553
      -0.471
      -0.432
      -0.466
      -0.563
      -0.677
      -0.748
      -0.734
      -0.622
      -0.426
      -0.181
       0.075
       0.299
       0.454
       0.510
       0.452
       0.291
       0.048
      -0.249
      -0.580
      -0.927
      -1.267
      -1.575
      -1.832
      -2.033
      -2.182
      -2.285
      -2.338
      -2.343
      -2.303
      -2.226
      -2.114
      -1.952
      -1.720
      -1.399
      -0.997
      -0.541
      -0.074
       0.363
       0.744
       1.053
       1.281
       1.425
       1.487
       1.474
       1.400
       1.278
       1.119
       0.937
       0.742
       0.539
       0.320
       0.067
      -0.232
      -0.569
      -0.909
      -1.197
      -1.386
      -1.461
      -1.437
      -1.356
      -1.262
      -1.186
      -1.139
      -1.120
      -1.116
      -1.115
      -1.104
      -1.074
      -1.016
      -0.922
      -0.791
      -0.630
      -0.455
      -0.292
      -0.160
      -0.062
       0.022
       0.125
       0.272
       0.466
       0.686
       0.904
       1.097
       1.252
       1.363
       1.428
       1.446
       1.428
       1.383
       1.316
       1.217
       1.071
       0.871
       0.627
       0.361
       0.100
      -0.139
      -0.357
      -0.559
      -0.748
      -0.916
      -1.041
      -1.100
      -1.083
      -1.002
      -0.883
      -0.754
      -0.628
      -0.502
      -0.366
      -0.218
      -0.069
       0.065
       0.164
       0.214
       0.206
       0.141
       0.024
      -0.132
      -0.314
      -0.499
      -0.652
      -0.728
      -0.682
      -0.495
      -0.178
       0.233
       0.695
       1.165
       1.608
       1.997
       2.309
       2.529
       2.650
       2.670
       2.599
       2.453
       2.257
       2.034
       1.800
       1.563
       1.336
       1.139
       0.986
       0.870
       0.756
       0.600
       0.377
       0.092
      -0.220
      -0.518
      -0.764
      -0.937
      -1.028
      -1.039
      -0.977
      -0.858
      -0.703
      -0.537
      -0.383
      -0.260
      -0.179
      -0.147
      -0.162
      -0.211
      -0.273
      -0.332
      -0.380
      -0.421
      -0.462
      -0.509
      -0.553
      -0.583
      -0.585
      -0.558
      -0.507
      -0.451
      -0.412
      -0.416
      -0.466
      -0.540
      -0.595
      -0.599
      -0.544
      -0.443
      -0.311
      -0.154
       0.023
       0.208
       0.379
       0.509
       0.573
       0.551
       0.441
       0.265
       0.065
      -0.122
      -0.280
      -0.413
      -0.528
      -0.626
      -0.705
      -0.764
      -0.798
      -0.796
      -0.748
      -0.660
      -0.556
      -0.462
      -0.390
      -0.341
      -0.312
      -0.300
      -0.299
      -0.294
      -0.267
      -0.217
      -0.172
      -0.164
      -0.204
      -0.269
      -0.320
      -0.332
      -0.308
      -0.265
      -0.217
      -0.164
      -0.095
       0.007
       0.155
       0.344
       0.547
       0.717
       0.814
       0.833
       0.804
       0.776
       0.788
       0.850
       0.932
       0.986
       0.984
       0.931
       0.862
       0.808
       0.764
       0.711
       0.634
       0.542
       0.446
       0.352
       0.254
       0.159
       0.084
       0.044
       0.034
       0.039
       0.048
       0.066
       0.101
       0.141
       0.164
       0.147
       0.088
      -0.002
      -0.112
      -0.240
      -0.388
      -0.552
      -0.711
      -0.839
      -0.910
      -0.907
      -0.822
      -0.657
      -0.421
      -0.144
       0.132
       0.367
       0.542
       0.667
       0.768
       0.865
       0.956
       1.021
       1.028
       0.944
       0.757
       0.489
       0.192
      -0.074
      -0.266
      -0.383
      -0.447
      -0.492
      -0.531
      -0.555
      -0.540
      -0.476
      -0.378
      -0.282
      -0.216
      -0.182
      -0.163
      -0.133
      -0.081
      -0.020
       0.012
      -0.030
      -0.175
      -0.413
      -0.694
      -0.958
      -1.162
      -1.296
      -1.368
      -1.387
      -1.359
      -1.289
      -1.197
      -1.102
      -1.009
      -0.908
      -0.782
      -0.627
      -0.451
      -0.273
      -0.113
       0.000
       0.046
       0.017
      -0.073
      -0.204
      -0.358
      -0.525
      -0.689
      -0.834
      -0.939
      -0.990
      -0.983
      -0.920
      -0.803
