Origin Time       25/11/2007 23:12:20 UTC
Lat.              28.6 N 
Long.             77.0 E 
Depth (Km)         20.3
Magnitude         4.3
 Region           DELHI-HARYANA-BORDER-REGION                                      
 Above details taken from IMD 
    
Station Code      LDR
Station Lat.       28.583  N
Station Long.      77.217  E
Station Height(m)  200.0
Site Class        C   Vs30 between 200 m/sec to 375 m/sec *  
Record Time       25.11.2007 23:11:56.775 UTC
Sampling Rate     200. Hz
 Record Duration  137.655 Sec.
 Direction         N-S (N positive)
Max. Acceleration      7.542 cm/sec**2
     
  * For reference see Site Classification link of website 
     
 Base Line Corrected and Low Pass Filtered (Cut Off at 35 Hz) Time History
 Acceleration data in cm/sec**2
    
[...]
      -0.002
       0.001
       0.006
       0.010
       0.011
       0.009
       0.004
       0.000
      -0.003
      -0.004
      -0.005
      -0.005
      -0.005
      -0.003
      -0.002
       0.000
       0.001
       0.002
       0.004
       0.005
       0.004
       0.002
      -0.001
      -0.002
      -0.001
       0.003
       0.007
       0.010
       0.009
       0.004
      -0.001
      -0.006
      -0.007
      -0.006
      -0.004
      -0.002
       0.001
       0.003
       0.004
       0.003
       0.002
       0.003
       0.005
       0.007
       0.006
       0.005
       0.004
       0.004
       0.005
       0.005
       0.003
      -0.001
      -0.005
      -0.007
      -0.007
      -0.006
      -0.004
      -0.001
       0.001
       0.004
       0.007
       0.010
       0.012
       0.012
       0.010
       0.006
       0.003
       0.002
       0.002
       0.002
       0.000
      -0.002
      -0.004
      -0.004
      -0.002
       0.001
       0.004
       0.007
       0.008
       0.006
       0.001
      -0.005
      -0.008
      -0.010
      -0.008
      -0.004
       0.001
       0.005
       0.007
       0.007
       0.005
       0.004
       0.005
       0.006
       0.006
       0.002
      -0.007
      -0.015
      -0.019
      -0.016
      -0.007
       0.003
       0.012
       0.018
       0.026
       0.036
       0.040
       0.034
       0.024
       0.017
       0.018
       0.024
       0.026
       0.016
      -0.004
      -0.022
      -0.027
      -0.027
      -0.040
      -0.070
      -0.090
      -0.071
      -0.012
       0.056
       0.096
       0.095
       0.068
       0.041
       0.025
       0.014
       0.003
      -0.002
       0.004
       0.014
       0.022
       0.031
       0.044
       0.051
       0.049
       0.054
       0.102
       0.221
       0.385
       0.501
       0.468
       0.280
       0.049
      -0.095
      -0.122
      -0.119
      -0.188
      -0.327
      -0.446
      -0.487
      -0.476
      -0.464
      -0.458
      -0.436
      -0.396
      -0.355
      -0.324
      -0.284
      -0.204
      -0.077
       0.069
       0.198
       0.281
       0.294
       0.224
       0.084
      -0.075
      -0.164
      -0.101
       0.101
       0.325
       0.441
       0.426
       0.376
       0.397
       0.505
       0.631
       0.702
       0.696
       0.643
       0.559
       0.416
       0.194
      -0.042
      -0.175
      -0.140
       0.002
       0.089
      -0.002
      -0.246
      -0.507
      -0.665
      -0.689
      -0.602
      -0.439
      -0.258
      -0.165
      -0.243
      -0.438
      -0.580
      -0.525
      -0.299
      -0.086
      -0.056
      -0.211
      -0.400
      -0.477
      -0.403
      -0.202
       0.088
       0.391
       0.572
       0.518
       0.253
      -0.047
      -0.174
      -0.048
       0.210
       0.355
       0.223
      -0.114
      -0.391
      -0.387
      -0.109
       0.248
       0.481
       0.511
       0.412
       0.331
       0.356
       0.457
       0.522
       0.465
       0.302
       0.138
       0.062
       0.048
      -0.024
      -0.232
      -0.504
      -0.631
      -0.435
       0.039
       0.498
       0.605
       0.247
      -0.358
      -0.807
      -0.825
      -0.474
      -0.086
       0.033
      -0.161
      -0.472
      -0.700
      -0.773
      -0.674
      -0.390
       0.023
       0.416
       0.643
       0.650
       0.482
       0.273
       0.186
       0.307
       0.548
       0.687
       0.543
       0.142
      -0.252
      -0.301
       0.111
       0.700
       0.966
       0.633
      -0.088
      -0.664
      -0.692
      -0.223
       0.283
       0.371
      -0.021
      -0.536
      -0.762
      -0.587
      -0.234
      -0.023
      -0.082
      -0.279
      -0.408
      -0.391
      -0.252
      -0.014
       0.298
       0.561
       0.581
       0.263
      -0.235
      -0.559
      -0.435
       0.064
       0.544
       0.631
       0.310
      -0.072
      -0.167
       0.034
       0.233
       0.154
      -0.181
      -0.507
      -0.586
      -0.402
      -0.129
       0.044
       0.037
      -0.109
      -0.261
      -0.261
      -0.023
       0.390
       0.801
       1.027
       0.965
       0.644
       0.253
       0.020
       0.007
       0.068
       0.036
      -0.116
      -0.300
      -0.426
      -0.445
      -0.341
      -0.145
       0.042
       0.108
       0.015
      -0.148
      -0.203
      -0.007
       0.386
       0.712
       0.732
       0.469
       0.153
      -0.033
      -0.092
      -0.112
      -0.127
      -0.121
      -0.116
      -0.163
      -0.252
      -0.292
      -0.210
      -0.030
       0.133
       0.175
       0.090
      -0.054
      -0.200
      -0.318
      -0.356
      -0.270
      -0.089
       0.074
       0.089
      -0.106
      -0.439
      -0.718
      -0.761
      -0.549
      -0.201
       0.165
       0.494
       0.699
       0.630
       0.222
      -0.328
      -0.631
      -0.430
       0.092
       0.400
       0.117
      -0.537
      -0.923
      -0.629
       0.097
       0.587
       0.440
      -0.090
      -0.425
      -0.276
       0.151
       0.482
       0.572
       0.549
       0.577
       0.646
       0.600
       0.343
      -0.029
      -0.304
      -0.325
      -0.103
       0.204
       0.381
       0.281
      -0.096
      -0.565
      -0.831
      -0.666
      -0.110
       0.515
       0.833
       0.735
       0.466
       0.349
       0.423
       0.441
       0.187
      -0.260
      -0.581
      -0.516
      -0.121
       0.252
       0.273
      -0.089
      -0.558
      -0.804
      -0.708
      -0.440
      -0.272
      -0.304
      -0.405
      -0.421
      -0.315
      -0.128
       0.073
       0.175
       0.074
      -0.214
      -0.489
      -0.464
      -0.027
       0.591
       0.969
       0.879
       0.492
       0.173
       0.093
       0.131
       0.140
       0.148
       0.246
       0.398
       0.450
       0.264
      -0.167
      -0.683
      -1.029
      -1.041
      -0.786
      -0.477
      -0.264
      -0.150
      -0.078
      -0.014
       0.049
       0.113
       0.187
       0.280
       0.367
       0.396
       0.363
       0.319
       0.282
       0.180
      -0.030
      -0.237
      -0.219
       0.160
       0.777
       1.288
       1.362
       0.914
       0.186
      -0.386
      -0.500
      -0.257
      -0.017
       0.005
      -0.075
      -0.019
       0.269
       0.661
       0.895
       0.764
       0.288
      -0.255
      -0.554
      -0.557
      -0.459
      -0.397
      -0.317
      -0.145
       0.010
      -0.106
      -0.634
      -1.362
      -1.818
      -1.670
      -1.019
      -0.299
       0.110
       0.176
       0.157
       0.262
       0.434
       0.467
       0.290
       0.054
      -0.045
       0.068
       0.325
       0.591
       0.759
       0.804
       0.771
       0.720
       0.671
       0.583
       0.395
       0.088
      -0.280
      -0.584
      -0.718
      -0.689
      -0.601
      -0.543
      -0.514
      -0.434
      -0.261
      -0.060
       0.067
       0.093
       0.082
       0.091
       0.062
      -0.109
      -0.402
      -0.646
      -0.673
      -0.505
      -0.349
      -0.371
      -0.463
      -0.288
       0.372
       1.304
       1.977
       2.012
       1.525
       0.986
       0.753
       0.753
       0.637
       0.198
      -0.406
      -0.804
      -0.752
      -0.374
      -0.054
      -0.058
      -0.312
      -0.536
      -0.515
      -0.235
       0.149
       0.428
       0.431
       0.102
      -0.436
      -0.899
      -1.024
      -0.823
      -0.571
      -0.486
      -0.503
      -0.423
      -0.162
       0.199
       0.512
       0.655
       0.577
       0.288
      -0.140
      -0.557
      -0.763
      -0.665
      -0.394
      -0.228
      -0.361
      -0.719
      -1.007
      -0.974
      -0.621
      -0.130
       0.344
       0.761
       1.105
       1.289
       1.222
       0.930
       0.566
       0.299
       0.182
       0.146
       0.127
       0.154
       0.265
       0.397
       0.442
       0.355
       0.173
      -0.038
      -0.244
      -0.424
      -0.497
      -0.349
       0.024
       0.411
       0.524
       0.256
      -0.190
      -0.440
      -0.243
       0.317
       0.897
       1.162
       1.009
       0.590
       0.184
      -0.008
      -0.020
      -0.087
      -0.402
      -0.912
      -1.353
      -1.477
      -1.269
      -0.944
      -0.750
      -0.734
      -0.709
      -0.463
      -0.012
       0.393
       0.502
       0.315
       0.074
       0.033
       0.237
       0.549
       0.818
       0.983
       1.042
       0.999
       0.830
       0.514
       0.110
      -0.232
      -0.361
      -0.254
      -0.013
       0.212
       0.286
       0.146
      -0.144
      -0.406
      -0.474
      -0.322
      -0.115
      -0.091
      -0.361
      -0.797
      -1.121
      -1.134
      -0.887
      -0.618
      -0.501
      -0.500
      -0.476
      -0.342
      -0.114
       0.134
       0.323
       0.411
       0.408
       0.390
       0.488
       0.777
       1.157
       1.388
       1.311
       0.986
       0.606
       0.310
       0.100
      -0.093
      -0.287
      -0.409
      -0.364
      -0.125
       0.200
       0.407
       0.331
      -0.009
      -0.410
      -0.636
      -0.595
      -0.369
      -0.096
       0.134
       0.254
       0.211
       0.036
      -0.125
      -0.132
      -0.024
       0.000
      -0.185
      -0.416
      -0.363
       0.064
       0.486
       0.358
      -0.427
      -1.284
      -1.437
      -0.689
       0.398
       1.063
       0.975
       0.394
      -0.124
      -0.214
       0.038
       0.291
       0.332
       0.189
      -0.052
      -0.352
      -0.656
      -0.827
      -0.738
      -0.437
      -0.156
      -0.071
      -0.084
       0.057
       0.409
       0.704
       0.629
       0.146
      -0.482
      -0.879
      -0.790
      -0.270
       0.306
       0.562
       0.458
       0.272
       0.260
       0.434
       0.658
       0.808
       0.819
       0.679
       0.420
       0.108
      -0.206
      -0.524
      -0.843
      -1.048
      -0.993
      -0.760
      -0.720
      -1.181
      -1.953
      -2.423
      -2.165
      -1.402
      -0.789
      -0.798
      -1.305
      -1.734
      -1.575
      -0.861
      -0.232
      -0.421
      -1.512
      -2.686
      -2.894
      -1.842
      -0.250
       0.804
       0.672
      -0.523
      -2.025
      -2.901
      -2.612
      -1.335
       0.218
       1.366
       1.929
       2.197
       2.500
       2.939
       3.452
       3.954
       4.324
       4.342
       3.765
       2.616
       1.368
       0.715
       1.015
       1.916
       2.609
       2.571
       2.017
       1.580
       1.690
       2.268
       2.833
       2.805
       1.838
       0.062
      -1.904
      -3.287
      -3.623
      -3.007
      -2.022
      -1.370
      -1.383
      -1.773
      -1.788
      -0.741
       1.357
       3.539
       4.460
       3.446
       1.083
      -1.193
      -2.066
      -1.137
       0.873
       2.555
       2.684
       1.040
      -1.338
      -2.714
      -1.858
       0.907
       3.813
       5.043
       4.208
       2.466
       1.238
       0.925
       0.854
       0.186
      -1.214
      -2.625
      -3.097
      -2.340
      -1.021
      -0.231
      -0.575
      -1.627
      -2.256
      -1.670
      -0.220
       0.850
       0.494
      -1.161
      -2.829
      -3.097
      -1.633
       0.508
       1.706
       1.060
      -0.833
      -2.294
      -1.965
       0.023
       2.149
       2.726
       1.253
      -1.208
      -2.981
      -3.169
      -2.215
      -1.238
      -0.919
      -1.030
      -0.932
      -0.339
       0.429
       0.753
       0.235
      -0.954
      -2.062
      -2.146
      -0.653
       2.133
       5.116
       6.913
       6.631
       4.453
       1.613
      -0.325
      -0.491
       0.674
       1.735
       1.378
      -0.557
      -2.986
      -4.431
      -4.094
      -2.392
      -0.637
      -0.092
      -1.120
      -3.053
      -4.740
      -5.260
      -4.396
      -2.742
      -1.308
      -0.749
      -0.902
      -1.139
      -1.038
      -0.615
      -0.076
       0.495
       1.182
       2.032
       2.812
       3.034
       2.343
       0.978
      -0.218
      -0.479
       0.096
       0.497
      -0.343
      -2.544
      -4.970
      -5.964
      -4.664
      -1.756
       1.086
       2.593
       2.748
       2.388
       2.220
       2.300
       2.228
       1.654
       0.573
      -0.717
      -1.784
      -2.241
      -1.949
      -1.160
      -0.412
      -0.232
      -0.847
      -2.079
      -3.398
      -4.168
      -4.022
      -3.154
      -2.195
      -1.716
      -1.770
      -1.872
      -1.451
      -0.348
       1.042
       2.085
       2.413
       2.132
       1.604
       1.182
       1.144
       1.697
       2.818
       4.071
       4.755
       4.431
       3.332
       2.167
       1.524
       1.474
       1.709
       1.918
       1.944
       1.691
       1.027
      -0.117
      -1.538
      -2.673
      -2.859
      -1.867
      -0.217
       1.183
       1.824
       2.011
       2.493
       3.710
       5.424
       6.943
       7.542
       6.769
       4.683
       1.906
      -0.641
      -2.245
      -2.766
      -2.632
      -2.473
      -2.604
      -2.741
      -2.269
      -0.923
       0.836
       2.177
       2.584
       2.184
       1.482
       0.844
       0.258
      -0.427
      -1.098
      -1.340
      -0.825
       0.271
       1.301
       1.642
       1.221
       0.557
       0.292
       0.653
       1.337
       1.796
       1.571
       0.534
      -0.953
      -2.159
      -2.483
      -1.917
      -1.036
      -0.506
      -0.547
      -0.808
      -0.810
      -0.518
      -0.386
      -0.783
      -1.505
      -1.971
      -1.871
      -1.494
      -1.363
      -1.647
      -2.016
      -2.072
      -1.793
      -1.477
      -1.350
      -1.377
      -1.476
      -1.821
      -2.717
      -4.094
      -5.260
      -5.335
      -3.982
      -1.723
       0.450
       1.798
       2.264
       2.294
       2.271
       2.127
       1.588
       0.716
       0.042
       0.141
       1.089
       2.330
       3.067
       2.858
       1.896
       0.750
      -0.180
      -0.946
      -1.831
      -2.913
      -3.908
      -4.400
      -4.141
      -3.186
      -1.837
      -0.504
       0.482
       1.014
       1.202
       1.191
       0.980
       0.498
      -0.152
      -0.630
      -0.653
      -0.348
      -0.208
      -0.587
      -1.285
      -1.726
      -1.524
      -0.817
      -0.082
       0.334
       0.498
       0.720
       1.144
       1.592
       1.752
       1.455
       0.784
       0.010
      -0.574
      -0.835
      -0.863
      -0.857
      -0.922
      -0.972
      -0.827
      -0.407
       0.167
       0.681
       1.024
       1.181
       1.020
       0.295
      -0.968
      -2.209
      -2.636
      -1.875
      -0.327
       1.121
       1.840
       2.004
       2.336
       3.221
       4.114
       3.933
       2.153
      -0.483
      -2.413
      -2.499
      -0.916
       1.097
       2.299
       2.318
       1.630
       0.881
       0.355
      -0.003
      -0.260
      -0.309
      -0.034
       0.415
       0.630
       0.325
      -0.290
      -0.636
      -0.324
       0.473
       1.214
       1.527
       1.585
       1.973
       3.120
       4.790
       6.178
       6.581
       5.987
       5.021
       4.357
       4.177
       4.138
       3.810
       3.122
       2.329
       1.630
       0.946
       0.109
      -0.857
      -1.711
      -2.200
      -2.262
      -2.054
      -1.827
      -1.788
      -2.041
      -2.562
      -3.200
      -3.711
      -3.885
      -3.658
      -3.114
      -2.350
      -1.427
      -0.470
       0.260
       0.528
       0.379
       0.161
       0.191
       0.365
       0.203
      -0.615
      -1.810
      -2.695
      -2.795
      -2.230
      -1.535
      -1.189
      -1.311
      -1.694
      -2.075
      -2.361
      -2.651
      -3.120
      -3.915
      -5.045
      -6.231
      -6.892
      -6.475
      -4.945
      -2.919
      -1.284
      -0.558
      -0.544
      -0.628
      -0.406
      -0.035
       0.014
      -0.515
      -1.345
      -1.827
      -1.428
      -0.154
       1.464
       2.802
       3.605
       4.079
       4.550
       5.070
       5.418
       5.426
       5.182
       4.881
       4.569
       4.116
       3.408
       2.460
       1.350
       0.143
      -1.076
      -2.145
      -2.885
      -3.224
      -3.233
      -3.035
      -2.694
      -2.227
      -1.730
      -1.404
      -1.383
      -1.526
      -1.459
      -0.894
       0.070
       1.001
       1.557
       1.827
       2.177
       2.789
       3.436
       3.710
       3.421
       2.767
       2.144
       1.792
       1.647
       1.511
       1.284
       1.047
       0.962
       1.102
       1.359
       1.542
       1.558
       1.433
       1.138
       0.535
      -0.448
      -1.656
      -2.754
      -3.416
      -3.559
      -3.391
      -3.212
      -3.180
      -3.286
      -3.396
      -3.271
      -2.672
      -1.552
      -0.141
       1.140
       1.870
       1.855
       1.266
       0.528
       0.017
      -0.199
      -0.364
      -0.788
      -1.555
      -2.416
      -2.932
      -2.777
      -1.963
      -0.821
       0.207
       0.803
       0.939
       0.876
       0.954
       1.316
       1.785
       2.023
       1.815
       1.266
       0.793
       0.882
       1.733
       3.077
       4.318
       4.852
       4.367
       2.986
       1.206
      -0.360
      -1.250
      -1.334
      -0.848
      -0.252
       0.013
      -0.247
      -0.878
      -1.445
      -1.494
      -0.873
       0.126
       0.927
       1.049
       0.448
      -0.471
      -1.171
      -1.308
      -0.841
       0.049
       1.127
       2.204
       3.130
       3.783
       4.116
       4.161
       3.893
       3.118
       1.632
      -0.433
      -2.475
      -3.727
      -3.797
      -3.011
      -2.248
      -2.342
      -3.463
      -4.960
      -5.862
      -5.648
      -4.569
      -3.284
      -2.250
      -1.480
      -0.783
      -0.124
       0.257
       0.035
      -0.892
      -2.228
      -3.410
      -3.979
      -3.867
      -3.331
      -2.676
      -2.042
      -1.403
      -0.665
       0.215
       1.142
       1.919
       2.419
       2.720
       3.011
       3.363
       3.648
       3.690
       3.453
       3.068
       2.726
       2.553
       2.527
       2.453
       2.099
       1.449
       0.818
       0.663
       1.235
       2.318
       3.346
       3.874
       3.935
       3.931
       4.167
       4.537
       4.659
       4.268
       3.423
       2.393
       1.409
       0.506
      -0.422
      -1.417
      -2.351
      -3.059
      -3.511
      -3.765
      -3.819
      -3.559
      -2.863
