Origin Time       25/11/2007 23:12:20
Lat.              28.6 N 
Long.             77.0 E 
Depth (Km)         20.3
Magnitude         4.3
 Region           DELHI-HARYANA-BORDER-REGION                                      
 Above details taken from IMD 
   
Station Code      LDR
Station Lat.       28.583
Station Long.      77.217
Station Height(m)  200.0
Site Class        C   Vs30 between 200 m/sec to 375 m/sec *  
Record Time       25.11.2007 23:11:56.775
Sampling Rate     200. Hz
 Record Duration  137.655 Sec.
 Direction         Vert. (Up positive)
Max. Acceleration      8.403 cm/sec**2
     
  * For reference see Site Classification link of website 
     
 Base Line Corrected and Low Pass Filtered (Cut Off at 35 Hz) Time History
 Acceleration data in cm/sec**2
    
[...]
      -0.008
      -0.004
      -0.004
      -0.010
      -0.020
      -0.026
      -0.021
      -0.007
       0.007
       0.012
       0.003
      -0.014
      -0.028
      -0.031
      -0.023
      -0.011
      -0.003
      -0.003
      -0.010
      -0.019
      -0.022
      -0.017
      -0.002
       0.015
       0.024
       0.020
       0.004
      -0.016
      -0.031
      -0.037
      -0.031
      -0.019
      -0.006
       0.001
       0.001
      -0.004
      -0.012
      -0.020
      -0.025
      -0.026
      -0.022
      -0.016
      -0.013
      -0.014
      -0.017
      -0.018
      -0.014
      -0.006
       0.000
       0.002
      -0.001
      -0.008
      -0.016
      -0.023
      -0.024
      -0.018
      -0.007
       0.004
       0.009
       0.005
      -0.005
      -0.017
      -0.027
      -0.030
      -0.027
      -0.020
      -0.014
      -0.012
      -0.016
      -0.023
      -0.029
      -0.028
      -0.018
      -0.003
       0.010
       0.014
       0.008
      -0.002
      -0.011
      -0.013
      -0.007
       0.000
       0.005
       0.005
      -0.001
      -0.010
      -0.022
      -0.030
      -0.029
      -0.018
      -0.004
       0.004
       0.001
      -0.010
      -0.024
      -0.031
      -0.031
      -0.024
      -0.013
      -0.004
       0.002
       0.001
      -0.003
      -0.009
      -0.010
      -0.007
       0.001
       0.009
       0.014
       0.012
       0.001
      -0.015
      -0.027
      -0.025
      -0.009
       0.013
       0.026
       0.023
       0.004
      -0.017
      -0.029
      -0.026
      -0.012
       0.002
       0.009
       0.004
      -0.008
      -0.019
      -0.027
      -0.027
      -0.021
      -0.010
       0.000
       0.003
      -0.004
      -0.017
      -0.030
      -0.035
      -0.030
      -0.018
      -0.002
       0.011
       0.014
       0.007
      -0.009
      -0.024
      -0.027
      -0.019
      -0.005
       0.005
       0.002
      -0.010
      -0.022
      -0.027
      -0.020
      -0.005
       0.009
       0.016
       0.015
       0.006
      -0.009
      -0.025
      -0.035
      -0.034
      -0.021
      -0.001
       0.013
       0.015
       0.004
      -0.012
      -0.023
      -0.027
      -0.022
      -0.015
      -0.009
      -0.007
      -0.012
      -0.020
      -0.027
      -0.026
      -0.015
       0.001
       0.015
       0.019
       0.012
      -0.002
      -0.016
      -0.023
      -0.018
      -0.005
       0.009
       0.014
       0.008
      -0.008
      -0.022
      -0.025
      -0.016
       0.002
       0.018
       0.026
       0.022
       0.010
      -0.006
      -0.020
      -0.027
      -0.024
      -0.013
       0.000
       0.006
       0.002
      -0.009
      -0.022
      -0.028
      -0.020
       0.000
       0.022
       0.033
       0.025
       0.002
      -0.025
      -0.038
      -0.031
      -0.010
       0.011
       0.018
       0.009
      -0.009
      -0.026
      -0.033
      -0.029
      -0.018
      -0.005
       0.003
       0.004
      -0.004
      -0.017
      -0.030
      -0.037
      -0.033
      -0.018
       0.002
       0.017
       0.017
       0.004
      -0.013
      -0.024
      -0.024
      -0.017
      -0.007
       0.000
       0.001
      -0.005
      -0.017
      -0.026
      -0.022
      -0.005
       0.017
       0.030
       0.026
       0.008
      -0.016
      -0.032
      -0.035
      -0.022
       0.002
       0.025
       0.034
       0.022
      -0.002
      -0.026
      -0.038
      -0.033
      -0.018
      -0.001
       0.008
       0.007
      -0.004
      -0.017
      -0.027
      -0.029
      -0.023
      -0.012
      -0.001
       0.003
      -0.003
      -0.015
      -0.027
      -0.033
      -0.029
      -0.016
      -0.002
       0.003
      -0.005
      -0.021
      -0.035
      -0.038
      -0.029
      -0.011
       0.006
       0.014
       0.009
      -0.005
      -0.018
      -0.022
      -0.015
      -0.002
       0.009
       0.012
       0.007
      -0.003
      -0.015
      -0.025
      -0.029
      -0.025
      -0.013
       0.000
       0.004
      -0.005
      -0.020
      -0.029
      -0.024
      -0.008
       0.011
       0.020
       0.013
      -0.004
      -0.023
      -0.031
      -0.026
      -0.015
      -0.003
       0.003
       0.004
       0.001
      -0.007
      -0.021
      -0.043
      -0.069
      -0.088
      -0.090
      -0.067
      -0.021
       0.048
       0.132
       0.212
       0.250
       0.202
       0.043
      -0.211
      -0.501
      -0.749
      -0.889
      -0.890
      -0.749
      -0.478
      -0.103
       0.302
       0.616
       0.734
       0.648
       0.472
       0.376
       0.459
       0.666
       0.825
       0.803
       0.629
       0.443
       0.340
       0.275
       0.138
      -0.106
      -0.367
      -0.522
      -0.530
      -0.453
      -0.374
      -0.294
      -0.128
       0.207
       0.678
       1.109
       1.271
       1.022
       0.428
      -0.234
      -0.631
      -0.603
      -0.301
      -0.096
      -0.310
      -0.946
      -1.631
      -1.885
      -1.507
      -0.739
      -0.039
       0.301
       0.310
       0.199
       0.130
       0.165
       0.333
       0.624
       0.916
       1.015
       0.809
       0.334
      -0.273
      -0.800
      -0.991
      -0.698
      -0.080
       0.421
       0.403
      -0.126
      -0.732
      -0.922
      -0.521
       0.231
       0.882
       1.102
       0.911
       0.619
       0.496
       0.518
       0.444
       0.142
      -0.227
      -0.362
      -0.127
       0.280
       0.476
       0.250
      -0.203
      -0.445
      -0.210
       0.356
       0.808
       0.745
       0.102
      -0.812
      -1.500
      -1.548
      -0.876
       0.133
       0.816
       0.688
      -0.144
      -0.995
      -1.118
      -0.296
       0.959
       1.763
       1.503
       0.324
      -0.949
      -1.412
      -0.742
       0.576
       1.590
       1.542
       0.436
      -0.951
      -1.659
      -1.252
      -0.031
       1.273
       1.909
       1.425
      -0.047
      -1.673
      -2.347
      -1.576
       0.011
       1.177
       1.168
       0.320
      -0.330
      -0.027
       0.978
       1.622
       1.044
      -0.516
      -1.855
      -1.915
      -0.791
       0.373
       0.502
      -0.383
      -1.266
      -1.183
      -0.132
       1.029
       1.476
       1.163
       0.709
       0.649
       0.880
       0.860
       0.294
      -0.449
      -0.670
      -0.129
       0.543
       0.384
      -0.849
      -2.229
      -2.492
      -1.326
       0.347
       1.337
       1.195
       0.344
      -0.417
      -0.519
      -0.006
       0.545
       0.583
       0.152
      -0.172
       0.107
       0.883
       1.535
       1.447
       0.521
      -0.725
      -1.531
      -1.434
      -0.528
       0.621
       1.272
       0.924
      -0.261
      -1.480
      -1.868
      -1.166
       0.135
       1.209
       1.442
       0.769
      -0.333
      -1.133
      -1.069
      -0.139
       1.008
       1.545
       1.200
       0.465
       0.026
       0.056
       0.118
      -0.284
      -1.124
      -1.762
      -1.481
      -0.246
       1.020
       1.122
      -0.213
      -1.886
      -2.342
      -1.040
       1.043
       2.354
       2.145
       0.962
      -0.042
      -0.199
       0.196
       0.366
      -0.059
      -0.678
      -0.806
      -0.287
       0.277
       0.204
      -0.431
      -0.848
      -0.520
       0.181
       0.457
       0.019
      -0.617
      -0.678
       0.094
       1.133
       1.480
       0.702
      -0.557
      -1.073
      -0.222
       1.362
       2.368
       1.997
       0.590
      -0.768
      -1.249
      -0.939
      -0.534
      -0.441
      -0.398
      -0.069
       0.303
       0.179
      -0.421
      -0.746
      -0.165
       1.030
       1.828
       1.445
       0.017
      -1.480
      -1.990
      -1.239
       0.025
       0.711
       0.353
      -0.529
      -0.985
      -0.559
       0.310
       0.800
       0.567
       0.030
      -0.152
       0.279
       1.012
       1.406
       0.927
      -0.381
      -1.706
      -1.977
      -0.815
       0.974
       1.959
       1.272
      -0.605
      -2.198
      -2.312
      -1.063
       0.379
       1.013
       0.872
       0.711
       0.979
       1.281
       0.880
      -0.400
      -1.833
      -2.311
      -1.264
       0.721
       2.160
       1.828
      -0.077
      -1.974
      -2.269
      -0.751
       1.318
       2.411
       1.994
       0.739
      -0.255
      -0.357
       0.259
       0.866
       0.751
      -0.215
      -1.383
      -1.790
      -1.063
       0.124
       0.628
      -0.061
      -1.301
      -1.835
      -0.831
       1.352
       3.276
       3.465
       1.664
      -0.816
      -2.104
      -1.319
       0.686
       2.096
       1.700
      -0.184
      -2.142
      -2.837
      -1.917
      -0.197
       0.945
       0.678
      -0.541
      -1.419
      -1.080
       0.123
       1.025
       0.863
       0.030
      -0.409
       0.109
       1.060
       1.415
       0.666
      -0.789
      -2.061
      -2.389
      -1.566
      -0.167
       0.750
       0.588
      -0.142
      -0.428
       0.045
       0.641
       0.705
       0.325
       0.085
       0.414
       1.282
       2.262
       2.735
       2.243
       0.870
      -0.711
      -1.645
      -1.525
      -0.757
      -0.229
      -0.482
      -1.212
      -1.620
      -1.175
      -0.015
       1.213
       1.804
       1.462
       0.551
      -0.156
      -0.165
       0.239
       0.343
      -0.161
      -0.942
      -1.509
      -1.611
      -1.234
      -0.584
      -0.044
       0.150
       0.183
       0.446
       1.031
       1.631
       1.877
       1.566
       0.644
      -0.696
      -1.862
      -2.164
      -1.438
      -0.300
       0.331
       0.095
      -0.374
      -0.055
       1.334
       2.891
       3.292
       1.999
      -0.221
      -1.966
      -2.383
      -1.762
      -1.049
      -0.900
      -1.190
      -1.305
      -0.770
       0.315
       1.348
       1.747
       1.417
       0.708
      -0.009
      -0.591
      -0.956
      -0.925
      -0.461
       0.064
       0.117
      -0.428
      -1.063
      -1.027
       0.033
       1.730
       3.170
       3.534
       2.628
       1.001
      -0.502
      -1.374
      -1.738
      -2.043
      -2.504
      -2.871
      -2.697
      -1.717
      -0.058
       1.707
       2.744
       2.510
       1.345
       0.392
       0.631
       1.915
       3.039
       2.781
       0.946
      -1.494
      -3.148
      -3.196
      -1.925
      -0.439
       0.258
       0.029
      -0.503
      -0.656
      -0.261
       0.290
       0.458
       0.123
      -0.256
      -0.102
       0.653
       1.436
       1.571
       0.941
       0.076
      -0.454
      -0.623
      -0.760
      -0.945
      -0.937
      -0.701
      -0.608
      -0.950
      -1.472
      -1.547
      -0.775
       0.540
       1.516
       1.400
       0.279
      -0.892
      -1.066
      -0.047
       1.327
       1.976
       1.583
       0.791
       0.479
       0.895
       1.435
       1.224
      -0.013
      -1.560
      -2.203
      -1.297
       0.532
       1.812
       1.485
      -0.144
      -1.618
      -1.632
      -0.261
       1.142
       1.326
       0.314
      -0.787
      -0.978
      -0.268
       0.532
       0.721
       0.280
      -0.282
      -0.455
      -0.123
       0.362
       0.474
      -0.020
      -0.790
      -1.143
      -0.588
       0.657
       1.694
       1.608
       0.249
      -1.595
      -2.797
      -2.657
      -1.302
       0.421
       1.452
       1.236
       0.142
      -0.837
      -0.915
      -0.110
       0.881
       1.316
       0.974
       0.263
      -0.178
      -0.050
       0.339
       0.402
      -0.074
      -0.613
      -0.515
       0.331
       1.190
       1.150
       0.017
      -1.405
      -1.931
      -0.993
       0.763
       1.896
       1.410
      -0.289
      -1.731
      -1.721
      -0.360
       1.154
       1.634
       0.833
      -0.513
      -1.386
      -1.252
      -0.334
       0.681
       1.137
       0.731
      -0.347
      -1.426
      -1.696
      -0.788
       0.924
       2.550
       3.200
       2.471
       0.653
      -1.426
      -2.796
      -2.817
      -1.534
       0.297
       1.650
       1.883
       1.068
      -0.238
      -1.395
      -1.841
      -1.181
       0.463
       2.185
       2.764
       1.697
      -0.262
      -1.740
      -1.930
      -1.165
      -0.412
      -0.288
      -0.590
      -0.667
      -0.149
       0.620
       0.853
       0.105
      -1.103
      -1.553
      -0.451
       1.631
       3.044
       2.498
       0.340
      -1.668
      -1.971
      -0.664
       0.721
       0.858
      -0.088
      -0.896
      -0.735
       0.154
       0.999
       1.318
       1.220
       1.108
       1.151
       1.086
       0.637
      -0.023
      -0.499
      -0.787
      -1.339
      -2.416
      -3.510
      -3.610
      -2.184
       0.121
       1.840
       1.800
      -0.050
      -2.688
      -4.692
      -5.056
      -3.794
      -1.830
      -0.113
       1.098
       1.885
       1.958
       0.950
      -0.543
      -0.888
       1.119
       4.825
       7.969
       8.403
       5.777
       1.879
      -0.648
      -0.308
       2.011
       3.712
       2.781
      -0.334
      -3.196
      -3.860
      -2.724
      -1.751
      -2.049
      -2.693
      -2.015
       0.334
       2.853
       3.511
       1.491
      -2.042
      -4.633
      -4.368
      -1.554
       1.466
       2.567
       1.833
       0.991
       1.152
       1.728
       1.473
      -0.032
      -2.016
      -3.213
      -2.840
      -1.211
       0.409
       0.735
      -0.398
      -1.699
      -1.451
       0.872
       4.027
       6.009
       5.672
       3.508
       1.050
      -0.413
      -0.588
       0.030
       0.825
       1.395
       1.435
       0.722
      -0.617
      -2.147
      -3.540
      -4.660
      -5.168
      -4.486
      -2.529
      -0.283
       0.787
       0.059
      -1.623
      -2.662
      -2.031
      -0.105
       1.649
       1.841
       0.253
      -1.885
      -2.698
      -1.169
       1.845
       4.237
       4.464
       2.774
       0.738
      -0.210
       0.128
       0.715
       0.240
      -1.702
      -4.201
      -5.677
      -4.972
      -2.204
       1.096
       2.864
       2.054
      -0.406
      -2.379
      -2.357
      -0.493
       1.949
       3.705
       4.211
       3.717
       2.848
       1.953
       0.874
      -0.600
      -2.145
      -2.922
      -2.369
      -0.919
       0.304
       0.602
       0.339
       0.413
       1.175
       1.975
       1.825
       0.462
      -1.405
      -2.767
      -3.014
      -2.204
      -0.926
       0.231
       1.158
       2.102
       3.133
       3.941
       4.126
       3.548
       2.347
       0.803
      -0.724
      -1.858
      -2.383
      -2.308
      -1.829
      -1.332
      -1.228
      -1.550
      -1.813
      -1.528
      -0.819
      -0.291
      -0.234
      -0.194
       0.498
       1.866
       3.093
       3.207
       1.964
       0.129
      -0.995
      -0.429
       1.671
       3.790
       3.976
       1.529
      -2.064
      -4.126
      -3.032
       0.247
       2.795
       2.219
      -1.171
      -4.649
      -5.652
      -3.952
      -1.322
       0.423
       0.795
       0.599
       0.979
       2.217
       3.187
       2.314
      -0.609
      -3.719
      -4.580
      -2.467
       0.925
       3.007
       2.484
       0.392
      -0.825
       0.435
       3.337
       5.376
       4.819
       2.254
      -0.188
      -0.822
       0.335
       1.855
       2.242
       1.210
      -0.250
      -1.015
      -0.891
      -0.527
      -0.489
      -0.634
      -0.419
       0.259
       0.712
       0.099
      -1.606
      -3.478
      -4.505
      -4.428
      -3.694
      -2.802
      -1.820
      -0.519
       1.077
       2.341
       2.467
       1.398
       0.112
      -0.316
       0.161
       0.659
       0.438
      -0.458
      -1.544
      -2.486
      -3.159
      -3.364
      -2.798
      -1.338
       0.658
       2.282
       2.427
       0.716
      -1.643
      -2.341
      -0.030
       3.909
       6.103
       4.146
      -1.087
      -6.094
      -7.685
      -5.485
      -1.958
      -0.199
      -1.363
      -3.817
      -4.662
      -2.365
       1.840
       5.100
       5.505
       3.566
       1.457
       0.970
       2.012
       2.843
       1.865
      -0.627
      -2.580
      -2.238
       0.083
       2.399
       3.031
       1.979
       0.616
       0.317
       1.346
       2.839
       3.714
       3.481
       2.277
       0.479
      -1.467
      -3.000
      -3.597
      -3.147
      -2.087
      -1.037
      -0.294
       0.279
       0.942
       1.760
       2.573
       3.056
       2.747
       1.377
      -0.580
      -1.958
      -1.856
      -0.533
       0.819
       1.191
       0.694
       0.400
       1.146
       2.434
       2.715
       0.970
      -2.001
      -4.043
      -3.515
      -0.807
       1.961
       2.752
       1.274
      -0.992
      -2.276
      -2.034
      -1.104
      -0.517
      -0.381
      -0.020
       1.009
       2.281
       2.838
       2.069
       0.332
      -1.256
      -1.776
      -1.302
      -0.655
      -0.384
      -0.224
       0.462
       1.949
       3.763
       4.863
       4.405
       2.598
       0.722
       0.073
       0.788
       1.755
       1.671
       0.186
      -1.817
      -2.955
      -2.476
      -0.925
       0.311
       0.215
      -1.033
      -2.401
      -3.044
      -2.939
      -2.609
      -2.475
      -2.559
      -2.688
      -2.775
      -2.815
      -2.699
      -2.212
      -1.293
      -0.176
       0.809
       1.441
       1.597
       1.248
       0.552
      -0.244
      -1.050
      -1.912
      -2.734
      -3.197
      -3.020
      -2.251
      -1.203
      -0.093
       1.174
       2.767
       4.519
       5.846
       6.194
       5.541
       4.355
       2.980
       1.175
      -1.564
      -5.052
      -7.895
      -8.368
      -6.064
      -2.507
       0.116
       0.805
       0.351
       0.359
       1.749
       3.987
       5.564
       5.290
       3.338
       1.124
       0.073
       0.397
       1.022
       0.729
      -0.634
      -2.001
      -2.066
      -0.457
       1.934
       3.662
       3.792
       2.521
       0.955
       0.240
       0.664
       1.460
       1.477
       0.110
      -2.247
      -4.455
      -5.309
      -4.273
      -1.870
       0.604
       1.867
       1.425
      -0.113
      -1.381
      -1.195
       0.502
       2.534
       3.423
       2.516
       0.371
      -1.724
      -2.588
      -1.833
      -0.060
       1.496
       1.682
       0.196
      -2.072
      -3.525
      -3.059
      -1.025
       0.993
       1.515
       0.384
      -1.225
      -1.906
      -1.140
