Origin Time       25/11/2007 23:12:20
Lat.              28.6 N 
Long.             77.0 E 
Depth (Km)         20.3
Magnitude         4.3
 Region           DELHI-HARYANA-BORDER-REGION                                      
 Above details taken from IMD 
     
Station Code      LDR
Station Lat.       28.583  N
Station Long.      77.217  E
Station Height(m)  200.0
Site Class        C   Vs30 between 200 m/sec to 375 m/sec *  
Record Time       25.11.2007 23:11:56.775
Sampling Rate     200. Hz
 Record Duration  137.655 Sec.
 Direction         E-W (E positive)
Max. Acceleration     -8.114 cm/sec**2
     
  * For reference see Site Classification link of website 
     
 Base Line Corrected and Low Pass Filtered (Cut Off at 35 Hz) Time History
 Acceleration data in cm/sec**2
    
[...]
      -0.342
      -0.424
      -0.462
      -0.421
      -0.256
       0.005
       0.243
       0.342
       0.282
       0.145
       0.043
       0.055
       0.192
       0.388
       0.511
       0.455
       0.214
      -0.088
      -0.258
      -0.175
       0.083
       0.296
       0.288
       0.062
      -0.236
      -0.421
      -0.368
      -0.104
       0.161
       0.176
      -0.115
      -0.496
      -0.677
      -0.570
      -0.322
      -0.117
      -0.028
      -0.015
       0.010
       0.098
       0.218
       0.298
       0.307
       0.278
       0.257
       0.254
       0.244
       0.201
       0.125
       0.011
      -0.153
      -0.338
      -0.449
      -0.392
      -0.157
       0.154
       0.376
       0.401
       0.258
       0.085
       0.005
       0.050
       0.154
       0.211
       0.154
       0.004
      -0.126
      -0.131
      -0.063
      -0.060
      -0.124
      -0.121
      -0.016
       0.054
      -0.015
      -0.162
      -0.252
      -0.220
      -0.094
       0.072
       0.228
       0.323
       0.321
       0.206
      -0.001
      -0.200
      -0.255
      -0.123
       0.079
       0.172
       0.052
      -0.248
      -0.558
      -0.669
      -0.493
      -0.151
       0.135
       0.248
       0.233
       0.191
       0.143
       0.021
      -0.168
      -0.244
      -0.013
       0.470
       0.901
       0.968
       0.607
       0.050
      -0.348
      -0.370
      -0.095
       0.197
       0.277
       0.152
      -0.008
      -0.072
      -0.053
      -0.048
      -0.127
      -0.297
      -0.484
      -0.572
      -0.492
      -0.304
      -0.158
      -0.149
      -0.225
      -0.243
      -0.102
       0.148
       0.336
       0.306
       0.054
      -0.247
      -0.337
      -0.070
       0.387
       0.650
       0.486
       0.028
      -0.395
      -0.551
      -0.413
      -0.105
       0.174
       0.248
       0.096
      -0.120
      -0.202
      -0.088
       0.145
       0.376
       0.495
       0.454
       0.304
       0.135
      -0.021
      -0.168
      -0.258
      -0.254
      -0.227
      -0.288
      -0.408
      -0.415
      -0.224
       0.024
       0.147
       0.149
       0.163
       0.258
       0.373
       0.407
       0.341
       0.257
       0.243
       0.282
       0.279
       0.175
      -0.005
      -0.194
      -0.339
      -0.428
      -0.503
      -0.608
      -0.693
      -0.651
      -0.475
      -0.316
      -0.315
      -0.413
      -0.404
      -0.165
       0.202
       0.478
       0.551
       0.532
       0.613
       0.803
       0.908
       0.774
       0.474
       0.220
       0.110
       0.023
      -0.184
      -0.476
      -0.693
      -0.725
      -0.566
      -0.279
       0.011
       0.154
       0.099
      -0.039
      -0.112
      -0.081
      -0.013
       0.041
       0.110
       0.210
       0.259
       0.158
      -0.055
      -0.197
      -0.128
       0.098
       0.305
       0.380
       0.335
       0.226
       0.115
       0.095
       0.230
       0.421
       0.468
       0.263
      -0.087
      -0.354
      -0.376
      -0.203
      -0.058
      -0.130
      -0.396
      -0.629
      -0.596
      -0.271
       0.096
       0.196
      -0.006
      -0.215
      -0.137
       0.230
       0.620
       0.715
       0.384
      -0.192
      -0.643
      -0.673
      -0.257
       0.319
       0.629
       0.445
      -0.056
      -0.418
      -0.332
       0.035
       0.249
       0.158
       0.045
       0.211
       0.619
       0.966
       0.956
       0.447
      -0.448
      -1.314
      -1.645
      -1.269
      -0.524
       0.048
       0.143
      -0.118
      -0.346
      -0.230
       0.167
       0.472
       0.381
      -0.046
      -0.445
      -0.446
       0.042
       0.737
       1.173
       1.081
       0.603
       0.133
      -0.072
      -0.089
      -0.143
      -0.294
      -0.390
      -0.269
       0.083
       0.463
       0.516
       0.042
      -0.703
      -1.189
      -1.059
      -0.361
       0.550
       1.215
       1.271
       0.675
      -0.163
      -0.668
      -0.621
      -0.320
      -0.175
      -0.318
      -0.582
      -0.717
      -0.631
      -0.446
      -0.315
      -0.257
      -0.176
       0.021
       0.334
       0.636
       0.759
       0.616
       0.258
      -0.131
      -0.320
      -0.178
       0.191
       0.492
       0.499
       0.258
       0.017
       0.000
       0.222
       0.464
       0.430
      -0.025
      -0.742
      -1.322
      -1.415
      -0.997
      -0.339
       0.239
       0.554
       0.611
       0.522
       0.421
       0.423
       0.544
       0.686
       0.722
       0.590
       0.342
       0.090
      -0.095
      -0.218
      -0.318
      -0.439
      -0.565
      -0.605
      -0.493
      -0.274
      -0.065
       0.077
       0.191
       0.295
       0.309
       0.170
      -0.063
      -0.267
      -0.408
      -0.568
      -0.790
      -0.955
      -0.880
      -0.471
       0.220
       0.949
       1.381
       1.346
       0.963
       0.526
       0.304
       0.397
       0.682
       0.884
       0.756
       0.251
      -0.432
      -0.954
      -1.075
      -0.842
      -0.497
      -0.202
       0.043
       0.214
       0.195
      -0.052
      -0.379
      -0.570
      -0.505
      -0.235
       0.036
       0.079
      -0.202
      -0.674
      -1.030
      -1.001
      -0.588
      -0.081
       0.200
       0.141
      -0.087
      -0.167
       0.113
       0.672
       1.197
       1.382
       1.154
       0.700
       0.296
       0.113
       0.111
       0.064
      -0.209
      -0.618
      -0.879
      -0.770
      -0.311
       0.233
       0.499
       0.302
      -0.210
      -0.615
      -0.505
       0.185
       1.056
       1.529
       1.304
       0.555
      -0.269
      -0.772
      -0.810
      -0.472
       0.055
       0.569
       0.840
       0.667
       0.055
      -0.707
      -1.228
      -1.270
      -0.864
      -0.271
       0.187
       0.333
       0.248
       0.174
       0.261
       0.442
       0.530
       0.433
       0.235
       0.101
       0.107
       0.177
       0.173
       0.040
      -0.139
      -0.227
      -0.198
      -0.197
      -0.383
      -0.701
      -0.892
      -0.762
      -0.395
      -0.065
       0.010
      -0.175
      -0.428
      -0.541
      -0.486
      -0.413
      -0.420
      -0.391
      -0.127
       0.372
       0.790
       0.754
       0.219
      -0.441
      -0.730
      -0.449
       0.121
       0.459
       0.309
      -0.087
      -0.271
      -0.006
       0.549
       1.012
       1.113
       0.892
       0.598
       0.458
       0.536
       0.732
       0.861
       0.768
       0.435
      -0.002
      -0.371
      -0.593
      -0.685
      -0.660
      -0.493
      -0.216
       0.026
       0.106
       0.008
      -0.239
      -0.626
      -1.077
      -1.355
      -1.164
      -0.456
       0.396
       0.869
       0.740
       0.242
      -0.175
      -0.240
      -0.013
       0.255
       0.368
       0.302
       0.150
       0.033
       0.033
       0.166
       0.372
       0.535
       0.560
       0.468
       0.347
       0.237
       0.168
       0.264
       0.584
       0.944
       1.028
       0.654
      -0.093
      -0.903
      -1.424
      -1.505
      -1.306
      -1.117
      -1.098
      -1.194
      -1.240
      -1.138
      -0.921
      -0.651
      -0.328
       0.043
       0.330
       0.363
       0.157
      -0.071
      -0.146
      -0.053
       0.176
       0.518
       0.864
       1.034
       0.963
       0.778
       0.639
       0.633
       0.806
       1.132
       1.386
       1.227
       0.529
      -0.383
      -0.898
      -0.639
       0.233
       1.242
       2.008
       2.412
       2.499
       2.382
       2.274
       2.426
       2.873
       3.357
       3.569
       3.399
       2.893
       2.125
       1.251
       0.631
       0.614
       1.135
       1.692
       1.768
       1.147
      -0.061
      -1.418
      -2.252
      -2.151
      -1.447
      -1.034
      -1.627
      -3.176
      -4.905
      -5.880
      -5.624
      -4.349
      -2.806
      -1.910
      -2.195
      -3.445
      -4.819
      -5.383
      -4.675
      -2.992
      -1.199
      -0.167
      -0.226
      -1.016
      -1.861
      -2.219
      -1.777
      -0.517
       1.030
       1.828
       1.073
      -0.972
      -2.970
      -3.486
      -2.108
       0.223
       1.840
       1.525
      -0.534
      -2.867
      -3.847
      -2.880
      -0.727
       1.213
       1.995
       1.587
       0.535
      -0.472
      -0.775
      -0.002
       1.499
       2.631
       2.366
       0.751
      -0.930
      -1.163
       0.414
       2.618
       3.893
       3.854
       3.467
       3.741
       4.515
       4.680
       3.456
       1.237
      -0.687
      -1.099
       0.218
       2.287
       3.685
       3.561
       2.135
       0.470
      -0.268
       0.396
       1.918
       3.052
       2.610
       0.378
      -2.491
      -4.212
      -3.769
      -1.754
       0.121
       0.398
      -1.028
      -3.033
      -4.306
      -4.189
      -2.840
      -1.050
       0.222
       0.441
      -0.187
      -0.882
      -0.860
      -0.025
       0.807
       0.509
      -1.324
      -3.782
      -5.182
      -4.436
      -1.964
       0.674
       1.966
       1.445
      -0.122
      -1.366
      -1.239
       0.369
       2.657
       4.445
       4.814
       3.556
       1.312
      -0.710
      -1.409
      -0.453
       1.525
       3.333
       3.944
       3.001
       0.836
      -1.716
      -3.503
      -3.479
      -1.428
       1.632
       3.965
       4.283
       2.654
       0.397
      -0.982
      -1.007
      -0.510
      -0.667
      -1.834
      -3.326
      -4.038
      -3.224
      -1.020
       1.548
       3.205
       3.320
       2.302
       1.133
       0.528
       0.574
       0.976
       1.387
       1.585
       1.583
       1.581
       1.666
       1.655
       1.328
       0.730
       0.154
      -0.096
       0.111
       0.620
       0.934
       0.484
      -0.871
      -2.595
      -3.736
      -3.552
      -2.046
       0.023
       1.654
       2.159
       1.449
       0.032
      -1.228
      -1.553
      -0.710
       0.829
       2.204
       2.696
       2.142
       1.007
       0.088
       0.031
       0.992
       2.606
       4.148
       4.785
       3.983
       1.983
      -0.263
      -1.892
      -2.844
      -3.630
      -4.460
      -4.842
      -4.196
      -2.666
      -1.065
      -0.080
       0.293
       0.560
       1.151
       1.995
       2.468
       1.779
      -0.336
      -3.125
      -5.213
      -5.706
      -4.911
      -3.826
      -2.997
      -2.092
      -0.580
       1.334
       2.665
       2.561
       1.203
      -0.187
      -0.304
       1.029
       2.561
       2.670
       0.820
      -1.961
      -3.887
      -3.685
      -1.388
       1.695
       3.811
       4.000
       2.819
       1.783
       1.948
       2.937
       3.293
       1.872
      -0.971
      -3.572
      -4.452
      -3.635
      -2.494
      -2.338
      -3.203
      -3.984
      -3.637
      -2.178
      -0.622
      -0.059
      -0.710
      -1.715
      -1.759
      -0.119
       2.577
       4.619
       4.524
       2.285
      -0.555
      -2.036
      -1.209
       1.184
       3.277
       3.490
       1.647
      -1.059
      -3.048
      -3.385
      -2.191
      -0.374
       0.950
       0.995
      -0.365
      -2.542
      -4.536
      -5.521
      -5.379
      -4.731
      -4.427
      -4.880
      -5.782
      -6.429
      -6.270
      -5.204
      -3.597
      -2.113
      -1.318
      -1.240
      -1.267
      -0.630
       0.918
       2.862
       4.277
       4.487
       3.650
       2.735
       2.727
       3.821
       5.382
       6.553
       6.843
       6.270
       5.196
       4.138
       3.585
       3.786
       4.608
       5.558
       6.008
       5.536
       4.272
       2.921
       2.300
       2.714
       3.681
       4.279
       3.862
       2.560
       1.157
       0.396
       0.301
       0.215
      -0.485
      -1.753
      -2.948
      -3.448
      -3.162
      -2.522
      -2.011
      -1.753
      -1.608
      -1.537
      -1.684
      -2.100
      -2.538
      -2.570
      -1.921
      -0.738
       0.468
       1.213
       1.441
       1.631
       2.419
       3.969
       5.650
       6.389
       5.469
       3.103
       0.322
      -1.712
      -2.369
      -1.784
      -0.637
       0.359
       0.898
       1.030
       0.808
       0.162
      -0.864
      -1.980
      -2.889
      -3.560
      -4.138
      -4.626
      -4.752
      -4.270
      -3.348
      -2.540
      -2.288
      -2.493
      -2.617
      -2.277
      -1.647
      -1.202
      -1.112
      -1.022
      -0.447
       0.633
       1.607
       1.737
       0.852
      -0.452
      -1.339
      -1.422
      -0.979
      -0.625
      -0.813
      -1.464
      -1.964
      -1.592
      -0.101
       2.026
       3.813
       4.343
       3.353
       1.508
       0.068
       0.072
       1.647
       3.949
       5.690
       5.884
       4.388
       1.925
      -0.376
      -1.653
      -1.821
      -1.644
      -2.201
      -4.002
      -6.435
      -8.114
      -7.934
      -5.980
      -3.530
      -2.116
      -2.429
      -3.851
      -4.937
      -4.484
      -2.401
       0.279
       2.180
       2.490
       1.399
      -0.129
      -1.057
      -0.942
      -0.137
       0.555
       0.505
      -0.292
      -1.283
      -1.838
      -1.682
      -0.947
      -0.006
       0.659
       0.642
      -0.098
      -1.072
      -1.545
      -1.034
       0.380
       2.146
       3.587
       4.262
       4.165
       3.628
       3.083
       2.841
       2.899
       2.943
       2.589
       1.675
       0.366
      -0.932
      -1.790
      -2.003
      -1.702
      -1.240
      -0.949
      -0.963
      -1.217
      -1.538
      -1.722
      -1.589
      -1.117
      -0.545
      -0.189
      -0.085
       0.123
       0.829
       2.042
       3.369
       4.389
       5.003
       5.432
       5.946
       6.620
       7.266
       7.578
       7.390
       6.808
       6.029
       5.074
       3.796
       2.225
       0.791
       0.084
       0.274
       0.847
       0.994
       0.294
      -0.973
      -2.116
      -2.600
      -2.416
      -1.947
      -1.561
      -1.420
      -1.590
      -2.160
      -3.144
      -4.287
      -5.060
      -5.006
      -4.200
      -3.320
      -3.135
      -3.893
      -5.172
      -6.224
      -6.447
      -5.743
      -4.543
      -3.385
      -2.398
      -1.300
       0.129
       1.669
       2.784
       3.126
       2.945
       2.890
       3.335
       4.028
       4.443
       4.334
       3.926
       3.663
       3.789
       4.137
       4.265
       3.779
       2.575
       0.912
      -0.697
      -1.739
      -1.973
      -1.598
      -1.169
      -1.251
      -2.066
      -3.382
      -4.711
      -5.685
      -6.290
      -6.771
      -7.315
      -7.763
      -7.646
      -6.554
      -4.529
      -2.182
      -0.349
       0.496
       0.587
       0.608
       1.115
       2.123
       3.120
       3.478
       2.945
       1.864
       0.988
       0.996
       1.983
       3.298
       4.000
       3.641
       2.648
       1.910
       1.945
       2.424
       2.526
       1.756
       0.358
      -0.987
      -1.719
      -1.719
      -1.234
      -0.616
      -0.147
       0.004
      -0.089
      -0.017
       0.669
       1.935
       3.118
       3.467
       2.851
       1.871
       1.257
       1.150
       0.980
       0.072
      -1.588
      -3.179
      -3.734
      -3.037
      -1.809
      -0.959
      -0.741
      -0.694
      -0.234
       0.767
       1.861
       2.342
       1.783
       0.433
      -0.858
      -1.210
      -0.343
       1.292
       2.896
       3.814
       3.822
       3.125
       2.158
       1.253
       0.474
      -0.242
      -0.857
      -1.214
      -1.247
      -1.087
      -0.946
      -0.976
      -1.237
      -1.729
      -2.410
      -3.169
      -3.820
      -4.185
      -4.188
      -3.893
      -3.450
      -2.905
      -2.100
      -0.924
       0.328
       1.019
       0.662
      -0.600
      -2.011
      -2.748
      -2.509
      -1.660
      -0.890
      -0.696
      -1.109
      -1.801
      -2.349
      -2.406
      -1.807
      -0.657
       0.697
       1.813
       2.324
       2.178
       1.765
       1.687
       2.244
       3.158
       3.863
       4.034
       3.800
       3.521
       3.437
       3.560
       3.818
       4.176
       4.596
       4.934
       4.928
       4.348
       3.292
       2.260
       1.775
       1.857
       2.000
       1.672
       0.776
      -0.324
      -1.076
      -1.126
      -0.650
      -0.347
      -0.937
      -2.517
      -4.388
      -5.578
      -5.649
      -5.051
      -4.692
      -5.065
      -5.732
      -5.653
      -4.086
      -1.296
       1.544
       3.201
       3.211
       2.059
       0.748
       0.137
       0.450
       1.249
       1.846
       1.828
       1.252
       0.450
      -0.232
      -0.572
      -0.547
      -0.357
      -0.295
      -0.544
      -1.040
      -1.497
      -1.617
      -1.343
      -0.936
      -0.756
      -0.895
      -1.057
      -0.881
      -0.355
       0.184
       0.396
       0.239
      -0.066
      -0.292
      -0.382
      -0.385
      -0.302
      -0.036
       0.473
       1.093
       1.514
       1.456
       0.898
       0.166
      -0.259
      -0.185
       0.075
       0.060
      -0.315
      -0.703
      -0.764
      -0.543
      -0.412
      -0.640
      -1.046
      -1.075
      -0.303
       1.046
       2.151
       2.277
       1.385
       0.140
      -0.632
      -0.534
       0.197
       0.943
       1.141
       0.586
      -0.474
      -1.462
      -1.782
      -1.217
      -0.127
       0.808
       1.155
       0.953
       0.482
       0.035
      -0.123
       0.143
       0.664
       1.010
       0.792
      -0.071
      -1.280
      -2.233
      -2.289
      -1.246
       0.344
       1.468
       1.440
       0.459
      -0.534
      -0.597
       0.461
       1.925
       2.754
       2.357
       0.998
      -0.377
      -0.792
       0.051
       1.542
       2.625
       2.583
       1.551
       0.385
       0.016
       0.711
       1.823
       2.303
       1.623
       0.291
      -0.556
      -0.191
       1.063
       2.146
       2.113
       0.759
      -1.320
      -3.172
      -4.089
      -3.935
      -3.071
      -2.051
      -1.307
      -0.934
      -0.727
      -0.456
      -0.122
       0.083
       0.048
      -0.085
      -0.097
      -0.006
      -0.118
      -0.734
      -1.814
      -2.886
      -3.300
      -2.708
      -1.413
      -0.212
       0.219
      -0.134
      -0.651
      -0.621
       0.139
       1.101
       1.448
       0.748
      -0.680
      -2.016
      -2.582
      -2.316
