Origin Time       06/11/2013 04:16:16
Lat.              26.5 N	
Long.             93.5 E	
Depth (Km)         20.0
Magnitude         5.5
 Region           Karbi-Assam                                                      
 Above details taken from IMD 
   
Station Code      LKH
Station Lat.       27.239
Station Long.      94.107
Station Height(m)   95.0
Site Class        C   Vs30 between 200 m/sec to 375 m/sec *  
Record Time       06.11.2013 04:18:13.169
Sampling Rate     200. Hz
 Record Duration   80.015 Sec.
 Direction         Vert. (Up positive)
Max. Acceleration     -2.351 cm/sec**2
     
  * For reference see Site Classification link of website 
     
 Base Line Corrected and Low Pass Filtered (Cut Off at 35 Hz) Time History
 Acceleration data in cm/sec**2
    
[...]
      -0.108
      -0.002
       0.093
       0.160
       0.180
       0.140
       0.041
      -0.099
      -0.237
      -0.315
      -0.287
      -0.150
       0.038
       0.203
       0.300
       0.338
       0.353
       0.357
       0.313
       0.176
      -0.052
      -0.292
      -0.435
      -0.422
      -0.277
      -0.081
       0.102
       0.251
       0.374
       0.475
       0.525
       0.468
       0.266
      -0.060
      -0.414
      -0.674
      -0.756
      -0.652
      -0.415
      -0.116
       0.185
       0.450
       0.657
       0.792
       0.849
       0.822
       0.701
       0.475
       0.164
      -0.178
      -0.482
      -0.704
      -0.844
      -0.915
      -0.910
      -0.791
      -0.534
      -0.163
       0.236
       0.564
       0.757
       0.818
       0.778
       0.652
       0.431
       0.129
      -0.181
      -0.397
      -0.470
      -0.454
      -0.453
      -0.519
      -0.595
      -0.570
      -0.388
      -0.098
       0.197
       0.432
       0.608
       0.743
       0.827
       0.828
       0.746
       0.619
       0.486
       0.352
       0.195
       0.010
      -0.195
      -0.413
      -0.637
      -0.829
      -0.922
      -0.859
      -0.652
      -0.372
      -0.112
       0.063
       0.133
       0.128
       0.109
       0.144
       0.249
       0.373
       0.432
       0.389
       0.291
       0.211
       0.169
       0.114
       0.000
      -0.142
      -0.227
      -0.194
      -0.071
       0.064
       0.149
       0.177
       0.178
       0.171
       0.151
       0.108
       0.053
       0.010
      -0.008
      -0.015
      -0.036
      -0.076
      -0.109
      -0.097
      -0.028
       0.058
       0.093
       0.037
      -0.092
      -0.237
      -0.348
      -0.425
      -0.494
      -0.550
      -0.528
      -0.357
      -0.026
       0.374
       0.696
       0.814
       0.683
       0.361
      -0.028
      -0.355
      -0.550
      -0.611
      -0.578
      -0.483
      -0.339
      -0.149
       0.072
       0.295
       0.477
       0.585
       0.605
       0.542
       0.417
       0.257
       0.097
      -0.036
      -0.134
      -0.204
      -0.266
      -0.334
      -0.413
      -0.487
      -0.526
      -0.504
      -0.405
      -0.230
       0.006
       0.274
       0.536
       0.746
       0.851
       0.801
       0.590
       0.277
      -0.046
      -0.315
      -0.525
      -0.696
      -0.819
      -0.842
      -0.718
      -0.457
      -0.134
       0.156
       0.342
       0.403
       0.361
       0.262
       0.152
       0.054
      -0.042
      -0.154
      -0.285
      -0.412
      -0.503
      -0.527
      -0.458
      -0.293
      -0.057
       0.196
       0.412
       0.564
       0.642
       0.639
       0.543
       0.358
       0.115
      -0.128
      -0.318
      -0.424
      -0.437
      -0.355
      -0.191
      -0.003
       0.122
       0.115
      -0.009
      -0.158
      -0.234
      -0.208
      -0.137
      -0.109
      -0.163
      -0.255
      -0.296
      -0.224
      -0.058
       0.125
       0.257
       0.324
       0.349
       0.339
       0.247
       0.022
      -0.299
      -0.581
      -0.674
      -0.534
      -0.251
       0.019
       0.176
       0.237
       0.294
       0.425
       0.617
       0.771
       0.792
       0.655
       0.407
       0.114
      -0.178
      -0.436
      -0.620
      -0.697
      -0.671
      -0.599
      -0.546
      -0.532
      -0.507
      -0.394
      -0.165
       0.124
       0.354
       0.432
       0.369
       0.278
       0.283
       0.405
       0.527
       0.503
       0.292
       0.003
      -0.211
      -0.281
      -0.262
      -0.259
      -0.317
      -0.394
      -0.406
      -0.311
      -0.142
       0.015
       0.085
       0.046
      -0.074
      -0.214
      -0.311
      -0.320
      -0.235
      -0.090
       0.064
       0.180
       0.243
       0.275
       0.318
       0.381
       0.414
       0.334
       0.105
      -0.209
      -0.478
      -0.593
      -0.537
      -0.381
      -0.217
      -0.096
      -0.023
       0.018
       0.042
       0.051
       0.042
       0.011
      -0.022
      -0.019
       0.049
       0.164
       0.259
       0.272
       0.196
       0.076
      -0.037
      -0.124
      -0.192
      -0.250
      -0.290
      -0.287
      -0.232
      -0.151
      -0.090
      -0.074
      -0.069
      -0.004
       0.159
       0.382
       0.565
       0.621
       0.550
       0.425
       0.327
       0.253
       0.122
      -0.145
      -0.515
      -0.841
      -0.974
      -0.886
      -0.673
      -0.453
      -0.263
      -0.069
       0.164
       0.403
       0.576
       0.629
       0.577
       0.487
       0.417
       0.362
       0.254
       0.026
      -0.309
      -0.639
      -0.834
      -0.835
      -0.684
      -0.459
      -0.208
       0.064
       0.359
       0.667
       0.956
       1.174
       1.239
       1.064
       0.630
       0.035
      -0.543
      -0.943
      -1.104
      -1.068
      -0.919
      -0.719
      -0.496
      -0.258
      -0.019
       0.188
       0.331
       0.403
       0.441
       0.493
       0.570
       0.632
       0.623
       0.522
       0.361
       0.188
       0.027
      -0.132
      -0.295
      -0.430
      -0.492
      -0.467
      -0.388
      -0.302
      -0.231
      -0.175
      -0.144
      -0.152
      -0.183
      -0.185
      -0.107
       0.052
       0.234
       0.363
       0.393
       0.333
       0.229
       0.141
       0.092
       0.057
      -0.026
      -0.188
      -0.395
      -0.560
      -0.606
      -0.516
      -0.324
      -0.078
       0.183
       0.423
       0.598
       0.678
       0.656
       0.547
       0.377
       0.173
      -0.031
      -0.212
      -0.361
      -0.482
      -0.560
      -0.559
      -0.446
      -0.224
       0.059
       0.333
       0.538
       0.628
       0.580
       0.403
       0.149
      -0.108
      -0.305
      -0.414
      -0.436
      -0.372
      -0.215
       0.030
       0.320
       0.573
       0.706
       0.673
       0.471
       0.139
      -0.254
      -0.616
      -0.856
      -0.926
      -0.834
      -0.632
      -0.380
      -0.135
       0.069
       0.230
       0.374
       0.525
       0.669
       0.741
       0.684
       0.516
       0.337
       0.267
       0.360
       0.555
       0.712
       0.695
       0.449
       0.021
      -0.475
      -0.909
      -1.185
      -1.265
      -1.172
      -0.963
      -0.677
      -0.323
       0.107
       0.599
       1.095
       1.492
       1.667
       1.529
       1.087
       0.474
      -0.090
      -0.417
      -0.435
      -0.206
       0.135
       0.460
       0.681
       0.752
       0.654
       0.405
       0.055
      -0.329
      -0.695
      -1.019
      -1.291
      -1.497
      -1.614
      -1.625
      -1.523
      -1.288
      -0.890
      -0.326
       0.341
       0.980
       1.452
       1.687
       1.694
       1.523
       1.216
       0.818
       0.406
       0.084
      -0.083
      -0.120
      -0.113
      -0.134
      -0.183
      -0.217
      -0.201
      -0.135
      -0.060
      -0.038
      -0.119
      -0.289
      -0.450
      -0.487
      -0.365
      -0.163
      -0.004
       0.053
       0.044
       0.027
       0.018
      -0.010
      -0.064
      -0.107
      -0.101
      -0.064
      -0.060
      -0.123
      -0.215
      -0.247
      -0.149
       0.096
       0.441
       0.790
       1.014
       1.004
       0.739
       0.322
      -0.076
      -0.323
      -0.380
      -0.286
      -0.113
       0.071
       0.220
       0.328
       0.415
       0.475
       0.445
       0.242
      -0.132
      -0.537
      -0.768
      -0.717
      -0.460
      -0.190
      -0.068
      -0.129
      -0.304
      -0.504
      -0.665
      -0.737
      -0.673
      -0.448
      -0.071
       0.412
       0.929
       1.395
       1.713
       1.806
       1.638
       1.226
       0.632
      -0.050
      -0.719
      -1.289
      -1.700
      -1.904
      -1.851
      -1.505
      -0.898
      -0.167
       0.481
       0.876
       0.985
       0.919
       0.831
       0.783
       0.720
       0.548
       0.242
      -0.137
      -0.495
      -0.755
      -0.880
      -0.860
      -0.703
      -0.431
      -0.071
       0.337
       0.737
       1.066
       1.274
       1.341
       1.263
       1.017
       0.571
      -0.067
      -0.795
      -1.431
      -1.793
      -1.804
      -1.516
      -1.059
      -0.553
      -0.070
       0.356
       0.685
       0.874
       0.895
       0.760
       0.519
       0.243
      -0.011
      -0.211
      -0.352
      -0.450
      -0.519
      -0.556
      -0.542
      -0.465
      -0.343
      -0.208
      -0.079
       0.054
       0.198
       0.332
       0.414
       0.427
       0.395
       0.344
       0.267
       0.130
      -0.072
      -0.304
      -0.519
      -0.692
      -0.802
      -0.808
      -0.663
      -0.369
      -0.006
       0.320
       0.550
       0.684
       0.739
       0.699
       0.539
       0.271
      -0.036
      -0.309
      -0.513
      -0.654
      -0.744
      -0.781
      -0.752
      -0.648
      -0.473
      -0.256
      -0.044
       0.128
       0.271
       0.432
       0.638
       0.846
       0.961
       0.919
       0.740
       0.498
       0.245
      -0.031
      -0.367
      -0.764
      -1.175
      -1.519
      -1.701
      -1.634
      -1.277
      -0.677
       0.024
       0.635
       1.010
       1.103
       0.973
       0.734
       0.494
       0.306
       0.162
       0.020
      -0.145
      -0.316
      -0.438
      -0.460
      -0.363
      -0.158
       0.114
       0.389
       0.597
       0.679
       0.602
       0.376
       0.051
      -0.278
      -0.503
      -0.543
      -0.397
      -0.153
       0.060
       0.139
       0.066
      -0.096
      -0.261
      -0.381
      -0.455
      -0.491
      -0.469
      -0.356
      -0.152
       0.096
       0.337
       0.549
       0.720
       0.821
       0.808
       0.657
       0.406
       0.148
      -0.024
      -0.073
      -0.043
      -0.015
      -0.057
      -0.176
      -0.320
      -0.418
      -0.428
      -0.366
      -0.289
      -0.241
      -0.213
      -0.145
       0.021
       0.280
       0.546
       0.692
       0.630
       0.364
      -0.013
      -0.382
      -0.661
      -0.822
      -0.871
      -0.810
      -0.624
      -0.306
       0.115
       0.566
       0.951
       1.184
       1.217
       1.051
       0.737
       0.351
      -0.047
      -0.424
      -0.752
      -0.973
      -1.024
      -0.887
      -0.609
      -0.269
       0.076
       0.401
       0.685
       0.878
       0.916
       0.768
       0.478
       0.156
      -0.093
      -0.222
      -0.248
      -0.199
      -0.084
       0.096
       0.294
       0.412
       0.363
       0.141
      -0.176
      -0.492
      -0.752
      -0.928
      -0.983
      -0.844
      -0.452
       0.171
       0.891
       1.501
       1.813
       1.747
       1.359
       0.789
       0.174
      -0.410
      -0.934
      -1.363
      -1.623
      -1.635
      -1.364
      -0.855
      -0.218
       0.409
       0.906
       1.191
       1.232
       1.042
       0.664
       0.177
      -0.314
      -0.692
      -0.879
      -0.860
      -0.681
      -0.414
      -0.134
       0.103
       0.275
       0.394
       0.492
       0.582
       0.636
       0.612
       0.500
       0.336
       0.179
       0.059
      -0.044
      -0.167
      -0.318
      -0.466
      -0.578
      -0.642
      -0.650
      -0.571
      -0.368
      -0.047
       0.324
       0.640
       0.818
       0.837
       0.732
       0.554
       0.327
       0.041
      -0.307
      -0.666
      -0.928
      -0.985
      -0.818
      -0.528
      -0.278
      -0.174
      -0.201
      -0.254
      -0.243
      -0.160
      -0.061
      -0.002
       0.006
      -0.009
      -0.011
       0.020
       0.086
       0.165
       0.239
       0.318
       0.447
       0.662
       0.939
       1.195
       1.331
       1.281
       1.017
       0.557
      -0.038
      -0.658
      -1.167
      -1.459
      -1.508
      -1.374
      -1.152
      -0.901
      -0.613
      -0.261
       0.132
       0.466
       0.629
       0.595
       0.461
       0.368
       0.386
       0.467
       0.505
       0.430
       0.257
       0.041
      -0.184
      -0.426
      -0.685
      -0.896
      -0.930
      -0.685
      -0.188
       0.395
       0.845
       1.026
       0.959
       0.772
       0.580
       0.401
       0.179
      -0.119
      -0.445
      -0.698
      -0.808
      -0.797
      -0.747
      -0.729
      -0.740
      -0.719
      -0.620
      -0.476
      -0.382
      -0.403
      -0.491
      -0.500
      -0.290
       0.154
       0.704
       1.184
       1.478
       1.576
       1.513
       1.327
       1.052
       0.754
       0.507
       0.345
       0.232
       0.112
      -0.026
      -0.150
      -0.225
      -0.260
      -0.289
      -0.335
      -0.391
      -0.418
      -0.370
      -0.214
       0.032
       0.300
       0.526
       0.719
       0.960
       1.297
       1.645
       1.800
       1.584
       0.997
       0.221
      -0.521
      -1.107
      -1.541
      -1.873
      -2.128
      -2.295
      -2.351
      -2.260
      -1.988
      -1.537
      -0.975
      -0.409
       0.086
       0.498
       0.844
       1.105
       1.224
       1.157
       0.932
       0.640
       0.366
       0.145
      -0.021
      -0.114
      -0.098
       0.034
       0.234
       0.436
       0.604
       0.733
       0.817
       0.829
       0.745
       0.559
       0.284
      -0.054
      -0.406
      -0.698
      -0.864
      -0.897
      -0.854
      -0.787
      -0.697
      -0.550
      -0.343
      -0.134
       0.016
       0.101
       0.160
       0.217
       0.251
       0.238
       0.190
       0.156
       0.171
       0.231
       0.300
       0.345
       0.350
       0.316
       0.262
       0.210
       0.165
       0.100
      -0.002
      -0.098
      -0.086
       0.096
       0.377
       0.591
       0.605
       0.421
       0.128
      -0.196
      -0.548
      -0.938
      -1.315
      -1.564
      -1.591
      -1.393
      -1.046
      -0.630
      -0.168
       0.349
       0.904
       1.424
       1.799
       1.934
       1.788
       1.393
       0.843
       0.259
      -0.270
      -0.712
      -1.083
      -1.394
      -1.602
      -1.615
      -1.348
      -0.794
      -0.069
       0.630
       1.122
       1.340
       1.334
       1.189
       0.928
       0.502
      -0.116
      -0.848
      -1.506
      -1.894
      -1.931
      -1.693
      -1.352
      -1.051
      -0.815
      -0.569
      -0.233
       0.188
       0.605
       0.913
       1.070
       1.113
       1.102
       1.079
       1.066
       1.079
       1.111
       1.098
       0.940
       0.596
       0.159
      -0.178
      -0.266
      -0.129
       0.050
       0.079
      -0.104
      -0.402
      -0.651
      -0.730
      -0.626
      -0.427
      -0.277
      -0.281
      -0.433
      -0.617
      -0.711
      -0.677
      -0.553
      -0.368
      -0.104
       0.251
       0.630
       0.897
       0.931
       0.711
       0.327
      -0.072
      -0.340
      -0.398
      -0.258
      -0.015
       0.226
       0.400
       0.493
       0.505
       0.421
       0.233
      -0.037
      -0.341
      -0.643
      -0.919
      -1.121
      -1.145
      -0.880
      -0.308
       0.423
       1.053
       1.376
       1.371
       1.192
       1.032
       0.956
       0.869
       0.622
       0.166
      -0.387
      -0.861
      -1.156
      -1.306
      -1.376
      -1.355
      -1.158
      -0.742
      -0.188
       0.337
       0.699
       0.864
       0.888
       0.840
       0.754
       0.617
       0.415
       0.166
      -0.067
      -0.225
      -0.299
      -0.335
      -0.377
      -0.413
      -0.378
      -0.236
      -0.037
       0.095
       0.074
      -0.066
      -0.198
      -0.221
      -0.121
       0.059
       0.290
       0.560
       0.831
       1.024
       1.083
       1.024
       0.902
       0.734
       0.477
       0.075
      -0.463
      -1.041
      -1.519
      -1.791
      -1.836
      -1.703
      -1.469
      -1.183
      -0.860
      -0.504
      -0.126
       0.245
       0.584
       0.859
       1.023
       1.025
       0.860
       0.603
       0.376
       0.263
       0.245
       0.240
       0.201
       0.188
       0.301
       0.566
       0.882
       1.104
       1.161
       1.080
       0.911
       0.663
       0.325
      -0.074
      -0.452
      -0.729
      -0.885
      -0.949
      -0.948
      -0.867
      -0.673
      -0.368
      -0.024
       0.249
       0.358
       0.278
       0.071
      -0.152
      -0.295
      -0.345
      -0.370
      -0.435
      -0.515
      -0.513
      -0.354
      -0.081
       0.172
       0.289
       0.265
       0.196
       0.175
       0.208
       0.216
       0.119
      -0.084
      -0.302
      -0.411
      -0.335
      -0.082
       0.279
       0.669
       1.025
       1.296
       1.433
       1.406
       1.225
       0.927
       0.540
       0.081
      -0.420
      -0.884
      -1.198
      -1.272
      -1.098
      -0.755
      -0.369
      -0.053
       0.114
       0.099
      -0.083
      -0.353
      -0.595
      -0.700
      -0.625
      -0.412
      -0.169
      -0.019
      -0.028
      -0.164
      -0.324
      -0.417
      -0.424
      -0.388
      -0.339
      -0.254
      -0.087
       0.167
       0.447
       0.668
       0.783
       0.803
       0.777
       0.743
       0.692
       0.582
       0.385
       0.141
      -0.053
      -0.114
      -0.042
       0.089
       0.209
       0.315
       0.453
       0.641
       0.817
       0.872
       0.742
       0.459
       0.130
      -0.148
      -0.352
      -0.520
      -0.688
      -0.843
      -0.939
      -0.951
      -0.905
      -0.848
      -0.803
      -0.764
      -0.719
      -0.654
      -0.548
      -0.379
      -0.166
       0.021
       0.116
       0.113
       0.071
       0.059
       0.115
       0.250
       0.453
       0.683
       0.846
       0.846
       0.658
       0.365
       0.096
      -0.071
      -0.157
      -0.223
      -0.295
      -0.351
      -0.364
      -0.329
      -0.259
      -0.166
      -0.060
       0.042
       0.119
       0.167
       0.200
       0.240
       0.312
       0.429
       0.578
       0.714
       0.783
       0.764
       0.679
       0.571
       0.451
       0.290
       0.054
      -0.257
      -0.591
      -0.872
      -1.041
      -1.076
      -0.992
      -0.835
      -0.671
      -0.555
      -0.515
      -0.528
      -0.539
      -0.500
      -0.399
      -0.262
      -0.115
       0.033
       0.174
       0.280
       0.316
       0.287
       0.254
       0.302
       0.470
       0.702
       0.861
       0.821
       0.552
       0.154
      -0.222
      -0.473
      -0.600
