Origin Time       24/2/2009 17:46:13 
Lat.              25.9 N 
Long.             94.3 E 
Depth (Km)         10.0
Magnitude         4.8
 Region           INDIA(NAGALAND)-MYANMAR-BORD-REG                                 
 Above details taken from IMD 
   
Station Code      LKH
Station Lat.       27.239
Station Long.      94.107
Station Height(m)    0.0
Site Class        C   Vs30 between 200 m/sec to 375 m/sec *  
Record Time       24.02.2009 17:46:48.839
Sampling Rate     200. Hz
 Record Duration   65.880 Sec.
 Direction         Vert. (Up positive)
Max. Acceleration     -3.420 cm/sec**2
     
  * For reference see Site Classification link of website 
     
 Base Line Corrected and Low Pass Filtered (Cut Off at 35 Hz) Time History
 Acceleration data in cm/sec**2
    
[...]
      -0.445
      -0.267
      -0.138
      -0.085
      -0.088
      -0.107
      -0.107
      -0.086
      -0.061
      -0.047
      -0.045
      -0.044
      -0.029
       0.006
       0.060
       0.120
       0.167
       0.191
       0.193
       0.185
       0.184
       0.206
       0.252
       0.311
       0.362
       0.386
       0.364
       0.280
       0.131
      -0.063
      -0.255
      -0.393
      -0.445
      -0.414
      -0.329
      -0.221
      -0.109
      -0.003
       0.081
       0.122
       0.109
       0.052
      -0.027
      -0.106
      -0.165
      -0.184
      -0.152
      -0.072
       0.033
       0.134
       0.215
       0.271
       0.307
       0.325
       0.319
       0.285
       0.224
       0.147
       0.062
      -0.022
      -0.091
      -0.125
      -0.117
      -0.075
      -0.020
       0.035
       0.090
       0.153
       0.220
       0.274
       0.291
       0.265
       0.209
       0.147
       0.089
       0.028
      -0.045
      -0.123
      -0.195
      -0.254
      -0.305
      -0.363
      -0.437
      -0.518
      -0.579
      -0.582
      -0.495
      -0.317
      -0.076
       0.176
       0.390
       0.537
       0.612
       0.628
       0.592
       0.497
       0.329
       0.086
      -0.203
      -0.482
      -0.692
      -0.787
      -0.756
      -0.625
      -0.439
      -0.246
      -0.075
       0.064
       0.164
       0.212
       0.196
       0.125
       0.034
      -0.028
      -0.024
       0.053
       0.174
       0.293
       0.366
       0.373
       0.321
       0.228
       0.105
      -0.047
      -0.230
      -0.424
      -0.593
      -0.688
      -0.673
      -0.540
      -0.323
      -0.078
       0.137
       0.294
       0.394
       0.457
       0.492
       0.495
       0.463
       0.403
       0.341
       0.302
       0.291
       0.297
       0.293
       0.263
       0.207
       0.135
       0.054
      -0.027
      -0.091
      -0.113
      -0.082
      -0.011
       0.068
       0.131
       0.170
       0.190
       0.193
       0.171
       0.113
       0.015
      -0.106
      -0.212
      -0.265
      -0.255
      -0.204
      -0.158
      -0.162
      -0.231
      -0.347
      -0.463
      -0.539
      -0.560
      -0.535
      -0.483
      -0.409
      -0.303
      -0.162
      -0.001
       0.146
       0.248
       0.298
       0.308
       0.297
       0.268
       0.212
       0.123
       0.013
      -0.090
      -0.152
      -0.148
      -0.070
       0.072
       0.250
       0.430
       0.581
       0.680
       0.715
       0.684
       0.592
       0.446
       0.258
       0.050
      -0.142
      -0.276
      -0.318
      -0.260
      -0.119
       0.064
       0.228
       0.316
       0.294
       0.166
      -0.034
      -0.261
      -0.474
      -0.635
      -0.719
      -0.713
      -0.632
      -0.517
      -0.419
      -0.370
      -0.366
      -0.387
      -0.412
      -0.436
      -0.457
      -0.467
      -0.452
      -0.407
      -0.354
      -0.326
      -0.355
      -0.446
      -0.583
      -0.738
      -0.885
      -1.001
      -1.068
      -1.066
      -0.986
      -0.826
      -0.599
      -0.325
      -0.033
       0.245
       0.476
       0.634
       0.704
       0.689
       0.601
       0.467
       0.321
       0.210
       0.171
       0.227
       0.371
       0.582
       0.830
       1.082
       1.302
       1.453
       1.510
       1.470
       1.347
       1.166
       0.943
       0.688
       0.414
       0.154
      -0.044
      -0.132
      -0.092
       0.047
       0.225
       0.388
       0.504
       0.571
       0.593
       0.569
       0.490
       0.350
       0.154
      -0.066
      -0.259
      -0.376
      -0.402
      -0.362
      -0.299
      -0.238
      -0.176
      -0.093
       0.017
       0.123
       0.178
       0.151
       0.051
      -0.078
      -0.190
      -0.258
      -0.289
      -0.308
      -0.347
      -0.421
      -0.525
      -0.631
      -0.709
      -0.748
      -0.754
      -0.744
      -0.723
      -0.674
      -0.578
      -0.439
      -0.284
      -0.155
      -0.089
      -0.096
      -0.167
      -0.280
      -0.405
      -0.516
      -0.583
      -0.576
      -0.471
      -0.266
       0.002
       0.267
       0.458
       0.525
       0.465
       0.312
       0.123
      -0.051
      -0.176
      -0.229
      -0.197
      -0.077
       0.114
       0.335
       0.534
       0.668
       0.715
       0.673
       0.549
       0.354
       0.106
      -0.157
      -0.380
      -0.510
      -0.526
      -0.443
      -0.304
      -0.150
       0.001
       0.160
       0.351
       0.582
       0.824
       1.021
       1.115
       1.081
       0.930
       0.684
       0.362
      -0.027
      -0.463
      -0.905
      -1.297
      -1.589
      -1.752
      -1.774
      -1.646
      -1.361
      -0.921
      -0.359
       0.258
       0.842
       1.317
       1.630
       1.757
       1.700
       1.477
       1.124
       0.682
       0.197
      -0.278
      -0.680
      -0.939
      -1.010
      -0.895
      -0.648
      -0.340
      -0.038
       0.210
       0.372
       0.431
       0.388
       0.270
       0.116
      -0.028
      -0.116
      -0.120
      -0.043
       0.078
       0.193
       0.267
       0.285
       0.249
       0.159
       0.013
      -0.182
      -0.398
      -0.589
      -0.709
      -0.739
      -0.691
      -0.598
      -0.492
      -0.387
      -0.269
      -0.103
       0.133
       0.426
       0.715
       0.921
       0.989
       0.916
       0.739
       0.505
       0.245
      -0.027
      -0.299
      -0.540
      -0.705
      -0.752
      -0.667
      -0.476
      -0.236
      -0.004
       0.179
       0.297
       0.349
       0.330
       0.235
       0.067
      -0.149
      -0.367
      -0.536
      -0.621
      -0.620
      -0.554
      -0.453
      -0.332
      -0.194
      -0.050
       0.065
       0.122
       0.122
       0.103
       0.109
       0.146
       0.182
       0.173
       0.101
      -0.021
      -0.158
      -0.278
      -0.362
      -0.395
      -0.359
      -0.232
      -0.006
       0.298
       0.630
       0.925
       1.125
       1.190
       1.112
       0.916
       0.634
       0.296
      -0.076
      -0.441
      -0.738
      -0.896
      -0.881
      -0.716
      -0.467
      -0.204
       0.041
       0.272
       0.501
       0.721
       0.897
       0.989
       0.973
       0.852
       0.651
       0.408
       0.160
      -0.067
      -0.265
      -0.436
      -0.576
      -0.670
      -0.695
      -0.634
      -0.482
      -0.255
       0.017
       0.287
       0.501
       0.606
       0.573
       0.412
       0.171
      -0.092
      -0.335
      -0.543
      -0.718
      -0.864
      -0.973
      -1.029
      -1.012
      -0.909
      -0.719
      -0.461
      -0.167
       0.117
       0.344
       0.476
       0.501
       0.433
       0.300
       0.128
      -0.059
      -0.244
      -0.410
      -0.532
      -0.588
      -0.566
      -0.478
      -0.347
      -0.205
      -0.078
       0.016
       0.071
       0.099
       0.126
       0.181
       0.274
       0.388
       0.482
       0.507
       0.439
       0.293
       0.124
       0.004
      -0.014
       0.084
       0.273
       0.505
       0.733
       0.912
       1.010
       1.005
       0.889
       0.676
       0.390
       0.073
      -0.227
      -0.461
      -0.589
      -0.591
      -0.463
      -0.217
       0.112
       0.467
       0.780
       1.002
       1.121
       1.158
       1.144
       1.087
       0.976
       0.790
       0.525
       0.210
      -0.094
      -0.318
      -0.419
      -0.405
      -0.323
      -0.232
      -0.171
      -0.136
      -0.102
      -0.050
       0.002
       0.009
      -0.068
      -0.237
      -0.466
      -0.708
      -0.922
      -1.086
      -1.199
      -1.262
      -1.267
      -1.203
      -1.066
      -0.873
      -0.654
      -0.442
      -0.270
      -0.169
      -0.167
      -0.270
      -0.440
      -0.602
      -0.674
      -0.608
      -0.419
      -0.180
       0.017
       0.110
       0.091
       0.003
      -0.102
      -0.182
      -0.221
      -0.215
      -0.170
      -0.099
      -0.023
       0.039
       0.081
       0.113
       0.146
       0.183
       0.214
       0.237
       0.261
       0.316
       0.424
       0.584
       0.752
       0.858
       0.836
       0.654
       0.335
      -0.060
      -0.453
      -0.765
      -0.930
      -0.904
      -0.683
      -0.321
       0.090
       0.442
       0.662
       0.722
       0.638
       0.441
       0.159
      -0.178
      -0.521
      -0.803
      -0.948
      -0.913
      -0.703
      -0.369
       0.012
       0.365
       0.634
       0.788
       0.814
       0.724
       0.546
       0.327
       0.110
      -0.081
      -0.238
      -0.362
      -0.444
      -0.459
      -0.386
      -0.222
       0.012
       0.281
       0.549
       0.783
       0.961
       1.075
       1.121
       1.101
       1.016
       0.873
       0.684
       0.468
       0.244
       0.028
      -0.173
      -0.348
      -0.488
      -0.578
      -0.604
      -0.562
      -0.456
      -0.301
      -0.107
       0.113
       0.343
       0.555
       0.702
       0.739
       0.638
       0.413
       0.114
      -0.205
      -0.510
      -0.789
      -1.023
      -1.172
      -1.192
      -1.059
      -0.784
      -0.415
      -0.015
       0.354
       0.644
       0.828
       0.896
       0.857
       0.734
       0.570
       0.410
       0.280
       0.179
       0.090
       0.000
      -0.091
      -0.172
      -0.232
      -0.257
      -0.237
      -0.177
      -0.094
      -0.016
       0.022
      -0.001
      -0.083
      -0.207
      -0.348
      -0.487
      -0.612
      -0.715
      -0.776
      -0.768
      -0.666
      -0.463
      -0.175
       0.159
       0.489
       0.766
       0.944
       0.994
       0.910
       0.725
       0.495
       0.276
       0.105
      -0.010
      -0.087
      -0.148
      -0.195
      -0.213
      -0.188
      -0.138
      -0.108
      -0.143
      -0.244
      -0.369
      -0.455
      -0.472
      -0.439
      -0.396
      -0.372
      -0.367
      -0.379
      -0.409
      -0.463
      -0.534
      -0.612
      -0.698
      -0.798
      -0.905
      -0.997
      -1.048
      -1.042
      -0.981
      -0.874
      -0.729
      -0.544
      -0.314
      -0.043
       0.245
       0.515
       0.731
       0.872
       0.933
       0.919
       0.844
       0.728
       0.601
       0.501
       0.475
       0.550
       0.724
       0.961
       1.207
       1.407
       1.516
       1.515
       1.407
       1.212
       0.954
       0.651
       0.326
       0.003
      -0.284
      -0.507
      -0.653
      -0.724
      -0.736
      -0.708
      -0.651
      -0.572
      -0.473
      -0.352
      -0.199
      -0.005
       0.225
       0.463
       0.659
       0.767
       0.757
       0.631
       0.419
       0.166
      -0.089
      -0.323
      -0.519
      -0.654
      -0.712
      -0.689
      -0.597
      -0.459
      -0.293
      -0.109
       0.078
       0.228
       0.277
       0.164
      -0.122
      -0.534
      -0.986
      -1.398
      -1.717
      -1.916
      -1.989
      -1.944
      -1.798
      -1.566
      -1.261
      -0.887
      -0.453
      -0.001
       0.387
       0.619
       0.650
       0.509
       0.270
       0.004
      -0.241
      -0.419
      -0.486
      -0.415
      -0.209
       0.116
       0.548
       1.073
       1.648
       2.200
       2.650
       2.957
       3.123
       3.178
       3.146
       3.016
       2.754
       2.332
       1.768
       1.116
       0.431
      -0.256
      -0.926
      -1.549
      -2.067
      -2.405
      -2.492
      -2.295
      -1.857
      -1.286
      -0.716
      -0.252
       0.055
       0.210
       0.240
       0.165
      -0.015
      -0.304
      -0.682
      -1.088
      -1.433
      -1.627
      -1.612
      -1.379
      -0.980
      -0.506
      -0.050
       0.331
       0.615
       0.815
       0.960
       1.073
       1.150
       1.163
       1.079
       0.888
       0.606
       0.280
      -0.019
      -0.233
      -0.344
      -0.378
      -0.381
      -0.382
      -0.391
      -0.392
      -0.359
      -0.268
      -0.123
       0.048
       0.209
       0.338
       0.426
       0.467
       0.459
       0.398
       0.282
       0.117
      -0.074
      -0.255
      -0.397
      -0.492
      -0.545
      -0.564
      -0.552
      -0.514
      -0.458
      -0.388
      -0.306
      -0.215
      -0.131
      -0.074
      -0.039
       0.006
       0.105
       0.275
       0.489
       0.691
       0.828
       0.880
       0.853
       0.773
       0.657
       0.511
       0.331
       0.122
      -0.088
      -0.268
      -0.400
      -0.477
      -0.493
      -0.446
      -0.346
      -0.210
      -0.043
       0.156
       0.378
       0.589
       0.744
       0.812
       0.799
       0.740
       0.675
       0.632
       0.620
       0.633
       0.651
       0.643
       0.587
       0.489
       0.386
       0.324
       0.328
       0.392
       0.473
       0.520
       0.498
       0.404
       0.250
       0.032
      -0.274
      -0.685
      -1.194
      -1.768
      -2.352
      -2.874
      -3.252
      -3.420
      -3.360
      -3.100
      -2.692
      -2.196
      -1.663
      -1.133
      -0.643
      -0.220
       0.131
       0.422
       0.669
       0.893
       1.108
       1.313
       1.493
       1.630
       1.714
       1.758
       1.778
       1.778
       1.744
       1.659
       1.515
       1.313
       1.058
       0.762
       0.448
       0.156
      -0.081
      -0.245
      -0.342
      -0.386
      -0.385
      -0.350
      -0.292
      -0.229
      -0.176
      -0.144
      -0.138
      -0.156
      -0.185
      -0.214
      -0.236
      -0.252
      -0.268
      -0.292
      -0.339
      -0.422
      -0.547
      -0.695
      -0.837
      -0.943
      -1.003
      -1.015
      -0.984
      -0.910
      -0.795
      -0.643
      -0.454
      -0.233
       0.001
       0.219
       0.404
       0.561
       0.717
       0.902
       1.121
       1.349
       1.540
       1.646
       1.644
       1.551
       1.399
       1.215
       1.003
       0.756
       0.474
       0.176
      -0.110
      -0.356
      -0.544
      -0.667
      -0.722
      -0.711
      -0.634
      -0.497
      -0.321
      -0.138
       0.016
       0.120
       0.178
       0.210
       0.237
       0.264
       0.286
       0.285
       0.247
       0.167
       0.051
      -0.096
      -0.273
      -0.484
      -0.729
      -0.997
      -1.266
      -1.500
      -1.653
      -1.687
      -1.589
      -1.389
      -1.150
      -0.941
      -0.807
      -0.741
      -0.692
      -0.614
      -0.504
      -0.401
      -0.348
      -0.353
      -0.387
      -0.411
      -0.402
      -0.357
      -0.282
      -0.183
      -0.043
       0.169
       0.483
       0.901
       1.382
       1.849
       2.220
       2.434
       2.470
       2.350
       2.118
       1.824
       1.505
       1.184
       0.876
       0.602
       0.389
       0.259
       0.215
       0.235
       0.284
       0.334
       0.366
       0.371
       0.336
       0.250
       0.109
      -0.080
      -0.297
      -0.517
      -0.710
      -0.855
      -0.947
      -0.998
      -1.027
      -1.041
      -1.029
      -0.972
      -0.864
      -0.726
      -0.600
      -0.526
      -0.516
      -0.546
      -0.565
      -0.525
      -0.406
      -0.223
      -0.007
       0.220
       0.441
       0.640
       0.793
       0.866
       0.840
       0.726
       0.570
       0.434
       0.363
       0.354
       0.364
       0.338
       0.247
       0.089
      -0.118
      -0.355
      -0.605
      -0.850
      -1.052
      -1.167
      -1.161
      -1.036
      -0.828
      -0.584
      -0.354
      -0.175
      -0.076
      -0.067
      -0.133
      -0.231
      -0.313
      -0.344
      -0.316
      -0.253
      -0.187
      -0.146
      -0.136
      -0.148
      -0.178
      -0.229
      -0.299
      -0.365
      -0.384
      -0.312
      -0.122
       0.177
       0.538
       0.899
       1.205
       1.432
       1.586
       1.686
       1.750
       1.788
       1.808
       1.821
       1.846
       1.888
       1.925
       1.907
       1.788
       1.537
       1.153
       0.654
       0.084
      -0.498
      -1.035
      -1.479
      -1.802
      -1.984
      -2.022
      -1.927
      -1.732
      -1.483
      -1.231
      -1.024
      -0.893
      -0.842
      -0.857
      -0.911
      -0.985
      -1.064
      -1.131
      -1.157
      -1.106
      -0.943
      -0.657
      -0.278
       0.129
       0.490
       0.752
       0.899
       0.942
       0.894
       0.762
       0.554
       0.299
       0.042
      -0.175
      -0.327
      -0.408
      -0.423
      -0.384
      -0.304
      -0.190
      -0.037
       0.162
       0.402
       0.655
       0.876
       1.025
       1.074
       1.024
       0.895
       0.716
       0.509
       0.283
       0.056
      -0.140
      -0.270
      -0.323
      -0.312
      -0.267
      -0.213
      -0.160
      -0.102
      -0.022
       0.092
       0.238
       0.388
       0.501
       0.540
       0.485
       0.351
       0.176
       0.019
      -0.075
      -0.088
      -0.031
       0.060
       0.145
       0.195
       0.199
       0.170
       0.122
       0.056
      -0.036
      -0.155
      -0.269
      -0.327
      -0.290
      -0.156
       0.034
       0.218
       0.341
       0.369
       0.292
       0.130
      -0.068
      -0.234
      -0.318
      -0.311
      -0.255
      -0.213
      -0.238
      -0.350
      -0.540
      -0.775
      -1.014
      -1.218
      -1.355
      -1.410
      -1.384
      -1.282
      -1.109
      -0.868
      -0.572
      -0.245
       0.075
       0.347
       0.533
       0.604
       0.548
       0.382
       0.148
      -0.095
      -0.293
      -0.413
      -0.442
      -0.390
      -0.264
      -0.062
       0.221
       0.570
       0.943
       1.280
       1.519
       1.619
       1.566
       1.376
       1.096
       0.792
       0.528
       0.339
       0.231
       0.181
       0.163
       0.166
       0.190
       0.237
       0.302
       0.372
       0.438
       0.498
       0.556
       0.620
       0.694
       0.773
       0.840
       0.871
       0.841
       0.735
       0.548
       0.299
       0.016
      -0.263
      -0.505
      -0.682
      -0.782
      -0.810
      -0.788
      -0.736
      -0.663
      -0.573
      -0.481
      -0.418
      -0.411
      -0.471
      -0.580
      -0.706
      -0.807
      -0.859
      -0.851
      -0.784
      -0.659
      -0.482
      -0.270
      -0.051
       0.144
       0.295
       0.388
       0.416
       0.376
       0.272
       0.115
      -0.080
      -0.298
      -0.514
      -0.704
      -0.843
      -0.924
      -0.952
      -0.934
      -0.873
      -0.762
      -0.601
      -0.400
