Origin Time       06/11/2013 04:16:16
Lat.              26.5 N	
Long.             93.5 E	
Depth (Km)         20.0
Magnitude         5.5
 Region           Karbi-Assam                                                      
 Above details taken from IMD 
     
Station Code      LKH
Station Lat.       27.239  N
Station Long.      94.107  E
Station Height(m)   95.0
Site Class        C   Vs30 between 200 m/sec to 375 m/sec *  
Record Time       06.11.2013 04:18:13.169
Sampling Rate     200. Hz
 Record Duration   80.015 Sec.
 Direction         E-W (E positive)
Max. Acceleration     -3.640 cm/sec**2
     
  * For reference see Site Classification link of website 
     
 Base Line Corrected and Low Pass Filtered (Cut Off at 35 Hz) Time History
 Acceleration data in cm/sec**2
    
[...]
       0.231
       0.205
       0.140
       0.043
      -0.066
      -0.169
      -0.251
      -0.303
      -0.315
      -0.280
      -0.204
      -0.109
      -0.026
       0.020
       0.028
       0.014
       0.001
       0.000
       0.010
       0.022
       0.037
       0.056
       0.085
       0.116
       0.140
       0.151
       0.152
       0.152
       0.155
       0.166
       0.187
       0.217
       0.250
       0.276
       0.278
       0.243
       0.166
       0.061
      -0.047
      -0.132
      -0.178
      -0.183
      -0.165
      -0.145
      -0.134
      -0.132
      -0.125
      -0.098
      -0.053
      -0.003
       0.033
       0.044
       0.031
       0.006
      -0.020
      -0.037
      -0.038
      -0.024
      -0.003
       0.007
      -0.004
      -0.029
      -0.044
      -0.022
       0.043
       0.130
       0.201
       0.226
       0.202
       0.151
       0.094
       0.040
      -0.010
      -0.058
      -0.094
      -0.107
      -0.096
      -0.073
      -0.054
      -0.046
      -0.043
      -0.035
      -0.023
      -0.017
      -0.031
      -0.064
      -0.099
      -0.116
      -0.111
      -0.099
      -0.099
      -0.116
      -0.133
      -0.129
      -0.102
      -0.068
      -0.049
      -0.051
      -0.057
      -0.049
      -0.023
       0.007
       0.024
       0.024
       0.017
       0.013
       0.015
       0.021
       0.032
       0.053
       0.085
       0.119
       0.141
       0.135
       0.095
       0.029
      -0.050
      -0.119
      -0.162
      -0.170
      -0.149
      -0.116
      -0.089
      -0.081
      -0.090
      -0.105
      -0.115
      -0.117
      -0.116
      -0.121
      -0.132
      -0.141
      -0.139
      -0.117
      -0.073
      -0.013
       0.047
       0.091
       0.108
       0.096
       0.066
       0.039
       0.033
       0.057
       0.098
       0.124
       0.102
       0.022
      -0.094
      -0.192
      -0.229
      -0.193
      -0.105
      -0.001
       0.097
       0.178
       0.234
       0.250
       0.213
       0.120
      -0.006
      -0.128
      -0.220
      -0.284
      -0.343
      -0.410
      -0.465
      -0.469
      -0.397
      -0.274
      -0.160
      -0.110
      -0.131
      -0.173
      -0.170
      -0.087
       0.055
       0.202
       0.304
       0.342
       0.330
       0.288
       0.232
       0.173
       0.121
       0.091
       0.086
       0.097
       0.106
       0.110
       0.115
       0.137
       0.175
       0.206
       0.202
       0.150
       0.065
      -0.024
      -0.093
      -0.138
      -0.166
      -0.179
      -0.173
      -0.141
      -0.086
      -0.022
       0.034
       0.066
       0.069
       0.055
       0.036
       0.022
       0.012
      -0.009
      -0.054
      -0.126
      -0.212
      -0.288
      -0.331
      -0.326
      -0.273
      -0.185
      -0.080
       0.026
       0.128
       0.227
       0.323
       0.404
       0.450
       0.442
       0.373
       0.261
       0.138
       0.040
      -0.015
      -0.027
      -0.013
       0.009
       0.030
       0.055
       0.084
       0.107
       0.103
       0.061
      -0.002
      -0.049
      -0.052
      -0.018
       0.018
       0.020
      -0.022
      -0.081
      -0.122
      -0.130
      -0.123
      -0.118
      -0.116
      -0.097
      -0.051
       0.005
       0.044
       0.055
       0.063
       0.100
       0.172
       0.241
       0.255
       0.193
       0.081
      -0.025
      -0.081
      -0.081
      -0.047
      -0.008
       0.022
       0.034
       0.029
       0.007
      -0.019
      -0.034
      -0.029
      -0.013
      -0.009
      -0.035
      -0.088
      -0.145
      -0.178
      -0.176
      -0.150
      -0.124
      -0.117
      -0.128
      -0.137
      -0.123
      -0.084
      -0.036
      -0.007
      -0.015
      -0.060
      -0.120
      -0.167
      -0.185
      -0.175
      -0.154
      -0.139
      -0.136
      -0.138
      -0.131
      -0.108
      -0.069
      -0.022
       0.026
       0.070
       0.111
       0.149
       0.176
       0.187
       0.177
       0.154
       0.129
       0.108
       0.092
       0.080
       0.073
       0.069
       0.064
       0.050
       0.022
      -0.024
      -0.083
      -0.145
      -0.195
      -0.219
      -0.208
      -0.165
      -0.104
      -0.045
      -0.004
       0.018
       0.035
       0.052
       0.067
       0.070
       0.054
       0.027
      -0.001
      -0.024
      -0.039
      -0.047
      -0.048
      -0.038
      -0.019
       0.004
       0.027
       0.047
       0.068
       0.098
       0.137
       0.181
       0.218
       0.238
       0.232
       0.199
       0.149
       0.094
       0.052
       0.035
       0.046
       0.073
       0.093
       0.085
       0.046
      -0.019
      -0.097
      -0.180
      -0.261
      -0.328
      -0.369
      -0.378
      -0.349
      -0.284
      -0.184
      -0.059
       0.072
       0.176
       0.225
       0.213
       0.160
       0.102
       0.070
       0.069
       0.081
       0.083
       0.067
       0.048
       0.040
       0.043
       0.039
       0.017
      -0.021
      -0.059
      -0.081
      -0.084
      -0.070
      -0.033
       0.039
       0.151
       0.279
       0.383
       0.424
       0.392
       0.316
       0.241
       0.200
       0.192
       0.189
       0.160
       0.094
       0.008
      -0.068
      -0.110
      -0.106
      -0.061
       0.007
       0.072
       0.109
       0.105
       0.064
       0.009
      -0.031
      -0.038
      -0.012
       0.032
       0.072
       0.098
       0.107
       0.106
       0.104
       0.104
       0.109
       0.124
       0.150
       0.185
       0.221
       0.241
       0.234
       0.200
       0.154
       0.125
       0.136
       0.195
       0.276
       0.335
       0.334
       0.263
       0.146
       0.025
      -0.062
      -0.096
      -0.087
      -0.057
      -0.035
      -0.039
      -0.074
      -0.126
      -0.169
      -0.182
      -0.160
      -0.123
      -0.095
      -0.087
      -0.085
      -0.056
       0.023
       0.147
       0.281
       0.385
       0.436
       0.441
       0.418
       0.383
       0.336
       0.281
       0.228
       0.190
       0.166
       0.139
       0.096
       0.049
       0.023
       0.046
       0.116
       0.204
       0.282
       0.332
       0.355
       0.354
       0.324
       0.259
       0.171
       0.089
       0.045
       0.049
       0.074
       0.085
       0.058
       0.003
      -0.050
      -0.076
      -0.074
      -0.060
      -0.046
      -0.034
      -0.020
      -0.007
      -0.009
      -0.030
      -0.058
      -0.067
      -0.038
       0.026
       0.103
       0.169
       0.208
       0.220
       0.215
       0.201
       0.184
       0.168
       0.152
       0.141
       0.135
       0.137
       0.145
       0.161
       0.185
       0.214
       0.235
       0.234
       0.203
       0.147
       0.084
       0.027
      -0.021
      -0.065
      -0.112
      -0.149
      -0.154
      -0.111
      -0.026
       0.061
       0.101
       0.065
      -0.034
      -0.153
      -0.245
      -0.285
      -0.271
      -0.208
      -0.101
       0.039
       0.187
       0.303
       0.354
       0.344
       0.307
       0.278
       0.262
       0.239
       0.185
       0.103
       0.022
      -0.032
      -0.054
      -0.061
      -0.063
      -0.049
      -0.001
       0.082
       0.173
       0.233
       0.238
       0.197
       0.140
       0.091
       0.042
      -0.030
      -0.142
      -0.281
      -0.407
      -0.485
      -0.502
      -0.476
      -0.435
      -0.404
      -0.396
      -0.417
      -0.462
      -0.516
      -0.544
      -0.515
      -0.418
      -0.274
      -0.124
      -0.006
       0.059
       0.075
       0.060
       0.042
       0.046
       0.078
       0.123
       0.154
       0.153
       0.123
       0.076
       0.029
      -0.012
      -0.051
      -0.099
      -0.164
      -0.247
      -0.334
      -0.397
      -0.405
      -0.349
      -0.246
      -0.134
      -0.049
      -0.011
      -0.018
      -0.053
      -0.097
      -0.138
      -0.170
      -0.197
      -0.224
      -0.259
      -0.304
      -0.350
      -0.386
      -0.402
      -0.402
      -0.396
      -0.398
      -0.406
      -0.405
      -0.369
      -0.286
      -0.166
      -0.040
       0.054
       0.089
       0.067
       0.010
      -0.043
      -0.067
      -0.056
      -0.029
      -0.015
      -0.032
      -0.077
      -0.128
      -0.165
      -0.176
      -0.165
      -0.143
      -0.120
      -0.111
      -0.131
      -0.191
      -0.286
      -0.391
      -0.470
      -0.496
      -0.462
      -0.394
      -0.329
      -0.303
      -0.328
      -0.383
      -0.424
      -0.411
      -0.328
      -0.198
      -0.068
       0.018
       0.049
       0.036
      -0.002
      -0.060
      -0.134
      -0.214
      -0.277
      -0.299
      -0.268
      -0.190
      -0.083
       0.031
       0.134
       0.204
       0.220
       0.175
       0.086
      -0.011
      -0.077
      -0.102
      -0.103
      -0.105
      -0.124
      -0.153
      -0.178
      -0.193
      -0.199
      -0.199
      -0.188
      -0.162
      -0.118
      -0.058
       0.019
       0.101
       0.169
       0.194
       0.162
       0.081
      -0.010
      -0.070
      -0.075
      -0.038
       0.010
       0.045
       0.054
       0.044
       0.023
       0.002
      -0.007
       0.013
       0.071
       0.154
       0.229
       0.259
       0.232
       0.168
       0.105
       0.070
       0.060
       0.049
       0.015
      -0.039
      -0.086
      -0.101
      -0.080
      -0.043
      -0.018
      -0.011
      -0.010
       0.005
       0.040
       0.078
       0.091
       0.065
       0.002
      -0.077
      -0.152
      -0.204
      -0.217
      -0.185
      -0.112
      -0.017
       0.067
       0.120
       0.139
       0.143
       0.154
       0.180
       0.215
       0.247
       0.271
       0.288
       0.298
       0.301
       0.303
       0.309
       0.324
       0.342
       0.351
       0.340
       0.312
       0.277
       0.250
       0.241
       0.253
       0.273
       0.280
       0.250
       0.177
       0.075
      -0.029
      -0.107
      -0.146
      -0.147
      -0.124
      -0.094
      -0.068
      -0.051
      -0.047
      -0.060
      -0.085
      -0.107
      -0.102
      -0.056
       0.020
       0.098
       0.146
       0.150
       0.122
       0.083
       0.054
       0.045
       0.063
       0.111
       0.183
       0.256
       0.304
       0.304
       0.258
       0.184
       0.111
       0.066
       0.064
       0.112
       0.196
       0.284
       0.344
       0.359
       0.339
       0.316
       0.309
       0.314
       0.311
       0.288
       0.260
       0.248
       0.260
       0.282
       0.290
       0.276
       0.250
       0.234
       0.240
       0.267
       0.305
       0.337
       0.345
       0.316
       0.246
       0.146
       0.044
      -0.031
      -0.064
      -0.053
      -0.010
       0.050
       0.113
       0.171
       0.220
       0.258
       0.280
       0.276
       0.242
       0.193
       0.159
       0.169
       0.227
       0.300
       0.338
       0.309
       0.212
       0.081
      -0.046
      -0.142
      -0.199
      -0.215
      -0.193
      -0.151
      -0.119
      -0.132
      -0.205
      -0.319
      -0.431
      -0.499
      -0.508
      -0.480
      -0.448
      -0.434
      -0.438
      -0.443
      -0.437
      -0.418
      -0.387
      -0.335
      -0.246
      -0.103
       0.091
       0.313
       0.532
       0.731
       0.901
       1.033
       1.106
       1.092
       0.969
       0.742
       0.440
       0.104
      -0.221
      -0.498
      -0.702
      -0.819
      -0.844
      -0.787
      -0.673
      -0.547
      -0.456
      -0.422
      -0.425
      -0.422
      -0.383
      -0.321
      -0.284
      -0.317
      -0.433
      -0.609
      -0.802
      -0.976
      -1.110
      -1.191
      -1.215
      -1.191
      -1.153
      -1.151
      -1.228
      -1.391
      -1.602
      -1.803
      -1.938
      -1.968
      -1.865
      -1.615
      -1.216
      -0.689
      -0.081
       0.534
       1.076
       1.483
       1.730
       1.836
       1.840
       1.778
       1.675
       1.549
       1.420
       1.314
       1.252
       1.240
       1.267
       1.314
       1.355
       1.365
       1.318
       1.190
       0.964
       0.645
       0.268
      -0.108
      -0.414
      -0.605
      -0.675
      -0.655
      -0.594
      -0.537
      -0.525
      -0.594
      -0.782
      -1.103
      -1.530
      -1.995
      -2.420
      -2.743
      -2.927
      -2.948
      -2.785
      -2.433
      -1.915
      -1.281
      -0.586
       0.123
       0.808
       1.420
       1.884
       2.126
       2.113
       1.889
       1.558
       1.236
       1.001
       0.871
       0.824
       0.821
       0.835
       0.858
       0.893
       0.950
       1.033
       1.130
       1.226
       1.315
       1.405
       1.504
       1.606
       1.683
       1.695
       1.609
       1.403
       1.061
       0.579
      -0.032
      -0.735
      -1.477
      -2.192
      -2.818
      -3.296
      -3.579
      -3.640
      -3.479
      -3.122
      -2.614
      -2.015
      -1.393
      -0.807
      -0.291
       0.156
       0.550
       0.901
       1.190
       1.381
       1.443
       1.374
       1.207
       0.993
       0.786
       0.628
       0.553
       0.578
       0.699
       0.879
       1.064
       1.205
       1.282
       1.310
       1.323
       1.344
       1.361
       1.342
       1.248
       1.067
       0.815
       0.530
       0.249
      -0.016
      -0.272
      -0.534
      -0.814
      -1.106
      -1.384
      -1.615
      -1.771
      -1.840
      -1.833
      -1.780
      -1.716
      -1.658
      -1.586
      -1.444
      -1.176
      -0.766
      -0.262
       0.255
       0.710
       1.070
       1.346
       1.564
       1.736
       1.845
       1.862
       1.766
       1.565
       1.295
       1.003
       0.728
       0.491
       0.297
       0.146
       0.039
      -0.022
      -0.043
      -0.032
       0.010
       0.093
       0.222
       0.379
       0.512
       0.572
       0.549
       0.466
       0.353
       0.216
       0.039
      -0.182
      -0.418
      -0.620
      -0.756
      -0.827
      -0.852
      -0.833
      -0.743
      -0.553
      -0.278
       0.019
       0.259
       0.398
       0.442
       0.422
       0.361
       0.263
       0.140
       0.024
      -0.041
      -0.025
       0.068
       0.206
       0.356
       0.499
       0.633
       0.753
       0.829
       0.814
       0.674
       0.408
       0.057
      -0.318
      -0.669
      -0.961
      -1.163
      -1.238
      -1.159
      -0.927
      -0.587
      -0.212
       0.125
       0.372
       0.508
       0.542
       0.498
       0.411
       0.308
       0.199
       0.085
      -0.038
      -0.153
      -0.235
      -0.263
      -0.236
      -0.167
      -0.064
       0.071
       0.236
       0.419
       0.593
       0.732
       0.815
       0.828
       0.764
       0.638
       0.492
       0.391
       0.389
       0.497
       0.666
       0.809
       0.837
       0.704
       0.424
       0.057
      -0.324
      -0.651
      -0.881
      -0.988
      -0.963
      -0.819
      -0.588
      -0.322
      -0.081
       0.084
       0.146
       0.110
      -0.002
      -0.164
      -0.358
      -0.571
      -0.781
      -0.952
      -1.040
      -1.013
      -0.862
      -0.597
      -0.247
       0.147
       0.522
       0.809
       0.962
       0.984
       0.921
       0.832
       0.750
       0.664
       0.556
       0.428
       0.299
       0.181
       0.057
      -0.105
      -0.312
      -0.530
      -0.703
      -0.791
      -0.799
      -0.768
      -0.744
      -0.743
      -0.741
      -0.696
      -0.575
      -0.380
      -0.146
       0.082
       0.276
       0.428
       0.540
       0.607
       0.613
       0.545
       0.409
       0.232
       0.052
      -0.097
      -0.190
      -0.219
      -0.192
      -0.135
      -0.083
      -0.056
      -0.051
      -0.048
      -0.031
       0.007
       0.058
       0.109
       0.157
       0.196
       0.228
       0.255
       0.291
       0.342
       0.403
       0.445
       0.427
       0.310
       0.076
      -0.256
      -0.629
      -0.965
      -1.199
      -1.297
      -1.257
      -1.099
      -0.852
      -0.545
      -0.219
       0.080
       0.308
       0.442
       0.485
       0.463
       0.410
       0.349
       0.285
       0.211
       0.120
       0.022
      -0.064
      -0.135
      -0.205
      -0.300
      -0.427
      -0.564
      -0.675
      -0.732
      -0.726
      -0.659
      -0.530
      -0.339
      -0.110
       0.107
       0.251
       0.295
       0.257
       0.189
       0.139
       0.128
       0.150
       0.185
       0.212
       0.214
       0.174
       0.082
      -0.064
      -0.243
      -0.426
      -0.591
      -0.739
      -0.879
      -1.009
      -1.097
      -1.103
      -1.009
      -0.836
      -0.622
      -0.394
      -0.153
       0.107
       0.370
       0.599
       0.753
       0.808
       0.769
       0.667
       0.540
       0.417
       0.297
       0.157
      -0.022
      -0.225
      -0.390
      -0.440
      -0.323
      -0.047
       0.314
       0.650
       0.854
       0.866
       0.693
       0.403
       0.095
      -0.150
      -0.288
      -0.322
      -0.291
      -0.248
      -0.231
      -0.245
      -0.274
      -0.308
      -0.352
      -0.426
      -0.541
      -0.692
      -0.863
      -1.034
      -1.182
      -1.274
      -1.273
      -1.140
      -0.858
      -0.449
       0.013
       0.430
       0.718
       0.852
       0.877
       0.872
       0.900
       0.975
       1.062
       1.107
       1.069
       0.938
       0.732
       0.493
       0.266
       0.082
      -0.043
      -0.115
      -0.154
      -0.192
      -0.257
      -0.361
      -0.490
      -0.618
      -0.724
      -0.803
      -0.857
      -0.887
      -0.886
      -0.845
      -0.756
      -0.613
      -0.426
      -0.220
      -0.032
       0.107
       0.181
       0.182
       0.105
      -0.042
      -0.225
      -0.390
      -0.487
      -0.500
      -0.440
      -0.334
      -0.204
      -0.070
       0.056
       0.170
       0.286
       0.427
       0.612
       0.840
       1.093
       1.335
       1.529
       1.639
       1.643
       1.535
       1.329
       1.053
       0.748
       0.444
       0.164
      -0.078
      -0.263
      -0.378
      -0.436
      -0.490
      -0.605
      -0.813
      -1.068
      -1.266
      -1.300
      -1.130
      -0.799
      -0.412
      -0.076
       0.142
       0.235
       0.237
       0.193
       0.141
       0.110
       0.124
       0.188
       0.278
       0.341
       0.324
       0.209
       0.022
