Origin Time       06/11/2013 04:16:16 UTC
Lat.              26.5 N	
Long.             93.5 E	
Depth (Km)         20.0
Magnitude         5.5
 Region           Karbi-Assam                                                      
 Above details taken from IMD 
    
Station Code      LKH
Station Lat.       27.239  N
Station Long.      94.107  E
Station Height(m)   95.0
Site Class        C   Vs30 between 200 m/sec to 375 m/sec *  
Record Time       06.11.2013 04:18:13.169 UTC
Sampling Rate     200. Hz
 Record Duration   80.015 Sec.
 Direction         N-S (N positive)
Max. Acceleration      2.296 cm/sec**2
     
  * For reference see Site Classification link of website 
     
 Base Line Corrected and Low Pass Filtered (Cut Off at 35 Hz) Time History
 Acceleration data in cm/sec**2
    
[...]
       0.054
       0.096
       0.118
       0.114
       0.081
       0.027
      -0.034
      -0.081
      -0.101
      -0.093
      -0.071
      -0.053
      -0.046
      -0.046
      -0.047
      -0.047
      -0.048
      -0.053
      -0.054
      -0.040
      -0.007
       0.038
       0.078
       0.105
       0.118
       0.123
       0.120
       0.100
       0.056
      -0.007
      -0.065
      -0.096
      -0.090
      -0.058
      -0.021
       0.007
       0.027
       0.045
       0.065
       0.084
       0.101
       0.117
       0.137
       0.161
       0.184
       0.197
       0.192
       0.170
       0.140
       0.115
       0.098
       0.084
       0.065
       0.035
      -0.003
      -0.040
      -0.070
      -0.081
      -0.067
      -0.027
       0.028
       0.075
       0.091
       0.068
       0.023
      -0.021
      -0.041
      -0.031
       0.002
       0.045
       0.087
       0.122
       0.143
       0.145
       0.122
       0.080
       0.037
       0.008
       0.002
       0.014
       0.037
       0.066
       0.100
       0.142
       0.184
       0.215
       0.227
       0.225
       0.224
       0.240
       0.271
       0.301
       0.307
       0.283
       0.235
       0.183
       0.140
       0.108
       0.077
       0.040
      -0.004
      -0.042
      -0.062
      -0.057
      -0.032
       0.006
       0.046
       0.081
       0.103
       0.111
       0.106
       0.094
       0.081
       0.075
       0.082
       0.106
       0.141
       0.177
       0.200
       0.205
       0.193
       0.167
       0.135
       0.103
       0.082
       0.076
       0.081
       0.088
       0.091
       0.095
       0.110
       0.139
       0.171
       0.190
       0.186
       0.165
       0.141
       0.125
       0.128
       0.153
       0.199
       0.259
       0.313
       0.345
       0.347
       0.324
       0.287
       0.248
       0.212
       0.178
       0.140
       0.101
       0.070
       0.058
       0.072
       0.100
       0.118
       0.108
       0.070
       0.020
      -0.023
      -0.051
      -0.066
      -0.076
      -0.079
      -0.065
      -0.027
       0.030
       0.084
       0.116
       0.121
       0.114
       0.113
       0.123
       0.135
       0.134
       0.118
       0.098
       0.091
       0.098
       0.107
       0.103
       0.083
       0.060
       0.049
       0.059
       0.085
       0.116
       0.141
       0.160
       0.174
       0.181
       0.174
       0.145
       0.095
       0.032
      -0.028
      -0.075
      -0.100
      -0.102
      -0.077
      -0.025
       0.045
       0.116
       0.165
       0.178
       0.154
       0.106
       0.051
       0.003
      -0.029
      -0.041
      -0.035
      -0.019
      -0.003
       0.001
      -0.012
      -0.035
      -0.056
      -0.061
      -0.043
      -0.012
       0.017
       0.031
       0.030
       0.029
       0.042
       0.068
       0.090
       0.088
       0.051
      -0.012
      -0.079
      -0.134
      -0.170
      -0.188
      -0.192
      -0.181
      -0.157
      -0.129
      -0.109
      -0.105
      -0.116
      -0.126
      -0.128
      -0.126
      -0.130
      -0.148
      -0.170
      -0.177
      -0.153
      -0.095
      -0.017
       0.058
       0.111
       0.134
       0.130
       0.107
       0.076
       0.048
       0.027
       0.010
      -0.013
      -0.049
      -0.098
      -0.151
      -0.194
      -0.216
      -0.211
      -0.180
      -0.133
      -0.084
      -0.050
      -0.040
      -0.060
      -0.109
      -0.177
      -0.257
      -0.338
      -0.409
      -0.455
      -0.463
      -0.428
      -0.359
      -0.273
      -0.189
      -0.120
      -0.071
      -0.042
      -0.027
      -0.020
      -0.018
      -0.021
      -0.030
      -0.044
      -0.056
      -0.057
      -0.047
      -0.032
      -0.023
      -0.031
      -0.054
      -0.088
      -0.122
      -0.153
      -0.178
      -0.196
      -0.206
      -0.209
      -0.208
      -0.205
      -0.198
      -0.182
      -0.154
      -0.118
      -0.088
      -0.072
      -0.075
      -0.091
      -0.108
      -0.119
      -0.124
      -0.124
      -0.117
      -0.099
      -0.069
      -0.042
      -0.035
      -0.059
      -0.107
      -0.159
      -0.190
      -0.190
      -0.161
      -0.111
      -0.049
       0.025
       0.109
       0.191
       0.250
       0.264
       0.229
       0.157
       0.072
      -0.006
      -0.063
      -0.095
      -0.105
      -0.106
      -0.115
      -0.139
      -0.168
      -0.188
      -0.186
      -0.161
      -0.122
      -0.080
      -0.049
      -0.042
      -0.061
      -0.100
      -0.142
      -0.169
      -0.175
      -0.174
      -0.181
      -0.198
      -0.209
      -0.194
      -0.146
      -0.082
      -0.026
       0.004
       0.001
      -0.027
      -0.069
      -0.112
      -0.147
      -0.169
      -0.173
      -0.162
      -0.136
      -0.101
      -0.061
      -0.021
       0.011
       0.025
       0.013
      -0.020
      -0.062
      -0.097
      -0.116
      -0.123
      -0.131
      -0.147
      -0.170
      -0.193
      -0.213
      -0.231
      -0.251
      -0.272
      -0.283
      -0.274
      -0.243
      -0.205
      -0.177
      -0.164
      -0.149
      -0.114
      -0.055
       0.009
       0.051
       0.058
       0.038
       0.010
      -0.014
      -0.033
      -0.052
      -0.072
      -0.086
      -0.088
      -0.075
      -0.054
      -0.036
      -0.028
      -0.031
      -0.035
      -0.029
      -0.010
       0.015
       0.036
       0.045
       0.044
       0.029
      -0.001
      -0.050
      -0.111
      -0.168
      -0.205
      -0.214
      -0.192
      -0.145
      -0.084
      -0.027
       0.005
       0.004
      -0.020
      -0.041
      -0.033
       0.016
       0.097
       0.186
       0.251
       0.269
       0.236
       0.167
       0.085
       0.009
      -0.054
      -0.104
      -0.141
      -0.164
      -0.171
      -0.167
      -0.162
      -0.165
      -0.178
      -0.196
      -0.205
      -0.193
      -0.154
      -0.087
      -0.001
       0.098
       0.198
       0.285
       0.340
       0.352
       0.320
       0.255
       0.168
       0.066
      -0.045
      -0.154
      -0.240
      -0.284
      -0.283
      -0.248
      -0.195
      -0.136
      -0.076
      -0.022
       0.018
       0.037
       0.038
       0.034
       0.042
       0.068
       0.105
       0.137
       0.151
       0.142
       0.123
       0.110
       0.110
       0.113
       0.107
       0.084
       0.050
       0.017
      -0.006
      -0.019
      -0.022
      -0.015
       0.009
       0.049
       0.101
       0.154
       0.204
       0.250
       0.293
       0.322
       0.325
       0.291
       0.222
       0.137
       0.061
       0.017
       0.013
       0.040
       0.081
       0.117
       0.142
       0.157
       0.164
       0.162
       0.153
       0.142
       0.135
       0.134
       0.133
       0.123
       0.103
       0.078
       0.061
       0.057
       0.067
       0.088
       0.112
       0.133
       0.145
       0.144
       0.132
       0.113
       0.091
       0.069
       0.056
       0.060
       0.084
       0.120
       0.153
       0.177
       0.197
       0.223
       0.258
       0.294
       0.326
       0.352
       0.375
       0.386
       0.370
       0.317
       0.233
       0.134
       0.034
      -0.059
      -0.135
      -0.175
      -0.167
      -0.110
      -0.024
       0.065
       0.137
       0.185
       0.208
       0.207
       0.190
       0.169
       0.154
       0.158
       0.182
       0.220
       0.260
       0.288
       0.288
       0.252
       0.179
       0.084
      -0.010
      -0.085
      -0.130
      -0.148
      -0.143
      -0.120
      -0.083
      -0.033
       0.029
       0.101
       0.181
       0.260
       0.333
       0.394
       0.434
       0.440
       0.402
       0.320
       0.208
       0.090
      -0.011
      -0.072
      -0.088
      -0.064
      -0.019
       0.020
       0.038
       0.035
       0.025
       0.021
       0.025
       0.030
       0.035
       0.050
       0.088
       0.153
       0.227
       0.281
       0.287
       0.239
       0.159
       0.084
       0.043
       0.043
       0.071
       0.105
       0.130
       0.137
       0.119
       0.069
      -0.014
      -0.113
      -0.201
      -0.253
      -0.254
      -0.212
      -0.144
      -0.072
      -0.014
       0.018
       0.021
       0.000
      -0.027
      -0.040
      -0.021
       0.029
       0.088
       0.130
       0.134
       0.104
       0.057
       0.013
      -0.017
      -0.031
      -0.032
      -0.025
      -0.018
      -0.018
      -0.029
      -0.051
      -0.076
      -0.098
      -0.116
      -0.136
      -0.160
      -0.183
      -0.194
      -0.190
      -0.181
      -0.187
      -0.218
      -0.265
      -0.301
      -0.299
      -0.246
      -0.149
      -0.033
       0.073
       0.146
       0.179
       0.176
       0.143
       0.079
      -0.014
      -0.126
      -0.229
      -0.297
      -0.319
      -0.304
      -0.275
      -0.251
      -0.238
      -0.235
      -0.235
      -0.234
      -0.229
      -0.214
      -0.180
      -0.124
      -0.053
       0.017
       0.076
       0.120
       0.147
       0.156
       0.143
       0.101
       0.030
      -0.057
      -0.142
      -0.210
      -0.256
      -0.288
      -0.310
      -0.312
      -0.287
      -0.232
      -0.162
      -0.093
      -0.038
       0.002
       0.026
       0.034
       0.028
       0.011
      -0.005
      -0.012
      -0.008
      -0.004
      -0.016
      -0.052
      -0.113
      -0.188
      -0.261
      -0.316
      -0.341
      -0.332
      -0.296
      -0.248
      -0.202
      -0.164
      -0.133
      -0.106
      -0.081
      -0.056
      -0.027
       0.005
       0.033
       0.048
       0.047
       0.038
       0.032
       0.033
       0.032
       0.020
      -0.003
      -0.026
      -0.041
      -0.056
      -0.089
      -0.157
      -0.257
      -0.362
      -0.438
      -0.461
      -0.429
      -0.353
      -0.251
      -0.140
      -0.037
       0.043
       0.093
       0.114
       0.115
       0.106
       0.092
       0.077
       0.058
       0.031
      -0.004
      -0.044
      -0.084
      -0.122
      -0.162
      -0.206
      -0.251
      -0.283
      -0.286
      -0.253
      -0.193
      -0.127
      -0.074
      -0.039
      -0.018
      -0.007
      -0.007
      -0.024
      -0.057
      -0.091
      -0.109
      -0.101
      -0.075
      -0.050
      -0.040
      -0.047
      -0.059
      -0.068
      -0.067
      -0.055
      -0.034
      -0.012
      -0.005
      -0.031
      -0.091
      -0.167
      -0.231
      -0.264
      -0.264
      -0.245
      -0.216
      -0.176
      -0.117
      -0.042
       0.034
       0.093
       0.129
       0.151
       0.170
       0.187
       0.195
       0.188
       0.165
       0.131
       0.091
       0.043
      -0.016
      -0.085
      -0.153
      -0.200
      -0.204
      -0.158
      -0.082
      -0.008
       0.039
       0.057
       0.057
       0.056
       0.058
       0.063
       0.070
       0.083
       0.109
       0.145
       0.182
       0.206
       0.214
       0.211
       0.210
       0.217
       0.223
       0.216
       0.190
       0.158
       0.132
       0.118
       0.108
       0.095
       0.082
       0.074
       0.074
       0.074
       0.061
       0.030
      -0.015
      -0.062
      -0.098
      -0.117
      -0.125
      -0.130
      -0.133
      -0.129
      -0.104
      -0.054
       0.009
       0.066
       0.098
       0.099
       0.076
       0.041
       0.006
      -0.022
      -0.040
      -0.047
      -0.042
      -0.027
      -0.007
       0.010
       0.013
       0.004
      -0.011
      -0.020
      -0.017
      -0.002
       0.020
       0.048
       0.077
       0.097
       0.099
       0.081
       0.058
       0.050
       0.064
       0.088
       0.100
       0.089
       0.059
       0.025
       0.003
       0.001
       0.013
       0.027
       0.028
       0.009
      -0.028
      -0.070
      -0.102
      -0.118
      -0.128
      -0.143
      -0.172
      -0.212
      -0.252
      -0.286
      -0.305
      -0.305
      -0.284
      -0.247
      -0.205
      -0.169
      -0.143
      -0.126
      -0.116
      -0.115
      -0.130
      -0.165
      -0.218
      -0.283
      -0.352
      -0.416
      -0.469
      -0.504
      -0.516
      -0.504
      -0.474
      -0.431
      -0.370
      -0.282
      -0.152
       0.029
       0.263
       0.534
       0.817
       1.090
       1.338
       1.547
       1.701
       1.791
       1.819
       1.802
       1.760
       1.704
       1.623
       1.499
       1.319
       1.088
       0.825
       0.556
       0.300
       0.066
      -0.144
      -0.329
      -0.484
      -0.601
      -0.668
      -0.680
      -0.645
      -0.580
      -0.513
      -0.470
      -0.467
      -0.510
      -0.591
      -0.700
      -0.828
      -0.969
      -1.119
      -1.270
      -1.408
      -1.513
      -1.570
      -1.573
      -1.528
      -1.444
      -1.326
      -1.171
      -0.969
      -0.711
      -0.395
      -0.023
       0.394
       0.838
       1.282
       1.692
       2.026
       2.238
       2.296
       2.193
       1.951
       1.609
       1.201
       0.758
       0.317
      -0.082
      -0.401
      -0.615
      -0.719
      -0.724
      -0.652
      -0.528
      -0.378
      -0.230
      -0.106
      -0.028
      -0.005
      -0.033
      -0.092
      -0.153
      -0.182
      -0.155
      -0.062
       0.095
       0.299
       0.527
       0.757
       0.965
       1.145
       1.300
       1.442
       1.570
       1.669
       1.709
       1.662
       1.510
       1.246
       0.866
       0.388
      -0.145
      -0.668
      -1.119
      -1.463
      -1.695
      -1.831
      -1.888
      -1.872
      -1.781
      -1.611
      -1.369
      -1.077
      -0.767
      -0.468
      -0.203
       0.010
       0.149
       0.195
       0.142
       0.005
      -0.180
      -0.367
      -0.505
      -0.550
      -0.471
      -0.266
       0.029
       0.351
       0.628
       0.804
       0.855
       0.784
       0.620
       0.405
       0.194
       0.047
       0.009
       0.096
       0.288
       0.538
       0.790
       1.000
       1.143
       1.205
       1.178
       1.056
       0.841
       0.547
       0.197
      -0.175
      -0.539
      -0.866
      -1.130
      -1.310
      -1.387
      -1.347
      -1.187
      -0.919
      -0.572
      -0.192
       0.173
       0.486
       0.732
       0.916
       1.057
       1.169
       1.260
       1.322
       1.341
       1.296
       1.169
       0.952
       0.657
       0.308
      -0.063
      -0.430
      -0.764
      -1.031
      -1.194
      -1.230
      -1.147
      -0.983
      -0.794
      -0.621
      -0.477
      -0.347
      -0.214
      -0.076
       0.048
       0.126
       0.140
       0.088
      -0.013
      -0.138
      -0.262
      -0.360
      -0.415
      -0.415
      -0.357
      -0.243
      -0.085
       0.086
       0.224
       0.285
       0.257
       0.175
       0.103
       0.103
       0.201
       0.376
       0.572
       0.720
       0.775
       0.728
       0.615
       0.494
       0.410
       0.379
       0.387
       0.406
       0.415
       0.395
       0.334
       0.223
       0.060
      -0.146
      -0.378
      -0.608
      -0.797
      -0.912
      -0.929
      -0.854
      -0.710
      -0.529
      -0.336
      -0.152
       0.002
       0.104
       0.140
       0.107
       0.022
      -0.087
      -0.188
      -0.250
      -0.255
      -0.200
      -0.099
       0.023
       0.141
       0.231
       0.268
       0.231
       0.100
      -0.129
      -0.428
      -0.746
      -1.018
      -1.189
      -1.228
      -1.136
      -0.947
      -0.713
      -0.484
      -0.281
      -0.102
       0.065
       0.219
       0.343
       0.425
       0.472
       0.510
       0.559
       0.615
       0.652
       0.643
       0.575
       0.455
       0.304
       0.153
       0.039
      -0.006
       0.030
       0.123
       0.225
       0.293
       0.308
       0.282
       0.242
       0.208
       0.184
       0.166
       0.138
       0.078
      -0.036
      -0.210
      -0.422
      -0.627
      -0.773
      -0.834
      -0.812
      -0.736
      -0.636
      -0.523
      -0.399
      -0.263
      -0.127
      -0.016
       0.054
       0.081
       0.078
       0.056
       0.017
      -0.039
      -0.106
      -0.162
      -0.176
      -0.127
      -0.013
       0.135
       0.265
       0.326
       0.284
       0.139
      -0.074
      -0.303
      -0.494
      -0.609
      -0.625
      -0.540
      -0.369
      -0.145
       0.093
       0.300
       0.432
       0.443
       0.300
       0.005
      -0.390
      -0.784
      -1.068
      -1.167
      -1.068
      -0.819
      -0.490
      -0.153
       0.137
       0.339
       0.428
       0.398
       0.265
       0.058
      -0.188
      -0.436
      -0.653
      -0.801
      -0.852
      -0.790
      -0.625
      -0.393
      -0.141
       0.090
       0.279
       0.421
       0.516
       0.562
       0.552
       0.490
       0.388
       0.268
       0.151
       0.053
      -0.015
      -0.039
       0.004
       0.131
       0.342
       0.605
       0.862
       1.050
       1.129
       1.093
       0.964
       0.768
       0.530
       0.271
       0.020
      -0.185
      -0.315
      -0.363
      -0.353
      -0.333
      -0.352
      -0.442
      -0.608
      -0.822
      -1.039
      -1.211
      -1.299
      -1.289
      -1.191
      -1.037
      -0.873
      -0.730
      -0.616
      -0.520
      -0.429
      -0.339
      -0.255
      -0.179
      -0.106
      -0.021
       0.086
       0.221
       0.371
       0.506
       0.591
       0.596
       0.519
       0.387
       0.238
       0.107
       0.010
      -0.060
      -0.118
      -0.178
      -0.238
      -0.280
      -0.277
      -0.206
      -0.051
       0.180
       0.458
       0.744
       1.001
       1.197
       1.311
       1.327
       1.241
       1.067
       0.832
       0.565
       0.287
       0.016
      -0.226
      -0.409
      -0.518
      -0.559
      -0.556
      -0.538
      -0.519
      -0.496
      -0.465
      -0.424
      -0.383
      -0.357
      -0.354
      -0.366
      -0.368
      -0.338
      -0.262
      -0.146
      -0.004
       0.144
       0.283
       0.390
       0.445
       0.432
       0.344
       0.192
       0.006
      -0.162
      -0.255
      -0.241
      -0.133
       0.012
       0.127
       0.165
       0.116
       0.001
      -0.147
      -0.286
      -0.376
      -0.382
      -0.288
      -0.101
       0.142
       0.394
       0.615
       0.779
       0.870
       0.886
       0.834
       0.741
       0.648
       0.594
       0.597
       0.649
       0.724
       0.792
       0.823
       0.796
       0.706
       0.574
