Origin Time       30/8/2009 19:27:44	
Lat.              25.4 N	
Long.             94.8 E	
Depth (Km)         85.0
Magnitude         5.3
 Region           MYANMAR-India-Manipuir-Border                                    
 Above details taken from IMD 
     
Station Code      LKH
Station Lat.       27.239  N
Station Long.      94.107  E
Station Height(m)   95.0
Site Class        C   Vs30 between 200 m/sec to 375 m/sec *  
Record Time       30.08.2009 19:28:33.764
Sampling Rate     200. Hz
 Record Duration   65.505 Sec.
 Direction         E-W (E positive)
Max. Acceleration     -6.768 cm/sec**2
     
  * For reference see Site Classification link of website 
     
 Base Line Corrected and Low Pass Filtered (Cut Off at 35 Hz) Time History
 Acceleration data in cm/sec**2
    
[...]
      -0.063
      -0.021
       0.021
       0.062
       0.096
       0.109
       0.096
       0.064
       0.034
       0.022
       0.030
       0.044
       0.054
       0.058
       0.063
       0.074
       0.090
       0.097
       0.084
       0.056
       0.029
       0.019
       0.025
       0.028
       0.011
      -0.021
      -0.046
      -0.041
      -0.004
       0.042
       0.069
       0.065
       0.042
       0.014
      -0.011
      -0.031
      -0.042
      -0.037
      -0.014
       0.023
       0.059
       0.074
       0.053
      -0.002
      -0.069
      -0.119
      -0.139
      -0.133
      -0.118
      -0.102
      -0.081
      -0.050
      -0.008
       0.038
       0.077
       0.102
       0.113
       0.113
       0.105
       0.088
       0.062
       0.033
       0.004
      -0.019
      -0.037
      -0.053
      -0.075
      -0.100
      -0.117
      -0.106
      -0.066
      -0.014
       0.027
       0.046
       0.049
       0.049
       0.054
       0.062
       0.066
       0.060
       0.045
       0.027
       0.011
      -0.001
      -0.008
      -0.005
       0.010
       0.036
       0.069
       0.102
       0.123
       0.122
       0.097
       0.058
       0.014
      -0.033
      -0.086
      -0.142
      -0.184
      -0.192
      -0.155
      -0.084
      -0.007
       0.046
       0.059
       0.037
      -0.001
      -0.041
      -0.071
      -0.090
      -0.098
      -0.099
      -0.095
      -0.089
      -0.087
      -0.096
      -0.109
      -0.111
      -0.083
      -0.024
       0.046
       0.094
       0.102
       0.075
       0.040
       0.015
       0.002
      -0.007
      -0.017
      -0.020
      -0.010
       0.010
       0.020
       0.003
      -0.042
      -0.089
      -0.106
      -0.079
      -0.025
       0.024
       0.053
       0.076
       0.120
       0.185
       0.248
       0.279
       0.270
       0.235
       0.191
       0.139
       0.073
      -0.006
      -0.079
      -0.115
      -0.101
      -0.048
       0.011
       0.047
       0.048
       0.027
       0.005
      -0.001
       0.008
       0.016
       0.011
       0.000
      -0.001
       0.014
       0.029
       0.020
      -0.020
      -0.067
      -0.085
      -0.058
      -0.003
       0.043
       0.061
       0.056
       0.041
       0.014
      -0.041
      -0.133
      -0.246
      -0.344
      -0.398
      -0.398
      -0.360
      -0.299
      -0.221
      -0.124
      -0.005
       0.120
       0.222
       0.271
       0.255
       0.197
       0.136
       0.108
       0.116
       0.140
       0.150
       0.132
       0.090
       0.041
      -0.006
      -0.047
      -0.082
      -0.104
      -0.101
      -0.065
      -0.015
       0.012
      -0.010
      -0.064
      -0.101
      -0.080
      -0.006
       0.078
       0.129
       0.140
       0.137
       0.144
       0.152
       0.126
       0.053
      -0.037
      -0.089
      -0.069
       0.007
       0.093
       0.149
       0.174
       0.189
       0.206
       0.205
       0.150
       0.034
      -0.105
      -0.203
      -0.220
      -0.167
      -0.094
      -0.048
      -0.035
      -0.023
       0.016
       0.080
       0.132
       0.132
       0.080
       0.007
      -0.044
      -0.060
      -0.064
      -0.089
      -0.138
      -0.183
      -0.187
      -0.143
      -0.078
      -0.033
      -0.023
      -0.030
      -0.029
      -0.005
       0.028
       0.049
       0.047
       0.033
       0.030
       0.042
       0.047
       0.021
      -0.037
      -0.102
      -0.135
      -0.117
      -0.059
       0.008
       0.054
       0.069
       0.063
       0.050
       0.034
       0.011
      -0.019
      -0.049
      -0.062
      -0.053
      -0.026
      -0.001
       0.003
      -0.017
      -0.049
      -0.070
      -0.075
      -0.071
      -0.076
      -0.095
      -0.112
      -0.103
      -0.057
       0.013
       0.076
       0.106
       0.100
       0.070
       0.033
      -0.009
      -0.055
      -0.095
      -0.106
      -0.065
       0.029
       0.143
       0.228
       0.252
       0.217
       0.152
       0.086
       0.027
      -0.024
      -0.060
      -0.071
      -0.051
      -0.009
       0.037
       0.074
       0.102
       0.123
       0.142
       0.156
       0.159
       0.141
       0.098
       0.042
      -0.004
      -0.024
      -0.025
      -0.028
      -0.053
      -0.089
      -0.109
      -0.094
      -0.052
      -0.016
      -0.011
      -0.037
      -0.067
      -0.079
      -0.074
      -0.071
      -0.086
      -0.114
      -0.131
      -0.115
      -0.068
      -0.010
       0.040
       0.082
       0.134
       0.201
       0.258
       0.262
       0.187
       0.052
      -0.093
      -0.206
      -0.268
      -0.285
      -0.267
      -0.224
      -0.165
      -0.102
      -0.049
      -0.008
       0.029
       0.068
       0.100
       0.110
       0.089
       0.041
      -0.018
      -0.079
      -0.134
      -0.169
      -0.168
      -0.121
      -0.042
       0.039
       0.090
       0.103
       0.091
       0.074
       0.057
       0.033
       0.004
      -0.019
      -0.017
       0.011
       0.051
       0.085
       0.104
       0.111
       0.113
       0.110
       0.091
       0.044
      -0.027
      -0.104
      -0.168
      -0.208
      -0.221
      -0.210
      -0.182
      -0.151
      -0.123
      -0.095
      -0.063
      -0.034
      -0.024
      -0.038
      -0.062
      -0.072
      -0.061
      -0.044
      -0.031
      -0.020
       0.008
       0.055
       0.098
       0.096
       0.035
      -0.052
      -0.104
      -0.088
      -0.021
       0.045
       0.069
       0.055
       0.042
       0.055
       0.086
       0.102
       0.085
       0.055
       0.051
       0.088
       0.140
       0.168
       0.157
       0.123
       0.090
       0.063
       0.028
      -0.022
      -0.081
      -0.129
      -0.145
      -0.119
      -0.063
      -0.005
       0.024
       0.015
      -0.010
      -0.011
       0.025
       0.072
       0.089
       0.062
       0.022
       0.013
       0.051
       0.109
       0.141
       0.123
       0.074
       0.036
       0.034
       0.059
       0.083
       0.088
       0.076
       0.059
       0.040
       0.012
      -0.035
      -0.094
      -0.135
      -0.132
      -0.087
      -0.024
       0.031
       0.073
       0.110
       0.146
       0.170
       0.168
       0.131
       0.066
      -0.012
      -0.081
      -0.124
      -0.137
      -0.121
      -0.088
      -0.052
      -0.028
      -0.014
      -0.002
       0.021
       0.053
       0.079
       0.086
       0.070
       0.032
      -0.021
      -0.080
      -0.131
      -0.164
      -0.182
      -0.198
      -0.216
      -0.224
      -0.202
      -0.146
      -0.075
      -0.019
      -0.003
      -0.024
      -0.059
      -0.092
      -0.123
      -0.158
      -0.192
      -0.200
      -0.159
      -0.068
       0.051
       0.168
       0.258
       0.314
       0.335
       0.324
       0.280
       0.205
       0.120
       0.048
       0.003
      -0.021
      -0.047
      -0.085
      -0.130
      -0.157
      -0.143
      -0.085
      -0.004
       0.066
       0.096
       0.088
       0.070
       0.068
       0.081
       0.080
       0.047
      -0.010
      -0.052
      -0.048
       0.003
       0.065
       0.092
       0.069
       0.017
      -0.027
      -0.047
      -0.055
      -0.074
      -0.112
      -0.155
      -0.179
      -0.169
      -0.134
      -0.095
      -0.064
      -0.025
       0.042
       0.135
       0.213
       0.230
       0.172
       0.075
      -0.004
      -0.027
       0.000
       0.044
       0.071
       0.076
       0.066
       0.047
       0.007
      -0.070
      -0.177
      -0.286
      -0.354
      -0.351
      -0.269
      -0.130
       0.026
       0.159
       0.246
       0.283
       0.273
       0.217
       0.124
       0.021
      -0.054
      -0.070
      -0.030
       0.033
       0.079
       0.091
       0.080
       0.062
       0.042
       0.018
      -0.009
      -0.024
      -0.009
       0.031
       0.071
       0.080
       0.042
      -0.030
      -0.105
      -0.152
      -0.150
      -0.092
       0.010
       0.129
       0.224
       0.258
       0.216
       0.110
      -0.033
      -0.179
      -0.303
      -0.383
      -0.404
      -0.365
      -0.280
      -0.182
      -0.104
      -0.062
      -0.052
      -0.062
      -0.082
      -0.102
      -0.109
      -0.084
      -0.022
       0.063
       0.145
       0.199
       0.216
       0.200
       0.160
       0.101
       0.027
      -0.056
      -0.137
      -0.201
      -0.224
      -0.186
      -0.085
       0.052
       0.176
       0.242
       0.241
       0.197
       0.155
       0.151
       0.194
       0.262
       0.316
       0.325
       0.280
       0.199
       0.110
       0.036
      -0.011
      -0.031
      -0.029
      -0.011
       0.014
       0.029
       0.017
      -0.024
      -0.073
      -0.100
      -0.091
      -0.058
      -0.022
       0.002
       0.017
       0.028
       0.029
       0.006
      -0.048
      -0.124
      -0.197
      -0.245
      -0.259
      -0.246
      -0.221
      -0.198
      -0.173
      -0.131
      -0.067
       0.006
       0.052
       0.052
       0.018
      -0.011
      -0.008
       0.021
       0.045
       0.041
       0.022
       0.022
       0.061
       0.119
       0.155
       0.151
       0.127
       0.120
       0.138
       0.152
       0.122
       0.035
      -0.081
      -0.176
      -0.214
      -0.202
      -0.169
      -0.136
      -0.092
      -0.018
       0.080
       0.161
       0.181
       0.137
       0.059
      -0.012
      -0.056
      -0.074
      -0.075
      -0.058
      -0.014
       0.055
       0.126
       0.155
       0.113
       0.004
      -0.127
      -0.216
      -0.220
      -0.142
      -0.024
       0.088
       0.171
       0.232
       0.281
       0.306
       0.282
       0.193
       0.064
      -0.055
      -0.124
      -0.140
      -0.134
      -0.133
      -0.137
      -0.131
      -0.105
      -0.073
      -0.054
      -0.057
      -0.074
      -0.085
      -0.079
      -0.061
      -0.047
      -0.036
      -0.006
       0.067
       0.179
       0.285
       0.330
       0.293
       0.196
       0.093
       0.032
       0.020
       0.026
       0.008
      -0.047
      -0.111
      -0.151
      -0.160
      -0.156
      -0.158
      -0.164
      -0.153
      -0.102
      -0.019
       0.058
       0.084
       0.043
      -0.040
      -0.120
      -0.167
      -0.175
      -0.151
      -0.095
      -0.011
       0.086
       0.165
       0.202
       0.193
       0.157
       0.109
       0.052
      -0.011
      -0.069
      -0.105
      -0.116
      -0.112
      -0.098
      -0.069
      -0.020
       0.039
       0.085
       0.094
       0.063
       0.012
      -0.026
      -0.038
      -0.037
      -0.050
      -0.093
      -0.162
      -0.243
      -0.326
      -0.408
      -0.484
      -0.541
      -0.555
      -0.515
      -0.439
      -0.369
      -0.340
      -0.351
      -0.371
      -0.378
      -0.380
      -0.400
      -0.454
      -0.531
      -0.602
      -0.643
      -0.650
      -0.641
      -0.640
      -0.656
      -0.666
      -0.643
      -0.574
      -0.481
      -0.395
      -0.336
      -0.300
      -0.274
      -0.252
      -0.240
      -0.241
      -0.249
      -0.256
      -0.267
      -0.300
      -0.373
      -0.482
      -0.602
      -0.697
      -0.738
      -0.708
      -0.620
      -0.512
      -0.424
      -0.371
      -0.335
      -0.288
      -0.218
      -0.136
      -0.058
       0.010
       0.071
       0.132
       0.199
       0.280
       0.384
       0.524
       0.704
       0.911
       1.115
       1.279
       1.385
       1.436
       1.451
       1.450
       1.444
       1.440
       1.444
       1.468
       1.525
       1.619
       1.747
       1.892
       2.033
       2.148
       2.228
       2.283
       2.335
       2.396
       2.460
       2.507
       2.511
       2.456
       2.341
       2.174
       1.964
       1.715
       1.445
       1.196
       1.013
       0.898
       0.807
       0.684
       0.511
       0.319
       0.156
       0.033
      -0.095
      -0.287
      -0.568
      -0.898
      -1.215
      -1.490
      -1.745
      -2.010
      -2.286
      -2.546
      -2.774
      -2.992
      -3.241
      -3.533
      -3.828
      -4.057
      -4.181
      -4.229
      -4.276
      -4.376
      -4.518
      -4.637
      -4.662
      -4.567
      -4.369
      -4.102
      -3.779
      -3.395
      -2.953
      -2.487
      -2.043
      -1.654
      -1.310
      -0.973
      -0.603
      -0.189
       0.255
       0.706
       1.158
       1.619
       2.101
       2.611
       3.143
       3.682
       4.213
       4.721
       5.199
       5.636
       6.014
       6.313
       6.521
       6.641
       6.679
       6.637
       6.515
       6.330
       6.117
       5.909
       5.709
       5.491
       5.218
       4.879
       4.492
       4.086
       3.670
       3.240
       2.788
       2.322
       1.860
       1.412
       0.959
       0.453
      -0.157
      -0.890
      -1.715
      -2.582
      -3.458
      -4.331
      -5.171
      -5.906
      -6.445
      -6.730
      -6.768
      -6.616
      -6.355
      -6.055
      -5.772
      -5.566
      -5.494
      -5.595
      -5.853
      -6.190
      -6.499
      -6.683
      -6.684
      -6.493
      -6.128
      -5.617
      -4.989
      -4.276
      -3.523
      -2.779
      -2.086
      -1.457
      -0.888
      -0.366
       0.117
       0.561
       0.960
       1.312
       1.630
       1.946
       2.293
       2.687
       3.121
       3.572
       4.009
       4.402
       4.714
       4.911
       4.971
       4.902
       4.742
       4.550
       4.370
       4.220
       4.082
       3.921
       3.701
       3.408
       3.058
       2.684
       2.320
       1.991
       1.715
       1.497
       1.333
       1.193
       1.037
       0.833
       0.574
       0.271
      -0.070
      -0.454
      -0.889
      -1.357
      -1.811
      -2.178
      -2.397
      -2.447
      -2.352
      -2.163
      -1.928
      -1.685
      -1.456
      -1.256
      -1.092
      -0.961
      -0.859
      -0.780
      -0.724
      -0.694
      -0.702
      -0.766
      -0.896
      -1.100
      -1.367
      -1.669
      -1.954
      -2.160
      -2.245
      -2.201
      -2.053
      -1.842
      -1.616
      -1.409
      -1.232
      -1.060
      -0.857
      -0.611
      -0.347
      -0.103
       0.100
       0.280
       0.471
       0.695
       0.934
       1.145
       1.288
       1.350
       1.355
       1.340
       1.343
       1.390
       1.495
       1.668
       1.913
       2.217
       2.529
       2.766
       2.849
       2.764
       2.577
       2.394
       2.282
       2.240
       2.224
       2.205
       2.185
       2.183
       2.199
       2.200
       2.136
       1.972
       1.708
       1.377
       1.021
       0.663
       0.293
      -0.114
      -0.575
      -1.072
      -1.559
      -1.990
      -2.336
      -2.591
      -2.747
      -2.795
      -2.734
      -2.590
      -2.404
      -2.206
      -2.014
      -1.843
      -1.712
      -1.645
      -1.647
      -1.712
      -1.817
      -1.940
      -2.062
      -2.173
      -2.270
      -2.339
      -2.350
      -2.265
      -2.069
      -1.789
      -1.489
      -1.233
      -1.052
      -0.929
      -0.808
      -0.619
      -0.308
       0.148
       0.734
       1.391
       2.025
       2.523
       2.786
       2.766
       2.491
       2.052
       1.562
       1.092
       0.645
       0.182
      -0.314
      -0.805
      -1.214
      -1.478
      -1.583
      -1.549
      -1.386
      -1.077
      -0.600
       0.023
       0.716
       1.398
       2.030
       2.626
       3.206
       3.738
       4.124
       4.235
       3.972
       3.318
       2.341
       1.176
      -0.007
      -1.038
      -1.777
      -2.146
      -2.146
      -1.845
      -1.352
      -0.780
      -0.223
       0.249
       0.602
       0.835
       0.971
       1.038
       1.053
       1.017
       0.929
       0.783
       0.564
       0.233
      -0.257
      -0.922
      -1.713
      -2.515
      -3.192
      -3.634
      -3.783
      -3.626
      -3.179
      -2.486
      -1.628
      -0.724
       0.096
       0.736
       1.161
       1.395
       1.487
       1.487
       1.426
       1.312
       1.136
       0.888
       0.568
       0.187
      -0.230
      -0.634
      -0.948
      -1.089
      -1.011
      -0.729
      -0.312
       0.148
       0.555
       0.840
       0.971
       0.961
       0.864
       0.760
       0.735
       0.845
       1.089
       1.411
       1.729
       1.966
       2.062
       1.991
       1.753
       1.374
       0.881
       0.300
      -0.337
      -0.990
      -1.605
      -2.129
      -2.509
      -2.697
      -2.661
      -2.388
      -1.884
      -1.181
      -0.332
       0.580
       1.456
       2.182
       2.657
       2.799
       2.567
       1.977
       1.127
       0.172
      -0.726
      -1.460
      -1.986
      -2.299
      -2.397
      -2.280
      -1.978
      -1.564
      -1.138
      -0.777
      -0.491
      -0.246
      -0.009
       0.213
       0.382
       0.473
       0.499
       0.496
       0.490
       0.476
       0.420
       0.276
       0.018
      -0.337
      -0.732
      -1.100
      -1.386
      -1.559
      -1.605
      -1.517
      -1.301
      -0.987
      -0.617
      -0.237
       0.137
       0.528
       0.974
       1.482
       2.002
       2.432
       2.679
       2.708
       2.554
       2.294
       2.005
       1.754
       1.586
       1.523
       1.540
       1.555
       1.454
       1.150
       0.634
      -0.005
      -0.628
      -1.111
      -1.405
      -1.535
      -1.559
      -1.516
      -1.410
      -1.241
      -1.032
      -0.832
      -0.686
      -0.609
      -0.577
      -0.550
      -0.503
      -0.448
      -0.426
      -0.487
      -0.658
      -0.926
      -1.253
      -1.594
      -1.918
      -2.205
      -2.422
      -2.509
      -2.388
      -2.010
      -1.395
      -0.649
       0.084
       0.679
       1.080
       1.294
       1.356
       1.294
       1.125
       0.871
       0.563
       0.234
      -0.099
      -0.428
      -0.728
      -0.934
      -0.960
      -0.750
      -0.316
       0.263
       0.881
       1.453
       1.931
       2.288
       2.511
       2.591
       2.533
       2.370
       2.160
       1.971
       1.842
       1.772
       1.720
       1.633
       1.473
       1.232
       0.932
       0.612
       0.321
       0.093
      -0.050
      -0.106
      -0.087
      -0.013
       0.088
       0.194
       0.289
       0.358
       0.383
       0.344
       0.220
       0.005
      -0.286
      -0.618
      -0.939
      -1.195
      -1.349
      -1.399
      -1.380
      -1.347
      -1.343
      -1.387
      -1.479
      -1.611
