Origin Time       24/2/2009 17:46:13 
Lat.              25.9 N 
Long.             94.3 E 
Depth (Km)         10.0
Magnitude         4.8
 Region           INDIA(NAGALAND)-MYANMAR-BORD-REG                                 
 Above details taken from IMD 
     
Station Code      LKH
Station Lat.       27.239  N
Station Long.      94.107  E
Station Height(m)    0.0
Site Class        C   Vs30 between 200 m/sec to 375 m/sec *  
Record Time       24.02.2009 17:46:48.839
Sampling Rate     200. Hz
 Record Duration   65.880 Sec.
 Direction         E-W (E positive)
Max. Acceleration     -9.461 cm/sec**2
     
  * For reference see Site Classification link of website 
     
 Base Line Corrected and Low Pass Filtered (Cut Off at 35 Hz) Time History
 Acceleration data in cm/sec**2
    
[...]
      -0.031
      -0.041
      -0.049
      -0.056
      -0.061
      -0.066
      -0.073
      -0.081
      -0.086
      -0.088
      -0.086
      -0.080
      -0.067
      -0.045
      -0.017
       0.016
       0.052
       0.088
       0.123
       0.154
       0.181
       0.201
       0.213
       0.217
       0.211
       0.194
       0.165
       0.126
       0.083
       0.042
       0.005
      -0.029
      -0.061
      -0.086
      -0.095
      -0.082
      -0.046
      -0.002
       0.036
       0.054
       0.052
       0.034
       0.002
      -0.037
      -0.076
      -0.102
      -0.107
      -0.094
      -0.073
      -0.057
      -0.051
      -0.051
      -0.049
      -0.044
      -0.039
      -0.040
      -0.046
      -0.055
      -0.068
      -0.084
      -0.099
      -0.106
      -0.098
      -0.075
      -0.043
      -0.009
       0.021
       0.045
       0.063
       0.074
       0.076
       0.070
       0.062
       0.055
       0.049
       0.039
       0.029
       0.025
       0.034
       0.049
       0.061
       0.062
       0.055
       0.044
       0.035
       0.027
       0.016
      -0.001
      -0.020
      -0.035
      -0.046
      -0.061
      -0.084
      -0.111
      -0.132
      -0.142
      -0.141
      -0.136
      -0.135
      -0.142
      -0.153
      -0.156
      -0.142
      -0.109
      -0.065
      -0.018
       0.030
       0.074
       0.114
       0.144
       0.161
       0.166
       0.163
       0.165
       0.175
       0.190
       0.199
       0.202
       0.200
       0.196
       0.184
       0.156
       0.109
       0.051
       0.000
      -0.029
      -0.032
      -0.016
       0.006
       0.026
       0.040
       0.046
       0.039
       0.022
       0.004
      -0.001
       0.011
       0.034
       0.057
       0.068
       0.063
       0.042
       0.012
      -0.022
      -0.052
      -0.074
      -0.092
      -0.112
      -0.138
      -0.165
      -0.180
      -0.173
      -0.150
      -0.124
      -0.106
      -0.098
      -0.093
      -0.087
      -0.075
      -0.057
      -0.034
      -0.007
       0.023
       0.051
       0.072
       0.081
       0.075
       0.054
       0.019
      -0.026
      -0.077
      -0.122
      -0.156
      -0.177
      -0.183
      -0.173
      -0.148
      -0.111
      -0.072
      -0.042
      -0.027
      -0.023
      -0.016
       0.006
       0.042
       0.080
       0.107
       0.119
       0.118
       0.107
       0.093
       0.082
       0.081
       0.087
       0.096
       0.099
       0.092
       0.076
       0.058
       0.046
       0.043
       0.046
       0.047
       0.042
       0.032
       0.022
       0.018
       0.029
       0.056
       0.099
       0.148
       0.195
       0.226
       0.232
       0.207
       0.154
       0.083
       0.010
      -0.049
      -0.081
      -0.088
      -0.085
      -0.086
      -0.094
      -0.101
      -0.101
      -0.099
      -0.101
      -0.111
      -0.121
      -0.115
      -0.083
      -0.027
       0.030
       0.070
       0.090
       0.098
       0.106
       0.110
       0.100
       0.065
       0.008
      -0.060
      -0.121
      -0.158
      -0.162
      -0.136
      -0.093
      -0.042
       0.004
       0.037
       0.048
       0.036
       0.007
      -0.029
      -0.058
      -0.078
      -0.095
      -0.121
      -0.160
      -0.201
      -0.230
      -0.240
      -0.234
      -0.223
      -0.211
      -0.201
      -0.189
      -0.173
      -0.152
      -0.129
      -0.106
      -0.082
      -0.060
      -0.041
      -0.030
      -0.026
      -0.027
      -0.029
      -0.034
      -0.041
      -0.047
      -0.050
      -0.045
      -0.031
      -0.008
       0.021
       0.055
       0.093
       0.132
       0.169
       0.199
       0.224
       0.243
       0.255
       0.256
       0.246
       0.230
       0.212
       0.194
       0.173
       0.151
       0.133
       0.127
       0.134
       0.152
       0.172
       0.184
       0.182
       0.169
       0.148
       0.125
       0.101
       0.077
       0.050
       0.018
      -0.015
      -0.042
      -0.055
      -0.056
      -0.052
      -0.054
      -0.066
      -0.091
      -0.123
      -0.157
      -0.184
      -0.201
      -0.206
      -0.199
      -0.182
      -0.157
      -0.125
      -0.081
      -0.026
       0.034
       0.087
       0.119
       0.129
       0.121
       0.106
       0.097
       0.098
       0.102
       0.097
       0.074
       0.035
      -0.013
      -0.059
      -0.092
      -0.102
      -0.090
      -0.062
      -0.025
       0.011
       0.041
       0.057
       0.055
       0.038
       0.016
      -0.002
      -0.010
      -0.013
      -0.023
      -0.050
      -0.093
      -0.140
      -0.178
      -0.202
      -0.214
      -0.215
      -0.209
      -0.200
      -0.196
      -0.199
      -0.204
      -0.200
      -0.180
      -0.146
      -0.110
      -0.082
      -0.067
      -0.058
      -0.046
      -0.027
       0.000
       0.033
       0.070
       0.108
       0.140
       0.160
       0.163
       0.147
       0.119
       0.088
       0.067
       0.059
       0.063
       0.071
       0.077
       0.082
       0.087
       0.098
       0.110
       0.110
       0.087
       0.039
      -0.018
      -0.070
      -0.112
      -0.151
      -0.194
      -0.238
      -0.269
      -0.272
      -0.242
      -0.193
      -0.146
      -0.114
      -0.099
      -0.097
      -0.105
      -0.119
      -0.135
      -0.143
      -0.138
      -0.119
      -0.094
      -0.074
      -0.066
      -0.068
      -0.069
      -0.056
      -0.022
       0.030
       0.093
       0.152
       0.194
       0.214
       0.215
       0.206
       0.191
       0.170
       0.144
       0.117
       0.099
       0.092
       0.096
       0.102
       0.102
       0.092
       0.073
       0.051
       0.034
       0.032
       0.050
       0.085
       0.116
       0.119
       0.088
       0.035
      -0.008
      -0.019
       0.006
       0.051
       0.094
       0.120
       0.123
       0.109
       0.084
       0.058
       0.040
       0.040
       0.056
       0.075
       0.086
       0.084
       0.077
       0.073
       0.076
       0.077
       0.066
       0.036
      -0.011
      -0.061
      -0.102
      -0.127
      -0.134
      -0.127
      -0.114
      -0.106
      -0.110
      -0.123
      -0.135
      -0.141
      -0.138
      -0.129
      -0.118
      -0.113
      -0.126
      -0.162
      -0.215
      -0.266
      -0.292
      -0.282
      -0.243
      -0.201
      -0.174
      -0.165
      -0.165
      -0.164
      -0.162
      -0.162
      -0.162
      -0.158
      -0.146
      -0.124
      -0.094
      -0.058
      -0.017
       0.030
       0.083
       0.138
       0.189
       0.223
       0.234
       0.220
       0.191
       0.162
       0.146
       0.145
       0.152
       0.159
       0.172
       0.203
       0.258
       0.334
       0.414
       0.483
       0.532
       0.559
       0.565
       0.546
       0.500
       0.435
       0.366
       0.304
       0.244
       0.177
       0.101
       0.030
      -0.017
      -0.032
      -0.018
       0.012
       0.046
       0.072
       0.089
       0.099
       0.106
       0.115
       0.123
       0.125
       0.105
       0.046
      -0.057
      -0.194
      -0.344
      -0.481
      -0.580
      -0.625
      -0.612
      -0.548
      -0.445
      -0.322
      -0.197
      -0.087
      -0.008
       0.034
       0.040
       0.017
      -0.013
      -0.028
      -0.009
       0.041
       0.106
       0.162
       0.195
       0.196
       0.167
       0.119
       0.068
       0.030
       0.015
       0.025
       0.052
       0.081
       0.096
       0.083
       0.042
      -0.022
      -0.093
      -0.160
      -0.216
      -0.263
      -0.300
      -0.319
      -0.303
      -0.241
      -0.139
      -0.014
       0.112
       0.224
       0.322
       0.409
       0.479
       0.512
       0.489
       0.406
       0.279
       0.133
      -0.012
      -0.147
      -0.266
      -0.361
      -0.426
      -0.452
      -0.438
      -0.390
      -0.321
      -0.241
      -0.156
      -0.069
       0.012
       0.075
       0.110
       0.109
       0.075
       0.015
      -0.056
      -0.124
      -0.179
      -0.219
      -0.242
      -0.248
      -0.240
      -0.230
      -0.229
      -0.243
      -0.263
      -0.280
      -0.286
      -0.282
      -0.274
      -0.263
      -0.246
      -0.223
      -0.199
      -0.184
      -0.183
      -0.184
      -0.171
      -0.128
      -0.046
       0.073
       0.215
       0.359
       0.483
       0.569
       0.615
       0.627
       0.616
       0.592
       0.554
       0.497
       0.420
       0.331
       0.238
       0.147
       0.059
      -0.026
      -0.109
      -0.191
      -0.272
      -0.345
      -0.400
      -0.420
      -0.387
      -0.295
      -0.154
       0.007
       0.155
       0.260
       0.303
       0.280
       0.205
       0.111
       0.037
       0.007
       0.021
       0.062
       0.106
       0.135
       0.143
       0.134
       0.112
       0.081
       0.047
       0.016
      -0.007
      -0.017
      -0.014
       0.001
       0.026
       0.048
       0.057
       0.046
       0.026
       0.013
       0.025
       0.069
       0.136
       0.207
       0.261
       0.285
       0.271
       0.210
       0.104
      -0.033
      -0.172
      -0.292
      -0.383
      -0.450
      -0.500
      -0.537
      -0.559
      -0.566
      -0.558
      -0.536
      -0.504
      -0.466
      -0.424
      -0.375
      -0.317
      -0.243
      -0.153
      -0.051
       0.051
       0.141
       0.211
       0.257
       0.272
       0.258
       0.224
       0.190
       0.178
       0.200
       0.253
       0.321
       0.382
       0.421
       0.431
       0.413
       0.363
       0.280
       0.170
       0.046
      -0.073
      -0.166
      -0.216
      -0.215
      -0.171
      -0.106
      -0.040
       0.015
       0.060
       0.101
       0.137
       0.158
       0.154
       0.124
       0.083
       0.043
       0.008
      -0.032
      -0.093
      -0.182
      -0.291
      -0.404
      -0.496
      -0.548
      -0.543
      -0.472
      -0.341
      -0.170
       0.004
       0.143
       0.228
       0.260
       0.260
       0.248
       0.240
       0.242
       0.253
       0.265
       0.275
       0.280
       0.284
       0.283
       0.271
       0.241
       0.194
       0.135
       0.069
      -0.001
      -0.072
      -0.138
      -0.191
      -0.225
      -0.249
      -0.282
      -0.338
      -0.409
      -0.470
      -0.491
      -0.455
      -0.365
      -0.237
      -0.092
       0.048
       0.163
       0.237
       0.259
       0.239
       0.196
       0.155
       0.123
       0.097
       0.074
       0.057
       0.057
       0.076
       0.106
       0.135
       0.151
       0.149
       0.136
       0.124
       0.122
       0.133
       0.154
       0.176
       0.192
       0.192
       0.173
       0.132
       0.066
      -0.026
      -0.138
      -0.253
      -0.345
      -0.400
      -0.419
      -0.416
      -0.400
      -0.373
      -0.328
      -0.263
      -0.185
      -0.108
      -0.042
       0.015
       0.068
       0.113
       0.138
       0.132
       0.091
       0.021
      -0.065
      -0.151
      -0.218
      -0.252
      -0.248
      -0.202
      -0.109
       0.031
       0.207
       0.396
       0.565
       0.683
       0.737
       0.733
       0.690
       0.618
       0.519
       0.397
       0.274
       0.183
       0.149
       0.177
       0.257
       0.371
       0.501
       0.626
       0.722
       0.763
       0.737
       0.653
       0.537
       0.417
       0.306
       0.204
       0.110
       0.024
      -0.054
      -0.129
      -0.208
      -0.292
      -0.372
      -0.440
      -0.494
      -0.551
      -0.638
      -0.782
      -0.997
      -1.281
      -1.628
      -2.027
      -2.460
      -2.893
      -3.284
      -3.596
      -3.809
      -3.928
      -3.976
      -3.985
      -3.986
      -4.005
      -4.056
      -4.134
      -4.220
      -4.284
      -4.308
      -4.286
      -4.222
      -4.118
      -3.975
      -3.789
      -3.548
      -3.234
      -2.835
      -2.354
      -1.805
      -1.204
      -0.562
       0.115
       0.823
       1.553
       2.282
       2.980
       3.619
       4.180
       4.658
       5.059
       5.397
       5.692
       5.961
       6.205
       6.411
       6.560
       6.631
       6.611
       6.497
       6.305
       6.066
       5.818
       5.592
       5.401
       5.240
       5.088
       4.922
       4.724
       4.491
       4.224
       3.938
       3.656
       3.405
       3.201
       3.042
       2.917
       2.809
       2.710
       2.621
       2.541
       2.474
       2.422
       2.394
       2.401
       2.445
       2.511
       2.578
       2.632
       2.681
       2.740
       2.819
       2.913
       2.997
       3.038
       3.002
       2.867
       2.624
       2.273
       1.824
       1.289
       0.679
      -0.006
      -0.772
      -1.621
      -2.532
      -3.467
      -4.382
      -5.233
      -5.991
      -6.643
      -7.202
      -7.689
      -8.124
      -8.508
      -8.834
      -9.090
      -9.274
      -9.394
      -9.456
      -9.461
      -9.406
      -9.300
      -9.163
      -9.018
      -8.869
      -8.699
      -8.485
      -8.215
      -7.894
      -7.532
      -7.121
      -6.638
      -6.044
      -5.301
      -4.384
      -3.293
      -2.063
      -0.757
       0.544
       1.769
       2.874
       3.841
       4.660
       5.327
       5.841
       6.210
       6.447
       6.563
       6.569
       6.484
       6.338
       6.171
       6.021
       5.903
       5.799
       5.673
       5.492
       5.243
       4.928
       4.551
       4.118
       3.640
       3.143
       2.663
       2.235
       1.895
       1.670
       1.568
       1.574
       1.656
       1.778
       1.903
       2.011
       2.096
       2.157
       2.190
       2.183
       2.124
       1.991
       1.755
       1.391
       0.893
       0.284
      -0.397
      -1.111
      -1.837
      -2.571
      -3.315
      -4.064
      -4.790
      -5.450
      -5.988
      -6.348
      -6.489
      -6.396
      -6.086
      -5.600
      -4.978
      -4.248
      -3.430
      -2.559
      -1.683
      -0.864
      -0.160
       0.386
       0.743
       0.894
       0.830
       0.565
       0.144
      -0.367
      -0.901
      -1.410
      -1.873
      -2.274
      -2.594
      -2.799
      -2.851
      -2.721
      -2.398
      -1.885
      -1.199
      -0.372
       0.538
       1.457
       2.311
       3.049
       3.640
       4.057
       4.276
       4.280
       4.069
       3.667
       3.123
       2.503
       1.875
       1.302
       0.825
       0.470
       0.242
       0.134
       0.128
       0.195
       0.301
       0.416
       0.524
       0.622
       0.723
       0.834
       0.955
       1.076
       1.179
       1.244
       1.259
       1.222
       1.144
       1.046
       0.951
       0.873
       0.815
       0.774
       0.746
       0.724
       0.702
       0.667
       0.608
       0.516
       0.396
       0.261
       0.125
      -0.004
      -0.122
      -0.230
      -0.328
      -0.417
      -0.501
      -0.580
      -0.653
      -0.711
      -0.734
      -0.701
      -0.591
      -0.397
      -0.135
       0.155
       0.422
       0.620
       0.719
       0.708
       0.580
       0.340
       0.015
      -0.348
      -0.691
      -0.968
      -1.155
      -1.244
      -1.240
      -1.145
      -0.966
      -0.717
      -0.421
      -0.111
       0.187
       0.456
       0.689
       0.879
       1.017
       1.087
       1.077
       0.983
       0.814
       0.587
       0.332
       0.078
      -0.150
      -0.337
      -0.487
      -0.613
      -0.732
      -0.857
      -0.993
      -1.136
      -1.265
      -1.344
      -1.343
      -1.253
      -1.093
      -0.891
      -0.671
      -0.445
      -0.218
       0.003
       0.206
       0.380
       0.523
       0.641
       0.743
       0.829
       0.891
       0.917
       0.902
       0.845
       0.745
       0.600
       0.412
       0.191
      -0.039
      -0.254
      -0.434
      -0.570
      -0.659
      -0.699
      -0.683
      -0.604
      -0.467
      -0.285
      -0.085
       0.102
       0.250
       0.344
       0.380
       0.361
       0.284
       0.145
      -0.051
      -0.286
      -0.528
      -0.742
      -0.891
      -0.944
      -0.888
      -0.727
      -0.490
      -0.227
       0.010
       0.176
       0.255
       0.251
       0.178
       0.053
      -0.105
      -0.282
      -0.461
      -0.631
      -0.781
      -0.908
      -1.008
      -1.069
      -1.080
      -1.035
      -0.949
      -0.843
      -0.733
      -0.618
      -0.495
      -0.359
      -0.213
      -0.063
       0.084
       0.218
       0.330
       0.412
       0.464
       0.496
       0.520
       0.548
       0.589
       0.647
       0.729
       0.844
       0.994
       1.167
       1.339
       1.482
       1.578
       1.620
       1.611
       1.565
       1.491
       1.400
       1.294
       1.178
       1.057
       0.943
       0.856
       0.815
       0.832
       0.897
       0.984
       1.062
       1.105
       1.091
       1.014
       0.876
       0.689
       0.467
       0.222
      -0.034
      -0.291
      -0.541
      -0.776
      -0.986
      -1.165
      -1.312
      -1.424
      -1.494
      -1.521
      -1.508
      -1.468
      -1.416
      -1.366
      -1.342
      -1.365
      -1.449
      -1.585
      -1.749
      -1.909
      -2.038
      -2.119
      -2.133
      -2.056
      -1.865
      -1.556
      -1.157
      -0.729
      -0.328
       0.005
       0.262
       0.449
       0.580
       0.664
       0.714
       0.739
       0.751
       0.749
       0.723
       0.655
       0.536
       0.376
       0.201
       0.044
      -0.064
      -0.098
      -0.050
       0.074
       0.248
       0.441
       0.622
       0.763
       0.848
       0.876
       0.862
       0.830
       0.802
       0.797
       0.825
       0.884
       0.963
       1.043
       1.093
       1.076
       0.974
       0.797
       0.586
       0.386
       0.227
       0.120
       0.060
       0.040
       0.053
       0.092
       0.150
       0.218
       0.295
       0.391
       0.522
       0.696
       0.906
       1.131
       1.343
       1.512
       1.604
       1.591
       1.461
       1.224
       0.904
       0.536
       0.157
      -0.198
      -0.503
      -0.743
      -0.914
      -1.024
      -1.086
      -1.106
      -1.091
      -1.056
      -1.023
      -1.007
      -1.015
      -1.043
      -1.087
      -1.142
      -1.191
      -1.209
      -1.168
      -1.057
      -0.893
      -0.717
      -0.576
      -0.498
      -0.487
      -0.529
      -0.614
      -0.736
      -0.882
      -1.025
      -1.131
      -1.171
      -1.130
      -1.008
      -0.819
