Origin Time       30/8/2009 19:27:44	 UTC
Lat.              25.4 N	
Long.             94.8 E	
Depth (Km)         85.0
Magnitude         5.3
 Region           MYANMAR-India-Manipuir-Border                                    
 Above details taken from IMD 
    
Station Code      LKH
Station Lat.       27.239  N
Station Long.      94.107  E
Station Height(m)   95.0
Site Class        C   Vs30 between 200 m/sec to 375 m/sec *  
Record Time       30.08.2009 19:28:33.764 UTC
Sampling Rate     200. Hz
 Record Duration   65.505 Sec.
 Direction         N-S (N positive)
Max. Acceleration     -5.989 cm/sec**2
     
  * For reference see Site Classification link of website 
     
 Base Line Corrected and Low Pass Filtered (Cut Off at 35 Hz) Time History
 Acceleration data in cm/sec**2
    
[...]
       0.097
       0.110
       0.120
       0.123
       0.124
       0.124
       0.124
       0.120
       0.100
       0.051
      -0.038
      -0.155
      -0.278
      -0.376
      -0.433
      -0.447
      -0.430
      -0.402
      -0.378
      -0.355
      -0.320
      -0.259
      -0.175
      -0.086
      -0.009
       0.053
       0.099
       0.131
       0.143
       0.128
       0.089
       0.036
      -0.021
      -0.076
      -0.126
      -0.171
      -0.205
      -0.221
      -0.218
      -0.195
      -0.146
      -0.066
       0.040
       0.150
       0.244
       0.306
       0.335
       0.339
       0.329
       0.312
       0.283
       0.237
       0.175
       0.103
       0.035
      -0.019
      -0.050
      -0.056
      -0.043
      -0.025
      -0.010
      -0.001
       0.004
       0.012
       0.019
       0.017
      -0.008
      -0.060
      -0.129
      -0.195
      -0.243
      -0.267
      -0.268
      -0.245
      -0.200
      -0.142
      -0.091
      -0.063
      -0.063
      -0.084
      -0.109
      -0.119
      -0.106
      -0.073
      -0.030
       0.008
       0.032
       0.043
       0.049
       0.062
       0.080
       0.090
       0.083
       0.062
       0.041
       0.033
       0.044
       0.072
       0.107
       0.139
       0.162
       0.174
       0.179
       0.186
       0.199
       0.210
       0.206
       0.173
       0.118
       0.060
       0.018
       0.004
       0.016
       0.045
       0.084
       0.126
       0.166
       0.195
       0.205
       0.186
       0.137
       0.064
      -0.017
      -0.089
      -0.137
      -0.153
      -0.135
      -0.088
      -0.024
       0.046
       0.108
       0.151
       0.173
       0.177
       0.168
       0.149
       0.119
       0.080
       0.033
      -0.020
      -0.078
      -0.139
      -0.208
      -0.281
      -0.345
      -0.382
      -0.380
      -0.350
      -0.309
      -0.274
      -0.242
      -0.205
      -0.156
      -0.101
      -0.053
      -0.025
      -0.017
      -0.022
      -0.036
      -0.053
      -0.066
      -0.070
      -0.059
      -0.043
      -0.034
      -0.040
      -0.057
      -0.071
      -0.071
      -0.057
      -0.036
      -0.016
       0.006
       0.036
       0.077
       0.124
       0.169
       0.203
       0.216
       0.201
       0.157
       0.092
       0.020
      -0.045
      -0.092
      -0.106
      -0.080
      -0.017
       0.064
       0.138
       0.182
       0.187
       0.160
       0.117
       0.075
       0.040
       0.009
      -0.018
      -0.036
      -0.034
      -0.005
       0.048
       0.112
       0.172
       0.214
       0.234
       0.228
       0.197
       0.145
       0.082
       0.024
      -0.017
      -0.036
      -0.035
      -0.023
      -0.003
       0.022
       0.055
       0.092
       0.121
       0.123
       0.087
       0.016
      -0.068
      -0.137
      -0.175
      -0.187
      -0.184
      -0.176
      -0.157
      -0.116
      -0.054
       0.013
       0.057
       0.056
       0.012
      -0.054
      -0.117
      -0.160
      -0.180
      -0.174
      -0.142
      -0.090
      -0.029
       0.024
       0.058
       0.072
       0.075
       0.077
       0.080
       0.079
       0.071
       0.061
       0.060
       0.071
       0.089
       0.100
       0.093
       0.066
       0.027
      -0.008
      -0.022
      -0.011
       0.020
       0.053
       0.071
       0.067
       0.042
       0.012
      -0.007
      -0.009
      -0.009
      -0.026
      -0.068
      -0.123
      -0.169
      -0.184
      -0.163
      -0.116
      -0.059
      -0.003
       0.050
       0.094
       0.122
       0.122
       0.091
       0.039
      -0.019
      -0.065
      -0.091
      -0.096
      -0.088
      -0.077
      -0.070
      -0.073
      -0.083
      -0.091
      -0.086
      -0.062
      -0.021
       0.028
       0.072
       0.100
       0.105
       0.090
       0.068
       0.052
       0.049
       0.053
       0.053
       0.044
       0.031
       0.021
       0.017
       0.013
      -0.005
      -0.046
      -0.106
      -0.175
      -0.244
      -0.304
      -0.345
      -0.359
      -0.344
      -0.306
      -0.254
      -0.191
      -0.117
      -0.035
       0.047
       0.115
       0.161
       0.181
       0.176
       0.148
       0.102
       0.043
      -0.021
      -0.076
      -0.103
      -0.090
      -0.038
       0.037
       0.109
       0.159
       0.180
       0.176
       0.157
       0.132
       0.104
       0.069
       0.025
      -0.018
      -0.043
      -0.036
       0.005
       0.068
       0.132
       0.179
       0.198
       0.193
       0.173
       0.149
       0.125
       0.100
       0.073
       0.047
       0.027
       0.017
       0.019
       0.024
       0.022
       0.005
      -0.021
      -0.042
      -0.043
      -0.025
      -0.002
       0.006
      -0.012
      -0.047
      -0.081
      -0.102
      -0.112
      -0.118
      -0.117
      -0.096
      -0.042
       0.040
       0.130
       0.204
       0.248
       0.261
       0.250
       0.214
       0.154
       0.080
       0.014
      -0.022
      -0.017
       0.018
       0.067
       0.110
       0.128
       0.111
       0.062
      -0.003
      -0.057
      -0.083
      -0.082
      -0.073
      -0.074
      -0.078
      -0.062
      -0.011
       0.056
       0.099
       0.087
       0.029
      -0.038
      -0.072
      -0.052
       0.013
       0.083
       0.118
       0.100
       0.041
      -0.029
      -0.088
      -0.133
      -0.174
      -0.219
      -0.262
      -0.288
      -0.283
      -0.246
      -0.191
      -0.142
      -0.123
      -0.144
      -0.196
      -0.259
      -0.313
      -0.344
      -0.347
      -0.327
      -0.297
      -0.270
      -0.244
      -0.207
      -0.145
      -0.065
       0.007
       0.047
       0.053
       0.045
       0.045
       0.060
       0.081
       0.096
       0.101
       0.102
       0.106
       0.120
       0.147
       0.186
       0.224
       0.242
       0.230
       0.194
       0.160
       0.147
       0.161
       0.186
       0.199
       0.187
       0.151
       0.101
       0.046
      -0.011
      -0.067
      -0.113
      -0.145
      -0.165
      -0.182
      -0.199
      -0.216
      -0.225
      -0.221
      -0.201
      -0.170
      -0.137
      -0.110
      -0.093
      -0.085
      -0.079
      -0.060
      -0.015
       0.053
       0.122
       0.166
       0.169
       0.140
       0.100
       0.073
       0.065
       0.073
       0.082
       0.087
       0.093
       0.108
       0.133
       0.165
       0.198
       0.231
       0.264
       0.292
       0.312
       0.324
       0.326
       0.318
       0.299
       0.271
       0.238
       0.199
       0.156
       0.115
       0.079
       0.046
       0.002
      -0.060
      -0.136
      -0.207
      -0.252
      -0.268
      -0.266
      -0.264
      -0.272
      -0.283
      -0.279
      -0.249
      -0.201
      -0.162
      -0.159
      -0.201
      -0.265
      -0.309
      -0.304
      -0.252
      -0.178
      -0.111
      -0.063
      -0.025
       0.019
       0.076
       0.138
       0.183
       0.194
       0.165
       0.112
       0.060
       0.030
       0.031
       0.052
       0.072
       0.074
       0.053
       0.015
      -0.021
      -0.040
      -0.027
       0.017
       0.080
       0.136
       0.157
       0.132
       0.080
       0.034
       0.019
       0.034
       0.063
       0.084
       0.089
       0.081
       0.064
       0.041
       0.003
      -0.062
      -0.153
      -0.246
      -0.305
      -0.309
      -0.261
      -0.182
      -0.094
      -0.006
       0.081
       0.164
       0.228
       0.251
       0.227
       0.168
       0.096
       0.033
      -0.009
      -0.025
      -0.022
      -0.018
      -0.033
      -0.072
      -0.125
      -0.169
      -0.191
      -0.190
      -0.173
      -0.147
      -0.111
      -0.059
       0.004
       0.060
       0.090
       0.087
       0.066
       0.049
       0.054
       0.087
       0.133
       0.172
       0.182
       0.159
       0.110
       0.053
      -0.001
      -0.047
      -0.089
      -0.128
      -0.160
      -0.173
      -0.155
      -0.110
      -0.054
      -0.005
       0.030
       0.061
       0.102
       0.168
       0.255
       0.347
       0.413
       0.427
       0.380
       0.292
       0.195
       0.109
       0.033
      -0.052
      -0.157
      -0.265
      -0.334
      -0.323
      -0.221
      -0.055
       0.124
       0.263
       0.336
       0.351
       0.336
       0.321
       0.312
       0.291
       0.234
       0.128
      -0.010
      -0.146
      -0.249
      -0.307
      -0.323
      -0.310
      -0.284
      -0.256
      -0.235
      -0.220
      -0.209
      -0.199
      -0.190
      -0.185
      -0.186
      -0.190
      -0.191
      -0.183
      -0.156
      -0.112
      -0.051
       0.017
       0.075
       0.103
       0.089
       0.042
      -0.015
      -0.053
      -0.054
      -0.014
       0.056
       0.129
       0.173
       0.175
       0.144
       0.110
       0.101
       0.119
       0.148
       0.168
       0.170
       0.158
       0.139
       0.115
       0.082
       0.036
      -0.024
      -0.089
      -0.152
      -0.201
      -0.224
      -0.214
      -0.172
      -0.109
      -0.041
       0.012
       0.039
       0.035
       0.004
      -0.047
      -0.106
      -0.158
      -0.194
      -0.207
      -0.193
      -0.145
      -0.065
       0.033
       0.118
       0.166
       0.169
       0.140
       0.106
       0.088
       0.088
       0.084
       0.050
      -0.016
      -0.085
      -0.125
      -0.120
      -0.079
      -0.013
       0.061
       0.121
       0.145
       0.121
       0.063
       0.002
      -0.036
      -0.043
      -0.029
      -0.009
       0.007
       0.017
       0.019
       0.011
      -0.011
      -0.042
      -0.069
      -0.071
      -0.040
       0.014
       0.071
       0.113
       0.132
       0.134
       0.125
       0.108
       0.080
       0.033
      -0.034
      -0.107
      -0.160
      -0.168
      -0.130
      -0.069
      -0.011
       0.028
       0.048
       0.059
       0.073
       0.098
       0.131
       0.157
       0.166
       0.161
       0.155
       0.159
       0.173
       0.182
       0.170
       0.135
       0.089
       0.057
       0.054
       0.080
       0.111
       0.118
       0.079
      -0.007
      -0.121
      -0.227
      -0.299
      -0.328
      -0.326
      -0.315
      -0.320
      -0.343
      -0.368
      -0.362
      -0.308
      -0.215
      -0.109
      -0.017
       0.051
       0.092
       0.102
       0.071
       0.006
      -0.068
      -0.118
      -0.126
      -0.108
      -0.091
      -0.090
      -0.095
      -0.083
      -0.040
       0.036
       0.123
       0.188
       0.198
       0.135
       0.014
      -0.123
      -0.224
      -0.253
      -0.211
      -0.132
      -0.059
      -0.010
       0.028
       0.086
       0.175
       0.269
       0.318
       0.284
       0.167
       0.008
      -0.141
      -0.240
      -0.281
      -0.279
      -0.261
      -0.256
      -0.284
      -0.344
      -0.413
      -0.458
      -0.459
      -0.415
      -0.347
      -0.284
      -0.246
      -0.237
      -0.237
      -0.218
      -0.164
      -0.083
       0.002
       0.074
       0.133
       0.195
       0.278
       0.380
       0.480
       0.549
       0.565
       0.516
       0.410
       0.281
       0.171
       0.115
       0.118
       0.167
       0.239
       0.316
       0.383
       0.427
       0.437
       0.414
       0.366
       0.298
       0.212
       0.107
      -0.013
      -0.130
      -0.220
      -0.265
      -0.268
      -0.255
      -0.257
      -0.287
      -0.331
      -0.357
      -0.333
      -0.247
      -0.106
       0.071
       0.257
       0.422
       0.547
       0.630
       0.682
       0.712
       0.724
       0.720
       0.701
       0.672
       0.645
       0.647
       0.703
       0.821
       0.977
       1.134
       1.256
       1.315
       1.298
       1.211
       1.081
       0.943
       0.824
       0.735
       0.672
       0.624
       0.572
       0.495
       0.380
       0.229
       0.057
      -0.114
      -0.270
      -0.401
      -0.506
      -0.582
      -0.627
      -0.649
      -0.669
      -0.716
      -0.810
      -0.946
      -1.100
      -1.245
      -1.372
      -1.489
      -1.609
      -1.733
      -1.848
      -1.944
      -2.028
      -2.116
      -2.213
      -2.308
      -2.373
      -2.376
      -2.297
      -2.130
      -1.887
      -1.594
      -1.286
      -0.997
      -0.741
      -0.503
      -0.246
       0.054
       0.385
       0.699
       0.949
       1.128
       1.279
       1.461
       1.710
       2.022
       2.376
       2.752
       3.137
       3.510
       3.840
       4.090
       4.235
       4.264
       4.187
       4.026
       3.810
       3.570
       3.330
       3.101
       2.885
       2.670
       2.431
       2.126
       1.718
       1.195
       0.574
      -0.099
      -0.770
      -1.391
      -1.920
      -2.331
      -2.627
      -2.846
      -3.045
      -3.279
      -3.582
      -3.963
      -4.403
      -4.859
      -5.279
      -5.623
      -5.867
      -5.989
      -5.957
      -5.738
      -5.328
      -4.770
      -4.142
      -3.525
      -2.968
      -2.470
      -2.000
      -1.517
      -1.005
      -0.471
       0.066
       0.599
       1.141
       1.713
       2.330
       2.978
       3.618
       4.196
       4.654
       4.951
       5.073
       5.039
       4.881
       4.633
       4.317
       3.954
       3.578
       3.227
       2.928
       2.685
       2.476
       2.267
       2.020
       1.710
       1.325
       0.873
       0.377
      -0.135
      -0.626
      -1.061
      -1.407
      -1.653
      -1.815
      -1.939
      -2.090
      -2.326
      -2.678
      -3.133
      -3.636
      -4.110
      -4.475
      -4.668
      -4.637
      -4.339
      -3.735
      -2.825
      -1.675
      -0.423
       0.755
       1.702
       2.323
       2.593
       2.547
       2.255
       1.807
       1.309
       0.870
       0.585
       0.510
       0.651
       0.966
       1.390
       1.836
       2.216
       2.442
       2.456
       2.247
       1.857
       1.365
       0.846
       0.356
      -0.074
      -0.422
      -0.680
      -0.861
      -1.010
      -1.186
      -1.425
      -1.712
      -1.985
      -2.168
      -2.213
      -2.113
      -1.898
      -1.616
      -1.308
      -0.998
      -0.692
      -0.398
      -0.139
       0.051
       0.147
       0.141
       0.044
      -0.128
      -0.353
      -0.596
      -0.813
      -0.948
      -0.943
      -0.745
      -0.321
       0.319
       1.108
       1.930
       2.645
       3.130
       3.313
       3.175
       2.755
       2.146
       1.480
       0.902
       0.514
       0.346
       0.356
       0.461
       0.582
       0.664
       0.685
       0.655
       0.598
       0.534
       0.474
       0.430
       0.428
       0.508
       0.703
       1.007
       1.360
       1.665
       1.829
       1.811
       1.629
       1.334
       0.984
       0.619
       0.255
      -0.101
      -0.437
      -0.730
      -0.966
      -1.156
      -1.336
      -1.538
      -1.771
      -2.021
      -2.258
      -2.450
      -2.573
      -2.604
      -2.531
      -2.345
      -2.045
      -1.650
      -1.202
      -0.765
      -0.411
      -0.193
      -0.137
      -0.241
      -0.480
      -0.798
      -1.114
      -1.332
      -1.379
      -1.231
      -0.926
      -0.544
      -0.177
       0.100
       0.244
       0.259
       0.193
       0.115
       0.094
       0.171
       0.350
       0.618
       0.955
       1.334
       1.713
       2.021
       2.176
       2.117
       1.826
       1.335
       0.725
       0.104
      -0.412
      -0.731
      -0.805
      -0.652
      -0.352
      -0.020
       0.242
       0.374
       0.366
       0.241
       0.040
      -0.185
      -0.374
      -0.471
      -0.443
      -0.283
      -0.017
       0.315
       0.666
       0.986
       1.225
       1.342
       1.321
       1.187
       0.987
       0.768
       0.567
       0.414
       0.336
       0.352
       0.461
       0.631
       0.802
       0.902
       0.865
       0.665
       0.316
      -0.127
      -0.596
      -1.027
      -1.368
      -1.579
      -1.622
      -1.471
      -1.137
      -0.685
      -0.227
       0.123
       0.283
       0.228
      -0.013
      -0.369
      -0.757
      -1.105
      -1.363
      -1.500
      -1.498
      -1.345
      -1.049
      -0.645
      -0.196
       0.221
       0.532
       0.694
       0.707
       0.617
       0.491
       0.392
       0.355
       0.379
       0.439
       0.507
       0.566
       0.611
       0.641
       0.645
       0.600
       0.486
       0.302
       0.067
      -0.192
      -0.459
      -0.722
      -0.969
      -1.174
      -1.299
      -1.309
      -1.200
      -1.007
      -0.793
      -0.620
      -0.524
      -0.513
      -0.571
      -0.669
      -0.770
      -0.840
      -0.853
      -0.786
      -0.622
      -0.360
      -0.028
       0.320
       0.627
       0.851
       0.982
       1.027
       1.008
       0.949
       0.881
       0.838
       0.845
       0.907
       1.003
       1.103
       1.181
       1.229
       1.253
       1.262
       1.261
       1.243
       1.193
       1.096
       0.942
       0.733
       0.488
       0.231
      -0.017
      -0.251
      -0.485
      -0.736
      -1.004
      -1.260
      -1.456
      -1.548
      -1.506
      -1.322
      -1.020
      -0.654
      -0.308
      -0.061
       0.041
       0.007
      -0.106
      -0.229
      -0.314
      -0.352
      -0.357
      -0.352
      -0.354
      -0.372
      -0.411
      -0.469
      -0.535
      -0.578
      -0.557
      -0.444
      -0.246
       0.000
       0.235
       0.410
       0.488
       0.464
       0.361
       0.224
       0.100
       0.021
      -0.009
      -0.002
       0.021
       0.042
       0.047
       0.027
      -0.025
      -0.120
      -0.265
      -0.469
      -0.724
      -1.009
      -1.278
      -1.473
      -1.545
      -1.472
      -1.268
      -0.965
      -0.600
      -0.206
       0.181
       0.518
       0.751
       0.833
       0.741
       0.499
       0.178
      -0.122
      -0.308
      -0.324
      -0.167
       0.122
       0.473
       0.800
       1.028
       1.108
       1.036
       0.841
       0.577
       0.301
       0.079
      -0.035
      -0.007
       0.161
       0.432
       0.747
       1.038
       1.242
       1.315
       1.239
       1.027
       0.729
       0.419
       0.170
       0.025
      -0.028
      -0.026
      -0.007
       0.016
       0.048
       0.093
       0.138
       0.161
       0.139
       0.071
      -0.024
      -0.118
      -0.192
      -0.242
      -0.281
      -0.329
      -0.403
      -0.512
      -0.659
      -0.840
