Origin Time       21/9/2009 8:53:04	  UTC
Lat.              27.3 N	
Long.             91.5 E	
Depth (Km)          8.0
Magnitude         6.2
 Region           BHUTAN                                                           
 Above details taken from IMD 
    
Station Code      LKH
Station Lat.       27.239  N
Station Long.      94.107  E
Station Height(m)   95.0
Site Class        C   Vs30 between 200 m/sec to 375 m/sec *  
Record Time       21.09.2009 08:54:07.039 UTC
Sampling Rate     200. Hz
 Record Duration   74.060 Sec.
 Direction         N-S (N positive)
Max. Acceleration      6.229 cm/sec**2
     
  * For reference see Site Classification link of website 
     
 Base Line Corrected and Low Pass Filtered (Cut Off at 35 Hz) Time History
 Acceleration data in cm/sec**2
    
[...]
       0.196
       0.210
       0.225
       0.243
       0.260
       0.266
       0.255
       0.231
       0.204
       0.181
       0.165
       0.160
       0.167
       0.185
       0.212
       0.252
       0.308
       0.373
       0.431
       0.470
       0.488
       0.489
       0.479
       0.462
       0.444
       0.435
       0.440
       0.462
       0.498
       0.537
       0.569
       0.587
       0.592
       0.587
       0.568
       0.529
       0.470
       0.404
       0.339
       0.278
       0.217
       0.152
       0.084
       0.019
      -0.037
      -0.079
      -0.105
      -0.120
      -0.132
      -0.145
      -0.159
      -0.168
      -0.170
      -0.169
      -0.172
      -0.182
      -0.198
      -0.218
      -0.240
      -0.263
      -0.288
      -0.319
      -0.359
      -0.411
      -0.468
      -0.520
      -0.558
      -0.585
      -0.607
      -0.629
      -0.657
      -0.685
      -0.710
      -0.728
      -0.744
      -0.766
      -0.791
      -0.814
      -0.828
      -0.833
      -0.828
      -0.809
      -0.771
      -0.718
      -0.655
      -0.590
      -0.526
      -0.464
      -0.403
      -0.339
      -0.271
      -0.202
      -0.135
      -0.070
      -0.007
       0.055
       0.116
       0.179
       0.247
       0.326
       0.419
       0.530
       0.652
       0.775
       0.888
       0.988
       1.079
       1.161
       1.234
       1.295
       1.336
       1.352
       1.347
       1.329
       1.301
       1.255
       1.188
       1.107
       1.023
       0.948
       0.883
       0.830
       0.784
       0.739
       0.694
       0.653
       0.615
       0.575
       0.526
       0.464
       0.390
       0.313
       0.240
       0.173
       0.107
       0.037
      -0.038
      -0.119
      -0.200
      -0.274
      -0.339
      -0.401
      -0.466
      -0.532
      -0.597
      -0.661
      -0.725
      -0.787
      -0.844
      -0.892
      -0.931
      -0.959
      -0.983
      -1.007
      -1.028
      -1.040
      -1.043
      -1.038
      -1.028
      -1.013
      -0.996
      -0.975
      -0.947
      -0.910
      -0.869
      -0.826
      -0.783
      -0.746
      -0.718
      -0.694
      -0.669
      -0.641
      -0.611
      -0.574
      -0.529
      -0.487
      -0.455
      -0.432
      -0.410
      -0.382
      -0.350
      -0.319
      -0.298
      -0.292
      -0.297
      -0.298
      -0.288
      -0.266
      -0.236
      -0.205
      -0.180
      -0.163
      -0.152
      -0.149
      -0.153
      -0.154
      -0.147
      -0.129
      -0.103
      -0.072
      -0.046
      -0.029
      -0.009
       0.023
       0.065
       0.109
       0.154
       0.205
       0.262
       0.324
       0.397
       0.480
       0.562
       0.633
       0.685
       0.717
       0.732
       0.738
       0.736
       0.726
       0.715
       0.714
       0.724
       0.741
       0.765
       0.796
       0.837
       0.892
       0.960
       1.030
       1.082
       1.110
       1.116
       1.105
       1.084
       1.058
       1.022
       0.972
       0.913
       0.854
       0.795
       0.733
       0.674
       0.620
       0.568
       0.521
       0.480
       0.438
       0.389
       0.336
       0.279
       0.211
       0.135
       0.068
       0.019
      -0.007
      -0.014
      -0.015
      -0.024
      -0.042
      -0.059
      -0.073
      -0.089
      -0.111
      -0.144
      -0.191
      -0.249
      -0.307
      -0.363
      -0.423
      -0.486
      -0.550
      -0.611
      -0.661
      -0.690
      -0.701
      -0.702
      -0.701
      -0.699
      -0.696
      -0.683
      -0.660
      -0.640
      -0.633
      -0.640
      -0.654
      -0.673
      -0.690
      -0.704
      -0.721
      -0.745
      -0.770
      -0.788
      -0.800
      -0.805
      -0.801
      -0.791
      -0.775
      -0.757
      -0.742
      -0.728
      -0.707
      -0.669
      -0.621
      -0.573
      -0.534
      -0.511
      -0.504
      -0.503
      -0.507
      -0.515
      -0.526
      -0.531
      -0.525
      -0.499
      -0.450
      -0.386
      -0.321
      -0.266
      -0.230
      -0.218
      -0.227
      -0.254
      -0.291
      -0.330
      -0.356
      -0.359
      -0.335
      -0.287
      -0.217
      -0.130
      -0.025
       0.094
       0.220
       0.344
       0.460
       0.564
       0.659
       0.745
       0.821
       0.886
       0.940
       0.986
       1.031
       1.076
       1.117
       1.142
       1.152
       1.153
       1.152
       1.145
       1.125
       1.090
       1.042
       0.989
       0.939
       0.897
       0.865
       0.841
       0.822
       0.807
       0.796
       0.784
       0.768
       0.753
       0.745
       0.749
       0.764
       0.790
       0.821
       0.848
       0.862
       0.855
       0.827
       0.782
       0.726
       0.657
       0.569
       0.456
       0.317
       0.159
      -0.010
      -0.179
      -0.341
      -0.492
      -0.625
      -0.738
      -0.828
      -0.894
      -0.936
      -0.956
      -0.962
      -0.961
      -0.956
      -0.950
      -0.948
      -0.951
      -0.956
      -0.962
      -0.973
      -0.990
      -1.010
      -1.023
      -1.025
      -1.017
      -1.000
      -0.977
      -0.947
      -0.914
      -0.882
      -0.855
      -0.831
      -0.809
      -0.782
      -0.749
      -0.707
      -0.657
      -0.597
      -0.520
      -0.421
      -0.303
      -0.180
      -0.068
       0.020
       0.081
       0.114
       0.121
       0.099
       0.048
      -0.032
      -0.134
      -0.247
      -0.358
      -0.455
      -0.537
      -0.602
      -0.644
      -0.655
      -0.632
      -0.576
      -0.492
      -0.391
      -0.283
      -0.177
      -0.074
       0.029
       0.133
       0.235
       0.325
       0.402
       0.461
       0.500
       0.517
       0.517
       0.510
       0.503
       0.497
       0.488
       0.472
       0.449
       0.421
       0.397
       0.394
       0.421
       0.476
       0.547
       0.620
       0.687
       0.744
       0.796
       0.849
       0.905
       0.957
       0.992
       1.000
       0.978
       0.933
       0.872
       0.804
       0.734
       0.662
       0.584
       0.498
       0.409
       0.322
       0.242
       0.176
       0.125
       0.091
       0.074
       0.071
       0.078
       0.092
       0.107
       0.115
       0.110
       0.086
       0.036
      -0.042
      -0.147
      -0.272
      -0.410
      -0.551
      -0.690
      -0.823
      -0.946
      -1.057
      -1.150
      -1.223
      -1.274
      -1.306
      -1.321
      -1.328
      -1.332
      -1.343
      -1.365
      -1.399
      -1.436
      -1.466
      -1.488
      -1.505
      -1.522
      -1.535
      -1.536
      -1.516
      -1.471
      -1.406
      -1.331
      -1.257
      -1.185
      -1.105
      -1.001
      -0.867
      -0.706
      -0.526
      -0.333
      -0.131
       0.074
       0.274
       0.463
       0.636
       0.791
       0.926
       1.041
       1.133
       1.206
       1.262
       1.309
       1.351
       1.386
       1.413
       1.434
       1.451
       1.466
       1.476
       1.480
       1.471
       1.447
       1.405
       1.352
       1.293
       1.228
       1.155
       1.074
       0.986
       0.898
       0.814
       0.739
       0.672
       0.609
       0.550
       0.498
       0.457
       0.427
       0.406
       0.394
       0.394
       0.412
       0.442
       0.474
       0.491
       0.479
       0.436
       0.362
       0.267
       0.157
       0.039
      -0.081
      -0.202
      -0.321
      -0.431
      -0.524
      -0.593
      -0.639
      -0.667
      -0.687
      -0.710
      -0.741
      -0.781
      -0.822
      -0.850
      -0.857
      -0.842
      -0.814
      -0.784
      -0.765
      -0.761
      -0.771
      -0.785
      -0.800
      -0.818
      -0.849
      -0.894
      -0.946
      -0.989
      -1.001
      -0.966
      -0.882
      -0.758
      -0.616
      -0.475
      -0.347
      -0.233
      -0.127
      -0.027
       0.061
       0.124
       0.153
       0.148
       0.121
       0.085
       0.043
      -0.010
      -0.087
      -0.188
      -0.306
      -0.423
      -0.527
      -0.609
      -0.667
      -0.697
      -0.701
      -0.684
      -0.647
      -0.586
      -0.499
      -0.390
      -0.272
      -0.154
      -0.041
       0.067
       0.172
       0.274
       0.369
       0.447
       0.502
       0.530
       0.538
       0.540
       0.546
       0.561
       0.590
       0.635
       0.698
       0.776
       0.870
       0.974
       1.084
       1.192
       1.287
       1.365
       1.424
       1.466
       1.489
       1.483
       1.441
       1.360
       1.241
       1.097
       0.938
       0.772
       0.605
       0.438
       0.278
       0.138
       0.034
      -0.026
      -0.041
      -0.021
       0.023
       0.083
       0.149
       0.206
       0.243
       0.249
       0.224
       0.169
       0.092
      -0.001
      -0.104
      -0.205
      -0.289
      -0.346
      -0.375
      -0.373
      -0.343
      -0.290
      -0.222
      -0.153
      -0.096
      -0.058
      -0.042
      -0.046
      -0.068
      -0.112
      -0.185
      -0.286
      -0.405
      -0.526
      -0.640
      -0.742
      -0.831
      -0.906
      -0.963
      -0.998
      -1.008
      -0.992
      -0.956
      -0.910
      -0.860
      -0.812
      -0.767
      -0.728
      -0.696
      -0.673
      -0.655
      -0.643
      -0.638
      -0.641
      -0.654
      -0.671
      -0.688
      -0.703
      -0.719
      -0.740
      -0.760
      -0.770
      -0.756
      -0.715
      -0.654
      -0.585
      -0.518
      -0.452
      -0.382
      -0.301
      -0.212
      -0.126
      -0.052
       0.002
       0.037
       0.058
       0.069
       0.075
       0.074
       0.067
       0.051
       0.033
       0.019
       0.020
       0.041
       0.084
       0.146
       0.220
       0.303
       0.388
       0.468
       0.541
       0.608
       0.672
       0.739
       0.811
       0.885
       0.960
       1.030
       1.089
       1.130
       1.153
       1.156
       1.131
       1.073
       0.983
       0.875
       0.769
       0.680
       0.610
       0.552
       0.495
       0.431
       0.365
       0.306
       0.260
       0.229
       0.215
       0.221
       0.247
       0.295
       0.362
       0.441
       0.520
       0.588
       0.637
       0.661
       0.653
       0.607
       0.523
       0.413
       0.288
       0.159
       0.037
      -0.076
      -0.183
      -0.287
      -0.389
      -0.485
      -0.568
      -0.635
      -0.686
      -0.724
      -0.753
      -0.776
      -0.795
      -0.809
      -0.821
      -0.836
      -0.860
      -0.892
      -0.928
      -0.965
      -1.008
      -1.060
      -1.128
      -1.208
      -1.290
      -1.359
      -1.404
      -1.418
      -1.399
      -1.345
      -1.258
      -1.137
      -0.988
      -0.819
      -0.640
      -0.463
      -0.298
      -0.152
      -0.026
       0.082
       0.180
       0.270
       0.353
       0.424
       0.478
       0.516
       0.543
       0.564
       0.584
       0.610
       0.639
       0.668
       0.697
       0.735
       0.792
       0.874
       0.978
       1.101
       1.235
       1.372
       1.503
       1.620
       1.722
       1.815
       1.899
       1.968
       2.017
       2.040
       2.039
       2.024
       2.005
       1.985
       1.953
       1.895
       1.806
       1.687
       1.544
       1.387
       1.221
       1.050
       0.875
       0.709
       0.564
       0.445
       0.352
       0.278
       0.219
       0.169
       0.129
       0.095
       0.056
       0.006
      -0.059
      -0.140
      -0.235
      -0.336
      -0.435
      -0.528
      -0.613
      -0.691
      -0.762
      -0.829
      -0.891
      -0.945
      -0.996
      -1.052
      -1.111
      -1.167
      -1.211
      -1.235
      -1.229
      -1.197
      -1.143
      -1.072
      -0.986
      -0.890
      -0.791
      -0.691
      -0.597
      -0.512
      -0.433
      -0.348
      -0.247
      -0.129
       0.012
       0.181
       0.382
       0.610
       0.851
       1.090
       1.311
       1.504
       1.660
       1.770
       1.823
       1.812
       1.739
       1.609
       1.431
       1.220
       0.987
       0.740
       0.483
       0.220
      -0.053
      -0.346
      -0.661
      -0.994
      -1.342
      -1.708
      -2.086
      -2.464
      -2.826
      -3.162
      -3.466
      -3.735
      -3.969
      -4.164
      -4.315
      -4.421
      -4.486
      -4.518
      -4.522
      -4.499
      -4.444
      -4.358
      -4.244
      -4.106
      -3.944
      -3.756
      -3.544
      -3.308
      -3.046
      -2.763
      -2.460
      -2.141
      -1.818
      -1.509
      -1.231
      -0.989
      -0.781
      -0.599
      -0.443
      -0.315
      -0.218
      -0.147
      -0.088
      -0.028
       0.044
       0.129
       0.224
       0.326
       0.433
       0.549
       0.679
       0.836
       1.027
       1.257
       1.526
       1.828
       2.159
       2.515
       2.895
       3.292
       3.693
       4.084
       4.452
       4.792
       5.101
       5.378
       5.621
       5.827
       5.991
       6.110
       6.189
       6.229
       6.225
       6.171
       6.064
       5.909
       5.714
       5.486
       5.231
       4.956
       4.663
       4.347
       4.001
       3.617
       3.193
       2.735
       2.251
       1.749
       1.237
       0.718
       0.192
      -0.342
      -0.879
      -1.414
      -1.942
      -2.455
      -2.945
      -3.410
      -3.850
      -4.258
      -4.623
      -4.930
      -5.173
      -5.350
      -5.466
      -5.527
      -5.536
      -5.496
      -5.404
      -5.261
      -5.072
      -4.843
      -4.582
      -4.295
      -3.991
      -3.678
      -3.362
      -3.050
      -2.745
      -2.453
      -2.178
      -1.924
      -1.696
      -1.500
      -1.337
      -1.201
      -1.084
      -0.979
      -0.884
      -0.798
      -0.720
      -0.643
      -0.555
      -0.447
      -0.316
      -0.169
      -0.022
       0.104
       0.191
       0.227
       0.208
       0.140
       0.035
      -0.090
      -0.220
      -0.346
      -0.461
      -0.564
      -0.651
      -0.714
      -0.745
      -0.743
      -0.708
      -0.642
      -0.548
      -0.422
      -0.264
      -0.073
       0.144
       0.374
       0.608
       0.843
       1.076
       1.308
       1.531
       1.740
       1.927
       2.094
       2.244
       2.382
       2.508
       2.624
       2.729
       2.823
       2.900
       2.949
       2.959
       2.925
       2.846
       2.729
       2.583
       2.423
       2.261
       2.104
       1.955
       1.813
       1.677
       1.546
       1.418
       1.288
       1.144
       0.970
       0.758
       0.511
       0.242
      -0.039
      -0.327
      -0.613
      -0.887
      -1.136
      -1.352
      -1.528
      -1.664
      -1.755
      -1.799
      -1.793
      -1.745
      -1.673
      -1.600
      -1.538
      -1.494
      -1.465
      -1.449
      -1.444
      -1.447
      -1.454
      -1.465
      -1.481
      -1.498
      -1.513
      -1.521
      -1.523
      -1.515
      -1.496
      -1.462
      -1.417
      -1.362
      -1.294
      -1.206
      -1.098
      -0.973
      -0.840
      -0.706
      -0.579
      -0.470
      -0.393
      -0.361
      -0.378
      -0.441
      -0.541
      -0.661
      -0.783
      -0.898
      -1.007
      -1.112
      -1.207
      -1.276
      -1.305
      -1.287
      -1.227
      -1.132
      -1.021
      -0.911
      -0.816
      -0.733
      -0.656
      -0.581
      -0.506
      -0.434
      -0.365
      -0.299
      -0.231
      -0.151
      -0.049
       0.079
       0.220
       0.358
       0.477
       0.571
       0.642
       0.698
       0.745
       0.783
       0.812
       0.825
       0.818
       0.793
       0.753
       0.701
       0.640
       0.565
       0.475
       0.372
       0.258
       0.140
       0.019
      -0.105
      -0.229
      -0.350
      -0.460
      -0.548
      -0.610
      -0.646
      -0.652
      -0.622
      -0.552
      -0.441
      -0.299
      -0.129
       0.071
       0.310
       0.589
       0.904
       1.243
       1.600
       1.966
       2.327
       2.662
       2.949
       3.168
       3.308
       3.363
       3.326
       3.197
       2.983
       2.702
       2.380
       2.048
       1.730
       1.446
       1.203
       1.002
       0.837
       0.702
       0.592
       0.496
       0.405
       0.314
       0.221
       0.128
       0.034
      -0.059
      -0.144
      -0.210
      -0.250
      -0.257
      -0.225
      -0.145
      -0.013
       0.168
       0.393
       0.649
       0.925
       1.210
       1.495
       1.773
       2.038
       2.282
       2.496
       2.674
       2.812
       2.912
       2.982
       3.025
       3.038
       3.020
       2.968
       2.879
       2.751
       2.584
       2.381
       2.144
       1.870
       1.559
       1.225
       0.877
       0.523
       0.168
      -0.182
      -0.518
      -0.835
      -1.133
      -1.411
      -1.664
      -1.892
      -2.099
      -2.294
      -2.483
      -2.669
      -2.857
      -3.053
      -3.261
      -3.478
      -3.695
      -3.908
      -4.108
      -4.283
      -4.409
      -4.471
      -4.463
      -4.386
      -4.246
      -4.047
      -3.805
      -3.543
      -3.277
      -3.021
      -2.788
      -2.595
      -2.449
      -2.342
      -2.256
      -2.177
      -2.090
      -1.980
      -1.831
      -1.634
      -1.392
      -1.112
      -0.806
      -0.492
      -0.190
       0.088
       0.340
       0.569
       0.781
       0.983
       1.185
       1.395
       1.615
       1.838
       2.055
       2.250
       2.411
       2.525
       2.584
       2.584
       2.528
       2.432
       2.310
       2.174
       2.031
       1.890
       1.757
       1.637
       1.525
       1.417
       1.312
       1.203
       1.076
       0.915
       0.711
       0.467
       0.195
      -0.088
      -0.357
      -0.591
      -0.775
      -0.898
      -0.955
      -0.943
      -0.865
      -0.735
      -0.570
      -0.397
      -0.242
      -0.128
      -0.064
      -0.048
      -0.072
      -0.128
      -0.203
      -0.281
      -0.342
      -0.369
      -0.348
      -0.276
      -0.155
       0.004
       0.188
       0.383
       0.572
       0.739
       0.869
       0.948
       0.968
       0.929
       0.839
       0.705
       0.525
       0.295
       0.010
      -0.325
      -0.703
      -1.112
      -1.541
      -1.974
      -2.394
      -2.780
      -3.109
      -3.363
      -3.534
      -3.624
      -3.634
      -3.567
      -3.430
      -3.230
      -2.978
      -2.686
      -2.371
      -2.046
      -1.719
      -1.393
      -1.061
      -0.717
      -0.351
       0.042
       0.457
       0.880
       1.298
       1.695
       2.059
       2.381
       2.657
       2.895
