Origin Time       21/9/2009 8:53:04	 
Lat.              27.3 N	
Long.             91.5 E	
Depth (Km)          8.0
Magnitude         6.2
 Region           BHUTAN                                                           
 Above details taken from IMD 
   
Station Code      LKH
Station Lat.       27.239
Station Long.      94.107
Station Height(m)   95.0
Site Class        C   Vs30 between 200 m/sec to 375 m/sec *  
Record Time       21.09.2009 08:54:07.039
Sampling Rate     200. Hz
 Record Duration   74.060 Sec.
 Direction         Vert. (Up positive)
Max. Acceleration     -2.889 cm/sec**2
     
  * For reference see Site Classification link of website 
     
 Base Line Corrected and Low Pass Filtered (Cut Off at 35 Hz) Time History
 Acceleration data in cm/sec**2
    
[...]
      -0.657
      -0.656
      -0.645
      -0.633
      -0.624
      -0.604
      -0.560
      -0.493
      -0.413
      -0.316
      -0.186
      -0.009
       0.203
       0.425
       0.625
       0.783
       0.887
       0.932
       0.918
       0.852
       0.742
       0.592
       0.405
       0.192
      -0.018
      -0.193
      -0.311
      -0.371
      -0.382
      -0.357
      -0.307
      -0.246
      -0.194
      -0.169
      -0.173
      -0.197
      -0.231
      -0.267
      -0.301
      -0.339
      -0.391
      -0.449
      -0.491
      -0.505
      -0.501
      -0.493
      -0.470
      -0.409
      -0.303
      -0.177
      -0.062
       0.028
       0.091
       0.129
       0.159
       0.200
       0.262
       0.326
       0.372
       0.401
       0.426
       0.452
       0.470
       0.470
       0.451
       0.398
       0.288
       0.112
      -0.104
      -0.320
      -0.514
      -0.681
      -0.816
      -0.907
      -0.951
      -0.949
      -0.890
      -0.756
      -0.548
      -0.304
      -0.056
       0.186
       0.425
       0.638
       0.786
       0.843
       0.814
       0.732
       0.640
       0.580
       0.561
       0.557
       0.531
       0.484
       0.452
       0.467
       0.523
       0.593
       0.646
       0.656
       0.608
       0.508
       0.384
       0.253
       0.112
      -0.034
      -0.168
      -0.273
      -0.356
      -0.436
      -0.510
      -0.562
      -0.585
      -0.585
      -0.565
      -0.529
      -0.502
      -0.515
      -0.577
      -0.666
      -0.758
      -0.856
      -0.971
      -1.093
      -1.195
      -1.254
      -1.263
      -1.224
      -1.146
      -1.039
      -0.907
      -0.737
      -0.518
      -0.273
      -0.038
       0.179
       0.406
       0.666
       0.948
       1.211
       1.417
       1.543
       1.581
       1.543
       1.462
       1.364
       1.253
       1.131
       1.010
       0.899
       0.789
       0.665
       0.531
       0.403
       0.281
       0.153
       0.004
      -0.170
      -0.364
      -0.567
      -0.761
      -0.931
      -1.065
      -1.156
      -1.210
      -1.250
      -1.291
      -1.321
      -1.312
      -1.252
      -1.156
      -1.048
      -0.933
      -0.800
      -0.634
      -0.426
      -0.181
       0.071
       0.285
       0.425
       0.483
       0.481
       0.450
       0.415
       0.386
       0.358
       0.323
       0.280
       0.245
       0.242
       0.282
       0.349
       0.412
       0.449
       0.456
       0.436
       0.378
       0.265
       0.106
      -0.059
      -0.178
      -0.223
      -0.208
      -0.175
      -0.156
      -0.152
      -0.141
      -0.097
      -0.009
       0.123
       0.284
       0.453
       0.615
       0.761
       0.879
       0.940
       0.909
       0.777
       0.558
       0.283
      -0.007
      -0.267
      -0.461
      -0.579
      -0.629
      -0.610
      -0.513
      -0.340
      -0.123
       0.093
       0.258
       0.340
       0.331
       0.245
       0.108
      -0.051
      -0.191
      -0.266
      -0.254
      -0.149
       0.044
       0.309
       0.600
       0.856
       1.027
       1.088
       1.047
       0.933
       0.771
       0.573
       0.347
       0.108
      -0.125
      -0.328
      -0.458
      -0.475
      -0.371
      -0.191
       0.003
       0.161
       0.260
       0.303
       0.301
       0.262
       0.184
       0.074
      -0.058
      -0.195
      -0.315
      -0.393
      -0.429
      -0.438
      -0.435
      -0.422
      -0.403
      -0.393
      -0.395
      -0.403
      -0.396
      -0.356
      -0.281
      -0.193
      -0.119
      -0.063
      -0.009
       0.060
       0.158
       0.283
       0.413
       0.521
       0.600
       0.663
       0.712
       0.730
       0.707
       0.647
       0.559
       0.449
       0.322
       0.194
       0.086
       0.010
      -0.051
      -0.124
      -0.217
      -0.316
      -0.412
      -0.502
      -0.577
      -0.623
      -0.634
      -0.622
      -0.603
      -0.587
      -0.564
      -0.512
      -0.425
      -0.315
      -0.190
      -0.044
       0.115
       0.264
       0.375
       0.437
       0.454
       0.433
       0.373
       0.271
       0.139
       0.006
      -0.098
      -0.157
      -0.159
      -0.089
       0.058
       0.271
       0.523
       0.779
       0.998
       1.156
       1.249
       1.283
       1.250
       1.135
       0.921
       0.613
       0.241
      -0.158
      -0.547
      -0.894
      -1.169
      -1.351
      -1.445
      -1.466
      -1.428
      -1.353
      -1.269
      -1.209
      -1.198
      -1.246
      -1.354
      -1.509
      -1.674
      -1.788
      -1.787
      -1.638
      -1.353
      -0.984
      -0.589
      -0.203
       0.170
       0.543
       0.917
       1.265
       1.539
       1.701
       1.747
       1.713
       1.649
       1.588
       1.531
       1.464
       1.386
       1.316
       1.258
       1.184
       1.054
       0.844
       0.562
       0.231
      -0.118
      -0.450
      -0.737
      -0.966
      -1.147
      -1.295
      -1.422
      -1.529
      -1.616
      -1.678
      -1.704
      -1.686
      -1.630
      -1.545
      -1.441
      -1.319
      -1.179
      -1.032
      -0.886
      -0.747
      -0.616
      -0.492
      -0.370
      -0.230
      -0.048
       0.185
       0.448
       0.706
       0.937
       1.134
       1.303
       1.439
       1.526
       1.552
       1.510
       1.406
       1.252
       1.075
       0.911
       0.790
       0.724
       0.700
       0.698
       0.706
       0.718
       0.727
       0.714
       0.650
       0.510
       0.285
      -0.012
      -0.345
      -0.666
      -0.932
      -1.121
      -1.231
      -1.265
      -1.225
      -1.119
      -0.975
      -0.830
      -0.708
      -0.614
      -0.544
      -0.497
      -0.472
      -0.458
      -0.432
      -0.373
      -0.268
      -0.122
       0.047
       0.222
       0.396
       0.567
       0.737
       0.893
       1.010
       1.075
       1.091
       1.075
       1.031
       0.956
       0.851
       0.731
       0.611
       0.499
       0.391
       0.277
       0.146
      -0.004
      -0.161
      -0.315
      -0.472
      -0.640
      -0.805
      -0.927
      -0.956
      -0.873
      -0.701
      -0.498
      -0.319
      -0.193
      -0.112
      -0.056
      -0.018
      -0.009
      -0.036
      -0.093
      -0.163
      -0.225
      -0.253
      -0.227
      -0.147
      -0.033
       0.091
       0.201
       0.280
       0.318
       0.329
       0.351
       0.421
       0.541
       0.683
       0.810
       0.905
       0.962
       0.990
       1.013
       1.058
       1.127
       1.197
       1.240
       1.247
       1.223
       1.181
       1.133
       1.088
       1.036
       0.950
       0.807
       0.620
       0.430
       0.272
       0.144
       0.024
      -0.111
      -0.261
      -0.411
      -0.548
      -0.671
      -0.780
      -0.867
      -0.906
      -0.872
      -0.764
      -0.603
      -0.427
      -0.274
      -0.173
      -0.127
      -0.113
      -0.103
      -0.087
      -0.082
      -0.109
      -0.178
      -0.288
      -0.436
      -0.616
      -0.806
      -0.968
      -1.074
      -1.110
      -1.076
      -0.980
      -0.836
      -0.662
      -0.477
      -0.287
      -0.095
       0.091
       0.245
       0.341
       0.371
       0.349
       0.304
       0.277
       0.305
       0.412
       0.584
       0.770
       0.913
       0.984
       0.983
       0.922
       0.805
       0.642
       0.452
       0.256
       0.065
      -0.116
      -0.264
      -0.347
      -0.349
      -0.285
      -0.194
      -0.111
      -0.058
      -0.049
      -0.092
      -0.188
      -0.328
      -0.494
      -0.665
      -0.798
      -0.845
      -0.770
      -0.579
      -0.309
      -0.003
       0.302
       0.568
       0.744
       0.784
       0.675
       0.446
       0.151
      -0.148
      -0.389
      -0.534
      -0.571
      -0.510
      -0.372
      -0.177
       0.049
       0.266
       0.443
       0.570
       0.651
       0.689
       0.680
       0.631
       0.563
       0.504
       0.463
       0.440
       0.428
       0.422
       0.415
       0.399
       0.364
       0.302
       0.208
       0.084
      -0.058
      -0.199
      -0.324
      -0.429
      -0.530
      -0.648
      -0.795
      -0.967
      -1.148
      -1.326
      -1.493
      -1.629
      -1.706
      -1.701
      -1.611
      -1.450
      -1.240
      -1.002
      -0.756
      -0.517
      -0.303
      -0.127
       0.004
       0.099
       0.182
       0.276
       0.385
       0.495
       0.591
       0.671
       0.740
       0.810
       0.885
       0.960
       1.018
       1.042
       1.024
       0.962
       0.857
       0.715
       0.557
       0.418
       0.323
       0.267
       0.212
       0.118
      -0.022
      -0.182
      -0.328
      -0.451
      -0.564
      -0.679
      -0.787
      -0.875
      -0.940
      -0.995
      -1.044
      -1.070
      -1.039
      -0.917
      -0.695
      -0.405
      -0.106
       0.144
       0.314
       0.408
       0.457
       0.493
       0.547
       0.637
       0.762
       0.905
       1.045
       1.172
       1.297
       1.426
       1.546
       1.630
       1.659
       1.633
       1.560
       1.442
       1.279
       1.081
       0.866
       0.646
       0.421
       0.187
      -0.047
      -0.257
      -0.423
      -0.533
      -0.588
      -0.593
      -0.556
      -0.482
      -0.373
      -0.228
      -0.062
       0.094
       0.208
       0.263
       0.266
       0.236
       0.194
       0.154
       0.129
       0.126
       0.152
       0.208
       0.285
       0.368
       0.444
       0.510
       0.561
       0.585
       0.557
       0.450
       0.256
      -0.001
      -0.279
      -0.542
      -0.775
      -0.982
      -1.167
      -1.323
      -1.447
      -1.539
      -1.601
      -1.622
      -1.591
      -1.516
      -1.420
      -1.320
      -1.217
      -1.117
      -1.040
      -1.000
      -0.983
      -0.958
      -0.908
      -0.842
      -0.768
      -0.672
      -0.538
      -0.362
      -0.161
       0.046
       0.247
       0.433
       0.587
       0.703
       0.794
       0.889
       1.010
       1.152
       1.288
       1.389
       1.444
       1.455
       1.428
       1.355
       1.227
       1.050
       0.857
       0.683
       0.539
       0.402
       0.241
       0.040
      -0.194
      -0.439
      -0.668
      -0.855
      -0.992
      -1.101
      -1.210
      -1.318
      -1.394
      -1.400
      -1.325
      -1.183
      -0.987
      -0.744
      -0.466
      -0.183
       0.075
       0.298
       0.494
       0.668
       0.814
       0.925
       1.008
       1.082
       1.157
       1.227
       1.281
       1.312
       1.316
       1.286
       1.222
       1.129
       1.018
       0.891
       0.745
       0.584
       0.419
       0.266
       0.133
       0.025
      -0.054
      -0.106
      -0.141
      -0.178
      -0.235
      -0.325
      -0.450
      -0.595
      -0.733
      -0.846
      -0.929
      -0.988
      -1.019
      -1.000
      -0.915
      -0.774
      -0.610
      -0.458
      -0.339
      -0.259
      -0.214
      -0.194
      -0.193
      -0.212
      -0.259
      -0.328
      -0.392
      -0.410
      -0.364
      -0.277
      -0.190
      -0.132
      -0.102
      -0.087
      -0.084
      -0.104
      -0.154
      -0.238
      -0.347
      -0.463
      -0.561
      -0.621
      -0.635
      -0.606
      -0.538
      -0.440
      -0.332
      -0.241
      -0.175
      -0.117
      -0.043
       0.051
       0.145
       0.213
       0.243
       0.238
       0.215
       0.199
       0.214
       0.263
       0.325
       0.374
       0.397
       0.395
       0.370
       0.321
       0.259
       0.204
       0.175
       0.184
       0.239
       0.350
       0.519
       0.726
       0.931
       1.093
       1.185
       1.198
       1.132
       0.999
       0.820
       0.623
       0.436
       0.277
       0.157
       0.084
       0.061
       0.074
       0.092
       0.090
       0.072
       0.057
       0.050
       0.032
      -0.014
      -0.076
      -0.120
      -0.121
      -0.090
      -0.057
      -0.048
      -0.061
      -0.075
      -0.067
      -0.032
       0.017
       0.069
       0.135
       0.242
       0.412
       0.633
       0.858
       1.031
       1.126
       1.152
       1.141
       1.108
       1.044
       0.934
       0.777
       0.582
       0.356
       0.098
      -0.194
      -0.513
      -0.826
      -1.078
      -1.213
      -1.217
      -1.122
      -0.981
      -0.816
      -0.620
      -0.387
      -0.135
       0.101
       0.289
       0.409
       0.463
       0.474
       0.479
       0.495
       0.513
       0.512
       0.491
       0.473
       0.484
       0.534
       0.620
       0.736
       0.865
       0.980
       1.053
       1.087
       1.102
       1.101
       1.038
       0.854
       0.547
       0.194
      -0.087
      -0.219
      -0.195
      -0.071
       0.090
       0.239
       0.358
       0.449
       0.510
       0.508
       0.393
       0.142
      -0.226
      -0.665
      -1.142
      -1.633
      -2.103
      -2.496
      -2.765
      -2.889
      -2.872
      -2.723
      -2.461
      -2.121
      -1.750
      -1.383
      -1.047
      -0.768
      -0.575
      -0.474
      -0.445
      -0.456
      -0.475
      -0.476
      -0.436
      -0.340
      -0.187
       0.019
       0.274
       0.562
       0.843
       1.067
       1.209
       1.276
       1.280
       1.235
       1.155
       1.069
       0.996
       0.935
       0.873
       0.797
       0.704
       0.591
       0.454
       0.290
       0.096
      -0.125
      -0.363
      -0.585
      -0.754
      -0.864
      -0.937
      -1.005
      -1.076
      -1.142
      -1.191
      -1.222
      -1.242
      -1.260
      -1.270
      -1.236
      -1.115
      -0.895
      -0.615
      -0.326
      -0.051
       0.224
       0.516
       0.821
       1.115
       1.363
       1.538
       1.645
       1.719
       1.798
       1.873
       1.892
       1.814
       1.643
       1.407
       1.133
       0.836
       0.530
       0.220
      -0.102
      -0.432
      -0.727
      -0.922
      -0.981
      -0.919
      -0.786
      -0.641
      -0.532
      -0.487
      -0.498
      -0.533
      -0.570
      -0.631
      -0.751
      -0.924
      -1.094
      -1.189
      -1.178
      -1.083
      -0.946
      -0.802
      -0.664
      -0.529
      -0.391
      -0.264
      -0.181
      -0.164
      -0.191
      -0.210
      -0.190
      -0.147
      -0.117
      -0.108
      -0.097
      -0.058
       0.014
       0.099
       0.167
       0.188
       0.164
       0.138
       0.162
       0.248
       0.351
       0.411
       0.409
       0.381
       0.381
       0.430
       0.497
       0.522
       0.476
       0.404
       0.388
       0.471
       0.616
       0.738
       0.778
       0.742
       0.671
       0.593
       0.502
       0.378
       0.209
       0.017
      -0.148
      -0.241
      -0.258
      -0.236
      -0.223
      -0.240
      -0.265
      -0.264
      -0.213
      -0.131
      -0.070
      -0.077
      -0.150
      -0.236
      -0.282
      -0.277
      -0.249
      -0.229
      -0.222
      -0.204
      -0.136
      -0.001
       0.179
       0.350
       0.474
       0.557
       0.634
       0.714
       0.767
       0.756
       0.670
       0.526
       0.349
       0.157
      -0.033
      -0.204
      -0.334
      -0.408
      -0.421
      -0.372
      -0.261
      -0.102
       0.074
       0.232
       0.355
       0.447
       0.517
       0.568
       0.592
       0.580
       0.532
       0.464
       0.390
       0.313
       0.212
       0.068
      -0.115
      -0.307
      -0.476
      -0.607
      -0.706
      -0.789
      -0.861
      -0.912
      -0.930
      -0.925
      -0.925
      -0.960
      -1.045
      -1.165
      -1.288
      -1.373
      -1.390
      -1.332
      -1.209
      -1.022
      -0.742
      -0.344
       0.165
       0.722
       1.253
       1.708
       2.078
       2.370
       2.582
       2.687
       2.658
       2.492
       2.227
       1.921
       1.625
       1.354
       1.093
       0.833
       0.587
       0.376
       0.203
       0.040
      -0.150
      -0.385
      -0.655
      -0.945
      -1.244
      -1.551
      -1.859
      -2.145
      -2.374
      -2.523
      -2.590
      -2.583
      -2.497
      -2.323
      -2.053
      -1.698
      -1.287
      -0.862
      -0.468
      -0.141
       0.115
       0.317
       0.474
       0.575
       0.608
       0.585
       0.542
       0.509
       0.490
       0.469
       0.445
       0.438
       0.465
       0.513
       0.539
       0.510
       0.426
       0.315
       0.193
       0.058
      -0.092
      -0.229
      -0.306
      -0.296
      -0.221
      -0.132
      -0.066
      -0.031
      -0.023
      -0.045
      -0.115
      -0.243
      -0.427
      -0.639
      -0.836
      -0.974
      -1.034
      -1.024
      -0.961
      -0.850
      -0.693
      -0.511
      -0.343
      -0.208
      -0.082
       0.075
       0.278
       0.507
       0.726
       0.910
       1.043
       1.121
       1.150
       1.141
       1.112
       1.078
       1.056
       1.063
       1.108
       1.175
       1.227
       1.227
       1.162
       1.047
       0.910
       0.781
       0.673
       0.583
       0.497
       0.400
       0.299
       0.204
       0.112
      -0.003
      -0.164
      -0.353
      -0.518
      -0.626
      -0.698
      -0.775
      -0.875
      -0.970
      -1.024
      -1.022
      -0.971
      -0.874
      -0.739
      -0.580
      -0.415
      -0.252
      -0.087
       0.079
       0.230
       0.349
       0.432
       0.497
       0.570
       0.675
       0.821
       0.994
       1.162
       1.286
       1.339
       1.307
       1.178
       0.950
       0.640
       0.289
      -0.057
      -0.366
      -0.628
      -0.840
      -1.002
      -1.119
      -1.213
      -1.311
      -1.418
      -1.508
      -1.547
      -1.531
      -1.481
      -1.420
      -1.350
      -1.262
      -1.153
      -1.027
      -0.881
      -0.705
      -0.490
      -0.238
       0.040
       0.325
       0.599
       0.847
       1.066
       1.255
       1.403
       1.502
       1.559
       1.585
       1.580
       1.535
       1.448
       1.327
       1.175
       0.977
       0.725
       0.434
       0.140
      -0.131
      -0.373
      -0.579
      -0.722
      -0.784
      -0.780
      -0.737
      -0.674
      -0.590
      -0.493
      -0.422
      -0.421
      -0.501
      -0.623
      -0.733
      -0.793
      -0.789
      -0.718
      -0.582
      -0.404
      -0.217
      -0.039
       0.138
       0.336
       0.541
       0.711
       0.805
       0.820
       0.787
       0.736
       0.681
       0.626
       0.580
       0.562
       0.582
