Origin Time       04/05/2012 20:09:26
Lat.              27.5 N	
Long.             95.1 E	
Depth (Km)         15.0
Magnitude         4.4
 Region           DISTT.-DIBRUGARH-ASSAM                                           
 Above details taken from IMD 
     
Station Code      LKH
Station Lat.       27.239  N
Station Long.      94.107  E
Station Height(m)   95.0
Site Class        C   Vs30 between 200 m/sec to 375 m/sec *  
Record Time       04.05.2012 20:09:48.189
Sampling Rate     200. Hz
 Record Duration   65.235 Sec.
 Direction         E-W (E positive)
Max. Acceleration      3.261 cm/sec**2
     
  * For reference see Site Classification link of website 
     
 Base Line Corrected and Low Pass Filtered (Cut Off at 35 Hz) Time History
 Acceleration data in cm/sec**2
    
[...]
      -0.068
      -0.035
       0.010
       0.044
       0.051
       0.039
       0.025
       0.025
       0.037
       0.044
       0.037
       0.017
      -0.001
      -0.003
       0.007
       0.017
       0.016
       0.007
       0.001
       0.009
       0.030
       0.055
       0.070
       0.073
       0.071
       0.073
       0.079
       0.077
       0.058
       0.024
      -0.012
      -0.035
      -0.043
      -0.048
      -0.059
      -0.078
      -0.090
      -0.079
      -0.045
      -0.001
       0.036
       0.055
       0.059
       0.056
       0.052
       0.048
       0.041
       0.023
      -0.008
      -0.051
      -0.098
      -0.139
      -0.164
      -0.165
      -0.141
      -0.096
      -0.039
       0.021
       0.073
       0.106
       0.118
       0.114
       0.100
       0.083
       0.064
       0.040
       0.008
      -0.033
      -0.072
      -0.095
      -0.088
      -0.055
      -0.006
       0.042
       0.078
       0.100
       0.107
       0.103
       0.088
       0.066
       0.037
       0.005
      -0.029
      -0.063
      -0.092
      -0.110
      -0.115
      -0.103
      -0.080
      -0.050
      -0.021
       0.000
       0.007
       0.003
      -0.003
      -0.003
       0.003
       0.006
      -0.005
      -0.032
      -0.064
      -0.084
      -0.088
      -0.082
      -0.076
      -0.071
      -0.060
      -0.038
      -0.009
       0.017
       0.030
       0.029
       0.024
       0.029
       0.047
       0.063
       0.062
       0.038
       0.000
      -0.037
      -0.062
      -0.075
      -0.077
      -0.065
      -0.035
       0.017
       0.081
       0.137
       0.165
       0.163
       0.142
       0.116
       0.089
       0.058
       0.020
      -0.019
      -0.047
      -0.054
      -0.040
      -0.016
       0.005
       0.015
       0.015
       0.010
       0.004
      -0.004
      -0.013
      -0.022
      -0.031
      -0.040
      -0.049
      -0.063
      -0.081
      -0.094
      -0.093
      -0.071
      -0.034
       0.010
       0.053
       0.087
       0.110
       0.123
       0.126
       0.119
       0.098
       0.060
       0.008
      -0.048
      -0.094
      -0.120
      -0.123
      -0.106
      -0.078
      -0.050
      -0.025
      -0.010
      -0.004
      -0.004
      -0.004
      -0.005
      -0.009
      -0.018
      -0.029
      -0.037
      -0.039
      -0.038
      -0.037
      -0.037
      -0.033
      -0.019
       0.004
       0.030
       0.048
       0.056
       0.060
       0.068
       0.083
       0.099
       0.109
       0.107
       0.093
       0.073
       0.053
       0.032
       0.006
      -0.025
      -0.048
      -0.054
      -0.039
      -0.010
       0.020
       0.039
       0.043
       0.039
       0.036
       0.041
       0.052
       0.064
       0.071
       0.070
       0.053
       0.018
      -0.036
      -0.102
      -0.159
      -0.189
      -0.180
      -0.143
      -0.101
      -0.067
      -0.040
      -0.011
       0.023
       0.053
       0.061
       0.038
      -0.011
      -0.065
      -0.097
      -0.098
      -0.074
      -0.042
      -0.010
       0.020
       0.050
       0.077
       0.091
       0.089
       0.075
       0.060
       0.052
       0.049
       0.040
       0.020
      -0.003
      -0.019
      -0.021
      -0.011
      -0.001
       0.002
      -0.001
       0.001
       0.019
       0.052
       0.086
       0.107
       0.107
       0.089
       0.058
       0.020
      -0.022
      -0.065
      -0.101
      -0.123
      -0.129
      -0.123
      -0.116
      -0.114
      -0.113
      -0.107
      -0.092
      -0.069
      -0.041
      -0.010
       0.020
       0.048
       0.068
       0.075
       0.071
       0.060
       0.051
       0.045
       0.037
       0.019
      -0.006
      -0.027
      -0.036
      -0.025
       0.004
       0.046
       0.093
       0.135
       0.161
       0.163
       0.137
       0.088
       0.028
      -0.028
      -0.069
      -0.094
      -0.107
      -0.113
      -0.114
      -0.109
      -0.097
      -0.077
      -0.047
      -0.006
       0.043
       0.093
       0.129
       0.139
       0.125
       0.103
       0.086
       0.078
       0.070
       0.053
       0.025
      -0.007
      -0.028
      -0.029
      -0.011
       0.013
       0.031
       0.032
       0.015
      -0.015
      -0.047
      -0.068
      -0.079
      -0.087
      -0.098
      -0.108
      -0.102
      -0.073
      -0.026
       0.024
       0.063
       0.090
       0.112
       0.133
       0.145
       0.135
       0.099
       0.052
       0.013
      -0.009
      -0.018
      -0.026
      -0.040
      -0.054
      -0.059
      -0.051
      -0.040
      -0.038
      -0.048
      -0.058
      -0.053
      -0.030
       0.002
       0.029
       0.042
       0.045
       0.046
       0.052
       0.062
       0.072
       0.080
       0.083
       0.078
       0.061
       0.034
       0.010
       0.002
       0.012
       0.029
       0.034
       0.016
      -0.018
      -0.054
      -0.076
      -0.079
      -0.068
      -0.053
      -0.042
      -0.040
      -0.044
      -0.046
      -0.039
      -0.021
       0.000
       0.016
       0.020
       0.009
      -0.013
      -0.038
      -0.055
      -0.056
      -0.047
      -0.036
      -0.029
      -0.028
      -0.029
      -0.028
      -0.025
      -0.023
      -0.028
      -0.041
      -0.054
      -0.058
      -0.046
      -0.018
       0.021
       0.061
       0.092
       0.113
       0.125
       0.133
       0.145
       0.162
       0.186
       0.212
       0.230
       0.231
       0.208
       0.162
       0.100
       0.035
      -0.025
      -0.077
      -0.123
      -0.166
      -0.207
      -0.235
      -0.245
      -0.232
      -0.202
      -0.168
      -0.138
      -0.112
      -0.082
      -0.046
      -0.006
       0.036
       0.078
       0.121
       0.157
       0.177
       0.174
       0.151
       0.117
       0.088
       0.070
       0.058
       0.037
      -0.001
      -0.052
      -0.105
      -0.147
      -0.176
      -0.192
      -0.197
      -0.188
      -0.162
      -0.118
      -0.066
      -0.012
       0.038
       0.086
       0.129
       0.162
       0.175
       0.164
       0.135
       0.098
       0.065
       0.046
       0.042
       0.045
       0.049
       0.050
       0.050
       0.050
       0.044
       0.030
       0.009
      -0.010
      -0.025
      -0.039
      -0.060
      -0.091
      -0.124
      -0.138
      -0.121
      -0.080
      -0.037
      -0.008
       0.004
       0.012
       0.028
       0.055
       0.084
       0.106
       0.124
       0.141
       0.155
       0.154
       0.127
       0.081
       0.040
       0.022
       0.028
       0.038
       0.029
      -0.009
      -0.067
      -0.124
      -0.161
      -0.174
      -0.165
      -0.145
      -0.120
      -0.100
      -0.087
      -0.079
      -0.068
      -0.049
      -0.019
       0.017
       0.050
       0.070
       0.073
       0.065
       0.055
       0.049
       0.049
       0.052
       0.053
       0.045
       0.019
      -0.027
      -0.087
      -0.147
      -0.190
      -0.205
      -0.188
      -0.150
      -0.103
      -0.055
      -0.008
       0.038
       0.080
       0.114
       0.139
       0.150
       0.145
       0.123
       0.083
       0.035
      -0.010
      -0.041
      -0.052
      -0.042
      -0.014
       0.032
       0.087
       0.141
       0.179
       0.194
       0.187
       0.162
       0.125
       0.078
       0.021
      -0.042
      -0.103
      -0.149
      -0.173
      -0.170
      -0.141
      -0.080
       0.011
       0.117
       0.210
       0.264
       0.267
       0.228
       0.169
       0.111
       0.059
       0.005
      -0.060
      -0.136
      -0.208
      -0.261
      -0.287
      -0.289
      -0.272
      -0.237
      -0.189
      -0.132
      -0.078
      -0.034
       0.005
       0.053
       0.122
       0.203
       0.269
       0.293
       0.269
       0.214
       0.153
       0.099
       0.054
       0.011
      -0.034
      -0.078
      -0.111
      -0.127
      -0.122
      -0.093
      -0.042
       0.021
       0.085
       0.135
       0.164
       0.169
       0.153
       0.123
       0.085
       0.043
       0.003
      -0.030
      -0.051
      -0.061
      -0.068
      -0.077
      -0.086
      -0.087
      -0.072
      -0.038
       0.006
       0.046
       0.068
       0.070
       0.059
       0.044
       0.032
       0.020
       0.007
      -0.003
      -0.004
       0.005
       0.018
       0.018
      -0.004
      -0.042
      -0.078
      -0.101
      -0.111
      -0.120
      -0.134
      -0.151
      -0.166
      -0.171
      -0.160
      -0.128
      -0.072
       0.004
       0.086
       0.156
       0.201
       0.219
       0.220
       0.213
       0.199
       0.174
       0.136
       0.090
       0.041
      -0.006
      -0.052
      -0.096
      -0.138
      -0.167
      -0.176
      -0.163
      -0.131
      -0.090
      -0.042
       0.012
       0.070
       0.131
       0.189
       0.230
       0.241
       0.218
       0.166
       0.100
       0.028
      -0.047
      -0.122
      -0.195
      -0.255
      -0.290
      -0.294
      -0.272
      -0.241
      -0.215
      -0.194
      -0.175
      -0.152
      -0.130
      -0.117
      -0.116
      -0.119
      -0.113
      -0.088
      -0.051
      -0.017
       0.004
       0.014
       0.024
       0.039
       0.050
       0.044
       0.020
      -0.003
      -0.001
       0.037
       0.092
       0.131
       0.132
       0.098
       0.050
       0.009
      -0.014
      -0.020
      -0.013
       0.007
       0.035
       0.064
       0.080
       0.068
       0.023
      -0.039
      -0.089
      -0.101
      -0.071
      -0.016
       0.041
       0.085
       0.119
       0.152
       0.192
       0.238
       0.278
       0.306
       0.318
       0.308
       0.271
       0.206
       0.121
       0.034
      -0.038
      -0.093
      -0.146
      -0.216
      -0.313
      -0.415
      -0.488
      -0.502
      -0.450
      -0.354
      -0.243
      -0.138
      -0.045
       0.043
       0.131
       0.213
       0.277
       0.314
       0.322
       0.306
       0.275
       0.239
       0.205
       0.174
       0.146
       0.121
       0.097
       0.068
       0.025
      -0.035
      -0.105
      -0.164
      -0.196
      -0.193
      -0.156
      -0.099
      -0.032
       0.032
       0.086
       0.122
       0.138
       0.142
       0.148
       0.166
       0.191
       0.202
       0.180
       0.121
       0.042
      -0.032
      -0.086
      -0.119
      -0.137
      -0.145
      -0.139
      -0.117
      -0.083
      -0.047
      -0.018
       0.002
       0.013
       0.018
       0.016
       0.001
      -0.027
      -0.060
      -0.084
      -0.086
      -0.065
      -0.021
       0.041
       0.112
       0.175
       0.212
       0.214
       0.186
       0.144
       0.104
       0.068
       0.026
      -0.034
      -0.109
      -0.182
      -0.233
      -0.249
      -0.235
      -0.205
      -0.174
      -0.149
      -0.130
      -0.110
      -0.088
      -0.065
      -0.040
      -0.008
       0.034
       0.082
       0.126
       0.154
       0.162
       0.152
       0.137
       0.132
       0.145
       0.174
       0.208
       0.233
       0.237
       0.217
       0.174
       0.112
       0.039
      -0.030
      -0.081
      -0.103
      -0.103
      -0.100
      -0.113
      -0.145
      -0.180
      -0.200
      -0.189
      -0.148
      -0.090
      -0.035
       0.002
       0.016
       0.008
      -0.015
      -0.044
      -0.071
      -0.093
      -0.110
      -0.127
      -0.146
      -0.168
      -0.190
      -0.208
      -0.214
      -0.198
      -0.160
      -0.109
      -0.063
      -0.039
      -0.045
      -0.073
      -0.101
      -0.109
      -0.088
      -0.046
       0.007
       0.061
       0.113
       0.167
       0.223
       0.278
       0.318
       0.329
       0.299
       0.225
       0.117
       0.000
      -0.098
      -0.161
      -0.188
      -0.187
      -0.169
      -0.140
      -0.107
      -0.076
      -0.047
      -0.020
       0.009
       0.044
       0.085
       0.129
       0.172
       0.207
       0.224
       0.213
       0.169
       0.101
       0.025
      -0.045
      -0.111
      -0.182
      -0.259
      -0.330
      -0.371
      -0.367
      -0.315
      -0.236
      -0.157
      -0.098
      -0.051
       0.002
       0.076
       0.164
       0.248
       0.315
       0.374
       0.444
       0.533
       0.626
       0.699
       0.733
       0.729
       0.704
       0.670
       0.636
       0.600
       0.560
       0.519
       0.483
       0.458
       0.445
       0.436
       0.424
       0.406
       0.386
       0.365
       0.337
       0.284
       0.185
       0.031
      -0.167
      -0.380
      -0.589
      -0.790
      -0.989
      -1.185
      -1.358
      -1.484
      -1.555
      -1.586
      -1.604
      -1.625
      -1.647
      -1.656
      -1.642
      -1.600
      -1.532
      -1.436
      -1.303
      -1.120
      -0.884
      -0.597
      -0.270
       0.085
       0.461
       0.857
       1.269
       1.684
       2.081
       2.442
       2.756
       3.011
       3.188
       3.261
       3.211
       3.035
       2.752
       2.393
       1.989
       1.563
       1.128
       0.695
       0.265
      -0.162
      -0.583
      -0.984
      -1.334
      -1.604
      -1.783
      -1.889
      -1.950
      -1.989
      -2.012
      -2.014
      -1.991
      -1.960
      -1.943
      -1.949
      -1.965
      -1.960
      -1.906
      -1.797
      -1.635
      -1.420
      -1.141
      -0.790
      -0.374
       0.080
       0.532
       0.948
       1.314
       1.632
       1.901
       2.100
       2.197
       2.174
       2.046
       1.843
       1.588
       1.292
       0.956
       0.589
       0.219
      -0.112
      -0.366
      -0.522
      -0.579
      -0.541
      -0.419
      -0.225
       0.016
       0.269
       0.495
       0.660
       0.747
       0.755
       0.681
       0.524
       0.285
      -0.019
      -0.363
      -0.726
      -1.085
      -1.420
      -1.709
      -1.928
      -2.051
      -2.053
      -1.918
      -1.648
      -1.258
      -0.774
      -0.231
       0.332
       0.866
       1.326
       1.670
       1.874
       1.932
       1.847
       1.626
       1.285
       0.851
       0.361
      -0.150
      -0.642
      -1.076
      -1.407
      -1.599
      -1.638
      -1.534
      -1.317
      -1.026
      -0.695
      -0.345
       0.007
       0.342
       0.641
       0.888
       1.074
       1.195
       1.254
       1.257
       1.208
       1.105
       0.949
       0.755
       0.552
       0.372
       0.236
       0.149
       0.105
       0.093
       0.100
       0.111
       0.109
       0.080
       0.017
      -0.074
      -0.180
      -0.275
      -0.328
      -0.324
      -0.271
      -0.200
      -0.146
      -0.126
      -0.133
      -0.155
      -0.187
      -0.235
      -0.303
      -0.384
      -0.456
      -0.495
      -0.488
      -0.431
      -0.327
      -0.181
       0.000
       0.198
       0.377
       0.496
       0.526
       0.463
       0.333
       0.172
       0.012
      -0.126
      -0.230
      -0.287
      -0.292
      -0.247
      -0.168
      -0.078
      -0.001
       0.044
       0.056
       0.047
       0.026
      -0.010
      -0.066
      -0.145
      -0.242
      -0.351
      -0.466
      -0.572
      -0.646
      -0.660
      -0.597
      -0.455
      -0.247
       0.005
       0.279
       0.560
       0.833
       1.077
       1.268
       1.381
       1.402
       1.322
       1.139
       0.860
       0.505
       0.110
      -0.283
      -0.643
      -0.954
      -1.209
      -1.403
      -1.518
      -1.536
      -1.450
      -1.272
      -1.026
      -0.734
      -0.419
      -0.104
       0.177
       0.394
       0.528
       0.586
       0.595
       0.582
       0.559
       0.530
       0.490
       0.439
       0.374
       0.292
       0.198
       0.105
       0.032
      -0.009
      -0.018
      -0.008
       0.006
       0.014
       0.017
       0.024
       0.041
       0.062
       0.081
       0.093
       0.096
       0.090
       0.074
       0.053
       0.034
       0.028
       0.041
       0.066
       0.090
       0.101
       0.098
       0.084
       0.064
       0.039
       0.014
      -0.001
       0.003
       0.025
       0.061
       0.100
       0.136
       0.159
       0.169
       0.167
       0.153
       0.128
       0.089
       0.029
      -0.056
      -0.179
      -0.340
      -0.524
      -0.701
      -0.838
      -0.917
      -0.940
      -0.917
      -0.847
      -0.716
      -0.510
      -0.232
       0.083
       0.390
       0.651
       0.844
       0.964
       1.014
       0.997
       0.923
       0.811
       0.681
       0.542
       0.382
       0.174
      -0.096
      -0.409
      -0.709
      -0.933
      -1.036
      -1.008
      -0.867
      -0.645
      -0.372
      -0.073
       0.229
       0.516
       0.769
       0.974
       1.117
       1.186
       1.176
       1.093
       0.949
       0.766
       0.565
       0.358
       0.145
      -0.083
      -0.328
      -0.578
      -0.812
      -1.010
      -1.158
      -1.244
      -1.254
      -1.178
      -1.020
      -0.799
      -0.548
      -0.302
      -0.075
       0.135
       0.342
       0.544
       0.721
       0.844
       0.886
       0.835
       0.690
       0.467
       0.185
      -0.132
      -0.456
      -0.759
      -1.010
      -1.175
      -1.228
      -1.162
      -0.987
      -0.731
      -0.422
      -0.088
       0.239
       0.527
       0.747
       0.887
       0.949
       0.935
       0.842
       0.664
       0.408
       0.099
      -0.217
      -0.490
      -0.685
      -0.791
      -0.808
      -0.735
      -0.561
      -0.277
       0.105
       0.547
       0.988
       1.368
       1.640
       1.780
       1.782
       1.647
       1.388
       1.024
       0.588
       0.115
      -0.358
      -0.788
      -1.133
      -1.357
      -1.452
      -1.431
      -1.319
      -1.143
      -0.922
      -0.666
      -0.385
      -0.088
       0.210
       0.487
       0.713
       0.850
       0.872
       0.773
       0.569
       0.294
      -0.011
      -0.310
      -0.574
      -0.782
      -0.919
      -0.969
      -0.928
      -0.812
      -0.653
      -0.480
      -0.306
      -0.124
       0.087
       0.337
       0.616
       0.892
       1.126
       1.290
       1.363
       1.328
       1.169
       0.878
       0.477
       0.019
      -0.425
      -0.797
      -1.064
      -1.221
      -1.273
      -1.225
      -1.084
      -0.871
      -0.625
      -0.386
      -0.170
       0.030
       0.234
       0.447
       0.648
       0.795
       0.854
       0.814
       0.694
       0.525
       0.337
       0.146
      -0.038
      -0.204
      -0.338
      -0.429
      -0.480
