Origin Time       21/9/2009 8:53:04	 
Lat.              27.3 N	
Long.             91.5 E	
Depth (Km)          8.0
Magnitude         6.2
 Region           BHUTAN                                                           
 Above details taken from IMD 
     
Station Code      LKH
Station Lat.       27.239  N
Station Long.      94.107  E
Station Height(m)   95.0
Site Class        C   Vs30 between 200 m/sec to 375 m/sec *  
Record Time       21.09.2009 08:54:07.039
Sampling Rate     200. Hz
 Record Duration   74.060 Sec.
 Direction         E-W (E positive)
Max. Acceleration      6.342 cm/sec**2
     
  * For reference see Site Classification link of website 
     
 Base Line Corrected and Low Pass Filtered (Cut Off at 35 Hz) Time History
 Acceleration data in cm/sec**2
    
[...]
      -1.698
      -1.810
      -1.904
      -1.979
      -2.028
      -2.036
      -1.992
      -1.892
      -1.742
      -1.553
      -1.335
      -1.095
      -0.847
      -0.616
      -0.425
      -0.288
      -0.211
      -0.190
      -0.208
      -0.244
      -0.284
      -0.329
      -0.376
      -0.420
      -0.446
      -0.446
      -0.412
      -0.341
      -0.231
      -0.085
       0.088
       0.274
       0.459
       0.636
       0.809
       0.992
       1.198
       1.427
       1.665
       1.898
       2.113
       2.302
       2.457
       2.572
       2.635
       2.634
       2.565
       2.437
       2.266
       2.061
       1.826
       1.567
       1.292
       1.007
       0.726
       0.467
       0.244
       0.062
      -0.085
      -0.207
      -0.312
      -0.409
      -0.507
      -0.609
      -0.714
      -0.819
      -0.917
      -1.000
      -1.063
      -1.108
      -1.143
      -1.170
      -1.188
      -1.192
      -1.175
      -1.136
      -1.078
      -1.011
      -0.945
      -0.885
      -0.828
      -0.769
      -0.704
      -0.629
      -0.545
      -0.454
      -0.363
      -0.276
      -0.191
      -0.105
      -0.021
       0.060
       0.136
       0.204
       0.257
       0.287
       0.292
       0.276
       0.245
       0.200
       0.139
       0.058
      -0.049
      -0.185
      -0.345
      -0.517
      -0.694
      -0.871
      -1.046
      -1.217
      -1.376
      -1.515
      -1.621
      -1.680
      -1.686
      -1.643
      -1.557
      -1.427
      -1.250
      -1.026
      -0.766
      -0.485
      -0.199
       0.080
       0.348
       0.601
       0.838
       1.057
       1.261
       1.457
       1.645
       1.823
       1.981
       2.107
       2.198
       2.258
       2.301
       2.338
       2.371
       2.390
       2.389
       2.373
       2.353
       2.326
       2.279
       2.201
       2.093
       1.962
       1.818
       1.668
       1.525
       1.392
       1.267
       1.141
       1.007
       0.861
       0.708
       0.553
       0.404
       0.272
       0.166
       0.095
       0.058
       0.054
       0.074
       0.108
       0.143
       0.170
       0.191
       0.211
       0.236
       0.264
       0.286
       0.289
       0.266
       0.210
       0.119
      -0.001
      -0.137
      -0.274
      -0.400
      -0.510
      -0.607
      -0.693
      -0.772
      -0.844
      -0.903
      -0.951
      -0.989
      -1.025
      -1.075
      -1.150
      -1.260
      -1.409
      -1.598
      -1.821
      -2.058
      -2.285
      -2.478
      -2.622
      -2.717
      -2.758
      -2.742
      -2.660
      -2.511
      -2.294
      -2.011
      -1.671
      -1.287
      -0.875
      -0.458
      -0.066
       0.268
       0.522
       0.698
       0.811
       0.873
       0.888
       0.860
       0.797
       0.718
       0.639
       0.573
       0.531
       0.522
       0.542
       0.578
       0.620
       0.661
       0.697
       0.720
       0.717
       0.680
       0.616
       0.535
       0.442
       0.344
       0.248
       0.172
       0.129
       0.129
       0.169
       0.238
       0.318
       0.392
       0.449
       0.485
       0.509
       0.526
       0.539
       0.551
       0.573
       0.620
       0.705
       0.827
       0.969
       1.107
       1.212
       1.269
       1.271
       1.219
       1.116
       0.965
       0.770
       0.543
       0.292
       0.029
      -0.245
      -0.531
      -0.829
      -1.127
      -1.403
      -1.635
      -1.808
      -1.924
      -1.995
      -2.036
      -2.058
      -2.074
      -2.092
      -2.120
      -2.162
      -2.213
      -2.268
      -2.323
      -2.375
      -2.423
      -2.471
      -2.523
      -2.582
      -2.639
      -2.668
      -2.644
      -2.547
      -2.375
      -2.134
      -1.831
      -1.475
      -1.068
      -0.613
      -0.120
       0.394
       0.896
       1.354
       1.749
       2.080
       2.363
       2.612
       2.830
       3.016
       3.167
       3.286
       3.376
       3.433
       3.447
       3.412
       3.327
       3.195
       3.022
       2.814
       2.587
       2.359
       2.150
       1.972
       1.823
       1.688
       1.547
       1.385
       1.194
       0.981
       0.765
       0.569
       0.410
       0.293
       0.213
       0.159
       0.126
       0.105
       0.083
       0.042
      -0.031
      -0.133
      -0.251
      -0.377
      -0.514
      -0.669
      -0.843
      -1.019
      -1.175
      -1.287
      -1.337
      -1.312
      -1.204
      -1.019
      -0.771
      -0.480
      -0.166
       0.145
       0.427
       0.654
       0.809
       0.886
       0.890
       0.830
       0.717
       0.563
       0.387
       0.218
       0.085
       0.008
      -0.015
       0.002
       0.047
       0.112
       0.198
       0.302
       0.419
       0.533
       0.627
       0.682
       0.690
       0.650
       0.560
       0.423
       0.240
       0.015
      -0.240
      -0.507
      -0.767
      -1.005
      -1.215
      -1.400
      -1.563
      -1.710
      -1.844
      -1.965
      -2.067
      -2.139
      -2.168
      -2.147
      -2.077
      -1.964
      -1.822
      -1.669
      -1.520
      -1.386
      -1.267
      -1.163
      -1.075
      -1.006
      -0.960
      -0.935
      -0.927
      -0.926
      -0.918
      -0.887
      -0.818
      -0.702
      -0.540
      -0.343
      -0.127
       0.093
       0.307
       0.500
       0.655
       0.755
       0.797
       0.783
       0.715
       0.594
       0.427
       0.232
       0.033
      -0.153
      -0.318
      -0.451
      -0.536
      -0.567
      -0.552
      -0.516
      -0.481
      -0.459
      -0.452
      -0.457
      -0.471
      -0.484
      -0.493
      -0.495
      -0.489
      -0.469
      -0.421
      -0.336
      -0.213
      -0.063
       0.099
       0.256
       0.400
       0.530
       0.643
       0.736
       0.801
       0.835
       0.844
       0.842
       0.846
       0.865
       0.895
       0.929
       0.963
       1.006
       1.071
       1.160
       1.267
       1.382
       1.491
       1.576
       1.620
       1.607
       1.525
       1.368
       1.134
       0.836
       0.492
       0.124
      -0.256
      -0.639
      -1.010
      -1.350
      -1.641
      -1.873
      -2.051
      -2.186
      -2.289
      -2.359
      -2.385
      -2.351
      -2.250
      -2.079
      -1.838
      -1.526
      -1.148
      -0.722
      -0.275
       0.166
       0.585
       0.974
       1.333
       1.660
       1.947
       2.186
       2.372
       2.500
       2.563
       2.552
       2.466
       2.317
       2.130
       1.936
       1.756
       1.600
       1.467
       1.358
       1.270
       1.196
       1.119
       1.020
       0.882
       0.701
       0.478
       0.215
      -0.083
      -0.411
      -0.757
      -1.097
      -1.408
      -1.674
      -1.897
      -2.087
      -2.251
      -2.393
      -2.510
      -2.599
      -2.665
      -2.715
      -2.750
      -2.763
      -2.732
      -2.641
      -2.489
      -2.288
      -2.044
      -1.758
      -1.429
      -1.071
      -0.706
      -0.351
      -0.014
       0.296
       0.569
       0.801
       0.991
       1.138
       1.240
       1.286
       1.269
       1.194
       1.075
       0.930
       0.773
       0.611
       0.452
       0.302
       0.174
       0.085
       0.048
       0.070
       0.147
       0.267
       0.418
       0.593
       0.786
       0.984
       1.161
       1.287
       1.344
       1.334
       1.270
       1.162
       1.025
       0.877
       0.742
       0.644
       0.589
       0.576
       0.601
       0.655
       0.737
       0.853
       1.009
       1.204
       1.415
       1.609
       1.761
       1.865
       1.920
       1.920
       1.852
       1.714
       1.524
       1.301
       1.054
       0.775
       0.454
       0.091
      -0.304
      -0.709
      -1.098
      -1.442
      -1.719
      -1.925
      -2.068
      -2.154
      -2.183
      -2.154
      -2.079
      -1.977
      -1.858
      -1.721
      -1.564
      -1.392
      -1.214
      -1.033
      -0.846
      -0.649
      -0.435
      -0.195
       0.075
       0.361
       0.634
       0.873
       1.071
       1.227
       1.329
       1.360
       1.317
       1.213
       1.071
       0.910
       0.741
       0.570
       0.398
       0.228
       0.065
      -0.078
      -0.195
      -0.287
      -0.361
      -0.424
      -0.482
      -0.539
      -0.605
      -0.679
      -0.751
      -0.805
      -0.833
      -0.846
      -0.856
      -0.868
      -0.873
      -0.865
      -0.845
      -0.821
      -0.802
      -0.791
      -0.784
      -0.772
      -0.750
      -0.716
      -0.671
      -0.606
      -0.508
      -0.376
      -0.229
      -0.100
      -0.008
       0.050
       0.085
       0.103
       0.101
       0.064
      -0.015
      -0.132
      -0.265
      -0.396
      -0.521
      -0.648
      -0.785
      -0.922
      -1.040
      -1.128
      -1.187
      -1.227
      -1.260
      -1.286
      -1.307
      -1.322
      -1.336
      -1.348
      -1.351
      -1.329
      -1.271
      -1.181
      -1.078
      -0.981
      -0.902
      -0.839
      -0.789
      -0.753
      -0.737
      -0.740
      -0.751
      -0.752
      -0.733
      -0.700
      -0.662
      -0.626
      -0.592
      -0.560
      -0.532
      -0.518
      -0.527
      -0.563
      -0.609
      -0.644
      -0.657
      -0.653
      -0.651
      -0.661
      -0.679
      -0.696
      -0.708
      -0.723
      -0.760
      -0.828
      -0.919
      -1.010
      -1.070
      -1.080
      -1.038
      -0.950
      -0.820
      -0.644
      -0.416
      -0.135
       0.185
       0.518
       0.837
       1.127
       1.397
       1.670
       1.964
       2.279
       2.600
       2.911
       3.199
       3.463
       3.708
       3.934
       4.137
       4.300
       4.411
       4.471
       4.489
       4.469
       4.406
       4.292
       4.125
       3.912
       3.667
       3.407
       3.145
       2.889
       2.637
       2.381
       2.122
       1.865
       1.617
       1.377
       1.138
       0.885
       0.608
       0.310
       0.006
      -0.285
      -0.551
      -0.791
      -1.002
      -1.179
      -1.315
      -1.415
      -1.499
      -1.587
      -1.688
      -1.793
      -1.884
      -1.949
      -1.989
      -2.013
      -2.037
      -2.068
      -2.114
      -2.180
      -2.279
      -2.418
      -2.595
      -2.799
      -3.009
      -3.203
      -3.359
      -3.463
      -3.511
      -3.514
      -3.480
      -3.415
      -3.317
      -3.193
      -3.061
      -2.946
      -2.857
      -2.785
      -2.710
      -2.616
      -2.503
      -2.375
      -2.228
      -2.049
      -1.826
      -1.567
      -1.296
      -1.036
      -0.793
      -0.560
      -0.329
      -0.109
       0.088
       0.254
       0.393
       0.515
       0.628
       0.736
       0.845
       0.955
       1.060
       1.143
       1.192
       1.204
       1.185
       1.146
       1.092
       1.031
       0.967
       0.900
       0.825
       0.740
       0.650
       0.569
       0.516
       0.498
       0.496
       0.485
       0.443
       0.368
       0.262
       0.127
      -0.035
      -0.208
      -0.362
      -0.470
      -0.524
      -0.532
      -0.507
      -0.460
      -0.389
      -0.297
      -0.193
      -0.091
      -0.001
       0.071
       0.127
       0.166
       0.190
       0.197
       0.188
       0.159
       0.113
       0.061
       0.008
      -0.047
      -0.110
      -0.186
      -0.268
      -0.348
      -0.420
      -0.483
      -0.537
      -0.573
      -0.572
      -0.519
      -0.400
      -0.214
       0.043
       0.369
       0.759
       1.192
       1.638
       2.069
       2.468
       2.826
       3.135
       3.389
       3.576
       3.697
       3.766
       3.811
       3.855
       3.905
       3.953
       3.990
       4.022
       4.060
       4.104
       4.131
       4.114
       4.036
       3.901
       3.721
       3.498
       3.221
       2.885
       2.504
       2.107
       1.722
       1.364
       1.033
       0.725
       0.440
       0.181
      -0.049
      -0.261
      -0.472
      -0.693
      -0.916
      -1.130
      -1.326
      -1.511
      -1.698
      -1.891
      -2.087
      -2.281
      -2.473
      -2.661
      -2.838
      -2.996
      -3.124
      -3.215
      -3.265
      -3.276
      -3.249
      -3.195
      -3.130
      -3.075
      -3.049
      -3.058
      -3.097
      -3.157
      -3.231
      -3.301
      -3.345
      -3.337
      -3.268
      -3.142
      -2.967
      -2.748
      -2.494
      -2.227
      -1.978
      -1.771
      -1.609
      -1.478
      -1.365
      -1.275
      -1.211
      -1.156
      -1.070
      -0.920
      -0.705
      -0.458
      -0.212
       0.020
       0.243
       0.466
       0.682
       0.871
       1.018
       1.131
       1.231
       1.339
       1.455
       1.569
       1.681
       1.802
       1.946
       2.116
       2.310
       2.532
       2.789
       3.080
       3.392
       3.704
       4.005
       4.290
       4.553
       4.789
       4.997
       5.191
       5.386
       5.583
       5.772
       5.938
       6.078
       6.191
       6.278
       6.332
       6.342
       6.302
       6.221
       6.113
       5.985
       5.828
       5.632
       5.393
       5.114
       4.796
       4.431
       4.016
       3.570
       3.122
       2.691
       2.285
       1.905
       1.556
       1.240
       0.951
       0.674
       0.398
       0.118
      -0.167
      -0.465
      -0.788
      -1.140
      -1.511
      -1.881
      -2.235
      -2.566
      -2.874
      -3.156
      -3.412
      -3.644
      -3.855
      -4.048
      -4.212
      -4.342
      -4.440
      -4.526
      -4.621
      -4.738
      -4.882
      -5.052
      -5.244
      -5.449
      -5.654
      -5.842
      -6.004
      -6.132
      -6.219
      -6.253
      -6.237
      -6.180
      -6.093
      -5.975
      -5.817
      -5.618
      -5.396
      -5.170
      -4.949
      -4.727
      -4.493
      -4.247
      -3.994
      -3.740
      -3.482
      -3.216
      -2.938
      -2.643
      -2.326
      -1.982
      -1.614
      -1.230
      -0.839
      -0.443
      -0.040
       0.366
       0.768
       1.162
       1.551
       1.930
       2.284
       2.595
       2.850
       3.052
       3.213
       3.346
       3.460
       3.563
       3.656
       3.738
       3.804
       3.856
       3.903
       3.954
       4.013
       4.069
       4.112
       4.138
       4.146
       4.135
       4.110
       4.078
       4.046
       4.012
       3.966
       3.904
       3.838
       3.779
       3.726
       3.666
       3.596
       3.511
       3.404
       3.265
       3.091
       2.891
       2.667
       2.414
       2.124
       1.803
       1.472
       1.141
       0.812
       0.487
       0.173
      -0.122
      -0.403
      -0.687
      -0.989
      -1.313
      -1.650
      -1.989
      -2.318
      -2.626
      -2.904
      -3.147
      -3.353
      -3.526
      -3.661
      -3.748
      -3.777
      -3.745
      -3.657
      -3.514
      -3.315
      -3.059
      -2.748
      -2.386
      -1.977
      -1.535
      -1.075
      -0.617
      -0.178
       0.236
       0.622
       0.982
       1.322
       1.654
       1.988
       2.328
       2.666
       2.990
       3.291
       3.565
       3.804
       3.998
       4.141
       4.231
       4.268
       4.243
       4.153
       3.999
       3.783
       3.503
       3.156
       2.753
       2.316
       1.868
       1.427
       1.010
       0.636
       0.320
       0.063
      -0.144
      -0.312
      -0.446
      -0.550
      -0.627
      -0.681
      -0.712
      -0.717
      -0.701
      -0.673
      -0.643
      -0.620
      -0.606
      -0.601
      -0.604
      -0.616
      -0.637
      -0.669
      -0.713
      -0.765
      -0.819
      -0.866
      -0.899
      -0.914
      -0.907
      -0.879
      -0.836
      -0.781
      -0.708
      -0.614
      -0.505
      -0.403
      -0.325
      -0.270
      -0.234
      -0.216
      -0.230
      -0.292
      -0.413
      -0.594
      -0.821
      -1.075
      -1.334
      -1.591
      -1.845
      -2.092
      -2.315
      -2.503
      -2.657
      -2.782
      -2.876
      -2.922
      -2.907
      -2.828
      -2.691
      -2.505
      -2.283
      -2.039
      -1.786
      -1.532
      -1.287
      -1.065
      -0.876
      -0.716
      -0.575
      -0.453
      -0.358
      -0.292
      -0.252
      -0.229
      -0.224
      -0.236
      -0.262
      -0.294
      -0.328
      -0.355
      -0.361
      -0.326
      -0.249
      -0.145
      -0.035
       0.066
       0.151
       0.213
       0.244
       0.238
       0.187
       0.081
      -0.083
      -0.284
      -0.497
      -0.710
      -0.915
      -1.100
      -1.241
      -1.323
      -1.346
      -1.318
      -1.246
      -1.134
      -0.992
      -0.825
      -0.631
      -0.412
      -0.177
       0.062
       0.297
       0.523
       0.733
       0.918
       1.076
       1.203
       1.296
       1.345
       1.345
       1.290
       1.178
       1.016
       0.825
       0.633
       0.464
       0.335
       0.259
       0.244
       0.283
       0.359
       0.453
       0.554
       0.648
       0.717
       0.746
       0.736
       0.697
       0.636
       0.556
       0.461
       0.353
       0.234
       0.108
      -0.015
      -0.123
      -0.206
      -0.259
      -0.270
      -0.228
      -0.131
       0.007
       0.168
       0.341
       0.526
       0.722
       0.925
       1.136
       1.362
       1.607
       1.866
       2.130
       2.391
       2.645
       2.876
       3.067
       3.208
       3.294
       3.318
       3.267
       3.139
       2.952
       2.736
       2.505
       2.258
       1.993
       1.721
       1.461
       1.221
       1.000
       0.785
       0.569
       0.346
       0.128
      -0.069
      -0.240
      -0.405
      -0.587
      -0.793
      -1.005
      -1.204
      -1.389
      -1.572
      -1.755
      -1.924
      -2.061
      -2.157
      -2.218
      -2.261
      -2.295
      -2.319
      -2.330
      -2.329
      -2.323
      -2.317
      -2.311
      -2.306
      -2.301
      -2.295
      -2.286
      -2.284
      -2.303
      -2.344
      -2.396
      -2.460
      -2.554
      -2.698
      -2.883
      -3.072
      -3.224
      -3.318
      -3.356
      -3.344
      -3.283
      -3.183
      -3.061
      -2.937
      -2.823
      -2.723
      -2.636
      -2.555
      -2.464
      -2.349
      -2.211
      -2.068
      -1.934
      -1.808
      -1.675
      -1.534
      -1.403
      -1.300
      -1.224
      -1.160
      -1.095
      -1.035
      -1.006
      -1.020
      -1.066
      -1.112
      -1.125
      -1.096
      -1.032
      -0.947
      -0.849
      -0.744
      -0.635
      -0.530
      -0.433
      -0.348
      -0.279
      -0.224
      -0.176
      -0.125
