Origin Time       30/8/2009 19:27:44	
Lat.              25.4 N	
Long.             94.8 E	
Depth (Km)         85.0
Magnitude         5.3
 Region           MYANMAR-India-Manipuir-Border                                    
 Above details taken from IMD 
   
Station Code      LKH
Station Lat.       27.239
Station Long.      94.107
Station Height(m)   95.0
Site Class        C   Vs30 between 200 m/sec to 375 m/sec *  
Record Time       30.08.2009 19:28:33.764
Sampling Rate     200. Hz
 Record Duration   65.505 Sec.
 Direction         Vert. (Up positive)
Max. Acceleration      3.033 cm/sec**2
     
  * For reference see Site Classification link of website 
     
 Base Line Corrected and Low Pass Filtered (Cut Off at 35 Hz) Time History
 Acceleration data in cm/sec**2
    
[...]
       0.088
       0.347
       0.572
       0.660
       0.558
       0.327
       0.104
      -0.001
       0.013
       0.047
      -0.005
      -0.165
      -0.346
      -0.432
      -0.365
      -0.196
      -0.043
       0.003
      -0.052
      -0.105
      -0.039
       0.178
       0.455
       0.648
       0.658
       0.487
       0.209
      -0.095
      -0.360
      -0.542
      -0.616
      -0.585
      -0.484
      -0.362
      -0.249
      -0.136
       0.004
       0.170
       0.311
       0.363
       0.301
       0.168
       0.045
      -0.001
       0.031
       0.075
       0.047
      -0.078
      -0.225
      -0.280
      -0.186
      -0.006
       0.131
       0.139
       0.048
      -0.017
       0.056
       0.272
       0.526
       0.688
       0.684
       0.521
       0.253
      -0.062
      -0.370
      -0.618
      -0.756
      -0.760
      -0.642
      -0.444
      -0.202
       0.067
       0.359
       0.655
       0.897
       1.009
       0.933
       0.667
       0.278
      -0.126
      -0.447
      -0.641
      -0.713
      -0.688
      -0.572
      -0.364
      -0.084
       0.220
       0.490
       0.685
       0.775
       0.735
       0.556
       0.262
      -0.077
      -0.359
      -0.498
      -0.477
      -0.363
      -0.258
      -0.228
      -0.264
      -0.309
      -0.320
      -0.296
      -0.262
      -0.241
      -0.241
      -0.254
      -0.256
      -0.208
      -0.071
       0.151
       0.387
       0.536
       0.532
       0.394
       0.200
       0.025
      -0.094
      -0.155
      -0.152
      -0.065
       0.114
       0.350
       0.561
       0.656
       0.590
       0.395
       0.159
      -0.033
      -0.152
      -0.223
      -0.275
      -0.287
      -0.211
      -0.034
       0.191
       0.366
       0.421
       0.350
       0.208
       0.065
      -0.047
      -0.148
      -0.262
      -0.382
      -0.453
      -0.423
      -0.294
      -0.126
       0.008
       0.076
       0.092
       0.077
       0.011
      -0.147
      -0.387
      -0.617
      -0.707
      -0.597
      -0.351
      -0.106
       0.041
       0.095
       0.136
       0.232
       0.379
       0.514
       0.575
       0.536
       0.415
       0.253
       0.089
      -0.063
      -0.211
      -0.362
      -0.484
      -0.524
      -0.451
      -0.298
      -0.128
       0.019
       0.142
       0.246
       0.313
       0.307
       0.214
       0.067
      -0.071
      -0.154
      -0.164
      -0.099
       0.049
       0.271
       0.518
       0.709
       0.784
       0.730
       0.569
       0.345
       0.112
      -0.068
      -0.159
      -0.160
      -0.104
      -0.032
       0.025
       0.053
       0.047
      -0.008
      -0.118
      -0.252
      -0.351
      -0.370
      -0.320
      -0.256
      -0.230
      -0.244
      -0.254
      -0.207
      -0.080
       0.088
       0.209
       0.198
       0.045
      -0.158
      -0.271
      -0.214
      -0.044
       0.089
       0.079
      -0.046
      -0.152
      -0.132
       0.008
       0.167
       0.245
       0.221
       0.158
       0.139
       0.193
       0.266
       0.272
       0.166
      -0.015
      -0.183
      -0.272
      -0.276
      -0.233
      -0.165
      -0.060
       0.088
       0.231
       0.291
       0.241
       0.138
       0.072
       0.074
       0.090
       0.047
      -0.067
      -0.181
      -0.206
      -0.125
      -0.029
      -0.040
      -0.205
      -0.444
      -0.609
      -0.592
      -0.402
      -0.146
       0.055
       0.151
       0.181
       0.229
       0.337
       0.462
       0.515
       0.449
       0.315
       0.213
       0.189
       0.182
       0.086
      -0.134
      -0.395
      -0.565
      -0.577
      -0.478
      -0.368
      -0.312
      -0.307
      -0.306
      -0.263
      -0.159
      -0.008
       0.133
       0.196
       0.153
       0.051
      -0.025
      -0.035
      -0.011
      -0.015
      -0.074
      -0.169
      -0.265
      -0.325
      -0.320
      -0.232
      -0.061
       0.156
       0.359
       0.484
       0.496
       0.411
       0.283
       0.166
       0.078
      -0.013
      -0.141
      -0.298
      -0.424
      -0.456
      -0.377
      -0.231
      -0.081
       0.047
       0.185
       0.378
       0.604
       0.747
       0.670
       0.342
      -0.118
      -0.516
      -0.723
      -0.743
      -0.679
      -0.628
      -0.599
      -0.514
      -0.287
       0.090
       0.518
       0.849
       0.977
       0.900
       0.699
       0.463
       0.237
       0.029
      -0.152
      -0.284
      -0.355
      -0.382
      -0.390
      -0.391
      -0.380
      -0.345
      -0.281
      -0.180
      -0.035
       0.148
       0.342
       0.505
       0.584
       0.537
       0.360
       0.121
      -0.063
      -0.097
       0.005
       0.123
       0.122
      -0.031
      -0.244
      -0.372
      -0.321
      -0.113
       0.144
       0.340
       0.434
       0.465
       0.497
       0.555
       0.599
       0.564
       0.409
       0.156
      -0.125
      -0.366
      -0.533
      -0.630
      -0.668
      -0.650
      -0.574
      -0.447
      -0.284
      -0.103
       0.070
       0.199
       0.246
       0.193
       0.061
      -0.110
      -0.274
      -0.400
      -0.465
      -0.452
      -0.353
      -0.179
       0.041
       0.268
       0.469
       0.617
       0.682
       0.640
       0.502
       0.325
       0.168
       0.046
      -0.079
      -0.234
      -0.385
      -0.462
      -0.429
      -0.330
      -0.248
      -0.236
      -0.278
      -0.299
      -0.231
      -0.060
       0.155
       0.322
       0.372
       0.304
       0.194
       0.146
       0.201
       0.302
       0.344
       0.272
       0.122
      -0.030
      -0.147
      -0.236
      -0.301
      -0.313
      -0.236
      -0.079
       0.095
       0.223
       0.291
       0.342
       0.419
       0.511
       0.548
       0.461
       0.251
       0.006
      -0.159
      -0.189
      -0.142
      -0.141
      -0.267
      -0.478
      -0.629
      -0.601
      -0.396
      -0.129
       0.083
       0.212
       0.305
       0.408
       0.500
       0.494
       0.311
      -0.039
      -0.434
      -0.719
      -0.802
      -0.712
      -0.544
      -0.372
      -0.212
      -0.046
       0.121
       0.247
       0.294
       0.274
       0.243
       0.234
       0.213
       0.102
      -0.119
      -0.370
      -0.526
      -0.524
      -0.401
      -0.240
      -0.082
       0.100
       0.337
       0.606
       0.818
       0.882
       0.760
       0.485
       0.132
      -0.222
      -0.522
      -0.739
      -0.850
      -0.809
      -0.560
      -0.096
       0.472
       0.925
       1.061
       0.837
       0.396
      -0.041
      -0.339
      -0.504
      -0.612
      -0.692
      -0.692
      -0.532
      -0.194
       0.243
       0.646
       0.904
       0.973
       0.867
       0.607
       0.210
      -0.276
      -0.741
      -1.046
      -1.101
      -0.928
      -0.636
      -0.331
      -0.046
       0.265
       0.634
       1.003
       1.208
       1.098
       0.663
       0.084
      -0.386
      -0.600
      -0.607
      -0.585
      -0.658
      -0.775
      -0.767
      -0.520
      -0.113
       0.227
       0.318
       0.186
       0.025
       0.014
       0.157
       0.304
       0.313
       0.185
       0.046
       0.004
       0.046
       0.068
      -0.005
      -0.133
      -0.206
      -0.170
      -0.092
      -0.095
      -0.229
      -0.399
      -0.429
      -0.210
       0.205
       0.639
       0.917
       0.979
       0.879
       0.707
       0.509
       0.286
       0.027
      -0.241
      -0.457
      -0.562
      -0.546
      -0.463
      -0.384
      -0.345
      -0.326
      -0.290
      -0.234
      -0.194
      -0.206
      -0.265
      -0.326
      -0.324
      -0.219
      -0.013
       0.238
       0.445
       0.526
       0.444
       0.215
      -0.108
      -0.451
      -0.723
      -0.836
      -0.732
      -0.425
      -0.005
       0.384
       0.618
       0.651
       0.538
       0.391
       0.299
       0.265
       0.224
       0.110
      -0.075
      -0.259
      -0.360
      -0.348
      -0.254
      -0.131
      -0.006
       0.128
       0.277
       0.415
       0.503
       0.525
       0.507
       0.489
       0.477
       0.439
       0.340
       0.182
       0.003
      -0.146
      -0.244
      -0.303
      -0.350
      -0.392
      -0.395
      -0.309
      -0.133
       0.053
       0.139
       0.094
       0.005
       0.001
       0.122
       0.277
       0.341
       0.277
       0.167
       0.123
       0.176
       0.252
       0.234
       0.063
      -0.206
      -0.440
      -0.520
      -0.425
      -0.250
      -0.138
      -0.174
      -0.329
      -0.483
      -0.511
      -0.355
      -0.053
       0.296
       0.573
       0.689
       0.614
       0.387
       0.087
      -0.201
      -0.415
      -0.528
      -0.554
      -0.515
      -0.435
      -0.337
      -0.255
      -0.214
      -0.203
      -0.167
      -0.049
       0.158
       0.399
       0.587
       0.644
       0.536
       0.282
      -0.053
      -0.394
      -0.684
      -0.898
      -1.017
      -1.007
      -0.832
      -0.493
      -0.046
       0.423
       0.844
       1.181
       1.409
       1.485
       1.355
       1.008
       0.525
       0.053
      -0.277
      -0.428
      -0.449
      -0.411
      -0.363
      -0.336
      -0.346
      -0.382
      -0.400
      -0.356
      -0.249
      -0.134
      -0.082
      -0.102
      -0.115
      -0.019
       0.192
       0.369
       0.309
      -0.045
      -0.512
      -0.794
      -0.718
      -0.366
       0.022
       0.254
       0.304
       0.270
       0.241
       0.216
       0.134
      -0.043
      -0.272
      -0.451
      -0.486
      -0.354
      -0.117
       0.137
       0.354
       0.533
       0.665
       0.689
       0.541
       0.251
      -0.033
      -0.155
      -0.091
       0.031
       0.063
      -0.034
      -0.176
      -0.257
      -0.260
      -0.287
      -0.478
      -0.873
      -1.317
      -1.530
      -1.312
      -0.716
      -0.007
       0.561
       0.933
       1.233
       1.574
       1.909
       2.060
       1.871
       1.332
       0.572
      -0.232
      -0.936
      -1.462
      -1.785
      -1.913
      -1.867
      -1.660
      -1.307
      -0.846
      -0.353
       0.092
       0.441
       0.705
       0.927
       1.123
       1.253
       1.243
       1.045
       0.673
       0.197
      -0.297
      -0.738
      -1.071
      -1.252
      -1.256
      -1.084
      -0.765
      -0.337
       0.163
       0.674
       1.088
       1.272
       1.141
       0.736
       0.208
      -0.261
      -0.548
      -0.619
      -0.496
      -0.221
       0.165
       0.603
       0.999
       1.236
       1.222
       0.940
       0.459
      -0.106
      -0.652
      -1.086
      -1.312
      -1.236
      -0.837
      -0.218
       0.426
       0.919
       1.196
       1.292
       1.245
       1.031
       0.595
      -0.055
      -0.782
      -1.358
      -1.586
      -1.421
      -0.984
      -0.462
       0.023
       0.470
       0.946
       1.449
       1.827
       1.838
       1.324
       0.361
      -0.759
      -1.692
      -2.225
      -2.341
      -2.141
      -1.720
      -1.101
      -0.276
       0.703
       1.662
       2.365
       2.632
       2.428
       1.841
       0.993
      -0.006
      -1.032
      -1.912
      -2.453
      -2.530
      -2.159
      -1.494
      -0.738
      -0.041
       0.556
       1.073
       1.495
       1.738
       1.701
       1.361
       0.830
       0.314
      -0.009
      -0.119
      -0.164
      -0.329
      -0.658
      -1.010
      -1.181
      -1.070
      -0.751
      -0.377
      -0.045
       0.263
       0.631
       1.098
       1.608
       2.043
       2.298
       2.318
       2.096
       1.653
       1.034
       0.282
      -0.557
      -1.413
      -2.163
      -2.635
      -2.678
      -2.239
      -1.411
      -0.392
       0.570
       1.252
       1.507
       1.319
       0.801
       0.149
      -0.450
      -0.882
      -1.103
      -1.094
      -0.848
      -0.403
       0.103
       0.469
       0.530
       0.255
      -0.250
      -0.831
      -1.365
      -1.777
      -2.019
      -2.048
      -1.817
      -1.293
      -0.488
       0.510
       1.525
       2.321
       2.684
       2.518
       1.900
       1.045
       0.197
      -0.479
      -0.936
      -1.190
      -1.251
      -1.084
      -0.644
       0.049
       0.863
       1.573
       1.970
       1.967
       1.643
       1.184
       0.767
       0.450
       0.169
      -0.173
      -0.559
      -0.822
      -0.752
      -0.294
       0.358
       0.853
       0.906
       0.474
      -0.241
      -0.916
      -1.282
      -1.220
      -0.786
      -0.153
       0.464
       0.906
       1.118
       1.134
       1.008
       0.758
       0.369
      -0.159
      -0.766
      -1.342
      -1.762
      -1.926
      -1.786
      -1.366
      -0.761
      -0.116
       0.418
       0.737
       0.787
       0.557
       0.055
      -0.672
      -1.501
      -2.215
      -2.564
      -2.397
      -1.748
      -0.804
       0.215
       1.169
       1.998
       2.652
       3.033
       3.002
       2.471
       1.486
       0.269
      -0.853
      -1.593
      -1.842
      -1.668
      -1.189
      -0.456
       0.509
       1.574
       2.450
       2.821
       2.552
       1.761
       0.724
      -0.284
      -1.087
      -1.608
      -1.809
      -1.670
      -1.219
      -0.586
       0.003
       0.342
       0.383
       0.264
       0.183
       0.239
       0.364
       0.409
       0.294
       0.084
      -0.061
      -0.037
       0.095
       0.159
       0.045
      -0.173
      -0.302
      -0.214
       0.037
       0.280
       0.377
       0.319
       0.191
       0.073
      -0.015
      -0.103
      -0.217
      -0.350
      -0.475
      -0.585
      -0.714
      -0.901
      -1.119
      -1.244
      -1.137
      -0.780
      -0.323
       0.033
       0.194
       0.223
       0.229
       0.249
       0.248
       0.190
       0.100
       0.045
       0.071
       0.166
       0.280
       0.394
       0.563
       0.869
       1.315
       1.757
       1.960
       1.750
       1.122
       0.247
      -0.624
      -1.282
      -1.638
      -1.728
      -1.637
      -1.402
      -1.002
      -0.432
       0.215
       0.771
       1.110
       1.215
       1.157
       0.998
       0.750
       0.395
      -0.059
      -0.556
      -1.006
      -1.317
      -1.413
      -1.242
      -0.796
      -0.140
       0.582
       1.175
       1.469
       1.408
       1.080
       0.657
       0.262
      -0.106
      -0.521
      -1.002
      -1.444
      -1.678
      -1.592
      -1.192
      -0.579
       0.102
       0.708
       1.115
       1.237
       1.060
       0.670
       0.227
      -0.110
      -0.254
      -0.215
      -0.072
       0.059
       0.086
      -0.009
      -0.156
      -0.270
      -0.311
      -0.290
      -0.209
      -0.047
       0.195
       0.451
       0.628
       0.690
       0.685
       0.682
       0.666
       0.531
       0.200
      -0.262
      -0.658
      -0.806
      -0.679
      -0.416
      -0.213
      -0.191
      -0.329
      -0.491
      -0.546
      -0.460
      -0.308
      -0.189
      -0.150
      -0.185
      -0.268
      -0.350
      -0.347
      -0.169
       0.185
       0.586
       0.846
       0.858
       0.664
       0.402
       0.188
       0.048
      -0.068
      -0.208
      -0.369
      -0.495
      -0.527
      -0.446
      -0.287
      -0.126
      -0.013
       0.063
       0.174
       0.365
       0.589
       0.726
       0.704
       0.577
       0.464
       0.419
       0.387
       0.283
       0.089
      -0.118
      -0.228
      -0.176
       0.004
       0.181
       0.202
       0.000
      -0.352
      -0.698
      -0.924
      -1.013
      -1.022
      -0.991
      -0.912
      -0.746
      -0.481
      -0.167
       0.106
       0.272
       0.331
       0.323
       0.281
       0.193
       0.039
      -0.152
      -0.278
      -0.234
      -0.025
       0.202
       0.260
       0.076
      -0.250
      -0.530
      -0.610
      -0.448
      -0.110
       0.295
       0.682
       1.009
       1.231
       1.262
       1.036
       0.622
       0.228
       0.038
       0.032
      -0.003
      -0.277
      -0.803
      -1.377
      -1.731
      -1.735
      -1.470
      -1.128
      -0.840
      -0.586
      -0.264
       0.153
       0.547
       0.734
       0.635
       0.367
       0.152
       0.115
       0.157
       0.053
      -0.321
      -0.846
      -1.239
      -1.290
      -1.033
      -0.695
      -0.478
      -0.386
      -0.263
       0.023
       0.438
       0.827
       1.064
       1.147
       1.134
       1.041
       0.821
       0.453
       0.030
      -0.278
      -0.355
      -0.243
      -0.112
      -0.115
      -0.255
      -0.380
      -0.321
      -0.051
       0.292
       0.551
       0.699
       0.838
       1.036
       1.207
       1.179
       0.880
       0.433
       0.044
      -0.175
      -0.274
      -0.370
      -0.501
      -0.583
      -0.509
      -0.281
      -0.047
      -0.004
      -0.245
      -0.692
      -1.161
      -1.505
      -1.715
      -1.863
      -1.960
      -1.883
      -1.497
      -0.860
      -0.266
      -0.024
      -0.192
      -0.526
      -0.704
      -0.602
      -0.365
      -0.256
      -0.395
      -0.645
      -0.699
      -0.339
       0.377
       1.136
       1.603
       1.666
       1.485
       1.326
       1.342
       1.489
       1.620
       1.634
       1.534
       1.377
       1.206
       1.035
       0.874
       0.729
       0.598
       0.487
       0.421
       0.456
       0.636
       0.968
       1.381
       1.726
       1.815
       1.524
       0.898
       0.146
      -0.493
      -0.921
      -1.223
      -1.545
      -1.935
      -2.291
      -2.459
      -2.365
      -2.066
      -1.713
      -1.451
      -1.340
      -1.333
      -1.325
      -1.251
      -1.138
      -1.067
      -1.070
      -1.090
      -1.050
      -0.933
      -0.789
      -0.657
      -0.499
      -0.228
       0.210
       0.775
       1.345
       1.789
       2.046
       2.153
       2.206
       2.267
       2.309
       2.241
       2.019
       1.703
       1.415
       1.225
       1.111
       0.995
       0.832
       0.650
       0.516
       0.462
       0.438
       0.349
       0.149
      -0.114
      -0.348
      -0.513
      -0.643
      -0.785
      -0.925
      -0.996
      -0.941
      -0.799
      -0.715
      -0.853
      -1.230
      -1.654
      -1.852
      -1.698
      -1.312
      -0.934
      -0.719
      -0.630
      -0.516
      -0.258
       0.129
       0.520
       0.772
       0.835
       0.787
       0.773
       0.890
       1.120
       1.337
       1.409
       1.300
       1.097
       0.926
