Origin Time       24/2/2009 17:46:13  UTC
Lat.              25.9 N 
Long.             94.3 E 
Depth (Km)         10.0
Magnitude         4.8
 Region           INDIA(NAGALAND)-MYANMAR-BORD-REG                                 
 Above details taken from IMD 
    
Station Code      LKH
Station Lat.       27.239  N
Station Long.      94.107  E
Station Height(m)    0.0
Site Class        C   Vs30 between 200 m/sec to 375 m/sec *  
Record Time       24.02.2009 17:46:48.839 UTC
Sampling Rate     200. Hz
 Record Duration   65.880 Sec.
 Direction         N-S (N positive)
Max. Acceleration      6.267 cm/sec**2
     
  * For reference see Site Classification link of website 
     
 Base Line Corrected and Low Pass Filtered (Cut Off at 35 Hz) Time History
 Acceleration data in cm/sec**2
    
[...]
      -0.095
      -0.123
      -0.142
      -0.161
      -0.177
      -0.183
      -0.172
      -0.144
      -0.109
      -0.075
      -0.047
      -0.026
      -0.013
      -0.007
      -0.004
      -0.004
      -0.006
      -0.015
      -0.035
      -0.066
      -0.103
      -0.135
      -0.156
      -0.167
      -0.171
      -0.169
      -0.161
      -0.149
      -0.139
      -0.135
      -0.133
      -0.124
      -0.103
      -0.071
      -0.038
      -0.017
      -0.011
      -0.014
      -0.019
      -0.028
      -0.045
      -0.074
      -0.110
      -0.145
      -0.170
      -0.181
      -0.175
      -0.152
      -0.117
      -0.079
      -0.045
      -0.019
       0.005
       0.035
       0.072
       0.108
       0.135
       0.150
       0.163
       0.181
       0.207
       0.236
       0.266
       0.294
       0.317
       0.328
       0.326
       0.311
       0.286
       0.256
       0.224
       0.189
       0.153
       0.119
       0.094
       0.082
       0.082
       0.086
       0.091
       0.091
       0.079
       0.049
       0.001
      -0.059
      -0.119
      -0.170
      -0.214
      -0.257
      -0.303
      -0.348
      -0.378
      -0.384
      -0.366
      -0.331
      -0.285
      -0.235
      -0.188
      -0.150
      -0.127
      -0.118
      -0.121
      -0.133
      -0.141
      -0.137
      -0.110
      -0.059
       0.010
       0.089
       0.164
       0.221
       0.256
       0.269
       0.260
       0.232
       0.191
       0.147
       0.114
       0.100
       0.104
       0.122
       0.146
       0.171
       0.186
       0.183
       0.153
       0.095
       0.023
      -0.049
      -0.107
      -0.150
      -0.183
      -0.205
      -0.217
      -0.222
      -0.223
      -0.222
      -0.213
      -0.192
      -0.162
      -0.135
      -0.123
      -0.130
      -0.149
      -0.166
      -0.170
      -0.162
      -0.150
      -0.141
      -0.138
      -0.137
      -0.132
      -0.114
      -0.081
      -0.037
       0.006
       0.043
       0.078
       0.118
       0.167
       0.223
       0.275
       0.314
       0.334
       0.337
       0.329
       0.318
       0.307
       0.297
       0.287
       0.268
       0.234
       0.182
       0.122
       0.063
       0.014
      -0.021
      -0.039
      -0.042
      -0.034
      -0.025
      -0.027
      -0.045
      -0.077
      -0.114
      -0.139
      -0.144
      -0.137
      -0.131
      -0.133
      -0.136
      -0.129
      -0.109
      -0.084
      -0.067
      -0.065
      -0.081
      -0.107
      -0.136
      -0.157
      -0.164
      -0.152
      -0.123
      -0.088
      -0.059
      -0.042
      -0.032
      -0.022
      -0.004
       0.024
       0.057
       0.090
       0.118
       0.140
       0.156
       0.164
       0.160
       0.144
       0.118
       0.081
       0.038
      -0.005
      -0.033
      -0.041
      -0.032
      -0.019
      -0.009
      -0.006
      -0.009
      -0.017
      -0.031
      -0.053
      -0.083
      -0.115
      -0.143
      -0.164
      -0.182
      -0.197
      -0.211
      -0.223
      -0.233
      -0.242
      -0.249
      -0.251
      -0.249
      -0.246
      -0.248
      -0.255
      -0.260
      -0.250
      -0.217
      -0.162
      -0.095
      -0.030
       0.022
       0.058
       0.077
       0.083
       0.085
       0.095
       0.114
       0.134
       0.148
       0.156
       0.159
       0.161
       0.160
       0.154
       0.145
       0.138
       0.141
       0.158
       0.194
       0.245
       0.308
       0.372
       0.421
       0.439
       0.422
       0.380
       0.327
       0.274
       0.222
       0.167
       0.105
       0.036
      -0.037
      -0.107
      -0.165
      -0.204
      -0.219
      -0.210
      -0.183
      -0.147
      -0.103
      -0.050
       0.014
       0.078
       0.128
       0.152
       0.151
       0.134
       0.110
       0.083
       0.051
       0.010
      -0.036
      -0.078
      -0.108
      -0.123
      -0.126
      -0.114
      -0.090
      -0.055
      -0.019
       0.014
       0.042
       0.067
       0.090
       0.112
       0.132
       0.149
       0.162
       0.168
       0.167
       0.151
       0.119
       0.077
       0.034
       0.002
      -0.013
      -0.007
       0.020
       0.058
       0.092
       0.110
       0.107
       0.082
       0.039
      -0.022
      -0.097
      -0.179
      -0.248
      -0.286
      -0.278
      -0.232
      -0.169
      -0.113
      -0.079
      -0.067
      -0.074
      -0.093
      -0.120
      -0.150
      -0.180
      -0.203
      -0.215
      -0.211
      -0.195
      -0.180
      -0.174
      -0.182
      -0.199
      -0.215
      -0.219
      -0.204
      -0.173
      -0.134
      -0.096
      -0.064
      -0.038
      -0.020
      -0.013
      -0.018
      -0.032
      -0.048
      -0.056
      -0.048
      -0.021
       0.026
       0.086
       0.149
       0.198
       0.223
       0.226
       0.221
       0.219
       0.226
       0.239
       0.258
       0.285
       0.315
       0.345
       0.367
       0.376
       0.371
       0.353
       0.326
       0.294
       0.260
       0.227
       0.196
       0.168
       0.139
       0.107
       0.072
       0.036
      -0.007
      -0.061
      -0.131
      -0.210
      -0.288
      -0.350
      -0.391
      -0.412
      -0.421
      -0.423
      -0.421
      -0.412
      -0.401
      -0.395
      -0.396
      -0.402
      -0.403
      -0.396
      -0.381
      -0.358
      -0.332
      -0.305
      -0.285
      -0.275
      -0.277
      -0.286
      -0.291
      -0.284
      -0.259
      -0.218
      -0.162
      -0.096
      -0.031
       0.019
       0.050
       0.070
       0.093
       0.132
       0.187
       0.257
       0.331
       0.399
       0.448
       0.469
       0.459
       0.423
       0.373
       0.321
       0.276
       0.240
       0.218
       0.215
       0.234
       0.265
       0.292
       0.303
       0.298
       0.284
       0.273
       0.265
       0.258
       0.246
       0.229
       0.206
       0.179
       0.144
       0.099
       0.046
      -0.007
      -0.057
      -0.102
      -0.140
      -0.167
      -0.181
      -0.181
      -0.170
      -0.156
      -0.144
      -0.141
      -0.147
      -0.161
      -0.183
      -0.213
      -0.248
      -0.283
      -0.311
      -0.319
      -0.301
      -0.256
      -0.194
      -0.138
      -0.103
      -0.093
      -0.106
      -0.135
      -0.178
      -0.232
      -0.293
      -0.350
      -0.392
      -0.412
      -0.411
      -0.392
      -0.356
      -0.300
      -0.224
      -0.134
      -0.039
       0.054
       0.141
       0.216
       0.270
       0.298
       0.302
       0.288
       0.263
       0.236
       0.213
       0.201
       0.210
       0.246
       0.311
       0.393
       0.480
       0.561
       0.631
       0.681
       0.702
       0.691
       0.654
       0.600
       0.536
       0.464
       0.385
       0.305
       0.234
       0.188
       0.172
       0.182
       0.208
       0.235
       0.254
       0.258
       0.235
       0.184
       0.107
       0.016
      -0.077
      -0.166
      -0.241
      -0.297
      -0.330
      -0.336
      -0.321
      -0.293
      -0.262
      -0.230
      -0.197
      -0.169
      -0.152
      -0.152
      -0.161
      -0.165
      -0.157
      -0.136
      -0.113
      -0.096
      -0.088
      -0.087
      -0.085
      -0.080
      -0.074
      -0.071
      -0.073
      -0.079
      -0.090
      -0.102
      -0.110
      -0.110
      -0.103
      -0.101
      -0.112
      -0.139
      -0.177
      -0.220
      -0.267
      -0.313
      -0.356
      -0.390
      -0.412
      -0.422
      -0.424
      -0.421
      -0.411
      -0.392
      -0.361
      -0.319
      -0.267
      -0.206
      -0.137
      -0.064
       0.003
       0.057
       0.096
       0.125
       0.147
       0.158
       0.152
       0.128
       0.098
       0.079
       0.081
       0.099
       0.120
       0.137
       0.151
       0.164
       0.177
       0.188
       0.198
       0.211
       0.230
       0.262
       0.308
       0.366
       0.429
       0.485
       0.519
       0.514
       0.461
       0.362
       0.226
       0.065
      -0.107
      -0.275
      -0.418
      -0.519
      -0.568
      -0.564
      -0.517
      -0.435
      -0.331
      -0.220
      -0.116
      -0.038
       0.006
       0.017
       0.003
      -0.026
      -0.063
      -0.100
      -0.121
      -0.111
      -0.064
       0.011
       0.097
       0.177
       0.234
       0.256
       0.240
       0.191
       0.123
       0.057
       0.010
      -0.004
       0.021
       0.082
       0.173
       0.275
       0.361
       0.407
       0.406
       0.363
       0.292
       0.199
       0.091
      -0.024
      -0.130
      -0.206
      -0.237
      -0.219
      -0.158
      -0.071
       0.024
       0.104
       0.149
       0.145
       0.095
       0.014
      -0.077
      -0.160
      -0.223
      -0.258
      -0.263
      -0.240
      -0.194
      -0.136
      -0.080
      -0.034
      -0.001
       0.023
       0.041
       0.061
       0.088
       0.121
       0.151
       0.166
       0.154
       0.119
       0.068
       0.008
      -0.061
      -0.131
      -0.186
      -0.207
      -0.180
      -0.115
      -0.034
       0.033
       0.069
       0.072
       0.048
       0.003
      -0.059
      -0.128
      -0.193
      -0.244
      -0.282
      -0.311
      -0.338
      -0.363
      -0.382
      -0.386
      -0.369
      -0.331
      -0.280
      -0.217
      -0.146
      -0.068
       0.014
       0.090
       0.151
       0.186
       0.185
       0.155
       0.108
       0.065
       0.039
       0.040
       0.075
       0.151
       0.264
       0.402
       0.542
       0.657
       0.721
       0.724
       0.663
       0.546
       0.383
       0.199
       0.028
      -0.100
      -0.160
      -0.149
      -0.076
       0.040
       0.171
       0.291
       0.377
       0.415
       0.404
       0.355
       0.276
       0.176
       0.058
      -0.073
      -0.205
      -0.325
      -0.423
      -0.495
      -0.537
      -0.543
      -0.507
      -0.427
      -0.309
      -0.170
      -0.031
       0.083
       0.149
       0.147
       0.071
      -0.069
      -0.244
      -0.413
      -0.538
      -0.596
      -0.579
      -0.497
      -0.377
      -0.254
      -0.156
      -0.098
      -0.073
      -0.069
      -0.071
      -0.068
      -0.055
      -0.031
       0.004
       0.044
       0.081
       0.103
       0.105
       0.089
       0.065
       0.047
       0.051
       0.088
       0.167
       0.284
       0.418
       0.544
       0.632
       0.664
       0.637
       0.563
       0.456
       0.328
       0.195
       0.071
      -0.031
      -0.110
      -0.170
      -0.215
      -0.243
      -0.252
      -0.246
      -0.236
      -0.235
      -0.247
      -0.264
      -0.266
      -0.238
      -0.176
      -0.089
       0.004
       0.078
       0.114
       0.099
       0.039
      -0.053
      -0.161
      -0.273
      -0.375
      -0.452
      -0.489
      -0.482
      -0.436
      -0.365
      -0.284
      -0.202
      -0.123
      -0.051
       0.008
       0.051
       0.082
       0.112
       0.147
       0.191
       0.244
       0.306
       0.372
       0.432
       0.469
       0.471
       0.439
       0.380
       0.309
       0.235
       0.162
       0.089
       0.021
      -0.031
      -0.060
      -0.061
      -0.039
       0.002
       0.055
       0.105
       0.138
       0.140
       0.107
       0.046
      -0.033
      -0.118
      -0.203
      -0.288
      -0.373
      -0.453
      -0.524
      -0.587
      -0.647
      -0.712
      -0.789
      -0.877
      -0.970
      -1.055
      -1.118
      -1.152
      -1.163
      -1.166
      -1.177
      -1.209
      -1.272
      -1.372
      -1.504
      -1.660
      -1.828
      -1.988
      -2.122
      -2.211
      -2.242
      -2.208
      -2.109
      -1.963
      -1.798
      -1.642
      -1.507
      -1.387
      -1.264
      -1.116
      -0.922
      -0.670
      -0.355
       0.022
       0.453
       0.914
       1.376
       1.809
       2.197
       2.542
       2.854
       3.145
       3.426
       3.703
       3.977
       4.245
       4.511
       4.785
       5.077
       5.378
       5.663
       5.900
       6.061
       6.135
       6.127
       6.045
       5.892
       5.658
       5.332
       4.903
       4.370
       3.742
       3.045
       2.320
       1.609
       0.942
       0.337
      -0.201
      -0.678
      -1.100
      -1.475
      -1.807
      -2.101
      -2.363
      -2.600
      -2.813
      -3.004
      -3.178
      -3.342
      -3.496
      -3.635
      -3.755
      -3.858
      -3.957
      -4.071
      -4.212
      -4.383
      -4.575
      -4.774
      -4.964
      -5.128
      -5.250
      -5.324
      -5.357
      -5.353
      -5.303
      -5.190
      -4.993
      -4.705
      -4.329
      -3.874
      -3.348
      -2.753
      -2.097
      -1.397
      -0.683
       0.006
       0.632
       1.164
       1.587
       1.907
       2.153
       2.367
       2.582
       2.820
       3.094
       3.410
       3.770
       4.166
       4.583
       4.997
       5.384
       5.722
       5.990
       6.176
       6.267
       6.262
       6.173
       6.024
       5.837
       5.617
       5.357
       5.046
       4.669
       4.209
       3.646
       2.965
       2.160
       1.249
       0.268
      -0.734
      -1.712
      -2.638
      -3.496
      -4.266
      -4.916
      -5.404
      -5.708
      -5.841
      -5.848
      -5.794
      -5.730
      -5.682
      -5.652
      -5.630
      -5.606
      -5.572
      -5.531
      -5.493
      -5.459
      -5.407
      -5.296
      -5.084
      -4.750
      -4.301
      -3.772
      -3.205
      -2.638
      -2.093
      -1.567
      -1.045
      -0.513
       0.032
       0.576
       1.093
       1.564
       1.987
       2.375
       2.741
       3.090
       3.422
       3.737
       4.040
       4.341
       4.653
       4.978
       5.305
       5.601
       5.833
       5.973
       6.012
       5.946
       5.775
       5.509
       5.168
       4.786
       4.401
       4.043
       3.712
       3.384
       3.025
       2.610
       2.130
       1.581
       0.965
       0.291
      -0.412
      -1.103
      -1.747
      -2.319
      -2.811
      -3.225
      -3.566
      -3.843
      -4.064
      -4.236
      -4.363
      -4.448
      -4.493
      -4.510
      -4.513
      -4.510
      -4.499
      -4.466
      -4.399
      -4.290
      -4.139
      -3.945
      -3.696
      -3.370
      -2.939
      -2.394
      -1.753
      -1.058
      -0.365
       0.266
       0.796
       1.211
       1.523
       1.751
       1.912
       2.020
       2.098
       2.169
       2.255
       2.364
       2.489
       2.612
       2.713
       2.778
       2.796
       2.756
       2.647
       2.472
       2.245
       1.993
       1.739
       1.500
       1.279
       1.070
       0.856
       0.613
       0.330
       0.016
      -0.290
      -0.536
      -0.677
      -0.694
      -0.597
      -0.414
      -0.182
       0.067
       0.301
       0.499
       0.640
       0.711
       0.701
       0.615
       0.474
       0.318
       0.192
       0.122
       0.112
       0.145
       0.189
       0.219
       0.223
       0.204
       0.175
       0.148
       0.134
       0.143
       0.182
       0.249
       0.334
       0.417
       0.476
       0.488
       0.433
       0.302
       0.094
      -0.180
      -0.497
      -0.831
      -1.159
      -1.470
      -1.751
      -1.990
      -2.169
      -2.274
      -2.295
      -2.237
      -2.119
      -1.971
      -1.825
      -1.699
      -1.597
      -1.513
      -1.440
      -1.378
      -1.333
      -1.315
      -1.330
      -1.375
      -1.435
      -1.493
      -1.534
      -1.543
      -1.507
      -1.421
      -1.285
      -1.102
      -0.866
      -0.572
      -0.218
       0.185
       0.619
       1.058
       1.481
       1.864
       2.189
       2.437
       2.592
       2.646
       2.597
       2.449
       2.219
       1.928
       1.611
       1.302
       1.036
       0.846
       0.762
       0.803
       0.962
       1.209
       1.500
       1.786
       2.027
       2.194
       2.272
       2.249
       2.121
       1.897
       1.603
       1.263
       0.896
       0.503
       0.089
      -0.332
      -0.735
      -1.093
      -1.385
      -1.598
      -1.719
      -1.746
      -1.680
      -1.535
      -1.333
      -1.095
      -0.845
      -0.605
      -0.398
      -0.239
      -0.128
      -0.048
       0.024
       0.107
       0.207
       0.317
       0.425
       0.519
       0.591
       0.629
       0.620
       0.555
       0.445
       0.314
       0.195
       0.118
       0.105
       0.169
       0.307
       0.491
       0.675
       0.806
       0.835
       0.736
       0.501
       0.138
      -0.330
      -0.872
      -1.446
      -2.009
      -2.525
      -2.972
      -3.327
      -3.568
      -3.675
      -3.642
      -3.472
      -3.175
      -2.763
      -2.256
      -1.689
      -1.109
      -0.566
      -0.098
       0.267
       0.518
       0.662
       0.724
       0.740
       0.746
       0.769
       0.816
       0.879
       0.948
       1.020
       1.100
       1.188
       1.283
       1.382
       1.485
       1.597
       1.718
       1.840
       1.950
       2.027
       2.057
       2.027
       1.925
       1.747
       1.504
       1.228
       0.955
       0.714
       0.515
       0.353
       0.220
       0.108
       0.009
      -0.085
      -0.184
      -0.296
      -0.426
      -0.577
      -0.744
      -0.922
      -1.097
      -1.255
      -1.379
      -1.463
      -1.501
      -1.491
      -1.429
      -1.315
      -1.156
      -0.961
      -0.737
      -0.490
      -0.227
       0.035
       0.275
       0.467
       0.600
       0.682
       0.732
       0.771
       0.815
       0.869
       0.940
       1.026
       1.117
       1.202
       1.266
       1.299
       1.294
       1.242
       1.139
       0.984
       0.784
       0.553
       0.304
       0.041
      -0.239
      -0.532
      -0.829
      -1.112
      -1.363
      -1.561
      -1.691
      -1.750
      -1.744
      -1.687
      -1.589
      -1.450
      -1.270
      -1.057
      -0.826
      -0.606
      -0.420
      -0.278
      -0.177
      -0.102
      -0.040
       0.022
       0.100
       0.204
       0.334
       0.472
       0.596
       0.686
       0.732
       0.729
       0.680
       0.584
       0.450
       0.293
       0.134
      -0.013
      -0.146
      -0.275
      -0.414
      -0.567
      -0.727
      -0.881
      -1.006
      -1.079
      -1.082
      -1.010
      -0.871
      -0.677
      -0.450
      -0.214
       0.000
       0.164
       0.258
       0.279
       0.247
       0.194
       0.147
       0.121
       0.125
       0.164
       0.246
       0.369
       0.525
       0.693
