Origin Time       04/05/2012 20:09:26 UTC
Lat.              27.5 N	
Long.             95.1 E	
Depth (Km)         15.0
Magnitude         4.4
 Region           DISTT.-DIBRUGARH-ASSAM                                           
 Above details taken from IMD 
    
Station Code      LKH
Station Lat.       27.239  N
Station Long.      94.107  E
Station Height(m)   95.0
Site Class        C   Vs30 between 200 m/sec to 375 m/sec *  
Record Time       04.05.2012 20:09:48.189 UTC
Sampling Rate     200. Hz
 Record Duration   65.235 Sec.
 Direction         N-S (N positive)
Max. Acceleration      6.942 cm/sec**2
     
  * For reference see Site Classification link of website 
     
 Base Line Corrected and Low Pass Filtered (Cut Off at 35 Hz) Time History
 Acceleration data in cm/sec**2
    
[...]
       0.002
       0.003
       0.019
       0.044
       0.068
       0.085
       0.093
       0.091
       0.078
       0.054
       0.020
      -0.021
      -0.057
      -0.079
      -0.080
      -0.066
      -0.051
      -0.045
      -0.047
      -0.053
      -0.055
      -0.056
      -0.054
      -0.050
      -0.045
      -0.039
      -0.032
      -0.026
      -0.021
      -0.014
      -0.005
       0.004
       0.009
       0.010
       0.007
       0.004
       0.004
       0.008
       0.014
       0.018
       0.017
       0.011
       0.009
       0.017
       0.035
       0.056
       0.067
       0.062
       0.046
       0.027
       0.018
       0.021
       0.032
       0.044
       0.051
       0.053
       0.049
       0.040
       0.030
       0.022
       0.019
       0.019
       0.016
       0.007
      -0.009
      -0.026
      -0.041
      -0.051
      -0.060
      -0.068
      -0.072
      -0.067
      -0.049
      -0.025
      -0.001
       0.020
       0.041
       0.062
       0.081
       0.088
       0.076
       0.042
      -0.004
      -0.049
      -0.085
      -0.108
      -0.122
      -0.129
      -0.127
      -0.112
      -0.080
      -0.037
       0.004
       0.034
       0.051
       0.063
       0.074
       0.079
       0.072
       0.052
       0.025
       0.003
      -0.005
       0.001
       0.012
       0.019
       0.018
       0.011
      -0.002
      -0.020
      -0.037
      -0.048
      -0.047
      -0.038
      -0.021
       0.000
       0.022
       0.040
       0.052
       0.056
       0.056
       0.054
       0.048
       0.035
       0.012
      -0.017
      -0.042
      -0.055
      -0.055
      -0.048
      -0.041
      -0.035
      -0.029
      -0.023
      -0.017
      -0.010
      -0.007
      -0.007
      -0.008
      -0.006
      -0.005
      -0.008
      -0.012
      -0.008
       0.010
       0.040
       0.069
       0.089
       0.096
       0.095
       0.093
       0.092
       0.083
       0.062
       0.027
      -0.012
      -0.048
      -0.077
      -0.102
      -0.118
      -0.122
      -0.107
      -0.076
      -0.036
      -0.001
       0.025
       0.046
       0.068
       0.091
       0.105
       0.100
       0.070
       0.024
      -0.025
      -0.066
      -0.095
      -0.113
      -0.121
      -0.114
      -0.091
      -0.057
      -0.027
      -0.011
      -0.009
      -0.014
      -0.016
      -0.015
      -0.016
      -0.024
      -0.037
      -0.047
      -0.045
      -0.029
      -0.008
       0.012
       0.028
       0.040
       0.048
       0.044
       0.024
      -0.010
      -0.047
      -0.076
      -0.088
      -0.084
      -0.070
      -0.048
      -0.017
       0.026
       0.077
       0.125
       0.157
       0.165
       0.148
       0.115
       0.081
       0.051
       0.025
       0.002
      -0.017
      -0.028
      -0.030
      -0.027
      -0.023
      -0.021
      -0.023
      -0.024
      -0.024
      -0.021
      -0.018
      -0.016
      -0.009
       0.003
       0.020
       0.038
       0.052
       0.062
       0.066
       0.066
       0.062
       0.051
       0.033
       0.010
      -0.010
      -0.020
      -0.021
      -0.018
      -0.017
      -0.022
      -0.031
      -0.045
      -0.061
      -0.079
      -0.095
      -0.107
      -0.115
      -0.118
      -0.120
      -0.119
      -0.109
      -0.082
      -0.039
       0.009
       0.050
       0.074
       0.080
       0.076
       0.072
       0.070
       0.067
       0.054
       0.035
       0.016
       0.006
       0.004
       0.005
       0.001
      -0.012
      -0.024
      -0.027
      -0.015
       0.006
       0.025
       0.035
       0.040
       0.048
       0.064
       0.088
       0.115
       0.139
       0.152
       0.154
       0.144
       0.124
       0.095
       0.060
       0.025
      -0.006
      -0.032
      -0.051
      -0.063
      -0.068
      -0.072
      -0.077
      -0.084
      -0.090
      -0.093
      -0.086
      -0.065
      -0.035
      -0.004
       0.020
       0.035
       0.046
       0.059
       0.071
       0.076
       0.062
       0.027
      -0.018
      -0.059
      -0.084
      -0.097
      -0.104
      -0.110
      -0.114
      -0.109
      -0.088
      -0.055
      -0.018
       0.012
       0.033
       0.049
       0.066
       0.080
       0.087
       0.087
       0.084
       0.082
       0.079
       0.069
       0.043
       0.005
      -0.036
      -0.068
      -0.088
      -0.100
      -0.109
      -0.109
      -0.093
      -0.060
      -0.018
       0.020
       0.043
       0.054
       0.060
       0.071
       0.084
       0.092
       0.085
       0.064
       0.035
       0.009
      -0.008
      -0.017
      -0.020
      -0.023
      -0.026
      -0.031
      -0.040
      -0.055
      -0.068
      -0.068
      -0.053
      -0.027
      -0.003
       0.013
       0.020
       0.023
       0.028
       0.038
       0.052
       0.068
       0.081
       0.088
       0.085
       0.072
       0.048
       0.021
      -0.006
      -0.026
      -0.036
      -0.038
      -0.038
      -0.044
      -0.058
      -0.069
      -0.066
      -0.041
       0.000
       0.043
       0.071
       0.082
       0.081
       0.081
       0.082
       0.082
       0.073
       0.056
       0.038
       0.022
       0.011
       0.001
      -0.009
      -0.023
      -0.039
      -0.052
      -0.063
      -0.075
      -0.091
      -0.111
      -0.127
      -0.136
      -0.133
      -0.121
      -0.101
      -0.077
      -0.048
      -0.017
       0.009
       0.024
       0.030
       0.034
       0.042
       0.057
       0.075
       0.088
       0.096
       0.101
       0.105
       0.110
       0.107
       0.091
       0.059
       0.021
      -0.015
      -0.046
      -0.073
      -0.098
      -0.115
      -0.118
      -0.105
      -0.078
      -0.046
      -0.013
       0.017
       0.046
       0.072
       0.085
       0.078
       0.049
       0.010
      -0.026
      -0.046
      -0.047
      -0.036
      -0.020
      -0.005
       0.013
       0.040
       0.075
       0.107
       0.128
       0.130
       0.112
       0.077
       0.033
      -0.009
      -0.039
      -0.050
      -0.043
      -0.027
      -0.014
      -0.011
      -0.016
      -0.021
      -0.023
      -0.023
      -0.024
      -0.031
      -0.044
      -0.057
      -0.065
      -0.063
      -0.052
      -0.032
      -0.005
       0.029
       0.065
       0.097
       0.119
       0.125
       0.118
       0.102
       0.085
       0.072
       0.062
       0.057
       0.061
       0.080
       0.110
       0.144
       0.169
       0.172
       0.151
       0.113
       0.074
       0.048
       0.037
       0.034
       0.034
       0.037
       0.044
       0.051
       0.053
       0.047
       0.033
       0.016
       0.003
      -0.010
      -0.026
      -0.049
      -0.075
      -0.095
      -0.103
      -0.101
      -0.094
      -0.087
      -0.078
      -0.067
      -0.055
      -0.049
      -0.052
      -0.063
      -0.072
      -0.072
      -0.065
      -0.060
      -0.062
      -0.067
      -0.065
      -0.048
      -0.020
       0.009
       0.029
       0.037
       0.032
       0.018
      -0.007
      -0.044
      -0.087
      -0.124
      -0.145
      -0.150
      -0.146
      -0.139
      -0.136
      -0.134
      -0.129
      -0.118
      -0.101
      -0.086
      -0.077
      -0.073
      -0.072
      -0.066
      -0.052
      -0.033
      -0.012
       0.013
       0.045
       0.087
       0.133
       0.167
       0.179
       0.172
       0.152
       0.130
       0.108
       0.086
       0.062
       0.034
       0.008
      -0.008
      -0.010
      -0.004
       0.005
       0.016
       0.030
       0.047
       0.062
       0.071
       0.072
       0.068
       0.061
       0.053
       0.040
       0.011
      -0.039
      -0.106
      -0.181
      -0.250
      -0.302
      -0.327
      -0.316
      -0.268
      -0.190
      -0.098
      -0.006
       0.071
       0.130
       0.175
       0.208
       0.228
       0.226
       0.201
       0.160
       0.116
       0.084
       0.072
       0.072
       0.071
       0.056
       0.019
      -0.035
      -0.100
      -0.166
      -0.221
      -0.255
      -0.257
      -0.226
      -0.171
      -0.108
      -0.058
      -0.028
      -0.017
      -0.011
      -0.003
       0.011
       0.027
       0.043
       0.062
       0.087
       0.118
       0.147
       0.165
       0.165
       0.151
       0.130
       0.103
       0.069
       0.035
       0.010
       0.009
       0.039
       0.097
       0.162
       0.211
       0.231
       0.225
       0.206
       0.190
       0.183
       0.187
       0.200
       0.215
       0.227
       0.231
       0.223
       0.201
       0.165
       0.121
       0.073
       0.024
      -0.027
      -0.076
      -0.115
      -0.141
      -0.151
      -0.146
      -0.132
      -0.116
      -0.099
      -0.087
      -0.083
      -0.091
      -0.110
      -0.132
      -0.148
      -0.151
      -0.139
      -0.120
      -0.107
      -0.107
      -0.123
      -0.149
      -0.179
      -0.210
      -0.240
      -0.262
      -0.271
      -0.264
      -0.247
      -0.228
      -0.216
      -0.209
      -0.199
      -0.175
      -0.134
      -0.081
      -0.025
       0.028
       0.076
       0.115
       0.137
       0.128
       0.082
       0.009
      -0.069
      -0.120
      -0.128
      -0.094
      -0.032
       0.044
       0.124
       0.201
       0.262
       0.298
       0.303
       0.278
       0.235
       0.190
       0.157
       0.136
       0.121
       0.100
       0.070
       0.036
       0.004
      -0.019
      -0.029
      -0.029
      -0.018
       0.007
       0.050
       0.107
       0.170
       0.228
       0.267
       0.276
       0.248
       0.186
       0.101
       0.010
      -0.070
      -0.129
      -0.167
      -0.197
      -0.228
      -0.261
      -0.288
      -0.299
      -0.293
      -0.279
      -0.265
      -0.259
      -0.257
      -0.251
      -0.232
      -0.199
      -0.155
      -0.108
      -0.064
      -0.033
      -0.019
      -0.023
      -0.036
      -0.043
      -0.035
      -0.011
       0.024
       0.060
       0.091
       0.119
       0.146
       0.174
       0.198
       0.214
       0.228
       0.247
       0.269
       0.288
       0.294
       0.285
       0.270
       0.263
       0.270
       0.289
       0.304
       0.300
       0.273
       0.226
       0.169
       0.115
       0.067
       0.024
      -0.022
      -0.072
      -0.118
      -0.144
      -0.140
      -0.107
      -0.058
      -0.014
       0.004
      -0.012
      -0.058
      -0.123
      -0.193
      -0.256
      -0.300
      -0.320
      -0.319
      -0.300
      -0.270
      -0.235
      -0.202
      -0.175
      -0.156
      -0.138
      -0.115
      -0.078
      -0.029
       0.022
       0.062
       0.084
       0.093
       0.098
       0.107
       0.116
       0.120
       0.109
       0.080
       0.032
      -0.029
      -0.097
      -0.162
      -0.210
      -0.233
      -0.228
      -0.203
      -0.170
      -0.136
      -0.101
      -0.063
      -0.018
       0.033
       0.081
       0.113
       0.120
       0.104
       0.073
       0.038
       0.009
      -0.008
      -0.008
       0.008
       0.041
       0.085
       0.133
       0.176
       0.204
       0.217
       0.222
       0.231
       0.249
       0.275
       0.301
       0.319
       0.322
       0.317
       0.310
       0.306
       0.301
       0.287
       0.258
       0.212
       0.154
       0.093
       0.038
       0.000
      -0.016
      -0.009
       0.013
       0.038
       0.055
       0.061
       0.057
       0.043
       0.019
      -0.015
      -0.051
      -0.084
      -0.108
      -0.125
      -0.137
      -0.143
      -0.138
      -0.123
      -0.101
      -0.083
      -0.075
      -0.072
      -0.062
      -0.036
       0.008
       0.069
       0.140
       0.217
       0.296
       0.375
       0.448
       0.504
       0.531
       0.522
       0.479
       0.414
       0.341
       0.265
       0.181
       0.083
      -0.031
      -0.155
      -0.277
      -0.389
      -0.482
      -0.554
      -0.604
      -0.640
      -0.673
      -0.711
      -0.758
      -0.811
      -0.869
      -0.929
      -0.993
      -1.065
      -1.147
      -1.233
      -1.311
      -1.374
      -1.421
      -1.454
      -1.472
      -1.469
      -1.440
      -1.382
      -1.301
      -1.205
      -1.096
      -0.971
      -0.820
      -0.643
      -0.444
      -0.226
       0.014
       0.285
       0.596
       0.948
       1.333
       1.740
       2.164
       2.603
       3.054
       3.497
       3.904
       4.243
       4.488
       4.620
       4.629
       4.511
       4.265
       3.889
       3.379
       2.740
       1.984
       1.133
       0.213
      -0.751
      -1.736
      -2.715
      -3.653
      -4.507
      -5.228
      -5.776
      -6.130
      -6.290
      -6.273
      -6.102
      -5.796
      -5.365
      -4.815
      -4.161
      -3.433
      -2.670
      -1.909
      -1.177
      -0.484
       0.161
       0.756
       1.300
       1.797
       2.255
       2.687
       3.105
       3.522
       3.952
       4.406
       4.888
       5.392
       5.895
       6.360
       6.732
       6.942
       6.929
       6.656
       6.116
       5.325
       4.310
       3.105
       1.749
       0.297
      -1.174
      -2.566
      -3.776
      -4.721
      -5.346
      -5.637
      -5.610
      -5.306
      -4.777
      -4.082
      -3.283
      -2.452
      -1.665
      -0.993
      -0.499
      -0.222
      -0.171
      -0.321
      -0.628
      -1.043
      -1.516
      -2.004
      -2.466
      -2.858
      -3.133
      -3.245
      -3.163
      -2.879
      -2.403
      -1.754
      -0.965
      -0.077
       0.862
       1.797
       2.672
       3.430
       4.022
       4.410
       4.570
       4.494
       4.190
       3.683
       3.016
       2.243
       1.428
       0.637
      -0.066
      -0.629
      -1.025
      -1.252
      -1.319
      -1.235
      -1.009
      -0.663
      -0.242
       0.192
       0.573
       0.856
       1.023
       1.078
       1.036
       0.915
       0.722
       0.461
       0.136
      -0.244
      -0.658
      -1.085
      -1.504
      -1.886
      -2.193
      -2.392
      -2.462
      -2.404
      -2.225
      -1.936
      -1.554
      -1.107
      -0.643
      -0.216
       0.124
       0.347
       0.438
       0.396
       0.232
      -0.028
      -0.345
      -0.669
      -0.949
      -1.134
      -1.187
      -1.083
      -0.810
      -0.375
       0.195
       0.841
       1.490
       2.059
       2.486
       2.740
       2.821
       2.748
       2.537
       2.205
       1.774
       1.286
       0.794
       0.349
      -0.018
      -0.298
      -0.497
      -0.629
      -0.706
      -0.741
      -0.748
      -0.745
      -0.748
      -0.766
      -0.796
      -0.830
      -0.857
      -0.861
      -0.823
      -0.720
      -0.539
      -0.286
       0.009
       0.303
       0.549
       0.720
       0.810
       0.833
       0.811
       0.756
       0.668
       0.537
       0.356
       0.127
      -0.136
      -0.411
      -0.672
      -0.891
      -1.045
      -1.120
      -1.115
      -1.033
      -0.879
      -0.656
      -0.375
      -0.058
       0.266
       0.563
       0.804
       0.967
       1.041
       1.022
       0.911
       0.718
       0.464
       0.175
      -0.123
      -0.410
      -0.671
      -0.885
      -1.030
      -1.081
      -1.019
      -0.843
      -0.569
      -0.221
       0.177
       0.600
       1.026
       1.424
       1.758
       1.992
       2.102
       2.083
       1.948
       1.718
       1.410
       1.040
       0.629
       0.202
      -0.210
      -0.581
      -0.889
      -1.118
      -1.259
      -1.307
      -1.268
      -1.164
      -1.026
      -0.879
      -0.737
      -0.608
      -0.500
      -0.432
      -0.422
      -0.476
      -0.584
      -0.719
      -0.850
      -0.955
      -1.025
      -1.058
      -1.056
      -1.021
      -0.959
      -0.881
      -0.793
      -0.695
      -0.574
      -0.415
      -0.212
       0.026
       0.276
       0.518
       0.732
       0.899
       1.000
       1.023
       0.967
       0.851
       0.706
       0.566
       0.457
       0.391
       0.369
       0.393
       0.466
       0.582
       0.728
       0.884
       1.033
       1.166
       1.280
       1.364
       1.402
       1.370
       1.249
       1.032
       0.723
       0.335
      -0.118
      -0.609
      -1.102
      -1.551
      -1.911
      -2.148
      -2.246
      -2.199
      -2.014
      -1.705
      -1.297
      -0.827
      -0.333
       0.148
       0.590
       0.973
       1.277
       1.475
       1.540
       1.450
       1.200
       0.806
       0.308
      -0.237
      -0.761
      -1.192
      -1.467
      -1.538
      -1.388
      -1.033
      -0.515
       0.104
       0.750
       1.347
       1.833
       2.156
       2.279
       2.182
       1.876
       1.403
       0.831
       0.232
      -0.335
      -0.822
      -1.197
      -1.434
      -1.518
      -1.455
      -1.269
      -1.000
      -0.695
      -0.395
      -0.135
       0.062
       0.183
       0.225
       0.199
       0.125
       0.032
      -0.057
      -0.137
      -0.218
      -0.309
      -0.409
      -0.507
      -0.586
      -0.632
      -0.638
      -0.600
      -0.515
      -0.380
      -0.202
       0.001
       0.209
       0.408
       0.589
       0.733
       0.817
       0.816
       0.719
       0.538
       0.306
       0.067
      -0.142
      -0.298
      -0.399
      -0.446
      -0.443
      -0.400
      -0.330
      -0.246
      -0.161
      -0.085
      -0.028
       0.006
       0.014
       0.011
       0.020
       0.072
       0.189
       0.376
       0.613
       0.870
       1.107
       1.285
       1.374
       1.349
       1.194
       0.903
       0.482
      -0.041
      -0.610
      -1.152
      -1.586
      -1.845
      -1.888
      -1.713
      -1.356
      -0.881
      -0.360
       0.141
       0.571
       0.898
       1.101
       1.168
       1.096
       0.901
       0.618
       0.298
      -0.006
      -0.249
      -0.408
      -0.481
      -0.478
      -0.415
      -0.307
      -0.174
      -0.043
       0.060
       0.118
       0.125
       0.083
      -0.001
      -0.122
      -0.269
      -0.420
      -0.543
      -0.608
      -0.595
      -0.506
      -0.358
      -0.175
       0.025
       0.230
       0.437
       0.639
       0.827
       0.984
       1.089
       1.129
       1.094
       0.986
       0.812
       0.583
       0.306
      -0.008
      -0.338
      -0.653
      -0.920
      -1.110
      -1.206
      -1.200
      -1.089
      -0.885
      -0.605
      -0.277
       0.061
       0.366
       0.599
       0.730
       0.748
       0.658
       0.481
       0.247
      -0.015
      -0.279
      -0.515
      -0.687
      -0.760
      -0.716
      -0.558
