Origin Time       04/05/2012 20:09:26
Lat.              27.5 N	
Long.             95.1 E	
Depth (Km)         15.0
Magnitude         4.4
 Region           DISTT.-DIBRUGARH-ASSAM                                           
 Above details taken from IMD 
   
Station Code      LKH
Station Lat.       27.239
Station Long.      94.107
Station Height(m)   95.0
Site Class        C   Vs30 between 200 m/sec to 375 m/sec *  
Record Time       04.05.2012 20:09:48.189
Sampling Rate     200. Hz
 Record Duration   65.235 Sec.
 Direction         Vert. (Up positive)
Max. Acceleration      4.370 cm/sec**2
     
  * For reference see Site Classification link of website 
     
 Base Line Corrected and Low Pass Filtered (Cut Off at 35 Hz) Time History
 Acceleration data in cm/sec**2
    
[...]
      -0.165
      -0.024
       0.099
       0.215
       0.327
       0.414
       0.440
       0.385
       0.261
       0.114
      -0.010
      -0.090
      -0.130
      -0.145
      -0.142
      -0.117
      -0.067
      -0.001
       0.069
       0.126
       0.165
       0.187
       0.195
       0.185
       0.149
       0.088
       0.009
      -0.065
      -0.112
      -0.113
      -0.071
      -0.011
       0.038
       0.061
       0.059
       0.041
       0.016
      -0.016
      -0.053
      -0.093
      -0.130
      -0.162
      -0.187
      -0.215
      -0.254
      -0.302
      -0.346
      -0.362
      -0.338
      -0.273
      -0.177
      -0.059
       0.082
       0.247
       0.418
       0.555
       0.619
       0.589
       0.467
       0.271
       0.022
      -0.254
      -0.513
      -0.700
      -0.773
      -0.724
      -0.581
      -0.383
      -0.159
       0.076
       0.298
       0.471
       0.558
       0.551
       0.478
       0.381
       0.287
       0.197
       0.106
       0.028
      -0.011
       0.003
       0.046
       0.070
       0.035
      -0.047
      -0.123
      -0.147
      -0.120
      -0.088
      -0.091
      -0.126
      -0.160
      -0.164
      -0.144
      -0.130
      -0.139
      -0.148
      -0.119
      -0.042
       0.049
       0.111
       0.128
       0.124
       0.132
       0.162
       0.192
       0.189
       0.136
       0.048
      -0.045
      -0.120
      -0.168
      -0.194
      -0.196
      -0.174
      -0.130
      -0.076
      -0.026
       0.017
       0.057
       0.105
       0.158
       0.200
       0.212
       0.180
       0.111
       0.021
      -0.069
      -0.142
      -0.195
      -0.233
      -0.263
      -0.286
      -0.295
      -0.286
      -0.263
      -0.235
      -0.212
      -0.190
      -0.151
      -0.074
       0.046
       0.189
       0.318
       0.400
       0.430
       0.423
       0.396
       0.347
       0.263
       0.133
      -0.033
      -0.199
      -0.333
      -0.422
      -0.476
      -0.501
      -0.482
      -0.391
      -0.217
       0.015
       0.257
       0.460
       0.596
       0.658
       0.646
       0.559
       0.398
       0.179
      -0.059
      -0.255
      -0.359
      -0.352
      -0.253
      -0.109
       0.031
       0.139
       0.197
       0.198
       0.140
       0.034
      -0.090
      -0.199
      -0.271
      -0.301
      -0.290
      -0.238
      -0.144
      -0.017
       0.118
       0.220
       0.250
       0.187
       0.051
      -0.110
      -0.242
      -0.305
      -0.289
      -0.206
      -0.075
       0.080
       0.225
       0.325
       0.359
       0.333
       0.266
       0.170
       0.041
      -0.124
      -0.302
      -0.451
      -0.534
      -0.534
      -0.463
      -0.343
      -0.203
      -0.071
       0.027
       0.070
       0.052
      -0.015
      -0.097
      -0.147
      -0.126
      -0.023
       0.132
       0.297
       0.443
       0.562
       0.656
       0.715
       0.726
       0.678
       0.568
       0.393
       0.150
      -0.142
      -0.432
      -0.642
      -0.722
      -0.676
      -0.558
      -0.431
      -0.323
      -0.222
      -0.099
       0.051
       0.203
       0.313
       0.357
       0.346
       0.304
       0.246
       0.157
       0.018
      -0.166
      -0.350
      -0.472
      -0.497
      -0.431
      -0.318
      -0.197
      -0.085
       0.024
       0.144
       0.269
       0.375
       0.417
       0.354
       0.184
      -0.045
      -0.250
      -0.357
      -0.352
      -0.278
      -0.201
      -0.158
      -0.138
      -0.106
      -0.044
       0.035
       0.097
       0.119
       0.105
       0.075
       0.049
       0.037
       0.044
       0.074
       0.130
       0.204
       0.272
       0.303
       0.282
       0.222
       0.152
       0.089
       0.025
      -0.060
      -0.160
      -0.241
      -0.264
      -0.220
      -0.138
      -0.059
      -0.005
       0.034
       0.081
       0.143
       0.200
       0.216
       0.170
       0.063
      -0.080
      -0.226
      -0.333
      -0.358
      -0.277
      -0.113
       0.068
       0.198
       0.257
       0.282
       0.318
       0.368
       0.388
       0.323
       0.161
      -0.050
      -0.236
      -0.339
      -0.350
      -0.297
      -0.216
      -0.128
      -0.044
       0.026
       0.068
       0.076
       0.059
       0.042
       0.035
       0.015
      -0.051
      -0.163
      -0.278
      -0.345
      -0.349
      -0.318
      -0.288
      -0.269
      -0.250
      -0.219
      -0.178
      -0.130
      -0.060
       0.054
       0.214
       0.387
       0.516
       0.561
       0.527
       0.458
       0.397
       0.349
       0.280
       0.156
      -0.025
      -0.214
      -0.346
      -0.385
      -0.341
      -0.252
      -0.152
      -0.052
       0.046
       0.127
       0.165
       0.139
       0.050
      -0.079
      -0.217
      -0.334
      -0.409
      -0.432
      -0.398
      -0.302
      -0.135
       0.106
       0.401
       0.701
       0.932
       1.031
       0.972
       0.773
       0.473
       0.121
      -0.238
      -0.558
      -0.798
      -0.928
      -0.931
      -0.800
      -0.548
      -0.211
       0.147
       0.457
       0.657
       0.711
       0.605
       0.364
       0.041
      -0.285
      -0.544
      -0.698
      -0.751
      -0.721
      -0.606
      -0.383
      -0.046
       0.360
       0.741
       0.998
       1.070
       0.948
       0.670
       0.302
      -0.079
      -0.403
      -0.621
      -0.712
      -0.675
      -0.535
      -0.337
      -0.128
       0.058
       0.211
       0.322
       0.370
       0.333
       0.221
       0.082
      -0.020
      -0.046
      -0.010
       0.049
       0.094
       0.111
       0.095
       0.031
      -0.091
      -0.264
      -0.442
      -0.559
      -0.563
      -0.449
      -0.258
      -0.053
       0.113
       0.216
       0.256
       0.254
       0.237
       0.221
       0.198
       0.145
       0.039
      -0.113
      -0.276
      -0.395
      -0.422
      -0.338
      -0.163
       0.053
       0.268
       0.464
       0.642
       0.795
       0.897
       0.923
       0.869
       0.754
       0.597
       0.402
       0.163
      -0.115
      -0.405
      -0.662
      -0.848
      -0.952
      -0.995
      -1.007
      -1.007
      -0.998
      -0.965
      -0.885
      -0.738
      -0.518
      -0.243
       0.058
       0.355
       0.628
       0.874
       1.089
       1.263
       1.368
       1.379
       1.279
       1.069
       0.761
       0.370
      -0.073
      -0.515
      -0.882
      -1.099
      -1.129
      -0.984
      -0.709
      -0.352
       0.055
       0.478
       0.856
       1.109
       1.167
       1.009
       0.667
       0.198
      -0.346
      -0.915
      -1.447
      -1.843
      -2.004
      -1.877
      -1.497
      -0.955
      -0.352
       0.244
       0.798
       1.279
       1.647
       1.860
       1.898
       1.775
       1.522
       1.170
       0.742
       0.274
      -0.177
      -0.549
      -0.812
      -0.978
      -1.087
      -1.163
      -1.187
      -1.120
      -0.937
      -0.651
      -0.307
       0.050
       0.381
       0.651
       0.819
       0.857
       0.768
       0.597
       0.394
       0.187
      -0.028
      -0.259
      -0.494
      -0.685
      -0.778
      -0.745
      -0.603
      -0.401
      -0.182
       0.035
       0.250
       0.461
       0.654
       0.804
       0.889
       0.888
       0.786
       0.577
       0.272
      -0.088
      -0.445
      -0.740
      -0.937
      -1.021
      -0.983
      -0.815
      -0.526
      -0.156
       0.229
       0.562
       0.800
       0.932
       0.962
       0.900
       0.755
       0.543
       0.291
       0.036
      -0.193
      -0.388
      -0.563
      -0.726
      -0.862
      -0.930
      -0.903
      -0.787
      -0.615
      -0.403
      -0.132
       0.220
       0.635
       1.031
       1.302
       1.377
       1.250
       0.977
       0.633
       0.276
      -0.067
      -0.385
      -0.658
      -0.846
      -0.902
      -0.815
      -0.627
      -0.417
      -0.256
      -0.172
      -0.143
      -0.127
      -0.105
      -0.086
      -0.091
      -0.121
      -0.149
      -0.142
      -0.080
       0.023
       0.131
       0.212
       0.269
       0.325
       0.392
       0.450
       0.461
       0.408
       0.312
       0.219
       0.160
       0.125
       0.077
      -0.015
      -0.152
      -0.319
      -0.496
      -0.667
      -0.799
      -0.838
      -0.734
      -0.476
      -0.110
       0.277
       0.601
       0.818
       0.934
       0.967
       0.915
       0.762
       0.504
       0.176
      -0.171
      -0.486
      -0.742
      -0.919
      -0.996
      -0.947
      -0.759
      -0.462
      -0.131
       0.142
       0.297
       0.336
       0.310
       0.272
       0.241
       0.198
       0.125
       0.040
      -0.010
       0.007
       0.081
       0.176
       0.264
       0.350
       0.436
       0.497
       0.485
       0.374
       0.201
       0.046
      -0.019
       0.018
       0.103
       0.149
       0.087
      -0.085
      -0.300
      -0.455
      -0.480
      -0.382
      -0.238
      -0.135
      -0.119
      -0.178
      -0.273
      -0.362
      -0.407
      -0.378
      -0.264
      -0.078
       0.157
       0.422
       0.697
       0.948
       1.119
       1.156
       1.034
       0.760
       0.361
      -0.114
      -0.599
      -1.015
      -1.286
      -1.369
      -1.266
      -1.021
      -0.698
      -0.362
      -0.071
       0.135
       0.247
       0.288
       0.293
       0.285
       0.268
       0.236
       0.193
       0.154
       0.144
       0.177
       0.245
       0.310
       0.323
       0.251
       0.094
      -0.107
      -0.293
      -0.405
      -0.406
      -0.284
      -0.066
       0.190
       0.413
       0.542
       0.553
       0.458
       0.286
       0.067
      -0.177
      -0.420
      -0.622
      -0.732
      -0.714
      -0.570
      -0.343
      -0.094
       0.142
       0.365
       0.587
       0.790
       0.913
       0.884
       0.681
       0.355
       0.011
      -0.256
      -0.411
      -0.484
      -0.532
      -0.598
      -0.681
      -0.748
      -0.757
      -0.679
      -0.510
      -0.271
       0.014
       0.326
       0.649
       0.954
       1.192
       1.301
       1.234
       0.985
       0.598
       0.156
      -0.253
      -0.571
      -0.772
      -0.856
      -0.836
      -0.736
      -0.592
      -0.439
      -0.303
      -0.186
      -0.079
       0.025
       0.118
       0.184
       0.215
       0.231
       0.260
       0.310
       0.347
       0.316
       0.186
      -0.021
      -0.228
      -0.348
      -0.328
      -0.178
       0.034
       0.232
       0.370
       0.448
       0.479
       0.462
       0.372
       0.202
      -0.018
      -0.222
      -0.343
      -0.358
      -0.285
      -0.163
      -0.020
       0.130
       0.276
       0.396
       0.460
       0.435
       0.305
       0.076
      -0.214
      -0.506
      -0.735
      -0.846
      -0.816
      -0.655
      -0.400
      -0.110
       0.161
       0.380
       0.538
       0.637
       0.671
       0.627
       0.506
       0.337
       0.172
       0.061
       0.022
       0.037
       0.063
       0.054
      -0.012
      -0.120
      -0.240
      -0.353
      -0.461
      -0.562
      -0.630
      -0.620
      -0.501
      -0.288
      -0.031
       0.211
       0.397
       0.517
       0.569
       0.544
       0.424
       0.197
      -0.109
      -0.421
      -0.638
      -0.692
      -0.589
      -0.397
      -0.180
       0.042
       0.284
       0.535
       0.730
       0.786
       0.664
       0.399
       0.076
      -0.222
      -0.447
      -0.587
      -0.646
      -0.631
      -0.542
      -0.386
      -0.183
       0.026
       0.194
       0.289
       0.318
       0.315
       0.305
       0.286
       0.242
       0.169
       0.076
      -0.024
      -0.124
      -0.222
      -0.311
      -0.370
      -0.380
      -0.327
      -0.211
      -0.047
       0.143
       0.333
       0.509
       0.667
       0.811
       0.933
       1.005
       0.995
       0.888
       0.702
       0.471
       0.221
      -0.037
      -0.301
      -0.549
      -0.738
      -0.816
      -0.750
      -0.543
      -0.232
       0.112
       0.407
       0.583
       0.600
       0.465
       0.216
      -0.096
      -0.435
      -0.773
      -1.087
      -1.352
      -1.542
      -1.652
      -1.697
      -1.699
      -1.671
      -1.604
      -1.477
      -1.275
      -1.005
      -0.690
      -0.355
      -0.007
       0.368
       0.788
       1.262
       1.772
       2.274
       2.708
       3.015
       3.163
       3.149
       2.997
       2.745
       2.429
       2.074
       1.691
       1.282
       0.854
       0.423
       0.018
      -0.334
      -0.625
      -0.871
      -1.107
      -1.370
      -1.661
      -1.934
      -2.132
      -2.248
      -2.343
      -2.473
      -2.620
      -2.730
      -2.793
      -2.849
      -2.902
      -2.902
      -2.788
      -2.541
      -2.166
      -1.669
      -1.058
      -0.346
       0.457
       1.334
       2.236
       3.077
       3.754
       4.192
       4.370
       4.318
       4.083
       3.701
       3.201
       2.640
       2.104
       1.672
       1.353
       1.087
       0.790
       0.410
      -0.046
      -0.534
      -1.011
      -1.463
      -1.898
      -2.298
      -2.602
      -2.734
      -2.649
      -2.356
      -1.918
      -1.426
      -0.974
      -0.620
      -0.366
      -0.171
       0.007
       0.164
       0.253
       0.224
       0.085
      -0.107
      -0.282
      -0.404
      -0.461
      -0.449
      -0.362
      -0.214
      -0.040
       0.121
       0.249
       0.350
       0.448
       0.564
       0.694
       0.807
       0.858
       0.820
       0.694
       0.514
       0.312
       0.099
      -0.142
      -0.418
      -0.688
      -0.876
      -0.919
      -0.801
      -0.533
      -0.121
       0.423
       1.040
       1.619
       2.044
       2.256
       2.259
       2.085
       1.758
       1.296
       0.743
       0.168
      -0.358
      -0.795
      -1.135
      -1.389
      -1.559
      -1.630
      -1.584
      -1.424
      -1.192
      -0.944
      -0.707
      -0.468
      -0.209
       0.052
       0.259
       0.352
       0.312
       0.162
      -0.056
      -0.313
      -0.604
      -0.919
      -1.218
      -1.429
      -1.489
      -1.385
      -1.157
      -0.862
      -0.530
      -0.176
       0.175
       0.479
       0.698
       0.831
       0.916
       1.007
       1.134
       1.289
       1.434
       1.536
       1.584
       1.576
       1.514
       1.404
       1.258
       1.091
       0.912
       0.720
       0.502
       0.248
      -0.028
      -0.284
      -0.464
      -0.541
      -0.530
      -0.479
      -0.438
      -0.431
      -0.447
      -0.468
      -0.493
      -0.540
      -0.624
      -0.748
      -0.909
      -1.107
      -1.333
      -1.551
      -1.707
      -1.761
      -1.703
      -1.550
      -1.321
      -1.029
      -0.693
      -0.338
       0.004
       0.316
       0.589
       0.824
       1.023
       1.185
       1.303
       1.374
       1.413
       1.453
       1.529
       1.642
       1.763
       1.849
       1.870
       1.816
       1.682
       1.454
       1.109
       0.646
       0.095
      -0.485
      -1.036
      -1.517
      -1.888
      -2.103
      -2.123
      -1.941
      -1.592
      -1.142
      -0.660
      -0.211
       0.152
       0.389
       0.473
       0.403
       0.201
      -0.089
      -0.403
      -0.673
      -0.848
      -0.916
      -0.891
      -0.798
      -0.652
      -0.469
      -0.272
      -0.076
       0.119
       0.327
       0.540
       0.720
       0.829
       0.868
       0.882
       0.916
       0.981
       1.043
       1.058
       1.007
       0.900
       0.754
       0.576
       0.359
       0.099
      -0.186
      -0.466
      -0.704
      -0.864
      -0.900
      -0.777
      -0.499
      -0.122
       0.260
       0.562
       0.742
       0.804
       0.761
       0.607
       0.320
      -0.096
      -0.594
      -1.089
      -1.498
      -1.780
      -1.933
      -1.969
      -1.877
      -1.627
      -1.202
      -0.630
       0.013
       0.644
       1.204
       1.664
       2.001
       2.177
       2.164
       1.972
       1.662
       1.307
       0.947
       0.573
       0.155
      -0.308
      -0.766
      -1.141
      -1.368
      -1.427
      -1.341
      -1.154
      -0.913
      -0.652
      -0.401
      -0.178
      -0.001
       0.110
       0.130
       0.051
      -0.093
      -0.226
      -0.271
      -0.194
      -0.026
       0.174
       0.359
       0.508
       0.620
       0.690
       0.697
       0.626
       0.481
       0.303
       0.141
       0.026
      -0.048
      -0.100
      -0.137
      -0.138
      -0.078
       0.042
       0.188
       0.303
       0.352
       0.331
       0.262
       0.158
       0.019
      -0.149
      -0.313
      -0.412
      -0.402
      -0.281
      -0.086
       0.136
       0.341
       0.486
       0.533
       0.466
       0.320
       0.162
       0.046
      -0.018
      -0.052
      -0.074
      -0.088
      -0.092
      -0.101
      -0.133
      -0.197
      -0.292
      -0.408
      -0.537
      -0.662
      -0.765
      -0.824
      -0.820
      -0.739
      -0.587
      -0.403
      -0.239
      -0.126
      -0.040
       0.072
       0.240
       0.427
       0.557
       0.578
       0.514
       0.442
       0.417
       0.429
       0.425
       0.370
       0.284
       0.223
       0.220
       0.259
       0.283
       0.246
       0.150
       0.038
      -0.046
      -0.082
      -0.073
      -0.024
       0.068
       0.200
       0.349
       0.471
       0.523
       0.496
       0.418
       0.321
       0.203
       0.028
      -0.225
      -0.536
      -0.840
      -1.073
      -1.204
      -1.239
      -1.200
      -1.104
      -0.968
      -0.816
      -0.681
      -0.592
      -0.541
      -0.494
      -0.400
      -0.228
       0.024
       0.334
       0.677
       1.037
       1.397
       1.717
       1.936
       1.988
       1.849
       1.548
       1.151
       0.720
       0.295
      -0.102
      -0.458
      -0.755
      -0.969
      -1.083
      -1.098
      -1.033
      -0.911
      -0.742
      -0.534
      -0.301
      -0.074
       0.112
       0.229
       0.274
       0.263
       0.226
       0.172
       0.090
      -0.044
      -0.230
      -0.445
      -0.645
      -0.796
      -0.886
      -0.924
      -0.933
      -0.925
      -0.895
      -0.829
      -0.712
      -0.536
      -0.295
       0.011
       0.371
       0.750
       1.102
       1.383
       1.575
       1.678
       1.692
       1.595
       1.363
       1.004
       0.572
       0.151
      -0.190
      -0.420
      -0.539
      -0.558
