Origin Time       10/12/2006 08:19:29
Lat.              31.5 N 
Long.             76.7 E 
Depth (Km)         33.0
Magnitude         3.5
 Region           MANDI                                                            
 Above details taken from IMD 
   
Station Code      MAN
Station Lat.       31.701
Station Long.      76.933
Station Height(m)  784.0
Site Class        B   Vs30 between 375 m/sec to 700 m/sec *  
Record Time       10.12.2006 08:21:32.979
Sampling Rate     200. Hz
 Record Duration   54.585 Sec.
 Direction         Vert. (Up positive)
Max. Acceleration     -3.121 cm/sec**2
     
  * For reference see Site Classification link of website 
     
 Base Line Corrected and Low Pass Filtered (Cut Off at 35 Hz) Time History
 Acceleration data in cm/sec**2
    
[...]
      -0.027
      -0.030
      -0.012
       0.014
       0.024
       0.008
      -0.023
      -0.043
      -0.034
      -0.002
       0.025
       0.026
       0.001
      -0.024
      -0.026
      -0.006
       0.011
       0.008
      -0.010
      -0.019
      -0.004
       0.020
       0.027
       0.006
      -0.027
      -0.040
      -0.019
       0.018
       0.041
       0.030
      -0.004
      -0.033
      -0.036
      -0.012
       0.017
       0.028
       0.017
      -0.004
      -0.015
      -0.010
       0.004
       0.014
       0.013
       0.004
      -0.004
      -0.004
       0.002
       0.005
      -0.002
      -0.017
      -0.027
      -0.022
      -0.005
       0.009
       0.009
      -0.003
      -0.017
      -0.023
      -0.018
      -0.006
       0.003
       0.008
       0.009
       0.008
       0.005
       0.000
      -0.007
      -0.012
      -0.015
      -0.014
      -0.011
      -0.007
      -0.002
       0.007
       0.016
       0.023
       0.025
       0.022
       0.016
       0.007
      -0.003
      -0.008
      -0.007
      -0.001
       0.003
       0.003
       0.001
       0.004
       0.013
       0.020
       0.017
       0.006
      -0.002
       0.000
       0.008
       0.010
       0.001
      -0.014
      -0.022
      -0.018
      -0.003
       0.017
       0.033
       0.034
       0.015
      -0.017
      -0.045
      -0.049
      -0.025
       0.008
       0.026
       0.018
      -0.001
      -0.013
      -0.009
       0.001
       0.003
      -0.006
      -0.017
      -0.017
      -0.003
       0.015
       0.026
       0.023
       0.008
      -0.010
      -0.020
      -0.018
      -0.011
      -0.007
      -0.011
      -0.022
      -0.033
      -0.035
      -0.021
       0.007
       0.038
       0.059
       0.055
       0.028
      -0.011
      -0.046
      -0.068
      -0.076
      -0.080
      -0.081
      -0.075
      -0.054
      -0.016
       0.026
       0.054
       0.058
       0.045
       0.035
       0.037
       0.039
       0.012
      -0.060
      -0.156
      -0.229
      -0.251
      -0.231
      -0.199
      -0.170
      -0.132
      -0.067
       0.016
       0.077
       0.083
       0.038
      -0.007
      -0.006
       0.047
       0.107
       0.119
       0.062
      -0.034
      -0.121
      -0.166
      -0.166
      -0.129
      -0.065
       0.019
       0.106
       0.169
       0.197
       0.206
       0.224
       0.271
       0.340
       0.400
       0.410
       0.340
       0.193
       0.016
      -0.114
      -0.133
      -0.029
       0.135
       0.259
       0.271
       0.179
       0.057
      -0.021
      -0.040
      -0.030
      -0.012
       0.030
       0.117
       0.228
       0.284
       0.215
       0.026
      -0.192
      -0.330
      -0.345
      -0.282
      -0.225
      -0.226
      -0.275
      -0.324
      -0.331
      -0.281
      -0.185
      -0.052
       0.107
       0.264
       0.373
       0.398
       0.340
       0.238
       0.139
       0.064
       0.001
      -0.075
      -0.178
      -0.305
      -0.426
      -0.492
      -0.445
      -0.263
       0.014
       0.294
       0.481
       0.530
       0.474
       0.375
       0.274
       0.160
       0.006
      -0.188
      -0.375
      -0.506
      -0.570
      -0.605
      -0.642
      -0.664
      -0.608
      -0.435
      -0.171
       0.106
       0.323
       0.462
       0.545
       0.599
       0.618
       0.574
       0.450
       0.267
       0.077
      -0.081
      -0.197
      -0.289
      -0.368
      -0.420
      -0.413
      -0.317
      -0.127
       0.127
       0.382
       0.569
       0.645
       0.610
       0.502
       0.361
       0.199
      -0.001
      -0.251
      -0.528
      -0.775
      -0.926
      -0.936
      -0.795
      -0.525
      -0.166
       0.226
       0.584
       0.845
       0.975
       0.973
       0.868
       0.694
       0.471
       0.205
      -0.095
      -0.401
      -0.667
      -0.857
      -0.954
      -0.960
      -0.870
      -0.674
      -0.376
      -0.011
       0.363
       0.685
       0.909
       1.014
       0.988
       0.819
       0.500
       0.050
      -0.459
      -0.902
      -1.152
      -1.153
      -0.957
      -0.691
      -0.457
      -0.269
      -0.073
       0.177
       0.456
       0.692
       0.829
       0.861
       0.813
       0.683
       0.446
       0.095
      -0.301
      -0.605
      -0.696
      -0.561
      -0.318
      -0.131
      -0.085
      -0.127
      -0.121
       0.030
       0.292
       0.524
       0.589
       0.450
       0.180
      -0.105
      -0.323
      -0.461
      -0.544
      -0.590
      -0.598
      -0.558
      -0.476
      -0.359
      -0.197
       0.039
       0.348
       0.664
       0.872
       0.886
       0.725
       0.499
       0.326
       0.245
       0.198
       0.088
      -0.124
      -0.370
      -0.508
      -0.436
      -0.187
       0.081
       0.206
       0.145
      -0.003
      -0.098
      -0.067
       0.051
       0.156
       0.179
       0.122
       0.040
      -0.021
      -0.062
      -0.120
      -0.220
      -0.330
      -0.369
      -0.276
      -0.072
       0.141
       0.255
       0.234
       0.131
       0.035
       0.009
       0.059
       0.144
       0.208
       0.207
       0.137
       0.030
      -0.077
      -0.175
      -0.278
      -0.386
      -0.466
      -0.471
      -0.389
      -0.250
      -0.099
       0.044
       0.182
       0.316
       0.416
       0.448
       0.415
       0.367
       0.363
       0.411
       0.461
       0.443
       0.332
       0.165
       0.011
      -0.087
      -0.138
      -0.192
      -0.289
      -0.421
      -0.532
      -0.558
      -0.477
      -0.330
      -0.183
      -0.075
       0.003
       0.074
       0.146
       0.195
       0.187
       0.106
      -0.022
      -0.135
      -0.183
      -0.168
      -0.146
      -0.176
      -0.257
      -0.311
      -0.250
      -0.052
       0.213
       0.437
       0.546
       0.535
       0.449
       0.338
       0.223
       0.092
      -0.074
      -0.265
      -0.438
      -0.549
      -0.595
      -0.612
      -0.630
      -0.645
      -0.619
      -0.514
      -0.318
      -0.051
       0.240
       0.492
       0.638
       0.637
       0.497
       0.274
       0.047
      -0.122
      -0.205
      -0.201
      -0.127
      -0.011
       0.106
       0.177
       0.167
       0.083
      -0.023
      -0.077
      -0.043
       0.049
       0.125
       0.137
       0.112
       0.131
       0.246
       0.422
       0.547
       0.512
       0.294
      -0.021
      -0.288
      -0.404
      -0.365
      -0.264
      -0.201
      -0.207
      -0.219
      -0.147
       0.043
       0.294
       0.511
       0.634
       0.662
       0.628
       0.553
       0.437
       0.277
       0.098
      -0.054
      -0.141
      -0.174
      -0.221
      -0.350
      -0.552
      -0.728
      -0.755
      -0.582
      -0.278
       0.020
       0.196
       0.216
       0.139
       0.055
       0.038
       0.100
       0.193
       0.241
       0.182
       0.000
      -0.261
      -0.522
      -0.700
      -0.732
      -0.595
      -0.325
      -0.019
       0.201
       0.254
       0.162
       0.035
      -0.008
       0.074
       0.211
       0.279
       0.201
       0.007
      -0.182
      -0.247
      -0.167
      -0.038
       0.002
      -0.099
      -0.257
      -0.320
      -0.213
      -0.003
       0.171
       0.237
       0.253
       0.331
       0.499
       0.664
       0.694
       0.538
       0.268
       0.001
      -0.196
      -0.339
      -0.475
      -0.609
      -0.688
      -0.653
      -0.506
      -0.311
      -0.151
      -0.061
      -0.005
       0.086
       0.244
       0.429
       0.549
       0.531
       0.386
       0.206
       0.096
       0.091
       0.121
       0.083
      -0.066
      -0.253
      -0.347
      -0.270
      -0.073
       0.101
       0.132
       0.024
      -0.113
      -0.160
      -0.077
       0.084
       0.231
       0.287
       0.229
       0.102
       0.006
       0.037
       0.215
       0.455
       0.623
       0.640
       0.533
       0.386
       0.249
       0.100
      -0.111
      -0.379
      -0.617
      -0.724
      -0.669
      -0.517
      -0.371
      -0.290
      -0.255
      -0.203
      -0.089
       0.075
       0.238
       0.346
       0.367
       0.296
       0.146
      -0.053
      -0.256
      -0.418
      -0.512
      -0.544
      -0.539
      -0.511
      -0.450
      -0.334
      -0.169
       0.003
       0.138
       0.220
       0.276
       0.334
       0.383
       0.380
       0.290
       0.136
      -0.010
      -0.085
      -0.084
      -0.044
      -0.004
       0.027
       0.057
       0.072
       0.041
      -0.043
      -0.122
      -0.110
       0.035
       0.263
       0.461
       0.537
       0.475
       0.328
       0.163
       0.027
      -0.064
      -0.110
      -0.127
      -0.143
      -0.184
      -0.255
      -0.331
      -0.387
      -0.415
      -0.422
      -0.406
      -0.344
      -0.219
      -0.044
       0.130
       0.245
       0.263
       0.192
       0.071
      -0.048
      -0.137
      -0.196
      -0.240
      -0.268
      -0.250
      -0.155
       0.013
       0.209
       0.375
       0.480
       0.528
       0.549
       0.570
       0.591
       0.579
       0.484
       0.275
      -0.013
      -0.288
      -0.449
      -0.460
      -0.367
      -0.252
      -0.166
      -0.114
      -0.078
      -0.061
      -0.081
      -0.138
      -0.186
      -0.160
      -0.038
       0.124
       0.224
       0.195
       0.059
      -0.094
      -0.182
      -0.199
      -0.192
      -0.195
      -0.192
      -0.146
      -0.058
       0.032
       0.082
       0.097
       0.120
       0.181
       0.267
       0.334
       0.353
       0.328
       0.286
       0.240
       0.167
       0.039
      -0.135
      -0.291
      -0.364
      -0.357
      -0.334
      -0.349
      -0.372
      -0.317
      -0.135
       0.115
       0.309
       0.357
       0.268
       0.123
      -0.021
      -0.166
      -0.341
      -0.534
      -0.674
      -0.681
      -0.536
      -0.301
      -0.068
       0.112
       0.247
       0.361
       0.440
       0.433
       0.314
       0.122
      -0.058
      -0.164
      -0.195
      -0.196
      -0.217
      -0.292
      -0.423
      -0.563
      -0.608
      -0.453
      -0.075
       0.426
       0.881
       1.160
       1.234
       1.152
       0.967
       0.703
       0.367
      -0.013
      -0.365
      -0.605
      -0.677
      -0.590
      -0.416
      -0.256
      -0.183
      -0.208
      -0.278
      -0.317
      -0.273
      -0.145
       0.028
       0.194
       0.315
       0.395
       0.456
       0.499
       0.484
       0.363
       0.142
      -0.107
      -0.300
      -0.408
      -0.465
      -0.517
      -0.563
      -0.558
      -0.458
      -0.262
      -0.013
       0.226
       0.399
       0.478
       0.469
       0.399
       0.300
       0.191
       0.074
      -0.055
      -0.200
      -0.360
      -0.516
      -0.637
      -0.686
      -0.642
      -0.518
      -0.343
      -0.129
       0.134
       0.444
       0.737
       0.906
       0.879
       0.682
       0.431
       0.230
       0.094
      -0.038
      -0.219
      -0.425
      -0.564
      -0.556
      -0.401
      -0.188
      -0.025
       0.041
       0.051
       0.088
       0.207
       0.398
       0.606
       0.773
       0.861
       0.844
       0.693
       0.389
      -0.035
      -0.484
      -0.837
      -1.028
      -1.065
      -1.003
      -0.882
      -0.706
      -0.469
      -0.193
       0.065
       0.252
       0.360
       0.438
       0.560
       0.759
       0.991
       1.151
       1.126
       0.867
       0.427
      -0.070
      -0.510
      -0.835
      -1.049
      -1.165
      -1.170
      -1.039
      -0.764
      -0.368
       0.101
       0.587
       1.034
       1.383
       1.590
       1.638
       1.546
       1.337
       1.020
       0.595
       0.089
      -0.419
      -0.823
      -1.040
      -1.049
      -0.890
      -0.630
      -0.335
      -0.053
       0.190
       0.377
       0.495
       0.540
       0.512
       0.416
       0.246
      -0.013
      -0.375
      -0.806
      -1.212
      -1.460
      -1.437
      -1.112
      -0.550
       0.117
       0.742
       1.220
       1.493
       1.537
       1.344
       0.931
       0.359
      -0.264
      -0.821
      -1.239
      -1.509
      -1.655
      -1.684
      -1.570
      -1.284
      -0.841
      -0.311
       0.207
       0.631
       0.911
       1.021
       0.939
       0.656
       0.204
      -0.322
      -0.781
      -1.043
      -1.041
      -0.789
      -0.352
       0.195
       0.782
       1.331
       1.765
       2.012
       2.021
       1.780
       1.325
       0.744
       0.165
      -0.291
      -0.569
      -0.708
      -0.814
      -0.976
      -1.194
      -1.369
      -1.374
      -1.152
      -0.755
      -0.292
       0.152
       0.554
       0.892
       1.091
       1.041
       0.704
       0.207
      -0.190
      -0.259
       0.044
       0.562
       1.057
       1.355
       1.405
       1.230
       0.863
       0.316
      -0.393
      -1.198
      -1.983
      -2.616
      -3.008
      -3.121
      -2.953
      -2.525
      -1.887
      -1.127
      -0.343
       0.395
       1.063
       1.655
       2.151
       2.491
       2.609
       2.487
       2.170
       1.726
       1.190
       0.557
      -0.157
      -0.868
      -1.446
      -1.789
      -1.875
      -1.755
      -1.485
      -1.067
      -0.476
       0.278
       1.092
       1.812
       2.316
       2.563
       2.568
       2.346
       1.898
       1.262
       0.544
      -0.118
      -0.630
      -0.979
      -1.204
      -1.353
      -1.462
      -1.567
      -1.678
      -1.747
      -1.662
      -1.330
      -0.789
      -0.230
       0.120
       0.162
      -0.004
      -0.168
      -0.175
      -0.013
       0.231
       0.474
       0.688
       0.884
       1.060
       1.192
       1.268
       1.296
       1.280
       1.188
       0.979
       0.646
       0.249
      -0.122
      -0.416
      -0.653
      -0.903
      -1.210
      -1.540
      -1.787
      -1.838
      -1.648
      -1.269
      -0.796
      -0.294
       0.216
       0.713
       1.122
       1.335
       1.303
       1.108
       0.926
       0.879
       0.919
       0.844
       0.465
      -0.230
      -1.049
      -1.727
      -2.101
      -2.169
      -2.031
      -1.771
      -1.403
      -0.884
      -0.189
       0.633
       1.440
       2.059
       2.376
       2.390
       2.208
       1.960
       1.722
       1.482
       1.173
       0.738
       0.176
      -0.458
      -1.071
      -1.564
      -1.849
      -1.875
      -1.634
      -1.167
      -0.565
       0.043
       0.508
       0.718
       0.650
       0.381
       0.036
      -0.293
      -0.576
      -0.812
      -0.978
      -1.011
      -0.869
      -0.580
      -0.249
      -0.009
       0.047
      -0.100
      -0.382
      -0.669
      -0.817
      -0.731
      -0.406
       0.083
       0.619
       1.078
       1.356
       1.415
       1.309
       1.160
       1.075
       1.080
       1.113
       1.080
       0.946
       0.753
       0.575
       0.445
       0.335
       0.189
      -0.014
      -0.248
      -0.456
      -0.587
      -0.634
      -0.642
      -0.676
      -0.781
      -0.944
      -1.102
      -1.189
      -1.181
      -1.095
      -0.946
      -0.707
      -0.329
       0.173
       0.684
       1.043
       1.166
       1.105
       1.005
       0.969
       0.980
       0.934
       0.735
       0.383
      -0.032
      -0.394
      -0.632
      -0.739
      -0.739
      -0.662
      -0.539
      -0.413
      -0.342
      -0.356
      -0.418
      -0.430
      -0.308
      -0.047
       0.277
       0.570
       0.784
       0.921
       1.000
       1.026
       0.990
       0.880
       0.688
       0.402
       0.010
      -0.466
      -0.952
      -1.334
      -1.520
      -1.492
      -1.313
      -1.083
      -0.869
      -0.675
      -0.473
      -0.252
      -0.042
       0.116
       0.206
       0.251
       0.292
       0.368
       0.500
       0.684
       0.876
       1.002
       0.989
       0.814
       0.530
       0.228
      -0.019
      -0.190
      -0.299
      -0.360
      -0.374
      -0.333
      -0.247
      -0.148
      -0.080
      -0.068
      -0.103
      -0.143
      -0.141
      -0.084
      -0.011
       0.011
      -0.053
      -0.164
      -0.237
      -0.208
      -0.090
       0.046
       0.138
       0.179
       0.201
       0.228
       0.251
       0.247
       0.208
       0.152
       0.098
       0.045
      -0.011
      -0.050
      -0.034
       0.057
       0.197
       0.325
       0.384
       0.364
       0.298
       0.222
       0.146
       0.053
      -0.062
      -0.177
      -0.252
      -0.273
      -0.266
      -0.274
      -0.307
      -0.336
      -0.332
      -0.318
      -0.359
      -0.492
      -0.655
      -0.720
      -0.593
      -0.314
      -0.038
       0.080
       0.004
      -0.166
      -0.271
      -0.219
      -0.041
       0.152
       0.260
       0.258
       0.193
       0.120
       0.062
       0.008
      -0.050
      -0.087
      -0.055
       0.074
       0.265
       0.432
       0.501
       0.465
       0.390
       0.366
       0.448
       0.619
       0.791
       0.853
       0.743
       0.495
       0.218
       0.029
      -0.024
       0.030
       0.121
       0.183
       0.187
       0.147
       0.103
       0.088
       0.095
       0.082
       0.016
      -0.080
      -0.145
      -0.128
      -0.048
       0.019
      -0.004
      -0.140
      -0.338
      -0.518
      -0.619
      -0.628
      -0.573
      -0.492
      -0.409
      -0.330
      -0.259
      -0.216
      -0.229
      -0.308
      -0.430
      -0.544
      -0.588
      -0.522
      -0.358
      -0.171
      -0.061
      -0.085
      -0.207
      -0.331
      -0.365
      -0.277
      -0.092
       0.130
       0.331
       0.465
       0.509
       0.479
       0.424
       0.409
       0.477
       0.628
       0.815
       0.961
       0.991
       0.868
       0.616
       0.320
       0.088
      -0.003
       0.049
       0.172
       0.258
       0.236
       0.127
       0.038
       0.071
       0.236
       0.433
       0.530
       0.455
       0.240
      -0.034
      -0.310
      -0.587
      -0.890
      -1.216
      -1.508
      -1.670
      -1.633
      -1.412
      -1.092
      -0.761
      -0.438
      -0.099
       0.251
       0.532
       0.638
       0.529
       0.292
       0.073
      -0.043
      -0.090
      -0.157
      -0.277
      -0.385
      -0.389
      -0.253
      -0.018
       0.248
       0.502
       0.731
       0.916
       1.017
       0.979
       0.779
       0.459
       0.119
      -0.131
      -0.233
      -0.212
      -0.139
      -0.073
      -0.025
       0.027
