Origin Time       10/12/2006 08:19:29
Lat.              31.5 N 
Long.             76.7 E 
Depth (Km)         33.0
Magnitude         3.5
 Region           MANDI                                                            
 Above details taken from IMD 
     
Station Code      MAN
Station Lat.       31.701  N
Station Long.      76.933  E
Station Height(m)  784.0
Site Class        B   Vs30 between 375 m/sec to 700 m/sec *  
Record Time       10.12.2006 08:21:32.979
Sampling Rate     200. Hz
 Record Duration   54.585 Sec.
 Direction         E-W (E positive)
Max. Acceleration     -5.220 cm/sec**2
     
  * For reference see Site Classification link of website 
     
 Base Line Corrected and Low Pass Filtered (Cut Off at 35 Hz) Time History
 Acceleration data in cm/sec**2
    
[...]
      -0.002
      -0.011
      -0.017
      -0.017
      -0.013
      -0.008
      -0.006
      -0.003
       0.003
       0.012
       0.019
       0.019
       0.010
      -0.003
      -0.012
      -0.012
      -0.005
      -0.001
      -0.005
      -0.013
      -0.015
      -0.008
       0.006
       0.015
       0.010
      -0.005
      -0.015
      -0.009
       0.011
       0.026
       0.021
      -0.001
      -0.023
      -0.032
      -0.030
      -0.024
      -0.022
      -0.024
      -0.025
      -0.020
      -0.010
      -0.003
      -0.003
      -0.005
      -0.003
       0.005
       0.015
       0.020
       0.015
       0.003
      -0.010
      -0.015
      -0.009
       0.001
       0.008
       0.009
       0.010
       0.013
       0.016
       0.018
       0.016
       0.009
       0.002
      -0.002
       0.000
       0.006
       0.009
       0.004
      -0.007
      -0.019
      -0.024
      -0.019
      -0.005
       0.008
       0.011
       0.007
       0.004
       0.005
       0.007
       0.004
      -0.001
      -0.003
      -0.001
       0.004
       0.007
       0.006
       0.003
       0.003
       0.007
       0.014
       0.018
       0.015
       0.006
      -0.007
      -0.019
      -0.023
      -0.015
       0.001
       0.013
       0.014
       0.006
      -0.004
      -0.008
      -0.008
      -0.006
      -0.004
      -0.005
      -0.006
      -0.005
      -0.002
       0.002
       0.006
       0.009
       0.011
       0.008
       0.000
      -0.010
      -0.016
      -0.015
      -0.008
       0.005
       0.019
       0.025
       0.018
       0.003
      -0.006
      -0.002
       0.012
       0.023
       0.022
       0.008
      -0.009
      -0.019
      -0.013
       0.002
       0.014
       0.015
       0.010
       0.003
      -0.001
      -0.004
      -0.004
      -0.001
       0.004
       0.007
       0.006
       0.001
      -0.005
      -0.008
      -0.004
       0.003
       0.007
       0.003
      -0.002
      -0.003
       0.000
       0.001
      -0.003
      -0.012
      -0.020
      -0.021
      -0.009
       0.007
       0.013
       0.004
      -0.011
      -0.017
      -0.010
       0.001
       0.002
      -0.009
      -0.024
      -0.031
      -0.022
      -0.010
      -0.006
      -0.014
      -0.021
      -0.014
       0.007
       0.026
       0.028
       0.012
      -0.008
      -0.023
      -0.028
      -0.030
      -0.040
      -0.056
      -0.065
      -0.055
      -0.027
       0.004
       0.023
       0.024
       0.009
      -0.011
      -0.026
      -0.028
      -0.014
       0.011
       0.039
       0.061
       0.068
       0.056
       0.033
       0.009
      -0.008
      -0.017
      -0.020
      -0.018
      -0.013
      -0.008
       0.004
       0.028
       0.067
       0.115
       0.157
       0.177
       0.156
       0.094
       0.012
      -0.052
      -0.077
      -0.065
      -0.036
      -0.005
       0.026
       0.050
       0.056
       0.034
      -0.014
      -0.067
      -0.099
      -0.095
      -0.058
      -0.011
       0.025
       0.039
       0.029
       0.000
      -0.044
      -0.093
      -0.134
      -0.154
      -0.150
      -0.131
      -0.111
      -0.097
      -0.085
      -0.063
      -0.024
       0.020
       0.050
       0.051
       0.021
      -0.026
      -0.067
      -0.079
      -0.053
      -0.003
       0.046
       0.073
       0.069
       0.044
       0.016
       0.000
       0.002
       0.013
       0.026
       0.047
       0.089
       0.157
       0.233
       0.288
       0.299
       0.259
       0.184
       0.102
       0.038
       0.005
       0.003
       0.029
       0.069
       0.103
       0.113
       0.099
       0.080
       0.076
       0.096
       0.128
       0.154
       0.158
       0.133
       0.088
       0.036
      -0.012
      -0.054
      -0.091
      -0.124
      -0.150
      -0.166
      -0.173
      -0.169
      -0.148
      -0.115
      -0.077
      -0.049
      -0.042
      -0.064
      -0.103
      -0.137
      -0.150
      -0.140
      -0.122
      -0.112
      -0.109
      -0.103
      -0.080
      -0.037
       0.017
       0.062
       0.083
       0.076
       0.052
       0.024
       0.006
      -0.003
      -0.005
      -0.012
      -0.029
      -0.057
      -0.088
      -0.116
      -0.132
      -0.129
      -0.104
      -0.070
      -0.049
      -0.057
      -0.091
      -0.121
      -0.104
      -0.014
       0.134
       0.280
       0.357
       0.327
       0.202
       0.026
      -0.149
      -0.284
      -0.356
      -0.353
      -0.284
      -0.168
      -0.031
       0.096
       0.187
       0.234
       0.252
       0.263
       0.274
       0.270
       0.225
       0.132
       0.009
      -0.098
      -0.153
      -0.152
      -0.121
      -0.093
      -0.077
      -0.060
      -0.027
       0.018
       0.058
       0.080
       0.087
       0.089
       0.093
       0.089
       0.059
      -0.008
      -0.102
      -0.207
      -0.310
      -0.395
      -0.442
      -0.421
      -0.313
      -0.124
       0.107
       0.319
       0.452
       0.478
       0.418
       0.320
       0.228
       0.151
       0.075
      -0.015
      -0.111
      -0.192
      -0.229
      -0.206
      -0.119
       0.013
       0.161
       0.289
       0.371
       0.395
       0.370
       0.318
       0.264
       0.221
       0.195
       0.177
       0.149
       0.089
      -0.015
      -0.149
      -0.283
      -0.386
      -0.432
      -0.408
      -0.321
      -0.189
      -0.042
       0.091
       0.183
       0.213
       0.173
       0.073
      -0.056
      -0.183
      -0.279
      -0.332
      -0.340
      -0.310
      -0.259
      -0.206
      -0.168
      -0.146
      -0.125
      -0.080
       0.001
       0.105
       0.200
       0.255
       0.260
       0.236
       0.225
       0.264
       0.355
       0.457
       0.507
       0.468
       0.352
       0.208
       0.086
       0.019
       0.015
       0.060
       0.136
       0.214
       0.260
       0.244
       0.156
       0.019
      -0.127
      -0.244
      -0.317
      -0.350
      -0.355
      -0.344
      -0.324
      -0.298
      -0.265
      -0.223
      -0.178
      -0.136
      -0.102
      -0.077
      -0.055
      -0.028
       0.009
       0.052
       0.088
       0.101
       0.082
       0.024
      -0.071
      -0.188
      -0.305
      -0.396
      -0.436
      -0.405
      -0.298
      -0.125
       0.078
       0.262
       0.380
       0.407
       0.346
       0.232
       0.114
       0.034
       0.007
       0.018
       0.042
       0.054
       0.043
       0.014
      -0.020
      -0.044
      -0.051
      -0.028
       0.043
       0.172
       0.344
       0.515
       0.631
       0.653
       0.572
       0.403
       0.181
      -0.059
      -0.281
      -0.451
      -0.535
      -0.519
      -0.417
      -0.273
      -0.135
      -0.034
       0.028
       0.062
       0.082
       0.092
       0.084
       0.051
       0.005
      -0.036
      -0.054
      -0.046
      -0.021
       0.005
       0.021
       0.021
       0.010
      -0.006
      -0.029
      -0.057
      -0.072
      -0.045
       0.039
       0.162
       0.271
       0.306
       0.236
       0.071
      -0.137
      -0.314
      -0.402
      -0.381
      -0.278
      -0.149
      -0.050
      -0.012
      -0.024
      -0.052
      -0.059
      -0.030
       0.025
       0.077
       0.084
       0.019
      -0.114
      -0.267
      -0.370
      -0.375
      -0.282
      -0.138
      -0.004
       0.076
       0.110
       0.134
       0.180
       0.240
       0.268
       0.222
       0.103
      -0.039
      -0.139
      -0.161
      -0.124
      -0.074
      -0.046
      -0.039
      -0.035
      -0.031
      -0.039
      -0.061
      -0.071
      -0.038
       0.048
       0.163
       0.262
       0.321
       0.350
       0.384
       0.433
       0.461
       0.402
       0.223
      -0.042
      -0.301
      -0.464
      -0.496
      -0.433
      -0.341
      -0.267
      -0.205
      -0.118
       0.025
       0.210
       0.393
       0.527
       0.597
       0.612
       0.596
       0.561
       0.504
       0.414
       0.282
       0.114
      -0.065
      -0.224
      -0.336
      -0.389
      -0.395
      -0.381
      -0.364
      -0.342
      -0.291
      -0.197
      -0.070
       0.049
       0.114
       0.096
       0.006
      -0.116
      -0.222
      -0.285
      -0.304
      -0.289
      -0.247
      -0.179
      -0.091
       0.000
       0.069
       0.091
       0.066
       0.015
      -0.030
      -0.051
      -0.052
      -0.048
      -0.042
      -0.032
      -0.006
       0.041
       0.112
       0.198
       0.282
       0.341
       0.356
       0.317
       0.239
       0.149
       0.077
       0.030
       0.000
      -0.020
      -0.024
      -0.006
       0.029
       0.063
       0.080
       0.072
       0.049
       0.025
       0.012
       0.006
       0.004
      -0.001
      -0.010
      -0.033
      -0.083
      -0.162
      -0.250
      -0.313
      -0.324
      -0.287
      -0.228
      -0.181
      -0.162
      -0.156
      -0.131
      -0.062
       0.048
       0.178
       0.295
       0.369
       0.374
       0.304
       0.180
       0.049
      -0.043
      -0.072
      -0.050
      -0.014
      -0.004
      -0.038
      -0.104
      -0.168
      -0.205
      -0.199
      -0.148
      -0.056
       0.061
       0.171
       0.239
       0.242
       0.175
       0.059
      -0.068
      -0.164
      -0.198
      -0.166
      -0.087
       0.005
       0.082
       0.130
       0.150
       0.149
       0.132
       0.102
       0.064
       0.025
      -0.010
      -0.040
      -0.070
      -0.101
      -0.133
      -0.167
      -0.195
      -0.209
      -0.199
      -0.156
      -0.077
       0.024
       0.113
       0.156
       0.149
       0.119
       0.110
       0.144
       0.205
       0.261
       0.293
       0.298
       0.285
       0.255
       0.195
       0.093
      -0.047
      -0.194
      -0.308
      -0.367
      -0.369
      -0.328
      -0.254
      -0.150
      -0.020
       0.122
       0.247
       0.323
       0.336
       0.295
       0.219
       0.126
       0.027
      -0.062
      -0.119
      -0.132
      -0.101
      -0.036
       0.056
       0.171
       0.298
       0.414
       0.491
       0.506
       0.463
       0.392
       0.332
       0.295
       0.264
       0.215
       0.148
       0.090
       0.067
       0.077
       0.091
       0.079
       0.037
      -0.006
      -0.022
      -0.014
      -0.014
      -0.068
      -0.195
      -0.382
      -0.583
      -0.738
      -0.807
      -0.787
      -0.705
      -0.596
      -0.481
      -0.364
      -0.241
      -0.108
       0.034
       0.170
       0.279
       0.344
       0.370
       0.371
       0.351
       0.294
       0.179
      -0.002
      -0.227
      -0.455
      -0.650
      -0.793
      -0.884
      -0.926
      -0.914
      -0.834
      -0.677
      -0.441
      -0.143
       0.182
       0.488
       0.737
       0.905
       0.987
       0.981
       0.886
       0.715
       0.493
       0.254
       0.026
      -0.178
      -0.352
      -0.494
      -0.596
      -0.649
      -0.635
      -0.543
      -0.372
      -0.136
       0.129
       0.370
       0.538
       0.602
       0.575
       0.494
       0.401
       0.318
       0.245
       0.169
       0.084
       0.000
      -0.061
      -0.086
      -0.076
      -0.038
       0.025
       0.117
       0.234
       0.359
       0.457
       0.488
       0.433
       0.304
       0.144
      -0.010
      -0.149
      -0.283
      -0.420
      -0.544
      -0.619
      -0.611
      -0.498
      -0.275
       0.044
       0.425
       0.806
       1.111
       1.267
       1.237
       1.033
       0.703
       0.295
      -0.146
      -0.573
      -0.924
      -1.137
      -1.172
      -1.028
      -0.743
      -0.370
       0.044
       0.470
       0.876
       1.211
       1.406
       1.404
       1.194
       0.826
       0.384
      -0.050
      -0.439
      -0.784
      -1.086
      -1.315
      -1.415
      -1.352
      -1.148
      -0.872
      -0.600
      -0.389
      -0.260
      -0.213
      -0.235
      -0.317
      -0.450
      -0.623
      -0.821
      -1.020
      -1.187
      -1.280
      -1.262
      -1.108
      -0.821
      -0.433
      -0.005
       0.372
       0.599
       0.608
       0.389
      -0.009
      -0.491
      -0.950
      -1.300
      -1.486
      -1.493
      -1.317
      -0.959
      -0.421
       0.275
       1.072
       1.882
       2.592
       3.091
       3.291
       3.144
       2.652
       1.866
       0.892
      -0.117
      -0.995
      -1.600
      -1.852
      -1.737
      -1.310
      -0.671
       0.067
       0.807
       1.486
       2.062
       2.515
       2.829
       3.000
       3.032
       2.927
       2.686
       2.301
       1.775
       1.141
       0.467
      -0.165
      -0.693
      -1.093
      -1.368
      -1.521
      -1.547
      -1.447
      -1.242
      -0.982
      -0.736
      -0.563
      -0.490
      -0.489
      -0.498
      -0.449
      -0.302
      -0.071
       0.172
       0.330
       0.308
       0.045
      -0.489
      -1.285
      -2.277
      -3.332
      -4.273
      -4.934
      -5.220
      -5.128
      -4.721
      -4.075
      -3.233
      -2.204
      -1.004
       0.302
       1.589
       2.708
       3.537
       4.007
       4.115
       3.904
       3.433
       2.758
       1.939
       1.051
       0.181
      -0.593
      -1.208
      -1.611
      -1.749
      -1.584
      -1.106
      -0.342
       0.635
       1.717
       2.771
       3.653
       4.243
       4.465
       4.309
       3.835
       3.140
       2.321
       1.450
       0.583
      -0.233
      -0.951
      -1.532
      -1.938
      -2.132
      -2.082
      -1.784
      -1.284
      -0.688
      -0.134
       0.263
       0.457
       0.472
       0.362
       0.169
      -0.077
      -0.352
      -0.614
      -0.816
      -0.914
      -0.883
      -0.725
      -0.475
      -0.186
       0.076
       0.246
       0.279
       0.163
      -0.077
      -0.407
      -0.804
      -1.265
      -1.789
      -2.351
      -2.897
      -3.358
      -3.675
      -3.823
      -3.790
      -3.555
      -3.072
      -2.300
      -1.248
       0.007
       1.334
       2.579
       3.607
       4.322
       4.687
       4.715
       4.451
       3.958
       3.291
       2.499
       1.630
       0.750
      -0.054
      -0.695
      -1.119
      -1.312
      -1.293
      -1.095
      -0.762
      -0.349
       0.088
       0.504
       0.884
       1.239
       1.584
       1.906
       2.134
       2.165
       1.917
       1.378
       0.619
      -0.240
      -1.072
      -1.785
      -2.338
      -2.720
      -2.935
      -2.989
      -2.892
      -2.669
      -2.359
      -2.005
      -1.645
      -1.302
      -0.981
      -0.666
      -0.336
       0.024
       0.402
       0.762
       1.046
       1.196
       1.179
       1.004
       0.719
       0.388
       0.075
      -0.167
      -0.307
      -0.336
      -0.258
      -0.072
       0.229
       0.640
       1.121
       1.596
       1.974
       2.188
       2.220
       2.102
       1.896
       1.657
       1.414
       1.167
       0.896
       0.573
       0.186
      -0.259
      -0.730
      -1.192
      -1.600
      -1.909
      -2.082
      -2.103
      -1.987
      -1.764
      -1.458
      -1.090
      -0.692
      -0.319
      -0.031
       0.130
       0.172
       0.146
       0.106
       0.067
       0.006
      -0.106
      -0.266
      -0.437
      -0.567
      -0.619
      -0.586
      -0.495
      -0.384
      -0.281
      -0.190
      -0.108
      -0.031
       0.036
       0.101
       0.182
       0.304
       0.478
       0.691
       0.908
       1.095
       1.235
       1.337
       1.414
       1.467
       1.476
       1.410
       1.248
       0.993
       0.686
       0.388
       0.145
      -0.039
      -0.189
      -0.342
      -0.516
      -0.717
      -0.932
      -1.128
      -1.254
      -1.248
      -1.075
      -0.743
      -0.310
       0.139
       0.526
       0.806
       0.967
       1.022
       0.988
       0.876
       0.688
       0.426
       0.101
      -0.259
      -0.619
      -0.960
      -1.276
      -1.569
      -1.833
      -2.050
      -2.187
      -2.203
      -2.061
      -1.746
      -1.276
      -0.701
      -0.090
       0.481
       0.947
       1.280
       1.488
       1.600
       1.634
       1.589
       1.456
       1.246
       1.001
       0.779
       0.620
       0.521
       0.443
       0.337
       0.179
      -0.020
      -0.226
      -0.404
      -0.525
      -0.575
      -0.540
      -0.404
      -0.151
       0.210
       0.637
       1.066
       1.436
       1.698
       1.818
       1.772
       1.556
       1.190
       0.720
       0.209
      -0.287
      -0.726
      -1.085
      -1.351
      -1.512
      -1.571
      -1.551
      -1.499
      -1.449
      -1.404
      -1.335
      -1.202
      -0.993
      -0.735
      -0.484
      -0.296
      -0.190
      -0.151
      -0.153
      -0.172
      -0.190
      -0.186
      -0.133
      -0.015
       0.159
       0.353
       0.517
       0.620
       0.658
       0.649
       0.616
       0.576
       0.544
       0.526
       0.517
       0.489
       0.418
       0.300
       0.160
       0.050
       0.024
       0.114
       0.312
       0.562
       0.791
       0.937
       0.962
       0.865
       0.666
       0.406
       0.133
      -0.114
      -0.309
      -0.442
      -0.520
      -0.555
      -0.554
      -0.511
      -0.419
      -0.286
      -0.132
       0.016
       0.134
       0.202
       0.206
       0.140
       0.009
      -0.172
      -0.381
      -0.587
      -0.759
      -0.861
      -0.862
      -0.744
      -0.519
      -0.238
       0.017
       0.182
       0.230
       0.183
       0.097
       0.027
       0.001
       0.006
       0.004
      -0.038
      -0.128
      -0.243
      -0.347
      -0.405
      -0.397
      -0.316
      -0.169
       0.026
       0.227
       0.384
       0.450
       0.413
       0.305
       0.183
       0.102
       0.097
       0.164
       0.265
       0.352
       0.395
       0.395
       0.374
       0.359
       0.368
       0.402
       0.439
       0.437
       0.361
       0.202
      -0.008
      -0.214
      -0.355
      -0.394
      -0.331
      -0.210
      -0.093
      -0.033
      -0.042
      -0.087
      -0.107
      -0.049
       0.094
       0.277
       0.430
       0.494
       0.455
       0.338
       0.196
       0.076
      -0.004
      -0.055
      -0.099
      -0.150
      -0.207
      -0.257
      -0.284
      -0.274
      -0.217
      -0.114
       0.023
       0.180
       0.333
       0.455
       0.519
       0.518
       0.462
       0.361
       0.207
      -0.014
      -0.298
      -0.606
      -0.871
      -1.022
      -1.023
      -0.888
      -0.670
      -0.431
