Origin Time       10/12/2006 08:19:29 UTC
Lat.              31.5 N 
Long.             76.7 E 
Depth (Km)         33.0
Magnitude         3.5
 Region           MANDI                                                            
 Above details taken from IMD 
    
Station Code      MAN
Station Lat.       31.701  N
Station Long.      76.933  E
Station Height(m)  784.0
Site Class        B   Vs30 between 375 m/sec to 700 m/sec *  
Record Time       10.12.2006 08:21:32.979 UTC
Sampling Rate     200. Hz
 Record Duration   54.585 Sec.
 Direction         N-S (N positive)
Max. Acceleration      4.355 cm/sec**2
     
  * For reference see Site Classification link of website 
     
 Base Line Corrected and Low Pass Filtered (Cut Off at 35 Hz) Time History
 Acceleration data in cm/sec**2
    
[...]
      -0.009
      -0.005
       0.003
       0.006
       0.000
      -0.011
      -0.020
      -0.020
      -0.010
       0.001
       0.005
       0.000
      -0.008
      -0.013
      -0.009
      -0.001
       0.002
      -0.003
      -0.014
      -0.024
      -0.024
      -0.016
      -0.006
       0.000
      -0.002
      -0.007
      -0.011
      -0.009
      -0.003
       0.003
       0.006
       0.006
       0.007
       0.010
       0.009
       0.002
      -0.010
      -0.021
      -0.022
      -0.011
       0.006
       0.020
       0.024
       0.018
       0.009
       0.004
       0.005
       0.005
       0.002
      -0.004
      -0.008
      -0.011
      -0.011
      -0.010
      -0.010
      -0.009
      -0.008
      -0.007
      -0.006
      -0.005
      -0.003
       0.000
       0.003
       0.005
       0.007
       0.008
       0.006
       0.000
      -0.009
      -0.015
      -0.016
      -0.011
      -0.002
       0.005
       0.006
       0.000
      -0.008
      -0.010
      -0.006
       0.001
       0.006
       0.006
       0.006
       0.007
       0.011
       0.015
       0.015
       0.010
       0.003
      -0.002
      -0.001
       0.002
       0.004
       0.001
      -0.004
      -0.006
       0.000
       0.012
       0.021
       0.019
       0.007
      -0.008
      -0.018
      -0.020
      -0.016
      -0.008
       0.002
       0.012
       0.015
       0.011
       0.003
      -0.003
      -0.007
      -0.008
      -0.008
      -0.008
      -0.007
      -0.002
       0.005
       0.015
       0.021
       0.019
       0.009
      -0.007
      -0.020
      -0.025
      -0.019
      -0.007
       0.004
       0.009
       0.006
      -0.001
      -0.009
      -0.014
      -0.013
      -0.006
       0.003
       0.009
       0.008
       0.000
      -0.009
      -0.009
       0.002
       0.016
       0.022
       0.017
       0.007
       0.000
       0.002
       0.011
       0.023
       0.029
       0.023
       0.002
      -0.026
      -0.052
      -0.067
      -0.070
      -0.059
      -0.040
      -0.015
       0.011
       0.034
       0.048
       0.048
       0.032
       0.004
      -0.031
      -0.067
      -0.099
      -0.123
      -0.135
      -0.133
      -0.115
      -0.083
      -0.040
       0.007
       0.047
       0.069
       0.062
       0.022
      -0.045
      -0.121
      -0.180
      -0.204
      -0.188
      -0.144
      -0.087
      -0.036
       0.001
       0.021
       0.028
       0.028
       0.023
       0.014
       0.004
      -0.003
      -0.005
       0.002
       0.025
       0.064
       0.115
       0.164
       0.194
       0.188
       0.142
       0.072
       0.009
      -0.018
       0.011
       0.098
       0.220
       0.336
       0.401
       0.385
       0.289
       0.146
       0.002
      -0.097
      -0.118
      -0.056
       0.067
       0.202
       0.293
       0.301
       0.219
       0.074
      -0.091
      -0.228
      -0.303
      -0.303
      -0.243
      -0.158
      -0.078
      -0.011
       0.053
       0.120
       0.171
       0.170
       0.098
      -0.035
      -0.188
      -0.317
      -0.388
      -0.384
      -0.309
      -0.182
      -0.038
       0.085
       0.155
       0.160
       0.121
       0.071
       0.040
       0.039
       0.054
       0.065
       0.053
       0.017
      -0.035
      -0.092
      -0.151
      -0.207
      -0.247
      -0.249
      -0.197
      -0.094
       0.028
       0.132
       0.191
       0.202
       0.183
       0.152
       0.118
       0.074
       0.011
      -0.065
      -0.132
      -0.162
      -0.142
      -0.080
      -0.009
       0.042
       0.062
       0.059
       0.056
       0.069
       0.107
       0.171
       0.256
       0.349
       0.425
       0.456
       0.416
       0.296
       0.110
      -0.110
      -0.323
      -0.496
      -0.603
      -0.632
      -0.579
      -0.446
      -0.243
       0.001
       0.239
       0.422
       0.508
       0.478
       0.333
       0.096
      -0.196
      -0.492
      -0.739
      -0.892
      -0.919
      -0.814
      -0.594
      -0.300
       0.020
       0.311
       0.524
       0.629
       0.620
       0.520
       0.370
       0.215
       0.089
       0.012
      -0.012
       0.003
       0.036
       0.060
       0.058
       0.032
       0.008
       0.027
       0.121
       0.290
       0.493
       0.667
       0.746
       0.686
       0.476
       0.146
      -0.237
      -0.590
      -0.840
      -0.943
      -0.892
      -0.715
      -0.468
      -0.206
       0.023
       0.201
       0.325
       0.397
       0.414
       0.366
       0.259
       0.122
      -0.005
      -0.094
      -0.146
      -0.189
      -0.253
      -0.350
      -0.456
      -0.526
      -0.513
      -0.394
      -0.181
       0.084
       0.339
       0.523
       0.597
       0.559
       0.440
       0.279
       0.107
      -0.059
      -0.200
      -0.292
      -0.305
      -0.225
      -0.057
       0.169
       0.402
       0.586
       0.673
       0.643
       0.508
       0.304
       0.072
      -0.157
      -0.359
      -0.511
      -0.578
      -0.528
      -0.353
      -0.088
       0.191
       0.395
       0.462
       0.381
       0.186
      -0.059
      -0.290
      -0.460
      -0.537
      -0.512
      -0.390
      -0.195
       0.022
       0.190
       0.235
       0.121
      -0.116
      -0.377
      -0.551
      -0.571
      -0.451
      -0.252
      -0.036
       0.167
       0.348
       0.484
       0.536
       0.466
       0.270
       0.000
      -0.252
      -0.390
      -0.360
      -0.173
       0.090
       0.318
       0.419
       0.361
       0.181
      -0.038
      -0.208
      -0.271
      -0.221
      -0.094
       0.060
       0.209
       0.350
       0.487
       0.605
       0.661
       0.605
       0.411
       0.113
      -0.205
      -0.444
      -0.536
      -0.479
      -0.324
      -0.143
       0.011
       0.114
       0.163
       0.155
       0.087
      -0.031
      -0.164
      -0.261
      -0.283
      -0.220
      -0.090
       0.070
       0.225
       0.345
       0.398
       0.353
       0.192
      -0.074
      -0.385
      -0.652
      -0.788
      -0.746
      -0.532
      -0.207
       0.139
       0.417
       0.571
       0.589
       0.485
       0.283
       0.008
      -0.303
      -0.591
      -0.778
      -0.809
      -0.681
      -0.455
      -0.226
      -0.072
      -0.016
      -0.031
      -0.064
      -0.067
      -0.012
       0.100
       0.242
       0.374
       0.460
       0.476
       0.419
       0.301
       0.152
       0.007
      -0.096
      -0.125
      -0.059
       0.110
       0.370
       0.677
       0.960
       1.127
       1.103
       0.860
       0.444
      -0.035
      -0.443
      -0.685
      -0.728
      -0.612
      -0.407
      -0.180
       0.030
       0.204
       0.321
       0.351
       0.268
       0.082
      -0.151
      -0.347
      -0.435
      -0.398
      -0.278
      -0.158
      -0.106
      -0.144
      -0.247
      -0.372
      -0.480
      -0.553
      -0.582
      -0.559
      -0.469
      -0.310
      -0.102
       0.110
       0.275
       0.363
       0.374
       0.332
       0.267
       0.202
       0.139
       0.071
      -0.007
      -0.078
      -0.109
      -0.066
       0.063
       0.251
       0.443
       0.567
       0.567
       0.424
       0.167
      -0.134
      -0.388
      -0.521
      -0.509
      -0.391
      -0.242
      -0.122
      -0.042
       0.030
       0.124
       0.231
       0.305
       0.296
       0.200
       0.067
      -0.035
      -0.062
      -0.020
       0.050
       0.101
       0.105
       0.057
      -0.032
      -0.154
      -0.306
      -0.476
      -0.626
      -0.692
      -0.619
      -0.391
      -0.047
       0.336
       0.661
       0.848
       0.857
       0.700
       0.431
       0.124
      -0.150
      -0.337
      -0.415
      -0.390
      -0.293
      -0.169
      -0.059
       0.022
       0.081
       0.134
       0.184
       0.217
       0.222
       0.203
       0.180
       0.172
       0.175
       0.166
       0.125
       0.054
      -0.022
      -0.073
      -0.098
      -0.132
      -0.214
      -0.344
      -0.466
      -0.508
      -0.429
      -0.253
      -0.051
       0.111
       0.208
       0.265
       0.317
       0.383
       0.451
       0.491
       0.475
       0.403
       0.291
       0.167
       0.047
      -0.078
      -0.227
      -0.415
      -0.630
      -0.834
      -0.964
      -0.967
      -0.821
      -0.553
      -0.226
       0.096
       0.375
       0.603
       0.776
       0.875
       0.868
       0.736
       0.496
       0.197
      -0.096
      -0.334
      -0.494
      -0.573
      -0.585
      -0.548
      -0.480
      -0.397
      -0.310
      -0.227
      -0.150
      -0.073
       0.011
       0.104
       0.194
       0.265
       0.302
       0.303
       0.274
       0.233
       0.207
       0.218
       0.264
       0.318
       0.336
       0.286
       0.169
       0.023
      -0.099
      -0.154
      -0.126
      -0.027
       0.105
       0.217
       0.259
       0.208
       0.086
      -0.050
      -0.145
      -0.173
      -0.150
      -0.109
      -0.079
      -0.061
      -0.042
      -0.016
      -0.002
      -0.022
      -0.084
      -0.168
      -0.246
      -0.309
      -0.362
      -0.413
      -0.449
      -0.440
      -0.356
      -0.193
       0.019
       0.226
       0.377
       0.444
       0.426
       0.337
       0.198
       0.031
      -0.141
      -0.292
      -0.393
      -0.421
      -0.361
      -0.218
      -0.014
       0.206
       0.385
       0.473
       0.451
       0.339
       0.183
       0.026
      -0.103
      -0.190
      -0.230
      -0.224
      -0.179
      -0.111
      -0.043
       0.012
       0.043
       0.052
       0.042
       0.020
       0.000
      -0.006
       0.008
       0.036
       0.067
       0.085
       0.076
       0.031
      -0.043
      -0.117
      -0.154
      -0.124
      -0.028
       0.108
       0.239
       0.324
       0.339
       0.285
       0.176
       0.035
      -0.105
      -0.208
      -0.241
      -0.188
      -0.059
       0.109
       0.260
       0.336
       0.297
       0.148
      -0.063
      -0.268
      -0.404
      -0.436
      -0.368
      -0.240
      -0.100
       0.013
       0.089
       0.133
       0.146
       0.120
       0.044
      -0.076
      -0.213
      -0.323
      -0.366
      -0.321
      -0.194
      -0.017
       0.158
       0.271
       0.281
       0.185
       0.026
      -0.129
      -0.219
      -0.215
      -0.126
       0.012
       0.156
       0.275
       0.349
       0.366
       0.322
       0.228
       0.115
       0.031
       0.014
       0.068
       0.157
       0.224
       0.211
       0.090
      -0.133
      -0.417
      -0.700
      -0.913
      -1.004
      -0.948
      -0.751
      -0.438
      -0.043
       0.387
       0.793
       1.110
       1.289
       1.312
       1.200
       1.002
       0.766
       0.522
       0.270
      -0.002
      -0.292
      -0.580
      -0.838
      -1.045
      -1.194
      -1.270
      -1.236
      -1.052
      -0.700
      -0.218
       0.308
       0.784
       1.143
       1.363
       1.454
       1.434
       1.314
       1.095
       0.781
       0.393
      -0.024
      -0.411
      -0.719
      -0.921
      -1.011
      -0.989
      -0.851
      -0.607
      -0.296
       0.010
       0.227
       0.308
       0.265
       0.161
       0.075
       0.051
       0.090
       0.152
       0.193
       0.187
       0.140
       0.077
       0.028
       0.012
       0.032
       0.088
       0.178
       0.300
       0.437
       0.552
       0.593
       0.514
       0.301
      -0.018
      -0.385
      -0.740
      -1.036
      -1.247
      -1.352
      -1.332
      -1.178
      -0.900
      -0.539
      -0.152
       0.210
       0.525
       0.798
       1.036
       1.234
       1.375
       1.440
       1.416
       1.293
       1.056
       0.690
       0.200
      -0.375
      -0.951
      -1.433
      -1.748
      -1.873
      -1.828
      -1.653
      -1.378
      -1.025
      -0.616
      -0.180
       0.242
       0.604
       0.874
       1.041
       1.122
       1.154
       1.170
       1.179
       1.154
       1.052
       0.844
       0.529
       0.146
      -0.252
      -0.598
      -0.837
      -0.931
      -0.882
      -0.736
      -0.571
      -0.465
      -0.464
      -0.563
      -0.707
      -0.816
      -0.818
      -0.676
      -0.402
      -0.054
       0.290
       0.558
       0.710
       0.753
       0.735
       0.722
       0.767
       0.873
       0.988
       1.028
       0.900
       0.542
      -0.056
      -0.830
      -1.644
      -2.322
      -2.697
      -2.663
      -2.203
      -1.403
      -0.439
       0.456
       1.050
       1.184
       0.820
       0.057
      -0.898
      -1.791
      -2.383
      -2.504
      -2.093
      -1.220
      -0.067
       1.109
       2.059
       2.609
       2.712
       2.439
       1.940
       1.371
       0.838
       0.382
      -0.004
      -0.338
      -0.632
      -0.890
      -1.108
      -1.268
      -1.327
      -1.215
      -0.860
      -0.219
       0.673
       1.702
       2.708
       3.539
       4.098
       4.355
       4.325
       4.048
       3.565
       2.925
       2.181
       1.381
       0.560
      -0.264
      -1.078
      -1.854
      -2.538
      -3.070
      -3.385
      -3.412
      -3.090
      -2.392
      -1.367
      -0.151
       1.064
       2.081
       2.739
       2.938
       2.648
       1.923
       0.900
      -0.231
      -1.284
      -2.140
      -2.765
      -3.182
      -3.425
      -3.516
      -3.470
      -3.315
      -3.085
      -2.813
      -2.508
      -2.165
      -1.788
      -1.412
      -1.093
      -0.877
      -0.766
      -0.711
      -0.639
      -0.478
      -0.175
       0.292
       0.922
       1.678
       2.484
       3.225
       3.773
       4.016
       3.892
       3.399
       2.588
       1.551
       0.412
      -0.690
      -1.604
      -2.187
      -2.332
      -2.007
      -1.271
      -0.269
       0.812
       1.794
       2.551
       3.031
       3.255
       3.283
       3.178
       2.985
       2.722
       2.387
       1.966
       1.449
       0.844
       0.181
      -0.491
      -1.128
      -1.703
      -2.209
      -2.646
      -3.010
      -3.289
      -3.460
      -3.503
      -3.402
      -3.149
      -2.749
      -2.234
      -1.665
      -1.124
      -0.685
      -0.384
      -0.206
      -0.086
       0.054
       0.270
       0.554
       0.844
       1.053
       1.118
       1.025
       0.805
       0.525
       0.266
       0.115
       0.140
       0.363
       0.740
       1.169
       1.525
       1.694
       1.596
       1.206
       0.566
      -0.208
      -0.943
      -1.458
      -1.619
      -1.377
      -0.777
       0.068
       1.005
       1.867
       2.489
       2.733
       2.533
       1.923
       1.040
       0.085
      -0.739
      -1.279
      -1.469
      -1.345
      -1.014
      -0.614
      -0.256
       0.006
       0.175
       0.292
       0.397
       0.510
       0.625
       0.717
       0.739
       0.633
       0.345
      -0.146
      -0.801
      -1.519
      -2.154
      -2.550
      -2.593
      -2.252
      -1.604
      -0.816
      -0.087
       0.431
       0.677
       0.681
       0.517
       0.260
      -0.030
      -0.301
      -0.503
      -0.601
      -0.588
      -0.484
      -0.326
      -0.154
       0.011
       0.166
       0.333
       0.534
       0.777
       1.051
       1.320
       1.533
       1.634
       1.578
       1.361
       1.017
       0.609
       0.203
      -0.165
      -0.492
      -0.802
      -1.124
      -1.459
      -1.771
      -1.985
      -2.016
      -1.805
      -1.349
      -0.702
       0.057
       0.859
       1.647
       2.369
       2.956
       3.329
       3.411
       3.153
       2.553
       1.664
       0.592
      -0.529
      -1.555
      -2.364
      -2.867
      -3.020
      -2.831
      -2.354
      -1.681
      -0.924
      -0.194
       0.414
       0.825
       1.005
       0.966
       0.774
       0.521
       0.286
       0.103
      -0.036
      -0.166
      -0.320
      -0.519
      -0.757
      -1.006
      -1.214
      -1.316
      -1.257
      -1.011
      -0.598
      -0.084
       0.435
       0.864
       1.141
       1.259
       1.257
       1.191
       1.099
       0.983
       0.821
       0.590
       0.300
      -0.004
      -0.256
      -0.402
      -0.420
      -0.333
      -0.182
      -0.018
       0.117
       0.199
       0.225
       0.221
       0.221
       0.251
       0.316
       0.395
       0.454
       0.463
       0.401
       0.257
       0.029
      -0.263
      -0.579
      -0.855
      -1.028
      -1.052
      -0.916
      -0.651
      -0.317
       0.005
       0.242
       0.344
       0.299
       0.126
      -0.134
      -0.428
      -0.703
      -0.914
      -1.018
      -0.980
      -0.785
      -0.458
      -0.072
       0.284
       0.540
       0.674
       0.708
       0.687
       0.643
       0.593
       0.540
       0.479
       0.408
       0.321
       0.221
       0.126
       0.063
       0.044
       0.062
       0.088
       0.098
       0.079
       0.029
      -0.048
      -0.134
      -0.201
      -0.209
      -0.127
       0.056
       0.314
       0.595
       0.830
       0.955
       0.928
       0.746
       0.445
       0.102
      -0.193
      -0.370
      -0.402
      -0.320
      -0.190
      -0.082
      -0.042
      -0.079
      -0.182
      -0.337
      -0.530
      -0.740
      -0.919
      -1.010
      -0.965
      -0.775
      -0.489
      -0.194
       0.025
       0.132
       0.143
       0.107
       0.067
       0.039
       0.024
       0.018
       0.031
       0.070
       0.133
       0.198
       0.229
       0.198
       0.093
      -0.073
      -0.267
      -0.438
      -0.534
      -0.514
      -0.378
      -0.159
       0.086
       0.311
       0.504
       0.683
       0.873
       1.077
       1.267
       1.400
       1.447
       1.408
       1.304
       1.162
       0.989
       0.770
       0.485
       0.143
      -0.202
      -0.478
      -0.626
      -0.636
      -0.537
      -0.381
      -0.211
      -0.052
       0.086
       0.189
       0.235
       0.201
       0.077
      -0.120
      -0.346
      -0.551
      -0.703
      -0.800
      -0.867
      -0.926
      -0.981
      -1.012
      -0.993
      -0.915
      -0.790
      -0.650
      -0.529
      -0.449
      -0.412
      -0.407
      -0.412
      -0.406
      -0.370
      -0.291
      -0.177
      -0.059
       0.020
       0.030
      -0.034
      -0.151
      -0.287
      -0.415
      -0.522
      -0.611
      -0.686
      -0.740
      -0.748
      -0.677
      -0.492
      -0.175
       0.263
       0.772
       1.277
       1.689
       1.922
       1.918
       1.664
       1.210
       0.653
       0.106
