Origin Time       21/10/2008 15:09:06 UTC
Lat.              31.5 N 
Long.             77.3 E 
Depth (Km)         10.0
Magnitude         4.5
 Region           KULLU-HIMACHAL-PRADESH                                           
 Above details taken from IMD 
    
Station Code      MAN
Station Lat.       31.701  N
Station Long.      76.933  E
Station Height(m)  786.7
Site Class        B   Vs30 between 375 m/sec to 700 m/sec *  
Record Time       21.10.2008 15:09:08.299 UTC
Sampling Rate     200. Hz
 Record Duration   72.580 Sec.
 Direction         N-S (N positive)
Max. Acceleration     -4.696 cm/sec**2
     
  * For reference see Site Classification link of website 
     
 Base Line Corrected and Low Pass Filtered (Cut Off at 35 Hz) Time History
 Acceleration data in cm/sec**2
    
[...]
       0.044
       0.044
       0.080
       0.141
       0.207
       0.259
       0.286
       0.282
       0.245
       0.174
       0.071
      -0.057
      -0.201
      -0.347
      -0.479
      -0.580
      -0.632
      -0.622
      -0.541
      -0.388
      -0.178
       0.064
       0.297
       0.480
       0.579
       0.577
       0.479
       0.312
       0.113
      -0.080
      -0.231
      -0.318
      -0.331
      -0.276
      -0.176
      -0.057
       0.055
       0.143
       0.197
       0.220
       0.214
       0.185
       0.130
       0.049
      -0.057
      -0.181
      -0.308
      -0.414
      -0.471
      -0.456
      -0.364
      -0.215
      -0.046
       0.104
       0.211
       0.274
       0.306
       0.322
       0.327
       0.321
       0.302
       0.267
       0.222
       0.172
       0.116
       0.052
      -0.024
      -0.102
      -0.170
      -0.210
      -0.208
      -0.151
      -0.047
       0.078
       0.189
       0.258
       0.274
       0.230
       0.121
      -0.049
      -0.262
      -0.478
      -0.652
      -0.741
      -0.716
      -0.570
      -0.321
      -0.018
       0.270
       0.481
       0.583
       0.582
       0.515
       0.424
       0.337
       0.259
       0.178
       0.072
      -0.067
      -0.235
      -0.401
      -0.530
      -0.589
      -0.565
      -0.466
      -0.322
      -0.171
      -0.045
       0.041
       0.088
       0.101
       0.087
       0.063
       0.051
       0.066
       0.104
       0.139
       0.144
       0.111
       0.064
       0.044
       0.072
       0.140
       0.209
       0.238
       0.202
       0.111
      -0.005
      -0.108
      -0.169
      -0.178
      -0.142
      -0.078
      -0.007
       0.046
       0.068
       0.058
       0.032
       0.012
       0.011
       0.029
       0.061
       0.095
       0.120
       0.122
       0.088
       0.012
      -0.102
      -0.245
      -0.397
      -0.526
      -0.588
      -0.543
      -0.371
      -0.096
       0.217
       0.487
       0.648
       0.668
       0.551
       0.330
       0.058
      -0.196
      -0.364
      -0.406
      -0.323
      -0.158
       0.019
       0.143
       0.178
       0.124
       0.012
      -0.110
      -0.199
      -0.233
      -0.211
      -0.146
      -0.055
       0.043
       0.123
       0.167
       0.169
       0.144
       0.119
       0.109
       0.114
       0.123
       0.127
       0.130
       0.141
       0.156
       0.153
       0.108
       0.023
      -0.071
      -0.133
      -0.140
      -0.099
      -0.043
      -0.003
      -0.001
      -0.037
      -0.098
      -0.170
      -0.243
      -0.310
      -0.358
      -0.364
      -0.304
      -0.171
       0.018
       0.221
       0.383
       0.462
       0.442
       0.335
       0.172
      -0.012
      -0.184
      -0.317
      -0.387
      -0.379
      -0.292
      -0.155
      -0.022
       0.047
       0.022
      -0.074
      -0.175
      -0.210
      -0.134
       0.043
       0.270
       0.476
       0.605
       0.628
       0.545
       0.371
       0.137
      -0.111
      -0.314
      -0.426
      -0.434
      -0.365
      -0.268
      -0.181
      -0.124
      -0.096
      -0.090
      -0.090
      -0.076
      -0.035
       0.027
       0.082
       0.109
       0.107
       0.097
       0.102
       0.123
       0.140
       0.129
       0.084
       0.022
      -0.032
      -0.075
      -0.122
      -0.192
      -0.281
      -0.356
      -0.375
      -0.307
      -0.152
       0.056
       0.264
       0.414
       0.459
       0.370
       0.148
      -0.170
      -0.508
      -0.767
      -0.859
      -0.741
      -0.433
      -0.013
       0.414
       0.747
       0.923
       0.924
       0.768
       0.498
       0.171
      -0.143
      -0.375
      -0.473
      -0.420
      -0.244
      -0.010
       0.210
       0.368
       0.449
       0.470
       0.440
       0.353
       0.191
      -0.039
      -0.283
      -0.462
      -0.511
      -0.425
      -0.256
      -0.075
       0.061
       0.128
       0.130
       0.083
       0.011
      -0.061
      -0.105
      -0.102
      -0.047
       0.045
       0.145
       0.220
       0.249
       0.224
       0.154
       0.055
      -0.054
      -0.160
      -0.245
      -0.290
      -0.269
      -0.172
      -0.017
       0.157
       0.304
       0.394
       0.414
       0.363
       0.244
       0.059
      -0.179
      -0.434
      -0.641
      -0.735
      -0.681
      -0.494
      -0.234
       0.030
       0.241
       0.375
       0.434
       0.439
       0.412
       0.364
       0.293
       0.196
       0.077
      -0.047
      -0.156
      -0.234
      -0.273
      -0.275
      -0.255
      -0.228
      -0.203
      -0.179
      -0.154
      -0.130
      -0.118
      -0.122
      -0.128
      -0.112
      -0.047
       0.069
       0.210
       0.335
       0.395
       0.365
       0.243
       0.066
      -0.110
      -0.226
      -0.244
      -0.170
      -0.046
       0.065
       0.108
       0.059
      -0.075
      -0.254
      -0.424
      -0.530
      -0.535
      -0.430
      -0.236
       0.007
       0.250
       0.440
       0.527
       0.486
       0.331
       0.116
      -0.085
      -0.213
      -0.240
      -0.172
      -0.040
       0.114
       0.257
       0.363
       0.421
       0.428
       0.390
       0.324
       0.257
       0.220
       0.229
       0.280
       0.344
       0.389
       0.386
       0.318
       0.179
      -0.023
      -0.257
      -0.477
      -0.641
      -0.720
      -0.717
      -0.646
      -0.524
      -0.359
      -0.158
       0.051
       0.228
       0.333
       0.345
       0.273
       0.135
      -0.043
      -0.240
      -0.424
      -0.552
      -0.575
      -0.465
      -0.240
       0.030
       0.247
       0.338
       0.281
       0.111
      -0.106
      -0.299
      -0.417
      -0.424
      -0.303
      -0.063
       0.252
       0.563
       0.780
       0.838
       0.722
       0.476
       0.172
      -0.116
      -0.330
      -0.448
      -0.470
      -0.421
      -0.336
      -0.248
      -0.179
      -0.134
      -0.103
      -0.079
      -0.064
      -0.055
      -0.031
       0.041
       0.182
       0.371
       0.552
       0.658
       0.657
       0.561
       0.414
       0.258
       0.117
      -0.005
      -0.112
      -0.208
      -0.299
      -0.389
      -0.473
      -0.539
      -0.564
      -0.528
      -0.418
      -0.242
      -0.037
       0.144
       0.248
       0.256
       0.186
       0.081
      -0.015
      -0.075
      -0.095
      -0.076
      -0.021
       0.061
       0.146
       0.200
       0.197
       0.127
       0.010
      -0.122
      -0.234
      -0.296
      -0.287
      -0.192
      -0.007
       0.244
       0.507
       0.705
       0.765
       0.653
       0.398
       0.082
      -0.190
      -0.337
      -0.333
      -0.207
      -0.023
       0.157
       0.290
       0.355
       0.351
       0.283
       0.161
      -0.005
      -0.191
      -0.363
      -0.482
      -0.516
      -0.454
      -0.305
      -0.101
       0.111
       0.281
       0.362
       0.327
       0.171
      -0.078
      -0.366
      -0.618
      -0.768
      -0.776
      -0.650
      -0.437
      -0.208
      -0.033
       0.041
       0.000
      -0.133
      -0.306
      -0.455
      -0.521
      -0.470
      -0.298
      -0.039
       0.241
       0.465
       0.571
       0.540
       0.404
       0.222
       0.057
      -0.045
      -0.057
       0.025
       0.196
       0.431
       0.687
       0.902
       1.014
       0.978
       0.787
       0.473
       0.100
      -0.257
      -0.526
      -0.664
      -0.657
      -0.529
      -0.333
      -0.134
       0.005
       0.054
       0.021
      -0.062
      -0.162
      -0.260
      -0.353
      -0.430
      -0.466
      -0.430
      -0.302
      -0.100
       0.125
       0.312
       0.414
       0.413
       0.318
       0.156
      -0.034
      -0.207
      -0.323
      -0.356
      -0.306
      -0.196
      -0.064
       0.056
       0.137
       0.169
       0.158
       0.124
       0.089
       0.066
       0.051
       0.035
       0.013
      -0.008
      -0.011
       0.019
       0.083
       0.165
       0.240
       0.286
       0.299
       0.286
       0.261
       0.232
       0.194
       0.138
       0.054
      -0.056
      -0.177
      -0.280
      -0.329
      -0.297
      -0.174
       0.018
       0.231
       0.404
       0.494
       0.491
       0.413
       0.282
       0.117
      -0.074
      -0.274
      -0.456
      -0.591
      -0.656
      -0.646
      -0.571
      -0.450
      -0.304
      -0.154
      -0.017
       0.099
       0.194
       0.262
       0.292
       0.265
       0.169
       0.009
      -0.188
      -0.387
      -0.555
      -0.671
      -0.721
      -0.701
      -0.606
      -0.438
      -0.210
       0.045
       0.279
       0.443
       0.508
       0.474
       0.372
       0.252
       0.157
       0.110
       0.112
       0.147
       0.196
       0.239
       0.261
       0.257
       0.227
       0.174
       0.100
       0.002
      -0.115
      -0.234
      -0.321
      -0.339
      -0.266
      -0.105
       0.112
       0.330
       0.485
       0.532
       0.470
       0.348
       0.235
       0.185
       0.199
       0.233
       0.224
       0.130
      -0.053
      -0.289
      -0.528
      -0.725
      -0.842
      -0.846
      -0.713
      -0.437
      -0.050
       0.369
       0.710
       0.863
       0.760
       0.407
      -0.110
      -0.650
      -1.065
      -1.249
      -1.164
      -0.841
      -0.361
       0.174
       0.650
       0.971
       1.080
       0.972
       0.702
       0.361
       0.045
      -0.172
      -0.258
      -0.221
      -0.100
       0.050
       0.173
       0.225
       0.190
       0.095
      -0.001
      -0.038
       0.003
       0.097
       0.194
       0.265
       0.312
       0.351
       0.382
       0.371
       0.276
       0.077
      -0.200
      -0.486
      -0.709
      -0.818
      -0.807
      -0.702
      -0.540
      -0.337
      -0.086
       0.226
       0.595
       0.976
       1.296
       1.479
       1.470
       1.264
       0.904
       0.456
      -0.017
      -0.475
      -0.879
      -1.179
      -1.317
      -1.250
      -0.985
      -0.589
      -0.170
       0.165
       0.337
       0.321
       0.138
      -0.154
      -0.484
      -0.777
      -0.975
      -1.045
      -0.981
      -0.804
      -0.538
      -0.213
       0.143
       0.492
       0.784
       0.966
       0.992
       0.850
       0.557
       0.165
      -0.254
      -0.613
      -0.827
      -0.828
      -0.591
      -0.145
       0.413
       0.939
       1.286
       1.355
       1.130
       0.675
       0.115
      -0.406
      -0.770
      -0.900
      -0.779
      -0.441
       0.022
       0.476
       0.780
       0.823
       0.559
       0.025
      -0.668
      -1.355
      -1.868
      -2.075
      -1.923
      -1.454
      -0.791
      -0.097
       0.474
       0.817
       0.895
       0.734
       0.417
       0.064
      -0.193
      -0.254
      -0.091
       0.237
       0.605
       0.867
       0.915
       0.708
       0.282
      -0.260
      -0.766
      -1.077
      -1.077
      -0.737
      -0.121
       0.631
       1.349
       1.872
       2.093
       1.975
       1.556
       0.936
       0.260
      -0.314
      -0.666
      -0.754
      -0.625
      -0.379
      -0.122
       0.068
       0.143
       0.078
      -0.136
      -0.475
      -0.872
      -1.223
      -1.428
      -1.428
      -1.221
      -0.846
      -0.354
       0.208
       0.789
       1.312
       1.683
       1.824
       1.717
       1.417
       1.029
       0.650
       0.335
       0.091
      -0.094
      -0.218
      -0.261
      -0.199
      -0.037
       0.176
       0.374
       0.499
       0.533
       0.487
       0.374
       0.190
      -0.086
      -0.472
      -0.958
      -1.485
      -1.947
      -2.207
      -2.145
      -1.704
      -0.920
       0.085
       1.135
       2.040
       2.623
       2.743
       2.320
       1.373
       0.048
      -1.391
      -2.619
      -3.350
      -3.423
      -2.837
      -1.738
      -0.369
       0.982
       2.030
       2.552
       2.440
       1.750
       0.687
      -0.450
      -1.362
      -1.833
      -1.781
      -1.274
      -0.517
       0.220
       0.680
       0.708
       0.303
      -0.389
      -1.125
      -1.654
      -1.799
      -1.512
      -0.883
      -0.110
       0.564
       0.922
       0.843
       0.333
      -0.471
      -1.353
      -2.079
      -2.479
      -2.489
      -2.145
      -1.546
      -0.803
      -0.012
       0.752
       1.431
       1.979
       2.368
       2.589
       2.653
       2.574
       2.365
       2.036
       1.605
       1.109
       0.605
       0.149
      -0.219
      -0.484
      -0.646
      -0.697
      -0.621
      -0.404
      -0.057
       0.378
       0.839
       1.277
       1.674
       2.045
       2.409
       2.759
       3.051
       3.218
       3.197
       2.944
       2.445
       1.731
       0.882
       0.030
      -0.671
      -1.082
      -1.138
      -0.875
      -0.438
      -0.046
       0.076
      -0.227
      -0.979
      -2.058
      -3.218
      -4.175
      -4.696
      -4.658
      -4.067
      -3.026
      -1.724
      -0.413
       0.625
       1.153
       1.067
       0.450
      -0.456
      -1.333
      -1.899
      -1.997
      -1.624
      -0.907
      -0.062
       0.661
       1.029
       0.903
       0.293
      -0.611
      -1.489
      -1.994
      -1.891
      -1.151
       0.045
       1.369
       2.465
       3.059
       3.030
       2.417
       1.387
       0.176
      -0.957
      -1.779
      -2.118
      -1.905
      -1.206
      -0.214
       0.799
       1.572
       1.941
       1.887
       1.504
       0.949
       0.373
      -0.105
      -0.405
      -0.493
      -0.386
      -0.153
       0.106
       0.291
       0.344
       0.264
       0.104
      -0.056
      -0.147
      -0.144
      -0.070
       0.017
       0.064
       0.048
      -0.019
      -0.112
      -0.212
      -0.303
      -0.350
      -0.297
      -0.103
       0.216
       0.567
       0.808
       0.810
       0.513
      -0.052
      -0.794
      -1.585
      -2.279
      -2.718
      -2.752
      -2.290
      -1.359
      -0.123
       1.155
       2.205
       2.847
       3.041
       2.870
       2.471
       1.966
       1.434
       0.917
       0.432
      -0.026
      -0.488
      -0.991
      -1.542
      -2.084
      -2.491
      -2.613
      -2.344
      -1.689
      -0.766
       0.230
       1.103
       1.720
       2.033
       2.073
       1.912
       1.623
       1.258
       0.850
       0.423
       0.021
      -0.276
      -0.367
      -0.170
       0.323
       1.021
       1.753
       2.317
       2.547
       2.359
       1.766
       0.865
      -0.192
      -1.216
      -2.026
      -2.479
      -2.517
      -2.171
      -1.554
      -0.818
      -0.125
       0.395
       0.657
       0.631
       0.331
      -0.185
      -0.831
      -1.496
      -2.066
      -2.441
      -2.556
      -2.394
      -1.994
      -1.440
      -0.844
      -0.321
       0.034
       0.164
       0.064
      -0.215
      -0.573
      -0.889
      -1.045
      -0.954
      -0.581
       0.049
       0.851
       1.690
       2.399
       2.814
       2.815
       2.365
       1.534
       0.490
      -0.543
      -1.344
      -1.756
      -1.722
      -1.289
      -0.587
       0.220
       0.974
       1.553
       1.883
       1.941
       1.743
       1.347
       0.832
       0.285
      -0.220
      -0.633
      -0.927
      -1.092
      -1.131
      -1.069
      -0.948
      -0.816
      -0.706
      -0.614
      -0.498
      -0.307
      -0.028
       0.286
       0.536
       0.626
       0.519
       0.256
      -0.066
      -0.341
      -0.486
      -0.477
      -0.351
      -0.196
      -0.115
      -0.176
      -0.376
      -0.632
      -0.810
      -0.779
      -0.455
       0.173
       1.036
       1.984
       2.825
       3.365
       3.467
       3.082
       2.265
       1.160
      -0.031
      -1.096
      -1.866
      -2.255
      -2.280
      -2.035
      -1.658
      -1.273
      -0.973
      -0.805
      -0.771
      -0.828
      -0.890
      -0.844
      -0.580
      -0.027
       0.805
       1.793
       2.722
       3.337
       3.429
       2.910
       1.855
       0.483
      -0.921
      -2.091
      -2.851
      -3.141
      -3.004
      -2.557
      -1.941
      -1.283
      -0.666
      -0.123
       0.344
       0.750
       1.106
       1.420
       1.685
       1.875
       1.936
       1.797
       1.404
       0.769
      -0.011
      -0.775
      -1.359
      -1.651
      -1.627
      -1.349
      -0.934
      -0.507
      -0.163
       0.046
       0.111
       0.049
      -0.096
      -0.248
      -0.307
      -0.179
       0.169
       0.681
       1.231
       1.681
       1.935
       1.964
       1.797
       1.507
       1.185
       0.912
       0.730
       0.623
       0.527
       0.350
       0.010
      -0.525
      -1.218
      -1.957
      -2.599
      -3.014
      -3.130
      -2.948
      -2.529
      -1.966
      -1.359
      -0.791
      -0.322
       0.034
       0.312
       0.596
       0.958
       1.409
       1.873
       2.221
       2.335
       2.159
       1.709
       1.045
       0.248
      -0.595
      -1.374
      -1.961
      -2.244
      -2.178
      -1.818
      -1.302
      -0.787
      -0.394
      -0.170
      -0.091
      -0.088
      -0.069
       0.049
       0.323
       0.756
       1.287
       1.810
       2.206
       2.386
       2.316
       2.018
       1.561
       1.044
       0.573
       0.243
       0.109
       0.167
       0.350
       0.553
       0.670
       0.629
       0.408
       0.019
      -0.505
      -1.111
      -1.727
      -2.253
      -2.578
      -2.621
      -2.362
      -1.853
      -1.195
      -0.510
       0.091
       0.529
       0.786
       0.909
       0.983
       1.086
       1.245
       1.438
       1.612
       1.718
       1.722
       1.598
       1.314
       0.841
       0.184
      -0.598
      -1.394
      -2.071
      -2.522
      -2.699
      -2.621
      -2.344
      -1.935
      -1.465
      -1.005
      -0.630
      -0.402
      -0.345
      -0.430
      -0.583
      -0.705
      -0.707
      -0.532
      -0.173
       0.334
       0.910
       1.460
       1.891
       2.146
       2.226
       2.178
       2.064
       1.927
       1.770
       1.569
       1.295
       0.940
       0.527
       0.095
      -0.321
      -0.700
      -1.029
      -1.293
      -1.465
      -1.515
      -1.441
      -1.282
      -1.113
      -1.007
      -0.988
      -1.014
      -1.004
      -0.882
      -0.614
      -0.222
       0.228
       0.658
       1.004
       1.228
       1.314
       1.272
       1.137
       0.967
       0.829
       0.772
       0.816
       0.952
