Origin Time       21/10/2008 15:09:06
Lat.              31.5 N 
Long.             77.3 E 
Depth (Km)         10.0
Magnitude         4.5
 Region           KULLU-HIMACHAL-PRADESH                                           
 Above details taken from IMD 
     
Station Code      MAN
Station Lat.       31.701  N
Station Long.      76.933  E
Station Height(m)  786.7
Site Class        B   Vs30 between 375 m/sec to 700 m/sec *  
Record Time       21.10.2008 15:09:08.299
Sampling Rate     200. Hz
 Record Duration   72.580 Sec.
 Direction         E-W (E positive)
Max. Acceleration     -3.603 cm/sec**2
     
  * For reference see Site Classification link of website 
     
 Base Line Corrected and Low Pass Filtered (Cut Off at 35 Hz) Time History
 Acceleration data in cm/sec**2
    
[...]
       0.159
       0.210
       0.243
       0.241
       0.184
       0.072
      -0.074
      -0.215
      -0.309
      -0.329
      -0.268
      -0.142
       0.012
       0.149
       0.228
       0.236
       0.184
       0.103
       0.024
      -0.033
      -0.066
      -0.085
      -0.099
      -0.102
      -0.079
      -0.020
       0.062
       0.135
       0.167
       0.149
       0.094
       0.030
      -0.022
      -0.060
      -0.089
      -0.111
      -0.114
      -0.091
      -0.047
       0.000
       0.030
       0.033
       0.021
       0.016
       0.032
       0.061
       0.076
       0.054
      -0.001
      -0.067
      -0.121
      -0.151
      -0.160
      -0.155
      -0.145
      -0.129
      -0.098
      -0.046
       0.018
       0.079
       0.126
       0.159
       0.180
       0.189
       0.188
       0.175
       0.144
       0.089
       0.015
      -0.056
      -0.104
      -0.120
      -0.115
      -0.114
      -0.136
      -0.183
      -0.229
      -0.237
      -0.181
      -0.062
       0.093
       0.242
       0.340
       0.354
       0.287
       0.170
       0.046
      -0.051
      -0.101
      -0.104
      -0.071
      -0.030
      -0.006
      -0.015
      -0.055
      -0.110
      -0.150
      -0.148
      -0.091
       0.002
       0.095
       0.153
       0.152
       0.101
       0.027
      -0.037
      -0.073
      -0.082
      -0.076
      -0.061
      -0.035
       0.001
       0.044
       0.083
       0.114
       0.143
       0.184
       0.244
       0.302
       0.323
       0.274
       0.156
       0.001
      -0.148
      -0.262
      -0.333
      -0.368
      -0.372
      -0.342
      -0.265
      -0.131
       0.048
       0.237
       0.390
       0.474
       0.473
       0.386
       0.228
       0.028
      -0.176
      -0.345
      -0.445
      -0.462
      -0.405
      -0.300
      -0.174
      -0.054
       0.039
       0.088
       0.093
       0.080
       0.085
       0.132
       0.215
       0.304
       0.361
       0.357
       0.275
       0.107
      -0.138
      -0.424
      -0.684
      -0.845
      -0.872
      -0.773
      -0.586
      -0.348
      -0.088
       0.169
       0.402
       0.586
       0.700
       0.729
       0.666
       0.514
       0.298
       0.061
      -0.144
      -0.275
      -0.314
      -0.268
      -0.153
      -0.005
       0.128
       0.197
       0.178
       0.084
      -0.041
      -0.149
      -0.204
      -0.196
      -0.134
      -0.049
       0.022
       0.050
       0.033
      -0.010
      -0.050
      -0.071
      -0.068
      -0.049
      -0.017
       0.029
       0.088
       0.155
       0.218
       0.273
       0.325
       0.376
       0.417
       0.426
       0.385
       0.285
       0.132
      -0.049
      -0.225
      -0.357
      -0.415
      -0.387
      -0.280
      -0.126
       0.028
       0.139
       0.186
       0.176
       0.132
       0.077
       0.021
      -0.037
      -0.096
      -0.137
      -0.133
      -0.074
       0.018
       0.104
       0.155
       0.169
       0.158
       0.125
       0.061
      -0.045
      -0.176
      -0.290
      -0.336
      -0.289
      -0.174
      -0.044
       0.052
       0.091
       0.074
       0.013
      -0.072
      -0.162
      -0.235
      -0.268
      -0.230
      -0.105
       0.089
       0.292
       0.431
       0.455
       0.366
       0.210
       0.047
      -0.090
      -0.196
      -0.276
      -0.324
      -0.320
      -0.261
      -0.172
      -0.080
      -0.002
       0.056
       0.088
       0.084
       0.030
      -0.074
      -0.200
      -0.298
      -0.316
      -0.241
      -0.103
       0.040
       0.143
       0.191
       0.197
       0.185
       0.167
       0.147
       0.126
       0.109
       0.100
       0.094
       0.074
       0.037
      -0.004
      -0.031
      -0.042
      -0.052
      -0.071
      -0.093
      -0.098
      -0.063
       0.017
       0.127
       0.234
       0.297
       0.297
       0.237
       0.138
       0.021
      -0.098
      -0.205
      -0.278
      -0.293
      -0.238
      -0.126
       0.008
       0.129
       0.216
       0.265
       0.278
       0.261
       0.224
       0.181
       0.150
       0.146
       0.185
       0.266
       0.370
       0.454
       0.472
       0.401
       0.255
       0.078
      -0.080
      -0.190
      -0.250
      -0.273
      -0.282
      -0.297
      -0.339
      -0.417
      -0.518
      -0.599
      -0.616
      -0.551
      -0.426
      -0.286
      -0.170
      -0.095
      -0.052
      -0.018
       0.027
       0.088
       0.145
       0.178
       0.181
       0.161
       0.126
       0.078
       0.016
      -0.049
      -0.101
      -0.123
      -0.114
      -0.097
      -0.096
      -0.123
      -0.169
      -0.210
      -0.221
      -0.178
      -0.073
       0.074
       0.219
       0.317
       0.347
       0.319
       0.266
       0.223
       0.213
       0.236
       0.275
       0.306
       0.314
       0.294
       0.245
       0.156
       0.023
      -0.133
      -0.265
      -0.324
      -0.300
      -0.234
      -0.191
      -0.203
      -0.249
      -0.269
      -0.214
      -0.079
       0.090
       0.224
       0.273
       0.227
       0.121
       0.011
      -0.055
      -0.057
      -0.006
       0.065
       0.121
       0.132
       0.085
      -0.002
      -0.087
      -0.121
      -0.078
       0.031
       0.160
       0.255
       0.280
       0.229
       0.119
      -0.014
      -0.128
      -0.189
      -0.190
      -0.146
      -0.092
      -0.055
      -0.054
      -0.091
      -0.152
      -0.213
      -0.247
      -0.235
      -0.175
      -0.077
       0.032
       0.128
       0.197
       0.239
       0.254
       0.240
       0.204
       0.164
       0.139
       0.138
       0.154
       0.173
       0.171
       0.129
       0.041
      -0.074
      -0.181
      -0.247
      -0.263
      -0.246
      -0.222
      -0.213
      -0.223
      -0.239
      -0.244
      -0.233
      -0.210
      -0.177
      -0.133
      -0.074
      -0.007
       0.054
       0.092
       0.093
       0.062
       0.021
       0.000
       0.014
       0.057
       0.107
       0.139
       0.133
       0.084
       0.010
      -0.058
      -0.095
      -0.096
      -0.069
      -0.029
       0.012
       0.050
       0.082
       0.107
       0.115
       0.100
       0.062
       0.015
      -0.022
      -0.039
      -0.034
      -0.011
       0.023
       0.062
       0.106
       0.152
       0.184
       0.179
       0.121
       0.012
      -0.119
      -0.232
      -0.294
      -0.294
      -0.242
      -0.164
      -0.086
      -0.024
       0.015
       0.034
       0.044
       0.064
       0.101
       0.145
       0.171
       0.154
       0.085
      -0.024
      -0.139
      -0.223
      -0.247
      -0.210
      -0.133
      -0.046
       0.030
       0.087
       0.123
       0.135
       0.118
       0.081
       0.045
       0.032
       0.047
       0.074
       0.092
       0.079
       0.023
      -0.080
      -0.217
      -0.357
      -0.461
      -0.489
      -0.423
      -0.274
      -0.075
       0.137
       0.324
       0.453
       0.495
       0.434
       0.280
       0.074
      -0.128
      -0.280
      -0.375
      -0.438
      -0.482
      -0.482
      -0.387
      -0.163
       0.160
       0.494
       0.729
       0.797
       0.709
       0.533
       0.338
       0.167
       0.029
      -0.073
      -0.144
      -0.201
      -0.262
      -0.338
      -0.425
      -0.497
      -0.517
      -0.451
      -0.302
      -0.109
       0.072
       0.210
       0.309
       0.390
       0.465
       0.518
       0.512
       0.415
       0.226
      -0.022
      -0.268
      -0.453
      -0.542
      -0.540
      -0.486
      -0.424
      -0.369
      -0.310
      -0.230
      -0.127
      -0.013
       0.095
       0.187
       0.265
       0.339
       0.416
       0.499
       0.583
       0.658
       0.705
       0.703
       0.643
       0.534
       0.403
       0.279
       0.178
       0.102
       0.039
      -0.021
      -0.084
      -0.149
      -0.219
      -0.303
      -0.414
      -0.552
      -0.702
      -0.835
      -0.911
      -0.885
      -0.723
      -0.418
      -0.010
       0.425
       0.791
       1.019
       1.091
       1.035
       0.899
       0.719
       0.513
       0.292
       0.069
      -0.145
      -0.335
      -0.481
      -0.561
      -0.570
      -0.527
      -0.466
      -0.414
      -0.379
      -0.357
      -0.329
      -0.281
      -0.205
      -0.107
       0.002
       0.111
       0.211
       0.291
       0.345
       0.364
       0.337
       0.268
       0.184
       0.124
       0.101
       0.084
       0.019
      -0.127
      -0.340
      -0.572
      -0.764
      -0.867
      -0.862
      -0.756
      -0.578
      -0.359
      -0.123
       0.111
       0.325
       0.502
       0.628
       0.690
       0.678
       0.587
       0.425
       0.226
       0.044
      -0.073
      -0.101
      -0.058
      -0.002
      -0.003
      -0.108
      -0.306
      -0.521
      -0.653
      -0.625
      -0.430
      -0.128
       0.192
       0.456
       0.629
       0.710
       0.704
       0.606
       0.396
       0.062
      -0.384
      -0.889
      -1.371
      -1.740
      -1.924
      -1.877
      -1.590
      -1.100
      -0.492
       0.119
       0.620
       0.934
       1.057
       1.049
       0.998
       0.951
       0.900
       0.808
       0.670
       0.518
       0.394
       0.312
       0.243
       0.131
      -0.063
      -0.337
      -0.644
      -0.925
      -1.141
      -1.274
      -1.319
      -1.267
      -1.099
      -0.782
      -0.298
       0.314
       0.942
       1.435
       1.664
       1.586
       1.254
       0.795
       0.347
       0.004
      -0.210
      -0.314
      -0.336
      -0.293
      -0.204
      -0.097
       0.010
       0.119
       0.255
       0.442
       0.678
       0.925
       1.122
       1.219
       1.194
       1.049
       0.797
       0.459
       0.069
      -0.312
      -0.611
      -0.755
      -0.704
      -0.478
      -0.162
       0.126
       0.301
       0.340
       0.272
       0.142
      -0.014
      -0.174
      -0.308
      -0.375
      -0.331
      -0.162
       0.084
       0.318
       0.450
       0.432
       0.273
       0.027
      -0.228
      -0.413
      -0.481
      -0.425
      -0.269
      -0.053
       0.170
       0.332
       0.374
       0.273
       0.072
      -0.141
      -0.271
      -0.264
      -0.119
       0.126
       0.411
       0.683
       0.896
       1.012
       1.002
       0.842
       0.525
       0.067
      -0.493
      -1.102
      -1.698
      -2.218
      -2.601
      -2.794
      -2.752
      -2.444
      -1.878
      -1.110
      -0.238
       0.637
       1.437
       2.103
       2.584
       2.828
       2.808
       2.545
       2.089
       1.480
       0.743
      -0.075
      -0.883
      -1.558
      -1.987
      -2.121
      -2.000
      -1.735
      -1.457
      -1.246
      -1.098
      -0.946
      -0.715
      -0.380
       0.023
       0.420
       0.730
       0.885
       0.834
       0.542
       0.015
      -0.674
      -1.392
      -1.987
      -2.336
      -2.385
      -2.158
      -1.746
      -1.264
      -0.798
      -0.372
       0.039
       0.467
       0.916
       1.365
       1.779
       2.130
       2.410
       2.632
       2.806
       2.918
       2.926
       2.787
       2.494
       2.077
       1.582
       1.052
       0.527
       0.052
      -0.323
      -0.546
      -0.578
      -0.424
      -0.153
       0.115
       0.272
       0.276
       0.168
       0.033
      -0.066
      -0.121
      -0.172
      -0.259
      -0.399
      -0.586
      -0.820
      -1.107
      -1.436
      -1.761
      -2.009
      -2.109
      -2.026
      -1.782
      -1.445
      -1.084
      -0.740
      -0.411
      -0.075
       0.273
       0.597
       0.834
       0.943
       0.925
       0.825
       0.692
       0.559
       0.456
       0.427
       0.521
       0.753
       1.076
       1.399
       1.628
       1.717
       1.672
       1.526
       1.306
       1.021
       0.676
       0.284
      -0.130
      -0.539
      -0.923
      -1.280
      -1.617
      -1.932
      -2.196
      -2.352
      -2.335
      -2.114
      -1.703
      -1.152
      -0.516
       0.158
       0.834
       1.451
       1.916
       2.105
       1.923
       1.351
       0.459
      -0.609
      -1.669
      -2.528
      -3.014
      -3.013
      -2.504
      -1.588
      -0.467
       0.605
       1.401
       1.775
       1.699
       1.257
       0.609
      -0.069
      -0.648
      -1.065
      -1.308
      -1.369
      -1.231
      -0.886
      -0.364
       0.262
       0.908
       1.520
       2.069
       2.511
       2.767
       2.745
       2.388
       1.716
       0.830
      -0.105
      -0.907
      -1.425
      -1.580
      -1.384
      -0.925
      -0.338
       0.246
       0.731
       1.072
       1.265
       1.333
       1.302
       1.194
       1.020
       0.797
       0.557
       0.355
       0.250
       0.294
       0.493
       0.792
       1.083
       1.253
       1.224
       0.965
       0.474
      -0.225
      -1.074
      -1.973
      -2.783
      -3.359
      -3.603
      -3.506
      -3.158
      -2.693
      -2.222
      -1.792
      -1.382
      -0.953
      -0.480
       0.019
       0.490
       0.860
       1.058
       1.034
       0.783
       0.354
      -0.150
      -0.598
      -0.869
      -0.887
      -0.649
      -0.213
       0.332
       0.898
       1.421
       1.852
       2.152
       2.300
       2.311
       2.222
       2.064
       1.850
       1.588
       1.292
       0.984
       0.697
       0.465
       0.316
       0.252
       0.241
       0.243
       0.233
       0.224
       0.256
       0.361
       0.517
       0.639
       0.614
       0.366
      -0.100
      -0.699
      -1.311
      -1.819
      -2.152
      -2.291
      -2.272
      -2.165
      -2.059
      -2.030
      -2.109
      -2.254
      -2.356
      -2.278
      -1.910
      -1.231
      -0.341
       0.576
       1.330
       1.799
       1.950
       1.812
       1.442
       0.920
       0.357
      -0.122
      -0.415
      -0.487
      -0.379
      -0.171
       0.076
       0.348
       0.660
       1.011
       1.361
       1.647
       1.829
       1.900
       1.874
       1.768
       1.598
       1.379
       1.118
       0.816
       0.482
       0.134
      -0.189
      -0.436
      -0.549
      -0.487
      -0.265
       0.032
       0.277
       0.355
       0.203
      -0.177
      -0.731
      -1.375
      -2.010
      -2.532
      -2.844
      -2.870
      -2.580
      -1.996
      -1.189
      -0.259
       0.668
       1.467
       2.028
       2.294
       2.265
       1.991
       1.545
       1.003
       0.429
      -0.137
      -0.685
      -1.216
      -1.720
      -2.148
      -2.422
      -2.460
      -2.228
      -1.758
      -1.141
      -0.479
       0.150
       0.714
       1.205
       1.605
       1.871
       1.958
       1.865
       1.657
       1.427
       1.234
       1.052
       0.799
       0.409
      -0.102
      -0.634
      -1.056
      -1.280
      -1.291
      -1.139
      -0.896
      -0.619
      -0.333
      -0.044
       0.239
       0.490
       0.667
       0.747
       0.747
       0.715
       0.689
       0.677
       0.668
       0.657
       0.647
       0.633
       0.578
       0.426
       0.128
      -0.313
      -0.830
      -1.314
      -1.671
      -1.863
      -1.918
      -1.889
      -1.805
      -1.653
      -1.394
      -1.013
      -0.538
      -0.035
       0.429
       0.802
       1.056
       1.185
       1.205
       1.143
       1.019
       0.843
       0.627
       0.391
       0.153
      -0.083
      -0.321
      -0.550
      -0.730
      -0.800
      -0.707
      -0.449
      -0.075
       0.340
       0.736
       1.094
       1.417
       1.704
       1.929
       2.055
       2.048
       1.877
       1.528
       1.020
       0.408
      -0.238
      -0.852
      -1.373
      -1.741
      -1.905
      -1.852
      -1.611
      -1.239
      -0.801
      -0.362
       0.023
       0.324
       0.541
       0.686
       0.776
       0.813
       0.792
       0.700
       0.534
       0.319
       0.098
      -0.097
      -0.260
      -0.393
      -0.488
      -0.518
      -0.467
      -0.349
      -0.220
      -0.149
      -0.176
      -0.284
      -0.412
      -0.482
      -0.440
      -0.279
      -0.046
       0.183
       0.337
       0.381
       0.323
       0.190
       0.017
      -0.160
      -0.306
      -0.395
      -0.420
      -0.389
      -0.317
      -0.216
      -0.104
      -0.016
       0.014
      -0.033
      -0.140
      -0.270
      -0.384
      -0.459
      -0.493
      -0.492
      -0.464
      -0.415
      -0.337
      -0.213
      -0.030
       0.192
       0.401
       0.542
       0.593
       0.571
       0.520
       0.485
       0.507
       0.599
       0.733
       0.842
       0.845
       0.687
       0.361
      -0.082
      -0.546
      -0.918
      -1.106
      -1.076
      -0.861
      -0.543
      -0.224
       0.012
       0.134
       0.166
       0.169
       0.200
       0.277
       0.370
       0.429
       0.423
       0.373
       0.337
       0.364
       0.457
       0.574
       0.665
       0.716
       0.756
       0.814
       0.886
       0.924
       0.870
       0.705
       0.448
       0.133
      -0.214
      -0.569
      -0.896
      -1.151
      -1.289
      -1.287
      -1.151
      -0.933
      -0.703
      -0.509
      -0.356
      -0.223
      -0.100
      -0.001
       0.051
       0.043
      -0.005
      -0.058
      -0.086
      -0.087
      -0.072
      -0.039
       0.025
       0.113
       0.174
       0.145
      -0.001
      -0.219
      -0.417
      -0.501
      -0.431
      -0.241
      -0.019
       0.160
       0.272
       0.342
       0.396
       0.436
       0.447
       0.432
       0.418
       0.446
       0.533
       0.647
       0.727
       0.719
       0.618
       0.463
       0.306
       0.184
       0.110
       0.085
       0.108
       0.172
       0.258
       0.336
       0.365
       0.311
       0.167
      -0.029
      -0.216
      -0.351
      -0.437
      -0.526
      -0.664
      -0.858
      -1.054
      -1.167
      -1.131
      -0.938
      -0.644
      -0.329
      -0.068
       0.095
       0.141
       0.077
      -0.063
      -0.222
      -0.330
      -0.339
      -0.253
      -0.137
      -0.077
      -0.123
      -0.265
      -0.447
      -0.601
      -0.685
      -0.692
      -0.627
      -0.477
      -0.222
       0.136
       0.550
       0.943
       1.243
       1.411
       1.444
       1.360
       1.177
       0.923
       0.634
       0.366
       0.162
       0.038
      -0.032
      -0.089
      -0.156
      -0.223
      -0.261
      -0.251
      -0.197
      -0.124
      -0.064
      -0.037
      -0.044
