Origin Time       21/10/2008 15:09:06
Lat.              31.5 N 
Long.             77.3 E 
Depth (Km)         10.0
Magnitude         4.5
 Region           KULLU-HIMACHAL-PRADESH                                           
 Above details taken from IMD 
   
Station Code      MAN
Station Lat.       31.701
Station Long.      76.933
Station Height(m)  786.7
Site Class        B   Vs30 between 375 m/sec to 700 m/sec *  
Record Time       21.10.2008 15:09:08.299
Sampling Rate     200. Hz
 Record Duration   72.580 Sec.
 Direction         Vert. (Up positive)
Max. Acceleration     -3.171 cm/sec**2
     
  * For reference see Site Classification link of website 
     
 Base Line Corrected and Low Pass Filtered (Cut Off at 35 Hz) Time History
 Acceleration data in cm/sec**2
    
[...]
       0.062
       0.135
       0.224
       0.288
       0.296
       0.253
       0.193
       0.142
       0.090
      -0.004
      -0.167
      -0.362
      -0.507
      -0.537
      -0.456
      -0.335
      -0.250
      -0.231
      -0.251
      -0.257
      -0.209
      -0.097
       0.062
       0.241
       0.410
       0.535
       0.575
       0.503
       0.325
       0.097
      -0.093
      -0.175
      -0.136
      -0.024
       0.091
       0.163
       0.192
       0.201
       0.192
       0.137
      -0.005
      -0.238
      -0.520
      -0.760
      -0.864
      -0.781
      -0.540
      -0.227
       0.065
       0.287
       0.430
       0.500
       0.504
       0.454
       0.368
       0.275
       0.199
       0.152
       0.126
       0.098
       0.048
      -0.022
      -0.083
      -0.103
      -0.064
       0.020
       0.107
       0.147
       0.121
       0.045
      -0.052
      -0.148
      -0.229
      -0.274
      -0.254
      -0.161
      -0.017
       0.126
       0.209
       0.201
       0.111
      -0.020
      -0.146
      -0.243
      -0.308
      -0.335
      -0.301
      -0.184
       0.003
       0.196
       0.319
       0.333
       0.264
       0.169
       0.096
       0.060
       0.043
       0.013
      -0.044
      -0.107
      -0.140
      -0.135
      -0.116
      -0.108
      -0.112
      -0.110
      -0.079
       0.002
       0.137
       0.291
       0.413
       0.458
       0.423
       0.334
       0.230
       0.130
       0.027
      -0.104
      -0.283
      -0.485
      -0.649
      -0.714
      -0.669
      -0.544
      -0.381
      -0.201
       0.001
       0.241
       0.515
       0.770
       0.920
       0.892
       0.692
       0.400
       0.113
      -0.118
      -0.316
      -0.530
      -0.767
      -0.955
      -0.987
      -0.796
      -0.420
       0.000
       0.297
       0.390
       0.332
       0.264
       0.299
       0.442
       0.590
       0.617
       0.469
       0.200
      -0.072
      -0.255
      -0.350
      -0.432
      -0.550
      -0.664
      -0.675
      -0.512
      -0.199
       0.162
       0.465
       0.670
       0.796
       0.871
       0.872
       0.731
       0.395
      -0.106
      -0.643
      -1.052
      -1.219
      -1.132
      -0.859
      -0.482
      -0.066
       0.339
       0.689
       0.938
       1.044
       0.972
       0.724
       0.352
      -0.052
      -0.390
      -0.602
      -0.680
      -0.664
      -0.608
      -0.539
      -0.432
      -0.247
       0.015
       0.282
       0.453
       0.480
       0.403
       0.313
       0.272
       0.274
       0.279
       0.262
       0.200
       0.058
      -0.189
      -0.507
      -0.787
      -0.907
      -0.810
      -0.540
      -0.206
       0.112
       0.419
       0.752
       1.083
       1.297
       1.271
       0.961
       0.428
      -0.197
      -0.767
      -1.170
      -1.362
      -1.367
      -1.233
      -0.984
      -0.611
      -0.107
       0.478
       1.033
       1.422
       1.556
       1.427
       1.096
       0.651
       0.176
      -0.262
      -0.619
      -0.864
      -0.971
      -0.924
      -0.723
      -0.407
      -0.057
       0.221
       0.338
       0.275
       0.085
      -0.135
      -0.299
      -0.369
      -0.352
      -0.269
      -0.133
       0.041
       0.218
       0.338
       0.344
       0.225
       0.028
      -0.169
      -0.302
      -0.344
      -0.306
      -0.210
      -0.070
       0.107
       0.301
       0.458
       0.513
       0.436
       0.269
       0.094
      -0.021
      -0.059
      -0.048
      -0.016
       0.028
       0.081
       0.125
       0.129
       0.065
      -0.055
      -0.181
      -0.268
      -0.308
      -0.319
      -0.308
      -0.257
      -0.149
       0.015
       0.212
       0.408
       0.559
       0.630
       0.617
       0.545
       0.438
       0.291
       0.076
      -0.211
      -0.512
      -0.710
      -0.710
      -0.517
      -0.235
       0.021
       0.215
       0.370
       0.485
       0.504
       0.370
       0.107
      -0.174
      -0.362
      -0.424
      -0.418
      -0.432
      -0.501
      -0.575
      -0.578
      -0.472
      -0.293
      -0.102
       0.060
       0.198
       0.339
       0.493
       0.622
       0.665
       0.584
       0.400
       0.172
      -0.050
      -0.247
      -0.407
      -0.506
      -0.515
      -0.439
      -0.317
      -0.199
      -0.105
      -0.031
       0.034
       0.100
       0.170
       0.242
       0.303
       0.330
       0.291
       0.159
      -0.060
      -0.323
      -0.553
      -0.668
      -0.619
      -0.417
      -0.139
       0.115
       0.283
       0.370
       0.424
       0.491
       0.587
       0.686
       0.728
       0.653
       0.445
       0.154
      -0.131
      -0.327
      -0.405
      -0.407
      -0.403
      -0.435
      -0.486
      -0.505
      -0.449
      -0.304
      -0.079
       0.195
       0.476
       0.706
       0.828
       0.802
       0.633
       0.372
       0.098
      -0.119
      -0.240
      -0.257
      -0.198
      -0.109
      -0.027
       0.048
       0.135
       0.239
       0.336
       0.393
       0.394
       0.341
       0.247
       0.117
      -0.053
      -0.264
      -0.485
      -0.660
      -0.728
      -0.662
      -0.489
      -0.279
      -0.109
      -0.022
      -0.009
      -0.027
      -0.035
      -0.014
       0.035
       0.097
       0.141
       0.133
       0.057
      -0.079
      -0.244
      -0.404
      -0.529
      -0.586
      -0.535
      -0.367
      -0.138
       0.043
       0.095
       0.043
      -0.008
       0.038
       0.190
       0.374
       0.490
       0.478
       0.355
       0.188
       0.035
      -0.087
      -0.180
      -0.237
      -0.247
      -0.205
      -0.112
       0.021
       0.172
       0.304
       0.390
       0.418
       0.383
       0.287
       0.153
       0.034
      -0.018
       0.019
       0.111
       0.191
       0.190
       0.070
      -0.152
      -0.414
      -0.632
      -0.734
      -0.686
      -0.503
      -0.233
       0.063
       0.323
       0.485
       0.504
       0.376
       0.160
      -0.046
      -0.162
      -0.166
      -0.102
      -0.041
      -0.023
      -0.025
       0.011
       0.114
       0.243
       0.313
       0.249
       0.053
      -0.192
      -0.350
      -0.309
      -0.066
       0.258
       0.490
       0.522
       0.378
       0.187
       0.078
       0.104
       0.209
       0.279
       0.232
       0.076
      -0.098
      -0.208
      -0.236
      -0.228
      -0.233
      -0.253
      -0.248
      -0.179
      -0.039
       0.132
       0.262
       0.285
       0.175
      -0.036
      -0.264
      -0.410
      -0.420
      -0.320
      -0.191
      -0.093
      -0.026
       0.052
       0.158
       0.260
       0.304
       0.259
       0.139
      -0.004
      -0.119
      -0.187
      -0.224
      -0.261
      -0.314
      -0.370
      -0.397
      -0.368
      -0.286
      -0.191
      -0.133
      -0.131
      -0.159
      -0.159
      -0.086
       0.053
       0.204
       0.321
       0.399
       0.477
       0.588
       0.720
       0.816
       0.805
       0.651
       0.368
       0.010
      -0.352
      -0.642
      -0.798
      -0.784
      -0.603
      -0.302
       0.037
       0.310
       0.440
       0.405
       0.256
       0.080
      -0.052
      -0.119
      -0.146
      -0.158
      -0.151
      -0.100
       0.000
       0.120
       0.203
       0.187
       0.050
      -0.160
      -0.341
      -0.412
      -0.364
      -0.251
      -0.135
      -0.048
       0.016
       0.082
       0.157
       0.203
       0.176
       0.093
       0.038
       0.088
       0.244
       0.423
       0.527
       0.515
       0.448
       0.431
       0.496
       0.533
       0.383
      -0.007
      -0.491
      -0.809
      -0.758
      -0.345
       0.203
       0.589
       0.653
       0.446
       0.142
      -0.119
      -0.303
      -0.449
      -0.601
      -0.763
      -0.878
      -0.863
      -0.678
      -0.377
      -0.065
       0.174
       0.311
       0.368
       0.389
       0.417
       0.461
       0.485
       0.438
       0.298
       0.084
      -0.164
      -0.403
      -0.599
      -0.721
      -0.746
      -0.664
      -0.500
      -0.304
      -0.121
       0.037
       0.192
       0.367
       0.553
       0.699
       0.742
       0.649
       0.449
       0.211
      -0.001
      -0.164
      -0.309
      -0.492
      -0.731
      -0.965
      -1.057
      -0.890
      -0.463
       0.102
       0.637
       1.017
       1.198
       1.182
       0.979
       0.598
       0.068
      -0.525
      -1.035
      -1.305
      -1.255
      -0.922
      -0.446
       0.003
       0.306
       0.447
       0.492
       0.509
       0.509
       0.462
       0.360
       0.233
       0.119
       0.027
      -0.044
      -0.091
      -0.113
      -0.136
      -0.192
      -0.280
      -0.342
      -0.305
      -0.144
       0.102
       0.342
       0.485
       0.490
       0.394
       0.277
       0.205
       0.199
       0.251
       0.329
       0.369
       0.307
       0.118
      -0.177
      -0.538
      -0.917
      -1.224
      -1.345
      -1.196
      -0.794
      -0.246
       0.296
       0.703
       0.905
       0.890
       0.691
       0.370
       0.011
      -0.304
      -0.514
      -0.592
      -0.540
      -0.374
      -0.122
       0.178
       0.464
       0.650
       0.665
       0.496
       0.206
      -0.105
      -0.354
      -0.496
      -0.505
      -0.362
      -0.078
       0.277
       0.591
       0.773
       0.812
       0.767
       0.707
       0.644
       0.527
       0.302
      -0.005
      -0.276
      -0.390
      -0.324
      -0.174
      -0.080
      -0.111
      -0.210
      -0.251
      -0.159
       0.012
       0.118
       0.045
      -0.198
      -0.483
      -0.659
      -0.664
      -0.547
      -0.384
      -0.167
       0.183
       0.690
       1.232
       1.590
       1.600
       1.250
       0.674
       0.060
      -0.458
      -0.844
      -1.120
      -1.287
      -1.291
      -1.078
      -0.647
      -0.078
       0.479
       0.842
       0.882
       0.618
       0.226
      -0.083
      -0.212
      -0.221
      -0.242
      -0.339
      -0.440
      -0.382
      -0.068
       0.400
       0.748
       0.739
       0.361
      -0.171
      -0.594
      -0.782
      -0.796
      -0.781
      -0.809
      -0.812
      -0.649
      -0.256
       0.275
       0.766
       1.073
       1.157
       1.058
       0.827
       0.493
       0.067
      -0.415
      -0.868
      -1.178
      -1.264
      -1.114
      -0.767
      -0.260
       0.373
       1.067
       1.705
       2.145
       2.289
       2.126
       1.726
       1.189
       0.574
      -0.117
      -0.886
      -1.672
      -2.344
      -2.748
      -2.778
      -2.403
      -1.678
      -0.742
       0.214
       1.000
       1.489
       1.637
       1.457
       1.008
       0.412
      -0.163
      -0.556
      -0.686
      -0.567
      -0.283
       0.062
       0.367
       0.565
       0.657
       0.705
       0.789
       0.943
       1.135
       1.302
       1.387
       1.356
       1.199
       0.911
       0.465
      -0.162
      -0.937
      -1.720
      -2.310
      -2.551
      -2.411
      -1.953
      -1.267
      -0.439
       0.424
       1.177
       1.676
       1.857
       1.734
       1.359
       0.777
       0.034
      -0.803
      -1.639
      -2.364
      -2.863
      -3.061
      -2.942
      -2.558
      -1.993
      -1.333
      -0.635
       0.062
       0.705
       1.208
       1.480
       1.490
       1.287
       0.958
       0.571
       0.179
      -0.145
      -0.321
      -0.313
      -0.156
       0.072
       0.292
       0.452
       0.537
       0.556
       0.541
       0.536
       0.599
       0.774
       1.062
       1.384
       1.586
       1.515
       1.130
       0.548
      -0.043
      -0.497
      -0.763
      -0.839
      -0.732
      -0.466
      -0.096
       0.283
       0.557
       0.619
       0.422
       0.041
      -0.352
      -0.609
      -0.715
      -0.761
      -0.827
      -0.909
      -0.960
      -0.989
      -1.087
      -1.347
      -1.741
      -2.082
      -2.118
      -1.699
      -0.875
       0.148
       1.137
       1.947
       2.540
       2.924
       3.066
       2.880
       2.298
       1.370
       0.313
      -0.568
      -1.041
      -1.073
      -0.817
      -0.469
      -0.128
       0.227
       0.631
       1.019
       1.239
       1.167
       0.828
       0.384
       0.009
      -0.239
      -0.433
      -0.672
      -0.965
      -1.198
      -1.219
      -0.951
      -0.468
       0.034
       0.362
       0.446
       0.352
       0.177
      -0.061
      -0.426
      -0.954
      -1.540
      -1.942
      -1.917
      -1.379
      -0.471
       0.508
       1.275
       1.719
       1.904
       1.938
       1.839
       1.534
       0.959
       0.167
      -0.655
      -1.255
      -1.461
      -1.268
      -0.820
      -0.311
       0.120
       0.434
       0.687
       0.981
       1.359
       1.756
       2.028
       2.062
       1.847
       1.450
       0.932
       0.296
      -0.476
      -1.348
      -2.192
      -2.838
      -3.171
      -3.150
      -2.753
      -1.966
      -0.852
       0.383
       1.457
       2.152
       2.409
       2.284
       1.860
       1.189
       0.305
      -0.706
      -1.679
      -2.421
      -2.803
      -2.810
      -2.497
      -1.929
      -1.159
      -0.264
       0.632
       1.371
       1.813
       1.878
       1.559
       0.923
       0.107
      -0.690
      -1.261
      -1.489
      -1.397
      -1.090
      -0.662
      -0.160
       0.392
       0.931
       1.363
       1.601
       1.621
       1.467
       1.208
       0.877
       0.468
      -0.021
      -0.522
      -0.912
      -1.076
      -0.978
      -0.674
      -0.265
       0.148
       0.491
       0.727
       0.853
       0.880
       0.822
       0.693
       0.530
       0.405
       0.379
       0.461
       0.596
       0.723
       0.828
       0.923
       0.972
       0.862
       0.504
      -0.065
      -0.692
      -1.234
      -1.628
      -1.881
      -2.029
      -2.118
      -2.188
      -2.248
      -2.255
      -2.128
      -1.804
      -1.288
      -0.677
      -0.095
       0.400
       0.855
       1.339
       1.832
       2.213
       2.371
       2.308
       2.155
       2.061
       2.072
       2.086
       1.956
       1.630
       1.191
       0.773
       0.448
       0.183
      -0.118
      -0.513
      -0.949
      -1.272
      -1.344
      -1.158
      -0.839
      -0.521
      -0.245
       0.016
       0.266
       0.435
       0.418
       0.176
      -0.209
      -0.592
      -0.872
      -1.065
      -1.258
      -1.502
      -1.730
      -1.797
      -1.606
      -1.185
      -0.651
      -0.107
       0.396
       0.819
       1.101
       1.184
       1.068
       0.821
       0.539
       0.283
       0.043
      -0.223
      -0.504
      -0.684
      -0.617
      -0.273
       0.186
       0.513
       0.558
       0.376
       0.147
       0.014
      -0.010
      -0.017
      -0.094
      -0.241
      -0.370
      -0.384
      -0.265
      -0.089
       0.028
       0.031
      -0.033
      -0.032
       0.171
       0.618
       1.200
       1.688
       1.857
       1.609
       1.012
       0.227
      -0.598
      -1.385
      -2.095
      -2.657
      -2.935
      -2.799
      -2.219
      -1.320
      -0.331
       0.529
       1.154
       1.564
       1.826
       1.946
       1.843
       1.421
       0.691
      -0.181
      -0.934
      -1.367
      -1.447
      -1.297
      -1.068
      -0.821
      -0.519
      -0.098
       0.445
       1.011
       1.430
       1.562
       1.388
       1.050
       0.759
       0.641
       0.658
       0.659
       0.542
       0.346
       0.195
       0.164
       0.191
       0.123
      -0.153
      -0.608
      -1.085
      -1.415
      -1.512
      -1.393
      -1.127
      -0.791
      -0.442
      -0.122
       0.121
       0.234
       0.195
       0.056
      -0.071
      -0.079
       0.061
       0.296
       0.537
       0.703
       0.749
       0.677
       0.535
       0.383
       0.249
       0.126
      -0.001
      -0.132
      -0.255
      -0.362
      -0.436
      -0.456
      -0.406
      -0.293
      -0.144
       0.009
       0.146
       0.271
       0.402
       0.550
       0.690
       0.773
       0.774
       0.740
       0.751
       0.825
       0.865
       0.736
       0.379
      -0.143
      -0.685
      -1.109
      -1.342
      -1.413
      -1.425
      -1.464
      -1.507
      -1.456
      -1.238
      -0.878
      -0.452
      -0.021
       0.376
       0.711
       0.981
       1.195
       1.335
       1.341
       1.154
       0.772
       0.256
      -0.304
      -0.806
      -1.153
      -1.270
      -1.126
      -0.741
      -0.186
       0.449
       1.080
       1.636
       2.045
       2.224
       2.098
       1.648
       0.951
       0.171
      -0.499
      -0.912
      -1.017
      -0.869
      -0.602
      -0.356
      -0.210
      -0.157
      -0.151
      -0.155
      -0.161
      -0.155
      -0.105
       0.009
       0.177
       0.350
       0.460
       0.443
       0.269
      -0.024
      -0.344
      -0.586
      -0.691
      -0.658
      -0.527
      -0.337
      -0.122
       0.078
       0.214
       0.264
       0.259
       0.259
       0.283
       0.282
       0.194
       0.009
      -0.214
      -0.402
      -0.523
      -0.607
      -0.718
      -0.888
      -1.074
      -1.174
      -1.095
      -0.824
      -0.430
      -0.015
       0.330
       0.537
       0.576
       0.475
       0.309
       0.161
       0.083
       0.077
       0.091
       0.057
      -0.041
      -0.137
      -0.141
      -0.051
       0.010
      -0.104
      -0.414
      -0.772
      -0.967
      -0.884
      -0.568
      -0.143
       0.316
       0.805
       1.304
       1.705
       1.847
       1.619
       1.044
       0.276
      -0.476
      -1.051
      -1.411
      -1.599
      -1.641
      -1.503
      -1.144
      -0.586
       0.080
       0.737
       1.294
       1.714
       1.993
       2.117
       2.038
       1.728
       1.253
       0.763
       0.370
       0.044
      -0.352
      -0.914
      -1.579
      -2.143
      -2.391
      -2.229
      -1.738
      -1.103
      -0.475
       0.109
       0.685
       1.254
       1.724
       1.946
       1.803
       1.299
       0.567
      -0.181
      -0.771
      -1.145
      -1.348
      -1.447
      -1.448
      -1.299
      -0.958
      -0.441
       0.184
       0.829
       1.402
       1.815
       2.004
       1.941
       1.630
       1.116
       0.496
      -0.091
      -0.514
      -0.706
      -0.691
      -0.566
      -0.450
      -0.411
      -0.427
      -0.420
      -0.343
      -0.222
      -0.113
      -0.037
       0.025
