Origin Time       25/11/2007 23:12:20
Lat.              28.6 N 
Long.             77.0 E 
Depth (Km)         20.3
Magnitude         4.3
 Region           DELHI-HARYANA-BORDER-REGION                                      
 Above details taken from IMD 
    
Station Code       MAC 
Station Lat.       28.603  N
Station Long.      77.295  E
Station Height(m)   50.0
Site Class        C   Vs30 between 200 m/sec to 375 m/sec *  
Record Time        1/5/1980  22:04:55.000
Sampling Rate     200. Hz
 Record Duration  125.000 Sec.
 Direction         N-S (N positive)
Max. Acceleration -25.018 cm/sec**2
     
  * For reference see Site Classification link of website 
     
 Base Line Corrected and Low Pass Filtered (Cut Off at 35 Hz) Time History
 Acceleration data in cm/sec**2
    
[...]
   -0.005
   -0.001
    0.003
    0.006
    0.008
    0.010
    0.009
    0.007
    0.005
    0.004
    0.005
    0.007
    0.006
    0.004
    0.001
    0.001
    0.001
    0.002
    0.003
    0.005
    0.010
    0.013
    0.013
    0.009
    0.005
    0.004
    0.005
    0.007
    0.007
    0.005
    0.005
    0.006
    0.007
    0.005
    0.003
    0.001
    0.000
   -0.001
   -0.003
   -0.004
   -0.006
   -0.007
   -0.008
   -0.009
   -0.010
   -0.011
   -0.009
   -0.006
   -0.005
   -0.005
   -0.005
   -0.003
    0.000
    0.003
    0.004
    0.002
   -0.002
   -0.004
   -0.003
   -0.001
   -0.001
    0.000
    0.000
    0.002
    0.003
    0.003
    0.003
    0.004
    0.006
    0.008
    0.010
    0.010
    0.007
    0.003
    0.001
    0.001
    0.002
    0.005
    0.007
    0.007
    0.006
    0.004
    0.004
    0.006
    0.008
    0.008
    0.007
    0.005
    0.005
    0.005
    0.005
    0.003
    0.000
   -0.002
   -0.001
    0.002
    0.006
    0.009
    0.010
    0.010
    0.007
    0.004
    0.001
    0.000
    0.002
    0.004
    0.005
    0.006
    0.008
    0.008
    0.007
    0.005
    0.004
    0.005
    0.009
    0.013
    0.014
    0.013
    0.011
    0.009
    0.008
    0.005
    0.003
    0.001
    0.000
    0.000
    0.001
    0.001
    0.001
   -0.002
   -0.005
   -0.006
   -0.005
   -0.002
    0.000
   -0.001
   -0.005
   -0.008
   -0.009
   -0.007
   -0.003
    0.002
    0.006
    0.007
    0.007
    0.006
    0.006
    0.006
    0.005
    0.003
    0.001
    0.000
    0.001
    0.004
    0.006
    0.006
    0.005
    0.004
    0.004
    0.005
    0.006
    0.007
    0.007
    0.007
    0.006
    0.004
    0.001
   -0.003
   -0.005
   -0.004
   -0.001
    0.000
    0.000
    0.000
    0.000
    0.001
    0.002
    0.002
    0.001
   -0.002
   -0.001
    0.004
    0.011
    0.014
    0.012
    0.005
   -0.001
   -0.003
   -0.001
    0.002
    0.004
    0.002
   -0.002
   -0.005
   -0.006
   -0.006
   -0.004
   -0.002
    0.000
    0.001
    0.000
   -0.003
   -0.005
   -0.006
   -0.004
   -0.001
    0.001
    0.002
    0.002
    0.002
    0.001
    0.000
   -0.004
   -0.009
   -0.013
   -0.015
   -0.012
   -0.007
   -0.002
    0.000
   -0.002
   -0.005
   -0.007
   -0.007
   -0.007
   -0.008
   -0.009
   -0.010
   -0.009
   -0.006
   -0.001
    0.004
    0.007
    0.010
    0.012
    0.013
    0.012
    0.010
    0.009
    0.007
    0.004
    0.000
   -0.003
   -0.005
   -0.005
   -0.002
    0.002
    0.006
    0.008
    0.009
    0.006
    0.000
   -0.004
   -0.005
   -0.003
    0.001
    0.003
    0.003
    0.004
    0.005
    0.005
    0.004
    0.001
   -0.001
    0.000
    0.002
    0.003
    0.000
   -0.005
   -0.010
   -0.012
   -0.011
   -0.006
   -0.003
   -0.001
   -0.001
   -0.002
   -0.004
   -0.005
   -0.007
   -0.007
   -0.005
   -0.002
    0.002
    0.005
    0.004
    0.001
   -0.004
   -0.006
   -0.006
   -0.003
    0.001
    0.003
    0.005
    0.007
    0.009
    0.010
    0.008
    0.005
    0.001
   -0.001
   -0.002
   -0.002
   -0.004
   -0.005
   -0.006
   -0.005
   -0.004
   -0.002
   -0.001
    0.001
    0.003
    0.005
    0.005
    0.004
    0.002
   -0.001
   -0.005
   -0.008
   -0.009
   -0.006
   -0.001
    0.005
    0.012
    0.016
    0.016
    0.012
    0.005
   -0.001
   -0.002
    0.000
    0.005
    0.008
    0.008
    0.006
    0.003
    0.000
   -0.003
   -0.004
   -0.004
   -0.001
    0.003
    0.007
    0.007
    0.004
    0.000
   -0.003
   -0.004
   -0.003
    0.000
    0.003
    0.004
    0.004
    0.002
    0.000
   -0.001
    0.000
    0.003
    0.007
    0.009
    0.009
    0.007
    0.005
    0.003
    0.000
   -0.004
   -0.003
    0.002
    0.009
    0.012
    0.012
    0.008
    0.005
    0.005
    0.007
    0.008
    0.007
    0.005
    0.006
    0.007
    0.008
    0.007
    0.003
    0.000
   -0.002
   -0.004
   -0.005
   -0.003
    0.002
    0.008
    0.012
    0.010
    0.004
   -0.003
   -0.006
   -0.007
   -0.005
   -0.004
   -0.002
    0.000
    0.002
    0.002
    0.000
   -0.001
   -0.001
    0.001
    0.002
    0.002
    0.000
   -0.001
   -0.003
   -0.007
   -0.011
   -0.013
   -0.010
   -0.003
    0.003
    0.006
    0.005
    0.003
    0.002
    0.000
    0.000
    0.000
    0.001
    0.002
    0.000
   -0.004
   -0.007
   -0.007
   -0.004
   -0.002
   -0.001
    0.000
    0.003
    0.008
    0.012
    0.014
    0.015
    0.015
    0.015
    0.015
    0.013
    0.011
    0.008
    0.007
    0.008
    0.008
    0.009
    0.008
    0.006
    0.006
    0.008
    0.008
    0.007
    0.005
    0.003
    0.004
    0.004
    0.004
    0.003
    0.003
    0.004
    0.005
    0.006
    0.006
    0.004
    0.001
   -0.002
   -0.004
   -0.004
   -0.001
    0.004
    0.009
    0.010
    0.005
   -0.006
   -0.021
   -0.033
   -0.034
   -0.021
   -0.004
   -0.003
   -0.031
   -0.080
   -0.116
   -0.096
   -0.008
    0.103
    0.150
    0.078
   -0.071
   -0.170
   -0.103
    0.119
    0.340
    0.371
    0.149
   -0.190
   -0.387
   -0.273
    0.067
    0.340
    0.290
   -0.056
   -0.401
   -0.450
   -0.177
    0.163
    0.297
    0.171
   -0.043
   -0.134
   -0.034
    0.147
    0.237
    0.154
   -0.023
   -0.115
   -0.021
    0.158
    0.198
   -0.002
   -0.266
   -0.323
   -0.116
    0.129
    0.172
    0.014
   -0.151
   -0.178
   -0.091
   -0.011
   -0.010
   -0.049
   -0.041
    0.029
    0.071
   -0.010
   -0.179
   -0.292
   -0.233
   -0.031
    0.164
    0.186
   -0.007
   -0.285
   -0.430
   -0.321
   -0.035
    0.221
    0.261
    0.070
   -0.157
   -0.167
    0.092
    0.378
    0.390
    0.094
   -0.251
   -0.353
   -0.133
    0.252
    0.534
    0.490
    0.104
   -0.366
   -0.544
   -0.239
    0.351
    0.778
    0.727
    0.297
   -0.099
   -0.140
    0.121
    0.352
    0.295
   -0.005
   -0.290
   -0.342
   -0.174
    0.001
   -0.025
   -0.258
   -0.492
   -0.499
   -0.219
    0.203
    0.528
    0.560
    0.277
   -0.120
   -0.317
   -0.131
    0.333
    0.754
    0.851
    0.613
    0.271
    0.065
    0.039
    0.080
    0.112
    0.158
    0.220
    0.198
   -0.026
   -0.441
   -0.859
   -0.999
   -0.683
   -0.036
    0.521
    0.567
    0.042
   -0.661
   -0.998
   -0.713
   -0.038
    0.493
    0.488
    0.007
   -0.527
   -0.716
   -0.493
   -0.110
    0.105
   -0.009
   -0.348
   -0.600
   -0.483
   -0.018
    0.447
    0.577
    0.382
    0.144
    0.074
    0.164
    0.309
    0.442
    0.509
    0.441
    0.235
    0.017
   -0.036
    0.141
    0.425
    0.578
    0.427
    0.023
   -0.378
   -0.537
   -0.439
   -0.261
   -0.147
   -0.081
   -0.014
   -0.007
   -0.150
   -0.347
   -0.341
   -0.042
    0.266
    0.176
   -0.337
   -0.805
   -0.747
   -0.199
    0.343
    0.483
    0.311
    0.192
    0.324
    0.572
    0.677
    0.517
    0.171
   -0.152
   -0.206
    0.156
    0.788
    1.187
    0.844
   -0.188
   -1.144
   -1.171
   -0.203
    0.857
    0.951
   -0.106
   -1.474
   -2.116
   -1.697
   -0.689
    0.206
    0.568
    0.363
   -0.154
   -0.542
   -0.383
    0.362
    1.156
    1.256
    0.447
   -0.601
   -0.912
   -0.212
    0.764
    1.041
    0.396
   -0.531
   -0.966
   -0.660
    0.109
    0.888
    1.281
    1.010
    0.097
   -0.928
   -1.209
   -0.290
    1.272
    2.215
    1.710
    0.168
   -1.186
   -1.479
   -0.842
   -0.024
    0.385
    0.255
   -0.304
   -1.086
   -1.673
   -1.495
   -0.366
    1.060
    1.660
    0.880
   -0.624
   -1.544
   -1.144
    0.102
    1.096
    1.176
    0.504
   -0.374
   -1.007
   -1.089
   -0.447
    0.676
    1.506
    1.287
    0.085
   -1.152
   -1.465
   -0.757
    0.265
    0.860
    0.822
    0.387
   -0.169
   -0.681
   -0.961
   -0.785
   -0.175
    0.430
    0.533
    0.115
   -0.371
   -0.550
   -0.484
   -0.408
   -0.300
    0.052
    0.620
    0.965
    0.648
   -0.223
   -0.935
   -0.778
    0.257
    1.390
    1.722
    1.013
   -0.159
   -0.905
   -0.699
    0.298
    1.387
    1.811
    1.262
    0.075
   -1.021
   -1.400
   -0.928
   -0.020
    0.653
    0.627
    0.001
   -0.679
   -0.907
   -0.589
    0.018
    0.585
    0.863
    0.740
    0.334
   -0.046
   -0.188
   -0.201
   -0.301
   -0.416
   -0.197
    0.494
    1.249
    1.396
    0.610
   -0.782
   -2.012
   -2.389
   -1.736
   -0.486
    0.678
    1.306
    1.327
    0.860
    0.078
   -0.690
   -0.950
   -0.391
    0.718
    1.544
    1.304
   -0.027
   -1.563
   -2.185
   -1.457
    0.053
    1.306
    1.572
    0.803
   -0.467
   -1.453
   -1.505
   -0.510
    0.927
    1.785
    1.368
   -0.063
   -1.377
   -1.479
   -0.279
    1.206
    1.766
    1.007
   -0.457
   -1.618
   -1.795
   -0.983
    0.241
    1.119
    1.198
    0.589
   -0.210
   -0.727
   -0.749
   -0.290
    0.483
    1.216
    1.399
    0.654
   -0.836
   -2.198
   -2.345
   -0.876
    1.373
    2.830
    2.470
    0.692
   -1.100
   -1.717
   -0.972
    0.509
    1.872
    2.405
    1.747
    0.123
   -1.623
   -2.499
   -2.075
   -0.770
    0.566
    1.284
    1.160
    0.256
   -1.120
   -2.326
   -2.617
   -1.751
   -0.293
    0.855
    1.214
    0.986
    0.662
    0.554
    0.709
    1.073
    1.543
    1.866
    1.669
    0.774
   -0.487
   -1.411
   -1.475
   -0.793
   -0.051
    0.047
   -0.645
   -1.603
   -2.106
   -1.854
   -1.131
   -0.417
    0.032
    0.220
    0.217
    0.115
    0.099
    0.349
    0.795
    1.094
    0.943
    0.422
   -0.039
   -0.067
    0.280
    0.582
    0.527
    0.245
    0.059
   -0.002
   -0.236
   -0.741
   -1.094
   -0.756
    0.239
    1.163
    1.229
    0.383
   -0.608
   -0.868
   -0.206
    0.816
    1.514
    1.637
    1.355
    0.916
    0.446
   -0.015
   -0.377
   -0.446
   -0.094
    0.455
    0.617
   -0.026
   -1.211
   -2.145
   -2.201
   -1.376
   -0.202
    0.632
    0.662
   -0.033
   -0.828
   -1.017
   -0.439
    0.405
    0.869
    0.750
    0.301
   -0.194
   -0.665
   -1.052
   -1.099
   -0.590
    0.234
    0.711
    0.396
   -0.395
   -0.822
   -0.351
    0.708
    1.525
    1.518
    0.761
   -0.232
   -0.897
   -0.823
    0.103
    1.440
    2.206
    1.574
   -0.208
   -1.769
   -1.775
   -0.197
    1.617
    2.153
    1.054
   -0.624
   -1.399
   -0.657
    0.889
    1.899
    1.516
   -0.052
   -1.752
   -2.400
   -1.520
    0.203
    1.352
    0.969
   -0.557
   -1.827
   -1.725
   -0.389
    1.046
    1.576
    1.170
    0.556
    0.304
    0.259
   -0.073
   -0.729
   -1.115
   -0.715
    0.215
    0.826
    0.522
   -0.507
   -1.517
   -1.833
   -1.259
   -0.102
    1.025
    1.473
    0.888
   -0.510
   -1.970
   -2.687
   -2.328
   -1.134
    0.387
    1.736
    2.437
    2.085
    0.694
   -0.966
   -1.719
   -0.951
    0.770
    2.165
    2.274
    1.022
   -0.892
   -2.381
   -2.465
   -0.950
    1.218
    2.527
    2.044
    0.099
   -2.003
   -2.809
   -1.604
    0.982
    3.147
    3.162
    0.898
   -1.918
   -3.116
   -1.848
    0.855
    3.006
    3.110
    1.121
   -1.559
   -3.010
   -2.154
    0.395
    2.738
    3.164
    1.450
   -1.090
   -2.699
   -2.386
   -0.406
    2.023
    3.411
    2.856
    0.679
   -1.675
   -2.618
   -1.606
    0.435
    1.884
    1.770
    0.476
   -0.839
   -1.399
   -1.279
   -0.910
   -0.531
   -0.237
   -0.178
   -0.401
   -0.677
   -0.793
   -0.880
   -1.169
   -1.457
   -1.174
   -0.113
    1.104
    1.533
    0.878
   -0.182
   -0.679
   -0.300
    0.361
    0.477
   -0.131
   -0.807
   -0.785
   -0.011
    0.809
    0.955
    0.345
   -0.529
   -1.057
   -0.764
    0.545
    2.384
    3.407
    2.312
   -0.643
   -3.372
   -3.720
   -1.536
    1.286
    2.721
    2.240
    0.587
   -1.371
   -3.057
   -3.769
   -2.703
    0.101
    3.126
    4.263
    2.677
   -0.257
   -2.056
   -1.278
    1.408
    4.069
    5.104
    4.021
    1.312
   -1.777
   -3.541
   -2.761
    0.081
    2.789
    3.159
    0.917
   -2.099
   -3.698
   -3.196
   -1.640
   -0.510
   -0.437
   -1.034
   -1.572
   -1.581
   -0.941
    0.211
    1.433
    1.978
    1.248
   -0.486
   -1.991
   -2.074
   -0.820
    0.435
    0.511
   -0.412
   -1.190
   -1.049
   -0.152
    0.987
    2.078
    2.830
    2.677
    1.302
   -0.620
   -1.686
   -1.007
    0.909
    2.575
    2.723
    1.205
   -0.979
   -2.419
   -2.297
   -0.965
    0.359
    0.560
   -0.527
   -1.991
   -2.537
   -1.529
    0.451
    2.113
    2.646
    2.365
    2.110
    2.155
    1.967
    1.057
   -0.192
   -0.766
   -0.106
    1.150
    1.673
    0.721
   -1.151
   -2.653
   -2.911
   -2.049
   -0.869
   -0.187
   -0.352
   -1.042
   -1.415
   -0.713
    0.985
    2.659
    3.213
    2.455
    1.146
    0.132
   -0.395
   -0.759
   -1.132
   -1.271
   -0.964
   -0.563
   -0.757
   -1.791
   -3.080
   -3.729
   -3.324
   -2.112
   -0.630
    0.575
    0.979
    0.361
   -0.713
   -1.026
    0.217
    2.411
    3.922
    3.568
    1.732
    0.061
    0.084
    1.960
    4.300
    5.194
    3.753
    1.002
   -0.758
    0.221
    3.573
    6.946
    7.783
    5.336
    1.243
   -1.865
   -2.514
   -1.293
    0.161
    0.662
   -0.149
   -2.276
   -5.433
   -8.601
  -10.257
   -9.557
   -7.250
   -5.226
   -5.169
   -7.443
  -10.896
  -13.534
  -13.715
  -11.272
   -7.771
   -5.494
   -5.719
   -7.597
   -8.688
   -6.945
   -2.522
    2.343
    5.362
    6.204
    6.575
    8.512
   12.644
   17.804
   22.014
   23.818
   23.001
   20.440
   17.525
   15.545
   15.073
   15.488
   15.131
   12.328
    6.584
   -0.966
   -8.018
  -12.182
  -12.417
  -10.074
   -8.384
  -10.169
  -15.525
  -21.655
  -25.018
  -23.801
  -18.767
  -12.378
   -7.304
   -5.182
   -5.894
   -7.590
   -7.691
   -4.505
    1.587
    8.243
   12.538
   12.783
    9.617
    5.585
    3.429
    4.341
    7.415
   10.511
   11.742
   10.552
    7.674
    4.249
    1.102
   -1.306
   -2.753
   -3.387
   -3.637
   -3.615
   -2.840
   -0.946
    1.520
    3.444
    4.266
    4.379
    4.409
    4.461
    4.186
    3.318
    2.016
    0.855
    0.542
    1.426
    3.083
    4.428
    4.455
    3.029
    1.022
   -0.314
   -0.257
    0.775
    1.399
    0.341
   -2.224
   -4.438
   -4.323
   -1.876
    0.609
    0.588
   -2.433
   -6.711
   -9.997
  -11.138
  -10.328
   -8.599
   -7.321
   -7.627
   -9.639
  -12.108
  -13.071
  -11.165
   -6.635
   -1.393
    1.992
    1.922
   -1.042
   -4.469
   -5.684
   -3.502
    1.127
    5.803
    8.166
    7.389
    4.766
    2.837
    3.595
    7.170
   11.912
   15.588
   16.654
   14.861
   11.152
    7.169
    4.494
    3.754
    4.120
    3.875
    1.904
   -1.169
   -3.458
   -3.584
   -1.972
   -0.365
   -0.133
   -1.206
   -2.564
   -3.433
   -3.780
   -3.845
   -3.699
   -3.425
   -3.398
   -3.927
   -4.589
   -4.273
   -2.206
    0.997
    3.433
    3.218
   -0.028
   -4.734
   -8.362
   -9.045
   -6.653
   -2.613
    1.186
    3.574
    4.618
    5.256
    6.402
    8.146
    9.615
    9.600
    7.560
    4.214
    1.173
   -0.193
    0.369
    2.085
    3.906
    5.061
    5.157
    4.163
    2.460
    0.686
   -0.762
   -2.116
   -4.017
   -6.756
   -9.692
  -11.472
  -11.010
   -8.430
   -5.095
   -2.686
   -2.094
   -3.000
   -4.264
   -4.672
   -3.631
   -1.583
    0.133
    0.126
   -1.831
   -4.260
   -4.987
   -3.074
    0.289
    2.998
    3.963
    3.575
    2.647
    1.554
    0.376
   -0.779
   -1.824
   -2.564
   -2.338
   -0.348
    3.202
    6.554
    7.463
    5.062
    0.763
   -2.654
   -3.104
   -0.794
    2.083
    3.345
    2.626
    1.296
    0.857
    1.571
    2.494
    2.475
    1.131
   -0.871
   -2.328
   -2.478
   -1.681
   -1.117
   -1.702
   -3.292
   -4.889
   -5.440
   -4.431
   -2.120
    0.421
    1.714
    0.901
   -1.466
   -3.815
   -4.759
   -3.936
   -2.081
   -0.618
   -0.806
   -2.567
   -4.147
   -3.480
   -0.115
    4.295
    7.351
    7.629
    5.424
    2.285
   -0.173
   -1.340
   -1.651
   -1.630
   -1.175
   -0.009
    1.520
    2.694
    3.462
    4.612
    6.559
    8.314
    8.208
    5.700
    2.265
    0.301
    1.095
    3.723
    5.864
    5.786
    3.731
    1.473
    0.576
    1.084
    1.797
    1.529
   -0.025
   -2.362
   -4.638
   -6.071
   -6.277
   -5.459
   -4.145
   -2.666
   -1.090
    0.285
    0.690
   -0.526
   -3.046
   -5.504
   -6.395
   -5.215
   -2.879
   -1.005
   -0.534
   -0.957
   -1.038
   -0.224
    0.966
    1.968
    2.987
    4.411
    5.807
    6.130
    5.037
    3.556
    3.154
    4.205
    5.584
    5.886
    4.871
    3.440
    2.301
    1.212
   -0.251
   -1.774
   -2.739
   -3.219
   -3.817
   -4.639
   -5.195
   -5.436
   -6.123
   -7.718
   -9.449
  -10.040
   -9.176
   -7.730
   -6.587
   -5.700
   -4.504
   -2.915
   -1.533
   -0.804
   -0.271
    1.022
    3.320
    5.609
    6.580
    6.006
    4.895
    4.290
    4.352
    4.753
    5.431
    6.413
    7.130
    6.615
    4.572
    1.842
   -0.442
   -1.886
   -2.765
   -3.226
   -2.990
   -1.901
   -0.436
    0.556
    0.609
   -0.037
   -0.931
   -2.041
   -3.517
   -4.875
   -4.926
   -2.982
    0.083
    2.379
    2.714
    1.558
    0.313
   -0.132
    0.008
    0.033
   -0.383
   -1.078
   -1.866
   -2.729
   -3.441
   -3.395
   -2.199
   -0.394
    0.768
    0.435
   -1.021
   -2.341
   -2.474
   -1.323
    0.443
    2.119
    3.428
    4.372
    4.907
    4.947
    4.557
    3.927
    3.182
    2.491
    2.259
    2.759
    3.407
    2.970
    0.982
   -1.293
   -1.912
   -0.317
    1.950
    2.719
    1.167
   -1.606
   -3.637
   -3.661
   -1.963
    0.011
    0.921
    0.560
   -0.240
   -0.545
   -0.018
    1.082
    2.192
    2.640
    1.960
    0.351
   -1.296
   -2.138
   -2.138
   -1.915
   -1.941
   -2.150
   -2.279
   -2.274
   -2.242
   -2.309
   -2.753
   -3.946
   -5.728
   -6.928
   -6.056
   -2.811
    1.320
    4.213
    4.801
    3.593
    1.838
    0.598
    0.499
    1.768
    3.989
    5.980
    6.389
    4.815
    2.329
    0.695
    0.869
    2.238
    3.319
    3.068
    1.470
   -0.797
   -2.814
   -3.601
   -2.504
    0.089
    2.618
    3.437
    2.259
    0.363
   -0.711
   -0.551
    0.104
    0.423
    0.254
   -0.144
   -0.748
   -1.866
   -3.584
   -5.358
   -6.333
   -6.126
   -5.200
   -4.405
   -4.197
   -4.418
   -4.778
   -5.268
   -5.922
   -6.390
   -6.094
   -4.826
   -2.896
   -0.621
    2.043
    5.105
    7.932
    9.443
    9.198
    8.122
    7.807
    8.925
   10.488
   10.853
    9.384
    6.994
    5.125
    4.346
    3.991
    3.030
    1.107
   -1.309
   -3.525
   -5.141
   -6.119
   -6.727
   -7.373
   -8.144
   -8.470
   -7.654
   -5.872
   -4.261
   -3.730
   -3.977
   -3.968
   -3.182
   -2.018
   -1.082
   -0.507
   -0.104
    0.119
   -0.075
   -0.671
   -1.135
   -0.808
    0.377
    1.725
    2.398
    2.135
    1.221
   -0.032
   -1.403
   -2.347
   -1.917
    0.450
    4.052
    7.118
    8.109
    6.899
    4.667
    2.745
    1.706
    1.463
    1.762
    2.217
    2.170
    1.193
   -0.126
   -0.461
    0.779
    2.500
    2.886
    1.276
   -1.295
   -3.395
   -4.574
   -5.288
   -5.869
   -6.067
   -5.588
   -4.675
   -3.878
   -3.346
   -2.621
   -1.322
    0.118
    0.689
   -0.083
   -1.515
   -2.469
   -2.473
   -1.852
   -0.964
    0.153
    1.322
    1.967
    1.717
    0.980
    0.473
    0.249
   -0.399
   -1.936
   -3.798
   -4.824
   -4.294
   -2.398
    0.129
    2.541
    4.312
    5.139
    4.966
    4.055
