Origin Time       25/11/2007 23:12:20
Lat.              28.6 N 
Long.             77.0 E 
Depth (Km)         20.3
Magnitude         4.3
 Region           DELHI-HARYANA-BORDER-REGION                                      
 Above details taken from IMD 
   
Station Code       MAC 
Station Lat.       28.603
Station Long.      77.295
Station Height(m)   50.0
Site Class        C   Vs30 between 200 m/sec to 375 m/sec *  
Record Time        1/5/1980  22:04:55.000
Sampling Rate     200. Hz
 Record Duration  125.000 Sec.
 Direction         Vert. (Up positive)
Max. Acceleration  16.587 cm/sec**2
     
  * For reference see Site Classification link of website 
     
 Base Line Corrected and Low Pass Filtered (Cut Off at 35 Hz) Time History
 Acceleration data in cm/sec**2
    
[...]
    0.002
    0.008
    0.009
    0.004
   -0.003
   -0.008
   -0.010
   -0.006
   -0.002
    0.000
   -0.003
   -0.008
   -0.011
   -0.010
   -0.005
   -0.002
   -0.001
   -0.001
    0.001
    0.004
    0.007
    0.007
    0.008
    0.007
    0.003
   -0.004
   -0.009
   -0.009
   -0.004
    0.002
    0.004
    0.002
   -0.002
   -0.008
   -0.013
   -0.016
   -0.013
   -0.006
    0.000
    0.000
   -0.005
   -0.009
   -0.011
   -0.010
   -0.010
   -0.011
   -0.010
   -0.008
   -0.006
   -0.005
   -0.002
    0.002
    0.005
    0.004
   -0.001
   -0.007
   -0.006
    0.000
    0.005
    0.005
    0.001
   -0.005
   -0.011
   -0.016
   -0.018
   -0.013
   -0.006
   -0.001
   -0.001
   -0.004
   -0.006
   -0.006
   -0.003
    0.001
    0.004
    0.005
    0.002
   -0.002
   -0.006
   -0.007
   -0.005
   -0.003
   -0.004
   -0.007
   -0.008
   -0.006
   -0.001
    0.003
    0.005
    0.003
   -0.005
   -0.014
   -0.020
   -0.016
   -0.003
    0.012
    0.021
    0.019
    0.009
   -0.004
   -0.015
   -0.018
   -0.012
   -0.002
    0.007
    0.008
    0.002
   -0.006
   -0.010
   -0.009
   -0.005
   -0.002
   -0.002
   -0.004
   -0.005
   -0.005
   -0.002
    0.003
    0.006
    0.004
   -0.002
   -0.008
   -0.009
   -0.007
   -0.002
    0.004
    0.009
    0.009
    0.004
   -0.005
   -0.012
   -0.011
   -0.003
    0.007
    0.012
    0.010
    0.003
   -0.006
   -0.012
   -0.013
   -0.007
    0.001
    0.006
    0.004
   -0.003
   -0.010
   -0.013
   -0.013
   -0.008
   -0.003
    0.002
    0.005
    0.005
    0.005
    0.006
    0.006
    0.003
   -0.003
   -0.008
   -0.008
   -0.001
    0.008
    0.016
    0.020
    0.017
    0.008
   -0.004
   -0.014
   -0.015
   -0.009
   -0.002
    0.003
    0.003
    0.003
    0.002
    0.002
    0.001
    0.000
    0.000
   -0.001
   -0.003
   -0.008
   -0.012
   -0.013
   -0.010
   -0.007
   -0.006
   -0.006
   -0.006
   -0.005
   -0.005
   -0.001
    0.005
    0.010
    0.010
    0.006
    0.002
    0.003
    0.007
    0.011
    0.013
    0.013
    0.010
    0.005
   -0.003
   -0.008
   -0.007
    0.000
    0.007
    0.011
    0.010
    0.005
   -0.003
   -0.011
   -0.013
   -0.010
   -0.005
   -0.003
   -0.006
   -0.008
   -0.006
    0.000
    0.004
    0.004
    0.002
    0.004
    0.008
    0.012
    0.014
    0.013
    0.009
    0.004
   -0.002
   -0.006
   -0.008
   -0.007
   -0.007
   -0.010
   -0.012
   -0.006
    0.004
    0.011
    0.008
   -0.003
   -0.012
   -0.014
   -0.011
   -0.006
   -0.002
   -0.001
   -0.004
   -0.010
   -0.016
   -0.017
   -0.010
    0.003
    0.015
    0.019
    0.012
   -0.002
   -0.016
   -0.023
   -0.020
   -0.007
    0.008
    0.016
    0.015
    0.007
   -0.001
   -0.004
    0.001
    0.008
    0.010
    0.006
   -0.002
   -0.006
   -0.005
    0.000
    0.003
    0.003
   -0.001
   -0.005
   -0.007
   -0.006
   -0.002
    0.006
    0.014
    0.015
    0.006
   -0.006
   -0.010
   -0.005
    0.004
    0.009
    0.009
    0.007
    0.004
   -0.001
   -0.007
   -0.011
   -0.008
    0.000
    0.007
    0.007
    0.003
    0.000
   -0.002
   -0.005
   -0.008
   -0.011
   -0.010
   -0.007
   -0.006
   -0.008
   -0.010
   -0.006
    0.001
    0.007
    0.007
    0.002
   -0.005
   -0.008
   -0.006
   -0.002
    0.000
   -0.004
   -0.013
   -0.021
   -0.023
   -0.017
   -0.006
    0.004
    0.010
    0.010
    0.003
   -0.007
   -0.015
   -0.015
   -0.008
    0.002
    0.008
    0.007
    0.003
   -0.001
   -0.004
   -0.003
    0.001
    0.008
    0.011
    0.009
    0.000
   -0.009
   -0.011
   -0.005
    0.003
    0.006
    0.005
    0.002
    0.001
    0.002
    0.005
    0.009
    0.013
    0.012
    0.007
   -0.001
   -0.008
   -0.010
   -0.006
    0.001
    0.006
    0.006
    0.000
   -0.007
   -0.011
   -0.007
    0.000
    0.007
    0.009
    0.007
    0.001
   -0.006
   -0.011
   -0.011
   -0.006
    0.001
    0.003
   -0.001
   -0.006
   -0.008
   -0.008
   -0.010
   -0.014
   -0.016
   -0.013
   -0.006
    0.000
    0.001
    0.000
   -0.002
   -0.003
   -0.005
   -0.011
   -0.017
   -0.019
   -0.016
   -0.008
    0.001
    0.007
    0.008
    0.003
   -0.003
   -0.006
   -0.003
    0.003
    0.007
    0.006
   -0.002
   -0.011
   -0.015
   -0.012
   -0.003
    0.010
    0.017
    0.017
    0.010
    0.001
   -0.003
   -0.004
   -0.002
   -0.002
   -0.001
   -0.001
    0.000
    0.001
    0.004
    0.008
    0.012
    0.012
    0.006
   -0.001
   -0.004
   -0.003
    0.000
    0.002
    0.003
    0.004
    0.002
   -0.002
   -0.009
   -0.015
   -0.015
   -0.009
   -0.001
    0.006
    0.011
    0.012
    0.009
    0.003
   -0.002
   -0.003
   -0.002
    0.002
    0.009
    0.018
    0.028
    0.037
    0.049
    0.066
    0.091
    0.126
    0.170
    0.223
    0.283
    0.341
    0.382
    0.394
    0.377
    0.353
    0.350
    0.380
    0.407
    0.355
    0.152
   -0.198
   -0.573
   -0.785
   -0.730
   -0.500
   -0.341
   -0.447
   -0.761
   -1.000
   -0.891
   -0.418
    0.150
    0.492
    0.495
    0.327
    0.248
    0.348
    0.455
    0.343
    0.024
   -0.206
   -0.095
    0.209
    0.239
   -0.269
   -0.980
   -1.231
   -0.726
    0.108
    0.548
    0.309
   -0.222
   -0.465
   -0.236
    0.182
    0.414
    0.323
    0.016
   -0.300
   -0.457
   -0.428
   -0.333
   -0.290
   -0.255
   -0.071
    0.292
    0.608
    0.551
    0.046
   -0.529
   -0.598
    0.041
    0.904
    1.208
    0.648
   -0.274
   -0.737
   -0.409
    0.265
    0.577
    0.326
   -0.011
    0.080
    0.490
    0.643
    0.261
   -0.303
   -0.549
   -0.404
   -0.140
    0.093
    0.412
    0.863
    1.163
    0.920
    0.111
   -0.765
   -1.096
   -0.712
    0.016
    0.582
    0.725
    0.453
   -0.110
   -0.769
   -1.255
   -1.339
   -1.018
   -0.528
   -0.125
    0.127
    0.316
    0.453
    0.395
    0.076
   -0.237
   -0.100
    0.583
    1.325
    1.501
    1.003
    0.343
    0.087
    0.324
    0.699
    0.852
    0.675
    0.189
   -0.616
   -1.654
   -2.523
   -2.690
   -2.041
   -1.088
   -0.461
   -0.277
   -0.179
    0.089
    0.370
    0.445
    0.488
    0.967
    1.985
    2.867
    2.663
    1.197
   -0.558
   -1.365
   -0.943
   -0.141
    0.087
   -0.298
   -0.557
   -0.222
    0.246
   -0.003
   -1.083
   -2.025
   -1.759
   -0.354
    0.952
    1.064
    0.192
   -0.488
   -0.214
    0.608
    1.050
    0.729
    0.035
   -0.477
   -0.618
   -0.506
   -0.242
    0.152
    0.540
    0.620
    0.207
   -0.460
   -0.831
   -0.539
    0.257
    1.062
    1.483
    1.422
    0.931
    0.116
   -0.768
   -1.307
   -1.223
   -0.720
   -0.359
   -0.439
   -0.578
   -0.137
    0.888
    1.642
    1.290
    0.013
   -1.155
   -1.485
   -1.192
   -0.776
   -0.125
    1.155
    2.604
    2.820
    1.029
   -1.542
   -2.559
   -1.061
    1.347
    2.191
    0.791
   -1.253
   -2.128
   -1.709
   -1.086
   -0.816
   -0.425
    0.360
    0.755
   -0.094
   -1.577
   -1.922
   -0.258
    2.181
    3.407
    2.871
    1.727
    1.031
    0.457
   -0.748
   -2.075
   -1.970
   -0.007
    1.976
    1.733
   -0.646
   -2.726
   -2.615
   -1.094
   -0.305
   -0.871
   -1.254
   -0.076
    1.815
    2.309
    0.751
   -1.170
   -1.522
   -0.419
    0.410
    0.012
   -0.734
   -0.588
    0.332
    0.936
    0.821
    0.701
    1.092
    1.342
    0.569
   -0.778
   -1.128
    0.204
    1.875
    2.013
    0.539
   -0.763
   -0.576
    0.296
    0.158
   -1.147
   -1.957
   -1.110
    0.319
    0.374
   -1.134
   -2.314
   -1.656
    0.111
    1.153
    0.945
    0.669
    1.264
    1.997
    1.576
    0.217
   -0.321
    1.052
    3.182
    3.832
    2.199
   -0.282
   -1.701
   -1.676
   -1.230
   -1.161
   -1.234
   -1.020
   -0.842
   -1.418
   -2.730
   -3.663
   -3.008
   -0.761
    1.740
    2.987
    2.503
    0.985
   -0.421
   -0.851
   -0.116
    1.171
    1.881
    1.227
   -0.398
   -1.642
   -1.507
   -0.351
    0.594
    0.618
    0.145
   -0.058
    0.039
   -0.138
   -0.641
   -0.560
    0.797
    2.543
    2.724
    0.461
   -2.833
   -4.786
   -4.377
   -2.484
   -0.396
    1.439
    2.929
    3.345
    1.736
   -1.557
   -4.364
   -4.247
   -0.805
    3.709
    6.224
    5.348
    2.154
   -1.162
   -3.101
   -3.436
   -2.554
   -0.838
    1.144
    2.387
    2.012
    0.222
   -1.632
   -2.163
   -1.121
    0.520
    1.569
    1.581
    0.820
   -0.410
   -1.919
   -3.096
   -2.860
   -0.700
    2.382
    4.439
    4.259
    2.343
    0.266
   -0.692
   -0.302
    0.803
    1.684
    1.544
    0.125
   -1.958
   -3.397
   -3.161
   -1.520
    0.090
    0.459
   -0.271
   -1.029
   -1.117
   -0.697
   -0.124
    0.638
    1.640
    2.308
    1.716
   -0.288
   -2.432
   -2.854
   -0.832
    2.335
    4.324
    3.761
    1.286
   -1.203
   -2.172
   -1.404
    0.229
    1.528
    1.617
    0.315
   -1.792
   -3.723
   -4.691
   -4.391
   -2.859
   -0.421
    2.002
    2.919
    1.313
   -1.994
   -4.358
   -3.344
    0.914
    5.516
    7.311
    5.619
    2.347
   -0.285
   -1.587
   -1.982
   -1.566
    0.115
    2.794
    4.641
    3.513
   -0.666
   -5.184
   -6.767
   -4.599
   -0.849
    1.705
    2.116
    1.288
    0.230
   -0.911
   -2.094
   -2.503
   -1.219
    1.278
    3.026
    2.509
    0.366
   -1.300
   -1.232
   -0.097
    0.783
    1.121
    1.602
    2.405
    2.548
    1.048
   -1.567
   -3.411
   -3.074
   -1.077
    0.708
    0.979
    0.131
   -0.501
   -0.184
    0.619
    1.000
    0.649
    0.106
    0.105
    0.715
    1.156
    0.603
   -0.797
   -1.878
   -1.617
   -0.292
    0.661
    0.085
   -1.601
   -2.725
   -2.154
   -0.605
    0.176
   -0.469
   -1.286
   -0.645
    1.439
    3.237
    3.188
    1.527
   -0.069
   -0.299
    0.460
    0.751
   -0.129
   -1.223
   -1.102
    0.273
    1.404
    1.040
   -0.314
   -0.963
    0.035
    1.769
    2.447
    1.364
   -0.425
   -1.435
   -1.364
   -1.055
   -1.126
   -1.215
   -0.738
    0.106
    0.544
    0.305
   -0.041
    0.029
    0.212
   -0.117
   -0.918
   -1.483
   -1.429
   -1.147
   -1.004
   -0.534
    0.979
    3.163
    4.442
    3.662
    1.520
   -0.096
   -0.192
    0.313
   -0.102
   -1.529
   -2.512
   -2.045
   -1.001
   -0.958
   -1.960
   -2.317
   -0.816
    1.546
    2.536
    1.162
   -1.305
   -2.767
   -2.359
   -0.874
    0.557
    1.633
    2.525
    2.905
    2.051
    0.002
   -1.955
   -2.350
   -0.897
    1.410
    3.343
    4.200
    3.658
    1.550
   -1.717
   -4.739
   -5.731
   -3.979
   -0.635
    2.161
    3.033
    2.208
    0.685
   -0.948
   -2.513
   -3.347
   -2.229
    1.291
    5.648
    7.843
    5.790
    0.316
   -5.185
   -7.254
   -4.877
    0.009
    4.159
    5.299
    3.304
   -0.361
   -3.911
   -5.957
   -5.646
   -2.948
    0.989
    4.233
    5.164
    3.404
    0.013
   -3.018
   -3.874
   -2.240
    0.340
    1.882
    1.885
    1.467
    1.565
    1.649
    0.718
   -0.955
   -1.847
   -1.035
    0.596
    1.395
    0.876
    0.069
   -0.085
   -0.059
   -0.991
   -2.890
   -4.224
   -3.454
   -0.683
    2.361
    3.811
    3.058
    0.971
   -0.990
   -1.833
   -1.497
   -0.538
    0.460
    1.223
    1.644
    1.431
    0.149
   -2.067
   -3.900
   -3.565
   -0.618
    3.183
    5.316
    4.780
    2.669
    0.665
   -0.524
   -1.121
   -1.200
   -0.320
    1.565
    3.189
    2.603
   -0.902
   -5.659
   -8.731
   -8.295
   -4.871
   -0.367
    3.545
    5.895
    5.944
    3.416
   -0.414
   -2.730
   -1.410
    2.569
    5.678
    5.220
    1.799
   -1.938
   -4.365
   -5.737
   -6.272
   -4.866
   -0.753
    4.153
    6.017
    2.870
   -2.865
   -6.394
   -5.119
   -0.675
    3.476
    5.507
    5.704
    4.375
    1.018
   -3.832
   -7.169
   -5.713
    0.138
    5.760
    6.617
    2.661
   -2.167
   -4.342
   -3.691
   -2.096
   -0.552
    1.489
    4.141
    5.726
    4.281
    0.167
   -3.701
   -4.548
   -2.230
    1.150
    3.499
    3.994
    2.530
   -0.860
   -5.295
   -8.364
   -7.435
   -2.246
    4.263
    8.263
    8.094
    4.877
    0.708
   -2.888
   -4.884
   -4.407
   -1.522
    1.972
    3.543
    2.124
   -1.023
   -3.756
   -4.907
   -4.523
   -2.912
   -0.354
    2.247
    3.344
    2.169
   -0.029
   -0.925
    0.372
    2.178
    2.119
   -0.020
   -1.969
   -1.699
    0.165
    1.241
    0.346
   -1.259
   -1.684
   -0.769
   -0.206
   -1.528
   -4.376
   -6.772
   -6.869
   -4.343
   -0.387
    3.248
    5.116
    4.631
    2.488
    0.513
    0.401
    2.214
    4.386
    5.417
    5.179
    4.275
    2.595
   -0.609
   -4.984
   -8.235
   -7.926
   -4.180
    0.015
    1.547
    0.011
   -2.307
   -2.921
   -1.221
    1.733
    4.606
    6.466
    6.673
    5.162
    3.042
    2.146
    3.442
    6.035
    8.002
    8.088
    6.365
    3.507
   -0.064
   -4.126
   -8.099
  -10.855
  -11.172
   -8.535
   -3.819
    0.798
    2.986
    1.803
   -1.602
   -4.728
   -5.291
   -2.459
    2.936
    8.846
   12.607
   11.884
    6.176
   -2.106
   -8.541
   -9.669
   -5.693
   -0.116
    3.541
    4.370
    3.328
    0.944
   -2.811
   -6.642
   -7.744
   -4.668
    0.334
    3.001
    1.263
   -2.813
   -5.354
   -4.447
   -1.239
    2.218
    5.231
    8.110
   10.201
    9.560
    5.178
   -1.045
   -5.433
   -5.771
   -2.987
    0.307
    2.277
    2.663
    1.851
   -0.016
   -2.821
   -5.745
   -7.304
   -6.445
   -3.532
   -0.064
    2.454
    3.178
    1.831
   -1.341
   -5.354
   -8.625
   -9.663
   -7.740
   -3.231
    2.328
    6.595
    7.505
    4.684
    0.088
   -2.951
   -1.814
    3.619
   10.817
   16.088
   16.587
   11.576
    2.611
   -7.030
  -13.572
  -14.509
  -10.162
   -3.732
    0.673
    0.760
   -2.642
   -6.661
   -8.576
   -7.135
   -2.516
    4.046
   10.302
   13.238
   10.302
    1.501
   -9.229
  -15.517
  -12.933
   -2.705
    9.041
   15.890
   15.229
    8.794
    0.517
   -5.864
   -8.114
   -5.824
   -0.334
    5.529
    8.348
    6.093
    0.053
   -5.566
   -6.898
   -3.643
    1.157
    4.387
    5.379
    5.186
    4.282
    1.939
   -2.116
   -6.197
   -7.519
   -4.706
    0.584
    4.502
    3.744
   -1.774
   -8.355
  -10.970
   -7.210
    0.670
    7.747
   10.547
    9.159
    5.710
    1.678
   -2.724
   -6.985
   -9.228
   -7.466
   -2.002
    3.886
    6.245
    3.862
   -0.664
   -3.445
   -2.720
    0.444
    4.136
    7.108
    8.185
    5.678
   -1.092
   -9.664
  -15.168
  -14.247
   -8.274
   -2.061
    0.757
    0.594
    0.030
    0.140
    0.007
   -0.350
    1.432
    7.007
   13.565
   15.244
    9.367
    0.314
   -4.370
   -1.871
    3.037
    3.571
   -1.651
   -7.926
  -10.521
   -9.520
   -8.037
   -7.251
   -5.203
   -0.377
    5.397
    8.724
    8.391
    5.976
    3.105
   -0.231
   -3.890
   -5.629
   -3.028
    2.443
    5.251
    1.354
   -6.634
  -11.476
   -8.808
   -1.498
    4.073
    4.916
    3.303
    2.321
    1.798
   -0.117
   -2.758
   -2.738
    1.551
    6.966
    8.563
    5.084
    0.367
   -0.832
    2.284
    6.134
    6.685
    3.235
   -1.524
   -4.433
   -4.392
   -2.409
   -0.157
    1.056
    0.485
   -1.835
   -4.713
   -6.162
   -4.821
   -1.195
    2.743
    5.284
    6.206
    6.258
    5.790
    4.438
    2.199
    0.194
   -0.139
    1.540
    4.129
    5.924
    5.641
    3.056
   -0.834
   -4.401
   -6.425
   -6.576
   -5.084
   -2.587
   -0.443
   -0.393
   -3.065
   -6.810
   -8.561
   -6.330
   -1.150
    3.557
    5.032
    3.853
    3.154
    4.827
    7.032
    6.241
    1.563
   -3.754
   -5.375
   -2.049
    3.378
    6.680
    5.646
    1.165
   -4.252
   -8.391
   -9.996
   -8.444
   -3.863
    1.969
    5.539
    3.825
   -2.473
   -8.471
   -9.129
   -4.095
    2.073
    4.679
    3.181
    0.541
   -0.650
   -0.455
   -0.389
   -1.027
   -1.552
   -1.513
   -2.004
   -4.029
   -6.006
   -4.546
    1.347
    7.977
   10.308
    7.337
    2.855
    0.763
    0.902
    0.327
   -2.193
   -4.453
   -3.842
   -0.921
    1.155
    0.561
   -1.030
   -0.850
    1.136
    2.103
    0.290
   -2.217
   -1.841
    1.782
    4.901
    4.019
    0.115
   -2.621
   -1.897
    0.181
    0.185
   -2.247
   -4.254
   -3.566
   -1.091
    0.713
    1.064
    1.368
    2.581
    3.180
    0.765
   -4.378
   -8.392
   -7.344
   -1.350
    5.470
    8.995
    8.297
    4.971
    0.736
   -3.206
   -5.353
   -4.319
   -0.603
    3.110
    4.287
    2.946
    1.226
    0.705
    0.814
    0.210
   -0.898
   -0.887
    0.689
    1.909
    0.963
   -0.983
   -0.981
    1.696
    4.331
    4.217
    2.081
    0.875
    1.831
    3.176
    2.871
    1.375
    0.818
    1.937
    2.908
    1.555
   -1.922
   -5.123
   -6.101
   -5.032
   -3.169
   -1.165
    0.721
    1.464
   -0.132
   -3.293
   -4.999
   -3.038
    1.059
    3.355
    1.965
   -0.848
   -1.669
   -0.213
    0.556
   -1.440
   -4.380
   -4.577
   -1.099
    2.781
    3.174
   -0.080
   -3.502
   -4.117
   -2.325
   -0.281
    1.280
    3.097
    4.775
    4.152
    0.207
   -4.594
   -6.324
   -3.833
    0.028
    1.664
    0.413
   -1.596
   -2.637
   -3.139
   -3.955
   -4.181
   -2.051
    2.298
    6.317
    7.648
    6.298
    3.753
    0.901
   -2.071
   -4.113
   -3.275
    0.843
    5.348
    6.214
    2.596
   -1.947
   -3.309
   -1.408
    0.187
   -0.958
   -3.164
   -3.237
   -0.965
    0.523
   -1.110
   -4.335
   -5.569
   -3.325
    0.378
    2.572
    2.438
    1.532
    1.460
    2.110
    2.373
    1.945
    1.673
    2.109
    2.520
    1.853
    0.295
   -0.816
   -0.605
    0.481
    1.609
    2.763
    4.446
    6.394
    7.165
    5.299
    0.849
   -4.187
   -6.916
   -5.391
   -0.149
    5.747
    8.606
    6.739
    1.516
   -4.117
   -7.920
   -8.999
   -6.860
   -1.286
    6.068
   10.950
    9.289
    1.551
   -6.510
   -8.687
   -4.149
    1.989
    4.000
    0.877
   -3.788
   -6.330
   -6.270
   -5.154
   -3.722
   -1.568
    0.916
    2.016
    0.906
   -0.740
   -0.613
    1.205
    2.416
    1.840
    1.159
    2.384
    4.456
    3.958
   -0.433
   -5.523
   -6.823
   -3.805
   -0.575
   -0.928
   -3.888
   -5.291
   -3.323
   -0.821
   -1.307
   -3.928
   -4.143
    0.403
    6.339
    8.185
    4.746
    0.254
   -0.956
    0.734
    1.820
    0.931
    0.454
    2.643
    5.886
    6.389
    3.072
   -0.805
   -1.459
    1.039
    3.218
    2.465
   -0.451
   -3.150
   -4.524
   -4.986
   -4.674
   -2.854
    0.583
    3.907
    4.717
    2.293
   -1.740
   -5.080
   -6.504
   -5.950
   -3.837
   -1.011
    1.234
    2.005
    1.664
    1.260
    1.145
    0.705
   -0.450
   -1.575
   -1.514
   -0.137
    1.347
    1.632
    0.648
   -0.538
   -1.022
   -0.858
   -0.495
    0.068
    1.050
    2.055
    2.199
    1.335
    0.522
    0.782
    1.675
    1.738
    0.284
   -1.739
   -2.862
   -2.638
   -1.660
   -0.253
    2.028
    5.107
    7.219
    6.253
    2.574
   -0.557
   -0.223
    2.902
    5.357
    4.763
    1.991
   -0.641
   -2.299
   -3.845
   -5.587
   -6.178
   -4.416
   -1.441
   -0.012
   -1.399
   -3.750
   -4.156
   -1.987
    0.639
    1.715
    1.644
    2.064
    3.167
    3.478
    2.315
    1.110
    1.473
    2.704
    2.433
   -0.329
   -3.753
   -5.241
   -4.278
   -2.610
   -1.848
   -1.770
   -1.344
   -0.707
   -1.088
   -2.686
   -3.612
   -1.797
    2.261
    5.583
    5.896
    4.133
    3.089
    3.959
    5.175
    4.815
    3.104
    1.690
    1.072
