Origin Time       25/11/2007 23:12:20
Lat.              28.6 N 
Long.             77.0 E 
Depth (Km)         20.3
Magnitude         4.3
 Region           DELHI-HARYANA-BORDER-REGION                                      
 Above details taken from IMD 
     
Station Code       MAC 
Station Lat.       28.603  N
Station Long.      77.295  E
Station Height(m)   50.0
Site Class        C   Vs30 between 200 m/sec to 375 m/sec *  
Record Time        1/5/1980  22:04:55.000
Sampling Rate     200. Hz
 Record Duration  125.000 Sec.
 Direction         E-W (E positive)
Max. Acceleration  15.310 cm/sec**2
     
  * For reference see Site Classification link of website 
     
 Base Line Corrected and Low Pass Filtered (Cut Off at 35 Hz) Time History
 Acceleration data in cm/sec**2
    
[...]
    0.008
    0.007
    0.004
    0.000
   -0.003
   -0.003
   -0.002
   -0.002
   -0.003
   -0.005
   -0.006
   -0.006
   -0.007
   -0.010
   -0.014
   -0.017
   -0.019
   -0.018
   -0.014
   -0.008
   -0.002
   -0.001
   -0.004
   -0.009
   -0.011
   -0.009
   -0.005
   -0.001
    0.001
   -0.001
   -0.005
   -0.010
   -0.013
   -0.011
   -0.007
   -0.004
   -0.006
   -0.010
   -0.011
   -0.009
   -0.003
    0.004
    0.007
    0.006
    0.001
   -0.002
   -0.001
    0.005
    0.013
    0.017
    0.013
    0.003
   -0.007
   -0.012
   -0.009
   -0.002
    0.005
    0.008
    0.006
    0.001
   -0.002
   -0.001
    0.004
    0.009
    0.010
    0.006
    0.000
   -0.005
   -0.008
   -0.007
   -0.004
   -0.002
   -0.003
   -0.007
   -0.012
   -0.015
   -0.012
   -0.005
    0.002
    0.004
    0.001
   -0.005
   -0.010
   -0.011
   -0.007
    0.001
    0.007
    0.008
    0.003
   -0.006
   -0.011
   -0.012
   -0.008
   -0.004
   -0.003
   -0.006
   -0.010
   -0.013
   -0.012
   -0.006
    0.000
    0.004
    0.004
    0.001
   -0.004
   -0.008
   -0.010
   -0.008
   -0.003
    0.001
    0.000
   -0.006
   -0.013
   -0.015
   -0.010
   -0.001
    0.005
    0.006
    0.001
   -0.006
   -0.010
   -0.007
    0.000
    0.007
    0.010
    0.008
    0.004
    0.000
    0.000
    0.002
    0.004
    0.006
    0.004
    0.001
   -0.004
   -0.007
   -0.006
   -0.004
   -0.003
   -0.005
   -0.009
   -0.012
   -0.013
   -0.013
   -0.011
   -0.008
   -0.005
   -0.004
   -0.007
   -0.011
   -0.013
   -0.009
   -0.001
    0.004
    0.005
    0.002
   -0.003
   -0.005
   -0.005
   -0.002
    0.001
    0.003
    0.004
    0.003
    0.003
    0.003
    0.003
    0.001
    0.000
    0.001
    0.003
    0.005
    0.005
    0.001
   -0.002
   -0.002
   -0.001
    0.000
    0.000
   -0.001
   -0.001
   -0.001
    0.000
    0.001
    0.000
   -0.001
   -0.003
   -0.005
   -0.005
   -0.004
   -0.003
   -0.002
   -0.002
   -0.002
   -0.002
   -0.002
   -0.003
   -0.004
   -0.005
   -0.005
   -0.004
   -0.003
   -0.001
   -0.001
   -0.004
   -0.008
   -0.011
   -0.010
   -0.007
   -0.007
   -0.009
   -0.013
   -0.014
   -0.011
   -0.006
   -0.002
    0.002
    0.002
    0.000
   -0.005
   -0.010
   -0.011
   -0.007
    0.001
    0.006
    0.006
    0.002
   -0.004
   -0.007
   -0.006
   -0.002
    0.003
    0.005
    0.003
   -0.003
   -0.009
   -0.010
   -0.003
    0.007
    0.017
    0.021
    0.019
    0.014
    0.011
    0.010
    0.010
    0.008
    0.004
   -0.001
   -0.004
   -0.005
   -0.004
   -0.002
    0.002
    0.005
    0.006
    0.004
   -0.001
   -0.006
   -0.008
   -0.008
   -0.005
   -0.003
   -0.003
   -0.006
   -0.011
   -0.016
   -0.014
   -0.007
    0.001
    0.004
    0.000
   -0.008
   -0.014
   -0.018
   -0.020
   -0.020
   -0.017
   -0.011
   -0.006
   -0.004
   -0.005
   -0.006
   -0.003
    0.002
    0.006
    0.006
    0.003
    0.002
    0.003
    0.007
    0.011
    0.014
    0.013
    0.010
    0.007
    0.005
    0.006
    0.009
    0.010
    0.008
    0.004
   -0.001
   -0.004
   -0.003
    0.002
    0.009
    0.012
    0.011
    0.005
   -0.002
   -0.008
   -0.010
   -0.008
   -0.003
    0.001
    0.003
    0.001
   -0.004
   -0.006
   -0.002
    0.004
    0.008
    0.006
   -0.001
   -0.007
   -0.010
   -0.010
   -0.006
   -0.002
    0.002
    0.002
   -0.002
   -0.007
   -0.010
   -0.009
   -0.005
    0.000
    0.001
   -0.002
   -0.007
   -0.012
   -0.014
   -0.011
   -0.004
    0.003
    0.007
    0.007
    0.005
    0.002
    0.000
   -0.001
   -0.001
   -0.001
    0.000
    0.000
    0.000
    0.001
    0.002
    0.003
    0.004
    0.006
    0.009
    0.008
    0.006
    0.002
    0.002
    0.003
    0.004
    0.001
   -0.003
   -0.006
   -0.004
    0.001
    0.005
    0.007
    0.005
    0.003
    0.001
   -0.001
   -0.002
   -0.002
   -0.001
    0.001
    0.001
   -0.001
   -0.005
   -0.009
   -0.010
   -0.009
   -0.006
   -0.004
   -0.005
   -0.006
   -0.007
   -0.005
   -0.002
    0.001
    0.002
    0.000
   -0.003
   -0.006
   -0.008
   -0.005
    0.000
    0.005
    0.006
    0.002
   -0.004
   -0.009
   -0.010
   -0.007
   -0.003
    0.002
    0.004
    0.002
   -0.004
   -0.008
   -0.009
   -0.004
    0.002
    0.006
    0.008
    0.006
    0.002
   -0.002
   -0.005
   -0.006
   -0.004
    0.001
    0.005
    0.007
    0.006
    0.003
    0.001
   -0.001
    0.000
    0.002
    0.005
    0.006
    0.006
    0.005
    0.002
    0.000
   -0.003
   -0.006
   -0.006
   -0.006
   -0.006
   -0.006
   -0.004
    0.002
    0.009
    0.013
    0.009
    0.002
    0.000
    0.015
    0.048
    0.083
    0.090
    0.048
   -0.028
   -0.082
   -0.056
    0.047
    0.144
    0.131
   -0.021
   -0.215
   -0.295
   -0.179
    0.053
    0.215
    0.165
   -0.070
   -0.300
   -0.325
   -0.112
    0.172
    0.301
    0.200
    0.005
   -0.093
   -0.042
    0.048
    0.065
    0.029
    0.036
    0.101
    0.118
   -0.001
   -0.192
   -0.295
   -0.221
   -0.035
    0.117
    0.140
    0.035
   -0.120
   -0.214
   -0.166
    0.007
    0.180
    0.219
    0.101
   -0.061
   -0.131
   -0.078
   -0.002
   -0.010
   -0.092
   -0.144
   -0.103
   -0.041
   -0.081
   -0.226
   -0.327
   -0.241
   -0.017
    0.130
    0.060
   -0.115
   -0.159
    0.012
    0.225
    0.274
    0.167
    0.082
    0.122
    0.202
    0.197
    0.120
    0.082
    0.117
    0.129
    0.034
   -0.105
   -0.144
   -0.028
    0.138
    0.213
    0.161
    0.056
   -0.010
    0.003
    0.102
    0.272
    0.445
    0.498
    0.343
    0.053
   -0.163
   -0.139
    0.075
    0.258
    0.238
    0.062
   -0.080
   -0.070
    0.041
    0.131
    0.157
    0.154
    0.143
    0.108
    0.067
    0.094
    0.219
    0.318
    0.212
   -0.105
   -0.395
   -0.412
   -0.187
   -0.009
   -0.102
   -0.407
   -0.686
   -0.790
   -0.751
   -0.634
   -0.408
   -0.039
    0.314
    0.327
   -0.143
   -0.780
   -0.981
   -0.414
    0.590
    1.261
    1.067
    0.172
   -0.751
   -1.125
   -0.902
   -0.460
   -0.174
   -0.140
   -0.246
   -0.395
   -0.547
   -0.588
   -0.335
    0.214
    0.729
    0.806
    0.405
   -0.052
   -0.089
    0.375
    0.981
    1.289
    1.126
    0.652
    0.178
   -0.046
    0.040
    0.291
    0.452
    0.323
   -0.079
   -0.507
   -0.654
   -0.411
    0.021
    0.281
    0.167
   -0.196
   -0.484
   -0.482
   -0.208
    0.193
    0.601
    0.896
    0.882
    0.430
   -0.260
   -0.664
   -0.412
    0.248
    0.630
    0.339
   -0.307
   -0.691
   -0.618
   -0.420
   -0.372
   -0.280
    0.145
    0.667
    0.628
   -0.227
   -1.253
   -1.481
   -0.647
    0.538
    1.162
    0.964
    0.345
   -0.273
   -0.783
   -1.113
   -0.986
   -0.278
    0.532
    0.644
   -0.166
   -1.156
   -1.324
   -0.483
    0.577
    1.019
    0.809
    0.493
    0.344
    0.124
   -0.295
   -0.470
    0.081
    1.049
    1.436
    0.688
   -0.562
   -1.125
   -0.589
    0.277
    0.472
   -0.114
   -0.737
   -0.762
   -0.279
    0.250
    0.615
    0.873
    0.941
    0.569
   -0.164
   -0.637
   -0.283
    0.649
    1.225
    0.840
   -0.078
   -0.592
   -0.356
    0.080
    0.086
   -0.250
   -0.371
   -0.125
    0.031
   -0.228
   -0.508
   -0.203
    0.552
    0.899
    0.333
   -0.579
   -0.836
   -0.217
    0.495
    0.520
   -0.027
   -0.445
   -0.399
   -0.215
   -0.242
   -0.308
   -0.050
    0.417
    0.495
   -0.133
   -0.975
   -1.193
   -0.532
    0.417
    0.865
    0.587
   -0.028
   -0.505
   -0.679
   -0.614
   -0.363
    0.033
    0.384
    0.404
   -0.014
   -0.633
   -1.032
   -0.921
   -0.290
    0.632
    1.443
    1.668
    1.030
   -0.183
   -1.130
   -1.042
    0.039
    1.193
    1.434
    0.622
   -0.476
   -0.986
   -0.686
    0.013
    0.629
    0.927
    0.777
    0.055
   -1.061
   -1.844
   -1.478
    0.072
    1.810
    2.525
    1.865
    0.533
   -0.487
   -0.745
   -0.412
    0.176
    0.813
    1.297
    1.290
    0.534
   -0.783
   -1.983
   -2.352
   -1.705
   -0.538
    0.376
    0.564
    0.064
   -0.785
   -1.612
   -2.078
   -1.862
   -0.845
    0.631
    1.820
    2.075
    1.389
    0.385
   -0.247
   -0.280
    0.075
    0.528
    0.899
    1.018
    0.696
   -0.060
   -0.865
   -1.183
   -0.795
   -0.032
    0.502
    0.410
   -0.261
   -1.134
   -1.704
   -1.541
   -0.536
    0.862
    1.772
    1.528
    0.314
   -0.915
   -1.247
   -0.559
    0.497
    1.153
    1.094
    0.514
   -0.176
   -0.568
   -0.352
    0.553
    1.805
    2.667
    2.437
    1.035
   -0.795
   -1.951
   -1.759
   -0.436
    1.103
    1.874
    1.395
   -0.084
   -1.743
   -2.650
   -2.338
   -1.125
    0.111
    0.596
    0.150
   -0.836
   -1.789
   -2.217
   -1.760
   -0.322
    1.616
    2.945
    2.624
    0.677
   -1.577
   -2.501
   -1.482
    0.647
    2.419
    2.878
    2.004
    0.330
   -1.539
   -2.971
   -3.263
   -2.012
    0.279
    2.223
    2.529
    1.094
   -0.904
   -2.041
   -1.742
   -0.452
    1.025
    2.112
    2.473
    1.855
    0.321
   -1.394
   -2.142
   -1.311
    0.492
    1.892
    1.950
    0.884
   -0.358
   -1.029
   -1.027
   -0.612
   -0.022
    0.565
    0.875
    0.623
   -0.171
   -1.017
   -1.272
   -0.685
    0.345
    1.066
    0.957
    0.135
   -0.739
   -0.960
   -0.338
    0.660
    1.302
    1.204
    0.605
    0.082
    0.011
    0.322
    0.723
    1.040
    1.230
    1.143
    0.527
   -0.595
   -1.652
   -1.901
   -1.166
   -0.135
    0.227
   -0.426
   -1.501
   -2.030
   -1.553
   -0.480
    0.373
    0.540
    0.200
   -0.188
   -0.379
   -0.413
   -0.321
    0.043
    0.731
    1.349
    1.252
    0.239
   -1.024
   -1.507
   -0.801
    0.469
    1.281
    1.161
    0.445
   -0.246
   -0.566
   -0.479
   -0.053
    0.542
    0.918
    0.657
   -0.232
   -1.176
   -1.512
   -1.097
   -0.335
    0.354
    0.888
    1.272
    1.253
    0.546
   -0.592
   -1.310
   -0.942
    0.206
    1.065
    0.895
    0.037
   -0.546
   -0.356
    0.232
    0.602
    0.659
    0.747
    0.988
    1.028
    0.527
   -0.294
   -0.801
   -0.627
   -0.045
    0.383
    0.398
    0.160
   -0.103
   -0.362
   -0.634
   -0.765
   -0.531
    0.034
    0.555
    0.633
    0.219
   -0.389
   -0.866
   -1.062
   -0.930
   -0.407
    0.457
    1.258
    1.367
    0.487
   -0.935
   -2.008
   -2.160
   -1.540
   -0.711
   -0.079
    0.298
    0.448
    0.255
   -0.364
   -1.122
   -1.367
   -0.594
    1.007
    2.525
    2.914
    1.778
   -0.283
   -2.056
   -2.510
   -1.429
    0.525
    2.243
    2.778
    1.843
   -0.063
   -1.946
   -2.861
   -2.345
   -0.582
    1.616
    3.053
    2.765
    0.809
   -1.541
   -2.675
   -1.926
   -0.010
    1.765
    2.582
    2.420
    1.603
    0.444
   -0.657
   -1.162
   -0.778
    0.130
    0.749
    0.562
   -0.172
   -0.714
   -0.572
    0.079
    0.607
    0.500
   -0.194
   -0.899
   -0.979
   -0.276
    0.727
    1.252
    0.822
   -0.377
   -1.630
   -2.218
   -1.862
   -0.783
    0.532
    1.530
    1.689
    0.737
   -0.985
   -2.473
   -2.649
   -1.253
    0.863
    2.392
    2.591
    1.665
    0.325
   -0.849
   -1.578
   -1.692
   -1.071
    0.094
    1.141
    1.301
    0.342
   -1.178
   -2.383
   -2.745
   -2.245
   -1.068
    0.513
    1.899
    2.165
    0.827
   -1.330
   -2.583
   -1.776
    0.551
    2.739
    3.652
    3.476
    2.920
    2.116
    0.753
   -0.892
   -1.701
   -0.865
    0.973
    2.156
    1.648
   -0.046
   -1.636
   -2.376
   -2.320
   -1.531
    0.220
    2.615
    4.171
    3.265
    0.006
   -3.342
   -4.236
   -2.138
    1.140
    3.221
    3.014
    0.999
   -1.695
   -4.002
   -4.967
   -3.886
   -0.959
    2.299
    3.831
    2.620
   -0.450
   -3.344
   -4.445
   -3.434
   -0.981
    1.923
    4.201
    4.776
    3.127
   -0.018
   -2.875
   -3.899
   -2.957
   -1.161
    0.309
    1.011
    1.027
    0.460
   -0.508
   -1.333
   -1.348
   -0.409
    0.930
    2.015
    2.645
    2.897
    2.628
    1.566
   -0.055
   -1.295
   -1.271
   -0.122
    1.029
    1.181
    0.419
   -0.347
   -0.450
   -0.063
    0.252
    0.293
    0.314
    0.494
    0.605
    0.316
   -0.304
   -0.766
   -0.652
   -0.031
    0.643
    0.939
    0.679
   -0.103
   -1.164
   -1.983
   -1.974
   -1.053
    0.088
    0.528
    0.045
   -0.652
   -0.731
   -0.114
    0.618
    1.061
    1.370
    1.734
    1.813
    1.038
   -0.564
   -2.148
   -2.804
   -2.391
   -1.504
   -0.779
   -0.483
   -0.674
   -1.339
   -2.157
   -2.379
   -1.346
    0.771
    2.881
    3.784
    3.097
    1.464
   -0.015
   -0.533
   -0.014
    0.959
    1.588
    1.385
    0.427
   -0.800
   -1.796
   -2.346
   -2.544
   -2.626
   -2.821
   -3.259
   -3.870
   -4.364
   -4.464
   -4.252
   -4.185
   -4.582
   -5.086
   -4.907
   -3.765
   -2.421
   -1.943
   -2.489
   -3.087
   -2.682
   -1.101
    1.147
    3.637
    6.169
    8.259
    9.047
    8.125
    6.305
    5.225
    5.949
    7.984
    9.728
    9.829
    8.080
    5.215
    2.191
   -0.164
   -1.133
   -0.313
    1.837
    3.877
    4.205
    2.234
   -1.182
   -4.431
   -6.297
   -6.589
   -5.872
   -4.780
   -3.613
   -2.423
   -1.234
   -0.109
    0.875
    1.607
    1.953
    1.918
    1.733
    1.641
    1.527
    0.868
   -0.830
   -3.539
   -6.572
   -8.814
   -9.094
   -6.672
   -1.851
    3.716
    7.591
    7.976
    4.958
    0.497
   -2.849
   -3.412
   -1.159
    2.485
    5.381
    5.677
    2.827
   -1.835
   -5.561
   -5.788
   -1.906
    4.139
    8.941
    9.699
    5.926
   -0.221
   -5.233
   -6.289
   -2.700
    4.014
   11.020
   15.310
   14.786
    9.241
    0.774
   -7.007
  -10.890
   -9.863
   -5.495
   -0.736
    1.822
    1.073
   -2.437
   -6.915
   -9.977
   -9.650
   -5.579
    0.373
    4.975
    5.700
    2.485
   -2.323
   -5.786
   -6.356
   -4.498
   -1.865
   -0.051
    0.170
   -1.041
   -2.904
   -4.457
   -4.867
   -3.556
   -0.374
    4.042
    8.063
    9.654
    7.689
    3.008
   -1.880
   -4.408
   -3.630
   -0.634
    2.461
    3.908
    3.057
    0.253
   -3.518
   -6.797
   -7.924
   -5.859
   -1.145
    4.021
    7.070
    6.755
    3.822
    0.242
   -2.122
   -2.311
   -0.383
    2.667
    5.057
    4.917
    1.627
   -3.354
   -7.377
   -8.730
   -7.830
   -6.257
   -4.917
   -3.574
   -2.067
   -1.202
   -1.794
   -3.066
   -2.873
   -0.039
    3.862
    5.685
    3.865
    0.029
   -2.708
   -2.727
   -0.929
    0.820
    1.502
    1.141
    0.010
   -1.489
   -2.317
   -1.125
    2.243
    5.881
    7.160
    5.262
    2.054
    0.198
    0.632
    2.216
    3.578
    4.546
    5.483
    5.867
    4.498
    1.266
   -1.997
   -3.061
   -1.561
    0.740
    1.918
    1.647
    0.836
    0.074
   -0.925
   -2.365
   -3.483
   -3.097
   -0.969
    1.697
    3.239
    2.959
    1.559
    0.321
    0.035
    0.604
    1.402
    1.782
    1.349
    0.061
   -1.646
   -2.890
   -2.787
   -1.136
    1.236
    2.954
    3.055
    1.606
   -0.562
   -2.547
   -3.799
   -4.126
   -3.645
   -2.804
   -2.180
   -2.099
   -2.467
   -3.012
   -3.561
   -4.045
   -4.376
   -4.419
   -4.061
   -3.318
   -2.483
   -2.100
   -2.510
   -3.240
   -2.983
   -0.558
    3.807
    8.178
   10.143
    8.701
    5.093
    1.787
    0.549
    1.345
    2.818
    3.576
    3.020
    1.287
   -1.134
   -3.539
   -5.013
   -4.757
   -2.719
    0.125
    2.312
    2.938
    2.288
    1.438
    1.154
    1.193
    0.794
   -0.185
   -0.902
   -0.480
    0.900
    2.168
    2.524
    2.086
    1.346
    0.370
   -1.127
   -3.023
   -4.508
   -4.804
   -3.993
   -2.777
   -1.452
    0.461
    3.234
    5.838
    6.380
    3.926
   -0.303
   -3.829
   -5.047
   -4.318
   -3.040
   -2.072
   -1.369
   -0.861
   -0.974
   -1.908
   -2.759
   -2.072
    0.494
    3.419
    4.660
    3.744
    2.249
    2.145
    3.892
    6.327
    8.138
    8.981
    9.119
    8.507
    6.856
    4.519
    2.711
    2.409
    3.137
    3.216
    1.349
   -2.127
   -5.590
   -7.568
   -7.744
   -6.749
   -5.351
   -4.077
   -3.420
   -3.906
   -5.559
   -7.443
   -8.179
   -7.126
   -4.881
   -2.553
   -0.803
    0.241
    0.475
   -0.231
   -1.490
   -2.265
   -1.769
   -0.428
    0.437
    0.076
   -0.802
   -0.861
    0.312
    1.854
    2.782
    2.986
    2.808
    2.115
    0.528
   -1.419
   -2.081
   -0.250
    3.262
    6.050
    6.216
    3.854
    0.528
   -2.273
   -3.922
   -4.345
   -3.647
   -2.256
   -1.044
   -0.770
   -1.339
   -1.884
   -1.730
   -1.079
   -0.549
   -0.244
    0.271
    1.006
    1.049
   -0.410
   -2.660
   -3.651
   -1.956
    1.641
    4.820
    5.880
    4.945
    3.145
    1.224
   -0.645
   -2.019
   -1.968
   -0.109
    2.476
    3.950
    3.429
    1.677
    0.015
   -0.996
   -1.501
   -1.383
   -0.155
    1.952
    3.356
    2.314
   -1.135
   -4.797
   -6.161
   -4.503
   -1.127
    2.081
    3.900
    3.837
    1.841
   -1.436
   -4.384
   -5.245
   -3.561
   -0.635
    1.690
    2.604
    2.510
    1.917
    0.736
   -1.088
   -2.703
   -2.793
   -1.060
    1.170
    2.225
    1.840
    1.272
    1.695
    2.908
    3.871
    4.160
    4.413
    5.316
    6.569
    7.133
    6.378
    4.737
    3.183
    2.298
    1.982
    1.878
    1.740
    1.298
    0.086
   -2.167
   -4.893
   -6.708
   -6.406
   -4.026
   -0.906
    1.321
    1.825
    0.869
   -0.648
   -1.776
   -1.883
   -0.879
    0.702
    1.904
    1.827
    0.055
   -3.135
   -6.788
   -9.544
  -10.307
   -9.001
   -6.657
   -4.503
   -2.987
   -1.857
   -1.108
   -1.386
   -3.071
   -5.176
   -5.709
   -3.489
    0.501
    3.825
    4.672
    3.181
    0.861
   -0.930
   -1.713
   -1.485
   -0.309
    1.387
    2.591
    2.465
    1.405
    0.856
    1.792
    3.655
    5.101
    5.540
    5.406
    4.967
    3.628
    0.994
   -1.739
   -2.363
    0.005
    3.592
    5.488
    4.470
    1.968
    0.247
    0.083
    0.578
    0.914
    1.467
    2.837
    4.276
    3.974
    1.172
   -2.569
   -4.766
   -4.590
   -3.521
   -3.422
   -4.488
   -5.493
   -5.620
   -5.345
   -5.394
   -5.480
   -4.661
   -2.793
   -1.034
   -0.680
   -1.799
   -3.257
   -3.904
   -3.405
   -2.001
    0.071
    2.607
    5.050
    6.542
    6.568
    5.450
    4.063
    3.179
    3.130
    3.850
    4.884
    5.417
    4.751
    3.013
    1.250
    0.559
    1.109
    2.095
    2.577
    2.218
    1.258
    0.046
   -1.202
   -2.276
   -2.915
   -3.013
   -2.784
   -2.542
   -2.316
   -1.836
   -0.987
   -0.151
    0.053
   -0.616
   -1.752
   -2.651
   -2.815
   -2.121
   -0.688
    1.139
    2.667
    3.006
    1.715
   -0.611
   -2.616
   -3.236
   -2.459
   -0.981
    0.657
    2.272
    3.487
    3.516
    1.969
   -0.285
   -1.591
   -1.063
    0.532
    1.637
    1.443
    0.340
   -0.975
   -2.308
   -3.673
   -4.568
   -4.146
   -2.292
   -0.144
    0.819
    0.227
   -0.884
   -1.234
   -0.469
    0.941
    2.576
    4.314
    5.755
    5.996
    4.504
    2.041
    0.244
    0.094
    1.039
    1.780
    1.698
    1.220
    0.924
    0.756
    0.362
   -0.102
    0.008
    0.864
    1.581
    0.980
   -1.058
   -3.299
   -4.347
   -3.913
   -2.721
   -1.453
   -0.259
    0.656
    0.567
   -1.088
   -3.674
   -5.545
   -5.552
   -4.124
   -2.591
   -1.637
   -0.837
    0.285
    1.230
    1.011
   -0.455
   -1.877
   -1.767
    0.049
    2.262
    3.326
    2.753
    1.245
   -0.125
   -0.679
   -0.283
