Origin Time       18/9/2011 12:40:47	
Lat.              27.6 N	
Long.             88.2 E	
Depth (Km)         10.0
Magnitude         6.8
 Region           India(Sikkim)-Nepar-Border                                       
 Above details taken from IMD 
   
Station Code      MLD
Station Lat.       25.000
Station Long.      88.146
Station Height(m)   44.0
Site Class        C   Vs30 between 200 m/sec to 375 m/sec *  
Record Time       18.09.2011 12:41:18.309
Sampling Rate     200. Hz
 Record Duration  187.965 Sec.
 Direction         Vert. (Up positive)
Max. Acceleration    -14.505 cm/sec**2
     
  * For reference see Site Classification link of website 
     
 Base Line Corrected and Low Pass Filtered (Cut Off at 35 Hz) Time History
 Acceleration data in cm/sec**2
    
[...]
      -0.183
       0.947
       1.984
       2.778
       3.249
       3.403
       3.292
       2.977
       2.524
       2.015
       1.527
       1.096
       0.699
       0.291
      -0.149
      -0.599
      -1.023
      -1.401
      -1.717
      -1.926
      -1.963
      -1.800
      -1.509
      -1.232
      -1.082
      -1.080
      -1.166
      -1.261
      -1.307
      -1.262
      -1.105
      -0.862
      -0.614
      -0.445
      -0.366
      -0.283
      -0.042
       0.487
       1.335
       2.408
       3.520
       4.460
       5.077
       5.319
       5.199
       4.741
       3.959
       2.900
       1.689
       0.526
      -0.400
      -0.994
      -1.285
      -1.366
      -1.330
      -1.220
      -1.022
      -0.693
      -0.209
       0.397
       1.028
       1.577
       1.976
       2.194
       2.185
       1.876
       1.220
       0.264
      -0.870
      -2.054
      -3.199
      -4.235
      -5.083
      -5.681
      -6.021
      -6.125
      -5.967
      -5.450
      -4.496
      -3.154
      -1.603
      -0.035
       1.432
       2.739
       3.804
       4.505
       4.736
       4.482
       3.802
       2.766
       1.429
      -0.137
      -1.792
      -3.339
      -4.587
      -5.431
      -5.877
      -6.002
      -5.866
      -5.450
      -4.689
      -3.567
      -2.200
      -0.801
       0.420
       1.362
       2.040
       2.526
       2.887
       3.155
       3.340
       3.451
       3.489
       3.438
       3.267
       2.960
       2.516
       1.944
       1.263
       0.529
      -0.161
      -0.708
      -1.064
      -1.241
      -1.273
      -1.157
      -0.819
      -0.144
       0.938
       2.356
       3.880
       5.217
       6.170
       6.715
       6.941
       6.920
       6.634
       6.036
       5.157
       4.132
       3.113
       2.160
       1.217
       0.202
      -0.914
      -2.097
      -3.288
      -4.421
      -5.403
      -6.119
      -6.484
      -6.480
      -6.126
      -5.429
      -4.392
      -3.079
      -1.669
      -0.391
       0.588
       1.256
       1.715
       2.071
       2.338
       2.447
       2.332
       1.987
       1.461
       0.795
      -0.002
      -0.900
      -1.762
      -2.320
      -2.279
      -1.494
      -0.083
       1.615
       3.223
       4.507
       5.426
       6.040
       6.382
       6.404
       6.027
       5.222
       4.029
       2.512
       0.716
      -1.316
      -3.473
      -5.556
      -7.327
      -8.609
      -9.325
      -9.497
      -9.203
      -8.547
      -7.635
      -6.574
      -5.475
      -4.443
      -3.556
      -2.828
      -2.217
      -1.674
      -1.194
      -0.804
      -0.511
      -0.255
       0.072
       0.551
       1.173
       1.843
       2.458
       2.986
       3.455
       3.881
       4.197
       4.272
       3.998
       3.342
       2.337
       1.032
      -0.520
      -2.209
      -3.828
      -5.103
      -5.814
      -5.893
      -5.427
      -4.574
      -3.481
      -2.261
      -0.999
       0.245
       1.435
       2.538
       3.466
       4.090
       4.327
       4.205
       3.829
       3.264
       2.514
       1.593
       0.628
      -0.161
      -0.584
      -0.599
      -0.314
       0.110
       0.576
       1.080
       1.672
       2.402
       3.291
       4.323
       5.447
       6.581
       7.622
       8.439
       8.877
       8.784
       8.069
       6.771
       5.053
       3.108
       1.059
      -1.062
      -3.240
      -5.392
      -7.335
      -8.866
      -9.863
     -10.322
     -10.305
      -9.867
      -9.034
      -7.839
      -6.358
      -4.713
      -3.050
      -1.523
      -0.251
       0.735
       1.524
       2.285
       3.157
       4.178
       5.298
       6.453
       7.602
       8.695
       9.620
      10.208
      10.331
       9.995
       9.330
       8.475
       7.476
       6.290
       4.896
       3.382
       1.924
       0.673
      -0.350
      -1.240
      -2.115
      -3.000
      -3.804
      -4.395
      -4.708
      -4.813
      -4.863
      -4.995
      -5.241
      -5.529
      -5.749
      -5.822
      -5.729
      -5.500
      -5.192
      -4.870
      -4.611
      -4.501
      -4.600
      -4.887
      -5.245
      -5.508
      -5.557
      -5.371
      -4.999
      -4.471
      -3.747
      -2.768
      -1.530
      -0.133
       1.251
       2.452
       3.367
       3.992
       4.406
       4.727
       5.036
       5.326
       5.514
       5.507
       5.274
       4.858
       4.319
       3.668
       2.844
       1.778
       0.472
      -0.952
      -2.293
      -3.361
      -4.049
      -4.351
      -4.323
      -4.040
      -3.566
      -2.956
      -2.272
      -1.575
      -0.919
      -0.348
       0.074
       0.239
       0.006
      -0.727
      -1.936
      -3.437
      -4.946
      -6.201
      -7.032
      -7.362
      -7.159
      -6.412
      -5.150
      -3.478
      -1.562
       0.430
       2.395
       4.301
       6.134
       7.838
       9.289
      10.314
      10.740
      10.457
       9.481
       7.951
       6.054
       3.929
       1.646
      -0.709
      -2.954
      -4.835
      -6.128
      -6.722
      -6.612
      -5.849
      -4.505
      -2.693
      -0.591
       1.575
       3.587
       5.263
       6.463
       7.085
       7.072
       6.429
       5.238
       3.644
       1.835
      -0.005
      -1.728
      -3.232
      -4.426
      -5.198
      -5.424
      -5.009
      -3.950
      -2.351
      -0.412
       1.606
       3.422
       4.782
       5.520
       5.603
       5.151
       4.396
       3.589
       2.884
       2.271
       1.607
       0.732
      -0.424
      -1.776
      -3.119
      -4.213
      -4.882
      -5.083
      -4.908
      -4.520
      -4.048
      -3.510
      -2.810
      -1.820
      -0.502
       1.030
       2.531
       3.711
       4.334
       4.278
       3.554
       2.280
       0.629
      -1.208
      -3.040
      -4.687
      -5.993
      -6.850
      -7.224
      -7.157
      -6.739
      -6.054
      -5.147
      -4.048
      -2.818
      -1.570
      -0.424
       0.574
       1.459
       2.264
       2.921
       3.263
       3.128
       2.478
       1.419
       0.125
      -1.240
      -2.558
      -3.739
      -4.703
      -5.372
      -5.671
      -5.544
      -4.977
      -4.012
      -2.711
      -1.106
       0.799
       2.961
       5.232
       7.395
       9.264
      10.752
      11.830
      12.421
      12.381
      11.592
      10.074
       8.019
       5.710
       3.426
       1.392
      -0.231
      -1.352
      -1.956
      -2.095
      -1.843
      -1.274
      -0.464
       0.513
       1.589
       2.699
       3.762
       4.679
       5.347
       5.697
       5.687
       5.290
       4.486
       3.288
       1.769
       0.074
      -1.613
      -3.121
      -4.330
      -5.182
      -5.653
      -5.739
      -5.463
      -4.874
      -4.030
      -2.993
      -1.847
      -0.719
       0.248
       0.956
       1.400
       1.644
       1.734
       1.635
       1.250
       0.501
      -0.587
      -1.870
      -3.142
      -4.225
      -5.031
      -5.563
      -5.844
      -5.843
      -5.476
      -4.681
      -3.528
      -2.230
      -1.059
      -0.212
       0.262
       0.445
       0.466
       0.411
       0.297
       0.114
      -0.122
      -0.370
      -0.612
      -0.878
      -1.210
      -1.583
      -1.873
      -1.889
      -1.467
      -0.562
       0.714
       2.129
       3.431
       4.456
       5.166
       5.605
       5.810
       5.756
       5.374
       4.616
       3.516
       2.189
       0.775
      -0.626
      -1.975
      -3.252
      -4.421
      -5.424
      -6.191
      -6.650
      -6.729
      -6.381
      -5.629
      -4.599
      -3.491
      -2.529
      -1.904
      -1.729
      -1.998
      -2.575
      -3.248
      -3.814
      -4.140
      -4.166
      -3.888
      -3.362
      -2.710
      -2.113
      -1.731
      -1.605
      -1.613
      -1.536
      -1.191
      -0.548
       0.286
       1.152
       1.933
       2.577
       3.088
       3.486
       3.772
       3.927
       3.948
       3.913
       3.982
       4.337
       5.074
       6.121
       7.243
       8.135
       8.562
       8.444
       7.857
       6.965
       5.933
       4.854
       3.716
       2.449
       1.007
      -0.574
      -2.176
      -3.639
      -4.797
      -5.502
      -5.639
      -5.158
      -4.098
      -2.605
      -0.939
       0.562
       1.585
       1.969
       1.785
       1.284
       0.754
       0.392
       0.251
       0.297
       0.476
       0.757
       1.126
       1.554
       1.981
       2.313
       2.451
       2.348
       2.035
       1.620
       1.214
       0.858
       0.514
       0.117
      -0.364
      -0.926
      -1.545
      -2.191
      -2.819
      -3.373
      -3.810
      -4.106
      -4.248
      -4.224
      -4.030
      -3.675
      -3.173
      -2.540
      -1.800
      -0.991
      -0.147
       0.756
       1.787
       2.986
       4.267
       5.421
       6.217
       6.545
       6.482
       6.232
       5.987
       5.800
       5.570
       5.129
       4.375
       3.343
       2.172
       1.005
      -0.077
      -1.055
      -1.908
      -2.552
      -2.872
      -2.821
      -2.485
      -2.032
      -1.618
      -1.310
      -1.097
      -0.936
      -0.807
      -0.729
      -0.756
      -0.964
      -1.427
      -2.170
      -3.130
      -4.162
      -5.109
      -5.892
      -6.547
      -7.154
      -7.717
      -8.105
      -8.107
      -7.568
      -6.497
      -5.079
      -3.578
      -2.189
      -0.960
       0.175
       1.301
       2.449
       3.559
       4.497
       5.100
       5.255
       4.961
       4.329
       3.534
       2.746
       2.093
       1.664
       1.495
       1.558
       1.737
       1.854
       1.712
       1.192
       0.320
      -0.739
      -1.781
      -2.661
      -3.322
      -3.757
      -3.945
      -3.848
      -3.441
      -2.755
      -1.881
      -0.917
       0.074
       1.064
       2.042
       2.984
       3.838
       4.521
       4.937
       5.000
       4.669
       3.963
       2.966
       1.818
       0.693
      -0.231
      -0.827
      -1.071
      -1.047
      -0.893
      -0.714
      -0.536
      -0.321
      -0.037
       0.285
       0.560
       0.695
       0.632
       0.379
      -0.002
      -0.418
      -0.776
      -1.004
      -1.062
      -0.940
      -0.663
      -0.275
       0.157
       0.556
       0.857
       1.026
       1.068
       0.991
       0.778
       0.383
      -0.247
      -1.112
      -2.106
      -3.029
      -3.667
      -3.915
      -3.828
      -3.582
      -3.369
      -3.296
      -3.368
      -3.505
      -3.600
      -3.571
      -3.383
      -3.060
      -2.686
      -2.384
      -2.265
      -2.369
      -2.651
      -2.996
      -3.260
      -3.297
      -3.016
      -2.429
      -1.652
      -0.850
      -0.142
       0.444
       0.919
       1.271
       1.476
       1.587
       1.732
       2.007
       2.355
       2.583
       2.514
       2.146
       1.650
       1.224
       0.968
       0.863
       0.827
       0.776
       0.660
       0.470
       0.247
       0.076
       0.042
       0.178
       0.454
       0.817
       1.217
       1.583
       1.810
       1.797
       1.525
       1.094
       0.655
       0.311
       0.057
      -0.185
      -0.511
      -0.970
      -1.536
      -2.137
      -2.693
      -3.147
      -3.455
      -3.595
      -3.579
      -3.474
      -3.366
      -3.297
      -3.210
      -2.966
      -2.397
      -1.373
       0.150
       2.089
       4.249
       6.390
       8.320
       9.968
      11.376
      12.612
      13.651
      14.334
      14.444
      13.813
      12.406
      10.337
       7.819
       5.096
       2.388
      -0.130
      -2.329
      -4.115
      -5.411
      -6.194
      -6.516
      -6.502
      -6.278
      -5.905
      -5.371
      -4.650
      -3.787
      -2.903
      -2.134
      -1.572
      -1.278
      -1.296
      -1.622
      -2.163
      -2.745
      -3.206
      -3.489
      -3.631
      -3.659
      -3.521
      -3.109
      -2.332
      -1.167
       0.340
       2.090
       3.968
       5.867
       7.705
       9.426
      10.971
      12.274
      13.270
      13.911
      14.146
      13.864
      12.911
      11.192
       8.787
       5.977
       3.126
       0.520
      -1.727
      -3.637
      -5.250
      -6.530
      -7.352
      -7.587
      -7.210
      -6.339
      -5.195
      -4.016
      -3.001
      -2.295
      -2.005
      -2.207
      -2.929
      -4.127
      -5.689
      -7.486
      -9.391
     -11.252
     -12.854
     -13.943
     -14.318
     -13.906
     -12.764
     -11.020
      -8.834
      -6.406
      -3.966
      -1.719
       0.212
       1.782
       2.955
       3.671
       3.889
       3.655
       3.129
       2.522
       1.980
       1.522
       1.066
       0.539
      -0.041
      -0.573
      -0.924
      -1.000
      -0.774
      -0.269
       0.485
       1.472
       2.672
       4.042
       5.530
       7.111
       8.790
      10.539
      12.216
      13.568
      14.305
      14.217
      13.235
      11.429
       8.946
       5.949
       2.588
      -0.973
      -4.533
      -7.843
     -10.649
     -12.747
     -14.029
     -14.505
     -14.299
     -13.639
     -12.775
     -11.880
     -11.007
     -10.132
      -9.231
      -8.311
      -7.388
      -6.455
      -5.480
      -4.446
      -3.403
      -2.473
      -1.769
      -1.303
      -0.968
      -0.626
      -0.208
       0.268
       0.746
       1.186
       1.565
       1.874
       2.113
       2.309
       2.521
       2.796
       3.151
       3.574
       4.039
       4.496
       4.866
       5.082
       5.121
       5.033
       4.927
       4.919
       5.098
       5.501
       6.121
       6.903
       7.755
       8.583
       9.310
       9.871
      10.187
      10.167
       9.728
       8.838
       7.546
       5.989
       4.346
       2.773
       1.359
       0.118
      -0.962
      -1.882
      -2.618
      -3.141
      -3.439
      -3.526
      -3.417
      -3.106
      -2.558
      -1.756
      -0.760
       0.277
       1.145
       1.691
       1.927
       2.041
       2.285
       2.807
       3.556
       4.330
       4.935
       5.300
       5.477
       5.549
       5.528
       5.346
       4.911
       4.180
       3.166
       1.897
       0.398
      -1.250
      -2.874
      -4.272
      -5.330
      -6.085
      -6.649
      -7.092
      -7.402
      -7.518
      -7.380
      -6.932
      -6.130
      -4.979
      -3.592
      -2.178
      -0.960
      -0.074
       0.473
       0.729
       0.705
       0.362
      -0.340
      -1.359
      -2.555
      -3.736
      -4.729
      -5.424
      -5.769
      -5.752
      -5.366
      -4.607
      -3.498
      -2.118
      -0.593
       0.946
       2.406
       3.734
       4.867
       5.710
       6.181
       6.283
       6.102
       5.725
       5.159
       4.339
       3.227
       1.917
       0.611
      -0.514
      -1.417
      -2.166
      -2.823
      -3.346
      -3.616
      -3.537
      -3.125
      -2.511
      -1.865
      -1.292
      -0.797
      -0.324
       0.160
       0.619
       0.969
       1.108
       0.945
       0.427
      -0.419
      -1.466
      -2.541
      -3.499
      -4.292
      -4.942
      -5.481
      -5.923
      -6.269
      -6.531
      -6.716
      -6.794
      -6.712
      -6.427
      -5.925
      -5.198
      -4.247
      -3.133
      -2.028
      -1.166
      -0.712
      -0.653
      -0.823
      -1.038
      -1.189
      -1.237
      -1.142
      -0.838
      -0.281
       0.503
       1.437
       2.432
       3.400
       4.237
       4.816
       5.048
       4.930
       4.552
       4.034
       3.448
       2.797
       2.070
       1.298
       0.559
      -0.058
      -0.481
      -0.649
      -0.509
      -0.038
       0.720
       1.639
       2.545
       3.260
       3.645
       3.628
       3.220
       2.524
       1.716
       0.992
       0.503
       0.301
       0.344
       0.554
       0.883
       1.305
       1.776
       2.217
       2.562
       2.817
       3.055
       3.343
       3.674
       3.992
       4.260
       4.482
       4.688
       4.898
       5.120
       5.352
       5.575
       5.731
       5.718
       5.452
       4.939
       4.263
       3.527
       2.771
       1.945
       0.955
      -0.255
      -1.634
      -3.023
      -4.208
      -5.033
      -5.476
      -5.648
      -5.718
      -5.857
      -6.199
      -6.805
      -7.619
      -8.470
      -9.155
      -9.555
      -9.698
      -9.695
      -9.597
      -9.342
      -8.809
      -7.921
      -6.690
      -5.195
      -3.552
      -1.862
      -0.179
       1.505
       3.216
       4.936
       6.584
       8.082
       9.412
      10.602
      11.648
      12.490
      13.050
      13.281
      13.165
      12.696
      11.863
      10.677
       9.188
       7.457
       5.514
       3.352
       0.952
      -1.662
      -4.404
      -7.124
      -9.634
     -11.744
     -13.301
     -14.216
     -14.465
     -14.086
     -13.179
     -11.909
     -10.471
      -8.999
      -7.507
      -5.905
      -4.116
      -2.182
      -0.274
       1.414
       2.778
       3.838
       4.684
       5.395
       5.996
       6.468
       6.802
       7.023
       7.175
       7.249
       7.152
       6.756
       5.969
       4.796
       3.332
       1.721
       0.120
      -1.314
      -2.444
      -3.183
      -3.513
      -3.476
      -3.117
      -2.472
      -1.577
      -0.496
       0.675
       1.820
       2.807
       3.476
       3.674
       3.335
       2.531
       1.432
       0.201
      -1.080
      -2.398
      -3.735
      -5.022
      -6.142
      -6.980
      -7.458
      -7.543
      -7.238
      -6.575
      -5.615
      -4.445
      -3.174
      -1.917
      -0.761
       0.244
       1.069
       1.678
       2.017
       2.023
       1.650
       0.899
      -0.162
      -1.421
      -2.764
      -4.096
      -5.330
      -6.379
      -7.177
      -7.703
      -7.979
      -8.016
      -7.770
      -7.144
      -6.074
      -4.612
      -2.934
      -1.254
       0.270
       1.576
       2.663
       3.551
       4.280
       4.940
       5.683
       6.660
       7.930
       9.400
      10.851
      12.022
      12.736
      12.976
      12.893
      12.709
      12.573
      12.467
      12.232
      11.691
      10.773
       9.551
       8.182
       6.842
       5.668
       4.732
       4.014
       3.417
       2.834
       2.212
       1.574
       0.962
       0.384
      -0.202
      -0.864
      -1.658
      -2.609
      -3.697
      -4.835
      -5.890
      -6.737
      -7.335
      -7.748
      -8.072
      -8.332
      -8.447
      -8.302
      -7.857
      -7.185
      -6.411
      -5.608
      -4.762
      -3.838
      -2.878
      -1.997
      -1.293
      -0.768
      -0.327
       0.137
       0.659
       1.205
       1.711
