Origin Time       18/9/2011 12:40:47	 UTC
Lat.              27.6 N	
Long.             88.2 E	
Depth (Km)         10.0
Magnitude         6.8
 Region           India(Sikkim)-Nepar-Border                                       
 Above details taken from IMD 
    
Station Code      MLD
Station Lat.       25.000  N
Station Long.      88.146  E
Station Height(m)   44.0
Site Class        C   Vs30 between 200 m/sec to 375 m/sec *  
Record Time       18.09.2011 12:41:18.309 UTC
Sampling Rate     200. Hz
 Record Duration  187.965 Sec.
 Direction         N-S (N positive)
Max. Acceleration     23.105 cm/sec**2
     
  * For reference see Site Classification link of website 
     
 Base Line Corrected and Low Pass Filtered (Cut Off at 35 Hz) Time History
 Acceleration data in cm/sec**2
    
[...]
      -5.042
      -4.181
      -3.027
      -1.701
      -0.325
       1.002
       2.223
       3.303
       4.199
       4.838
       5.132
       5.015
       4.485
       3.619
       2.573
       1.558
       0.793
       0.427
       0.487
       0.873
       1.416
       1.961
       2.419
       2.759
       2.963
       2.968
       2.687
       2.079
       1.240
       0.394
      -0.208
      -0.439
      -0.369
      -0.213
      -0.178
      -0.331
      -0.580
      -0.754
      -0.723
      -0.473
      -0.094
       0.301
       0.657
       1.002
       1.402
       1.881
       2.376
       2.753
       2.880
       2.715
       2.330
       1.881
       1.509
       1.272
       1.133
       1.020
       0.898
       0.783
       0.700
       0.645
       0.577
       0.462
       0.315
       0.203
       0.195
       0.315
       0.527
       0.783
       1.078
       1.474
       2.065
       2.914
       4.011
       5.251
       6.462
       7.451
       8.068
       8.269
       8.142
       7.886
       7.742
       7.916
       8.512
       9.503
      10.747
      12.025
      13.094
      13.732
      13.760
      13.052
      11.550
       9.304
       6.508
       3.484
       0.600
      -1.835
      -3.666
      -4.900
      -5.669
      -6.146
      -6.480
      -6.776
      -7.088
      -7.433
      -7.777
      -8.045
      -8.145
      -8.019
      -7.695
      -7.283
      -6.935
      -6.782
      -6.894
      -7.291
      -7.961
      -8.879
     -10.013
     -11.299
     -12.640
     -13.907
     -14.979
     -15.768
     -16.239
     -16.408
     -16.317
     -15.998
     -15.441
     -14.613
     -13.505
     -12.199
     -10.873
      -9.755
      -9.028
      -8.758
      -8.876
      -9.238
      -9.691
     -10.124
     -10.482
     -10.747
     -10.912
     -10.969
     -10.906
     -10.719
     -10.419
     -10.011
      -9.477
      -8.754
      -7.738
      -6.305
      -4.366
      -1.911
       0.985
       4.181
       7.519
      10.841
      13.992
      16.812
      19.134
      20.819
      21.775
      21.976
      21.463
      20.341
      18.762
      16.903
      14.933
      12.998
      11.216
       9.673
       8.412
       7.417
       6.613
       5.886
       5.124
       4.249
       3.234
       2.105
       0.925
      -0.218
      -1.232
      -2.048
      -2.624
      -2.935
      -2.964
      -2.701
      -2.161
      -1.406
      -0.535
       0.337
       1.109
       1.699
       2.044
       2.093
       1.810
       1.180
       0.231
      -0.950
      -2.221
      -3.415
      -4.400
      -5.134
      -5.688
      -6.209
      -6.851
      -7.710
      -8.796
     -10.056
     -11.429
     -12.882
     -14.411
     -15.992
     -17.537
     -18.884
     -19.846
     -20.273
     -20.082
     -19.242
     -17.775
     -15.750
     -13.307
     -10.654
      -8.027
      -5.639
      -3.637
      -2.101
      -1.055
      -0.472
      -0.272
      -0.311
      -0.399
      -0.350
      -0.033
       0.597
       1.502
       2.596
       3.777
       4.953
       6.050
       7.018
       7.826
       8.474
       8.983
       9.383
       9.690
       9.926
      10.139
      10.420
      10.870
      11.556
      12.459
      13.477
      14.460
      15.265
      15.777
      15.905
      15.587
      14.797
      13.569
      11.990
      10.196
       8.355
       6.656
       5.285
       4.390
       4.021
       4.099
       4.417
       4.686
       4.632
       4.076
       2.984
       1.457
      -0.303
      -2.064
      -3.630
      -4.889
      -5.820
      -6.449
      -6.790
      -6.827
      -6.550
      -6.003
      -5.313
      -4.653
      -4.178
      -3.970
      -4.032
      -4.305
      -4.707
      -5.155
      -5.579
      -5.933
      -6.212
      -6.463
      -6.774
      -7.237
      -7.887
      -8.686
      -9.532
     -10.304
     -10.901
     -11.261
     -11.359
     -11.199
     -10.813
     -10.253
      -9.596
      -8.931
      -8.340
      -7.880
      -7.578
      -7.424
      -7.371
      -7.335
      -7.214
      -6.914
      -6.382
      -5.610
      -4.623
      -3.447
      -2.098
      -0.610
       0.934
       2.403
       3.664
       4.649
       5.396
       6.011
       6.599
       7.182
       7.700
       8.068
       8.256
       8.316
       8.354
       8.457
       8.644
       8.854
       8.968
       8.847
       8.368
       7.459
       6.121
       4.450
       2.628
       0.893
      -0.518
      -1.425
      -1.745
      -1.496
      -0.782
       0.251
       1.454
       2.706
       3.922
       5.051
       6.062
       6.948
       7.713
       8.363
       8.897
       9.285
       9.477
       9.421
       9.098
       8.546
       7.846
       7.090
       6.350
       5.652
       4.972
       4.251
       3.419
       2.424
       1.237
      -0.158
      -1.768
      -3.582
      -5.526
      -7.455
      -9.182
     -10.567
     -11.566
     -12.229
     -12.623
     -12.772
     -12.647
     -12.223
     -11.524
     -10.632
      -9.639
      -8.603
      -7.533
      -6.435
      -5.359
      -4.401
      -3.657
      -3.154
      -2.830
      -2.572
      -2.284
      -1.932
      -1.528
      -1.086
      -0.584
       0.033
       0.810
       1.738
       2.745
       3.736
       4.627
       5.370
       5.930
       6.279
       6.382
       6.220
       5.802
       5.172
       4.398
       3.567
       2.778
       2.126
       1.691
       1.506
       1.549
       1.747
       2.002
       2.235
       2.405
       2.513
       2.580
       2.622
       2.658
       2.734
       2.927
       3.321
       3.961
       4.829
       5.854
       6.952
       8.044
       9.044
       9.842
      10.318
      10.414
      10.199
       9.858
       9.594
       9.508
       9.543
       9.516
       9.212
       8.473
       7.228
       5.481
       3.283
       0.729
      -2.034
      -4.806
      -7.376
      -9.580
     -11.341
     -12.667
     -13.598
     -14.166
     -14.356
     -14.124
     -13.430
     -12.283
     -10.759
      -8.992
      -7.162
      -5.464
      -4.071
      -3.090
      -2.531
      -2.316
      -2.316
      -2.401
      -2.481
      -2.511
      -2.479
      -2.400
      -2.310
      -2.267
      -2.344
      -2.601
      -3.054
      -3.650
      -4.270
      -4.765
      -5.007
      -4.950
      -4.653
      -4.252
      -3.899
      -3.696
      -3.675
      -3.809
      -4.063
      -4.412
      -4.830
      -5.258
      -5.599
      -5.735
      -5.568
      -5.047
      -4.182
      -3.049
      -1.782
      -0.563
       0.414
       1.000
       1.147
       0.934
       0.526
       0.121
      -0.101
       0.003
       0.534
       1.529
       2.940
       4.633
       6.404
       8.040
       9.372
      10.309
      10.839
      10.993
      10.823
      10.379
       9.725
       8.949
       8.153
       7.434
       6.861
       6.461
       6.234
       6.156
       6.166
       6.166
       6.050
       5.745
       5.259
       4.669
       4.082
       3.588
       3.228
       3.006
       2.909
       2.930
       3.074
       3.353
       3.775
       4.335
       5.002
       5.721
       6.425
       7.063
       7.618
       8.111
       8.577
       9.044
       9.505
       9.904
      10.129
      10.025
       9.421
       8.187
       6.300
       3.891
       1.238
      -1.315
      -3.451
      -4.981
      -5.889
      -6.320
      -6.514
      -6.713
      -7.080
      -7.670
      -8.446
      -9.326
     -10.215
     -11.013
     -11.617
     -11.914
     -11.813
     -11.278
     -10.357
      -9.146
      -7.738
      -6.179
      -4.474
      -2.635
      -0.738
       1.076
       2.651
       3.888
       4.772
       5.349
       5.685
       5.830
       5.824
       5.694
       5.453
       5.097
       4.599
       3.925
       3.050
       1.981
       0.774
      -0.457
      -1.561
      -2.385
      -2.816
      -2.815
      -2.422
      -1.750
      -0.960
      -0.226
       0.295
       0.491
       0.309
      -0.246
      -1.126
      -2.244
      -3.483
      -4.707
      -5.773
      -6.541
      -6.885
      -6.713
      -6.003
      -4.821
      -3.325
      -1.721
      -0.200
       1.107
       2.153
       2.957
       3.585
       4.129
       4.689
       5.324
       6.015
       6.650
       7.065
       7.123
       6.795
       6.178
       5.456
       4.804
       4.317
       3.987
       3.738
       3.476
       3.125
       2.636
       1.983
       1.149
       0.127
      -1.069
      -2.400
      -3.803
      -5.209
      -6.539
      -7.699
      -8.578
      -9.061
      -9.071
      -8.598
      -7.708
      -6.536
      -5.234
      -3.930
      -2.690
      -1.534
      -0.471
       0.473
       1.243
       1.770
       1.989
       1.861
       1.370
       0.527
      -0.639
      -2.071
      -3.686
      -5.384
      -7.048
      -8.555
      -9.786
     -10.655
     -11.129
     -11.241
     -11.063
     -10.658
     -10.063
      -9.296
      -8.389
      -7.400
      -6.411
      -5.504
      -4.739
      -4.148
      -3.727
      -3.440
      -3.203
      -2.888
      -2.349
      -1.455
      -0.141
       1.567
       3.563
       5.687
       7.784
       9.740
      11.502
      13.070
      14.472
      15.724
      16.810
      17.674
      18.237
      18.421
      18.181
      17.532
      16.543
      15.309
      13.906
      12.372
      10.718
       8.960
       7.137
       5.315
       3.584
       2.047
       0.795
      -0.121
      -0.720
      -1.080
      -1.298
      -1.445
      -1.547
      -1.583
      -1.514
      -1.296
      -0.903
      -0.328
       0.424
       1.345
       2.429
       3.668
       5.053
       6.562
       8.137
       9.672
      11.012
      11.977
      12.416
      12.231
      11.401
       9.977
       8.066
       5.792
       3.265
       0.570
      -2.222
      -5.024
      -7.701
     -10.064
     -11.918
     -13.127
     -13.664
     -13.608
     -13.112
     -12.355
     -11.497
     -10.653
      -9.889
      -9.247
      -8.759
      -8.452
      -8.313
      -8.258
      -8.137
      -7.791
      -7.143
      -6.245
      -5.271
      -4.444
      -3.952
      -3.887
      -4.235
      -4.909
      -5.800
      -6.824
      -7.929
      -9.063
     -10.139
     -11.044
     -11.680
     -12.002
     -12.030
     -11.837
     -11.510
     -11.116
     -10.682
     -10.204
      -9.664
      -9.035
      -8.271
      -7.326
      -6.178
      -4.854
      -3.427
      -1.984
      -0.603
       0.642
       1.653
       2.320
       2.580
       2.490
       2.218
       1.959
       1.820
       1.786
       1.771
       1.710
       1.598
       1.451
       1.247
       0.914
       0.372
      -0.398
      -1.315
      -2.193
      -2.791
      -2.901
      -2.444
      -1.522
      -0.382
       0.689
       1.474
       1.857
       1.804
       1.333
       0.533
      -0.422
      -1.286
      -1.825
      -1.901
      -1.508
      -0.727
       0.340
       1.612
       3.004
       4.391
       5.616
       6.539
       7.108
       7.370
       7.417
       7.316
       7.069
       6.644
       6.031
       5.281
       4.494
       3.765
       3.152
       2.677
       2.361
       2.253
       2.410
       2.851
       3.536
       4.376
       5.296
       6.270
       7.298
       8.355
       9.361
      10.226
      10.911
      11.455
      11.940
      12.422
      12.890
      13.281
      13.518
      13.538
      13.298
      12.762
      11.902
      10.697
       9.142
       7.266
       5.150
       2.922
       0.712
      -1.399
      -3.391
      -5.246
      -6.895
      -8.204
      -9.034
      -9.303
      -9.012
      -8.211
      -6.951
      -5.255
      -3.117
      -0.548
       2.366
       5.443
       8.432
      11.094
      13.281
      14.973
      16.249
      17.212
      17.930
      18.428
      18.721
      18.834
      18.795
      18.604
      18.222
      17.592
      16.679
      15.489
      14.072
      12.488
      10.770
       8.916
       6.911
       4.766
       2.538
       0.323
      -1.775
      -3.678
      -5.329
      -6.683
      -7.691
      -8.319
      -8.577
      -8.528
      -8.269
      -7.886
      -7.441
      -6.994
      -6.623
      -6.424
      -6.470
      -6.770
      -7.249
      -7.773
      -8.204
      -8.454
      -8.516
      -8.448
      -8.329
      -8.221
      -8.139
      -8.063
      -7.950
      -7.764
      -7.500
      -7.195
      -6.921
      -6.763
      -6.800
      -7.098
      -7.713
      -8.678
      -9.991
     -11.595
     -13.383
     -15.228
     -17.015
     -18.650
     -20.056
     -21.146
     -21.827
     -22.030
     -21.742
     -21.022
     -19.967
     -18.669
     -17.181
     -15.513
     -13.654
     -11.616
      -9.466
      -7.332
      -5.380
      -3.788
      -2.708
      -2.230
      -2.356
      -2.998
      -4.001
      -5.196
      -6.436
      -7.616
      -8.670
      -9.548
     -10.199
     -10.566
     -10.586
     -10.214
      -9.434
      -8.260
      -6.734
      -4.908
      -2.844
      -0.617
       1.691
       4.002
       6.273
       8.503
      10.709
      12.898
      15.035
      17.047
      18.850
      20.375
      21.588
      22.469
      22.989
      23.105
      22.777
      22.001
      20.824
      19.331
      17.621
      15.781
      13.877
      11.969
      10.129
       8.435
       6.963
       5.765
       4.863
       4.252
       3.905
       3.781
       3.836
       4.033
       4.351
       4.781
       5.316
       5.948
       6.659
       7.410
       8.125
       8.700
       9.028
       9.043
       8.739
       8.170
       7.410
       6.513
       5.501
       4.361
       3.077
       1.651
       0.120
      -1.450
      -2.985
      -4.423
      -5.727
      -6.882
      -7.874
      -8.695
      -9.347
      -9.858
     -10.273
     -10.625
     -10.913
     -11.094
     -11.105
     -10.907
     -10.502
      -9.931
      -9.256
      -8.551
      -7.914
      -7.449
      -7.242
      -7.303
      -7.552
      -7.843
      -8.035
      -8.043
      -7.845
      -7.466
      -6.959
      -6.407
      -5.896
      -5.490
      -5.192
      -4.949
      -4.674
      -4.286
      -3.745
      -3.068
      -2.335
      -1.666
      -1.190
      -1.009
      -1.162
      -1.614
      -2.275
      -3.029
      -3.770
      -4.418
      -4.915
      -5.216
      -5.282
      -5.094
      -4.667
      -4.047
      -3.298
      -2.460
      -1.533
      -0.486
       0.705
       2.018
       3.378
       4.666
       5.748
       6.509
       6.884
       6.866
       6.507
       5.904
       5.185
       4.484
       3.923
       3.572
       3.428
       3.404
       3.375
       3.241
       2.981
       2.669
       2.429
       2.380
       2.584
       3.044
       3.718
       4.544
       5.441
       6.306
       7.023
       7.490
       7.640
       7.459
       6.968
       6.196
       5.149
       3.811
       2.190
       0.358
      -1.527
      -3.264
      -4.681
      -5.687
      -6.273
      -6.476
      -6.350
      -5.967
      -5.440
      -4.915
      -4.527
      -4.338
      -4.303
      -4.293
      -4.162
      -3.828
      -3.310
      -2.724
      -2.225
      -1.951
      -1.971
      -2.266
      -2.742
      -3.268
      -3.707
      -3.949
      -3.927
      -3.614
      -3.026
      -2.232
      -1.344
      -0.486
       0.261
       0.879
       1.392
       1.813
       2.100
       2.156
       1.870
       1.160
       0.010
      -1.519
      -3.293
      -5.143
      -6.907
      -8.470
      -9.785
     -10.856
     -11.706
     -12.339
     -12.724
     -12.795
     -12.480
     -11.723
     -10.519
      -8.924
      -7.049
      -5.025
      -2.964
      -0.934
       1.039
       2.949
       4.783
       6.504
       8.040
       9.299
      10.194
      10.680
      10.770
      10.527
      10.036
       9.383
       8.657
       7.944
       7.329
       6.879
       6.623
       6.552
       6.622
       6.780
       6.987
       7.214
       7.432
       7.604
       7.694
       7.686
       7.600
       7.487
       7.405
       7.395
       7.463
       7.599
       7.790
       8.039
       8.360
       8.765
       9.253
       9.802
      10.364
      10.868
      11.230
      11.381
      11.297
      11.002
      10.542
       9.932
       9.137
       8.086
       6.739
       5.139
       3.422
       1.772
       0.358
      -0.696
      -1.327
      -1.514
      -1.274
      -0.666
       0.205
       1.183
       2.089
       2.761
       3.096
       3.072
       2.728
       2.134
       1.360
       0.472
      -0.448
      -1.304
      -2.007
      -2.508
      -2.813
      -2.959
      -2.984
      -2.894
      -2.675
      -2.310
      -1.808
      -1.215
      -0.604
      -0.053
       0.374
       0.641
       0.724
       0.606
       0.276
      -0.265
      -0.988
      -1.843
      -2.764
      -3.679
      -4.496
      -5.101
      -5.373
      -5.233
      -4.697
      -3.896
      -3.048
      -2.389
      -2.095
      -2.232
      -2.746
      -3.499
      -4.330
      -5.109
      -5.772
      -6.300
      -6.676
      -6.844
      -6.725
      -6.260
      -5.459
      -4.417
      -3.289
      -2.257
      -1.488
      -1.108
      -1.180
      -1.697
      -2.589
      -3.728
      -4.962
      -6.142
      -7.157
      -7.950
      -8.526
      -8.935
      -9.233
      -9.462
      -9.660
      -9.868
     -10.141
     -10.525
     -11.046
     -11.698
     -12.451
     -13.269
     -14.104
     -14.886
     -15.527
     -15.931
     -16.023
     -15.763
     -15.153
     -14.227
     -13.033
     -11.624
     -10.046
      -8.346
      -6.579
      -4.807
      -3.097
      -1.503
      -0.042
       1.316
       2.635
       3.978
       5.368
       6.773
       8.117
       9.319
      10.329
      11.149
      11.826
      12.424
      12.977
      13.454
      13.756
      13.763
      13.408
      12.722
      11.844
      10.974
      10.316
      10.007
      10.095
      10.534
      11.218
      12.012
      12.777
      13.385
      13.744
      13.812
      13.604
      13.178
      12.603
      11.922
      11.141
      10.245
       9.233
       8.139
       7.037
       6.017
       5.159
       4.513
       4.103
       3.919
       3.905
       3.946
       3.887
       3.589
       2.991
       2.133
       1.127
       0.087
      -0.912
      -1.841
      -2.686
      -3.406
      -3.919
      -4.118
      -3.922
      -3.315
      -2.374
      -1.262
      -0.191
       0.635
       1.073
       1.066
       0.635
      -0.142
      -1.150
      -2.250
      -3.301
      -4.178
      -4.799
      -5.133
      -5.195
      -5.038
      -4.740
      -4.394
      -4.074
      -3.803
      -3.528
      -3.143
      -2.541
      -1.677
      -0.606
       0.536
       1.600
       2.486
       3.180
       3.718
       4.136
       4.438
       4.611
       4.659
       4.639
