Origin Time       18/9/2011 12:40:47	
Lat.              27.6 N	
Long.             88.2 E	
Depth (Km)         10.0
Magnitude         6.8
 Region           India(Sikkim)-Nepar-Border                                       
 Above details taken from IMD 
     
Station Code      MLD
Station Lat.       25.000  N
Station Long.      88.146  E
Station Height(m)   44.0
Site Class        C   Vs30 between 200 m/sec to 375 m/sec *  
Record Time       18.09.2011 12:41:18.309
Sampling Rate     200. Hz
 Record Duration  187.965 Sec.
 Direction         E-W (E positive)
Max. Acceleration     23.297 cm/sec**2
     
  * For reference see Site Classification link of website 
     
 Base Line Corrected and Low Pass Filtered (Cut Off at 35 Hz) Time History
 Acceleration data in cm/sec**2
    
[...]
      -1.067
      -1.375
      -1.914
      -2.593
      -3.253
      -3.699
      -3.773
      -3.411
      -2.667
      -1.676
      -0.585
       0.508
       1.559
       2.537
       3.395
       4.071
       4.518
       4.725
       4.723
       4.563
       4.309
       4.018
       3.734
       3.470
       3.201
       2.883
       2.484
       2.021
       1.551
       1.144
       0.831
       0.576
       0.283
      -0.151
      -0.780
      -1.600
      -2.571
      -3.655
      -4.820
      -6.014
      -7.126
      -8.007
      -8.518
      -8.609
      -8.350
      -7.907
      -7.458
      -7.116
      -6.889
      -6.693
      -6.387
      -5.808
      -4.825
      -3.383
      -1.529
       0.606
       2.843
       4.997
       6.899
       8.398
       9.382
       9.807
       9.719
       9.250
       8.569
       7.826
       7.125
       6.523
       6.058
       5.764
       5.673
       5.786
       6.048
       6.354
       6.587
       6.674
       6.627
       6.512
       6.402
       6.317
       6.221
       6.062
       5.806
       5.459
       5.045
       4.574
       4.036
       3.413
       2.706
       1.945
       1.168
       0.404
      -0.342
      -1.065
      -1.737
      -2.292
      -2.653
      -2.777
      -2.680
      -2.419
      -2.055
      -1.618
      -1.101
      -0.479
       0.262
       1.100
       1.995
       2.901
       3.789
       4.641
       5.450
       6.212
       6.934
       7.643
       8.393
       9.231
      10.159
      11.104
      11.913
      12.400
      12.397
      11.808
      10.632
       8.968
       6.972
       4.812
       2.627
       0.530
      -1.367
      -2.938
      -4.061
      -4.660
      -4.740
      -4.395
      -3.772
      -3.022
      -2.281
      -1.674
      -1.322
      -1.334
      -1.771
      -2.613
      -3.753
      -5.021
      -6.233
      -7.248
      -7.985
      -8.422
      -8.567
      -8.449
      -8.116
      -7.641
      -7.118
      -6.649
      -6.322
      -6.184
      -6.242
      -6.476
      -6.851
      -7.324
      -7.844
      -8.364
      -8.861
      -9.324
      -9.733
     -10.032
     -10.157
     -10.075
      -9.819
      -9.479
      -9.138
      -8.820
      -8.478
      -8.043
      -7.491
      -6.863
      -6.235
      -5.679
      -5.237
      -4.909
      -4.664
      -4.458
      -4.246
      -3.986
      -3.635
      -3.145
      -2.487
      -1.679
      -0.816
      -0.057
       0.418
       0.485
       0.133
      -0.534
      -1.337
      -2.097
      -2.675
      -3.004
      -3.089
      -2.984
      -2.768
      -2.518
      -2.295
      -2.153
      -2.137
      -2.266
      -2.501
      -2.708
      -2.700
      -2.329
      -1.577
      -0.577
       0.452
       1.312
       1.886
       2.147
       2.116
       1.828
       1.323
       0.670
      -0.021
      -0.608
      -0.968
      -1.045
      -0.866
      -0.515
      -0.064
       0.478
       1.180
       2.142
       3.412
       4.930
       6.541
       8.063
       9.356
      10.335
      10.937
      11.080
      10.656
       9.590
       7.918
       5.830
       3.638
       1.655
       0.069
      -1.121
      -2.061
      -2.918
      -3.762
      -4.539
      -5.132
      -5.471
      -5.594
      -5.626
      -5.691
      -5.830
      -5.971
      -5.975
      -5.701
      -5.063
      -4.049
      -2.717
      -1.182
       0.401
       1.851
       2.982
       3.644
       3.767
       3.389
       2.625
       1.627
       0.529
      -0.562
      -1.560
      -2.384
      -2.967
      -3.282
      -3.360
      -3.282
      -3.137
      -2.956
      -2.702
      -2.295
      -1.674
      -0.849
       0.090
       0.997
       1.723
       2.164
       2.293
       2.160
       1.859
       1.493
       1.141
       0.828
       0.518
       0.135
      -0.400
      -1.126
      -2.020
      -2.996
      -3.945
      -4.788
      -5.503
      -6.109
      -6.612
      -6.981
      -7.158
      -7.093
      -6.775
      -6.243
      -5.574
      -4.854
      -4.155
      -3.516
      -2.923
      -2.308
      -1.559
      -0.581
       0.648
       2.049
       3.469
       4.754
       5.807
       6.606
       7.170
       7.504
       7.590
       7.421
       7.063
       6.667
       6.409
       6.406
       6.655
       7.049
       7.453
       7.788
       8.051
       8.269
       8.440
       8.508
       8.403
       8.098
       7.623
       7.030
       6.354
       5.598
       4.773
       3.932
       3.165
       2.554
       2.129
       1.858
       1.678
       1.537
       1.420
       1.364
       1.430
       1.669
       2.081
       2.610
       3.168
       3.643
       3.916
       3.859
       3.366
       2.378
       0.912
      -0.939
      -3.029
      -5.190
      -7.267
      -9.115
     -10.605
     -11.626
     -12.111
     -12.045
     -11.469
     -10.470
      -9.173
      -7.722
      -6.240
      -4.802
      -3.404
      -1.989
      -0.490
       1.109
       2.740
       4.268
       5.522
       6.343
       6.613
       6.295
       5.466
       4.325
       3.138
       2.158
       1.547
       1.330
       1.416
       1.639
       1.829
       1.864
       1.712
       1.436
       1.160
       0.987
       0.932
       0.919
       0.849
       0.673
       0.418
       0.143
      -0.118
      -0.394
      -0.754
      -1.260
      -1.921
      -2.678
      -3.419
      -4.022
      -4.388
      -4.481
      -4.341
      -4.064
      -3.741
      -3.408
      -3.038
      -2.576
      -2.004
      -1.375
      -0.796
      -0.379
      -0.187
      -0.214
      -0.395
      -0.630
      -0.809
      -0.848
      -0.721
      -0.475
      -0.197
       0.025
       0.130
       0.071
      -0.199
      -0.732
      -1.556
      -2.639
      -3.880
      -5.141
      -6.321
      -7.390
      -8.376
      -9.295
     -10.093
     -10.635
     -10.772
     -10.408
      -9.540
      -8.225
      -6.524
      -4.482
      -2.155
       0.336
       2.802
       5.022
       6.811
       8.066
       8.777
       9.005
       8.835
       8.344
       7.584
       6.600
       5.447
       4.200
       2.932
       1.686
       0.466
      -0.745
      -1.945
      -3.084
      -4.070
      -4.800
      -5.190
      -5.212
      -4.903
      -4.354
      -3.680
      -2.986
      -2.351
      -1.806
      -1.321
      -0.822
      -0.260
       0.323
       0.778
       0.924
       0.653
      -0.010
      -0.931
      -1.946
      -2.933
      -3.839
      -4.660
      -5.400
      -6.054
      -6.616
      -7.085
      -7.462
      -7.747
      -7.940
      -8.027
      -7.983
      -7.762
      -7.296
      -6.495
      -5.272
      -3.595
      -1.547
       0.673
       2.810
       4.644
       6.067
       7.086
       7.775
       8.212
       8.437
       8.464
       8.310
       8.000
       7.543
       6.911
       6.055
       4.960
       3.687
       2.380
       1.213
       0.329
      -0.207
      -0.397
      -0.273
       0.142
       0.831
       1.762
       2.876
       4.097
       5.352
       6.592
       7.772
       8.842
       9.740
      10.417
      10.867
      11.116
      11.195
      11.114
      10.880
      10.531
      10.153
       9.845
       9.669
       9.607
       9.574
       9.475
       9.252
       8.903
       8.441
       7.865
       7.154
       6.285
       5.270
       4.167
       3.078
       2.125
       1.412
       0.988
       0.837
       0.878
       0.977
       0.988
       0.792
       0.338
      -0.336
      -1.113
      -1.838
      -2.359
      -2.565
      -2.405
      -1.889
      -1.089
      -0.130
       0.827
       1.625
       2.142
       2.304
       2.089
       1.520
       0.666
      -0.349
      -1.356
      -2.170
      -2.641
      -2.711
      -2.434
      -1.959
      -1.458
      -1.036
      -0.689
      -0.318
       0.204
       0.932
       1.797
       2.625
       3.227
       3.500
       3.478
       3.297
       3.110
       3.012
       3.034
       3.186
       3.504
       4.035
       4.777
       5.626
       6.391
       6.866
       6.915
       6.528
       5.805
       4.901
       3.968
       3.117
       2.417
       1.912
       1.632
       1.592
       1.796
       2.234
       2.899
       3.788
       4.891
       6.161
       7.487
       8.701
       9.615
      10.078
      10.031
       9.517
       8.659
       7.602
       6.478
       5.388
       4.391
       3.502
       2.691
       1.901
       1.081
       0.202
      -0.741
      -1.741
      -2.781
      -3.823
      -4.796
      -5.595
      -6.105
      -6.256
      -6.053
      -5.574
      -4.915
      -4.160
      -3.365
      -2.578
      -1.843
      -1.180
      -0.571
       0.033
       0.661
       1.282
       1.805
       2.147
       2.298
       2.345
       2.413
       2.594
       2.899
       3.273
       3.662
       4.051
       4.463
       4.906
       5.339
       5.682
       5.864
       5.854
       5.654
       5.264
       4.678
       3.896
       2.964
       1.984
       1.092
       0.410
       0.002
      -0.133
      -0.029
       0.287
       0.795
       1.474
       2.276
       3.129
       3.948
       4.650
       5.173
       5.475
       5.536
       5.355
       4.945
       4.337
       3.563
       2.656
       1.657
       0.623
      -0.376
      -1.275
      -2.039
      -2.675
      -3.213
      -3.686
      -4.107
      -4.466
      -4.742
      -4.921
      -4.998
      -4.971
      -4.847
      -4.642
      -4.380
      -4.079
      -3.737
      -3.341
      -2.881
      -2.358
      -1.785
      -1.172
      -0.529
       0.126
       0.747
       1.264
       1.615
       1.781
       1.784
       1.641
       1.340
       0.840
       0.105
      -0.869
      -2.060
      -3.447
      -5.022
      -6.770
      -8.630
     -10.478
     -12.159
     -13.531
     -14.493
     -14.982
     -14.969
     -14.476
     -13.591
     -12.471
     -11.305
     -10.261
      -9.438
      -8.857
      -8.474
      -8.217
      -8.007
      -7.782
      -7.515
      -7.218
      -6.926
      -6.662
      -6.422
      -6.171
      -5.856
      -5.415
      -4.793
      -3.957
      -2.920
      -1.744
      -0.523
       0.639
       1.670
       2.533
       3.199
       3.616
       3.706
       3.402
       2.689
       1.618
       0.286
      -1.190
      -2.689
      -4.105
      -5.361
      -6.426
      -7.307
      -8.018
      -8.556
      -8.874
      -8.912
      -8.635
      -8.070
      -7.306
      -6.464
      -5.646
      -4.923
      -4.325
      -3.859
      -3.509
      -3.229
      -2.946
      -2.573
      -2.028
      -1.258
      -0.259
       0.914
       2.147
       3.306
       4.291
       5.068
       5.664
       6.124
       6.456
       6.611
       6.506
       6.082
       5.365
       4.462
       3.526
       2.696
       2.084
       1.782
       1.875
       2.434
       3.486
       4.970
       6.725
       8.524
      10.145
      11.447
      12.393
      13.014
      13.369
      13.505
      13.458
      13.261
      12.958
      12.591
      12.193
      11.780
      11.367
      10.994
      10.718
      10.584
      10.594
      10.711
      10.899
      11.159
      11.530
      12.040
      12.654
      13.252
      13.666
      13.750
      13.432
      12.736
      11.755
      10.600
       9.338
       7.965
       6.421
       4.633
       2.560
       0.228
      -2.257
      -4.708
      -6.901
      -8.635
      -9.804
     -10.426
     -10.623
     -10.551
     -10.332
     -10.034
      -9.692
      -9.344
      -9.033
      -8.785
      -8.582
      -8.358
      -8.039
      -7.583
      -7.000
      -6.340
      -5.658
      -4.992
      -4.374
      -3.839
      -3.427
      -3.150
      -2.964
      -2.785
      -2.537
      -2.198
      -1.810
      -1.433
      -1.071
      -0.665
      -0.135
       0.530
       1.249
       1.892
       2.363
       2.665
       2.889
       3.153
       3.524
       3.986
       4.460
       4.847
       5.071
       5.087
       4.880
       4.462
       3.867
       3.143
       2.345
       1.526
       0.732
       0.002
      -0.633
      -1.148
      -1.531
      -1.793
      -1.975
      -2.143
      -2.372
      -2.722
      -3.217
      -3.832
      -4.502
      -5.146
      -5.689
      -6.083
      -6.323
      -6.454
      -6.569
      -6.788
      -7.224
      -7.941
      -8.926
     -10.094
     -11.318
     -12.490
     -13.557
     -14.520
     -15.420
     -16.306
     -17.216
     -18.155
     -19.092
     -19.967
     -20.699
     -21.198
     -21.396
     -21.247
     -20.735
     -19.844
     -18.559
     -16.875
     -14.831
     -12.522
     -10.091
      -7.699
      -5.489
      -3.562
      -1.981
      -0.787
      -0.016
       0.315
       0.222
      -0.238
      -0.989
      -1.950
      -3.051
      -4.217
      -5.346
      -6.305
      -6.958
      -7.222
      -7.104
      -6.679
      -6.029
      -5.199
      -4.194
      -3.019
      -1.717
      -0.378
       0.885
       1.976
       2.839
       3.470
       3.912
       4.251
       4.605
       5.090
       5.793
       6.748
       7.939
       9.325
      10.865
      12.538
      14.333
      16.222
      18.133
      19.940
      21.492
      22.642
      23.271
      23.297
      22.690
      21.484
      19.798
      17.832
      15.823
      13.984
      12.451
      11.265
      10.390
       9.745
       9.237
       8.790
       8.349
       7.869
       7.302
       6.598
       5.724
       4.673
       3.463
       2.127
       0.701
      -0.801
      -2.391
      -4.105
      -5.965
      -7.940
      -9.924
     -11.741
     -13.189
     -14.106
     -14.423
     -14.183
     -13.515
     -12.575
     -11.509
     -10.434
      -9.436
      -8.581
      -7.920
      -7.487
      -7.301
      -7.347
      -7.572
      -7.884
      -8.172
      -8.340
      -8.335
      -8.139
      -7.757
      -7.198
      -6.469
      -5.559
      -4.458
      -3.190
      -1.842
      -0.557
       0.503
       1.214
       1.516
       1.414
       0.964
       0.255
      -0.580
      -1.361
      -1.883
      -1.972
      -1.545
      -0.628
       0.668
       2.208
       3.882
       5.626
       7.395
       9.124
      10.702
      11.989
      12.853
      13.204
      12.996
      12.229
      10.932
       9.151
       6.936
       4.360
       1.541
      -1.351
      -4.114
      -6.570
      -8.596
     -10.129
     -11.134
     -11.579
     -11.431
     -10.685
      -9.407
      -7.762
      -6.005
      -4.422
      -3.254
      -2.632
      -2.560
      -2.955
      -3.708
      -4.739
      -5.996
      -7.430
      -8.961
     -10.478
     -11.864
     -13.030
     -13.916
     -14.471
     -14.631
     -14.319
     -13.473
     -12.076
     -10.158
      -7.777
      -5.016
      -1.991
       1.139
       4.189
       6.986
       9.399
      11.337
      12.741
      13.564
      13.789
      13.450
      12.652
      11.532
      10.215
       8.789
       7.316
       5.866
       4.527
       3.380
       2.464
       1.768
       1.254
       0.896
       0.710
       0.738
       1.011
       1.513
       2.169
       2.868
       3.512
       4.046
       4.470
       4.807
       5.069
       5.252
       5.332
       5.274
       5.036
       4.587
       3.924
       3.083
       2.133
       1.181
       0.367
      -0.150
      -0.236
       0.171
       1.022
       2.167
       3.409
       4.585
       5.615
       6.509
       7.318
       8.094
       8.854
       9.582
      10.241
      10.804
      11.276
      11.681
      12.037
      12.317
      12.462
      12.413
      12.154
      11.708
      11.115
      10.390
       9.531
       8.559
       7.553
       6.614
       5.793
       5.043
       4.240
       3.254
       2.000
       0.447
      -1.386
      -3.429
      -5.546
      -7.560
      -9.307
     -10.702
     -11.758
     -12.555
     -13.176
     -13.668
     -14.034
     -14.242
     -14.233
     -13.945
     -13.328
     -12.361
     -11.047
      -9.406
      -7.475
      -5.330
      -3.128
      -1.113
       0.458
       1.420
       1.773
       1.639
       1.169
       0.472
      -0.388
      -1.352
      -2.333
      -3.232
      -3.977
      -4.541
      -4.938
      -5.191
      -5.319
      -5.351
      -5.332
      -5.315
      -5.338
      -5.407
      -5.480
      -5.458
      -5.208
      -4.608
      -3.610
      -2.268
      -0.720
       0.874
       2.389
       3.761
       4.985
       6.090
       7.131
       8.156
       9.178
      10.123
      10.839
      11.149
      10.963
      10.328
       9.412
       8.406
       7.456
       6.636
       5.978
       5.508
       5.234
       5.103
       4.991
       4.760
       4.350
       3.822
       3.295
       2.846
       2.457
       2.060
       1.627
       1.221
       0.958
       0.900
       0.990
       1.088
       1.071
       0.906
       0.636
       0.313
      -0.046
      -0.433
      -0.802
      -1.060
      -1.128
      -1.022
      -0.866
      -0.801
      -0.878
      -1.022
      -1.123
      -1.152
      -1.196
      -1.383
      -1.776
      -2.325
      -2.923
      -3.502
      -4.092
      -4.778
      -5.617
      -6.571
      -7.535
      -8.408
      -9.144
      -9.740
     -10.175
     -10.394
     -10.320
      -9.917
      -9.221
      -8.336
      -7.379
      -6.427
      -5.491
      -4.532
      -3.487
      -2.316
      -1.024
       0.314
       1.560
       2.554
       3.169
       3.359
       3.175
       2.755
       2.272
       1.886
       1.685
       1.663
       1.717
       1.682
       1.405
       0.812
      -0.057
      -1.089
      -2.167
      -3.235
      -4.302
      -5.393
      -6.480
      -7.459
      -8.193
      -8.592
      -8.650
      -8.423
      -7.979
      -7.361
      -6.597
      -5.712
      -4.727
      -3.646
      -2.444
      -1.093
       0.401
       1.971
       3.519
       4.956
       6.231
       7.327
       8.248
       9.000
       9.586
       9.988
      10.155
       9.997
       9.411
       8.337
       6.814
       4.996
       3.099
       1.316
      -0.248
      -1.595
      -2.778
      -3.845
      -4.799
      -5.605
      -6.231
      -6.678
      -6.988
      -7.215
      -7.407
      -7.595
      -7.795
      -8.000
      -8.174
      -8.256
      -8.191
      -7.949
      -7.540
      -7.001
      -6.382
      -5.729
      -5.095
      -4.538
      -4.097
      -3.759
      -3.450
      -3.078
      -2.585
      -1.987
      -1.360
      -0.809
      -0.431
      -0.281
      -0.366
      -0.636
      -0.985
      -1.260
      -1.300
      -0.987
      -0.297
       0.697
       1.856
       3.028
       4.092
       4.977
       5.663
       6.168
       6.538
       6.829
       7.098
       7.377
       7.670
       7.960
       8.226
       8.446
       8.607
       8.712
       8.784
       8.843
       8.893
       8.919
       8.914
       8.898
       8.923
       9.055
