Origin Time       1/5/2013 06:57:12	 
Lat.              33.1 N	
Long.             75.8 E	
Depth (Km)         15.0
Magnitude         5.8
 Region           JK-HP-Border                                                     
 Above details taken from IMD 
     
Station Code      MND
Station Lat.       31.701  N
Station Long.      76.933  E
Station Height(m)  786.7
Site Class        B   Vs30 between 375 m/sec to 700 m/sec *  
Record Time       01.05.2013 06:57:41.054
Sampling Rate     200. Hz
 Record Duration   91.910 Sec.
 Direction         E-W (E positive)
Max. Acceleration     -4.600 cm/sec**2
     
  * For reference see Site Classification link of website 
     
 Base Line Corrected and Low Pass Filtered (Cut Off at 35 Hz) Time History
 Acceleration data in cm/sec**2
    
[...]
       0.180
       0.113
       0.048
      -0.011
      -0.073
      -0.151
      -0.246
      -0.353
      -0.452
      -0.517
      -0.523
      -0.466
      -0.359
      -0.228
      -0.115
      -0.047
      -0.028
      -0.026
      -0.009
       0.035
       0.101
       0.178
       0.259
       0.339
       0.421
       0.518
       0.641
       0.782
       0.907
       0.982
       0.978
       0.883
       0.701
       0.457
       0.189
      -0.058
      -0.248
      -0.359
      -0.393
      -0.373
      -0.328
      -0.269
      -0.198
      -0.118
      -0.045
       0.008
       0.035
       0.034
       0.007
      -0.033
      -0.068
      -0.088
      -0.098
      -0.104
      -0.100
      -0.077
      -0.036
       0.016
       0.072
       0.121
       0.158
       0.187
       0.213
       0.231
       0.217
       0.156
       0.056
      -0.053
      -0.143
      -0.197
      -0.209
      -0.185
      -0.144
      -0.107
      -0.082
      -0.057
      -0.021
       0.027
       0.071
       0.094
       0.075
       0.011
      -0.076
      -0.146
      -0.170
      -0.155
      -0.129
      -0.114
      -0.121
      -0.144
      -0.166
      -0.166
      -0.134
      -0.081
      -0.023
       0.023
       0.047
       0.036
      -0.017
      -0.102
      -0.189
      -0.249
      -0.260
      -0.215
      -0.121
      -0.003
       0.109
       0.201
       0.279
       0.356
       0.445
       0.547
       0.656
       0.749
       0.792
       0.765
       0.666
       0.515
       0.346
       0.199
       0.108
       0.083
       0.101
       0.126
       0.137
       0.127
       0.110
       0.105
       0.130
       0.178
       0.222
       0.230
       0.193
       0.124
       0.045
      -0.028
      -0.081
      -0.117
      -0.145
      -0.173
      -0.198
      -0.214
      -0.227
      -0.246
      -0.273
      -0.292
      -0.300
      -0.306
      -0.325
      -0.367
      -0.430
      -0.503
      -0.576
      -0.646
      -0.718
      -0.793
      -0.855
      -0.879
      -0.853
      -0.782
      -0.683
      -0.566
      -0.437
      -0.310
      -0.201
      -0.119
      -0.061
      -0.019
       0.019
       0.075
       0.159
       0.270
       0.393
       0.517
       0.640
       0.764
       0.891
       1.021
       1.144
       1.245
       1.305
       1.324
       1.310
       1.272
       1.212
       1.123
       0.997
       0.829
       0.637
       0.456
       0.323
       0.250
       0.217
       0.192
       0.156
       0.106
       0.057
       0.025
       0.017
       0.020
       0.012
      -0.016
      -0.051
      -0.080
      -0.101
      -0.121
      -0.143
      -0.162
      -0.170
      -0.163
      -0.144
      -0.132
      -0.158
      -0.239
      -0.357
      -0.474
      -0.556
      -0.596
      -0.613
      -0.635
      -0.681
      -0.748
      -0.811
      -0.847
      -0.864
      -0.888
      -0.936
      -1.006
      -1.083
      -1.150
      -1.200
      -1.235
      -1.266
      -1.310
      -1.366
      -1.418
      -1.444
      -1.432
      -1.373
      -1.264
      -1.117
      -0.957
      -0.800
      -0.650
      -0.502
      -0.363
      -0.244
      -0.145
      -0.049
       0.076
       0.260
       0.512
       0.811
       1.107
       1.353
       1.526
       1.623
       1.649
       1.610
       1.526
       1.422
       1.320
       1.228
       1.150
       1.090
       1.047
       1.015
       0.991
       0.972
       0.940
       0.864
       0.724
       0.536
       0.333
       0.146
      -0.015
      -0.159
      -0.301
      -0.447
      -0.582
      -0.682
      -0.730
      -0.731
      -0.702
      -0.652
      -0.587
      -0.515
      -0.452
      -0.414
      -0.411
      -0.451
      -0.531
      -0.634
      -0.734
      -0.823
      -0.906
      -0.986
      -1.045
      -1.050
      -0.982
      -0.848
      -0.687
      -0.554
      -0.484
      -0.476
      -0.493
      -0.503
      -0.500
      -0.495
      -0.494
      -0.489
      -0.467
      -0.414
      -0.321
      -0.189
      -0.029
       0.156
       0.371
       0.622
       0.896
       1.163
       1.392
       1.561
       1.656
       1.676
       1.631
       1.538
       1.414
       1.275
       1.145
       1.044
       0.975
       0.925
       0.882
       0.846
       0.819
       0.797
       0.773
       0.734
       0.667
       0.559
       0.404
       0.206
      -0.022
      -0.258
      -0.474
      -0.644
      -0.756
      -0.816
      -0.835
      -0.824
      -0.795
      -0.764
      -0.745
      -0.738
      -0.738
      -0.737
      -0.721
      -0.671
      -0.571
      -0.420
      -0.230
      -0.023
       0.175
       0.328
       0.408
       0.414
       0.372
       0.312
       0.258
       0.229
       0.236
       0.284
       0.375
       0.502
       0.645
       0.777
       0.870
       0.908
       0.892
       0.823
       0.702
       0.542
       0.367
       0.202
       0.064
      -0.039
      -0.105
      -0.139
      -0.155
      -0.165
      -0.176
      -0.192
      -0.223
      -0.282
      -0.372
      -0.483
      -0.601
      -0.716
      -0.830
      -0.946
      -1.071
      -1.190
      -1.272
      -1.285
      -1.214
      -1.064
      -0.852
      -0.598
      -0.317
      -0.025
       0.269
       0.553
       0.803
       0.991
       1.099
       1.131
       1.098
       1.006
       0.861
       0.684
       0.502
       0.343
       0.221
       0.133
       0.050
      -0.064
      -0.230
      -0.435
      -0.647
      -0.832
      -0.975
      -1.069
      -1.114
      -1.108
      -1.052
      -0.944
      -0.792
      -0.617
      -0.446
      -0.302
      -0.192
      -0.125
      -0.110
      -0.150
      -0.234
      -0.341
      -0.440
      -0.509
      -0.540
      -0.550
      -0.571
      -0.620
      -0.685
      -0.729
      -0.727
      -0.672
      -0.578
      -0.463
      -0.337
      -0.199
      -0.037
       0.154
       0.368
       0.585
       0.782
       0.933
       1.013
       1.010
       0.927
       0.779
       0.578
       0.341
       0.091
      -0.145
      -0.356
      -0.548
      -0.734
      -0.920
      -1.102
      -1.272
      -1.414
      -1.506
      -1.540
      -1.520
      -1.459
      -1.373
      -1.284
      -1.220
      -1.202
      -1.230
      -1.288
      -1.345
      -1.365
      -1.321
      -1.206
      -1.037
      -0.840
      -0.634
      -0.430
      -0.241
      -0.080
       0.042
       0.123
       0.168
       0.194
       0.225
       0.286
       0.384
       0.508
       0.636
       0.753
       0.856
       0.951
       1.046
       1.143
       1.243
       1.347
       1.462
       1.589
       1.721
       1.845
       1.954
       2.064
       2.188
       2.320
       2.430
       2.485
       2.469
       2.381
       2.234
       2.040
       1.804
       1.518
       1.180
       0.812
       0.460
       0.168
      -0.037
      -0.155
      -0.216
      -0.259
      -0.306
      -0.353
      -0.385
      -0.402
      -0.423
      -0.472
      -0.566
      -0.708
      -0.888
      -1.082
      -1.272
      -1.454
      -1.632
      -1.796
      -1.913
      -1.943
      -1.864
      -1.677
      -1.405
      -1.079
      -0.733
      -0.392
      -0.072
       0.217
       0.463
       0.659
       0.806
       0.912
       0.985
       1.021
       1.011
       0.948
       0.831
       0.673
       0.501
       0.350
       0.239
       0.166
       0.125
       0.119
       0.161
       0.265
       0.433
       0.642
       0.853
       1.030
       1.159
       1.243
       1.284
       1.280
       1.233
       1.167
       1.107
       1.068
       1.045
       1.026
       1.004
       0.971
       0.916
       0.826
       0.692
       0.499
       0.238
      -0.075
      -0.402
      -0.696
      -0.926
      -1.083
      -1.180
      -1.249
      -1.320
      -1.410
      -1.513
      -1.616
      -1.704
      -1.767
      -1.796
      -1.785
      -1.736
      -1.660
      -1.558
      -1.420
      -1.231
      -0.980
      -0.670
      -0.327
       0.009
       0.310
       0.565
       0.783
       0.984
       1.201
       1.465
       1.785
       2.130
       2.441
       2.656
       2.733
       2.659
       2.454
       2.164
       1.837
       1.511
       1.200
       0.906
       0.628
       0.374
       0.151
      -0.029
      -0.167
      -0.278
      -0.390
      -0.525
      -0.679
      -0.829
      -0.958
      -1.069
      -1.191
      -1.361
      -1.602
      -1.901
      -2.216
      -2.502
      -2.735
      -2.902
      -2.991
      -2.991
      -2.893
      -2.695
      -2.408
      -2.052
      -1.664
      -1.287
      -0.957
      -0.690
      -0.477
      -0.283
      -0.060
       0.233
       0.611
       1.063
       1.564
       2.087
       2.602
       3.083
       3.513
       3.882
       4.173
       4.357
       4.406
       4.301
       4.041
       3.646
       3.152
       2.598
       2.019
       1.442
       0.895
       0.400
      -0.038
      -0.438
      -0.837
      -1.264
      -1.722
      -2.182
      -2.590
      -2.896
      -3.085
      -3.174
      -3.195
      -3.168
      -3.104
      -3.021
      -2.941
      -2.888
      -2.884
      -2.943
      -3.060
      -3.206
      -3.346
      -3.453
      -3.511
      -3.501
      -3.395
      -3.176
      -2.840
      -2.394
      -1.860
      -1.269
      -0.645
       0.002
       0.676
       1.370
       2.057
       2.683
       3.191
       3.530
       3.686
       3.687
       3.599
       3.488
       3.395
       3.335
       3.310
       3.310
       3.319
       3.310
       3.246
       3.092
       2.836
       2.498
       2.124
       1.756
       1.411
       1.094
       0.807
       0.550
       0.314
       0.094
      -0.096
      -0.234
      -0.311
      -0.352
      -0.404
      -0.516
      -0.719
      -1.010
      -1.351
      -1.689
      -1.980
      -2.201
      -2.338
      -2.377
      -2.303
      -2.111
      -1.822
      -1.478
      -1.139
      -0.856
      -0.653
      -0.525
      -0.459
      -0.450
      -0.491
      -0.565
      -0.652
      -0.742
      -0.851
      -0.998
      -1.195
      -1.435
      -1.687
      -1.905
      -2.038
      -2.044
      -1.898
      -1.597
      -1.158
      -0.623
      -0.053
       0.498
       1.003
       1.450
       1.833
       2.143
       2.379
       2.556
       2.698
       2.819
       2.920
       2.983
       2.980
       2.897
       2.745
       2.543
       2.307
       2.044
       1.758
       1.452
       1.131
       0.798
       0.455
       0.099
      -0.283
      -0.692
      -1.118
      -1.540
      -1.939
      -2.289
      -2.557
      -2.702
      -2.694
      -2.525
      -2.213
      -1.798
      -1.335
      -0.881
      -0.467
      -0.093
       0.265
       0.634
       1.035
       1.460
       1.874
       2.233
       2.505
       2.674
       2.727
       2.650
       2.436
       2.102
       1.681
       1.215
       0.742
       0.293
      -0.120
      -0.504
      -0.878
      -1.256
      -1.647
      -2.046
      -2.429
      -2.755
      -2.982
      -3.080
      -3.035
      -2.844
      -2.525
      -2.111
      -1.645
      -1.173
      -0.739
      -0.388
      -0.158
      -0.068
      -0.104
      -0.228
      -0.384
      -0.517
      -0.583
      -0.571
      -0.500
      -0.406
      -0.320
      -0.256
      -0.218
      -0.196
      -0.173
      -0.117
       0.008
       0.224
       0.529
       0.890
       1.266
       1.629
       1.964
       2.252
       2.456
       2.530
       2.437
       2.158
       1.703
       1.119
       0.479
      -0.144
      -0.702
      -1.167
      -1.513
      -1.703
      -1.713
      -1.551
      -1.269
      -0.940
      -0.637
      -0.406
      -0.256
      -0.169
      -0.118
      -0.090
      -0.076
      -0.064
      -0.044
      -0.013
       0.033
       0.099
       0.181
       0.257
       0.288
       0.250
       0.148
       0.026
      -0.048
      -0.011
       0.165
       0.470
       0.863
       1.297
       1.720
       2.091
       2.388
       2.601
       2.729
       2.764
       2.710
       2.585
       2.430
       2.275
       2.133
       2.003
       1.889
       1.796
       1.722
       1.649
       1.539
       1.327
       0.948
       0.364
      -0.400
      -1.258
      -2.101
      -2.835
      -3.407
      -3.816
      -4.092
      -4.260
      -4.313
      -4.221
      -3.956
      -3.510
      -2.907
      -2.213
      -1.527
      -0.950
      -0.554
      -0.350
      -0.300
      -0.342
      -0.417
      -0.487
      -0.531
      -0.534
      -0.476
      -0.334
      -0.096
       0.241
       0.669
       1.167
       1.700
       2.225
       2.705
       3.111
       3.421
       3.618
       3.692
       3.631
       3.413
       3.023
       2.472
       1.806
       1.092
       0.385
      -0.278
      -0.864
      -1.335
      -1.635
      -1.708
      -1.515
      -1.070
      -0.444
       0.250
       0.896
       1.403
       1.716
       1.824
       1.747
       1.520
       1.180
       0.757
       0.287
      -0.196
      -0.666
      -1.114
      -1.541
      -1.961
      -2.394
      -2.852
      -3.325
      -3.772
      -4.148
      -4.417
      -4.566
      -4.600
      -4.546
      -4.444
      -4.325
      -4.186
      -3.992
      -3.701
      -3.279
      -2.725
      -2.073
      -1.385
      -0.721
      -0.115
       0.424
       0.902
       1.325
       1.694
       2.005
       2.251
       2.430
       2.543
       2.599
       2.599
       2.544
       2.441
       2.303
       2.146
       1.987
       1.843
       1.738
       1.687
       1.692
       1.737
       1.791
       1.811
       1.764
       1.627
       1.390
       1.053
       0.640
       0.199
      -0.201
      -0.494
      -0.629
      -0.582
      -0.364
      -0.031
       0.331
       0.637
       0.833
       0.909
       0.880
       0.771
       0.605
       0.394
       0.152
      -0.102
      -0.345
      -0.561
      -0.738
      -0.861
      -0.919
      -0.918
      -0.896
      -0.895
      -0.935
      -0.998
      -1.050
      -1.064
      -1.033
      -0.967
      -0.882
      -0.782
      -0.671
      -0.558
      -0.450
      -0.346
      -0.223
      -0.062
       0.137
       0.364
       0.610
       0.867
       1.114
       1.318
       1.453
       1.514
       1.496
       1.382
       1.153
       0.806
       0.362
      -0.138
      -0.646
      -1.114
      -1.513
      -1.827
      -2.035
      -2.097
      -1.979
      -1.675
      -1.221
      -0.682
      -0.135
       0.347
       0.725
       1.001
       1.195
       1.317
       1.373
       1.387
       1.397
       1.443
       1.542
       1.677
       1.798
       1.844
       1.759
       1.517
       1.121
       0.603
       0.023
      -0.547
      -1.047
      -1.451
      -1.759
      -1.982
      -2.128
      -2.211
      -2.243
      -2.221
      -2.128
      -1.943
      -1.660
      -1.272
      -0.772
      -0.161
       0.526
       1.217
       1.839
       2.348
       2.736
       3.010
       3.172
       3.219
       3.152
       2.984
       2.735
       2.419
       2.042
       1.615
       1.176
       0.772
       0.439
       0.183
      -0.011
      -0.173
      -0.343
      -0.560
      -0.846
      -1.191
      -1.565
      -1.944
      -2.306
      -2.627
      -2.884
      -3.069
      -3.189
      -3.262
      -3.310
      -3.352
      -3.383
      -3.378
      -3.303
      -3.117
      -2.775
      -2.251
      -1.568
      -0.803
      -0.050
       0.621
       1.179
       1.606
       1.892
       2.041
       2.079
       2.042
       1.963
       1.867
       1.780
       1.728
       1.735
       1.808
       1.923
       2.024
       2.043
       1.944
       1.736
       1.466
       1.179
       0.913
       0.683
       0.492
       0.341
       0.240
       0.208
       0.258
       0.380
       0.539
       0.685
       0.773
       0.770
       0.664
       0.465
       0.193
      -0.131
      -0.487
      -0.846
      -1.181
      -1.474
      -1.728
      -1.959
      -2.193
      -2.454
      -2.748
      -3.061
      -3.368
      -3.654
      -3.910
      -4.103
      -4.177
      -4.080
      -3.802
      -3.364
      -2.809
      -2.184
      -1.542
      -0.940
      -0.429
      -0.053
       0.158
       0.195
       0.082
      -0.122
      -0.338
      -0.488
      -0.514
      -0.384
      -0.114
       0.248
       0.637
       1.003
       1.321
       1.580
       1.762
       1.841
       1.786
       1.599
       1.326
       1.044
       0.825
       0.716
       0.735
       0.889
       1.168
       1.547
       1.992
       2.462
       2.908
       3.271
       3.506
       3.588
       3.514
       3.291
       2.939
       2.495
       1.996
       1.464
       0.902
       0.309
      -0.293
      -0.863
      -1.362
      -1.774
      -2.101
      -2.338
      -2.458
      -2.429
      -2.241
      -1.927
      -1.540
      -1.123
      -0.694
      -0.256
       0.176
       0.568
       0.868
       1.034
       1.059
       0.987
       0.882
       0.791
       0.718
       0.647
       0.570
       0.503
       0.479
       0.529
       0.665
       0.870
       1.108
       1.340
       1.543
       1.701
       1.796
       1.811
       1.735
       1.568
       1.324
       1.029
       0.717
       0.420
       0.162
      -0.049
      -0.216
      -0.351
      -0.471
      -0.584
      -0.689
      -0.787
      -0.887
      -0.989
      -1.068
      -1.081
      -1.005
      -0.864
      -0.711
      -0.584
      -0.490
      -0.407
      -0.307
      -0.174
      -0.004
       0.206
       0.456
       0.731
       0.995
       1.202
       1.325
       1.364
       1.335
       1.244
       1.079
       0.825
       0.485
       0.085
      -0.340
      -0.762
      -1.175
      -1.587
      -2.004
      -2.417
      -2.791
      -3.071
      -3.190
      -3.093
      -2.758
      -2.216
      -1.539
      -0.814
      -0.125
       0.458
       0.890
       1.162
       1.287
       1.286
       1.188
       1.034
       0.873
       0.732
       0.598
       0.440
       0.244
       0.022
      -0.201
      -0.406
      -0.587
      -0.750
      -0.913
      -1.094
      -1.300
      -1.506
      -1.659
      -1.689
      -1.550
      -1.244
      -0.813
      -0.308
       0.231
       0.765
       1.245
       1.625
       1.879
       2.004
       2.003
       1.877
       1.643
       1.340
       1.022
       0.742
       0.545
       0.459
       0.488
       0.607
       0.782
       0.985
       1.197
       1.408
       1.618
       1.824
       2.019
       2.176
       2.257
       2.228
       2.078
       1.817
       1.471
       1.066
       0.631
       0.190
      -0.240
      -0.652
      -1.048
      -1.423
      -1.760
      -2.024
      -2.193
      -2.270
      -2.269
      -2.202
      -2.070
      -1.876
      -1.618
      -1.302
