Origin Time       1/5/2013 06:57:12	  UTC
Lat.              33.1 N	
Long.             75.8 E	
Depth (Km)         15.0
Magnitude         5.8
 Region           JK-HP-Border                                                     
 Above details taken from IMD 
    
Station Code      MND
Station Lat.       31.701  N
Station Long.      76.933  E
Station Height(m)  786.7
Site Class        B   Vs30 between 375 m/sec to 700 m/sec *  
Record Time       01.05.2013 06:57:41.054 UTC
Sampling Rate     200. Hz
 Record Duration   91.910 Sec.
 Direction         N-S (N positive)
Max. Acceleration     -6.484 cm/sec**2
     
  * For reference see Site Classification link of website 
     
 Base Line Corrected and Low Pass Filtered (Cut Off at 35 Hz) Time History
 Acceleration data in cm/sec**2
    
[...]
      -0.006
      -0.031
      -0.066
      -0.103
      -0.130
      -0.130
      -0.088
      -0.005
       0.099
       0.194
       0.260
       0.298
       0.323
       0.348
       0.370
       0.378
       0.370
       0.356
       0.350
       0.358
       0.374
       0.375
       0.343
       0.263
       0.137
      -0.024
      -0.202
      -0.375
      -0.521
      -0.617
      -0.648
      -0.607
      -0.503
      -0.360
      -0.217
      -0.107
      -0.039
       0.007
       0.059
       0.128
       0.203
       0.266
       0.313
       0.364
       0.435
       0.516
       0.569
       0.551
       0.451
       0.294
       0.120
      -0.046
      -0.198
      -0.334
      -0.446
      -0.518
      -0.540
      -0.516
      -0.461
      -0.393
      -0.323
      -0.254
      -0.186
      -0.122
      -0.069
      -0.027
       0.017
       0.071
       0.130
       0.185
       0.224
       0.240
       0.224
       0.178
       0.113
       0.058
       0.038
       0.067
       0.132
       0.205
       0.264
       0.304
       0.331
       0.337
       0.296
       0.179
      -0.014
      -0.241
      -0.431
      -0.523
      -0.498
      -0.382
      -0.224
      -0.076
       0.031
       0.086
       0.098
       0.088
       0.083
       0.095
       0.114
       0.109
       0.055
      -0.043
      -0.150
      -0.214
      -0.201
      -0.113
       0.021
       0.157
       0.264
       0.323
       0.329
       0.289
       0.217
       0.132
       0.052
      -0.010
      -0.046
      -0.057
      -0.054
      -0.057
      -0.083
      -0.133
      -0.198
      -0.264
      -0.322
      -0.368
      -0.403
      -0.421
      -0.409
      -0.349
      -0.240
      -0.100
       0.047
       0.189
       0.321
       0.427
       0.477
       0.444
       0.328
       0.162
      -0.005
      -0.132
      -0.208
      -0.249
      -0.275
      -0.291
      -0.282
      -0.236
      -0.158
      -0.072
      -0.009
       0.011
      -0.016
      -0.072
      -0.121
      -0.124
      -0.053
       0.100
       0.313
       0.537
       0.711
       0.783
       0.736
       0.593
       0.402
       0.223
       0.096
       0.030
       0.003
      -0.019
      -0.056
      -0.105
      -0.152
      -0.190
      -0.222
      -0.256
      -0.295
      -0.328
      -0.339
      -0.317
      -0.262
      -0.181
      -0.087
       0.007
       0.077
       0.103
       0.077
       0.014
      -0.057
      -0.109
      -0.118
      -0.075
       0.014
       0.126
       0.225
       0.275
       0.253
       0.162
       0.035
      -0.079
      -0.139
      -0.140
      -0.100
      -0.044
       0.017
       0.080
       0.139
       0.180
       0.182
       0.132
       0.036
      -0.082
      -0.196
      -0.289
      -0.353
      -0.381
      -0.361
      -0.288
      -0.175
      -0.050
       0.054
       0.119
       0.146
       0.152
       0.157
       0.175
       0.212
       0.262
       0.308
       0.323
       0.286
       0.190
       0.054
      -0.094
      -0.230
      -0.345
      -0.433
      -0.487
      -0.499
      -0.466
      -0.394
      -0.299
      -0.193
      -0.080
       0.039
       0.153
       0.239
       0.269
       0.228
       0.123
      -0.019
      -0.159
      -0.262
      -0.309
      -0.305
      -0.267
      -0.209
      -0.130
      -0.026
       0.103
       0.245
       0.388
       0.521
       0.631
       0.704
       0.726
       0.693
       0.607
       0.480
       0.324
       0.150
      -0.031
      -0.206
      -0.355
      -0.463
      -0.523
      -0.536
      -0.509
      -0.449
      -0.363
      -0.259
      -0.142
      -0.023
       0.080
       0.147
       0.170
       0.161
       0.140
       0.123
       0.117
       0.120
       0.129
       0.138
       0.137
       0.112
       0.053
      -0.037
      -0.140
      -0.234
      -0.302
      -0.337
      -0.338
      -0.309
      -0.252
      -0.179
      -0.096
      -0.006
       0.089
       0.183
       0.267
       0.334
       0.380
       0.405
       0.417
       0.423
       0.429
       0.431
       0.416
       0.368
       0.276
       0.132
      -0.049
      -0.236
      -0.384
      -0.462
      -0.460
      -0.395
      -0.299
      -0.206
      -0.136
      -0.085
      -0.035
       0.031
       0.111
       0.186
       0.236
       0.253
       0.241
       0.219
       0.204
       0.197
       0.179
       0.128
       0.033
      -0.090
      -0.206
      -0.280
      -0.292
      -0.243
      -0.149
      -0.035
       0.076
       0.166
       0.222
       0.245
       0.243
       0.230
       0.208
       0.175
       0.129
       0.075
       0.020
      -0.032
      -0.082
      -0.130
      -0.169
      -0.188
      -0.167
      -0.096
       0.021
       0.167
       0.316
       0.445
       0.522
       0.515
       0.409
       0.222
       0.001
      -0.194
      -0.315
      -0.335
      -0.264
      -0.143
      -0.024
       0.054
       0.074
       0.040
      -0.030
      -0.109
      -0.175
      -0.211
      -0.216
      -0.195
      -0.162
      -0.129
      -0.100
      -0.069
      -0.023
       0.045
       0.142
       0.264
       0.402
       0.536
       0.635
       0.677
       0.646
       0.539
       0.366
       0.143
      -0.109
      -0.376
      -0.643
      -0.888
      -1.076
      -1.176
      -1.172
      -1.068
      -0.888
      -0.663
      -0.433
      -0.236
      -0.097
      -0.022
       0.006
       0.013
       0.023
       0.043
       0.071
       0.101
       0.136
       0.183
       0.249
       0.331
       0.418
       0.498
       0.564
       0.621
       0.680
       0.741
       0.781
       0.771
       0.692
       0.551
       0.381
       0.215
       0.083
      -0.002
      -0.042
      -0.049
      -0.041
      -0.033
      -0.037
      -0.057
      -0.082
      -0.096
      -0.084
      -0.043
       0.009
       0.045
       0.048
       0.017
      -0.034
      -0.087
      -0.139
      -0.203
      -0.289
      -0.388
      -0.480
      -0.553
      -0.610
      -0.662
      -0.709
      -0.746
      -0.765
      -0.767
      -0.762
      -0.765
      -0.783
      -0.811
      -0.831
      -0.826
      -0.786
      -0.707
      -0.591
      -0.450
      -0.300
      -0.156
      -0.027
       0.085
       0.178
       0.251
       0.305
       0.349
       0.388
       0.417
       0.416
       0.372
       0.291
       0.202
       0.145
       0.143
       0.193
       0.274
       0.367
       0.462
       0.551
       0.624
       0.667
       0.672
       0.638
       0.575
       0.497
       0.423
       0.366
       0.329
       0.306
       0.283
       0.244
       0.186
       0.118
       0.054
      -0.001
      -0.048
      -0.092
      -0.133
      -0.171
      -0.210
      -0.259
      -0.326
      -0.411
      -0.500
      -0.570
      -0.601
      -0.586
      -0.533
      -0.458
      -0.371
      -0.280
      -0.197
      -0.136
      -0.108
      -0.115
      -0.148
      -0.193
      -0.238
      -0.269
      -0.281
      -0.272
      -0.238
      -0.172
      -0.066
       0.086
       0.280
       0.493
       0.688
       0.821
       0.861
       0.802
       0.668
       0.493
       0.309
       0.137
      -0.010
      -0.118
      -0.170
      -0.152
      -0.069
       0.055
       0.186
       0.287
       0.326
       0.277
       0.131
      -0.098
      -0.371
      -0.628
      -0.809
      -0.867
      -0.792
      -0.610
      -0.370
      -0.123
       0.092
       0.246
       0.313
       0.272
       0.117
      -0.134
      -0.440
      -0.738
      -0.966
      -1.080
      -1.065
      -0.927
      -0.690
      -0.394
      -0.088
       0.177
       0.364
       0.453
       0.445
       0.363
       0.239
       0.108
       0.002
      -0.058
      -0.054
       0.019
       0.147
       0.301
       0.445
       0.552
       0.610
       0.623
       0.604
       0.565
       0.515
       0.457
       0.396
       0.343
       0.306
       0.287
       0.277
       0.267
       0.252
       0.231
       0.199
       0.140
       0.033
      -0.134
      -0.346
      -0.572
      -0.776
      -0.941
      -1.066
      -1.152
      -1.196
      -1.187
      -1.117
      -0.987
      -0.815
      -0.625
      -0.431
      -0.225
       0.014
       0.300
       0.631
       0.984
       1.321
       1.600
       1.786
       1.860
       1.832
       1.722
       1.552
       1.340
       1.098
       0.842
       0.595
       0.378
       0.210
       0.100
       0.048
       0.046
       0.075
       0.102
       0.090
       0.019
      -0.093
      -0.200
      -0.248
      -0.200
      -0.049
       0.184
       0.453
       0.704
       0.880
       0.937
       0.862
       0.676
       0.430
       0.182
      -0.022
      -0.159
      -0.227
      -0.236
      -0.208
      -0.176
      -0.171
      -0.217
      -0.323
      -0.487
      -0.692
      -0.917
      -1.133
      -1.307
      -1.408
      -1.423
      -1.356
      -1.228
      -1.059
      -0.870
      -0.682
      -0.533
      -0.452
      -0.444
      -0.477
      -0.496
      -0.448
      -0.309
      -0.089
       0.180
       0.453
       0.691
       0.868
       0.976
       1.027
       1.039
       1.027
       1.002
       0.964
       0.908
       0.823
       0.692
       0.511
       0.302
       0.102
      -0.054
      -0.161
      -0.241
      -0.325
      -0.419
      -0.504
      -0.539
      -0.492
      -0.354
      -0.148
       0.087
       0.306
       0.468
       0.539
       0.505
       0.378
       0.195
       0.012
      -0.125
      -0.194
      -0.200
      -0.164
      -0.107
      -0.044
       0.016
       0.063
       0.093
       0.108
       0.110
       0.095
       0.057
      -0.004
      -0.085
      -0.181
      -0.285
      -0.378
      -0.421
      -0.375
      -0.226
       0.008
       0.285
       0.568
       0.834
       1.075
       1.277
       1.415
       1.458
       1.393
       1.231
       1.008
       0.765
       0.545
       0.378
       0.279
       0.241
       0.240
       0.240
       0.197
       0.074
      -0.144
      -0.437
      -0.770
      -1.106
      -1.429
      -1.737
      -2.015
      -2.235
      -2.365
      -2.394
      -2.344
      -2.263
      -2.192
      -2.147
      -2.113
      -2.058
      -1.953
      -1.782
      -1.558
      -1.318
      -1.112
      -0.974
      -0.904
      -0.877
      -0.867
      -0.862
      -0.861
      -0.867
      -0.888
      -0.928
      -0.984
      -1.033
      -1.033
      -0.929
      -0.677
      -0.265
       0.284
       0.925
       1.599
       2.257
       2.862
       3.397
       3.860
       4.249
       4.563
       4.807
       4.999
       5.156
       5.273
       5.314
       5.226
       4.975
       4.569
       4.052
       3.486
       2.909
       2.339
       1.777
       1.229
       0.707
       0.221
      -0.234
      -0.672
      -1.100
      -1.507
      -1.871
      -2.175
      -2.412
      -2.582
      -2.684
      -2.720
      -2.706
      -2.676
      -2.672
      -2.718
      -2.815
      -2.950
      -3.117
      -3.312
      -3.521
      -3.693
      -3.766
      -3.708
      -3.552
      -3.379
      -3.249
      -3.168
      -3.100
      -3.015
      -2.911
      -2.793
      -2.639
      -2.397
      -2.023
      -1.519
      -0.926
      -0.300
       0.323
       0.929
       1.515
       2.080
       2.622
       3.136
       3.607
       4.004
       4.280
       4.394
       4.322
       4.063
       3.639
       3.090
       2.480
       1.884
       1.370
       0.974
       0.701
       0.540
       0.474
       0.480
       0.526
       0.566
       0.554
       0.465
       0.307
       0.119
      -0.058
      -0.211
      -0.346
      -0.462
      -0.530
      -0.500
      -0.331
      -0.020
       0.404
       0.893
       1.390
       1.841
       2.191
       2.388
       2.396
       2.199
       1.807
       1.254
       0.583
      -0.162
      -0.936
      -1.691
      -2.384
      -2.976
      -3.431
      -3.709
      -3.777
      -3.631
      -3.310
      -2.882
      -2.411
      -1.929
      -1.441
      -0.947
      -0.458
       0.004
       0.423
       0.796
       1.120
       1.387
       1.584
       1.703
       1.734
       1.673
       1.519
       1.271
       0.931
       0.493
      -0.051
      -0.695
      -1.400
      -2.095
      -2.693
      -3.137
      -3.411
      -3.533
      -3.513
      -3.335
      -2.975
      -2.425
      -1.711
      -0.870
       0.069
       1.075
       2.096
       3.047
       3.821
       4.335
       4.562
       4.544
       4.367
       4.119
       3.859
       3.619
       3.418
       3.271
       3.180
       3.120
       3.029
       2.823
       2.440
       1.876
       1.182
       0.427
      -0.347
      -1.124
      -1.887
      -2.601
      -3.224
      -3.731
      -4.124
      -4.423
      -4.628
      -4.706
      -4.598
      -4.254
      -3.667
      -2.873
      -1.938
      -0.925
       0.115
       1.136
       2.084
       2.893
       3.503
       3.878
       4.011
       3.903
       3.552
       2.955
       2.122
       1.094
      -0.055
      -1.241
      -2.388
      -3.446
      -4.389
      -5.198
      -5.845
      -6.288
      -6.484
      -6.407
      -6.067
      -5.511
      -4.808
      -4.030
      -3.226
      -2.429
      -1.670
      -0.984
      -0.401
       0.081
       0.499
       0.906
       1.339
       1.791
       2.220
       2.580
       2.848
       3.037
       3.186
       3.338
       3.508
       3.683
       3.826
       3.895
       3.863
       3.710
       3.427
       3.014
       2.495
       1.922
       1.360
       0.857
       0.429
       0.063
      -0.259
      -0.541
      -0.758
      -0.866
      -0.809
      -0.550
      -0.085
       0.548
       1.280
       2.025
       2.692
       3.207
       3.525
       3.631
       3.541
       3.293
       2.931
       2.499
       2.025
       1.514
       0.954
       0.326
      -0.383
      -1.159
      -1.954
      -2.701
      -3.335
      -3.809
      -4.101
      -4.216
      -4.182
      -4.048
      -3.867
      -3.683
      -3.519
      -3.374
      -3.232
      -3.057
      -2.815
      -2.480
      -2.064
      -1.620
      -1.230
      -0.968
      -0.863
      -0.877
      -0.935
      -0.957
      -0.891
      -0.713
      -0.422
      -0.030
       0.435
       0.932
       1.415
       1.843
       2.185
       2.423
       2.552
       2.575
       2.505
       2.368
       2.204
       2.063
       1.994
       2.023
       2.136
       2.287
       2.412
       2.462
       2.422
       2.313
       2.176
       2.061
       2.009
       2.039
       2.134
       2.248
       2.319
       2.294
       2.141
       1.853
       1.443
       0.950
       0.433
      -0.040
      -0.414
      -0.666
      -0.806
      -0.859
      -0.845
      -0.780
      -0.683
      -0.595
      -0.578
      -0.698
      -1.007
      -1.522
      -2.224
      -3.051
      -3.900
      -4.650
      -5.195
      -5.484
      -5.536
      -5.418
      -5.211
      -4.980
      -4.754
      -4.542
      -4.338
      -4.123
      -3.853
      -3.459
      -2.870
      -2.044
      -0.995
       0.210
       1.476
       2.698
       3.781
       4.638
       5.210
       5.472
       5.439
       5.157
       4.687
       4.106
       3.501
       2.956
       2.538
       2.272
       2.134
       2.058
       1.951
       1.735
       1.393
       0.995
       0.672
       0.542
       0.643
       0.908
       1.215
       1.455
       1.567
       1.537
       1.373
       1.092
       0.720
       0.297
      -0.128
      -0.491
      -0.728
      -0.780
      -0.616
      -0.243
       0.279
       0.847
       1.328
       1.597
       1.565
       1.212
       0.588
      -0.191
      -0.986
      -1.677
      -2.204
      -2.574
      -2.827
      -3.007
      -3.143
      -3.258
      -3.374
      -3.518
      -3.690
      -3.855
      -3.939
      -3.863
      -3.577
      -3.081
      -2.419
      -1.655
      -0.856
      -0.082
       0.612
       1.174
       1.566
       1.773
       1.815
       1.740
       1.598
       1.424
       1.226
       0.998
       0.739
       0.466
       0.216
       0.034
      -0.051
      -0.031
       0.080
       0.264
       0.509
       0.810
       1.160
       1.535
       1.897
       2.206
       2.443
       2.620
       2.767
       2.907
       3.043
       3.150
       3.183
       3.090
       2.822
       2.355
       1.701
       0.910
       0.070
      -0.702
      -1.282
      -1.577
      -1.549
      -1.216
      -0.641
       0.078
       0.821
       1.453
       1.852
       1.948
       1.729
       1.242
       0.563
      -0.226
      -1.042
      -1.808
      -2.463
      -2.975
      -3.348
      -3.608
      -3.776
      -3.858
      -3.845
      -3.727
      -3.503
      -3.188
      -2.817
      -2.436
      -2.082
      -1.769
      -1.493
      -1.239
      -1.002
      -0.785
      -0.594
      -0.430
      -0.291
      -0.165
      -0.037
       0.111
       0.305
       0.561
       0.875
       1.220
       1.554
       1.829
       2.003
       2.043
       1.925
       1.639
       1.203
       0.667
       0.116
      -0.358
      -0.683
      -0.835
      -0.839
      -0.747
      -0.608
      -0.454
      -0.299
      -0.145
       0.008
       0.155
       0.281
       0.364
       0.381
       0.326
       0.225
       0.130
       0.104
       0.191
       0.401
       0.704
       1.039
       1.333
       1.514
       1.535
       1.382
       1.087
       0.712
       0.329
       0.000
      -0.237
      -0.373
      -0.424
      -0.420
      -0.405
      -0.417
      -0.479
      -0.592
      -0.742
      -0.906
      -1.063
      -1.190
      -1.255
      -1.227
      -1.075
      -0.781
      -0.344
       0.212
       0.837
       1.447
       1.940
       2.215
       2.208
       1.921
       1.429
       0.854
       0.323
      -0.068
      -0.282
      -0.332
      -0.266
      -0.132
       0.031
       0.191
       0.317
       0.374
       0.332
       0.174
      -0.096
      -0.453
      -0.851
      -1.227
      -1.516
      -1.660
      -1.622
      -1.398
      -1.024
      -0.569
      -0.123
       0.234
       0.445
       0.498
       0.406
       0.193
      -0.113
      -0.474
      -0.835
      -1.138
      -1.341
      -1.425
      -1.395
      -1.266
      -1.066
      -0.827
      -0.585
      -0.372
      -0.207
      -0.084
       0.032
       0.196
       0.457
       0.839
       1.328
       1.881
       2.439
       2.944
       3.351
       3.634
       3.783
       3.791
       3.652
       3.373
       2.974
       2.482
       1.923
       1.308
       0.642
      -0.075
      -0.835
      -1.619
      -2.397
      -3.124
      -3.743
      -4.186
      -4.404
      -4.379
      -4.136
      -3.730
      -3.234
      -2.728
      -2.286
      -1.957
      -1.756
