Origin Time       1/5/2013 06:57:12	 
Lat.              33.1 N	
Long.             75.8 E	
Depth (Km)         15.0
Magnitude         5.8
 Region           JK-HP-Border                                                     
 Above details taken from IMD 
   
Station Code      MND
Station Lat.       31.701
Station Long.      76.933
Station Height(m)  786.7
Site Class        B   Vs30 between 375 m/sec to 700 m/sec *  
Record Time       01.05.2013 06:57:41.054
Sampling Rate     200. Hz
 Record Duration   91.910 Sec.
 Direction         Vert. (Up positive)
Max. Acceleration     -3.720 cm/sec**2
     
  * For reference see Site Classification link of website 
     
 Base Line Corrected and Low Pass Filtered (Cut Off at 35 Hz) Time History
 Acceleration data in cm/sec**2
    
[...]
       0.584
       0.513
       0.334
       0.166
       0.051
      -0.045
      -0.170
      -0.330
      -0.489
      -0.586
      -0.587
      -0.523
      -0.486
      -0.533
      -0.612
      -0.609
      -0.445
      -0.135
       0.232
       0.535
       0.662
       0.587
       0.391
       0.192
       0.043
      -0.083
      -0.228
      -0.396
      -0.550
      -0.643
      -0.629
      -0.496
      -0.284
      -0.062
       0.145
       0.352
       0.549
       0.672
       0.675
       0.599
       0.523
       0.484
       0.455
       0.392
       0.256
       0.048
      -0.177
      -0.331
      -0.373
      -0.340
      -0.299
      -0.277
      -0.273
      -0.292
      -0.329
      -0.342
      -0.291
      -0.200
      -0.122
      -0.072
      -0.021
       0.041
       0.089
       0.097
       0.056
      -0.029
      -0.139
      -0.224
      -0.240
      -0.209
      -0.217
      -0.322
      -0.495
      -0.647
      -0.693
      -0.576
      -0.290
       0.100
       0.483
       0.790
       1.025
       1.208
       1.324
       1.342
       1.256
       1.079
       0.806
       0.437
       0.017
      -0.367
      -0.635
      -0.750
      -0.718
      -0.588
      -0.432
      -0.287
      -0.125
       0.110
       0.413
       0.708
       0.899
       0.929
       0.784
       0.494
       0.125
      -0.254
      -0.609
      -0.941
      -1.232
      -1.419
      -1.439
      -1.277
      -0.962
      -0.542
      -0.086
       0.327
       0.635
       0.805
       0.822
       0.689
       0.453
       0.191
      -0.050
      -0.281
      -0.518
      -0.733
      -0.882
      -0.948
      -0.938
      -0.842
      -0.651
      -0.392
      -0.116
       0.158
       0.445
       0.748
       1.041
       1.302
       1.519
       1.656
       1.644
       1.437
       1.055
       0.571
       0.069
      -0.368
      -0.680
      -0.859
      -0.929
      -0.903
      -0.778
      -0.583
      -0.374
      -0.186
      -0.009
       0.166
       0.308
       0.385
       0.400
       0.377
       0.324
       0.240
       0.135
       0.024
      -0.111
      -0.284
      -0.470
      -0.615
      -0.692
      -0.696
      -0.616
      -0.452
      -0.243
      -0.052
       0.095
       0.201
       0.259
       0.243
       0.147
      -0.001
      -0.165
      -0.318
      -0.423
      -0.437
      -0.349
      -0.190
       0.007
       0.240
       0.521
       0.849
       1.202
       1.520
       1.693
       1.615
       1.274
       0.775
       0.244
      -0.254
      -0.697
      -1.058
      -1.309
      -1.447
      -1.475
      -1.369
      -1.099
      -0.685
      -0.197
       0.285
       0.699
       0.986
       1.103
       1.041
       0.824
       0.497
       0.117
      -0.243
      -0.523
      -0.710
      -0.815
      -0.828
      -0.722
      -0.503
      -0.219
       0.090
       0.402
       0.674
       0.830
       0.818
       0.639
       0.327
      -0.074
      -0.493
      -0.848
      -1.089
      -1.207
      -1.206
      -1.067
      -0.783
      -0.374
       0.128
       0.697
       1.270
       1.725
       1.944
       1.892
       1.630
       1.256
       0.859
       0.507
       0.225
      -0.007
      -0.213
      -0.369
      -0.423
      -0.352
      -0.193
       0.006
       0.202
       0.347
       0.379
       0.266
       0.027
      -0.316
      -0.739
      -1.178
      -1.523
      -1.682
      -1.632
      -1.389
      -0.985
      -0.491
      -0.017
       0.349
       0.589
       0.719
       0.735
       0.616
       0.383
       0.100
      -0.172
      -0.395
      -0.542
      -0.593
      -0.557
      -0.461
      -0.319
      -0.127
       0.099
       0.307
       0.454
       0.516
       0.485
       0.357
       0.156
      -0.075
      -0.309
      -0.535
      -0.720
      -0.802
      -0.751
      -0.600
      -0.414
      -0.233
      -0.065
       0.119
       0.367
       0.712
       1.104
       1.417
       1.534
       1.427
       1.140
       0.734
       0.267
      -0.192
      -0.575
      -0.845
      -0.986
      -0.986
      -0.853
      -0.648
      -0.450
      -0.289
      -0.147
      -0.020
       0.072
       0.116
       0.120
       0.103
       0.092
       0.121
       0.194
       0.270
       0.300
       0.283
       0.258
       0.234
       0.179
       0.068
      -0.069
      -0.167
      -0.171
      -0.057
       0.156
       0.395
       0.550
       0.551
       0.423
       0.247
       0.072
      -0.112
      -0.332
      -0.592
      -0.859
      -1.074
      -1.166
      -1.107
      -0.932
      -0.696
      -0.429
      -0.131
       0.196
       0.535
       0.856
       1.111
       1.230
       1.165
       0.938
       0.619
       0.266
      -0.106
      -0.487
      -0.835
      -1.085
      -1.183
      -1.093
      -0.832
      -0.498
      -0.218
      -0.053
       0.047
       0.153
       0.280
       0.388
       0.442
       0.445
       0.428
       0.445
       0.533
       0.673
       0.775
       0.750
       0.589
       0.348
       0.092
      -0.125
      -0.268
      -0.331
      -0.349
      -0.347
      -0.313
      -0.232
      -0.139
      -0.095
      -0.116
      -0.156
      -0.166
      -0.130
      -0.064
       0.018
       0.094
       0.146
       0.180
       0.208
       0.200
       0.098
      -0.103
      -0.323
      -0.461
      -0.457
      -0.287
       0.053
       0.513
       0.975
       1.303
       1.409
       1.272
       0.920
       0.415
      -0.155
      -0.718
      -1.225
      -1.597
      -1.721
      -1.523
      -1.060
      -0.491
       0.036
       0.455
       0.753
       0.931
       0.996
       0.964
       0.833
       0.610
       0.344
       0.106
      -0.080
      -0.258
      -0.465
      -0.665
      -0.783
      -0.757
      -0.570
      -0.253
       0.110
       0.413
       0.592
       0.652
       0.620
       0.499
       0.288
       0.035
      -0.184
      -0.325
      -0.387
      -0.379
      -0.306
      -0.186
      -0.049
       0.086
       0.202
       0.252
       0.167
      -0.077
      -0.426
      -0.776
      -1.025
      -1.106
      -1.007
      -0.785
      -0.523
      -0.248
       0.071
       0.443
       0.787
       0.975
       0.929
       0.657
       0.236
      -0.226
      -0.628
      -0.923
      -1.108
      -1.159
      -1.005
      -0.599
       0.009
       0.670
       1.211
       1.509
       1.526
       1.313
       0.983
       0.639
       0.316
       0.002
      -0.305
      -0.581
      -0.813
      -0.999
      -1.126
      -1.161
      -1.090
      -0.924
      -0.677
      -0.355
       0.015
       0.376
       0.665
       0.844
       0.892
       0.810
       0.630
       0.411
       0.200
       0.025
      -0.077
      -0.059
       0.102
       0.368
       0.660
       0.902
       1.028
       0.990
       0.777
       0.430
       0.007
      -0.427
      -0.793
      -0.981
      -0.915
      -0.605
      -0.136
       0.397
       0.919
       1.346
       1.589
       1.591
       1.347
       0.896
       0.313
      -0.288
      -0.796
      -1.142
      -1.292
      -1.228
      -0.955
      -0.539
      -0.096
       0.277
       0.534
       0.664
       0.655
       0.510
       0.254
      -0.083
      -0.477
      -0.888
      -1.250
      -1.510
      -1.651
      -1.665
      -1.526
      -1.209
      -0.743
      -0.203
       0.338
       0.815
       1.170
       1.351
       1.338
       1.151
       0.829
       0.444
       0.090
      -0.148
      -0.234
      -0.170
       0.031
       0.330
       0.646
       0.883
       0.999
       1.001
       0.890
       0.632
       0.213
      -0.315
      -0.846
      -1.274
      -1.526
      -1.572
      -1.447
      -1.219
      -0.933
      -0.580
      -0.146
       0.332
       0.757
       1.037
       1.121
       1.016
       0.778
       0.496
       0.237
       0.007
      -0.218
      -0.428
      -0.572
      -0.615
      -0.576
      -0.495
      -0.398
      -0.293
      -0.179
      -0.055
       0.065
       0.124
       0.053
      -0.160
      -0.428
      -0.619
      -0.647
      -0.506
      -0.249
       0.054
       0.339
       0.575
       0.761
       0.880
       0.899
       0.796
       0.598
       0.348
       0.076
      -0.196
      -0.439
      -0.628
      -0.770
      -0.878
      -0.932
      -0.894
      -0.757
      -0.566
      -0.370
      -0.202
      -0.091
      -0.059
      -0.088
      -0.127
      -0.137
      -0.118
      -0.080
      -0.020
       0.066
       0.169
       0.277
       0.380
       0.454
       0.466
       0.411
       0.304
       0.139
      -0.122
      -0.489
      -0.891
      -1.216
      -1.383
      -1.365
      -1.164
      -0.798
      -0.304
       0.263
       0.849
       1.395
       1.829
       2.075
       2.101
       1.941
       1.664
       1.326
       0.951
       0.534
       0.072
      -0.400
      -0.794
      -1.024
      -1.071
      -0.991
      -0.839
      -0.618
      -0.307
       0.070
       0.438
       0.711
       0.836
       0.799
       0.637
       0.419
       0.197
      -0.023
      -0.251
      -0.458
      -0.585
      -0.595
      -0.484
      -0.288
      -0.080
       0.056
       0.091
       0.079
       0.101
       0.185
       0.298
       0.400
       0.460
       0.455
       0.389
       0.304
       0.244
       0.190
       0.068
      -0.177
      -0.519
      -0.879
      -1.164
      -1.292
      -1.204
      -0.905
      -0.453
       0.076
       0.610
       1.073
       1.384
       1.488
       1.391
       1.149
       0.821
       0.448
       0.060
      -0.313
      -0.651
      -0.951
      -1.200
      -1.375
      -1.467
      -1.482
      -1.421
      -1.279
      -1.055
      -0.762
      -0.416
      -0.041
       0.312
       0.592
       0.789
       0.932
       1.038
       1.095
       1.105
       1.113
       1.155
       1.213
       1.242
       1.222
       1.164
       1.073
       0.931
       0.732
       0.477
       0.163
      -0.208
      -0.582
      -0.875
      -1.039
      -1.088
      -1.060
      -0.989
      -0.916
      -0.886
      -0.917
      -0.984
      -1.044
      -1.062
      -1.020
      -0.917
      -0.778
      -0.644
      -0.544
      -0.473
      -0.398
      -0.285
      -0.104
       0.165
       0.512
       0.899
       1.282
       1.622
       1.869
       1.964
       1.885
       1.651
       1.295
       0.842
       0.338
      -0.130
      -0.465
      -0.604
      -0.535
      -0.277
       0.117
       0.563
       0.964
       1.242
       1.360
       1.320
       1.160
       0.960
       0.794
       0.677
       0.566
       0.423
       0.264
       0.138
       0.076
       0.073
       0.081
       0.027
      -0.137
      -0.389
      -0.649
      -0.856
      -1.013
      -1.168
      -1.351
      -1.569
      -1.804
      -2.017
      -2.165
      -2.226
      -2.217
      -2.166
      -2.078
      -1.934
      -1.711
      -1.395
      -0.983
      -0.498
      -0.004
       0.425
       0.750
       0.986
       1.157
       1.282
       1.378
       1.458
       1.520
       1.544
       1.516
       1.441
       1.330
       1.176
       0.962
       0.673
       0.312
      -0.087
      -0.448
      -0.696
      -0.815
      -0.856
      -0.873
      -0.872
      -0.828
      -0.720
      -0.536
      -0.294
      -0.062
       0.080
       0.118
       0.128
       0.196
       0.340
       0.524
       0.711
       0.876
       0.987
       1.011
       0.923
       0.706
       0.361
      -0.063
      -0.472
      -0.788
      -1.007
      -1.158
      -1.236
      -1.199
      -1.027
      -0.742
      -0.382
       0.022
       0.437
       0.826
       1.153
       1.391
       1.517
       1.522
       1.428
       1.263
       1.029
       0.707
       0.315
      -0.086
      -0.444
      -0.745
      -1.001
      -1.221
      -1.418
      -1.597
      -1.728
      -1.758
      -1.677
      -1.526
      -1.351
      -1.158
      -0.946
      -0.763
      -0.672
      -0.686
      -0.761
      -0.843
      -0.896
      -0.889
      -0.799
      -0.632
      -0.402
      -0.083
       0.366
       0.942
       1.572
       2.153
       2.601
       2.868
       2.960
       2.938
       2.876
       2.801
       2.688
       2.514
       2.296
       2.058
       1.783
       1.434
       1.000
       0.510
       0.013
      -0.433
      -0.782
      -1.025
      -1.199
      -1.350
      -1.483
      -1.558
      -1.560
      -1.534
      -1.556
      -1.691
      -1.961
      -2.317
      -2.626
      -2.710
      -2.452
      -1.867
      -1.085
      -0.273
       0.429
       0.934
       1.217
       1.301
       1.212
       0.961
       0.574
       0.117
      -0.334
      -0.727
      -1.030
      -1.210
      -1.246
      -1.134
      -0.874
      -0.475
       0.030
       0.579
       1.100
       1.539
       1.852
       1.997
       1.956
       1.759
       1.471
       1.153
       0.861
       0.653
       0.578
       0.644
       0.827
       1.102
       1.436
       1.758
       1.982
       2.039
       1.892
       1.519
       0.928
       0.185
      -0.608
      -1.356
      -2.007
      -2.542
      -2.960
      -3.281
      -3.527
      -3.690
      -3.720
      -3.558
      -3.173
      -2.572
      -1.805
      -0.967
      -0.181
       0.469
       0.968
       1.321
       1.498
       1.451
       1.173
       0.722
       0.196
      -0.287
      -0.623
      -0.755
      -0.688
      -0.461
      -0.114
       0.312
       0.747
       1.107
       1.332
       1.406
       1.331
       1.110
       0.766
       0.377
       0.057
      -0.103
      -0.064
       0.150
       0.458
       0.761
       0.993
       1.133
       1.178
       1.132
       1.027
       0.908
       0.784
       0.608
       0.345
       0.027
      -0.279
      -0.515
      -0.639
      -0.601
      -0.364
       0.044
       0.530
       0.995
       1.379
       1.649
       1.785
       1.787
       1.675
       1.460
       1.131
       0.699
       0.221
      -0.231
      -0.614
      -0.917
      -1.148
      -1.340
      -1.549
      -1.802
      -2.069
      -2.296
      -2.457
      -2.544
      -2.550
      -2.464
      -2.292
      -2.045
      -1.742
      -1.410
      -1.086
      -0.792
      -0.539
      -0.345
      -0.219
      -0.131
      -0.030
       0.089
       0.155
       0.094
      -0.086
      -0.297
      -0.466
      -0.587
      -0.694
      -0.790
      -0.834
      -0.764
      -0.529
      -0.121
       0.379
       0.830
       1.127
       1.268
       1.318
       1.337
       1.352
       1.357
       1.329
       1.257
       1.192
       1.230
       1.443
       1.809
       2.240
       2.640
       2.924
       3.018
       2.886
       2.555
       2.113
       1.660
       1.265
       0.960
       0.749
       0.611
       0.511
       0.399
       0.221
      -0.073
      -0.481
      -0.935
      -1.344
      -1.668
      -1.937
      -2.203
      -2.491
      -2.782
      -3.026
      -3.163
      -3.158
      -3.024
      -2.795
      -2.478
      -2.044
      -1.483
      -0.845
      -0.213
       0.338
       0.745
       0.964
       0.993
       0.885
       0.708
       0.504
       0.293
       0.116
       0.044
       0.148
       0.467
       0.976
       1.567
       2.078
       2.379
       2.438
       2.301
       2.030
       1.666
       1.238
       0.765
       0.241
      -0.315
      -0.812
      -1.109
      -1.103
      -0.798
      -0.271
       0.374
       1.021
       1.550
       1.865
       1.917
       1.693
       1.225
       0.593
      -0.087
      -0.730
      -1.317
      -1.854
      -2.313
      -2.627
      -2.731
      -2.593
      -2.220
      -1.675
      -1.080
      -0.570
      -0.220
      -0.038
       0.015
       0.000
      -0.005
       0.052
       0.158
       0.262
       0.325
       0.351
       0.369
       0.407
       0.475
       0.549
       0.584
       0.572
       0.558
       0.586
       0.637
       0.643
       0.551
       0.366
       0.135
      -0.087
      -0.256
      -0.356
      -0.405
      -0.427
      -0.403
      -0.281
      -0.031
       0.311
       0.660
       0.929
       1.056
       1.036
       0.920
       0.773
       0.613
       0.416
       0.177
      -0.058
      -0.238
      -0.362
      -0.455
      -0.517
      -0.519
      -0.447
      -0.323
      -0.197
      -0.118
      -0.106
      -0.142
      -0.182
      -0.211
      -0.248
      -0.326
      -0.456
      -0.647
      -0.906
      -1.202
      -1.448
      -1.549
      -1.487
      -1.318
      -1.099
      -0.847
      -0.581
      -0.344
      -0.180
      -0.113
      -0.163
      -0.341
      -0.600
      -0.842
      -0.985
      -1.014
      -0.950
      -0.800
      -0.570
      -0.274
       0.073
       0.464
       0.876
       1.248
       1.548
       1.807
       2.068
       2.303
       2.425
       2.374
       2.155
       1.817
       1.408
       0.954
       0.455
      -0.078
      -0.598
      -1.036
      -1.340
      -1.487
      -1.454
      -1.225
      -0.828
      -0.363
       0.054
       0.366
       0.576
       0.701
       0.760
       0.804
       0.909
       1.112
       1.384
       1.679
       1.984
       2.293
       2.557
       2.680
       2.579
       2.231
       1.681
       1.007
       0.311
      -0.314
      -0.816
      -1.187
      -1.444
      -1.633
      -1.819
      -2.025
      -2.196
      -2.234
      -2.086
      -1.781
      -1.387
      -0.977
      -0.631
      -0.410
      -0.321
      -0.324
      -0.402
      -0.590
      -0.906
      -1.283
      -1.603
      -1.761
      -1.706
      -1.443
      -1.022
      -0.506
       0.070
       0.677
       1.245
       1.684
       1.966
       2.128
       2.199
       2.148
       1.947
       1.648
       1.359
       1.146
       0.993
       0.841
       0.648
       0.393
       0.072
      -0.281
      -0.611
      -0.874
      -1.051
      -1.146
      -1.174
      -1.176
      -1.193
      -1.233
      -1.257
      -1.229
      -1.137
      -0.976
      -0.743
      -0.458
      -0.171
       0.062
       0.201
       0.212
       0.066
      -0.238
      -0.652
      -1.100
      -1.504
      -1.792
      -1.887
      -1.732
      -1.328
      -0.737
      -0.049
       0.638
       1.226
       1.646
       1.882
       1.950
       1.876
       1.712
       1.546
       1.442
       1.399
       1.375
       1.363
       1.384
       1.412
       1.360
       1.168
       0.866
       0.531
       0.208
      -0.091
      -0.350
      -0.543
      -0.653
      -0.688
      -0.678
      -0.674
      -0.734
      -0.892
      -1.120
      -1.351
      -1.532
      -1.650
      -1.703
      -1.672
      -1.548
      -1.357
      -1.154
      -0.995
      -0.913
      -0.902
      -0.917
      -0.917
      -0.881
      -0.784
      -0.571
      -0.205
       0.246
       0.633
       0.837
