Origin Time       29/05/2008 10:34:46
Lat.              26.6 N 
Long.             91.8 E 
Depth (Km)         33.0
Magnitude         4.2
 Region           DARRANG-ASSAM                                                    
 Above details taken from IMD 
     
Station Code      MNG
Station Lat.       26.003  N
Station Long.      92.029  E
Station Height(m)   92.3
Site Class        C   Vs30 between 200 m/sec to 375 m/sec *  
Record Time       29.05.2008 10:34:40.089
Sampling Rate     200. Hz
 Record Duration   73.555 Sec.
 Direction         E-W (E positive)
Max. Acceleration    -26.387 cm/sec**2
     
  * For reference see Site Classification link of website 
     
 Base Line Corrected and Low Pass Filtered (Cut Off at 35 Hz) Time History
 Acceleration data in cm/sec**2
    
[...]
      -1.061
      -0.552
      -0.024
       0.322
       0.358
       0.081
      -0.377
      -0.809
      -1.017
      -0.896
      -0.481
       0.064
       0.517
       0.701
       0.555
       0.141
      -0.405
      -0.949
      -1.411
      -1.764
      -1.988
      -2.026
      -1.794
      -1.232
      -0.359
       0.715
       1.810
       2.721
       3.259
       3.296
       2.805
       1.886
       0.750
      -0.336
      -1.135
      -1.531
      -1.564
      -1.377
      -1.112
      -0.836
      -0.545
      -0.227
       0.092
       0.360
       0.534
       0.602
       0.591
       0.559
       0.576
       0.679
       0.834
       0.923
       0.809
       0.427
      -0.139
      -0.678
      -0.960
      -0.874
      -0.495
      -0.030
       0.302
       0.388
       0.252
       0.017
      -0.187
      -0.275
      -0.219
      -0.025
       0.268
       0.584
       0.824
       0.903
       0.784
       0.487
       0.068
      -0.398
      -0.820
      -1.108
      -1.199
      -1.078
      -0.776
      -0.361
       0.072
       0.426
       0.629
       0.660
       0.540
       0.302
      -0.024
      -0.403
      -0.764
      -1.000
      -1.006
      -0.730
      -0.222
       0.368
       0.855
       1.102
       1.076
       0.840
       0.494
       0.139
      -0.138
      -0.278
      -0.270
      -0.158
      -0.023
       0.067
       0.092
       0.075
       0.064
       0.108
       0.239
       0.446
       0.670
       0.830
       0.857
       0.719
       0.425
       0.022
      -0.411
      -0.774
      -0.992
      -1.052
      -0.998
      -0.897
      -0.787
      -0.670
      -0.533
      -0.384
      -0.239
      -0.101
       0.060
       0.287
       0.584
       0.890
       1.089
       1.073
       0.816
       0.409
       0.028
      -0.183
      -0.214
      -0.199
      -0.308
      -0.604
      -0.986
      -1.261
      -1.279
      -1.016
      -0.574
      -0.112
       0.233
       0.407
       0.451
       0.464
       0.535
       0.673
       0.803
       0.819
       0.641
       0.269
      -0.220
      -0.684
      -0.968
      -0.970
      -0.685
      -0.213
       0.285
       0.656
       0.816
       0.777
       0.621
       0.454
       0.357
       0.363
       0.452
       0.571
       0.660
       0.679
       0.608
       0.443
       0.190
      -0.121
      -0.421
      -0.619
      -0.652
      -0.540
      -0.389
      -0.334
      -0.454
      -0.715
      -0.983
      -1.078
      -0.867
      -0.336
       0.383
       1.054
       1.439
       1.401
       0.960
       0.272
      -0.445
      -0.998
      -1.286
      -1.322
      -1.193
      -0.984
      -0.721
      -0.387
       0.024
       0.458
       0.825
       1.041
       1.070
       0.913
       0.595
       0.155
      -0.340
      -0.780
      -1.033
      -1.006
      -0.711
      -0.270
       0.159
       0.467
       0.642
       0.741
       0.819
       0.889
       0.916
       0.856
       0.687
       0.426
       0.108
      -0.221
      -0.499
      -0.633
      -0.528
      -0.151
       0.419
       0.993
       1.352
       1.347
       0.986
       0.444
      -0.031
      -0.284
      -0.364
      -0.470
      -0.762
      -1.204
      -1.574
      -1.631
      -1.290
      -0.673
      -0.024
       0.430
       0.586
       0.482
       0.253
       0.049
      -0.040
      -0.019
       0.027
      -0.003
      -0.145
      -0.338
      -0.461
      -0.428
      -0.248
      -0.015
       0.173
       0.273
       0.310
       0.330
       0.355
       0.357
       0.282
       0.106
      -0.115
      -0.267
      -0.253
      -0.078
       0.148
       0.299
       0.333
       0.301
       0.281
       0.291
       0.267
       0.115
      -0.203
      -0.612
      -0.949
      -1.050
      -0.858
      -0.456
      -0.009
       0.348
       0.570
       0.682
       0.716
       0.676
       0.563
       0.419
       0.311
       0.266
       0.227
       0.091
      -0.192
      -0.551
      -0.822
      -0.856
      -0.620
      -0.217
       0.175
       0.404
       0.418
       0.282
       0.118
       0.021
       0.015
       0.074
       0.157
       0.236
       0.283
       0.264
       0.155
      -0.039
      -0.295
      -0.584
      -0.872
      -1.096
      -1.160
      -0.982
      -0.560
       0.006
       0.550
       0.927
       1.074
       1.025
       0.873
       0.722
       0.639
       0.613
       0.568
       0.424
       0.173
      -0.104
      -0.301
      -0.374
      -0.354
      -0.292
      -0.214
      -0.131
      -0.073
      -0.076
      -0.142
      -0.221
      -0.257
      -0.228
      -0.161
      -0.101
      -0.071
      -0.069
      -0.081
      -0.112
      -0.179
      -0.295
      -0.440
      -0.572
      -0.638
      -0.594
      -0.408
      -0.075
       0.357
       0.786
       1.087
       1.178
       1.041
       0.716
       0.274
      -0.193
      -0.566
      -0.730
      -0.631
      -0.321
       0.043
       0.265
       0.217
      -0.076
      -0.422
      -0.569
      -0.373
       0.089
       0.563
       0.790
       0.683
       0.359
       0.036
      -0.105
      -0.015
       0.220
       0.456
       0.574
       0.519
       0.285
      -0.096
      -0.543
      -0.912
      -1.050
      -0.898
      -0.548
      -0.187
       0.036
       0.095
       0.082
       0.112
       0.236
       0.421
       0.580
       0.633
       0.549
       0.354
       0.108
      -0.126
      -0.312
      -0.450
      -0.544
      -0.583
      -0.549
      -0.436
      -0.274
      -0.099
       0.058
       0.189
       0.279
       0.308
       0.254
       0.127
      -0.023
      -0.127
      -0.125
       0.008
       0.241
       0.489
       0.644
       0.616
       0.374
      -0.042
      -0.516
      -0.881
      -0.982
      -0.768
      -0.337
       0.117
       0.430
       0.558
       0.568
       0.560
       0.582
       0.605
       0.555
       0.376
       0.083
      -0.226
      -0.440
      -0.509
      -0.474
      -0.405
      -0.322
      -0.178
       0.081
       0.440
       0.798
       1.030
       1.070
       0.943
       0.719
       0.438
       0.088
      -0.361
      -0.884
      -1.365
      -1.636
      -1.576
      -1.197
      -0.649
      -0.118
       0.274
       0.503
       0.582
       0.503
       0.247
      -0.149
      -0.550
      -0.769
      -0.673
      -0.277
       0.245
       0.661
       0.815
       0.709
       0.483
       0.305
       0.253
       0.276
       0.254
       0.109
      -0.135
      -0.374
      -0.496
      -0.457
      -0.299
      -0.120
       0.000
       0.049
       0.076
       0.135
       0.229
       0.311
       0.346
       0.338
       0.316
       0.286
       0.237
       0.172
       0.122
       0.115
       0.136
       0.130
       0.034
      -0.172
      -0.440
      -0.657
      -0.707
      -0.560
      -0.314
      -0.130
      -0.101
      -0.190
      -0.270
      -0.232
      -0.060
       0.168
       0.350
       0.417
       0.355
       0.191
      -0.021
      -0.212
      -0.320
      -0.304
      -0.168
       0.049
       0.275
       0.439
       0.496
       0.456
       0.374
       0.308
       0.267
       0.218
       0.116
      -0.044
      -0.233
      -0.403
      -0.533
      -0.635
      -0.728
      -0.806
      -0.821
      -0.722
      -0.503
      -0.225
       0.027
       0.200
       0.292
       0.344
       0.422
       0.577
       0.801
       0.998
       1.033
       0.832
       0.457
       0.074
      -0.154
      -0.170
      -0.049
       0.066
       0.066
      -0.054
      -0.209
      -0.304
      -0.309
      -0.251
      -0.151
       0.010
       0.240
       0.478
       0.599
       0.508
       0.233
      -0.084
      -0.290
      -0.337
      -0.301
      -0.299
      -0.370
      -0.446
      -0.427
      -0.277
      -0.061
       0.101
       0.106
      -0.058
      -0.307
      -0.497
      -0.513
      -0.340
      -0.062
       0.199
       0.348
       0.347
       0.223
       0.057
      -0.037
       0.019
       0.207
       0.405
       0.463
       0.297
      -0.057
      -0.478
      -0.822
      -0.998
      -0.993
      -0.851
      -0.617
      -0.315
       0.043
       0.414
       0.706
       0.811
       0.671
       0.327
      -0.088
      -0.407
      -0.519
      -0.416
      -0.171
       0.124
       0.401
       0.625
       0.762
       0.779
       0.667
       0.459
       0.222
       0.035
      -0.042
       0.013
       0.169
       0.352
       0.484
       0.527
       0.503
       0.458
       0.418
       0.361
       0.241
       0.016
      -0.315
      -0.698
      -1.029
      -1.183
      -1.086
      -0.780
      -0.424
      -0.201
      -0.205
      -0.383
      -0.577
      -0.630
      -0.482
      -0.211
       0.032
       0.124
       0.055
      -0.083
      -0.171
      -0.154
      -0.069
       0.001
       0.008
      -0.018
      -0.016
       0.048
       0.161
       0.295
       0.440
       0.599
       0.757
       0.862
       0.851
       0.683
       0.366
      -0.054
      -0.510
      -0.933
      -1.240
      -1.333
      -1.124
      -0.612
       0.060
       0.656
       0.983
       0.996
       0.786
       0.478
       0.153
      -0.161
      -0.452
      -0.704
      -0.913
      -1.078
      -1.172
      -1.122
      -0.829
      -0.257
       0.500
       1.231
       1.709
       1.815
       1.597
       1.225
       0.899
       0.747
       0.783
       0.910
       0.986
       0.904
       0.639
       0.226
      -0.279
      -0.814
      -1.286
      -1.567
      -1.533
      -1.144
      -0.498
       0.181
       0.639
       0.717
       0.432
      -0.044
      -0.482
      -0.713
      -0.700
      -0.546
      -0.411
      -0.391
      -0.459
      -0.515
      -0.505
      -0.467
      -0.471
      -0.527
      -0.583
      -0.587
      -0.533
      -0.440
      -0.302
      -0.088
       0.211
       0.558
       0.891
       1.152
       1.312
       1.366
       1.315
       1.160
       0.900
       0.542
       0.115
      -0.322
      -0.683
      -0.886
      -0.903
      -0.770
      -0.562
      -0.348
      -0.164
      -0.018
       0.083
       0.143
       0.189
       0.253
       0.334
       0.385
       0.351
       0.230
       0.075
      -0.042
      -0.082
      -0.054
       0.000
       0.030
      -0.008
      -0.137
      -0.338
      -0.532
      -0.594
      -0.410
       0.040
       0.648
       1.224
       1.579
       1.590
       1.238
       0.629
      -0.029
      -0.517
      -0.713
      -0.640
      -0.428
      -0.239
      -0.208
      -0.400
      -0.778
      -1.200
      -1.486
      -1.534
      -1.388
      -1.191
      -1.059
      -0.981
      -0.842
      -0.546
      -0.094
       0.430
       0.935
       1.353
       1.613
       1.643
       1.420
       1.003
       0.520
       0.106
      -0.133
      -0.134
       0.101
       0.474
       0.807
       0.927
       0.768
       0.413
       0.019
      -0.287
      -0.479
      -0.617
      -0.770
      -0.952
      -1.095
      -1.076
      -0.777
      -0.162
       0.658
       1.440
       1.928
       1.973
       1.591
       0.925
       0.169
      -0.494
      -0.939
      -1.145
      -1.186
      -1.165
      -1.130
      -1.041
      -0.812
      -0.385
       0.180
       0.692
       0.915
       0.723
       0.207
      -0.363
      -0.689
      -0.622
      -0.228
       0.273
       0.657
       0.810
       0.759
       0.614
       0.482
       0.411
       0.395
       0.399
       0.374
       0.268
       0.021
      -0.395
      -0.925
      -1.397
      -1.568
      -1.281
      -0.609
       0.142
       0.600
       0.556
       0.072
      -0.585
      -1.123
      -1.366
      -1.305
      -1.047
      -0.738
      -0.503
      -0.406
      -0.419
      -0.409
      -0.208
       0.247
       0.818
       1.217
       1.200
       0.740
       0.061
      -0.484
      -0.609
      -0.252
       0.379
       0.929
       1.119
       0.899
       0.448
       0.036
      -0.132
       0.011
       0.397
       0.871
       1.265
       1.471
       1.471
       1.310
       1.048
       0.718
       0.343
      -0.011
      -0.248
      -0.319
      -0.286
      -0.277
      -0.351
      -0.438
      -0.416
      -0.243
      -0.001
       0.162
       0.119
      -0.185
      -0.717
      -1.351
      -1.914
      -2.266
      -2.375
      -2.323
      -2.227
      -2.141
      -2.037
      -1.864
      -1.638
      -1.464
      -1.474
      -1.732
      -2.193
      -2.723
      -3.163
      -3.399
      -3.411
      -3.282
      -3.140
      -3.078
      -3.098
      -3.135
      -3.133
      -3.129
      -3.236
      -3.535
      -3.919
      -4.052
      -3.518
      -2.090
       0.088
       2.564
       4.847
       6.668
       8.070
       9.298
      10.601
      12.060
      13.526
      14.696
      15.288
      15.212
      14.615
      13.777
      12.948
      12.215
      11.473
      10.526
       9.234
       7.622
       5.858
       4.121
       2.495
       0.963
      -0.519
      -1.956
      -3.335
      -4.730
      -6.381
      -8.650
     -11.813
     -15.801
     -20.067
     -23.725
     -25.949
     -26.387
     -25.323
     -23.468
     -21.492
     -19.562
     -17.184
     -13.508
      -7.928
      -0.591
       7.525
      14.990
      20.484
      23.187
      22.875
      19.822
      14.683
       8.400
       2.098
      -3.116
      -6.463
      -7.723
      -7.215
      -5.506
      -3.065
      -0.124
       3.190
       6.602
       9.623
      11.758
      12.799
      12.908
      12.396
      11.385
       9.683
       7.025
       3.481
      -0.348
      -3.568
      -5.510
      -6.133
      -6.021
      -6.000
      -6.655
      -8.023
      -9.561
     -10.389
      -9.691
      -7.155
      -3.204
       1.132
       4.685
       6.654
       6.869
       5.747
       3.984
       2.147
       0.345
      -1.746
      -4.434
      -7.437
      -9.707
      -9.890
      -7.162
      -1.841
       4.652
      10.476
      14.216
      15.374
      14.262
      11.512
       7.667
       3.129
      -1.635
      -5.991
      -9.256
     -10.916
     -10.752
      -8.900
      -5.896
      -2.658
      -0.268
       0.465
      -0.565
      -2.651
      -4.647
      -5.609
      -5.296
      -4.200
      -3.126
      -2.637
      -2.721
      -2.868
      -2.439
      -1.120
       0.828
       2.713
       3.879
       4.168
       3.950
       3.715
       3.605
       3.361
       2.707
       1.775
       1.098
       1.156
       1.904
       2.740
       2.947
       2.223
       0.871
      -0.443
      -1.111
      -0.896
       0.017
       1.186
       2.173
       2.763
       3.018
       3.138
       3.237
       3.191
       2.689
       1.452
      -0.499
      -2.706
      -4.419
      -5.007
      -4.383
      -3.110
      -2.045
      -1.764
      -2.203
      -2.781
      -2.855
      -2.159
      -0.931
       0.284
       0.989
       1.025
       0.634
       0.273
       0.316
       0.820
       1.521
       2.029
       2.075
       1.650
       0.983
       0.403
       0.190
       0.488
       1.290
       2.432
       3.597
       4.364
       4.346
       3.369
       1.590
      -0.547
      -2.494
      -3.838
      -4.461
      -4.517
      -4.256
      -3.822
      -3.183
      -2.242
      -0.991
       0.396
       1.615
       2.350
       2.401
       1.743
       0.535
      -0.918
      -2.239
      -3.103
      -3.353
      -3.068
      -2.518
      -2.035
      -1.860
      -2.007
      -2.237
      -2.170
      -1.509
      -0.254
       1.258
       2.537
       3.238
       3.372
       3.250
       3.237
       3.495
       3.883
       4.060
       3.682
       2.604
       0.972
      -0.814
      -2.264
      -3.022
      -3.015
      -2.441
      -1.585
      -0.632
       0.373
       1.408
       2.356
       3.017
       3.238
       3.069
       2.786
       2.748
       3.138
       3.741
       3.985
       3.279
       1.462
      -1.000
      -3.263
      -4.614
      -4.869
      -4.383
      -3.724
      -3.268
      -2.987
      -2.546
      -1.620
      -0.223
       1.191
       1.953
       1.599
       0.203
      -1.632
      -3.130
      -3.802
      -3.647
      -3.011
      -2.257
      -1.545
      -0.848
      -0.118
       0.594
       1.175
       1.563
       1.800
       1.923
       1.832
       1.339
       0.406
      -0.653
      -1.280
      -1.068
      -0.124
       0.931
       1.383
       0.959
       0.074
      -0.423
       0.137
       1.665
       3.258
       3.788
       2.763
       0.779
      -0.869
      -1.143
      -0.045
       1.411
       1.991
       1.170
      -0.531
      -2.000
      -2.382
      -1.645
      -0.472
       0.348
       0.479
       0.130
      -0.306
      -0.631
      -0.903
      -1.199
      -1.412
      -1.316
      -0.814
      -0.100
       0.463
       0.632
       0.468
       0.253
       0.213
       0.327
       0.389
       0.249
       0.002
      -0.078
       0.200
       0.728
       1.128
       1.024
       0.356
      -0.520
      -1.008
      -0.643
       0.587
       2.182
       3.403
       3.673
       2.859
       1.249
      -0.675
      -2.446
      -3.699
      -4.197
      -3.892
      -2.998
      -1.930
      -1.081
      -0.576
      -0.229
       0.252
       0.987
       1.799
       2.352
       2.426
       2.104
       1.716
       1.577
       1.704
       1.755
       1.249
      -0.041
      -1.820
      -3.358
      -3.945
      -3.379
      -2.111
      -0.920
      -0.386
      -0.557
      -1.016
      -1.226
      -0.860
       0.077
       1.340
       2.602
       3.560
       3.952
       3.596
       2.482
       0.878
      -0.706
      -1.766
      -2.083
      -1.828
      -1.398
      -1.126
      -1.092
      -1.135
      -1.032
      -0.673
      -0.110
       0.539
       1.237
       2.047
       3.017
       4.019
       4.742
       4.829
       4.043
       2.337
      -0.132
      -2.991
      -5.656
      -7.487
      -8.075
      -7.473
      -6.157
      -4.710
      -3.440
      -2.258
      -0.878
       0.849
       2.750
       4.434
       5.533
       5.879
       5.536
       4.725
       3.749
       2.893
       2.360
       2.221
       2.431
       2.828
       3.142
       3.028
       2.222
       0.746
      -1.002
      -2.432
      -3.121
      -3.079
      -2.677
      -2.310
      -2.076
      -1.749
      -1.066
      -0.061
       0.863
       1.226
       0.879
       0.159
      -0.361
      -0.326
       0.126
       0.473
       0.205
      -0.829
      -2.336
      -3.767
      -4.609
      -4.635
      -3.999
      -3.168
      -2.668
      -2.760
      -3.266
      -3.704
      -3.646
      -3.043
      -2.221
      -1.569
      -1.183
      -0.783
      -0.008
       1.204
       2.482
       3.299
       3.388
       2.946
