Origin Time       29/05/2008 10:34:46
Lat.              26.6 N 
Long.             91.8 E 
Depth (Km)         33.0
Magnitude         4.2
 Region           DARRANG-ASSAM                                                    
 Above details taken from IMD 
   
Station Code      MNG
Station Lat.       26.003
Station Long.      92.029
Station Height(m)   92.3
Site Class        C   Vs30 between 200 m/sec to 375 m/sec *  
Record Time       29.05.2008 10:34:40.089
Sampling Rate     200. Hz
 Record Duration   73.555 Sec.
 Direction         Vert. (Up positive)
Max. Acceleration    -23.316 cm/sec**2
     
  * For reference see Site Classification link of website 
     
 Base Line Corrected and Low Pass Filtered (Cut Off at 35 Hz) Time History
 Acceleration data in cm/sec**2
    
[...]
      -2.676
      -2.929
      -2.465
      -1.605
      -0.723
      -0.083
       0.237
       0.303
       0.243
       0.200
       0.312
       0.659
       1.193
       1.699
       1.843
       1.353
       0.256
      -1.032
      -1.891
      -1.883
      -1.023
       0.238
       1.302
       1.758
       1.515
       0.747
      -0.216
      -0.970
      -1.186
      -0.843
      -0.268
       0.123
       0.190
       0.112
       0.100
       0.134
       0.063
      -0.089
      -0.049
       0.434
       1.236
       1.844
       1.721
       0.758
      -0.597
      -1.629
      -1.830
      -1.190
      -0.138
       0.768
       1.149
       0.923
       0.261
      -0.517
      -1.070
      -1.162
      -0.765
      -0.061
       0.640
       1.041
       0.981
       0.498
      -0.227
      -0.984
      -1.597
      -1.913
      -1.808
      -1.278
      -0.529
       0.110
       0.418
       0.424
       0.326
       0.277
       0.285
       0.276
       0.265
       0.390
       0.746
       1.218
       1.545
       1.530
       1.165
       0.578
      -0.093
      -0.744
      -1.273
      -1.568
      -1.580
      -1.377
      -1.078
      -0.758
      -0.413
      -0.027
       0.365
       0.681
       0.879
       1.010
       1.168
       1.377
       1.523
       1.431
       1.001
       0.275
      -0.592
      -1.380
      -1.871
      -1.918
      -1.493
      -0.681
       0.338
       1.291
       1.894
       1.979
       1.578
       0.915
       0.265
      -0.231
      -0.654
      -1.165
      -1.805
      -2.401
      -2.665
      -2.380
      -1.557
      -0.434
       0.663
       1.477
       1.932
       2.142
       2.279
       2.362
       2.187
       1.508
       0.289
      -1.231
      -2.672
      -3.699
      -4.111
      -3.831
      -2.844
      -1.169
       1.060
       3.490
       5.523
       6.462
       5.819
       3.605
       0.421
      -2.759
      -5.011
      -5.838
      -5.247
      -3.570
      -1.277
       1.096
       3.001
       4.015
       3.965
       2.970
       1.375
      -0.360
      -1.778
      -2.514
      -2.396
      -1.528
      -0.255
       1.004
       1.932
       2.368
       2.237
       1.463
       0.048
      -1.749
      -3.366
      -4.183
      -3.818
      -2.283
       0.025
       2.433
       4.197
       4.757
       3.939
       2.035
      -0.332
      -2.479
      -3.864
      -4.132
      -3.164
      -1.213
       1.031
       2.646
       2.937
       1.845
      -0.048
      -1.908
      -3.121
      -3.469
      -2.985
      -1.749
       0.150
       2.466
       4.672
       6.058
       6.019
       4.354
       1.413
      -1.972
      -4.771
      -6.154
      -5.810
      -4.014
      -1.452
       1.103
       3.058
       4.068
       3.958
       2.721
       0.639
      -1.637
      -3.258
      -3.578
      -2.533
      -0.679
       1.146
       2.240
       2.299
       1.456
       0.187
      -0.900
      -1.333
      -0.989
      -0.130
       0.783
       1.421
       1.752
       1.882
       1.784
       1.251
       0.171
      -1.179
      -2.190
      -2.363
      -1.678
      -0.559
       0.489
       1.194
       1.521
       1.488
       1.047
       0.173
      -1.002
      -2.222
      -3.214
      -3.713
      -3.441
      -2.214
      -0.165
       2.110
       3.743
       4.102
       3.202
       1.649
       0.211
      -0.586
      -0.638
      -0.218
       0.240
       0.421
       0.280
      -0.015
      -0.284
      -0.497
      -0.748
      -1.073
      -1.332
      -1.312
      -0.932
      -0.329
       0.240
       0.543
       0.508
       0.265
       0.073
       0.127
       0.403
       0.644
       0.561
       0.099
      -0.450
      -0.696
      -0.541
      -0.282
      -0.302
      -0.643
      -0.897
      -0.557
       0.508
       1.919
       3.074
       3.480
       2.882
       1.304
      -0.878
      -2.959
      -4.154
      -4.013
      -2.686
      -0.820
       0.825
       1.726
       1.745
       1.114
       0.284
      -0.294
      -0.350
       0.122
       0.888
       1.607
       1.940
       1.618
       0.576
      -0.845
      -1.973
      -2.237
      -1.572
      -0.418
       0.623
       1.144
       1.028
       0.344
      -0.713
      -1.743
      -2.188
      -1.653
      -0.247
       1.399
       2.531
       2.732
       2.044
       0.764
      -0.747
      -2.073
      -2.751
      -2.449
      -1.210
       0.513
       2.089
       3.003
       3.012
       2.148
       0.713
      -0.751
      -1.642
      -1.633
      -0.950
      -0.260
      -0.181
      -0.804
      -1.664
      -2.138
      -1.921
      -1.193
      -0.406
       0.103
       0.323
       0.491
       0.865
       1.497
       2.122
       2.314
       1.819
       0.767
      -0.435
      -1.360
      -1.732
      -1.458
      -0.596
       0.608
       1.720
       2.283
       2.077
       1.227
       0.036
      -1.229
      -2.376
      -3.181
      -3.298
      -2.411
      -0.559
       1.710
       3.565
       4.283
       3.541
       1.576
      -0.869
      -2.831
      -3.554
      -2.795
      -0.887
       1.415
       3.219
       3.845
       3.103
       1.361
      -0.695
      -2.443
      -3.532
      -3.855
      -3.421
      -2.295
      -0.645
       1.176
       2.681
       3.480
       3.489
       2.920
       2.073
       1.130
       0.106
      -1.044
      -2.283
      -3.385
      -3.962
      -3.675
      -2.516
      -0.892
       0.589
       1.470
       1.649
       1.361
       0.972
       0.712
       0.525
       0.196
      -0.362
      -0.894
      -0.943
      -0.238
       1.002
       2.178
       2.706
       2.360
       1.322
      -0.010
      -1.256
      -2.146
      -2.514
      -2.314
      -1.640
      -0.647
       0.518
       1.676
       2.527
       2.699
       1.956
       0.421
      -1.410
      -2.892
      -3.515
      -3.093
      -1.819
      -0.168
       1.344
       2.394
       2.898
       2.897
       2.450
       1.611
       0.501
      -0.634
      -1.462
      -1.732
      -1.398
      -0.619
       0.307
       1.012
       1.173
       0.691
      -0.205
      -1.085
      -1.622
      -1.741
      -1.498
      -0.894
       0.081
       1.238
       2.149
       2.410
       1.951
       1.037
       0.021
      -0.833
      -1.384
      -1.585
      -1.484
      -1.232
      -1.044
      -1.077
      -1.252
      -1.251
      -0.745
       0.319
       1.609
       2.573
       2.780
       2.180
       1.044
      -0.251
      -1.351
      -1.929
      -1.753
      -0.835
       0.483
       1.626
       2.081
       1.692
       0.705
      -0.469
      -1.495
      -2.187
      -2.460
      -2.305
      -1.773
      -0.936
       0.125
       1.276
       2.272
       2.783
       2.590
       1.782
       0.712
      -0.257
      -0.939
      -1.332
      -1.555
      -1.698
      -1.663
      -1.223
      -0.314
       0.797
       1.609
       1.664
       0.836
      -0.503
      -1.655
      -1.993
      -1.293
       0.179
       1.839
       3.113
       3.683
       3.501
       2.697
       1.515
       0.224
      -0.978
      -1.960
      -2.626
      -2.888
      -2.675
      -1.993
      -1.012
      -0.024
       0.707
       1.057
       1.028
       0.705
       0.199
      -0.388
      -0.957
      -1.375
      -1.496
      -1.205
      -0.496
       0.465
       1.351
       1.832
       1.749
       1.195
       0.422
      -0.335
      -0.929
      -1.234
      -1.110
      -0.527
       0.340
       1.190
       1.729
       1.724
       1.060
      -0.149
      -1.465
      -2.238
      -2.004
      -0.883
       0.457
       1.332
       1.505
       1.178
       0.671
       0.139
      -0.421
      -0.949
      -1.208
      -0.968
      -0.270
       0.564
       1.158
       1.280
       0.893
       0.095
      -0.919
      -1.850
      -2.369
      -2.287
      -1.652
      -0.636
       0.556
       1.687
       2.493
       2.757
       2.386
       1.466
       0.235
      -0.998
      -1.909
      -2.186
      -1.662
      -0.475
       0.948
       2.095
       2.590
       2.302
       1.313
      -0.177
      -1.842
      -3.193
      -3.691
      -3.033
      -1.375
       0.717
       2.532
       3.527
       3.473
       2.438
       0.754
      -1.032
      -2.376
      -2.990
      -2.850
      -2.020
      -0.614
       1.045
       2.360
       2.741
       2.061
       0.826
      -0.215
      -0.644
      -0.578
      -0.366
      -0.183
       0.060
       0.442
       0.779
       0.749
       0.240
      -0.532
      -1.223
      -1.580
      -1.503
      -1.046
      -0.408
       0.144
       0.423
       0.441
       0.357
       0.321
       0.364
       0.419
       0.415
       0.313
       0.089
      -0.264
      -0.677
      -0.979
      -0.992
      -0.706
      -0.304
       0.012
       0.203
       0.388
       0.657
       0.911
       0.952
       0.745
       0.487
       0.378
       0.398
       0.315
      -0.099
      -0.803
      -1.426
      -1.564
      -1.155
      -0.486
       0.147
       0.667
       1.102
       1.343
       1.143
       0.423
      -0.475
      -0.954
      -0.622
       0.415
       1.654
       2.496
       2.536
       1.720
       0.325
      -1.185
      -2.375
      -3.016
      -3.091
      -2.662
      -1.800
      -0.642
       0.540
       1.380
       1.601
       1.208
       0.552
       0.099
       0.086
       0.399
       0.799
       1.169
       1.504
       1.749
       1.752
       1.364
       0.544
      -0.621
      -1.952
      -3.203
      -4.055
      -4.160
      -3.310
      -1.596
       0.572
       2.581
       3.811
       3.860
       2.680
       0.623
      -1.585
      -3.055
      -3.196
      -2.065
      -0.246
       1.563
       2.861
       3.409
       3.157
       2.200
       0.797
      -0.661
      -1.793
      -2.388
      -2.410
      -1.889
      -0.916
       0.245
       1.125
       1.297
       0.762
       0.014
      -0.349
      -0.131
       0.338
       0.529
       0.152
      -0.634
      -1.357
      -1.563
      -1.066
      -0.020
       1.145
       1.902
       1.930
       1.361
       0.692
       0.362
       0.394
       0.458
       0.254
      -0.216
      -0.733
      -1.089
      -1.146
      -0.806
      -0.037
       1.048
       2.178
       2.995
       3.227
       2.831
       1.957
       0.825
      -0.295
      -1.088
      -1.340
      -1.127
      -0.741
      -0.362
       0.121
       0.817
       1.431
       1.379
       0.435
      -0.921
      -1.934
      -2.277
      -2.221
      -2.183
      -2.239
      -2.150
      -1.791
      -1.378
      -1.269
      -1.641
      -2.389
      -3.268
      -4.055
      -4.541
      -4.475
      -3.720
      -2.499
      -1.260
      -0.184
       1.026
       2.738
       4.866
       6.795
       7.773
       7.336
       5.481
       2.626
      -0.478
      -2.934
      -4.082
      -3.816
      -2.504
      -0.644
       1.388
       3.326
       4.859
       5.575
       5.206
       3.922
       2.243
       0.609
      -0.915
      -2.508
      -4.253
      -5.934
      -7.113
      -7.360
      -6.432
      -4.385
      -1.644
       1.119
       3.341
       4.853
       5.794
       6.315
       6.395
       5.881
       4.663
       2.799
       0.497
      -1.960
      -4.261
      -6.088
      -7.148
      -7.175
      -5.955
      -3.509
      -0.320
       2.694
       4.584
       4.831
       3.579
       1.496
      -0.599
      -2.054
      -2.508
      -1.877
      -0.422
       1.227
       2.331
       2.526
       2.014
       1.238
       0.386
      -0.636
      -1.791
      -2.620
      -2.530
      -1.350
       0.457
       2.100
       2.958
       2.871
       2.071
       0.902
      -0.396
      -1.679
      -2.842
      -3.836
      -4.673
      -5.290
      -5.432
      -4.753
      -3.080
      -0.533
       2.483
       5.327
       7.254
       7.705
       6.627
       4.510
       2.037
      -0.266
      -2.030
      -2.878
      -2.585
      -1.444
      -0.278
       0.185
      -0.005
      -0.064
       0.653
       1.840
       2.454
       1.789
       0.206
      -1.247
      -1.811
      -1.552
      -1.072
      -0.830
      -0.807
      -0.706
      -0.260
       0.658
       1.991
       3.375
       4.203
       4.072
       3.202
       2.293
       1.855
       1.670
       0.922
      -1.043
      -3.997
      -6.824
      -8.263
      -7.747
      -5.675
      -3.069
      -1.003
      -0.116
      -0.346
      -1.008
      -1.209
      -0.415
       1.150
       2.710
       3.648
       4.003
       4.211
       4.441
       4.300
       3.240
       1.269
      -0.774
      -1.760
      -1.198
       0.368
       1.855
       2.444
       2.030
       1.121
       0.323
      -0.139
      -0.439
      -0.794
      -1.219
      -1.520
      -1.379
      -0.553
       0.777
       1.857
       1.747
      -0.060
      -3.250
      -6.806
      -9.632
     -11.214
     -11.638
     -11.049
      -9.274
      -5.969
      -1.034
       5.011
      10.967
      15.433
      17.556
      17.411
      15.779
      13.585
      11.310
       8.753
       5.438
       1.230
      -3.548
      -8.475
     -13.318
     -17.898
     -21.636
     -23.316
     -21.673
     -16.446
      -8.777
      -0.554
       6.526
      11.521
      14.315
      15.252
      14.676
      12.974
      10.892
       9.318
       8.582
       8.173
       7.251
       5.349
       2.560
      -0.853
      -4.840
      -9.417
     -14.137
     -17.881
     -19.346
     -17.913
     -14.184
      -9.616
      -5.392
      -1.604
       2.354
       6.696
      10.719
      13.321
      13.900
      12.780
      10.925
       9.269
       8.159
       7.193
       5.504
       2.393
      -2.026
      -6.655
     -10.010
     -11.233
     -10.705
      -9.650
      -9.013
      -8.577
      -7.234
      -4.227
      -0.113
       3.515
       5.306
       5.170
       4.145
       3.373
       3.223
       3.307
       3.126
       2.521
       1.561
       0.273
      -1.262
      -2.621
      -3.148
      -2.500
      -0.984
       0.785
       2.455
       4.022
       5.423
       6.231
       5.867
       4.119
       1.412
      -1.394
      -3.469
      -4.403
      -4.307
      -3.646
      -2.871
      -2.138
      -1.379
      -0.558
       0.263
       1.026
       1.713
       2.252
       2.518
       2.495
       2.363
       2.348
       2.506
       2.666
       2.534
       1.858
       0.570
      -1.209
      -3.260
      -5.257
      -6.736
      -7.256
      -6.707
      -5.367
      -3.609
      -1.630
       0.497
       2.538
       3.967
       4.221
       3.193
       1.486
       0.128
      -0.155
       0.473
       1.063
       0.692
      -0.765
      -2.612
      -3.998
      -4.572
      -4.575
      -4.398
      -4.053
      -3.109
      -1.194
       1.477
       4.158
       6.131
       7.185
       7.592
       7.715
       7.633
       7.088
       5.751
       3.561
       0.860
      -1.764
      -3.817
      -5.145
      -5.905
      -6.289
      -6.268
      -5.583
      -3.971
      -1.474
       1.407
       3.900
       5.404
       5.800
       5.402
       4.633
       3.789
       3.002
       2.315
       1.728
       1.229
       0.778
       0.252
      -0.518
      -1.574
      -2.709
      -3.590
      -4.056
      -4.240
      -4.370
      -4.470
      -4.343
      -3.835
      -3.070
      -2.366
      -1.938
      -1.718
      -1.455
      -0.964
      -0.315
       0.190
       0.203
      -0.437
      -1.476
      -2.195
      -1.717
       0.376
       3.538
       6.392
       7.583
       6.775
       4.864
       3.146
       2.199
       1.564
       0.410
      -1.592
      -3.992
      -5.963
      -6.826
      -6.272
      -4.399
      -1.768
       0.681
       2.076
       2.190
       1.609
       1.238
       1.542
       2.303
       3.088
       3.814
       4.710
       5.860
       6.966
       7.572
       7.345
       6.085
       3.657
       0.175
      -3.711
      -6.966
      -8.826
      -9.302
      -8.998
      -8.443
      -7.602
      -6.054
      -3.659
      -0.979
       1.069
       2.009
       2.201
       2.478
       3.409
       4.830
       6.047
       6.450
       5.912
       4.707
       3.204
       1.673
       0.257
      -0.995
      -2.059
      -2.924
      -3.586
      -3.969
      -3.926
      -3.449
      -2.854
      -2.619
      -2.991
      -3.713
      -4.157
      -3.812
      -2.717
      -1.402
      -0.438
      -0.087
      -0.238
      -0.547
      -0.668
      -0.409
       0.245
       1.140
       1.976
       2.469
       2.580
       2.570
       2.764
       3.245
       3.740
       3.836
       3.338
       2.407
       1.348
       0.373
      -0.447
      -1.075
      -1.361
      -1.012
       0.150
       1.832
       3.260
       3.650
       2.787
       1.196
      -0.269
      -1.079
      -1.280
      -1.187
      -0.968
      -0.593
      -0.093
       0.271
       0.186
      -0.451
      -1.527
      -2.918
      -4.463
      -5.750
      -6.135
      -5.194
      -3.177
      -0.962
       0.524
       0.964
       0.777
       0.643
       0.944
       1.616
       2.390
       3.066
       3.603
       4.071
       4.557
       5.013
       5.110
       4.363
       2.553
       0.076
      -2.200
      -3.461
      -3.484
      -2.772
      -2.141
      -2.131
      -2.708
      -3.400
      -3.662
      -3.233
      -2.243
      -1.029
       0.127
       1.107
       1.885
       2.360
       2.234
       1.190
      -0.676
      -2.639
      -3.677
      -3.106
      -1.019
       1.789
       4.384
       6.236
       7.281
       7.590
       7.097
       5.679
       3.446
       0.899
      -1.277
      -2.661
      -3.343
      -3.709
      -4.036
      -4.318
      -4.435
      -4.454
      -4.709
      -5.505
      -6.674
      -7.482
      -7.071
      -5.086
      -1.977
       1.300
       3.918
       5.622
       6.628
       7.246
       7.624
       7.745
       7.524
       6.918
       5.978
       4.790
       3.399
       1.792
      -0.099
      -2.279
      -4.503
      -6.261
      -7.080
      -6.876
      -6.003
      -4.964
      -4.038
      -3.148
      -2.085
      -0.817
       0.499
       1.790
       3.205
       4.858
       6.418
       7.097
       6.231
       3.908
       0.941
      -1.760
      -3.764
      -5.174
      -6.251
      -7.028
      -7.249
      -6.602
      -4.908
      -2.210
       1.117
       4.293
       6.402
       6.981
       6.374
       5.421
       4.721
       4.179
       3.305
       1.982
       0.835
       0.699
       1.681
       2.823
       2.776
       0.877
      -2.373
      -5.775
      -8.244
      -9.282
      -8.949
      -7.631
      -5.775
      -3.677
      -1.480
       0.619
       2.250
       3.046
       2.939
       2.257
       1.552
       1.290
       1.590
       2.192
       2.664
