Origin Time       29/05/2008 10:34:46 UTC
Lat.              26.6 N 
Long.             91.8 E 
Depth (Km)         33.0
Magnitude         4.2
 Region           DARRANG-ASSAM                                                    
 Above details taken from IMD 
    
Station Code      MNG
Station Lat.       26.003  N
Station Long.      92.029  E
Station Height(m)   92.3
Site Class        C   Vs30 between 200 m/sec to 375 m/sec *  
Record Time       29.05.2008 10:34:40.089 UTC
Sampling Rate     200. Hz
 Record Duration   73.555 Sec.
 Direction         N-S (N positive)
Max. Acceleration    -33.134 cm/sec**2
     
  * For reference see Site Classification link of website 
     
 Base Line Corrected and Low Pass Filtered (Cut Off at 35 Hz) Time History
 Acceleration data in cm/sec**2
    
[...]
       0.297
       0.449
       0.602
       0.680
       0.634
       0.468
       0.224
      -0.037
      -0.251
      -0.364
      -0.350
      -0.226
      -0.050
       0.098
       0.139
       0.028
      -0.225
      -0.537
      -0.776
      -0.793
      -0.488
       0.128
       0.889
       1.518
       1.753
       1.490
       0.843
       0.045
      -0.675
      -1.174
      -1.387
      -1.329
      -1.093
      -0.830
      -0.653
      -0.554
      -0.424
      -0.152
       0.276
       0.776
       1.225
       1.515
       1.558
       1.303
       0.769
       0.081
      -0.558
      -0.953
      -1.011
      -0.793
      -0.480
      -0.266
      -0.243
      -0.355
      -0.456
      -0.412
      -0.195
       0.124
       0.427
       0.629
       0.688
       0.600
       0.375
       0.049
      -0.296
      -0.537
      -0.543
      -0.259
       0.219
       0.643
       0.728
       0.328
      -0.437
      -1.218
      -1.622
      -1.431
      -0.702
       0.274
       1.131
       1.595
       1.575
       1.144
       0.474
      -0.222
      -0.740
      -0.939
      -0.808
      -0.492
      -0.218
      -0.151
      -0.299
      -0.526
      -0.651
      -0.545
      -0.180
       0.368
       0.947
       1.384
       1.548
       1.392
       0.962
       0.386
      -0.144
      -0.438
      -0.403
      -0.118
       0.196
       0.327
       0.207
      -0.062
      -0.316
      -0.442
      -0.427
      -0.332
      -0.233
      -0.169
      -0.126
      -0.044
       0.124
       0.356
       0.539
       0.531
       0.258
      -0.221
      -0.728
      -1.060
      -1.091
      -0.839
      -0.447
      -0.111
       0.019
      -0.084
      -0.314
      -0.507
      -0.539
      -0.384
      -0.098
       0.221
       0.476
       0.588
       0.528
       0.340
       0.138
       0.037
       0.069
       0.150
       0.133
      -0.090
      -0.499
      -0.921
      -1.106
      -0.866
      -0.229
       0.533
       1.046
       1.060
       0.596
      -0.087
      -0.663
      -0.902
      -0.771
      -0.416
      -0.052
       0.173
       0.255
       0.316
       0.470
       0.714
       0.904
       0.871
       0.562
       0.100
      -0.284
      -0.406
      -0.249
       0.051
       0.315
       0.440
       0.432
       0.355
       0.263
       0.168
       0.063
      -0.048
      -0.132
      -0.143
      -0.077
      -0.004
      -0.036
      -0.214
      -0.440
      -0.540
      -0.420
      -0.154
       0.085
       0.193
       0.215
       0.281
       0.464
       0.704
       0.856
       0.797
       0.505
       0.050
      -0.464
      -0.960
      -1.378
      -1.633
      -1.599
      -1.180
      -0.402
       0.546
       1.383
       1.861
       1.874
       1.477
       0.835
       0.143
      -0.448
      -0.862
      -1.087
      -1.148
      -1.088
      -0.960
      -0.820
      -0.711
      -0.639
      -0.580
      -0.509
      -0.433
      -0.377
      -0.343
      -0.273
      -0.077
       0.276
       0.687
       0.964
       0.957
       0.671
       0.250
      -0.123
      -0.327
      -0.322
      -0.129
       0.183
       0.502
       0.722
       0.803
       0.794
       0.762
       0.724
       0.626
       0.420
       0.138
      -0.125
      -0.289
      -0.359
      -0.408
      -0.507
      -0.640
      -0.705
      -0.600
      -0.319
       0.036
       0.316
       0.437
       0.433
       0.430
       0.534
       0.736
       0.906
       0.881
       0.581
       0.050
      -0.581
      -1.163
      -1.567
      -1.687
      -1.475
      -0.980
      -0.361
       0.178
       0.490
       0.547
       0.432
       0.279
       0.189
       0.175
       0.161
       0.040
      -0.227
      -0.546
      -0.724
      -0.614
      -0.227
       0.282
       0.746
       1.095
       1.352
       1.520
       1.518
       1.217
       0.549
      -0.402
      -1.396
      -2.110
      -2.278
      -1.846
      -1.031
      -0.219
       0.276
       0.400
       0.354
       0.394
       0.635
       0.992
       1.268
       1.291
       1.004
       0.488
      -0.088
      -0.552
      -0.820
      -0.930
      -0.965
      -0.958
      -0.863
      -0.613
      -0.191
       0.333
       0.827
       1.150
       1.185
       0.897
       0.395
      -0.073
      -0.280
      -0.212
      -0.101
      -0.234
      -0.687
      -1.244
      -1.563
      -1.431
      -0.853
       0.007
       0.932
       1.695
       2.070
       1.887
       1.128
      -0.005
      -1.134
      -1.837
      -1.834
      -1.143
      -0.094
       0.831
       1.249
       1.065
       0.485
      -0.151
      -0.563
      -0.639
      -0.437
      -0.126
       0.106
       0.149
       0.017
      -0.170
      -0.274
      -0.240
      -0.108
       0.046
       0.194
       0.357
       0.534
       0.648
       0.586
       0.304
      -0.108
      -0.483
      -0.670
      -0.607
      -0.315
       0.098
       0.452
       0.560
       0.334
      -0.140
      -0.636
      -0.919
      -0.888
      -0.610
      -0.269
      -0.052
      -0.031
      -0.105
      -0.070
       0.226
       0.758
       1.338
       1.723
       1.731
       1.302
       0.513
      -0.419
      -1.185
      -1.515
      -1.319
      -0.732
      -0.027
       0.538
       0.817
       0.783
       0.501
       0.089
      -0.320
      -0.622
      -0.764
      -0.730
      -0.513
      -0.143
       0.269
       0.535
       0.504
       0.178
      -0.268
      -0.598
      -0.650
      -0.424
      -0.062
       0.247
       0.379
       0.338
       0.224
       0.143
       0.134
       0.181
       0.256
       0.334
       0.345
       0.183
      -0.206
      -0.720
      -1.124
      -1.194
      -0.863
      -0.259
       0.379
       0.806
       0.865
       0.555
       0.044
      -0.404
      -0.577
      -0.437
      -0.115
       0.191
       0.344
       0.318
       0.174
      -0.008
      -0.168
      -0.276
      -0.310
      -0.231
      -0.005
       0.334
       0.658
       0.808
       0.703
       0.412
       0.093
      -0.143
      -0.299
      -0.436
      -0.574
      -0.674
      -0.673
      -0.523
      -0.194
       0.311
       0.895
       1.362
       1.506
       1.257
       0.737
       0.178
      -0.233
      -0.440
      -0.500
      -0.496
      -0.469
      -0.391
      -0.196
       0.139
       0.529
       0.795
       0.774
       0.436
      -0.080
      -0.554
      -0.818
      -0.837
      -0.688
      -0.495
      -0.371
      -0.373
      -0.477
      -0.595
      -0.609
      -0.429
      -0.050
       0.414
       0.754
       0.784
       0.480
       0.018
      -0.353
      -0.494
      -0.452
      -0.359
      -0.287
      -0.205
      -0.044
       0.222
       0.552
       0.854
       1.019
       0.953
       0.638
       0.186
      -0.182
      -0.267
      -0.033
       0.364
       0.662
       0.658
       0.332
      -0.143
      -0.533
      -0.711
      -0.725
      -0.743
      -0.897
      -1.156
      -1.356
      -1.337
      -1.059
      -0.597
      -0.062
       0.452
       0.864
       1.063
       0.942
       0.508
      -0.039
      -0.390
      -0.338
       0.052
       0.473
       0.631
       0.491
       0.281
       0.272
       0.555
       0.990
       1.339
       1.421
       1.192
       0.705
       0.051
      -0.669
      -1.342
      -1.821
      -1.944
      -1.629
      -0.964
      -0.196
       0.403
       0.691
       0.700
       0.551
       0.350
       0.150
      -0.040
      -0.260
      -0.589
      -1.058
      -1.563
      -1.880
      -1.799
      -1.277
      -0.452
       0.465
       1.310
       1.969
       2.328
       2.289
       1.852
       1.176
       0.519
       0.091
      -0.072
      -0.093
      -0.119
      -0.190
      -0.236
      -0.159
       0.068
       0.374
       0.633
       0.744
       0.701
       0.593
       0.530
       0.535
       0.502
       0.289
      -0.157
      -0.746
      -1.311
      -1.705
      -1.875
      -1.853
      -1.698
      -1.460
      -1.155
      -0.769
      -0.298
       0.193
       0.569
       0.714
       0.642
       0.529
       0.589
       0.890
       1.271
       1.435
       1.154
       0.413
      -0.558
      -1.407
      -1.840
      -1.766
      -1.317
      -0.751
      -0.283
       0.036
       0.284
       0.534
       0.766
       0.896
       0.875
       0.713
       0.447
       0.122
      -0.191
      -0.374
      -0.329
      -0.101
       0.127
       0.157
      -0.067
      -0.427
      -0.724
      -0.809
      -0.641
      -0.274
       0.186
       0.620
       0.950
       1.147
       1.213
       1.139
       0.931
       0.667
       0.498
       0.545
       0.764
       0.940
       0.840
       0.416
      -0.152
      -0.603
      -0.780
      -0.719
      -0.576
      -0.495
      -0.517
      -0.557
      -0.475
      -0.194
       0.217
       0.568
       0.669
       0.460
       0.049
      -0.355
      -0.580
      -0.592
      -0.508
      -0.503
      -0.667
      -0.920
      -1.073
      -1.003
      -0.749
      -0.458
      -0.245
      -0.117
      -0.010
       0.123
       0.279
       0.417
       0.504
       0.522
       0.474
       0.380
       0.236
       0.011
      -0.310
      -0.656
      -0.858
      -0.748
      -0.312
       0.253
       0.654
       0.696
       0.403
      -0.045
      -0.458
      -0.730
      -0.825
      -0.721
      -0.414
       0.046
       0.534
       0.903
       1.069
       1.042
       0.883
       0.642
       0.337
      -0.014
      -0.366
      -0.652
      -0.812
      -0.811
      -0.635
      -0.299
       0.120
       0.488
       0.675
       0.633
       0.425
       0.180
       0.009
      -0.024
       0.117
       0.419
       0.773
       0.974
       0.835
       0.337
      -0.309
      -0.767
      -0.792
      -0.395
       0.172
       0.575
       0.582
       0.187
      -0.410
      -0.917
      -1.129
      -1.034
      -0.776
      -0.490
      -0.179
       0.232
       0.738
       1.171
       1.301
       1.033
       0.501
      -0.043
      -0.414
      -0.576
      -0.583
      -0.477
      -0.269
       0.016
       0.306
       0.510
       0.562
       0.433
       0.128
      -0.307
      -0.755
      -1.053
      -1.081
      -0.831
      -0.396
       0.094
       0.502
       0.696
       0.568
       0.116
      -0.483
      -0.920
      -0.923
      -0.413
       0.451
       1.338
       1.895
       1.917
       1.465
       0.821
       0.294
      -0.028
      -0.303
      -0.723
      -1.270
      -1.709
      -1.817
      -1.587
      -1.197
      -0.806
      -0.412
       0.063
       0.625
       1.162
       1.544
       1.711
       1.673
       1.445
       1.022
       0.406
      -0.359
      -1.189
      -1.940
      -2.379
      -2.237
      -1.397
      -0.069
       1.254
       2.069
       2.175
       1.775
       1.279
       1.015
       1.032
       1.112
       0.928
       0.276
      -0.746
      -1.758
      -2.334
      -2.294
      -1.804
      -1.207
      -0.746
      -0.443
      -0.201
       0.049
       0.285
       0.411
       0.314
      -0.045
      -0.566
      -1.017
      -1.151
      -0.879
      -0.338
       0.224
       0.614
       0.771
       0.729
       0.560
       0.351
       0.184
       0.115
       0.130
       0.169
       0.190
       0.216
       0.310
       0.491
       0.710
       0.880
       0.929
       0.836
       0.631
       0.382
       0.153
      -0.046
      -0.275
      -0.595
      -0.970
      -1.250
      -1.269
      -0.983
      -0.503
      -0.004
       0.386
       0.634
       0.750
       0.757
       0.690
       0.612
       0.582
       0.594
       0.571
       0.447
       0.244
       0.074
       0.025
       0.072
       0.088
      -0.045
      -0.348
      -0.744
      -1.115
      -1.347
      -1.358
      -1.131
      -0.750
      -0.374
      -0.164
      -0.191
      -0.401
      -0.631
      -0.665
      -0.342
       0.324
       1.086
       1.586
       1.612
       1.263
       0.812
       0.432
       0.075
      -0.369
      -0.840
      -1.084
      -0.892
      -0.297
       0.464
       1.141
       1.583
       1.700
       1.399
       0.635
      -0.460
      -1.546
      -2.226
      -2.266
      -1.702
      -0.802
       0.058
       0.528
       0.428
      -0.142
      -0.846
      -1.333
      -1.491
      -1.515
      -1.745
      -2.402
      -3.427
      -4.520
      -5.334
      -5.666
      -5.554
      -5.237
      -4.989
      -4.896
      -4.768
      -4.272
      -3.224
      -1.785
      -0.397
       0.508
       0.793
       0.647
       0.392
       0.254
       0.301
       0.513
       0.886
       1.452
       2.237
       3.244
       4.502
       6.075
       8.019
      10.295
      12.705
      14.900
      16.515
      17.363
      17.530
      17.224
      16.477
      14.943
      11.995
       7.105
       0.285
      -7.723
     -15.614
     -21.983
     -25.841
     -26.969
     -25.791
     -22.838
     -18.269
     -11.910
      -3.789
       5.368
      14.162
      21.101
      25.334
      26.924
      26.448
      24.245
      19.985
      12.978
       3.063
      -8.692
     -20.123
     -28.835
     -33.134
     -32.493
     -27.508
     -19.563
     -10.433
      -1.869
       4.854
       9.264
      11.679
      12.850
      13.490
      13.914
      13.966
      13.294
      11.766
       9.639
       7.343
       5.096
       2.703
      -0.250
      -3.938
      -7.965
     -11.496
     -13.746
     -14.411
     -13.699
     -11.997
      -9.511
      -6.265
      -2.446
       1.332
       4.230
       5.726
       5.997
       5.780
       5.810
       6.319
       6.949
       7.096
       6.356
       4.762
       2.665
       0.362
      -2.152
      -4.999
      -7.939
     -10.171
     -10.781
      -9.531
      -7.230
      -5.235
      -4.435
      -4.541
      -4.277
      -2.367
       1.393
       5.770
       8.764
       8.890
       6.152
       1.993
      -1.703
      -3.773
      -4.252
      -3.896
      -3.275
      -2.231
      -0.156
       3.196
       7.172
      10.462
      11.943
      11.357
       9.280
       6.508
       3.485
       0.211
      -3.384
      -7.033
     -10.077
     -11.786
     -11.812
     -10.424
      -8.366
      -6.386
      -4.725
      -2.976
      -0.486
       2.991
       6.916
      10.170
      11.716
      11.259
       9.420
       7.260
       5.463
       3.820
       1.505
      -2.040
      -6.396
     -10.280
     -12.403
     -12.327
     -10.555
      -7.886
      -4.775
      -1.291
       2.468
       6.097
       9.035
      10.925
      11.709
      11.371
       9.705
       6.491
       1.975
      -2.842
      -6.540
      -8.076
      -7.447
      -5.643
      -3.914
      -2.939
      -2.603
      -2.447
      -2.276
      -2.282
      -2.618
      -2.948
      -2.523
      -0.770
       2.145
       5.281
       7.475
       8.061
       7.203
       5.609
       3.926
       2.356
       0.765
      -0.920
      -2.470
      -3.473
      -3.642
      -3.008
      -1.880
      -0.707
       0.030
      -0.084
      -1.220
      -3.111
      -5.010
      -5.964
      -5.310
      -3.116
      -0.218
       2.220
       3.388
       3.270
       2.511
       1.848
       1.560
       1.355
       0.752
      -0.391
      -1.651
      -2.293
      -1.776
      -0.115
       2.138
       4.196
       5.400
       5.464
       4.558
       3.220
       2.056
       1.368
       0.926
       0.127
      -1.504
      -3.841
      -6.080
      -7.186
      -6.523
      -4.231
      -1.116
       1.813
       3.818
       4.670
       4.605
       4.097
       3.544
       2.998
       2.128
       0.534
      -1.778
      -4.198
      -5.844
      -6.216
      -5.626
      -4.988
      -5.133
      -6.196
      -7.552
      -8.246
      -7.569
      -5.404
      -2.194
       1.384
       4.788
       7.777
      10.290
      12.165
      13.039
      12.565
      10.728
       7.917
       4.679
       1.439
      -1.517
      -3.898
      -5.391
      -5.860
      -5.492
      -4.667
      -3.692
      -2.685
      -1.705
      -0.874
      -0.298
       0.144
       0.797
       1.898
       3.213
       4.060
       3.784
       2.288
       0.139
      -1.823
      -3.031
      -3.428
      -3.261
      -2.709
      -1.711
      -0.170
       1.720
       3.361
       4.041
       3.370
       1.483
      -1.095
      -3.696
      -5.666
      -6.431
      -5.636
      -3.370
      -0.295
       2.577
       4.369
       4.736
       3.928
       2.553
       1.255
       0.455
       0.230
       0.347
       0.443
       0.310
       0.058
       0.045
       0.591
       1.682
       2.852
       3.379
       2.729
       0.962
      -1.226
      -2.896
      -3.447
      -2.983
      -2.198
      -1.872
      -2.344
      -3.311
      -4.033
      -3.813
      -2.441
      -0.308
       1.848
       3.386
       4.067
       4.082
       3.811
       3.499
       3.048
       2.072
       0.244
      -2.322
      -4.973
      -6.868
      -7.488
      -6.880
      -5.486
      -3.809
      -2.185
      -0.765
       0.431
       1.477
       2.478
       3.452
       4.250
       4.638
       4.484
       3.881
       3.137
       2.638
       2.676
       3.300
       4.240
       4.988
       5.035
       4.134
       2.411
       0.270
      -1.812
      -3.487
      -4.611
      -5.188
      -5.288
      -4.983
      -4.319
      -3.329
      -2.098
      -0.814
       0.232
       0.724
       0.423
      -0.739
      -2.619
      -4.827
      -6.731
      -7.575
      -6.807
      -4.452
      -1.244
       1.685
       3.441
       3.887
       3.646
       3.588
       4.256
       5.621
       7.255
       8.688
       9.626
       9.935
       9.490
       8.119
       5.710
       2.367
      -1.531
      -5.416
      -8.712
     -10.992
     -12.021
     -11.734
     -10.229
      -7.776
      -4.784
      -1.693
       1.145
       3.505
       5.233
       6.183
       6.253
       5.499
       4.191
       2.738
       1.492
       0.556
      -0.242
      -1.209
      -2.555
      -4.194
      -5.700
      -6.484
      -6.153
      -4.824
      -3.128
      -1.851
      -1.386
      -1.404
      -1.025
       0.547
       3.426
       6.931
      10.052
      12.054
      12.732
      12.220
      10.662
       8.138
       4.844
       1.254
      -1.945
      -4.143
      -5.095
      -4.996
      -4.336
      -3.635
      -3.207
      -3.034
      -2.829
      -2.258
      -1.207
       0.119
       1.307
       1.978
       1.973
       1.385
       0.477
      -0.431
      -1.082
      -1.431
      -1.753
      -2.548
      -4.194
      -6.550
      -8.868
     -10.197
     -10.042
      -8.741
      -7.209
      -6.238
      -5.948
      -5.808
      -5.154
      -3.700
      -1.651
       0.564
       2.587
       4.209
       5.254
       5.522
