Origin Time       13/03/2008 15:42:38 UTC
Lat.              26.6 N 
Long.             91.8 E 
Depth (Km)         33.0
Magnitude         4.0
 Region           DARRANG-ASSAM                                                    
 Above details taken from IMD 
    
Station Code      MNG
Station Lat.       26.003  N
Station Long.      92.029  E
Station Height(m)   92.3
Site Class        C   Vs30 between 200 m/sec to 375 m/sec *  
Record Time       13.03.2008 15:42:33.269 UTC
Sampling Rate     200. Hz
 Record Duration   67.525 Sec.
 Direction         N-S (N positive)
Max. Acceleration     22.817 cm/sec**2
     
  * For reference see Site Classification link of website 
     
 Base Line Corrected and Low Pass Filtered (Cut Off at 35 Hz) Time History
 Acceleration data in cm/sec**2
    
[...]
      -0.340
      -0.676
      -0.802
      -0.695
      -0.415
      -0.062
       0.275
       0.539
       0.693
       0.710
       0.584
       0.340
       0.060
      -0.138
      -0.154
       0.023
       0.283
       0.448
       0.386
       0.096
      -0.288
      -0.583
      -0.667
      -0.533
      -0.268
       0.015
       0.238
       0.380
       0.439
       0.390
       0.201
      -0.111
      -0.443
      -0.640
      -0.607
      -0.386
      -0.124
       0.041
       0.071
       0.019
      -0.045
      -0.070
      -0.024
       0.110
       0.319
       0.542
       0.688
       0.702
       0.606
       0.481
       0.401
       0.368
       0.320
       0.193
      -0.017
      -0.243
      -0.399
      -0.429
      -0.338
      -0.180
      -0.036
       0.018
      -0.057
      -0.249
      -0.497
      -0.714
      -0.831
      -0.831
      -0.755
      -0.659
      -0.567
      -0.456
      -0.295
      -0.101
       0.050
       0.085
       0.013
      -0.063
      -0.028
       0.155
       0.426
       0.678
       0.816
       0.791
       0.618
       0.381
       0.189
       0.097
       0.060
      -0.033
      -0.239
      -0.478
      -0.584
      -0.450
      -0.144
       0.139
       0.246
       0.195
       0.149
       0.273
       0.591
       0.961
       1.164
       1.034
       0.555
      -0.124
      -0.760
      -1.146
      -1.212
      -1.027
      -0.723
      -0.401
      -0.110
       0.124
       0.270
       0.308
       0.251
       0.154
       0.079
       0.052
       0.061
       0.067
       0.031
      -0.065
      -0.203
      -0.330
      -0.382
      -0.327
      -0.178
       0.014
       0.197
       0.334
       0.411
       0.446
       0.483
       0.565
       0.692
       0.786
       0.736
       0.486
       0.081
      -0.363
      -0.744
      -1.021
      -1.205
      -1.304
      -1.294
      -1.136
      -0.810
      -0.334
       0.243
       0.839
       1.352
       1.675
       1.731
       1.495
       0.999
       0.331
      -0.379
      -0.981
      -1.356
      -1.450
      -1.279
      -0.900
      -0.383
       0.187
       0.697
       1.016
       1.047
       0.792
       0.371
      -0.033
      -0.283
      -0.359
      -0.338
      -0.316
      -0.322
      -0.316
      -0.249
      -0.120
       0.024
       0.116
       0.109
      -0.005
      -0.178
      -0.322
      -0.342
      -0.203
       0.027
       0.211
       0.229
       0.059
      -0.198
      -0.377
      -0.342
      -0.058
       0.381
       0.796
       1.011
       0.938
       0.619
       0.200
      -0.147
      -0.324
      -0.340
      -0.278
      -0.204
      -0.119
       0.021
       0.220
       0.402
       0.451
       0.316
       0.062
      -0.164
      -0.246
      -0.185
      -0.098
      -0.117
      -0.262
      -0.391
      -0.302
       0.078
       0.574
       0.846
       0.645
       0.018
      -0.710
      -1.180
      -1.236
      -0.978
      -0.622
      -0.342
      -0.203
      -0.183
      -0.208
      -0.183
      -0.032
       0.238
       0.511
       0.628
       0.494
       0.163
      -0.192
      -0.385
      -0.329
      -0.091
       0.163
       0.287
       0.260
       0.181
       0.173
       0.277
       0.427
       0.522
       0.515
       0.440
       0.373
       0.369
       0.425
       0.484
       0.473
       0.341
       0.093
      -0.208
      -0.483
      -0.680
      -0.802
      -0.877
      -0.895
      -0.791
      -0.500
      -0.046
       0.420
       0.709
       0.738
       0.594
       0.467
       0.486
       0.617
       0.698
       0.572
       0.202
      -0.283
      -0.661
      -0.754
      -0.541
      -0.172
       0.116
       0.134
      -0.155
      -0.639
      -1.112
      -1.375
      -1.310
      -0.934
      -0.391
       0.114
       0.418
       0.497
       0.459
       0.449
       0.534
       0.674
       0.770
       0.742
       0.553
       0.198
      -0.278
      -0.761
      -1.071
      -1.052
      -0.688
      -0.134
       0.354
       0.572
       0.490
       0.259
       0.102
       0.150
       0.344
       0.498
       0.465
       0.266
       0.064
       0.018
       0.162
       0.387
       0.536
       0.514
       0.353
       0.183
       0.119
       0.149
       0.139
      -0.029
      -0.320
      -0.557
      -0.578
      -0.383
      -0.131
      -0.013
      -0.135
      -0.471
      -0.874
      -1.127
      -1.049
      -0.633
      -0.070
       0.377
       0.562
       0.530
       0.420
       0.324
       0.233
       0.091
      -0.120
      -0.352
      -0.517
      -0.525
      -0.324
       0.053
       0.493
       0.851
       1.014
       0.939
       0.652
       0.237
      -0.192
      -0.530
      -0.715
      -0.736
      -0.608
      -0.341
       0.047
       0.502
       0.915
       1.143
       1.076
       0.707
       0.161
      -0.355
      -0.657
      -0.687
      -0.529
      -0.329
      -0.184
      -0.093
      -0.015
       0.061
       0.094
       0.056
      -0.022
      -0.069
      -0.049
      -0.010
      -0.054
      -0.241
      -0.518
      -0.722
      -0.689
      -0.375
       0.090
       0.475
       0.611
       0.516
       0.373
       0.360
       0.497
       0.635
       0.599
       0.333
      -0.062
      -0.418
      -0.616
      -0.651
      -0.617
      -0.625
      -0.717
      -0.834
      -0.860
      -0.714
      -0.409
      -0.033
       0.310
       0.545
       0.631
       0.578
       0.461
       0.395
       0.449
       0.571
       0.613
       0.451
       0.098
      -0.300
      -0.555
      -0.552
      -0.317
       0.009
       0.262
       0.349
       0.289
       0.166
       0.046
      -0.053
      -0.134
      -0.187
      -0.181
      -0.091
       0.076
       0.292
       0.505
       0.658
       0.708
       0.635
       0.453
       0.199
      -0.076
      -0.323
      -0.496
      -0.567
      -0.527
      -0.381
      -0.147
       0.133
       0.370
       0.448
       0.285
      -0.084
      -0.493
      -0.734
      -0.685
      -0.392
      -0.025
       0.257
       0.406
       0.478
       0.532
       0.557
       0.493
       0.306
       0.034
      -0.255
      -0.521
      -0.753
      -0.936
      -1.029
      -0.996
      -0.849
      -0.651
      -0.460
      -0.273
      -0.040
       0.253
       0.526
       0.642
       0.517
       0.221
      -0.049
      -0.110
       0.068
       0.340
       0.500
       0.433
       0.174
      -0.124
      -0.299
      -0.273
      -0.082
       0.163
       0.361
       0.469
       0.488
       0.432
       0.302
       0.102
      -0.124
      -0.275
      -0.232
       0.044
       0.446
       0.746
       0.731
       0.370
      -0.132
      -0.459
      -0.405
      -0.020
       0.430
       0.648
       0.513
       0.137
      -0.242
      -0.455
      -0.493
      -0.450
      -0.387
      -0.288
      -0.142
      -0.026
      -0.068
      -0.318
      -0.670
      -0.916
      -0.878
      -0.521
       0.042
       0.604
       0.964
       1.026
       0.836
       0.535
       0.261
       0.059
      -0.103
      -0.256
      -0.384
      -0.449
      -0.448
      -0.429
      -0.434
      -0.438
      -0.342
      -0.048
       0.441
       0.960
       1.245
       1.112
       0.608
       0.010
      -0.371
      -0.420
      -0.279
      -0.215
      -0.386
      -0.725
      -1.004
      -0.997
      -0.637
      -0.061
       0.481
       0.782
       0.796
       0.639
       0.471
       0.385
       0.364
       0.335
       0.253
       0.118
      -0.057
      -0.284
      -0.582
      -0.914
      -1.162
      -1.165
      -0.819
      -0.173
       0.564
       1.118
       1.308
       1.144
       0.787
       0.421
       0.131
      -0.098
      -0.298
      -0.449
      -0.485
      -0.372
      -0.162
       0.025
       0.081
      -0.010
      -0.161
      -0.255
      -0.230
      -0.110
       0.023
       0.094
       0.065
      -0.063
      -0.247
      -0.406
      -0.451
      -0.339
      -0.113
       0.120
       0.262
       0.290
       0.251
       0.219
       0.252
       0.355
       0.460
       0.461
       0.295
       0.018
      -0.226
      -0.328
      -0.301
      -0.236
      -0.195
      -0.152
      -0.059
       0.076
       0.182
       0.193
       0.110
       0.002
      -0.044
       0.015
       0.167
       0.352
       0.491
       0.505
       0.352
       0.047
      -0.337
      -0.684
      -0.885
      -0.877
      -0.683
      -0.411
      -0.203
      -0.147
      -0.217
      -0.300
      -0.287
      -0.146
       0.084
       0.335
       0.555
       0.708
       0.759
       0.677
       0.454
       0.124
      -0.221
      -0.454
      -0.452
      -0.166
       0.314
       0.766
       0.948
       0.752
       0.285
      -0.209
      -0.507
      -0.522
      -0.324
      -0.068
       0.105
       0.135
       0.062
      -0.029
      -0.070
      -0.066
      -0.083
      -0.193
      -0.412
      -0.680
      -0.894
      -0.961
      -0.832
      -0.520
      -0.093
       0.325
       0.598
       0.649
       0.514
       0.320
       0.183
       0.119
       0.055
      -0.067
      -0.206
      -0.259
      -0.163
       0.034
       0.220
       0.329
       0.381
       0.424
       0.464
       0.475
       0.447
       0.397
       0.326
       0.214
       0.053
      -0.116
      -0.247
      -0.337
      -0.425
      -0.523
      -0.575
      -0.517
      -0.358
      -0.180
      -0.053
       0.020
       0.087
       0.189
       0.329
       0.471
       0.541
       0.467
       0.243
      -0.047
      -0.292
      -0.450
      -0.561
      -0.646
      -0.622
      -0.371
       0.090
       0.535
       0.679
       0.436
       0.017
      -0.224
      -0.066
       0.423
       0.949
       1.178
       0.942
       0.325
      -0.386
      -0.886
      -1.043
      -0.951
      -0.795
      -0.662
      -0.492
      -0.202
       0.158
       0.425
       0.487
       0.392
       0.293
       0.287
       0.329
       0.300
       0.133
      -0.109
      -0.279
      -0.277
      -0.137
       0.013
       0.075
       0.055
       0.013
      -0.013
      -0.048
      -0.128
      -0.248
      -0.347
      -0.343
      -0.206
       0.002
       0.157
       0.184
       0.131
       0.125
       0.223
       0.319
       0.239
      -0.078
      -0.484
      -0.722
      -0.613
      -0.180
       0.384
       0.817
       0.902
       0.557
      -0.110
      -0.823
      -1.262
      -1.240
      -0.806
      -0.208
       0.286
       0.547
       0.627
       0.667
       0.768
       0.912
       0.980
       0.841
       0.457
      -0.076
      -0.578
      -0.897
      -0.978
      -0.875
      -0.681
      -0.469
      -0.265
      -0.087
       0.034
       0.064
       0.013
      -0.056
      -0.073
      -0.021
       0.067
       0.164
       0.282
       0.453
       0.672
       0.872
       0.953
       0.840
       0.533
       0.143
      -0.144
      -0.159
       0.109
       0.471
       0.623
       0.351
      -0.329
      -1.177
      -1.860
      -2.115
      -1.833
      -1.079
      -0.059
       0.932
       1.601
       1.777
       1.483
       0.898
       0.229
      -0.398
      -0.939
      -1.353
      -1.540
      -1.388
      -0.887
      -0.190
       0.432
       0.752
       0.708
       0.436
       0.166
       0.080
       0.218
       0.475
       0.692
       0.748
       0.602
       0.273
      -0.165
      -0.577
      -0.779
      -0.654
      -0.279
       0.088
       0.216
       0.123
       0.053
       0.232
       0.635
       0.987
       0.996
       0.576
      -0.106
      -0.759
      -1.156
      -1.231
      -1.041
      -0.681
      -0.210
       0.360
       0.987
       1.530
       1.761
       1.516
       0.852
       0.055
      -0.556
      -0.840
      -0.885
      -0.877
      -0.914
      -0.930
      -0.766
      -0.315
       0.362
       1.018
       1.353
       1.235
       0.816
       0.416
       0.250
       0.257
       0.184
      -0.168
      -0.765
      -1.357
      -1.649
      -1.471
      -0.883
      -0.137
       0.465
       0.742
       0.701
       0.468
       0.150
      -0.220
      -0.650
      -1.100
      -1.448
      -1.533
      -1.265
      -0.689
       0.040
       0.737
       1.238
       1.404
       1.155
       0.541
      -0.213
      -0.816
      -1.094
      -1.095
      -0.976
      -0.801
      -0.477
       0.109
       0.885
       1.557
       1.811
       1.578
       1.126
       0.864
       1.016
       1.441
       1.753
       1.644
       1.114
       0.436
      -0.085
      -0.302
      -0.235
       0.040
       0.442
       0.838
       1.013
       0.749
      -0.007
      -1.013
      -1.783
      -1.810
      -0.860
       0.858
       2.741
       4.077
       4.397
       3.711
       2.502
       1.463
       1.136
       1.648
       2.678
       3.654
       4.009
       3.353
       1.518
      -1.409
      -5.043
      -8.696
     -11.553
     -12.992
     -12.878
     -11.586
      -9.731
      -7.841
      -6.197
      -4.880
      -3.878
      -3.081
      -2.179
      -0.615
       2.243
       6.715
      12.408
      18.102
      22.085
      22.817
      19.598
      12.885
       4.141
      -4.711
     -11.973
     -16.646
     -18.487
     -17.711
     -14.662
      -9.711
      -3.466
       2.983
       8.163
      10.788
      10.422
       7.731
       4.115
       0.953
      -1.014
      -1.823
      -1.984
      -2.038
      -2.255
      -2.550
      -2.610
      -2.168
      -1.286
      -0.453
      -0.351
      -1.388
      -3.305
      -5.174
      -5.879
      -4.741
      -1.904
       1.736
       4.953
       6.759
       6.797
       5.382
       3.227
       1.093
      -0.474
      -1.257
      -1.375
      -1.162
      -0.930
      -0.715
      -0.223
       0.904
       2.668
       4.535
       5.703
       5.647
       4.486
       2.851
       1.395
       0.362
      -0.442
      -1.322
      -2.338
      -3.223
      -3.596
      -3.314
      -2.646
      -2.084
      -1.940
      -2.115
      -2.261
      -2.151
      -1.843
      -1.489
      -1.041
      -0.201
       1.288
       3.291
       5.196
       6.208
       5.787
       3.923
       1.144
      -1.734
      -3.931
      -4.984
      -4.869
      -3.941
      -2.747
      -1.805
      -1.412
      -1.546
      -1.885
      -1.979
      -1.515
      -0.504
       0.758
       1.915
       2.756
       3.249
       3.410
       3.201
       2.584
       1.654
       0.687
       0.038
      -0.032
       0.512
       1.447
       2.358
       2.805
       2.531
       1.574
       0.220
      -1.177
      -2.373
      -3.269
      -3.818
      -3.935
      -3.525
      -2.602
      -1.388
      -0.266
       0.395
       0.439
      -0.007
      -0.589
      -0.896
      -0.634
       0.240
       1.473
       2.596
       3.117
       2.745
       1.522
      -0.200
      -1.878
      -2.955
      -3.063
      -2.202
      -0.772
       0.635
       1.564
       1.913
       1.887
       1.768
       1.694
       1.555
       1.073
       0.024
      -1.466
      -2.780
      -3.016
      -1.531
       1.518
       5.048
       7.534
       7.831
       5.805
       2.333
      -1.277
      -3.993
      -5.438
      -5.792
      -5.429
      -4.612
      -3.413
      -1.819
       0.109
       2.126
       3.794
       4.627
       4.339
       3.068
       1.373
      -0.059
      -0.848
      -1.177
      -1.627
      -2.677
      -4.246
      -5.667
      -6.123
      -5.222
      -3.258
      -1.011
       0.723
       1.517
       1.425
       0.834
       0.199
      -0.171
      -0.206
       0.010
       0.416
       1.088
       2.174
       3.653
       5.133
       5.915
       5.362
       3.358
       0.487
      -2.234
      -3.915
      -4.221
      -3.393
      -1.925
      -0.226
       1.463
       2.933
       3.898
       4.073
       3.375
       2.052
       0.613
      -0.401
      -0.648
      -0.119
       0.871
       1.791
       2.060
       1.253
      -0.684
      -3.322
      -5.860
      -7.493
      -7.801
      -6.894
      -5.228
      -3.267
      -1.263
       0.729
       2.661
       4.301
       5.221
       4.985
       3.461
       1.050
      -1.377
      -2.885
      -3.022
      -2.117
      -1.044
      -0.567
      -0.795
      -1.193
      -1.121
      -0.391
       0.619
       1.326
       1.412
       1.015
       0.565
       0.460
       0.826
       1.476
       2.048
       2.239
       1.999
       1.569
       1.298
       1.362
       1.598
       1.603
       1.034
      -0.089
      -1.332
      -2.092
      -1.985
      -1.082
       0.168
       1.250
       1.865
       1.988
       1.713
       1.075
       0.028
      -1.412
      -3.010
      -4.324
      -4.921
      -4.621
      -3.562
      -2.058
      -0.415
       1.133
       2.374
       3.080
       3.072
       2.338
       1.108
      -0.219
      -1.255
      -1.790
      -1.846
      -1.569
      -1.092
      -0.471
       0.257
       1.003
       1.635
       2.092
       2.446
       2.816
       3.198
       3.400
       3.166
       2.353
       1.014
      -0.643
      -2.327
      -3.691
      -4.385
      -4.183
      -3.139
      -1.636
      -0.231
       0.636
       0.880
       0.776
       0.742
       1.068
       1.772
       2.635
       3.337
       3.570
       3.106
       1.866
       0.022
      -1.979
      -3.560
      -4.277
      -4.049
      -3.179
      -2.146
      -1.321
      -0.797
      -0.440
      -0.087
       0.308
       0.686
       0.998
       1.266
       1.526
       1.748
       1.856
       1.813
       1.641
       1.341
       0.831
       0.008
      -1.094
      -2.196
      -2.860
      -2.738
      -1.824
      -0.516
       0.584
       1.050
       0.934
       0.719
       0.920
       1.624
       2.393
       2.629
       2.075
       0.997
      -0.055
      -0.667
      -0.784
      -0.645
      -0.561
      -0.732
      -1.184
      -1.769
      -2.203
      -2.171
      -1.492
      -0.258
       1.146
       2.199
       2.495
       1.943
       0.781
      -0.601
      -1.870
      -2.867
      -3.552
      -3.870
      -3.701
      -2.965
      -1.784
      -0.546
       0.267
       0.384
      -0.064
      -0.650
      -0.977
      -0.955
      -0.788
      -0.719
      -0.784
      -0.798
      -0.556
      -0.046
       0.509
       0.844
       0.896
       0.889
       1.182
       1.980
       3.158
       4.326
       5.077
       5.219
       4.833
       4.174
       3.506
       2.960
       2.451
       1.702
       0.400
      -1.536
      -3.746
      -5.484
      -5.996
      -4.989
      -2.883
      -0.628
       0.799
       0.908
      -0.080
      -1.420
      -2.307
      -2.331
      -1.665
      -0.854
      -0.387
      -0.374
      -0.540
      -0.503
      -0.084
       0.589
       1.184
