Origin Time       13/03/2008 15:42:38
Lat.              26.6 N 
Long.             91.8 E 
Depth (Km)         33.0
Magnitude         4.0
 Region           DARRANG-ASSAM                                                    
 Above details taken from IMD 
   
Station Code      MNG
Station Lat.       26.003
Station Long.      92.029
Station Height(m)   92.3
Site Class        C   Vs30 between 200 m/sec to 375 m/sec *  
Record Time       13.03.2008 15:42:33.269
Sampling Rate     200. Hz
 Record Duration   67.525 Sec.
 Direction         Vert. (Up positive)
Max. Acceleration    -14.123 cm/sec**2
     
  * For reference see Site Classification link of website 
     
 Base Line Corrected and Low Pass Filtered (Cut Off at 35 Hz) Time History
 Acceleration data in cm/sec**2
    
[...]
       1.203
       0.024
      -1.370
      -2.427
      -2.677
      -2.018
      -0.794
       0.416
       1.133
       1.190
       0.729
       0.055
      -0.513
      -0.760
      -0.625
      -0.191
       0.382
       0.930
       1.347
       1.565
       1.504
       1.049
       0.166
      -0.956
      -1.919
      -2.347
      -2.122
      -1.393
      -0.404
       0.648
       1.585
       2.179
       2.200
       1.577
       0.499
      -0.674
      -1.608
      -2.107
      -2.086
      -1.525
      -0.508
       0.710
       1.731
       2.161
       1.803
       0.778
      -0.499
      -1.483
      -1.750
      -1.227
      -0.246
       0.663
       1.128
       1.147
       0.969
       0.781
       0.543
       0.126
      -0.439
      -0.900
      -0.969
      -0.567
       0.068
       0.521
       0.468
      -0.097
      -0.839
      -1.288
      -1.169
      -0.591
       0.040
       0.357
       0.326
       0.234
       0.393
       0.846
       1.322
       1.443
       1.010
       0.165
      -0.662
      -1.024
      -0.799
      -0.308
      -0.025
      -0.113
      -0.246
       0.038
       0.775
       1.398
       1.198
       0.013
      -1.513
      -2.401
      -2.116
      -0.972
       0.175
       0.617
       0.283
      -0.309
      -0.525
      -0.106
       0.675
       1.253
       1.236
       0.705
       0.104
      -0.173
      -0.104
       0.008
      -0.115
      -0.443
      -0.655
      -0.411
       0.327
       1.175
       1.523
       0.985
      -0.239
      -1.438
      -1.889
      -1.363
      -0.237
       0.832
       1.357
       1.260
       0.794
       0.258
      -0.229
      -0.722
      -1.255
      -1.682
      -1.719
      -1.172
      -0.127
       1.032
       1.825
       1.950
       1.445
       0.651
      -0.002
      -0.232
      -0.068
       0.202
       0.242
      -0.067
      -0.553
      -0.921
      -1.003
      -0.867
      -0.696
      -0.581
      -0.436
      -0.123
       0.348
       0.766
       0.901
       0.725
       0.443
       0.303
       0.377
       0.494
       0.397
       0.003
      -0.486
      -0.731
      -0.552
      -0.071
       0.409
       0.650
       0.614
       0.430
       0.244
       0.092
      -0.115
      -0.482
      -0.986
      -1.435
      -1.576
      -1.257
      -0.539
       0.306
       0.909
       1.001
       0.605
       0.050
      -0.249
      -0.110
       0.292
       0.596
       0.563
       0.244
      -0.093
      -0.194
      -0.016
       0.244
       0.302
       0.019
      -0.463
      -0.789
      -0.666
      -0.129
       0.445
       0.651
       0.423
       0.075
      -0.035
       0.124
       0.262
       0.116
      -0.245
      -0.501
      -0.406
       0.000
       0.479
       0.815
       0.910
       0.718
       0.193
      -0.614
      -1.450
      -1.940
      -1.836
      -1.188
      -0.274
       0.605
       1.249
       1.555
       1.479
       1.042
       0.368
      -0.312
      -0.744
      -0.776
      -0.446
       0.038
       0.416
       0.527
       0.396
       0.210
       0.153
       0.267
       0.449
       0.589
       0.660
       0.670
       0.562
       0.258
      -0.213
      -0.670
      -0.920
      -0.913
      -0.764
      -0.639
      -0.631
      -0.725
      -0.826
      -0.813
      -0.580
      -0.112
       0.449
       0.812
       0.722
       0.190
      -0.446
      -0.769
      -0.612
      -0.151
       0.307
       0.603
       0.751
       0.794
       0.721
       0.544
       0.359
       0.254
       0.205
       0.104
      -0.093
      -0.299
      -0.401
      -0.383
      -0.325
      -0.298
      -0.283
      -0.201
       0.004
       0.301
       0.576
       0.691
       0.554
       0.185
      -0.262
      -0.560
      -0.552
      -0.271
       0.098
       0.383
       0.543
       0.602
       0.538
       0.282
      -0.159
      -0.645
      -0.980
      -1.052
      -0.889
      -0.594
      -0.242
       0.139
       0.506
       0.759
       0.777
       0.529
       0.134
      -0.180
      -0.220
       0.035
       0.391
       0.561
       0.390
      -0.012
      -0.349
      -0.390
      -0.166
       0.054
       0.005
      -0.334
      -0.701
      -0.771
      -0.440
       0.084
       0.445
       0.420
       0.060
      -0.385
      -0.661
      -0.646
      -0.335
       0.228
       0.944
       1.610
       1.945
       1.758
       1.096
       0.208
      -0.657
      -1.388
      -1.942
      -2.192
      -1.920
      -1.015
       0.330
       1.617
       2.291
       2.051
       1.018
      -0.363
      -1.576
      -2.265
      -2.295
      -1.717
      -0.706
       0.486
       1.599
       2.423
       2.796
       2.582
       1.709
       0.272
      -1.400
      -2.815
      -3.506
      -3.244
      -2.130
      -0.541
       1.055
       2.285
       2.946
       2.950
       2.273
       0.989
      -0.617
      -2.023
      -2.637
      -2.140
      -0.740
       0.895
       2.029
       2.259
       1.638
       0.517
      -0.684
      -1.593
      -1.952
      -1.705
      -1.052
      -0.342
       0.170
       0.480
       0.742
       1.028
       1.215
       1.116
       0.689
       0.111
      -0.355
      -0.534
      -0.438
      -0.224
      -0.065
      -0.017
       0.010
       0.147
       0.398
       0.582
       0.468
       0.007
      -0.568
      -0.904
      -0.807
      -0.394
       0.024
       0.208
       0.131
      -0.076
      -0.276
      -0.398
      -0.417
      -0.342
      -0.206
      -0.048
       0.119
       0.298
       0.445
       0.439
       0.176
      -0.275
      -0.626
      -0.546
       0.038
       0.820
       1.323
       1.249
       0.680
      -0.030
      -0.510
      -0.580
      -0.326
      -0.041
      -0.043
      -0.434
      -0.972
      -1.221
      -0.909
      -0.187
       0.487
       0.711
       0.440
      -0.053
      -0.452
      -0.614
      -0.562
      -0.357
      -0.043
       0.321
       0.662
       0.945
       1.192
       1.417
       1.537
       1.402
       0.939
       0.271
      -0.342
      -0.691
      -0.775
      -0.770
      -0.848
      -0.997
      -1.029
      -0.766
      -0.250
       0.255
       0.487
       0.426
       0.290
       0.304
       0.465
       0.544
       0.285
      -0.373
      -1.204
      -1.774
      -1.671
      -0.813
       0.424
       1.409
       1.711
       1.381
       0.804
       0.304
      -0.076
      -0.454
      -0.882
      -1.277
      -1.475
      -1.276
      -0.533
       0.652
       1.780
       2.176
       1.504
       0.136
      -1.061
      -1.373
      -0.759
       0.242
       1.028
       1.327
       1.187
       0.746
       0.114
      -0.598
      -1.222
      -1.575
      -1.530
      -1.083
      -0.378
       0.334
       0.807
       0.928
       0.729
       0.330
      -0.125
      -0.512
      -0.747
      -0.796
      -0.634
      -0.217
       0.446
       1.187
       1.660
       1.529
       0.721
      -0.461
      -1.486
      -1.914
      -1.642
      -0.883
       0.017
       0.764
       1.201
       1.332
       1.263
       1.075
       0.732
       0.148
      -0.611
      -1.234
      -1.357
      -0.907
      -0.229
       0.185
       0.117
      -0.216
      -0.405
      -0.244
       0.112
       0.325
       0.209
      -0.096
      -0.234
       0.074
       0.790
       1.563
       1.948
       1.667
       0.745
      -0.516
      -1.682
      -2.386
      -2.483
      -2.077
      -1.378
      -0.525
       0.455
       1.498
       2.339
       2.572
       1.971
       0.774
      -0.412
      -1.053
      -1.053
      -0.711
      -0.365
      -0.141
       0.002
       0.092
       0.066
      -0.144
      -0.504
      -0.862
      -1.018
      -0.840
      -0.359
       0.230
       0.677
       0.834
       0.736
       0.548
       0.422
       0.378
       0.300
       0.052
      -0.341
      -0.626
      -0.465
       0.277
       1.332
       2.112
       2.058
       1.011
      -0.663
      -2.257
      -3.083
      -2.809
      -1.627
      -0.160
       0.875
       1.095
       0.664
       0.130
      -0.030
       0.236
       0.579
       0.626
       0.337
      -0.003
      -0.131
      -0.082
      -0.091
      -0.262
      -0.418
      -0.304
       0.096
       0.498
       0.572
       0.255
      -0.187
      -0.400
      -0.261
       0.037
       0.219
       0.216
       0.187
       0.285
       0.466
       0.533
       0.346
      -0.023
      -0.315
      -0.280
       0.119
       0.659
       0.973
       0.759
      -0.030
      -1.096
      -1.907
      -1.998
      -1.283
      -0.128
       0.911
       1.453
       1.482
       1.204
       0.757
       0.113
      -0.747
      -1.623
      -2.116
      -1.902
      -1.000
       0.182
       1.073
       1.301
       0.923
       0.343
      -0.016
      -0.020
       0.144
       0.200
       0.066
      -0.081
      -0.015
       0.255
       0.444
       0.278
      -0.179
      -0.545
      -0.485
      -0.030
       0.503
       0.815
       0.824
       0.622
       0.344
       0.084
      -0.125
      -0.316
      -0.537
      -0.768
      -0.889
      -0.768
      -0.408
      -0.009
       0.161
       0.005
      -0.278
      -0.340
       0.020
       0.652
       1.148
       1.154
       0.661
       0.001
      -0.434
      -0.503
      -0.361
      -0.233
      -0.169
      -0.019
       0.331
       0.745
       0.895
       0.553
      -0.232
      -1.185
      -1.966
      -2.261
      -1.859
      -0.787
       0.592
       1.719
       2.160
       1.837
       1.002
       0.045
      -0.679
      -0.926
      -0.593
       0.226
       1.209
       1.924
       2.049
       1.534
       0.558
      -0.612
      -1.720
      -2.530
      -2.816
      -2.444
      -1.468
      -0.151
       1.110
       1.932
       2.096
       1.639
       0.817
      -0.030
      -0.629
      -0.851
      -0.758
      -0.580
      -0.566
      -0.794
      -1.084
      -1.140
      -0.798
      -0.149
       0.550
       1.034
       1.157
       0.937
       0.523
       0.116
      -0.122
      -0.097
       0.183
       0.571
       0.801
       0.627
       0.039
      -0.633
      -0.895
      -0.483
       0.359
       1.015
       1.026
       0.507
      -0.010
      -0.172
      -0.143
      -0.303
      -0.723
      -1.055
      -0.911
      -0.250
       0.591
       1.170
       1.204
       0.682
      -0.148
      -0.883
      -1.140
      -0.764
       0.051
       0.829
       1.101
       0.694
      -0.201
      -1.218
      -2.023
      -2.361
      -2.072
      -1.168
       0.084
       1.271
       2.059
       2.339
       2.167
       1.651
       0.912
       0.101
      -0.590
      -0.970
      -0.945
      -0.588
      -0.090
       0.360
       0.629
       0.626
       0.296
      -0.309
      -0.979
      -1.439
      -1.516
      -1.224
      -0.714
      -0.167
       0.285
       0.569
       0.620
       0.378
      -0.136
      -0.736
      -1.130
      -1.086
      -0.579
       0.229
       1.110
       1.871
       2.339
       2.342
       1.759
       0.650
      -0.652
      -1.627
      -1.840
      -1.209
      -0.062
       1.063
       1.709
       1.676
       1.026
       0.011
      -0.981
      -1.516
      -1.316
      -0.474
       0.546
       1.216
       1.319
       1.026
       0.615
       0.161
      -0.454
      -1.264
      -2.021
      -2.319
      -1.880
      -0.784
       0.492
       1.260
       0.994
      -0.247
      -1.680
      -2.218
      -1.285
       0.636
       2.313
       2.742
       1.879
       0.497
      -0.550
      -0.873
      -0.550
       0.108
       0.698
       0.855
       0.479
      -0.145
      -0.606
      -0.806
      -1.023
      -1.455
      -1.794
      -1.446
      -0.238
       1.231
       2.051
       1.804
       0.870
      -0.031
      -0.455
      -0.441
      -0.277
      -0.203
      -0.282
      -0.439
      -0.536
      -0.441
      -0.114
       0.342
       0.734
       0.933
       0.982
       0.982
       0.895
       0.546
      -0.125
      -0.913
      -1.462
      -1.490
      -0.889
       0.277
       1.741
       3.025
       3.571
       2.990
       1.303
      -0.979
      -3.006
      -4.001
      -3.691
      -2.435
      -0.926
       0.269
       0.966
       1.269
       1.310
       1.088
       0.504
      -0.433
      -1.427
      -1.959
      -1.655
      -0.630
       0.574
       1.435
       1.809
       1.834
       1.589
       0.993
       0.084
      -0.752
      -0.957
      -0.271
       0.985
       2.084
       2.395
       1.780
       0.601
      -0.596
      -1.385
      -1.561
      -1.126
      -0.305
       0.487
       0.884
       0.882
       0.895
       1.384
       2.393
       3.414
       3.674
       2.642
       0.394
      -2.355
      -4.548
      -5.263
      -4.167
      -1.705
       1.104
       3.145
       3.690
       2.615
       0.334
      -2.426
      -4.867
      -6.342
      -6.540
      -5.565
      -3.858
      -2.024
      -0.648
      -0.134
      -0.589
      -1.755
      -3.011
      -3.553
      -2.727
      -0.297
       3.476
       7.892
      11.815
      13.791
      12.528
       7.677
       0.360
      -7.134
     -12.421
     -14.123
     -12.242
      -7.745
      -1.931
       3.893
       8.451
      10.625
       9.863
       6.501
       1.667
      -3.236
      -7.013
      -8.863
      -8.379
      -5.624
      -1.257
       3.542
       7.428
       9.355
       8.920
       6.464
       2.886
      -0.757
      -3.669
      -5.508
      -6.253
      -5.911
      -4.437
      -1.996
       0.761
       2.856
       3.595
       3.040
       1.848
       0.683
      -0.151
      -0.588
      -0.570
      -0.068
       0.759
       1.549
       1.939
       1.742
       0.973
      -0.214
      -1.531
      -2.557
      -2.875
      -2.302
      -1.022
       0.506
       1.773
       2.418
       2.304
       1.538
       0.440
      -0.603
      -1.385
      -1.991
      -2.569
      -2.957
      -2.665
      -1.337
       0.712
       2.532
       3.182
       2.374
       0.571
      -1.419
      -2.877
      -3.360
      -2.721
      -1.114
       1.006
       2.944
       3.916
       3.346
       1.241
      -1.650
      -4.120
      -5.122
      -4.292
      -2.058
       0.650
       2.863
       3.950
       3.790
       2.726
       1.393
       0.454
       0.309
       0.849
       1.510
       1.688
       1.236
       0.534
       0.044
      -0.181
      -0.452
      -0.912
      -1.187
      -0.686
       0.721
       2.349
       3.092
       2.301
       0.397
      -1.374
      -1.880
      -0.953
       0.565
       1.556
       1.448
       0.462
      -0.799
      -1.915
      -2.803
      -3.453
      -3.662
      -3.105
      -1.635
       0.511
       2.748
       4.371
       4.797
       3.783
       1.577
      -1.110
      -3.385
      -4.564
      -4.453
      -3.353
      -1.849
      -0.485
       0.488
       1.125
       1.566
       1.813
       1.737
       1.235
       0.315
      -0.904
      -2.191
      -3.212
      -3.637
      -3.310
      -2.386
      -1.261
      -0.289
       0.478
       1.241
       2.191
       3.291
       4.279
       4.835
       4.815
       4.354
       3.795
       3.476
       3.504
       3.656
       3.466
       2.482
       0.532
      -2.183
      -5.216
      -8.059
     -10.226
     -11.254
     -10.814
      -8.974
      -6.249
      -3.244
      -0.286
       2.485
       4.788
       6.206
       6.516
       5.902
       4.786
       3.495
       2.185
       1.056
       0.471
       0.687
       1.508
       2.386
       2.919
       3.212
       3.679
       4.500
       5.263
       5.191
       3.723
       0.868
      -2.884
      -6.766
      -9.807
     -11.045
      -9.980
      -6.942
      -2.990
       0.560
       2.723
       3.250
       2.600
       1.511
       0.512
      -0.243
      -0.771
      -0.966
      -0.577
       0.511
       1.988
       3.136
       3.208
       1.928
      -0.251
      -2.375
      -3.585
      -3.602
      -2.738
      -1.520
      -0.316
       0.786
       1.813
       2.619
       2.767
       1.801
      -0.244
      -2.634
      -4.322
      -4.622
      -3.597
      -1.900
      -0.293
       0.765
       1.239
       1.431
       1.782
       2.591
       3.705
       4.466
       4.125
       2.488
       0.199
      -1.658
      -2.322
      -1.821
      -0.800
       0.029
       0.339
       0.238
       0.043
       0.026
       0.271
       0.683
       1.105
       1.456
       1.767
       2.062
       2.187
       1.828
       0.783
      -0.771
      -2.272
      -3.070
      -2.786
      -1.484
       0.385
       2.209
       3.458
       3.805
       3.117
       1.443
      -0.929
      -3.400
      -5.177
      -5.627
      -4.620
      -2.605
      -0.354
       1.427
       2.358
       2.422
       1.875
       1.121
       0.535
       0.251
       0.067
      -0.346
      -1.087
      -1.815
      -1.928
      -1.034
       0.626
       2.211
       2.837
       2.232
       0.895
      -0.407
      -1.296
      -1.934
      -2.619
      -3.346
      -3.778
      -3.541
      -2.503
      -0.881
       0.814
       1.955
       2.079
       1.140
      -0.405
      -1.771
      -2.229
      -1.448
       0.421
       2.922
       5.497
       7.515
       8.261
       7.166
       4.245
       0.317
      -3.295
      -5.465
      -5.804
      -4.693
      -2.865
      -0.944
       0.716
       1.938
       2.576
       2.499
       1.720
       0.519
      -0.629
      -1.320
      -1.446
      -1.196
      -0.849
      -0.603
      -0.530
      -0.591
      -0.646
      -0.538
      -0.244
       0.099
       0.370
       0.661
       1.193
       1.995
       2.699
       2.773
       2.047
       0.992
       0.382
       0.615
       1.348
       1.810
       1.454
       0.326
      -1.151
      -2.619
      -3.995
      -5.317
      -6.452
      -6.984
      -6.419
      -4.589
      -1.906
       0.788
       2.681
       3.366
       2.928
       1.793
       0.504
      -0.481
      -0.887
      -0.569
       0.544
       2.322
       4.228
       5.395
       5.066
       3.062
      -0.117
      -3.576
      -6.372
      -7.779
      -7.477
      -5.662
      -2.938
      -0.007
       2.656
       4.907
       6.755
       8.067
       8.471
       7.628
       5.635
       3.111
       0.834
      -0.700
      -1.413
      -1.514
      -1.352
      -1.301
      -1.573
      -2.039
      -2.274
      -1.914
      -1.052
      -0.230
      -0.012
      -0.527
      -1.444
      -2.308
      -2.843
      -2.948
      -2.539
      -1.560
      -0.174
       1.187
       2.050
       2.172
       1.588
       0.477
      -0.925
      -2.269
      -3.065
      -2.852
      -1.542
       0.394
       2.129
       2.970
       2.719
       1.643
       0.175
      -1.274
      -2.352
      -2.786
      -2.477
