Origin Time       13/03/2008 15:42:38
Lat.              26.6 N 
Long.             91.8 E 
Depth (Km)         33.0
Magnitude         4.0
 Region           DARRANG-ASSAM                                                    
 Above details taken from IMD 
     
Station Code      MNG
Station Lat.       26.003  N
Station Long.      92.029  E
Station Height(m)   92.3
Site Class        C   Vs30 between 200 m/sec to 375 m/sec *  
Record Time       13.03.2008 15:42:33.269
Sampling Rate     200. Hz
 Record Duration   67.525 Sec.
 Direction         E-W (E positive)
Max. Acceleration    -16.072 cm/sec**2
     
  * For reference see Site Classification link of website 
     
 Base Line Corrected and Low Pass Filtered (Cut Off at 35 Hz) Time History
 Acceleration data in cm/sec**2
    
[...]
      -0.341
      -0.385
      -0.313
      -0.151
       0.044
       0.224
       0.363
       0.451
       0.475
       0.428
       0.319
       0.182
       0.052
      -0.066
      -0.195
      -0.343
      -0.456
      -0.439
      -0.250
       0.041
       0.283
       0.360
       0.281
       0.158
       0.098
       0.112
       0.124
       0.058
      -0.089
      -0.233
      -0.271
      -0.151
       0.081
       0.305
       0.390
       0.264
      -0.025
      -0.318
      -0.427
      -0.259
       0.104
       0.456
       0.597
       0.469
       0.183
      -0.073
      -0.154
      -0.055
       0.103
       0.168
       0.072
      -0.123
      -0.285
      -0.318
      -0.236
      -0.146
      -0.154
      -0.285
      -0.459
      -0.539
      -0.427
      -0.142
       0.183
       0.385
       0.381
       0.211
       0.005
      -0.118
      -0.121
      -0.054
       0.007
       0.022
       0.001
      -0.024
      -0.036
      -0.037
      -0.024
       0.021
       0.112
       0.244
       0.382
       0.474
       0.470
       0.347
       0.132
      -0.104
      -0.276
      -0.336
      -0.293
      -0.197
      -0.094
      -0.004
       0.081
       0.164
       0.229
       0.252
       0.221
       0.137
       0.005
      -0.165
      -0.337
      -0.453
      -0.459
      -0.344
      -0.148
       0.054
       0.190
       0.222
       0.157
       0.048
      -0.045
      -0.088
      -0.094
      -0.101
      -0.124
      -0.137
      -0.085
       0.064
       0.283
       0.493
       0.609
       0.593
       0.466
       0.285
       0.098
      -0.076
      -0.242
      -0.396
      -0.511
      -0.550
      -0.494
      -0.370
      -0.236
      -0.135
      -0.075
      -0.031
       0.017
       0.066
       0.094
       0.087
       0.041
      -0.023
      -0.068
      -0.058
       0.029
       0.176
       0.343
       0.477
       0.537
       0.507
       0.394
       0.217
      -0.011
      -0.287
      -0.582
      -0.816
      -0.871
      -0.664
      -0.230
       0.269
       0.626
       0.707
       0.537
       0.268
       0.067
       0.007
       0.041
       0.067
       0.015
      -0.106
      -0.229
      -0.289
      -0.271
      -0.207
      -0.147
      -0.111
      -0.079
      -0.022
       0.059
       0.116
       0.088
      -0.048
      -0.244
      -0.399
      -0.418
      -0.276
      -0.047
       0.143
       0.197
       0.122
       0.016
      -0.003
       0.103
       0.256
       0.309
       0.163
      -0.147
      -0.466
      -0.617
      -0.516
      -0.214
       0.149
       0.431
       0.553
       0.532
       0.448
       0.387
       0.372
       0.349
       0.241
       0.037
      -0.179
      -0.283
      -0.211
      -0.016
       0.166
       0.210
       0.083
      -0.128
      -0.279
      -0.270
      -0.125
       0.033
       0.072
      -0.042
      -0.226
      -0.353
      -0.350
      -0.234
      -0.068
       0.091
       0.217
       0.282
       0.249
       0.102
      -0.110
      -0.286
      -0.343
      -0.286
      -0.204
      -0.183
      -0.227
      -0.254
      -0.180
       0.005
       0.240
       0.445
       0.575
       0.624
       0.594
       0.477
       0.265
      -0.022
      -0.324
      -0.554
      -0.641
      -0.571
      -0.398
      -0.211
      -0.082
      -0.029
      -0.020
      -0.009
       0.034
       0.118
       0.232
       0.354
       0.447
       0.470
       0.403
       0.268
       0.122
       0.022
      -0.011
       0.004
       0.030
       0.019
      -0.069
      -0.241
      -0.436
      -0.541
      -0.461
      -0.203
       0.114
       0.334
       0.365
       0.225
       0.017
      -0.145
      -0.200
      -0.160
      -0.070
       0.025
       0.107
       0.163
       0.177
       0.142
       0.086
       0.057
       0.081
       0.122
       0.110
      -0.009
      -0.218
      -0.438
      -0.557
      -0.492
      -0.248
       0.070
       0.309
       0.364
       0.248
       0.067
      -0.063
      -0.084
      -0.008
       0.115
       0.221
       0.251
       0.178
       0.031
      -0.113
      -0.181
      -0.160
      -0.097
      -0.056
      -0.076
      -0.151
      -0.235
      -0.261
      -0.174
       0.022
       0.251
       0.400
       0.388
       0.224
      -0.007
      -0.206
      -0.314
      -0.337
      -0.319
      -0.288
      -0.233
      -0.117
       0.077
       0.312
       0.505
       0.573
       0.469
       0.202
      -0.160
      -0.500
      -0.677
      -0.582
      -0.219
       0.264
       0.646
       0.756
       0.577
       0.243
      -0.055
      -0.183
      -0.138
      -0.029
       0.006
      -0.095
      -0.271
      -0.389
      -0.353
      -0.174
       0.055
       0.243
       0.351
       0.390
       0.371
       0.284
       0.117
      -0.107
      -0.323
      -0.451
      -0.446
      -0.328
      -0.167
      -0.033
       0.044
       0.078
       0.098
       0.110
       0.100
       0.055
      -0.011
      -0.067
      -0.087
      -0.059
       0.012
       0.105
       0.176
       0.189
       0.138
       0.052
      -0.038
      -0.121
      -0.196
      -0.243
      -0.225
      -0.129
       0.015
       0.159
       0.270
       0.340
       0.358
       0.301
       0.164
      -0.027
      -0.210
      -0.323
      -0.336
      -0.264
      -0.157
      -0.070
      -0.029
      -0.026
      -0.026
      -0.004
       0.038
       0.077
       0.089
       0.061
      -0.009
      -0.117
      -0.246
      -0.354
      -0.378
      -0.251
       0.041
       0.413
       0.693
       0.719
       0.459
       0.057
      -0.248
      -0.287
      -0.075
       0.206
       0.345
       0.261
       0.037
      -0.169
      -0.248
      -0.205
      -0.128
      -0.115
      -0.210
      -0.372
      -0.482
      -0.415
      -0.126
       0.283
       0.611
       0.688
       0.497
       0.185
      -0.046
      -0.085
       0.029
       0.150
       0.151
       0.008
      -0.195
      -0.342
      -0.363
      -0.266
      -0.100
       0.092
       0.278
       0.416
       0.447
       0.325
       0.076
      -0.200
      -0.385
      -0.416
      -0.327
      -0.214
      -0.165
      -0.203
      -0.270
      -0.285
      -0.198
      -0.027
       0.164
       0.303
       0.336
       0.242
       0.049
      -0.173
      -0.331
      -0.364
      -0.269
      -0.108
       0.036
       0.104
       0.093
       0.044
      -0.002
      -0.036
      -0.067
      -0.092
      -0.074
       0.020
       0.176
       0.332
       0.415
       0.388
       0.274
       0.139
       0.059
       0.079
       0.177
       0.279
       0.307
       0.235
       0.100
      -0.033
      -0.123
      -0.174
      -0.221
      -0.280
      -0.328
      -0.320
      -0.227
      -0.061
       0.129
       0.288
       0.378
       0.388
       0.331
       0.224
       0.073
      -0.118
      -0.336
      -0.539
      -0.668
      -0.666
      -0.511
      -0.236
       0.074
       0.318
       0.435
       0.431
       0.363
       0.282
       0.206
       0.129
       0.050
      -0.032
      -0.130
      -0.260
      -0.401
      -0.473
      -0.387
      -0.125
       0.214
       0.467
       0.505
       0.317
       0.018
      -0.219
      -0.263
      -0.103
       0.142
       0.293
       0.236
      -0.004
      -0.275
      -0.407
      -0.318
      -0.059
       0.226
       0.390
       0.361
       0.173
      -0.072
      -0.265
      -0.352
      -0.332
      -0.231
      -0.072
       0.123
       0.319
       0.464
       0.503
       0.412
       0.211
      -0.039
      -0.267
      -0.411
      -0.438
      -0.355
      -0.198
      -0.020
       0.117
       0.173
       0.150
       0.094
       0.059
       0.070
       0.105
       0.124
       0.097
       0.016
      -0.101
      -0.210
      -0.255
      -0.214
      -0.123
      -0.048
      -0.032
      -0.063
      -0.103
      -0.140
      -0.186
      -0.235
      -0.226
      -0.075
       0.240
       0.629
       0.920
       0.966
       0.734
       0.318
      -0.111
      -0.381
      -0.402
      -0.218
       0.013
       0.121
       0.039
      -0.158
      -0.317
      -0.322
      -0.173
       0.020
       0.119
       0.036
      -0.215
      -0.531
      -0.773
      -0.833
      -0.681
      -0.371
      -0.008
       0.311
       0.528
       0.619
       0.576
       0.406
       0.147
      -0.125
      -0.314
      -0.361
      -0.269
      -0.107
       0.045
       0.152
       0.240
       0.351
       0.489
       0.603
       0.625
       0.522
       0.314
       0.054
      -0.196
      -0.377
      -0.442
      -0.375
      -0.197
       0.038
       0.262
       0.426
       0.507
       0.504
       0.426
       0.287
       0.110
      -0.073
      -0.233
      -0.345
      -0.398
      -0.390
      -0.320
      -0.207
      -0.095
      -0.048
      -0.112
      -0.267
      -0.420
      -0.459
      -0.327
      -0.062
       0.227
       0.417
       0.429
       0.263
       0.004
      -0.216
      -0.298
      -0.240
      -0.134
      -0.072
      -0.079
      -0.129
      -0.208
      -0.333
      -0.484
      -0.555
      -0.419
      -0.047
       0.441
       0.841
       0.988
       0.843
       0.491
       0.102
      -0.146
      -0.155
       0.034
       0.264
       0.367
       0.274
       0.033
      -0.245
      -0.452
      -0.499
      -0.326
       0.048
       0.484
       0.756
       0.693
       0.312
      -0.180
      -0.523
      -0.580
      -0.403
      -0.171
      -0.068
      -0.173
      -0.413
      -0.622
      -0.654
      -0.479
      -0.179
       0.132
       0.384
       0.555
       0.630
       0.588
       0.428
       0.197
      -0.021
      -0.146
      -0.153
      -0.088
      -0.036
      -0.039
      -0.060
      -0.034
       0.044
       0.095
       0.035
      -0.126
      -0.279
      -0.306
      -0.174
       0.051
       0.258
       0.372
       0.389
       0.345
       0.258
       0.113
      -0.093
      -0.301
      -0.409
      -0.358
      -0.200
      -0.068
      -0.071
      -0.200
      -0.333
      -0.345
      -0.214
      -0.030
       0.094
       0.125
       0.120
       0.157
       0.255
       0.362
       0.404
       0.340
       0.183
      -0.005
      -0.146
      -0.182
      -0.103
       0.040
       0.161
       0.196
       0.151
       0.099
       0.116
       0.197
       0.244
       0.138
      -0.159
      -0.553
      -0.863
      -0.927
      -0.706
      -0.335
      -0.043
       0.005
      -0.165
      -0.348
      -0.331
      -0.059
       0.329
       0.612
       0.657
       0.506
       0.332
       0.291
       0.394
       0.492
       0.411
       0.115
      -0.250
      -0.465
      -0.415
      -0.158
       0.139
       0.346
       0.442
       0.471
       0.452
       0.332
       0.062
      -0.303
      -0.597
      -0.654
      -0.441
      -0.085
       0.218
       0.328
       0.221
      -0.019
      -0.265
      -0.416
      -0.451
      -0.411
      -0.350
      -0.290
      -0.223
      -0.150
      -0.101
      -0.112
      -0.173
      -0.206
      -0.104
       0.198
       0.673
       1.185
       1.521
       1.474
       0.959
       0.110
      -0.751
      -1.294
      -1.391
      -1.176
      -0.901
      -0.709
      -0.539
      -0.232
       0.280
       0.875
       1.305
       1.344
       0.927
       0.190
      -0.579
      -1.085
      -1.171
      -0.905
      -0.511
      -0.217
      -0.139
      -0.249
      -0.414
      -0.448
      -0.200
       0.327
       0.922
       1.261
       1.128
       0.572
      -0.124
      -0.629
      -0.756
      -0.534
      -0.157
       0.150
       0.253
       0.154
      -0.049
      -0.230
      -0.278
      -0.121
       0.234
       0.679
       1.038
       1.175
       1.077
       0.840
       0.574
       0.319
       0.041
      -0.306
      -0.717
      -1.103
      -1.337
      -1.322
      -1.049
      -0.591
      -0.058
       0.433
       0.782
       0.932
       0.887
       0.719
       0.530
       0.413
       0.411
       0.494
       0.553
       0.439
       0.075
      -0.438
      -0.815
      -0.739
      -0.106
       0.846
       1.620
       1.745
       1.056
      -0.203
      -1.533
      -2.484
      -2.909
      -2.989
      -3.028
      -3.208
      -3.497
      -3.768
      -3.988
      -4.288
      -4.851
      -5.717
      -6.685
      -7.386
      -7.506
      -6.969
      -5.954
      -4.730
      -3.422
      -1.898
       0.134
       2.841
       6.020
       9.083
      11.348
      12.465
      12.654
      12.560
      12.807
      13.554
      14.340
      14.326
      12.771
       9.474
       4.901
      -0.034
      -4.387
      -7.560
      -9.432
     -10.228
     -10.266
      -9.729
      -8.587
      -6.674
      -3.859
      -0.204
       3.932
       7.885
      10.804
      11.902
      10.772
       7.602
       3.109
      -1.790
      -6.349
     -10.157
     -13.021
     -14.735
     -14.945
     -13.265
      -9.564
      -4.242
       1.731
       7.105
      10.885
      12.776
      13.210
      12.847
      11.937
      10.057
       6.498
       1.036
      -5.548
     -11.620
     -15.455
     -16.072
     -13.639
      -9.264
      -4.397
      -0.196
       2.818
       4.716
       5.840
       6.436
       6.463
       5.650
       3.760
       0.903
      -2.353
      -5.182
      -6.904
      -7.334
      -6.801
      -5.849
      -4.854
      -3.846
      -2.633
      -1.087
       0.633
       2.125
       3.030
       3.300
       3.210
       3.092
       3.021
       2.757
       2.018
       0.863
      -0.196
      -0.503
       0.238
       1.687
       3.067
       3.687
       3.371
       2.461
       1.472
       0.683
       0.015
      -0.779
      -1.785
      -2.740
      -3.139
      -2.569
      -1.028
       1.003
       2.803
       3.796
       3.807
       3.040
       1.846
       0.505
      -0.814
      -1.931
      -2.577
      -2.505
      -1.724
      -0.623
       0.196
       0.275
      -0.396
      -1.369
      -2.018
      -1.921
      -1.109
      -0.018
       0.783
       0.931
       0.442
      -0.334
      -0.942
      -1.090
      -0.810
      -0.408
      -0.246
      -0.477
      -0.944
      -1.294
      -1.234
      -0.727
      -0.004
       0.605
       0.896
       0.905
       0.836
       0.859
       0.948
       0.914
       0.605
       0.090
      -0.350
      -0.447
      -0.175
       0.231
       0.482
       0.498
       0.465
       0.638
       1.042
       1.385
       1.301
       0.711
      -0.055
      -0.515
      -0.476
      -0.237
      -0.356
      -1.160
      -2.416
      -3.444
      -3.604
      -2.771
      -1.425
      -0.276
       0.280
       0.429
       0.725
       1.582
       2.884
       4.038
       4.423
       3.867
       2.743
       1.630
       0.835
       0.192
      -0.697
      -2.019
      -3.506
      -4.564
      -4.653
      -3.617
      -1.746
       0.395
       2.232
       3.361
       3.610
       3.003
       1.721
       0.096
      -1.424
      -2.408
      -2.626
      -2.164
      -1.329
      -0.407
       0.524
       1.546
       2.676
       3.687
       4.169
       3.801
       2.637
       1.126
      -0.149
      -0.850
      -1.069
      -1.189
      -1.547
      -2.179
      -2.841
      -3.224
      -3.152
      -2.624
      -1.749
      -0.707
       0.256
       0.865
       0.945
       0.544
      -0.086
      -0.662
      -1.033
      -1.214
      -1.269
      -1.167
      -0.769
       0.040
       1.188
       2.360
       3.083
       2.930
       1.724
      -0.336
      -2.678
      -4.517
      -5.148
      -4.231
      -1.952
       1.033
       3.852
       5.751
       6.371
       5.832
       4.598
       3.207
       2.014
       1.089
       0.309
      -0.467
      -1.278
      -2.054
      -2.646
      -2.855
      -2.478
      -1.459
      -0.064
       1.135
       1.563
       1.042
      -0.057
      -1.070
      -1.507
      -1.354
      -0.990
      -0.815
      -0.928
      -1.095
      -0.983
      -0.440
       0.420
       1.349
       2.135
       2.674
       2.884
       2.631
       1.791
       0.439
      -1.015
      -1.969
      -2.001
      -1.186
      -0.074
       0.678
       0.713
       0.125
      -0.739
      -1.574
      -2.254
      -2.768
      -3.111
      -3.265
      -3.242
      -3.081
      -2.759
      -2.156
      -1.170
       0.103
       1.293
       1.928
       1.760
       0.982
       0.167
      -0.084
       0.469
       1.555
       2.560
       2.893
       2.284
       0.857
      -0.995
      -2.782
      -4.041
      -4.415
      -3.749
      -2.167
      -0.088
       1.916
       3.361
       4.039
       4.038
       3.595
       2.933
       2.219
       1.637
       1.420
       1.753
       2.588
       3.560
       4.142
       3.962
       3.032
       1.690
       0.332
      -0.841
      -1.831
      -2.670
      -3.257
      -3.381
      -2.905
      -1.943
      -0.869
      -0.113
       0.089
      -0.175
      -0.610
      -0.954
      -1.162
      -1.391
      -1.811
      -2.404
      -2.931
      -3.099
      -2.786
      -2.123
      -1.351
      -0.607
       0.146
       0.970
       1.763
       2.236
       2.116
       1.392
       0.382
      -0.429
      -0.678
      -0.335
       0.293
       0.765
       0.783
       0.349
      -0.275
      -0.751
      -0.855
      -0.552
       0.048
       0.755
       1.360
       1.691
       1.695
       1.495
       1.313
       1.267
       1.203
       0.737
      -0.442
      -2.253
      -4.138
      -5.322
      -5.237
      -3.837
      -1.615
       0.663
       2.329
       3.065
       2.932
       2.234
       1.335
       0.548
       0.099
       0.115
       0.604
       1.429
       2.332
       3.025
       3.306
       3.127
       2.587
       1.859
       1.103
       0.395
      -0.292
      -1.057
      -1.968
      -2.943
      -3.710
      -3.893
      -3.227
      -1.777
      -0.003
       1.421
       1.965
       1.549
       0.580
      -0.348
      -0.853
      -0.968
      -1.013
      -1.240
      -1.573
      -1.639
      -1.068
       0.176
       1.681
       2.805
       3.064
       2.439
       1.390
       0.579
       0.490
       1.193
       2.357
       3.453
       3.987
       3.675
       2.527
       0.831
      -0.926
      -2.236
      -2.798
      -2.696
      -2.363
      -2.321
      -2.820
      -3.616
      -4.098
      -3.697
      -2.334
      -0.574
       0.663
       0.675
      -0.548
      -2.321
      -3.744
      -4.314
      -4.197
      -3.986
      -4.153
      -4.673
      -5.065
      -4.759
      -3.496
      -1.477
       0.760
       2.625
       3.729
       3.990
       3.619
       3.011
       2.582
       2.595
       3.031
       3.598
       3.915
       3.770
       3.261
       2.689
       2.282
       1.976
