Origin Time       17/9/2010 19:21:09	
Lat.              36.5 N	
Long.             70.8 E	
Depth (Km)        167.0
Magnitude         6.5
 Region           Hindukush                                                        
 Above details taken from IMD 
     
Station Code      MNL
Station Lat.       32.246  N
Station Long.      77.188  E
Station Height(m) 1932.0
Site Class        A   Vs30 between 700 m/sec to 1400 m/sec * 
Record Time       17.09.2010 19:23:37.649
Sampling Rate     200. Hz
 Record Duration   82.510 Sec.
 Direction         E-W (E positive)
Max. Acceleration      3.474 cm/sec**2
     
  * For reference see Site Classification link of website 
     
 Base Line Corrected and Low Pass Filtered (Cut Off at 35 Hz) Time History
 Acceleration data in cm/sec**2
    
[...]
      -0.036
      -0.056
      -0.082
      -0.117
      -0.159
      -0.202
      -0.240
      -0.277
      -0.317
      -0.362
      -0.407
      -0.446
      -0.468
      -0.465
      -0.435
      -0.379
      -0.300
      -0.211
      -0.123
      -0.049
       0.003
       0.033
       0.047
       0.057
       0.071
       0.093
       0.120
       0.151
       0.182
       0.212
       0.242
       0.273
       0.305
       0.332
       0.347
       0.346
       0.331
       0.307
       0.273
       0.232
       0.191
       0.158
       0.137
       0.123
       0.108
       0.087
       0.060
       0.031
       0.002
      -0.027
      -0.055
      -0.078
      -0.089
      -0.086
      -0.070
      -0.052
      -0.036
      -0.029
      -0.030
      -0.037
      -0.042
      -0.041
      -0.032
      -0.022
      -0.016
      -0.015
      -0.016
      -0.016
      -0.012
      -0.004
       0.011
       0.033
       0.059
       0.084
       0.102
       0.109
       0.105
       0.096
       0.086
       0.079
       0.074
       0.072
       0.077
       0.093
       0.119
       0.146
       0.165
       0.169
       0.160
       0.146
       0.129
       0.112
       0.097
       0.087
       0.082
       0.080
       0.070
       0.045
       0.002
      -0.056
      -0.125
      -0.197
      -0.265
      -0.324
      -0.368
      -0.391
      -0.392
      -0.372
      -0.336
      -0.299
      -0.272
      -0.259
      -0.263
      -0.279
      -0.306
      -0.336
      -0.361
      -0.375
      -0.376
      -0.368
      -0.356
      -0.346
      -0.344
      -0.351
      -0.364
      -0.379
      -0.391
      -0.399
      -0.402
      -0.402
      -0.398
      -0.386
      -0.364
      -0.328
      -0.276
      -0.208
      -0.124
      -0.027
       0.079
       0.191
       0.304
       0.412
       0.510
       0.593
       0.660
       0.707
       0.732
       0.735
       0.722
       0.702
       0.679
       0.654
       0.626
       0.594
       0.565
       0.545
       0.532
       0.523
       0.513
       0.502
       0.495
       0.493
       0.493
       0.487
       0.471
       0.439
       0.388
       0.315
       0.223
       0.117
       0.008
      -0.091
      -0.170
      -0.228
      -0.269
      -0.295
      -0.310
      -0.315
      -0.316
      -0.323
      -0.340
      -0.366
      -0.395
      -0.415
      -0.420
      -0.412
      -0.396
      -0.378
      -0.358
      -0.339
      -0.321
      -0.306
      -0.294
      -0.287
      -0.284
      -0.285
      -0.284
      -0.281
      -0.280
      -0.286
      -0.300
      -0.315
      -0.322
      -0.317
      -0.303
      -0.290
      -0.283
      -0.285
      -0.288
      -0.288
      -0.281
      -0.267
      -0.246
      -0.221
      -0.198
      -0.184
      -0.181
      -0.189
      -0.203
      -0.214
      -0.220
      -0.218
      -0.206
      -0.175
      -0.120
      -0.044
       0.046
       0.141
       0.237
       0.327
       0.405
       0.463
       0.499
       0.518
       0.529
       0.539
       0.551
       0.563
       0.570
       0.572
       0.569
       0.561
       0.548
       0.525
       0.490
       0.444
       0.399
       0.363
       0.342
       0.333
       0.328
       0.327
       0.331
       0.342
       0.354
       0.357
       0.346
       0.321
       0.287
       0.254
       0.228
       0.213
       0.210
       0.214
       0.216
       0.208
       0.181
       0.138
       0.084
       0.028
      -0.022
      -0.067
      -0.106
      -0.139
      -0.161
      -0.165
      -0.147
      -0.117
      -0.090
      -0.077
      -0.084
      -0.107
      -0.137
      -0.165
      -0.183
      -0.188
      -0.184
      -0.174
      -0.160
      -0.146
      -0.133
      -0.124
      -0.121
      -0.123
      -0.129
      -0.135
      -0.139
      -0.138
      -0.131
      -0.116
      -0.094
      -0.070
      -0.051
      -0.042
      -0.047
      -0.070
      -0.110
      -0.160
      -0.204
      -0.230
      -0.232
      -0.215
      -0.192
      -0.169
      -0.151
      -0.133
      -0.113
      -0.090
      -0.068
      -0.046
      -0.022
       0.006
       0.040
       0.079
       0.114
       0.136
       0.140
       0.124
       0.091
       0.043
      -0.021
      -0.100
      -0.188
      -0.281
      -0.374
      -0.462
      -0.543
      -0.614
      -0.668
      -0.700
      -0.710
      -0.700
      -0.673
      -0.631
      -0.571
      -0.499
      -0.426
      -0.362
      -0.312
      -0.274
      -0.243
      -0.218
      -0.193
      -0.168
      -0.141
      -0.114
      -0.096
      -0.092
      -0.103
      -0.128
      -0.160
      -0.190
      -0.213
      -0.222
      -0.217
      -0.194
      -0.152
      -0.088
      -0.005
       0.089
       0.184
       0.273
       0.352
       0.422
       0.483
       0.537
       0.588
       0.639
       0.689
       0.734
       0.768
       0.791
       0.808
       0.825
       0.845
       0.861
       0.860
       0.835
       0.785
       0.717
       0.639
       0.557
       0.468
       0.372
       0.272
       0.176
       0.089
       0.009
      -0.070
      -0.153
      -0.232
      -0.297
      -0.336
      -0.350
      -0.346
      -0.332
      -0.308
      -0.269
      -0.211
      -0.140
      -0.067
      -0.003
       0.046
       0.076
       0.092
       0.100
       0.102
       0.099
       0.090
       0.075
       0.053
       0.026
      -0.005
      -0.039
      -0.077
      -0.124
      -0.180
      -0.244
      -0.306
      -0.358
      -0.394
      -0.413
      -0.414
      -0.401
      -0.378
      -0.348
      -0.316
      -0.283
      -0.249
      -0.209
      -0.165
      -0.119
      -0.076
      -0.036
       0.003
       0.043
       0.085
       0.126
       0.166
       0.205
       0.245
       0.283
       0.320
       0.355
       0.388
       0.413
       0.424
       0.422
       0.413
       0.402
       0.390
       0.377
       0.364
       0.357
       0.359
       0.367
       0.379
       0.392
       0.409
       0.431
       0.454
       0.476
       0.498
       0.518
       0.533
       0.534
       0.513
       0.463
       0.385
       0.286
       0.175
       0.057
      -0.062
      -0.172
      -0.267
      -0.347
      -0.418
      -0.488
      -0.560
      -0.634
      -0.704
      -0.766
      -0.817
      -0.857
      -0.883
      -0.890
      -0.880
      -0.857
      -0.822
      -0.778
      -0.720
      -0.650
      -0.571
      -0.484
      -0.387
      -0.280
      -0.166
      -0.052
       0.058
       0.164
       0.264
       0.354
       0.424
       0.467
       0.483
       0.478
       0.456
       0.418
       0.359
       0.281
       0.194
       0.113
       0.049
       0.008
      -0.012
      -0.016
      -0.005
       0.021
       0.064
       0.125
       0.196
       0.263
       0.312
       0.337
       0.340
       0.327
       0.303
       0.271
       0.225
       0.165
       0.095
       0.025
      -0.037
      -0.083
      -0.117
      -0.144
      -0.162
      -0.168
      -0.159
      -0.140
      -0.121
      -0.108
      -0.098
      -0.082
      -0.054
      -0.015
       0.025
       0.054
       0.064
       0.053
       0.029
      -0.003
      -0.036
      -0.071
      -0.108
      -0.147
      -0.186
      -0.221
      -0.248
      -0.263
      -0.259
      -0.236
      -0.204
      -0.171
      -0.146
      -0.130
      -0.120
      -0.114
      -0.113
      -0.121
      -0.139
      -0.165
      -0.194
      -0.219
      -0.234
      -0.236
      -0.222
      -0.197
      -0.161
      -0.117
      -0.072
      -0.033
      -0.009
       0.002
       0.006
       0.014
       0.030
       0.052
       0.081
       0.120
       0.175
       0.251
       0.348
       0.459
       0.576
       0.691
       0.799
       0.895
       0.971
       1.021
       1.034
       1.001
       0.924
       0.817
       0.695
       0.570
       0.442
       0.310
       0.179
       0.062
      -0.030
      -0.091
      -0.121
      -0.126
      -0.114
      -0.095
      -0.079
      -0.070
      -0.071
      -0.080
      -0.090
      -0.101
      -0.111
      -0.122
      -0.130
      -0.137
      -0.141
      -0.146
      -0.153
      -0.166
      -0.190
      -0.226
      -0.271
      -0.322
      -0.380
      -0.445
      -0.516
      -0.593
      -0.676
      -0.763
      -0.854
      -0.948
      -1.038
      -1.117
      -1.177
      -1.214
      -1.227
      -1.217
      -1.183
      -1.124
      -1.040
      -0.932
      -0.804
      -0.663
      -0.515
      -0.365
      -0.219
      -0.080
       0.048
       0.167
       0.280
       0.386
       0.485
       0.574
       0.656
       0.730
       0.797
       0.852
       0.890
       0.907
       0.900
       0.872
       0.827
       0.765
       0.685
       0.589
       0.486
       0.390
       0.310
       0.246
       0.195
       0.154
       0.127
       0.124
       0.153
       0.215
       0.307
       0.420
       0.542
       0.661
       0.768
       0.858
       0.930
       0.984
       1.017
       1.029
       1.025
       1.010
       0.986
       0.953
       0.910
       0.855
       0.783
       0.689
       0.572
       0.436
       0.288
       0.132
      -0.027
      -0.187
      -0.348
      -0.509
      -0.675
      -0.853
      -1.047
      -1.259
      -1.481
      -1.701
      -1.906
      -2.082
      -2.214
      -2.294
      -2.317
      -2.286
      -2.209
      -2.097
      -1.960
      -1.803
      -1.633
      -1.455
      -1.278
      -1.100
      -0.915
      -0.713
      -0.496
      -0.269
      -0.039
       0.189
       0.413
       0.630
       0.833
       1.015
       1.167
       1.277
       1.336
       1.343
       1.301
       1.220
       1.109
       0.976
       0.829
       0.674
       0.518
       0.369
       0.232
       0.108
      -0.008
      -0.120
      -0.231
      -0.345
      -0.465
      -0.596
      -0.738
      -0.885
      -1.024
      -1.143
      -1.232
      -1.285
      -1.298
      -1.270
      -1.206
      -1.109
      -0.979
      -0.815
      -0.616
      -0.390
      -0.146
       0.101
       0.337
       0.553
       0.744
       0.907
       1.038
       1.137
       1.210
       1.264
       1.298
       1.310
       1.295
       1.257
       1.210
       1.168
       1.142
       1.133
       1.140
       1.159
       1.193
       1.240
       1.298
       1.363
       1.426
       1.479
       1.517
       1.534
       1.531
       1.507
       1.459
       1.383
       1.275
       1.137
       0.969
       0.778
       0.570
       0.355
       0.145
      -0.049
      -0.214
      -0.341
      -0.429
      -0.476
      -0.482
      -0.448
      -0.383
      -0.301
      -0.220
      -0.152
      -0.104
      -0.081
      -0.088
      -0.135
      -0.226
      -0.357
      -0.514
      -0.674
      -0.819
      -0.940
      -1.032
      -1.090
      -1.102
      -1.060
      -0.961
      -0.818
      -0.649
      -0.469
      -0.288
      -0.116
       0.037
       0.161
       0.252
       0.310
       0.337
       0.338
       0.314
       0.269
       0.207
       0.136
       0.064
      -0.003
      -0.066
      -0.131
      -0.204
      -0.288
      -0.385
      -0.493
      -0.617
      -0.755
      -0.902
      -1.054
      -1.205
      -1.360
      -1.521
      -1.689
      -1.861
      -2.026
      -2.171
      -2.281
      -2.350
      -2.379
      -2.375
      -2.342
      -2.287
      -2.213
      -2.123
      -2.020
      -1.909
      -1.788
      -1.655
      -1.500
      -1.317
      -1.103
      -0.860
      -0.590
      -0.298
       0.008
       0.319
       0.623
       0.910
       1.169
       1.394
       1.581
       1.727
       1.827
       1.877
       1.872
       1.815
       1.706
       1.550
       1.351
       1.122
       0.881
       0.651
       0.452
       0.294
       0.182
       0.112
       0.078
       0.070
       0.076
       0.095
       0.128
       0.177
       0.235
       0.293
       0.348
       0.399
       0.450
       0.502
       0.559
       0.628
       0.717
       0.831
       0.966
       1.118
       1.283
       1.460
       1.649
       1.839
       2.013
       2.152
       2.242
       2.280
       2.270
       2.224
       2.157
       2.083
       2.006
       1.926
       1.838
       1.741
       1.636
       1.518
       1.380
       1.217
       1.035
       0.849
       0.671
       0.506
       0.350
       0.198
       0.053
      -0.072
      -0.167
      -0.228
      -0.260
      -0.279
      -0.298
      -0.323
      -0.354
      -0.388
      -0.432
      -0.491
      -0.569
      -0.665
      -0.779
      -0.911
      -1.068
      -1.253
      -1.462
      -1.681
      -1.894
      -2.086
      -2.254
      -2.399
      -2.520
      -2.610
      -2.660
      -2.661
      -2.611
      -2.517
      -2.394
      -2.255
      -2.109
      -1.960
      -1.814
      -1.684
      -1.584
      -1.525
      -1.508
      -1.523
      -1.558
      -1.607
      -1.665
      -1.729
      -1.793
      -1.843
      -1.861
      -1.826
      -1.722
      -1.543
      -1.292
      -0.976
      -0.600
      -0.172
       0.292
       0.772
       1.246
       1.696
       2.114
       2.492
       2.825
       3.099
       3.302
       3.426
       3.474
       3.451
       3.367
       3.230
       3.049
       2.836
       2.607
       2.379
       2.162
       1.963
       1.784
       1.625
       1.487
       1.371
       1.276
       1.195
       1.120
       1.041
       0.952
       0.853
       0.747
       0.633
       0.511
       0.381
       0.251
       0.131
       0.029
      -0.056
      -0.130
      -0.204
      -0.282
      -0.368
      -0.464
      -0.576
      -0.709
      -0.858
      -1.014
      -1.162
      -1.292
      -1.402
      -1.490
      -1.557
      -1.598
      -1.610
      -1.595
      -1.560
      -1.515
      -1.464
      -1.408
      -1.346
      -1.278
      -1.207
      -1.130
      -1.041
      -0.937
      -0.816
      -0.681
      -0.537
      -0.388
      -0.235
      -0.079
       0.083
       0.244
       0.396
       0.522
       0.610
       0.654
       0.655
       0.616
       0.534
       0.406
       0.234
       0.028
      -0.196
      -0.425
      -0.646
      -0.854
      -1.044
      -1.216
      -1.366
      -1.490
      -1.589
      -1.662
      -1.712
      -1.738
      -1.740
      -1.716
      -1.663
      -1.578
      -1.464
      -1.331
      -1.192
      -1.059
      -0.940
      -0.843
      -0.771
      -0.729
      -0.717
      -0.736
      -0.779
      -0.839
      -0.904
      -0.965
      -1.018
      -1.059
      -1.084
      -1.085
      -1.056
      -0.993
      -0.898
      -0.770
      -0.612
      -0.419
      -0.188
       0.082
       0.391
       0.735
       1.105
       1.485
       1.860
       2.210
       2.519
       2.771
       2.962
       3.095
       3.174
       3.203
       3.180
       3.108
       2.998
       2.867
       2.733
       2.607
       2.497
       2.407
       2.339
       2.295
       2.275
       2.281
       2.312
       2.359
       2.403
       2.426
       2.415
       2.370
       2.298
       2.204
       2.091
       1.958
       1.807
       1.638
       1.453
       1.250
       1.033
       0.804
       0.564
       0.316
       0.064
      -0.183
      -0.419
      -0.636
      -0.831
      -0.998
      -1.128
      -1.214
      -1.254
      -1.253
      -1.214
      -1.144
      -1.049
      -0.943
      -0.838
      -0.746
      -0.673
      -0.620
      -0.587
      -0.574
      -0.578
      -0.592
      -0.610
      -0.626
      -0.641
      -0.655
      -0.668
      -0.673
      -0.659
      -0.616
      -0.540
      -0.434
      -0.305
      -0.161
      -0.016
       0.115
       0.214
       0.264
       0.256
       0.183
       0.042
      -0.167
      -0.441
      -0.772
      -1.149
      -1.551
      -1.954
      -2.332
      -2.663
      -2.927
      -3.116
      -3.223
      -3.251
      -3.202
      -3.082
      -2.901
      -2.677
      -2.427
      -2.167
      -1.906
      -1.650
      -1.402
      -1.167
      -0.946
      -0.738
      -0.540
      -0.352
      -0.174
      -0.008
       0.145
       0.287
       0.418
       0.534
       0.624
       0.672
       0.663
       0.592
       0.460
       0.281
       0.076
      -0.135
      -0.337
      -0.520
      -0.677
      -0.802
      -0.885
      -0.910
      -0.862
      -0.734
      -0.532
      -0.277
       0.010
       0.310
       0.611
       0.899
       1.159
       1.364
       1.490
       1.518
       1.452
       1.310
       1.122
       0.911
       0.691
       0.478
       0.289
       0.145
       0.062
       0.039
       0.063
       0.116
       0.189
       0.283
       0.403
       0.547
       0.701
       0.843
       0.960
       1.052
       1.130
       1.198
       1.254
       1.289
       1.301
       1.297
       1.285
       1.264
       1.223
       1.150
       1.041
       0.902
       0.743
       0.569
       0.381
       0.183
      -0.014
      -0.191
      -0.331
      -0.428
      -0.488
      -0.523
      -0.541
      -0.541
      -0.521
      -0.478
      -0.413
      -0.334
      -0.254
      -0.179
      -0.109
      -0.042
       0.020
       0.065
       0.078
       0.049
      -0.020
      -0.115
      -0.217
      -0.313
      -0.399
      -0.472
      -0.526
      -0.552
      -0.544
      -0.509
      -0.461
      -0.417
      -0.380
      -0.351
      -0.324
      -0.294
      -0.250
      -0.184
      -0.083
       0.059
       0.241
       0.456
       0.696
       0.957
       1.235
       1.521
       1.795
       2.039
       2.236
       2.380
       2.468
       2.494
       2.443
       2.299
       2.054
       1.713
       1.292
       0.812
       0.301
      -0.208
      -0.685
      -1.104
      -1.451
      -1.719
      -1.906
      -2.023
      -2.088
      -2.120
      -2.139
      -2.152
      -2.162
      -2.167
      -2.166
      -2.158
      -2.140
      -2.113
      -2.082
      -2.049
      -2.014
      -1.966
      -1.898
      -1.802
      -1.681
      -1.535
      -1.365
      -1.173
      -0.964
      -0.753
      -0.556
      -0.386
      -0.249
      -0.144
      -0.067
      -0.013
       0.019
       0.036
       0.053
       0.087
       0.153
       0.258
       0.398
       0.565
       0.750
       0.945
       1.146
       1.347
       1.544
       1.727
       1.884
       2.002
       2.070
       2.087
       2.058
       1.992
       1.902
       1.797
       1.684
       1.573
       1.475
       1.400
       1.356
       1.346
       1.365
       1.398
       1.426
       1.424
       1.374
       1.262
       1.077
       0.815
       0.484
       0.104
      -0.298
      -0.701
      -1.088
      -1.447
      -1.765
      -2.024
      -2.212
      -2.318
      -2.339
      -2.279
      -2.147
      -1.948
      -1.688
      -1.376
      -1.029
      -0.672
      -0.327
      -0.006
       0.285
       0.544
